[
    {
        "Postcode": "71000",
        "Location": "Andrappan Block",
        "Post_Office": "Port Dickson",
        "State": "Negeri Sembilan"
    },
    {
        "Postcode": "71000",
        "Location": "Arkid Mara",
        "Post_Office": "Port Dickson",
        "State": "Negeri Sembilan"
    },
    {
        "Postcode": "71000",
        "Location": "Ayer Meleleh",
        "Post_Office": "Port Dickson",
        "State": "Negeri Sembilan"
    },
    {
        "Postcode": "71000",
        "Location": "Bukit Tuan Sheikh",
        "Post_Office": "Port Dickson",
        "State": "Negeri Sembilan"
    },
    {
        "Postcode": "71000",
        "Location": "Ginder Singh Block",
        "Post_Office": "Port Dickson",
        "State": "Negeri Sembilan"
    },
    {
        "Postcode": "71000",
        "Location": "Goh San Block",
        "Post_Office": "Port Dickson",
        "State": "Negeri Sembilan"
    },
    {
        "Postcode": "71000",
        "Location": "Kampung Arab",
        "Post_Office": "Port Dickson",
        "State": "Negeri Sembilan"
    },
    {
        "Postcode": "71000",
        "Location": "Kampung Bagan Pinang",
        "Post_Office": "Port Dickson",
        "State": "Negeri Sembilan"
    },
    {
        "Postcode": "71000",
        "Location": "Kampung Bagan Pinang Batu 2 1/2",
        "Post_Office": "Port Dickson",
        "State": "Negeri Sembilan"
    },
    {
        "Postcode": "71000",
        "Location": "Kampung Chokra",
        "Post_Office": "Port Dickson",
        "State": "Negeri Sembilan"
    },
    {
        "Postcode": "71000",
        "Location": "Kampung Dhoby",
        "Post_Office": "Port Dickson",
        "State": "Negeri Sembilan"
    },
    {
        "Postcode": "71000",
        "Location": "Kampung Gelam",
        "Post_Office": "Port Dickson",
        "State": "Negeri Sembilan"
    },
    {
        "Postcode": "71000",
        "Location": "Kampung Gopal Raju",
        "Post_Office": "Port Dickson",
        "State": "Negeri Sembilan"
    },
    {
        "Postcode": "71000",
        "Location": "Kampung Hailam",
        "Post_Office": "Port Dickson",
        "State": "Negeri Sembilan"
    },
    {
        "Postcode": "71000",
        "Location": "Kampung Melayu",
        "Post_Office": "Port Dickson",
        "State": "Negeri Sembilan"
    },
    {
        "Postcode": "71000",
        "Location": "Kampung Raja Hitam",
        "Post_Office": "Port Dickson",
        "State": "Negeri Sembilan"
    },
    {
        "Postcode": "71000",
        "Location": "Kampung Teck Lin",
        "Post_Office": "Port Dickson",
        "State": "Negeri Sembilan"
    },
    {
        "Postcode": "71000",
        "Location": "Kompleks Pendidikan Sentosa Jalan Pantai",
        "Post_Office": "Port Dickson",
        "State": "Negeri Sembilan"
    },
    {
        "Postcode": "71000",
        "Location": "Kompleks Pendidikan Sri Pinang Jalan Pantai",
        "Post_Office": "Port Dickson",
        "State": "Negeri Sembilan"
    },
    {
        "Postcode": "71000",
        "Location": "Ladang Mann",
        "Post_Office": "Port Dickson",
        "State": "Negeri Sembilan"
    },
    {
        "Postcode": "71000",
        "Location": "Ladang Port Dickson Lukut",
        "Post_Office": "Port Dickson",
        "State": "Negeri Sembilan"
    },
    {
        "Postcode": "71000",
        "Location": "Ladang St Leonard",
        "Post_Office": "Port Dickson",
        "State": "Negeri Sembilan"
    },
    {
        "Postcode": "71000",
        "Location": "Ladang Tanah Merah",
        "Post_Office": "Port Dickson",
        "State": "Negeri Sembilan"
    },
    {
        "Postcode": "71000",
        "Location": "Port Dickson",
        "Post_Office": "Port Dickson",
        "State": "Negeri Sembilan"
    },
    {
        "Postcode": "71000",
        "Location": "Quarters Pegawai Kanan Tnb Batu 1 1/2 Jalan Pantai",
        "Post_Office": "Port Dickson",
        "State": "Negeri Sembilan"
    },
    {
        "Postcode": "71000",
        "Location": "Quarters Tnb Kampung Gelam Jalan Seremban",
        "Post_Office": "Port Dickson",
        "State": "Negeri Sembilan"
    },
    {
        "Postcode": "71000",
        "Location": "Shell Garden",
        "Post_Office": "Port Dickson",
        "State": "Negeri Sembilan"
    },
    {
        "Postcode": "71000",
        "Location": "Simpang Ampat",
        "Post_Office": "Port Dickson",
        "State": "Negeri Sembilan"
    },
    {
        "Postcode": "71000",
        "Location": "Taman Bakti Ii",
        "Post_Office": "Port Dickson",
        "State": "Negeri Sembilan"
    },
    {
        "Postcode": "71000",
        "Location": "Taman Bukit Samudera Baru",
        "Post_Office": "Port Dickson",
        "State": "Negeri Sembilan"
    },
    {
        "Postcode": "71000",
        "Location": "Taman Bukit Samudra",
        "Post_Office": "Port Dickson",
        "State": "Negeri Sembilan"
    },
    {
        "Postcode": "71000",
        "Location": "Taman Bukit Tuan Sheikh",
        "Post_Office": "Port Dickson",
        "State": "Negeri Sembilan"
    },
    {
        "Postcode": "71000",
        "Location": "Taman Desa Pinang",
        "Post_Office": "Port Dickson",
        "State": "Negeri Sembilan"
    },
    {
        "Postcode": "71000",
        "Location": "Taman Desa Setia Jalan Pantai",
        "Post_Office": "Port Dickson",
        "State": "Negeri Sembilan"
    },
    {
        "Postcode": "71000",
        "Location": "Taman Eksklusif",
        "Post_Office": "Port Dickson",
        "State": "Negeri Sembilan"
    },
    {
        "Postcode": "71000",
        "Location": "Taman Flora",
        "Post_Office": "Port Dickson",
        "State": "Negeri Sembilan"
    },
    {
        "Postcode": "71000",
        "Location": "Taman Gelam",
        "Post_Office": "Port Dickson",
        "State": "Negeri Sembilan"
    },
    {
        "Postcode": "71000",
        "Location": "Taman Indah Desa",
        "Post_Office": "Port Dickson",
        "State": "Negeri Sembilan"
    },
    {
        "Postcode": "71000",
        "Location": "Taman Indah Emas",
        "Post_Office": "Port Dickson",
        "State": "Negeri Sembilan"
    },
    {
        "Postcode": "71000",
        "Location": "Taman Kian Yap",
        "Post_Office": "Port Dickson",
        "State": "Negeri Sembilan"
    },
    {
        "Postcode": "71000",
        "Location": "Taman Kiara",
        "Post_Office": "Port Dickson",
        "State": "Negeri Sembilan"
    },
    {
        "Postcode": "71000",
        "Location": "Taman Koperasi Setia",
        "Post_Office": "Port Dickson",
        "State": "Negeri Sembilan"
    },
    {
        "Postcode": "71000",
        "Location": "Taman Mewah",
        "Post_Office": "Port Dickson",
        "State": "Negeri Sembilan"
    },
    {
        "Postcode": "71000",
        "Location": "Taman Minang",
        "Post_Office": "Port Dickson",
        "State": "Negeri Sembilan"
    },
    {
        "Postcode": "71000",
        "Location": "Taman Negeri Baru",
        "Post_Office": "Port Dickson",
        "State": "Negeri Sembilan"
    },
    {
        "Postcode": "71000",
        "Location": "Taman Nesa",
        "Post_Office": "Port Dickson",
        "State": "Negeri Sembilan"
    },
    {
        "Postcode": "71000",
        "Location": "Taman Nlfcs",
        "Post_Office": "Port Dickson",
        "State": "Negeri Sembilan"
    },
    {
        "Postcode": "71000",
        "Location": "Taman Pantai Mas",
        "Post_Office": "Port Dickson",
        "State": "Negeri Sembilan"
    },
    {
        "Postcode": "71000",
        "Location": "Taman Pd Mewah",
        "Post_Office": "Port Dickson",
        "State": "Negeri Sembilan"
    },
    {
        "Postcode": "71000",
        "Location": "Taman Pd Suria",
        "Post_Office": "Port Dickson",
        "State": "Negeri Sembilan"
    },
    {
        "Postcode": "71000",
        "Location": "Taman Pd Sutera",
        "Post_Office": "Port Dickson",
        "State": "Negeri Sembilan"
    },
    {
        "Postcode": "71000",
        "Location": "Taman Pd Utama",
        "Post_Office": "Port Dickson",
        "State": "Negeri Sembilan"
    },
    {
        "Postcode": "71000",
        "Location": "Taman Pendang",
        "Post_Office": "Port Dickson",
        "State": "Negeri Sembilan"
    },
    {
        "Postcode": "71000",
        "Location": "Taman Perdana",
        "Post_Office": "Port Dickson",
        "State": "Negeri Sembilan"
    },
    {
        "Postcode": "71000",
        "Location": "Taman Persiaran Kurau",
        "Post_Office": "Port Dickson",
        "State": "Negeri Sembilan"
    },
    {
        "Postcode": "71000",
        "Location": "Taman Putri",
        "Post_Office": "Port Dickson",
        "State": "Negeri Sembilan"
    },
    {
        "Postcode": "71000",
        "Location": "Taman Samudra",
        "Post_Office": "Port Dickson",
        "State": "Negeri Sembilan"
    },
    {
        "Postcode": "71000",
        "Location": "Taman Sea View",
        "Post_Office": "Port Dickson",
        "State": "Negeri Sembilan"
    },
    {
        "Postcode": "71000",
        "Location": "Taman Sukaria",
        "Post_Office": "Port Dickson",
        "State": "Negeri Sembilan"
    },
    {
        "Postcode": "71000",
        "Location": "Taman Tanjong",
        "Post_Office": "Port Dickson",
        "State": "Negeri Sembilan"
    },
    {
        "Postcode": "71000",
        "Location": "Taman Tanjong Fasa Ii",
        "Post_Office": "Port Dickson",
        "State": "Negeri Sembilan"
    },
    {
        "Postcode": "71000",
        "Location": "Taman Tanjong Fasa Iii",
        "Post_Office": "Port Dickson",
        "State": "Negeri Sembilan"
    },
    {
        "Postcode": "71000",
        "Location": "Taman Tanjong Fasa Iv",
        "Post_Office": "Port Dickson",
        "State": "Negeri Sembilan"
    },
    {
        "Postcode": "71000",
        "Location": "Tan Book Kwee Block",
        "Post_Office": "Port Dickson",
        "State": "Negeri Sembilan"
    },
    {
        "Postcode": "71000",
        "Location": "Tan Liew Block",
        "Post_Office": "Port Dickson",
        "State": "Negeri Sembilan"
    },
    {
        "Postcode": "71000",
        "Location": "Taman Lagenda",
        "Post_Office": "Port Dickson",
        "State": "Negeri Sembilan"
    },
    {
        "Postcode": "71000",
        "Location": "Taman Sri Bandar",
        "Post_Office": "Port Dickson",
        "State": "Negeri Sembilan"
    },
    {
        "Postcode": "71000",
        "Location": "Taman Sri Bayu",
        "Post_Office": "Port Dickson",
        "State": "Negeri Sembilan"
    },
    {
        "Postcode": "71000",
        "Location": "Taman Sri Tanjong",
        "Post_Office": "Port Dickson",
        "State": "Negeri Sembilan"
    },
    {
        "Postcode": "71000",
        "Location": "Taman Pd Paya Perdana",
        "Post_Office": "Port Dickson",
        "State": "Negeri Sembilan"
    },
    {
        "Postcode": "71000",
        "Location": "Kampung Paya",
        "Post_Office": "Port Dickson",
        "State": "Negeri Sembilan"
    },
    {
        "Postcode": "71000",
        "Location": "Taman Damai",
        "Post_Office": "Port Dickson",
        "State": "Negeri Sembilan"
    },
    {
        "Postcode": "71000",
        "Location": "Taman Desa Permai",
        "Post_Office": "Port Dickson",
        "State": "Negeri Sembilan"
    },
    {
        "Postcode": "71000",
        "Location": "Taman Megah",
        "Post_Office": "Port Dickson",
        "State": "Negeri Sembilan"
    },
    {
        "Postcode": "71000",
        "Location": "Taman Muhibbah",
        "Post_Office": "Port Dickson",
        "State": "Negeri Sembilan"
    },
    {
        "Postcode": "71000",
        "Location": "Taman Putra",
        "Post_Office": "Port Dickson",
        "State": "Negeri Sembilan"
    },
    {
        "Postcode": "71000",
        "Location": "Taman Ria",
        "Post_Office": "Port Dickson",
        "State": "Negeri Sembilan"
    },
    {
        "Postcode": "71000",
        "Location": "Taman Sejahtera",
        "Post_Office": "Port Dickson",
        "State": "Negeri Sembilan"
    },
    {
        "Postcode": "71000",
        "Location": "Taman Selasih",
        "Post_Office": "Port Dickson",
        "State": "Negeri Sembilan"
    },
    {
        "Postcode": "71000",
        "Location": "Taman Seroja",
        "Post_Office": "Port Dickson",
        "State": "Negeri Sembilan"
    },
    {
        "Postcode": "71000",
        "Location": "Kampung Benggali",
        "Post_Office": "Port Dickson",
        "State": "Negeri Sembilan"
    },
    {
        "Postcode": "71000",
        "Location": "Kampung Cina",
        "Post_Office": "Port Dickson",
        "State": "Negeri Sembilan"
    },
    {
        "Postcode": "71000",
        "Location": "Taman Kiara 2",
        "Post_Office": "Port Dickson",
        "State": "Negeri Sembilan"
    },
    {
        "Postcode": "71000",
        "Location": "Taman Bukit Orkid",
        "Post_Office": "Port Dickson",
        "State": "Negeri Sembilan"
    },
    {
        "Postcode": "71000",
        "Location": "Four Sea Garden",
        "Post_Office": "Port Dickson",
        "State": "Negeri Sembilan"
    },
    {
        "Postcode": "71000",
        "Location": "Taman Perumahan Rakyat Kampung Paya ",
        "Post_Office": "Port Dickson",
        "State": "Negeri Sembilan"
    },
    {
        "Postcode": "71000",
        "Location": "Taman Mikamas",
        "Post_Office": "Port Dickson",
        "State": "Negeri Sembilan"
    },
    {
        "Postcode": "71000",
        "Location": "Taman Negeri Indah",
        "Post_Office": "Port Dickson",
        "State": "Negeri Sembilan"
    },
    {
        "Postcode": "71000",
        "Location": "Happy Garden",
        "Post_Office": "Port Dickson",
        "State": "Negeri Sembilan"
    },
    {
        "Postcode": "71000",
        "Location": "Taman Seri Kenangan",
        "Post_Office": "Port Dickson",
        "State": "Negeri Sembilan"
    },
    {
        "Postcode": "71000",
        "Location": "Taman Sri Intan",
        "Post_Office": "Port Dickson",
        "State": "Negeri Sembilan"
    },
    {
        "Postcode": "71000",
        "Location": "Taman Orkid",
        "Post_Office": "Port Dickson",
        "State": "Negeri Sembilan"
    },
    {
        "Postcode": "71000",
        "Location": "Taman Pertama",
        "Post_Office": "Port Dickson",
        "State": "Negeri Sembilan"
    },
    {
        "Postcode": "71000",
        "Location": "Taman Sri Mawar ",
        "Post_Office": "Port Dickson",
        "State": "Negeri Sembilan"
    },
    {
        "Postcode": "71000",
        "Location": "Jalan Shell",
        "Post_Office": "Port Dickson",
        "State": "Negeri Sembilan"
    },
    {
        "Postcode": "71000",
        "Location": "Pd Waterfront",
        "Post_Office": "Port Dickson",
        "State": "Negeri Sembilan"
    },
    {
        "Postcode": "71000",
        "Location": "Taman Pd Idaman",
        "Post_Office": "Port Dickson",
        "State": "Negeri Sembilan"
    },
    {
        "Postcode": "71000",
        "Location": "Tan Toh Guan Block",
        "Post_Office": "Port Dickson",
        "State": "Negeri Sembilan"
    },
    {
        "Postcode": "71000",
        "Location": "Tanjung Gemok",
        "Post_Office": "Port Dickson",
        "State": "Negeri Sembilan"
    },
    {
        "Postcode": "71000",
        "Location": "Tanjung Kemuning",
        "Post_Office": "Port Dickson",
        "State": "Negeri Sembilan"
    },
    {
        "Postcode": "71000",
        "Location": "Tong Seng Block",
        "Post_Office": "Port Dickson",
        "State": "Negeri Sembilan"
    },
    {
        "Postcode": "71000",
        "Location": "Taman Tuan Sheikh",
        "Post_Office": "Port Dickson",
        "State": "Negeri Sembilan"
    }
]
