[
    {
        "Postcode": "71010",
        "Location": "Taman Bunga Raya",
        "Post_Office": "Port Dickson",
        "State": "Negeri Sembilan"
    },
    {
        "Postcode": "71010",
        "Location": "Taman Sentosa",
        "Post_Office": "Port Dickson",
        "State": "Negeri Sembilan"
    },
    {
        "Postcode": "71010",
        "Location": "Taman Jaya",
        "Post_Office": "Port Dickson",
        "State": "Negeri Sembilan"
    },
    {
        "Postcode": "71010",
        "Location": "Taman Sri Aman",
        "Post_Office": "Port Dickson",
        "State": "Negeri Sembilan"
    },
    {
        "Postcode": "71010",
        "Location": "Taman Wawasan",
        "Post_Office": "Port Dickson",
        "State": "Negeri Sembilan"
    },
    {
        "Postcode": "71010",
        "Location": "Bandar Dataran Segar",
        "Post_Office": "Port Dickson",
        "State": "Negeri Sembilan"
    },
    {
        "Postcode": "71010",
        "Location": "Kampung Kuala Lukut",
        "Post_Office": "Port Dickson",
        "State": "Negeri Sembilan"
    },
    {
        "Postcode": "71010",
        "Location": "Taman Astana Harmoni",
        "Post_Office": "Port Dickson",
        "State": "Negeri Sembilan"
    },
    {
        "Postcode": "71010",
        "Location": "Taman Bandar Baru Lukut Jaya",
        "Post_Office": "Port Dickson",
        "State": "Negeri Sembilan"
    },
    {
        "Postcode": "71010",
        "Location": "Taman Vista Jaya",
        "Post_Office": "Port Dickson",
        "State": "Negeri Sembilan"
    },
    {
        "Postcode": "71010",
        "Location": "Bandar Baru Lukut",
        "Post_Office": "Port Dickson",
        "State": "Negeri Sembilan"
    },
    {
        "Postcode": "71010",
        "Location": "Bandar Spring Hill",
        "Post_Office": "Port Dickson",
        "State": "Negeri Sembilan"
    },
    {
        "Postcode": "71010",
        "Location": "Bandar Spring Hill Fasa 2",
        "Post_Office": "Port Dickson",
        "State": "Negeri Sembilan"
    },
    {
        "Postcode": "71010",
        "Location": "Bandar Spring Hill Fasa 3",
        "Post_Office": "Port Dickson",
        "State": "Negeri Sembilan"
    },
    {
        "Postcode": "71010",
        "Location": "Bandar Spring Hill Fasa 4",
        "Post_Office": "Port Dickson",
        "State": "Negeri Sembilan"
    },
    {
        "Postcode": "71010",
        "Location": "Kampung Bukit Palong",
        "Post_Office": "Port Dickson",
        "State": "Negeri Sembilan"
    },
    {
        "Postcode": "71010",
        "Location": "Kampung Parit Gila",
        "Post_Office": "Port Dickson",
        "State": "Negeri Sembilan"
    },
    {
        "Postcode": "71010",
        "Location": "Kampung Sungai Sendayan",
        "Post_Office": "Port Dickson",
        "State": "Negeri Sembilan"
    },
    {
        "Postcode": "71010",
        "Location": "Kompleks Pendidikan Guru",
        "Post_Office": "Port Dickson",
        "State": "Negeri Sembilan"
    },
    {
        "Postcode": "71010",
        "Location": "Lukut",
        "Post_Office": "Port Dickson",
        "State": "Negeri Sembilan"
    },
    {
        "Postcode": "71010",
        "Location": "Taman Aman",
        "Post_Office": "Port Dickson",
        "State": "Negeri Sembilan"
    },
    {
        "Postcode": "71010",
        "Location": "Taman Desaru",
        "Post_Office": "Port Dickson",
        "State": "Negeri Sembilan"
    },
    {
        "Postcode": "71010",
        "Location": "Taman Indah Baru",
        "Post_Office": "Port Dickson",
        "State": "Negeri Sembilan"
    },
    {
        "Postcode": "71010",
        "Location": "Taman Indah Jaya",
        "Post_Office": "Port Dickson",
        "State": "Negeri Sembilan"
    },
    {
        "Postcode": "71010",
        "Location": "Taman Industri",
        "Post_Office": "Port Dickson",
        "State": "Negeri Sembilan"
    },
    {
        "Postcode": "71010",
        "Location": "Taman Jaya Lukut",
        "Post_Office": "Port Dickson",
        "State": "Negeri Sembilan"
    },
    {
        "Postcode": "71010",
        "Location": "Taman Lukut",
        "Post_Office": "Port Dickson",
        "State": "Negeri Sembilan"
    },
    {
        "Postcode": "71010",
        "Location": "Taman Lukut Permai",
        "Post_Office": "Port Dickson",
        "State": "Negeri Sembilan"
    },
    {
        "Postcode": "71010",
        "Location": "Taman Pd Jaya",
        "Post_Office": "Port Dickson",
        "State": "Negeri Sembilan"
    },
    {
        "Postcode": "71010",
        "Location": "Taman Seri Jimah",
        "Post_Office": "Port Dickson",
        "State": "Negeri Sembilan"
    },
    {
        "Postcode": "71010",
        "Location": "Taman Sri Lukut",
        "Post_Office": "Port Dickson",
        "State": "Negeri Sembilan"
    },
    {
        "Postcode": "71010",
        "Location": "Taman Tun Sambanthan",
        "Post_Office": "Port Dickson",
        "State": "Negeri Sembilan"
    },
    {
        "Postcode": "71010",
        "Location": "Taman Cemerlang",
        "Post_Office": "Port Dickson",
        "State": "Negeri Sembilan"
    }
]
