[
    {
        "Postcode": "71050",
        "Location": "Kampung Teluk Kemang",
        "Post_Office": "Si Rusa",
        "State": "Negeri Sembilan"
    },
    {
        "Postcode": "71050",
        "Location": "Ladang Sua Betong",
        "Post_Office": "Si Rusa",
        "State": "Negeri Sembilan"
    },
    {
        "Postcode": "71050",
        "Location": "Ladang Sunggala",
        "Post_Office": "Si Rusa",
        "State": "Negeri Sembilan"
    },
    {
        "Postcode": "71050",
        "Location": "Taman Green View",
        "Post_Office": "Si Rusa",
        "State": "Negeri Sembilan"
    },
    {
        "Postcode": "71050",
        "Location": "Taman Melati",
        "Post_Office": "Si Rusa",
        "State": "Negeri Sembilan"
    },
    {
        "Postcode": "71050",
        "Location": "Kampung Baru Sirusa",
        "Post_Office": "Si Rusa",
        "State": "Negeri Sembilan"
    },
    {
        "Postcode": "71050",
        "Location": "Kampung Orang Asli Sunggala",
        "Post_Office": "Si Rusa",
        "State": "Negeri Sembilan"
    },
    {
        "Postcode": "71050",
        "Location": "Kampung Segenting",
        "Post_Office": "Si Rusa",
        "State": "Negeri Sembilan"
    },
    {
        "Postcode": "71050",
        "Location": "Kampung Telok Pelanduk",
        "Post_Office": "Si Rusa",
        "State": "Negeri Sembilan"
    },
    {
        "Postcode": "71050",
        "Location": "Taman Dato Haji Abdul Samad",
        "Post_Office": "Si Rusa",
        "State": "Negeri Sembilan"
    },
    {
        "Postcode": "71050",
        "Location": "Taman Kausar",
        "Post_Office": "Si Rusa",
        "State": "Negeri Sembilan"
    },
    {
        "Postcode": "71050",
        "Location": "Taman Mekar",
        "Post_Office": "Si Rusa",
        "State": "Negeri Sembilan"
    },
    {
        "Postcode": "71050",
        "Location": "Taman Si Rusa",
        "Post_Office": "Si Rusa",
        "State": "Negeri Sembilan"
    },
    {
        "Postcode": "71050",
        "Location": "Taman Sri Pinang",
        "Post_Office": "Si Rusa",
        "State": "Negeri Sembilan"
    },
    {
        "Postcode": "71050",
        "Location": "Medan Coral",
        "Post_Office": "Si Rusa",
        "State": "Negeri Sembilan"
    },
    {
        "Postcode": "71050",
        "Location": "Bandar Baru Sunggala",
        "Post_Office": "Si Rusa",
        "State": "Negeri Sembilan"
    },
    {
        "Postcode": "71050",
        "Location": "Coco Bay",
        "Post_Office": "Si Rusa",
        "State": "Negeri Sembilan"
    },
    {
        "Postcode": "71050",
        "Location": "Institut Teknologi Kejuruteraan",
        "Post_Office": "Si Rusa",
        "State": "Negeri Sembilan"
    },
    {
        "Postcode": "71050",
        "Location": "Jalan Pantai (Batu 4 - 10)",
        "Post_Office": "Si Rusa",
        "State": "Negeri Sembilan"
    },
    {
        "Postcode": "71050",
        "Location": "Kampung Askot",
        "Post_Office": "Si Rusa",
        "State": "Negeri Sembilan"
    },
    {
        "Postcode": "71050",
        "Location": "Kampung Baru Sunggala",
        "Post_Office": "Si Rusa",
        "State": "Negeri Sembilan"
    },
    {
        "Postcode": "71050",
        "Location": "Kampung Sawah Sunggala",
        "Post_Office": "Si Rusa",
        "State": "Negeri Sembilan"
    },
    {
        "Postcode": "71050",
        "Location": "Kampung Si Rusa",
        "Post_Office": "Si Rusa",
        "State": "Negeri Sembilan"
    },
    {
        "Postcode": "71050",
        "Location": "Kampung Sungai Menyala",
        "Post_Office": "Si Rusa",
        "State": "Negeri Sembilan"
    },
    {
        "Postcode": "71050",
        "Location": "Kem 1 Woksyop Brigade",
        "Post_Office": "Si Rusa",
        "State": "Negeri Sembilan"
    },
    {
        "Postcode": "71050",
        "Location": "Kem Lateda",
        "Post_Office": "Si Rusa",
        "State": "Negeri Sembilan"
    },
    {
        "Postcode": "71050",
        "Location": "Kem Pulamor",
        "Post_Office": "Si Rusa",
        "State": "Negeri Sembilan"
    },
    {
        "Postcode": "71050",
        "Location": "Kem Pusarti",
        "Post_Office": "Si Rusa",
        "State": "Negeri Sembilan"
    },
    {
        "Postcode": "71050",
        "Location": "Kem Pusat Olah Perang",
        "Post_Office": "Si Rusa",
        "State": "Negeri Sembilan"
    },
    {
        "Postcode": "71050",
        "Location": "Kem Sebatang Kara",
        "Post_Office": "Si Rusa",
        "State": "Negeri Sembilan"
    },
    {
        "Postcode": "71050",
        "Location": "Kem Segenting",
        "Post_Office": "Si Rusa",
        "State": "Negeri Sembilan"
    },
    {
        "Postcode": "71050",
        "Location": "Kem Sekolah Pengurusan Tentera Darat",
        "Post_Office": "Si Rusa",
        "State": "Negeri Sembilan"
    },
    {
        "Postcode": "71050",
        "Location": "Kem Sunggala",
        "Post_Office": "Si Rusa",
        "State": "Negeri Sembilan"
    },
    {
        "Postcode": "71050",
        "Location": "Pd Garison",
        "Post_Office": "Si Rusa",
        "State": "Negeri Sembilan"
    },
    {
        "Postcode": "71050",
        "Location": "Resort Laguna",
        "Post_Office": "Si Rusa",
        "State": "Negeri Sembilan"
    },
    {
        "Postcode": "71050",
        "Location": "Resort Sri Bulan",
        "Post_Office": "Si Rusa",
        "State": "Negeri Sembilan"
    },
    {
        "Postcode": "71050",
        "Location": "Si Rusa",
        "Post_Office": "Si Rusa",
        "State": "Negeri Sembilan"
    },
    {
        "Postcode": "71050",
        "Location": "Siginting Estate",
        "Post_Office": "Si Rusa",
        "State": "Negeri Sembilan"
    },
    {
        "Postcode": "71050",
        "Location": "Sua Betong",
        "Post_Office": "Si Rusa",
        "State": "Negeri Sembilan"
    },
    {
        "Postcode": "71050",
        "Location": "Taman Abu Zarim",
        "Post_Office": "Si Rusa",
        "State": "Negeri Sembilan"
    },
    {
        "Postcode": "71050",
        "Location": "Taman Anika",
        "Post_Office": "Si Rusa",
        "State": "Negeri Sembilan"
    },
    {
        "Postcode": "71050",
        "Location": "Taman Baru Kemang",
        "Post_Office": "Si Rusa",
        "State": "Negeri Sembilan"
    },
    {
        "Postcode": "71050",
        "Location": "Taman Bukit Perdana",
        "Post_Office": "Si Rusa",
        "State": "Negeri Sembilan"
    },
    {
        "Postcode": "71050",
        "Location": "Taman Bunga Kertas",
        "Post_Office": "Si Rusa",
        "State": "Negeri Sembilan"
    },
    {
        "Postcode": "71050",
        "Location": "Taman Desa Rusa",
        "Post_Office": "Si Rusa",
        "State": "Negeri Sembilan"
    },
    {
        "Postcode": "71050",
        "Location": "Taman Eastern",
        "Post_Office": "Si Rusa",
        "State": "Negeri Sembilan"
    },
    {
        "Postcode": "71050",
        "Location": "Taman Eastern Fasa 2",
        "Post_Office": "Si Rusa",
        "State": "Negeri Sembilan"
    },
    {
        "Postcode": "71050",
        "Location": "Taman Intan Perdana",
        "Post_Office": "Si Rusa",
        "State": "Negeri Sembilan"
    },
    {
        "Postcode": "71050",
        "Location": "Taman Koperasi Guru",
        "Post_Office": "Si Rusa",
        "State": "Negeri Sembilan"
    },
    {
        "Postcode": "71050",
        "Location": "Taman Minda",
        "Post_Office": "Si Rusa",
        "State": "Negeri Sembilan"
    },
    {
        "Postcode": "71050",
        "Location": "Taman Pantai Port Dickson",
        "Post_Office": "Si Rusa",
        "State": "Negeri Sembilan"
    },
    {
        "Postcode": "71050",
        "Location": "Taman Politeknik",
        "Post_Office": "Si Rusa",
        "State": "Negeri Sembilan"
    },
    {
        "Postcode": "71050",
        "Location": "Taman Selayang",
        "Post_Office": "Si Rusa",
        "State": "Negeri Sembilan"
    },
    {
        "Postcode": "71050",
        "Location": "Taman Sua Betong",
        "Post_Office": "Si Rusa",
        "State": "Negeri Sembilan"
    },
    {
        "Postcode": "71050",
        "Location": "Taman Tiara",
        "Post_Office": "Si Rusa",
        "State": "Negeri Sembilan"
    },
    {
        "Postcode": "71050",
        "Location": "Taman Tkk",
        "Post_Office": "Si Rusa",
        "State": "Negeri Sembilan"
    },
    {
        "Postcode": "71050",
        "Location": "Teluk Kemang",
        "Post_Office": "Si Rusa",
        "State": "Negeri Sembilan"
    },
    {
        "Postcode": "71050",
        "Location": "Taman Orkid",
        "Post_Office": "Si Rusa",
        "State": "Negeri Sembilan"
    }
]
