[
    {
        "Postcode": "71100",
        "Location": "Atherthon Estate",
        "Post_Office": "Rantau",
        "State": "Negeri Sembilan"
    },
    {
        "Postcode": "71100",
        "Location": "Kampung Haji Ali Saga",
        "Post_Office": "Rantau",
        "State": "Negeri Sembilan"
    },
    {
        "Postcode": "71100",
        "Location": "Ladang Jemima",
        "Post_Office": "Rantau",
        "State": "Negeri Sembilan"
    },
    {
        "Postcode": "71100",
        "Location": "Ladang Saga",
        "Post_Office": "Rantau",
        "State": "Negeri Sembilan"
    },
    {
        "Postcode": "71100",
        "Location": "Ladang Sendayan",
        "Post_Office": "Rantau",
        "State": "Negeri Sembilan"
    },
    {
        "Postcode": "71100",
        "Location": "Saga",
        "Post_Office": "Rantau",
        "State": "Negeri Sembilan"
    },
    {
        "Postcode": "71100",
        "Location": "Sungai Sendayan Estate",
        "Post_Office": "Rantau",
        "State": "Negeri Sembilan"
    },
    {
        "Postcode": "71100",
        "Location": "Taman Cemerlang",
        "Post_Office": "Rantau",
        "State": "Negeri Sembilan"
    }
]
