[
    {
        "Postcode": "71150",
        "Location": "Taman Kempas",
        "Post_Office": "Linggi",
        "State": "Negeri Sembilan"
    },
    {
        "Postcode": "71150",
        "Location": "Kampung Pengkalan Durian",
        "Post_Office": "Linggi",
        "State": "Negeri Sembilan"
    },
    {
        "Postcode": "71150",
        "Location": "Kampung Titian Bintangor",
        "Post_Office": "Linggi",
        "State": "Negeri Sembilan"
    },
    {
        "Postcode": "71150",
        "Location": "Pekan Linggi",
        "Post_Office": "Linggi",
        "State": "Negeri Sembilan"
    },
    {
        "Postcode": "71150",
        "Location": "Pekan Pengkalan Kempas",
        "Post_Office": "Linggi",
        "State": "Negeri Sembilan"
    },
    {
        "Postcode": "71150",
        "Location": "Taman Linggi Maju",
        "Post_Office": "Linggi",
        "State": "Negeri Sembilan"
    },
    {
        "Postcode": "71150",
        "Location": "Kampung Air Hitam",
        "Post_Office": "Linggi",
        "State": "Negeri Sembilan"
    },
    {
        "Postcode": "71150",
        "Location": "Kampung Bangsal Atap",
        "Post_Office": "Linggi",
        "State": "Negeri Sembilan"
    },
    {
        "Postcode": "71150",
        "Location": "Kampung Baru Linggi",
        "Post_Office": "Linggi",
        "State": "Negeri Sembilan"
    },
    {
        "Postcode": "71150",
        "Location": "Kampung Baru Nerambai",
        "Post_Office": "Linggi",
        "State": "Negeri Sembilan"
    },
    {
        "Postcode": "71150",
        "Location": "Kampung Baru Semin",
        "Post_Office": "Linggi",
        "State": "Negeri Sembilan"
    },
    {
        "Postcode": "71150",
        "Location": "Kampung Baru Simin",
        "Post_Office": "Linggi",
        "State": "Negeri Sembilan"
    },
    {
        "Postcode": "71150",
        "Location": "Kampung Baru Titian Akar",
        "Post_Office": "Linggi",
        "State": "Negeri Sembilan"
    },
    {
        "Postcode": "71150",
        "Location": "Kampung Bukit Chakong",
        "Post_Office": "Linggi",
        "State": "Negeri Sembilan"
    },
    {
        "Postcode": "71150",
        "Location": "Kampung Haji Yusof",
        "Post_Office": "Linggi",
        "State": "Negeri Sembilan"
    },
    {
        "Postcode": "71150",
        "Location": "Kampung Hulu Semin Baru",
        "Post_Office": "Linggi",
        "State": "Negeri Sembilan"
    },
    {
        "Postcode": "71150",
        "Location": "Kampung Hulu Simin",
        "Post_Office": "Linggi",
        "State": "Negeri Sembilan"
    },
    {
        "Postcode": "71150",
        "Location": "Kampung Kemadak",
        "Post_Office": "Linggi",
        "State": "Negeri Sembilan"
    },
    {
        "Postcode": "71150",
        "Location": "Kampung Kubang Badak",
        "Post_Office": "Linggi",
        "State": "Negeri Sembilan"
    },
    {
        "Postcode": "71150",
        "Location": "Kampung Linggi",
        "Post_Office": "Linggi",
        "State": "Negeri Sembilan"
    },
    {
        "Postcode": "71150",
        "Location": "Kampung Nerambai",
        "Post_Office": "Linggi",
        "State": "Negeri Sembilan"
    },
    {
        "Postcode": "71150",
        "Location": "Kampung Panchang",
        "Post_Office": "Linggi",
        "State": "Negeri Sembilan"
    },
    {
        "Postcode": "71150",
        "Location": "Kampung Pedas Estate",
        "Post_Office": "Linggi",
        "State": "Negeri Sembilan"
    },
    {
        "Postcode": "71150",
        "Location": "Kampung Pengkalan Kempas",
        "Post_Office": "Linggi",
        "State": "Negeri Sembilan"
    },
    {
        "Postcode": "71150",
        "Location": "Kampung Permatang Pasir",
        "Post_Office": "Linggi",
        "State": "Negeri Sembilan"
    },
    {
        "Postcode": "71150",
        "Location": "Kampung Semin",
        "Post_Office": "Linggi",
        "State": "Negeri Sembilan"
    },
    {
        "Postcode": "71150",
        "Location": "Kampung Sungai Radin",
        "Post_Office": "Linggi",
        "State": "Negeri Sembilan"
    },
    {
        "Postcode": "71150",
        "Location": "Kampung Sungai Radin Dalam",
        "Post_Office": "Linggi",
        "State": "Negeri Sembilan"
    },
    {
        "Postcode": "71150",
        "Location": "Kampung Sungai Timun",
        "Post_Office": "Linggi",
        "State": "Negeri Sembilan"
    },
    {
        "Postcode": "71150",
        "Location": "Kampung Sungai Timun Dalam",
        "Post_Office": "Linggi",
        "State": "Negeri Sembilan"
    },
    {
        "Postcode": "71150",
        "Location": "Kampung Tampin Linggi",
        "Post_Office": "Linggi",
        "State": "Negeri Sembilan"
    },
    {
        "Postcode": "71150",
        "Location": "Kampung Tampin Linggi Dalam",
        "Post_Office": "Linggi",
        "State": "Negeri Sembilan"
    },
    {
        "Postcode": "71150",
        "Location": "Kampung Tanah Arab",
        "Post_Office": "Linggi",
        "State": "Negeri Sembilan"
    },
    {
        "Postcode": "71150",
        "Location": "Kampung Titian Bintangor Hulu",
        "Post_Office": "Linggi",
        "State": "Negeri Sembilan"
    },
    {
        "Postcode": "71150",
        "Location": "Kampung Ulu Semin",
        "Post_Office": "Linggi",
        "State": "Negeri Sembilan"
    },
    {
        "Postcode": "71150",
        "Location": "Kampung Yeow Kim Fong",
        "Post_Office": "Linggi",
        "State": "Negeri Sembilan"
    },
    {
        "Postcode": "71150",
        "Location": "Kuala Pedas Estate",
        "Post_Office": "Linggi",
        "State": "Negeri Sembilan"
    },
    {
        "Postcode": "71150",
        "Location": "Ladang Angkok",
        "Post_Office": "Linggi",
        "State": "Negeri Sembilan"
    },
    {
        "Postcode": "71150",
        "Location": "Ladang Bukit Bertam",
        "Post_Office": "Linggi",
        "State": "Negeri Sembilan"
    },
    {
        "Postcode": "71150",
        "Location": "Ladang Kempas",
        "Post_Office": "Linggi",
        "State": "Negeri Sembilan"
    },
    {
        "Postcode": "71150",
        "Location": "Ladang Kuala Pedas",
        "Post_Office": "Linggi",
        "State": "Negeri Sembilan"
    },
    {
        "Postcode": "71150",
        "Location": "Ladang Marlow",
        "Post_Office": "Linggi",
        "State": "Negeri Sembilan"
    },
    {
        "Postcode": "71150",
        "Location": "Ladang Pengkalan Durian",
        "Post_Office": "Linggi",
        "State": "Negeri Sembilan"
    },
    {
        "Postcode": "71150",
        "Location": "Ladang Sungai Baru",
        "Post_Office": "Linggi",
        "State": "Negeri Sembilan"
    },
    {
        "Postcode": "71150",
        "Location": "Ladang Tarzan",
        "Post_Office": "Linggi",
        "State": "Negeri Sembilan"
    },
    {
        "Postcode": "71150",
        "Location": "Ladang Tiong Hoe",
        "Post_Office": "Linggi",
        "State": "Negeri Sembilan"
    },
    {
        "Postcode": "71150",
        "Location": "Rumah Rakyat Lubok China",
        "Post_Office": "Linggi",
        "State": "Negeri Sembilan"
    },
    {
        "Postcode": "71150",
        "Location": "Rumah Rakyat Pengkalan Durian",
        "Post_Office": "Linggi",
        "State": "Negeri Sembilan"
    },
    {
        "Postcode": "71150",
        "Location": "Rumah Rakyat Pengkalan Fasa 2",
        "Post_Office": "Linggi",
        "State": "Negeri Sembilan"
    },
    {
        "Postcode": "71150",
        "Location": "Rumah Rakyat Sungai Timun",
        "Post_Office": "Linggi",
        "State": "Negeri Sembilan"
    },
    {
        "Postcode": "71150",
        "Location": "Sua Manggis",
        "Post_Office": "Linggi",
        "State": "Negeri Sembilan"
    },
    {
        "Postcode": "71150",
        "Location": "Sua Manggis Estate",
        "Post_Office": "Linggi",
        "State": "Negeri Sembilan"
    },
    {
        "Postcode": "71150",
        "Location": "Sungai Baru Estate",
        "Post_Office": "Linggi",
        "State": "Negeri Sembilan"
    },
    {
        "Postcode": "71150",
        "Location": "Taman Linggi",
        "Post_Office": "Linggi",
        "State": "Negeri Sembilan"
    },
    {
        "Postcode": "71150",
        "Location": "Titian Bintangor",
        "Post_Office": "Linggi",
        "State": "Negeri Sembilan"
    },
    {
        "Postcode": "71150",
        "Location": "Titian Bintangor Estate",
        "Post_Office": "Linggi",
        "State": "Negeri Sembilan"
    },
    {
        "Postcode": "71150",
        "Location": "Kampung Titian Akar",
        "Post_Office": "Linggi",
        "State": "Negeri Sembilan"
    }
]
