[
    {
        "Postcode": "71200",
        "Location": "Taman Jed Indah ",
        "Post_Office": "Rantau",
        "State": "Negeri Sembilan"
    },
    {
        "Postcode": "71200",
        "Location": "Jalan Nilam 3",
        "Post_Office": "Rantau",
        "State": "Negeri Sembilan"
    },
    {
        "Postcode": "71200",
        "Location": "Taman Anggerik",
        "Post_Office": "Rantau",
        "State": "Negeri Sembilan"
    },
    {
        "Postcode": "71200",
        "Location": "Taman Baiduri",
        "Post_Office": "Rantau",
        "State": "Negeri Sembilan"
    },
    {
        "Postcode": "71200",
        "Location": "Taman Bunga Raya",
        "Post_Office": "Rantau",
        "State": "Negeri Sembilan"
    },
    {
        "Postcode": "71200",
        "Location": "Taman Cempaka",
        "Post_Office": "Rantau",
        "State": "Negeri Sembilan"
    },
    {
        "Postcode": "71200",
        "Location": "Taman Mutiara",
        "Post_Office": "Rantau",
        "State": "Negeri Sembilan"
    },
    {
        "Postcode": "71200",
        "Location": "Taman Berlian",
        "Post_Office": "Rantau",
        "State": "Negeri Sembilan"
    },
    {
        "Postcode": "71200",
        "Location": "Taman Sri Aman",
        "Post_Office": "Rantau",
        "State": "Negeri Sembilan"
    },
    {
        "Postcode": "71200",
        "Location": "Kampung Pasir",
        "Post_Office": "Rantau",
        "State": "Negeri Sembilan"
    },
    {
        "Postcode": "71200",
        "Location": "Taman Emas Perdana",
        "Post_Office": "Rantau",
        "State": "Negeri Sembilan"
    },
    {
        "Postcode": "71200",
        "Location": "Taman Nesa Delima",
        "Post_Office": "Rantau",
        "State": "Negeri Sembilan"
    },
    {
        "Postcode": "71200",
        "Location": "Bradwall Estate",
        "Post_Office": "Rantau",
        "State": "Negeri Sembilan"
    },
    {
        "Postcode": "71200",
        "Location": "Ladang Guthrie",
        "Post_Office": "Rantau",
        "State": "Negeri Sembilan"
    },
    {
        "Postcode": "71200",
        "Location": "Ladang Salak",
        "Post_Office": "Rantau",
        "State": "Negeri Sembilan"
    },
    {
        "Postcode": "71200",
        "Location": "Ladang Siliau Selatan",
        "Post_Office": "Rantau",
        "State": "Negeri Sembilan"
    },
    {
        "Postcode": "71200",
        "Location": "Pekan Siliau",
        "Post_Office": "Rantau",
        "State": "Negeri Sembilan"
    },
    {
        "Postcode": "71200",
        "Location": "Siliau Estate",
        "Post_Office": "Rantau",
        "State": "Negeri Sembilan"
    },
    {
        "Postcode": "71200",
        "Location": "Rumah Rakyat Kampung Nyatoh",
        "Post_Office": "Rantau",
        "State": "Negeri Sembilan"
    },
    {
        "Postcode": "71200",
        "Location": "Taman Sri Ramai ",
        "Post_Office": "Rantau",
        "State": "Negeri Sembilan"
    },
    {
        "Postcode": "71200",
        "Location": "Taman Sri Ramai 1",
        "Post_Office": "Rantau",
        "State": "Negeri Sembilan"
    },
    {
        "Postcode": "71200",
        "Location": "Taman Sri Ramai 2",
        "Post_Office": "Rantau",
        "State": "Negeri Sembilan"
    },
    {
        "Postcode": "71200",
        "Location": "Pusat Perniagaan Emas",
        "Post_Office": "Rantau",
        "State": "Negeri Sembilan"
    },
    {
        "Postcode": "71200",
        "Location": "Bandar Ekar Rantau",
        "Post_Office": "Rantau",
        "State": "Negeri Sembilan"
    },
    {
        "Postcode": "71200",
        "Location": "Kampung Barisan",
        "Post_Office": "Rantau",
        "State": "Negeri Sembilan"
    },
    {
        "Postcode": "71200",
        "Location": "Kampung Baru Kombok",
        "Post_Office": "Rantau",
        "State": "Negeri Sembilan"
    },
    {
        "Postcode": "71200",
        "Location": "Kampung Baru Rantau",
        "Post_Office": "Rantau",
        "State": "Negeri Sembilan"
    },
    {
        "Postcode": "71200",
        "Location": "Kampung Belangkan",
        "Post_Office": "Rantau",
        "State": "Negeri Sembilan"
    },
    {
        "Postcode": "71200",
        "Location": "Kampung Kanapathy",
        "Post_Office": "Rantau",
        "State": "Negeri Sembilan"
    },
    {
        "Postcode": "71200",
        "Location": "Kampung Kanchong",
        "Post_Office": "Rantau",
        "State": "Negeri Sembilan"
    },
    {
        "Postcode": "71200",
        "Location": "Kampung Kuala Sawah",
        "Post_Office": "Rantau",
        "State": "Negeri Sembilan"
    },
    {
        "Postcode": "71200",
        "Location": "Kampung Linsum",
        "Post_Office": "Rantau",
        "State": "Negeri Sembilan"
    },
    {
        "Postcode": "71200",
        "Location": "Kampung Masjid Solok",
        "Post_Office": "Rantau",
        "State": "Negeri Sembilan"
    },
    {
        "Postcode": "71200",
        "Location": "Kampung Nyatoh",
        "Post_Office": "Rantau",
        "State": "Negeri Sembilan"
    },
    {
        "Postcode": "71200",
        "Location": "Kampung Pasir Mas",
        "Post_Office": "Rantau",
        "State": "Negeri Sembilan"
    },
    {
        "Postcode": "71200",
        "Location": "Kampung Pening",
        "Post_Office": "Rantau",
        "State": "Negeri Sembilan"
    },
    {
        "Postcode": "71200",
        "Location": "Kampung Ribu",
        "Post_Office": "Rantau",
        "State": "Negeri Sembilan"
    },
    {
        "Postcode": "71200",
        "Location": "Kampung Saga",
        "Post_Office": "Rantau",
        "State": "Negeri Sembilan"
    },
    {
        "Postcode": "71200",
        "Location": "Kampung Sega",
        "Post_Office": "Rantau",
        "State": "Negeri Sembilan"
    },
    {
        "Postcode": "71200",
        "Location": "Kampung Sega Hilir",
        "Post_Office": "Rantau",
        "State": "Negeri Sembilan"
    },
    {
        "Postcode": "71200",
        "Location": "Kampung Sega Tengah",
        "Post_Office": "Rantau",
        "State": "Negeri Sembilan"
    },
    {
        "Postcode": "71200",
        "Location": "Kampung Sega Ulu",
        "Post_Office": "Rantau",
        "State": "Negeri Sembilan"
    },
    {
        "Postcode": "71200",
        "Location": "Kampung Setesen",
        "Post_Office": "Rantau",
        "State": "Negeri Sembilan"
    },
    {
        "Postcode": "71200",
        "Location": "Kampung Siliau",
        "Post_Office": "Rantau",
        "State": "Negeri Sembilan"
    },
    {
        "Postcode": "71200",
        "Location": "Kampung Sri Lalang",
        "Post_Office": "Rantau",
        "State": "Negeri Sembilan"
    },
    {
        "Postcode": "71200",
        "Location": "Kampung Takau",
        "Post_Office": "Rantau",
        "State": "Negeri Sembilan"
    },
    {
        "Postcode": "71200",
        "Location": "Kampung Tanjong Rantau",
        "Post_Office": "Rantau",
        "State": "Negeri Sembilan"
    },
    {
        "Postcode": "71200",
        "Location": "Kampung Ulu Belangkan",
        "Post_Office": "Rantau",
        "State": "Negeri Sembilan"
    },
    {
        "Postcode": "71200",
        "Location": "Kampung Ulu Lalang",
        "Post_Office": "Rantau",
        "State": "Negeri Sembilan"
    },
    {
        "Postcode": "71200",
        "Location": "Kampung Ulu Sawah",
        "Post_Office": "Rantau",
        "State": "Negeri Sembilan"
    },
    {
        "Postcode": "71200",
        "Location": "Kombok Estate",
        "Post_Office": "Rantau",
        "State": "Negeri Sembilan"
    },
    {
        "Postcode": "71200",
        "Location": "Kuala Sawah",
        "Post_Office": "Rantau",
        "State": "Negeri Sembilan"
    },
    {
        "Postcode": "71200",
        "Location": "Ladang Ayer Kuning",
        "Post_Office": "Rantau",
        "State": "Negeri Sembilan"
    },
    {
        "Postcode": "71200",
        "Location": "Ladang Leong Hin Sin",
        "Post_Office": "Rantau",
        "State": "Negeri Sembilan"
    },
    {
        "Postcode": "71200",
        "Location": "Ladang Linsum",
        "Post_Office": "Rantau",
        "State": "Negeri Sembilan"
    },
    {
        "Postcode": "71200",
        "Location": "Ladang Ribu",
        "Post_Office": "Rantau",
        "State": "Negeri Sembilan"
    },
    {
        "Postcode": "71200",
        "Location": "Linsun (Km 22)",
        "Post_Office": "Rantau",
        "State": "Negeri Sembilan"
    },
    {
        "Postcode": "71200",
        "Location": "Rantau",
        "Post_Office": "Rantau",
        "State": "Negeri Sembilan"
    },
    {
        "Postcode": "71200",
        "Location": "Rumah Rakyat Jalan Linsun",
        "Post_Office": "Rantau",
        "State": "Negeri Sembilan"
    },
    {
        "Postcode": "71200",
        "Location": "Rumah Rakyat Kuala Sawah",
        "Post_Office": "Rantau",
        "State": "Negeri Sembilan"
    },
    {
        "Postcode": "71200",
        "Location": "Rumah Rakyat Sri Lalang",
        "Post_Office": "Rantau",
        "State": "Negeri Sembilan"
    },
    {
        "Postcode": "71200",
        "Location": "Rumah Rakyat Taman Rantau",
        "Post_Office": "Rantau",
        "State": "Negeri Sembilan"
    },
    {
        "Postcode": "71200",
        "Location": "Sua Grensing",
        "Post_Office": "Rantau",
        "State": "Negeri Sembilan"
    },
    {
        "Postcode": "71200",
        "Location": "Takau (Km 27)",
        "Post_Office": "Rantau",
        "State": "Negeri Sembilan"
    },
    {
        "Postcode": "71200",
        "Location": "Taman Air Kuning",
        "Post_Office": "Rantau",
        "State": "Negeri Sembilan"
    },
    {
        "Postcode": "71200",
        "Location": "Taman Baru Sua Betong",
        "Post_Office": "Rantau",
        "State": "Negeri Sembilan"
    },
    {
        "Postcode": "71200",
        "Location": "Taman Bersatu",
        "Post_Office": "Rantau",
        "State": "Negeri Sembilan"
    },
    {
        "Postcode": "71200",
        "Location": "Taman Bunga Raya 2 ",
        "Post_Office": "Rantau",
        "State": "Negeri Sembilan"
    },
    {
        "Postcode": "71200",
        "Location": "Taman Delima",
        "Post_Office": "Rantau",
        "State": "Negeri Sembilan"
    },
    {
        "Postcode": "71200",
        "Location": "Taman Desa Pd",
        "Post_Office": "Rantau",
        "State": "Negeri Sembilan"
    },
    {
        "Postcode": "71200",
        "Location": "Taman Industri Ringan Nilam",
        "Post_Office": "Rantau",
        "State": "Negeri Sembilan"
    },
    {
        "Postcode": "71200",
        "Location": "Taman Kristal",
        "Post_Office": "Rantau",
        "State": "Negeri Sembilan"
    },
    {
        "Postcode": "71200",
        "Location": "Taman Mewah Linggi",
        "Post_Office": "Rantau",
        "State": "Negeri Sembilan"
    },
    {
        "Postcode": "71200",
        "Location": "Taman Pasir Mas",
        "Post_Office": "Rantau",
        "State": "Negeri Sembilan"
    },
    {
        "Postcode": "71200",
        "Location": "Taman Rantau",
        "Post_Office": "Rantau",
        "State": "Negeri Sembilan"
    },
    {
        "Postcode": "71200",
        "Location": "Taman Rantau Jaya",
        "Post_Office": "Rantau",
        "State": "Negeri Sembilan"
    },
    {
        "Postcode": "71200",
        "Location": "Taman Seri Intan",
        "Post_Office": "Rantau",
        "State": "Negeri Sembilan"
    },
    {
        "Postcode": "71200",
        "Location": "Taman Sri Anggerik",
        "Post_Office": "Rantau",
        "State": "Negeri Sembilan"
    },
    {
        "Postcode": "71200",
        "Location": "Tampin Linggi Estate",
        "Post_Office": "Rantau",
        "State": "Negeri Sembilan"
    },
    {
        "Postcode": "71200",
        "Location": "Ulu Belangkan",
        "Post_Office": "Rantau",
        "State": "Negeri Sembilan"
    },
    {
        "Postcode": "71200",
        "Location": "Ulu Kanchong Estate",
        "Post_Office": "Rantau",
        "State": "Negeri Sembilan"
    },
    {
        "Postcode": "71200",
        "Location": "Ulu Sawah",
        "Post_Office": "Rantau",
        "State": "Negeri Sembilan"
    },
    {
        "Postcode": "71200",
        "Location": "Taman Jade",
        "Post_Office": "Rantau",
        "State": "Negeri Sembilan"
    },
    {
        "Postcode": "71200",
        "Location": "Taman Koperasi ",
        "Post_Office": "Rantau",
        "State": "Negeri Sembilan"
    },
    {
        "Postcode": "71200",
        "Location": "Taman Orkid",
        "Post_Office": "Rantau",
        "State": "Negeri Sembilan"
    },
    {
        "Postcode": "71200",
        "Location": "Jalan Mutiara 1",
        "Post_Office": "Rantau",
        "State": "Negeri Sembilan"
    },
    {
        "Postcode": "71200",
        "Location": "Jalan Mutiara 2",
        "Post_Office": "Rantau",
        "State": "Negeri Sembilan"
    },
    {
        "Postcode": "71200",
        "Location": "Jalan Mutiara 3",
        "Post_Office": "Rantau",
        "State": "Negeri Sembilan"
    },
    {
        "Postcode": "71200",
        "Location": "Jalan Nilam 2",
        "Post_Office": "Rantau",
        "State": "Negeri Sembilan"
    },
    {
        "Postcode": "71200",
        "Location": "Jalan Nilam 4",
        "Post_Office": "Rantau",
        "State": "Negeri Sembilan"
    },
    {
        "Postcode": "71200",
        "Location": "Jalan Nilam 5",
        "Post_Office": "Rantau",
        "State": "Negeri Sembilan"
    },
    {
        "Postcode": "71200",
        "Location": "Taman Bunga Sejati 1",
        "Post_Office": "Rantau",
        "State": "Negeri Sembilan"
    },
    {
        "Postcode": "71200",
        "Location": "Taman Bunga Sejati 2",
        "Post_Office": "Rantau",
        "State": "Negeri Sembilan"
    }
]
