[
    {
        "Postcode": "71250",
        "Location": "Taman Cermai",
        "Post_Office": "Si Rusa",
        "State": "Negeri Sembilan"
    },
    {
        "Postcode": "71250",
        "Location": "Kampung Sungai Raya",
        "Post_Office": "Si Rusa",
        "State": "Negeri Sembilan"
    },
    {
        "Postcode": "71250",
        "Location": "Kampung Telok",
        "Post_Office": "Si Rusa",
        "State": "Negeri Sembilan"
    },
    {
        "Postcode": "71250",
        "Location": "Kampung Tanjung Agas",
        "Post_Office": "Si Rusa",
        "State": "Negeri Sembilan"
    },
    {
        "Postcode": "71250",
        "Location": "Ladang Sengkang",
        "Post_Office": "Si Rusa",
        "State": "Negeri Sembilan"
    },
    {
        "Postcode": "71250",
        "Location": "Pekan Pasir Panjang",
        "Post_Office": "Si Rusa",
        "State": "Negeri Sembilan"
    },
    {
        "Postcode": "71250",
        "Location": "Drb-Hicom Learning Centre",
        "Post_Office": "Si Rusa",
        "State": "Negeri Sembilan"
    },
    {
        "Postcode": "71250",
        "Location": "Air Hitam",
        "Post_Office": "Si Rusa",
        "State": "Negeri Sembilan"
    },
    {
        "Postcode": "71250",
        "Location": "Bengal Estate",
        "Post_Office": "Si Rusa",
        "State": "Negeri Sembilan"
    },
    {
        "Postcode": "71250",
        "Location": "Jalan Pantai (Batu 13 \u0026 15)",
        "Post_Office": "Si Rusa",
        "State": "Negeri Sembilan"
    },
    {
        "Postcode": "71250",
        "Location": "Kampung Balak",
        "Post_Office": "Si Rusa",
        "State": "Negeri Sembilan"
    },
    {
        "Postcode": "71250",
        "Location": "Kampung Bukit Ibol",
        "Post_Office": "Si Rusa",
        "State": "Negeri Sembilan"
    },
    {
        "Postcode": "71250",
        "Location": "Kampung Bukit Kepong",
        "Post_Office": "Si Rusa",
        "State": "Negeri Sembilan"
    },
    {
        "Postcode": "71250",
        "Location": "Kampung Bukit Tembok",
        "Post_Office": "Si Rusa",
        "State": "Negeri Sembilan"
    },
    {
        "Postcode": "71250",
        "Location": "Kampung Pasir Panjang",
        "Post_Office": "Si Rusa",
        "State": "Negeri Sembilan"
    },
    {
        "Postcode": "71250",
        "Location": "Kampung Pasir Tanjong",
        "Post_Office": "Si Rusa",
        "State": "Negeri Sembilan"
    },
    {
        "Postcode": "71250",
        "Location": "Kampung Sengkang",
        "Post_Office": "Si Rusa",
        "State": "Negeri Sembilan"
    },
    {
        "Postcode": "71250",
        "Location": "Kampung Sungai Sekawang",
        "Post_Office": "Si Rusa",
        "State": "Negeri Sembilan"
    },
    {
        "Postcode": "71250",
        "Location": "Kampung Tanjong Agas",
        "Post_Office": "Si Rusa",
        "State": "Negeri Sembilan"
    },
    {
        "Postcode": "71250",
        "Location": "Rumah Murah Pasir Panjang",
        "Post_Office": "Si Rusa",
        "State": "Negeri Sembilan"
    },
    {
        "Postcode": "71250",
        "Location": "Taman Chye",
        "Post_Office": "Si Rusa",
        "State": "Negeri Sembilan"
    },
    {
        "Postcode": "71250",
        "Location": "Taman Pasir Panjang",
        "Post_Office": "Si Rusa",
        "State": "Negeri Sembilan"
    },
    {
        "Postcode": "71250",
        "Location": "Taman Sengkang",
        "Post_Office": "Si Rusa",
        "State": "Negeri Sembilan"
    },
    {
        "Postcode": "71250",
        "Location": "Taman Setia",
        "Post_Office": "Si Rusa",
        "State": "Negeri Sembilan"
    },
    {
        "Postcode": "71250",
        "Location": "Kampung Sengkang A",
        "Post_Office": "Si Rusa",
        "State": "Negeri Sembilan"
    },
    {
        "Postcode": "71250",
        "Location": "Kampung Sengkang B",
        "Post_Office": "Si Rusa",
        "State": "Negeri Sembilan"
    },
    {
        "Postcode": "71250",
        "Location": "Kampung Sengkang C",
        "Post_Office": "Si Rusa",
        "State": "Negeri Sembilan"
    }
]
