[
    {
        "Postcode": "71300",
        "Location": "Kampung Fajar Harapan ",
        "Post_Office": "Rembau",
        "State": "Negeri Sembilan"
    },
    {
        "Postcode": "71300",
        "Location": "Kampung Perigi Batu ",
        "Post_Office": "Rembau",
        "State": "Negeri Sembilan"
    },
    {
        "Postcode": "71300",
        "Location": "Taman Sedia Raja",
        "Post_Office": "Rembau",
        "State": "Negeri Sembilan"
    },
    {
        "Postcode": "71300",
        "Location": "Kampung Kayu Ara",
        "Post_Office": "Rembau",
        "State": "Negeri Sembilan"
    },
    {
        "Postcode": "71300",
        "Location": "Kampung Padang Lebar",
        "Post_Office": "Rembau",
        "State": "Negeri Sembilan"
    },
    {
        "Postcode": "71300",
        "Location": "Kampung Sungai Layang",
        "Post_Office": "Rembau",
        "State": "Negeri Sembilan"
    },
    {
        "Postcode": "71300",
        "Location": "Tanah Datar",
        "Post_Office": "Rembau",
        "State": "Negeri Sembilan"
    },
    {
        "Postcode": "71300",
        "Location": "Kampung Bintongan",
        "Post_Office": "Rembau",
        "State": "Negeri Sembilan"
    },
    {
        "Postcode": "71300",
        "Location": "Kampung Ampang Batu Chembong",
        "Post_Office": "Rembau",
        "State": "Negeri Sembilan"
    },
    {
        "Postcode": "71300",
        "Location": "Kampung Bukit Terap",
        "Post_Office": "Rembau",
        "State": "Negeri Sembilan"
    },
    {
        "Postcode": "71300",
        "Location": "Kampung Baru Chuai Hulu",
        "Post_Office": "Rembau",
        "State": "Negeri Sembilan"
    },
    {
        "Postcode": "71300",
        "Location": "Kampung Batu Nunggul",
        "Post_Office": "Rembau",
        "State": "Negeri Sembilan"
    },
    {
        "Postcode": "71300",
        "Location": "Kampung Chembong Halt",
        "Post_Office": "Rembau",
        "State": "Negeri Sembilan"
    },
    {
        "Postcode": "71300",
        "Location": "Kampung Chembong Kecil",
        "Post_Office": "Rembau",
        "State": "Negeri Sembilan"
    },
    {
        "Postcode": "71300",
        "Location": "Kampung Durian Tunggal",
        "Post_Office": "Rembau",
        "State": "Negeri Sembilan"
    },
    {
        "Postcode": "71300",
        "Location": "Kampung Seberang Batu Hampar",
        "Post_Office": "Rembau",
        "State": "Negeri Sembilan"
    },
    {
        "Postcode": "71300",
        "Location": "Kampung Senama Masjid ",
        "Post_Office": "Rembau",
        "State": "Negeri Sembilan"
    },
    {
        "Postcode": "71300",
        "Location": "Kampung Senama Ulu",
        "Post_Office": "Rembau",
        "State": "Negeri Sembilan"
    },
    {
        "Postcode": "71300",
        "Location": "Kampung Simpang Keling",
        "Post_Office": "Rembau",
        "State": "Negeri Sembilan"
    },
    {
        "Postcode": "71300",
        "Location": "Kampung Tanjung Kling",
        "Post_Office": "Rembau",
        "State": "Negeri Sembilan"
    },
    {
        "Postcode": "71300",
        "Location": "Kampung Tanjung Sena Hilir",
        "Post_Office": "Rembau",
        "State": "Negeri Sembilan"
    },
    {
        "Postcode": "71300",
        "Location": "Kampung Tanjung Sena Hulu",
        "Post_Office": "Rembau",
        "State": "Negeri Sembilan"
    },
    {
        "Postcode": "71300",
        "Location": "Kampung Tengah Sepri",
        "Post_Office": "Rembau",
        "State": "Negeri Sembilan"
    },
    {
        "Postcode": "71300",
        "Location": "Kampung Waris Tebat",
        "Post_Office": "Rembau",
        "State": "Negeri Sembilan"
    },
    {
        "Postcode": "71300",
        "Location": "Pekan Chengkau",
        "Post_Office": "Rembau",
        "State": "Negeri Sembilan"
    },
    {
        "Postcode": "71300",
        "Location": "Pekan Rembau",
        "Post_Office": "Rembau",
        "State": "Negeri Sembilan"
    },
    {
        "Postcode": "71300",
        "Location": "Ampang Penajis",
        "Post_Office": "Rembau",
        "State": "Negeri Sembilan"
    },
    {
        "Postcode": "71300",
        "Location": "Ayer Sekapas",
        "Post_Office": "Rembau",
        "State": "Negeri Sembilan"
    },
    {
        "Postcode": "71300",
        "Location": "Batu Puteh",
        "Post_Office": "Rembau",
        "State": "Negeri Sembilan"
    },
    {
        "Postcode": "71300",
        "Location": "Chembong (Km 27)",
        "Post_Office": "Rembau",
        "State": "Negeri Sembilan"
    },
    {
        "Postcode": "71300",
        "Location": "Chenong",
        "Post_Office": "Rembau",
        "State": "Negeri Sembilan"
    },
    {
        "Postcode": "71300",
        "Location": "Desa Chembong",
        "Post_Office": "Rembau",
        "State": "Negeri Sembilan"
    },
    {
        "Postcode": "71300",
        "Location": "Desa Permai Mampong",
        "Post_Office": "Rembau",
        "State": "Negeri Sembilan"
    },
    {
        "Postcode": "71300",
        "Location": "Desa Permai Pilin",
        "Post_Office": "Rembau",
        "State": "Negeri Sembilan"
    },
    {
        "Postcode": "71300",
        "Location": "Jalan Durian Daun (Batu 1/4)",
        "Post_Office": "Rembau",
        "State": "Negeri Sembilan"
    },
    {
        "Postcode": "71300",
        "Location": "Jirat Tok Budi",
        "Post_Office": "Rembau",
        "State": "Negeri Sembilan"
    },
    {
        "Postcode": "71300",
        "Location": "Kampung Ampang Batu  (Batu Hampar)",
        "Post_Office": "Rembau",
        "State": "Negeri Sembilan"
    },
    {
        "Postcode": "71300",
        "Location": "Kampung Ayer Itam Chembong",
        "Post_Office": "Rembau",
        "State": "Negeri Sembilan"
    },
    {
        "Postcode": "71300",
        "Location": "Kampung Baru Ayer Hitam",
        "Post_Office": "Rembau",
        "State": "Negeri Sembilan"
    },
    {
        "Postcode": "71300",
        "Location": "Kampung Baru Bongek Acheh",
        "Post_Office": "Rembau",
        "State": "Negeri Sembilan"
    },
    {
        "Postcode": "71300",
        "Location": "Kampung Baru Mampong",
        "Post_Office": "Rembau",
        "State": "Negeri Sembilan"
    },
    {
        "Postcode": "71300",
        "Location": "Kampung Baru Nerasau",
        "Post_Office": "Rembau",
        "State": "Negeri Sembilan"
    },
    {
        "Postcode": "71300",
        "Location": "Kampung Baru Penajis",
        "Post_Office": "Rembau",
        "State": "Negeri Sembilan"
    },
    {
        "Postcode": "71300",
        "Location": "Kampung Baru Pulau Bongek",
        "Post_Office": "Rembau",
        "State": "Negeri Sembilan"
    },
    {
        "Postcode": "71300",
        "Location": "Kampung Baru Pulau Bukit",
        "Post_Office": "Rembau",
        "State": "Negeri Sembilan"
    },
    {
        "Postcode": "71300",
        "Location": "Kampung Baru Rembau",
        "Post_Office": "Rembau",
        "State": "Negeri Sembilan"
    },
    {
        "Postcode": "71300",
        "Location": "Kampung Baru Seberang (Batu Hampar)",
        "Post_Office": "Rembau",
        "State": "Negeri Sembilan"
    },
    {
        "Postcode": "71300",
        "Location": "Kampung Baru Senama Hilir",
        "Post_Office": "Rembau",
        "State": "Negeri Sembilan"
    },
    {
        "Postcode": "71300",
        "Location": "Kampung Batu",
        "Post_Office": "Rembau",
        "State": "Negeri Sembilan"
    },
    {
        "Postcode": "71300",
        "Location": "Kampung Batu 17 (Jalan Tampin)",
        "Post_Office": "Rembau",
        "State": "Negeri Sembilan"
    },
    {
        "Postcode": "71300",
        "Location": "Kampung Batu 7 (Jalan Tampin)",
        "Post_Office": "Rembau",
        "State": "Negeri Sembilan"
    },
    {
        "Postcode": "71300",
        "Location": "Kampung Batu Hampar",
        "Post_Office": "Rembau",
        "State": "Negeri Sembilan"
    },
    {
        "Postcode": "71300",
        "Location": "Kampung Berkat Chembong",
        "Post_Office": "Rembau",
        "State": "Negeri Sembilan"
    },
    {
        "Postcode": "71300",
        "Location": "Kampung Bongek",
        "Post_Office": "Rembau",
        "State": "Negeri Sembilan"
    },
    {
        "Postcode": "71300",
        "Location": "Kampung Bongek Acheh",
        "Post_Office": "Rembau",
        "State": "Negeri Sembilan"
    },
    {
        "Postcode": "71300",
        "Location": "Kampung Bongek Tengah",
        "Post_Office": "Rembau",
        "State": "Negeri Sembilan"
    },
    {
        "Postcode": "71300",
        "Location": "Kampung Bukit Tambang Kuda",
        "Post_Office": "Rembau",
        "State": "Negeri Sembilan"
    },
    {
        "Postcode": "71300",
        "Location": "Kampung Chenong Hulu",
        "Post_Office": "Rembau",
        "State": "Negeri Sembilan"
    },
    {
        "Postcode": "71300",
        "Location": "Kampung Chuai",
        "Post_Office": "Rembau",
        "State": "Negeri Sembilan"
    },
    {
        "Postcode": "71300",
        "Location": "Kampung Chuai Hulu",
        "Post_Office": "Rembau",
        "State": "Negeri Sembilan"
    },
    {
        "Postcode": "71300",
        "Location": "Kampung Durian Daun",
        "Post_Office": "Rembau",
        "State": "Negeri Sembilan"
    },
    {
        "Postcode": "71300",
        "Location": "Kampung Jalan Wanita Sungai Layang",
        "Post_Office": "Rembau",
        "State": "Negeri Sembilan"
    },
    {
        "Postcode": "71300",
        "Location": "Kampung Lada",
        "Post_Office": "Rembau",
        "State": "Negeri Sembilan"
    },
    {
        "Postcode": "71300",
        "Location": "Kampung Mampong",
        "Post_Office": "Rembau",
        "State": "Negeri Sembilan"
    },
    {
        "Postcode": "71300",
        "Location": "Kampung Mampong Hilir",
        "Post_Office": "Rembau",
        "State": "Negeri Sembilan"
    },
    {
        "Postcode": "71300",
        "Location": "Kampung Masjid Tanah",
        "Post_Office": "Rembau",
        "State": "Negeri Sembilan"
    },
    {
        "Postcode": "71300",
        "Location": "Kampung Mayon",
        "Post_Office": "Rembau",
        "State": "Negeri Sembilan"
    },
    {
        "Postcode": "71300",
        "Location": "Kampung Miku Lama",
        "Post_Office": "Rembau",
        "State": "Negeri Sembilan"
    },
    {
        "Postcode": "71300",
        "Location": "Kampung Miku Pindah",
        "Post_Office": "Rembau",
        "State": "Negeri Sembilan"
    },
    {
        "Postcode": "71300",
        "Location": "Kampung Mulia",
        "Post_Office": "Rembau",
        "State": "Negeri Sembilan"
    },
    {
        "Postcode": "71300",
        "Location": "Kampung Nerasau Chengkau",
        "Post_Office": "Rembau",
        "State": "Negeri Sembilan"
    },
    {
        "Postcode": "71300",
        "Location": "Kampung Nerasau Senama",
        "Post_Office": "Rembau",
        "State": "Negeri Sembilan"
    },
    {
        "Postcode": "71300",
        "Location": "Kampung Paya Lebar",
        "Post_Office": "Rembau",
        "State": "Negeri Sembilan"
    },
    {
        "Postcode": "71300",
        "Location": "Kampung Penajis Chengkau",
        "Post_Office": "Rembau",
        "State": "Negeri Sembilan"
    },
    {
        "Postcode": "71300",
        "Location": "Kampung Penajis Tanjong",
        "Post_Office": "Rembau",
        "State": "Negeri Sembilan"
    },
    {
        "Postcode": "71300",
        "Location": "Kampung Pilin",
        "Post_Office": "Rembau",
        "State": "Negeri Sembilan"
    },
    {
        "Postcode": "71300",
        "Location": "Kampung Pulau Acheh",
        "Post_Office": "Rembau",
        "State": "Negeri Sembilan"
    },
    {
        "Postcode": "71300",
        "Location": "Kampung Pulau Besar",
        "Post_Office": "Rembau",
        "State": "Negeri Sembilan"
    },
    {
        "Postcode": "71300",
        "Location": "Kampung Pulau Bintongan",
        "Post_Office": "Rembau",
        "State": "Negeri Sembilan"
    },
    {
        "Postcode": "71300",
        "Location": "Kampung Pulau Bongek",
        "Post_Office": "Rembau",
        "State": "Negeri Sembilan"
    },
    {
        "Postcode": "71300",
        "Location": "Kampung Pulau Bukit",
        "Post_Office": "Rembau",
        "State": "Negeri Sembilan"
    },
    {
        "Postcode": "71300",
        "Location": "Kampung Pulau Chuai",
        "Post_Office": "Rembau",
        "State": "Negeri Sembilan"
    },
    {
        "Postcode": "71300",
        "Location": "Kampung Pulau Hanyut",
        "Post_Office": "Rembau",
        "State": "Negeri Sembilan"
    },
    {
        "Postcode": "71300",
        "Location": "Kampung Pulau Mampat",
        "Post_Office": "Rembau",
        "State": "Negeri Sembilan"
    },
    {
        "Postcode": "71300",
        "Location": "Kampung Pulau Tengah",
        "Post_Office": "Rembau",
        "State": "Negeri Sembilan"
    },
    {
        "Postcode": "71300",
        "Location": "Kampung Relong",
        "Post_Office": "Rembau",
        "State": "Negeri Sembilan"
    },
    {
        "Postcode": "71300",
        "Location": "Kampung Selemak",
        "Post_Office": "Rembau",
        "State": "Negeri Sembilan"
    },
    {
        "Postcode": "71300",
        "Location": "Kampung Selemak Bongek",
        "Post_Office": "Rembau",
        "State": "Negeri Sembilan"
    },
    {
        "Postcode": "71300",
        "Location": "Kampung Selemak Sungai Layang",
        "Post_Office": "Rembau",
        "State": "Negeri Sembilan"
    },
    {
        "Postcode": "71300",
        "Location": "Kampung Selemak Ulu",
        "Post_Office": "Rembau",
        "State": "Negeri Sembilan"
    },
    {
        "Postcode": "71300",
        "Location": "Kampung Senama",
        "Post_Office": "Rembau",
        "State": "Negeri Sembilan"
    },
    {
        "Postcode": "71300",
        "Location": "Kampung Senama Baru",
        "Post_Office": "Rembau",
        "State": "Negeri Sembilan"
    },
    {
        "Postcode": "71300",
        "Location": "Kampung Senama Hilir",
        "Post_Office": "Rembau",
        "State": "Negeri Sembilan"
    },
    {
        "Postcode": "71300",
        "Location": "Kampung Senama Tengah",
        "Post_Office": "Rembau",
        "State": "Negeri Sembilan"
    },
    {
        "Postcode": "71300",
        "Location": "Kampung Solok Jelawai",
        "Post_Office": "Rembau",
        "State": "Negeri Sembilan"
    },
    {
        "Postcode": "71300",
        "Location": "Kampung Tengah Penajis",
        "Post_Office": "Rembau",
        "State": "Negeri Sembilan"
    },
    {
        "Postcode": "71300",
        "Location": "Kampung Ulu Chembong",
        "Post_Office": "Rembau",
        "State": "Negeri Sembilan"
    },
    {
        "Postcode": "71300",
        "Location": "Ladang Batu Hampar",
        "Post_Office": "Rembau",
        "State": "Negeri Sembilan"
    },
    {
        "Postcode": "71300",
        "Location": "Ladang Bukit Jelutong",
        "Post_Office": "Rembau",
        "State": "Negeri Sembilan"
    },
    {
        "Postcode": "71300",
        "Location": "Ladang Chembong",
        "Post_Office": "Rembau",
        "State": "Negeri Sembilan"
    },
    {
        "Postcode": "71300",
        "Location": "Ladang Kian Seng",
        "Post_Office": "Rembau",
        "State": "Negeri Sembilan"
    },
    {
        "Postcode": "71300",
        "Location": "Ladang Sang Lee",
        "Post_Office": "Rembau",
        "State": "Negeri Sembilan"
    },
    {
        "Postcode": "71300",
        "Location": "Ladang St Ives",
        "Post_Office": "Rembau",
        "State": "Negeri Sembilan"
    },
    {
        "Postcode": "71300",
        "Location": "Ladang Sungai Dua",
        "Post_Office": "Rembau",
        "State": "Negeri Sembilan"
    },
    {
        "Postcode": "71300",
        "Location": "Ladang Tong Hong",
        "Post_Office": "Rembau",
        "State": "Negeri Sembilan"
    },
    {
        "Postcode": "71300",
        "Location": "Ladang Weng Tat Pilin",
        "Post_Office": "Rembau",
        "State": "Negeri Sembilan"
    },
    {
        "Postcode": "71300",
        "Location": "Nerasau",
        "Post_Office": "Rembau",
        "State": "Negeri Sembilan"
    },
    {
        "Postcode": "71300",
        "Location": "Rumah Rakyat Chembong",
        "Post_Office": "Rembau",
        "State": "Negeri Sembilan"
    },
    {
        "Postcode": "71300",
        "Location": "Solok Ampang Batu",
        "Post_Office": "Rembau",
        "State": "Negeri Sembilan"
    },
    {
        "Postcode": "71300",
        "Location": "Solok Chengkau",
        "Post_Office": "Rembau",
        "State": "Negeri Sembilan"
    },
    {
        "Postcode": "71300",
        "Location": "Taman Chembong Jaya",
        "Post_Office": "Rembau",
        "State": "Negeri Sembilan"
    },
    {
        "Postcode": "71300",
        "Location": "Taman Chembong Utama",
        "Post_Office": "Rembau",
        "State": "Negeri Sembilan"
    },
    {
        "Postcode": "71300",
        "Location": "Taman Dato Lela Maharaja",
        "Post_Office": "Rembau",
        "State": "Negeri Sembilan"
    },
    {
        "Postcode": "71300",
        "Location": "Taman Desa Chembong",
        "Post_Office": "Rembau",
        "State": "Negeri Sembilan"
    },
    {
        "Postcode": "71300",
        "Location": "Taman Kebun Kelapa",
        "Post_Office": "Rembau",
        "State": "Negeri Sembilan"
    },
    {
        "Postcode": "71300",
        "Location": "Taman Rembau Jaya",
        "Post_Office": "Rembau",
        "State": "Negeri Sembilan"
    },
    {
        "Postcode": "71300",
        "Location": "Taman Rembau Permata",
        "Post_Office": "Rembau",
        "State": "Negeri Sembilan"
    },
    {
        "Postcode": "71300",
        "Location": "Taman Rembau Utama",
        "Post_Office": "Rembau",
        "State": "Negeri Sembilan"
    },
    {
        "Postcode": "71300",
        "Location": "Taman Seri Puteri",
        "Post_Office": "Rembau",
        "State": "Negeri Sembilan"
    },
    {
        "Postcode": "71300",
        "Location": "Taman Sri Rembau",
        "Post_Office": "Rembau",
        "State": "Negeri Sembilan"
    },
    {
        "Postcode": "71300",
        "Location": "Tengah Penajis",
        "Post_Office": "Rembau",
        "State": "Negeri Sembilan"
    },
    {
        "Postcode": "71300",
        "Location": "Titian Teras",
        "Post_Office": "Rembau",
        "State": "Negeri Sembilan"
    },
    {
        "Postcode": "71300",
        "Location": "Kampung Perigi Jernih",
        "Post_Office": "Rembau",
        "State": "Negeri Sembilan"
    },
    {
        "Postcode": "71300",
        "Location": "Kampung Rendah",
        "Post_Office": "Rembau",
        "State": "Negeri Sembilan"
    }
]
