[
    {
        "Postcode": "71350",
        "Location": "Kampung Chengkau Ulu",
        "Post_Office": "Kota",
        "State": "Negeri Sembilan"
    },
    {
        "Postcode": "71350",
        "Location": "Kampung Gadong",
        "Post_Office": "Kota",
        "State": "Negeri Sembilan"
    },
    {
        "Postcode": "71350",
        "Location": "Kampung Jeram",
        "Post_Office": "Kota",
        "State": "Negeri Sembilan"
    },
    {
        "Postcode": "71350",
        "Location": "Kampung Padang Lebar",
        "Post_Office": "Kota",
        "State": "Negeri Sembilan"
    },
    {
        "Postcode": "71350",
        "Location": "Kampung Tanjung",
        "Post_Office": "Kota",
        "State": "Negeri Sembilan"
    },
    {
        "Postcode": "71350",
        "Location": "Kampung Jawa",
        "Post_Office": "Kota",
        "State": "Negeri Sembilan"
    },
    {
        "Postcode": "71350",
        "Location": "Kampung Batang Nyamor",
        "Post_Office": "Kota",
        "State": "Negeri Sembilan"
    },
    {
        "Postcode": "71350",
        "Location": "Kampung Legong Jaya",
        "Post_Office": "Kota",
        "State": "Negeri Sembilan"
    },
    {
        "Postcode": "71350",
        "Location": "Kampung Legong Ulu",
        "Post_Office": "Kota",
        "State": "Negeri Sembilan"
    },
    {
        "Postcode": "71350",
        "Location": "Kampung Seberang Paya",
        "Post_Office": "Kota",
        "State": "Negeri Sembilan"
    },
    {
        "Postcode": "71350",
        "Location": "Kampung Sri Kendong",
        "Post_Office": "Kota",
        "State": "Negeri Sembilan"
    },
    {
        "Postcode": "71350",
        "Location": "Taman Gunung Tahan",
        "Post_Office": "Kota",
        "State": "Negeri Sembilan"
    },
    {
        "Postcode": "71350",
        "Location": "Astana Raja",
        "Post_Office": "Kota",
        "State": "Negeri Sembilan"
    },
    {
        "Postcode": "71350",
        "Location": "Ayer Melintang",
        "Post_Office": "Kota",
        "State": "Negeri Sembilan"
    },
    {
        "Postcode": "71350",
        "Location": "Jalan Batang Nyamor",
        "Post_Office": "Kota",
        "State": "Negeri Sembilan"
    },
    {
        "Postcode": "71350",
        "Location": "Kampung Agam",
        "Post_Office": "Kota",
        "State": "Negeri Sembilan"
    },
    {
        "Postcode": "71350",
        "Location": "Kampung Baru Kendong",
        "Post_Office": "Kota",
        "State": "Negeri Sembilan"
    },
    {
        "Postcode": "71350",
        "Location": "Kampung Baru Semerbok",
        "Post_Office": "Kota",
        "State": "Negeri Sembilan"
    },
    {
        "Postcode": "71350",
        "Location": "Kampung Bukit Keledang",
        "Post_Office": "Kota",
        "State": "Negeri Sembilan"
    },
    {
        "Postcode": "71350",
        "Location": "Kampung Bukit Serajin",
        "Post_Office": "Kota",
        "State": "Negeri Sembilan"
    },
    {
        "Postcode": "71350",
        "Location": "Kampung Chengai Sawah Raja",
        "Post_Office": "Kota",
        "State": "Negeri Sembilan"
    },
    {
        "Postcode": "71350",
        "Location": "Kampung Cik Tambi",
        "Post_Office": "Kota",
        "State": "Negeri Sembilan"
    },
    {
        "Postcode": "71350",
        "Location": "Kampung Kendong Jaya",
        "Post_Office": "Kota",
        "State": "Negeri Sembilan"
    },
    {
        "Postcode": "71350",
        "Location": "Kampung Kendong Lama",
        "Post_Office": "Kota",
        "State": "Negeri Sembilan"
    },
    {
        "Postcode": "71350",
        "Location": "Kampung Kota",
        "Post_Office": "Kota",
        "State": "Negeri Sembilan"
    },
    {
        "Postcode": "71350",
        "Location": "Kampung Kuala Dadeh",
        "Post_Office": "Kota",
        "State": "Negeri Sembilan"
    },
    {
        "Postcode": "71350",
        "Location": "Kampung Limau Kambing",
        "Post_Office": "Kota",
        "State": "Negeri Sembilan"
    },
    {
        "Postcode": "71350",
        "Location": "Kampung Mungkal",
        "Post_Office": "Kota",
        "State": "Negeri Sembilan"
    },
    {
        "Postcode": "71350",
        "Location": "Kampung Padang",
        "Post_Office": "Kota",
        "State": "Negeri Sembilan"
    },
    {
        "Postcode": "71350",
        "Location": "Kampung Perah",
        "Post_Office": "Kota",
        "State": "Negeri Sembilan"
    },
    {
        "Postcode": "71350",
        "Location": "Kampung Pulau Kota",
        "Post_Office": "Kota",
        "State": "Negeri Sembilan"
    },
    {
        "Postcode": "71350",
        "Location": "Kampung Sawah Raja",
        "Post_Office": "Kota",
        "State": "Negeri Sembilan"
    },
    {
        "Postcode": "71350",
        "Location": "Kampung Semabok Masjid",
        "Post_Office": "Kota",
        "State": "Negeri Sembilan"
    },
    {
        "Postcode": "71350",
        "Location": "Kampung Semabok Sungai Serai",
        "Post_Office": "Kota",
        "State": "Negeri Sembilan"
    },
    {
        "Postcode": "71350",
        "Location": "Kampung Semerbok",
        "Post_Office": "Kota",
        "State": "Negeri Sembilan"
    },
    {
        "Postcode": "71350",
        "Location": "Kampung Solok",
        "Post_Office": "Kota",
        "State": "Negeri Sembilan"
    },
    {
        "Postcode": "71350",
        "Location": "Kampung Solok Rembia",
        "Post_Office": "Kota",
        "State": "Negeri Sembilan"
    },
    {
        "Postcode": "71350",
        "Location": "Kampung Solok Tanjung Berangan",
        "Post_Office": "Kota",
        "State": "Negeri Sembilan"
    },
    {
        "Postcode": "71350",
        "Location": "Kampung Tanah Datar",
        "Post_Office": "Kota",
        "State": "Negeri Sembilan"
    },
    {
        "Postcode": "71350",
        "Location": "Kampung Tanjong Legong Ulu",
        "Post_Office": "Kota",
        "State": "Negeri Sembilan"
    },
    {
        "Postcode": "71350",
        "Location": "Kampung Tiga Batu",
        "Post_Office": "Kota",
        "State": "Negeri Sembilan"
    },
    {
        "Postcode": "71350",
        "Location": "Kampung Tiga Nenek",
        "Post_Office": "Kota",
        "State": "Negeri Sembilan"
    },
    {
        "Postcode": "71350",
        "Location": "Kampung Ulu Gadong",
        "Post_Office": "Kota",
        "State": "Negeri Sembilan"
    },
    {
        "Postcode": "71350",
        "Location": "Kem Latihan Khidmat Negara Titian Bintangor",
        "Post_Office": "Kota",
        "State": "Negeri Sembilan"
    },
    {
        "Postcode": "71350",
        "Location": "Kem Latihan Khidmat Negara Ulu Pari",
        "Post_Office": "Kota",
        "State": "Negeri Sembilan"
    },
    {
        "Postcode": "71350",
        "Location": "Kendong Baru",
        "Post_Office": "Kota",
        "State": "Negeri Sembilan"
    },
    {
        "Postcode": "71350",
        "Location": "Kota",
        "Post_Office": "Kota",
        "State": "Negeri Sembilan"
    },
    {
        "Postcode": "71350",
        "Location": "Ladang Ban Lee",
        "Post_Office": "Kota",
        "State": "Negeri Sembilan"
    },
    {
        "Postcode": "71350",
        "Location": "Ladang Gadong",
        "Post_Office": "Kota",
        "State": "Negeri Sembilan"
    },
    {
        "Postcode": "71350",
        "Location": "Ladang Kendong",
        "Post_Office": "Kota",
        "State": "Negeri Sembilan"
    },
    {
        "Postcode": "71350",
        "Location": "Ladang Weng Tat",
        "Post_Office": "Kota",
        "State": "Negeri Sembilan"
    },
    {
        "Postcode": "71350",
        "Location": "Ladang Yap Han Soon",
        "Post_Office": "Kota",
        "State": "Negeri Sembilan"
    },
    {
        "Postcode": "71350",
        "Location": "Ladang Yusof",
        "Post_Office": "Kota",
        "State": "Negeri Sembilan"
    },
    {
        "Postcode": "71350",
        "Location": "Okod Harimau Legong Jaya",
        "Post_Office": "Kota",
        "State": "Negeri Sembilan"
    },
    {
        "Postcode": "71350",
        "Location": "Seri Melenggang",
        "Post_Office": "Kota",
        "State": "Negeri Sembilan"
    },
    {
        "Postcode": "71350",
        "Location": "Seri Tambah",
        "Post_Office": "Kota",
        "State": "Negeri Sembilan"
    },
    {
        "Postcode": "71350",
        "Location": "Solok Fajar",
        "Post_Office": "Kota",
        "State": "Negeri Sembilan"
    },
    {
        "Postcode": "71350",
        "Location": "Taman Azizah",
        "Post_Office": "Kota",
        "State": "Negeri Sembilan"
    },
    {
        "Postcode": "71350",
        "Location": "Taman Gadong",
        "Post_Office": "Kota",
        "State": "Negeri Sembilan"
    },
    {
        "Postcode": "71350",
        "Location": "Taman Kaki Bukit Keledang",
        "Post_Office": "Kota",
        "State": "Negeri Sembilan"
    },
    {
        "Postcode": "71350",
        "Location": "Taman Kota Indah",
        "Post_Office": "Kota",
        "State": "Negeri Sembilan"
    },
    {
        "Postcode": "71350",
        "Location": "Taman Perindustrian Gunung Tahan",
        "Post_Office": "Kota",
        "State": "Negeri Sembilan"
    },
    {
        "Postcode": "71350",
        "Location": "Taman Sri Kota",
        "Post_Office": "Kota",
        "State": "Negeri Sembilan"
    },
    {
        "Postcode": "71350",
        "Location": "Taman Sri Meranti",
        "Post_Office": "Kota",
        "State": "Negeri Sembilan"
    },
    {
        "Postcode": "71350",
        "Location": "Tiga Bator",
        "Post_Office": "Kota",
        "State": "Negeri Sembilan"
    },
    {
        "Postcode": "71350",
        "Location": "Kampung Tanjong Pisang",
        "Post_Office": "Kota",
        "State": "Negeri Sembilan"
    },
    {
        "Postcode": "71350",
        "Location": "Kampung Titian Akar",
        "Post_Office": "Kota",
        "State": "Negeri Sembilan"
    },
    {
        "Postcode": "71350",
        "Location": "Kampung Semabok A",
        "Post_Office": "Kota",
        "State": "Negeri Sembilan"
    },
    {
        "Postcode": "71350",
        "Location": "Kampung Semabok B",
        "Post_Office": "Kota",
        "State": "Negeri Sembilan"
    }
]
