[
    {
        "Postcode": "71450",
        "Location": "Bandar Seremban Selatan",
        "Post_Office": "Seremban",
        "State": "Negeri Sembilan"
    },
    {
        "Postcode": "71450",
        "Location": "Jalan Tampin (Batu 6 - 10)",
        "Post_Office": "Seremban",
        "State": "Negeri Sembilan"
    },
    {
        "Postcode": "71450",
        "Location": "Kampung Sungai Gadut",
        "Post_Office": "Seremban",
        "State": "Negeri Sembilan"
    },
    {
        "Postcode": "71450",
        "Location": "Kampung Ulu Rantau",
        "Post_Office": "Seremban",
        "State": "Negeri Sembilan"
    },
    {
        "Postcode": "71450",
        "Location": "Kawasan Perindustrian Sungai Gadut",
        "Post_Office": "Seremban",
        "State": "Negeri Sembilan"
    },
    {
        "Postcode": "71450",
        "Location": "Kawasan Perindustrian Tuanku Jaafar",
        "Post_Office": "Seremban",
        "State": "Negeri Sembilan"
    },
    {
        "Postcode": "71450",
        "Location": "Kawasan Perusahaan Andalas",
        "Post_Office": "Seremban",
        "State": "Negeri Sembilan"
    },
    {
        "Postcode": "71450",
        "Location": "Ladang Paroi",
        "Post_Office": "Seremban",
        "State": "Negeri Sembilan"
    },
    {
        "Postcode": "71450",
        "Location": "Ladang Perhentian Tinggi",
        "Post_Office": "Seremban",
        "State": "Negeri Sembilan"
    },
    {
        "Postcode": "71450",
        "Location": "Ladang Senawang",
        "Post_Office": "Seremban",
        "State": "Negeri Sembilan"
    },
    {
        "Postcode": "71450",
        "Location": "Ladang Seremban",
        "Post_Office": "Seremban",
        "State": "Negeri Sembilan"
    },
    {
        "Postcode": "71450",
        "Location": "Ladang Terentang",
        "Post_Office": "Seremban",
        "State": "Negeri Sembilan"
    },
    {
        "Postcode": "71450",
        "Location": "Perusahaan Ringan Senawang Light",
        "Post_Office": "Seremban",
        "State": "Negeri Sembilan"
    },
    {
        "Postcode": "71450",
        "Location": "Rumah Keluarga Angkatan Tentera",
        "Post_Office": "Seremban",
        "State": "Negeri Sembilan"
    },
    {
        "Postcode": "71450",
        "Location": "Senawang Central Park",
        "Post_Office": "Seremban",
        "State": "Negeri Sembilan"
    },
    {
        "Postcode": "71450",
        "Location": "Sungai Gadut",
        "Post_Office": "Seremban",
        "State": "Negeri Sembilan"
    },
    {
        "Postcode": "71450",
        "Location": "Taman Bukit Sri Senawang",
        "Post_Office": "Seremban",
        "State": "Negeri Sembilan"
    },
    {
        "Postcode": "71450",
        "Location": "Taman Pinggiran Senawang",
        "Post_Office": "Seremban",
        "State": "Negeri Sembilan"
    },
    {
        "Postcode": "71450",
        "Location": "Taman Sri Permata",
        "Post_Office": "Seremban",
        "State": "Negeri Sembilan"
    },
    {
        "Postcode": "71450",
        "Location": "Taman Tuanku Ampuan Najihah",
        "Post_Office": "Seremban",
        "State": "Negeri Sembilan"
    },
    {
        "Postcode": "71450",
        "Location": "Taman Tuanku Jaafar",
        "Post_Office": "Seremban",
        "State": "Negeri Sembilan"
    },
    {
        "Postcode": "71450",
        "Location": "Taman Tuanku Jaafar Selatan",
        "Post_Office": "Seremban",
        "State": "Negeri Sembilan"
    },
    {
        "Postcode": "71450",
        "Location": "Ulu Rantau",
        "Post_Office": "Seremban",
        "State": "Negeri Sembilan"
    },
    {
        "Postcode": "71450",
        "Location": "Zon Perindustrian Seri Senawang",
        "Post_Office": "Seremban",
        "State": "Negeri Sembilan"
    },
    {
        "Postcode": "71450",
        "Location": "Taman Sena",
        "Post_Office": "Seremban",
        "State": "Negeri Sembilan"
    },
    {
        "Postcode": "71450",
        "Location": "Taman Senawang Perdana",
        "Post_Office": "Seremban",
        "State": "Negeri Sembilan"
    },
    {
        "Postcode": "71450",
        "Location": "Taman Bukit Senawang Perdana",
        "Post_Office": "Seremban",
        "State": "Negeri Sembilan"
    },
    {
        "Postcode": "71450",
        "Location": "Tuanku Jaafar Golf \u0026 Country Resort",
        "Post_Office": "Seremban",
        "State": "Negeri Sembilan"
    },
    {
        "Postcode": "71450",
        "Location": "Pangsapuri Perkhidmatan Permata D'Pinggiran ",
        "Post_Office": "Seremban",
        "State": "Negeri Sembilan"
    },
    {
        "Postcode": "71450",
        "Location": "Vila Bukit Negeri",
        "Post_Office": "Seremban",
        "State": "Negeri Sembilan"
    }
]
