[
    {
        "Postcode": "71500",
        "Location": "Taman Sri Terachi",
        "Post_Office": "Tanjong Ipoh",
        "State": "Negeri Sembilan"
    },
    {
        "Postcode": "71500",
        "Location": "Ampang Tinggi Seberang",
        "Post_Office": "Tanjong Ipoh",
        "State": "Negeri Sembilan"
    },
    {
        "Postcode": "71500",
        "Location": "Kampung Ayer Hitam",
        "Post_Office": "Tanjong Ipoh",
        "State": "Negeri Sembilan"
    },
    {
        "Postcode": "71500",
        "Location": "Kampung Baru Lanjut Manis",
        "Post_Office": "Tanjong Ipoh",
        "State": "Negeri Sembilan"
    },
    {
        "Postcode": "71500",
        "Location": "Kampung Baru Talang",
        "Post_Office": "Tanjong Ipoh",
        "State": "Negeri Sembilan"
    },
    {
        "Postcode": "71500",
        "Location": "Kampung Bukit Laksa",
        "Post_Office": "Tanjong Ipoh",
        "State": "Negeri Sembilan"
    },
    {
        "Postcode": "71500",
        "Location": "Kampung Bukit Seri Menanti",
        "Post_Office": "Tanjong Ipoh",
        "State": "Negeri Sembilan"
    },
    {
        "Postcode": "71500",
        "Location": "Kampung Durian Hijau",
        "Post_Office": "Tanjong Ipoh",
        "State": "Negeri Sembilan"
    },
    {
        "Postcode": "71500",
        "Location": "Kampung Gedang",
        "Post_Office": "Tanjong Ipoh",
        "State": "Negeri Sembilan"
    },
    {
        "Postcode": "71500",
        "Location": "Kampung Gemetir",
        "Post_Office": "Tanjong Ipoh",
        "State": "Negeri Sembilan"
    },
    {
        "Postcode": "71500",
        "Location": "Kampung Gemetir Seberang",
        "Post_Office": "Tanjong Ipoh",
        "State": "Negeri Sembilan"
    },
    {
        "Postcode": "71500",
        "Location": "Kampung Ibol",
        "Post_Office": "Tanjong Ipoh",
        "State": "Negeri Sembilan"
    },
    {
        "Postcode": "71500",
        "Location": "Kampung Jeram Talang",
        "Post_Office": "Tanjong Ipoh",
        "State": "Negeri Sembilan"
    },
    {
        "Postcode": "71500",
        "Location": "Kampung Kuala Parit",
        "Post_Office": "Tanjong Ipoh",
        "State": "Negeri Sembilan"
    },
    {
        "Postcode": "71500",
        "Location": "Kampung Kuala Serdang",
        "Post_Office": "Tanjong Ipoh",
        "State": "Negeri Sembilan"
    },
    {
        "Postcode": "71500",
        "Location": "Kampung Kuala Talang",
        "Post_Office": "Tanjong Ipoh",
        "State": "Negeri Sembilan"
    },
    {
        "Postcode": "71500",
        "Location": "Kampung Kubangan",
        "Post_Office": "Tanjong Ipoh",
        "State": "Negeri Sembilan"
    },
    {
        "Postcode": "71500",
        "Location": "Kampung Kundangan",
        "Post_Office": "Tanjong Ipoh",
        "State": "Negeri Sembilan"
    },
    {
        "Postcode": "71500",
        "Location": "Kampung Kundangan Seberang",
        "Post_Office": "Tanjong Ipoh",
        "State": "Negeri Sembilan"
    },
    {
        "Postcode": "71500",
        "Location": "Kampung Lanjut Manis",
        "Post_Office": "Tanjong Ipoh",
        "State": "Negeri Sembilan"
    },
    {
        "Postcode": "71500",
        "Location": "Kampung Mampas Besar",
        "Post_Office": "Tanjong Ipoh",
        "State": "Negeri Sembilan"
    },
    {
        "Postcode": "71500",
        "Location": "Kampung Mampas Kecil",
        "Post_Office": "Tanjong Ipoh",
        "State": "Negeri Sembilan"
    },
    {
        "Postcode": "71500",
        "Location": "Kampung Orang Asli Langkap",
        "Post_Office": "Tanjong Ipoh",
        "State": "Negeri Sembilan"
    },
    {
        "Postcode": "71500",
        "Location": "Kampung Orang Asli Ulu Mampas",
        "Post_Office": "Tanjong Ipoh",
        "State": "Negeri Sembilan"
    },
    {
        "Postcode": "71500",
        "Location": "Kampung Parit Istana",
        "Post_Office": "Tanjong Ipoh",
        "State": "Negeri Sembilan"
    },
    {
        "Postcode": "71500",
        "Location": "Kampung Parit Mainau",
        "Post_Office": "Tanjong Ipoh",
        "State": "Negeri Sembilan"
    },
    {
        "Postcode": "71500",
        "Location": "Kampung Parit Mungkar",
        "Post_Office": "Tanjong Ipoh",
        "State": "Negeri Sembilan"
    },
    {
        "Postcode": "71500",
        "Location": "Kampung Parit Seberang",
        "Post_Office": "Tanjong Ipoh",
        "State": "Negeri Sembilan"
    },
    {
        "Postcode": "71500",
        "Location": "Kampung Parit Terachi",
        "Post_Office": "Tanjong Ipoh",
        "State": "Negeri Sembilan"
    },
    {
        "Postcode": "71500",
        "Location": "Kampung Pulau Jelebu",
        "Post_Office": "Tanjong Ipoh",
        "State": "Negeri Sembilan"
    },
    {
        "Postcode": "71500",
        "Location": "Kampung Simpang Seberang",
        "Post_Office": "Tanjong Ipoh",
        "State": "Negeri Sembilan"
    },
    {
        "Postcode": "71500",
        "Location": "Kampung Simpang Seri Menanti",
        "Post_Office": "Tanjong Ipoh",
        "State": "Negeri Sembilan"
    },
    {
        "Postcode": "71500",
        "Location": "Kampung Talang Ulu",
        "Post_Office": "Tanjong Ipoh",
        "State": "Negeri Sembilan"
    },
    {
        "Postcode": "71500",
        "Location": "Kampung Tanah Liat",
        "Post_Office": "Tanjong Ipoh",
        "State": "Negeri Sembilan"
    },
    {
        "Postcode": "71500",
        "Location": "Kampung Tanjong Bangkong",
        "Post_Office": "Tanjong Ipoh",
        "State": "Negeri Sembilan"
    },
    {
        "Postcode": "71500",
        "Location": "Kampung Tengah Hilir",
        "Post_Office": "Tanjong Ipoh",
        "State": "Negeri Sembilan"
    },
    {
        "Postcode": "71500",
        "Location": "Kampung Tengah Pulau",
        "Post_Office": "Tanjong Ipoh",
        "State": "Negeri Sembilan"
    },
    {
        "Postcode": "71500",
        "Location": "Kampung Ulu Parit",
        "Post_Office": "Tanjong Ipoh",
        "State": "Negeri Sembilan"
    },
    {
        "Postcode": "71500",
        "Location": "Rumah Rakyat Ampang Tinggi",
        "Post_Office": "Tanjong Ipoh",
        "State": "Negeri Sembilan"
    },
    {
        "Postcode": "71500",
        "Location": "Rumah Rakyat Tanjung Ipoh",
        "Post_Office": "Tanjong Ipoh",
        "State": "Negeri Sembilan"
    },
    {
        "Postcode": "71500",
        "Location": "Tanjung Petai",
        "Post_Office": "Tanjong Ipoh",
        "State": "Negeri Sembilan"
    },
    {
        "Postcode": "71500",
        "Location": "Ujong Tanjong",
        "Post_Office": "Tanjong Ipoh",
        "State": "Negeri Sembilan"
    },
    {
        "Postcode": "71500",
        "Location": "Ulu Kok",
        "Post_Office": "Tanjong Ipoh",
        "State": "Negeri Sembilan"
    },
    {
        "Postcode": "71500",
        "Location": "Kampung Bukit Perah",
        "Post_Office": "Tanjong Ipoh",
        "State": "Negeri Sembilan"
    },
    {
        "Postcode": "71500",
        "Location": "Kampung Kayu Ara",
        "Post_Office": "Tanjong Ipoh",
        "State": "Negeri Sembilan"
    },
    {
        "Postcode": "71500",
        "Location": "Kampung Padang Lebar",
        "Post_Office": "Tanjong Ipoh",
        "State": "Negeri Sembilan"
    },
    {
        "Postcode": "71500",
        "Location": "Kampung Pauh",
        "Post_Office": "Tanjong Ipoh",
        "State": "Negeri Sembilan"
    },
    {
        "Postcode": "71500",
        "Location": "Kampung Purun",
        "Post_Office": "Tanjong Ipoh",
        "State": "Negeri Sembilan"
    },
    {
        "Postcode": "71500",
        "Location": "Kampung Sawah Liat",
        "Post_Office": "Tanjong Ipoh",
        "State": "Negeri Sembilan"
    },
    {
        "Postcode": "71500",
        "Location": "Kampung Tebing Tinggi",
        "Post_Office": "Tanjong Ipoh",
        "State": "Negeri Sembilan"
    },
    {
        "Postcode": "71500",
        "Location": "Kampung Ampang Serong",
        "Post_Office": "Tanjong Ipoh",
        "State": "Negeri Sembilan"
    },
    {
        "Postcode": "71500",
        "Location": "Kampung Ampang Tinggi",
        "Post_Office": "Tanjong Ipoh",
        "State": "Negeri Sembilan"
    },
    {
        "Postcode": "71500",
        "Location": "Kampung Kubang Gajah",
        "Post_Office": "Tanjong Ipoh",
        "State": "Negeri Sembilan"
    },
    {
        "Postcode": "71500",
        "Location": "Kampung Tanjung Ipoh",
        "Post_Office": "Tanjong Ipoh",
        "State": "Negeri Sembilan"
    },
    {
        "Postcode": "71500",
        "Location": "Kampung Baru Ulu Bendul",
        "Post_Office": "Tanjong Ipoh",
        "State": "Negeri Sembilan"
    },
    {
        "Postcode": "71500",
        "Location": "Kampung Ulu Bendul",
        "Post_Office": "Tanjong Ipoh",
        "State": "Negeri Sembilan"
    },
    {
        "Postcode": "71500",
        "Location": "Taman Ulu Bendul",
        "Post_Office": "Tanjong Ipoh",
        "State": "Negeri Sembilan"
    },
    {
        "Postcode": "71500",
        "Location": "Kampung Perigi Jernih",
        "Post_Office": "Tanjong Ipoh",
        "State": "Negeri Sembilan"
    }
]
