[
    {
        "Postcode": "71550",
        "Location": "Kampung Bukit Tempurung",
        "Post_Office": "Tanjong Ipoh",
        "State": "Negeri Sembilan"
    },
    {
        "Postcode": "71550",
        "Location": "Ampang Batu",
        "Post_Office": "Tanjong Ipoh",
        "State": "Negeri Sembilan"
    },
    {
        "Postcode": "71550",
        "Location": "Batu Hampar",
        "Post_Office": "Tanjong Ipoh",
        "State": "Negeri Sembilan"
    },
    {
        "Postcode": "71550",
        "Location": "Gunung Pasir",
        "Post_Office": "Tanjong Ipoh",
        "State": "Negeri Sembilan"
    },
    {
        "Postcode": "71550",
        "Location": "Istana Kayangan",
        "Post_Office": "Tanjong Ipoh",
        "State": "Negeri Sembilan"
    },
    {
        "Postcode": "71550",
        "Location": "Istana Kenanga",
        "Post_Office": "Tanjong Ipoh",
        "State": "Negeri Sembilan"
    },
    {
        "Postcode": "71550",
        "Location": "Istana Lama / Besar",
        "Post_Office": "Tanjong Ipoh",
        "State": "Negeri Sembilan"
    },
    {
        "Postcode": "71550",
        "Location": "Kampung Baru Seri Menanti",
        "Post_Office": "Tanjong Ipoh",
        "State": "Negeri Sembilan"
    },
    {
        "Postcode": "71550",
        "Location": "Kampung Bukit Alai",
        "Post_Office": "Tanjong Ipoh",
        "State": "Negeri Sembilan"
    },
    {
        "Postcode": "71550",
        "Location": "Kampung Bukit Lintang",
        "Post_Office": "Tanjong Ipoh",
        "State": "Negeri Sembilan"
    },
    {
        "Postcode": "71550",
        "Location": "Kampung Bukit Terang",
        "Post_Office": "Tanjong Ipoh",
        "State": "Negeri Sembilan"
    },
    {
        "Postcode": "71550",
        "Location": "Kampung Buyau",
        "Post_Office": "Tanjong Ipoh",
        "State": "Negeri Sembilan"
    },
    {
        "Postcode": "71550",
        "Location": "Kampung Galau",
        "Post_Office": "Tanjong Ipoh",
        "State": "Negeri Sembilan"
    },
    {
        "Postcode": "71550",
        "Location": "Kampung Gamin",
        "Post_Office": "Tanjong Ipoh",
        "State": "Negeri Sembilan"
    },
    {
        "Postcode": "71550",
        "Location": "Kampung Gunung Pasir",
        "Post_Office": "Tanjong Ipoh",
        "State": "Negeri Sembilan"
    },
    {
        "Postcode": "71550",
        "Location": "Kampung Juar",
        "Post_Office": "Tanjong Ipoh",
        "State": "Negeri Sembilan"
    },
    {
        "Postcode": "71550",
        "Location": "Kampung Jumbang",
        "Post_Office": "Tanjong Ipoh",
        "State": "Negeri Sembilan"
    },
    {
        "Postcode": "71550",
        "Location": "Kampung Kubor Masjid",
        "Post_Office": "Tanjong Ipoh",
        "State": "Negeri Sembilan"
    },
    {
        "Postcode": "71550",
        "Location": "Kampung Lereng",
        "Post_Office": "Tanjong Ipoh",
        "State": "Negeri Sembilan"
    },
    {
        "Postcode": "71550",
        "Location": "Kampung Masjid Terbakar",
        "Post_Office": "Tanjong Ipoh",
        "State": "Negeri Sembilan"
    },
    {
        "Postcode": "71550",
        "Location": "Kampung Mertang Seberang",
        "Post_Office": "Tanjong Ipoh",
        "State": "Negeri Sembilan"
    },
    {
        "Postcode": "71550",
        "Location": "Kampung Merual",
        "Post_Office": "Tanjong Ipoh",
        "State": "Negeri Sembilan"
    },
    {
        "Postcode": "71550",
        "Location": "Kampung Padang Biawas",
        "Post_Office": "Tanjong Ipoh",
        "State": "Negeri Sembilan"
    },
    {
        "Postcode": "71550",
        "Location": "Kampung Pulau Gunung Pasir",
        "Post_Office": "Tanjong Ipoh",
        "State": "Negeri Sembilan"
    },
    {
        "Postcode": "71550",
        "Location": "Kampung Sekolah Gunong Pasir",
        "Post_Office": "Tanjong Ipoh",
        "State": "Negeri Sembilan"
    },
    {
        "Postcode": "71550",
        "Location": "Kampung Sikai",
        "Post_Office": "Tanjong Ipoh",
        "State": "Negeri Sembilan"
    },
    {
        "Postcode": "71550",
        "Location": "Kampung Simpai",
        "Post_Office": "Tanjong Ipoh",
        "State": "Negeri Sembilan"
    },
    {
        "Postcode": "71550",
        "Location": "Kampung Tobek Godang",
        "Post_Office": "Tanjong Ipoh",
        "State": "Negeri Sembilan"
    },
    {
        "Postcode": "71550",
        "Location": "Kampung Umor",
        "Post_Office": "Tanjong Ipoh",
        "State": "Negeri Sembilan"
    },
    {
        "Postcode": "71550",
        "Location": "Seberang Tanjong Beringin",
        "Post_Office": "Tanjong Ipoh",
        "State": "Negeri Sembilan"
    },
    {
        "Postcode": "71550",
        "Location": "Tanjung Bachang",
        "Post_Office": "Tanjong Ipoh",
        "State": "Negeri Sembilan"
    },
    {
        "Postcode": "71550",
        "Location": "Tanjung Galau",
        "Post_Office": "Tanjong Ipoh",
        "State": "Negeri Sembilan"
    },
    {
        "Postcode": "71550",
        "Location": "Tanjung Limau",
        "Post_Office": "Tanjong Ipoh",
        "State": "Negeri Sembilan"
    },
    {
        "Postcode": "71550",
        "Location": "Tanjung Sepam",
        "Post_Office": "Tanjong Ipoh",
        "State": "Negeri Sembilan"
    },
    {
        "Postcode": "71550",
        "Location": "Tengah Panglang",
        "Post_Office": "Tanjong Ipoh",
        "State": "Negeri Sembilan"
    },
    {
        "Postcode": "71550",
        "Location": "Kampung Masjid Lama",
        "Post_Office": "Tanjong Ipoh",
        "State": "Negeri Sembilan"
    },
    {
        "Postcode": "71550",
        "Location": "Kampung Sungai Layang",
        "Post_Office": "Tanjong Ipoh",
        "State": "Negeri Sembilan"
    },
    {
        "Postcode": "71550",
        "Location": "Tanah Datar",
        "Post_Office": "Tanjong Ipoh",
        "State": "Negeri Sembilan"
    },
    {
        "Postcode": "71550",
        "Location": "Kampung Bukit",
        "Post_Office": "Tanjong Ipoh",
        "State": "Negeri Sembilan"
    },
    {
        "Postcode": "71550",
        "Location": "Kampung Tanjung Beringin",
        "Post_Office": "Tanjong Ipoh",
        "State": "Negeri Sembilan"
    },
    {
        "Postcode": "71550",
        "Location": "Kampung Tanjung Limau Purut",
        "Post_Office": "Tanjong Ipoh",
        "State": "Negeri Sembilan"
    },
    {
        "Postcode": "71550",
        "Location": "Pekan Seri Menanti",
        "Post_Office": "Tanjong Ipoh",
        "State": "Negeri Sembilan"
    }
]
