[
    {
        "Postcode": "71600",
        "Location": "Kampung Amar Penghulu",
        "Post_Office": "Kuala Klawang",
        "State": "Negeri Sembilan"
    },
    {
        "Postcode": "71600",
        "Location": "Kampung Ampang Batu",
        "Post_Office": "Kuala Klawang",
        "State": "Negeri Sembilan"
    },
    {
        "Postcode": "71600",
        "Location": "Kampung Bakong",
        "Post_Office": "Kuala Klawang",
        "State": "Negeri Sembilan"
    },
    {
        "Postcode": "71600",
        "Location": "Kampung Bandar Tinggi",
        "Post_Office": "Kuala Klawang",
        "State": "Negeri Sembilan"
    },
    {
        "Postcode": "71600",
        "Location": "Kampung Baru Petaling",
        "Post_Office": "Kuala Klawang",
        "State": "Negeri Sembilan"
    },
    {
        "Postcode": "71600",
        "Location": "Kampung Batu 17",
        "Post_Office": "Kuala Klawang",
        "State": "Negeri Sembilan"
    },
    {
        "Postcode": "71600",
        "Location": "Kampung Batu Serambai",
        "Post_Office": "Kuala Klawang",
        "State": "Negeri Sembilan"
    },
    {
        "Postcode": "71600",
        "Location": "Kampung Binjai",
        "Post_Office": "Kuala Klawang",
        "State": "Negeri Sembilan"
    },
    {
        "Postcode": "71600",
        "Location": "Kampung Bukit Piatu",
        "Post_Office": "Kuala Klawang",
        "State": "Negeri Sembilan"
    },
    {
        "Postcode": "71600",
        "Location": "Kampung Chenderak",
        "Post_Office": "Kuala Klawang",
        "State": "Negeri Sembilan"
    },
    {
        "Postcode": "71600",
        "Location": "Kampung Chenor",
        "Post_Office": "Kuala Klawang",
        "State": "Negeri Sembilan"
    },
    {
        "Postcode": "71600",
        "Location": "Kampung Chepum",
        "Post_Office": "Kuala Klawang",
        "State": "Negeri Sembilan"
    },
    {
        "Postcode": "71600",
        "Location": "Kampung Dulang",
        "Post_Office": "Kuala Klawang",
        "State": "Negeri Sembilan"
    },
    {
        "Postcode": "71600",
        "Location": "Kampung Durian Gasing",
        "Post_Office": "Kuala Klawang",
        "State": "Negeri Sembilan"
    },
    {
        "Postcode": "71600",
        "Location": "Kampung Gagu",
        "Post_Office": "Kuala Klawang",
        "State": "Negeri Sembilan"
    },
    {
        "Postcode": "71600",
        "Location": "Kampung Geliu",
        "Post_Office": "Kuala Klawang",
        "State": "Negeri Sembilan"
    },
    {
        "Postcode": "71600",
        "Location": "Kampung Gepu",
        "Post_Office": "Kuala Klawang",
        "State": "Negeri Sembilan"
    },
    {
        "Postcode": "71600",
        "Location": "Kampung Grisik",
        "Post_Office": "Kuala Klawang",
        "State": "Negeri Sembilan"
    },
    {
        "Postcode": "71600",
        "Location": "Kampung Guntong",
        "Post_Office": "Kuala Klawang",
        "State": "Negeri Sembilan"
    },
    {
        "Postcode": "71600",
        "Location": "Kampung Jambatan Serong",
        "Post_Office": "Kuala Klawang",
        "State": "Negeri Sembilan"
    },
    {
        "Postcode": "71600",
        "Location": "Kampung Jelatang",
        "Post_Office": "Kuala Klawang",
        "State": "Negeri Sembilan"
    },
    {
        "Postcode": "71600",
        "Location": "Kampung Jelebu Tengah",
        "Post_Office": "Kuala Klawang",
        "State": "Negeri Sembilan"
    },
    {
        "Postcode": "71600",
        "Location": "Kampung Jeletang Petasih",
        "Post_Office": "Kuala Klawang",
        "State": "Negeri Sembilan"
    },
    {
        "Postcode": "71600",
        "Location": "Kampung Jelin",
        "Post_Office": "Kuala Klawang",
        "State": "Negeri Sembilan"
    },
    {
        "Postcode": "71600",
        "Location": "Kampung Kachu Petaseh",
        "Post_Office": "Kuala Klawang",
        "State": "Negeri Sembilan"
    },
    {
        "Postcode": "71600",
        "Location": "Kampung Kampai",
        "Post_Office": "Kuala Klawang",
        "State": "Negeri Sembilan"
    },
    {
        "Postcode": "71600",
        "Location": "Kampung Kelembang",
        "Post_Office": "Kuala Klawang",
        "State": "Negeri Sembilan"
    },
    {
        "Postcode": "71600",
        "Location": "Kampung Kemin Beringin",
        "Post_Office": "Kuala Klawang",
        "State": "Negeri Sembilan"
    },
    {
        "Postcode": "71600",
        "Location": "Kampung Kerangai",
        "Post_Office": "Kuala Klawang",
        "State": "Negeri Sembilan"
    },
    {
        "Postcode": "71600",
        "Location": "Kampung Klakor",
        "Post_Office": "Kuala Klawang",
        "State": "Negeri Sembilan"
    },
    {
        "Postcode": "71600",
        "Location": "Kampung Kuala Klawang",
        "Post_Office": "Kuala Klawang",
        "State": "Negeri Sembilan"
    },
    {
        "Postcode": "71600",
        "Location": "Kampung Kuala Pah",
        "Post_Office": "Kuala Klawang",
        "State": "Negeri Sembilan"
    },
    {
        "Postcode": "71600",
        "Location": "Kampung Larong",
        "Post_Office": "Kuala Klawang",
        "State": "Negeri Sembilan"
    },
    {
        "Postcode": "71600",
        "Location": "Kampung Mangkan",
        "Post_Office": "Kuala Klawang",
        "State": "Negeri Sembilan"
    },
    {
        "Postcode": "71600",
        "Location": "Kampung Mengkan",
        "Post_Office": "Kuala Klawang",
        "State": "Negeri Sembilan"
    },
    {
        "Postcode": "71600",
        "Location": "Kampung Mengkan Dalam",
        "Post_Office": "Kuala Klawang",
        "State": "Negeri Sembilan"
    },
    {
        "Postcode": "71600",
        "Location": "Kampung Mengkan Luar",
        "Post_Office": "Kuala Klawang",
        "State": "Negeri Sembilan"
    },
    {
        "Postcode": "71600",
        "Location": "Kampung Merbau",
        "Post_Office": "Kuala Klawang",
        "State": "Negeri Sembilan"
    },
    {
        "Postcode": "71600",
        "Location": "Kampung Peninjau",
        "Post_Office": "Kuala Klawang",
        "State": "Negeri Sembilan"
    },
    {
        "Postcode": "71600",
        "Location": "Kampung Peradong",
        "Post_Office": "Kuala Klawang",
        "State": "Negeri Sembilan"
    },
    {
        "Postcode": "71600",
        "Location": "Kampung Pergai",
        "Post_Office": "Kuala Klawang",
        "State": "Negeri Sembilan"
    },
    {
        "Postcode": "71600",
        "Location": "Kampung Petaling",
        "Post_Office": "Kuala Klawang",
        "State": "Negeri Sembilan"
    },
    {
        "Postcode": "71600",
        "Location": "Kampung Petaseh",
        "Post_Office": "Kuala Klawang",
        "State": "Negeri Sembilan"
    },
    {
        "Postcode": "71600",
        "Location": "Kampung Petaseh Hilir",
        "Post_Office": "Kuala Klawang",
        "State": "Negeri Sembilan"
    },
    {
        "Postcode": "71600",
        "Location": "Kampung Petaseh Hulu",
        "Post_Office": "Kuala Klawang",
        "State": "Negeri Sembilan"
    },
    {
        "Postcode": "71600",
        "Location": "Kampung Petaseh Tengah",
        "Post_Office": "Kuala Klawang",
        "State": "Negeri Sembilan"
    },
    {
        "Postcode": "71600",
        "Location": "Kampung Pianggu",
        "Post_Office": "Kuala Klawang",
        "State": "Negeri Sembilan"
    },
    {
        "Postcode": "71600",
        "Location": "Kampung Rambai Baris",
        "Post_Office": "Kuala Klawang",
        "State": "Negeri Sembilan"
    },
    {
        "Postcode": "71600",
        "Location": "Kampung Renal",
        "Post_Office": "Kuala Klawang",
        "State": "Negeri Sembilan"
    },
    {
        "Postcode": "71600",
        "Location": "Kampung Sarin",
        "Post_Office": "Kuala Klawang",
        "State": "Negeri Sembilan"
    },
    {
        "Postcode": "71600",
        "Location": "Kampung Sepam",
        "Post_Office": "Kuala Klawang",
        "State": "Negeri Sembilan"
    },
    {
        "Postcode": "71600",
        "Location": "Kampung Sepri",
        "Post_Office": "Kuala Klawang",
        "State": "Negeri Sembilan"
    },
    {
        "Postcode": "71600",
        "Location": "Kampung Sepri Hilir",
        "Post_Office": "Kuala Klawang",
        "State": "Negeri Sembilan"
    },
    {
        "Postcode": "71600",
        "Location": "Kampung Sepri Tengah",
        "Post_Office": "Kuala Klawang",
        "State": "Negeri Sembilan"
    },
    {
        "Postcode": "71600",
        "Location": "Kampung Seri Temoi",
        "Post_Office": "Kuala Klawang",
        "State": "Negeri Sembilan"
    },
    {
        "Postcode": "71600",
        "Location": "Kampung Simpang Bakong",
        "Post_Office": "Kuala Klawang",
        "State": "Negeri Sembilan"
    },
    {
        "Postcode": "71600",
        "Location": "Kampung Solok Pelai",
        "Post_Office": "Kuala Klawang",
        "State": "Negeri Sembilan"
    },
    {
        "Postcode": "71600",
        "Location": "Kampung Sungai Bijeh",
        "Post_Office": "Kuala Klawang",
        "State": "Negeri Sembilan"
    },
    {
        "Postcode": "71600",
        "Location": "Kampung Sungai Daun",
        "Post_Office": "Kuala Klawang",
        "State": "Negeri Sembilan"
    },
    {
        "Postcode": "71600",
        "Location": "Kampung Sungai Kua",
        "Post_Office": "Kuala Klawang",
        "State": "Negeri Sembilan"
    },
    {
        "Postcode": "71600",
        "Location": "Kampung Sungai Lalang",
        "Post_Office": "Kuala Klawang",
        "State": "Negeri Sembilan"
    },
    {
        "Postcode": "71600",
        "Location": "Kampung Sungai Legom",
        "Post_Office": "Kuala Klawang",
        "State": "Negeri Sembilan"
    },
    {
        "Postcode": "71600",
        "Location": "Kampung Tanjong Chachar",
        "Post_Office": "Kuala Klawang",
        "State": "Negeri Sembilan"
    },
    {
        "Postcode": "71600",
        "Location": "Kampung Tembun",
        "Post_Office": "Kuala Klawang",
        "State": "Negeri Sembilan"
    },
    {
        "Postcode": "71600",
        "Location": "Kampung Tengkoh Banir",
        "Post_Office": "Kuala Klawang",
        "State": "Negeri Sembilan"
    },
    {
        "Postcode": "71600",
        "Location": "Kampung Teriang",
        "Post_Office": "Kuala Klawang",
        "State": "Negeri Sembilan"
    },
    {
        "Postcode": "71600",
        "Location": "Kampung Ulu Klawang",
        "Post_Office": "Kuala Klawang",
        "State": "Negeri Sembilan"
    },
    {
        "Postcode": "71600",
        "Location": "Kuala Klawang",
        "Post_Office": "Kuala Klawang",
        "State": "Negeri Sembilan"
    },
    {
        "Postcode": "71600",
        "Location": "Kuala Klawang - Beg Berkunci",
        "Post_Office": "Kuala Klawang",
        "State": "Negeri Sembilan"
    },
    {
        "Postcode": "71600",
        "Location": "Rumah Murah Petaling",
        "Post_Office": "Kuala Klawang",
        "State": "Negeri Sembilan"
    },
    {
        "Postcode": "71600",
        "Location": "Rumah Rakyat Larong",
        "Post_Office": "Kuala Klawang",
        "State": "Negeri Sembilan"
    },
    {
        "Postcode": "71600",
        "Location": "Sekolah Kebangsaan Triang",
        "Post_Office": "Kuala Klawang",
        "State": "Negeri Sembilan"
    },
    {
        "Postcode": "71600",
        "Location": "Taman Bukit Petaling",
        "Post_Office": "Kuala Klawang",
        "State": "Negeri Sembilan"
    },
    {
        "Postcode": "71600",
        "Location": "Taman Dato Moyang Salleh",
        "Post_Office": "Kuala Klawang",
        "State": "Negeri Sembilan"
    },
    {
        "Postcode": "71600",
        "Location": "Taman Irama",
        "Post_Office": "Kuala Klawang",
        "State": "Negeri Sembilan"
    },
    {
        "Postcode": "71600",
        "Location": "Taman Pembina Jaya",
        "Post_Office": "Kuala Klawang",
        "State": "Negeri Sembilan"
    },
    {
        "Postcode": "71600",
        "Location": "Taman Petaling",
        "Post_Office": "Kuala Klawang",
        "State": "Negeri Sembilan"
    },
    {
        "Postcode": "71600",
        "Location": "Taman Poem",
        "Post_Office": "Kuala Klawang",
        "State": "Negeri Sembilan"
    },
    {
        "Postcode": "71600",
        "Location": "Taman Seri Kenaboi",
        "Post_Office": "Kuala Klawang",
        "State": "Negeri Sembilan"
    },
    {
        "Postcode": "71600",
        "Location": "Teluk Belai",
        "Post_Office": "Kuala Klawang",
        "State": "Negeri Sembilan"
    },
    {
        "Postcode": "71600",
        "Location": "Temoi",
        "Post_Office": "Kuala Klawang",
        "State": "Negeri Sembilan"
    },
    {
        "Postcode": "71600",
        "Location": "Kampung Kemin Luar ",
        "Post_Office": "Kuala Klawang",
        "State": "Negeri Sembilan"
    },
    {
        "Postcode": "71600",
        "Location": "Kampung Kemin Tanjung",
        "Post_Office": "Kuala Klawang",
        "State": "Negeri Sembilan"
    },
    {
        "Postcode": "71600",
        "Location": "Kampung Purun",
        "Post_Office": "Kuala Klawang",
        "State": "Negeri Sembilan"
    },
    {
        "Postcode": "71600",
        "Location": "Kampung Sawah Liat",
        "Post_Office": "Kuala Klawang",
        "State": "Negeri Sembilan"
    },
    {
        "Postcode": "71600",
        "Location": "Kampung Sungai Raya",
        "Post_Office": "Kuala Klawang",
        "State": "Negeri Sembilan"
    },
    {
        "Postcode": "71600",
        "Location": "Kampung Tanjung Berangan",
        "Post_Office": "Kuala Klawang",
        "State": "Negeri Sembilan"
    },
    {
        "Postcode": "71600",
        "Location": "Taman Angsana",
        "Post_Office": "Kuala Klawang",
        "State": "Negeri Sembilan"
    },
    {
        "Postcode": "71600",
        "Location": "Taman Berlian",
        "Post_Office": "Kuala Klawang",
        "State": "Negeri Sembilan"
    },
    {
        "Postcode": "71600",
        "Location": "Taman Jati",
        "Post_Office": "Kuala Klawang",
        "State": "Negeri Sembilan"
    },
    {
        "Postcode": "71600",
        "Location": "Taman Ksm",
        "Post_Office": "Kuala Klawang",
        "State": "Negeri Sembilan"
    },
    {
        "Postcode": "71600",
        "Location": "Kampung Bukit",
        "Post_Office": "Kuala Klawang",
        "State": "Negeri Sembilan"
    },
    {
        "Postcode": "71600",
        "Location": "Kampung Simpang Gelami",
        "Post_Office": "Kuala Klawang",
        "State": "Negeri Sembilan"
    },
    {
        "Postcode": "71600",
        "Location": "Kampung Ulu Jelebu",
        "Post_Office": "Kuala Klawang",
        "State": "Negeri Sembilan"
    },
    {
        "Postcode": "71600",
        "Location": "Taman Dato Undang Abdullah",
        "Post_Office": "Kuala Klawang",
        "State": "Negeri Sembilan"
    },
    {
        "Postcode": "71600",
        "Location": "Taman Wangsa Indah ",
        "Post_Office": "Kuala Klawang",
        "State": "Negeri Sembilan"
    },
    {
        "Postcode": "71600",
        "Location": "Taman Bandar Tinggi",
        "Post_Office": "Kuala Klawang",
        "State": "Negeri Sembilan"
    },
    {
        "Postcode": "71600",
        "Location": "Taman Cengal",
        "Post_Office": "Kuala Klawang",
        "State": "Negeri Sembilan"
    },
    {
        "Postcode": "71600",
        "Location": "Taman Jelebu 1",
        "Post_Office": "Kuala Klawang",
        "State": "Negeri Sembilan"
    },
    {
        "Postcode": "71600",
        "Location": "Taman Jelebu 2",
        "Post_Office": "Kuala Klawang",
        "State": "Negeri Sembilan"
    }
]
