[
    {
        "Postcode": "71650",
        "Location": "Felda Titi",
        "Post_Office": "Kuala Klawang",
        "State": "Negeri Sembilan"
    },
    {
        "Postcode": "71650",
        "Location": "Hosapa",
        "Post_Office": "Kuala Klawang",
        "State": "Negeri Sembilan"
    },
    {
        "Postcode": "71650",
        "Location": "Kampung Baru Sungai Muntoh",
        "Post_Office": "Kuala Klawang",
        "State": "Negeri Sembilan"
    },
    {
        "Postcode": "71650",
        "Location": "Kampung Bertam",
        "Post_Office": "Kuala Klawang",
        "State": "Negeri Sembilan"
    },
    {
        "Postcode": "71650",
        "Location": "Kampung Dusun Kubor",
        "Post_Office": "Kuala Klawang",
        "State": "Negeri Sembilan"
    },
    {
        "Postcode": "71650",
        "Location": "Kampung Kenan",
        "Post_Office": "Kuala Klawang",
        "State": "Negeri Sembilan"
    },
    {
        "Postcode": "71650",
        "Location": "Kampung Puom",
        "Post_Office": "Kuala Klawang",
        "State": "Negeri Sembilan"
    },
    {
        "Postcode": "71650",
        "Location": "Kampung Seperi",
        "Post_Office": "Kuala Klawang",
        "State": "Negeri Sembilan"
    },
    {
        "Postcode": "71650",
        "Location": "Kampung Seperi Tengah",
        "Post_Office": "Kuala Klawang",
        "State": "Negeri Sembilan"
    },
    {
        "Postcode": "71650",
        "Location": "Kampung Sungai Kekaru",
        "Post_Office": "Kuala Klawang",
        "State": "Negeri Sembilan"
    },
    {
        "Postcode": "71650",
        "Location": "Kampung Sungai Muntoh",
        "Post_Office": "Kuala Klawang",
        "State": "Negeri Sembilan"
    },
    {
        "Postcode": "71650",
        "Location": "Kampung Sungai Rotan",
        "Post_Office": "Kuala Klawang",
        "State": "Negeri Sembilan"
    },
    {
        "Postcode": "71650",
        "Location": "Kampung Telekong",
        "Post_Office": "Kuala Klawang",
        "State": "Negeri Sembilan"
    },
    {
        "Postcode": "71650",
        "Location": "Ladang Jelebu",
        "Post_Office": "Kuala Klawang",
        "State": "Negeri Sembilan"
    },
    {
        "Postcode": "71650",
        "Location": "Pusat Perikanan Air Tawar (Gelem - Lemi)",
        "Post_Office": "Kuala Klawang",
        "State": "Negeri Sembilan"
    },
    {
        "Postcode": "71650",
        "Location": "Rumah Rakyat Sungai Rotan",
        "Post_Office": "Kuala Klawang",
        "State": "Negeri Sembilan"
    },
    {
        "Postcode": "71650",
        "Location": "Taman Kin San",
        "Post_Office": "Kuala Klawang",
        "State": "Negeri Sembilan"
    },
    {
        "Postcode": "71650",
        "Location": "Taman Mawar",
        "Post_Office": "Kuala Klawang",
        "State": "Negeri Sembilan"
    },
    {
        "Postcode": "71650",
        "Location": "Taman Naga Mas",
        "Post_Office": "Kuala Klawang",
        "State": "Negeri Sembilan"
    },
    {
        "Postcode": "71650",
        "Location": "Taman Titi",
        "Post_Office": "Kuala Klawang",
        "State": "Negeri Sembilan"
    },
    {
        "Postcode": "71650",
        "Location": "Titi",
        "Post_Office": "Kuala Klawang",
        "State": "Negeri Sembilan"
    },
    {
        "Postcode": "71650",
        "Location": "Taman Desa Permai",
        "Post_Office": "Kuala Klawang",
        "State": "Negeri Sembilan"
    },
    {
        "Postcode": "71650",
        "Location": "Taman Mok Sum",
        "Post_Office": "Kuala Klawang",
        "State": "Negeri Sembilan"
    },
    {
        "Postcode": "71650",
        "Location": "Kampung Chennah",
        "Post_Office": "Kuala Klawang",
        "State": "Negeri Sembilan"
    },
    {
        "Postcode": "71650",
        "Location": "Kampung Seperi Ulu",
        "Post_Office": "Kuala Klawang",
        "State": "Negeri Sembilan"
    },
    {
        "Postcode": "71650",
        "Location": "Rumah Murah Mah Fong",
        "Post_Office": "Kuala Klawang",
        "State": "Negeri Sembilan"
    },
    {
        "Postcode": "71650",
        "Location": "Taman Sri Cempedak",
        "Post_Office": "Kuala Klawang",
        "State": "Negeri Sembilan"
    },
    {
        "Postcode": "71650",
        "Location": "Taman Sri Jelebu",
        "Post_Office": "Kuala Klawang",
        "State": "Negeri Sembilan"
    },
    {
        "Postcode": "71650",
        "Location": "Kampung Semarail",
        "Post_Office": "Kuala Klawang",
        "State": "Negeri Sembilan"
    },
    {
        "Postcode": "71650",
        "Location": "Taman Bukit Kempas",
        "Post_Office": "Kuala Klawang",
        "State": "Negeri Sembilan"
    }
]
