[
    {
        "Postcode": "71700",
        "Location": "Taman Ros",
        "Post_Office": "Mantin",
        "State": "Negeri Sembilan"
    },
    {
        "Postcode": "71700",
        "Location": "Bayu Lake Homes",
        "Post_Office": "Mantin",
        "State": "Negeri Sembilan"
    },
    {
        "Postcode": "71700",
        "Location": "Desa Pinggiran Bayu",
        "Post_Office": "Mantin",
        "State": "Negeri Sembilan"
    },
    {
        "Postcode": "71700",
        "Location": "Perdana College Heights",
        "Post_Office": "Mantin",
        "State": "Negeri Sembilan"
    },
    {
        "Postcode": "71700",
        "Location": "Bandar Sri Pajam",
        "Post_Office": "Mantin",
        "State": "Negeri Sembilan"
    },
    {
        "Postcode": "71700",
        "Location": "Bandar Universiti Teknologi Lagenda",
        "Post_Office": "Mantin",
        "State": "Negeri Sembilan"
    },
    {
        "Postcode": "71700",
        "Location": "College Height Pajam",
        "Post_Office": "Mantin",
        "State": "Negeri Sembilan"
    },
    {
        "Postcode": "71700",
        "Location": "Gebok Division Estate",
        "Post_Office": "Mantin",
        "State": "Negeri Sembilan"
    },
    {
        "Postcode": "71700",
        "Location": "Kampung Baru Batang Benar",
        "Post_Office": "Mantin",
        "State": "Negeri Sembilan"
    },
    {
        "Postcode": "71700",
        "Location": "Kampung Baru Mantin",
        "Post_Office": "Mantin",
        "State": "Negeri Sembilan"
    },
    {
        "Postcode": "71700",
        "Location": "Kampung Baru Pajam",
        "Post_Office": "Mantin",
        "State": "Negeri Sembilan"
    },
    {
        "Postcode": "71700",
        "Location": "Kampung Batang Benar",
        "Post_Office": "Mantin",
        "State": "Negeri Sembilan"
    },
    {
        "Postcode": "71700",
        "Location": "Kampung Batu 12",
        "Post_Office": "Mantin",
        "State": "Negeri Sembilan"
    },
    {
        "Postcode": "71700",
        "Location": "Kampung Batu 8",
        "Post_Office": "Mantin",
        "State": "Negeri Sembilan"
    },
    {
        "Postcode": "71700",
        "Location": "Kampung Batu 9",
        "Post_Office": "Mantin",
        "State": "Negeri Sembilan"
    },
    {
        "Postcode": "71700",
        "Location": "Kampung Cik Lah",
        "Post_Office": "Mantin",
        "State": "Negeri Sembilan"
    },
    {
        "Postcode": "71700",
        "Location": "Kampung Gebok",
        "Post_Office": "Mantin",
        "State": "Negeri Sembilan"
    },
    {
        "Postcode": "71700",
        "Location": "Kampung Mantin Dalam",
        "Post_Office": "Mantin",
        "State": "Negeri Sembilan"
    },
    {
        "Postcode": "71700",
        "Location": "Kampung Staffield",
        "Post_Office": "Mantin",
        "State": "Negeri Sembilan"
    },
    {
        "Postcode": "71700",
        "Location": "Kampung Ulu Batang Benar",
        "Post_Office": "Mantin",
        "State": "Negeri Sembilan"
    },
    {
        "Postcode": "71700",
        "Location": "Kawasan Biru",
        "Post_Office": "Mantin",
        "State": "Negeri Sembilan"
    },
    {
        "Postcode": "71700",
        "Location": "Kawasan Hijau",
        "Post_Office": "Mantin",
        "State": "Negeri Sembilan"
    },
    {
        "Postcode": "71700",
        "Location": "Kawasan Kuning",
        "Post_Office": "Mantin",
        "State": "Negeri Sembilan"
    },
    {
        "Postcode": "71700",
        "Location": "Kawasan Merah",
        "Post_Office": "Mantin",
        "State": "Negeri Sembilan"
    },
    {
        "Postcode": "71700",
        "Location": "Kawasan Tong Sing",
        "Post_Office": "Mantin",
        "State": "Negeri Sembilan"
    },
    {
        "Postcode": "71700",
        "Location": "Kem Sri Perkasa",
        "Post_Office": "Mantin",
        "State": "Negeri Sembilan"
    },
    {
        "Postcode": "71700",
        "Location": "Kolej Legenda",
        "Post_Office": "Mantin",
        "State": "Negeri Sembilan"
    },
    {
        "Postcode": "71700",
        "Location": "Mukim Setul",
        "Post_Office": "Mantin",
        "State": "Negeri Sembilan"
    },
    {
        "Postcode": "71700",
        "Location": "Pajam",
        "Post_Office": "Mantin",
        "State": "Negeri Sembilan"
    },
    {
        "Postcode": "71700",
        "Location": "Pangsapuri Legenda",
        "Post_Office": "Mantin",
        "State": "Negeri Sembilan"
    },
    {
        "Postcode": "71700",
        "Location": "Rumah Rakyat Batang Benar",
        "Post_Office": "Mantin",
        "State": "Negeri Sembilan"
    },
    {
        "Postcode": "71700",
        "Location": "Rumah Rakyat Mantin",
        "Post_Office": "Mantin",
        "State": "Negeri Sembilan"
    },
    {
        "Postcode": "71700",
        "Location": "Staffield Country Resort",
        "Post_Office": "Mantin",
        "State": "Negeri Sembilan"
    },
    {
        "Postcode": "71700",
        "Location": "Taman Akasia",
        "Post_Office": "Mantin",
        "State": "Negeri Sembilan"
    },
    {
        "Postcode": "71700",
        "Location": "Taman Asoka",
        "Post_Office": "Mantin",
        "State": "Negeri Sembilan"
    },
    {
        "Postcode": "71700",
        "Location": "Taman Bukit Belian",
        "Post_Office": "Mantin",
        "State": "Negeri Sembilan"
    },
    {
        "Postcode": "71700",
        "Location": "Taman Bukit Belian Fasa 2",
        "Post_Office": "Mantin",
        "State": "Negeri Sembilan"
    },
    {
        "Postcode": "71700",
        "Location": "Taman Bukit Belian Fasa 3",
        "Post_Office": "Mantin",
        "State": "Negeri Sembilan"
    },
    {
        "Postcode": "71700",
        "Location": "Taman Bukit Inai",
        "Post_Office": "Mantin",
        "State": "Negeri Sembilan"
    },
    {
        "Postcode": "71700",
        "Location": "Taman Bukit Mantin",
        "Post_Office": "Mantin",
        "State": "Negeri Sembilan"
    },
    {
        "Postcode": "71700",
        "Location": "Taman Bukit Saga",
        "Post_Office": "Mantin",
        "State": "Negeri Sembilan"
    },
    {
        "Postcode": "71700",
        "Location": "Taman Bunga Raya Ii",
        "Post_Office": "Mantin",
        "State": "Negeri Sembilan"
    },
    {
        "Postcode": "71700",
        "Location": "Taman Dahlia Batang Benar",
        "Post_Office": "Mantin",
        "State": "Negeri Sembilan"
    },
    {
        "Postcode": "71700",
        "Location": "Taman Dahlia Indah",
        "Post_Office": "Mantin",
        "State": "Negeri Sembilan"
    },
    {
        "Postcode": "71700",
        "Location": "Taman Desa Mantin",
        "Post_Office": "Mantin",
        "State": "Negeri Sembilan"
    },
    {
        "Postcode": "71700",
        "Location": "Taman Desa Pelangi",
        "Post_Office": "Mantin",
        "State": "Negeri Sembilan"
    },
    {
        "Postcode": "71700",
        "Location": "Taman Ks",
        "Post_Office": "Mantin",
        "State": "Negeri Sembilan"
    },
    {
        "Postcode": "71700",
        "Location": "Taman Lai Loy",
        "Post_Office": "Mantin",
        "State": "Negeri Sembilan"
    },
    {
        "Postcode": "71700",
        "Location": "Taman Maju Jaya",
        "Post_Office": "Mantin",
        "State": "Negeri Sembilan"
    },
    {
        "Postcode": "71700",
        "Location": "Taman Mantin",
        "Post_Office": "Mantin",
        "State": "Negeri Sembilan"
    },
    {
        "Postcode": "71700",
        "Location": "Taman Mantin 2",
        "Post_Office": "Mantin",
        "State": "Negeri Sembilan"
    },
    {
        "Postcode": "71700",
        "Location": "Taman Mantin Jaya",
        "Post_Office": "Mantin",
        "State": "Negeri Sembilan"
    },
    {
        "Postcode": "71700",
        "Location": "Taman Medang",
        "Post_Office": "Mantin",
        "State": "Negeri Sembilan"
    },
    {
        "Postcode": "71700",
        "Location": "Taman Merbau",
        "Post_Office": "Mantin",
        "State": "Negeri Sembilan"
    },
    {
        "Postcode": "71700",
        "Location": "Taman Mulia",
        "Post_Office": "Mantin",
        "State": "Negeri Sembilan"
    },
    {
        "Postcode": "71700",
        "Location": "Taman Pelangi Indah",
        "Post_Office": "Mantin",
        "State": "Negeri Sembilan"
    },
    {
        "Postcode": "71700",
        "Location": "Taman Permai Jaya",
        "Post_Office": "Mantin",
        "State": "Negeri Sembilan"
    },
    {
        "Postcode": "71700",
        "Location": "Taman Ru",
        "Post_Office": "Mantin",
        "State": "Negeri Sembilan"
    },
    {
        "Postcode": "71700",
        "Location": "Taman Seraya",
        "Post_Office": "Mantin",
        "State": "Negeri Sembilan"
    },
    {
        "Postcode": "71700",
        "Location": "Taman Seri Impian",
        "Post_Office": "Mantin",
        "State": "Negeri Sembilan"
    },
    {
        "Postcode": "71700",
        "Location": "Taman Setul",
        "Post_Office": "Mantin",
        "State": "Negeri Sembilan"
    },
    {
        "Postcode": "71700",
        "Location": "Taman Sri Damar",
        "Post_Office": "Mantin",
        "State": "Negeri Sembilan"
    },
    {
        "Postcode": "71700",
        "Location": "Taman Sri Pajam",
        "Post_Office": "Mantin",
        "State": "Negeri Sembilan"
    },
    {
        "Postcode": "71700",
        "Location": "Ulu Batang Benar",
        "Post_Office": "Mantin",
        "State": "Negeri Sembilan"
    },
    {
        "Postcode": "71700",
        "Location": "Kampung Masjid",
        "Post_Office": "Mantin",
        "State": "Negeri Sembilan"
    },
    {
        "Postcode": "71700",
        "Location": "Taman Anggerik",
        "Post_Office": "Mantin",
        "State": "Negeri Sembilan"
    },
    {
        "Postcode": "71700",
        "Location": "Taman Bunga Raya",
        "Post_Office": "Mantin",
        "State": "Negeri Sembilan"
    },
    {
        "Postcode": "71700",
        "Location": "Taman Mutiara",
        "Post_Office": "Mantin",
        "State": "Negeri Sembilan"
    },
    {
        "Postcode": "71700",
        "Location": "Taman Sentosa",
        "Post_Office": "Mantin",
        "State": "Negeri Sembilan"
    },
    {
        "Postcode": "71700",
        "Location": "Taman Kempas",
        "Post_Office": "Mantin",
        "State": "Negeri Sembilan"
    },
    {
        "Postcode": "71700",
        "Location": "Taman Meranti",
        "Post_Office": "Mantin",
        "State": "Negeri Sembilan"
    },
    {
        "Postcode": "71700",
        "Location": "Laman Suria ",
        "Post_Office": "Mantin",
        "State": "Negeri Sembilan"
    },
    {
        "Postcode": "71700",
        "Location": "Taman Sri Gading",
        "Post_Office": "Mantin",
        "State": "Negeri Sembilan"
    },
    {
        "Postcode": "71700",
        "Location": "Kawasan Perindustrian Ringan College Heights",
        "Post_Office": "Mantin",
        "State": "Negeri Sembilan"
    },
    {
        "Postcode": "71700",
        "Location": "Bandar Baru Mantin",
        "Post_Office": "Mantin",
        "State": "Negeri Sembilan"
    },
    {
        "Postcode": "71700",
        "Location": "Taman Surian",
        "Post_Office": "Mantin",
        "State": "Negeri Sembilan"
    },
    {
        "Postcode": "71700",
        "Location": "Taman Tong Seng",
        "Post_Office": "Mantin",
        "State": "Negeri Sembilan"
    },
    {
        "Postcode": "71700",
        "Location": "Taman Alam Seni",
        "Post_Office": "Mantin",
        "State": "Negeri Sembilan"
    },
    {
        "Postcode": "71700",
        "Location": "Taman Andalas",
        "Post_Office": "Mantin",
        "State": "Negeri Sembilan"
    },
    {
        "Postcode": "71700",
        "Location": "Taman Seri Gelam",
        "Post_Office": "Mantin",
        "State": "Negeri Sembilan"
    },
    {
        "Postcode": "71700",
        "Location": "Taman Bukit Lili",
        "Post_Office": "Mantin",
        "State": "Negeri Sembilan"
    },
    {
        "Postcode": "71700",
        "Location": "Taman Bukit Citra",
        "Post_Office": "Mantin",
        "State": "Negeri Sembilan"
    },
    {
        "Postcode": "71700",
        "Location": "Taman Jaya 1",
        "Post_Office": "Mantin",
        "State": "Negeri Sembilan"
    },
    {
        "Postcode": "71700",
        "Location": "Jalan Perdana College Heights 17",
        "Post_Office": "Mantin",
        "State": "Negeri Sembilan"
    },
    {
        "Postcode": "71700",
        "Location": "Jalan Ara Bayu 1",
        "Post_Office": "Mantin",
        "State": "Negeri Sembilan"
    },
    {
        "Postcode": "71700",
        "Location": "Jalan Ara Bayu 2",
        "Post_Office": "Mantin",
        "State": "Negeri Sembilan"
    },
    {
        "Postcode": "71700",
        "Location": "Jalan Ara Bayu 3",
        "Post_Office": "Mantin",
        "State": "Negeri Sembilan"
    },
    {
        "Postcode": "71700",
        "Location": "Jalan Ara Bayu 4",
        "Post_Office": "Mantin",
        "State": "Negeri Sembilan"
    },
    {
        "Postcode": "71700",
        "Location": "Jalan Ara Bayu 5",
        "Post_Office": "Mantin",
        "State": "Negeri Sembilan"
    },
    {
        "Postcode": "71700",
        "Location": "Taman Ara Bayu",
        "Post_Office": "Mantin",
        "State": "Negeri Sembilan"
    },
    {
        "Postcode": "71700",
        "Location": "Pekan Mantin",
        "Post_Office": "Mantin",
        "State": "Negeri Sembilan"
    },
    {
        "Postcode": "71700",
        "Location": "Taman Sri Angsana",
        "Post_Office": "Mantin",
        "State": "Negeri Sembilan"
    },
    {
        "Postcode": "71700",
        "Location": "Taman Gading Indah",
        "Post_Office": "Mantin",
        "State": "Negeri Sembilan"
    },
    {
        "Postcode": "71700",
        "Location": "Taman Gading Jaya",
        "Post_Office": "Mantin",
        "State": "Negeri Sembilan"
    },
    {
        "Postcode": "71700",
        "Location": "Taman Kayangan",
        "Post_Office": "Mantin",
        "State": "Negeri Sembilan"
    },
    {
        "Postcode": "71700",
        "Location": "Pusat Perniagaan Bunga Raya",
        "Post_Office": "Mantin",
        "State": "Negeri Sembilan"
    },
    {
        "Postcode": "71700",
        "Location": "Taman Beringin Jaya",
        "Post_Office": "Mantin",
        "State": "Negeri Sembilan"
    },
    {
        "Postcode": "71700",
        "Location": "Kawasan Perindustrian Ringan Mantin",
        "Post_Office": "Mantin",
        "State": "Negeri Sembilan"
    },
    {
        "Postcode": "71700",
        "Location": "Taman Bukit Cerana",
        "Post_Office": "Mantin",
        "State": "Negeri Sembilan"
    },
    {
        "Postcode": "71700",
        "Location": "Taman Tenggiri",
        "Post_Office": "Mantin",
        "State": "Negeri Sembilan"
    },
    {
        "Postcode": "71700",
        "Location": "Residensi Bukit Citra",
        "Post_Office": "Mantin",
        "State": "Negeri Sembilan"
    },
    {
        "Postcode": "71700",
        "Location": "Taman Murni",
        "Post_Office": "Mantin",
        "State": "Negeri Sembilan"
    },
    {
        "Postcode": "71700",
        "Location": "Taman Orkid",
        "Post_Office": "Mantin",
        "State": "Negeri Sembilan"
    },
    {
        "Postcode": "71700",
        "Location": "Taman Sri Mawar",
        "Post_Office": "Mantin",
        "State": "Negeri Sembilan"
    },
    {
        "Postcode": "71700",
        "Location": "Apartment Sri Palma",
        "Post_Office": "Mantin",
        "State": "Negeri Sembilan"
    },
    {
        "Postcode": "71700",
        "Location": "Sri Palma Villa",
        "Post_Office": "Mantin",
        "State": "Negeri Sembilan"
    }
]
