[
    {
        "Postcode": "71750",
        "Location": "Taman Desa Klana ",
        "Post_Office": "Mantin",
        "State": "Negeri Sembilan"
    },
    {
        "Postcode": "71750",
        "Location": "Kampung Baru Broga",
        "Post_Office": "Mantin",
        "State": "Negeri Sembilan"
    },
    {
        "Postcode": "71750",
        "Location": "Kampung Baru Lenggeng",
        "Post_Office": "Mantin",
        "State": "Negeri Sembilan"
    },
    {
        "Postcode": "71750",
        "Location": "Kampung Baru Ulu Beranang",
        "Post_Office": "Mantin",
        "State": "Negeri Sembilan"
    },
    {
        "Postcode": "71750",
        "Location": "Kampung Batu 18",
        "Post_Office": "Mantin",
        "State": "Negeri Sembilan"
    },
    {
        "Postcode": "71750",
        "Location": "Kampung Chelogeh",
        "Post_Office": "Mantin",
        "State": "Negeri Sembilan"
    },
    {
        "Postcode": "71750",
        "Location": "Kampung Daching Hilir",
        "Post_Office": "Mantin",
        "State": "Negeri Sembilan"
    },
    {
        "Postcode": "71750",
        "Location": "Kampung Daching Hulu",
        "Post_Office": "Mantin",
        "State": "Negeri Sembilan"
    },
    {
        "Postcode": "71750",
        "Location": "Kampung Daching Tengah",
        "Post_Office": "Mantin",
        "State": "Negeri Sembilan"
    },
    {
        "Postcode": "71750",
        "Location": "Kampung Jelatok",
        "Post_Office": "Mantin",
        "State": "Negeri Sembilan"
    },
    {
        "Postcode": "71750",
        "Location": "Kampung Jelebu",
        "Post_Office": "Mantin",
        "State": "Negeri Sembilan"
    },
    {
        "Postcode": "71750",
        "Location": "Kampung Jeram Kedah",
        "Post_Office": "Mantin",
        "State": "Negeri Sembilan"
    },
    {
        "Postcode": "71750",
        "Location": "Kampung Kapal",
        "Post_Office": "Mantin",
        "State": "Negeri Sembilan"
    },
    {
        "Postcode": "71750",
        "Location": "Kampung Katub",
        "Post_Office": "Mantin",
        "State": "Negeri Sembilan"
    },
    {
        "Postcode": "71750",
        "Location": "Kampung Lombong Jerneh",
        "Post_Office": "Mantin",
        "State": "Negeri Sembilan"
    },
    {
        "Postcode": "71750",
        "Location": "Kampung Mendom",
        "Post_Office": "Mantin",
        "State": "Negeri Sembilan"
    },
    {
        "Postcode": "71750",
        "Location": "Kampung Pendekar Raja",
        "Post_Office": "Mantin",
        "State": "Negeri Sembilan"
    },
    {
        "Postcode": "71750",
        "Location": "Kampung Sungai Bioh",
        "Post_Office": "Mantin",
        "State": "Negeri Sembilan"
    },
    {
        "Postcode": "71750",
        "Location": "Kampung Sungai Bunga",
        "Post_Office": "Mantin",
        "State": "Negeri Sembilan"
    },
    {
        "Postcode": "71750",
        "Location": "Kampung Sungai Jai",
        "Post_Office": "Mantin",
        "State": "Negeri Sembilan"
    },
    {
        "Postcode": "71750",
        "Location": "Kampung Sungai Machang Hilir",
        "Post_Office": "Mantin",
        "State": "Negeri Sembilan"
    },
    {
        "Postcode": "71750",
        "Location": "Kampung Sungai Machang Ulu",
        "Post_Office": "Mantin",
        "State": "Negeri Sembilan"
    },
    {
        "Postcode": "71750",
        "Location": "Kampung Tarun",
        "Post_Office": "Mantin",
        "State": "Negeri Sembilan"
    },
    {
        "Postcode": "71750",
        "Location": "Kampung Tegor",
        "Post_Office": "Mantin",
        "State": "Negeri Sembilan"
    },
    {
        "Postcode": "71750",
        "Location": "Kampung Ulu Beranang",
        "Post_Office": "Mantin",
        "State": "Negeri Sembilan"
    },
    {
        "Postcode": "71750",
        "Location": "Ladang Lenggeng",
        "Post_Office": "Mantin",
        "State": "Negeri Sembilan"
    },
    {
        "Postcode": "71750",
        "Location": "Ladang Sungai Beranang",
        "Post_Office": "Mantin",
        "State": "Negeri Sembilan"
    },
    {
        "Postcode": "71750",
        "Location": "Lorong Klana Jaya 3/1",
        "Post_Office": "Mantin",
        "State": "Negeri Sembilan"
    },
    {
        "Postcode": "71750",
        "Location": "Rumah Rakyat Lenggeng",
        "Post_Office": "Mantin",
        "State": "Negeri Sembilan"
    },
    {
        "Postcode": "71750",
        "Location": "Rumah Rakyat Ulu Beranang",
        "Post_Office": "Mantin",
        "State": "Negeri Sembilan"
    },
    {
        "Postcode": "71750",
        "Location": "Taman Broga",
        "Post_Office": "Mantin",
        "State": "Negeri Sembilan"
    },
    {
        "Postcode": "71750",
        "Location": "Taman Ulu Beranang",
        "Post_Office": "Mantin",
        "State": "Negeri Sembilan"
    },
    {
        "Postcode": "71750",
        "Location": "Kampung Masjid",
        "Post_Office": "Mantin",
        "State": "Negeri Sembilan"
    },
    {
        "Postcode": "71750",
        "Location": "Kampung Tengah",
        "Post_Office": "Mantin",
        "State": "Negeri Sembilan"
    },
    {
        "Postcode": "71750",
        "Location": "Taman Melati",
        "Post_Office": "Mantin",
        "State": "Negeri Sembilan"
    },
    {
        "Postcode": "71750",
        "Location": "Taman Kenari",
        "Post_Office": "Mantin",
        "State": "Negeri Sembilan"
    },
    {
        "Postcode": "71750",
        "Location": "Bandar Tasik Senangin",
        "Post_Office": "Mantin",
        "State": "Negeri Sembilan"
    },
    {
        "Postcode": "71750",
        "Location": "Kampung Rawa Hilir",
        "Post_Office": "Mantin",
        "State": "Negeri Sembilan"
    },
    {
        "Postcode": "71750",
        "Location": "Kampung Rawa Ulu",
        "Post_Office": "Mantin",
        "State": "Negeri Sembilan"
    },
    {
        "Postcode": "71750",
        "Location": "Kampung Sungai Petai",
        "Post_Office": "Mantin",
        "State": "Negeri Sembilan"
    },
    {
        "Postcode": "71750",
        "Location": "Pekan Broga",
        "Post_Office": "Mantin",
        "State": "Negeri Sembilan"
    },
    {
        "Postcode": "71750",
        "Location": "Pekan Lenggeng",
        "Post_Office": "Mantin",
        "State": "Negeri Sembilan"
    },
    {
        "Postcode": "71750",
        "Location": "Pekan Ulu Beranang",
        "Post_Office": "Mantin",
        "State": "Negeri Sembilan"
    },
    {
        "Postcode": "71750",
        "Location": "Taman Klana Jaya",
        "Post_Office": "Mantin",
        "State": "Negeri Sembilan"
    },
    {
        "Postcode": "71750",
        "Location": "Taman Dato Dagang Hj Abdullah",
        "Post_Office": "Mantin",
        "State": "Negeri Sembilan"
    },
    {
        "Postcode": "71750",
        "Location": "Taman Gelama",
        "Post_Office": "Mantin",
        "State": "Negeri Sembilan"
    },
    {
        "Postcode": "71750",
        "Location": "Pusat Perniagaan Seksyen 15",
        "Post_Office": "Mantin",
        "State": "Negeri Sembilan"
    },
    {
        "Postcode": "71750",
        "Location": "Kampung Sompo",
        "Post_Office": "Mantin",
        "State": "Negeri Sembilan"
    },
    {
        "Postcode": "71750",
        "Location": "Jalan Klana Jaya 1",
        "Post_Office": "Mantin",
        "State": "Negeri Sembilan"
    },
    {
        "Postcode": "71750",
        "Location": "Jalan Klana Jaya 2",
        "Post_Office": "Mantin",
        "State": "Negeri Sembilan"
    },
    {
        "Postcode": "71750",
        "Location": "Jalan Klana Jaya 3",
        "Post_Office": "Mantin",
        "State": "Negeri Sembilan"
    },
    {
        "Postcode": "71750",
        "Location": "Jalan Klana Jaya 4",
        "Post_Office": "Mantin",
        "State": "Negeri Sembilan"
    },
    {
        "Postcode": "71750",
        "Location": "Jalan Klana Jaya 5",
        "Post_Office": "Mantin",
        "State": "Negeri Sembilan"
    }
]
