[
    {
        "Postcode": "71760",
        "Location": "Bandar Baru Enstek",
        "Post_Office": "Bandar Enstek",
        "State": "Negeri Sembilan"
    },
    {
        "Postcode": "71760",
        "Location": "Jalan Jentayu, Lengkuk 1-9",
        "Post_Office": "Bandar Enstek",
        "State": "Negeri Sembilan"
    },
    {
        "Postcode": "71760",
        "Location": "Kampung Lb Johnson",
        "Post_Office": "Bandar Enstek",
        "State": "Negeri Sembilan"
    },
    {
        "Postcode": "71760",
        "Location": "Kampung Lbj (Felda)",
        "Post_Office": "Bandar Enstek",
        "State": "Negeri Sembilan"
    },
    {
        "Postcode": "71760",
        "Location": "Jalan Timur 1/2",
        "Post_Office": "Bandar Enstek",
        "State": "Negeri Sembilan"
    },
    {
        "Postcode": "71760",
        "Location": "Epson College",
        "Post_Office": "Bandar Enstek",
        "State": "Negeri Sembilan"
    },
    {
        "Postcode": "71760",
        "Location": "Institut Latihan Universiti Teknologi Mara (Uitm)",
        "Post_Office": "Bandar Enstek",
        "State": "Negeri Sembilan"
    },
    {
        "Postcode": "71760",
        "Location": "Kawasan Perindustrian Taman Teknologi 2",
        "Post_Office": "Bandar Enstek",
        "State": "Negeri Sembilan"
    },
    {
        "Postcode": "71760",
        "Location": "Taman Jentayu",
        "Post_Office": "Bandar Enstek",
        "State": "Negeri Sembilan"
    },
    {
        "Postcode": "71760",
        "Location": "Taman Mahawangsa",
        "Post_Office": "Bandar Enstek",
        "State": "Negeri Sembilan"
    },
    {
        "Postcode": "71760",
        "Location": "Bandar Enstek",
        "Post_Office": "Bandar Enstek",
        "State": "Negeri Sembilan"
    },
    {
        "Postcode": "71760",
        "Location": "Kompleks Pendidikan Bandar Enstek",
        "Post_Office": "Bandar Enstek",
        "State": "Negeri Sembilan"
    },
    {
        "Postcode": "71760",
        "Location": "Taman Timur Enstek",
        "Post_Office": "Bandar Enstek",
        "State": "Negeri Sembilan"
    },
    {
        "Postcode": "71760",
        "Location": "Taman Timur 1",
        "Post_Office": "Bandar Enstek",
        "State": "Negeri Sembilan"
    },
    {
        "Postcode": "71760",
        "Location": "Laman Cenderawasih 3",
        "Post_Office": "Bandar Enstek",
        "State": "Negeri Sembilan"
    },
    {
        "Postcode": "71760",
        "Location": "Taman Bukit Eka",
        "Post_Office": "Bandar Enstek",
        "State": "Negeri Sembilan"
    },
    {
        "Postcode": "71760",
        "Location": "Jalan Cendrawasih 1",
        "Post_Office": "Bandar Enstek",
        "State": "Negeri Sembilan"
    },
    {
        "Postcode": "71760",
        "Location": "Jalan Cendrawasih 2",
        "Post_Office": "Bandar Enstek",
        "State": "Negeri Sembilan"
    }
]
