[
    {
        "Postcode": "71770",
        "Location": "Kampung Baru Pantai",
        "Post_Office": "Seremban",
        "State": "Negeri Sembilan"
    },
    {
        "Postcode": "71770",
        "Location": "Kampung Batu 4 (Jalan Jelebu)",
        "Post_Office": "Seremban",
        "State": "Negeri Sembilan"
    },
    {
        "Postcode": "71770",
        "Location": "Kampung Berembun",
        "Post_Office": "Seremban",
        "State": "Negeri Sembilan"
    },
    {
        "Postcode": "71770",
        "Location": "Kampung Pantai",
        "Post_Office": "Seremban",
        "State": "Negeri Sembilan"
    },
    {
        "Postcode": "71770",
        "Location": "Ladang Pantai",
        "Post_Office": "Seremban",
        "State": "Negeri Sembilan"
    },
    {
        "Postcode": "71770",
        "Location": "Pantai",
        "Post_Office": "Seremban",
        "State": "Negeri Sembilan"
    },
    {
        "Postcode": "71770",
        "Location": "Pantai Estate",
        "Post_Office": "Seremban",
        "State": "Negeri Sembilan"
    },
    {
        "Postcode": "71770",
        "Location": "Rumah Murah Km 5 Jalan Jelebu",
        "Post_Office": "Seremban",
        "State": "Negeri Sembilan"
    },
    {
        "Postcode": "71770",
        "Location": "Rumah Rakyat Pantai",
        "Post_Office": "Seremban",
        "State": "Negeri Sembilan"
    },
    {
        "Postcode": "71770",
        "Location": "Taman Desa Permai Pantai",
        "Post_Office": "Seremban",
        "State": "Negeri Sembilan"
    },
    {
        "Postcode": "71770",
        "Location": "Taman Perwira",
        "Post_Office": "Seremban",
        "State": "Negeri Sembilan"
    },
    {
        "Postcode": "71770",
        "Location": "Taman Laman Puteri",
        "Post_Office": "Seremban",
        "State": "Negeri Sembilan"
    },
    {
        "Postcode": "71770",
        "Location": "Taman Kayu Manis",
        "Post_Office": "Seremban",
        "State": "Negeri Sembilan"
    }
]
