[
    {
        "Postcode": "71800",
        "Location": "Taman Pinggiran Markisa",
        "Post_Office": "Labu",
        "State": "Negeri Sembilan"
    },
    {
        "Postcode": "71800",
        "Location": "Desa Kolej",
        "Post_Office": "Nilai",
        "State": "Negeri Sembilan"
    },
    {
        "Postcode": "71800",
        "Location": "Desa Melati",
        "Post_Office": "Nilai",
        "State": "Negeri Sembilan"
    },
    {
        "Postcode": "71800",
        "Location": "Nilai 1",
        "Post_Office": "Nilai",
        "State": "Negeri Sembilan"
    },
    {
        "Postcode": "71800",
        "Location": "Taman Karim",
        "Post_Office": "Nilai",
        "State": "Negeri Sembilan"
    },
    {
        "Postcode": "71800",
        "Location": "Warisan Villa",
        "Post_Office": "Nilai",
        "State": "Negeri Sembilan"
    },
    {
        "Postcode": "71800",
        "Location": "Dusun Labu Valley",
        "Post_Office": "Nilai",
        "State": "Negeri Sembilan"
    },
    {
        "Postcode": "71800",
        "Location": "Kampung Atap",
        "Post_Office": "Nilai",
        "State": "Negeri Sembilan"
    },
    {
        "Postcode": "71800",
        "Location": "Kampung Baru Nilai",
        "Post_Office": "Nilai",
        "State": "Negeri Sembilan"
    },
    {
        "Postcode": "71800",
        "Location": "Kampung Belakang Pekan",
        "Post_Office": "Nilai",
        "State": "Negeri Sembilan"
    },
    {
        "Postcode": "71800",
        "Location": "Kampung Bukit Kadir",
        "Post_Office": "Nilai",
        "State": "Negeri Sembilan"
    },
    {
        "Postcode": "71800",
        "Location": "Kampung Chelet",
        "Post_Office": "Nilai",
        "State": "Negeri Sembilan"
    },
    {
        "Postcode": "71800",
        "Location": "Kampung Haji",
        "Post_Office": "Nilai",
        "State": "Negeri Sembilan"
    },
    {
        "Postcode": "71800",
        "Location": "Kampung Jijan",
        "Post_Office": "Nilai",
        "State": "Negeri Sembilan"
    },
    {
        "Postcode": "71800",
        "Location": "Kampung Jijan Hilir",
        "Post_Office": "Nilai",
        "State": "Negeri Sembilan"
    },
    {
        "Postcode": "71800",
        "Location": "Kampung Jijan Ulu",
        "Post_Office": "Nilai",
        "State": "Negeri Sembilan"
    },
    {
        "Postcode": "71800",
        "Location": "Kampung Kondok",
        "Post_Office": "Nilai",
        "State": "Negeri Sembilan"
    },
    {
        "Postcode": "71800",
        "Location": "Kampung Kubang",
        "Post_Office": "Nilai",
        "State": "Negeri Sembilan"
    },
    {
        "Postcode": "71800",
        "Location": "Kampung Muhammad Sultan",
        "Post_Office": "Nilai",
        "State": "Negeri Sembilan"
    },
    {
        "Postcode": "71800",
        "Location": "Kampung Stesyen",
        "Post_Office": "Nilai",
        "State": "Negeri Sembilan"
    },
    {
        "Postcode": "71800",
        "Location": "Kampung Sungai Labu",
        "Post_Office": "Nilai",
        "State": "Negeri Sembilan"
    },
    {
        "Postcode": "71800",
        "Location": "Kampung Sungai Mahang",
        "Post_Office": "Nilai",
        "State": "Negeri Sembilan"
    },
    {
        "Postcode": "71800",
        "Location": "Kampung Sungai Sekah",
        "Post_Office": "Nilai",
        "State": "Negeri Sembilan"
    },
    {
        "Postcode": "71800",
        "Location": "Kawasan Perindustrian Nilai",
        "Post_Office": "Nilai",
        "State": "Negeri Sembilan"
    },
    {
        "Postcode": "71800",
        "Location": "Kuarters Klia",
        "Post_Office": "Nilai",
        "State": "Negeri Sembilan"
    },
    {
        "Postcode": "71800",
        "Location": "Ladang Bute",
        "Post_Office": "Nilai",
        "State": "Negeri Sembilan"
    },
    {
        "Postcode": "71800",
        "Location": "Ladang Cairo",
        "Post_Office": "Nilai",
        "State": "Negeri Sembilan"
    },
    {
        "Postcode": "71800",
        "Location": "Ladang Hamilton",
        "Post_Office": "Nilai",
        "State": "Negeri Sembilan"
    },
    {
        "Postcode": "71800",
        "Location": "Ladang Jenderam",
        "Post_Office": "Nilai",
        "State": "Negeri Sembilan"
    },
    {
        "Postcode": "71800",
        "Location": "Ladang Kubang",
        "Post_Office": "Nilai",
        "State": "Negeri Sembilan"
    },
    {
        "Postcode": "71800",
        "Location": "Ladang Labu Baru",
        "Post_Office": "Nilai",
        "State": "Negeri Sembilan"
    },
    {
        "Postcode": "71800",
        "Location": "Ladang Sungai Mahang",
        "Post_Office": "Nilai",
        "State": "Negeri Sembilan"
    },
    {
        "Postcode": "71800",
        "Location": "Ladang Sungai Sekah",
        "Post_Office": "Nilai",
        "State": "Negeri Sembilan"
    },
    {
        "Postcode": "71800",
        "Location": "Lembah Dusun Labu",
        "Post_Office": "Nilai",
        "State": "Negeri Sembilan"
    },
    {
        "Postcode": "71800",
        "Location": "Nilai 2",
        "Post_Office": "Nilai",
        "State": "Negeri Sembilan"
    },
    {
        "Postcode": "71800",
        "Location": "Nilai 3",
        "Post_Office": "Nilai",
        "State": "Negeri Sembilan"
    },
    {
        "Postcode": "71800",
        "Location": "Simpang Tiga",
        "Post_Office": "Nilai",
        "State": "Negeri Sembilan"
    },
    {
        "Postcode": "71800",
        "Location": "Taman Bakawali",
        "Post_Office": "Nilai",
        "State": "Negeri Sembilan"
    },
    {
        "Postcode": "71800",
        "Location": "Taman Desa Cempaka",
        "Post_Office": "Nilai",
        "State": "Negeri Sembilan"
    },
    {
        "Postcode": "71800",
        "Location": "Taman Desa Cempaka Puri",
        "Post_Office": "Nilai",
        "State": "Negeri Sembilan"
    },
    {
        "Postcode": "71800",
        "Location": "Taman Desa Indah",
        "Post_Office": "Nilai",
        "State": "Negeri Sembilan"
    },
    {
        "Postcode": "71800",
        "Location": "Taman Desa Jasmin",
        "Post_Office": "Nilai",
        "State": "Negeri Sembilan"
    },
    {
        "Postcode": "71800",
        "Location": "Taman Desa Jati",
        "Post_Office": "Nilai",
        "State": "Negeri Sembilan"
    },
    {
        "Postcode": "71800",
        "Location": "Taman Desa Kasia",
        "Post_Office": "Nilai",
        "State": "Negeri Sembilan"
    },
    {
        "Postcode": "71800",
        "Location": "Taman Impiana",
        "Post_Office": "Nilai",
        "State": "Negeri Sembilan"
    },
    {
        "Postcode": "71800",
        "Location": "Taman Kota Sri Mas",
        "Post_Office": "Nilai",
        "State": "Negeri Sembilan"
    },
    {
        "Postcode": "71800",
        "Location": "Jalan Bandar Belia 1/1",
        "Post_Office": "Nilai",
        "State": "Negeri Sembilan"
    },
    {
        "Postcode": "71800",
        "Location": "Bandar Hamilton Nilai",
        "Post_Office": "Nilai",
        "State": "Negeri Sembilan"
    },
    {
        "Postcode": "71800",
        "Location": "Pusat Perniagaan Laman Galla",
        "Post_Office": "Nilai",
        "State": "Negeri Sembilan"
    },
    {
        "Postcode": "71800",
        "Location": "Taman Perindustrian Hamilton 1",
        "Post_Office": "Nilai",
        "State": "Negeri Sembilan"
    },
    {
        "Postcode": "71800",
        "Location": "Taman Perindustrian Hamilton 3",
        "Post_Office": "Nilai",
        "State": "Negeri Sembilan"
    },
    {
        "Postcode": "71800",
        "Location": "Jalan Kuarza 1",
        "Post_Office": "Nilai",
        "State": "Negeri Sembilan"
    },
    {
        "Postcode": "71800",
        "Location": "Jalan Kuarza 2",
        "Post_Office": "Nilai",
        "State": "Negeri Sembilan"
    },
    {
        "Postcode": "71800",
        "Location": "Jalan Kuarza 3",
        "Post_Office": "Nilai",
        "State": "Negeri Sembilan"
    },
    {
        "Postcode": "71800",
        "Location": "Jalan Kuarza 4",
        "Post_Office": "Nilai",
        "State": "Negeri Sembilan"
    },
    {
        "Postcode": "71800",
        "Location": "Jalan Kuarza 5",
        "Post_Office": "Nilai",
        "State": "Negeri Sembilan"
    },
    {
        "Postcode": "71800",
        "Location": "Jalan Sitrin 1",
        "Post_Office": "Nilai",
        "State": "Negeri Sembilan"
    },
    {
        "Postcode": "71800",
        "Location": "Jalan Sitrin 2",
        "Post_Office": "Nilai",
        "State": "Negeri Sembilan"
    },
    {
        "Postcode": "71800",
        "Location": "Jalan Sitrin 3",
        "Post_Office": "Nilai",
        "State": "Negeri Sembilan"
    },
    {
        "Postcode": "71800",
        "Location": "Jalan Sitrin 4",
        "Post_Office": "Nilai",
        "State": "Negeri Sembilan"
    },
    {
        "Postcode": "71800",
        "Location": "Jalan Sitrin 5",
        "Post_Office": "Nilai",
        "State": "Negeri Sembilan"
    },
    {
        "Postcode": "71800",
        "Location": "Jalan Sitrin 6",
        "Post_Office": "Nilai",
        "State": "Negeri Sembilan"
    },
    {
        "Postcode": "71800",
        "Location": "Jalan Sitrin 7",
        "Post_Office": "Nilai",
        "State": "Negeri Sembilan"
    },
    {
        "Postcode": "71800",
        "Location": "Jalan Nilam 3",
        "Post_Office": "Nilai",
        "State": "Negeri Sembilan"
    },
    {
        "Postcode": "71800",
        "Location": "Kampung Tanjong",
        "Post_Office": "Nilai",
        "State": "Negeri Sembilan"
    },
    {
        "Postcode": "71800",
        "Location": "Taman Ban Aik",
        "Post_Office": "Nilai",
        "State": "Negeri Sembilan"
    },
    {
        "Postcode": "71800",
        "Location": "Taman Desa Anggerik",
        "Post_Office": "Nilai",
        "State": "Negeri Sembilan"
    },
    {
        "Postcode": "71800",
        "Location": "Taman Semarak",
        "Post_Office": "Nilai",
        "State": "Negeri Sembilan"
    },
    {
        "Postcode": "71800",
        "Location": "Taman Nilai",
        "Post_Office": "Nilai",
        "State": "Negeri Sembilan"
    },
    {
        "Postcode": "71800",
        "Location": "Taman Nilai Perdana",
        "Post_Office": "Nilai",
        "State": "Negeri Sembilan"
    },
    {
        "Postcode": "71800",
        "Location": "Taman Santalia",
        "Post_Office": "Nilai",
        "State": "Negeri Sembilan"
    },
    {
        "Postcode": "71800",
        "Location": "Zon Perindustrian Arab-Malaysian",
        "Post_Office": "Nilai",
        "State": "Negeri Sembilan"
    },
    {
        "Postcode": "71800",
        "Location": "Laman Komersial Areca",
        "Post_Office": "Nilai",
        "State": "Negeri Sembilan"
    },
    {
        "Postcode": "71800",
        "Location": "Taman Iris",
        "Post_Office": "Nilai",
        "State": "Negeri Sembilan"
    },
    {
        "Postcode": "71800",
        "Location": "Taman Desa Hijauan",
        "Post_Office": "Nilai",
        "State": "Negeri Sembilan"
    },
    {
        "Postcode": "71800",
        "Location": "Laman Cempaka",
        "Post_Office": "Nilai",
        "State": "Negeri Sembilan"
    },
    {
        "Postcode": "71800",
        "Location": "Laman Seroja",
        "Post_Office": "Nilai",
        "State": "Negeri Sembilan"
    },
    {
        "Postcode": "71800",
        "Location": "Taman Desa Cempaka 2",
        "Post_Office": "Nilai ",
        "State": "Negeri Sembilan"
    },
    {
        "Postcode": "71800",
        "Location": "Putra Point",
        "Post_Office": "Nilai",
        "State": "Negeri Sembilan"
    },
    {
        "Postcode": "71800",
        "Location": "Pusat Perniagaan Desa Kolej",
        "Post_Office": "Nilai",
        "State": "Negeri Sembilan"
    },
    {
        "Postcode": "71800",
        "Location": "Taman Amra",
        "Post_Office": "Nilai",
        "State": "Negeri Sembilan"
    },
    {
        "Postcode": "71800",
        "Location": "Bukit Citra Residensi",
        "Post_Office": "Nilai",
        "State": "Negeri Sembilan"
    },
    {
        "Postcode": "71800",
        "Location": "Jalan Desa Kasia 2/1A",
        "Post_Office": "Nilai",
        "State": "Negeri Sembilan"
    },
    {
        "Postcode": "71800",
        "Location": "Laman Azalea",
        "Post_Office": "Nilai",
        "State": "Negeri Sembilan"
    },
    {
        "Postcode": "71800",
        "Location": "Laman Galla",
        "Post_Office": "Nilai",
        "State": "Negeri Sembilan"
    },
    {
        "Postcode": "71800",
        "Location": "Taman Bucida Hijauan",
        "Post_Office": "Nilai",
        "State": "Negeri Sembilan"
    },
    {
        "Postcode": "71800",
        "Location": "Laman Universiti",
        "Post_Office": "Nilai",
        "State": "Negeri Sembilan"
    },
    {
        "Postcode": "71800",
        "Location": "Nilai Spring Villas",
        "Post_Office": "Nilai",
        "State": "Negeri Sembilan"
    },
    {
        "Postcode": "71800",
        "Location": "Arab Malaysian Industrial Park",
        "Post_Office": "Nilai",
        "State": "Negeri Sembilan"
    },
    {
        "Postcode": "71800",
        "Location": "Taman Desa Seringin",
        "Post_Office": "Nilai",
        "State": "Negeri Sembilan"
    },
    {
        "Postcode": "71800",
        "Location": "Taman Rimbun Kasia",
        "Post_Office": "Nilai",
        "State": "Negeri Sembilan"
    },
    {
        "Postcode": "71800",
        "Location": "Impiana Villa",
        "Post_Office": "Nilai",
        "State": "Negeri Sembilan"
    },
    {
        "Postcode": "71800",
        "Location": "Kampung Tanjung",
        "Post_Office": "Nilai",
        "State": "Negeri Sembilan"
    },
    {
        "Postcode": "71800",
        "Location": "Kawasan Perniagaan Suria",
        "Post_Office": "Nilai",
        "State": "Negeri Sembilan"
    },
    {
        "Postcode": "71800",
        "Location": "Pusat Perniagaan Wira",
        "Post_Office": "Nilai",
        "State": "Negeri Sembilan"
    },
    {
        "Postcode": "71800",
        "Location": "Pusat Perdagangan D'Galla",
        "Post_Office": "Nilai",
        "State": "Negeri Sembilan"
    },
    {
        "Postcode": "71800",
        "Location": "Pusat Perniagaan Kuarters Klia",
        "Post_Office": "Nilai",
        "State": "Negeri Sembilan"
    },
    {
        "Postcode": "71800",
        "Location": "Taman Desa Indah 2",
        "Post_Office": "Nilai",
        "State": "Negeri Sembilan"
    },
    {
        "Postcode": "71800",
        "Location": "Jalan Nilai-Pajam",
        "Post_Office": "Nilai",
        "State": "Negeri Sembilan"
    },
    {
        "Postcode": "71800",
        "Location": "Taman Emville",
        "Post_Office": "Nilai",
        "State": "Negeri Sembilan"
    },
    {
        "Postcode": "71800",
        "Location": "Putra Nilai",
        "Post_Office": "Nilai",
        "State": "Negeri Sembilan"
    },
    {
        "Postcode": "71800",
        "Location": "Laman Mawar",
        "Post_Office": "Nilai",
        "State": "Negeri Sembilan"
    },
    {
        "Postcode": "71800",
        "Location": "Pusat Perniagaan Halam Dagang",
        "Post_Office": "Nilai",
        "State": "Negeri Sembilan"
    },
    {
        "Postcode": "71800",
        "Location": "Kawasan Perindustrian Nilai 7",
        "Post_Office": "Nilai",
        "State": "Negeri Sembilan"
    },
    {
        "Postcode": "71800",
        "Location": "Bandar Wawasan",
        "Post_Office": "Nilai",
        "State": "Negeri Sembilan"
    },
    {
        "Postcode": "71800",
        "Location": "Kasturi Height",
        "Post_Office": "Nilai",
        "State": "Negeri Sembilan"
    },
    {
        "Postcode": "71800",
        "Location": "Kampung Baru Sungai Mahang",
        "Post_Office": "Nilai",
        "State": "Negeri Sembilan"
    },
    {
        "Postcode": "71800",
        "Location": "Taman Industri Ringan Pajam Jaya",
        "Post_Office": "Nilai",
        "State": "Negeri Sembilan"
    },
    {
        "Postcode": "71800",
        "Location": "Desa Casuarina",
        "Post_Office": "Nilai",
        "State": "Negeri Sembilan"
    },
    {
        "Postcode": "71800",
        "Location": "Taman Desaria",
        "Post_Office": "Nilai",
        "State": "Negeri Sembilan"
    },
    {
        "Postcode": "71800",
        "Location": "Taman Desaria 2",
        "Post_Office": "Nilai",
        "State": "Negeri Sembilan"
    },
    {
        "Postcode": "71800",
        "Location": "Desa D'Mayang Sari",
        "Post_Office": "Nilai",
        "State": "Negeri Sembilan"
    },
    {
        "Postcode": "71800",
        "Location": "Taman Nilai Spring Heights",
        "Post_Office": "Nilai",
        "State": "Negeri Sembilan"
    },
    {
        "Postcode": "71800",
        "Location": "Taman Rosmerah",
        "Post_Office": "Nilai",
        "State": "Negeri Sembilan"
    },
    {
        "Postcode": "71800",
        "Location": "Planters Haven",
        "Post_Office": "Nilai",
        "State": "Negeri Sembilan"
    },
    {
        "Postcode": "71800",
        "Location": "Pangsapuri Servis Ehsan Widuri",
        "Post_Office": "Nilai",
        "State": "Negeri Sembilan"
    },
    {
        "Postcode": "71800",
        "Location": "Kota Seriemas",
        "Post_Office": "Nilai",
        "State": "Negeri Sembilan"
    },
    {
        "Postcode": "71800",
        "Location": "Kawasan Perindustrian Nilai Utama",
        "Post_Office": "Nilai",
        "State": "Negeri Sembilan"
    },
    {
        "Postcode": "71800",
        "Location": "Laman Orkid",
        "Post_Office": "Nilai",
        "State": "Negeri Sembilan"
    },
    {
        "Postcode": "71800",
        "Location": "Desa Cempaka",
        "Post_Office": "Nilai",
        "State": "Negeri Sembilan"
    },
    {
        "Postcode": "71800",
        "Location": "Nilai Impian",
        "Post_Office": "Nilai",
        "State": "Negeri Sembilan"
    },
    {
        "Postcode": "71800",
        "Location": "Laman Alamanda",
        "Post_Office": "Nilai",
        "State": "Negeri Sembilan"
    },
    {
        "Postcode": "71800",
        "Location": "Desa Anggerik",
        "Post_Office": "Nilai",
        "State": "Negeri Sembilan"
    },
    {
        "Postcode": "71800",
        "Location": "Laman Alocasia",
        "Post_Office": "Nilai",
        "State": "Negeri Sembilan"
    },
    {
        "Postcode": "71800",
        "Location": "Laman Angsoka",
        "Post_Office": "Nilai",
        "State": "Negeri Sembilan"
    },
    {
        "Postcode": "71800",
        "Location": "Laman Lantana",
        "Post_Office": "Nilai",
        "State": "Negeri Sembilan"
    },
    {
        "Postcode": "71800",
        "Location": "Laman Remenia",
        "Post_Office": "Nilai",
        "State": "Negeri Sembilan"
    },
    {
        "Postcode": "71800",
        "Location": "Laman Sakura",
        "Post_Office": "Nilai ",
        "State": "Negeri Sembilan"
    },
    {
        "Postcode": "71800",
        "Location": "Laman Bakawali",
        "Post_Office": "Nilai",
        "State": "Negeri Sembilan"
    },
    {
        "Postcode": "71800",
        "Location": "Laman Delfina",
        "Post_Office": "Nilai",
        "State": "Negeri Sembilan"
    },
    {
        "Postcode": "71800",
        "Location": "Jalan Emilia 1/1",
        "Post_Office": "Nilai",
        "State": "Negeri Sembilan"
    },
    {
        "Postcode": "71800",
        "Location": "Jalan Emilia 1/2",
        "Post_Office": "Nilai",
        "State": "Negeri Sembilan"
    },
    {
        "Postcode": "71800",
        "Location": "Jalan Emilia 1/3",
        "Post_Office": "Nilai",
        "State": "Negeri Sembilan"
    },
    {
        "Postcode": "71800",
        "Location": "Jalan Emilia 1/4",
        "Post_Office": "Nilai",
        "State": "Negeri Sembilan"
    },
    {
        "Postcode": "71800",
        "Location": "Jalan Emilia 1/5",
        "Post_Office": "Nilai",
        "State": "Negeri Sembilan"
    },
    {
        "Postcode": "71800",
        "Location": "Jalan Emilia 1/6",
        "Post_Office": "Nilai",
        "State": "Negeri Sembilan"
    },
    {
        "Postcode": "71800",
        "Location": "Jalan Emilia 1/7",
        "Post_Office": "Nilai",
        "State": "Negeri Sembilan"
    },
    {
        "Postcode": "71800",
        "Location": "Jalan Emilia 1/8",
        "Post_Office": "Nilai",
        "State": "Negeri Sembilan"
    },
    {
        "Postcode": "71800",
        "Location": "Jalan Emilia 1/9",
        "Post_Office": "Nilai",
        "State": "Negeri Sembilan"
    },
    {
        "Postcode": "71800",
        "Location": "Jalan Emilia 2/1",
        "Post_Office": "Nilai",
        "State": "Negeri Sembilan"
    },
    {
        "Postcode": "71800",
        "Location": "Jalan Emilia 2/2",
        "Post_Office": "Nilai",
        "State": "Negeri Sembilan"
    },
    {
        "Postcode": "71800",
        "Location": "Jalan Emilia 2/3",
        "Post_Office": "Nilai",
        "State": "Negeri Sembilan"
    },
    {
        "Postcode": "71800",
        "Location": "Jalan Emilia 2/4",
        "Post_Office": "Nilai",
        "State": "Negeri Sembilan"
    },
    {
        "Postcode": "71800",
        "Location": "Jalan Emilia 2/5",
        "Post_Office": "Nilai",
        "State": "Negeri Sembilan"
    },
    {
        "Postcode": "71800",
        "Location": "Jalan Emilia 2/6",
        "Post_Office": "Nilai",
        "State": "Negeri Sembilan"
    },
    {
        "Postcode": "71800",
        "Location": "Jalan Emilia 2/6",
        "Post_Office": "Nilai",
        "State": "Negeri Sembilan"
    },
    {
        "Postcode": "71800",
        "Location": "Jalan Emilia 2/7",
        "Post_Office": "Nilai",
        "State": "Negeri Sembilan"
    },
    {
        "Postcode": "71800",
        "Location": "Jalan Emilia 2/8",
        "Post_Office": "Nilai",
        "State": "Negeri Sembilan"
    },
    {
        "Postcode": "71800",
        "Location": "Jalan Emilia 2/9",
        "Post_Office": "Nilai",
        "State": "Negeri Sembilan"
    },
    {
        "Postcode": "71800",
        "Location": "Jalan Dayana 1/1",
        "Post_Office": "Nilai",
        "State": "Negeri Sembilan"
    },
    {
        "Postcode": "71800",
        "Location": "Jalan Dayana 1/2",
        "Post_Office": "Nilai",
        "State": "Negeri Sembilan"
    },
    {
        "Postcode": "71800",
        "Location": "Jalan Dayana 1/3",
        "Post_Office": "Nilai",
        "State": "Negeri Sembilan"
    },
    {
        "Postcode": "71800",
        "Location": "Jalan Dayana 1/4",
        "Post_Office": "Nilai",
        "State": "Negeri Sembilan"
    },
    {
        "Postcode": "71800",
        "Location": "Jalan Dayana 1/5",
        "Post_Office": "Nilai",
        "State": "Negeri Sembilan"
    },
    {
        "Postcode": "71800",
        "Location": "Jalan Dayana 1/6",
        "Post_Office": "Nilai",
        "State": "Negeri Sembilan"
    },
    {
        "Postcode": "71800",
        "Location": "Jalan Dayana 1/7",
        "Post_Office": "Nilai",
        "State": "Negeri Sembilan"
    },
    {
        "Postcode": "71800",
        "Location": "Jalan Dayana 1/8",
        "Post_Office": "Nilai",
        "State": "Negeri Sembilan"
    },
    {
        "Postcode": "71800",
        "Location": "Jalan Dayana 2/1",
        "Post_Office": "Nilai",
        "State": "Negeri Sembilan"
    },
    {
        "Postcode": "71800",
        "Location": "Jalan Dayana 2/2",
        "Post_Office": "Nilai",
        "State": "Negeri Sembilan"
    },
    {
        "Postcode": "71800",
        "Location": "Jalan Dayana 2/3",
        "Post_Office": "Nilai",
        "State": "Negeri Sembilan"
    },
    {
        "Postcode": "71800",
        "Location": "Jalan Dayana 2/4",
        "Post_Office": "Nilai",
        "State": "Negeri Sembilan"
    },
    {
        "Postcode": "71800",
        "Location": "Jalan Dayana 2/5",
        "Post_Office": "Nilai",
        "State": "Negeri Sembilan"
    },
    {
        "Postcode": "71800",
        "Location": "Jalan Dayana 2/6",
        "Post_Office": "Nilai",
        "State": "Negeri Sembilan"
    },
    {
        "Postcode": "71800",
        "Location": "Jalan Dayana 2/7",
        "Post_Office": "Nilai",
        "State": "Negeri Sembilan"
    },
    {
        "Postcode": "71800",
        "Location": "Jalan Dayana 2/8",
        "Post_Office": "Nilai",
        "State": "Negeri Sembilan"
    },
    {
        "Postcode": "71800",
        "Location": "Taman Delima Idaman",
        "Post_Office": "Nilai",
        "State": "Negeri Sembilan"
    },
    {
        "Postcode": "71800",
        "Location": "Persiaran Negeri",
        "Post_Office": "Nilai",
        "State": "Negeri Sembilan"
    },
    {
        "Postcode": "71800",
        "Location": "Persiaran Pusat Bandar Putra Nilai",
        "Post_Office": "nilai",
        "State": "Negeri Sembilan"
    },
    {
        "Postcode": "71800",
        "Location": "Jalan Laman Kenanga",
        "Post_Office": "Nilai",
        "State": "Negeri Sembilan"
    },
    {
        "Postcode": "71800",
        "Location": "Kawasan Perindustrian Nilai Mini",
        "Post_Office": "Nilai",
        "State": "Negeri Sembilan"
    },
    {
        "Postcode": "71800",
        "Location": "Kawasan Perindustrian REO",
        "Post_Office": "Nilai",
        "State": "Negeri Sembilan"
    },
    {
        "Postcode": "71800",
        "Location": "Taman Nada Alam",
        "Post_Office": "Nilai",
        "State": "Negeri Sembilan"
    },
    {
        "Postcode": "71800",
        "Location": "Taman Desa Palma",
        "Post_Office": "Nilai",
        "State": "Negeri Sembilan"
    }
]
