[
    {
        "Postcode": "71900",
        "Location": "Taman Tiroi ",
        "Post_Office": "Labu",
        "State": "Negeri Sembilan"
    },
    {
        "Postcode": "71900",
        "Location": "Jalan Bakti YNS 1/1",
        "Post_Office": "Labu",
        "State": "Negeri Sembilan"
    },
    {
        "Postcode": "71900",
        "Location": "Jalan Bakti YNS 1/2",
        "Post_Office": "Labu",
        "State": "Negeri Sembilan"
    },
    {
        "Postcode": "71900",
        "Location": "Jalan Bakti YNS 1/3",
        "Post_Office": "Labu",
        "State": "Negeri Sembilan"
    },
    {
        "Postcode": "71900",
        "Location": "Jalan Bakti YNS 1/4",
        "Post_Office": "Labu",
        "State": "Negeri Sembilan"
    },
    {
        "Postcode": "71900",
        "Location": "Jalan Bakti YNS 1/5",
        "Post_Office": "Labu",
        "State": "Negeri Sembilan"
    },
    {
        "Postcode": "71900",
        "Location": "Jalan Bakti YNS 1/6",
        "Post_Office": "Labu",
        "State": "Negeri Sembilan"
    },
    {
        "Postcode": "71900",
        "Location": "Jalan Bakti YNS 1/7",
        "Post_Office": "Labu",
        "State": "Negeri Sembilan"
    },
    {
        "Postcode": "71900",
        "Location": "Jalan Bakti YNS 1/8",
        "Post_Office": "Labu",
        "State": "Negeri Sembilan"
    },
    {
        "Postcode": "71900",
        "Location": "Jalan Bakti YNS 2/1",
        "Post_Office": "Labu",
        "State": "Negeri Sembilan"
    },
    {
        "Postcode": "71900",
        "Location": "Jalan Bakti YNS 2/2",
        "Post_Office": "Labu",
        "State": "Negeri Sembilan"
    },
    {
        "Postcode": "71900",
        "Location": "Kampung Jerengkang",
        "Post_Office": "Labu",
        "State": "Negeri Sembilan"
    },
    {
        "Postcode": "71900",
        "Location": "Jalan Bakti YNS 2/3",
        "Post_Office": "Labu",
        "State": "Negeri Sembilan"
    },
    {
        "Postcode": "71900",
        "Location": "Jalan Bakti YNS 2/4",
        "Post_Office": "Labu",
        "State": "Negeri Sembilan"
    },
    {
        "Postcode": "71900",
        "Location": "Jalan Bakti YNS 2/5",
        "Post_Office": "Labu",
        "State": "Negeri Sembilan"
    },
    {
        "Postcode": "71900",
        "Location": "Jalan Bakti YNS 2/6",
        "Post_Office": "Labu",
        "State": "Negeri Sembilan"
    },
    {
        "Postcode": "71900",
        "Location": "Jalan Bakti YNS 3/1",
        "Post_Office": "Labu",
        "State": "Negeri Sembilan"
    },
    {
        "Postcode": "71900",
        "Location": "Jalan Bakti YNS 3/2",
        "Post_Office": "Labu",
        "State": "Negeri Sembilan"
    },
    {
        "Postcode": "71900",
        "Location": "Jalan Bakti YNS 3/3",
        "Post_Office": "Labu",
        "State": "Negeri Sembilan"
    },
    {
        "Postcode": "71900",
        "Location": "Jalan Bakti YNS 3/4",
        "Post_Office": "Labu",
        "State": "Negeri Sembilan"
    },
    {
        "Postcode": "71900",
        "Location": "Jalan Bakti YNS 3/5",
        "Post_Office": "Labu",
        "State": "Negeri Sembilan"
    },
    {
        "Postcode": "71900",
        "Location": "Jalan Bakti YNS 3/6",
        "Post_Office": "Labu",
        "State": "Negeri Sembilan"
    },
    {
        "Postcode": "71900",
        "Location": "Jalan Bakti YNS 3/7",
        "Post_Office": "Labu",
        "State": "Negeri Sembilan"
    },
    {
        "Postcode": "71900",
        "Location": "Jalan Bakti YNS 3/8",
        "Post_Office": "Labu",
        "State": "Negeri Sembilan"
    },
    {
        "Postcode": "71900",
        "Location": "Jalan Bakti YNS 3/9",
        "Post_Office": "Labu",
        "State": "Negeri Sembilan"
    },
    {
        "Postcode": "71900",
        "Location": "Jalan Bakti YNS 4/1",
        "Post_Office": "Labu",
        "State": "Negeri Sembilan"
    },
    {
        "Postcode": "71900",
        "Location": "Jalan Bakti YNS 4/2",
        "Post_Office": "Labu",
        "State": "Negeri Sembilan"
    },
    {
        "Postcode": "71900",
        "Location": "Jalan Bakti YNS 4/3",
        "Post_Office": "Labu",
        "State": "Negeri Sembilan"
    },
    {
        "Postcode": "71900",
        "Location": "Jalan Bakti YNS 5/1",
        "Post_Office": "Labu",
        "State": "Negeri Sembilan"
    },
    {
        "Postcode": "71900",
        "Location": "Taman Irama Sendayan 1",
        "Post_Office": "Labu",
        "State": "Negeri Sembilan"
    },
    {
        "Postcode": "71900",
        "Location": "Persiaran Irama Sendayan 1",
        "Post_Office": "Labu",
        "State": "Negeri Sembilan"
    },
    {
        "Postcode": "71900",
        "Location": "Jalan Irama Sendayan 1",
        "Post_Office": "Labu",
        "State": "Negeri Sembilan"
    },
    {
        "Postcode": "71900",
        "Location": "Jalan Irama Sendayan 1/1",
        "Post_Office": "Labu",
        "State": "Negeri Sembilan"
    },
    {
        "Postcode": "71900",
        "Location": "Jalan Irama Sendayan 1/1A",
        "Post_Office": "Labu",
        "State": "Negeri Sembilan"
    },
    {
        "Postcode": "71900",
        "Location": "Jalan Irama Sendayan 1/1B",
        "Post_Office": "Labu",
        "State": "Negeri Sembilan"
    },
    {
        "Postcode": "71900",
        "Location": "Jalan Irama Sendayan 1/2",
        "Post_Office": "Labu",
        "State": "Negeri Sembilan"
    },
    {
        "Postcode": "71900",
        "Location": "Jalan Irama Sendayan 1/2A",
        "Post_Office": "Labu",
        "State": "Negeri Sembilan"
    },
    {
        "Postcode": "71900",
        "Location": "Jalan Irama Sendayan 1/2B",
        "Post_Office": "Labu",
        "State": "Negeri Sembilan"
    },
    {
        "Postcode": "71900",
        "Location": "Jalan Irama Sendayan 1/2C",
        "Post_Office": "Labu",
        "State": "Negeri Sembilan"
    },
    {
        "Postcode": "71900",
        "Location": "Jalan Irama Sendayan 1/2D",
        "Post_Office": "Labu",
        "State": "Negeri Sembilan"
    },
    {
        "Postcode": "71900",
        "Location": "Jalan Pusat Komersial Irama Sendayan 1/1",
        "Post_Office": "Labu",
        "State": "Negeri Sembilan"
    },
    {
        "Postcode": "71900",
        "Location": "Jalan Pusat Komersial Irama Sendayan 1/2",
        "Post_Office": "Labu",
        "State": "Negeri Sembilan"
    },
    {
        "Postcode": "71900",
        "Location": "Kampung Gadong",
        "Post_Office": "Labu",
        "State": "Negeri Sembilan"
    },
    {
        "Postcode": "71900",
        "Location": "Kampung Masjid Lama",
        "Post_Office": "Labu",
        "State": "Negeri Sembilan"
    },
    {
        "Postcode": "71900",
        "Location": "Kampung Tebing Tinggi",
        "Post_Office": "Labu",
        "State": "Negeri Sembilan"
    },
    {
        "Postcode": "71900",
        "Location": "Kampung Tengah",
        "Post_Office": "Labu",
        "State": "Negeri Sembilan"
    },
    {
        "Postcode": "71900",
        "Location": "Kampung Jawa",
        "Post_Office": "Labu",
        "State": "Negeri Sembilan"
    },
    {
        "Postcode": "71900",
        "Location": "Jerengkang",
        "Post_Office": "Labu",
        "State": "Negeri Sembilan"
    },
    {
        "Postcode": "71900",
        "Location": "Kampung Baru Batu 8",
        "Post_Office": "Labu",
        "State": "Negeri Sembilan"
    },
    {
        "Postcode": "71900",
        "Location": "Kampung Batu 5 1/2",
        "Post_Office": "Labu",
        "State": "Negeri Sembilan"
    },
    {
        "Postcode": "71900",
        "Location": "Kampung Bukit Buak",
        "Post_Office": "Labu",
        "State": "Negeri Sembilan"
    },
    {
        "Postcode": "71900",
        "Location": "Kampung Gadong Jaya",
        "Post_Office": "Labu",
        "State": "Negeri Sembilan"
    },
    {
        "Postcode": "71900",
        "Location": "Kampung Gadong Lama",
        "Post_Office": "Labu",
        "State": "Negeri Sembilan"
    },
    {
        "Postcode": "71900",
        "Location": "Kampung Kering",
        "Post_Office": "Labu",
        "State": "Negeri Sembilan"
    },
    {
        "Postcode": "71900",
        "Location": "Kampung Kilang Padi",
        "Post_Office": "Labu",
        "State": "Negeri Sembilan"
    },
    {
        "Postcode": "71900",
        "Location": "Kampung Labu",
        "Post_Office": "Labu",
        "State": "Negeri Sembilan"
    },
    {
        "Postcode": "71900",
        "Location": "Kampung Labu Hilir",
        "Post_Office": "Labu",
        "State": "Negeri Sembilan"
    },
    {
        "Postcode": "71900",
        "Location": "Kampung Lambar",
        "Post_Office": "Labu",
        "State": "Negeri Sembilan"
    },
    {
        "Postcode": "71900",
        "Location": "Kampung Merbah Condong",
        "Post_Office": "Labu",
        "State": "Negeri Sembilan"
    },
    {
        "Postcode": "71900",
        "Location": "Kampung Pasir Puteh",
        "Post_Office": "Labu",
        "State": "Negeri Sembilan"
    },
    {
        "Postcode": "71900",
        "Location": "Kampung Pelebar",
        "Post_Office": "Labu",
        "State": "Negeri Sembilan"
    },
    {
        "Postcode": "71900",
        "Location": "Kampung Pelenggong",
        "Post_Office": "Labu",
        "State": "Negeri Sembilan"
    },
    {
        "Postcode": "71900",
        "Location": "Kampung Pelenggong Tengah",
        "Post_Office": "Labu",
        "State": "Negeri Sembilan"
    },
    {
        "Postcode": "71900",
        "Location": "Kampung Pulau Labu",
        "Post_Office": "Labu",
        "State": "Negeri Sembilan"
    },
    {
        "Postcode": "71900",
        "Location": "Kampung Sekolah Lama",
        "Post_Office": "Labu",
        "State": "Negeri Sembilan"
    },
    {
        "Postcode": "71900",
        "Location": "Kampung Seri",
        "Post_Office": "Labu",
        "State": "Negeri Sembilan"
    },
    {
        "Postcode": "71900",
        "Location": "Kampung Tekir",
        "Post_Office": "Labu",
        "State": "Negeri Sembilan"
    },
    {
        "Postcode": "71900",
        "Location": "Kampung Tiroi",
        "Post_Office": "Labu",
        "State": "Negeri Sembilan"
    },
    {
        "Postcode": "71900",
        "Location": "Ladang Lembah Labu",
        "Post_Office": "Labu",
        "State": "Negeri Sembilan"
    },
    {
        "Postcode": "71900",
        "Location": "Ladang Pasala",
        "Post_Office": "Labu",
        "State": "Negeri Sembilan"
    },
    {
        "Postcode": "71900",
        "Location": "Rumah Rakyat Batu 13",
        "Post_Office": "Labu",
        "State": "Negeri Sembilan"
    },
    {
        "Postcode": "71900",
        "Location": "Rumah Rakyat Batu 7",
        "Post_Office": "Labu",
        "State": "Negeri Sembilan"
    },
    {
        "Postcode": "71900",
        "Location": "Taman Dato Shahardin",
        "Post_Office": "Labu",
        "State": "Negeri Sembilan"
    },
    {
        "Postcode": "71900",
        "Location": "Taman Gadong Jaya",
        "Post_Office": "Labu",
        "State": "Negeri Sembilan"
    },
    {
        "Postcode": "71900",
        "Location": "Taman Orchid",
        "Post_Office": "Labu",
        "State": "Negeri Sembilan"
    },
    {
        "Postcode": "71900",
        "Location": "Jalan Koperasi Labu 1",
        "Post_Office": "Labu",
        "State": "Negeri Sembilan"
    },
    {
        "Postcode": "71900",
        "Location": "Pusat Perniagaan Gadong",
        "Post_Office": "Labu",
        "State": "Negeri Sembilan"
    },
    {
        "Postcode": "71900",
        "Location": "Pusat Perniagaan Tebing Tinggi Labu",
        "Post_Office": "Labu",
        "State": "Negeri Sembilan"
    },
    {
        "Postcode": "71900",
        "Location": "Pusat Komersial Tiara Sendayan",
        "Post_Office": "Labu",
        "State": "Negeri Sembilan"
    },
    {
        "Postcode": "71900",
        "Location": "Kampung Jerengkang Darat",
        "Post_Office": "Labu",
        "State": "Negeri Sembilan"
    },
    {
        "Postcode": "71900",
        "Location": "Pekan Labu ",
        "Post_Office": "Labu",
        "State": "Negeri Sembilan"
    },
    {
        "Postcode": "71900",
        "Location": "Taman Ekar Matahari",
        "Post_Office": "Labu",
        "State": "Negeri Sembilan"
    },
    {
        "Postcode": "71900",
        "Location": "Taman Yadin Impiana",
        "Post_Office": "Labu",
        "State": "Negeri Sembilan"
    },
    {
        "Postcode": "71900",
        "Location": "Taman Bakti Yns",
        "Post_Office": "Labu",
        "State": "Negeri Sembilan"
    },
    {
        "Postcode": "71900",
        "Location": "Tinta Residensi",
        "Post_Office": "Labu",
        "State": "Negeri Sembilan"
    },
    {
        "Postcode": "71900",
        "Location": "Taman Gadong Indah",
        "Post_Office": "Labu",
        "State": "Negeri Sembilan"
    },
    {
        "Postcode": "71900",
        "Location": "Bukit Ara Perdana",
        "Post_Office": "Labu",
        "State": "Negeri Sembilan"
    },
    {
        "Postcode": "71900",
        "Location": "Taman Cermai Impian",
        "Post_Office": "Labu",
        "State": "Negeri Sembilan"
    },
    {
        "Postcode": "71900",
        "Location": "Taman Sri Rambai",
        "Post_Office": "Labu",
        "State": "Negeri Sembilan"
    },
    {
        "Postcode": "71900",
        "Location": "Taman Nada Bidara",
        "Post_Office": "Labu",
        "State": "Negeri Sembilan"
    },
    {
        "Postcode": "71900",
        "Location": "Taman Trio Bidara",
        "Post_Office": "Labu",
        "State": "Negeri Sembilan"
    },
    {
        "Postcode": "71900",
        "Location": "Pusat Komersial Nada Bidara",
        "Post_Office": "Labu",
        "State": "Negeri Sembilan"
    },
    {
        "Postcode": "71900",
        "Location": "Kampung Baru Cina",
        "Post_Office": "Labu",
        "State": "Negeri Sembilan"
    }
]
