[
    {
        "Postcode": "71950",
        "Location": "Sendayan Techvalley",
        "Post_Office": "Seremban",
        "State": "Negeri Sembilan"
    },
    {
        "Postcode": "71950",
        "Location": "Nusari Bayu 2",
        "Post_Office": "Seremban",
        "State": "Negeri Sembilan"
    },
    {
        "Postcode": "71950",
        "Location": "Pusat Komersial Bayu",
        "Post_Office": "Seremban",
        "State": "Negeri Sembilan"
    },
    {
        "Postcode": "71950",
        "Location": "Bandar Sri Sendayan (Felda)",
        "Post_Office": "Seremban",
        "State": "Negeri Sembilan"
    },
    {
        "Postcode": "71950",
        "Location": "Felda Sendayan",
        "Post_Office": "Seremban",
        "State": "Negeri Sembilan"
    },
    {
        "Postcode": "71950",
        "Location": "Jalan Bukit Sendayan",
        "Post_Office": "Seremban",
        "State": "Negeri Sembilan"
    },
    {
        "Postcode": "71950",
        "Location": "Kampung Jimah Baru",
        "Post_Office": "Seremban",
        "State": "Negeri Sembilan"
    },
    {
        "Postcode": "71950",
        "Location": "Kampung Jimah Lama",
        "Post_Office": "Seremban",
        "State": "Negeri Sembilan"
    },
    {
        "Postcode": "71950",
        "Location": "Taman Sendayan Indah",
        "Post_Office": "Seremban",
        "State": "Negeri Sembilan"
    },
    {
        "Postcode": "71950",
        "Location": "Kip Sentral",
        "Post_Office": "Seremban",
        "State": "Negeri Sembilan"
    },
    {
        "Postcode": "71950",
        "Location": "Taman Suriaman 1",
        "Post_Office": "Seremban",
        "State": "Negeri Sembilan"
    },
    {
        "Postcode": "71950",
        "Location": "Sendayan Techpark",
        "Post_Office": "Seremban",
        "State": "Negeri Sembilan"
    },
    {
        "Postcode": "71950",
        "Location": "Taman Bukit Sendayan",
        "Post_Office": "Seremban",
        "State": "Negeri Sembilan"
    },
    {
        "Postcode": "71950",
        "Location": "Taman Sendayan Aman",
        "Post_Office": "Seremban",
        "State": "Negeri Sembilan"
    },
    {
        "Postcode": "71950",
        "Location": "Taman Tiara Sendayan",
        "Post_Office": "Seremban",
        "State": "Negeri Sembilan"
    },
    {
        "Postcode": "71950",
        "Location": "Nusari Aman 2",
        "Post_Office": "Seremban",
        "State": "Negeri Sembilan"
    },
    {
        "Postcode": "71950",
        "Location": "Nusari Aman 3",
        "Post_Office": "Seremban",
        "State": "Negeri Sembilan"
    },
    {
        "Postcode": "71950",
        "Location": "Nusari Bayu",
        "Post_Office": "Seremban",
        "State": "Negeri Sembilan"
    },
    {
        "Postcode": "71950",
        "Location": "Laman Sendayan",
        "Post_Office": "Seremban",
        "State": "Negeri Sembilan"
    },
    {
        "Postcode": "71950",
        "Location": "Residensi Testa",
        "Post_Office": "Seremban",
        "State": "Negeri Sembilan"
    },
    {
        "Postcode": "71950",
        "Location": "Kawasan Perindustrian Sendayan Techvalley",
        "Post_Office": "Seremban",
        "State": "Negeri Sembilan"
    },
    {
        "Postcode": "71950",
        "Location": "Taman Metro Sendayan",
        "Post_Office": "Seremban",
        "State": "Negeri Sembilan"
    },
    {
        "Postcode": "71950",
        "Location": "Pusat Dagangan Sendayan",
        "Post_Office": "Seremban",
        "State": "Negeri Sembilan"
    },
    {
        "Postcode": "71950",
        "Location": "Taman Hijayu",
        "Post_Office": "Seremban",
        "State": "Negeri Sembilan"
    },
    {
        "Postcode": "71950",
        "Location": "Persiaran Masjid",
        "Post_Office": "Seremban",
        "State": "Negeri Sembilan"
    },
    {
        "Postcode": "71950",
        "Location": "Taman Hijayu 2",
        "Post_Office": "Seremban",
        "State": "Negeri Sembilan"
    },
    {
        "Postcode": "71950",
        "Location": "Kawasan Perindustrian Techpark",
        "Post_Office": "Seremban",
        "State": "Negeri Sembilan"
    }
]
