[
    {
        "Postcode": "71960",
        "Location": "Kampung Pachitan",
        "Post_Office": "Port Dickson",
        "State": "Negeri Sembilan"
    },
    {
        "Postcode": "71960",
        "Location": "Kampung Bakar Arang",
        "Post_Office": "Port Dickson",
        "State": "Negeri Sembilan"
    },
    {
        "Postcode": "71960",
        "Location": "Kampung Baru Sungai Nipah",
        "Post_Office": "Port Dickson",
        "State": "Negeri Sembilan"
    },
    {
        "Postcode": "71960",
        "Location": "Kampung Baru Tanah Merah Site C",
        "Post_Office": "Port Dickson",
        "State": "Negeri Sembilan"
    },
    {
        "Postcode": "71960",
        "Location": "Kampung Bukit Melintang",
        "Post_Office": "Port Dickson",
        "State": "Negeri Sembilan"
    },
    {
        "Postcode": "71960",
        "Location": "Kampung Bukit Pelandok",
        "Post_Office": "Port Dickson",
        "State": "Negeri Sembilan"
    },
    {
        "Postcode": "71960",
        "Location": "Kampung Chuah",
        "Post_Office": "Port Dickson",
        "State": "Negeri Sembilan"
    },
    {
        "Postcode": "71960",
        "Location": "Kampung Cina Bukit Pelandok",
        "Post_Office": "Port Dickson",
        "State": "Negeri Sembilan"
    },
    {
        "Postcode": "71960",
        "Location": "Kampung Cina Chuah",
        "Post_Office": "Port Dickson",
        "State": "Negeri Sembilan"
    },
    {
        "Postcode": "71960",
        "Location": "Kampung India",
        "Post_Office": "Port Dickson",
        "State": "Negeri Sembilan"
    },
    {
        "Postcode": "71960",
        "Location": "Kampung Jangging",
        "Post_Office": "Port Dickson",
        "State": "Negeri Sembilan"
    },
    {
        "Postcode": "71960",
        "Location": "Kampung Jawa Bukit Pelandok",
        "Post_Office": "Port Dickson",
        "State": "Negeri Sembilan"
    },
    {
        "Postcode": "71960",
        "Location": "Kampung Melayu (Chuah)",
        "Post_Office": "Port Dickson",
        "State": "Negeri Sembilan"
    },
    {
        "Postcode": "71960",
        "Location": "Kampung Pantai Chuah",
        "Post_Office": "Port Dickson",
        "State": "Negeri Sembilan"
    },
    {
        "Postcode": "71960",
        "Location": "Kampung Sawah",
        "Post_Office": "Port Dickson",
        "State": "Negeri Sembilan"
    },
    {
        "Postcode": "71960",
        "Location": "Kampung Sungai Rambai (Chuah)",
        "Post_Office": "Port Dickson",
        "State": "Negeri Sembilan"
    },
    {
        "Postcode": "71960",
        "Location": "Kampung Yap Ah Peng",
        "Post_Office": "Port Dickson",
        "State": "Negeri Sembilan"
    },
    {
        "Postcode": "71960",
        "Location": "Kuala Lukut (Chuah)",
        "Post_Office": "Port Dickson",
        "State": "Negeri Sembilan"
    },
    {
        "Postcode": "71960",
        "Location": "Ladang New Langka",
        "Post_Office": "Port Dickson",
        "State": "Negeri Sembilan"
    },
    {
        "Postcode": "71960",
        "Location": "Taman Bukit Pelandok",
        "Post_Office": "Port Dickson",
        "State": "Negeri Sembilan"
    },
    {
        "Postcode": "71960",
        "Location": "Tanah Merah Site C",
        "Post_Office": "Port Dickson",
        "State": "Negeri Sembilan"
    },
    {
        "Postcode": "71960",
        "Location": "Kampung Sungai Nipah ",
        "Post_Office": "Port Dickson",
        "State": "Negeri Sembilan"
    },
    {
        "Postcode": "71960",
        "Location": "Taman Jimah Jaya",
        "Post_Office": "Port Dickson",
        "State": "Negeri Sembilan"
    },
    {
        "Postcode": "71960",
        "Location": "Taman Jimah Raya",
        "Post_Office": "Port Dickson",
        "State": "Negeri Sembilan"
    }
]
