[
    {
        "Postcode": "72120",
        "Location": "Bandar Seri Jempol",
        "Post_Office": "Bahau",
        "State": "Negeri Sembilan"
    },
    {
        "Postcode": "72120",
        "Location": "Kampung Gatco",
        "Post_Office": "Bandar Seri Jempol",
        "State": "Negeri Sembilan"
    },
    {
        "Postcode": "72120",
        "Location": "Ayer Hitam",
        "Post_Office": "Bandar Seri Jempol",
        "State": "Negeri Sembilan"
    },
    {
        "Postcode": "72120",
        "Location": "Bandar Baru Serting",
        "Post_Office": "Bandar Seri Jempol",
        "State": "Negeri Sembilan"
    },
    {
        "Postcode": "72120",
        "Location": "Felda Lui Barat",
        "Post_Office": "Bandar Seri Jempol",
        "State": "Negeri Sembilan"
    },
    {
        "Postcode": "72120",
        "Location": "Felda Lui Muda",
        "Post_Office": "Bandar Seri Jempol",
        "State": "Negeri Sembilan"
    },
    {
        "Postcode": "72120",
        "Location": "Felda Lui Selatan",
        "Post_Office": "Bandar Seri Jempol",
        "State": "Negeri Sembilan"
    },
    {
        "Postcode": "72120",
        "Location": "Felda Lui Timur",
        "Post_Office": "Bandar Seri Jempol",
        "State": "Negeri Sembilan"
    },
    {
        "Postcode": "72120",
        "Location": "Felda Sungai Lui",
        "Post_Office": "Bandar Seri Jempol",
        "State": "Negeri Sembilan"
    },
    {
        "Postcode": "72120",
        "Location": "Felda Tembangau",
        "Post_Office": "Bandar Seri Jempol",
        "State": "Negeri Sembilan"
    },
    {
        "Postcode": "72120",
        "Location": "Felda Wilayah Ns Timur",
        "Post_Office": "Bandar Seri Jempol",
        "State": "Negeri Sembilan"
    },
    {
        "Postcode": "72120",
        "Location": "Kampung Baru Cina Air Hitam",
        "Post_Office": "Bandar Seri Jempol",
        "State": "Negeri Sembilan"
    },
    {
        "Postcode": "72120",
        "Location": "Kampung Cina Sungai Lui",
        "Post_Office": "Bandar Seri Jempol",
        "State": "Negeri Sembilan"
    },
    {
        "Postcode": "72120",
        "Location": "Kampung Dusat",
        "Post_Office": "Bandar Seri Jempol",
        "State": "Negeri Sembilan"
    },
    {
        "Postcode": "72120",
        "Location": "Kampung Keretapi",
        "Post_Office": "Bandar Seri Jempol",
        "State": "Negeri Sembilan"
    },
    {
        "Postcode": "72120",
        "Location": "Kampung Lama Air Hitam",
        "Post_Office": "Bandar Seri Jempol",
        "State": "Negeri Sembilan"
    },
    {
        "Postcode": "72120",
        "Location": "Kampung Melor",
        "Post_Office": "Bandar Seri Jempol",
        "State": "Negeri Sembilan"
    },
    {
        "Postcode": "72120",
        "Location": "Ladang Geddes",
        "Post_Office": "Bandar Seri Jempol",
        "State": "Negeri Sembilan"
    },
    {
        "Postcode": "72120",
        "Location": "Pulapah",
        "Post_Office": "Bandar Seri Jempol",
        "State": "Negeri Sembilan"
    },
    {
        "Postcode": "72120",
        "Location": "Risda Espek Palong 1 - 2",
        "Post_Office": "Bandar Seri Jempol",
        "State": "Negeri Sembilan"
    },
    {
        "Postcode": "72120",
        "Location": "Sungai Lui",
        "Post_Office": "Bandar Seri Jempol",
        "State": "Negeri Sembilan"
    },
    {
        "Postcode": "72120",
        "Location": "Taman Lelayang",
        "Post_Office": "Bandar Seri Jempol",
        "State": "Negeri Sembilan"
    },
    {
        "Postcode": "72120",
        "Location": "Taman Serting Indah",
        "Post_Office": "Bandar Seri Jempol",
        "State": "Negeri Sembilan"
    },
    {
        "Postcode": "72120",
        "Location": "Taman Serting Utama",
        "Post_Office": "Bandar Seri Jempol",
        "State": "Negeri Sembilan"
    },
    {
        "Postcode": "72120",
        "Location": "Taman Sri Serting",
        "Post_Office": "Bandar Seri Jempol",
        "State": "Negeri Sembilan"
    },
    {
        "Postcode": "72120",
        "Location": "Felda Jaya Selatan",
        "Post_Office": "Bandar Seri Jempol",
        "State": "Negeri Sembilan"
    },
    {
        "Postcode": "72120",
        "Location": "Kampung Serampang Indah",
        "Post_Office": "Bandar Seri Jempol",
        "State": "Negeri Sembilan"
    },
    {
        "Postcode": "72120",
        "Location": "Taman Seri Air Hitam",
        "Post_Office": "Bandar Seri Jempol",
        "State": "Negeri Sembilan"
    },
    {
        "Postcode": "72120",
        "Location": "Felda Serting 1",
        "Post_Office": "Bandar Seri Jempol",
        "State": "Negeri Sembilan"
    },
    {
        "Postcode": "72120",
        "Location": "Felda Serting 2",
        "Post_Office": "Bandar Seri Jempol",
        "State": "Negeri Sembilan"
    },
    {
        "Postcode": "72120",
        "Location": "Felda Serting 3",
        "Post_Office": "Bandar Seri Jempol",
        "State": "Negeri Sembilan"
    },
    {
        "Postcode": "72120",
        "Location": "Felda Serting 4",
        "Post_Office": "Bandar Seri Jempol",
        "State": "Negeri Sembilan"
    },
    {
        "Postcode": "72120",
        "Location": "Felda Serting Hilir 1",
        "Post_Office": "Bandar Seri Jempol",
        "State": "Negeri Sembilan"
    },
    {
        "Postcode": "72120",
        "Location": "Felda Serting Hilir 2",
        "Post_Office": "Bandar Seri Jempol",
        "State": "Negeri Sembilan"
    },
    {
        "Postcode": "72120",
        "Location": "Felda Serting Hilir 3",
        "Post_Office": "Bandar Seri Jempol",
        "State": "Negeri Sembilan"
    },
    {
        "Postcode": "72120",
        "Location": "Felda Serting Hilir 4",
        "Post_Office": "Bandar Seri Jempol",
        "State": "Negeri Sembilan"
    },
    {
        "Postcode": "72120",
        "Location": "Felda Serting Hilir 5",
        "Post_Office": "Bandar Seri Jempol",
        "State": "Negeri Sembilan"
    },
    {
        "Postcode": "72120",
        "Location": "Felda Serting Hilir 6",
        "Post_Office": "Bandar Seri Jempol",
        "State": "Negeri Sembilan"
    },
    {
        "Postcode": "72120",
        "Location": "Felda Serting Hilir 7",
        "Post_Office": "Bandar Seri Jempol",
        "State": "Negeri Sembilan"
    }
]
