[
    {
        "Postcode": "72200",
        "Location": "Kampung Sri Melenggang",
        "Post_Office": "Batu Kikir",
        "State": "Negeri Sembilan"
    },
    {
        "Postcode": "72200",
        "Location": "Kampung Bukit Perah",
        "Post_Office": "Batu Kikir",
        "State": "Negeri Sembilan"
    },
    {
        "Postcode": "72200",
        "Location": "Kampung Jeram",
        "Post_Office": "Batu Kikir",
        "State": "Negeri Sembilan"
    },
    {
        "Postcode": "72200",
        "Location": "Kampung Keru",
        "Post_Office": "Batu Kikir",
        "State": "Negeri Sembilan"
    },
    {
        "Postcode": "72200",
        "Location": "Kampung Padang Lebar",
        "Post_Office": "Batu Kikir",
        "State": "Negeri Sembilan"
    },
    {
        "Postcode": "72200",
        "Location": "Kampung Pauh",
        "Post_Office": "Batu Kikir",
        "State": "Negeri Sembilan"
    },
    {
        "Postcode": "72200",
        "Location": "Taman Anggerik",
        "Post_Office": "Batu Kikir",
        "State": "Negeri Sembilan"
    },
    {
        "Postcode": "72200",
        "Location": "Taman Baiduri",
        "Post_Office": "Batu Kikir",
        "State": "Negeri Sembilan"
    },
    {
        "Postcode": "72200",
        "Location": "Taman Mutiara",
        "Post_Office": "Batu Kikir",
        "State": "Negeri Sembilan"
    },
    {
        "Postcode": "72200",
        "Location": "Kampung Bintongan",
        "Post_Office": "Batu Kikir",
        "State": "Negeri Sembilan"
    },
    {
        "Postcode": "72200",
        "Location": "Kampung Bukit Tempurong",
        "Post_Office": "Batu Kikir",
        "State": "Negeri Sembilan"
    },
    {
        "Postcode": "72200",
        "Location": "Kampung Jelutong",
        "Post_Office": "Batu Kikir",
        "State": "Negeri Sembilan"
    },
    {
        "Postcode": "72200",
        "Location": "Ayer Dedali",
        "Post_Office": "Batu Kikir",
        "State": "Negeri Sembilan"
    },
    {
        "Postcode": "72200",
        "Location": "Bayai",
        "Post_Office": "Batu Kikir",
        "State": "Negeri Sembilan"
    },
    {
        "Postcode": "72200",
        "Location": "Bayai Lama",
        "Post_Office": "Batu Kikir",
        "State": "Negeri Sembilan"
    },
    {
        "Postcode": "72200",
        "Location": "Desa Permai Serting Tengah",
        "Post_Office": "Batu Kikir",
        "State": "Negeri Sembilan"
    },
    {
        "Postcode": "72200",
        "Location": "Felcra Gugusan Serting",
        "Post_Office": "Batu Kikir",
        "State": "Negeri Sembilan"
    },
    {
        "Postcode": "72200",
        "Location": "Felda Pasoh 3",
        "Post_Office": "Batu Kikir",
        "State": "Negeri Sembilan"
    },
    {
        "Postcode": "72200",
        "Location": "Ghalib",
        "Post_Office": "Batu Kikir",
        "State": "Negeri Sembilan"
    },
    {
        "Postcode": "72200",
        "Location": "Guntor",
        "Post_Office": "Batu Kikir",
        "State": "Negeri Sembilan"
    },
    {
        "Postcode": "72200",
        "Location": "Kampung Baru Batu 38, Serting Tengah",
        "Post_Office": "Batu Kikir",
        "State": "Negeri Sembilan"
    },
    {
        "Postcode": "72200",
        "Location": "Kampung Baru Bukit Gelugor",
        "Post_Office": "Batu Kikir",
        "State": "Negeri Sembilan"
    },
    {
        "Postcode": "72200",
        "Location": "Kampung Bayai Baru",
        "Post_Office": "Batu Kikir",
        "State": "Negeri Sembilan"
    },
    {
        "Postcode": "72200",
        "Location": "Kampung Birah",
        "Post_Office": "Batu Kikir",
        "State": "Negeri Sembilan"
    },
    {
        "Postcode": "72200",
        "Location": "Kampung Bukit Bahagia",
        "Post_Office": "Batu Kikir",
        "State": "Negeri Sembilan"
    },
    {
        "Postcode": "72200",
        "Location": "Kampung Bukit Gombang",
        "Post_Office": "Batu Kikir",
        "State": "Negeri Sembilan"
    },
    {
        "Postcode": "72200",
        "Location": "Kampung Bukit Kerdas",
        "Post_Office": "Batu Kikir",
        "State": "Negeri Sembilan"
    },
    {
        "Postcode": "72200",
        "Location": "Kampung Bukit Sempit",
        "Post_Office": "Batu Kikir",
        "State": "Negeri Sembilan"
    },
    {
        "Postcode": "72200",
        "Location": "Kampung Jawa Serting",
        "Post_Office": "Batu Kikir",
        "State": "Negeri Sembilan"
    },
    {
        "Postcode": "72200",
        "Location": "Kampung Jerjak",
        "Post_Office": "Batu Kikir",
        "State": "Negeri Sembilan"
    },
    {
        "Postcode": "72200",
        "Location": "Kampung Kata",
        "Post_Office": "Batu Kikir",
        "State": "Negeri Sembilan"
    },
    {
        "Postcode": "72200",
        "Location": "Kampung Lonek",
        "Post_Office": "Batu Kikir",
        "State": "Negeri Sembilan"
    },
    {
        "Postcode": "72200",
        "Location": "Kampung Majau",
        "Post_Office": "Batu Kikir",
        "State": "Negeri Sembilan"
    },
    {
        "Postcode": "72200",
        "Location": "Kampung Masjid Terentang",
        "Post_Office": "Batu Kikir",
        "State": "Negeri Sembilan"
    },
    {
        "Postcode": "72200",
        "Location": "Kampung Mungkar",
        "Post_Office": "Batu Kikir",
        "State": "Negeri Sembilan"
    },
    {
        "Postcode": "72200",
        "Location": "Kampung Pajah",
        "Post_Office": "Batu Kikir",
        "State": "Negeri Sembilan"
    },
    {
        "Postcode": "72200",
        "Location": "Kampung Paya Mengkuang",
        "Post_Office": "Batu Kikir",
        "State": "Negeri Sembilan"
    },
    {
        "Postcode": "72200",
        "Location": "Kampung Pulau Pabai",
        "Post_Office": "Batu Kikir",
        "State": "Negeri Sembilan"
    },
    {
        "Postcode": "72200",
        "Location": "Kampung Pulau Tapak",
        "Post_Office": "Batu Kikir",
        "State": "Negeri Sembilan"
    },
    {
        "Postcode": "72200",
        "Location": "Kampung Serting Tengah",
        "Post_Office": "Batu Kikir",
        "State": "Negeri Sembilan"
    },
    {
        "Postcode": "72200",
        "Location": "Kampung Simpang Bahau",
        "Post_Office": "Batu Kikir",
        "State": "Negeri Sembilan"
    },
    {
        "Postcode": "72200",
        "Location": "Kampung Sungai Talan",
        "Post_Office": "Batu Kikir",
        "State": "Negeri Sembilan"
    },
    {
        "Postcode": "72200",
        "Location": "Kampung Sungai Taling",
        "Post_Office": "Batu Kikir",
        "State": "Negeri Sembilan"
    },
    {
        "Postcode": "72200",
        "Location": "Kampung Tampin",
        "Post_Office": "Batu Kikir",
        "State": "Negeri Sembilan"
    },
    {
        "Postcode": "72200",
        "Location": "Kampung Tapak",
        "Post_Office": "Batu Kikir",
        "State": "Negeri Sembilan"
    },
    {
        "Postcode": "72200",
        "Location": "Kampung Tengkek",
        "Post_Office": "Batu Kikir",
        "State": "Negeri Sembilan"
    },
    {
        "Postcode": "72200",
        "Location": "Kampung Terentang",
        "Post_Office": "Batu Kikir",
        "State": "Negeri Sembilan"
    },
    {
        "Postcode": "72200",
        "Location": "Ladang Batu Kikir",
        "Post_Office": "Batu Kikir",
        "State": "Negeri Sembilan"
    },
    {
        "Postcode": "72200",
        "Location": "Serting Hulu",
        "Post_Office": "Batu Kikir",
        "State": "Negeri Sembilan"
    },
    {
        "Postcode": "72200",
        "Location": "Taman Beringin",
        "Post_Office": "Batu Kikir",
        "State": "Negeri Sembilan"
    },
    {
        "Postcode": "72200",
        "Location": "Taman Bukit Gelugor",
        "Post_Office": "Batu Kikir",
        "State": "Negeri Sembilan"
    },
    {
        "Postcode": "72200",
        "Location": "Taman Gelugor",
        "Post_Office": "Batu Kikir",
        "State": "Negeri Sembilan"
    },
    {
        "Postcode": "72200",
        "Location": "Taman Intan",
        "Post_Office": "Batu Kikir",
        "State": "Negeri Sembilan"
    },
    {
        "Postcode": "72200",
        "Location": "Taman Melati Indah",
        "Post_Office": "Batu Kikir",
        "State": "Negeri Sembilan"
    },
    {
        "Postcode": "72200",
        "Location": "Taman Setia Budi",
        "Post_Office": "Batu Kikir",
        "State": "Negeri Sembilan"
    },
    {
        "Postcode": "72200",
        "Location": "Pekan Batu Kikir",
        "Post_Office": "Batu Kikir",
        "State": "Negeri Sembilan"
    },
    {
        "Postcode": "72200",
        "Location": "Taman Putra",
        "Post_Office": "Batu Kikir",
        "State": "Negeri Sembilan"
    },
    {
        "Postcode": "72200",
        "Location": "Taman Sri Gelugor",
        "Post_Office": "Batu Kikir",
        "State": "Negeri Sembilan"
    },
    {
        "Postcode": "72200",
        "Location": "Kampung Pondok",
        "Post_Office": "Batu Kikir",
        "State": "Negeri Sembilan"
    },
    {
        "Postcode": "72200",
        "Location": "Taman Mawari 1",
        "Post_Office": "Batu Kikir",
        "State": "Negeri Sembilan"
    },
    {
        "Postcode": "72200",
        "Location": "Taman Mawari 2",
        "Post_Office": "Batu Kikir",
        "State": "Negeri Sembilan"
    }
]
