[
    {
        "Postcode": "72300",
        "Location": "Felcra Kerangai - Penagoh",
        "Post_Office": "Simpang Pertang",
        "State": "Negeri Sembilan"
    },
    {
        "Postcode": "72300",
        "Location": "Felda Pasoh 1",
        "Post_Office": "Simpang Pertang",
        "State": "Negeri Sembilan"
    },
    {
        "Postcode": "72300",
        "Location": "Felda Pasoh 2",
        "Post_Office": "Simpang Pertang",
        "State": "Negeri Sembilan"
    },
    {
        "Postcode": "72300",
        "Location": "Felda Pasoh 4",
        "Post_Office": "Simpang Pertang",
        "State": "Negeri Sembilan"
    },
    {
        "Postcode": "72300",
        "Location": "Gerai Pusat Penjaja Simpang Pertang",
        "Post_Office": "Simpang Pertang",
        "State": "Negeri Sembilan"
    },
    {
        "Postcode": "72300",
        "Location": "Kampung Bagong Serting Ulu",
        "Post_Office": "Simpang Pertang",
        "State": "Negeri Sembilan"
    },
    {
        "Postcode": "72300",
        "Location": "Kampung Berangan Serting Ulu",
        "Post_Office": "Simpang Pertang",
        "State": "Negeri Sembilan"
    },
    {
        "Postcode": "72300",
        "Location": "Kampung Durian Tawar",
        "Post_Office": "Simpang Pertang",
        "State": "Negeri Sembilan"
    },
    {
        "Postcode": "72300",
        "Location": "Kampung Geylang",
        "Post_Office": "Simpang Pertang",
        "State": "Negeri Sembilan"
    },
    {
        "Postcode": "72300",
        "Location": "Kampung Kalu Geylang",
        "Post_Office": "Simpang Pertang",
        "State": "Negeri Sembilan"
    },
    {
        "Postcode": "72300",
        "Location": "Kampung Melayu Pertang",
        "Post_Office": "Simpang Pertang",
        "State": "Negeri Sembilan"
    },
    {
        "Postcode": "72300",
        "Location": "Kampung Orang Asli Batu 17",
        "Post_Office": "Simpang Pertang",
        "State": "Negeri Sembilan"
    },
    {
        "Postcode": "72300",
        "Location": "Kampung Parit Gong",
        "Post_Office": "Simpang Pertang",
        "State": "Negeri Sembilan"
    },
    {
        "Postcode": "72300",
        "Location": "Ladang Pertang",
        "Post_Office": "Simpang Pertang",
        "State": "Negeri Sembilan"
    },
    {
        "Postcode": "72300",
        "Location": "Pekan Baru Simpang Pertang",
        "Post_Office": "Simpang Pertang",
        "State": "Negeri Sembilan"
    },
    {
        "Postcode": "72300",
        "Location": "Pertang",
        "Post_Office": "Simpang Pertang",
        "State": "Negeri Sembilan"
    },
    {
        "Postcode": "72300",
        "Location": "Rumah Rakyat 1 Simpang Pertang",
        "Post_Office": "Simpang Pertang",
        "State": "Negeri Sembilan"
    },
    {
        "Postcode": "72300",
        "Location": "Rumah Rakyat 2 Simpang Pertang",
        "Post_Office": "Simpang Pertang",
        "State": "Negeri Sembilan"
    },
    {
        "Postcode": "72300",
        "Location": "Rumah Rakyat Pertang",
        "Post_Office": "Simpang Pertang",
        "State": "Negeri Sembilan"
    },
    {
        "Postcode": "72300",
        "Location": "Taman Bukit Pertang",
        "Post_Office": "Simpang Pertang",
        "State": "Negeri Sembilan"
    },
    {
        "Postcode": "72300",
        "Location": "Taman Gunung Mas",
        "Post_Office": "Simpang Pertang",
        "State": "Negeri Sembilan"
    },
    {
        "Postcode": "72300",
        "Location": "Taman Ipp (Frim)",
        "Post_Office": "Simpang Pertang",
        "State": "Negeri Sembilan"
    },
    {
        "Postcode": "72300",
        "Location": "Taman Pertang",
        "Post_Office": "Simpang Pertang",
        "State": "Negeri Sembilan"
    },
    {
        "Postcode": "72300",
        "Location": "Taman Seri Desa",
        "Post_Office": "Simpang Pertang",
        "State": "Negeri Sembilan"
    },
    {
        "Postcode": "72300",
        "Location": "Taman Simpang Jaya",
        "Post_Office": "Simpang Pertang",
        "State": "Negeri Sembilan"
    },
    {
        "Postcode": "72300",
        "Location": "Taman Sri Perdana",
        "Post_Office": "Simpang Pertang",
        "State": "Negeri Sembilan"
    },
    {
        "Postcode": "72300",
        "Location": "Taman Sri Pertang",
        "Post_Office": "Simpang Pertang",
        "State": "Negeri Sembilan"
    },
    {
        "Postcode": "72300",
        "Location": "Zon Perindustrian Simpang Pertang",
        "Post_Office": "Simpang Pertang",
        "State": "Negeri Sembilan"
    },
    {
        "Postcode": "72300",
        "Location": "Kampung Serting Ulu",
        "Post_Office": "Simpang Pertang",
        "State": "Negeri Sembilan"
    },
    {
        "Postcode": "72300",
        "Location": "Pekan Simpang Pertang",
        "Post_Office": "Simpang Pertang",
        "State": "Negeri Sembilan"
    }
]
