[
    {
        "Postcode": "72400",
        "Location": "Kampung Bemban",
        "Post_Office": "Simpang Durian",
        "State": "Negeri Sembilan"
    },
    {
        "Postcode": "72400",
        "Location": "Taman Bunga Raya",
        "Post_Office": "Simpang Durian",
        "State": "Negeri Sembilan"
    },
    {
        "Postcode": "72400",
        "Location": "Ayer Baning (Batu 52)",
        "Post_Office": "Simpang Durian",
        "State": "Negeri Sembilan"
    },
    {
        "Postcode": "72400",
        "Location": "Durian Tipus",
        "Post_Office": "Simpang Durian",
        "State": "Negeri Sembilan"
    },
    {
        "Postcode": "72400",
        "Location": "Felcra Lakai",
        "Post_Office": "Simpang Durian",
        "State": "Negeri Sembilan"
    },
    {
        "Postcode": "72400",
        "Location": "Kampung Batu 51",
        "Post_Office": "Simpang Durian",
        "State": "Negeri Sembilan"
    },
    {
        "Postcode": "72400",
        "Location": "Kampung Batu 60 3/4",
        "Post_Office": "Simpang Durian",
        "State": "Negeri Sembilan"
    },
    {
        "Postcode": "72400",
        "Location": "Kampung Durian Tipus",
        "Post_Office": "Simpang Durian",
        "State": "Negeri Sembilan"
    },
    {
        "Postcode": "72400",
        "Location": "Kampung Juntai",
        "Post_Office": "Simpang Durian",
        "State": "Negeri Sembilan"
    },
    {
        "Postcode": "72400",
        "Location": "Kampung Lakai",
        "Post_Office": "Simpang Durian",
        "State": "Negeri Sembilan"
    },
    {
        "Postcode": "72400",
        "Location": "Kampung Mentaus",
        "Post_Office": "Simpang Durian",
        "State": "Negeri Sembilan"
    },
    {
        "Postcode": "72400",
        "Location": "Kampung Putra",
        "Post_Office": "Simpang Durian",
        "State": "Negeri Sembilan"
    },
    {
        "Postcode": "72400",
        "Location": "Kampung Rangoi",
        "Post_Office": "Simpang Durian",
        "State": "Negeri Sembilan"
    },
    {
        "Postcode": "72400",
        "Location": "Kampung Sabun",
        "Post_Office": "Simpang Durian",
        "State": "Negeri Sembilan"
    },
    {
        "Postcode": "72400",
        "Location": "Kampung Serdai Hilir",
        "Post_Office": "Simpang Durian",
        "State": "Negeri Sembilan"
    },
    {
        "Postcode": "72400",
        "Location": "Kampung Simpang Durian",
        "Post_Office": "Simpang Durian",
        "State": "Negeri Sembilan"
    },
    {
        "Postcode": "72400",
        "Location": "Kampung Sungai Buloh",
        "Post_Office": "Simpang Durian",
        "State": "Negeri Sembilan"
    },
    {
        "Postcode": "72400",
        "Location": "Ladang Abdullah Kadir",
        "Post_Office": "Simpang Durian",
        "State": "Negeri Sembilan"
    },
    {
        "Postcode": "72400",
        "Location": "Ladang Juntai",
        "Post_Office": "Simpang Durian",
        "State": "Negeri Sembilan"
    },
    {
        "Postcode": "72400",
        "Location": "Loji Air Lakai",
        "Post_Office": "Simpang Durian",
        "State": "Negeri Sembilan"
    },
    {
        "Postcode": "72400",
        "Location": "Simpang Durian",
        "Post_Office": "Simpang Durian",
        "State": "Negeri Sembilan"
    },
    {
        "Postcode": "72400",
        "Location": "Kampung Serdai Hulu",
        "Post_Office": "Simpang Durian",
        "State": "Negeri Sembilan"
    },
    {
        "Postcode": "72400",
        "Location": "Kampung Sino Malay",
        "Post_Office": "Simpang Durian",
        "State": "Negeri Sembilan"
    },
    {
        "Postcode": "72400",
        "Location": "Pekan Lama",
        "Post_Office": "Simpang Durian",
        "State": "Negeri Sembilan"
    }
]
