[
    {
        "Postcode": "72500",
        "Location": "Kampung Air Puteh",
        "Post_Office": "Kuala Pilah",
        "State": "Negeri Sembilan"
    },
    {
        "Postcode": "72500",
        "Location": "Kampung Tebing Tinggi",
        "Post_Office": "Kuala Pilah",
        "State": "Negeri Sembilan"
    },
    {
        "Postcode": "72500",
        "Location": "Taman Desa Permai",
        "Post_Office": "Kuala Pilah",
        "State": "Negeri Sembilan"
    },
    {
        "Postcode": "72500",
        "Location": "Kampung Bukit Tempurong",
        "Post_Office": "Kuala Pilah",
        "State": "Negeri Sembilan"
    },
    {
        "Postcode": "72500",
        "Location": "Jalan Bahau  (Batu 28 3/4)",
        "Post_Office": "Kuala Pilah",
        "State": "Negeri Sembilan"
    },
    {
        "Postcode": "72500",
        "Location": "Jalan Bahau (Batu 30 1/2)",
        "Post_Office": "Kuala Pilah",
        "State": "Negeri Sembilan"
    },
    {
        "Postcode": "72500",
        "Location": "Jalan Keretapi Lama",
        "Post_Office": "Kuala Pilah",
        "State": "Negeri Sembilan"
    },
    {
        "Postcode": "72500",
        "Location": "Kampung Anak Air Sungai Jernih",
        "Post_Office": "Kuala Pilah",
        "State": "Negeri Sembilan"
    },
    {
        "Postcode": "72500",
        "Location": "Kampung Baru Terusan Seberang",
        "Post_Office": "Kuala Pilah",
        "State": "Negeri Sembilan"
    },
    {
        "Postcode": "72500",
        "Location": "Kampung Juasseh",
        "Post_Office": "Kuala Pilah",
        "State": "Negeri Sembilan"
    },
    {
        "Postcode": "72500",
        "Location": "Kampung Juasseh Hilir",
        "Post_Office": "Kuala Pilah",
        "State": "Negeri Sembilan"
    },
    {
        "Postcode": "72500",
        "Location": "Kampung Kuala Jemapoh",
        "Post_Office": "Kuala Pilah",
        "State": "Negeri Sembilan"
    },
    {
        "Postcode": "72500",
        "Location": "Kampung Kuala Rembang Panas",
        "Post_Office": "Kuala Pilah",
        "State": "Negeri Sembilan"
    },
    {
        "Postcode": "72500",
        "Location": "Kampung Paya Kumboh",
        "Post_Office": "Kuala Pilah",
        "State": "Negeri Sembilan"
    },
    {
        "Postcode": "72500",
        "Location": "Kampung Rembang Panas",
        "Post_Office": "Kuala Pilah",
        "State": "Negeri Sembilan"
    },
    {
        "Postcode": "72500",
        "Location": "Kampung Rembang Panas (Batu 5)",
        "Post_Office": "Kuala Pilah",
        "State": "Negeri Sembilan"
    },
    {
        "Postcode": "72500",
        "Location": "Kampung Rembang Panas Ulu",
        "Post_Office": "Kuala Pilah",
        "State": "Negeri Sembilan"
    },
    {
        "Postcode": "72500",
        "Location": "Kampung Seri Jemapoh",
        "Post_Office": "Kuala Pilah",
        "State": "Negeri Sembilan"
    },
    {
        "Postcode": "72500",
        "Location": "Kampung Terusan",
        "Post_Office": "Kuala Pilah",
        "State": "Negeri Sembilan"
    },
    {
        "Postcode": "72500",
        "Location": "Kampung Terusan Seberang",
        "Post_Office": "Kuala Pilah",
        "State": "Negeri Sembilan"
    },
    {
        "Postcode": "72500",
        "Location": "Kampung Ulu Rembang Panas",
        "Post_Office": "Kuala Pilah",
        "State": "Negeri Sembilan"
    },
    {
        "Postcode": "72500",
        "Location": "Ladang Juasseh",
        "Post_Office": "Kuala Pilah",
        "State": "Negeri Sembilan"
    },
    {
        "Postcode": "72500",
        "Location": "Masjid Rembang Panas (Batu 3)",
        "Post_Office": "Kuala Pilah",
        "State": "Negeri Sembilan"
    },
    {
        "Postcode": "72500",
        "Location": "Pekan Juasseh",
        "Post_Office": "Kuala Pilah",
        "State": "Negeri Sembilan"
    },
    {
        "Postcode": "72500",
        "Location": "Taman Jemapoh",
        "Post_Office": "Kuala Pilah",
        "State": "Negeri Sembilan"
    },
    {
        "Postcode": "72500",
        "Location": "Taman Ros Setia",
        "Post_Office": "Kuala Pilah",
        "State": "Negeri Sembilan"
    },
    {
        "Postcode": "72500",
        "Location": "Kampung Kuala Kepis ",
        "Post_Office": "Kuala Pilah",
        "State": "Negeri Sembilan"
    },
    {
        "Postcode": "72500",
        "Location": "Kampung Lubuk Gitan",
        "Post_Office": "Kuala Pilah",
        "State": "Negeri Sembilan"
    },
    {
        "Postcode": "72500",
        "Location": "Taman Nada Seruni",
        "Post_Office": "Kuala Pilah",
        "State": "Negeri Sembilan"
    },
    {
        "Postcode": "72500",
        "Location": "Kampung Acheh",
        "Post_Office": "Kuala Pilah",
        "State": "Negeri Sembilan"
    }
]
