[
    {
        "Postcode": "76100",
        "Location": "Taman Sri Tuah",
        "Post_Office": "Durian Tunggal",
        "State": "Melaka"
    },
    {
        "Postcode": "76100",
        "Location": "Pusat Komersial \u0026 Perindustrian Gangsa Jaya",
        "Post_Office": "Melaka",
        "State": "Melaka"
    },
    {
        "Postcode": "76100",
        "Location": "Durian Tunggal (Pekan)",
        "Post_Office": "Durian Tunggal",
        "State": "Melaka"
    },
    {
        "Postcode": "76100",
        "Location": "Hing Guan Estate",
        "Post_Office": "Durian Tunggal",
        "State": "Melaka"
    },
    {
        "Postcode": "76100",
        "Location": "Jalan Air Semubok",
        "Post_Office": "Durian Tunggal",
        "State": "Melaka"
    },
    {
        "Postcode": "76100",
        "Location": "Jalan Belimbing Lama",
        "Post_Office": "Durian Tunggal",
        "State": "Melaka"
    },
    {
        "Postcode": "76100",
        "Location": "Jalan Kesang (Batu 16)",
        "Post_Office": "Durian Tunggal",
        "State": "Melaka"
    },
    {
        "Postcode": "76100",
        "Location": "Jalan Rumah Asap",
        "Post_Office": "Durian Tunggal",
        "State": "Melaka"
    },
    {
        "Postcode": "76100",
        "Location": "Kampung Ayer Resam",
        "Post_Office": "Durian Tunggal",
        "State": "Melaka"
    },
    {
        "Postcode": "76100",
        "Location": "Kampung Bangsal",
        "Post_Office": "Durian Tunggal",
        "State": "Melaka"
    },
    {
        "Postcode": "76100",
        "Location": "Kampung Baru Simin",
        "Post_Office": "Durian Tunggal",
        "State": "Melaka"
    },
    {
        "Postcode": "76100",
        "Location": "Kampung Belimbing Dalam",
        "Post_Office": "Durian Tunggal",
        "State": "Melaka"
    },
    {
        "Postcode": "76100",
        "Location": "Kampung Beringin",
        "Post_Office": "Durian Tunggal",
        "State": "Melaka"
    },
    {
        "Postcode": "76100",
        "Location": "Kampung Bukit Balai, Hang Tuah Jaya",
        "Post_Office": "Durian Tunggal",
        "State": "Melaka"
    },
    {
        "Postcode": "76100",
        "Location": "Kampung Bukit Tambun",
        "Post_Office": "Durian Tunggal",
        "State": "Melaka"
    },
    {
        "Postcode": "76100",
        "Location": "Kampung Gangsa, Hang Tuah Jaya",
        "Post_Office": "Durian Tunggal",
        "State": "Melaka"
    },
    {
        "Postcode": "76100",
        "Location": "Kampung Garing",
        "Post_Office": "Durian Tunggal",
        "State": "Melaka"
    },
    {
        "Postcode": "76100",
        "Location": "Kampung Machap Lama",
        "Post_Office": "Durian Tunggal",
        "State": "Melaka"
    },
    {
        "Postcode": "76100",
        "Location": "Kampung Orang Asli Machap Umboo",
        "Post_Office": "Durian Tunggal",
        "State": "Melaka"
    },
    {
        "Postcode": "76100",
        "Location": "Kampung Padang Keladi, Hang Tuah Jaya",
        "Post_Office": "Durian Tunggal",
        "State": "Melaka"
    },
    {
        "Postcode": "76100",
        "Location": "Kampung Padang Kerbau, Hang Tuah Jaya",
        "Post_Office": "Durian Tunggal",
        "State": "Melaka"
    },
    {
        "Postcode": "76100",
        "Location": "Kampung Panchor",
        "Post_Office": "Durian Tunggal",
        "State": "Melaka"
    },
    {
        "Postcode": "76100",
        "Location": "Kampung Pantai Belimbing",
        "Post_Office": "Durian Tunggal",
        "State": "Melaka"
    },
    {
        "Postcode": "76100",
        "Location": "Kampung Parit Melana",
        "Post_Office": "Durian Tunggal",
        "State": "Melaka"
    },
    {
        "Postcode": "76100",
        "Location": "Kampung Tualang",
        "Post_Office": "Durian Tunggal",
        "State": "Melaka"
    },
    {
        "Postcode": "76100",
        "Location": "Kampung Ulu Padang Keladi Hang Tuah Jaya",
        "Post_Office": "Durian Tunggal",
        "State": "Melaka"
    },
    {
        "Postcode": "76100",
        "Location": "Kampung Ulu Padang, Hang Tuah Jaya",
        "Post_Office": "Durian Tunggal",
        "State": "Melaka"
    },
    {
        "Postcode": "76100",
        "Location": "Kampung Ulu Seraja",
        "Post_Office": "Durian Tunggal",
        "State": "Melaka"
    },
    {
        "Postcode": "76100",
        "Location": "Kolej Universiti Teknologi Kebangsaan Melaka",
        "Post_Office": "Durian Tunggal",
        "State": "Melaka"
    },
    {
        "Postcode": "76100",
        "Location": "Kondominium Seri Nuri Hang Tuah Jaya",
        "Post_Office": "Durian Tunggal",
        "State": "Melaka"
    },
    {
        "Postcode": "76100",
        "Location": "Ladang Ayer Resam, Hang Tuah Jaya",
        "Post_Office": "Durian Tunggal",
        "State": "Melaka"
    },
    {
        "Postcode": "76100",
        "Location": "Ladang Tong Leng",
        "Post_Office": "Durian Tunggal",
        "State": "Melaka"
    },
    {
        "Postcode": "76100",
        "Location": "Machap",
        "Post_Office": "Durian Tunggal",
        "State": "Melaka"
    },
    {
        "Postcode": "76100",
        "Location": "Panchor",
        "Post_Office": "Durian Tunggal",
        "State": "Melaka"
    },
    {
        "Postcode": "76100",
        "Location": "Panchor Estate",
        "Post_Office": "Durian Tunggal",
        "State": "Melaka"
    },
    {
        "Postcode": "76100",
        "Location": "Pangsapuri Macap",
        "Post_Office": "Durian Tunggal",
        "State": "Melaka"
    },
    {
        "Postcode": "76100",
        "Location": "Pangsapuri Machap Baru",
        "Post_Office": "Durian Tunggal",
        "State": "Melaka"
    },
    {
        "Postcode": "76100",
        "Location": "Rumah Awam Durian Tunggal",
        "Post_Office": "Durian Tunggal",
        "State": "Melaka"
    },
    {
        "Postcode": "76100",
        "Location": "Sim Hai Estate",
        "Post_Office": "Durian Tunggal",
        "State": "Melaka"
    },
    {
        "Postcode": "76100",
        "Location": "Simpang Gading",
        "Post_Office": "Durian Tunggal",
        "State": "Melaka"
    },
    {
        "Postcode": "76100",
        "Location": "Solok Gangsa",
        "Post_Office": "Durian Tunggal",
        "State": "Melaka"
    },
    {
        "Postcode": "76100",
        "Location": "Taman Angkasa Nuri",
        "Post_Office": "Durian Tunggal",
        "State": "Melaka"
    },
    {
        "Postcode": "76100",
        "Location": "Taman Angsa Mas",
        "Post_Office": "Durian Tunggal",
        "State": "Melaka"
    },
    {
        "Postcode": "76100",
        "Location": "Taman Belatuk Emas",
        "Post_Office": "Durian Tunggal",
        "State": "Melaka"
    },
    {
        "Postcode": "76100",
        "Location": "Taman Cempaka Heights, Hang Tuah Jaya",
        "Post_Office": "Durian Tunggal",
        "State": "Melaka"
    },
    {
        "Postcode": "76100",
        "Location": "Taman Desa Idaman, Hang Tuah Jaya",
        "Post_Office": "Durian Tunggal",
        "State": "Melaka"
    },
    {
        "Postcode": "76100",
        "Location": "Taman Durian Tunggal, Hang Tuah Jaya",
        "Post_Office": "Durian Tunggal",
        "State": "Melaka"
    },
    {
        "Postcode": "76100",
        "Location": "Taman Enggang, Hang Tuah Jaya",
        "Post_Office": "Durian Tunggal",
        "State": "Melaka"
    },
    {
        "Postcode": "76100",
        "Location": "Taman Gangsa Height, Hang Tuah Jaya",
        "Post_Office": "Durian Tunggal",
        "State": "Melaka"
    },
    {
        "Postcode": "76100",
        "Location": "Taman Gangsa, Hang Tuah Jaya",
        "Post_Office": "Durian Tunggal",
        "State": "Melaka"
    },
    {
        "Postcode": "76100",
        "Location": "Taman Garuda, Hang Tuah Jaya",
        "Post_Office": "Durian Tunggal",
        "State": "Melaka"
    },
    {
        "Postcode": "76100",
        "Location": "Taman Idaman",
        "Post_Office": "Durian Tunggal",
        "State": "Melaka"
    },
    {
        "Postcode": "76100",
        "Location": "Taman Inang Sari",
        "Post_Office": "Durian Tunggal",
        "State": "Melaka"
    },
    {
        "Postcode": "76100",
        "Location": "Taman Kasawari, Hang Tuah Jaya",
        "Post_Office": "Durian Tunggal",
        "State": "Melaka"
    },
    {
        "Postcode": "76100",
        "Location": "Taman Kenari Jaya, Hang Tuah Jaya",
        "Post_Office": "Durian Tunggal",
        "State": "Melaka"
    },
    {
        "Postcode": "76100",
        "Location": "Taman Mekar, Hang Tuah Jaya",
        "Post_Office": "Durian Tunggal",
        "State": "Melaka"
    },
    {
        "Postcode": "76100",
        "Location": "Taman Melor Machap",
        "Post_Office": "Durian Tunggal",
        "State": "Melaka"
    },
    {
        "Postcode": "76100",
        "Location": "Taman Merpati Putih",
        "Post_Office": "Durian Tunggal",
        "State": "Melaka"
    },
    {
        "Postcode": "76100",
        "Location": "Taman Murai Jaya, Hang Tuah Jaya",
        "Post_Office": "Durian Tunggal",
        "State": "Melaka"
    },
    {
        "Postcode": "76100",
        "Location": "Taman Rajawali",
        "Post_Office": "Durian Tunggal",
        "State": "Melaka"
    },
    {
        "Postcode": "76100",
        "Location": "Taman Seri Bayan, Hang Tuah Jaya",
        "Post_Office": "Durian Tunggal",
        "State": "Melaka"
    },
    {
        "Postcode": "76100",
        "Location": "Taman Sri Inang Sari",
        "Post_Office": "Durian Tunggal",
        "State": "Melaka"
    },
    {
        "Postcode": "76100",
        "Location": "Taman Sri Siantan Machap",
        "Post_Office": "Durian Tunggal",
        "State": "Melaka"
    },
    {
        "Postcode": "76100",
        "Location": "Taman Tunggal",
        "Post_Office": "Durian Tunggal",
        "State": "Melaka"
    },
    {
        "Postcode": "76100",
        "Location": "Tong Bee Estate",
        "Post_Office": "Durian Tunggal",
        "State": "Melaka"
    },
    {
        "Postcode": "76100",
        "Location": "Tong Leng Estate",
        "Post_Office": "Durian Tunggal",
        "State": "Melaka"
    },
    {
        "Postcode": "76100",
        "Location": "Kampung Batu Senandong",
        "Post_Office": "Durian Tunggal",
        "State": "Melaka"
    },
    {
        "Postcode": "76100",
        "Location": "Kampung Batu Ular Upa",
        "Post_Office": "Durian Tunggal",
        "State": "Melaka"
    },
    {
        "Postcode": "76100",
        "Location": "Ladang Chuan Hin San",
        "Post_Office": "Durian Tunggal",
        "State": "Melaka"
    },
    {
        "Postcode": "76100",
        "Location": "Ladang Seng Choon",
        "Post_Office": "Durian Tunggal",
        "State": "Melaka"
    },
    {
        "Postcode": "76100",
        "Location": "Ladang Yong Kee Shian",
        "Post_Office": "Durian Tunggal",
        "State": "Melaka"
    },
    {
        "Postcode": "76100",
        "Location": "Taman Cenderawasih",
        "Post_Office": "Durian Tunggal",
        "State": "Melaka"
    },
    {
        "Postcode": "76100",
        "Location": "Taman Mawar",
        "Post_Office": "Durian Tunggal",
        "State": "Melaka"
    },
    {
        "Postcode": "76100",
        "Location": "Taman Melor",
        "Post_Office": "Durian Tunggal",
        "State": "Melaka"
    },
    {
        "Postcode": "76100",
        "Location": "Bertam Estate",
        "Post_Office": "Durian Tunggal",
        "State": "Melaka"
    },
    {
        "Postcode": "76100",
        "Location": "Kampung Pulau",
        "Post_Office": "Durian Tunggal",
        "State": "Melaka"
    },
    {
        "Postcode": "76100",
        "Location": "Taman Cempaka",
        "Post_Office": "Durian Tunggal",
        "State": "Melaka"
    },
    {
        "Postcode": "76100",
        "Location": "Taman Seri Siantan",
        "Post_Office": "Durian Tunggal",
        "State": "Melaka"
    },
    {
        "Postcode": "76100",
        "Location": "Taman Gangsa Impian",
        "Post_Office": "Durian Tunggal",
        "State": "Melaka"
    },
    {
        "Postcode": "76100",
        "Location": "Pusat Niaga Gangsa",
        "Post_Office": "Durian Tunggal",
        "State": "Melaka"
    },
    {
        "Postcode": "76100",
        "Location": "Taman Industri Angkasa Nuri",
        "Post_Office": "Durian Tunggal",
        "State": "Melaka"
    },
    {
        "Postcode": "76100",
        "Location": "Jalan Angkasa Nuri 50",
        "Post_Office": "Durian Tunggal",
        "State": "Melaka"
    },
    {
        "Postcode": "76100",
        "Location": "Jalan Angkasa Nuri 51",
        "Post_Office": "Durian Tunggal",
        "State": "Melaka"
    },
    {
        "Postcode": "76100",
        "Location": "Jalan Angkasa Nuri 52",
        "Post_Office": "Durian Tunggal",
        "State": "Melaka"
    },
    {
        "Postcode": "76100",
        "Location": "Air Semubok",
        "Post_Office": "Durian Tunggal",
        "State": "Melaka"
    },
    {
        "Postcode": "76100",
        "Location": "Kampung Air Pasir",
        "Post_Office": "Durian Tunggal",
        "State": "Melaka"
    },
    {
        "Postcode": "76100",
        "Location": "Kampung Air Semubok",
        "Post_Office": "Durian Tunggal",
        "State": "Melaka"
    },
    {
        "Postcode": "76100",
        "Location": "Kampung Machap Baru",
        "Post_Office": "Durian Tunggal",
        "State": "Melaka"
    },
    {
        "Postcode": "76100",
        "Location": "Taman Merak Emas",
        "Post_Office": "Durian Tunggal",
        "State": "Melaka"
    },
    {
        "Postcode": "76100",
        "Location": "Ladang Tualang",
        "Post_Office": "Durian Tunggal",
        "State": "Melaka"
    },
    {
        "Postcode": "76100",
        "Location": "Ambassador Village",
        "Post_Office": "Durian Tunggal",
        "State": "Melaka"
    }
]
