[
    {
        "Postcode": "76200",
        "Location": "Jalan Arab",
        "Post_Office": "Kem Trendak",
        "State": "Melaka"
    },
    {
        "Postcode": "76200",
        "Location": "Jalan Bukit Terendak",
        "Post_Office": "Kem Trendak",
        "State": "Melaka"
    },
    {
        "Postcode": "76200",
        "Location": "Jalan Hulubalang",
        "Post_Office": "Kem Trendak",
        "State": "Melaka"
    },
    {
        "Postcode": "76200",
        "Location": "Jalan Mahkota",
        "Post_Office": "Kem Trendak",
        "State": "Melaka"
    },
    {
        "Postcode": "76200",
        "Location": "Jalan Menara",
        "Post_Office": "Kem Trendak",
        "State": "Melaka"
    },
    {
        "Postcode": "76200",
        "Location": "Jalan Pandak",
        "Post_Office": "Kem Trendak",
        "State": "Melaka"
    },
    {
        "Postcode": "76200",
        "Location": "Jalan Persiaran Pegawai",
        "Post_Office": "Kem Trendak",
        "State": "Melaka"
    },
    {
        "Postcode": "76200",
        "Location": "Jalan Sejahtera",
        "Post_Office": "Kem Trendak",
        "State": "Melaka"
    },
    {
        "Postcode": "76200",
        "Location": "Jalan Selat",
        "Post_Office": "Kem Trendak",
        "State": "Melaka"
    },
    {
        "Postcode": "76200",
        "Location": "Jalan Serai",
        "Post_Office": "Kem Trendak",
        "State": "Melaka"
    },
    {
        "Postcode": "76200",
        "Location": "Jalan Tenteram",
        "Post_Office": "Kem Trendak",
        "State": "Melaka"
    },
    {
        "Postcode": "76200",
        "Location": "Jalan Tepian",
        "Post_Office": "Kem Trendak",
        "State": "Melaka"
    },
    {
        "Postcode": "76200",
        "Location": "Kem Terendak",
        "Post_Office": "Kem Trendak",
        "State": "Melaka"
    },
    {
        "Postcode": "76200",
        "Location": "Lorong Indah",
        "Post_Office": "Kem Trendak",
        "State": "Melaka"
    },
    {
        "Postcode": "76200",
        "Location": "Lorong Melati",
        "Post_Office": "Kem Trendak",
        "State": "Melaka"
    },
    {
        "Postcode": "76200",
        "Location": "Lorong Serai",
        "Post_Office": "Kem Trendak",
        "State": "Melaka"
    },
    {
        "Postcode": "76200",
        "Location": "Lorong Silang",
        "Post_Office": "Kem Trendak",
        "State": "Melaka"
    },
    {
        "Postcode": "76200",
        "Location": "Lorong Tabib",
        "Post_Office": "Kem Trendak",
        "State": "Melaka"
    },
    {
        "Postcode": "76200",
        "Location": "Lorong Tiong",
        "Post_Office": "Kem Trendak",
        "State": "Melaka"
    },
    {
        "Postcode": "76200",
        "Location": "Jalan Aman",
        "Post_Office": "Kem Trendak",
        "State": "Melaka"
    },
    {
        "Postcode": "76200",
        "Location": "Jalan Anggerik",
        "Post_Office": "Kem Trendak",
        "State": "Melaka"
    },
    {
        "Postcode": "76200",
        "Location": "Jalan Bakti",
        "Post_Office": "Kem Trendak",
        "State": "Melaka"
    },
    {
        "Postcode": "76200",
        "Location": "Jalan Bunga Raya",
        "Post_Office": "Kem Trendak",
        "State": "Melaka"
    },
    {
        "Postcode": "76200",
        "Location": "Jalan Bunga Tanjung",
        "Post_Office": "Kem Trendak",
        "State": "Melaka"
    },
    {
        "Postcode": "76200",
        "Location": "Jalan Muhibah",
        "Post_Office": "Kem Trendak",
        "State": "Melaka"
    },
    {
        "Postcode": "76200",
        "Location": "Jalan Pahlawan",
        "Post_Office": "Kem Trendak",
        "State": "Melaka"
    },
    {
        "Postcode": "76200",
        "Location": "Jalan Perkasa",
        "Post_Office": "Kem Trendak",
        "State": "Melaka"
    },
    {
        "Postcode": "76200",
        "Location": "Jalan Serindit",
        "Post_Office": "Kem Trendak",
        "State": "Melaka"
    },
    {
        "Postcode": "76200",
        "Location": "Jalan Kenanga",
        "Post_Office": "Kem Trendak",
        "State": "Melaka"
    },
    {
        "Postcode": "76200",
        "Location": "Jalan Melor",
        "Post_Office": "Kem Trendak",
        "State": "Melaka"
    },
    {
        "Postcode": "76200",
        "Location": "Jalan Sentosa",
        "Post_Office": "Kem Trendak",
        "State": "Melaka"
    }
]
