[
    {
        "Postcode": "76300",
        "Location": "Flat Desa Taming Sari",
        "Post_Office": "Sungai Udang",
        "State": "Melaka"
    },
    {
        "Postcode": "76300",
        "Location": "Flat Desa Tun Razak",
        "Post_Office": "Sungai Udang",
        "State": "Melaka"
    },
    {
        "Postcode": "76300",
        "Location": "Flat Tangga Batu (Batu 10 Sungai Udang)",
        "Post_Office": "Sungai Udang",
        "State": "Melaka"
    },
    {
        "Postcode": "76300",
        "Location": "Jalan Bertam Hulu",
        "Post_Office": "Sungai Udang",
        "State": "Melaka"
    },
    {
        "Postcode": "76300",
        "Location": "Jalan Gagah",
        "Post_Office": "Sungai Udang",
        "State": "Melaka"
    },
    {
        "Postcode": "76300",
        "Location": "Jalan Haji Yusof",
        "Post_Office": "Sungai Udang",
        "State": "Melaka"
    },
    {
        "Postcode": "76300",
        "Location": "Jalan Pinang Sebatang",
        "Post_Office": "Sungai Udang",
        "State": "Melaka"
    },
    {
        "Postcode": "76300",
        "Location": "Jalan Tanah Wakaf",
        "Post_Office": "Sungai Udang",
        "State": "Melaka"
    },
    {
        "Postcode": "76300",
        "Location": "Kampung Baru Sungai Udang",
        "Post_Office": "Sungai Udang",
        "State": "Melaka"
    },
    {
        "Postcode": "76300",
        "Location": "Kampung Maidin",
        "Post_Office": "Sungai Udang",
        "State": "Melaka"
    },
    {
        "Postcode": "76300",
        "Location": "Kampung Sungai Udang",
        "Post_Office": "Sungai Udang",
        "State": "Melaka"
    },
    {
        "Postcode": "76300",
        "Location": "Kem Sungai Udang",
        "Post_Office": "Sungai Udang",
        "State": "Melaka"
    },
    {
        "Postcode": "76300",
        "Location": "Lorong An Nuriah",
        "Post_Office": "Sungai Udang",
        "State": "Melaka"
    },
    {
        "Postcode": "76300",
        "Location": "Lorong Belakang Masjid",
        "Post_Office": "Sungai Udang",
        "State": "Melaka"
    },
    {
        "Postcode": "76300",
        "Location": "Taman Sungai Udang",
        "Post_Office": "Sungai Udang",
        "State": "Melaka"
    },
    {
        "Postcode": "76300",
        "Location": "Jalan Perkasa",
        "Post_Office": "Sungai Udang",
        "State": "Melaka"
    },
    {
        "Postcode": "76300",
        "Location": "Kampung Paya Rumput",
        "Post_Office": "Sungai Udang",
        "State": "Melaka"
    },
    {
        "Postcode": "76300",
        "Location": "Taman Pahlawan",
        "Post_Office": "Sungai Udang",
        "State": "Melaka"
    },
    {
        "Postcode": "76300",
        "Location": "Taman Paya Rumput Jaya",
        "Post_Office": "Sungai Udang",
        "State": "Melaka"
    },
    {
        "Postcode": "76300",
        "Location": "Kampung Tanah Merah",
        "Post_Office": "Sungai Udang",
        "State": "Melaka"
    },
    {
        "Postcode": "76300",
        "Location": "Taman Hang Tuah",
        "Post_Office": "Sungai Udang",
        "State": "Melaka"
    },
    {
        "Postcode": "76300",
        "Location": "Lorong Bukit Sekolah",
        "Post_Office": "Sungai Udang",
        "State": "Melaka"
    },
    {
        "Postcode": "76300",
        "Location": "Lorong Bukit Selekoh",
        "Post_Office": "Sungai Udang",
        "State": "Melaka"
    },
    {
        "Postcode": "76300",
        "Location": "Lorong Daim",
        "Post_Office": "Sungai Udang",
        "State": "Melaka"
    },
    {
        "Postcode": "76300",
        "Location": "Lorong Dol Mat",
        "Post_Office": "Sungai Udang",
        "State": "Melaka"
    },
    {
        "Postcode": "76300",
        "Location": "Lorong Haji Dahan",
        "Post_Office": "Sungai Udang",
        "State": "Melaka"
    },
    {
        "Postcode": "76300",
        "Location": "Lorong Haji Hassan",
        "Post_Office": "Sungai Udang",
        "State": "Melaka"
    },
    {
        "Postcode": "76300",
        "Location": "Lorong Imam Moksen",
        "Post_Office": "Sungai Udang",
        "State": "Melaka"
    },
    {
        "Postcode": "76300",
        "Location": "Lorong Jantan Mumat",
        "Post_Office": "Sungai Udang",
        "State": "Melaka"
    },
    {
        "Postcode": "76300",
        "Location": "Lorong Kadi Sidek",
        "Post_Office": "Sungai Udang",
        "State": "Melaka"
    },
    {
        "Postcode": "76300",
        "Location": "Lorong Mad Lasim",
        "Post_Office": "Sungai Udang",
        "State": "Melaka"
    },
    {
        "Postcode": "76300",
        "Location": "Lorong Mak Som",
        "Post_Office": "Sungai Udang",
        "State": "Melaka"
    },
    {
        "Postcode": "76300",
        "Location": "Lorong Paya Rumput Jaya",
        "Post_Office": "Sungai Udang",
        "State": "Melaka"
    },
    {
        "Postcode": "76300",
        "Location": "Lorong Paya Sum",
        "Post_Office": "Sungai Udang",
        "State": "Melaka"
    },
    {
        "Postcode": "76300",
        "Location": "Lorong Penghulu Abdullah",
        "Post_Office": "Sungai Udang",
        "State": "Melaka"
    },
    {
        "Postcode": "76300",
        "Location": "Lorong Penghulu Maarof",
        "Post_Office": "Sungai Udang",
        "State": "Melaka"
    },
    {
        "Postcode": "76300",
        "Location": "Lorong Penghulu Yasin",
        "Post_Office": "Sungai Udang",
        "State": "Melaka"
    },
    {
        "Postcode": "76300",
        "Location": "Lorong Pusara Abadi",
        "Post_Office": "Sungai Udang",
        "State": "Melaka"
    },
    {
        "Postcode": "76300",
        "Location": "Lorong Salam",
        "Post_Office": "Sungai Udang",
        "State": "Melaka"
    },
    {
        "Postcode": "76300",
        "Location": "Lorong Salleh Kudus",
        "Post_Office": "Sungai Udang",
        "State": "Melaka"
    },
    {
        "Postcode": "76300",
        "Location": "Lorong Shamsudin",
        "Post_Office": "Sungai Udang",
        "State": "Melaka"
    },
    {
        "Postcode": "76300",
        "Location": "Lorong Sidang Jamil",
        "Post_Office": "Sungai Udang",
        "State": "Melaka"
    },
    {
        "Postcode": "76300",
        "Location": "Lorong Sidang Rabu",
        "Post_Office": "Sungai Udang",
        "State": "Melaka"
    },
    {
        "Postcode": "76300",
        "Location": "Lorong Solok Bakong",
        "Post_Office": "Sungai Udang",
        "State": "Melaka"
    },
    {
        "Postcode": "76300",
        "Location": "Lorong Sulong Patah",
        "Post_Office": "Sungai Udang",
        "State": "Melaka"
    },
    {
        "Postcode": "76300",
        "Location": "Lorong Tokong",
        "Post_Office": "Sungai Udang",
        "State": "Melaka"
    },
    {
        "Postcode": "76300",
        "Location": "Lorong Tompang",
        "Post_Office": "Sungai Udang",
        "State": "Melaka"
    },
    {
        "Postcode": "76300",
        "Location": "Lorong Ujung Tanjong",
        "Post_Office": "Sungai Udang",
        "State": "Melaka"
    },
    {
        "Postcode": "76300",
        "Location": "Lorong Yahya Mad Som",
        "Post_Office": "Sungai Udang",
        "State": "Melaka"
    },
    {
        "Postcode": "76300",
        "Location": "Lorong Zakaria",
        "Post_Office": "Sungai Udang",
        "State": "Melaka"
    },
    {
        "Postcode": "76300",
        "Location": "Rumah Mara Sungai Udang",
        "Post_Office": "Sungai Udang",
        "State": "Melaka"
    },
    {
        "Postcode": "76300",
        "Location": "Sungai Udang",
        "Post_Office": "Sungai Udang",
        "State": "Melaka"
    },
    {
        "Postcode": "76300",
        "Location": "Taman Bukit Terendak",
        "Post_Office": "Sungai Udang",
        "State": "Melaka"
    },
    {
        "Postcode": "76300",
        "Location": "Taman Desa Taming Sari",
        "Post_Office": "Sungai Udang",
        "State": "Melaka"
    },
    {
        "Postcode": "76300",
        "Location": "Taman Keris Emas",
        "Post_Office": "Sungai Udang",
        "State": "Melaka"
    },
    {
        "Postcode": "76300",
        "Location": "Taman Keris Laksamana",
        "Post_Office": "Sungai Udang",
        "State": "Melaka"
    },
    {
        "Postcode": "76300",
        "Location": "Taman Leech Avenue",
        "Post_Office": "Sungai Udang",
        "State": "Melaka"
    },
    {
        "Postcode": "76300",
        "Location": "Taman Peruna",
        "Post_Office": "Sungai Udang",
        "State": "Melaka"
    },
    {
        "Postcode": "76300",
        "Location": "Taman Sri Terendak",
        "Post_Office": "Sungai Udang",
        "State": "Melaka"
    },
    {
        "Postcode": "76300",
        "Location": "Taman Terendak",
        "Post_Office": "Sungai Udang",
        "State": "Melaka"
    },
    {
        "Postcode": "76300",
        "Location": "Taman Terendak Permai",
        "Post_Office": "Sungai Udang",
        "State": "Melaka"
    },
    {
        "Postcode": "76300",
        "Location": "Tangga Batu (Km 17 Ke Atas)",
        "Post_Office": "Sungai Udang",
        "State": "Melaka"
    },
    {
        "Postcode": "76300",
        "Location": "Pusat Niaga Desa Taming Sari",
        "Post_Office": "Sungai Udang",
        "State": "Melaka"
    },
    {
        "Postcode": "76300",
        "Location": "Taman Sungai Udang Mutiara",
        "Post_Office": "Sungai Udang",
        "State": "Melaka"
    },
    {
        "Postcode": "76300",
        "Location": "Rumah Awam Sungai Udang",
        "Post_Office": "Sungai Udang",
        "State": "Melaka"
    },
    {
        "Postcode": "76300",
        "Location": "Jalan Kerambit 1",
        "Post_Office": "Sungai Udang",
        "State": "Melaka"
    },
    {
        "Postcode": "76300",
        "Location": "Jalan Kerambit 10",
        "Post_Office": "Sungai Udang",
        "State": "Melaka"
    },
    {
        "Postcode": "76300",
        "Location": "Jalan Kerambit 11",
        "Post_Office": "Sungai Udang",
        "State": "Melaka"
    },
    {
        "Postcode": "76300",
        "Location": "Jalan Kerambit 12",
        "Post_Office": "Sungai Udang",
        "State": "Melaka"
    },
    {
        "Postcode": "76300",
        "Location": "Jalan Kerambit 13",
        "Post_Office": "Sungai Udang",
        "State": "Melaka"
    },
    {
        "Postcode": "76300",
        "Location": "Jalan Kerambit 2",
        "Post_Office": "Sungai Udang",
        "State": "Melaka"
    },
    {
        "Postcode": "76300",
        "Location": "Jalan Kerambit 3",
        "Post_Office": "Sungai Udang",
        "State": "Melaka"
    },
    {
        "Postcode": "76300",
        "Location": "Jalan Kerambit 4",
        "Post_Office": "Sungai Udang",
        "State": "Melaka"
    },
    {
        "Postcode": "76300",
        "Location": "Jalan Kerambit 5",
        "Post_Office": "Sungai Udang",
        "State": "Melaka"
    },
    {
        "Postcode": "76300",
        "Location": "Jalan Kerambit 6",
        "Post_Office": "Sungai Udang",
        "State": "Melaka"
    },
    {
        "Postcode": "76300",
        "Location": "Jalan Kerambit 7",
        "Post_Office": "Sungai Udang",
        "State": "Melaka"
    },
    {
        "Postcode": "76300",
        "Location": "Jalan Kerambit 8",
        "Post_Office": "Sungai Udang",
        "State": "Melaka"
    },
    {
        "Postcode": "76300",
        "Location": "Jalan Kerambit 9",
        "Post_Office": "Sungai Udang",
        "State": "Melaka"
    },
    {
        "Postcode": "76300",
        "Location": "Jalan Su 2",
        "Post_Office": "Sungai Udang",
        "State": "Melaka"
    },
    {
        "Postcode": "76300",
        "Location": "Jalan Su 4",
        "Post_Office": "Sungai Udang",
        "State": "Melaka"
    }
]
