[
    {
        "Postcode": "76400",
        "Location": "Taman Seri Tanjung",
        "Post_Office": "Tanjong Kling",
        "State": "Melaka"
    },
    {
        "Postcode": "76400",
        "Location": "Taman Sri Nilam",
        "Post_Office": "Tanjong Kling",
        "State": "Melaka"
    },
    {
        "Postcode": "76400",
        "Location": "Taman Tanjung Kling",
        "Post_Office": "Tanjong Kling",
        "State": "Melaka"
    },
    {
        "Postcode": "76400",
        "Location": "Kampung Bukit Darat",
        "Post_Office": "Tanjong Kling",
        "State": "Melaka"
    },
    {
        "Postcode": "76400",
        "Location": "Kampung Hailam",
        "Post_Office": "Tanjong Kling",
        "State": "Melaka"
    },
    {
        "Postcode": "76400",
        "Location": "Jalan Paya Keladi",
        "Post_Office": "Tanjong Kling",
        "State": "Melaka"
    },
    {
        "Postcode": "76400",
        "Location": "Kampung Bahagia",
        "Post_Office": "Tanjong Kling",
        "State": "Melaka"
    },
    {
        "Postcode": "76400",
        "Location": "Kampung Balik Bukit",
        "Post_Office": "Tanjong Kling",
        "State": "Melaka"
    },
    {
        "Postcode": "76400",
        "Location": "Kuarters Tnb",
        "Post_Office": "Tanjong Kling",
        "State": "Melaka"
    },
    {
        "Postcode": "76400",
        "Location": "Taman Permai",
        "Post_Office": "Tanjong Kling",
        "State": "Melaka"
    },
    {
        "Postcode": "76400",
        "Location": "Taman Tangga Batu Indah",
        "Post_Office": "Tanjong Kling",
        "State": "Melaka"
    },
    {
        "Postcode": "76400",
        "Location": "Jalan TBI 1",
        "Post_Office": "Tanjong Kling",
        "State": "Melaka"
    },
    {
        "Postcode": "76400",
        "Location": "Jalan TBI 2",
        "Post_Office": "Tanjong Kling",
        "State": "Melaka"
    },
    {
        "Postcode": "76400",
        "Location": "Taman Tangga Batu Perdana",
        "Post_Office": "Tanjong Kling",
        "State": "Melaka"
    },
    {
        "Postcode": "76400",
        "Location": "Taman Tangga Batu Indah",
        "Post_Office": "Tanjong Kling",
        "State": "Melaka"
    },
    {
        "Postcode": "76400",
        "Location": "Jalan TBI 1",
        "Post_Office": "Tanjong Kling",
        "State": "Melaka"
    },
    {
        "Postcode": "76400",
        "Location": "Jalan TBI 2",
        "Post_Office": "Tanjong Kling",
        "State": "Melaka"
    },
    {
        "Postcode": "76400",
        "Location": "Asrama Hualon",
        "Post_Office": "Tanjong Kling",
        "State": "Melaka"
    },
    {
        "Postcode": "76400",
        "Location": "Asrama Takara",
        "Post_Office": "Tanjong Kling",
        "State": "Melaka"
    },
    {
        "Postcode": "76400",
        "Location": "Balik Bukit",
        "Post_Office": "Tanjong Kling",
        "State": "Melaka"
    },
    {
        "Postcode": "76400",
        "Location": "Bangunan Uda",
        "Post_Office": "Tanjong Kling",
        "State": "Melaka"
    },
    {
        "Postcode": "76400",
        "Location": "Batang Tiga",
        "Post_Office": "Tanjong Kling",
        "State": "Melaka"
    },
    {
        "Postcode": "76400",
        "Location": "Everly Resort Hotel",
        "Post_Office": "Tanjong Kling",
        "State": "Melaka"
    },
    {
        "Postcode": "76400",
        "Location": "Flat Lereh",
        "Post_Office": "Tanjong Kling",
        "State": "Melaka"
    },
    {
        "Postcode": "76400",
        "Location": "Jabatan Laut",
        "Post_Office": "Tanjong Kling",
        "State": "Melaka"
    },
    {
        "Postcode": "76400",
        "Location": "Jabatan Penjara",
        "Post_Office": "Tanjong Kling",
        "State": "Melaka"
    },
    {
        "Postcode": "76400",
        "Location": "Jalan Banglo",
        "Post_Office": "Tanjong Kling",
        "State": "Melaka"
    },
    {
        "Postcode": "76400",
        "Location": "Jalan Jeti Tanjong Kling",
        "Post_Office": "Tanjong Kling",
        "State": "Melaka"
    },
    {
        "Postcode": "76400",
        "Location": "Jalan Kilang Besi",
        "Post_Office": "Tanjong Kling",
        "State": "Melaka"
    },
    {
        "Postcode": "76400",
        "Location": "Jalan Lama",
        "Post_Office": "Tanjong Kling",
        "State": "Melaka"
    },
    {
        "Postcode": "76400",
        "Location": "Jalan Pokok Asam",
        "Post_Office": "Tanjong Kling",
        "State": "Melaka"
    },
    {
        "Postcode": "76400",
        "Location": "Jalan Solok Bilal",
        "Post_Office": "Tanjong Kling",
        "State": "Melaka"
    },
    {
        "Postcode": "76400",
        "Location": "Jalan Solok Haji Othman",
        "Post_Office": "Tanjong Kling",
        "State": "Melaka"
    },
    {
        "Postcode": "76400",
        "Location": "Jalan Solok Ketar",
        "Post_Office": "Tanjong Kling",
        "State": "Melaka"
    },
    {
        "Postcode": "76400",
        "Location": "Jalan Tanjung Bruas",
        "Post_Office": "Tanjong Kling",
        "State": "Melaka"
    },
    {
        "Postcode": "76400",
        "Location": "Kampung Batang Tiga",
        "Post_Office": "Tanjong Kling",
        "State": "Melaka"
    },
    {
        "Postcode": "76400",
        "Location": "Kampung Gelam",
        "Post_Office": "Tanjong Kling",
        "State": "Melaka"
    },
    {
        "Postcode": "76400",
        "Location": "Kampung Ghafar Baba",
        "Post_Office": "Tanjong Kling",
        "State": "Melaka"
    },
    {
        "Postcode": "76400",
        "Location": "Kampung Kelongkong",
        "Post_Office": "Tanjong Kling",
        "State": "Melaka"
    },
    {
        "Postcode": "76400",
        "Location": "Kampung Lereh",
        "Post_Office": "Tanjong Kling",
        "State": "Melaka"
    },
    {
        "Postcode": "76400",
        "Location": "Kampung Lereh Dalam",
        "Post_Office": "Tanjong Kling",
        "State": "Melaka"
    },
    {
        "Postcode": "76400",
        "Location": "Kampung Pantai Jaring",
        "Post_Office": "Tanjong Kling",
        "State": "Melaka"
    },
    {
        "Postcode": "76400",
        "Location": "Kampung Pantai Kundor",
        "Post_Office": "Tanjong Kling",
        "State": "Melaka"
    },
    {
        "Postcode": "76400",
        "Location": "Kampung Pantai Tanah Merah",
        "Post_Office": "Tanjong Kling",
        "State": "Melaka"
    },
    {
        "Postcode": "76400",
        "Location": "Kampung Paya Luboh",
        "Post_Office": "Tanjong Kling",
        "State": "Melaka"
    },
    {
        "Postcode": "76400",
        "Location": "Kampung Pengkalan Lanjut",
        "Post_Office": "Tanjong Kling",
        "State": "Melaka"
    },
    {
        "Postcode": "76400",
        "Location": "Kampung Pengkalan Perigi",
        "Post_Office": "Tanjong Kling",
        "State": "Melaka"
    },
    {
        "Postcode": "76400",
        "Location": "Kampung Solok Biak",
        "Post_Office": "Tanjong Kling",
        "State": "Melaka"
    },
    {
        "Postcode": "76400",
        "Location": "Kampung Tangga Batu",
        "Post_Office": "Tanjong Kling",
        "State": "Melaka"
    },
    {
        "Postcode": "76400",
        "Location": "Kampung Tanjong",
        "Post_Office": "Tanjong Kling",
        "State": "Melaka"
    },
    {
        "Postcode": "76400",
        "Location": "Kawasan Perindustrian Tangga Batu",
        "Post_Office": "Tanjong Kling",
        "State": "Melaka"
    },
    {
        "Postcode": "76400",
        "Location": "Klebang Beach",
        "Post_Office": "Tanjong Kling",
        "State": "Melaka"
    },
    {
        "Postcode": "76400",
        "Location": "Kompleks Penghulu",
        "Post_Office": "Tanjong Kling",
        "State": "Melaka"
    },
    {
        "Postcode": "76400",
        "Location": "Lereh Kampung Cina",
        "Post_Office": "Tanjong Kling",
        "State": "Melaka"
    },
    {
        "Postcode": "76400",
        "Location": "Lorong Bukit Tempayan",
        "Post_Office": "Tanjong Kling",
        "State": "Melaka"
    },
    {
        "Postcode": "76400",
        "Location": "Lorong Haji Abdullah",
        "Post_Office": "Tanjong Kling",
        "State": "Melaka"
    },
    {
        "Postcode": "76400",
        "Location": "Palmstone",
        "Post_Office": "Tanjong Kling",
        "State": "Melaka"
    },
    {
        "Postcode": "76400",
        "Location": "Pangsapuri Tangga Batu",
        "Post_Office": "Tanjong Kling",
        "State": "Melaka"
    },
    {
        "Postcode": "76400",
        "Location": "Pantai Bidara Puteri Resort",
        "Post_Office": "Tanjong Kling",
        "State": "Melaka"
    },
    {
        "Postcode": "76400",
        "Location": "Pantai Kundor",
        "Post_Office": "Tanjong Kling",
        "State": "Melaka"
    },
    {
        "Postcode": "76400",
        "Location": "Pantai Rombang",
        "Post_Office": "Tanjong Kling",
        "State": "Melaka"
    },
    {
        "Postcode": "76400",
        "Location": "Paya Keladi",
        "Post_Office": "Tanjong Kling",
        "State": "Melaka"
    },
    {
        "Postcode": "76400",
        "Location": "Paya Lubuh",
        "Post_Office": "Tanjong Kling",
        "State": "Melaka"
    },
    {
        "Postcode": "76400",
        "Location": "Pengkalan Perigi",
        "Post_Office": "Tanjong Kling",
        "State": "Melaka"
    },
    {
        "Postcode": "76400",
        "Location": "Rumah Pangsa Sungai Lereh",
        "Post_Office": "Tanjong Kling",
        "State": "Melaka"
    },
    {
        "Postcode": "76400",
        "Location": "Samudera Condo",
        "Post_Office": "Tanjong Kling",
        "State": "Melaka"
    },
    {
        "Postcode": "76400",
        "Location": "Seaview",
        "Post_Office": "Tanjong Kling",
        "State": "Melaka"
    },
    {
        "Postcode": "76400",
        "Location": "Shah Beach Resort",
        "Post_Office": "Tanjong Kling",
        "State": "Melaka"
    },
    {
        "Postcode": "76400",
        "Location": "Solok Tangga Batu",
        "Post_Office": "Tanjong Kling",
        "State": "Melaka"
    },
    {
        "Postcode": "76400",
        "Location": "Spring Garden",
        "Post_Office": "Tanjong Kling",
        "State": "Melaka"
    },
    {
        "Postcode": "76400",
        "Location": "Sri Bayan Condo",
        "Post_Office": "Tanjong Kling",
        "State": "Melaka"
    },
    {
        "Postcode": "76400",
        "Location": "Sri Tanjong Servis",
        "Post_Office": "Tanjong Kling",
        "State": "Melaka"
    },
    {
        "Postcode": "76400",
        "Location": "Taman Imigresen",
        "Post_Office": "Tanjong Kling",
        "State": "Melaka"
    },
    {
        "Postcode": "76400",
        "Location": "Taman Nirwana",
        "Post_Office": "Tanjong Kling",
        "State": "Melaka"
    },
    {
        "Postcode": "76400",
        "Location": "Taman Pantai Kundur",
        "Post_Office": "Tanjong Kling",
        "State": "Melaka"
    },
    {
        "Postcode": "76400",
        "Location": "Taman Pantai Puteri",
        "Post_Office": "Tanjong Kling",
        "State": "Melaka"
    },
    {
        "Postcode": "76400",
        "Location": "Taman Puncak Maju",
        "Post_Office": "Tanjong Kling",
        "State": "Melaka"
    },
    {
        "Postcode": "76400",
        "Location": "Taman Seri Gelam",
        "Post_Office": "Tanjong Kling",
        "State": "Melaka"
    },
    {
        "Postcode": "76400",
        "Location": "Taman Spring",
        "Post_Office": "Tanjong Kling",
        "State": "Melaka"
    },
    {
        "Postcode": "76400",
        "Location": "Taman Tanah Merah Jaya",
        "Post_Office": "Tanjong Kling",
        "State": "Melaka"
    },
    {
        "Postcode": "76400",
        "Location": "Taman Tangga Batu",
        "Post_Office": "Tanjong Kling",
        "State": "Melaka"
    },
    {
        "Postcode": "76400",
        "Location": "Taman Tanjung Jaya",
        "Post_Office": "Tanjong Kling",
        "State": "Melaka"
    },
    {
        "Postcode": "76400",
        "Location": "Tangga Batu (Km 15 - 16)",
        "Post_Office": "Tanjong Kling",
        "State": "Melaka"
    },
    {
        "Postcode": "76400",
        "Location": "PPR Taman Tangga Batu",
        "Post_Office": "Tanjong Kling",
        "State": "Melaka"
    },
    {
        "Postcode": "76400",
        "Location": "Kampung Bukit Tempayan",
        "Post_Office": "Tanjong Kling",
        "State": "Melaka"
    },
    {
        "Postcode": "76400",
        "Location": "Kampung Lereh Luar",
        "Post_Office": "Tanjong Kling",
        "State": "Melaka"
    },
    {
        "Postcode": "76400",
        "Location": "Kampung Tanjung Kling",
        "Post_Office": "Tanjong Kling",
        "State": "Melaka"
    },
    {
        "Postcode": "76400",
        "Location": "Taman Tangga Batu Permai",
        "Post_Office": "Tanjong Kling",
        "State": "Melaka"
    },
    {
        "Postcode": "76400",
        "Location": "Taman Tangga Batu Damai",
        "Post_Office": "Melaka",
        "State": "Melaka"
    },
    {
        "Postcode": "76400",
        "Location": "Taman Seri Tanjung Gelam",
        "Post_Office": "Tanjung Kling",
        "State": "Melaka"
    },
    {
        "Postcode": "76400",
        "Location": "Kampung Pinang A",
        "Post_Office": "Tanjong Kling",
        "State": "Melaka"
    },
    {
        "Postcode": "76400",
        "Location": "Kampung Pinang B",
        "Post_Office": "Tanjong Kling",
        "State": "Melaka"
    }
]
