[
    {
        "Postcode": "76450",
        "Location": "Jalan Gendang 2",
        "Post_Office": "Melaka",
        "State": "Melaka"
    },
    {
        "Postcode": "76450",
        "Location": "Jalan Cs 9",
        "Post_Office": "Melaka",
        "State": "Melaka"
    },
    {
        "Postcode": "76450",
        "Location": "Rumah Awam Paya Rumput",
        "Post_Office": "Melaka",
        "State": "Melaka"
    },
    {
        "Postcode": "76450",
        "Location": "Taman Paya Rumput Jaya",
        "Post_Office": "Melaka",
        "State": "Melaka"
    },
    {
        "Postcode": "76450",
        "Location": "Jalan Damai",
        "Post_Office": "Melaka",
        "State": "Melaka"
    },
    {
        "Postcode": "76450",
        "Location": "Jalan Demang Mohd",
        "Post_Office": "Melaka",
        "State": "Melaka"
    },
    {
        "Postcode": "76450",
        "Location": "Jalan Penghulu Mak Yah",
        "Post_Office": "Melaka",
        "State": "Melaka"
    },
    {
        "Postcode": "76450",
        "Location": "Alor Bertam Ulu",
        "Post_Office": "Melaka",
        "State": "Melaka"
    },
    {
        "Postcode": "76450",
        "Location": "Jalan Cikgu Jalil",
        "Post_Office": "Melaka",
        "State": "Melaka"
    },
    {
        "Postcode": "76450",
        "Location": "Jalan Koh Lai Sin",
        "Post_Office": "Melaka",
        "State": "Melaka"
    },
    {
        "Postcode": "76450",
        "Location": "Jalan Sidang Jaffar",
        "Post_Office": "Melaka",
        "State": "Melaka"
    },
    {
        "Postcode": "76450",
        "Location": "Jalan Solok Air Supai",
        "Post_Office": "Melaka",
        "State": "Melaka"
    },
    {
        "Postcode": "76450",
        "Location": "Jalan Tuan Guru Haji Ahmad",
        "Post_Office": "Melaka",
        "State": "Melaka"
    },
    {
        "Postcode": "76450",
        "Location": "Jalan Wakaf Bertam Ulu",
        "Post_Office": "Melaka",
        "State": "Melaka"
    },
    {
        "Postcode": "76450",
        "Location": "Kampung Alor",
        "Post_Office": "Melaka",
        "State": "Melaka"
    },
    {
        "Postcode": "76450",
        "Location": "Kampung Baru Bertam Ulu",
        "Post_Office": "Melaka",
        "State": "Melaka"
    },
    {
        "Postcode": "76450",
        "Location": "Kampung Bertam Ulu",
        "Post_Office": "Melaka",
        "State": "Melaka"
    },
    {
        "Postcode": "76450",
        "Location": "Kawasan Perindustrian Paya Rumput",
        "Post_Office": "Melaka",
        "State": "Melaka"
    },
    {
        "Postcode": "76450",
        "Location": "Lorong Sidang Jaafar",
        "Post_Office": "Melaka",
        "State": "Melaka"
    },
    {
        "Postcode": "76450",
        "Location": "Paya Rumput",
        "Post_Office": "Melaka",
        "State": "Melaka"
    },
    {
        "Postcode": "76450",
        "Location": "Paya Rumput Hilir",
        "Post_Office": "Melaka",
        "State": "Melaka"
    },
    {
        "Postcode": "76450",
        "Location": "Paya Rumput Seberang",
        "Post_Office": "Melaka",
        "State": "Melaka"
    },
    {
        "Postcode": "76450",
        "Location": "Paya Rumput Tengah",
        "Post_Office": "Melaka",
        "State": "Melaka"
    },
    {
        "Postcode": "76450",
        "Location": "Pekan Paya Rumput",
        "Post_Office": "Melaka",
        "State": "Melaka"
    },
    {
        "Postcode": "76450",
        "Location": "Rumah Awam Bertam Ulu",
        "Post_Office": "Melaka",
        "State": "Melaka"
    },
    {
        "Postcode": "76450",
        "Location": "Solok Air Supai",
        "Post_Office": "Melaka",
        "State": "Melaka"
    },
    {
        "Postcode": "76450",
        "Location": "Solok Chong Chan",
        "Post_Office": "Melaka",
        "State": "Melaka"
    },
    {
        "Postcode": "76450",
        "Location": "Solok Hilir",
        "Post_Office": "Melaka",
        "State": "Melaka"
    },
    {
        "Postcode": "76450",
        "Location": "Solok Penghulu Mak Yah",
        "Post_Office": "Melaka",
        "State": "Melaka"
    },
    {
        "Postcode": "76450",
        "Location": "Solok Sim Fat",
        "Post_Office": "Melaka",
        "State": "Melaka"
    },
    {
        "Postcode": "76450",
        "Location": "Solok Yong Lian",
        "Post_Office": "Melaka",
        "State": "Melaka"
    },
    {
        "Postcode": "76450",
        "Location": "Taman Bertam Impian",
        "Post_Office": "Melaka",
        "State": "Melaka"
    },
    {
        "Postcode": "76450",
        "Location": "Taman Bertam Jaya",
        "Post_Office": "Melaka",
        "State": "Melaka"
    },
    {
        "Postcode": "76450",
        "Location": "Taman Bertam Permai",
        "Post_Office": "Melaka",
        "State": "Melaka"
    },
    {
        "Postcode": "76450",
        "Location": "Taman Bertam Setia",
        "Post_Office": "Melaka",
        "State": "Melaka"
    },
    {
        "Postcode": "76450",
        "Location": "Taman Bertam Ulu",
        "Post_Office": "Melaka",
        "State": "Melaka"
    },
    {
        "Postcode": "76450",
        "Location": "Taman Cheng Setia",
        "Post_Office": "Melaka",
        "State": "Melaka"
    },
    {
        "Postcode": "76450",
        "Location": "Taman Paya Rumput Bahagia",
        "Post_Office": "Melaka",
        "State": "Melaka"
    },
    {
        "Postcode": "76450",
        "Location": "Taman Paya Rumput Indah",
        "Post_Office": "Melaka",
        "State": "Melaka"
    },
    {
        "Postcode": "76450",
        "Location": "Taman Paya Rumput Indah 2",
        "Post_Office": "Melaka",
        "State": "Melaka"
    },
    {
        "Postcode": "76450",
        "Location": "Taman Paya Rumput Permai",
        "Post_Office": "Melaka",
        "State": "Melaka"
    },
    {
        "Postcode": "76450",
        "Location": "Jalan Gendang 3",
        "Post_Office": "Melaka",
        "State": "Melaka"
    },
    {
        "Postcode": "76450",
        "Location": "Jalan Gendang 3A",
        "Post_Office": "Melaka",
        "State": "Melaka"
    },
    {
        "Postcode": "76450",
        "Location": "Taman Paya Rumput Bestari",
        "Post_Office": "Melaka ",
        "State": "Melaka"
    },
    {
        "Postcode": "76450",
        "Location": "Kampung Ujung Padang",
        "Post_Office": "Melaka",
        "State": "Melaka"
    },
    {
        "Postcode": "76450",
        "Location": "Taman Paya Emas",
        "Post_Office": "Melaka",
        "State": "Melaka"
    },
    {
        "Postcode": "76450",
        "Location": "Taman Bertam Heights Utama",
        "Post_Office": "Melaka",
        "State": "Melaka"
    },
    {
        "Postcode": "76450",
        "Location": "Jalan Kompang 1",
        "Post_Office": "Melaka",
        "State": "Melaka"
    },
    {
        "Postcode": "76450",
        "Location": "Jalan Kompang 2",
        "Post_Office": "Melaka",
        "State": "Melaka"
    },
    {
        "Postcode": "76450",
        "Location": "Jalan Kompang 3",
        "Post_Office": "Melaka",
        "State": "Melaka"
    },
    {
        "Postcode": "76450",
        "Location": "Jalan Kompang 4",
        "Post_Office": "Melaka",
        "State": "Melaka"
    },
    {
        "Postcode": "76450",
        "Location": "Jalan Rebana 1",
        "Post_Office": "Melaka",
        "State": "Melaka"
    },
    {
        "Postcode": "76450",
        "Location": "Jalan Rebana 1A",
        "Post_Office": "Melaka",
        "State": "Melaka"
    },
    {
        "Postcode": "76450",
        "Location": "Jalan Rebana 2",
        "Post_Office": "Melaka",
        "State": "Melaka"
    },
    {
        "Postcode": "76450",
        "Location": "Jalan Rebana 3",
        "Post_Office": "Melaka",
        "State": "Melaka"
    },
    {
        "Postcode": "76450",
        "Location": "Jalan Rebana 4",
        "Post_Office": "Melaka",
        "State": "Melaka"
    },
    {
        "Postcode": "76450",
        "Location": "Jalan Rebana 5",
        "Post_Office": "Melaka",
        "State": "Melaka"
    },
    {
        "Postcode": "76450",
        "Location": "Jalan Rebana 6",
        "Post_Office": "Melaka",
        "State": "Melaka"
    },
    {
        "Postcode": "76450",
        "Location": "Jalan Rebana 7",
        "Post_Office": "Melaka",
        "State": "Melaka"
    },
    {
        "Postcode": "76450",
        "Location": "Jalan Rebana 8",
        "Post_Office": "Melaka",
        "State": "Melaka"
    },
    {
        "Postcode": "76450",
        "Location": "Jalan Rebana 9",
        "Post_Office": "Melaka",
        "State": "Melaka"
    },
    {
        "Postcode": "76450",
        "Location": "Jalan Rebana 10",
        "Post_Office": "Melaka",
        "State": "Melaka"
    },
    {
        "Postcode": "76450",
        "Location": "Jalan Rebana 11",
        "Post_Office": "Melaka",
        "State": "Melaka"
    },
    {
        "Postcode": "76450",
        "Location": "Jalan Rebana 12",
        "Post_Office": "Melaka",
        "State": "Melaka"
    },
    {
        "Postcode": "76450",
        "Location": "Jalan Rebana 13",
        "Post_Office": "Melaka",
        "State": "Melaka"
    },
    {
        "Postcode": "76450",
        "Location": "Jalan Gendang 1",
        "Post_Office": "Melaka",
        "State": "Melaka"
    },
    {
        "Postcode": "76450",
        "Location": "Taman Paya Rumput Ria",
        "Post_Office": "Melaka",
        "State": "Melaka"
    },
    {
        "Postcode": "76450",
        "Location": "Taman Paya Rumput Utama",
        "Post_Office": "Melaka",
        "State": "Melaka"
    },
    {
        "Postcode": "76450",
        "Location": "Taman Permai Indah",
        "Post_Office": "Melaka",
        "State": "Melaka"
    },
    {
        "Postcode": "76450",
        "Location": "Taman Rumput Jaya",
        "Post_Office": "Melaka",
        "State": "Melaka"
    },
    {
        "Postcode": "76450",
        "Location": "Taman Seri Bertam",
        "Post_Office": "Melaka",
        "State": "Melaka"
    },
    {
        "Postcode": "76450",
        "Location": "Taman Seri Paya Rumput",
        "Post_Office": "Melaka",
        "State": "Melaka"
    },
    {
        "Postcode": "76450",
        "Location": "Taman Sri Bertam",
        "Post_Office": "Melaka",
        "State": "Melaka"
    },
    {
        "Postcode": "76450",
        "Location": "Ulu Paya Rumput",
        "Post_Office": "Melaka",
        "State": "Melaka"
    },
    {
        "Postcode": "76450",
        "Location": "Jalan Desa Bertam 1",
        "Post_Office": "Melaka",
        "State": "Melaka"
    },
    {
        "Postcode": "76450",
        "Location": "Taman Bertam Indah",
        "Post_Office": "Melaka",
        "State": "Melaka"
    },
    {
        "Postcode": "76450",
        "Location": "Taman Bertam Putra",
        "Post_Office": "Melaka",
        "State": "Melaka"
    },
    {
        "Postcode": "76450",
        "Location": "Taman Paya Rumput Perdana",
        "Post_Office": "Melaka",
        "State": "Melaka"
    },
    {
        "Postcode": "76450",
        "Location": "Jalan Cs 11",
        "Post_Office": "Melaka",
        "State": "Melaka"
    },
    {
        "Postcode": "76450",
        "Location": "Jalan Cs 12",
        "Post_Office": "Melaka",
        "State": "Melaka"
    },
    {
        "Postcode": "76450",
        "Location": "Jalan Cs 13",
        "Post_Office": "Melaka",
        "State": "Melaka"
    },
    {
        "Postcode": "76450",
        "Location": "Jalan Cs 14",
        "Post_Office": "Melaka",
        "State": "Melaka"
    },
    {
        "Postcode": "76450",
        "Location": "Jalan Cs 15",
        "Post_Office": "Melaka",
        "State": "Melaka"
    },
    {
        "Postcode": "76450",
        "Location": "Jalan Tu 10A",
        "Post_Office": "Melaka",
        "State": "Melaka"
    },
    {
        "Postcode": "76450",
        "Location": "Jalan Tu 10B",
        "Post_Office": "Melaka",
        "State": "Melaka"
    },
    {
        "Postcode": "76450",
        "Location": "Jalan Tu 10C",
        "Post_Office": "Melaka",
        "State": "Melaka"
    },
    {
        "Postcode": "76450",
        "Location": "Jalan Tu 10D",
        "Post_Office": "Melaka",
        "State": "Melaka"
    },
    {
        "Postcode": "76450",
        "Location": "Jalan Tu 10E",
        "Post_Office": "Melaka",
        "State": "Melaka"
    }
]
