[
    {
        "Postcode": "16010",
        "Location": "Kampung Lubut Bunut",
        "Post_Office": "Kota Bharu",
        "State": "Kelantan"
    },
    {
        "Postcode": "16010",
        "Location": "Kampung Nilam Baru",
        "Post_Office": "Kota Bharu",
        "State": "Kelantan"
    },
    {
        "Postcode": "16010",
        "Location": "Kampung Tiong Dalam",
        "Post_Office": "Kota Bharu",
        "State": "Kelantan"
    },
    {
        "Postcode": "16010",
        "Location": "Kampung Chenok",
        "Post_Office": "Kota Bharu",
        "State": "Kelantan"
    },
    {
        "Postcode": "16010",
        "Location": "Kampung Pauh Butut",
        "Post_Office": "Kota Bharu",
        "State": "Kelantan"
    },
    {
        "Postcode": "16010",
        "Location": "Kampung Paya",
        "Post_Office": "Kota Bharu",
        "State": "Kelantan"
    },
    {
        "Postcode": "16010",
        "Location": "Kampung Telaga Limau",
        "Post_Office": "Kota Bharu",
        "State": "Kelantan"
    },
    {
        "Postcode": "16010",
        "Location": "Kampung Berangan",
        "Post_Office": "Kota Bharu",
        "State": "Kelantan"
    },
    {
        "Postcode": "16010",
        "Location": "Kampung Manok",
        "Post_Office": "Kota Bharu",
        "State": "Kelantan"
    },
    {
        "Postcode": "16010",
        "Location": "Kampung Perol",
        "Post_Office": "Kota Bharu",
        "State": "Kelantan"
    },
    {
        "Postcode": "16010",
        "Location": "Kampung Rupek",
        "Post_Office": "Kota Bharu",
        "State": "Kelantan"
    },
    {
        "Postcode": "16010",
        "Location": "Kampung Surau",
        "Post_Office": "Kota Bharu",
        "State": "Kelantan"
    },
    {
        "Postcode": "16010",
        "Location": "Kampung Tebing Tiong",
        "Post_Office": "Kota Bharu",
        "State": "Kelantan"
    },
    {
        "Postcode": "16010",
        "Location": "Kampung Tiong",
        "Post_Office": "Kota Bharu",
        "State": "Kelantan"
    },
    {
        "Postcode": "16010",
        "Location": "Chabang Tiga Perol",
        "Post_Office": "Kota Bharu",
        "State": "Kelantan"
    },
    {
        "Postcode": "16010",
        "Location": "Kampung Batu 8",
        "Post_Office": "Kota Bharu",
        "State": "Kelantan"
    },
    {
        "Postcode": "16010",
        "Location": "Kampung Belimbing",
        "Post_Office": "Kota Bharu",
        "State": "Kelantan"
    },
    {
        "Postcode": "16010",
        "Location": "Kampung Biah",
        "Post_Office": "Kota Bharu",
        "State": "Kelantan"
    },
    {
        "Postcode": "16010",
        "Location": "Kampung Binjai (Mulong)",
        "Post_Office": "Kota Bharu",
        "State": "Kelantan"
    },
    {
        "Postcode": "16010",
        "Location": "Kampung Chedong",
        "Post_Office": "Kota Bharu",
        "State": "Kelantan"
    },
    {
        "Postcode": "16010",
        "Location": "Kampung Cherok Belekok",
        "Post_Office": "Kota Bharu",
        "State": "Kelantan"
    },
    {
        "Postcode": "16010",
        "Location": "Kampung Dalam Pupuh",
        "Post_Office": "Kota Bharu",
        "State": "Kelantan"
    },
    {
        "Postcode": "16010",
        "Location": "Kampung Desa Baru",
        "Post_Office": "Kota Bharu",
        "State": "Kelantan"
    },
    {
        "Postcode": "16010",
        "Location": "Kampung Kor Hilir",
        "Post_Office": "Kota Bharu",
        "State": "Kelantan"
    },
    {
        "Postcode": "16010",
        "Location": "Kampung Kor Hulu",
        "Post_Office": "Kota Bharu",
        "State": "Kelantan"
    },
    {
        "Postcode": "16010",
        "Location": "Kampung Kubang Bongor (Mulong)",
        "Post_Office": "Kota Bharu",
        "State": "Kelantan"
    },
    {
        "Postcode": "16010",
        "Location": "Kampung Kubang Itek",
        "Post_Office": "Kota Bharu",
        "State": "Kelantan"
    },
    {
        "Postcode": "16010",
        "Location": "Kampung Kubang Kachang",
        "Post_Office": "Kota Bharu",
        "State": "Kelantan"
    },
    {
        "Postcode": "16010",
        "Location": "Kampung Kukang",
        "Post_Office": "Kota Bharu",
        "State": "Kelantan"
    },
    {
        "Postcode": "16010",
        "Location": "Kampung Lating",
        "Post_Office": "Kota Bharu",
        "State": "Kelantan"
    },
    {
        "Postcode": "16010",
        "Location": "Kampung Lembu",
        "Post_Office": "Kota Bharu",
        "State": "Kelantan"
    },
    {
        "Postcode": "16010",
        "Location": "Kampung Lubok Jambu",
        "Post_Office": "Kota Bharu",
        "State": "Kelantan"
    },
    {
        "Postcode": "16010",
        "Location": "Kampung Masjid Padang Enggang",
        "Post_Office": "Kota Bharu",
        "State": "Kelantan"
    },
    {
        "Postcode": "16010",
        "Location": "Kampung Nilam Puri",
        "Post_Office": "Kota Bharu",
        "State": "Kelantan"
    },
    {
        "Postcode": "16010",
        "Location": "Kampung Padang Penyadap",
        "Post_Office": "Kota Bharu",
        "State": "Kelantan"
    },
    {
        "Postcode": "16010",
        "Location": "Kampung Padang Puteh",
        "Post_Office": "Kota Bharu",
        "State": "Kelantan"
    },
    {
        "Postcode": "16010",
        "Location": "Kampung Pulau Gajah",
        "Post_Office": "Kota Bharu",
        "State": "Kelantan"
    },
    {
        "Postcode": "16010",
        "Location": "Kampung Pulau Putat",
        "Post_Office": "Kota Bharu",
        "State": "Kelantan"
    },
    {
        "Postcode": "16010",
        "Location": "Kampung Pulau Semut",
        "Post_Office": "Kota Bharu",
        "State": "Kelantan"
    },
    {
        "Postcode": "16010",
        "Location": "Kampung Pulau Tebu",
        "Post_Office": "Kota Bharu",
        "State": "Kelantan"
    },
    {
        "Postcode": "16010",
        "Location": "Kampung Putat",
        "Post_Office": "Kota Bharu",
        "State": "Kelantan"
    },
    {
        "Postcode": "16010",
        "Location": "Kampung Seberang Lating",
        "Post_Office": "Kota Bharu",
        "State": "Kelantan"
    },
    {
        "Postcode": "16010",
        "Location": "Kampung Tunjong",
        "Post_Office": "Kota Bharu",
        "State": "Kelantan"
    },
    {
        "Postcode": "16010",
        "Location": "Kampung Tunjong Dalam",
        "Post_Office": "Kota Bharu",
        "State": "Kelantan"
    },
    {
        "Postcode": "16010",
        "Location": "Kedai Batu 8",
        "Post_Office": "Kota Bharu",
        "State": "Kelantan"
    },
    {
        "Postcode": "16010",
        "Location": "Mulong",
        "Post_Office": "Kota Bharu",
        "State": "Kelantan"
    },
    {
        "Postcode": "16010",
        "Location": "Sekolah Kebangsaan Mulong 2",
        "Post_Office": "Kota Bharu",
        "State": "Kelantan"
    },
    {
        "Postcode": "16010",
        "Location": "Taman Tiong (Mulong)",
        "Post_Office": "Kota Bharu",
        "State": "Kelantan"
    }
]
