[
    {
        "Postcode": "16020",
        "Location": "Kampung Takang",
        "Post_Office": "Bachok",
        "State": "Kelantan"
    },
    {
        "Postcode": "16020",
        "Location": "Kampung Tanjong (Tawang)",
        "Post_Office": "Bachok",
        "State": "Kelantan"
    },
    {
        "Postcode": "16020",
        "Location": "Kampung Telok Kemunting",
        "Post_Office": "Bachok",
        "State": "Kelantan"
    },
    {
        "Postcode": "16020",
        "Location": "Kampung Telok Mesira",
        "Post_Office": "Bachok",
        "State": "Kelantan"
    },
    {
        "Postcode": "16020",
        "Location": "Kampung Tempoyak (Tawang)",
        "Post_Office": "Bachok",
        "State": "Kelantan"
    },
    {
        "Postcode": "16020",
        "Location": "Kampung Teratai",
        "Post_Office": "Bachok",
        "State": "Kelantan"
    },
    {
        "Postcode": "16020",
        "Location": "Kampung Tok Cha Keling",
        "Post_Office": "Bachok",
        "State": "Kelantan"
    },
    {
        "Postcode": "16020",
        "Location": "Kampung Tok Jawa",
        "Post_Office": "Bachok",
        "State": "Kelantan"
    },
    {
        "Postcode": "16020",
        "Location": "Kampung Tok Ku",
        "Post_Office": "Bachok",
        "State": "Kelantan"
    },
    {
        "Postcode": "16020",
        "Location": "Kampung Tok Lada",
        "Post_Office": "Bachok",
        "State": "Kelantan"
    },
    {
        "Postcode": "16020",
        "Location": "Kampung Tok Mekong",
        "Post_Office": "Bachok",
        "State": "Kelantan"
    },
    {
        "Postcode": "16020",
        "Location": "Kampung Wakaf Aik",
        "Post_Office": "Bachok",
        "State": "Kelantan"
    },
    {
        "Postcode": "16020",
        "Location": "Kampung Wakaf Zain",
        "Post_Office": "Bachok",
        "State": "Kelantan"
    },
    {
        "Postcode": "16020",
        "Location": "Kedai Lalat",
        "Post_Office": "Bachok",
        "State": "Kelantan"
    },
    {
        "Postcode": "16020",
        "Location": "Padang Kemaman",
        "Post_Office": "Bachok",
        "State": "Kelantan"
    },
    {
        "Postcode": "16020",
        "Location": "Padang Kemasin",
        "Post_Office": "Bachok",
        "State": "Kelantan"
    },
    {
        "Postcode": "16020",
        "Location": "Pulau Belangga",
        "Post_Office": "Bachok",
        "State": "Kelantan"
    },
    {
        "Postcode": "16020",
        "Location": "Sekolah Kebangsaan Tawang",
        "Post_Office": "Bachok",
        "State": "Kelantan"
    },
    {
        "Postcode": "16020",
        "Location": "Sekolah Menengah Tawang",
        "Post_Office": "Bachok",
        "State": "Kelantan"
    },
    {
        "Postcode": "16020",
        "Location": "Kampung Aur",
        "Post_Office": "Bachok",
        "State": "Kelantan"
    },
    {
        "Postcode": "16020",
        "Location": "Kampung Budi",
        "Post_Office": "Bachok",
        "State": "Kelantan"
    },
    {
        "Postcode": "16020",
        "Location": "Kampung Pengkalan Baru",
        "Post_Office": "Bachok",
        "State": "Kelantan"
    },
    {
        "Postcode": "16020",
        "Location": "Tawang",
        "Post_Office": "Bachok",
        "State": "Kelantan"
    },
    {
        "Postcode": "16020",
        "Location": "Kampung Baru",
        "Post_Office": "Bachok",
        "State": "Kelantan"
    },
    {
        "Postcode": "16020",
        "Location": "Kampung Gajah Mati",
        "Post_Office": "Bachok",
        "State": "Kelantan"
    },
    {
        "Postcode": "16020",
        "Location": "Kampung Hujung Tanjung",
        "Post_Office": "Bachok",
        "State": "Kelantan"
    },
    {
        "Postcode": "16020",
        "Location": "Kampung Anak Tembusu",
        "Post_Office": "Bachok",
        "State": "Kelantan"
    },
    {
        "Postcode": "16020",
        "Location": "Kampung Babong",
        "Post_Office": "Bachok",
        "State": "Kelantan"
    },
    {
        "Postcode": "16020",
        "Location": "Kampung Belukar (Tawang)",
        "Post_Office": "Bachok",
        "State": "Kelantan"
    },
    {
        "Postcode": "16020",
        "Location": "Kampung Beris Gajah Mati",
        "Post_Office": "Bachok",
        "State": "Kelantan"
    },
    {
        "Postcode": "16020",
        "Location": "Kampung Beris Harap",
        "Post_Office": "Bachok",
        "State": "Kelantan"
    },
    {
        "Postcode": "16020",
        "Location": "Kampung Beris Panchor",
        "Post_Office": "Bachok",
        "State": "Kelantan"
    },
    {
        "Postcode": "16020",
        "Location": "Kampung Cherang Laut",
        "Post_Office": "Bachok",
        "State": "Kelantan"
    },
    {
        "Postcode": "16020",
        "Location": "Kampung Chinca Menyabong",
        "Post_Office": "Bachok",
        "State": "Kelantan"
    },
    {
        "Postcode": "16020",
        "Location": "Kampung Durian",
        "Post_Office": "Bachok",
        "State": "Kelantan"
    },
    {
        "Postcode": "16020",
        "Location": "Kampung Dusun Durian (Tawang)",
        "Post_Office": "Bachok",
        "State": "Kelantan"
    },
    {
        "Postcode": "16020",
        "Location": "Kampung Gajah Mati Tawang",
        "Post_Office": "Bachok",
        "State": "Kelantan"
    },
    {
        "Postcode": "16020",
        "Location": "Kampung Gelong Machang",
        "Post_Office": "Bachok",
        "State": "Kelantan"
    },
    {
        "Postcode": "16020",
        "Location": "Kampung Gong Batu",
        "Post_Office": "Bachok",
        "State": "Kelantan"
    },
    {
        "Postcode": "16020",
        "Location": "Kampung Jembal",
        "Post_Office": "Bachok",
        "State": "Kelantan"
    },
    {
        "Postcode": "16020",
        "Location": "Kampung Jenerak",
        "Post_Office": "Bachok",
        "State": "Kelantan"
    },
    {
        "Postcode": "16020",
        "Location": "Kampung Kemanyam",
        "Post_Office": "Bachok",
        "State": "Kelantan"
    },
    {
        "Postcode": "16020",
        "Location": "Kampung Kubang Dalam",
        "Post_Office": "Bachok",
        "State": "Kelantan"
    },
    {
        "Postcode": "16020",
        "Location": "Kampung Kubang Tuman (Tawang)",
        "Post_Office": "Bachok",
        "State": "Kelantan"
    },
    {
        "Postcode": "16020",
        "Location": "Kampung Lelepar",
        "Post_Office": "Bachok",
        "State": "Kelantan"
    },
    {
        "Postcode": "16020",
        "Location": "Kampung Mok Kang",
        "Post_Office": "Bachok",
        "State": "Kelantan"
    },
    {
        "Postcode": "16020",
        "Location": "Kampung Padang Dalam",
        "Post_Office": "Bachok",
        "State": "Kelantan"
    },
    {
        "Postcode": "16020",
        "Location": "Kampung Padang Kiat",
        "Post_Office": "Bachok",
        "State": "Kelantan"
    },
    {
        "Postcode": "16020",
        "Location": "Kampung Padang Nibong",
        "Post_Office": "Bachok",
        "State": "Kelantan"
    },
    {
        "Postcode": "16020",
        "Location": "Kampung Pantai Senok",
        "Post_Office": "Bachok",
        "State": "Kelantan"
    },
    {
        "Postcode": "16020",
        "Location": "Kampung Pasir Kasar",
        "Post_Office": "Bachok",
        "State": "Kelantan"
    },
    {
        "Postcode": "16020",
        "Location": "Kampung Pasir Tok Kambing",
        "Post_Office": "Bachok",
        "State": "Kelantan"
    },
    {
        "Postcode": "16020",
        "Location": "Kampung Pengkalan Datu",
        "Post_Office": "Bachok",
        "State": "Kelantan"
    },
    {
        "Postcode": "16020",
        "Location": "Kampung Pengkalan Petah",
        "Post_Office": "Bachok",
        "State": "Kelantan"
    },
    {
        "Postcode": "16020",
        "Location": "Kampung Petani",
        "Post_Office": "Bachok",
        "State": "Kelantan"
    },
    {
        "Postcode": "16020",
        "Location": "Kampung Pintu Gerbang",
        "Post_Office": "Bachok",
        "State": "Kelantan"
    },
    {
        "Postcode": "16020",
        "Location": "Kampung Pulau Belanga",
        "Post_Office": "Bachok",
        "State": "Kelantan"
    },
    {
        "Postcode": "16020",
        "Location": "Kampung Pulau Lohong",
        "Post_Office": "Bachok",
        "State": "Kelantan"
    },
    {
        "Postcode": "16020",
        "Location": "Kampung Pulau Melaka",
        "Post_Office": "Bachok",
        "State": "Kelantan"
    },
    {
        "Postcode": "16020",
        "Location": "Kampung Sador",
        "Post_Office": "Bachok",
        "State": "Kelantan"
    },
    {
        "Postcode": "16020",
        "Location": "Kampung Saraf",
        "Post_Office": "Bachok",
        "State": "Kelantan"
    },
    {
        "Postcode": "16020",
        "Location": "Kampung Senak",
        "Post_Office": "Bachok",
        "State": "Kelantan"
    },
    {
        "Postcode": "16020",
        "Location": "Kampung Senang",
        "Post_Office": "Bachok",
        "State": "Kelantan"
    },
    {
        "Postcode": "16020",
        "Location": "Kampung Senok",
        "Post_Office": "Bachok",
        "State": "Kelantan"
    },
    {
        "Postcode": "16020",
        "Location": "Kampung Surau (Tawang)",
        "Post_Office": "Bachok",
        "State": "Kelantan"
    }
]
