[
    {
        "Postcode": "16040",
        "Location": "Hadapan Masjid Kampung Laut",
        "Post_Office": "Wakaf Bharu",
        "State": "Kelantan"
    },
    {
        "Postcode": "16040",
        "Location": "Jalan Besar Lama",
        "Post_Office": "Wakaf Bharu",
        "State": "Kelantan"
    },
    {
        "Postcode": "16040",
        "Location": "Jalan Hulu Pasar Kampung Laut 1",
        "Post_Office": "Wakaf Bharu",
        "State": "Kelantan"
    },
    {
        "Postcode": "16040",
        "Location": "Jalan Market Baru",
        "Post_Office": "Wakaf Bharu",
        "State": "Kelantan"
    },
    {
        "Postcode": "16040",
        "Location": "Jalan Market Baru Kampung Laut",
        "Post_Office": "Wakaf Bharu",
        "State": "Kelantan"
    },
    {
        "Postcode": "16040",
        "Location": "Jalan Masjid Lama Kampung Laut 2",
        "Post_Office": "Wakaf Bharu",
        "State": "Kelantan"
    },
    {
        "Postcode": "16040",
        "Location": "Jalan Masjid Palekbang",
        "Post_Office": "Wakaf Bharu",
        "State": "Kelantan"
    },
    {
        "Postcode": "16040",
        "Location": "Jalan Masjid Sungai Pinang",
        "Post_Office": "Wakaf Bharu",
        "State": "Kelantan"
    },
    {
        "Postcode": "16040",
        "Location": "Jalan Sekolah Menengah Kampung Laut",
        "Post_Office": "Wakaf Bharu",
        "State": "Kelantan"
    },
    {
        "Postcode": "16040",
        "Location": "Kampung Bendang Pulau",
        "Post_Office": "Wakaf Bharu",
        "State": "Kelantan"
    },
    {
        "Postcode": "16040",
        "Location": "Kampung Berlian",
        "Post_Office": "Wakaf Bharu",
        "State": "Kelantan"
    },
    {
        "Postcode": "16040",
        "Location": "Kampung Gelong Perahu",
        "Post_Office": "Wakaf Bharu",
        "State": "Kelantan"
    },
    {
        "Postcode": "16040",
        "Location": "Kampung Gobek",
        "Post_Office": "Wakaf Bharu",
        "State": "Kelantan"
    },
    {
        "Postcode": "16040",
        "Location": "Kampung Haji Merah",
        "Post_Office": "Wakaf Bharu",
        "State": "Kelantan"
    },
    {
        "Postcode": "16040",
        "Location": "Kampung Hujung Pasir",
        "Post_Office": "Wakaf Bharu",
        "State": "Kelantan"
    },
    {
        "Postcode": "16040",
        "Location": "Kampung Hutan Jambu",
        "Post_Office": "Wakaf Bharu",
        "State": "Kelantan"
    },
    {
        "Postcode": "16040",
        "Location": "Kampung Kepulau",
        "Post_Office": "Wakaf Bharu",
        "State": "Kelantan"
    },
    {
        "Postcode": "16040",
        "Location": "Kampung Kok Bachok",
        "Post_Office": "Wakaf Bharu",
        "State": "Kelantan"
    },
    {
        "Postcode": "16040",
        "Location": "Kampung Kok Jerat",
        "Post_Office": "Wakaf Bharu",
        "State": "Kelantan"
    },
    {
        "Postcode": "16040",
        "Location": "Kampung Kok Keli",
        "Post_Office": "Wakaf Bharu",
        "State": "Kelantan"
    },
    {
        "Postcode": "16040",
        "Location": "Kampung Kok Masjid",
        "Post_Office": "Wakaf Bharu",
        "State": "Kelantan"
    },
    {
        "Postcode": "16040",
        "Location": "Kampung Kok Pasir@Sekolah Kebangsaan Kok Pasir",
        "Post_Office": "Wakaf Bharu",
        "State": "Kelantan"
    },
    {
        "Postcode": "16040",
        "Location": "Kampung Kolam Teratai",
        "Post_Office": "Wakaf Bharu",
        "State": "Kelantan"
    },
    {
        "Postcode": "16040",
        "Location": "Kampung Laut 1",
        "Post_Office": "Wakaf Bharu",
        "State": "Kelantan"
    },
    {
        "Postcode": "16040",
        "Location": "Kampung Laut 3",
        "Post_Office": "Wakaf Bharu",
        "State": "Kelantan"
    },
    {
        "Postcode": "16040",
        "Location": "Kampung Laut Jalan Klinik @ Depan Klinik",
        "Post_Office": "Wakaf Bharu",
        "State": "Kelantan"
    },
    {
        "Postcode": "16040",
        "Location": "Kampung Mak Neralang",
        "Post_Office": "Wakaf Bharu",
        "State": "Kelantan"
    },
    {
        "Postcode": "16040",
        "Location": "Kampung Masjid Palekbang",
        "Post_Office": "Wakaf Bharu",
        "State": "Kelantan"
    },
    {
        "Postcode": "16040",
        "Location": "Kampung Mesira",
        "Post_Office": "Wakaf Bharu",
        "State": "Kelantan"
    },
    {
        "Postcode": "16040",
        "Location": "Kampung Morak",
        "Post_Office": "Wakaf Bharu",
        "State": "Kelantan"
    },
    {
        "Postcode": "16040",
        "Location": "Kampung Palekbang",
        "Post_Office": "Wakaf Bharu",
        "State": "Kelantan"
    },
    {
        "Postcode": "16040",
        "Location": "Kampung Palekbang Hilir",
        "Post_Office": "Wakaf Bharu",
        "State": "Kelantan"
    },
    {
        "Postcode": "16040",
        "Location": "Kampung Paloh",
        "Post_Office": "Wakaf Bharu",
        "State": "Kelantan"
    },
    {
        "Postcode": "16040",
        "Location": "Kampung Paloh Chicha",
        "Post_Office": "Wakaf Bharu",
        "State": "Kelantan"
    },
    {
        "Postcode": "16040",
        "Location": "Kampung Paloh Dalam",
        "Post_Office": "Wakaf Bharu",
        "State": "Kelantan"
    },
    {
        "Postcode": "16040",
        "Location": "Kampung Pulau Besar",
        "Post_Office": "Wakaf Bharu",
        "State": "Kelantan"
    },
    {
        "Postcode": "16040",
        "Location": "Kampung Pulau Seratus",
        "Post_Office": "Wakaf Bharu",
        "State": "Kelantan"
    },
    {
        "Postcode": "16040",
        "Location": "Kampung Simpang Tiga Kepulau",
        "Post_Office": "Wakaf Bharu",
        "State": "Kelantan"
    },
    {
        "Postcode": "16040",
        "Location": "Kampung Sungai Nyior",
        "Post_Office": "Wakaf Bharu",
        "State": "Kelantan"
    },
    {
        "Postcode": "16040",
        "Location": "Kampung Sungai Pinang",
        "Post_Office": "Wakaf Bharu",
        "State": "Kelantan"
    },
    {
        "Postcode": "16040",
        "Location": "Kampung Tok Nek",
        "Post_Office": "Wakaf Bharu",
        "State": "Kelantan"
    },
    {
        "Postcode": "16040",
        "Location": "Kampung Tok Pol",
        "Post_Office": "Wakaf Bharu",
        "State": "Kelantan"
    },
    {
        "Postcode": "16040",
        "Location": "Lorong Pendekar",
        "Post_Office": "Wakaf Bharu",
        "State": "Kelantan"
    },
    {
        "Postcode": "16040",
        "Location": "Sekolah Kebangsaan Kok Pasir",
        "Post_Office": "Wakaf Bharu",
        "State": "Kelantan"
    },
    {
        "Postcode": "16040",
        "Location": "Taman Desa Jambu",
        "Post_Office": "Wakaf Bharu",
        "State": "Kelantan"
    },
    {
        "Postcode": "16040",
        "Location": "Taman Desa Raya",
        "Post_Office": "Wakaf Bharu",
        "State": "Kelantan"
    },
    {
        "Postcode": "16040",
        "Location": "Taman Zaharah",
        "Post_Office": "Wakaf Bharu",
        "State": "Kelantan"
    },
    {
        "Postcode": "16040",
        "Location": "Teluk Rajuna",
        "Post_Office": "Wakaf Bharu",
        "State": "Kelantan"
    },
    {
        "Postcode": "16040",
        "Location": "Sekolah Kebangsaan Kok Keli",
        "Post_Office": "Wakaf Bharu",
        "State": "Kelantan"
    },
    {
        "Postcode": "16040",
        "Location": "Sekolah Kebangsaan Morak",
        "Post_Office": "Wakaf Bharu",
        "State": "Kelantan"
    },
    {
        "Postcode": "16040",
        "Location": "Sekolah Kebangsaan Palekbang",
        "Post_Office": "Wakaf Bharu",
        "State": "Kelantan"
    },
    {
        "Postcode": "16040",
        "Location": "Sekolah Kebangsaan Seri Kampung Laut",
        "Post_Office": "Wakaf Bharu",
        "State": "Kelantan"
    },
    {
        "Postcode": "16040",
        "Location": "Sekolah Kebangsaan Sungai Pinang",
        "Post_Office": "Wakaf Bharu",
        "State": "Kelantan"
    },
    {
        "Postcode": "16040",
        "Location": "Sekolah Menengah Kampung Laut",
        "Post_Office": "Wakaf Bharu",
        "State": "Kelantan"
    },
    {
        "Postcode": "16040",
        "Location": "Kampung Dalam Pandan",
        "Post_Office": "Wakaf Bharu",
        "State": "Kelantan"
    },
    {
        "Postcode": "16040",
        "Location": "Klinik Kampung Laut 2",
        "Post_Office": "Wakaf Bharu",
        "State": "Kelantan"
    },
    {
        "Postcode": "16040",
        "Location": "Lorong Haji Mahmud",
        "Post_Office": "Wakaf Bharu",
        "State": "Kelantan"
    },
    {
        "Postcode": "16040",
        "Location": "Taman Sri Pinang",
        "Post_Office": "Wakaf Bharu",
        "State": "Kelantan"
    },
    {
        "Postcode": "16040",
        "Location": "Kampung Kok Pasir",
        "Post_Office": "Wakaf Bharu",
        "State": "Kelantan"
    },
    {
        "Postcode": "16040",
        "Location": "Jalan Hulu Pasar",
        "Post_Office": "Wakaf Bharu",
        "State": "Kelantan"
    },
    {
        "Postcode": "16040",
        "Location": "Kampung Chat",
        "Post_Office": "Wakaf Bharu",
        "State": "Kelantan"
    },
    {
        "Postcode": "16040",
        "Location": "Kampung Gerong",
        "Post_Office": "Wakaf Bharu",
        "State": "Kelantan"
    },
    {
        "Postcode": "16040",
        "Location": "Kampung Masjid",
        "Post_Office": "Wakaf Bharu",
        "State": "Kelantan"
    },
    {
        "Postcode": "16040",
        "Location": "Kampung Pulau Gorek",
        "Post_Office": "Wakaf Bharu",
        "State": "Kelantan"
    },
    {
        "Postcode": "16040",
        "Location": "Kampung Pulau Raja",
        "Post_Office": "Wakaf Bharu",
        "State": "Kelantan"
    },
    {
        "Postcode": "16040",
        "Location": "Kampung Selehor",
        "Post_Office": "Wakaf Bharu",
        "State": "Kelantan"
    },
    {
        "Postcode": "16040",
        "Location": "Kampung Surau",
        "Post_Office": "Wakaf Bharu",
        "State": "Kelantan"
    },
    {
        "Postcode": "16040",
        "Location": "Kampung Wakaf King",
        "Post_Office": "Wakaf Bharu",
        "State": "Kelantan"
    },
    {
        "Postcode": "16040",
        "Location": "Taman Sentosa",
        "Post_Office": "Wakaf Bharu",
        "State": "Kelantan"
    }
]
