[
    {
        "Postcode": "16050",
        "Location": "Beris Kubor Besar",
        "Post_Office": "Bachok",
        "State": "Kelantan"
    },
    {
        "Postcode": "16050",
        "Location": "Jalan Bachok",
        "Post_Office": "Bachok",
        "State": "Kelantan"
    },
    {
        "Postcode": "16050",
        "Location": "Jalan Belakang Klinik",
        "Post_Office": "Bachok",
        "State": "Kelantan"
    },
    {
        "Postcode": "16050",
        "Location": "Jalan Depan Masjid",
        "Post_Office": "Bachok",
        "State": "Kelantan"
    },
    {
        "Postcode": "16050",
        "Location": "Jalan Depan Ptk",
        "Post_Office": "Bachok",
        "State": "Kelantan"
    },
    {
        "Postcode": "16050",
        "Location": "Jalan Klinik Beris Kubur Besar",
        "Post_Office": "Bachok",
        "State": "Kelantan"
    },
    {
        "Postcode": "16050",
        "Location": "Jalan Pak Pura",
        "Post_Office": "Bachok",
        "State": "Kelantan"
    },
    {
        "Postcode": "16050",
        "Location": "Kampung Baru Padang Bual",
        "Post_Office": "Bachok",
        "State": "Kelantan"
    },
    {
        "Postcode": "16050",
        "Location": "Kampung Belukar (Jelawat)",
        "Post_Office": "Bachok",
        "State": "Kelantan"
    },
    {
        "Postcode": "16050",
        "Location": "Kampung Beris Pondok",
        "Post_Office": "Bachok",
        "State": "Kelantan"
    },
    {
        "Postcode": "16050",
        "Location": "Kampung Beris Tengah",
        "Post_Office": "Bachok",
        "State": "Kelantan"
    },
    {
        "Postcode": "16050",
        "Location": "Kampung Burung Hantu",
        "Post_Office": "Bachok",
        "State": "Kelantan"
    },
    {
        "Postcode": "16050",
        "Location": "Kampung Chengal",
        "Post_Office": "Bachok",
        "State": "Kelantan"
    },
    {
        "Postcode": "16050",
        "Location": "Kampung Darat",
        "Post_Office": "Bachok",
        "State": "Kelantan"
    },
    {
        "Postcode": "16050",
        "Location": "Kampung Gong Menuda",
        "Post_Office": "Bachok",
        "State": "Kelantan"
    },
    {
        "Postcode": "16050",
        "Location": "Kampung Gong Permatang",
        "Post_Office": "Bachok",
        "State": "Kelantan"
    },
    {
        "Postcode": "16050",
        "Location": "Kampung Haji Ali",
        "Post_Office": "Bachok",
        "State": "Kelantan"
    },
    {
        "Postcode": "16050",
        "Location": "Kampung Haji Wanik",
        "Post_Office": "Bachok",
        "State": "Kelantan"
    },
    {
        "Postcode": "16050",
        "Location": "Kampung Kedai Beris",
        "Post_Office": "Bachok",
        "State": "Kelantan"
    },
    {
        "Postcode": "16050",
        "Location": "Kampung Kelerek",
        "Post_Office": "Bachok",
        "State": "Kelantan"
    },
    {
        "Postcode": "16050",
        "Location": "Kampung Kubang Nibong",
        "Post_Office": "Bachok",
        "State": "Kelantan"
    },
    {
        "Postcode": "16050",
        "Location": "Kampung Kulim/Jalan Kampung Kulim",
        "Post_Office": "Bachok",
        "State": "Kelantan"
    },
    {
        "Postcode": "16050",
        "Location": "Kampung Lembah Tok Mona",
        "Post_Office": "Bachok",
        "State": "Kelantan"
    },
    {
        "Postcode": "16050",
        "Location": "Kampung Nyior Kembar",
        "Post_Office": "Bachok",
        "State": "Kelantan"
    },
    {
        "Postcode": "16050",
        "Location": "Kampung Padang Bual",
        "Post_Office": "Bachok",
        "State": "Kelantan"
    },
    {
        "Postcode": "16050",
        "Location": "Kampung Pak Pura",
        "Post_Office": "Bachok",
        "State": "Kelantan"
    },
    {
        "Postcode": "16050",
        "Location": "Kampung Pancor Pak Kari",
        "Post_Office": "Bachok",
        "State": "Kelantan"
    },
    {
        "Postcode": "16050",
        "Location": "Kampung Pauh Jabit",
        "Post_Office": "Bachok",
        "State": "Kelantan"
    },
    {
        "Postcode": "16050",
        "Location": "Kampung Pauh Sembilan",
        "Post_Office": "Bachok",
        "State": "Kelantan"
    },
    {
        "Postcode": "16050",
        "Location": "Kampung Paya Teratai",
        "Post_Office": "Bachok",
        "State": "Kelantan"
    },
    {
        "Postcode": "16050",
        "Location": "Kampung Penghulu Kob",
        "Post_Office": "Bachok",
        "State": "Kelantan"
    },
    {
        "Postcode": "16050",
        "Location": "Kampung Pengkalan Cina",
        "Post_Office": "Bachok",
        "State": "Kelantan"
    },
    {
        "Postcode": "16050",
        "Location": "Kampung Pengkalan Haji Ali",
        "Post_Office": "Bachok",
        "State": "Kelantan"
    },
    {
        "Postcode": "16050",
        "Location": "Kampung Pengkalan Kassim",
        "Post_Office": "Bachok",
        "State": "Kelantan"
    },
    {
        "Postcode": "16050",
        "Location": "Kampung Pengkalan Kob",
        "Post_Office": "Bachok",
        "State": "Kelantan"
    },
    {
        "Postcode": "16050",
        "Location": "Kampung Pengkalan Setor",
        "Post_Office": "Bachok",
        "State": "Kelantan"
    },
    {
        "Postcode": "16050",
        "Location": "Kampung Seri Sentosa/Berhala",
        "Post_Office": "Bachok",
        "State": "Kelantan"
    },
    {
        "Postcode": "16050",
        "Location": "Kampung Tanjung Jenera",
        "Post_Office": "Bachok",
        "State": "Kelantan"
    },
    {
        "Postcode": "16050",
        "Location": "Kampung Tanjung Jering",
        "Post_Office": "Bachok",
        "State": "Kelantan"
    },
    {
        "Postcode": "16050",
        "Location": "Kampung Tanjung Pauh",
        "Post_Office": "Bachok",
        "State": "Kelantan"
    },
    {
        "Postcode": "16050",
        "Location": "Kampung Tok Belian",
        "Post_Office": "Bachok",
        "State": "Kelantan"
    },
    {
        "Postcode": "16050",
        "Location": "Kampung Tok Lekong",
        "Post_Office": "Bachok",
        "State": "Kelantan"
    },
    {
        "Postcode": "16050",
        "Location": "Kampung Tok Likong",
        "Post_Office": "Bachok",
        "State": "Kelantan"
    },
    {
        "Postcode": "16050",
        "Location": "Kampung Tok Matang",
        "Post_Office": "Bachok",
        "State": "Kelantan"
    },
    {
        "Postcode": "16050",
        "Location": "Kampung Tok Roboh",
        "Post_Office": "Bachok",
        "State": "Kelantan"
    },
    {
        "Postcode": "16050",
        "Location": "Sekolah Kebangsaan Pak Pura",
        "Post_Office": "Bachok",
        "State": "Kelantan"
    },
    {
        "Postcode": "16050",
        "Location": "Sekolah Kebangsaan Tanjung Jenera",
        "Post_Office": "Bachok",
        "State": "Kelantan"
    },
    {
        "Postcode": "16050",
        "Location": "Sekolah Menengah Long Yunus",
        "Post_Office": "Bachok",
        "State": "Kelantan"
    },
    {
        "Postcode": "16050",
        "Location": "Simpang Tiga Pauh Butut",
        "Post_Office": "Bachok",
        "State": "Kelantan"
    },
    {
        "Postcode": "16050",
        "Location": "Taman Cetusan Rahmat",
        "Post_Office": "Bachok",
        "State": "Kelantan"
    },
    {
        "Postcode": "16050",
        "Location": "Taman Desa Pak Pura Beris Tengah",
        "Post_Office": "Bachok",
        "State": "Kelantan"
    },
    {
        "Postcode": "16050",
        "Location": "Taman Safiqah",
        "Post_Office": "Bachok",
        "State": "Kelantan"
    },
    {
        "Postcode": "16050",
        "Location": "Taman Sri Selasih",
        "Post_Office": "Bachok",
        "State": "Kelantan"
    },
    {
        "Postcode": "16050",
        "Location": "Kampung Keluat",
        "Post_Office": "Bachok",
        "State": "Kelantan"
    },
    {
        "Postcode": "16050",
        "Location": "Kampung Pengkalan Setol",
        "Post_Office": "Bachok",
        "State": "Kelantan"
    },
    {
        "Postcode": "16050",
        "Location": "Taman Desa Pura",
        "Post_Office": "Bachok",
        "State": "Kelantan"
    },
    {
        "Postcode": "16050",
        "Location": "Taman Mawar",
        "Post_Office": "Bachok",
        "State": "Kelantan"
    },
    {
        "Postcode": "16050",
        "Location": "Taman Kulim Indah 1",
        "Post_Office": "Bachok",
        "State": "Kelantan"
    },
    {
        "Postcode": "16050",
        "Location": "Taman Kulim Indah 2",
        "Post_Office": "Bachok",
        "State": "Kelantan"
    },
    {
        "Postcode": "16050",
        "Location": "Kampung Alor Jambu",
        "Post_Office": "Bachok",
        "State": "Kelantan"
    },
    {
        "Postcode": "16050",
        "Location": "Kampung Berhala",
        "Post_Office": "Bachok",
        "State": "Kelantan"
    },
    {
        "Postcode": "16050",
        "Location": "Kampung Kulim",
        "Post_Office": "Bachok",
        "State": "Kelantan"
    },
    {
        "Postcode": "16050",
        "Location": "Kampung Lembah",
        "Post_Office": "Bachok",
        "State": "Kelantan"
    }
]
