[
    {
        "Postcode": "16070",
        "Location": "Belakang Pasar Lama Jelawat",
        "Post_Office": "Bachok",
        "State": "Kelantan"
    },
    {
        "Postcode": "16070",
        "Location": "Chabang Tiga Bator",
        "Post_Office": "Bachok",
        "State": "Kelantan"
    },
    {
        "Postcode": "16070",
        "Location": "Jalan Aril",
        "Post_Office": "Bachok",
        "State": "Kelantan"
    },
    {
        "Postcode": "16070",
        "Location": "Jalan Bekelam",
        "Post_Office": "Bachok",
        "State": "Kelantan"
    },
    {
        "Postcode": "16070",
        "Location": "Jalan Belakang Balai Polis Gunung",
        "Post_Office": "Bachok",
        "State": "Kelantan"
    },
    {
        "Postcode": "16070",
        "Location": "Jalan Besar Jelawat",
        "Post_Office": "Bachok",
        "State": "Kelantan"
    },
    {
        "Postcode": "16070",
        "Location": "Jalan Kampung Seneng",
        "Post_Office": "Bachok",
        "State": "Kelantan"
    },
    {
        "Postcode": "16070",
        "Location": "Jalan Kubur",
        "Post_Office": "Bachok",
        "State": "Kelantan"
    },
    {
        "Postcode": "16070",
        "Location": "Jalan Masjid Chap",
        "Post_Office": "Bachok",
        "State": "Kelantan"
    },
    {
        "Postcode": "16070",
        "Location": "Jelawat",
        "Post_Office": "Bachok",
        "State": "Kelantan"
    },
    {
        "Postcode": "16070",
        "Location": "Kampung Air Terjun Pinang",
        "Post_Office": "Bachok",
        "State": "Kelantan"
    },
    {
        "Postcode": "16070",
        "Location": "Kampung Alor Ganu",
        "Post_Office": "Bachok",
        "State": "Kelantan"
    },
    {
        "Postcode": "16070",
        "Location": "Kampung Alor Pulai",
        "Post_Office": "Bachok",
        "State": "Kelantan"
    },
    {
        "Postcode": "16070",
        "Location": "Kampung Alor Tok Majam",
        "Post_Office": "Bachok",
        "State": "Kelantan"
    },
    {
        "Postcode": "16070",
        "Location": "Kampung Atas Pasir",
        "Post_Office": "Bachok",
        "State": "Kelantan"
    },
    {
        "Postcode": "16070",
        "Location": "Kampung Baru Beris Lalang",
        "Post_Office": "Bachok",
        "State": "Kelantan"
    },
    {
        "Postcode": "16070",
        "Location": "Kampung Bator",
        "Post_Office": "Bachok",
        "State": "Kelantan"
    },
    {
        "Postcode": "16070",
        "Location": "Kampung Bekelam",
        "Post_Office": "Bachok",
        "State": "Kelantan"
    },
    {
        "Postcode": "16070",
        "Location": "Kampung Bukit Bator",
        "Post_Office": "Bachok",
        "State": "Kelantan"
    },
    {
        "Postcode": "16070",
        "Location": "Kampung Chap Bekelam",
        "Post_Office": "Bachok",
        "State": "Kelantan"
    },
    {
        "Postcode": "16070",
        "Location": "Kampung Cherang Hangus Hulu",
        "Post_Office": "Bachok",
        "State": "Kelantan"
    },
    {
        "Postcode": "16070",
        "Location": "Kampung Cina Bekelem",
        "Post_Office": "Bachok",
        "State": "Kelantan"
    },
    {
        "Postcode": "16070",
        "Location": "Kampung Dangar Tinggi",
        "Post_Office": "Bachok",
        "State": "Kelantan"
    },
    {
        "Postcode": "16070",
        "Location": "Kampung Gelong Badak",
        "Post_Office": "Bachok",
        "State": "Kelantan"
    },
    {
        "Postcode": "16070",
        "Location": "Kampung Gelong Badak Hulu",
        "Post_Office": "Bachok",
        "State": "Kelantan"
    },
    {
        "Postcode": "16070",
        "Location": "Kampung Gong Katong",
        "Post_Office": "Bachok",
        "State": "Kelantan"
    },
    {
        "Postcode": "16070",
        "Location": "Kampung Gong Nasi",
        "Post_Office": "Bachok",
        "State": "Kelantan"
    },
    {
        "Postcode": "16070",
        "Location": "Kampung Gong Nibong Hilir",
        "Post_Office": "Bachok",
        "State": "Kelantan"
    },
    {
        "Postcode": "16070",
        "Location": "Kampung Gong Nibong Hulu",
        "Post_Office": "Bachok",
        "State": "Kelantan"
    },
    {
        "Postcode": "16070",
        "Location": "Kampung Hujong Lidah",
        "Post_Office": "Bachok",
        "State": "Kelantan"
    },
    {
        "Postcode": "16070",
        "Location": "Kampung Julok",
        "Post_Office": "Bachok",
        "State": "Kelantan"
    },
    {
        "Postcode": "16070",
        "Location": "Kampung Kuala Bator",
        "Post_Office": "Bachok",
        "State": "Kelantan"
    },
    {
        "Postcode": "16070",
        "Location": "Kampung Kubang Keladi",
        "Post_Office": "Bachok",
        "State": "Kelantan"
    },
    {
        "Postcode": "16070",
        "Location": "Kampung Kuchelong",
        "Post_Office": "Bachok",
        "State": "Kelantan"
    },
    {
        "Postcode": "16070",
        "Location": "Kampung Kuin Pasir",
        "Post_Office": "Bachok",
        "State": "Kelantan"
    },
    {
        "Postcode": "16070",
        "Location": "Kampung Loak",
        "Post_Office": "Bachok",
        "State": "Kelantan"
    },
    {
        "Postcode": "16070",
        "Location": "Kampung Memer",
        "Post_Office": "Bachok",
        "State": "Kelantan"
    },
    {
        "Postcode": "16070",
        "Location": "Kampung Mujor",
        "Post_Office": "Bachok",
        "State": "Kelantan"
    },
    {
        "Postcode": "16070",
        "Location": "Kampung Nangka",
        "Post_Office": "Bachok",
        "State": "Kelantan"
    },
    {
        "Postcode": "16070",
        "Location": "Kampung Neman",
        "Post_Office": "Bachok",
        "State": "Kelantan"
    },
    {
        "Postcode": "16070",
        "Location": "Kampung Padang Lati Atas Pasir",
        "Post_Office": "Bachok",
        "State": "Kelantan"
    },
    {
        "Postcode": "16070",
        "Location": "Kampung Padang Lati Hilir",
        "Post_Office": "Bachok",
        "State": "Kelantan"
    },
    {
        "Postcode": "16070",
        "Location": "Kampung Padang Lati Hulu",
        "Post_Office": "Bachok",
        "State": "Kelantan"
    },
    {
        "Postcode": "16070",
        "Location": "Kampung Padang Pak Amin",
        "Post_Office": "Bachok",
        "State": "Kelantan"
    },
    {
        "Postcode": "16070",
        "Location": "Kampung Pak Elong",
        "Post_Office": "Bachok",
        "State": "Kelantan"
    },
    {
        "Postcode": "16070",
        "Location": "Kampung Permatang Machang",
        "Post_Office": "Bachok",
        "State": "Kelantan"
    },
    {
        "Postcode": "16070",
        "Location": "Kampung Rekang",
        "Post_Office": "Bachok",
        "State": "Kelantan"
    },
    {
        "Postcode": "16070",
        "Location": "Kampung Rusa",
        "Post_Office": "Bachok",
        "State": "Kelantan"
    },
    {
        "Postcode": "16070",
        "Location": "Kampung Seneng",
        "Post_Office": "Bachok",
        "State": "Kelantan"
    },
    {
        "Postcode": "16070",
        "Location": "Kampung Surau Bator",
        "Post_Office": "Bachok",
        "State": "Kelantan"
    },
    {
        "Postcode": "16070",
        "Location": "Kampung Surau Lama",
        "Post_Office": "Bachok",
        "State": "Kelantan"
    },
    {
        "Postcode": "16070",
        "Location": "Kampung Tangok",
        "Post_Office": "Bachok",
        "State": "Kelantan"
    },
    {
        "Postcode": "16070",
        "Location": "Kampung Tanjung Hilir",
        "Post_Office": "Bachok",
        "State": "Kelantan"
    },
    {
        "Postcode": "16070",
        "Location": "Kampung Tempoyak (Jelawat)",
        "Post_Office": "Bachok",
        "State": "Kelantan"
    },
    {
        "Postcode": "16070",
        "Location": "Kampung Tempoyak Bator",
        "Post_Office": "Bachok",
        "State": "Kelantan"
    },
    {
        "Postcode": "16070",
        "Location": "Kampung Tempoyak Bekelam",
        "Post_Office": "Bachok",
        "State": "Kelantan"
    },
    {
        "Postcode": "16070",
        "Location": "Kampung Temu Ranggas",
        "Post_Office": "Bachok",
        "State": "Kelantan"
    },
    {
        "Postcode": "16070",
        "Location": "Kampung Tepus Jalan Gunung",
        "Post_Office": "Bachok",
        "State": "Kelantan"
    },
    {
        "Postcode": "16070",
        "Location": "Kampung Teratak Pulai Timur",
        "Post_Office": "Bachok",
        "State": "Kelantan"
    },
    {
        "Postcode": "16070",
        "Location": "Kampung Tiang Batang Kuin",
        "Post_Office": "Bachok",
        "State": "Kelantan"
    },
    {
        "Postcode": "16070",
        "Location": "Kampung Tok Chong",
        "Post_Office": "Bachok",
        "State": "Kelantan"
    },
    {
        "Postcode": "16070",
        "Location": "Kampung Tok Ewal",
        "Post_Office": "Bachok",
        "State": "Kelantan"
    },
    {
        "Postcode": "16070",
        "Location": "Kampung Tualang Salak",
        "Post_Office": "Bachok",
        "State": "Kelantan"
    },
    {
        "Postcode": "16070",
        "Location": "Kedai Gunung",
        "Post_Office": "Bachok",
        "State": "Kelantan"
    },
    {
        "Postcode": "16070",
        "Location": "Kedai Jelawat",
        "Post_Office": "Bachok",
        "State": "Kelantan"
    },
    {
        "Postcode": "16070",
        "Location": "Kedai Pauh Lima",
        "Post_Office": "Bachok",
        "State": "Kelantan"
    },
    {
        "Postcode": "16070",
        "Location": "Lorong Durian Kudong",
        "Post_Office": "Bachok",
        "State": "Kelantan"
    },
    {
        "Postcode": "16070",
        "Location": "Lorong Haji Idris",
        "Post_Office": "Bachok",
        "State": "Kelantan"
    },
    {
        "Postcode": "16070",
        "Location": "Lorong Surau Bator",
        "Post_Office": "Bachok",
        "State": "Kelantan"
    },
    {
        "Postcode": "16070",
        "Location": "Sekolah Kebangsaan Gunung",
        "Post_Office": "Bachok",
        "State": "Kelantan"
    },
    {
        "Postcode": "16070",
        "Location": "Sekolah Kebangsaan Jelawat",
        "Post_Office": "Bachok",
        "State": "Kelantan"
    },
    {
        "Postcode": "16070",
        "Location": "Sekolah Kebangsaan Kuchelong",
        "Post_Office": "Bachok",
        "State": "Kelantan"
    },
    {
        "Postcode": "16070",
        "Location": "Sekolah Kebangsaan Pauh Lima",
        "Post_Office": "Bachok",
        "State": "Kelantan"
    },
    {
        "Postcode": "16070",
        "Location": "Sekolah Menegah Arab Chap",
        "Post_Office": "Bachok",
        "State": "Kelantan"
    },
    {
        "Postcode": "16070",
        "Location": "Sekolah Menengah Gunung",
        "Post_Office": "Bachok",
        "State": "Kelantan"
    },
    {
        "Postcode": "16070",
        "Location": "Sekolah Menengah Jelawat",
        "Post_Office": "Bachok",
        "State": "Kelantan"
    },
    {
        "Postcode": "16070",
        "Location": "Simpang Tiga Haji Saupi",
        "Post_Office": "Bachok",
        "State": "Kelantan"
    },
    {
        "Postcode": "16070",
        "Location": "Taman Hamidah",
        "Post_Office": "Bachok",
        "State": "Kelantan"
    },
    {
        "Postcode": "16070",
        "Location": "Taman Kartini",
        "Post_Office": "Bachok",
        "State": "Kelantan"
    },
    {
        "Postcode": "16070",
        "Location": "Taman Pekan Pauh Lima",
        "Post_Office": "Bachok",
        "State": "Kelantan"
    },
    {
        "Postcode": "16070",
        "Location": "Taman Sri Fidya",
        "Post_Office": "Bachok",
        "State": "Kelantan"
    },
    {
        "Postcode": "16070",
        "Location": "Kampung Banggol Pauh",
        "Post_Office": "Bachok",
        "State": "Kelantan"
    },
    {
        "Postcode": "16070",
        "Location": "Kampung Chap",
        "Post_Office": "Bachok",
        "State": "Kelantan"
    },
    {
        "Postcode": "16070",
        "Location": "Kampung Cherang Hangus",
        "Post_Office": "Bachok",
        "State": "Kelantan"
    },
    {
        "Postcode": "16070",
        "Location": "Kampung Gong Chengal",
        "Post_Office": "Bachok",
        "State": "Kelantan"
    },
    {
        "Postcode": "16070",
        "Location": "Kampung Gong Kubor",
        "Post_Office": "Bachok",
        "State": "Kelantan"
    },
    {
        "Postcode": "16070",
        "Location": "Taman Sri Bayu",
        "Post_Office": "Bachok",
        "State": "Kelantan"
    },
    {
        "Postcode": "16070",
        "Location": "Chabang Tiga Bator Dalam",
        "Post_Office": "Bachok",
        "State": "Kelantan"
    },
    {
        "Postcode": "16070",
        "Location": "Bukit Chanda",
        "Post_Office": "Bachok",
        "State": "Kelantan"
    },
    {
        "Postcode": "16070",
        "Location": "Jalan Bukit Bator",
        "Post_Office": "Bachok",
        "State": "Kelantan"
    },
    {
        "Postcode": "16070",
        "Location": "Lorong Kada",
        "Post_Office": "Bachok",
        "State": "Kelantan"
    },
    {
        "Postcode": "16070",
        "Location": "Lorong Tabib",
        "Post_Office": "Bachok",
        "State": "Kelantan"
    },
    {
        "Postcode": "16070",
        "Location": "Taman Sri Mutiara 1",
        "Post_Office": "Bachok",
        "State": "Kelantan"
    },
    {
        "Postcode": "16070",
        "Location": "Taman Sri Mutiara 2",
        "Post_Office": "Bachok",
        "State": "Kelantan"
    },
    {
        "Postcode": "16070",
        "Location": "Taman Sri Mutiara 3",
        "Post_Office": "Bachok",
        "State": "Kelantan"
    },
    {
        "Postcode": "16070",
        "Location": "Jalan Belakang Masjid",
        "Post_Office": "Bachok",
        "State": "Kelantan"
    },
    {
        "Postcode": "16070",
        "Location": "Kampung Belukar",
        "Post_Office": "Bachok",
        "State": "Kelantan"
    },
    {
        "Postcode": "16070",
        "Location": "Kampung Binjai Baru",
        "Post_Office": "Bachok",
        "State": "Kelantan"
    },
    {
        "Postcode": "16070",
        "Location": "Kampung Cherang",
        "Post_Office": "Bachok",
        "State": "Kelantan"
    },
    {
        "Postcode": "16070",
        "Location": "Kampung Dusun Durian",
        "Post_Office": "Bachok",
        "State": "Kelantan"
    },
    {
        "Postcode": "16070",
        "Location": "Kampung Kemudu Bongkok",
        "Post_Office": "Bachok",
        "State": "Kelantan"
    },
    {
        "Postcode": "16070",
        "Location": "Kampung Surau",
        "Post_Office": "Bachok",
        "State": "Kelantan"
    },
    {
        "Postcode": "16070",
        "Location": "Lorong Klinik",
        "Post_Office": "Bachok",
        "State": "Kelantan"
    },
    {
        "Postcode": "16070",
        "Location": "Taman Puteri Saadong",
        "Post_Office": "Bachok",
        "State": "Kelantan"
    }
]
