[
    {
        "Postcode": "16080",
        "Location": "Balai Bomba",
        "Post_Office": "Tumpat",
        "State": "Kelantan"
    },
    {
        "Postcode": "16080",
        "Location": "Balai Polis Pengkalan Kubur",
        "Post_Office": "Tumpat",
        "State": "Kelantan"
    },
    {
        "Postcode": "16080",
        "Location": "Belakang Klinik Tujuh",
        "Post_Office": "Tumpat",
        "State": "Kelantan"
    },
    {
        "Postcode": "16080",
        "Location": "Belakang Masjid Geting",
        "Post_Office": "Tumpat",
        "State": "Kelantan"
    },
    {
        "Postcode": "16080",
        "Location": "Belakang Sekolah Kebangsaan/Sekolah Menengah Geting",
        "Post_Office": "Tumpat",
        "State": "Kelantan"
    },
    {
        "Postcode": "16080",
        "Location": "Chabang Tiga Geting",
        "Post_Office": "Tumpat",
        "State": "Kelantan"
    },
    {
        "Postcode": "16080",
        "Location": "Chabang Tiga Neting Jalan Baru",
        "Post_Office": "Tumpat",
        "State": "Kelantan"
    },
    {
        "Postcode": "16080",
        "Location": "Jabatan Laut",
        "Post_Office": "Tumpat",
        "State": "Kelantan"
    },
    {
        "Postcode": "16080",
        "Location": "Jalan Baru Kampung Tebing",
        "Post_Office": "Tumpat",
        "State": "Kelantan"
    },
    {
        "Postcode": "16080",
        "Location": "Jalan Belakang Smu",
        "Post_Office": "Tumpat",
        "State": "Kelantan"
    },
    {
        "Postcode": "16080",
        "Location": "Jalan Belakang Upp",
        "Post_Office": "Tumpat",
        "State": "Kelantan"
    },
    {
        "Postcode": "16080",
        "Location": "Jalan Blk Balai Polis",
        "Post_Office": "Tumpat",
        "State": "Kelantan"
    },
    {
        "Postcode": "16080",
        "Location": "Kampung Banjir",
        "Post_Office": "Tumpat",
        "State": "Kelantan"
    },
    {
        "Postcode": "16080",
        "Location": "Kampung Baru Kok Pauh",
        "Post_Office": "Tumpat",
        "State": "Kelantan"
    },
    {
        "Postcode": "16080",
        "Location": "Kampung Belukar Geting",
        "Post_Office": "Tumpat",
        "State": "Kelantan"
    },
    {
        "Postcode": "16080",
        "Location": "Kampung Belukar Neting",
        "Post_Office": "Tumpat",
        "State": "Kelantan"
    },
    {
        "Postcode": "16080",
        "Location": "Kampung Geting",
        "Post_Office": "Tumpat",
        "State": "Kelantan"
    },
    {
        "Postcode": "16080",
        "Location": "Kampung Gong Kerengga",
        "Post_Office": "Tumpat",
        "State": "Kelantan"
    },
    {
        "Postcode": "16080",
        "Location": "Kampung Kebun",
        "Post_Office": "Tumpat",
        "State": "Kelantan"
    },
    {
        "Postcode": "16080",
        "Location": "Kampung Kedai Geting",
        "Post_Office": "Tumpat",
        "State": "Kelantan"
    },
    {
        "Postcode": "16080",
        "Location": "Kampung Ketil",
        "Post_Office": "Tumpat",
        "State": "Kelantan"
    },
    {
        "Postcode": "16080",
        "Location": "Kampung Kual Baru",
        "Post_Office": "Tumpat",
        "State": "Kelantan"
    },
    {
        "Postcode": "16080",
        "Location": "Kampung Kual Lama",
        "Post_Office": "Tumpat",
        "State": "Kelantan"
    },
    {
        "Postcode": "16080",
        "Location": "Kampung Kuala Tabal",
        "Post_Office": "Tumpat",
        "State": "Kelantan"
    },
    {
        "Postcode": "16080",
        "Location": "Kampung Mentua",
        "Post_Office": "Tumpat",
        "State": "Kelantan"
    },
    {
        "Postcode": "16080",
        "Location": "Kampung Mertual",
        "Post_Office": "Tumpat",
        "State": "Kelantan"
    },
    {
        "Postcode": "16080",
        "Location": "Kampung Neting",
        "Post_Office": "Tumpat",
        "State": "Kelantan"
    },
    {
        "Postcode": "16080",
        "Location": "Kampung Pak Kerau",
        "Post_Office": "Tumpat",
        "State": "Kelantan"
    },
    {
        "Postcode": "16080",
        "Location": "Kampung Pauh Sebanjar",
        "Post_Office": "Tumpat",
        "State": "Kelantan"
    },
    {
        "Postcode": "16080",
        "Location": "Kampung Pengkalan Kubur",
        "Post_Office": "Tumpat",
        "State": "Kelantan"
    },
    {
        "Postcode": "16080",
        "Location": "Kampung Serkong",
        "Post_Office": "Tumpat",
        "State": "Kelantan"
    },
    {
        "Postcode": "16080",
        "Location": "Kampung Surau Geting",
        "Post_Office": "Tumpat",
        "State": "Kelantan"
    },
    {
        "Postcode": "16080",
        "Location": "Kampung Tanjong (Pengkalan Kubor)",
        "Post_Office": "Tumpat",
        "State": "Kelantan"
    },
    {
        "Postcode": "16080",
        "Location": "Kampung Tebing",
        "Post_Office": "Tumpat",
        "State": "Kelantan"
    },
    {
        "Postcode": "16080",
        "Location": "Kampung Telaga Lanas",
        "Post_Office": "Tumpat",
        "State": "Kelantan"
    },
    {
        "Postcode": "16080",
        "Location": "Kampung Tujuh (Pantai)",
        "Post_Office": "Tumpat",
        "State": "Kelantan"
    },
    {
        "Postcode": "16080",
        "Location": "Kampung Tujuh Masjid",
        "Post_Office": "Tumpat",
        "State": "Kelantan"
    },
    {
        "Postcode": "16080",
        "Location": "Kampung Tujuh Penggu",
        "Post_Office": "Tumpat",
        "State": "Kelantan"
    },
    {
        "Postcode": "16080",
        "Location": "Kampung Wakaf Sungai Gali",
        "Post_Office": "Tumpat",
        "State": "Kelantan"
    },
    {
        "Postcode": "16080",
        "Location": "Kastam Pencegah",
        "Post_Office": "Tumpat",
        "State": "Kelantan"
    },
    {
        "Postcode": "16080",
        "Location": "Kawasan Bebas Chukai",
        "Post_Office": "Tumpat",
        "State": "Kelantan"
    },
    {
        "Postcode": "16080",
        "Location": "Klinik Desa Geting",
        "Post_Office": "Tumpat",
        "State": "Kelantan"
    },
    {
        "Postcode": "16080",
        "Location": "Lembaga Kemajuan Ikan Malaysia Geting",
        "Post_Office": "Tumpat",
        "State": "Kelantan"
    },
    {
        "Postcode": "16080",
        "Location": "Lembaga Kemajuan Ikan Malaysia Pengkalan Kubor",
        "Post_Office": "Tumpat",
        "State": "Kelantan"
    },
    {
        "Postcode": "16080",
        "Location": "Lkim  Geting",
        "Post_Office": "Tumpat",
        "State": "Kelantan"
    },
    {
        "Postcode": "16080",
        "Location": "Lkim Pengkalan Kubur",
        "Post_Office": "Tumpat",
        "State": "Kelantan"
    },
    {
        "Postcode": "16080",
        "Location": "Lorong Tok Imam",
        "Post_Office": "Tumpat",
        "State": "Kelantan"
    },
    {
        "Postcode": "16080",
        "Location": "Pantai Geting",
        "Post_Office": "Tumpat",
        "State": "Kelantan"
    },
    {
        "Postcode": "16080",
        "Location": "Pejabat Dewan Undangan Negeri Pengkalan Kubor",
        "Post_Office": "Tumpat",
        "State": "Kelantan"
    },
    {
        "Postcode": "16080",
        "Location": "Pejabat Dun Pengkalan Kubur",
        "Post_Office": "Tumpat",
        "State": "Kelantan"
    },
    {
        "Postcode": "16080",
        "Location": "Pejabat Feri Jabatan Kerja Raya",
        "Post_Office": "Tumpat",
        "State": "Kelantan"
    },
    {
        "Postcode": "16080",
        "Location": "Pejabat Feri Jkr",
        "Post_Office": "Tumpat",
        "State": "Kelantan"
    },
    {
        "Postcode": "16080",
        "Location": "Pejabat Haiwan",
        "Post_Office": "Tumpat",
        "State": "Kelantan"
    },
    {
        "Postcode": "16080",
        "Location": "Pejabat Imigresen",
        "Post_Office": "Tumpat",
        "State": "Kelantan"
    },
    {
        "Postcode": "16080",
        "Location": "Pejabat Jpj",
        "Post_Office": "Tumpat",
        "State": "Kelantan"
    },
    {
        "Postcode": "16080",
        "Location": "Pejabat Kastam",
        "Post_Office": "Tumpat",
        "State": "Kelantan"
    },
    {
        "Postcode": "16080",
        "Location": "Pejabat Kesihatan",
        "Post_Office": "Tumpat",
        "State": "Kelantan"
    },
    {
        "Postcode": "16080",
        "Location": "Pejabat Penggawa",
        "Post_Office": "Tumpat",
        "State": "Kelantan"
    },
    {
        "Postcode": "16080",
        "Location": "Pejabat Pertanian",
        "Post_Office": "Tumpat",
        "State": "Kelantan"
    },
    {
        "Postcode": "16080",
        "Location": "Pejabat Tco",
        "Post_Office": "Tumpat",
        "State": "Kelantan"
    },
    {
        "Postcode": "16080",
        "Location": "Pejabat Upp",
        "Post_Office": "Tumpat",
        "State": "Kelantan"
    },
    {
        "Postcode": "16080",
        "Location": "Pejabat Urin",
        "Post_Office": "Tumpat",
        "State": "Kelantan"
    },
    {
        "Postcode": "16080",
        "Location": "Perumahan Getting",
        "Post_Office": "Tumpat",
        "State": "Kelantan"
    },
    {
        "Postcode": "16080",
        "Location": "Perumahan Kastam",
        "Post_Office": "Tumpat",
        "State": "Kelantan"
    },
    {
        "Postcode": "16080",
        "Location": "Perumahan Kerajaan",
        "Post_Office": "Tumpat",
        "State": "Kelantan"
    },
    {
        "Postcode": "16080",
        "Location": "Petronas",
        "Post_Office": "Tumpat",
        "State": "Kelantan"
    },
    {
        "Postcode": "16080",
        "Location": "Polis Marin",
        "Post_Office": "Tumpat",
        "State": "Kelantan"
    },
    {
        "Postcode": "16080",
        "Location": "Pondok Haji Abdullah",
        "Post_Office": "Tumpat",
        "State": "Kelantan"
    },
    {
        "Postcode": "16080",
        "Location": "Pondok Haji Ahmad",
        "Post_Office": "Tumpat",
        "State": "Kelantan"
    },
    {
        "Postcode": "16080",
        "Location": "Pondok Haji Daud",
        "Post_Office": "Tumpat",
        "State": "Kelantan"
    },
    {
        "Postcode": "16080",
        "Location": "Pondok Haji Hussien",
        "Post_Office": "Tumpat",
        "State": "Kelantan"
    },
    {
        "Postcode": "16080",
        "Location": "Pusat Giat Mara",
        "Post_Office": "Tumpat",
        "State": "Kelantan"
    },
    {
        "Postcode": "16080",
        "Location": "Pusat Kesihatan Pengkalan Kubur",
        "Post_Office": "Tumpat",
        "State": "Kelantan"
    },
    {
        "Postcode": "16080",
        "Location": "Sekolah Kebangsaan Geting",
        "Post_Office": "Tumpat",
        "State": "Kelantan"
    },
    {
        "Postcode": "16080",
        "Location": "Sekolah Kebangsaan Pengkalan Kubur",
        "Post_Office": "Tumpat",
        "State": "Kelantan"
    },
    {
        "Postcode": "16080",
        "Location": "Sekolah Kebangsaan Sri Neting",
        "Post_Office": "Tumpat",
        "State": "Kelantan"
    },
    {
        "Postcode": "16080",
        "Location": "Sekolah Menengah Geting",
        "Post_Office": "Tumpat",
        "State": "Kelantan"
    },
    {
        "Postcode": "16080",
        "Location": "Smu Getting (Mehelah)",
        "Post_Office": "Tumpat",
        "State": "Kelantan"
    },
    {
        "Postcode": "16080",
        "Location": "Taman Anggerik",
        "Post_Office": "Tumpat",
        "State": "Kelantan"
    },
    {
        "Postcode": "16080",
        "Location": "Taman Sri Ketul",
        "Post_Office": "Tumpat",
        "State": "Kelantan"
    },
    {
        "Postcode": "16080",
        "Location": "Taman Sri Neting",
        "Post_Office": "Tumpat",
        "State": "Kelantan"
    },
    {
        "Postcode": "16080",
        "Location": "Taman Sri Neting 2",
        "Post_Office": "Tumpat",
        "State": "Kelantan"
    },
    {
        "Postcode": "16080",
        "Location": "Taman Sri Pengkalan",
        "Post_Office": "Tumpat",
        "State": "Kelantan"
    },
    {
        "Postcode": "16080",
        "Location": "Telaga Lanas",
        "Post_Office": "Tumpat",
        "State": "Kelantan"
    },
    {
        "Postcode": "16080",
        "Location": "Kampung Gabus",
        "Post_Office": "Tumpat",
        "State": "Kelantan"
    },
    {
        "Postcode": "16080",
        "Location": "Kampung Lembah",
        "Post_Office": "Tumpat",
        "State": "Kelantan"
    },
    {
        "Postcode": "16080",
        "Location": "Kampung Raja",
        "Post_Office": "Tumpat",
        "State": "Kelantan"
    },
    {
        "Postcode": "16080",
        "Location": "Kampung Tanjong",
        "Post_Office": "Tumpat",
        "State": "Kelantan"
    }
]
