[
    {
        "Postcode": "16090",
        "Location": "Balai Penggawa Beris Kubur Besar",
        "Post_Office": "Bachok",
        "State": "Kelantan"
    },
    {
        "Postcode": "16090",
        "Location": "Gunung",
        "Post_Office": "Bachok",
        "State": "Kelantan"
    },
    {
        "Postcode": "16090",
        "Location": "Jalan Besar Pauh Lima",
        "Post_Office": "Bachok",
        "State": "Kelantan"
    },
    {
        "Postcode": "16090",
        "Location": "Jalan Haji Ismail, Kampung Padang Salim",
        "Post_Office": "Bachok",
        "State": "Kelantan"
    },
    {
        "Postcode": "16090",
        "Location": "Jalan Hilir Padang Salim",
        "Post_Office": "Bachok",
        "State": "Kelantan"
    },
    {
        "Postcode": "16090",
        "Location": "Jalan Permatang Pasir",
        "Post_Office": "Bachok",
        "State": "Kelantan"
    },
    {
        "Postcode": "16090",
        "Location": "Kampung Alor Pauh",
        "Post_Office": "Bachok",
        "State": "Kelantan"
    },
    {
        "Postcode": "16090",
        "Location": "Kampung Aril",
        "Post_Office": "Bachok",
        "State": "Kelantan"
    },
    {
        "Postcode": "16090",
        "Location": "Kampung Banar",
        "Post_Office": "Bachok",
        "State": "Kelantan"
    },
    {
        "Postcode": "16090",
        "Location": "Kampung Banggol Badak Mati",
        "Post_Office": "Bachok",
        "State": "Kelantan"
    },
    {
        "Postcode": "16090",
        "Location": "Kampung Beoh",
        "Post_Office": "Bachok",
        "State": "Kelantan"
    },
    {
        "Postcode": "16090",
        "Location": "Kampung Bukit Chenda",
        "Post_Office": "Bachok",
        "State": "Kelantan"
    },
    {
        "Postcode": "16090",
        "Location": "Kampung Bukit Hanyut",
        "Post_Office": "Bachok",
        "State": "Kelantan"
    },
    {
        "Postcode": "16090",
        "Location": "Kampung Bukit Tamalong Hilir",
        "Post_Office": "Bachok",
        "State": "Kelantan"
    },
    {
        "Postcode": "16090",
        "Location": "Kampung Bukit Tamalong Hulu",
        "Post_Office": "Bachok",
        "State": "Kelantan"
    },
    {
        "Postcode": "16090",
        "Location": "Kampung Durian Kudong",
        "Post_Office": "Bachok",
        "State": "Kelantan"
    },
    {
        "Postcode": "16090",
        "Location": "Kampung Gong Banar",
        "Post_Office": "Bachok",
        "State": "Kelantan"
    },
    {
        "Postcode": "16090",
        "Location": "Kampung Gong Baru",
        "Post_Office": "Bachok",
        "State": "Kelantan"
    },
    {
        "Postcode": "16090",
        "Location": "Kampung Gong Buloh",
        "Post_Office": "Bachok",
        "State": "Kelantan"
    },
    {
        "Postcode": "16090",
        "Location": "Kampung Gong Kapas",
        "Post_Office": "Bachok",
        "State": "Kelantan"
    },
    {
        "Postcode": "16090",
        "Location": "Kampung Gong Machang",
        "Post_Office": "Bachok",
        "State": "Kelantan"
    },
    {
        "Postcode": "16090",
        "Location": "Kampung Gong Resam",
        "Post_Office": "Bachok",
        "State": "Kelantan"
    },
    {
        "Postcode": "16090",
        "Location": "Kampung Gong Tok Lijah",
        "Post_Office": "Bachok",
        "State": "Kelantan"
    },
    {
        "Postcode": "16090",
        "Location": "Kampung Gong Tunga",
        "Post_Office": "Bachok",
        "State": "Kelantan"
    },
    {
        "Postcode": "16090",
        "Location": "Kampung Gong Tunggal",
        "Post_Office": "Bachok",
        "State": "Kelantan"
    },
    {
        "Postcode": "16090",
        "Location": "Kampung Haji Musa",
        "Post_Office": "Bachok",
        "State": "Kelantan"
    },
    {
        "Postcode": "16090",
        "Location": "Kampung Haji Saman",
        "Post_Office": "Bachok",
        "State": "Kelantan"
    },
    {
        "Postcode": "16090",
        "Location": "Kampung Jelutong",
        "Post_Office": "Bachok",
        "State": "Kelantan"
    },
    {
        "Postcode": "16090",
        "Location": "Kampung Kedai Ahad",
        "Post_Office": "Bachok",
        "State": "Kelantan"
    },
    {
        "Postcode": "16090",
        "Location": "Kampung Keting",
        "Post_Office": "Bachok",
        "State": "Kelantan"
    },
    {
        "Postcode": "16090",
        "Location": "Kampung Kok Lentang",
        "Post_Office": "Bachok",
        "State": "Kelantan"
    },
    {
        "Postcode": "16090",
        "Location": "Kampung Kual Kecil/Besar",
        "Post_Office": "Bachok",
        "State": "Kelantan"
    },
    {
        "Postcode": "16090",
        "Location": "Kampung Kubang Berulat",
        "Post_Office": "Bachok",
        "State": "Kelantan"
    },
    {
        "Postcode": "16090",
        "Location": "Kampung Kubang Telaga",
        "Post_Office": "Bachok",
        "State": "Kelantan"
    },
    {
        "Postcode": "16090",
        "Location": "Kampung Lubok Tembesu",
        "Post_Office": "Bachok",
        "State": "Kelantan"
    },
    {
        "Postcode": "16090",
        "Location": "Kampung Muring",
        "Post_Office": "Bachok",
        "State": "Kelantan"
    },
    {
        "Postcode": "16090",
        "Location": "Kampung Padang Salim",
        "Post_Office": "Bachok",
        "State": "Kelantan"
    },
    {
        "Postcode": "16090",
        "Location": "Kampung Pak Bungsu",
        "Post_Office": "Bachok",
        "State": "Kelantan"
    },
    {
        "Postcode": "16090",
        "Location": "Kampung Pak Busu",
        "Post_Office": "Bachok",
        "State": "Kelantan"
    },
    {
        "Postcode": "16090",
        "Location": "Kampung Pak Mali",
        "Post_Office": "Bachok",
        "State": "Kelantan"
    },
    {
        "Postcode": "16090",
        "Location": "Kampung Panchor",
        "Post_Office": "Bachok",
        "State": "Kelantan"
    },
    {
        "Postcode": "16090",
        "Location": "Kampung Pasir Puteh Tepus",
        "Post_Office": "Bachok",
        "State": "Kelantan"
    },
    {
        "Postcode": "16090",
        "Location": "Kampung Pauh Putut",
        "Post_Office": "Bachok",
        "State": "Kelantan"
    },
    {
        "Postcode": "16090",
        "Location": "Kampung Permatang Pasir",
        "Post_Office": "Bachok",
        "State": "Kelantan"
    },
    {
        "Postcode": "16090",
        "Location": "Kampung Raja Padang  Salim",
        "Post_Office": "Bachok",
        "State": "Kelantan"
    },
    {
        "Postcode": "16090",
        "Location": "Kampung Redang",
        "Post_Office": "Bachok",
        "State": "Kelantan"
    },
    {
        "Postcode": "16090",
        "Location": "Kampung Sri Kemunting",
        "Post_Office": "Bachok",
        "State": "Kelantan"
    },
    {
        "Postcode": "16090",
        "Location": "Kampung Sungai Binjai",
        "Post_Office": "Bachok",
        "State": "Kelantan"
    },
    {
        "Postcode": "16090",
        "Location": "Kampung Telaga Ara",
        "Post_Office": "Bachok",
        "State": "Kelantan"
    },
    {
        "Postcode": "16090",
        "Location": "Kampung Tepus",
        "Post_Office": "Bachok",
        "State": "Kelantan"
    },
    {
        "Postcode": "16090",
        "Location": "Kampung Teratak Pulai",
        "Post_Office": "Bachok",
        "State": "Kelantan"
    },
    {
        "Postcode": "16090",
        "Location": "Kampung Teratak Pulai Barat",
        "Post_Office": "Bachok",
        "State": "Kelantan"
    },
    {
        "Postcode": "16090",
        "Location": "Kampung Tiong Batang Kuin",
        "Post_Office": "Bachok",
        "State": "Kelantan"
    },
    {
        "Postcode": "16090",
        "Location": "Kampung Tok Ludin",
        "Post_Office": "Bachok",
        "State": "Kelantan"
    },
    {
        "Postcode": "16090",
        "Location": "Kampung Tok Ngah",
        "Post_Office": "Bachok",
        "State": "Kelantan"
    },
    {
        "Postcode": "16090",
        "Location": "Lorong Pohon Tanjung",
        "Post_Office": "Bachok",
        "State": "Kelantan"
    },
    {
        "Postcode": "16090",
        "Location": "Pauh Lima",
        "Post_Office": "Bachok",
        "State": "Kelantan"
    },
    {
        "Postcode": "16090",
        "Location": "Taman Aril",
        "Post_Office": "Bachok",
        "State": "Kelantan"
    },
    {
        "Postcode": "16090",
        "Location": "Taman Putri Saadong",
        "Post_Office": "Bachok",
        "State": "Kelantan"
    },
    {
        "Postcode": "16090",
        "Location": "Kampung Bakong",
        "Post_Office": "Bachok",
        "State": "Kelantan"
    },
    {
        "Postcode": "16090",
        "Location": "Jalan Hilir ",
        "Post_Office": "Bachok",
        "State": "Kelantan"
    },
    {
        "Postcode": "16090",
        "Location": "Jalan Hulu",
        "Post_Office": "Bachok",
        "State": "Kelantan"
    },
    {
        "Postcode": "16090",
        "Location": "Kampung Lubok Kuin",
        "Post_Office": "Bachok",
        "State": "Kelantan"
    },
    {
        "Postcode": "16090",
        "Location": "Kampung Pauh Lima",
        "Post_Office": "Bachok",
        "State": "Kelantan"
    },
    {
        "Postcode": "16090",
        "Location": "Kampung Bukit Kechik",
        "Post_Office": "Bachok",
        "State": "Kelantan"
    },
    {
        "Postcode": "16090",
        "Location": "Kampung Sering",
        "Post_Office": "Bachok",
        "State": "Kelantan"
    }
]
