[
    {
        "Postcode": "16100",
        "Location": "Anak Sungai",
        "Post_Office": "Kota Bharu",
        "State": "Kelantan"
    },
    {
        "Postcode": "16100",
        "Location": "Beris Jambu",
        "Post_Office": "Kota Bharu",
        "State": "Kelantan"
    },
    {
        "Postcode": "16100",
        "Location": "Beris Lanjut",
        "Post_Office": "Kota Bharu",
        "State": "Kelantan"
    },
    {
        "Postcode": "16100",
        "Location": "Bomba",
        "Post_Office": "Kota Bharu",
        "State": "Kelantan"
    },
    {
        "Postcode": "16100",
        "Location": "Durian Aur",
        "Post_Office": "Kota Bharu",
        "State": "Kelantan"
    },
    {
        "Postcode": "16100",
        "Location": "Gong Tengah",
        "Post_Office": "Kota Bharu",
        "State": "Kelantan"
    },
    {
        "Postcode": "16100",
        "Location": "Jalan Padang Golf",
        "Post_Office": "Kota Bharu",
        "State": "Kelantan"
    },
    {
        "Postcode": "16100",
        "Location": "Jalan Pasir Puteh (Km 6 - 7)",
        "Post_Office": "Kota Bharu",
        "State": "Kelantan"
    },
    {
        "Postcode": "16100",
        "Location": "Kampung Alor Tok Haji",
        "Post_Office": "Kota Bharu",
        "State": "Kelantan"
    },
    {
        "Postcode": "16100",
        "Location": "Kampung Baung",
        "Post_Office": "Kota Bharu",
        "State": "Kelantan"
    },
    {
        "Postcode": "16100",
        "Location": "Kampung Beris Jambu",
        "Post_Office": "Kota Bharu",
        "State": "Kelantan"
    },
    {
        "Postcode": "16100",
        "Location": "Kampung Beris Jejawi",
        "Post_Office": "Kota Bharu",
        "State": "Kelantan"
    },
    {
        "Postcode": "16100",
        "Location": "Kampung Beris Kemumin",
        "Post_Office": "Kota Bharu",
        "State": "Kelantan"
    },
    {
        "Postcode": "16100",
        "Location": "Kampung Beris Lanjut",
        "Post_Office": "Kota Bharu",
        "State": "Kelantan"
    },
    {
        "Postcode": "16100",
        "Location": "Kampung Beting Lebar",
        "Post_Office": "Kota Bharu",
        "State": "Kelantan"
    },
    {
        "Postcode": "16100",
        "Location": "Kampung Chekok Panji",
        "Post_Office": "Kota Bharu",
        "State": "Kelantan"
    },
    {
        "Postcode": "16100",
        "Location": "Kampung Chempaka",
        "Post_Office": "Kota Bharu",
        "State": "Kelantan"
    },
    {
        "Postcode": "16100",
        "Location": "Kampung Chicha Baung",
        "Post_Office": "Kota Bharu",
        "State": "Kelantan"
    },
    {
        "Postcode": "16100",
        "Location": "Kampung Dusun Beluru",
        "Post_Office": "Kota Bharu",
        "State": "Kelantan"
    },
    {
        "Postcode": "16100",
        "Location": "Kampung Dusun Raja",
        "Post_Office": "Kota Bharu",
        "State": "Kelantan"
    },
    {
        "Postcode": "16100",
        "Location": "Kampung Gong Jerat",
        "Post_Office": "Kota Bharu",
        "State": "Kelantan"
    },
    {
        "Postcode": "16100",
        "Location": "Kampung Gong Parit",
        "Post_Office": "Kota Bharu",
        "State": "Kelantan"
    },
    {
        "Postcode": "16100",
        "Location": "Kampung Hujong Tanjung Limau Purut",
        "Post_Office": "Kota Bharu",
        "State": "Kelantan"
    },
    {
        "Postcode": "16100",
        "Location": "Kampung Jambu (Pengkalan Chepa)",
        "Post_Office": "Kota Bharu",
        "State": "Kelantan"
    },
    {
        "Postcode": "16100",
        "Location": "Kampung Kedeper",
        "Post_Office": "Kota Bharu",
        "State": "Kelantan"
    },
    {
        "Postcode": "16100",
        "Location": "Kampung Kemarok",
        "Post_Office": "Kota Bharu",
        "State": "Kelantan"
    },
    {
        "Postcode": "16100",
        "Location": "Kampung Kemumin",
        "Post_Office": "Kota Bharu",
        "State": "Kelantan"
    },
    {
        "Postcode": "16100",
        "Location": "Kampung Padang Chenak",
        "Post_Office": "Kota Bharu",
        "State": "Kelantan"
    },
    {
        "Postcode": "16100",
        "Location": "Kampung Padang Jamilah",
        "Post_Office": "Kota Bharu",
        "State": "Kelantan"
    },
    {
        "Postcode": "16100",
        "Location": "Kampung Padang Tal Limbat",
        "Post_Office": "Kota Bharu",
        "State": "Kelantan"
    },
    {
        "Postcode": "16100",
        "Location": "Kampung Pagar Jawa",
        "Post_Office": "Kota Bharu",
        "State": "Kelantan"
    },
    {
        "Postcode": "16100",
        "Location": "Kampung Pak Boh",
        "Post_Office": "Kota Bharu",
        "State": "Kelantan"
    },
    {
        "Postcode": "16100",
        "Location": "Kampung Pak Kemek",
        "Post_Office": "Kota Bharu",
        "State": "Kelantan"
    },
    {
        "Postcode": "16100",
        "Location": "Kampung Paroh Menerong",
        "Post_Office": "Kota Bharu",
        "State": "Kelantan"
    },
    {
        "Postcode": "16100",
        "Location": "Kampung Pulau Belacan",
        "Post_Office": "Kota Bharu",
        "State": "Kelantan"
    },
    {
        "Postcode": "16100",
        "Location": "Kampung Pulau Bual",
        "Post_Office": "Kota Bharu",
        "State": "Kelantan"
    },
    {
        "Postcode": "16100",
        "Location": "Kampung Pulau Tukang Dollah",
        "Post_Office": "Kota Bharu",
        "State": "Kelantan"
    },
    {
        "Postcode": "16100",
        "Location": "Kampung Rambutan Rendang",
        "Post_Office": "Kota Bharu",
        "State": "Kelantan"
    },
    {
        "Postcode": "16100",
        "Location": "Kampung Sedc",
        "Post_Office": "Kota Bharu",
        "State": "Kelantan"
    },
    {
        "Postcode": "16100",
        "Location": "Kampung Simpang Tiga",
        "Post_Office": "Kota Bharu",
        "State": "Kelantan"
    },
    {
        "Postcode": "16100",
        "Location": "Kampung Tasek Kemumin",
        "Post_Office": "Kota Bharu",
        "State": "Kelantan"
    },
    {
        "Postcode": "16100",
        "Location": "Kampung Tebing Tinggi",
        "Post_Office": "Kota Bharu",
        "State": "Kelantan"
    },
    {
        "Postcode": "16100",
        "Location": "Kampung Telok (Pengkalan Chepa)",
        "Post_Office": "Kota Bharu",
        "State": "Kelantan"
    },
    {
        "Postcode": "16100",
        "Location": "Kem 8 Brigade",
        "Post_Office": "Kota Bharu",
        "State": "Kelantan"
    },
    {
        "Postcode": "16100",
        "Location": "Kem Polis Hutan",
        "Post_Office": "Kota Bharu",
        "State": "Kelantan"
    },
    {
        "Postcode": "16100",
        "Location": "Lapangan Terbang",
        "Post_Office": "Kota Bharu",
        "State": "Kelantan"
    },
    {
        "Postcode": "16100",
        "Location": "Lorong Padang Penjara",
        "Post_Office": "Kota Bharu",
        "State": "Kelantan"
    },
    {
        "Postcode": "16100",
        "Location": "Lorong Pak Su Him",
        "Post_Office": "Kota Bharu",
        "State": "Kelantan"
    },
    {
        "Postcode": "16100",
        "Location": "Lorong Surau",
        "Post_Office": "Kota Bharu",
        "State": "Kelantan"
    },
    {
        "Postcode": "16100",
        "Location": "Panchor",
        "Post_Office": "Kota Bharu",
        "State": "Kelantan"
    },
    {
        "Postcode": "16100",
        "Location": "Panji",
        "Post_Office": "Kota Bharu",
        "State": "Kelantan"
    },
    {
        "Postcode": "16100",
        "Location": "Pantai Dasar",
        "Post_Office": "Kota Bharu",
        "State": "Kelantan"
    },
    {
        "Postcode": "16100",
        "Location": "Pengkalan Chepa",
        "Post_Office": "Kota Bharu",
        "State": "Kelantan"
    },
    {
        "Postcode": "16100",
        "Location": "Pengkalan Chepa (Batu 6)",
        "Post_Office": "Kota Bharu",
        "State": "Kelantan"
    },
    {
        "Postcode": "16100",
        "Location": "Pengkalan Cherang",
        "Post_Office": "Kota Bharu",
        "State": "Kelantan"
    },
    {
        "Postcode": "16100",
        "Location": "Pengkalan Nangka",
        "Post_Office": "Kota Bharu",
        "State": "Kelantan"
    },
    {
        "Postcode": "16100",
        "Location": "Perumahan Anjaria",
        "Post_Office": "Kota Bharu",
        "State": "Kelantan"
    },
    {
        "Postcode": "16100",
        "Location": "Perumahan Padang Tembak",
        "Post_Office": "Kota Bharu",
        "State": "Kelantan"
    },
    {
        "Postcode": "16100",
        "Location": "Perumahan Sedc",
        "Post_Office": "Kota Bharu",
        "State": "Kelantan"
    },
    {
        "Postcode": "16100",
        "Location": "Pohon Kandis",
        "Post_Office": "Kota Bharu",
        "State": "Kelantan"
    },
    {
        "Postcode": "16100",
        "Location": "Pulau Gajah",
        "Post_Office": "Kota Bharu",
        "State": "Kelantan"
    },
    {
        "Postcode": "16100",
        "Location": "Pulau Pak Amat",
        "Post_Office": "Kota Bharu",
        "State": "Kelantan"
    },
    {
        "Postcode": "16100",
        "Location": "Sabak",
        "Post_Office": "Kota Bharu",
        "State": "Kelantan"
    },
    {
        "Postcode": "16100",
        "Location": "Sungai Baru",
        "Post_Office": "Kota Bharu",
        "State": "Kelantan"
    },
    {
        "Postcode": "16100",
        "Location": "Taman Beluru",
        "Post_Office": "Kota Bharu",
        "State": "Kelantan"
    },
    {
        "Postcode": "16100",
        "Location": "Taman Bumi",
        "Post_Office": "Kota Bharu",
        "State": "Kelantan"
    },
    {
        "Postcode": "16100",
        "Location": "Taman Che Siti Wan Kembang",
        "Post_Office": "Kota Bharu",
        "State": "Kelantan"
    },
    {
        "Postcode": "16100",
        "Location": "Taman Guru Panji",
        "Post_Office": "Kota Bharu",
        "State": "Kelantan"
    },
    {
        "Postcode": "16100",
        "Location": "Taman Haji Mat",
        "Post_Office": "Kota Bharu",
        "State": "Kelantan"
    },
    {
        "Postcode": "16100",
        "Location": "Taman Indah (Kampung Landak)",
        "Post_Office": "Kota Bharu",
        "State": "Kelantan"
    },
    {
        "Postcode": "16100",
        "Location": "Taman Koop",
        "Post_Office": "Kota Bharu",
        "State": "Kelantan"
    },
    {
        "Postcode": "16100",
        "Location": "Taman Maktab",
        "Post_Office": "Kota Bharu",
        "State": "Kelantan"
    },
    {
        "Postcode": "16100",
        "Location": "Taman Masrol",
        "Post_Office": "Kota Bharu",
        "State": "Kelantan"
    },
    {
        "Postcode": "16100",
        "Location": "Taman Murni (Pengkalan Chepa)",
        "Post_Office": "Kota Bharu",
        "State": "Kelantan"
    },
    {
        "Postcode": "16100",
        "Location": "Taman Noriswaty Panji",
        "Post_Office": "Kota Bharu",
        "State": "Kelantan"
    },
    {
        "Postcode": "16100",
        "Location": "Taman Padang Golf",
        "Post_Office": "Kota Bharu",
        "State": "Kelantan"
    },
    {
        "Postcode": "16100",
        "Location": "Taman Putera Perkim",
        "Post_Office": "Kota Bharu",
        "State": "Kelantan"
    },
    {
        "Postcode": "16100",
        "Location": "Taman Putra",
        "Post_Office": "Kota Bharu",
        "State": "Kelantan"
    },
    {
        "Postcode": "16100",
        "Location": "Taman Seri Setia (Padang Tembak)",
        "Post_Office": "Kota Bharu",
        "State": "Kelantan"
    },
    {
        "Postcode": "16100",
        "Location": "Taman Sri Baung",
        "Post_Office": "Kota Bharu",
        "State": "Kelantan"
    },
    {
        "Postcode": "16100",
        "Location": "Taman Sri Kemumin 1",
        "Post_Office": "Kota Bharu",
        "State": "Kelantan"
    },
    {
        "Postcode": "16100",
        "Location": "Tebing Tinggi",
        "Post_Office": "Kota Bharu",
        "State": "Kelantan"
    },
    {
        "Postcode": "16100",
        "Location": "Teluk Kitang",
        "Post_Office": "Kota Bharu",
        "State": "Kelantan"
    },
    {
        "Postcode": "16100",
        "Location": "Wakaf Che Rani",
        "Post_Office": "Kota Bharu",
        "State": "Kelantan"
    },
    {
        "Postcode": "16100",
        "Location": "Wakaf Tok Kassim",
        "Post_Office": "Kota Bharu",
        "State": "Kelantan"
    },
    {
        "Postcode": "16100",
        "Location": "Mrsm Pengkalan Chepa",
        "Post_Office": "Kota Bharu",
        "State": "Kelantan"
    },
    {
        "Postcode": "16100",
        "Location": "Jalan Lapangan Terbang",
        "Post_Office": "Kota Bharu",
        "State": "Kelantan"
    },
    {
        "Postcode": "16100",
        "Location": "Jalan Maktab",
        "Post_Office": "Kota Bharu",
        "State": "Kelantan"
    },
    {
        "Postcode": "16100",
        "Location": "Jalan Pulau Belacan",
        "Post_Office": "Kota Bharu",
        "State": "Kelantan"
    },
    {
        "Postcode": "16100",
        "Location": "Jalan Sabak",
        "Post_Office": "Kota Bharu",
        "State": "Kelantan"
    },
    {
        "Postcode": "16100",
        "Location": "Perumahan Desa Kemumin",
        "Post_Office": "Kota Bharu",
        "State": "Kelantan"
    },
    {
        "Postcode": "16100",
        "Location": "Perumahan Desa Wira",
        "Post_Office": "Kota Bharu",
        "State": "Kelantan"
    },
    {
        "Postcode": "16100",
        "Location": "Perumahan Guru",
        "Post_Office": "Kota Bharu",
        "State": "Kelantan"
    },
    {
        "Postcode": "16100",
        "Location": "Perumahan Polis",
        "Post_Office": "Kota Bharu",
        "State": "Kelantan"
    },
    {
        "Postcode": "16100",
        "Location": "Taman Bakti",
        "Post_Office": "Kota Bharu",
        "State": "Kelantan"
    },
    {
        "Postcode": "16100",
        "Location": "Taman Desa Orkid Perdana",
        "Post_Office": "Kota Bharu",
        "State": "Kelantan"
    },
    {
        "Postcode": "16100",
        "Location": "Taman Family",
        "Post_Office": "Kota Bharu",
        "State": "Kelantan"
    },
    {
        "Postcode": "16100",
        "Location": "Taman Fikri",
        "Post_Office": "Kota Bharu",
        "State": "Kelantan"
    },
    {
        "Postcode": "16100",
        "Location": "Taman Hasrah Panchor",
        "Post_Office": "Kota Bharu",
        "State": "Kelantan"
    },
    {
        "Postcode": "16100",
        "Location": "Taman Ikwan",
        "Post_Office": "Kota Bharu",
        "State": "Kelantan"
    },
    {
        "Postcode": "16100",
        "Location": "Taman Indah Purnama",
        "Post_Office": "Kota Bharu",
        "State": "Kelantan"
    },
    {
        "Postcode": "16100",
        "Location": "Taman Jaya Chekok",
        "Post_Office": "Kota Bharu",
        "State": "Kelantan"
    },
    {
        "Postcode": "16100",
        "Location": "Taman Kurnia Jaya",
        "Post_Office": "Kota Bharu",
        "State": "Kelantan"
    },
    {
        "Postcode": "16100",
        "Location": "Taman Perdana",
        "Post_Office": "Kota Bharu",
        "State": "Kelantan"
    },
    {
        "Postcode": "16100",
        "Location": "Taman Sani",
        "Post_Office": "Kota Bharu",
        "State": "Kelantan"
    },
    {
        "Postcode": "16100",
        "Location": "Taman Sri Panji",
        "Post_Office": "Kota Bharu",
        "State": "Kelantan"
    },
    {
        "Postcode": "16100",
        "Location": "Taman Sri Purnama",
        "Post_Office": "Kota Bharu",
        "State": "Kelantan"
    },
    {
        "Postcode": "16100",
        "Location": "Taman Sri Setia",
        "Post_Office": "Kota Bharu",
        "State": "Kelantan"
    },
    {
        "Postcode": "16100",
        "Location": "Taman Telok",
        "Post_Office": "Kota Bharu",
        "State": "Kelantan"
    },
    {
        "Postcode": "16100",
        "Location": "Taman Telok Indah",
        "Post_Office": "Kota Bharu",
        "State": "Kelantan"
    },
    {
        "Postcode": "16100",
        "Location": "Taman Titiwangsa",
        "Post_Office": "Kota Bharu",
        "State": "Kelantan"
    },
    {
        "Postcode": "16100",
        "Location": "Gertak Sagu",
        "Post_Office": "Kota Bharu",
        "State": "Kelantan"
    },
    {
        "Postcode": "16100",
        "Location": "Kampung Landak",
        "Post_Office": "Kota Bharu",
        "State": "Kelantan"
    },
    {
        "Postcode": "16100",
        "Location": "Kampung Pulau Panjang",
        "Post_Office": "Kota Bharu",
        "State": "Kelantan"
    },
    {
        "Postcode": "16100",
        "Location": "Kampung Tok Kaya",
        "Post_Office": "Kota Bharu",
        "State": "Kelantan"
    },
    {
        "Postcode": "16100",
        "Location": "Taman Mutiara ",
        "Post_Office": "Kota Bharu",
        "State": "Kelantan"
    },
    {
        "Postcode": "16100",
        "Location": "Kampung Chekok",
        "Post_Office": "Kota Bharu",
        "State": "Kelantan"
    },
    {
        "Postcode": "16100",
        "Location": "Kampung Jejawi",
        "Post_Office": "Kota Bharu",
        "State": "Kelantan"
    },
    {
        "Postcode": "16100",
        "Location": "Kampung Pauh",
        "Post_Office": "Kota Bharu",
        "State": "Kelantan"
    },
    {
        "Postcode": "16100",
        "Location": "Perumahan Jpn",
        "Post_Office": "Kota Bharu",
        "State": "Kelantan"
    },
    {
        "Postcode": "16100",
        "Location": "Taman Mesra",
        "Post_Office": "Kota Bharu",
        "State": "Kelantan"
    }
]
