[
    {
        "Postcode": "16150",
        "Location": "Cabang Empat Limbat",
        "Post_Office": "Kota Bharu",
        "State": "Kelantan"
    },
    {
        "Postcode": "16150",
        "Location": "Cabang Tiga Kampung Teras",
        "Post_Office": "Kota Bharu",
        "State": "Kelantan"
    },
    {
        "Postcode": "16150",
        "Location": "Chabang Empat Binjai",
        "Post_Office": "Kota Bharu",
        "State": "Kelantan"
    },
    {
        "Postcode": "16150",
        "Location": "Chabang Tiga Kampung Teras",
        "Post_Office": "Kota Bharu",
        "State": "Kelantan"
    },
    {
        "Postcode": "16150",
        "Location": "Chicha (Batu 5 1/2)",
        "Post_Office": "Kota Bharu",
        "State": "Kelantan"
    },
    {
        "Postcode": "16150",
        "Location": "Desa Darulnaim",
        "Post_Office": "Kota Bharu",
        "State": "Kelantan"
    },
    {
        "Postcode": "16150",
        "Location": "Jalan Besar Kampung Tambak",
        "Post_Office": "Kota Bharu",
        "State": "Kelantan"
    },
    {
        "Postcode": "16150",
        "Location": "Jalan Besar Kampung Terap",
        "Post_Office": "Kota Bharu",
        "State": "Kelantan"
    },
    {
        "Postcode": "16150",
        "Location": "Jalan Chabang Tiga Haji Kassim",
        "Post_Office": "Kota Bharu",
        "State": "Kelantan"
    },
    {
        "Postcode": "16150",
        "Location": "Jalan Cik Gu Hamid",
        "Post_Office": "Kota Bharu",
        "State": "Kelantan"
    },
    {
        "Postcode": "16150",
        "Location": "Jalan Hilir Cabang 4 Binjai",
        "Post_Office": "Kota Bharu",
        "State": "Kelantan"
    },
    {
        "Postcode": "16150",
        "Location": "Jalan Hospital Baru",
        "Post_Office": "Kota Bharu",
        "State": "Kelantan"
    },
    {
        "Postcode": "16150",
        "Location": "Jalan Hospital Universiti",
        "Post_Office": "Kota Bharu",
        "State": "Kelantan"
    },
    {
        "Postcode": "16150",
        "Location": "Jalan Kampung Limbat",
        "Post_Office": "Kota Bharu",
        "State": "Kelantan"
    },
    {
        "Postcode": "16150",
        "Location": "Jalan Kampung Pulong",
        "Post_Office": "Kota Bharu",
        "State": "Kelantan"
    },
    {
        "Postcode": "16150",
        "Location": "Jalan Kampung Teras",
        "Post_Office": "Kota Bharu",
        "State": "Kelantan"
    },
    {
        "Postcode": "16150",
        "Location": "Jalan Kedai Gertak Kecupu",
        "Post_Office": "Kota Bharu",
        "State": "Kelantan"
    },
    {
        "Postcode": "16150",
        "Location": "Jalan Kedai Lalat Kampung Che Pa",
        "Post_Office": "Kota Bharu",
        "State": "Kelantan"
    },
    {
        "Postcode": "16150",
        "Location": "Jalan Kedai Lalat Pasir Tok Kambing",
        "Post_Office": "Kota Bharu",
        "State": "Kelantan"
    },
    {
        "Postcode": "16150",
        "Location": "Jalan Kubang Siput",
        "Post_Office": "Kota Bharu",
        "State": "Kelantan"
    },
    {
        "Postcode": "16150",
        "Location": "Jalan Masjid (Kampung Chicha)",
        "Post_Office": "Kota Bharu",
        "State": "Kelantan"
    },
    {
        "Postcode": "16150",
        "Location": "Jalan Masjid Mentuan",
        "Post_Office": "Kota Bharu",
        "State": "Kelantan"
    },
    {
        "Postcode": "16150",
        "Location": "Jalan Padang Bemban",
        "Post_Office": "Kota Bharu",
        "State": "Kelantan"
    },
    {
        "Postcode": "16150",
        "Location": "Jalan Parit",
        "Post_Office": "Kota Bharu",
        "State": "Kelantan"
    },
    {
        "Postcode": "16150",
        "Location": "Jalan Pondok Kenali",
        "Post_Office": "Kota Bharu",
        "State": "Kelantan"
    },
    {
        "Postcode": "16150",
        "Location": "Jalan Pondok Terusan",
        "Post_Office": "Kota Bharu",
        "State": "Kelantan"
    },
    {
        "Postcode": "16150",
        "Location": "Jalan Pulau Hilir",
        "Post_Office": "Kota Bharu",
        "State": "Kelantan"
    },
    {
        "Postcode": "16150",
        "Location": "Jalan Pulau Raja",
        "Post_Office": "Kota Bharu",
        "State": "Kelantan"
    },
    {
        "Postcode": "16150",
        "Location": "Jalan Pulau Tengah",
        "Post_Office": "Kota Bharu",
        "State": "Kelantan"
    },
    {
        "Postcode": "16150",
        "Location": "Jalan Rela",
        "Post_Office": "Kota Bharu",
        "State": "Kelantan"
    },
    {
        "Postcode": "16150",
        "Location": "Jalan Sekolah (Kampung Keling)",
        "Post_Office": "Kota Bharu",
        "State": "Kelantan"
    },
    {
        "Postcode": "16150",
        "Location": "Jalan Sekolah Arab Kampung Panjang",
        "Post_Office": "Kota Bharu",
        "State": "Kelantan"
    },
    {
        "Postcode": "16150",
        "Location": "Jalan Sekolah Menengah",
        "Post_Office": "Kota Bharu",
        "State": "Kelantan"
    },
    {
        "Postcode": "16150",
        "Location": "Jalan Sekolah Seribong",
        "Post_Office": "Kota Bharu",
        "State": "Kelantan"
    },
    {
        "Postcode": "16150",
        "Location": "Jalan Seribong",
        "Post_Office": "Kota Bharu",
        "State": "Kelantan"
    },
    {
        "Postcode": "16150",
        "Location": "Jalan Stan",
        "Post_Office": "Kota Bharu",
        "State": "Kelantan"
    },
    {
        "Postcode": "16150",
        "Location": "Jalan Tali Ayer",
        "Post_Office": "Kota Bharu",
        "State": "Kelantan"
    },
    {
        "Postcode": "16150",
        "Location": "Jalan Wakaf Stan",
        "Post_Office": "Kota Bharu",
        "State": "Kelantan"
    },
    {
        "Postcode": "16150",
        "Location": "Jalan Wakaf Stan (Km 7)",
        "Post_Office": "Kota Bharu",
        "State": "Kelantan"
    },
    {
        "Postcode": "16150",
        "Location": "Kampung Alor Pinang",
        "Post_Office": "Kota Bharu",
        "State": "Kelantan"
    },
    {
        "Postcode": "16150",
        "Location": "Kampung Atas Gong",
        "Post_Office": "Kota Bharu",
        "State": "Kelantan"
    },
    {
        "Postcode": "16150",
        "Location": "Kampung Badak Mati",
        "Post_Office": "Kota Bharu",
        "State": "Kelantan"
    },
    {
        "Postcode": "16150",
        "Location": "Kampung Banggu",
        "Post_Office": "Kota Bharu",
        "State": "Kelantan"
    },
    {
        "Postcode": "16150",
        "Location": "Kampung Bechah Gerda",
        "Post_Office": "Kota Bharu",
        "State": "Kelantan"
    },
    {
        "Postcode": "16150",
        "Location": "Kampung Belukar (Kubang Kerian)",
        "Post_Office": "Kota Bharu",
        "State": "Kelantan"
    },
    {
        "Postcode": "16150",
        "Location": "Kampung Belukar Limbat",
        "Post_Office": "Kota Bharu",
        "State": "Kelantan"
    },
    {
        "Postcode": "16150",
        "Location": "Kampung Benut",
        "Post_Office": "Kota Bharu",
        "State": "Kelantan"
    },
    {
        "Postcode": "16150",
        "Location": "Kampung Berek",
        "Post_Office": "Kota Bharu",
        "State": "Kelantan"
    },
    {
        "Postcode": "16150",
        "Location": "Kampung Berhala Lima",
        "Post_Office": "Kota Bharu",
        "State": "Kelantan"
    },
    {
        "Postcode": "16150",
        "Location": "Kampung Beruk",
        "Post_Office": "Kota Bharu",
        "State": "Kelantan"
    },
    {
        "Postcode": "16150",
        "Location": "Kampung Bilok",
        "Post_Office": "Kota Bharu",
        "State": "Kelantan"
    },
    {
        "Postcode": "16150",
        "Location": "Kampung Binjai (Kubang Kerian)",
        "Post_Office": "Kota Bharu",
        "State": "Kelantan"
    },
    {
        "Postcode": "16150",
        "Location": "Kampung Binjai Limbat",
        "Post_Office": "Kota Bharu",
        "State": "Kelantan"
    },
    {
        "Postcode": "16150",
        "Location": "Kampung Binjai Manis",
        "Post_Office": "Kota Bharu",
        "State": "Kelantan"
    },
    {
        "Postcode": "16150",
        "Location": "Kampung Bukit Marak (Kubang Kerian)",
        "Post_Office": "Kota Bharu",
        "State": "Kelantan"
    },
    {
        "Postcode": "16150",
        "Location": "Kampung Chepa",
        "Post_Office": "Kota Bharu",
        "State": "Kelantan"
    },
    {
        "Postcode": "16150",
        "Location": "Kampung Chicha",
        "Post_Office": "Kota Bharu",
        "State": "Kelantan"
    },
    {
        "Postcode": "16150",
        "Location": "Kampung Dangar Banggu",
        "Post_Office": "Kota Bharu",
        "State": "Kelantan"
    },
    {
        "Postcode": "16150",
        "Location": "Kampung Dedap",
        "Post_Office": "Kota Bharu",
        "State": "Kelantan"
    },
    {
        "Postcode": "16150",
        "Location": "Kampung Demit",
        "Post_Office": "Kota Bharu",
        "State": "Kelantan"
    },
    {
        "Postcode": "16150",
        "Location": "Kampung Demit Sungai",
        "Post_Office": "Kota Bharu",
        "State": "Kelantan"
    },
    {
        "Postcode": "16150",
        "Location": "Kampung Dusun (Kubang Kerian)",
        "Post_Office": "Kota Bharu",
        "State": "Kelantan"
    },
    {
        "Postcode": "16150",
        "Location": "Kampung Gertak Kechupu",
        "Post_Office": "Kota Bharu",
        "State": "Kelantan"
    },
    {
        "Postcode": "16150",
        "Location": "Kampung Gong Dermin",
        "Post_Office": "Kota Bharu",
        "State": "Kelantan"
    },
    {
        "Postcode": "16150",
        "Location": "Kampung Jalan Pondok Terusan",
        "Post_Office": "Kota Bharu",
        "State": "Kelantan"
    },
    {
        "Postcode": "16150",
        "Location": "Kampung Jejabi",
        "Post_Office": "Kota Bharu",
        "State": "Kelantan"
    },
    {
        "Postcode": "16150",
        "Location": "Kampung Jejuluk",
        "Post_Office": "Kota Bharu",
        "State": "Kelantan"
    },
    {
        "Postcode": "16150",
        "Location": "Kampung Karang",
        "Post_Office": "Kota Bharu",
        "State": "Kelantan"
    },
    {
        "Postcode": "16150",
        "Location": "Kampung Kedai Burok",
        "Post_Office": "Kota Bharu",
        "State": "Kelantan"
    },
    {
        "Postcode": "16150",
        "Location": "Kampung Keling",
        "Post_Office": "Kota Bharu",
        "State": "Kelantan"
    },
    {
        "Postcode": "16150",
        "Location": "Kampung Kemachi Mantuan",
        "Post_Office": "Kota Bharu",
        "State": "Kelantan"
    },
    {
        "Postcode": "16150",
        "Location": "Kampung Kerasah",
        "Post_Office": "Kota Bharu",
        "State": "Kelantan"
    },
    {
        "Postcode": "16150",
        "Location": "Kampung Kubang Bongor (Kubang Kerian)",
        "Post_Office": "Kota Bharu",
        "State": "Kelantan"
    },
    {
        "Postcode": "16150",
        "Location": "Kampung Kubang Keranji",
        "Post_Office": "Kota Bharu",
        "State": "Kelantan"
    },
    {
        "Postcode": "16150",
        "Location": "Kampung Lekong",
        "Post_Office": "Kota Bharu",
        "State": "Kelantan"
    },
    {
        "Postcode": "16150",
        "Location": "Kampung Limbat (Kubang Kerian)",
        "Post_Office": "Kota Bharu",
        "State": "Kelantan"
    },
    {
        "Postcode": "16150",
        "Location": "Kampung Lubok Pukul",
        "Post_Office": "Kota Bharu",
        "State": "Kelantan"
    },
    {
        "Postcode": "16150",
        "Location": "Kampung Machang Limbat",
        "Post_Office": "Kota Bharu",
        "State": "Kelantan"
    },
    {
        "Postcode": "16150",
        "Location": "Kampung Marak",
        "Post_Office": "Kota Bharu",
        "State": "Kelantan"
    },
    {
        "Postcode": "16150",
        "Location": "Kampung Marak Banggu",
        "Post_Office": "Kota Bharu",
        "State": "Kelantan"
    },
    {
        "Postcode": "16150",
        "Location": "Kampung Mentera",
        "Post_Office": "Kota Bharu",
        "State": "Kelantan"
    },
    {
        "Postcode": "16150",
        "Location": "Kampung Mentuan",
        "Post_Office": "Kota Bharu",
        "State": "Kelantan"
    },
    {
        "Postcode": "16150",
        "Location": "Kampung Nangka (Kubang Kerian)",
        "Post_Office": "Kota Bharu",
        "State": "Kelantan"
    },
    {
        "Postcode": "16150",
        "Location": "Kampung Padang Bemban Bukit Marak",
        "Post_Office": "Kota Bharu",
        "State": "Kelantan"
    },
    {
        "Postcode": "16150",
        "Location": "Kampung Padang Bukit Marak",
        "Post_Office": "Kota Bharu",
        "State": "Kelantan"
    },
    {
        "Postcode": "16150",
        "Location": "Kampung Padang Demit",
        "Post_Office": "Kota Bharu",
        "State": "Kelantan"
    },
    {
        "Postcode": "16150",
        "Location": "Kampung Padang Durian",
        "Post_Office": "Kota Bharu",
        "State": "Kelantan"
    },
    {
        "Postcode": "16150",
        "Location": "Kampung Padang Kekabu",
        "Post_Office": "Kota Bharu",
        "State": "Kelantan"
    },
    {
        "Postcode": "16150",
        "Location": "Kampung Padang Seri Paduka",
        "Post_Office": "Kota Bharu",
        "State": "Kelantan"
    },
    {
        "Postcode": "16150",
        "Location": "Kampung Pak Dewi",
        "Post_Office": "Kota Bharu",
        "State": "Kelantan"
    },
    {
        "Postcode": "16150",
        "Location": "Kampung Pak Romat",
        "Post_Office": "Kota Bharu",
        "State": "Kelantan"
    },
    {
        "Postcode": "16150",
        "Location": "Kampung Palang Tal Limbat",
        "Post_Office": "Kota Bharu",
        "State": "Kelantan"
    },
    {
        "Postcode": "16150",
        "Location": "Kampung Panjang",
        "Post_Office": "Kota Bharu",
        "State": "Kelantan"
    },
    {
        "Postcode": "16150",
        "Location": "Kampung Pasir Ara",
        "Post_Office": "Kota Bharu",
        "State": "Kelantan"
    },
    {
        "Postcode": "16150",
        "Location": "Kampung Pasir Jelatang",
        "Post_Office": "Kota Bharu",
        "State": "Kelantan"
    },
    {
        "Postcode": "16150",
        "Location": "Kampung Pasir Tumboh",
        "Post_Office": "Kota Bharu",
        "State": "Kelantan"
    },
    {
        "Postcode": "16150",
        "Location": "Kampung Pauh Dua",
        "Post_Office": "Kota Bharu",
        "State": "Kelantan"
    },
    {
        "Postcode": "16150",
        "Location": "Kampung Pohon Mesta",
        "Post_Office": "Kota Bharu",
        "State": "Kelantan"
    },
    {
        "Postcode": "16150",
        "Location": "Kampung Pulau",
        "Post_Office": "Kota Bharu",
        "State": "Kelantan"
    },
    {
        "Postcode": "16150",
        "Location": "Kampung Pulau Bunut",
        "Post_Office": "Kota Bharu",
        "State": "Kelantan"
    },
    {
        "Postcode": "16150",
        "Location": "Kampung Pulau Pauh",
        "Post_Office": "Kota Bharu",
        "State": "Kelantan"
    },
    {
        "Postcode": "16150",
        "Location": "Kampung Pulau Tengah",
        "Post_Office": "Kota Bharu",
        "State": "Kelantan"
    },
    {
        "Postcode": "16150",
        "Location": "Kampung Renek",
        "Post_Office": "Kota Bharu",
        "State": "Kelantan"
    },
    {
        "Postcode": "16150",
        "Location": "Kampung Selor",
        "Post_Office": "Kota Bharu",
        "State": "Kelantan"
    },
    {
        "Postcode": "16150",
        "Location": "Kampung Selor Limbat",
        "Post_Office": "Kota Bharu",
        "State": "Kelantan"
    },
    {
        "Postcode": "16150",
        "Location": "Kampung Seribong",
        "Post_Office": "Kota Bharu",
        "State": "Kelantan"
    },
    {
        "Postcode": "16150",
        "Location": "Kampung Seterpa Sungai",
        "Post_Office": "Kota Bharu",
        "State": "Kelantan"
    },
    {
        "Postcode": "16150",
        "Location": "Kampung Seterpa Tengah",
        "Post_Office": "Kota Bharu",
        "State": "Kelantan"
    },
    {
        "Postcode": "16150",
        "Location": "Kampung Slow",
        "Post_Office": "Kota Bharu",
        "State": "Kelantan"
    },
    {
        "Postcode": "16150",
        "Location": "Kampung Tambak",
        "Post_Office": "Kota Bharu",
        "State": "Kelantan"
    },
    {
        "Postcode": "16150",
        "Location": "Kampung Tambak Hilir",
        "Post_Office": "Kota Bharu",
        "State": "Kelantan"
    },
    {
        "Postcode": "16150",
        "Location": "Kampung Tanjong (Kubang Kerian)",
        "Post_Office": "Kota Bharu",
        "State": "Kelantan"
    },
    {
        "Postcode": "16150",
        "Location": "Kampung Tanjung Baru (Kubang Kerian)",
        "Post_Office": "Kota Bharu",
        "State": "Kelantan"
    },
    {
        "Postcode": "16150",
        "Location": "Kampung Tanjung Mulong",
        "Post_Office": "Kota Bharu",
        "State": "Kelantan"
    },
    {
        "Postcode": "16150",
        "Location": "Kampung Tasek Banggu",
        "Post_Office": "Kota Bharu",
        "State": "Kelantan"
    },
    {
        "Postcode": "16150",
        "Location": "Kampung Tembusu Limbat",
        "Post_Office": "Kota Bharu",
        "State": "Kelantan"
    },
    {
        "Postcode": "16150",
        "Location": "Kampung Terap",
        "Post_Office": "Kota Bharu",
        "State": "Kelantan"
    },
    {
        "Postcode": "16150",
        "Location": "Kampung Teras",
        "Post_Office": "Kota Bharu",
        "State": "Kelantan"
    },
    {
        "Postcode": "16150",
        "Location": "Kampung Tok Borak",
        "Post_Office": "Kota Bharu",
        "State": "Kelantan"
    },
    {
        "Postcode": "16150",
        "Location": "Kampung Tok Kela",
        "Post_Office": "Kota Bharu",
        "State": "Kelantan"
    },
    {
        "Postcode": "16150",
        "Location": "Kampung Tok Lik",
        "Post_Office": "Kota Bharu",
        "State": "Kelantan"
    },
    {
        "Postcode": "16150",
        "Location": "Kampung Tualang",
        "Post_Office": "Kota Bharu",
        "State": "Kelantan"
    },
    {
        "Postcode": "16150",
        "Location": "Kampung Tualang Patah",
        "Post_Office": "Kota Bharu",
        "State": "Kelantan"
    },
    {
        "Postcode": "16150",
        "Location": "Kampung Wakaf Seri Paduka",
        "Post_Office": "Kota Bharu",
        "State": "Kelantan"
    },
    {
        "Postcode": "16150",
        "Location": "Kampung Wakaf Stan",
        "Post_Office": "Kota Bharu",
        "State": "Kelantan"
    },
    {
        "Postcode": "16150",
        "Location": "Kampung Wakaf Tanjung Chepa",
        "Post_Office": "Kota Bharu",
        "State": "Kelantan"
    },
    {
        "Postcode": "16150",
        "Location": "Kedai Baru",
        "Post_Office": "Kota Bharu",
        "State": "Kelantan"
    },
    {
        "Postcode": "16150",
        "Location": "Kedai Baru Bangu",
        "Post_Office": "Kota Bharu",
        "State": "Kelantan"
    },
    {
        "Postcode": "16150",
        "Location": "Kedai Pasir Tumboh",
        "Post_Office": "Kota Bharu",
        "State": "Kelantan"
    },
    {
        "Postcode": "16150",
        "Location": "Kubang Kerian",
        "Post_Office": "Kota Bharu",
        "State": "Kelantan"
    },
    {
        "Postcode": "16150",
        "Location": "Limbat",
        "Post_Office": "Kota Bharu",
        "State": "Kelantan"
    },
    {
        "Postcode": "16150",
        "Location": "Lorong Kampung Belukar",
        "Post_Office": "Kota Bharu",
        "State": "Kelantan"
    },
    {
        "Postcode": "16150",
        "Location": "Lorong Kubor Kenali",
        "Post_Office": "Kota Bharu",
        "State": "Kelantan"
    },
    {
        "Postcode": "16150",
        "Location": "Lorong Pondok Kenali",
        "Post_Office": "Kota Bharu",
        "State": "Kelantan"
    },
    {
        "Postcode": "16150",
        "Location": "Lorong Tengku Hussin",
        "Post_Office": "Kota Bharu",
        "State": "Kelantan"
    },
    {
        "Postcode": "16150",
        "Location": "Pondok Terusan",
        "Post_Office": "Kota Bharu",
        "State": "Kelantan"
    },
    {
        "Postcode": "16150",
        "Location": "Sekolah Kebangsaan Mentera",
        "Post_Office": "Kota Bharu",
        "State": "Kelantan"
    },
    {
        "Postcode": "16150",
        "Location": "Taman Al-Quari",
        "Post_Office": "Kota Bharu",
        "State": "Kelantan"
    },
    {
        "Postcode": "16150",
        "Location": "Taman Bakti Banggu",
        "Post_Office": "Kota Bharu",
        "State": "Kelantan"
    },
    {
        "Postcode": "16150",
        "Location": "Taman Binjai Baru",
        "Post_Office": "Kota Bharu",
        "State": "Kelantan"
    },
    {
        "Postcode": "16150",
        "Location": "Taman Depan Istana",
        "Post_Office": "Kota Bharu",
        "State": "Kelantan"
    },
    {
        "Postcode": "16150",
        "Location": "Taman Desa Bakti Banggu",
        "Post_Office": "Kota Bharu",
        "State": "Kelantan"
    },
    {
        "Postcode": "16150",
        "Location": "Taman Desa Permai Banggu",
        "Post_Office": "Kota Bharu",
        "State": "Kelantan"
    },
    {
        "Postcode": "16150",
        "Location": "Taman Impian",
        "Post_Office": "Kota Bharu",
        "State": "Kelantan"
    },
    {
        "Postcode": "16150",
        "Location": "Taman Indah Banggu",
        "Post_Office": "Kota Bharu",
        "State": "Kelantan"
    },
    {
        "Postcode": "16150",
        "Location": "Taman Indah Seterpa",
        "Post_Office": "Kota Bharu",
        "State": "Kelantan"
    },
    {
        "Postcode": "16150",
        "Location": "Taman Kenali",
        "Post_Office": "Kota Bharu",
        "State": "Kelantan"
    },
    {
        "Postcode": "16150",
        "Location": "Taman Kota Jaya",
        "Post_Office": "Kota Bharu",
        "State": "Kelantan"
    },
    {
        "Postcode": "16150",
        "Location": "Taman Makmor",
        "Post_Office": "Kota Bharu",
        "State": "Kelantan"
    },
    {
        "Postcode": "16150",
        "Location": "Taman Mek Tek",
        "Post_Office": "Kota Bharu",
        "State": "Kelantan"
    },
    {
        "Postcode": "16150",
        "Location": "Taman Merak Manggu",
        "Post_Office": "Kota Bharu",
        "State": "Kelantan"
    },
    {
        "Postcode": "16150",
        "Location": "Taman Pasir Ara",
        "Post_Office": "Kota Bharu",
        "State": "Kelantan"
    },
    {
        "Postcode": "16150",
        "Location": "Taman Permai Demit",
        "Post_Office": "Kota Bharu",
        "State": "Kelantan"
    },
    {
        "Postcode": "16150",
        "Location": "Taman Perumahan Ehsan Kota Jembal",
        "Post_Office": "Kota Bharu",
        "State": "Kelantan"
    },
    {
        "Postcode": "16150",
        "Location": "Taman Pulong",
        "Post_Office": "Kota Bharu",
        "State": "Kelantan"
    },
    {
        "Postcode": "16150",
        "Location": "Hospital Sains Malaysia (Kubang Kerian)",
        "Post_Office": "Kota Bharu",
        "State": "Kelantan"
    },
    {
        "Postcode": "16150",
        "Location": "Istana Kubang Kerian",
        "Post_Office": "Kota Bharu",
        "State": "Kelantan"
    },
    {
        "Postcode": "16150",
        "Location": "Istana Mahkota",
        "Post_Office": "Kota Bharu",
        "State": "Kelantan"
    },
    {
        "Postcode": "16150",
        "Location": "Maktab Rendah Sains Mara",
        "Post_Office": "Kota Bharu",
        "State": "Kelantan"
    },
    {
        "Postcode": "16150",
        "Location": "Sekolah Agama Amaridul Ilmu",
        "Post_Office": "Kota Bharu",
        "State": "Kelantan"
    },
    {
        "Postcode": "16150",
        "Location": "Sekolah Agama Maahad Rahman",
        "Post_Office": "Kota Bharu",
        "State": "Kelantan"
    },
    {
        "Postcode": "16150",
        "Location": "Sekolah Agama Pakdum Maarif",
        "Post_Office": "Kota Bharu",
        "State": "Kelantan"
    },
    {
        "Postcode": "16150",
        "Location": "Sekolah Agama Yunusiah",
        "Post_Office": "Kota Bharu",
        "State": "Kelantan"
    },
    {
        "Postcode": "16150",
        "Location": "Sekolah Kebangsaan Agama Al Quari",
        "Post_Office": "Kota Bharu",
        "State": "Kelantan"
    },
    {
        "Postcode": "16150",
        "Location": "Sekolah Kebangsaan Banggu",
        "Post_Office": "Kota Bharu",
        "State": "Kelantan"
    },
    {
        "Postcode": "16150",
        "Location": "Sekolah Kebangsaan Demit",
        "Post_Office": "Kota Bharu",
        "State": "Kelantan"
    },
    {
        "Postcode": "16150",
        "Location": "Sekolah Kebangsaan Keling",
        "Post_Office": "Kota Bharu",
        "State": "Kelantan"
    },
    {
        "Postcode": "16150",
        "Location": "Sekolah Kebangsaan Kubang Kerian 1",
        "Post_Office": "Kota Bharu",
        "State": "Kelantan"
    },
    {
        "Postcode": "16150",
        "Location": "Sekolah Kebangsaan Kubang Kerian 2",
        "Post_Office": "Kota Bharu",
        "State": "Kelantan"
    },
    {
        "Postcode": "16150",
        "Location": "Sekolah Kebangsaan Kubang Kerian 3",
        "Post_Office": "Kota Bharu",
        "State": "Kelantan"
    },
    {
        "Postcode": "16150",
        "Location": "Sekolah Kebangsaan Long Gaffar",
        "Post_Office": "Kota Bharu",
        "State": "Kelantan"
    },
    {
        "Postcode": "16150",
        "Location": "Sekolah Kebangsaan Maarif",
        "Post_Office": "Kota Bharu",
        "State": "Kelantan"
    },
    {
        "Postcode": "16150",
        "Location": "Sekolah Kebangsaan Mentuan",
        "Post_Office": "Kota Bharu",
        "State": "Kelantan"
    },
    {
        "Postcode": "16150",
        "Location": "Sekolah Kebangsaan Seribong",
        "Post_Office": "Kota Bharu",
        "State": "Kelantan"
    },
    {
        "Postcode": "16150",
        "Location": "Sekolah Kebangsaan Wakaf Stan",
        "Post_Office": "Kota Bharu",
        "State": "Kelantan"
    },
    {
        "Postcode": "16150",
        "Location": "Sekolah Menengah Kebangsaan Banggu",
        "Post_Office": "Kota Bharu",
        "State": "Kelantan"
    },
    {
        "Postcode": "16150",
        "Location": "Sekolah Menengah Kebangsaan Wakaf Stan",
        "Post_Office": "Kota Bharu",
        "State": "Kelantan"
    },
    {
        "Postcode": "16150",
        "Location": "Sekolah Menengah Kubang Kerian 1",
        "Post_Office": "Kota Bharu",
        "State": "Kelantan"
    },
    {
        "Postcode": "16150",
        "Location": "Sekolah Menengah Kubang Kerian 2",
        "Post_Office": "Kota Bharu",
        "State": "Kelantan"
    },
    {
        "Postcode": "16150",
        "Location": "Kampung Bechah",
        "Post_Office": "Kota Bharu",
        "State": "Kelantan"
    },
    {
        "Postcode": "16150",
        "Location": "Taman Sri Aman",
        "Post_Office": "Kota Bharu",
        "State": "Kelantan"
    },
    {
        "Postcode": "16150",
        "Location": "Kampung Kubang Siput",
        "Post_Office": "Kota Bharu",
        "State": "Kelantan"
    },
    {
        "Postcode": "16150",
        "Location": "Kampung Kubur Datu",
        "Post_Office": "Kota Bharu",
        "State": "Kelantan"
    },
    {
        "Postcode": "16150",
        "Location": "Kampung Parit",
        "Post_Office": "Kota Bharu",
        "State": "Kelantan"
    },
    {
        "Postcode": "16150",
        "Location": "Taman Kota Sri Aman",
        "Post_Office": "Kota Bharu",
        "State": "Kelantan"
    },
    {
        "Postcode": "16150",
        "Location": "Taman Sri Delima",
        "Post_Office": "Kota Bharu",
        "State": "Kelantan"
    },
    {
        "Postcode": "16150",
        "Location": "Taman Perumahan Senang Jaya Ii",
        "Post_Office": "Kota Bharu",
        "State": "Kelantan"
    },
    {
        "Postcode": "16150",
        "Location": "Kampung Belukar",
        "Post_Office": "Kota Bharu",
        "State": "Kelantan"
    },
    {
        "Postcode": "16150",
        "Location": "Kampung Kedai Baru",
        "Post_Office": "Kota Bharu",
        "State": "Kelantan"
    },
    {
        "Postcode": "16150",
        "Location": "Kampung Padang Bongor",
        "Post_Office": "Kota Bharu",
        "State": "Kelantan"
    },
    {
        "Postcode": "16150",
        "Location": "Kampung Pulau Raja",
        "Post_Office": "Kota Bharu",
        "State": "Kelantan"
    },
    {
        "Postcode": "16150",
        "Location": "Kampung Sering",
        "Post_Office": "Kota Bharu",
        "State": "Kelantan"
    },
    {
        "Postcode": "16150",
        "Location": "Kampung Seterpa",
        "Post_Office": "Kota Bharu",
        "State": "Kelantan"
    },
    {
        "Postcode": "16150",
        "Location": "Kampung Sungai",
        "Post_Office": "Kota Bharu",
        "State": "Kelantan"
    },
    {
        "Postcode": "16150",
        "Location": "Sekolah Menengah Long Gaffar",
        "Post_Office": "Kota Bharu",
        "State": "Kelantan"
    },
    {
        "Postcode": "16150",
        "Location": "Taman Puteri",
        "Post_Office": "Kota Bharu",
        "State": "Kelantan"
    },
    {
        "Postcode": "16150",
        "Location": "Taman Rampai Muda Banggu",
        "Post_Office": "Kota Bharu",
        "State": "Kelantan"
    },
    {
        "Postcode": "16150",
        "Location": "Taman Samiah",
        "Post_Office": "Kota Bharu",
        "State": "Kelantan"
    },
    {
        "Postcode": "16150",
        "Location": "Taman Seri Binjai Banggu",
        "Post_Office": "Kota Bharu",
        "State": "Kelantan"
    },
    {
        "Postcode": "16150",
        "Location": "Taman Seri Bunut",
        "Post_Office": "Kota Bharu",
        "State": "Kelantan"
    },
    {
        "Postcode": "16150",
        "Location": "Taman Seri Demit",
        "Post_Office": "Kota Bharu",
        "State": "Kelantan"
    },
    {
        "Postcode": "16150",
        "Location": "Taman Seri Keranji",
        "Post_Office": "Kota Bharu",
        "State": "Kelantan"
    },
    {
        "Postcode": "16150",
        "Location": "Taman Seri Parit",
        "Post_Office": "Kota Bharu",
        "State": "Kelantan"
    },
    {
        "Postcode": "16150",
        "Location": "Taman Seri Pasir Ara",
        "Post_Office": "Kota Bharu",
        "State": "Kelantan"
    },
    {
        "Postcode": "16150",
        "Location": "Taman Seri Peduka",
        "Post_Office": "Kota Bharu",
        "State": "Kelantan"
    },
    {
        "Postcode": "16150",
        "Location": "Taman Sri Ara",
        "Post_Office": "Kota Bharu",
        "State": "Kelantan"
    },
    {
        "Postcode": "16150",
        "Location": "Taman Sri Gaza",
        "Post_Office": "Kota Bharu",
        "State": "Kelantan"
    },
    {
        "Postcode": "16150",
        "Location": "Taman Sri Nilam",
        "Post_Office": "Kota Bharu",
        "State": "Kelantan"
    },
    {
        "Postcode": "16150",
        "Location": "Taman Wakaf Desa",
        "Post_Office": "Kota Bharu",
        "State": "Kelantan"
    }
]
