[
    {
        "Postcode": "16200",
        "Location": "Jalan Besar",
        "Post_Office": "Tumpat",
        "State": "Kelantan"
    },
    {
        "Postcode": "16200",
        "Location": "Kampung Bukit Tanah",
        "Post_Office": "Tumpat",
        "State": "Kelantan"
    },
    {
        "Postcode": "16200",
        "Location": "Kampung Dalam Rhu",
        "Post_Office": "Tumpat",
        "State": "Kelantan"
    },
    {
        "Postcode": "16200",
        "Location": "Sekolah Kebangsaan Berangan 1",
        "Post_Office": "Tumpat",
        "State": "Kelantan"
    },
    {
        "Postcode": "16200",
        "Location": "Sekolah Kebangsaan Berangan 2",
        "Post_Office": "Tumpat",
        "State": "Kelantan"
    },
    {
        "Postcode": "16200",
        "Location": "Jalan Hulu Pasar",
        "Post_Office": "Tumpat",
        "State": "Kelantan"
    },
    {
        "Postcode": "16200",
        "Location": "Jalan Masjid",
        "Post_Office": "Tumpat",
        "State": "Kelantan"
    },
    {
        "Postcode": "16200",
        "Location": "Kampung Baru",
        "Post_Office": "Tumpat",
        "State": "Kelantan"
    },
    {
        "Postcode": "16200",
        "Location": "Kampung Belukar",
        "Post_Office": "Tumpat",
        "State": "Kelantan"
    },
    {
        "Postcode": "16200",
        "Location": "Kampung Berangan",
        "Post_Office": "Tumpat",
        "State": "Kelantan"
    },
    {
        "Postcode": "16200",
        "Location": "Kampung Masjid",
        "Post_Office": "Tumpat",
        "State": "Kelantan"
    },
    {
        "Postcode": "16200",
        "Location": "Kampung Selehor",
        "Post_Office": "Tumpat",
        "State": "Kelantan"
    },
    {
        "Postcode": "16200",
        "Location": "Kampung Wakaf King",
        "Post_Office": "Tumpat",
        "State": "Kelantan"
    },
    {
        "Postcode": "16200",
        "Location": "Aadk",
        "Post_Office": "Tumpat",
        "State": "Kelantan"
    },
    {
        "Postcode": "16200",
        "Location": "Balai Polis Tumpat",
        "Post_Office": "Tumpat",
        "State": "Kelantan"
    },
    {
        "Postcode": "16200",
        "Location": "Bank Pertanian",
        "Post_Office": "Tumpat",
        "State": "Kelantan"
    },
    {
        "Postcode": "16200",
        "Location": "Bank Simpanan Nasional",
        "Post_Office": "Tumpat",
        "State": "Kelantan"
    },
    {
        "Postcode": "16200",
        "Location": "Bazar Tumpat",
        "Post_Office": "Tumpat",
        "State": "Kelantan"
    },
    {
        "Postcode": "16200",
        "Location": "Hospital Tumpat",
        "Post_Office": "Tumpat",
        "State": "Kelantan"
    },
    {
        "Postcode": "16200",
        "Location": "Istana Bukit Tanah",
        "Post_Office": "Tumpat",
        "State": "Kelantan"
    },
    {
        "Postcode": "16200",
        "Location": "Jalan Boustead",
        "Post_Office": "Tumpat",
        "State": "Kelantan"
    },
    {
        "Postcode": "16200",
        "Location": "Jalan Dalam Rhu",
        "Post_Office": "Tumpat",
        "State": "Kelantan"
    },
    {
        "Postcode": "16200",
        "Location": "Jalan Datok",
        "Post_Office": "Tumpat",
        "State": "Kelantan"
    },
    {
        "Postcode": "16200",
        "Location": "Jalan Hilir Istana",
        "Post_Office": "Tumpat",
        "State": "Kelantan"
    },
    {
        "Postcode": "16200",
        "Location": "Jalan Hilir Pasar",
        "Post_Office": "Tumpat",
        "State": "Kelantan"
    },
    {
        "Postcode": "16200",
        "Location": "Jalan Kampung Besut",
        "Post_Office": "Tumpat",
        "State": "Kelantan"
    },
    {
        "Postcode": "16200",
        "Location": "Jalan Pasar",
        "Post_Office": "Tumpat",
        "State": "Kelantan"
    },
    {
        "Postcode": "16200",
        "Location": "Jalan Stesyen Keretapi",
        "Post_Office": "Tumpat",
        "State": "Kelantan"
    },
    {
        "Postcode": "16200",
        "Location": "Jalan Tanjung Kuala",
        "Post_Office": "Tumpat",
        "State": "Kelantan"
    },
    {
        "Postcode": "16200",
        "Location": "Kampung Air Dingin",
        "Post_Office": "Tumpat",
        "State": "Kelantan"
    },
    {
        "Postcode": "16200",
        "Location": "Kampung Alor Tal",
        "Post_Office": "Tumpat",
        "State": "Kelantan"
    },
    {
        "Postcode": "16200",
        "Location": "Kampung Baroh",
        "Post_Office": "Tumpat",
        "State": "Kelantan"
    },
    {
        "Postcode": "16200",
        "Location": "Kampung Baru Nelayan",
        "Post_Office": "Tumpat",
        "State": "Kelantan"
    },
    {
        "Postcode": "16200",
        "Location": "Kampung Bendang Kerian",
        "Post_Office": "Tumpat",
        "State": "Kelantan"
    },
    {
        "Postcode": "16200",
        "Location": "Kampung Berangan Masjid",
        "Post_Office": "Tumpat",
        "State": "Kelantan"
    },
    {
        "Postcode": "16200",
        "Location": "Kampung Berangan Pondok",
        "Post_Office": "Tumpat",
        "State": "Kelantan"
    },
    {
        "Postcode": "16200",
        "Location": "Kampung Besut",
        "Post_Office": "Tumpat",
        "State": "Kelantan"
    },
    {
        "Postcode": "16200",
        "Location": "Kampung Binjal",
        "Post_Office": "Tumpat",
        "State": "Kelantan"
    },
    {
        "Postcode": "16200",
        "Location": "Kampung Bunut Sarang Burung",
        "Post_Office": "Tumpat",
        "State": "Kelantan"
    },
    {
        "Postcode": "16200",
        "Location": "Kampung Chabang Tiga Berangan",
        "Post_Office": "Tumpat",
        "State": "Kelantan"
    },
    {
        "Postcode": "16200",
        "Location": "Kampung Che Salam",
        "Post_Office": "Tumpat",
        "State": "Kelantan"
    },
    {
        "Postcode": "16200",
        "Location": "Kampung Dalam",
        "Post_Office": "Tumpat",
        "State": "Kelantan"
    },
    {
        "Postcode": "16200",
        "Location": "Kampung Dalam Lanas",
        "Post_Office": "Tumpat",
        "State": "Kelantan"
    },
    {
        "Postcode": "16200",
        "Location": "Kampung Dalam Rhu Hujung",
        "Post_Office": "Tumpat",
        "State": "Kelantan"
    },
    {
        "Postcode": "16200",
        "Location": "Kampung Gelang Kechik",
        "Post_Office": "Tumpat",
        "State": "Kelantan"
    },
    {
        "Postcode": "16200",
        "Location": "Kampung Hujung",
        "Post_Office": "Tumpat",
        "State": "Kelantan"
    },
    {
        "Postcode": "16200",
        "Location": "Kampung Jubakar Pantai",
        "Post_Office": "Tumpat",
        "State": "Kelantan"
    },
    {
        "Postcode": "16200",
        "Location": "Kampung Juma Terbok",
        "Post_Office": "Tumpat",
        "State": "Kelantan"
    },
    {
        "Postcode": "16200",
        "Location": "Kampung Kelaboran",
        "Post_Office": "Tumpat",
        "State": "Kelantan"
    },
    {
        "Postcode": "16200",
        "Location": "Kampung Kelong",
        "Post_Office": "Tumpat",
        "State": "Kelantan"
    },
    {
        "Postcode": "16200",
        "Location": "Kampung Kepala Batas",
        "Post_Office": "Tumpat",
        "State": "Kelantan"
    },
    {
        "Postcode": "16200",
        "Location": "Kampung Kok Bedollah",
        "Post_Office": "Tumpat",
        "State": "Kelantan"
    },
    {
        "Postcode": "16200",
        "Location": "Kampung Kok Dollah",
        "Post_Office": "Tumpat",
        "State": "Kelantan"
    },
    {
        "Postcode": "16200",
        "Location": "Kampung Kok Kebit",
        "Post_Office": "Tumpat",
        "State": "Kelantan"
    },
    {
        "Postcode": "16200",
        "Location": "Kampung Kok Penang",
        "Post_Office": "Tumpat",
        "State": "Kelantan"
    },
    {
        "Postcode": "16200",
        "Location": "Kampung Kubur Dato'",
        "Post_Office": "Tumpat",
        "State": "Kelantan"
    },
    {
        "Postcode": "16200",
        "Location": "Kampung Padang Tembesu",
        "Post_Office": "Tumpat",
        "State": "Kelantan"
    },
    {
        "Postcode": "16200",
        "Location": "Kampung Pak Jah",
        "Post_Office": "Tumpat",
        "State": "Kelantan"
    },
    {
        "Postcode": "16200",
        "Location": "Kampung Pengkalan Nangka",
        "Post_Office": "Tumpat",
        "State": "Kelantan"
    },
    {
        "Postcode": "16200",
        "Location": "Kampung Pohon Nibong",
        "Post_Office": "Tumpat",
        "State": "Kelantan"
    },
    {
        "Postcode": "16200",
        "Location": "Kampung Pondok",
        "Post_Office": "Tumpat",
        "State": "Kelantan"
    },
    {
        "Postcode": "16200",
        "Location": "Kampung Pulau Chenda",
        "Post_Office": "Tumpat",
        "State": "Kelantan"
    },
    {
        "Postcode": "16200",
        "Location": "Kampung Pulau Cik Tahir",
        "Post_Office": "Tumpat",
        "State": "Kelantan"
    },
    {
        "Postcode": "16200",
        "Location": "Kampung Pulau Tokang",
        "Post_Office": "Tumpat",
        "State": "Kelantan"
    },
    {
        "Postcode": "16200",
        "Location": "Kampung Sedar",
        "Post_Office": "Tumpat",
        "State": "Kelantan"
    },
    {
        "Postcode": "16200",
        "Location": "Kampung Simpang Tapang",
        "Post_Office": "Tumpat",
        "State": "Kelantan"
    },
    {
        "Postcode": "16200",
        "Location": "Kampung Stesyen",
        "Post_Office": "Tumpat",
        "State": "Kelantan"
    },
    {
        "Postcode": "16200",
        "Location": "Kampung Sungai Tapang",
        "Post_Office": "Tumpat",
        "State": "Kelantan"
    },
    {
        "Postcode": "16200",
        "Location": "Kampung Tanjung Che Mas",
        "Post_Office": "Tumpat",
        "State": "Kelantan"
    },
    {
        "Postcode": "16200",
        "Location": "Kampung Tanjung Chemas",
        "Post_Office": "Tumpat",
        "State": "Kelantan"
    },
    {
        "Postcode": "16200",
        "Location": "Kampung Tanjung Kuala",
        "Post_Office": "Tumpat",
        "State": "Kelantan"
    },
    {
        "Postcode": "16200",
        "Location": "Kampung Terbak",
        "Post_Office": "Tumpat",
        "State": "Kelantan"
    },
    {
        "Postcode": "16200",
        "Location": "Kampung Tok Bisu",
        "Post_Office": "Tumpat",
        "State": "Kelantan"
    },
    {
        "Postcode": "16200",
        "Location": "Kampung Tok Takul",
        "Post_Office": "Tumpat",
        "State": "Kelantan"
    },
    {
        "Postcode": "16200",
        "Location": "Kampung Tuah Lang",
        "Post_Office": "Tumpat",
        "State": "Kelantan"
    },
    {
        "Postcode": "16200",
        "Location": "Klinik Desa Air Dingin",
        "Post_Office": "Tumpat",
        "State": "Kelantan"
    },
    {
        "Postcode": "16200",
        "Location": "Klinik Desa Pengkalan Nangka",
        "Post_Office": "Tumpat",
        "State": "Kelantan"
    },
    {
        "Postcode": "16200",
        "Location": "Klinik Ibu Dan Anak",
        "Post_Office": "Tumpat",
        "State": "Kelantan"
    },
    {
        "Postcode": "16200",
        "Location": "Mahkamah Majistret",
        "Post_Office": "Tumpat",
        "State": "Kelantan"
    },
    {
        "Postcode": "16200",
        "Location": "Mahkamah Syariah",
        "Post_Office": "Tumpat",
        "State": "Kelantan"
    },
    {
        "Postcode": "16200",
        "Location": "Majlis Daerah",
        "Post_Office": "Tumpat",
        "State": "Kelantan"
    },
    {
        "Postcode": "16200",
        "Location": "Maybank",
        "Post_Office": "Tumpat",
        "State": "Kelantan"
    },
    {
        "Postcode": "16200",
        "Location": "Padang Tambon",
        "Post_Office": "Tumpat",
        "State": "Kelantan"
    },
    {
        "Postcode": "16200",
        "Location": "Pasar Besar Tumpat",
        "Post_Office": "Tumpat",
        "State": "Kelantan"
    },
    {
        "Postcode": "16200",
        "Location": "Pejabat Belia Dan Sukan",
        "Post_Office": "Tumpat",
        "State": "Kelantan"
    },
    {
        "Postcode": "16200",
        "Location": "Pejabat Fama",
        "Post_Office": "Tumpat",
        "State": "Kelantan"
    },
    {
        "Postcode": "16200",
        "Location": "Pejabat Haiwan",
        "Post_Office": "Tumpat",
        "State": "Kelantan"
    },
    {
        "Postcode": "16200",
        "Location": "Pejabat Jasa",
        "Post_Office": "Tumpat",
        "State": "Kelantan"
    },
    {
        "Postcode": "16200",
        "Location": "Pejabat Jkr",
        "Post_Office": "Tumpat",
        "State": "Kelantan"
    },
    {
        "Postcode": "16200",
        "Location": "Pejabat Jps",
        "Post_Office": "Tumpat",
        "State": "Kelantan"
    },
    {
        "Postcode": "16200",
        "Location": "Pejabat Kadi",
        "Post_Office": "Tumpat",
        "State": "Kelantan"
    },
    {
        "Postcode": "16200",
        "Location": "Pejabat Kebajikan Masyarakat",
        "Post_Office": "Tumpat",
        "State": "Kelantan"
    },
    {
        "Postcode": "16200",
        "Location": "Pejabat Kemas",
        "Post_Office": "Tumpat",
        "State": "Kelantan"
    },
    {
        "Postcode": "16200",
        "Location": "Pejabat Kesihatan Tumpat",
        "Post_Office": "Tumpat",
        "State": "Kelantan"
    },
    {
        "Postcode": "16200",
        "Location": "Pejabat Khadi",
        "Post_Office": "Tumpat",
        "State": "Kelantan"
    },
    {
        "Postcode": "16200",
        "Location": "Pejabat Peladang",
        "Post_Office": "Tumpat",
        "State": "Kelantan"
    },
    {
        "Postcode": "16200",
        "Location": "Pejabat Pendaftaran",
        "Post_Office": "Tumpat",
        "State": "Kelantan"
    },
    {
        "Postcode": "16200",
        "Location": "Pejabat Perikanan Tumpat",
        "Post_Office": "Tumpat",
        "State": "Kelantan"
    },
    {
        "Postcode": "16200",
        "Location": "Pejabat Perpaduan",
        "Post_Office": "Tumpat",
        "State": "Kelantan"
    },
    {
        "Postcode": "16200",
        "Location": "Pejabat Pertanian",
        "Post_Office": "Tumpat",
        "State": "Kelantan"
    },
    {
        "Postcode": "16200",
        "Location": "Pejabat Rela",
        "Post_Office": "Tumpat",
        "State": "Kelantan"
    },
    {
        "Postcode": "16200",
        "Location": "Pejabat Tanah Dan Jajahan",
        "Post_Office": "Tumpat",
        "State": "Kelantan"
    },
    {
        "Postcode": "16200",
        "Location": "Pejabat Umno",
        "Post_Office": "Tumpat",
        "State": "Kelantan"
    },
    {
        "Postcode": "16200",
        "Location": "Perumahan Jubakar Pantai",
        "Post_Office": "Tumpat",
        "State": "Kelantan"
    },
    {
        "Postcode": "16200",
        "Location": "Pulau China",
        "Post_Office": "Tumpat",
        "State": "Kelantan"
    },
    {
        "Postcode": "16200",
        "Location": "Pusat Kesihatan",
        "Post_Office": "Tumpat",
        "State": "Kelantan"
    },
    {
        "Postcode": "16200",
        "Location": "Radicare Tumpat",
        "Post_Office": "Tumpat",
        "State": "Kelantan"
    },
    {
        "Postcode": "16200",
        "Location": "Rumah Ktm",
        "Post_Office": "Tumpat",
        "State": "Kelantan"
    },
    {
        "Postcode": "16200",
        "Location": "Sekolah Arab Bustnal Ariffin",
        "Post_Office": "Tumpat",
        "State": "Kelantan"
    },
    {
        "Postcode": "16200",
        "Location": "Sekolah Arab Dinnah Artabyah",
        "Post_Office": "Tumpat",
        "State": "Kelantan"
    },
    {
        "Postcode": "16200",
        "Location": "Sekolah Cina Yuk Tze",
        "Post_Office": "Tumpat",
        "State": "Kelantan"
    },
    {
        "Postcode": "16200",
        "Location": "Sekolah Kebangsaan Kelaburan",
        "Post_Office": "Tumpat",
        "State": "Kelantan"
    },
    {
        "Postcode": "16200",
        "Location": "Sekolah Menengah Arab Maahad Muhamadi",
        "Post_Office": "Tumpat",
        "State": "Kelantan"
    },
    {
        "Postcode": "16200",
        "Location": "Sekolah Menengah Dato Biji Mangga",
        "Post_Office": "Tumpat",
        "State": "Kelantan"
    },
    {
        "Postcode": "16200",
        "Location": "Sekolah Menengah Kebangsaan",
        "Post_Office": "Tumpat",
        "State": "Kelantan"
    },
    {
        "Postcode": "16200",
        "Location": "Sekolah Menengah Tumpat",
        "Post_Office": "Tumpat",
        "State": "Kelantan"
    },
    {
        "Postcode": "16200",
        "Location": "Sekolah Rendah Sungai Tapang",
        "Post_Office": "Tumpat",
        "State": "Kelantan"
    },
    {
        "Postcode": "16200",
        "Location": "Sekolah Simpangan",
        "Post_Office": "Tumpat",
        "State": "Kelantan"
    },
    {
        "Postcode": "16200",
        "Location": "Stesyen Ktm",
        "Post_Office": "Tumpat",
        "State": "Kelantan"
    },
    {
        "Postcode": "16200",
        "Location": "Taman Harmoni Berangan",
        "Post_Office": "Tumpat",
        "State": "Kelantan"
    },
    {
        "Postcode": "16200",
        "Location": "Taman Kelaburan Jaya",
        "Post_Office": "Tumpat",
        "State": "Kelantan"
    },
    {
        "Postcode": "16200",
        "Location": "Taman Sri Dalam Rhu",
        "Post_Office": "Tumpat",
        "State": "Kelantan"
    },
    {
        "Postcode": "16200",
        "Location": "Telekom Malaysia",
        "Post_Office": "Tumpat",
        "State": "Kelantan"
    },
    {
        "Postcode": "16200",
        "Location": "Tenaga Nasional",
        "Post_Office": "Tumpat",
        "State": "Kelantan"
    }
]
