[
    {
        "Postcode": "16210",
        "Location": "Kampung Jal Kechik",
        "Post_Office": "Tumpat",
        "State": "Kelantan"
    },
    {
        "Postcode": "16210",
        "Location": "Kampung Kubang Batang",
        "Post_Office": "Tumpat",
        "State": "Kelantan"
    },
    {
        "Postcode": "16210",
        "Location": "Kampung Kubang Bemban",
        "Post_Office": "Tumpat",
        "State": "Kelantan"
    },
    {
        "Postcode": "16210",
        "Location": "Taman Sri Bayu",
        "Post_Office": "Tumpat",
        "State": "Kelantan"
    },
    {
        "Postcode": "16210",
        "Location": "Kampung Kuala Jambu",
        "Post_Office": "Tumpat",
        "State": "Kelantan"
    },
    {
        "Postcode": "16210",
        "Location": "Kampung Kubang Sawa",
        "Post_Office": "Tumpat",
        "State": "Kelantan"
    },
    {
        "Postcode": "16210",
        "Location": "Kampung Pohon Tanjung",
        "Post_Office": "Tumpat",
        "State": "Kelantan"
    },
    {
        "Postcode": "16210",
        "Location": "Kampung Telaga Bata",
        "Post_Office": "Tumpat",
        "State": "Kelantan"
    },
    {
        "Postcode": "16210",
        "Location": "Kampung Telok Jering",
        "Post_Office": "Tumpat",
        "State": "Kelantan"
    },
    {
        "Postcode": "16210",
        "Location": "Taman Murni",
        "Post_Office": "Tumpat",
        "State": "Kelantan"
    },
    {
        "Postcode": "16210",
        "Location": "Taman Sri Cahaya",
        "Post_Office": "Tumpat",
        "State": "Kelantan"
    },
    {
        "Postcode": "16210",
        "Location": "Balai Polis Kuala Jambu",
        "Post_Office": "Tumpat",
        "State": "Kelantan"
    },
    {
        "Postcode": "16210",
        "Location": "Balai Polis Padang Mandul",
        "Post_Office": "Tumpat",
        "State": "Kelantan"
    },
    {
        "Postcode": "16210",
        "Location": "Bunohan",
        "Post_Office": "Tumpat",
        "State": "Kelantan"
    },
    {
        "Postcode": "16210",
        "Location": "Chabang Empat (Tumpat)",
        "Post_Office": "Tumpat",
        "State": "Kelantan"
    },
    {
        "Postcode": "16210",
        "Location": "Esso Tumpat",
        "Post_Office": "Tumpat",
        "State": "Kelantan"
    },
    {
        "Postcode": "16210",
        "Location": "Jalan Madrasah Hassan",
        "Post_Office": "Tumpat",
        "State": "Kelantan"
    },
    {
        "Postcode": "16210",
        "Location": "Kampung Alor Che Semail",
        "Post_Office": "Tumpat",
        "State": "Kelantan"
    },
    {
        "Postcode": "16210",
        "Location": "Kampung Anal",
        "Post_Office": "Tumpat",
        "State": "Kelantan"
    },
    {
        "Postcode": "16210",
        "Location": "Kampung Atas Kok Simpangan",
        "Post_Office": "Tumpat",
        "State": "Kelantan"
    },
    {
        "Postcode": "16210",
        "Location": "Kampung Banggol Beta",
        "Post_Office": "Tumpat",
        "State": "Kelantan"
    },
    {
        "Postcode": "16210",
        "Location": "Kampung Bechah Resak",
        "Post_Office": "Tumpat",
        "State": "Kelantan"
    },
    {
        "Postcode": "16210",
        "Location": "Kampung Bendang Luas",
        "Post_Office": "Tumpat",
        "State": "Kelantan"
    },
    {
        "Postcode": "16210",
        "Location": "Kampung Bendang Pak Yong",
        "Post_Office": "Tumpat",
        "State": "Kelantan"
    },
    {
        "Postcode": "16210",
        "Location": "Kampung Bunuhan",
        "Post_Office": "Tumpat",
        "State": "Kelantan"
    },
    {
        "Postcode": "16210",
        "Location": "Kampung Chenerong",
        "Post_Office": "Tumpat",
        "State": "Kelantan"
    },
    {
        "Postcode": "16210",
        "Location": "Kampung Chenerong Kubu",
        "Post_Office": "Tumpat",
        "State": "Kelantan"
    },
    {
        "Postcode": "16210",
        "Location": "Kampung Cherang Melintang",
        "Post_Office": "Tumpat",
        "State": "Kelantan"
    },
    {
        "Postcode": "16210",
        "Location": "Kampung Derdak",
        "Post_Office": "Tumpat",
        "State": "Kelantan"
    },
    {
        "Postcode": "16210",
        "Location": "Kampung Jal Besar",
        "Post_Office": "Tumpat",
        "State": "Kelantan"
    },
    {
        "Postcode": "16210",
        "Location": "Kampung Jambu (Kampung Berok)",
        "Post_Office": "Tumpat",
        "State": "Kelantan"
    },
    {
        "Postcode": "16210",
        "Location": "Kampung Jubakar Darat",
        "Post_Office": "Tumpat",
        "State": "Kelantan"
    },
    {
        "Postcode": "16210",
        "Location": "Kampung Juluk Haji Senik",
        "Post_Office": "Tumpat",
        "State": "Kelantan"
    },
    {
        "Postcode": "16210",
        "Location": "Kampung Juluk Simpangan",
        "Post_Office": "Tumpat",
        "State": "Kelantan"
    },
    {
        "Postcode": "16210",
        "Location": "Kampung Kajang Sebidang",
        "Post_Office": "Tumpat",
        "State": "Kelantan"
    },
    {
        "Postcode": "16210",
        "Location": "Kampung Kok Seraya",
        "Post_Office": "Tumpat",
        "State": "Kelantan"
    },
    {
        "Postcode": "16210",
        "Location": "Kampung Lubuk Durian",
        "Post_Office": "Tumpat",
        "State": "Kelantan"
    },
    {
        "Postcode": "16210",
        "Location": "Kampung Menjual",
        "Post_Office": "Tumpat",
        "State": "Kelantan"
    },
    {
        "Postcode": "16210",
        "Location": "Kampung Naga Ibu",
        "Post_Office": "Tumpat",
        "State": "Kelantan"
    },
    {
        "Postcode": "16210",
        "Location": "Kampung Nechang",
        "Post_Office": "Tumpat",
        "State": "Kelantan"
    },
    {
        "Postcode": "16210",
        "Location": "Kampung Padang Mandol",
        "Post_Office": "Tumpat",
        "State": "Kelantan"
    },
    {
        "Postcode": "16210",
        "Location": "Kampung Pelas Merah",
        "Post_Office": "Tumpat",
        "State": "Kelantan"
    },
    {
        "Postcode": "16210",
        "Location": "Kampung Periok",
        "Post_Office": "Tumpat",
        "State": "Kelantan"
    },
    {
        "Postcode": "16210",
        "Location": "Kampung Simpangan",
        "Post_Office": "Tumpat",
        "State": "Kelantan"
    },
    {
        "Postcode": "16210",
        "Location": "Kampung Talak",
        "Post_Office": "Tumpat",
        "State": "Kelantan"
    },
    {
        "Postcode": "16210",
        "Location": "Kampung To'Oh",
        "Post_Office": "Tumpat",
        "State": "Kelantan"
    },
    {
        "Postcode": "16210",
        "Location": "Klinik Bunuhan",
        "Post_Office": "Tumpat",
        "State": "Kelantan"
    },
    {
        "Postcode": "16210",
        "Location": "Klinik Desa Kampung Telok Jering",
        "Post_Office": "Tumpat",
        "State": "Kelantan"
    },
    {
        "Postcode": "16210",
        "Location": "Klinik Desa Padang Mandul",
        "Post_Office": "Tumpat",
        "State": "Kelantan"
    },
    {
        "Postcode": "16210",
        "Location": "Pejabat Amanah Ikhtiar",
        "Post_Office": "Tumpat",
        "State": "Kelantan"
    },
    {
        "Postcode": "16210",
        "Location": "Pejabat Ltn",
        "Post_Office": "Tumpat",
        "State": "Kelantan"
    },
    {
        "Postcode": "16210",
        "Location": "Ppk Bunga Raya",
        "Post_Office": "Tumpat",
        "State": "Kelantan"
    },
    {
        "Postcode": "16210",
        "Location": "Sekolah Kebangsaan Batang",
        "Post_Office": "Tumpat",
        "State": "Kelantan"
    },
    {
        "Postcode": "16210",
        "Location": "Sekolah Kebangsaan Bendang Payung",
        "Post_Office": "Tumpat",
        "State": "Kelantan"
    },
    {
        "Postcode": "16210",
        "Location": "Sekolah Kebangsaan Bunuhan",
        "Post_Office": "Tumpat",
        "State": "Kelantan"
    },
    {
        "Postcode": "16210",
        "Location": "Sekolah Kebangsaan Kubang Batang",
        "Post_Office": "Tumpat",
        "State": "Kelantan"
    },
    {
        "Postcode": "16210",
        "Location": "Sekolah Kebangsaan Padang Mandul",
        "Post_Office": "Tumpat",
        "State": "Kelantan"
    },
    {
        "Postcode": "16210",
        "Location": "Sekolah Kebangsaan Telok Jering",
        "Post_Office": "Tumpat",
        "State": "Kelantan"
    },
    {
        "Postcode": "16210",
        "Location": "Taman Baiduri",
        "Post_Office": "Tumpat",
        "State": "Kelantan"
    },
    {
        "Postcode": "16210",
        "Location": "Taman Bunga Raya",
        "Post_Office": "Tumpat",
        "State": "Kelantan"
    },
    {
        "Postcode": "16210",
        "Location": "Taman Cherang Jaya",
        "Post_Office": "Tumpat",
        "State": "Kelantan"
    },
    {
        "Postcode": "16210",
        "Location": "Taman Desa Mulia",
        "Post_Office": "Tumpat",
        "State": "Kelantan"
    },
    {
        "Postcode": "16210",
        "Location": "Taman Kok Seraya",
        "Post_Office": "Tumpat",
        "State": "Kelantan"
    },
    {
        "Postcode": "16210",
        "Location": "Taman Sofia",
        "Post_Office": "Tumpat",
        "State": "Kelantan"
    },
    {
        "Postcode": "16210",
        "Location": "Tumpat",
        "Post_Office": "Tumpat",
        "State": "Kelantan"
    }
]
