[
    {
        "Postcode": "16300",
        "Location": "Kampung Rengas",
        "Post_Office": "Bachok",
        "State": "Kelantan"
    },
    {
        "Postcode": "16300",
        "Location": "Jalan Belakang Masjid",
        "Post_Office": "Bachok",
        "State": "Kelantan"
    },
    {
        "Postcode": "16300",
        "Location": "Jalan Pasar Lama",
        "Post_Office": "Bachok",
        "State": "Kelantan"
    },
    {
        "Postcode": "16300",
        "Location": "Kampung Lubok Lesong",
        "Post_Office": "Bachok",
        "State": "Kelantan"
    },
    {
        "Postcode": "16300",
        "Location": "Kampung Padang",
        "Post_Office": "Bachok",
        "State": "Kelantan"
    },
    {
        "Postcode": "16300",
        "Location": "Kampung Padang Lalang",
        "Post_Office": "Bachok",
        "State": "Kelantan"
    },
    {
        "Postcode": "16300",
        "Location": "Kampung Perupok",
        "Post_Office": "Bachok",
        "State": "Kelantan"
    },
    {
        "Postcode": "16300",
        "Location": "Kampung Pohon Tanjung",
        "Post_Office": "Bachok",
        "State": "Kelantan"
    },
    {
        "Postcode": "16300",
        "Location": "Kampung Sungai",
        "Post_Office": "Bachok",
        "State": "Kelantan"
    },
    {
        "Postcode": "16300",
        "Location": "Kampung Surau",
        "Post_Office": "Bachok",
        "State": "Kelantan"
    },
    {
        "Postcode": "16300",
        "Location": "Kampung Telok",
        "Post_Office": "Bachok",
        "State": "Kelantan"
    },
    {
        "Postcode": "16300",
        "Location": "Kampung Tengah",
        "Post_Office": "Bachok",
        "State": "Kelantan"
    },
    {
        "Postcode": "16300",
        "Location": "Bachok",
        "Post_Office": "Bachok",
        "State": "Kelantan"
    },
    {
        "Postcode": "16300",
        "Location": "Chabang 4 Kampung Panjang",
        "Post_Office": "Bachok",
        "State": "Kelantan"
    },
    {
        "Postcode": "16300",
        "Location": "Jalan Kampung Kemasin",
        "Post_Office": "Bachok",
        "State": "Kelantan"
    },
    {
        "Postcode": "16300",
        "Location": "Jalan Kampung Panjang",
        "Post_Office": "Bachok",
        "State": "Kelantan"
    },
    {
        "Postcode": "16300",
        "Location": "Jalan Kampung Sungai Hilir",
        "Post_Office": "Bachok",
        "State": "Kelantan"
    },
    {
        "Postcode": "16300",
        "Location": "Jalan Masjid Besar",
        "Post_Office": "Bachok",
        "State": "Kelantan"
    },
    {
        "Postcode": "16300",
        "Location": "Jalan Nakhoda Saamah",
        "Post_Office": "Bachok",
        "State": "Kelantan"
    },
    {
        "Postcode": "16300",
        "Location": "Jalan Pak Nik Jid",
        "Post_Office": "Bachok",
        "State": "Kelantan"
    },
    {
        "Postcode": "16300",
        "Location": "Jalan Pantai Damat",
        "Post_Office": "Bachok",
        "State": "Kelantan"
    },
    {
        "Postcode": "16300",
        "Location": "Jalan Pasar Besar",
        "Post_Office": "Bachok",
        "State": "Kelantan"
    },
    {
        "Postcode": "16300",
        "Location": "Jalan Pengkalan Haji Ali",
        "Post_Office": "Bachok",
        "State": "Kelantan"
    },
    {
        "Postcode": "16300",
        "Location": "Jalan Tawang Kampung Balai",
        "Post_Office": "Bachok",
        "State": "Kelantan"
    },
    {
        "Postcode": "16300",
        "Location": "Jalan Tempoyak",
        "Post_Office": "Bachok",
        "State": "Kelantan"
    },
    {
        "Postcode": "16300",
        "Location": "Jalan Tengku Abdul Hamid",
        "Post_Office": "Bachok",
        "State": "Kelantan"
    },
    {
        "Postcode": "16300",
        "Location": "Kampung Alor Jeringau",
        "Post_Office": "Bachok",
        "State": "Kelantan"
    },
    {
        "Postcode": "16300",
        "Location": "Kampung Anjur Kuala Nipah",
        "Post_Office": "Bachok",
        "State": "Kelantan"
    },
    {
        "Postcode": "16300",
        "Location": "Kampung Badak",
        "Post_Office": "Bachok",
        "State": "Kelantan"
    },
    {
        "Postcode": "16300",
        "Location": "Kampung Badak Bachok",
        "Post_Office": "Bachok",
        "State": "Kelantan"
    },
    {
        "Postcode": "16300",
        "Location": "Kampung Badak Batu 19",
        "Post_Office": "Bachok",
        "State": "Kelantan"
    },
    {
        "Postcode": "16300",
        "Location": "Kampung Badak Batu 19 1/2",
        "Post_Office": "Bachok",
        "State": "Kelantan"
    },
    {
        "Postcode": "16300",
        "Location": "Kampung Balai",
        "Post_Office": "Bachok",
        "State": "Kelantan"
    },
    {
        "Postcode": "16300",
        "Location": "Kampung Balai/Padang Balai",
        "Post_Office": "Bachok",
        "State": "Kelantan"
    },
    {
        "Postcode": "16300",
        "Location": "Kampung Baru Jalan Nipah",
        "Post_Office": "Bachok",
        "State": "Kelantan"
    },
    {
        "Postcode": "16300",
        "Location": "Kampung Batu 19 (Kemudi)",
        "Post_Office": "Bachok",
        "State": "Kelantan"
    },
    {
        "Postcode": "16300",
        "Location": "Kampung Batu 19 1/2 (Kemudi)",
        "Post_Office": "Bachok",
        "State": "Kelantan"
    },
    {
        "Postcode": "16300",
        "Location": "Kampung Batu 19 3/4 (Kemudi)",
        "Post_Office": "Bachok",
        "State": "Kelantan"
    },
    {
        "Postcode": "16300",
        "Location": "Kampung Batu 20 (Kemudi)",
        "Post_Office": "Bachok",
        "State": "Kelantan"
    },
    {
        "Postcode": "16300",
        "Location": "Kampung Batu 20 1/2 - Kemudi",
        "Post_Office": "Bachok",
        "State": "Kelantan"
    },
    {
        "Postcode": "16300",
        "Location": "Kampung Belakang Pondok",
        "Post_Office": "Bachok",
        "State": "Kelantan"
    },
    {
        "Postcode": "16300",
        "Location": "Kampung Chabang 4 Rekang",
        "Post_Office": "Bachok",
        "State": "Kelantan"
    },
    {
        "Postcode": "16300",
        "Location": "Kampung Changgong",
        "Post_Office": "Bachok",
        "State": "Kelantan"
    },
    {
        "Postcode": "16300",
        "Location": "Kampung Chong",
        "Post_Office": "Bachok",
        "State": "Kelantan"
    },
    {
        "Postcode": "16300",
        "Location": "Kampung Damat",
        "Post_Office": "Bachok",
        "State": "Kelantan"
    },
    {
        "Postcode": "16300",
        "Location": "Kampung Daramain",
        "Post_Office": "Bachok",
        "State": "Kelantan"
    },
    {
        "Postcode": "16300",
        "Location": "Kampung Gong Gajah",
        "Post_Office": "Bachok",
        "State": "Kelantan"
    },
    {
        "Postcode": "16300",
        "Location": "Kampung Haji Jusoh",
        "Post_Office": "Bachok",
        "State": "Kelantan"
    },
    {
        "Postcode": "16300",
        "Location": "Kampung Jering",
        "Post_Office": "Bachok",
        "State": "Kelantan"
    },
    {
        "Postcode": "16300",
        "Location": "Kampung Kelompang",
        "Post_Office": "Bachok",
        "State": "Kelantan"
    },
    {
        "Postcode": "16300",
        "Location": "Kampung Kemasin",
        "Post_Office": "Bachok",
        "State": "Kelantan"
    },
    {
        "Postcode": "16300",
        "Location": "Kampung Kemudi",
        "Post_Office": "Bachok",
        "State": "Kelantan"
    },
    {
        "Postcode": "16300",
        "Location": "Kampung Kemudi (Km 33)",
        "Post_Office": "Bachok",
        "State": "Kelantan"
    },
    {
        "Postcode": "16300",
        "Location": "Kampung Kolam Padang Nipah",
        "Post_Office": "Bachok",
        "State": "Kelantan"
    },
    {
        "Postcode": "16300",
        "Location": "Kampung Kuala Nipah",
        "Post_Office": "Bachok",
        "State": "Kelantan"
    },
    {
        "Postcode": "16300",
        "Location": "Kampung Kuau",
        "Post_Office": "Bachok",
        "State": "Kelantan"
    },
    {
        "Postcode": "16300",
        "Location": "Kampung Kubang Golok",
        "Post_Office": "Bachok",
        "State": "Kelantan"
    },
    {
        "Postcode": "16300",
        "Location": "Kampung Kubang Kawah",
        "Post_Office": "Bachok",
        "State": "Kelantan"
    },
    {
        "Postcode": "16300",
        "Location": "Kampung Kubur Mundu",
        "Post_Office": "Bachok",
        "State": "Kelantan"
    },
    {
        "Postcode": "16300",
        "Location": "Kampung Kudir",
        "Post_Office": "Bachok",
        "State": "Kelantan"
    },
    {
        "Postcode": "16300",
        "Location": "Kampung Merabang",
        "Post_Office": "Bachok",
        "State": "Kelantan"
    },
    {
        "Postcode": "16300",
        "Location": "Kampung Nakhoda Saamah",
        "Post_Office": "Bachok",
        "State": "Kelantan"
    },
    {
        "Postcode": "16300",
        "Location": "Kampung Nipah",
        "Post_Office": "Bachok",
        "State": "Kelantan"
    },
    {
        "Postcode": "16300",
        "Location": "Kampung Nyior Chabang",
        "Post_Office": "Bachok",
        "State": "Kelantan"
    },
    {
        "Postcode": "16300",
        "Location": "Kampung Padang China",
        "Post_Office": "Bachok",
        "State": "Kelantan"
    },
    {
        "Postcode": "16300",
        "Location": "Kampung Padang Cina Batu 20 1/4",
        "Post_Office": "Bachok",
        "State": "Kelantan"
    },
    {
        "Postcode": "16300",
        "Location": "Kampung Padang Kerasak",
        "Post_Office": "Bachok",
        "State": "Kelantan"
    },
    {
        "Postcode": "16300",
        "Location": "Kampung Padang Melawi",
        "Post_Office": "Bachok",
        "State": "Kelantan"
    },
    {
        "Postcode": "16300",
        "Location": "Kampung Padang Nipah",
        "Post_Office": "Bachok",
        "State": "Kelantan"
    },
    {
        "Postcode": "16300",
        "Location": "Kampung Padang Sekolah",
        "Post_Office": "Bachok",
        "State": "Kelantan"
    },
    {
        "Postcode": "16300",
        "Location": "Kampung Pagar Raja",
        "Post_Office": "Bachok",
        "State": "Kelantan"
    },
    {
        "Postcode": "16300",
        "Location": "Kampung Panjang",
        "Post_Office": "Bachok",
        "State": "Kelantan"
    },
    {
        "Postcode": "16300",
        "Location": "Kampung Panjang Perupok",
        "Post_Office": "Bachok",
        "State": "Kelantan"
    },
    {
        "Postcode": "16300",
        "Location": "Kampung Pantai Baru",
        "Post_Office": "Bachok",
        "State": "Kelantan"
    },
    {
        "Postcode": "16300",
        "Location": "Kampung Pantai Chap",
        "Post_Office": "Bachok",
        "State": "Kelantan"
    },
    {
        "Postcode": "16300",
        "Location": "Kampung Pantai Chat",
        "Post_Office": "Bachok",
        "State": "Kelantan"
    },
    {
        "Postcode": "16300",
        "Location": "Kampung Pantai Damat",
        "Post_Office": "Bachok",
        "State": "Kelantan"
    },
    {
        "Postcode": "16300",
        "Location": "Kampung Pantai Damat Pagar Raja",
        "Post_Office": "Bachok",
        "State": "Kelantan"
    },
    {
        "Postcode": "16300",
        "Location": "Kampung Pengkalan Che Senik",
        "Post_Office": "Bachok",
        "State": "Kelantan"
    },
    {
        "Postcode": "16300",
        "Location": "Kampung Pengkalan Chengal",
        "Post_Office": "Bachok",
        "State": "Kelantan"
    },
    {
        "Postcode": "16300",
        "Location": "Kampung Pulau Belongan",
        "Post_Office": "Bachok",
        "State": "Kelantan"
    },
    {
        "Postcode": "16300",
        "Location": "Kampung Rekang Hilir",
        "Post_Office": "Bachok",
        "State": "Kelantan"
    },
    {
        "Postcode": "16300",
        "Location": "Kampung Rekang Hulu",
        "Post_Office": "Bachok",
        "State": "Kelantan"
    },
    {
        "Postcode": "16300",
        "Location": "Kampung Rekang Tengah",
        "Post_Office": "Bachok",
        "State": "Kelantan"
    },
    {
        "Postcode": "16300",
        "Location": "Kampung Sungai Hulu",
        "Post_Office": "Bachok",
        "State": "Kelantan"
    },
    {
        "Postcode": "16300",
        "Location": "Kampung Tal",
        "Post_Office": "Bachok",
        "State": "Kelantan"
    },
    {
        "Postcode": "16300",
        "Location": "Kampung Tebing Roboh",
        "Post_Office": "Bachok",
        "State": "Kelantan"
    },
    {
        "Postcode": "16300",
        "Location": "Kampung Telaga Gerai",
        "Post_Office": "Bachok",
        "State": "Kelantan"
    },
    {
        "Postcode": "16300",
        "Location": "Kampung Telok Merbau",
        "Post_Office": "Bachok",
        "State": "Kelantan"
    },
    {
        "Postcode": "16300",
        "Location": "Kampung Tempoyak",
        "Post_Office": "Bachok",
        "State": "Kelantan"
    },
    {
        "Postcode": "16300",
        "Location": "Kampung Tiang Tok Sah",
        "Post_Office": "Bachok",
        "State": "Kelantan"
    },
    {
        "Postcode": "16300",
        "Location": "Kampung Titian Tok Sah",
        "Post_Office": "Bachok",
        "State": "Kelantan"
    },
    {
        "Postcode": "16300",
        "Location": "Kampung Tok Burung",
        "Post_Office": "Bachok",
        "State": "Kelantan"
    },
    {
        "Postcode": "16300",
        "Location": "Kampung Tok Dasah",
        "Post_Office": "Bachok",
        "State": "Kelantan"
    },
    {
        "Postcode": "16300",
        "Location": "Kampung Tukang Berahim",
        "Post_Office": "Bachok",
        "State": "Kelantan"
    },
    {
        "Postcode": "16300",
        "Location": "Kampung Wakaf Jamaluddin",
        "Post_Office": "Bachok",
        "State": "Kelantan"
    },
    {
        "Postcode": "16300",
        "Location": "Kampung Wakaf Pohon Tanjung",
        "Post_Office": "Bachok",
        "State": "Kelantan"
    },
    {
        "Postcode": "16300",
        "Location": "Lorong Iman",
        "Post_Office": "Bachok",
        "State": "Kelantan"
    },
    {
        "Postcode": "16300",
        "Location": "Perumahan Kampung Telok",
        "Post_Office": "Bachok",
        "State": "Kelantan"
    },
    {
        "Postcode": "16300",
        "Location": "Sekolah Kebangsaan Kubang Golok",
        "Post_Office": "Bachok",
        "State": "Kelantan"
    },
    {
        "Postcode": "16300",
        "Location": "Sekolah Kebangsaan Perupok",
        "Post_Office": "Bachok",
        "State": "Kelantan"
    },
    {
        "Postcode": "16300",
        "Location": "Taman Perumahan Perupok",
        "Post_Office": "Bachok",
        "State": "Kelantan"
    },
    {
        "Postcode": "16300",
        "Location": "Taman Perumahan Tok Burong",
        "Post_Office": "Bachok",
        "State": "Kelantan"
    },
    {
        "Postcode": "16300",
        "Location": "Taman Seri Irama",
        "Post_Office": "Bachok",
        "State": "Kelantan"
    },
    {
        "Postcode": "16300",
        "Location": "Taman Seri Kemudi",
        "Post_Office": "Bachok",
        "State": "Kelantan"
    },
    {
        "Postcode": "16300",
        "Location": "Taman Seri Perupok",
        "Post_Office": "Bachok",
        "State": "Kelantan"
    }
]
