[
    {
        "Postcode": "16310",
        "Location": "Kampung Aman",
        "Post_Office": "Bachok",
        "State": "Kelantan"
    },
    {
        "Postcode": "16310",
        "Location": "Kampung Aur",
        "Post_Office": "Bachok",
        "State": "Kelantan"
    },
    {
        "Postcode": "16310",
        "Location": "Kampung Kandis",
        "Post_Office": "Bachok",
        "State": "Kelantan"
    },
    {
        "Postcode": "16310",
        "Location": "Kampung Limau Nipis",
        "Post_Office": "Bachok",
        "State": "Kelantan"
    },
    {
        "Postcode": "16310",
        "Location": "Jalan Pantai Senak",
        "Post_Office": "Bachok",
        "State": "Kelantan"
    },
    {
        "Postcode": "16310",
        "Location": "Gelong Badak Hilir",
        "Post_Office": "Bachok",
        "State": "Kelantan"
    },
    {
        "Postcode": "16310",
        "Location": "Gelong Badak Hulu",
        "Post_Office": "Bachok",
        "State": "Kelantan"
    },
    {
        "Postcode": "16310",
        "Location": "Gelong Badak Tengah",
        "Post_Office": "Bachok",
        "State": "Kelantan"
    },
    {
        "Postcode": "16310",
        "Location": "Kampung Kolam",
        "Post_Office": "Bachok",
        "State": "Kelantan"
    },
    {
        "Postcode": "16310",
        "Location": "Kampung Repek",
        "Post_Office": "Bachok",
        "State": "Kelantan"
    },
    {
        "Postcode": "16310",
        "Location": "Alor Pulai Hujung/Tengah",
        "Post_Office": "Bachok",
        "State": "Kelantan"
    },
    {
        "Postcode": "16310",
        "Location": "Chabang Empat Repek",
        "Post_Office": "Bachok",
        "State": "Kelantan"
    },
    {
        "Postcode": "16310",
        "Location": "Chabang Tiga Melawi",
        "Post_Office": "Bachok",
        "State": "Kelantan"
    },
    {
        "Postcode": "16310",
        "Location": "Chabang Tiga Nenasi",
        "Post_Office": "Bachok",
        "State": "Kelantan"
    },
    {
        "Postcode": "16310",
        "Location": "Cherang Sepulai",
        "Post_Office": "Bachok",
        "State": "Kelantan"
    },
    {
        "Postcode": "16310",
        "Location": "Jalan Kubur Mundu",
        "Post_Office": "Bachok",
        "State": "Kelantan"
    },
    {
        "Postcode": "16310",
        "Location": "Kampung Alor Jeringai",
        "Post_Office": "Bachok",
        "State": "Kelantan"
    },
    {
        "Postcode": "16310",
        "Location": "Kampung Anak Rhu",
        "Post_Office": "Bachok",
        "State": "Kelantan"
    },
    {
        "Postcode": "16310",
        "Location": "Kampung Aur Darat",
        "Post_Office": "Bachok",
        "State": "Kelantan"
    },
    {
        "Postcode": "16310",
        "Location": "Kampung Baru Hujung Repek",
        "Post_Office": "Bachok",
        "State": "Kelantan"
    },
    {
        "Postcode": "16310",
        "Location": "Kampung Bayas",
        "Post_Office": "Bachok",
        "State": "Kelantan"
    },
    {
        "Postcode": "16310",
        "Location": "Kampung Cherang Sepulai",
        "Post_Office": "Bachok",
        "State": "Kelantan"
    },
    {
        "Postcode": "16310",
        "Location": "Kampung Gong Nyatoh",
        "Post_Office": "Bachok",
        "State": "Kelantan"
    },
    {
        "Postcode": "16310",
        "Location": "Kampung Jelawat Jalan Mujur",
        "Post_Office": "Bachok",
        "State": "Kelantan"
    },
    {
        "Postcode": "16310",
        "Location": "Kampung Kuala Gel",
        "Post_Office": "Bachok",
        "State": "Kelantan"
    },
    {
        "Postcode": "16310",
        "Location": "Kampung Kuala Melawi",
        "Post_Office": "Bachok",
        "State": "Kelantan"
    },
    {
        "Postcode": "16310",
        "Location": "Kampung Kuala Rekang",
        "Post_Office": "Bachok",
        "State": "Kelantan"
    },
    {
        "Postcode": "16310",
        "Location": "Kampung Melawi",
        "Post_Office": "Bachok",
        "State": "Kelantan"
    },
    {
        "Postcode": "16310",
        "Location": "Kampung Mujur",
        "Post_Office": "Bachok",
        "State": "Kelantan"
    },
    {
        "Postcode": "16310",
        "Location": "Kampung Mundu",
        "Post_Office": "Bachok",
        "State": "Kelantan"
    },
    {
        "Postcode": "16310",
        "Location": "Kampung Nyior Cabang",
        "Post_Office": "Bachok",
        "State": "Kelantan"
    },
    {
        "Postcode": "16310",
        "Location": "Kampung Projek Nelayan",
        "Post_Office": "Bachok",
        "State": "Kelantan"
    },
    {
        "Postcode": "16310",
        "Location": "Kampung Ru Muda",
        "Post_Office": "Bachok",
        "State": "Kelantan"
    },
    {
        "Postcode": "16310",
        "Location": "Kampung Serdang Baru",
        "Post_Office": "Bachok",
        "State": "Kelantan"
    },
    {
        "Postcode": "16310",
        "Location": "Kampung Sri Manja",
        "Post_Office": "Bachok",
        "State": "Kelantan"
    },
    {
        "Postcode": "16310",
        "Location": "Kampung Sungai Dua",
        "Post_Office": "Bachok",
        "State": "Kelantan"
    },
    {
        "Postcode": "16310",
        "Location": "Kampung Teka Air Merah",
        "Post_Office": "Bachok",
        "State": "Kelantan"
    },
    {
        "Postcode": "16310",
        "Location": "Kampung Telong",
        "Post_Office": "Bachok",
        "State": "Kelantan"
    },
    {
        "Postcode": "16310",
        "Location": "Kampung Titian Lunas",
        "Post_Office": "Bachok",
        "State": "Kelantan"
    },
    {
        "Postcode": "16310",
        "Location": "Kampung Titian Tajam",
        "Post_Office": "Bachok",
        "State": "Kelantan"
    },
    {
        "Postcode": "16310",
        "Location": "Kampung Tok Kederat",
        "Post_Office": "Bachok",
        "State": "Kelantan"
    },
    {
        "Postcode": "16310",
        "Location": "Kuala Gel",
        "Post_Office": "Bachok",
        "State": "Kelantan"
    },
    {
        "Postcode": "16310",
        "Location": "Kuala Melawi",
        "Post_Office": "Bachok",
        "State": "Kelantan"
    },
    {
        "Postcode": "16310",
        "Location": "Kuala Rekang",
        "Post_Office": "Bachok",
        "State": "Kelantan"
    },
    {
        "Postcode": "16310",
        "Location": "Lpp Kandis",
        "Post_Office": "Bachok",
        "State": "Kelantan"
    },
    {
        "Postcode": "16310",
        "Location": "Padang Kerasak",
        "Post_Office": "Bachok",
        "State": "Kelantan"
    },
    {
        "Postcode": "16310",
        "Location": "Pantai Melawi",
        "Post_Office": "Bachok",
        "State": "Kelantan"
    },
    {
        "Postcode": "16310",
        "Location": "Pusat Pengajian Pondok",
        "Post_Office": "Bachok",
        "State": "Kelantan"
    },
    {
        "Postcode": "16310",
        "Location": "Sekolah Arab Maidatul Ilmi",
        "Post_Office": "Bachok",
        "State": "Kelantan"
    },
    {
        "Postcode": "16310",
        "Location": "Sekolah Kebangsaan Badak",
        "Post_Office": "Bachok",
        "State": "Kelantan"
    },
    {
        "Postcode": "16310",
        "Location": "Sekolah Kebangsaan Beris Lalang",
        "Post_Office": "Bachok",
        "State": "Kelantan"
    },
    {
        "Postcode": "16310",
        "Location": "Sekolah Kebangsaan Sungai Dua",
        "Post_Office": "Bachok",
        "State": "Kelantan"
    },
    {
        "Postcode": "16310",
        "Location": "Sekolah Menegah Arab Beris Panchor",
        "Post_Office": "Bachok",
        "State": "Kelantan"
    },
    {
        "Postcode": "16310",
        "Location": "Sekolah Menengah Badak",
        "Post_Office": "Bachok",
        "State": "Kelantan"
    },
    {
        "Postcode": "16310",
        "Location": "Sekolah Menengah Kandis",
        "Post_Office": "Bachok",
        "State": "Kelantan"
    },
    {
        "Postcode": "16310",
        "Location": "Taman Chempaka",
        "Post_Office": "Bachok",
        "State": "Kelantan"
    },
    {
        "Postcode": "16310",
        "Location": "Taman Sri Serdang",
        "Post_Office": "Bachok",
        "State": "Kelantan"
    },
    {
        "Postcode": "16310",
        "Location": "Titian Lunas",
        "Post_Office": "Bachok",
        "State": "Kelantan"
    }
]
