[
    {
        "Postcode": "16400",
        "Location": "Kampung Alor Bakat",
        "Post_Office": "Melor",
        "State": "Kelantan"
    },
    {
        "Postcode": "16400",
        "Location": "Kampung Alor Kesom",
        "Post_Office": "Melor",
        "State": "Kelantan"
    },
    {
        "Postcode": "16400",
        "Location": "Kampung Dusun Teratak",
        "Post_Office": "Melor",
        "State": "Kelantan"
    },
    {
        "Postcode": "16400",
        "Location": "Kampung Kolam Kedai Menanti",
        "Post_Office": "Melor",
        "State": "Kelantan"
    },
    {
        "Postcode": "16400",
        "Location": "Kampung Kubang Bonggor Hilir",
        "Post_Office": "Melor",
        "State": "Kelantan"
    },
    {
        "Postcode": "16400",
        "Location": "Kampung Kubang Bonggor Hulu",
        "Post_Office": "Melor",
        "State": "Kelantan"
    },
    {
        "Postcode": "16400",
        "Location": "Kampung Mak Lipah",
        "Post_Office": "Melor",
        "State": "Kelantan"
    },
    {
        "Postcode": "16400",
        "Location": "Kampung Padang Bemban",
        "Post_Office": "Melor",
        "State": "Kelantan"
    },
    {
        "Postcode": "16400",
        "Location": "Kampung Padang Kala",
        "Post_Office": "Melor",
        "State": "Kelantan"
    },
    {
        "Postcode": "16400",
        "Location": "Kampung Padang Raja",
        "Post_Office": "Melor",
        "State": "Kelantan"
    },
    {
        "Postcode": "16400",
        "Location": "Kampung Pak Kuja",
        "Post_Office": "Melor",
        "State": "Kelantan"
    },
    {
        "Postcode": "16400",
        "Location": "Kampung Pak Rahmat",
        "Post_Office": "Melor",
        "State": "Kelantan"
    },
    {
        "Postcode": "16400",
        "Location": "Kampung Sri Kulim",
        "Post_Office": "Melor",
        "State": "Kelantan"
    },
    {
        "Postcode": "16400",
        "Location": "Kampung Tualang Rendah Lama",
        "Post_Office": "Melor",
        "State": "Kelantan"
    },
    {
        "Postcode": "16400",
        "Location": "Kampung Tukul Sungai Jawa",
        "Post_Office": "Melor",
        "State": "Kelantan"
    },
    {
        "Postcode": "16400",
        "Location": "Sekolah Kebangsaan Agama Diniah Peringat",
        "Post_Office": "Melor",
        "State": "Kelantan"
    },
    {
        "Postcode": "16400",
        "Location": "Sekolah Kebangsaan Bechah Keranji",
        "Post_Office": "Melor",
        "State": "Kelantan"
    },
    {
        "Postcode": "16400",
        "Location": "Sekolah Kebangsaan Kolam",
        "Post_Office": "Melor",
        "State": "Kelantan"
    },
    {
        "Postcode": "16400",
        "Location": "Sekolah Kebangsaan Melor",
        "Post_Office": "Melor",
        "State": "Kelantan"
    },
    {
        "Postcode": "16400",
        "Location": "Sekolah Kebangsaan Padang Kala",
        "Post_Office": "Melor",
        "State": "Kelantan"
    },
    {
        "Postcode": "16400",
        "Location": "Sekolah Kebangsaan Padang Mokkan",
        "Post_Office": "Melor",
        "State": "Kelantan"
    },
    {
        "Postcode": "16400",
        "Location": "Sekolah Kebangsaan Pak Badol",
        "Post_Office": "Melor",
        "State": "Kelantan"
    },
    {
        "Postcode": "16400",
        "Location": "Sekolah Kebangsaan Raja Abdullah",
        "Post_Office": "Melor",
        "State": "Kelantan"
    },
    {
        "Postcode": "16400",
        "Location": "Sekolah Kebangsaan Sri Melor",
        "Post_Office": "Melor",
        "State": "Kelantan"
    },
    {
        "Postcode": "16400",
        "Location": "Sekolah Kebangsaan Tergayong",
        "Post_Office": "Melor",
        "State": "Kelantan"
    },
    {
        "Postcode": "16400",
        "Location": "Sekolah Kebangsaan Tualang Tinggi",
        "Post_Office": "Melor",
        "State": "Kelantan"
    },
    {
        "Postcode": "16400",
        "Location": "Sekolah Menengah Arab Kolam",
        "Post_Office": "Melor",
        "State": "Kelantan"
    },
    {
        "Postcode": "16400",
        "Location": "Sekolah Menengah Kebangsaan Agama Azariah",
        "Post_Office": "Melor",
        "State": "Kelantan"
    },
    {
        "Postcode": "16400",
        "Location": "Sekolah Menengah Kebangsaan Agama Melor",
        "Post_Office": "Melor",
        "State": "Kelantan"
    },
    {
        "Postcode": "16400",
        "Location": "Sekolah Menengah Melor",
        "Post_Office": "Melor",
        "State": "Kelantan"
    },
    {
        "Postcode": "16400",
        "Location": "Taman Desa Melor",
        "Post_Office": "Melor",
        "State": "Kelantan"
    },
    {
        "Postcode": "16400",
        "Location": "Taman Desa Rimbunan",
        "Post_Office": "Melor",
        "State": "Kelantan"
    },
    {
        "Postcode": "16400",
        "Location": "Taman Kala Perdana",
        "Post_Office": "Melor",
        "State": "Kelantan"
    },
    {
        "Postcode": "16400",
        "Location": "Taman Mawardah",
        "Post_Office": "Melor",
        "State": "Kelantan"
    },
    {
        "Postcode": "16400",
        "Location": "Taman Mustaqim",
        "Post_Office": "Melor",
        "State": "Kelantan"
    },
    {
        "Postcode": "16400",
        "Location": "Taman Nik Husain",
        "Post_Office": "Melor",
        "State": "Kelantan"
    },
    {
        "Postcode": "16400",
        "Location": "Taman Peringat Putera",
        "Post_Office": "Melor",
        "State": "Kelantan"
    },
    {
        "Postcode": "16400",
        "Location": "Taman Rahmah",
        "Post_Office": "Melor",
        "State": "Kelantan"
    },
    {
        "Postcode": "16400",
        "Location": "Taman Sri Kulim",
        "Post_Office": "Melor",
        "State": "Kelantan"
    },
    {
        "Postcode": "16400",
        "Location": "Taman Sri Melor",
        "Post_Office": "Melor",
        "State": "Kelantan"
    },
    {
        "Postcode": "16400",
        "Location": "Taman Sri Peringat",
        "Post_Office": "Melor",
        "State": "Kelantan"
    },
    {
        "Postcode": "16400",
        "Location": "Kampung Bunut Rendang",
        "Post_Office": "Melor",
        "State": "Kelantan"
    },
    {
        "Postcode": "16400",
        "Location": "Kampung Kubang Gatal",
        "Post_Office": "Melor",
        "State": "Kelantan"
    },
    {
        "Postcode": "16400",
        "Location": "Kampung Parit",
        "Post_Office": "Melor",
        "State": "Kelantan"
    },
    {
        "Postcode": "16400",
        "Location": "Kampung Pauh Butut",
        "Post_Office": "Melor",
        "State": "Kelantan"
    },
    {
        "Postcode": "16400",
        "Location": "Kampung Tukol 1",
        "Post_Office": "Melor",
        "State": "Kelantan"
    },
    {
        "Postcode": "16400",
        "Location": "Kampung Tukol 2",
        "Post_Office": "Melor",
        "State": "Kelantan"
    },
    {
        "Postcode": "16400",
        "Location": "Taman Desa Suria 1",
        "Post_Office": "Melor",
        "State": "Kelantan"
    },
    {
        "Postcode": "16400",
        "Location": "Taman Desa Suria 2",
        "Post_Office": "Melor",
        "State": "Kelantan"
    },
    {
        "Postcode": "16400",
        "Location": "Kampung Bechah Tembusu",
        "Post_Office": "Melor",
        "State": "Kelantan"
    },
    {
        "Postcode": "16400",
        "Location": "Kampung Bemban",
        "Post_Office": "Melor",
        "State": "Kelantan"
    },
    {
        "Postcode": "16400",
        "Location": "Kampung Berangan",
        "Post_Office": "Melor",
        "State": "Kelantan"
    },
    {
        "Postcode": "16400",
        "Location": "Kampung Bukit Kechik",
        "Post_Office": "Melor",
        "State": "Kelantan"
    },
    {
        "Postcode": "16400",
        "Location": "Kampung Gajah Mati",
        "Post_Office": "Melor",
        "State": "Kelantan"
    },
    {
        "Postcode": "16400",
        "Location": "Kampung Kolam",
        "Post_Office": "Melor",
        "State": "Kelantan"
    },
    {
        "Postcode": "16400",
        "Location": "Kampung Lubok Nibong",
        "Post_Office": "Melor",
        "State": "Kelantan"
    },
    {
        "Postcode": "16400",
        "Location": "Kampung Mahligai",
        "Post_Office": "Melor",
        "State": "Kelantan"
    },
    {
        "Postcode": "16400",
        "Location": "Kampung Pengkalan Pauh",
        "Post_Office": "Melor",
        "State": "Kelantan"
    },
    {
        "Postcode": "16400",
        "Location": "Kampung Raja",
        "Post_Office": "Melor",
        "State": "Kelantan"
    },
    {
        "Postcode": "16400",
        "Location": "Kampung Seterpa",
        "Post_Office": "Melor",
        "State": "Kelantan"
    },
    {
        "Postcode": "16400",
        "Location": "Kampung Tegayong",
        "Post_Office": "Melor",
        "State": "Kelantan"
    },
    {
        "Postcode": "16400",
        "Location": "Jalan Pasir Puteh (Km 8 - 12)",
        "Post_Office": "Melor",
        "State": "Kelantan"
    },
    {
        "Postcode": "16400",
        "Location": "Kampung Baru Melor",
        "Post_Office": "Melor",
        "State": "Kelantan"
    },
    {
        "Postcode": "16400",
        "Location": "Kampung Bechah Keranji",
        "Post_Office": "Melor",
        "State": "Kelantan"
    },
    {
        "Postcode": "16400",
        "Location": "Kampung Bechah Kura",
        "Post_Office": "Melor",
        "State": "Kelantan"
    },
    {
        "Postcode": "16400",
        "Location": "Kampung Bechah Mulong",
        "Post_Office": "Melor",
        "State": "Kelantan"
    },
    {
        "Postcode": "16400",
        "Location": "Kampung Bukit Mak Lipah",
        "Post_Office": "Melor",
        "State": "Kelantan"
    },
    {
        "Postcode": "16400",
        "Location": "Kampung Bukit Tanah Peringat",
        "Post_Office": "Melor",
        "State": "Kelantan"
    },
    {
        "Postcode": "16400",
        "Location": "Kampung Gong Amah",
        "Post_Office": "Melor",
        "State": "Kelantan"
    },
    {
        "Postcode": "16400",
        "Location": "Kampung Hutan Buloh",
        "Post_Office": "Melor",
        "State": "Kelantan"
    },
    {
        "Postcode": "16400",
        "Location": "Kampung Hutan Kulim",
        "Post_Office": "Melor",
        "State": "Kelantan"
    },
    {
        "Postcode": "16400",
        "Location": "Kampung Jambu Merah",
        "Post_Office": "Melor",
        "State": "Kelantan"
    },
    {
        "Postcode": "16400",
        "Location": "Kampung Kayu Besar",
        "Post_Office": "Melor",
        "State": "Kelantan"
    },
    {
        "Postcode": "16400",
        "Location": "Kampung Kayu Rendang",
        "Post_Office": "Melor",
        "State": "Kelantan"
    },
    {
        "Postcode": "16400",
        "Location": "Kampung Kedai Baru Padang Kala",
        "Post_Office": "Melor",
        "State": "Kelantan"
    },
    {
        "Postcode": "16400",
        "Location": "Kampung Kolam Bukit Jawa",
        "Post_Office": "Melor",
        "State": "Kelantan"
    },
    {
        "Postcode": "16400",
        "Location": "Kampung Kolam Tembesu",
        "Post_Office": "Melor",
        "State": "Kelantan"
    },
    {
        "Postcode": "16400",
        "Location": "Kampung Kubang Edang",
        "Post_Office": "Melor",
        "State": "Kelantan"
    },
    {
        "Postcode": "16400",
        "Location": "Kampung Kubang Laka",
        "Post_Office": "Melor",
        "State": "Kelantan"
    },
    {
        "Postcode": "16400",
        "Location": "Kampung Kubang Tin",
        "Post_Office": "Melor",
        "State": "Kelantan"
    },
    {
        "Postcode": "16400",
        "Location": "Kampung Kubang Tok Sut",
        "Post_Office": "Melor",
        "State": "Kelantan"
    },
    {
        "Postcode": "16400",
        "Location": "Kampung Kubur Chichak",
        "Post_Office": "Melor",
        "State": "Kelantan"
    },
    {
        "Postcode": "16400",
        "Location": "Kampung Machang Bubuk",
        "Post_Office": "Melor",
        "State": "Kelantan"
    },
    {
        "Postcode": "16400",
        "Location": "Kampung Mak Mayong",
        "Post_Office": "Melor",
        "State": "Kelantan"
    },
    {
        "Postcode": "16400",
        "Location": "Kampung Melor Lama",
        "Post_Office": "Melor",
        "State": "Kelantan"
    },
    {
        "Postcode": "16400",
        "Location": "Kampung Padang Halban",
        "Post_Office": "Melor",
        "State": "Kelantan"
    },
    {
        "Postcode": "16400",
        "Location": "Kampung Padang Lengkuas",
        "Post_Office": "Melor",
        "State": "Kelantan"
    },
    {
        "Postcode": "16400",
        "Location": "Kampung Padang Mengkali",
        "Post_Office": "Melor",
        "State": "Kelantan"
    },
    {
        "Postcode": "16400",
        "Location": "Kampung Padang Merbau",
        "Post_Office": "Melor",
        "State": "Kelantan"
    },
    {
        "Postcode": "16400",
        "Location": "Kampung Padang Mokan",
        "Post_Office": "Melor",
        "State": "Kelantan"
    },
    {
        "Postcode": "16400",
        "Location": "Kampung Padang Murah",
        "Post_Office": "Melor",
        "State": "Kelantan"
    },
    {
        "Postcode": "16400",
        "Location": "Kampung Padang Taman",
        "Post_Office": "Melor",
        "State": "Kelantan"
    },
    {
        "Postcode": "16400",
        "Location": "Kampung Pak Badol",
        "Post_Office": "Melor",
        "State": "Kelantan"
    },
    {
        "Postcode": "16400",
        "Location": "Kampung Pak Badol Hulu",
        "Post_Office": "Melor",
        "State": "Kelantan"
    },
    {
        "Postcode": "16400",
        "Location": "Kampung Pak Koja",
        "Post_Office": "Melor",
        "State": "Kelantan"
    },
    {
        "Postcode": "16400",
        "Location": "Kampung Pak Simpol",
        "Post_Office": "Melor",
        "State": "Kelantan"
    },
    {
        "Postcode": "16400",
        "Location": "Kampung Paloh Peringat",
        "Post_Office": "Melor",
        "State": "Kelantan"
    },
    {
        "Postcode": "16400",
        "Location": "Kampung Pangkal Pisang",
        "Post_Office": "Melor",
        "State": "Kelantan"
    },
    {
        "Postcode": "16400",
        "Location": "Kampung Pelunggur",
        "Post_Office": "Melor",
        "State": "Kelantan"
    },
    {
        "Postcode": "16400",
        "Location": "Kampung Peringat",
        "Post_Office": "Melor",
        "State": "Kelantan"
    },
    {
        "Postcode": "16400",
        "Location": "Kampung Permatang Piah",
        "Post_Office": "Melor",
        "State": "Kelantan"
    },
    {
        "Postcode": "16400",
        "Location": "Kampung Permatang Pusu",
        "Post_Office": "Melor",
        "State": "Kelantan"
    },
    {
        "Postcode": "16400",
        "Location": "Kampung Pohon Barat",
        "Post_Office": "Melor",
        "State": "Kelantan"
    },
    {
        "Postcode": "16400",
        "Location": "Kampung Pohon Keredeh",
        "Post_Office": "Melor",
        "State": "Kelantan"
    },
    {
        "Postcode": "16400",
        "Location": "Kampung Serdang Surau",
        "Post_Office": "Melor",
        "State": "Kelantan"
    },
    {
        "Postcode": "16400",
        "Location": "Kampung Serdang Tua",
        "Post_Office": "Melor",
        "State": "Kelantan"
    },
    {
        "Postcode": "16400",
        "Location": "Kampung Seri Menanti",
        "Post_Office": "Melor",
        "State": "Kelantan"
    },
    {
        "Postcode": "16400",
        "Location": "Kampung Surau Melor",
        "Post_Office": "Melor",
        "State": "Kelantan"
    },
    {
        "Postcode": "16400",
        "Location": "Kampung Tasek Peringat",
        "Post_Office": "Melor",
        "State": "Kelantan"
    },
    {
        "Postcode": "16400",
        "Location": "Kampung Tok Junoh",
        "Post_Office": "Melor",
        "State": "Kelantan"
    },
    {
        "Postcode": "16400",
        "Location": "Kedai Melor",
        "Post_Office": "Melor",
        "State": "Kelantan"
    },
    {
        "Postcode": "16400",
        "Location": "Kedai Menanti",
        "Post_Office": "Melor",
        "State": "Kelantan"
    },
    {
        "Postcode": "16400",
        "Location": "Pondok Mahligai",
        "Post_Office": "Melor",
        "State": "Kelantan"
    },
    {
        "Postcode": "16400",
        "Location": "Serdang Muda",
        "Post_Office": "Melor",
        "State": "Kelantan"
    },
    {
        "Postcode": "16400",
        "Location": "Taman Desa Murni",
        "Post_Office": "Melor",
        "State": "Kelantan"
    },
    {
        "Postcode": "16400",
        "Location": "Taman Ilmu Bukit Kechil",
        "Post_Office": "Melor",
        "State": "Kelantan"
    },
    {
        "Postcode": "16400",
        "Location": "Taman Kerjasama (Padang Kala)",
        "Post_Office": "Melor",
        "State": "Kelantan"
    },
    {
        "Postcode": "16400",
        "Location": "Taman Seri Peringat",
        "Post_Office": "Melor",
        "State": "Kelantan"
    },
    {
        "Postcode": "16400",
        "Location": "Taman Sri Wana",
        "Post_Office": "Melor",
        "State": "Kelantan"
    },
    {
        "Postcode": "16400",
        "Location": "Tasek Layang Mandi",
        "Post_Office": "Melor",
        "State": "Kelantan"
    },
    {
        "Postcode": "16400",
        "Location": "Tasek Melor",
        "Post_Office": "Melor",
        "State": "Kelantan"
    },
    {
        "Postcode": "16400",
        "Location": "Tasek Padang Raja",
        "Post_Office": "Melor",
        "State": "Kelantan"
    },
    {
        "Postcode": "16400",
        "Location": "Tok Khalid",
        "Post_Office": "Melor",
        "State": "Kelantan"
    },
    {
        "Postcode": "16400",
        "Location": "Wakaf Tok Wali",
        "Post_Office": "Melor",
        "State": "Kelantan"
    }
]
