[
    {
        "Postcode": "16450",
        "Location": "Chabang Tiga Lubok Paku",
        "Post_Office": "Ketereh",
        "State": "Kelantan"
    },
    {
        "Postcode": "16450",
        "Location": "Chabang Tiga Ts Kuning",
        "Post_Office": "Ketereh",
        "State": "Kelantan"
    },
    {
        "Postcode": "16450",
        "Location": "Chengal",
        "Post_Office": "Ketereh",
        "State": "Kelantan"
    },
    {
        "Postcode": "16450",
        "Location": "Depan Bazzar Mara",
        "Post_Office": "Ketereh",
        "State": "Kelantan"
    },
    {
        "Postcode": "16450",
        "Location": "Depan Jelira Mini Market",
        "Post_Office": "Ketereh",
        "State": "Kelantan"
    },
    {
        "Postcode": "16450",
        "Location": "Depan Kadar Stop",
        "Post_Office": "Ketereh",
        "State": "Kelantan"
    },
    {
        "Postcode": "16450",
        "Location": "Depan Klinik Ketereh",
        "Post_Office": "Ketereh",
        "State": "Kelantan"
    },
    {
        "Postcode": "16450",
        "Location": "Depan Sek Keb Ketereh",
        "Post_Office": "Ketereh",
        "State": "Kelantan"
    },
    {
        "Postcode": "16450",
        "Location": "Depan Smk Kadok",
        "Post_Office": "Ketereh",
        "State": "Kelantan"
    },
    {
        "Postcode": "16450",
        "Location": "Durian Pahit",
        "Post_Office": "Ketereh",
        "State": "Kelantan"
    },
    {
        "Postcode": "16450",
        "Location": "Dusun Rendah",
        "Post_Office": "Ketereh",
        "State": "Kelantan"
    },
    {
        "Postcode": "16450",
        "Location": "Econjaya",
        "Post_Office": "Ketereh",
        "State": "Kelantan"
    },
    {
        "Postcode": "16450",
        "Location": "Hujong Tanjong",
        "Post_Office": "Ketereh",
        "State": "Kelantan"
    },
    {
        "Postcode": "16450",
        "Location": "Hutan Pasir",
        "Post_Office": "Ketereh",
        "State": "Kelantan"
    },
    {
        "Postcode": "16450",
        "Location": "Jakang",
        "Post_Office": "Ketereh",
        "State": "Kelantan"
    },
    {
        "Postcode": "16450",
        "Location": "Jalan Beta Hulu",
        "Post_Office": "Ketereh",
        "State": "Kelantan"
    },
    {
        "Postcode": "16450",
        "Location": "Jalan Datok Kadok",
        "Post_Office": "Ketereh",
        "State": "Kelantan"
    },
    {
        "Postcode": "16450",
        "Location": "Jalan Halim",
        "Post_Office": "Ketereh",
        "State": "Kelantan"
    },
    {
        "Postcode": "16450",
        "Location": "Jalan Hilir Masjid Kadok",
        "Post_Office": "Ketereh",
        "State": "Kelantan"
    },
    {
        "Postcode": "16450",
        "Location": "Jalan Hj Mat Diah",
        "Post_Office": "Ketereh",
        "State": "Kelantan"
    },
    {
        "Postcode": "16450",
        "Location": "Jalan Hujung Tanjung",
        "Post_Office": "Ketereh",
        "State": "Kelantan"
    },
    {
        "Postcode": "16450",
        "Location": "Jalan Kubur Kadok",
        "Post_Office": "Ketereh",
        "State": "Kelantan"
    },
    {
        "Postcode": "16450",
        "Location": "Jalan Kubur Pauh Manis",
        "Post_Office": "Ketereh",
        "State": "Kelantan"
    },
    {
        "Postcode": "16450",
        "Location": "Jalan Lebai Rani",
        "Post_Office": "Ketereh",
        "State": "Kelantan"
    },
    {
        "Postcode": "16450",
        "Location": "Jalan Lubok Jakar",
        "Post_Office": "Ketereh",
        "State": "Kelantan"
    },
    {
        "Postcode": "16450",
        "Location": "Jalan Majlis Dearah Ketereh",
        "Post_Office": "Ketereh",
        "State": "Kelantan"
    },
    {
        "Postcode": "16450",
        "Location": "Jalan Senik",
        "Post_Office": "Ketereh",
        "State": "Kelantan"
    },
    {
        "Postcode": "16450",
        "Location": "Jalan Serendah",
        "Post_Office": "Ketereh",
        "State": "Kelantan"
    },
    {
        "Postcode": "16450",
        "Location": "Jalan Syed Kuning",
        "Post_Office": "Ketereh",
        "State": "Kelantan"
    },
    {
        "Postcode": "16450",
        "Location": "Jalan Taman Majlisdearah Ketereh",
        "Post_Office": "Ketereh",
        "State": "Kelantan"
    },
    {
        "Postcode": "16450",
        "Location": "Jalan Tok Katib",
        "Post_Office": "Ketereh",
        "State": "Kelantan"
    },
    {
        "Postcode": "16450",
        "Location": "Jalan Tok Mufti",
        "Post_Office": "Ketereh",
        "State": "Kelantan"
    },
    {
        "Postcode": "16450",
        "Location": "Kadok",
        "Post_Office": "Ketereh",
        "State": "Kelantan"
    },
    {
        "Postcode": "16450",
        "Location": "Kampung Alor Jala",
        "Post_Office": "Ketereh",
        "State": "Kelantan"
    },
    {
        "Postcode": "16450",
        "Location": "Kampung Alor Kekabu",
        "Post_Office": "Ketereh",
        "State": "Kelantan"
    },
    {
        "Postcode": "16450",
        "Location": "Kampung Alor Mas",
        "Post_Office": "Ketereh",
        "State": "Kelantan"
    },
    {
        "Postcode": "16450",
        "Location": "Kampung Alor Masam",
        "Post_Office": "Ketereh",
        "State": "Kelantan"
    },
    {
        "Postcode": "16450",
        "Location": "Kampung Atas Banggol",
        "Post_Office": "Ketereh",
        "State": "Kelantan"
    },
    {
        "Postcode": "16450",
        "Location": "Kampung Badak Ketereh",
        "Post_Office": "Ketereh",
        "State": "Kelantan"
    },
    {
        "Postcode": "16450",
        "Location": "Kampung Banggol Chichal",
        "Post_Office": "Ketereh",
        "State": "Kelantan"
    },
    {
        "Postcode": "16450",
        "Location": "Kampung Banggol Lepah",
        "Post_Office": "Ketereh",
        "State": "Kelantan"
    },
    {
        "Postcode": "16450",
        "Location": "Kampung Banggol Lewat",
        "Post_Office": "Ketereh",
        "State": "Kelantan"
    },
    {
        "Postcode": "16450",
        "Location": "Kampung Banggol Saman",
        "Post_Office": "Ketereh",
        "State": "Kelantan"
    },
    {
        "Postcode": "16450",
        "Location": "Kampung Banggol Tebakang",
        "Post_Office": "Ketereh",
        "State": "Kelantan"
    },
    {
        "Postcode": "16450",
        "Location": "Kampung Batu 10",
        "Post_Office": "Ketereh",
        "State": "Kelantan"
    },
    {
        "Postcode": "16450",
        "Location": "Kampung Batu Tinggi",
        "Post_Office": "Ketereh",
        "State": "Kelantan"
    },
    {
        "Postcode": "16450",
        "Location": "Kampung Becah Hangus",
        "Post_Office": "Ketereh",
        "State": "Kelantan"
    },
    {
        "Postcode": "16450",
        "Location": "Kampung Belukar Beta Hulu",
        "Post_Office": "Ketereh",
        "State": "Kelantan"
    },
    {
        "Postcode": "16450",
        "Location": "Kampung Belukar Luas",
        "Post_Office": "Ketereh",
        "State": "Kelantan"
    },
    {
        "Postcode": "16450",
        "Location": "Kampung Beta Hulu",
        "Post_Office": "Ketereh",
        "State": "Kelantan"
    },
    {
        "Postcode": "16450",
        "Location": "Kampung Bukit Tegayong",
        "Post_Office": "Ketereh",
        "State": "Kelantan"
    },
    {
        "Postcode": "16450",
        "Location": "Kampung Buloh Poh",
        "Post_Office": "Ketereh",
        "State": "Kelantan"
    },
    {
        "Postcode": "16450",
        "Location": "Kampung Bunut Satut",
        "Post_Office": "Ketereh",
        "State": "Kelantan"
    },
    {
        "Postcode": "16450",
        "Location": "Kampung But",
        "Post_Office": "Ketereh",
        "State": "Kelantan"
    },
    {
        "Postcode": "16450",
        "Location": "Kampung Cekok Serendah",
        "Post_Office": "Ketereh",
        "State": "Kelantan"
    },
    {
        "Postcode": "16450",
        "Location": "Kampung Che Arus",
        "Post_Office": "Ketereh",
        "State": "Kelantan"
    },
    {
        "Postcode": "16450",
        "Location": "Kampung Chetok",
        "Post_Office": "Ketereh",
        "State": "Kelantan"
    },
    {
        "Postcode": "16450",
        "Location": "Kampung Dendang",
        "Post_Office": "Ketereh",
        "State": "Kelantan"
    },
    {
        "Postcode": "16450",
        "Location": "Kampung Dendang Barat",
        "Post_Office": "Ketereh",
        "State": "Kelantan"
    },
    {
        "Postcode": "16450",
        "Location": "Kampung Dendang Timur",
        "Post_Office": "Ketereh",
        "State": "Kelantan"
    },
    {
        "Postcode": "16450",
        "Location": "Kampung Durian Hijau",
        "Post_Office": "Ketereh",
        "State": "Kelantan"
    },
    {
        "Postcode": "16450",
        "Location": "Kampung Durian Rendang",
        "Post_Office": "Ketereh",
        "State": "Kelantan"
    },
    {
        "Postcode": "16450",
        "Location": "Kampung Gondang",
        "Post_Office": "Ketereh",
        "State": "Kelantan"
    },
    {
        "Postcode": "16450",
        "Location": "Kampung Gong Ruyoh",
        "Post_Office": "Ketereh",
        "State": "Kelantan"
    },
    {
        "Postcode": "16450",
        "Location": "Kampung Jakan",
        "Post_Office": "Ketereh",
        "State": "Kelantan"
    },
    {
        "Postcode": "16450",
        "Location": "Kampung Jal",
        "Post_Office": "Ketereh",
        "State": "Kelantan"
    },
    {
        "Postcode": "16450",
        "Location": "Kampung Jelutong",
        "Post_Office": "Ketereh",
        "State": "Kelantan"
    },
    {
        "Postcode": "16450",
        "Location": "Kampung Kadok Dalam",
        "Post_Office": "Ketereh",
        "State": "Kelantan"
    },
    {
        "Postcode": "16450",
        "Location": "Kampung Kadok Luar",
        "Post_Office": "Ketereh",
        "State": "Kelantan"
    },
    {
        "Postcode": "16450",
        "Location": "Kampung Kedai Kadok",
        "Post_Office": "Ketereh",
        "State": "Kelantan"
    },
    {
        "Postcode": "16450",
        "Location": "Kampung Kedai Piah",
        "Post_Office": "Ketereh",
        "State": "Kelantan"
    },
    {
        "Postcode": "16450",
        "Location": "Kampung Kelubi",
        "Post_Office": "Ketereh",
        "State": "Kelantan"
    },
    {
        "Postcode": "16450",
        "Location": "Kampung Kerak Hilir",
        "Post_Office": "Ketereh",
        "State": "Kelantan"
    },
    {
        "Postcode": "16450",
        "Location": "Kampung Kerak Hulu",
        "Post_Office": "Ketereh",
        "State": "Kelantan"
    },
    {
        "Postcode": "16450",
        "Location": "Kampung Kuali",
        "Post_Office": "Ketereh",
        "State": "Kelantan"
    },
    {
        "Postcode": "16450",
        "Location": "Kampung Kubang Geteh",
        "Post_Office": "Ketereh",
        "State": "Kelantan"
    },
    {
        "Postcode": "16450",
        "Location": "Kampung Kubang Kasar",
        "Post_Office": "Ketereh",
        "State": "Kelantan"
    },
    {
        "Postcode": "16450",
        "Location": "Kampung Kubang Kiat",
        "Post_Office": "Ketereh",
        "State": "Kelantan"
    },
    {
        "Postcode": "16450",
        "Location": "Kampung Lama",
        "Post_Office": "Ketereh",
        "State": "Kelantan"
    },
    {
        "Postcode": "16450",
        "Location": "Kampung Lebai Abas",
        "Post_Office": "Ketereh",
        "State": "Kelantan"
    },
    {
        "Postcode": "16450",
        "Location": "Kampung Lebai Ghani",
        "Post_Office": "Ketereh",
        "State": "Kelantan"
    },
    {
        "Postcode": "16450",
        "Location": "Kampung Lima Padang Purut",
        "Post_Office": "Ketereh",
        "State": "Kelantan"
    },
    {
        "Postcode": "16450",
        "Location": "Kampung Lubok Besar",
        "Post_Office": "Ketereh",
        "State": "Kelantan"
    },
    {
        "Postcode": "16450",
        "Location": "Kampung Lubok Bunut",
        "Post_Office": "Ketereh",
        "State": "Kelantan"
    },
    {
        "Postcode": "16450",
        "Location": "Kampung Lundang Paku",
        "Post_Office": "Ketereh",
        "State": "Kelantan"
    },
    {
        "Postcode": "16450",
        "Location": "Kampung Mahang",
        "Post_Office": "Ketereh",
        "State": "Kelantan"
    },
    {
        "Postcode": "16450",
        "Location": "Kampung Membatu",
        "Post_Office": "Ketereh",
        "State": "Kelantan"
    },
    {
        "Postcode": "16450",
        "Location": "Kampung Mulong Kedai Piah",
        "Post_Office": "Ketereh",
        "State": "Kelantan"
    },
    {
        "Postcode": "16450",
        "Location": "Kampung Muring",
        "Post_Office": "Ketereh",
        "State": "Kelantan"
    },
    {
        "Postcode": "16450",
        "Location": "Kampung Padang Kedondong",
        "Post_Office": "Ketereh",
        "State": "Kelantan"
    },
    {
        "Postcode": "16450",
        "Location": "Kampung Padang Lembek",
        "Post_Office": "Ketereh",
        "State": "Kelantan"
    },
    {
        "Postcode": "16450",
        "Location": "Kampung Padang Lepai",
        "Post_Office": "Ketereh",
        "State": "Kelantan"
    },
    {
        "Postcode": "16450",
        "Location": "Kampung Padang Palas",
        "Post_Office": "Ketereh",
        "State": "Kelantan"
    },
    {
        "Postcode": "16450",
        "Location": "Kampung Padang Tok Mat",
        "Post_Office": "Ketereh",
        "State": "Kelantan"
    },
    {
        "Postcode": "16450",
        "Location": "Kampung Pagut",
        "Post_Office": "Ketereh",
        "State": "Kelantan"
    },
    {
        "Postcode": "16450",
        "Location": "Kampung Paloh Rambai",
        "Post_Office": "Ketereh",
        "State": "Kelantan"
    },
    {
        "Postcode": "16450",
        "Location": "Kampung Pangkal Kalong",
        "Post_Office": "Ketereh",
        "State": "Kelantan"
    },
    {
        "Postcode": "16450",
        "Location": "Kampung Pangkal Saga",
        "Post_Office": "Ketereh",
        "State": "Kelantan"
    },
    {
        "Postcode": "16450",
        "Location": "Kampung Panjang",
        "Post_Office": "Ketereh",
        "State": "Kelantan"
    },
    {
        "Postcode": "16450",
        "Location": "Kampung Pasir",
        "Post_Office": "Ketereh",
        "State": "Kelantan"
    },
    {
        "Postcode": "16450",
        "Location": "Kampung Pasir Golok",
        "Post_Office": "Ketereh",
        "State": "Kelantan"
    },
    {
        "Postcode": "16450",
        "Location": "Kampung Patek",
        "Post_Office": "Ketereh",
        "State": "Kelantan"
    },
    {
        "Postcode": "16450",
        "Location": "Kampung Paya Lada",
        "Post_Office": "Ketereh",
        "State": "Kelantan"
    },
    {
        "Postcode": "16450",
        "Location": "Kampung Pondok But",
        "Post_Office": "Ketereh",
        "State": "Kelantan"
    },
    {
        "Postcode": "16450",
        "Location": "Kampung Setan",
        "Post_Office": "Ketereh",
        "State": "Kelantan"
    },
    {
        "Postcode": "16450",
        "Location": "Kampung Setek",
        "Post_Office": "Ketereh",
        "State": "Kelantan"
    },
    {
        "Postcode": "16450",
        "Location": "Kampung Sokor",
        "Post_Office": "Ketereh",
        "State": "Kelantan"
    },
    {
        "Postcode": "16450",
        "Location": "Kampung Stan",
        "Post_Office": "Ketereh",
        "State": "Kelantan"
    },
    {
        "Postcode": "16450",
        "Location": "Kampung Surau Kemubu",
        "Post_Office": "Ketereh",
        "State": "Kelantan"
    },
    {
        "Postcode": "16450",
        "Location": "Kampung Talang",
        "Post_Office": "Ketereh",
        "State": "Kelantan"
    },
    {
        "Postcode": "16450",
        "Location": "Kampung Tasek Kadok",
        "Post_Office": "Ketereh",
        "State": "Kelantan"
    },
    {
        "Postcode": "16450",
        "Location": "Kampung Telok Temporong",
        "Post_Office": "Ketereh",
        "State": "Kelantan"
    },
    {
        "Postcode": "16450",
        "Location": "Kampung Tempoyok",
        "Post_Office": "Ketereh",
        "State": "Kelantan"
    },
    {
        "Postcode": "16450",
        "Location": "Kampung Tok Akil",
        "Post_Office": "Ketereh",
        "State": "Kelantan"
    },
    {
        "Postcode": "16450",
        "Location": "Kampung Tok Akub",
        "Post_Office": "Ketereh",
        "State": "Kelantan"
    },
    {
        "Postcode": "16450",
        "Location": "Kampung Tok Ga",
        "Post_Office": "Ketereh",
        "State": "Kelantan"
    },
    {
        "Postcode": "16450",
        "Location": "Kampung Tok Kong",
        "Post_Office": "Ketereh",
        "State": "Kelantan"
    },
    {
        "Postcode": "16450",
        "Location": "Kampung Tok Langgar",
        "Post_Office": "Ketereh",
        "State": "Kelantan"
    },
    {
        "Postcode": "16450",
        "Location": "Kampung Tok Lebir",
        "Post_Office": "Ketereh",
        "State": "Kelantan"
    },
    {
        "Postcode": "16450",
        "Location": "Kampung Tok Sarah",
        "Post_Office": "Ketereh",
        "State": "Kelantan"
    },
    {
        "Postcode": "16450",
        "Location": "Kedai Kok Lanas",
        "Post_Office": "Ketereh",
        "State": "Kelantan"
    },
    {
        "Postcode": "16450",
        "Location": "Kedai Piah",
        "Post_Office": "Ketereh",
        "State": "Kelantan"
    },
    {
        "Postcode": "16450",
        "Location": "Kedondong",
        "Post_Office": "Ketereh",
        "State": "Kelantan"
    },
    {
        "Postcode": "16450",
        "Location": "Ketereh",
        "Post_Office": "Ketereh",
        "State": "Kelantan"
    },
    {
        "Postcode": "16450",
        "Location": "Kok Lanas",
        "Post_Office": "Ketereh",
        "State": "Kelantan"
    },
    {
        "Postcode": "16450",
        "Location": "Kuala Kemubu",
        "Post_Office": "Ketereh",
        "State": "Kelantan"
    },
    {
        "Postcode": "16450",
        "Location": "Kubang Getah",
        "Post_Office": "Ketereh",
        "State": "Kelantan"
    },
    {
        "Postcode": "16450",
        "Location": "Padang Kedondong",
        "Post_Office": "Ketereh",
        "State": "Kelantan"
    },
    {
        "Postcode": "16450",
        "Location": "Padang Lebai Abas",
        "Post_Office": "Ketereh",
        "State": "Kelantan"
    },
    {
        "Postcode": "16450",
        "Location": "Padang Lepai",
        "Post_Office": "Ketereh",
        "State": "Kelantan"
    },
    {
        "Postcode": "16450",
        "Location": "Padang Simah",
        "Post_Office": "Ketereh",
        "State": "Kelantan"
    },
    {
        "Postcode": "16450",
        "Location": "Padang Upeh",
        "Post_Office": "Ketereh",
        "State": "Kelantan"
    },
    {
        "Postcode": "16450",
        "Location": "Pangkal Kalong",
        "Post_Office": "Ketereh",
        "State": "Kelantan"
    },
    {
        "Postcode": "16450",
        "Location": "Pasar Kok Lanas",
        "Post_Office": "Ketereh",
        "State": "Kelantan"
    },
    {
        "Postcode": "16450",
        "Location": "Paya Lada",
        "Post_Office": "Ketereh",
        "State": "Kelantan"
    },
    {
        "Postcode": "16450",
        "Location": "Taman Atira",
        "Post_Office": "Ketereh",
        "State": "Kelantan"
    },
    {
        "Postcode": "16450",
        "Location": "Taman Bechah Paku",
        "Post_Office": "Ketereh",
        "State": "Kelantan"
    },
    {
        "Postcode": "16450",
        "Location": "Taman Bentara Jaya",
        "Post_Office": "Ketereh",
        "State": "Kelantan"
    },
    {
        "Postcode": "16450",
        "Location": "Taman Binjai Manis",
        "Post_Office": "Ketereh",
        "State": "Kelantan"
    },
    {
        "Postcode": "16450",
        "Location": "Taman Bukit Idaman",
        "Post_Office": "Ketereh",
        "State": "Kelantan"
    },
    {
        "Postcode": "16450",
        "Location": "Taman Che Gu Ab Rahman ",
        "Post_Office": "Ketereh",
        "State": "Kelantan"
    },
    {
        "Postcode": "16450",
        "Location": "Taman Che Yusof",
        "Post_Office": "Ketereh",
        "State": "Kelantan"
    },
    {
        "Postcode": "16450",
        "Location": "Taman D2",
        "Post_Office": "Ketereh",
        "State": "Kelantan"
    },
    {
        "Postcode": "16450",
        "Location": "Taman Damai",
        "Post_Office": "Ketereh",
        "State": "Kelantan"
    },
    {
        "Postcode": "16450",
        "Location": "Taman Darul Salam",
        "Post_Office": "Ketereh",
        "State": "Kelantan"
    },
    {
        "Postcode": "16450",
        "Location": "Taman Desa Baru (Kok Lanas)",
        "Post_Office": "Ketereh",
        "State": "Kelantan"
    },
    {
        "Postcode": "16450",
        "Location": "Taman Desa Pahlawan",
        "Post_Office": "Ketereh",
        "State": "Kelantan"
    },
    {
        "Postcode": "16450",
        "Location": "Taman Desa Patek",
        "Post_Office": "Ketereh",
        "State": "Kelantan"
    },
    {
        "Postcode": "16450",
        "Location": "Taman Desa Petaling",
        "Post_Office": "Ketereh",
        "State": "Kelantan"
    },
    {
        "Postcode": "16450",
        "Location": "Taman Desa Satria",
        "Post_Office": "Ketereh",
        "State": "Kelantan"
    },
    {
        "Postcode": "16450",
        "Location": "Taman Desa Sri Ketereh",
        "Post_Office": "Ketereh",
        "State": "Kelantan"
    },
    {
        "Postcode": "16450",
        "Location": "Taman Desa Sri Patek",
        "Post_Office": "Ketereh",
        "State": "Kelantan"
    },
    {
        "Postcode": "16450",
        "Location": "Taman Desa Wangi",
        "Post_Office": "Ketereh",
        "State": "Kelantan"
    },
    {
        "Postcode": "16450",
        "Location": "Taman Fajar",
        "Post_Office": "Ketereh",
        "State": "Kelantan"
    },
    {
        "Postcode": "16450",
        "Location": "Taman Haji Mahadi",
        "Post_Office": "Ketereh",
        "State": "Kelantan"
    },
    {
        "Postcode": "16450",
        "Location": "Taman Haji Mahadi 2",
        "Post_Office": "Ketereh",
        "State": "Kelantan"
    },
    {
        "Postcode": "16450",
        "Location": "Taman Haji Mahadi3 ",
        "Post_Office": "Ketereh",
        "State": "Kelantan"
    },
    {
        "Postcode": "16450",
        "Location": "Taman Haji Ramli",
        "Post_Office": "Ketereh",
        "State": "Kelantan"
    },
    {
        "Postcode": "16450",
        "Location": "Taman Haji Tuan Wook",
        "Post_Office": "Ketereh",
        "State": "Kelantan"
    },
    {
        "Postcode": "16450",
        "Location": "Taman Hamzah",
        "Post_Office": "Ketereh",
        "State": "Kelantan"
    },
    {
        "Postcode": "16450",
        "Location": "Taman Hj Idris",
        "Post_Office": "Ketereh",
        "State": "Kelantan"
    },
    {
        "Postcode": "16450",
        "Location": "Taman Hj Mustapha",
        "Post_Office": "Ketereh",
        "State": "Kelantan"
    },
    {
        "Postcode": "16450",
        "Location": "Taman Ixora",
        "Post_Office": "Ketereh",
        "State": "Kelantan"
    },
    {
        "Postcode": "16450",
        "Location": "Taman Jaksa Pendamai",
        "Post_Office": "Ketereh",
        "State": "Kelantan"
    },
    {
        "Postcode": "16450",
        "Location": "Taman Jalan Jpn",
        "Post_Office": "Ketereh",
        "State": "Kelantan"
    },
    {
        "Postcode": "16450",
        "Location": "Taman Jaya 2",
        "Post_Office": "Ketereh",
        "State": "Kelantan"
    },
    {
        "Postcode": "16450",
        "Location": "Taman Jaza",
        "Post_Office": "Ketereh",
        "State": "Kelantan"
    },
    {
        "Postcode": "16450",
        "Location": "Taman Jpn Kok Lanas",
        "Post_Office": "Ketereh",
        "State": "Kelantan"
    },
    {
        "Postcode": "16450",
        "Location": "Taman Kerak Hulu",
        "Post_Office": "Ketereh",
        "State": "Kelantan"
    },
    {
        "Postcode": "16450",
        "Location": "Taman Kok Lanas Baru",
        "Post_Office": "Ketereh",
        "State": "Kelantan"
    },
    {
        "Postcode": "16450",
        "Location": "Taman Mahang West",
        "Post_Office": "Ketereh",
        "State": "Kelantan"
    },
    {
        "Postcode": "16450",
        "Location": "Taman Makmur",
        "Post_Office": "Ketereh",
        "State": "Kelantan"
    },
    {
        "Postcode": "16450",
        "Location": "Taman Mdkb",
        "Post_Office": "Ketereh",
        "State": "Kelantan"
    },
    {
        "Postcode": "16450",
        "Location": "Taman Mesra2",
        "Post_Office": "Ketereh",
        "State": "Kelantan"
    },
    {
        "Postcode": "16450",
        "Location": "Taman Mgu",
        "Post_Office": "Ketereh",
        "State": "Kelantan"
    },
    {
        "Postcode": "16450",
        "Location": "Taman Mini Melati",
        "Post_Office": "Ketereh",
        "State": "Kelantan"
    },
    {
        "Postcode": "16450",
        "Location": "Taman Nor Ashikin ",
        "Post_Office": "Ketereh",
        "State": "Kelantan"
    },
    {
        "Postcode": "16450",
        "Location": "Taman Patek",
        "Post_Office": "Ketereh",
        "State": "Kelantan"
    },
    {
        "Postcode": "16450",
        "Location": "Taman Perumahan Kampung Lanchang",
        "Post_Office": "Ketereh",
        "State": "Kelantan"
    },
    {
        "Postcode": "16450",
        "Location": "Taman Pinggiran Atira Fasal 1",
        "Post_Office": "Ketereh",
        "State": "Kelantan"
    },
    {
        "Postcode": "16450",
        "Location": "Taman Pinggiran Atira Fasal 2",
        "Post_Office": "Ketereh",
        "State": "Kelantan"
    },
    {
        "Postcode": "16450",
        "Location": "Taman Pinggiran Atira Fasal 3",
        "Post_Office": "Ketereh",
        "State": "Kelantan"
    },
    {
        "Postcode": "16450",
        "Location": "Taman Puspa Jaya 2",
        "Post_Office": "Ketereh",
        "State": "Kelantan"
    },
    {
        "Postcode": "16450",
        "Location": "Taman Puspa Jaya A",
        "Post_Office": "Ketereh",
        "State": "Kelantan"
    },
    {
        "Postcode": "16450",
        "Location": "Taman Puspa Jaya B",
        "Post_Office": "Ketereh",
        "State": "Kelantan"
    },
    {
        "Postcode": "16450",
        "Location": "Taman Rg",
        "Post_Office": "Ketereh",
        "State": "Kelantan"
    },
    {
        "Postcode": "16450",
        "Location": "Taman Saidina Ali",
        "Post_Office": "Ketereh",
        "State": "Kelantan"
    },
    {
        "Postcode": "16450",
        "Location": "Taman Seti Kawan",
        "Post_Office": "Ketereh",
        "State": "Kelantan"
    },
    {
        "Postcode": "16450",
        "Location": "Taman Setia Kawan",
        "Post_Office": "Ketereh",
        "State": "Kelantan"
    },
    {
        "Postcode": "16450",
        "Location": "Taman Siti Aminah",
        "Post_Office": "Ketereh",
        "State": "Kelantan"
    },
    {
        "Postcode": "16450",
        "Location": "Taman Sl Anggrik",
        "Post_Office": "Ketereh",
        "State": "Kelantan"
    },
    {
        "Postcode": "16450",
        "Location": "Taman Sl Bakawali",
        "Post_Office": "Ketereh",
        "State": "Kelantan"
    },
    {
        "Postcode": "16450",
        "Location": "Taman Sl Cempaka",
        "Post_Office": "Ketereh",
        "State": "Kelantan"
    },
    {
        "Postcode": "16450",
        "Location": "Taman Sl Hutan Pasir",
        "Post_Office": "Ketereh",
        "State": "Kelantan"
    },
    {
        "Postcode": "16450",
        "Location": "Taman Sp Mahang",
        "Post_Office": "Ketereh",
        "State": "Kelantan"
    },
    {
        "Postcode": "16450",
        "Location": "Taman Sri Binjai",
        "Post_Office": "Ketereh",
        "State": "Kelantan"
    },
    {
        "Postcode": "16450",
        "Location": "Taman Sri Dendang",
        "Post_Office": "Ketereh",
        "State": "Kelantan"
    },
    {
        "Postcode": "16450",
        "Location": "Taman Sri Kadok",
        "Post_Office": "Ketereh",
        "State": "Kelantan"
    },
    {
        "Postcode": "16450",
        "Location": "Taman Sri Kalong",
        "Post_Office": "Ketereh",
        "State": "Kelantan"
    },
    {
        "Postcode": "16450",
        "Location": "Taman Sri Mahang",
        "Post_Office": "Ketereh",
        "State": "Kelantan"
    },
    {
        "Postcode": "16450",
        "Location": "Taman Sri Melati",
        "Post_Office": "Ketereh",
        "State": "Kelantan"
    },
    {
        "Postcode": "16450",
        "Location": "Taman Sri Murni",
        "Post_Office": "Ketereh",
        "State": "Kelantan"
    },
    {
        "Postcode": "16450",
        "Location": "Taman Sri Sepulih",
        "Post_Office": "Ketereh",
        "State": "Kelantan"
    },
    {
        "Postcode": "16450",
        "Location": "Taman Suria",
        "Post_Office": "Ketereh",
        "State": "Kelantan"
    },
    {
        "Postcode": "16450",
        "Location": "Taman Syed Hitam",
        "Post_Office": "Ketereh",
        "State": "Kelantan"
    },
    {
        "Postcode": "16450",
        "Location": "Taman Tenaga",
        "Post_Office": "Ketereh",
        "State": "Kelantan"
    },
    {
        "Postcode": "16450",
        "Location": "Taman Ukhwah",
        "Post_Office": "Ketereh",
        "State": "Kelantan"
    },
    {
        "Postcode": "16450",
        "Location": "Taman Umikalthom",
        "Post_Office": "Ketereh",
        "State": "Kelantan"
    },
    {
        "Postcode": "16450",
        "Location": "Taman Wira Jaya",
        "Post_Office": "Ketereh",
        "State": "Kelantan"
    },
    {
        "Postcode": "16450",
        "Location": "Tamna Mahang Perdana",
        "Post_Office": "Ketereh",
        "State": "Kelantan"
    },
    {
        "Postcode": "16450",
        "Location": "Tanjong Pagar",
        "Post_Office": "Ketereh",
        "State": "Kelantan"
    },
    {
        "Postcode": "16450",
        "Location": "Tanjung Pasir",
        "Post_Office": "Ketereh",
        "State": "Kelantan"
    },
    {
        "Postcode": "16450",
        "Location": "Tasek Ketereh",
        "Post_Office": "Ketereh",
        "State": "Kelantan"
    },
    {
        "Postcode": "16450",
        "Location": "Tempoyak",
        "Post_Office": "Ketereh",
        "State": "Kelantan"
    },
    {
        "Postcode": "16450",
        "Location": "Gertak Sagu",
        "Post_Office": "Ketereh",
        "State": "Kelantan"
    },
    {
        "Postcode": "16450",
        "Location": "Kampung Banggol Pauh",
        "Post_Office": "Ketereh",
        "State": "Kelantan"
    },
    {
        "Postcode": "16450",
        "Location": "Taman Arif",
        "Post_Office": "Ketereh",
        "State": "Kelantan"
    },
    {
        "Postcode": "16450",
        "Location": "Kampung Bunut Susu",
        "Post_Office": "Ketereh",
        "State": "Kelantan"
    },
    {
        "Postcode": "16450",
        "Location": "Kampung Jias",
        "Post_Office": "Ketereh",
        "State": "Kelantan"
    },
    {
        "Postcode": "16450",
        "Location": "Kampung Lubok Kuin",
        "Post_Office": "Ketereh",
        "State": "Kelantan"
    },
    {
        "Postcode": "16450",
        "Location": "Kampung Serendah",
        "Post_Office": "Ketereh",
        "State": "Kelantan"
    },
    {
        "Postcode": "16450",
        "Location": "Taman Beringin",
        "Post_Office": "Ketereh",
        "State": "Kelantan"
    },
    {
        "Postcode": "16450",
        "Location": "Taman Desa Permai",
        "Post_Office": "Ketereh",
        "State": "Kelantan"
    },
    {
        "Postcode": "16450",
        "Location": "Taman Ixora 1",
        "Post_Office": "Ketereh",
        "State": "Kelantan"
    },
    {
        "Postcode": "16450",
        "Location": "Taman Ixora 2",
        "Post_Office": "Ketereh",
        "State": "Kelantan"
    },
    {
        "Postcode": "16450",
        "Location": "Taman Ixora 3",
        "Post_Office": "Ketereh",
        "State": "Kelantan"
    },
    {
        "Postcode": "16450",
        "Location": "Alor Mas",
        "Post_Office": "Ketereh",
        "State": "Kelantan"
    },
    {
        "Postcode": "16450",
        "Location": "Jalan Melor",
        "Post_Office": "Ketereh",
        "State": "Kelantan"
    },
    {
        "Postcode": "16450",
        "Location": "Kampung Alor Lintah",
        "Post_Office": "Ketereh",
        "State": "Kelantan"
    },
    {
        "Postcode": "16450",
        "Location": "Kampung Baloh",
        "Post_Office": "Ketereh",
        "State": "Kelantan"
    },
    {
        "Postcode": "16450",
        "Location": "Kampung Banggol",
        "Post_Office": "Ketereh",
        "State": "Kelantan"
    },
    {
        "Postcode": "16450",
        "Location": "Kampung Batu 11",
        "Post_Office": "Ketereh",
        "State": "Kelantan"
    },
    {
        "Postcode": "16450",
        "Location": "Kampung Belukar",
        "Post_Office": "Ketereh",
        "State": "Kelantan"
    },
    {
        "Postcode": "16450",
        "Location": "Kampung Chekok",
        "Post_Office": "Ketereh",
        "State": "Kelantan"
    },
    {
        "Postcode": "16450",
        "Location": "Kampung Guntong",
        "Post_Office": "Ketereh",
        "State": "Kelantan"
    },
    {
        "Postcode": "16450",
        "Location": "Kampung Kedondong",
        "Post_Office": "Ketereh",
        "State": "Kelantan"
    },
    {
        "Postcode": "16450",
        "Location": "Kampung Kemubu",
        "Post_Office": "Ketereh",
        "State": "Kelantan"
    },
    {
        "Postcode": "16450",
        "Location": "Kampung Kubang Badak",
        "Post_Office": "Ketereh",
        "State": "Kelantan"
    },
    {
        "Postcode": "16450",
        "Location": "Kampung Kubang Kala",
        "Post_Office": "Ketereh",
        "State": "Kelantan"
    },
    {
        "Postcode": "16450",
        "Location": "Kampung Kubang Palas",
        "Post_Office": "Ketereh",
        "State": "Kelantan"
    },
    {
        "Postcode": "16450",
        "Location": "Kampung Lancang",
        "Post_Office": "Ketereh",
        "State": "Kelantan"
    },
    {
        "Postcode": "16450",
        "Location": "Kampung Lubok Lesong",
        "Post_Office": "Ketereh",
        "State": "Kelantan"
    },
    {
        "Postcode": "16450",
        "Location": "Kampung Padang Tengah",
        "Post_Office": "Ketereh",
        "State": "Kelantan"
    },
    {
        "Postcode": "16450",
        "Location": "Kampung Pauh",
        "Post_Office": "Ketereh",
        "State": "Kelantan"
    },
    {
        "Postcode": "16450",
        "Location": "Taman Firdaus",
        "Post_Office": "Ketereh",
        "State": "Kelantan"
    },
    {
        "Postcode": "16450",
        "Location": "Taman Haji Ali",
        "Post_Office": "Ketereh",
        "State": "Kelantan"
    },
    {
        "Postcode": "16450",
        "Location": "Taman Jaya",
        "Post_Office": "Ketereh",
        "State": "Kelantan"
    },
    {
        "Postcode": "16450",
        "Location": "Taman Mesra",
        "Post_Office": "Ketereh",
        "State": "Kelantan"
    },
    {
        "Postcode": "16450",
        "Location": "Taman Restu",
        "Post_Office": "Ketereh",
        "State": "Kelantan"
    },
    {
        "Postcode": "16450",
        "Location": "Taman Sentosa Jaya",
        "Post_Office": "Ketereh",
        "State": "Kelantan"
    },
    {
        "Postcode": "16450",
        "Location": "Taman Sri Cahaya",
        "Post_Office": "Ketereh",
        "State": "Kelantan"
    },
    {
        "Postcode": "16450",
        "Location": "Alor Jalal",
        "Post_Office": "Ketereh",
        "State": "Kelantan"
    },
    {
        "Postcode": "16450",
        "Location": "Banggol Kala",
        "Post_Office": "Ketereh",
        "State": "Kelantan"
    },
    {
        "Postcode": "16450",
        "Location": "Banggol Saman",
        "Post_Office": "Ketereh",
        "State": "Kelantan"
    },
    {
        "Postcode": "16450",
        "Location": "Batu Balai",
        "Post_Office": "Ketereh",
        "State": "Kelantan"
    },
    {
        "Postcode": "16450",
        "Location": "Bechah Hangus",
        "Post_Office": "Ketereh",
        "State": "Kelantan"
    },
    {
        "Postcode": "16450",
        "Location": "Belakang Kada Kadok",
        "Post_Office": "Ketereh",
        "State": "Kelantan"
    },
    {
        "Postcode": "16450",
        "Location": "Belakang Klinik Ketereh",
        "Post_Office": "Ketereh",
        "State": "Kelantan"
    },
    {
        "Postcode": "16450",
        "Location": "Belakang Pasar Kerereh",
        "Post_Office": "Ketereh",
        "State": "Kelantan"
    },
    {
        "Postcode": "16450",
        "Location": "Belukar",
        "Post_Office": "Ketereh",
        "State": "Kelantan"
    },
    {
        "Postcode": "16450",
        "Location": "Belukar Jalan Tali Ayer",
        "Post_Office": "Ketereh",
        "State": "Kelantan"
    },
    {
        "Postcode": "16450",
        "Location": "Belukar Jalan Tar",
        "Post_Office": "Ketereh",
        "State": "Kelantan"
    },
    {
        "Postcode": "16450",
        "Location": "Belukar Kadok",
        "Post_Office": "Ketereh",
        "State": "Kelantan"
    },
    {
        "Postcode": "16450",
        "Location": "Binjal",
        "Post_Office": "Ketereh",
        "State": "Kelantan"
    },
    {
        "Postcode": "16450",
        "Location": "Bukit China",
        "Post_Office": "Ketereh",
        "State": "Kelantan"
    },
    {
        "Postcode": "16450",
        "Location": "Chabang Empat",
        "Post_Office": "Ketereh",
        "State": "Kelantan"
    }
]
