[
    {
        "Postcode": "16500",
        "Location": "Blok (Jkr)",
        "Post_Office": "Kem Desa Pahlawan",
        "State": "Kelantan"
    },
    {
        "Postcode": "16500",
        "Location": "Blok Baru Jalan Masjid",
        "Post_Office": "Kem Desa Pahlawan",
        "State": "Kelantan"
    },
    {
        "Postcode": "16500",
        "Location": "Blok Msspp",
        "Post_Office": "Kem Desa Pahlawan",
        "State": "Kelantan"
    },
    {
        "Postcode": "16500",
        "Location": "Blok Pegawai Waran",
        "Post_Office": "Kem Desa Pahlawan",
        "State": "Kelantan"
    },
    {
        "Postcode": "16500",
        "Location": "Blok Sarjan Msspp",
        "Post_Office": "Kem Desa Pahlawan",
        "State": "Kelantan"
    },
    {
        "Postcode": "16500",
        "Location": "Flat Luar",
        "Post_Office": "Kem Desa Pahlawan",
        "State": "Kelantan"
    },
    {
        "Postcode": "16500",
        "Location": "Kedai Purnama(260)",
        "Post_Office": "Kem Desa Pahlawan",
        "State": "Kelantan"
    },
    {
        "Postcode": "16500",
        "Location": "Kem Desa Pahlawan",
        "Post_Office": "Kem Desa Pahlawan",
        "State": "Kelantan"
    },
    {
        "Postcode": "16500",
        "Location": "Pejabat Jkr",
        "Post_Office": "Kem Desa Pahlawan",
        "State": "Kelantan"
    },
    {
        "Postcode": "16500",
        "Location": "Purnama (262)",
        "Post_Office": "Kem Desa Pahlawan",
        "State": "Kelantan"
    },
    {
        "Postcode": "16500",
        "Location": "Pusat Perhubungan Telekom",
        "Post_Office": "Kem Desa Pahlawan",
        "State": "Kelantan"
    },
    {
        "Postcode": "16500",
        "Location": "Pusat Perubatan",
        "Post_Office": "Kem Desa Pahlawan",
        "State": "Kelantan"
    },
    {
        "Postcode": "16500",
        "Location": "Rkat (Ramd)",
        "Post_Office": "Kem Desa Pahlawan",
        "State": "Kelantan"
    },
    {
        "Postcode": "16500",
        "Location": "Rkat (Renjer)",
        "Post_Office": "Kem Desa Pahlawan",
        "State": "Kelantan"
    },
    {
        "Postcode": "16500",
        "Location": "Sekolah Kebangsaan Desa Pahlawan",
        "Post_Office": "Kem Desa Pahlawan",
        "State": "Kelantan"
    },
    {
        "Postcode": "16500",
        "Location": "Sekolah Kebangsaan Kem Desa Pahlawan",
        "Post_Office": "Kem Desa Pahlawan",
        "State": "Kelantan"
    },
    {
        "Postcode": "16500",
        "Location": "Tok Lebir",
        "Post_Office": "Kem Desa Pahlawan",
        "State": "Kelantan"
    }
]
