[
    {
        "Postcode": "16600",
        "Location": "Baruh Lahar",
        "Post_Office": "Pulai Chondong",
        "State": "Kelantan"
    },
    {
        "Postcode": "16600",
        "Location": "Jalan Galang",
        "Post_Office": "Pulai Chondong",
        "State": "Kelantan"
    },
    {
        "Postcode": "16600",
        "Location": "Jalan Kuari",
        "Post_Office": "Pulai Chondong",
        "State": "Kelantan"
    },
    {
        "Postcode": "16600",
        "Location": "Kampung Alor Melaka",
        "Post_Office": "Pulai Chondong",
        "State": "Kelantan"
    },
    {
        "Postcode": "16600",
        "Location": "Kampung Bagan",
        "Post_Office": "Pulai Chondong",
        "State": "Kelantan"
    },
    {
        "Postcode": "16600",
        "Location": "Kampung Baru Pangkal Gong",
        "Post_Office": "Pulai Chondong",
        "State": "Kelantan"
    },
    {
        "Postcode": "16600",
        "Location": "Kampung Belukar Baru",
        "Post_Office": "Pulai Chondong",
        "State": "Kelantan"
    },
    {
        "Postcode": "16600",
        "Location": "Kampung Bilal Talib",
        "Post_Office": "Pulai Chondong",
        "State": "Kelantan"
    },
    {
        "Postcode": "16600",
        "Location": "Kampung Bukit Ajil",
        "Post_Office": "Pulai Chondong",
        "State": "Kelantan"
    },
    {
        "Postcode": "16600",
        "Location": "Kampung Bukit Ajil Baru",
        "Post_Office": "Pulai Chondong",
        "State": "Kelantan"
    },
    {
        "Postcode": "16600",
        "Location": "Kampung Bukit Bulah",
        "Post_Office": "Pulai Chondong",
        "State": "Kelantan"
    },
    {
        "Postcode": "16600",
        "Location": "Kampung Bukit Jong",
        "Post_Office": "Pulai Chondong",
        "State": "Kelantan"
    },
    {
        "Postcode": "16600",
        "Location": "Kampung China Mata Air",
        "Post_Office": "Pulai Chondong",
        "State": "Kelantan"
    },
    {
        "Postcode": "16600",
        "Location": "Kampung Dalam Kerewet",
        "Post_Office": "Pulai Chondong",
        "State": "Kelantan"
    },
    {
        "Postcode": "16600",
        "Location": "Kampung Dusun Buloh",
        "Post_Office": "Pulai Chondong",
        "State": "Kelantan"
    },
    {
        "Postcode": "16600",
        "Location": "Kampung Gading Galuh",
        "Post_Office": "Pulai Chondong",
        "State": "Kelantan"
    },
    {
        "Postcode": "16600",
        "Location": "Kampung Galang",
        "Post_Office": "Pulai Chondong",
        "State": "Kelantan"
    },
    {
        "Postcode": "16600",
        "Location": "Kampung Jelatuk",
        "Post_Office": "Pulai Chondong",
        "State": "Kelantan"
    },
    {
        "Postcode": "16600",
        "Location": "Kampung Jenereh Bongkok",
        "Post_Office": "Pulai Chondong",
        "State": "Kelantan"
    },
    {
        "Postcode": "16600",
        "Location": "Kampung Kelubi",
        "Post_Office": "Pulai Chondong",
        "State": "Kelantan"
    },
    {
        "Postcode": "16600",
        "Location": "Kampung Kerawang",
        "Post_Office": "Pulai Chondong",
        "State": "Kelantan"
    },
    {
        "Postcode": "16600",
        "Location": "Kampung Kuala Merabang",
        "Post_Office": "Pulai Chondong",
        "State": "Kelantan"
    },
    {
        "Postcode": "16600",
        "Location": "Kampung Kubang Tebit",
        "Post_Office": "Pulai Chondong",
        "State": "Kelantan"
    },
    {
        "Postcode": "16600",
        "Location": "Kampung Kubang Teras",
        "Post_Office": "Pulai Chondong",
        "State": "Kelantan"
    },
    {
        "Postcode": "16600",
        "Location": "Kampung Kura",
        "Post_Office": "Pulai Chondong",
        "State": "Kelantan"
    },
    {
        "Postcode": "16600",
        "Location": "Kampung Lepan Kandis",
        "Post_Office": "Pulai Chondong",
        "State": "Kelantan"
    },
    {
        "Postcode": "16600",
        "Location": "Kampung Lubok Mak Udang",
        "Post_Office": "Pulai Chondong",
        "State": "Kelantan"
    },
    {
        "Postcode": "16600",
        "Location": "Kampung Merbau Chondong",
        "Post_Office": "Pulai Chondong",
        "State": "Kelantan"
    },
    {
        "Postcode": "16600",
        "Location": "Kampung Nyatuh",
        "Post_Office": "Pulai Chondong",
        "State": "Kelantan"
    },
    {
        "Postcode": "16600",
        "Location": "Kampung Panggung",
        "Post_Office": "Pulai Chondong",
        "State": "Kelantan"
    },
    {
        "Postcode": "16600",
        "Location": "Kampung Pangkal Gong",
        "Post_Office": "Pulai Chondong",
        "State": "Kelantan"
    },
    {
        "Postcode": "16600",
        "Location": "Kampung Pangkal Perahu",
        "Post_Office": "Pulai Chondong",
        "State": "Kelantan"
    },
    {
        "Postcode": "16600",
        "Location": "Kampung Pasir Bandar",
        "Post_Office": "Pulai Chondong",
        "State": "Kelantan"
    },
    {
        "Postcode": "16600",
        "Location": "Kampung Pulai Nering",
        "Post_Office": "Pulai Chondong",
        "State": "Kelantan"
    },
    {
        "Postcode": "16600",
        "Location": "Kampung Repoh China",
        "Post_Office": "Pulai Chondong",
        "State": "Kelantan"
    },
    {
        "Postcode": "16600",
        "Location": "Kampung Surau Kerawang",
        "Post_Office": "Pulai Chondong",
        "State": "Kelantan"
    },
    {
        "Postcode": "16600",
        "Location": "Lepan Kandis",
        "Post_Office": "Pulai Chondong",
        "State": "Kelantan"
    },
    {
        "Postcode": "16600",
        "Location": "Lorong Sekolah China",
        "Post_Office": "Pulai Chondong",
        "State": "Kelantan"
    },
    {
        "Postcode": "16600",
        "Location": "Lubok Bintul",
        "Post_Office": "Pulai Chondong",
        "State": "Kelantan"
    },
    {
        "Postcode": "16600",
        "Location": "Padang Pulai Chondong",
        "Post_Office": "Pulai Chondong",
        "State": "Kelantan"
    },
    {
        "Postcode": "16600",
        "Location": "Pejabat Risda",
        "Post_Office": "Pulai Chondong",
        "State": "Kelantan"
    },
    {
        "Postcode": "16600",
        "Location": "Pengkalan Gong Baru",
        "Post_Office": "Pulai Chondong",
        "State": "Kelantan"
    },
    {
        "Postcode": "16600",
        "Location": "Pengkalan Nering",
        "Post_Office": "Pulai Chondong",
        "State": "Kelantan"
    },
    {
        "Postcode": "16600",
        "Location": "Perumahan Gading Galoh",
        "Post_Office": "Pulai Chondong",
        "State": "Kelantan"
    },
    {
        "Postcode": "16600",
        "Location": "Perumahan Kos Rendah Kampung Laha",
        "Post_Office": "Pulai Chondong",
        "State": "Kelantan"
    },
    {
        "Postcode": "16600",
        "Location": "Pulai Chondong",
        "Post_Office": "Pulai Chondong",
        "State": "Kelantan"
    },
    {
        "Postcode": "16600",
        "Location": "Pusat Kesihatan Mata Air",
        "Post_Office": "Pulai Chondong",
        "State": "Kelantan"
    },
    {
        "Postcode": "16600",
        "Location": "Rumah Bidan Kerajaan Kampung Bandar",
        "Post_Office": "Pulai Chondong",
        "State": "Kelantan"
    },
    {
        "Postcode": "16600",
        "Location": "Sekolah Kebangsaan Bendar",
        "Post_Office": "Pulai Chondong",
        "State": "Kelantan"
    },
    {
        "Postcode": "16600",
        "Location": "Sekolah Kebangsaan Mata Air",
        "Post_Office": "Pulai Chondong",
        "State": "Kelantan"
    },
    {
        "Postcode": "16600",
        "Location": "Sekolah Kebangsaan Pulai Nering",
        "Post_Office": "Pulai Chondong",
        "State": "Kelantan"
    },
    {
        "Postcode": "16600",
        "Location": "Jalan Sawmill",
        "Post_Office": "Pulai Chondong",
        "State": "Kelantan"
    },
    {
        "Postcode": "16600",
        "Location": "Kampung Mulong",
        "Post_Office": "Pulai Chondong",
        "State": "Kelantan"
    },
    {
        "Postcode": "16600",
        "Location": "Kampung Pauh Lima",
        "Post_Office": "Pulai Chondong",
        "State": "Kelantan"
    },
    {
        "Postcode": "16600",
        "Location": "Kampung Bandar",
        "Post_Office": "Pulai Chondong",
        "State": "Kelantan"
    },
    {
        "Postcode": "16600",
        "Location": "Kampung Baru",
        "Post_Office": "Pulai Chondong",
        "State": "Kelantan"
    },
    {
        "Postcode": "16600",
        "Location": "Kampung Belukar",
        "Post_Office": "Pulai Chondong",
        "State": "Kelantan"
    },
    {
        "Postcode": "16600",
        "Location": "Kampung Bukit",
        "Post_Office": "Pulai Chondong",
        "State": "Kelantan"
    },
    {
        "Postcode": "16600",
        "Location": "Kampung Chekok",
        "Post_Office": "Pulai Chondong",
        "State": "Kelantan"
    },
    {
        "Postcode": "16600",
        "Location": "Kampung Cherang",
        "Post_Office": "Pulai Chondong",
        "State": "Kelantan"
    },
    {
        "Postcode": "16600",
        "Location": "Kampung Laha",
        "Post_Office": "Pulai Chondong",
        "State": "Kelantan"
    },
    {
        "Postcode": "16600",
        "Location": "Kampung Mata Ayer",
        "Post_Office": "Pulai Chondong",
        "State": "Kelantan"
    },
    {
        "Postcode": "16600",
        "Location": "Kampung Peradong",
        "Post_Office": "Pulai Chondong",
        "State": "Kelantan"
    },
    {
        "Postcode": "16600",
        "Location": "Kampung Surau",
        "Post_Office": "Pulai Chondong",
        "State": "Kelantan"
    }
]
