[
    {
        "Postcode": "16700",
        "Location": "Jalan Cherang Ruku",
        "Post_Office": "Cherang Ruku",
        "State": "Kelantan"
    },
    {
        "Postcode": "16700",
        "Location": "Jalan Gong Manok",
        "Post_Office": "Cherang Ruku",
        "State": "Kelantan"
    },
    {
        "Postcode": "16700",
        "Location": "Jalan Klinik Cherang Ruku",
        "Post_Office": "Cherang Ruku",
        "State": "Kelantan"
    },
    {
        "Postcode": "16700",
        "Location": "Jalan Masjid Taqwa",
        "Post_Office": "Cherang Ruku",
        "State": "Kelantan"
    },
    {
        "Postcode": "16700",
        "Location": "Jalan Pantai Bisikan Bayu",
        "Post_Office": "Cherang Ruku",
        "State": "Kelantan"
    },
    {
        "Postcode": "16700",
        "Location": "Jalan Taman Jaya",
        "Post_Office": "Cherang Ruku",
        "State": "Kelantan"
    },
    {
        "Postcode": "16700",
        "Location": "Jalan Telaga Papan",
        "Post_Office": "Cherang Ruku",
        "State": "Kelantan"
    },
    {
        "Postcode": "16700",
        "Location": "Jalan Tok Bali",
        "Post_Office": "Cherang Ruku",
        "State": "Kelantan"
    },
    {
        "Postcode": "16700",
        "Location": "Kampung Air Tawar",
        "Post_Office": "Cherang Ruku",
        "State": "Kelantan"
    },
    {
        "Postcode": "16700",
        "Location": "Kampung Air Terjun",
        "Post_Office": "Cherang Ruku",
        "State": "Kelantan"
    },
    {
        "Postcode": "16700",
        "Location": "Kampung Anak Sungai",
        "Post_Office": "Cherang Ruku",
        "State": "Kelantan"
    },
    {
        "Postcode": "16700",
        "Location": "Kampung Atas Beris",
        "Post_Office": "Cherang Ruku",
        "State": "Kelantan"
    },
    {
        "Postcode": "16700",
        "Location": "Kampung Beris Baru",
        "Post_Office": "Cherang Ruku",
        "State": "Kelantan"
    },
    {
        "Postcode": "16700",
        "Location": "Kampung Beris Calok",
        "Post_Office": "Cherang Ruku",
        "State": "Kelantan"
    },
    {
        "Postcode": "16700",
        "Location": "Kampung Beris Kelinik",
        "Post_Office": "Cherang Ruku",
        "State": "Kelantan"
    },
    {
        "Postcode": "16700",
        "Location": "Kampung Beris Sepulau",
        "Post_Office": "Cherang Ruku",
        "State": "Kelantan"
    },
    {
        "Postcode": "16700",
        "Location": "Kampung Besar",
        "Post_Office": "Cherang Ruku",
        "State": "Kelantan"
    },
    {
        "Postcode": "16700",
        "Location": "Kampung Bukit Peraksi",
        "Post_Office": "Cherang Ruku",
        "State": "Kelantan"
    },
    {
        "Postcode": "16700",
        "Location": "Kampung Chekok Tok Isa",
        "Post_Office": "Cherang Ruku",
        "State": "Kelantan"
    },
    {
        "Postcode": "16700",
        "Location": "Kampung Cherang Ruku",
        "Post_Office": "Cherang Ruku",
        "State": "Kelantan"
    },
    {
        "Postcode": "16700",
        "Location": "Kampung Golok",
        "Post_Office": "Cherang Ruku",
        "State": "Kelantan"
    },
    {
        "Postcode": "16700",
        "Location": "Kampung Gong Manok",
        "Post_Office": "Cherang Ruku",
        "State": "Kelantan"
    },
    {
        "Postcode": "16700",
        "Location": "Kampung Gong Tengah",
        "Post_Office": "Cherang Ruku",
        "State": "Kelantan"
    },
    {
        "Postcode": "16700",
        "Location": "Kampung Haji Wan Omar",
        "Post_Office": "Cherang Ruku",
        "State": "Kelantan"
    },
    {
        "Postcode": "16700",
        "Location": "Kampung Kayu Kelam Dalam Rhu",
        "Post_Office": "Cherang Ruku",
        "State": "Kelantan"
    },
    {
        "Postcode": "16700",
        "Location": "Kampung Ketereh Tugal",
        "Post_Office": "Cherang Ruku",
        "State": "Kelantan"
    },
    {
        "Postcode": "16700",
        "Location": "Kampung Ketik Buloh",
        "Post_Office": "Cherang Ruku",
        "State": "Kelantan"
    },
    {
        "Postcode": "16700",
        "Location": "Kampung Ketik Nangka",
        "Post_Office": "Cherang Ruku",
        "State": "Kelantan"
    },
    {
        "Postcode": "16700",
        "Location": "Kampung Kuala Semerak",
        "Post_Office": "Cherang Ruku",
        "State": "Kelantan"
    },
    {
        "Postcode": "16700",
        "Location": "Kampung Kuwing",
        "Post_Office": "Cherang Ruku",
        "State": "Kelantan"
    },
    {
        "Postcode": "16700",
        "Location": "Kampung Lembah Sepulau",
        "Post_Office": "Cherang Ruku",
        "State": "Kelantan"
    },
    {
        "Postcode": "16700",
        "Location": "Kampung Pachakan",
        "Post_Office": "Cherang Ruku",
        "State": "Kelantan"
    },
    {
        "Postcode": "16700",
        "Location": "Kampung Pak Makong",
        "Post_Office": "Cherang Ruku",
        "State": "Kelantan"
    },
    {
        "Postcode": "16700",
        "Location": "Kampung Pak Yaacob",
        "Post_Office": "Cherang Ruku",
        "State": "Kelantan"
    },
    {
        "Postcode": "16700",
        "Location": "Kampung Parit Chong",
        "Post_Office": "Cherang Ruku",
        "State": "Kelantan"
    },
    {
        "Postcode": "16700",
        "Location": "Kampung Pasir Sutong",
        "Post_Office": "Cherang Ruku",
        "State": "Kelantan"
    },
    {
        "Postcode": "16700",
        "Location": "Kampung Pauh Dara",
        "Post_Office": "Cherang Ruku",
        "State": "Kelantan"
    },
    {
        "Postcode": "16700",
        "Location": "Kampung Pengkalan Sena",
        "Post_Office": "Cherang Ruku",
        "State": "Kelantan"
    },
    {
        "Postcode": "16700",
        "Location": "Kampung Puyu",
        "Post_Office": "Cherang Ruku",
        "State": "Kelantan"
    },
    {
        "Postcode": "16700",
        "Location": "Kampung Raja Dagang",
        "Post_Office": "Cherang Ruku",
        "State": "Kelantan"
    },
    {
        "Postcode": "16700",
        "Location": "Kampung Semerak",
        "Post_Office": "Cherang Ruku",
        "State": "Kelantan"
    },
    {
        "Postcode": "16700",
        "Location": "Kampung Sepulau",
        "Post_Office": "Cherang Ruku",
        "State": "Kelantan"
    },
    {
        "Postcode": "16700",
        "Location": "Kampung Seri Tanjong",
        "Post_Office": "Cherang Ruku",
        "State": "Kelantan"
    },
    {
        "Postcode": "16700",
        "Location": "Kampung Sungai Selut",
        "Post_Office": "Cherang Ruku",
        "State": "Kelantan"
    },
    {
        "Postcode": "16700",
        "Location": "Kampung Tanjong Golok",
        "Post_Office": "Cherang Ruku",
        "State": "Kelantan"
    },
    {
        "Postcode": "16700",
        "Location": "Kampung Telaga Papan",
        "Post_Office": "Cherang Ruku",
        "State": "Kelantan"
    },
    {
        "Postcode": "16700",
        "Location": "Kampung Tok Bali",
        "Post_Office": "Cherang Ruku",
        "State": "Kelantan"
    },
    {
        "Postcode": "16700",
        "Location": "Sekolah Kebangsaan Agama Cherang Ruku",
        "Post_Office": "Cherang Ruku",
        "State": "Kelantan"
    },
    {
        "Postcode": "16700",
        "Location": "Sekolah Kebangsaan Cherang Ruku",
        "Post_Office": "Cherang Ruku",
        "State": "Kelantan"
    },
    {
        "Postcode": "16700",
        "Location": "Sekolah Kebangsaan Dalam Rhu",
        "Post_Office": "Cherang Ruku",
        "State": "Kelantan"
    },
    {
        "Postcode": "16700",
        "Location": "Sekolah Kebangsaan Gong Manok",
        "Post_Office": "Cherang Ruku",
        "State": "Kelantan"
    },
    {
        "Postcode": "16700",
        "Location": "Sekolah Kebangsaan Kampung Sepulau",
        "Post_Office": "Cherang Ruku",
        "State": "Kelantan"
    },
    {
        "Postcode": "16700",
        "Location": "Sekolah Kebangsaan Tok Bali",
        "Post_Office": "Cherang Ruku",
        "State": "Kelantan"
    },
    {
        "Postcode": "16700",
        "Location": "Sekolah Menengah Cherang Ruku",
        "Post_Office": "Cherang Ruku",
        "State": "Kelantan"
    },
    {
        "Postcode": "16700",
        "Location": "Selikoh Pak Esah",
        "Post_Office": "Cherang Ruku",
        "State": "Kelantan"
    },
    {
        "Postcode": "16700",
        "Location": "Taman Hafizah",
        "Post_Office": "Cherang Ruku",
        "State": "Kelantan"
    },
    {
        "Postcode": "16700",
        "Location": "Taman Sariqah",
        "Post_Office": "Cherang Ruku",
        "State": "Kelantan"
    },
    {
        "Postcode": "16700",
        "Location": "Kampung Dalam Rhu",
        "Post_Office": "Cherang Ruku",
        "State": "Kelantan"
    },
    {
        "Postcode": "16700",
        "Location": "Jalan Sekolah",
        "Post_Office": "Cherang Ruku",
        "State": "Kelantan"
    },
    {
        "Postcode": "16700",
        "Location": "Jalan Semerak",
        "Post_Office": "Cherang Ruku",
        "State": "Kelantan"
    },
    {
        "Postcode": "16700",
        "Location": "Kampung Bukit Kechik",
        "Post_Office": "Cherang Ruku",
        "State": "Kelantan"
    },
    {
        "Postcode": "16700",
        "Location": "Kampung Gajah Mati",
        "Post_Office": "Cherang Ruku",
        "State": "Kelantan"
    },
    {
        "Postcode": "16700",
        "Location": "Kampung Kayu Kelat",
        "Post_Office": "Cherang Ruku",
        "State": "Kelantan"
    },
    {
        "Postcode": "16700",
        "Location": "Kampung Lembah",
        "Post_Office": "Cherang Ruku",
        "State": "Kelantan"
    },
    {
        "Postcode": "16700",
        "Location": "Kampung Pengkalan Pauh",
        "Post_Office": "Cherang Ruku",
        "State": "Kelantan"
    },
    {
        "Postcode": "16700",
        "Location": "Kampung Tengah",
        "Post_Office": "Cherang Ruku",
        "State": "Kelantan"
    },
    {
        "Postcode": "16700",
        "Location": "Kampung Tepi Sungai",
        "Post_Office": "Cherang Ruku",
        "State": "Kelantan"
    },
    {
        "Postcode": "16700",
        "Location": "Taman Jaya",
        "Post_Office": "Cherang Ruku",
        "State": "Kelantan"
    }
]
