[
    {
        "Postcode": "16800",
        "Location": "Agensi Dadah Kebangsaan",
        "Post_Office": "Pasir Puteh",
        "State": "Kelantan"
    },
    {
        "Postcode": "16800",
        "Location": "Balai Polis Pasir Puteh",
        "Post_Office": "Pasir Puteh",
        "State": "Kelantan"
    },
    {
        "Postcode": "16800",
        "Location": "Bangunan Pkink",
        "Post_Office": "Pasir Puteh",
        "State": "Kelantan"
    },
    {
        "Postcode": "16800",
        "Location": "Belakang Pejabat Haiwan",
        "Post_Office": "Pasir Puteh",
        "State": "Kelantan"
    },
    {
        "Postcode": "16800",
        "Location": "Belakang Pejabat Kada",
        "Post_Office": "Pasir Puteh",
        "State": "Kelantan"
    },
    {
        "Postcode": "16800",
        "Location": "Belakang Pusat Kesihatan",
        "Post_Office": "Pasir Puteh",
        "State": "Kelantan"
    },
    {
        "Postcode": "16800",
        "Location": "Belakang Rumah Do",
        "Post_Office": "Pasir Puteh",
        "State": "Kelantan"
    },
    {
        "Postcode": "16800",
        "Location": "Cherang Tuli Estate",
        "Post_Office": "Pasir Puteh",
        "State": "Kelantan"
    },
    {
        "Postcode": "16800",
        "Location": "Jalan Che Yim",
        "Post_Office": "Pasir Puteh",
        "State": "Kelantan"
    },
    {
        "Postcode": "16800",
        "Location": "Jalan Dato Hashim",
        "Post_Office": "Pasir Puteh",
        "State": "Kelantan"
    },
    {
        "Postcode": "16800",
        "Location": "Jalan Hulu Market",
        "Post_Office": "Pasir Puteh",
        "State": "Kelantan"
    },
    {
        "Postcode": "16800",
        "Location": "Jalan Jeram Pasu",
        "Post_Office": "Pasir Puteh",
        "State": "Kelantan"
    },
    {
        "Postcode": "16800",
        "Location": "Jalan Kamil",
        "Post_Office": "Pasir Puteh",
        "State": "Kelantan"
    },
    {
        "Postcode": "16800",
        "Location": "Jalan Kemunting",
        "Post_Office": "Pasir Puteh",
        "State": "Kelantan"
    },
    {
        "Postcode": "16800",
        "Location": "Jalan Kota Bharu Pasir Puteh",
        "Post_Office": "Pasir Puteh",
        "State": "Kelantan"
    },
    {
        "Postcode": "16800",
        "Location": "Jalan Kubur Kampung Merkang",
        "Post_Office": "Pasir Puteh",
        "State": "Kelantan"
    },
    {
        "Postcode": "16800",
        "Location": "Jalan Kubur Padang Pak Amat",
        "Post_Office": "Pasir Puteh",
        "State": "Kelantan"
    },
    {
        "Postcode": "16800",
        "Location": "Jalan Limbongan",
        "Post_Office": "Pasir Puteh",
        "State": "Kelantan"
    },
    {
        "Postcode": "16800",
        "Location": "Jalan Madrasah",
        "Post_Office": "Pasir Puteh",
        "State": "Kelantan"
    },
    {
        "Postcode": "16800",
        "Location": "Jalan Manan",
        "Post_Office": "Pasir Puteh",
        "State": "Kelantan"
    },
    {
        "Postcode": "16800",
        "Location": "Jalan Market",
        "Post_Office": "Pasir Puteh",
        "State": "Kelantan"
    },
    {
        "Postcode": "16800",
        "Location": "Jalan Masjid Kampung Merkang",
        "Post_Office": "Pasir Puteh",
        "State": "Kelantan"
    },
    {
        "Postcode": "16800",
        "Location": "Jalan Nara (A)",
        "Post_Office": "Pasir Puteh",
        "State": "Kelantan"
    },
    {
        "Postcode": "16800",
        "Location": "Jalan Nara (B)",
        "Post_Office": "Pasir Puteh",
        "State": "Kelantan"
    },
    {
        "Postcode": "16800",
        "Location": "Jalan Pak Loh Telekom",
        "Post_Office": "Pasir Puteh",
        "State": "Kelantan"
    },
    {
        "Postcode": "16800",
        "Location": "Jalan Panggong Rama",
        "Post_Office": "Pasir Puteh",
        "State": "Kelantan"
    },
    {
        "Postcode": "16800",
        "Location": "Jalan Panglima Raja",
        "Post_Office": "Pasir Puteh",
        "State": "Kelantan"
    },
    {
        "Postcode": "16800",
        "Location": "Jalan Perusahaan",
        "Post_Office": "Pasir Puteh",
        "State": "Kelantan"
    },
    {
        "Postcode": "16800",
        "Location": "Jalan Pondok",
        "Post_Office": "Pasir Puteh",
        "State": "Kelantan"
    },
    {
        "Postcode": "16800",
        "Location": "Jalan Sekolah Laki-Laki",
        "Post_Office": "Pasir Puteh",
        "State": "Kelantan"
    },
    {
        "Postcode": "16800",
        "Location": "Jalan Sekolah Saniah",
        "Post_Office": "Pasir Puteh",
        "State": "Kelantan"
    },
    {
        "Postcode": "16800",
        "Location": "Jalan Sri Amar",
        "Post_Office": "Pasir Puteh",
        "State": "Kelantan"
    },
    {
        "Postcode": "16800",
        "Location": "Jalan Tengku Rahim",
        "Post_Office": "Pasir Puteh",
        "State": "Kelantan"
    },
    {
        "Postcode": "16800",
        "Location": "Jalan Tok Janggut",
        "Post_Office": "Pasir Puteh",
        "State": "Kelantan"
    },
    {
        "Postcode": "16800",
        "Location": "Kampung Alor Badak",
        "Post_Office": "Pasir Puteh",
        "State": "Kelantan"
    },
    {
        "Postcode": "16800",
        "Location": "Kampung Alor Nibong",
        "Post_Office": "Pasir Puteh",
        "State": "Kelantan"
    },
    {
        "Postcode": "16800",
        "Location": "Kampung Alor Pasir",
        "Post_Office": "Pasir Puteh",
        "State": "Kelantan"
    },
    {
        "Postcode": "16800",
        "Location": "Kampung Atas Bukit",
        "Post_Office": "Pasir Puteh",
        "State": "Kelantan"
    },
    {
        "Postcode": "16800",
        "Location": "Kampung Banggol Kerian",
        "Post_Office": "Pasir Puteh",
        "State": "Kelantan"
    },
    {
        "Postcode": "16800",
        "Location": "Kampung Banggol Teliput",
        "Post_Office": "Pasir Puteh",
        "State": "Kelantan"
    },
    {
        "Postcode": "16800",
        "Location": "Kampung Baru Jeram",
        "Post_Office": "Pasir Puteh",
        "State": "Kelantan"
    },
    {
        "Postcode": "16800",
        "Location": "Kampung Baru Limbongan",
        "Post_Office": "Pasir Puteh",
        "State": "Kelantan"
    },
    {
        "Postcode": "16800",
        "Location": "Kampung Batu Berendam",
        "Post_Office": "Pasir Puteh",
        "State": "Kelantan"
    },
    {
        "Postcode": "16800",
        "Location": "Kampung Batu Sebutir",
        "Post_Office": "Pasir Puteh",
        "State": "Kelantan"
    },
    {
        "Postcode": "16800",
        "Location": "Kampung Binjai",
        "Post_Office": "Pasir Puteh",
        "State": "Kelantan"
    },
    {
        "Postcode": "16800",
        "Location": "Kampung Bukit Awang",
        "Post_Office": "Pasir Puteh",
        "State": "Kelantan"
    },
    {
        "Postcode": "16800",
        "Location": "Kampung Bukit Gedombak",
        "Post_Office": "Pasir Puteh",
        "State": "Kelantan"
    },
    {
        "Postcode": "16800",
        "Location": "Kampung Bukit Jernih",
        "Post_Office": "Pasir Puteh",
        "State": "Kelantan"
    },
    {
        "Postcode": "16800",
        "Location": "Kampung Bukit Tanah Kulim",
        "Post_Office": "Pasir Puteh",
        "State": "Kelantan"
    },
    {
        "Postcode": "16800",
        "Location": "Kampung Bukit Yong",
        "Post_Office": "Pasir Puteh",
        "State": "Kelantan"
    },
    {
        "Postcode": "16800",
        "Location": "Kampung Celah Cat",
        "Post_Office": "Pasir Puteh",
        "State": "Kelantan"
    },
    {
        "Postcode": "16800",
        "Location": "Kampung Cenerong Merah",
        "Post_Office": "Pasir Puteh",
        "State": "Kelantan"
    },
    {
        "Postcode": "16800",
        "Location": "Kampung Changgal",
        "Post_Office": "Pasir Puteh",
        "State": "Kelantan"
    },
    {
        "Postcode": "16800",
        "Location": "Kampung Chengal Batu",
        "Post_Office": "Pasir Puteh",
        "State": "Kelantan"
    },
    {
        "Postcode": "16800",
        "Location": "Kampung Chengal Pulas",
        "Post_Office": "Pasir Puteh",
        "State": "Kelantan"
    },
    {
        "Postcode": "16800",
        "Location": "Kampung Cherang Tuli",
        "Post_Office": "Pasir Puteh",
        "State": "Kelantan"
    },
    {
        "Postcode": "16800",
        "Location": "Kampung Dalam Huma",
        "Post_Office": "Pasir Puteh",
        "State": "Kelantan"
    },
    {
        "Postcode": "16800",
        "Location": "Kampung Dalam Kemunting",
        "Post_Office": "Pasir Puteh",
        "State": "Kelantan"
    },
    {
        "Postcode": "16800",
        "Location": "Kampung Dalam Pisang",
        "Post_Office": "Pasir Puteh",
        "State": "Kelantan"
    },
    {
        "Postcode": "16800",
        "Location": "Kampung Dalam Pupoh",
        "Post_Office": "Pasir Puteh",
        "State": "Kelantan"
    },
    {
        "Postcode": "16800",
        "Location": "Kampung Daram Buaya",
        "Post_Office": "Pasir Puteh",
        "State": "Kelantan"
    },
    {
        "Postcode": "16800",
        "Location": "Kampung Derdap",
        "Post_Office": "Pasir Puteh",
        "State": "Kelantan"
    },
    {
        "Postcode": "16800",
        "Location": "Kampung Gaal",
        "Post_Office": "Pasir Puteh",
        "State": "Kelantan"
    },
    {
        "Postcode": "16800",
        "Location": "Kampung Gaal Tengah",
        "Post_Office": "Pasir Puteh",
        "State": "Kelantan"
    },
    {
        "Postcode": "16800",
        "Location": "Kampung Gong Ambong",
        "Post_Office": "Pasir Puteh",
        "State": "Kelantan"
    },
    {
        "Postcode": "16800",
        "Location": "Kampung Gong Anak Nyior",
        "Post_Office": "Pasir Puteh",
        "State": "Kelantan"
    },
    {
        "Postcode": "16800",
        "Location": "Kampung Gong Ara",
        "Post_Office": "Pasir Puteh",
        "State": "Kelantan"
    },
    {
        "Postcode": "16800",
        "Location": "Kampung Gong Betik",
        "Post_Office": "Pasir Puteh",
        "State": "Kelantan"
    },
    {
        "Postcode": "16800",
        "Location": "Kampung Gong Chapa",
        "Post_Office": "Pasir Puteh",
        "State": "Kelantan"
    },
    {
        "Postcode": "16800",
        "Location": "Kampung Gong Chokoh",
        "Post_Office": "Pasir Puteh",
        "State": "Kelantan"
    },
    {
        "Postcode": "16800",
        "Location": "Kampung Gong Datuk",
        "Post_Office": "Pasir Puteh",
        "State": "Kelantan"
    },
    {
        "Postcode": "16800",
        "Location": "Kampung Gong Depu",
        "Post_Office": "Pasir Puteh",
        "State": "Kelantan"
    },
    {
        "Postcode": "16800",
        "Location": "Kampung Gong Garu",
        "Post_Office": "Pasir Puteh",
        "State": "Kelantan"
    },
    {
        "Postcode": "16800",
        "Location": "Kampung Gong Gunchil",
        "Post_Office": "Pasir Puteh",
        "State": "Kelantan"
    },
    {
        "Postcode": "16800",
        "Location": "Kampung Gong Kala",
        "Post_Office": "Pasir Puteh",
        "State": "Kelantan"
    },
    {
        "Postcode": "16800",
        "Location": "Kampung Gong Kedak",
        "Post_Office": "Pasir Puteh",
        "State": "Kelantan"
    },
    {
        "Postcode": "16800",
        "Location": "Kampung Gong Keding",
        "Post_Office": "Pasir Puteh",
        "State": "Kelantan"
    },
    {
        "Postcode": "16800",
        "Location": "Kampung Gong Kedondong",
        "Post_Office": "Pasir Puteh",
        "State": "Kelantan"
    },
    {
        "Postcode": "16800",
        "Location": "Kampung Gong Kemudu",
        "Post_Office": "Pasir Puteh",
        "State": "Kelantan"
    },
    {
        "Postcode": "16800",
        "Location": "Kampung Gong Kemuning",
        "Post_Office": "Pasir Puteh",
        "State": "Kelantan"
    },
    {
        "Postcode": "16800",
        "Location": "Kampung Gong Kemuntong",
        "Post_Office": "Pasir Puteh",
        "State": "Kelantan"
    },
    {
        "Postcode": "16800",
        "Location": "Kampung Gong Ketereh",
        "Post_Office": "Pasir Puteh",
        "State": "Kelantan"
    },
    {
        "Postcode": "16800",
        "Location": "Kampung Gong Kua",
        "Post_Office": "Pasir Puteh",
        "State": "Kelantan"
    },
    {
        "Postcode": "16800",
        "Location": "Kampung Gong Kulim",
        "Post_Office": "Pasir Puteh",
        "State": "Kelantan"
    },
    {
        "Postcode": "16800",
        "Location": "Kampung Gong Lapan",
        "Post_Office": "Pasir Puteh",
        "State": "Kelantan"
    },
    {
        "Postcode": "16800",
        "Location": "Kampung Gong Machang Manis",
        "Post_Office": "Pasir Puteh",
        "State": "Kelantan"
    },
    {
        "Postcode": "16800",
        "Location": "Kampung Gong Mempelam",
        "Post_Office": "Pasir Puteh",
        "State": "Kelantan"
    },
    {
        "Postcode": "16800",
        "Location": "Kampung Gong Mengkelih",
        "Post_Office": "Pasir Puteh",
        "State": "Kelantan"
    },
    {
        "Postcode": "16800",
        "Location": "Kampung Gong Mesira",
        "Post_Office": "Pasir Puteh",
        "State": "Kelantan"
    },
    {
        "Postcode": "16800",
        "Location": "Kampung Gong Nangka",
        "Post_Office": "Pasir Puteh",
        "State": "Kelantan"
    },
    {
        "Postcode": "16800",
        "Location": "Kampung Gong Pachat",
        "Post_Office": "Pasir Puteh",
        "State": "Kelantan"
    },
    {
        "Postcode": "16800",
        "Location": "Kampung Gong Pak Talib",
        "Post_Office": "Pasir Puteh",
        "State": "Kelantan"
    },
    {
        "Postcode": "16800",
        "Location": "Kampung Gong Rengas",
        "Post_Office": "Pasir Puteh",
        "State": "Kelantan"
    },
    {
        "Postcode": "16800",
        "Location": "Kampung Gong Sawa",
        "Post_Office": "Pasir Puteh",
        "State": "Kelantan"
    },
    {
        "Postcode": "16800",
        "Location": "Kampung Gong Sepuleh",
        "Post_Office": "Pasir Puteh",
        "State": "Kelantan"
    },
    {
        "Postcode": "16800",
        "Location": "Kampung Gong Serai",
        "Post_Office": "Pasir Puteh",
        "State": "Kelantan"
    },
    {
        "Postcode": "16800",
        "Location": "Kampung Gong Serapat",
        "Post_Office": "Pasir Puteh",
        "State": "Kelantan"
    },
    {
        "Postcode": "16800",
        "Location": "Kampung Gong Tapang",
        "Post_Office": "Pasir Puteh",
        "State": "Kelantan"
    },
    {
        "Postcode": "16800",
        "Location": "Kampung Gong Tinggi",
        "Post_Office": "Pasir Puteh",
        "State": "Kelantan"
    },
    {
        "Postcode": "16800",
        "Location": "Kampung Gong Tok Aji",
        "Post_Office": "Pasir Puteh",
        "State": "Kelantan"
    },
    {
        "Postcode": "16800",
        "Location": "Kampung Guntong Tengah",
        "Post_Office": "Pasir Puteh",
        "State": "Kelantan"
    },
    {
        "Postcode": "16800",
        "Location": "Kampung Haji Su",
        "Post_Office": "Pasir Puteh",
        "State": "Kelantan"
    },
    {
        "Postcode": "16800",
        "Location": "Kampung Hutan Jering",
        "Post_Office": "Pasir Puteh",
        "State": "Kelantan"
    },
    {
        "Postcode": "16800",
        "Location": "Kampung Hutan Kepas",
        "Post_Office": "Pasir Puteh",
        "State": "Kelantan"
    },
    {
        "Postcode": "16800",
        "Location": "Kampung Jebak",
        "Post_Office": "Pasir Puteh",
        "State": "Kelantan"
    },
    {
        "Postcode": "16800",
        "Location": "Kampung Jebak Jeram",
        "Post_Office": "Pasir Puteh",
        "State": "Kelantan"
    },
    {
        "Postcode": "16800",
        "Location": "Kampung Jelor Hilir",
        "Post_Office": "Pasir Puteh",
        "State": "Kelantan"
    },
    {
        "Postcode": "16800",
        "Location": "Kampung Jelor Hulu",
        "Post_Office": "Pasir Puteh",
        "State": "Kelantan"
    },
    {
        "Postcode": "16800",
        "Location": "Kampung Jeram",
        "Post_Office": "Pasir Puteh",
        "State": "Kelantan"
    },
    {
        "Postcode": "16800",
        "Location": "Kampung Jeram Pasu",
        "Post_Office": "Pasir Puteh",
        "State": "Kelantan"
    },
    {
        "Postcode": "16800",
        "Location": "Kampung Jerat Semata",
        "Post_Office": "Pasir Puteh",
        "State": "Kelantan"
    },
    {
        "Postcode": "16800",
        "Location": "Kampung Jernih",
        "Post_Office": "Pasir Puteh",
        "State": "Kelantan"
    },
    {
        "Postcode": "16800",
        "Location": "Kampung Kelubi",
        "Post_Office": "Pasir Puteh",
        "State": "Kelantan"
    },
    {
        "Postcode": "16800",
        "Location": "Kampung Kelubi Jalan Kota Bharu",
        "Post_Office": "Pasir Puteh",
        "State": "Kelantan"
    },
    {
        "Postcode": "16800",
        "Location": "Kampung Kelubi Jalan Machang",
        "Post_Office": "Pasir Puteh",
        "State": "Kelantan"
    },
    {
        "Postcode": "16800",
        "Location": "Kampung Kelubi Tok Janggut",
        "Post_Office": "Pasir Puteh",
        "State": "Kelantan"
    },
    {
        "Postcode": "16800",
        "Location": "Kampung Kemal",
        "Post_Office": "Pasir Puteh",
        "State": "Kelantan"
    },
    {
        "Postcode": "16800",
        "Location": "Kampung Kok Berangan",
        "Post_Office": "Pasir Puteh",
        "State": "Kelantan"
    },
    {
        "Postcode": "16800",
        "Location": "Kampung Kok Jering",
        "Post_Office": "Pasir Puteh",
        "State": "Kelantan"
    },
    {
        "Postcode": "16800",
        "Location": "Kampung Lepan Rambai",
        "Post_Office": "Pasir Puteh",
        "State": "Kelantan"
    },
    {
        "Postcode": "16800",
        "Location": "Kampung Lubok Dalam",
        "Post_Office": "Pasir Puteh",
        "State": "Kelantan"
    },
    {
        "Postcode": "16800",
        "Location": "Kampung Lubuk Star",
        "Post_Office": "Pasir Puteh",
        "State": "Kelantan"
    },
    {
        "Postcode": "16800",
        "Location": "Kampung Merkang",
        "Post_Office": "Pasir Puteh",
        "State": "Kelantan"
    },
    {
        "Postcode": "16800",
        "Location": "Kampung Nara",
        "Post_Office": "Pasir Puteh",
        "State": "Kelantan"
    },
    {
        "Postcode": "16800",
        "Location": "Kampung Padang Pak Amat",
        "Post_Office": "Pasir Puteh",
        "State": "Kelantan"
    },
    {
        "Postcode": "16800",
        "Location": "Kampung Padang Pauh",
        "Post_Office": "Pasir Puteh",
        "State": "Kelantan"
    },
    {
        "Postcode": "16800",
        "Location": "Kampung Padang Tok Syed",
        "Post_Office": "Pasir Puteh",
        "State": "Kelantan"
    },
    {
        "Postcode": "16800",
        "Location": "Kampung Panggong",
        "Post_Office": "Pasir Puteh",
        "State": "Kelantan"
    },
    {
        "Postcode": "16800",
        "Location": "Kampung Panggong Tiga Daerah",
        "Post_Office": "Pasir Puteh",
        "State": "Kelantan"
    },
    {
        "Postcode": "16800",
        "Location": "Kampung Pengkalan Pauh Jeram",
        "Post_Office": "Pasir Puteh",
        "State": "Kelantan"
    },
    {
        "Postcode": "16800",
        "Location": "Kampung Permatang Rambai",
        "Post_Office": "Pasir Puteh",
        "State": "Kelantan"
    },
    {
        "Postcode": "16800",
        "Location": "Kampung Permatang Sungkai",
        "Post_Office": "Pasir Puteh",
        "State": "Kelantan"
    },
    {
        "Postcode": "16800",
        "Location": "Kampung Pintu Pupuh",
        "Post_Office": "Pasir Puteh",
        "State": "Kelantan"
    },
    {
        "Postcode": "16800",
        "Location": "Kampung Pulau Lima",
        "Post_Office": "Pasir Puteh",
        "State": "Kelantan"
    },
    {
        "Postcode": "16800",
        "Location": "Kampung Pulau Sa",
        "Post_Office": "Pasir Puteh",
        "State": "Kelantan"
    },
    {
        "Postcode": "16800",
        "Location": "Kampung Saring",
        "Post_Office": "Pasir Puteh",
        "State": "Kelantan"
    },
    {
        "Postcode": "16800",
        "Location": "Kampung Seligi",
        "Post_Office": "Pasir Puteh",
        "State": "Kelantan"
    },
    {
        "Postcode": "16800",
        "Location": "Kampung Sri Aman",
        "Post_Office": "Pasir Puteh",
        "State": "Kelantan"
    },
    {
        "Postcode": "16800",
        "Location": "Kampung Sungai Gali",
        "Post_Office": "Pasir Puteh",
        "State": "Kelantan"
    },
    {
        "Postcode": "16800",
        "Location": "Kampung Sungai Gali Wakaf Raja",
        "Post_Office": "Pasir Puteh",
        "State": "Kelantan"
    },
    {
        "Postcode": "16800",
        "Location": "Kampung Sungai Kelong",
        "Post_Office": "Pasir Puteh",
        "State": "Kelantan"
    },
    {
        "Postcode": "16800",
        "Location": "Kampung Sungai Petai",
        "Post_Office": "Pasir Puteh",
        "State": "Kelantan"
    },
    {
        "Postcode": "16800",
        "Location": "Kampung Sungai Rasau",
        "Post_Office": "Pasir Puteh",
        "State": "Kelantan"
    },
    {
        "Postcode": "16800",
        "Location": "Kampung Sungai Seligi",
        "Post_Office": "Pasir Puteh",
        "State": "Kelantan"
    },
    {
        "Postcode": "16800",
        "Location": "Kampung Taweh",
        "Post_Office": "Pasir Puteh",
        "State": "Kelantan"
    },
    {
        "Postcode": "16800",
        "Location": "Kampung Tebing Tinggi",
        "Post_Office": "Pasir Puteh",
        "State": "Kelantan"
    },
    {
        "Postcode": "16800",
        "Location": "Kampung Telaga Gayong",
        "Post_Office": "Pasir Puteh",
        "State": "Kelantan"
    },
    {
        "Postcode": "16800",
        "Location": "Kampung Teliput",
        "Post_Office": "Pasir Puteh",
        "State": "Kelantan"
    },
    {
        "Postcode": "16800",
        "Location": "Kampung Telosan",
        "Post_Office": "Pasir Puteh",
        "State": "Kelantan"
    },
    {
        "Postcode": "16800",
        "Location": "Kampung Temila",
        "Post_Office": "Pasir Puteh",
        "State": "Kelantan"
    },
    {
        "Postcode": "16800",
        "Location": "Kampung Teratak Batu",
        "Post_Office": "Pasir Puteh",
        "State": "Kelantan"
    },
    {
        "Postcode": "16800",
        "Location": "Kampung Tok Ajan",
        "Post_Office": "Pasir Puteh",
        "State": "Kelantan"
    },
    {
        "Postcode": "16800",
        "Location": "Kampung Tok Din",
        "Post_Office": "Pasir Puteh",
        "State": "Kelantan"
    },
    {
        "Postcode": "16800",
        "Location": "Kampung Tok Harun",
        "Post_Office": "Pasir Puteh",
        "State": "Kelantan"
    },
    {
        "Postcode": "16800",
        "Location": "Kampung Tok Khamis",
        "Post_Office": "Pasir Puteh",
        "State": "Kelantan"
    },
    {
        "Postcode": "16800",
        "Location": "Kampung Tok Nik",
        "Post_Office": "Pasir Puteh",
        "State": "Kelantan"
    },
    {
        "Postcode": "16800",
        "Location": "Kampung Tok Sudin",
        "Post_Office": "Pasir Puteh",
        "State": "Kelantan"
    },
    {
        "Postcode": "16800",
        "Location": "Kampung Wakaf",
        "Post_Office": "Pasir Puteh",
        "State": "Kelantan"
    },
    {
        "Postcode": "16800",
        "Location": "Kampung Wakaf Berangan",
        "Post_Office": "Pasir Puteh",
        "State": "Kelantan"
    },
    {
        "Postcode": "16800",
        "Location": "Kampung Wakaf Bunut",
        "Post_Office": "Pasir Puteh",
        "State": "Kelantan"
    },
    {
        "Postcode": "16800",
        "Location": "Kampung Wakaf Lanas",
        "Post_Office": "Pasir Puteh",
        "State": "Kelantan"
    },
    {
        "Postcode": "16800",
        "Location": "Kampung Wakaf Linchong",
        "Post_Office": "Pasir Puteh",
        "State": "Kelantan"
    },
    {
        "Postcode": "16800",
        "Location": "Kampung Wakaf Raja",
        "Post_Office": "Pasir Puteh",
        "State": "Kelantan"
    },
    {
        "Postcode": "16800",
        "Location": "Kampung Wakaf Tukup",
        "Post_Office": "Pasir Puteh",
        "State": "Kelantan"
    },
    {
        "Postcode": "16800",
        "Location": "Kem Latihan Jpa",
        "Post_Office": "Pasir Puteh",
        "State": "Kelantan"
    },
    {
        "Postcode": "16800",
        "Location": "Klinik Ibu \u0026 Anak",
        "Post_Office": "Pasir Puteh",
        "State": "Kelantan"
    },
    {
        "Postcode": "16800",
        "Location": "Kompleks Ipc",
        "Post_Office": "Pasir Puteh",
        "State": "Kelantan"
    },
    {
        "Postcode": "16800",
        "Location": "Lorong Bahagia",
        "Post_Office": "Pasir Puteh",
        "State": "Kelantan"
    },
    {
        "Postcode": "16800",
        "Location": "Lorong Haji Nikmat",
        "Post_Office": "Pasir Puteh",
        "State": "Kelantan"
    },
    {
        "Postcode": "16800",
        "Location": "Lorong Hidayah",
        "Post_Office": "Pasir Puteh",
        "State": "Kelantan"
    },
    {
        "Postcode": "16800",
        "Location": "Lorong Kobena",
        "Post_Office": "Pasir Puteh",
        "State": "Kelantan"
    },
    {
        "Postcode": "16800",
        "Location": "Lorong Masjid Bulat",
        "Post_Office": "Pasir Puteh",
        "State": "Kelantan"
    },
    {
        "Postcode": "16800",
        "Location": "Lorong Tuan Mat",
        "Post_Office": "Pasir Puteh",
        "State": "Kelantan"
    },
    {
        "Postcode": "16800",
        "Location": "Mahkamah Majistret",
        "Post_Office": "Pasir Puteh",
        "State": "Kelantan"
    },
    {
        "Postcode": "16800",
        "Location": "Mahkamah Syariah",
        "Post_Office": "Pasir Puteh",
        "State": "Kelantan"
    },
    {
        "Postcode": "16800",
        "Location": "Pasar Besar Pasir Puteh",
        "Post_Office": "Pasir Puteh",
        "State": "Kelantan"
    },
    {
        "Postcode": "16800",
        "Location": "Pasir Puteh",
        "Post_Office": "Pasir Puteh",
        "State": "Kelantan"
    },
    {
        "Postcode": "16800",
        "Location": "Pejabat Haiwan, Pusat Pengumpulan Susu",
        "Post_Office": "Pasir Puteh",
        "State": "Kelantan"
    },
    {
        "Postcode": "16800",
        "Location": "Pejabat Hutan",
        "Post_Office": "Pasir Puteh",
        "State": "Kelantan"
    },
    {
        "Postcode": "16800",
        "Location": "Pejabat Jkr",
        "Post_Office": "Pasir Puteh",
        "State": "Kelantan"
    },
    {
        "Postcode": "16800",
        "Location": "Pejabat Jps",
        "Post_Office": "Pasir Puteh",
        "State": "Kelantan"
    },
    {
        "Postcode": "16800",
        "Location": "Pejabat Kebajikan Masyarakat",
        "Post_Office": "Pasir Puteh",
        "State": "Kelantan"
    },
    {
        "Postcode": "16800",
        "Location": "Pejabat Kesihatan",
        "Post_Office": "Pasir Puteh",
        "State": "Kelantan"
    },
    {
        "Postcode": "16800",
        "Location": "Pejabat Majlis Daerah",
        "Post_Office": "Pasir Puteh",
        "State": "Kelantan"
    },
    {
        "Postcode": "16800",
        "Location": "Pejabat Pendaftaran",
        "Post_Office": "Pasir Puteh",
        "State": "Kelantan"
    },
    {
        "Postcode": "16800",
        "Location": "Pejabat Pertanian",
        "Post_Office": "Pasir Puteh",
        "State": "Kelantan"
    },
    {
        "Postcode": "16800",
        "Location": "Pejabat Skmk",
        "Post_Office": "Pasir Puteh",
        "State": "Kelantan"
    },
    {
        "Postcode": "16800",
        "Location": "Pejabat Tanah \u0026 Jajahan",
        "Post_Office": "Pasir Puteh",
        "State": "Kelantan"
    },
    {
        "Postcode": "16800",
        "Location": "Pejabat Telekom",
        "Post_Office": "Pasir Puteh",
        "State": "Kelantan"
    },
    {
        "Postcode": "16800",
        "Location": "Pertahanan Awam",
        "Post_Office": "Pasir Puteh",
        "State": "Kelantan"
    },
    {
        "Postcode": "16800",
        "Location": "Perumahan Desa Damat",
        "Post_Office": "Pasir Puteh",
        "State": "Kelantan"
    },
    {
        "Postcode": "16800",
        "Location": "Pondok Sri Permai",
        "Post_Office": "Pasir Puteh",
        "State": "Kelantan"
    },
    {
        "Postcode": "16800",
        "Location": "Sekolah Institut Cemerlang",
        "Post_Office": "Pasir Puteh",
        "State": "Kelantan"
    },
    {
        "Postcode": "16800",
        "Location": "Sekolah Kebangsaan Bukit Awang",
        "Post_Office": "Pasir Puteh",
        "State": "Kelantan"
    },
    {
        "Postcode": "16800",
        "Location": "Sekolah Kebangsaan Jeram",
        "Post_Office": "Pasir Puteh",
        "State": "Kelantan"
    },
    {
        "Postcode": "16800",
        "Location": "Sekolah Kebangsaan Kandis",
        "Post_Office": "Pasir Puteh",
        "State": "Kelantan"
    },
    {
        "Postcode": "16800",
        "Location": "Sekolah Kebangsaan Kulim",
        "Post_Office": "Pasir Puteh",
        "State": "Kelantan"
    },
    {
        "Postcode": "16800",
        "Location": "Sekolah Kebangsaan Panggong",
        "Post_Office": "Pasir Puteh",
        "State": "Kelantan"
    },
    {
        "Postcode": "16800",
        "Location": "Sekolah Kebangsaan Seligi",
        "Post_Office": "Pasir Puteh",
        "State": "Kelantan"
    },
    {
        "Postcode": "16800",
        "Location": "Sekolah Kebangsaan Telosan",
        "Post_Office": "Pasir Puteh",
        "State": "Kelantan"
    },
    {
        "Postcode": "16800",
        "Location": "Sekolah Kebangsaan Tok Janggut",
        "Post_Office": "Pasir Puteh",
        "State": "Kelantan"
    },
    {
        "Postcode": "16800",
        "Location": "Sekolah Kebangsaan Wakaf Raja",
        "Post_Office": "Pasir Puteh",
        "State": "Kelantan"
    },
    {
        "Postcode": "16800",
        "Location": "Sekolah Mahaahd Tahfiz Umul Qura",
        "Post_Office": "Pasir Puteh",
        "State": "Kelantan"
    },
    {
        "Postcode": "16800",
        "Location": "Sekolah Menengah Arab Diniah",
        "Post_Office": "Pasir Puteh",
        "State": "Kelantan"
    },
    {
        "Postcode": "16800",
        "Location": "Sekolah Menengah Arab Khairiah",
        "Post_Office": "Pasir Puteh",
        "State": "Kelantan"
    },
    {
        "Postcode": "16800",
        "Location": "Sekolah Menengah Jeram",
        "Post_Office": "Pasir Puteh",
        "State": "Kelantan"
    },
    {
        "Postcode": "16800",
        "Location": "Sekolah Menengah Sains",
        "Post_Office": "Pasir Puteh",
        "State": "Kelantan"
    },
    {
        "Postcode": "16800",
        "Location": "Sekolah Menengah Tok Janggut",
        "Post_Office": "Pasir Puteh",
        "State": "Kelantan"
    },
    {
        "Postcode": "16800",
        "Location": "Sekolah Rendah Kebangsaan (P)",
        "Post_Office": "Pasir Puteh",
        "State": "Kelantan"
    },
    {
        "Postcode": "16800",
        "Location": "Simpang Tiga Merkang",
        "Post_Office": "Pasir Puteh",
        "State": "Kelantan"
    },
    {
        "Postcode": "16800",
        "Location": "Sri Aman Dalam",
        "Post_Office": "Pasir Puteh",
        "State": "Kelantan"
    },
    {
        "Postcode": "16800",
        "Location": "Taman Desa Anda",
        "Post_Office": "Pasir Puteh",
        "State": "Kelantan"
    },
    {
        "Postcode": "16800",
        "Location": "Taman Koperasi Guru",
        "Post_Office": "Pasir Puteh",
        "State": "Kelantan"
    },
    {
        "Postcode": "16800",
        "Location": "Taman Marina",
        "Post_Office": "Pasir Puteh",
        "State": "Kelantan"
    },
    {
        "Postcode": "16800",
        "Location": "Taman Perumahan Kampung Merkang",
        "Post_Office": "Pasir Puteh",
        "State": "Kelantan"
    },
    {
        "Postcode": "16800",
        "Location": "Taman Sepakat",
        "Post_Office": "Pasir Puteh",
        "State": "Kelantan"
    },
    {
        "Postcode": "16800",
        "Location": "Taman Seri Gedombak",
        "Post_Office": "Pasir Puteh",
        "State": "Kelantan"
    },
    {
        "Postcode": "16800",
        "Location": "Taman Sri Derasa",
        "Post_Office": "Pasir Puteh",
        "State": "Kelantan"
    },
    {
        "Postcode": "16800",
        "Location": "Taman Sri Permai",
        "Post_Office": "Pasir Puteh",
        "State": "Kelantan"
    },
    {
        "Postcode": "16800",
        "Location": "Taman Sri Pernama",
        "Post_Office": "Pasir Puteh",
        "State": "Kelantan"
    },
    {
        "Postcode": "16800",
        "Location": "Taman Sri Teja",
        "Post_Office": "Pasir Puteh",
        "State": "Kelantan"
    },
    {
        "Postcode": "16800",
        "Location": "Tasik Godombak",
        "Post_Office": "Pasir Puteh",
        "State": "Kelantan"
    },
    {
        "Postcode": "16800",
        "Location": "Teratap Batu",
        "Post_Office": "Pasir Puteh",
        "State": "Kelantan"
    },
    {
        "Postcode": "16800",
        "Location": "Taman Ct Bakti Timur",
        "Post_Office": "Pasir Puteh",
        "State": "Kelantan"
    },
    {
        "Postcode": "16800",
        "Location": "Taman Jaza Sri Pasu",
        "Post_Office": "Pasir Puteh",
        "State": "Kelantan"
    },
    {
        "Postcode": "16800",
        "Location": "Taman Kurniaan",
        "Post_Office": "Pasir Puteh",
        "State": "Kelantan"
    },
    {
        "Postcode": "16800",
        "Location": "Taman Osman Affan",
        "Post_Office": "Pasir Puteh",
        "State": "Kelantan"
    },
    {
        "Postcode": "16800",
        "Location": "Taman Pinggiran Damai",
        "Post_Office": "Pasir Puteh",
        "State": "Kelantan"
    },
    {
        "Postcode": "16800",
        "Location": "Taman Syuhada",
        "Post_Office": "Pasir Puteh",
        "State": "Kelantan"
    },
    {
        "Postcode": "16800",
        "Location": "Jalan Pegawai",
        "Post_Office": "Pasir Puteh",
        "State": "Kelantan"
    },
    {
        "Postcode": "16800",
        "Location": "Kampung Batu Hitam",
        "Post_Office": "Pasir Puteh",
        "State": "Kelantan"
    },
    {
        "Postcode": "16800",
        "Location": "Taman Sri Aman",
        "Post_Office": "Pasir Puteh",
        "State": "Kelantan"
    },
    {
        "Postcode": "16800",
        "Location": "Kampung Bunut Rendang",
        "Post_Office": "Pasir Puteh",
        "State": "Kelantan"
    },
    {
        "Postcode": "16800",
        "Location": "Kampung Gelam",
        "Post_Office": "Pasir Puteh",
        "State": "Kelantan"
    },
    {
        "Postcode": "16800",
        "Location": "Kampung Gong Chengal",
        "Post_Office": "Pasir Puteh",
        "State": "Kelantan"
    },
    {
        "Postcode": "16800",
        "Location": "Kampung Gong Genor",
        "Post_Office": "Pasir Puteh",
        "State": "Kelantan"
    },
    {
        "Postcode": "16800",
        "Location": "Kampung Gong Kubor",
        "Post_Office": "Pasir Puteh",
        "State": "Kelantan"
    },
    {
        "Postcode": "16800",
        "Location": "Kampung Kandis",
        "Post_Office": "Pasir Puteh",
        "State": "Kelantan"
    },
    {
        "Postcode": "16800",
        "Location": "Kampung Padang Siam",
        "Post_Office": "Pasir Puteh",
        "State": "Kelantan"
    },
    {
        "Postcode": "16800",
        "Location": "Lorong Damai",
        "Post_Office": "Pasir Puteh",
        "State": "Kelantan"
    },
    {
        "Postcode": "16800",
        "Location": "Lorong Sentosa",
        "Post_Office": "Pasir Puteh",
        "State": "Kelantan"
    },
    {
        "Postcode": "16800",
        "Location": "Taman Beringin",
        "Post_Office": "Pasir Puteh",
        "State": "Kelantan"
    },
    {
        "Postcode": "16800",
        "Location": "Taman Permata",
        "Post_Office": "Pasir Puteh",
        "State": "Kelantan"
    },
    {
        "Postcode": "16800",
        "Location": "Sekolah Kebangsaan Kamil 1",
        "Post_Office": "Pasir Puteh",
        "State": "Kelantan"
    },
    {
        "Postcode": "16800",
        "Location": "Sekolah Kebangsaan Kamil 2",
        "Post_Office": "Pasir Puteh",
        "State": "Kelantan"
    },
    {
        "Postcode": "16800",
        "Location": "Sekolah Kebangsaan Kamil 3",
        "Post_Office": "Pasir Puteh",
        "State": "Kelantan"
    },
    {
        "Postcode": "16800",
        "Location": "Taman Beluti 1",
        "Post_Office": "Pasir Puteh",
        "State": "Kelantan"
    },
    {
        "Postcode": "16800",
        "Location": "Taman Beluti 2",
        "Post_Office": "Pasir Puteh",
        "State": "Kelantan"
    },
    {
        "Postcode": "16800",
        "Location": "Taman Fajar 1",
        "Post_Office": "Pasir Puteh",
        "State": "Kelantan"
    },
    {
        "Postcode": "16800",
        "Location": "Taman Fajar 2",
        "Post_Office": "Pasir Puteh",
        "State": "Kelantan"
    },
    {
        "Postcode": "16800",
        "Location": "Taman Sri Aman 1",
        "Post_Office": "Pasir Puteh",
        "State": "Kelantan"
    },
    {
        "Postcode": "16800",
        "Location": "Taman Sri Aman 2",
        "Post_Office": "Pasir Puteh",
        "State": "Kelantan"
    },
    {
        "Postcode": "16800",
        "Location": "Taman Sri Aman 3",
        "Post_Office": "Pasir Puteh",
        "State": "Kelantan"
    },
    {
        "Postcode": "16800",
        "Location": "Taman Sri Aman 4",
        "Post_Office": "Pasir Puteh",
        "State": "Kelantan"
    },
    {
        "Postcode": "16800",
        "Location": "Taman Sri Kulim 1",
        "Post_Office": "Pasir Puteh",
        "State": "Kelantan"
    },
    {
        "Postcode": "16800",
        "Location": "Taman Sri Kulim 2",
        "Post_Office": "Pasir Puteh",
        "State": "Kelantan"
    },
    {
        "Postcode": "16800",
        "Location": "Jalan Semerak",
        "Post_Office": "Pasir Puteh",
        "State": "Kelantan"
    },
    {
        "Postcode": "16800",
        "Location": "Kampung Baru",
        "Post_Office": "Pasir Puteh",
        "State": "Kelantan"
    },
    {
        "Postcode": "16800",
        "Location": "Kampung Bukit",
        "Post_Office": "Pasir Puteh",
        "State": "Kelantan"
    },
    {
        "Postcode": "16800",
        "Location": "Kampung Bukit Belah",
        "Post_Office": "Pasir Puteh",
        "State": "Kelantan"
    },
    {
        "Postcode": "16800",
        "Location": "Kampung Gong Pasir",
        "Post_Office": "Pasir Puteh",
        "State": "Kelantan"
    },
    {
        "Postcode": "16800",
        "Location": "Kampung Guntong",
        "Post_Office": "Pasir Puteh",
        "State": "Kelantan"
    },
    {
        "Postcode": "16800",
        "Location": "Kampung Jelor",
        "Post_Office": "Pasir Puteh",
        "State": "Kelantan"
    },
    {
        "Postcode": "16800",
        "Location": "Kampung Kemudu Bongkok",
        "Post_Office": "Pasir Puteh",
        "State": "Kelantan"
    },
    {
        "Postcode": "16800",
        "Location": "Kampung Kulim",
        "Post_Office": "Pasir Puteh",
        "State": "Kelantan"
    },
    {
        "Postcode": "16800",
        "Location": "Kampung Lembah",
        "Post_Office": "Pasir Puteh",
        "State": "Kelantan"
    },
    {
        "Postcode": "16800",
        "Location": "Kampung Nering",
        "Post_Office": "Pasir Puteh",
        "State": "Kelantan"
    },
    {
        "Postcode": "16800",
        "Location": "Kampung Pengkalan Pauh",
        "Post_Office": "Pasir Puteh",
        "State": "Kelantan"
    },
    {
        "Postcode": "16800",
        "Location": "Kampung Raja",
        "Post_Office": "Pasir Puteh",
        "State": "Kelantan"
    },
    {
        "Postcode": "16800",
        "Location": "Kampung Surau",
        "Post_Office": "Pasir Puteh",
        "State": "Kelantan"
    },
    {
        "Postcode": "16800",
        "Location": "Taman Haji Ali",
        "Post_Office": "Pasir Puteh",
        "State": "Kelantan"
    }
]
