[
    {
        "Postcode": "16810",
        "Location": "Bukit Jawa",
        "Post_Office": "Selising",
        "State": "Kelantan"
    },
    {
        "Postcode": "16810",
        "Location": "Chabang Tiga Pohon Setol",
        "Post_Office": "Selising",
        "State": "Kelantan"
    },
    {
        "Postcode": "16810",
        "Location": "Depan Pejabat Kada",
        "Post_Office": "Selising",
        "State": "Kelantan"
    },
    {
        "Postcode": "16810",
        "Location": "Jalan Depan Sekolah Kebangsaan",
        "Post_Office": "Selising",
        "State": "Kelantan"
    },
    {
        "Postcode": "16810",
        "Location": "Jalan Lubuk Batu",
        "Post_Office": "Selising",
        "State": "Kelantan"
    },
    {
        "Postcode": "16810",
        "Location": "Jalan Masjid Kampung Berangan",
        "Post_Office": "Selising",
        "State": "Kelantan"
    },
    {
        "Postcode": "16810",
        "Location": "Jalan Masjid Permatang Gading",
        "Post_Office": "Selising",
        "State": "Kelantan"
    },
    {
        "Postcode": "16810",
        "Location": "Jalan Pasir Puteh - Kota Bharu (Bukit Abal)",
        "Post_Office": "Selising",
        "State": "Kelantan"
    },
    {
        "Postcode": "16810",
        "Location": "Jalan Pondok Haji Daud Bukit Abal",
        "Post_Office": "Selising",
        "State": "Kelantan"
    },
    {
        "Postcode": "16810",
        "Location": "Kampung Alor Batu",
        "Post_Office": "Selising",
        "State": "Kelantan"
    },
    {
        "Postcode": "16810",
        "Location": "Kampung Alor Geliong",
        "Post_Office": "Selising",
        "State": "Kelantan"
    },
    {
        "Postcode": "16810",
        "Location": "Kampung Alor Hijau",
        "Post_Office": "Selising",
        "State": "Kelantan"
    },
    {
        "Postcode": "16810",
        "Location": "Kampung Alor Hijau Bukit Tanah",
        "Post_Office": "Selising",
        "State": "Kelantan"
    },
    {
        "Postcode": "16810",
        "Location": "Kampung Banggol Jenerih",
        "Post_Office": "Selising",
        "State": "Kelantan"
    },
    {
        "Postcode": "16810",
        "Location": "Kampung Banggol Pak Esah",
        "Post_Office": "Selising",
        "State": "Kelantan"
    },
    {
        "Postcode": "16810",
        "Location": "Kampung Banggol Stol",
        "Post_Office": "Selising",
        "State": "Kelantan"
    },
    {
        "Postcode": "16810",
        "Location": "Kampung Banir Belikong",
        "Post_Office": "Selising",
        "State": "Kelantan"
    },
    {
        "Postcode": "16810",
        "Location": "Kampung Baru Pupoh",
        "Post_Office": "Selising",
        "State": "Kelantan"
    },
    {
        "Postcode": "16810",
        "Location": "Kampung Batu 19",
        "Post_Office": "Selising",
        "State": "Kelantan"
    },
    {
        "Postcode": "16810",
        "Location": "Kampung Bendang",
        "Post_Office": "Selising",
        "State": "Kelantan"
    },
    {
        "Postcode": "16810",
        "Location": "Kampung Bukit Abal",
        "Post_Office": "Selising",
        "State": "Kelantan"
    },
    {
        "Postcode": "16810",
        "Location": "Kampung Bukit Abal Timur",
        "Post_Office": "Selising",
        "State": "Kelantan"
    },
    {
        "Postcode": "16810",
        "Location": "Kampung Bukit Akar",
        "Post_Office": "Selising",
        "State": "Kelantan"
    },
    {
        "Postcode": "16810",
        "Location": "Kampung Bukit Bidang",
        "Post_Office": "Selising",
        "State": "Kelantan"
    },
    {
        "Postcode": "16810",
        "Location": "Kampung Bukit Bidang Bunut",
        "Post_Office": "Selising",
        "State": "Kelantan"
    },
    {
        "Postcode": "16810",
        "Location": "Kampung Bukit Tanah Bukit Jawa",
        "Post_Office": "Selising",
        "State": "Kelantan"
    },
    {
        "Postcode": "16810",
        "Location": "Kampung Cherang Rotan",
        "Post_Office": "Selising",
        "State": "Kelantan"
    },
    {
        "Postcode": "16810",
        "Location": "Kampung Danan",
        "Post_Office": "Selising",
        "State": "Kelantan"
    },
    {
        "Postcode": "16810",
        "Location": "Kampung Gong Jering",
        "Post_Office": "Selising",
        "State": "Kelantan"
    },
    {
        "Postcode": "16810",
        "Location": "Kampung Gong Tambak",
        "Post_Office": "Selising",
        "State": "Kelantan"
    },
    {
        "Postcode": "16810",
        "Location": "Kampung Jerus",
        "Post_Office": "Selising",
        "State": "Kelantan"
    },
    {
        "Postcode": "16810",
        "Location": "Kampung Lepah",
        "Post_Office": "Selising",
        "State": "Kelantan"
    },
    {
        "Postcode": "16810",
        "Location": "Kampung Lubok Batu",
        "Post_Office": "Selising",
        "State": "Kelantan"
    },
    {
        "Postcode": "16810",
        "Location": "Kampung Padang Pak Omar",
        "Post_Office": "Selising",
        "State": "Kelantan"
    },
    {
        "Postcode": "16810",
        "Location": "Kampung Pak Mahsuri",
        "Post_Office": "Selising",
        "State": "Kelantan"
    },
    {
        "Postcode": "16810",
        "Location": "Kampung Permatang Gading",
        "Post_Office": "Selising",
        "State": "Kelantan"
    },
    {
        "Postcode": "16810",
        "Location": "Kampung Pupoh Bukit Jawa",
        "Post_Office": "Selising",
        "State": "Kelantan"
    },
    {
        "Postcode": "16810",
        "Location": "Kampung Selising",
        "Post_Office": "Selising",
        "State": "Kelantan"
    },
    {
        "Postcode": "16810",
        "Location": "Kampung Setol",
        "Post_Office": "Selising",
        "State": "Kelantan"
    },
    {
        "Postcode": "16810",
        "Location": "Kampung Sungai Gali Selising",
        "Post_Office": "Selising",
        "State": "Kelantan"
    },
    {
        "Postcode": "16810",
        "Location": "Kampung Sungai Parit",
        "Post_Office": "Selising",
        "State": "Kelantan"
    },
    {
        "Postcode": "16810",
        "Location": "Kampung Tasek Jenereh Rendang",
        "Post_Office": "Selising",
        "State": "Kelantan"
    },
    {
        "Postcode": "16810",
        "Location": "Kampung Tasek Pauh",
        "Post_Office": "Selising",
        "State": "Kelantan"
    },
    {
        "Postcode": "16810",
        "Location": "Kampung Tok Derasak",
        "Post_Office": "Selising",
        "State": "Kelantan"
    },
    {
        "Postcode": "16810",
        "Location": "Kampung Tok Dir",
        "Post_Office": "Selising",
        "State": "Kelantan"
    },
    {
        "Postcode": "16810",
        "Location": "Kampung Tualang",
        "Post_Office": "Selising",
        "State": "Kelantan"
    },
    {
        "Postcode": "16810",
        "Location": "Kampung Tualang Rendah",
        "Post_Office": "Selising",
        "State": "Kelantan"
    },
    {
        "Postcode": "16810",
        "Location": "Kampung Tualang Tinggi",
        "Post_Office": "Selising",
        "State": "Kelantan"
    },
    {
        "Postcode": "16810",
        "Location": "Kampung Tualang Tinggi Dalam",
        "Post_Office": "Selising",
        "State": "Kelantan"
    },
    {
        "Postcode": "16810",
        "Location": "Kampung Wakaf Bunut Bukit Jawa",
        "Post_Office": "Selising",
        "State": "Kelantan"
    },
    {
        "Postcode": "16810",
        "Location": "Lorong Haji Fadhil",
        "Post_Office": "Selising",
        "State": "Kelantan"
    },
    {
        "Postcode": "16810",
        "Location": "Lorong Haji Mohamad",
        "Post_Office": "Selising",
        "State": "Kelantan"
    },
    {
        "Postcode": "16810",
        "Location": "Lorong Tnb",
        "Post_Office": "Selising",
        "State": "Kelantan"
    },
    {
        "Postcode": "16810",
        "Location": "Lorong Tok Guru Abd Latif",
        "Post_Office": "Selising",
        "State": "Kelantan"
    },
    {
        "Postcode": "16810",
        "Location": "Lorong Tok Guru Lib",
        "Post_Office": "Selising",
        "State": "Kelantan"
    },
    {
        "Postcode": "16810",
        "Location": "Lorong Wahzan",
        "Post_Office": "Selising",
        "State": "Kelantan"
    },
    {
        "Postcode": "16810",
        "Location": "Pejabat Haiwan Projek Kemasin",
        "Post_Office": "Selising",
        "State": "Kelantan"
    },
    {
        "Postcode": "16810",
        "Location": "Pejabat Haiwan Projek Kemasin Semerak",
        "Post_Office": "Selising",
        "State": "Kelantan"
    },
    {
        "Postcode": "16810",
        "Location": "Pejabat Kada Jajahan Pasir Putih",
        "Post_Office": "Selising",
        "State": "Kelantan"
    },
    {
        "Postcode": "16810",
        "Location": "Pekan Selising",
        "Post_Office": "Selising",
        "State": "Kelantan"
    },
    {
        "Postcode": "16810",
        "Location": "Pertubuhan Peladang",
        "Post_Office": "Selising",
        "State": "Kelantan"
    },
    {
        "Postcode": "16810",
        "Location": "Pusat Giat Mara",
        "Post_Office": "Selising",
        "State": "Kelantan"
    },
    {
        "Postcode": "16810",
        "Location": "Pusat Kesihatan",
        "Post_Office": "Selising",
        "State": "Kelantan"
    },
    {
        "Postcode": "16810",
        "Location": "Sekolah Arab Tarbiah Lepah",
        "Post_Office": "Selising",
        "State": "Kelantan"
    },
    {
        "Postcode": "16810",
        "Location": "Sekolah Kebangsaan  Banggol Pak Esah",
        "Post_Office": "Selising",
        "State": "Kelantan"
    },
    {
        "Postcode": "16810",
        "Location": "Sekolah Kebangsaan  Bukit Abal",
        "Post_Office": "Selising",
        "State": "Kelantan"
    },
    {
        "Postcode": "16810",
        "Location": "Sekolah Kebangsaan  Kampung Berangan",
        "Post_Office": "Selising",
        "State": "Kelantan"
    },
    {
        "Postcode": "16810",
        "Location": "Sekolah Kebangsaan Bukit Jawa 1",
        "Post_Office": "Selising",
        "State": "Kelantan"
    },
    {
        "Postcode": "16810",
        "Location": "Sekolah Kebangsaan Bukit Jawa 2",
        "Post_Office": "Selising",
        "State": "Kelantan"
    },
    {
        "Postcode": "16810",
        "Location": "Sekolah Menengah Bukit Jawa",
        "Post_Office": "Selising",
        "State": "Kelantan"
    },
    {
        "Postcode": "16810",
        "Location": "Sekolah Menengah Sri Maharaja",
        "Post_Office": "Selising",
        "State": "Kelantan"
    },
    {
        "Postcode": "16810",
        "Location": "Sekolak Kebangsaan Bukit Abal",
        "Post_Office": "Selising",
        "State": "Kelantan"
    },
    {
        "Postcode": "16810",
        "Location": "Sekolak Kebangsaan Kampung Berangan",
        "Post_Office": "Selising",
        "State": "Kelantan"
    },
    {
        "Postcode": "16810",
        "Location": "Selising Timor",
        "Post_Office": "Selising",
        "State": "Kelantan"
    },
    {
        "Postcode": "16810",
        "Location": "Sepulau",
        "Post_Office": "Selising",
        "State": "Kelantan"
    },
    {
        "Postcode": "16810",
        "Location": "Taman Selising",
        "Post_Office": "Selising",
        "State": "Kelantan"
    },
    {
        "Postcode": "16810",
        "Location": "Taman Sri Sentosa",
        "Post_Office": "Selising",
        "State": "Kelantan"
    },
    {
        "Postcode": "16810",
        "Location": "Kampung Penambang",
        "Post_Office": "Selising",
        "State": "Kelantan"
    },
    {
        "Postcode": "16810",
        "Location": "Kampung Sungai Durian",
        "Post_Office": "Selising",
        "State": "Kelantan"
    },
    {
        "Postcode": "16810",
        "Location": "Kampung Banggol Setol",
        "Post_Office": "Selising",
        "State": "Kelantan"
    },
    {
        "Postcode": "16810",
        "Location": "Kampung Berangan",
        "Post_Office": "Selising",
        "State": "Kelantan"
    },
    {
        "Postcode": "16810",
        "Location": "Kampung Bukit Merbau",
        "Post_Office": "Selising",
        "State": "Kelantan"
    },
    {
        "Postcode": "16810",
        "Location": "Kampung Kubang Sawa",
        "Post_Office": "Selising",
        "State": "Kelantan"
    },
    {
        "Postcode": "16810",
        "Location": "Kampung Padang Tengah",
        "Post_Office": "Selising",
        "State": "Kelantan"
    },
    {
        "Postcode": "16810",
        "Location": "Taman Sentosa",
        "Post_Office": "Selising",
        "State": "Kelantan"
    }
]
