[
    {
        "Postcode": "93000",
        "Location": "Jalan Wayang",
        "Post_Office": "Kuching",
        "State": "Sarawak"
    },
    {
        "Postcode": "93000",
        "Location": "Jalan Badruddin",
        "Post_Office": "Kuching",
        "State": "Sarawak"
    },
    {
        "Postcode": "93000",
        "Location": "Jalan Barrack",
        "Post_Office": "Kuching",
        "State": "Sarawak"
    },
    {
        "Postcode": "93000",
        "Location": "Jalan Court House",
        "Post_Office": "Kuching",
        "State": "Sarawak"
    },
    {
        "Postcode": "93000",
        "Location": "Jalan Crookshank",
        "Post_Office": "Kuching",
        "State": "Sarawak"
    },
    {
        "Postcode": "93000",
        "Location": "Jalan Gambier",
        "Post_Office": "Kuching",
        "State": "Sarawak"
    },
    {
        "Postcode": "93000",
        "Location": "Jalan Golflink",
        "Post_Office": "Kuching",
        "State": "Sarawak"
    },
    {
        "Postcode": "93000",
        "Location": "Jalan Hokkien",
        "Post_Office": "Kuching",
        "State": "Sarawak"
    },
    {
        "Postcode": "93000",
        "Location": "Jalan Hospital Timur",
        "Post_Office": "Kuching",
        "State": "Sarawak"
    },
    {
        "Postcode": "93000",
        "Location": "Jalan Main Bazaar",
        "Post_Office": "Kuching",
        "State": "Sarawak"
    },
    {
        "Postcode": "93000",
        "Location": "Jalan Maxwell",
        "Post_Office": "Kuching",
        "State": "Sarawak"
    },
    {
        "Postcode": "93000",
        "Location": "Jalan Mcdougall",
        "Post_Office": "Kuching",
        "State": "Sarawak"
    },
    {
        "Postcode": "93000",
        "Location": "Jalan Mosque",
        "Post_Office": "Kuching",
        "State": "Sarawak"
    },
    {
        "Postcode": "93000",
        "Location": "Jalan Ong Kwan Hin",
        "Post_Office": "Kuching",
        "State": "Sarawak"
    },
    {
        "Postcode": "93000",
        "Location": "Jalan Reservoir",
        "Post_Office": "Kuching",
        "State": "Sarawak"
    },
    {
        "Postcode": "93000",
        "Location": "Jalan Rodway",
        "Post_Office": "Kuching",
        "State": "Sarawak"
    },
    {
        "Postcode": "93000",
        "Location": "Jalan Tun Abang Haji Openg",
        "Post_Office": "Kuching",
        "State": "Sarawak"
    },
    {
        "Postcode": "93000",
        "Location": "Jalan Were",
        "Post_Office": "Kuching",
        "State": "Sarawak"
    },
    {
        "Postcode": "93000",
        "Location": "Ladang Ricketts",
        "Post_Office": "Kuching",
        "State": "Sarawak"
    },
    {
        "Postcode": "93000",
        "Location": "Lebuh Bishopgate",
        "Post_Office": "Kuching",
        "State": "Sarawak"
    },
    {
        "Postcode": "93000",
        "Location": "Lebuh Carpenter",
        "Post_Office": "Kuching",
        "State": "Sarawak"
    },
    {
        "Postcode": "93000",
        "Location": "Lebuh China",
        "Post_Office": "Kuching",
        "State": "Sarawak"
    },
    {
        "Postcode": "93000",
        "Location": "Lebuh Ewe Hai",
        "Post_Office": "Kuching",
        "State": "Sarawak"
    },
    {
        "Postcode": "93000",
        "Location": "Lebuh Gartak",
        "Post_Office": "Kuching",
        "State": "Sarawak"
    },
    {
        "Postcode": "93000",
        "Location": "Lebuh India",
        "Post_Office": "Kuching",
        "State": "Sarawak"
    },
    {
        "Postcode": "93000",
        "Location": "Lebuh Java",
        "Post_Office": "Kuching",
        "State": "Sarawak"
    },
    {
        "Postcode": "93000",
        "Location": "Lebuh Khoo Hun Yeang",
        "Post_Office": "Kuching",
        "State": "Sarawak"
    },
    {
        "Postcode": "93000",
        "Location": "Lebuh Market",
        "Post_Office": "Kuching",
        "State": "Sarawak"
    },
    {
        "Postcode": "93000",
        "Location": "Lebuh Power",
        "Post_Office": "Kuching",
        "State": "Sarawak"
    },
    {
        "Postcode": "93000",
        "Location": "Lebuh Ulu China",
        "Post_Office": "Kuching",
        "State": "Sarawak"
    },
    {
        "Postcode": "93000",
        "Location": "Lebuh Wayang 1",
        "Post_Office": "Kuching",
        "State": "Sarawak"
    },
    {
        "Postcode": "93000",
        "Location": "Lebuh Wayang 2",
        "Post_Office": "Kuching",
        "State": "Sarawak"
    },
    {
        "Postcode": "93000",
        "Location": "Lorong Ban Hock",
        "Post_Office": "Kuching",
        "State": "Sarawak"
    },
    {
        "Postcode": "93000",
        "Location": "Lorong Carmelite",
        "Post_Office": "Kuching",
        "State": "Sarawak"
    },
    {
        "Postcode": "93000",
        "Location": "Lorong Dock",
        "Post_Office": "Kuching",
        "State": "Sarawak"
    },
    {
        "Postcode": "93000",
        "Location": "Lorong Gertak",
        "Post_Office": "Kuching",
        "State": "Sarawak"
    },
    {
        "Postcode": "93000",
        "Location": "Lorong Kai Joo",
        "Post_Office": "Kuching",
        "State": "Sarawak"
    },
    {
        "Postcode": "93000",
        "Location": "Lorong Masjid",
        "Post_Office": "Kuching",
        "State": "Sarawak"
    },
    {
        "Postcode": "93000",
        "Location": "Lorong Mesjid India",
        "Post_Office": "Kuching",
        "State": "Sarawak"
    },
    {
        "Postcode": "93000",
        "Location": "Pengkalan Jeti",
        "Post_Office": "Kuching",
        "State": "Sarawak"
    },
    {
        "Postcode": "93000",
        "Location": "Persiaran Mill",
        "Post_Office": "Kuching",
        "State": "Sarawak"
    },
    {
        "Postcode": "93000",
        "Location": "Taman Budaya",
        "Post_Office": "Kuching",
        "State": "Sarawak"
    },
    {
        "Postcode": "93000",
        "Location": "Taman Oriental",
        "Post_Office": "Kuching",
        "State": "Sarawak"
    },
    {
        "Postcode": "93000",
        "Location": "Taman Ricketts",
        "Post_Office": "Kuching",
        "State": "Sarawak"
    }
]
