[
    {
        "Postcode": "93010",
        "Location": "Kampung Rambungan",
        "Post_Office": "Kuching",
        "State": "Sarawak"
    },
    {
        "Postcode": "93010",
        "Location": "Bengoh",
        "Post_Office": "Kuching",
        "State": "Sarawak"
    },
    {
        "Postcode": "93010",
        "Location": "Kampung Anah Rais",
        "Post_Office": "Kuching",
        "State": "Sarawak"
    },
    {
        "Postcode": "93010",
        "Location": "Kampung Bako",
        "Post_Office": "Kuching",
        "State": "Sarawak"
    },
    {
        "Postcode": "93010",
        "Location": "Kampung Beliong",
        "Post_Office": "Kuching",
        "State": "Sarawak"
    },
    {
        "Postcode": "93010",
        "Location": "Kampung Bengoh Padawan",
        "Post_Office": "Kuching",
        "State": "Sarawak"
    },
    {
        "Postcode": "93010",
        "Location": "Kampung Bratok",
        "Post_Office": "Kuching",
        "State": "Sarawak"
    },
    {
        "Postcode": "93010",
        "Location": "Kampung Bukit Panchor",
        "Post_Office": "Kuching",
        "State": "Sarawak"
    },
    {
        "Postcode": "93010",
        "Location": "Kampung Buntal",
        "Post_Office": "Kuching",
        "State": "Sarawak"
    },
    {
        "Postcode": "93010",
        "Location": "Kampung Bunuk",
        "Post_Office": "Kuching",
        "State": "Sarawak"
    },
    {
        "Postcode": "93010",
        "Location": "Kampung Geobilt",
        "Post_Office": "Kuching",
        "State": "Sarawak"
    },
    {
        "Postcode": "93010",
        "Location": "Kampung Karu",
        "Post_Office": "Kuching",
        "State": "Sarawak"
    },
    {
        "Postcode": "93010",
        "Location": "Kampung Lintang Baru",
        "Post_Office": "Kuching",
        "State": "Sarawak"
    },
    {
        "Postcode": "93010",
        "Location": "Kampung Mambong",
        "Post_Office": "Kuching",
        "State": "Sarawak"
    },
    {
        "Postcode": "93010",
        "Location": "Kampung Muhibah (Seberang Pending)",
        "Post_Office": "Kuching",
        "State": "Sarawak"
    },
    {
        "Postcode": "93010",
        "Location": "Kampung Pasir Pandak",
        "Post_Office": "Kuching",
        "State": "Sarawak"
    },
    {
        "Postcode": "93010",
        "Location": "Kampung Paya Mebi",
        "Post_Office": "Kuching",
        "State": "Sarawak"
    },
    {
        "Postcode": "93010",
        "Location": "Kampung Salak",
        "Post_Office": "Kuching",
        "State": "Sarawak"
    },
    {
        "Postcode": "93010",
        "Location": "Kampung Sejingat",
        "Post_Office": "Kuching",
        "State": "Sarawak"
    },
    {
        "Postcode": "93010",
        "Location": "Kampung Semadang",
        "Post_Office": "Kuching",
        "State": "Sarawak"
    },
    {
        "Postcode": "93010",
        "Location": "Kampung Semedang",
        "Post_Office": "Kuching",
        "State": "Sarawak"
    },
    {
        "Postcode": "93010",
        "Location": "Kampung Semilang",
        "Post_Office": "Kuching",
        "State": "Sarawak"
    },
    {
        "Postcode": "93010",
        "Location": "Kampung Simpok",
        "Post_Office": "Kuching",
        "State": "Sarawak"
    },
    {
        "Postcode": "93010",
        "Location": "Kampung Tapah",
        "Post_Office": "Kuching",
        "State": "Sarawak"
    },
    {
        "Postcode": "93010",
        "Location": "Kampung Terambol",
        "Post_Office": "Kuching",
        "State": "Sarawak"
    },
    {
        "Postcode": "93010",
        "Location": "Kolong Lapan",
        "Post_Office": "Kuching",
        "State": "Sarawak"
    },
    {
        "Postcode": "93010",
        "Location": "Muara Tebas",
        "Post_Office": "Kuching",
        "State": "Sarawak"
    },
    {
        "Postcode": "93010",
        "Location": "Pantai Damai",
        "Post_Office": "Kuching",
        "State": "Sarawak"
    },
    {
        "Postcode": "93010",
        "Location": "Santubong",
        "Post_Office": "Kuching",
        "State": "Sarawak"
    },
    {
        "Postcode": "93010",
        "Location": "Semenggok (Batu 15)",
        "Post_Office": "Kuching",
        "State": "Sarawak"
    },
    {
        "Postcode": "93010",
        "Location": "Tiang Bekap",
        "Post_Office": "Kuching",
        "State": "Sarawak"
    }
]
