[
    {
        "Postcode": "93050",
        "Location": "Taman Gemilang",
        "Post_Office": "Kuching",
        "State": "Sarawak"
    },
    {
        "Postcode": "93050",
        "Location": "Taman Grandview",
        "Post_Office": "Kuching",
        "State": "Sarawak"
    },
    {
        "Postcode": "93050",
        "Location": "Taman Haji Arshad",
        "Post_Office": "Kuching",
        "State": "Sarawak"
    },
    {
        "Postcode": "93050",
        "Location": "Taman Inai",
        "Post_Office": "Kuching",
        "State": "Sarawak"
    },
    {
        "Postcode": "93050",
        "Location": "Taman Lake Side",
        "Post_Office": "Kuching",
        "State": "Sarawak"
    },
    {
        "Postcode": "93050",
        "Location": "Taman Matang Avenue",
        "Post_Office": "Kuching",
        "State": "Sarawak"
    },
    {
        "Postcode": "93050",
        "Location": "Taman Inspire",
        "Post_Office": "Kuching",
        "State": "Sarawak"
    },
    {
        "Postcode": "93050",
        "Location": "Kampung Kolong 1",
        "Post_Office": "Kuching",
        "State": "Sarawak"
    },
    {
        "Postcode": "93050",
        "Location": "Taman Kopidim",
        "Post_Office": "Kuching",
        "State": "Sarawak"
    },
    {
        "Postcode": "93050",
        "Location": "Taman Pandan Jaya",
        "Post_Office": "Kuching",
        "State": "Sarawak"
    },
    {
        "Postcode": "93050",
        "Location": "Taman Sejijak",
        "Post_Office": "Kuching",
        "State": "Sarawak"
    },
    {
        "Postcode": "93050",
        "Location": "Taman Semariang Aman",
        "Post_Office": "Kuching",
        "State": "Sarawak"
    },
    {
        "Postcode": "93050",
        "Location": "Taman Kopodim,Jalan Matang",
        "Post_Office": "Kuching",
        "State": "Sarawak"
    },
    {
        "Postcode": "93050",
        "Location": "Lorong Penghulu Sudin",
        "Post_Office": "Kuching",
        "State": "Sarawak"
    },
    {
        "Postcode": "93050",
        "Location": "Pengkalan Sapi",
        "Post_Office": "Kuching",
        "State": "Sarawak"
    },
    {
        "Postcode": "93050",
        "Location": "Perumahan Rakyat Siol Kanan",
        "Post_Office": "Kuching",
        "State": "Sarawak"
    },
    {
        "Postcode": "93050",
        "Location": "Petra Jaya",
        "Post_Office": "Kuching",
        "State": "Sarawak"
    },
    {
        "Postcode": "93050",
        "Location": "Semarak Pinang Jawa",
        "Post_Office": "Kuching",
        "State": "Sarawak"
    },
    {
        "Postcode": "93050",
        "Location": "Semariang",
        "Post_Office": "Kuching",
        "State": "Sarawak"
    },
    {
        "Postcode": "93050",
        "Location": "Semerah Padi",
        "Post_Office": "Kuching",
        "State": "Sarawak"
    },
    {
        "Postcode": "93050",
        "Location": "Siol Kandis",
        "Post_Office": "Kuching",
        "State": "Sarawak"
    },
    {
        "Postcode": "93050",
        "Location": "Taman Abrar",
        "Post_Office": "Kuching",
        "State": "Sarawak"
    },
    {
        "Postcode": "93050",
        "Location": "Taman Ah Boon",
        "Post_Office": "Kuching",
        "State": "Sarawak"
    },
    {
        "Postcode": "93050",
        "Location": "Taman Aichi",
        "Post_Office": "Kuching",
        "State": "Sarawak"
    },
    {
        "Postcode": "93050",
        "Location": "Taman Alamanda Indah",
        "Post_Office": "Kuching",
        "State": "Sarawak"
    },
    {
        "Postcode": "93050",
        "Location": "Taman Alifah",
        "Post_Office": "Kuching",
        "State": "Sarawak"
    },
    {
        "Postcode": "93050",
        "Location": "Taman Amina",
        "Post_Office": "Kuching",
        "State": "Sarawak"
    },
    {
        "Postcode": "93050",
        "Location": "Taman Anib",
        "Post_Office": "Kuching",
        "State": "Sarawak"
    },
    {
        "Postcode": "93050",
        "Location": "Taman Asiah, Jalan Siol Kandis",
        "Post_Office": "Kuching",
        "State": "Sarawak"
    },
    {
        "Postcode": "93050",
        "Location": "Taman Bahjah",
        "Post_Office": "Kuching",
        "State": "Sarawak"
    },
    {
        "Postcode": "93050",
        "Location": "Taman Bersinar",
        "Post_Office": "Kuching",
        "State": "Sarawak"
    },
    {
        "Postcode": "93050",
        "Location": "Taman Bowood",
        "Post_Office": "Kuching",
        "State": "Sarawak"
    },
    {
        "Postcode": "93050",
        "Location": "Taman Bukit Mawar (Kampung Gita)",
        "Post_Office": "Kuching",
        "State": "Sarawak"
    },
    {
        "Postcode": "93050",
        "Location": "Taman Bunga Akasia",
        "Post_Office": "Kuching",
        "State": "Sarawak"
    },
    {
        "Postcode": "93050",
        "Location": "Taman Bunga Melati",
        "Post_Office": "Kuching",
        "State": "Sarawak"
    },
    {
        "Postcode": "93050",
        "Location": "Taman Bunga Raya",
        "Post_Office": "Kuching",
        "State": "Sarawak"
    },
    {
        "Postcode": "93050",
        "Location": "Taman Bunga Wangi",
        "Post_Office": "Kuching",
        "State": "Sarawak"
    },
    {
        "Postcode": "93050",
        "Location": "Taman Carisa",
        "Post_Office": "Kuching",
        "State": "Sarawak"
    },
    {
        "Postcode": "93050",
        "Location": "Taman Cresent",
        "Post_Office": "Kuching",
        "State": "Sarawak"
    },
    {
        "Postcode": "93050",
        "Location": "Taman Demak",
        "Post_Office": "Kuching",
        "State": "Sarawak"
    },
    {
        "Postcode": "93050",
        "Location": "Taman Desa Guru",
        "Post_Office": "Kuching",
        "State": "Sarawak"
    },
    {
        "Postcode": "93050",
        "Location": "Taman Desa Matang",
        "Post_Office": "Kuching",
        "State": "Sarawak"
    },
    {
        "Postcode": "93050",
        "Location": "Taman Dusun Bayu",
        "Post_Office": "Kuching",
        "State": "Sarawak"
    },
    {
        "Postcode": "93050",
        "Location": "Taman Dusun Indah",
        "Post_Office": "Kuching",
        "State": "Sarawak"
    },
    {
        "Postcode": "93050",
        "Location": "Taman Fah Tah",
        "Post_Office": "Kuching",
        "State": "Sarawak"
    },
    {
        "Postcode": "93050",
        "Location": "Taman Farhanas",
        "Post_Office": "Kuching",
        "State": "Sarawak"
    },
    {
        "Postcode": "93050",
        "Location": "Taman Fitrah",
        "Post_Office": "Kuching",
        "State": "Sarawak"
    },
    {
        "Postcode": "93050",
        "Location": "Taman Foong Joon",
        "Post_Office": "Kuching",
        "State": "Sarawak"
    },
    {
        "Postcode": "93050",
        "Location": "Taman Gita Jaya",
        "Post_Office": "Kuching",
        "State": "Sarawak"
    },
    {
        "Postcode": "93050",
        "Location": "Taman Green View",
        "Post_Office": "Kuching",
        "State": "Sarawak"
    },
    {
        "Postcode": "93050",
        "Location": "Taman Hamimas Jaya",
        "Post_Office": "Kuching",
        "State": "Sarawak"
    },
    {
        "Postcode": "93050",
        "Location": "Taman Heng Guan",
        "Post_Office": "Kuching",
        "State": "Sarawak"
    },
    {
        "Postcode": "93050",
        "Location": "Taman Heritage",
        "Post_Office": "Kuching",
        "State": "Sarawak"
    },
    {
        "Postcode": "93050",
        "Location": "Taman Hijrah",
        "Post_Office": "Kuching",
        "State": "Sarawak"
    },
    {
        "Postcode": "93050",
        "Location": "Taman Hillside",
        "Post_Office": "Kuching",
        "State": "Sarawak"
    },
    {
        "Postcode": "93050",
        "Location": "Taman Hipni",
        "Post_Office": "Kuching",
        "State": "Sarawak"
    },
    {
        "Postcode": "93050",
        "Location": "Taman Hussein",
        "Post_Office": "Kuching",
        "State": "Sarawak"
    },
    {
        "Postcode": "93050",
        "Location": "Taman Ibni Hasyim",
        "Post_Office": "Kuching",
        "State": "Sarawak"
    },
    {
        "Postcode": "93050",
        "Location": "Taman Ichi",
        "Post_Office": "Kuching",
        "State": "Sarawak"
    },
    {
        "Postcode": "93050",
        "Location": "Taman Juta Ria",
        "Post_Office": "Kuching",
        "State": "Sarawak"
    },
    {
        "Postcode": "93050",
        "Location": "Taman Kandis",
        "Post_Office": "Kuching",
        "State": "Sarawak"
    },
    {
        "Postcode": "93050",
        "Location": "Taman Kenanga",
        "Post_Office": "Kuching",
        "State": "Sarawak"
    },
    {
        "Postcode": "93050",
        "Location": "Taman Kubah Jaya",
        "Post_Office": "Kuching",
        "State": "Sarawak"
    },
    {
        "Postcode": "93050",
        "Location": "Taman Larender",
        "Post_Office": "Kuching",
        "State": "Sarawak"
    },
    {
        "Postcode": "93050",
        "Location": "Taman Layang - Layang",
        "Post_Office": "Kuching",
        "State": "Sarawak"
    },
    {
        "Postcode": "93050",
        "Location": "Taman Lebunda",
        "Post_Office": "Kuching",
        "State": "Sarawak"
    },
    {
        "Postcode": "93050",
        "Location": "Taman Lee Ling",
        "Post_Office": "Kuching",
        "State": "Sarawak"
    },
    {
        "Postcode": "93050",
        "Location": "Taman Long Seng",
        "Post_Office": "Kuching",
        "State": "Sarawak"
    },
    {
        "Postcode": "93050",
        "Location": "Taman Madehi",
        "Post_Office": "Kuching",
        "State": "Sarawak"
    },
    {
        "Postcode": "93050",
        "Location": "Taman Makmur",
        "Post_Office": "Kuching",
        "State": "Sarawak"
    },
    {
        "Postcode": "93050",
        "Location": "Taman Malihah",
        "Post_Office": "Kuching",
        "State": "Sarawak"
    },
    {
        "Postcode": "93050",
        "Location": "Taman Malihah Jaya",
        "Post_Office": "Kuching",
        "State": "Sarawak"
    },
    {
        "Postcode": "93050",
        "Location": "Taman Mastura",
        "Post_Office": "Kuching",
        "State": "Sarawak"
    },
    {
        "Postcode": "93050",
        "Location": "Taman Matang Baru",
        "Post_Office": "Kuching",
        "State": "Sarawak"
    },
    {
        "Postcode": "93050",
        "Location": "Taman Matang Height",
        "Post_Office": "Kuching",
        "State": "Sarawak"
    },
    {
        "Postcode": "93050",
        "Location": "Taman Matang Indah Jalan Matang",
        "Post_Office": "Kuching",
        "State": "Sarawak"
    },
    {
        "Postcode": "93050",
        "Location": "Taman Matang Jaya",
        "Post_Office": "Kuching",
        "State": "Sarawak"
    },
    {
        "Postcode": "93050",
        "Location": "Taman Mawar",
        "Post_Office": "Kuching",
        "State": "Sarawak"
    },
    {
        "Postcode": "93050",
        "Location": "Taman Melati",
        "Post_Office": "Kuching",
        "State": "Sarawak"
    },
    {
        "Postcode": "93050",
        "Location": "Taman Monah",
        "Post_Office": "Kuching",
        "State": "Sarawak"
    },
    {
        "Postcode": "93050",
        "Location": "Taman Murni",
        "Post_Office": "Kuching",
        "State": "Sarawak"
    },
    {
        "Postcode": "93050",
        "Location": "Taman Nestle Jalan Bakti",
        "Post_Office": "Kuching",
        "State": "Sarawak"
    },
    {
        "Postcode": "93050",
        "Location": "Taman Norjesnita",
        "Post_Office": "Kuching",
        "State": "Sarawak"
    },
    {
        "Postcode": "93050",
        "Location": "Taman Orchidwood",
        "Post_Office": "Kuching",
        "State": "Sarawak"
    },
    {
        "Postcode": "93050",
        "Location": "Taman Palma Indah",
        "Post_Office": "Kuching",
        "State": "Sarawak"
    },
    {
        "Postcode": "93050",
        "Location": "Taman Peaceful",
        "Post_Office": "Kuching",
        "State": "Sarawak"
    },
    {
        "Postcode": "93050",
        "Location": "Taman Peony",
        "Post_Office": "Kuching",
        "State": "Sarawak"
    },
    {
        "Postcode": "93050",
        "Location": "Taman Pj Heights",
        "Post_Office": "Kuching",
        "State": "Sarawak"
    },
    {
        "Postcode": "93050",
        "Location": "Taman Prc",
        "Post_Office": "Kuching",
        "State": "Sarawak"
    },
    {
        "Postcode": "93050",
        "Location": "Taman Puteri",
        "Post_Office": "Kuching",
        "State": "Sarawak"
    },
    {
        "Postcode": "93050",
        "Location": "Taman Rafia",
        "Post_Office": "Kuching",
        "State": "Sarawak"
    },
    {
        "Postcode": "93050",
        "Location": "Taman Rasa Jaya",
        "Post_Office": "Kuching",
        "State": "Sarawak"
    },
    {
        "Postcode": "93050",
        "Location": "Taman Rasa Makmur",
        "Post_Office": "Kuching",
        "State": "Sarawak"
    },
    {
        "Postcode": "93050",
        "Location": "Taman Rassnorm",
        "Post_Office": "Kuching",
        "State": "Sarawak"
    },
    {
        "Postcode": "93050",
        "Location": "Taman Regent (Petra Jaya)",
        "Post_Office": "Kuching",
        "State": "Sarawak"
    },
    {
        "Postcode": "93050",
        "Location": "Taman Riverview",
        "Post_Office": "Kuching",
        "State": "Sarawak"
    },
    {
        "Postcode": "93050",
        "Location": "Taman Rose",
        "Post_Office": "Kuching",
        "State": "Sarawak"
    },
    {
        "Postcode": "93050",
        "Location": "Taman Ruhaya",
        "Post_Office": "Kuching",
        "State": "Sarawak"
    },
    {
        "Postcode": "93050",
        "Location": "Taman S.K. Liew Jalan Batu Kawa - Matang",
        "Post_Office": "Kuching",
        "State": "Sarawak"
    },
    {
        "Postcode": "93050",
        "Location": "Taman Sajoli",
        "Post_Office": "Kuching",
        "State": "Sarawak"
    },
    {
        "Postcode": "93050",
        "Location": "Taman Salma",
        "Post_Office": "Kuching",
        "State": "Sarawak"
    },
    {
        "Postcode": "93050",
        "Location": "Taman Sebah Height",
        "Post_Office": "Kuching",
        "State": "Sarawak"
    },
    {
        "Postcode": "93050",
        "Location": "Taman Selasih Jalan Cenderawasih Lorong 1A",
        "Post_Office": "Kuching",
        "State": "Sarawak"
    },
    {
        "Postcode": "93050",
        "Location": "Taman Sepakat Jaya",
        "Post_Office": "Kuching",
        "State": "Sarawak"
    },
    {
        "Postcode": "93050",
        "Location": "Taman Sepawie",
        "Post_Office": "Kuching",
        "State": "Sarawak"
    },
    {
        "Postcode": "93050",
        "Location": "Taman Seri Kandis",
        "Post_Office": "Kuching",
        "State": "Sarawak"
    },
    {
        "Postcode": "93050",
        "Location": "Taman Seri Semerah Padi",
        "Post_Office": "Kuching",
        "State": "Sarawak"
    },
    {
        "Postcode": "93050",
        "Location": "Taman Seri Sena",
        "Post_Office": "Kuching",
        "State": "Sarawak"
    },
    {
        "Postcode": "93050",
        "Location": "Taman Seri Usang",
        "Post_Office": "Kuching",
        "State": "Sarawak"
    },
    {
        "Postcode": "93050",
        "Location": "Taman Serira",
        "Post_Office": "Kuching",
        "State": "Sarawak"
    },
    {
        "Postcode": "93050",
        "Location": "Taman Setia",
        "Post_Office": "Kuching",
        "State": "Sarawak"
    },
    {
        "Postcode": "93050",
        "Location": "Taman Sheikh Ismail",
        "Post_Office": "Kuching",
        "State": "Sarawak"
    },
    {
        "Postcode": "93050",
        "Location": "Taman Sonia",
        "Post_Office": "Kuching",
        "State": "Sarawak"
    },
    {
        "Postcode": "93050",
        "Location": "Taman Sourabaya Indah",
        "Post_Office": "Kuching",
        "State": "Sarawak"
    },
    {
        "Postcode": "93050",
        "Location": "Taman Sri Makmur",
        "Post_Office": "Kuching",
        "State": "Sarawak"
    },
    {
        "Postcode": "93050",
        "Location": "Taman Sri Malihah 2",
        "Post_Office": "Kuching",
        "State": "Sarawak"
    },
    {
        "Postcode": "93050",
        "Location": "Taman Sri Matang",
        "Post_Office": "Kuching",
        "State": "Sarawak"
    },
    {
        "Postcode": "93050",
        "Location": "Taman Sri Melaga",
        "Post_Office": "Kuching",
        "State": "Sarawak"
    },
    {
        "Postcode": "93050",
        "Location": "Taman Sri Melati",
        "Post_Office": "Kuching",
        "State": "Sarawak"
    },
    {
        "Postcode": "93050",
        "Location": "Taman Sri Perkasa",
        "Post_Office": "Kuching",
        "State": "Sarawak"
    },
    {
        "Postcode": "93050",
        "Location": "Taman Sri Serapi",
        "Post_Office": "Kuching",
        "State": "Sarawak"
    },
    {
        "Postcode": "93050",
        "Location": "Taman Sri Wangi",
        "Post_Office": "Kuching",
        "State": "Sarawak"
    },
    {
        "Postcode": "93050",
        "Location": "Taman Sukma",
        "Post_Office": "Kuching",
        "State": "Sarawak"
    },
    {
        "Postcode": "93050",
        "Location": "Taman Surabaya",
        "Post_Office": "Kuching",
        "State": "Sarawak"
    },
    {
        "Postcode": "93050",
        "Location": "Taman Suria Jaya",
        "Post_Office": "Kuching",
        "State": "Sarawak"
    },
    {
        "Postcode": "93050",
        "Location": "Taman Syn Syn",
        "Post_Office": "Kuching",
        "State": "Sarawak"
    },
    {
        "Postcode": "93050",
        "Location": "Taman Tanjong",
        "Post_Office": "Kuching",
        "State": "Sarawak"
    },
    {
        "Postcode": "93050",
        "Location": "Taman Tatai Kumang",
        "Post_Office": "Kuching",
        "State": "Sarawak"
    },
    {
        "Postcode": "93050",
        "Location": "Taman Teratai",
        "Post_Office": "Kuching",
        "State": "Sarawak"
    },
    {
        "Postcode": "93050",
        "Location": "Taman Trinora",
        "Post_Office": "Kuching",
        "State": "Sarawak"
    },
    {
        "Postcode": "93050",
        "Location": "Taman Tupong Jaya",
        "Post_Office": "Kuching",
        "State": "Sarawak"
    },
    {
        "Postcode": "93050",
        "Location": "Taman Unique",
        "Post_Office": "Kuching",
        "State": "Sarawak"
    },
    {
        "Postcode": "93050",
        "Location": "Taman Wangi Indah Jalan Simpor",
        "Post_Office": "Kuching",
        "State": "Sarawak"
    },
    {
        "Postcode": "93050",
        "Location": "Taman Wangsa",
        "Post_Office": "Kuching",
        "State": "Sarawak"
    },
    {
        "Postcode": "93050",
        "Location": "Taman Wirajaya Jalan Bukit Siol",
        "Post_Office": "Kuching",
        "State": "Sarawak"
    },
    {
        "Postcode": "93050",
        "Location": "Taman Won",
        "Post_Office": "Kuching",
        "State": "Sarawak"
    },
    {
        "Postcode": "93050",
        "Location": "Taman Won Baru",
        "Post_Office": "Kuching",
        "State": "Sarawak"
    },
    {
        "Postcode": "93050",
        "Location": "Taman Wummas",
        "Post_Office": "Kuching",
        "State": "Sarawak"
    },
    {
        "Postcode": "93050",
        "Location": "Taman Yen Yen",
        "Post_Office": "Kuching",
        "State": "Sarawak"
    },
    {
        "Postcode": "93050",
        "Location": "Taman Yen Yen Park Jalan Matang",
        "Post_Office": "Kuching",
        "State": "Sarawak"
    },
    {
        "Postcode": "93050",
        "Location": "Tinggian Demak",
        "Post_Office": "Kuching",
        "State": "Sarawak"
    },
    {
        "Postcode": "93050",
        "Location": "Tupong Jaya Jalan Merdeka",
        "Post_Office": "Kuching",
        "State": "Sarawak"
    },
    {
        "Postcode": "93050",
        "Location": "Kampung Rampangi 1",
        "Post_Office": "Kuching",
        "State": "Sarawak"
    },
    {
        "Postcode": "93050",
        "Location": "Kampung Rampangi 2",
        "Post_Office": "Kuching",
        "State": "Sarawak"
    },
    {
        "Postcode": "93050",
        "Location": "Kampung Rampangi 3",
        "Post_Office": "Kuching",
        "State": "Sarawak"
    },
    {
        "Postcode": "93050",
        "Location": "Kampung Semariang Jaya 1",
        "Post_Office": "Kuching",
        "State": "Sarawak"
    },
    {
        "Postcode": "93050",
        "Location": "Kampung Semariang Jaya 2",
        "Post_Office": "Kuching",
        "State": "Sarawak"
    },
    {
        "Postcode": "93050",
        "Location": "Lorong 1, Jalan Istana",
        "Post_Office": "Kuching",
        "State": "Sarawak"
    },
    {
        "Postcode": "93050",
        "Location": "Lorong 2, Jalan Istana",
        "Post_Office": "Kuching",
        "State": "Sarawak"
    },
    {
        "Postcode": "93050",
        "Location": "Lorong 3, Jalan Istana",
        "Post_Office": "Kuching",
        "State": "Sarawak"
    },
    {
        "Postcode": "93050",
        "Location": "Lorong 4, Jalan Istana",
        "Post_Office": "Kuching",
        "State": "Sarawak"
    },
    {
        "Postcode": "93050",
        "Location": "Semariang Aman 1",
        "Post_Office": "Kuching",
        "State": "Sarawak"
    },
    {
        "Postcode": "93050",
        "Location": "Semariang Aman 2",
        "Post_Office": "Kuching",
        "State": "Sarawak"
    },
    {
        "Postcode": "93050",
        "Location": "Semariang Bandar Baru 1",
        "Post_Office": "Kuching",
        "State": "Sarawak"
    },
    {
        "Postcode": "93050",
        "Location": "Semariang Bandar Baru 2",
        "Post_Office": "Kuching",
        "State": "Sarawak"
    },
    {
        "Postcode": "93050",
        "Location": "Semariang Bandar Baru 3",
        "Post_Office": "Kuching",
        "State": "Sarawak"
    },
    {
        "Postcode": "93050",
        "Location": "Semariang Bandar Baru 4",
        "Post_Office": "Kuching",
        "State": "Sarawak"
    },
    {
        "Postcode": "93050",
        "Location": "Semariang Bandar Baru 5",
        "Post_Office": "Kuching",
        "State": "Sarawak"
    },
    {
        "Postcode": "93050",
        "Location": "Taman Indah 1",
        "Post_Office": "Kuching",
        "State": "Sarawak"
    },
    {
        "Postcode": "93050",
        "Location": "Taman Indah 2",
        "Post_Office": "Kuching",
        "State": "Sarawak"
    },
    {
        "Postcode": "93050",
        "Location": "Taman Puteri 1",
        "Post_Office": "Kuching",
        "State": "Sarawak"
    },
    {
        "Postcode": "93050",
        "Location": "Taman Puteri 2",
        "Post_Office": "Kuching",
        "State": "Sarawak"
    },
    {
        "Postcode": "93050",
        "Location": "Taman Puteri 3",
        "Post_Office": "Kuching",
        "State": "Sarawak"
    },
    {
        "Postcode": "93050",
        "Location": "Kampung Lintang",
        "Post_Office": "Kuching",
        "State": "Sarawak"
    },
    {
        "Postcode": "93050",
        "Location": "Taman Emas",
        "Post_Office": "Kuching",
        "State": "Sarawak"
    },
    {
        "Postcode": "93050",
        "Location": "Taman Sri Jaya",
        "Post_Office": "Kuching",
        "State": "Sarawak"
    },
    {
        "Postcode": "93050",
        "Location": "Kampung Heritage",
        "Post_Office": "Kuching",
        "State": "Sarawak"
    },
    {
        "Postcode": "93050",
        "Location": "Taman Sinar Serapi",
        "Post_Office": "Kuching",
        "State": "Sarawak"
    },
    {
        "Postcode": "93050",
        "Location": "Jalan Merdeka",
        "Post_Office": "Kuching",
        "State": "Sarawak"
    },
    {
        "Postcode": "93050",
        "Location": "Kampung Boyan",
        "Post_Office": "Kuching",
        "State": "Sarawak"
    },
    {
        "Postcode": "93050",
        "Location": "Bintawa Batu",
        "Post_Office": "Kuching",
        "State": "Sarawak"
    },
    {
        "Postcode": "93050",
        "Location": "Demak",
        "Post_Office": "Kuching",
        "State": "Sarawak"
    },
    {
        "Postcode": "93050",
        "Location": "Demak Laut",
        "Post_Office": "Kuching",
        "State": "Sarawak"
    },
    {
        "Postcode": "93050",
        "Location": "Gita Laut",
        "Post_Office": "Kuching",
        "State": "Sarawak"
    },
    {
        "Postcode": "93050",
        "Location": "Gita Laut Tengah",
        "Post_Office": "Kuching",
        "State": "Sarawak"
    },
    {
        "Postcode": "93050",
        "Location": "Jalan Astana",
        "Post_Office": "Kuching",
        "State": "Sarawak"
    },
    {
        "Postcode": "93050",
        "Location": "Jalan Astana Lot",
        "Post_Office": "Kuching",
        "State": "Sarawak"
    },
    {
        "Postcode": "93050",
        "Location": "Jalan Bako",
        "Post_Office": "Kuching",
        "State": "Sarawak"
    },
    {
        "Postcode": "93050",
        "Location": "Jalan Bangau",
        "Post_Office": "Kuching",
        "State": "Sarawak"
    },
    {
        "Postcode": "93050",
        "Location": "Jalan Belian",
        "Post_Office": "Kuching",
        "State": "Sarawak"
    },
    {
        "Postcode": "93050",
        "Location": "Jalan Bukit Siol",
        "Post_Office": "Kuching",
        "State": "Sarawak"
    },
    {
        "Postcode": "93050",
        "Location": "Jalan Bunga Cempaka (Kampung Gita)",
        "Post_Office": "Kuching",
        "State": "Sarawak"
    },
    {
        "Postcode": "93050",
        "Location": "Jalan Bunga Engkodok (Kampung Gita)",
        "Post_Office": "Kuching",
        "State": "Sarawak"
    },
    {
        "Postcode": "93050",
        "Location": "Jalan Bunga Kasturi (Kampung Gita)",
        "Post_Office": "Kuching",
        "State": "Sarawak"
    },
    {
        "Postcode": "93050",
        "Location": "Jalan Bunga Kenanga (Kampung Gita)",
        "Post_Office": "Kuching",
        "State": "Sarawak"
    },
    {
        "Postcode": "93050",
        "Location": "Jalan Bunga Melati (Kampung Gita)",
        "Post_Office": "Kuching",
        "State": "Sarawak"
    },
    {
        "Postcode": "93050",
        "Location": "Jalan Bunga Melor (Kampung Gita)",
        "Post_Office": "Kuching",
        "State": "Sarawak"
    },
    {
        "Postcode": "93050",
        "Location": "Jalan Bunga Raya (Kampung Gita)",
        "Post_Office": "Kuching",
        "State": "Sarawak"
    },
    {
        "Postcode": "93050",
        "Location": "Jalan Bunga Rose (Kampung Gita)",
        "Post_Office": "Kuching",
        "State": "Sarawak"
    },
    {
        "Postcode": "93050",
        "Location": "Jalan Bunga Tanjung (Kampung Gita)",
        "Post_Office": "Kuching",
        "State": "Sarawak"
    },
    {
        "Postcode": "93050",
        "Location": "Jalan Bunga Teratai (Kampung Gita)",
        "Post_Office": "Kuching",
        "State": "Sarawak"
    },
    {
        "Postcode": "93050",
        "Location": "Jalan Bunga Tiong (Kampung Gita)",
        "Post_Office": "Kuching",
        "State": "Sarawak"
    },
    {
        "Postcode": "93050",
        "Location": "Jalan Bunga Tongkeng (Kampung Gita)",
        "Post_Office": "Kuching",
        "State": "Sarawak"
    },
    {
        "Postcode": "93050",
        "Location": "Jalan Cederawasih",
        "Post_Office": "Kuching",
        "State": "Sarawak"
    },
    {
        "Postcode": "93050",
        "Location": "Jalan Crocker",
        "Post_Office": "Kuching",
        "State": "Sarawak"
    },
    {
        "Postcode": "93050",
        "Location": "Jalan Depo",
        "Post_Office": "Kuching",
        "State": "Sarawak"
    },
    {
        "Postcode": "93050",
        "Location": "Jalan Enggang",
        "Post_Office": "Kuching",
        "State": "Sarawak"
    },
    {
        "Postcode": "93050",
        "Location": "Jalan Field Force",
        "Post_Office": "Kuching",
        "State": "Sarawak"
    },
    {
        "Postcode": "93050",
        "Location": "Jalan Gani",
        "Post_Office": "Kuching",
        "State": "Sarawak"
    },
    {
        "Postcode": "93050",
        "Location": "Jalan Geruda",
        "Post_Office": "Kuching",
        "State": "Sarawak"
    },
    {
        "Postcode": "93050",
        "Location": "Jalan Haji Sobeng",
        "Post_Office": "Kuching",
        "State": "Sarawak"
    },
    {
        "Postcode": "93050",
        "Location": "Jalan Hashim Jaafar",
        "Post_Office": "Kuching",
        "State": "Sarawak"
    },
    {
        "Postcode": "93050",
        "Location": "Jalan Helang",
        "Post_Office": "Kuching",
        "State": "Sarawak"
    },
    {
        "Postcode": "93050",
        "Location": "Jalan Istana",
        "Post_Office": "Kuching",
        "State": "Sarawak"
    },
    {
        "Postcode": "93050",
        "Location": "Jalan Istana Lama",
        "Post_Office": "Kuching",
        "State": "Sarawak"
    },
    {
        "Postcode": "93050",
        "Location": "Jalan Juara",
        "Post_Office": "Kuching",
        "State": "Sarawak"
    },
    {
        "Postcode": "93050",
        "Location": "Jalan Kenari",
        "Post_Office": "Kuching",
        "State": "Sarawak"
    },
    {
        "Postcode": "93050",
        "Location": "Jalan Layang-Layang",
        "Post_Office": "Kuching",
        "State": "Sarawak"
    },
    {
        "Postcode": "93050",
        "Location": "Jalan Matang",
        "Post_Office": "Kuching",
        "State": "Sarawak"
    },
    {
        "Postcode": "93050",
        "Location": "Jalan Medang",
        "Post_Office": "Kuching",
        "State": "Sarawak"
    },
    {
        "Postcode": "93050",
        "Location": "Jalan Melindo",
        "Post_Office": "Kuching",
        "State": "Sarawak"
    },
    {
        "Postcode": "93050",
        "Location": "Jalan Menggeris",
        "Post_Office": "Kuching",
        "State": "Sarawak"
    },
    {
        "Postcode": "93050",
        "Location": "Jalan Merak",
        "Post_Office": "Kuching",
        "State": "Sarawak"
    },
    {
        "Postcode": "93050",
        "Location": "Jalan Pedidi",
        "Post_Office": "Kuching",
        "State": "Sarawak"
    },
    {
        "Postcode": "93050",
        "Location": "Jalan Perupok",
        "Post_Office": "Kuching",
        "State": "Sarawak"
    },
    {
        "Postcode": "93050",
        "Location": "Jalan Piala",
        "Post_Office": "Kuching",
        "State": "Sarawak"
    },
    {
        "Postcode": "93050",
        "Location": "Jalan Punai",
        "Post_Office": "Kuching",
        "State": "Sarawak"
    },
    {
        "Postcode": "93050",
        "Location": "Jalan Pustaka",
        "Post_Office": "Kuching",
        "State": "Sarawak"
    },
    {
        "Postcode": "93050",
        "Location": "Jalan Rajawali",
        "Post_Office": "Kuching",
        "State": "Sarawak"
    },
    {
        "Postcode": "93050",
        "Location": "Jalan Saadon",
        "Post_Office": "Kuching",
        "State": "Sarawak"
    },
    {
        "Postcode": "93050",
        "Location": "Jalan Samariang",
        "Post_Office": "Kuching",
        "State": "Sarawak"
    },
    {
        "Postcode": "93050",
        "Location": "Jalan Samariang Batu",
        "Post_Office": "Kuching",
        "State": "Sarawak"
    },
    {
        "Postcode": "93050",
        "Location": "Jalan Semarak",
        "Post_Office": "Kuching",
        "State": "Sarawak"
    },
    {
        "Postcode": "93050",
        "Location": "Jalan Semariang",
        "Post_Office": "Kuching",
        "State": "Sarawak"
    },
    {
        "Postcode": "93050",
        "Location": "Jalan Semariang Lot",
        "Post_Office": "Kuching",
        "State": "Sarawak"
    },
    {
        "Postcode": "93050",
        "Location": "Jalan Sentubong",
        "Post_Office": "Kuching",
        "State": "Sarawak"
    },
    {
        "Postcode": "93050",
        "Location": "Jalan Serunai",
        "Post_Office": "Kuching",
        "State": "Sarawak"
    },
    {
        "Postcode": "93050",
        "Location": "Jalan Siol Kanan",
        "Post_Office": "Kuching",
        "State": "Sarawak"
    },
    {
        "Postcode": "93050",
        "Location": "Jalan Siol Kandis",
        "Post_Office": "Kuching",
        "State": "Sarawak"
    },
    {
        "Postcode": "93050",
        "Location": "Jalan Sultan Tengah",
        "Post_Office": "Kuching",
        "State": "Sarawak"
    },
    {
        "Postcode": "93050",
        "Location": "Jalan Sungai Tengah Kolong",
        "Post_Office": "Kuching",
        "State": "Sarawak"
    },
    {
        "Postcode": "93050",
        "Location": "Jalan Tan Sri Abang Ikhwan",
        "Post_Office": "Kuching",
        "State": "Sarawak"
    },
    {
        "Postcode": "93050",
        "Location": "Jalan Tun Abdul Rahman Yakub",
        "Post_Office": "Kuching",
        "State": "Sarawak"
    },
    {
        "Postcode": "93050",
        "Location": "Jalan Unggas",
        "Post_Office": "Kuching",
        "State": "Sarawak"
    },
    {
        "Postcode": "93050",
        "Location": "Kampung Bintawa Hilir",
        "Post_Office": "Kuching",
        "State": "Sarawak"
    },
    {
        "Postcode": "93050",
        "Location": "Kampung Bintawa Hulu",
        "Post_Office": "Kuching",
        "State": "Sarawak"
    },
    {
        "Postcode": "93050",
        "Location": "Kampung Bintawa Tengah",
        "Post_Office": "Kuching",
        "State": "Sarawak"
    },
    {
        "Postcode": "93050",
        "Location": "Kampung Gersik",
        "Post_Office": "Kuching",
        "State": "Sarawak"
    },
    {
        "Postcode": "93050",
        "Location": "Kampung Gita Lama",
        "Post_Office": "Kuching",
        "State": "Sarawak"
    },
    {
        "Postcode": "93050",
        "Location": "Kampung Gita Laut",
        "Post_Office": "Kuching",
        "State": "Sarawak"
    },
    {
        "Postcode": "93050",
        "Location": "Kampung Kapitan Nandak",
        "Post_Office": "Kuching",
        "State": "Sarawak"
    },
    {
        "Postcode": "93050",
        "Location": "Kampung Lada Pedas",
        "Post_Office": "Kuching",
        "State": "Sarawak"
    },
    {
        "Postcode": "93050",
        "Location": "Kampung Laruh Scheme",
        "Post_Office": "Kuching",
        "State": "Sarawak"
    },
    {
        "Postcode": "93050",
        "Location": "Kampung Malaysia Jaya",
        "Post_Office": "Kuching",
        "State": "Sarawak"
    },
    {
        "Postcode": "93050",
        "Location": "Kampung Matang Batu 10",
        "Post_Office": "Kuching",
        "State": "Sarawak"
    },
    {
        "Postcode": "93050",
        "Location": "Kampung Nangka (Jalan Matang)",
        "Post_Office": "Kuching",
        "State": "Sarawak"
    },
    {
        "Postcode": "93050",
        "Location": "Kampung Panglima Seman",
        "Post_Office": "Kuching",
        "State": "Sarawak"
    },
    {
        "Postcode": "93050",
        "Location": "Kampung Panglima Seman Hilir",
        "Post_Office": "Kuching",
        "State": "Sarawak"
    },
    {
        "Postcode": "93050",
        "Location": "Kampung Panglima Seman Hulu",
        "Post_Office": "Kuching",
        "State": "Sarawak"
    },
    {
        "Postcode": "93050",
        "Location": "Kampung Panglima Seman Lama",
        "Post_Office": "Kuching",
        "State": "Sarawak"
    },
    {
        "Postcode": "93050",
        "Location": "Kampung Pinang Jawa",
        "Post_Office": "Kuching",
        "State": "Sarawak"
    },
    {
        "Postcode": "93050",
        "Location": "Kampung Pulo Hilir",
        "Post_Office": "Kuching",
        "State": "Sarawak"
    },
    {
        "Postcode": "93050",
        "Location": "Kampung Pulo Hulu",
        "Post_Office": "Kuching",
        "State": "Sarawak"
    },
    {
        "Postcode": "93050",
        "Location": "Kampung Semarang",
        "Post_Office": "Kuching",
        "State": "Sarawak"
    },
    {
        "Postcode": "93050",
        "Location": "Kampung Semariang Batu",
        "Post_Office": "Kuching",
        "State": "Sarawak"
    },
    {
        "Postcode": "93050",
        "Location": "Kampung Semariang Lama",
        "Post_Office": "Kuching",
        "State": "Sarawak"
    },
    {
        "Postcode": "93050",
        "Location": "Kampung Semerah Padi",
        "Post_Office": "Kuching",
        "State": "Sarawak"
    },
    {
        "Postcode": "93050",
        "Location": "Kampung Sinjan",
        "Post_Office": "Kuching",
        "State": "Sarawak"
    },
    {
        "Postcode": "93050",
        "Location": "Kampung Siol Kandis Jalan Siol Kandis",
        "Post_Office": "Kuching",
        "State": "Sarawak"
    },
    {
        "Postcode": "93050",
        "Location": "Kampung Stadium",
        "Post_Office": "Kuching",
        "State": "Sarawak"
    },
    {
        "Postcode": "93050",
        "Location": "Kampung Sungai Bedil Besar",
        "Post_Office": "Kuching",
        "State": "Sarawak"
    },
    {
        "Postcode": "93050",
        "Location": "Kampung Sungai Bedil Kecil",
        "Post_Office": "Kuching",
        "State": "Sarawak"
    },
    {
        "Postcode": "93050",
        "Location": "Kampung Surabaya Hilir",
        "Post_Office": "Kuching",
        "State": "Sarawak"
    },
    {
        "Postcode": "93050",
        "Location": "Kampung Surabaya Hulu",
        "Post_Office": "Kuching",
        "State": "Sarawak"
    },
    {
        "Postcode": "93050",
        "Location": "Kampung Tanjung",
        "Post_Office": "Kuching",
        "State": "Sarawak"
    },
    {
        "Postcode": "93050",
        "Location": "Kampung Tupong",
        "Post_Office": "Kuching",
        "State": "Sarawak"
    },
    {
        "Postcode": "93050",
        "Location": "Kampung Tupong Astana",
        "Post_Office": "Kuching",
        "State": "Sarawak"
    },
    {
        "Postcode": "93050",
        "Location": "Kampung Tupong Batu",
        "Post_Office": "Kuching",
        "State": "Sarawak"
    },
    {
        "Postcode": "93050",
        "Location": "Kampung Tupong Hulu",
        "Post_Office": "Kuching",
        "State": "Sarawak"
    },
    {
        "Postcode": "93050",
        "Location": "Kampung Tupong Jaya Jalan Merdeka",
        "Post_Office": "Kuching",
        "State": "Sarawak"
    },
    {
        "Postcode": "93050",
        "Location": "Kampung Tupong Tengah",
        "Post_Office": "Kuching",
        "State": "Sarawak"
    },
    {
        "Postcode": "93050",
        "Location": "Kampung Wawasan Jaya",
        "Post_Office": "Kuching",
        "State": "Sarawak"
    },
    {
        "Postcode": "93050",
        "Location": "Kubah Ria",
        "Post_Office": "Kuching",
        "State": "Sarawak"
    },
    {
        "Postcode": "93050",
        "Location": "Kuching Family Park",
        "Post_Office": "Kuching",
        "State": "Sarawak"
    },
    {
        "Postcode": "93050",
        "Location": "Lorong Haji Babel",
        "Post_Office": "Kuching",
        "State": "Sarawak"
    },
    {
        "Postcode": "93050",
        "Location": "Lorong Haji Said",
        "Post_Office": "Kuching",
        "State": "Sarawak"
    },
    {
        "Postcode": "93050",
        "Location": "Lorong Mustaffa",
        "Post_Office": "Kuching",
        "State": "Sarawak"
    }
]
