[
    {
        "Postcode": "93100",
        "Location": "Green Hill",
        "Post_Office": "Kuching",
        "State": "Sarawak"
    },
    {
        "Postcode": "93100",
        "Location": "Jalan Abell",
        "Post_Office": "Kuching",
        "State": "Sarawak"
    },
    {
        "Postcode": "93100",
        "Location": "Jalan Abell Utara",
        "Post_Office": "Kuching",
        "State": "Sarawak"
    },
    {
        "Postcode": "93100",
        "Location": "Jalan Ang Cheng Ho",
        "Post_Office": "Kuching",
        "State": "Sarawak"
    },
    {
        "Postcode": "93100",
        "Location": "Jalan Ban Hock",
        "Post_Office": "Kuching",
        "State": "Sarawak"
    },
    {
        "Postcode": "93100",
        "Location": "Jalan Ban Hock Drive",
        "Post_Office": "Kuching",
        "State": "Sarawak"
    },
    {
        "Postcode": "93100",
        "Location": "Jalan Borneo",
        "Post_Office": "Kuching",
        "State": "Sarawak"
    },
    {
        "Postcode": "93100",
        "Location": "Jalan Bukit Mata",
        "Post_Office": "Kuching",
        "State": "Sarawak"
    },
    {
        "Postcode": "93100",
        "Location": "Jalan Central Garden",
        "Post_Office": "Kuching",
        "State": "Sarawak"
    },
    {
        "Postcode": "93100",
        "Location": "Jalan Chan Chin Ann",
        "Post_Office": "Kuching",
        "State": "Sarawak"
    },
    {
        "Postcode": "93100",
        "Location": "Jalan Deshon",
        "Post_Office": "Kuching",
        "State": "Sarawak"
    },
    {
        "Postcode": "93100",
        "Location": "Jalan Green Hill",
        "Post_Office": "Kuching",
        "State": "Sarawak"
    },
    {
        "Postcode": "93100",
        "Location": "Jalan Mathies",
        "Post_Office": "Kuching",
        "State": "Sarawak"
    },
    {
        "Postcode": "93100",
        "Location": "Jalan Nipah",
        "Post_Office": "Kuching",
        "State": "Sarawak"
    },
    {
        "Postcode": "93100",
        "Location": "Jalan Padungan",
        "Post_Office": "Kuching",
        "State": "Sarawak"
    },
    {
        "Postcode": "93100",
        "Location": "Jalan Padungan Utara",
        "Post_Office": "Kuching",
        "State": "Sarawak"
    },
    {
        "Postcode": "93100",
        "Location": "Jalan Petanak",
        "Post_Office": "Kuching",
        "State": "Sarawak"
    },
    {
        "Postcode": "93100",
        "Location": "Jalan Rumbia",
        "Post_Office": "Kuching",
        "State": "Sarawak"
    },
    {
        "Postcode": "93100",
        "Location": "Jalan Song Kheng Hai",
        "Post_Office": "Kuching",
        "State": "Sarawak"
    },
    {
        "Postcode": "93100",
        "Location": "Jalan Song Thian Cheok",
        "Post_Office": "Kuching",
        "State": "Sarawak"
    },
    {
        "Postcode": "93100",
        "Location": "Jalan Sungai Padungan",
        "Post_Office": "Kuching",
        "State": "Sarawak"
    },
    {
        "Postcode": "93100",
        "Location": "Jalan Temple",
        "Post_Office": "Kuching",
        "State": "Sarawak"
    },
    {
        "Postcode": "93100",
        "Location": "Jalan Tukang Besi",
        "Post_Office": "Kuching",
        "State": "Sarawak"
    },
    {
        "Postcode": "93100",
        "Location": "Jalan Tunku Abdul Rahman",
        "Post_Office": "Kuching",
        "State": "Sarawak"
    },
    {
        "Postcode": "93100",
        "Location": "Kmc Terrace House",
        "Post_Office": "Kuching",
        "State": "Sarawak"
    },
    {
        "Postcode": "93100",
        "Location": "Padungan Arcade",
        "Post_Office": "Kuching",
        "State": "Sarawak"
    },
    {
        "Postcode": "93100",
        "Location": "Persiaran Lucky",
        "Post_Office": "Kuching",
        "State": "Sarawak"
    },
    {
        "Postcode": "93100",
        "Location": "Rumah Pangsa Mpk",
        "Post_Office": "Kuching",
        "State": "Sarawak"
    },
    {
        "Postcode": "93100",
        "Location": "Taman Central",
        "Post_Office": "Kuching",
        "State": "Sarawak"
    },
    {
        "Postcode": "93100",
        "Location": "Taman Goodland",
        "Post_Office": "Kuching",
        "State": "Sarawak"
    },
    {
        "Postcode": "93100",
        "Location": "Taman Kereta",
        "Post_Office": "Kuching",
        "State": "Sarawak"
    },
    {
        "Postcode": "93100",
        "Location": "Taman Padungan",
        "Post_Office": "Kuching",
        "State": "Sarawak"
    },
    {
        "Postcode": "93100",
        "Location": "Taman Song Kheng Hai",
        "Post_Office": "Kuching",
        "State": "Sarawak"
    },
    {
        "Postcode": "93100",
        "Location": "Taman Sri Sarawak",
        "Post_Office": "Kuching",
        "State": "Sarawak"
    },
    {
        "Postcode": "93100",
        "Location": "Wisma Pheonix",
        "Post_Office": "Kuching",
        "State": "Sarawak"
    },
    {
        "Postcode": "93100",
        "Location": "Jalan Tabuan 1",
        "Post_Office": "Kuching",
        "State": "Sarawak"
    },
    {
        "Postcode": "93100",
        "Location": "Jalan Tabuan 10",
        "Post_Office": "Kuching",
        "State": "Sarawak"
    },
    {
        "Postcode": "93100",
        "Location": "Jalan Tabuan 11",
        "Post_Office": "Kuching",
        "State": "Sarawak"
    },
    {
        "Postcode": "93100",
        "Location": "Jalan Tabuan 12",
        "Post_Office": "Kuching",
        "State": "Sarawak"
    },
    {
        "Postcode": "93100",
        "Location": "Jalan Tabuan 13",
        "Post_Office": "Kuching",
        "State": "Sarawak"
    },
    {
        "Postcode": "93100",
        "Location": "Jalan Tabuan 14",
        "Post_Office": "Kuching",
        "State": "Sarawak"
    },
    {
        "Postcode": "93100",
        "Location": "Jalan Tabuan 15",
        "Post_Office": "Kuching",
        "State": "Sarawak"
    },
    {
        "Postcode": "93100",
        "Location": "Jalan Tabuan 16",
        "Post_Office": "Kuching",
        "State": "Sarawak"
    },
    {
        "Postcode": "93100",
        "Location": "Jalan Tabuan 17",
        "Post_Office": "Kuching",
        "State": "Sarawak"
    },
    {
        "Postcode": "93100",
        "Location": "Jalan Tabuan 18",
        "Post_Office": "Kuching",
        "State": "Sarawak"
    },
    {
        "Postcode": "93100",
        "Location": "Jalan Tabuan 19",
        "Post_Office": "Kuching",
        "State": "Sarawak"
    },
    {
        "Postcode": "93100",
        "Location": "Jalan Tabuan 2",
        "Post_Office": "Kuching",
        "State": "Sarawak"
    },
    {
        "Postcode": "93100",
        "Location": "Jalan Tabuan 20",
        "Post_Office": "Kuching",
        "State": "Sarawak"
    },
    {
        "Postcode": "93100",
        "Location": "Jalan Tabuan 21",
        "Post_Office": "Kuching",
        "State": "Sarawak"
    },
    {
        "Postcode": "93100",
        "Location": "Jalan Tabuan 22",
        "Post_Office": "Kuching",
        "State": "Sarawak"
    },
    {
        "Postcode": "93100",
        "Location": "Jalan Tabuan 23",
        "Post_Office": "Kuching",
        "State": "Sarawak"
    },
    {
        "Postcode": "93100",
        "Location": "Jalan Tabuan 24",
        "Post_Office": "Kuching",
        "State": "Sarawak"
    },
    {
        "Postcode": "93100",
        "Location": "Jalan Tabuan 25",
        "Post_Office": "Kuching",
        "State": "Sarawak"
    },
    {
        "Postcode": "93100",
        "Location": "Jalan Tabuan 26",
        "Post_Office": "Kuching",
        "State": "Sarawak"
    },
    {
        "Postcode": "93100",
        "Location": "Jalan Tabuan 27",
        "Post_Office": "Kuching",
        "State": "Sarawak"
    },
    {
        "Postcode": "93100",
        "Location": "Jalan Tabuan 28",
        "Post_Office": "Kuching",
        "State": "Sarawak"
    },
    {
        "Postcode": "93100",
        "Location": "Jalan Tabuan 29",
        "Post_Office": "Kuching",
        "State": "Sarawak"
    },
    {
        "Postcode": "93100",
        "Location": "Jalan Tabuan 3",
        "Post_Office": "Kuching",
        "State": "Sarawak"
    },
    {
        "Postcode": "93100",
        "Location": "Jalan Tabuan 30",
        "Post_Office": "Kuching",
        "State": "Sarawak"
    },
    {
        "Postcode": "93100",
        "Location": "Jalan Tabuan 31",
        "Post_Office": "Kuching",
        "State": "Sarawak"
    },
    {
        "Postcode": "93100",
        "Location": "Jalan Tabuan 32",
        "Post_Office": "Kuching",
        "State": "Sarawak"
    },
    {
        "Postcode": "93100",
        "Location": "Jalan Tabuan 33",
        "Post_Office": "Kuching",
        "State": "Sarawak"
    },
    {
        "Postcode": "93100",
        "Location": "Jalan Tabuan 34",
        "Post_Office": "Kuching",
        "State": "Sarawak"
    },
    {
        "Postcode": "93100",
        "Location": "Jalan Tabuan 35",
        "Post_Office": "Kuching",
        "State": "Sarawak"
    },
    {
        "Postcode": "93100",
        "Location": "Jalan Tabuan 36",
        "Post_Office": "Kuching",
        "State": "Sarawak"
    },
    {
        "Postcode": "93100",
        "Location": "Jalan Tabuan 37",
        "Post_Office": "Kuching",
        "State": "Sarawak"
    },
    {
        "Postcode": "93100",
        "Location": "Jalan Tabuan 38",
        "Post_Office": "Kuching",
        "State": "Sarawak"
    },
    {
        "Postcode": "93100",
        "Location": "Jalan Tabuan 39",
        "Post_Office": "Kuching",
        "State": "Sarawak"
    },
    {
        "Postcode": "93100",
        "Location": "Jalan Tabuan 4",
        "Post_Office": "Kuching",
        "State": "Sarawak"
    },
    {
        "Postcode": "93100",
        "Location": "Jalan Tabuan 40",
        "Post_Office": "Kuching",
        "State": "Sarawak"
    },
    {
        "Postcode": "93100",
        "Location": "Jalan Tabuan 5",
        "Post_Office": "Kuching",
        "State": "Sarawak"
    },
    {
        "Postcode": "93100",
        "Location": "Jalan Tabuan 6",
        "Post_Office": "Kuching",
        "State": "Sarawak"
    },
    {
        "Postcode": "93100",
        "Location": "Jalan Tabuan 7",
        "Post_Office": "Kuching",
        "State": "Sarawak"
    },
    {
        "Postcode": "93100",
        "Location": "Jalan Tabuan 8",
        "Post_Office": "Kuching",
        "State": "Sarawak"
    },
    {
        "Postcode": "93100",
        "Location": "Jalan Tabuan 9",
        "Post_Office": "Kuching",
        "State": "Sarawak"
    },
    {
        "Postcode": "93100",
        "Location": "Jalan Blacksmith",
        "Post_Office": "Kuching",
        "State": "Sarawak"
    }
]
