[
    {
        "Postcode": "93150",
        "Location": "Taman Stapok Height",
        "Post_Office": "Kuching",
        "State": "Sarawak"
    },
    {
        "Postcode": "93150",
        "Location": "Green Road",
        "Post_Office": "Kuching",
        "State": "Sarawak"
    },
    {
        "Postcode": "93150",
        "Location": "Jalan Angsana",
        "Post_Office": "Kuching",
        "State": "Sarawak"
    },
    {
        "Postcode": "93150",
        "Location": "Jalan Cross",
        "Post_Office": "Kuching",
        "State": "Sarawak"
    },
    {
        "Postcode": "93150",
        "Location": "Jalan Emerald",
        "Post_Office": "Kuching",
        "State": "Sarawak"
    },
    {
        "Postcode": "93150",
        "Location": "Jalan Gold Jade",
        "Post_Office": "Kuching",
        "State": "Sarawak"
    },
    {
        "Postcode": "93150",
        "Location": "Jalan Green",
        "Post_Office": "Kuching",
        "State": "Sarawak"
    },
    {
        "Postcode": "93150",
        "Location": "Jalan Intan",
        "Post_Office": "Kuching",
        "State": "Sarawak"
    },
    {
        "Postcode": "93150",
        "Location": "Jalan Jambu",
        "Post_Office": "Kuching",
        "State": "Sarawak"
    },
    {
        "Postcode": "93150",
        "Location": "Jalan Kapor",
        "Post_Office": "Kuching",
        "State": "Sarawak"
    },
    {
        "Postcode": "93150",
        "Location": "Jalan Kepayang",
        "Post_Office": "Kuching",
        "State": "Sarawak"
    },
    {
        "Postcode": "93150",
        "Location": "Jalan Keretapi",
        "Post_Office": "Kuching",
        "State": "Sarawak"
    },
    {
        "Postcode": "93150",
        "Location": "Jalan Merdeka (Off Jalan Green)",
        "Post_Office": "Kuching",
        "State": "Sarawak"
    },
    {
        "Postcode": "93150",
        "Location": "Jalan Ong Kee Hui",
        "Post_Office": "Kuching",
        "State": "Sarawak"
    },
    {
        "Postcode": "93150",
        "Location": "Jalan Pisang Barat",
        "Post_Office": "Kuching",
        "State": "Sarawak"
    },
    {
        "Postcode": "93150",
        "Location": "Jalan Poh Kwong Park",
        "Post_Office": "Kuching",
        "State": "Sarawak"
    },
    {
        "Postcode": "93150",
        "Location": "Jalan Sungai Maong Baru",
        "Post_Office": "Kuching",
        "State": "Sarawak"
    },
    {
        "Postcode": "93150",
        "Location": "Jalan Sungai Maong Hilir",
        "Post_Office": "Kuching",
        "State": "Sarawak"
    },
    {
        "Postcode": "93150",
        "Location": "Jalan Sungai Maong Hulu",
        "Post_Office": "Kuching",
        "State": "Sarawak"
    },
    {
        "Postcode": "93150",
        "Location": "Jalan Sungai Maong Tengah",
        "Post_Office": "Kuching",
        "State": "Sarawak"
    },
    {
        "Postcode": "93150",
        "Location": "Jalan Swee Joo Park",
        "Post_Office": "Kuching",
        "State": "Sarawak"
    },
    {
        "Postcode": "93150",
        "Location": "Kampung Sungai Maong",
        "Post_Office": "Kuching",
        "State": "Sarawak"
    },
    {
        "Postcode": "93150",
        "Location": "Lebuh Sockalingam",
        "Post_Office": "Kuching",
        "State": "Sarawak"
    },
    {
        "Postcode": "93150",
        "Location": "Lebuh Temple",
        "Post_Office": "Kuching",
        "State": "Sarawak"
    },
    {
        "Postcode": "93150",
        "Location": "Lorong Bintang",
        "Post_Office": "Kuching",
        "State": "Sarawak"
    },
    {
        "Postcode": "93150",
        "Location": "Lorong Bulan",
        "Post_Office": "Kuching",
        "State": "Sarawak"
    },
    {
        "Postcode": "93150",
        "Location": "Lorong Chu Su",
        "Post_Office": "Kuching",
        "State": "Sarawak"
    },
    {
        "Postcode": "93150",
        "Location": "Lorong Green 1",
        "Post_Office": "Kuching",
        "State": "Sarawak"
    },
    {
        "Postcode": "93150",
        "Location": "Lorong Kim Kiat",
        "Post_Office": "Kuching",
        "State": "Sarawak"
    },
    {
        "Postcode": "93150",
        "Location": "Lorong Kim Seng",
        "Post_Office": "Kuching",
        "State": "Sarawak"
    },
    {
        "Postcode": "93150",
        "Location": "Lorong Maleng",
        "Post_Office": "Kuching",
        "State": "Sarawak"
    },
    {
        "Postcode": "93150",
        "Location": "Lower Sungei Maong",
        "Post_Office": "Kuching",
        "State": "Sarawak"
    },
    {
        "Postcode": "93150",
        "Location": "Persiaran Crooke",
        "Post_Office": "Kuching",
        "State": "Sarawak"
    },
    {
        "Postcode": "93150",
        "Location": "Persiaran Rainbow",
        "Post_Office": "Kuching",
        "State": "Sarawak"
    },
    {
        "Postcode": "93150",
        "Location": "Persiaran St Paul",
        "Post_Office": "Kuching",
        "State": "Sarawak"
    },
    {
        "Postcode": "93150",
        "Location": "Sungai Maong Bharu",
        "Post_Office": "Kuching",
        "State": "Sarawak"
    },
    {
        "Postcode": "93150",
        "Location": "Sungai Maong Hilir",
        "Post_Office": "Kuching",
        "State": "Sarawak"
    },
    {
        "Postcode": "93150",
        "Location": "Sungai Maong Tengah",
        "Post_Office": "Kuching",
        "State": "Sarawak"
    },
    {
        "Postcode": "93150",
        "Location": "Taman Begawut",
        "Post_Office": "Kuching",
        "State": "Sarawak"
    },
    {
        "Postcode": "93150",
        "Location": "Taman Bigawa",
        "Post_Office": "Kuching",
        "State": "Sarawak"
    },
    {
        "Postcode": "93150",
        "Location": "Taman Charming",
        "Post_Office": "Kuching",
        "State": "Sarawak"
    },
    {
        "Postcode": "93150",
        "Location": "Taman Chin Siew",
        "Post_Office": "Kuching",
        "State": "Sarawak"
    },
    {
        "Postcode": "93150",
        "Location": "Taman Chong Hin",
        "Post_Office": "Kuching",
        "State": "Sarawak"
    },
    {
        "Postcode": "93150",
        "Location": "Taman Cloud",
        "Post_Office": "Kuching",
        "State": "Sarawak"
    },
    {
        "Postcode": "93150",
        "Location": "Taman Eastern",
        "Post_Office": "Kuching",
        "State": "Sarawak"
    },
    {
        "Postcode": "93150",
        "Location": "Taman Empire",
        "Post_Office": "Kuching",
        "State": "Sarawak"
    },
    {
        "Postcode": "93150",
        "Location": "Taman Exceller",
        "Post_Office": "Kuching",
        "State": "Sarawak"
    },
    {
        "Postcode": "93150",
        "Location": "Taman Federal",
        "Post_Office": "Kuching",
        "State": "Sarawak"
    },
    {
        "Postcode": "93150",
        "Location": "Taman Flourishing",
        "Post_Office": "Kuching",
        "State": "Sarawak"
    },
    {
        "Postcode": "93150",
        "Location": "Taman Hock Seng Lee",
        "Post_Office": "Kuching",
        "State": "Sarawak"
    },
    {
        "Postcode": "93150",
        "Location": "Taman Hongnion",
        "Post_Office": "Kuching",
        "State": "Sarawak"
    },
    {
        "Postcode": "93150",
        "Location": "Taman Hugrow",
        "Post_Office": "Kuching",
        "State": "Sarawak"
    },
    {
        "Postcode": "93150",
        "Location": "Taman Kapor",
        "Post_Office": "Kuching",
        "State": "Sarawak"
    },
    {
        "Postcode": "93150",
        "Location": "Taman Khee Moi",
        "Post_Office": "Kuching",
        "State": "Sarawak"
    },
    {
        "Postcode": "93150",
        "Location": "Taman King Dom",
        "Post_Office": "Kuching",
        "State": "Sarawak"
    },
    {
        "Postcode": "93150",
        "Location": "Taman Kingburg Home",
        "Post_Office": "Kuching",
        "State": "Sarawak"
    },
    {
        "Postcode": "93150",
        "Location": "Taman Kok Ban Hong",
        "Post_Office": "Kuching",
        "State": "Sarawak"
    },
    {
        "Postcode": "93150",
        "Location": "Taman Legendry Villa",
        "Post_Office": "Kuching",
        "State": "Sarawak"
    },
    {
        "Postcode": "93150",
        "Location": "Taman Lian Kwong",
        "Post_Office": "Kuching",
        "State": "Sarawak"
    },
    {
        "Postcode": "93150",
        "Location": "Taman Literature Villa",
        "Post_Office": "Kuching",
        "State": "Sarawak"
    },
    {
        "Postcode": "93150",
        "Location": "Taman Luxus",
        "Post_Office": "Kuching",
        "State": "Sarawak"
    },
    {
        "Postcode": "93150",
        "Location": "Taman Maong",
        "Post_Office": "Kuching",
        "State": "Sarawak"
    },
    {
        "Postcode": "93150",
        "Location": "Taman May Ling",
        "Post_Office": "Kuching",
        "State": "Sarawak"
    },
    {
        "Postcode": "93150",
        "Location": "Taman Mimpi",
        "Post_Office": "Kuching",
        "State": "Sarawak"
    },
    {
        "Postcode": "93150",
        "Location": "Taman Pauline",
        "Post_Office": "Kuching",
        "State": "Sarawak"
    },
    {
        "Postcode": "93150",
        "Location": "Taman Pigawa",
        "Post_Office": "Kuching",
        "State": "Sarawak"
    },
    {
        "Postcode": "93150",
        "Location": "Taman Pisang",
        "Post_Office": "Kuching",
        "State": "Sarawak"
    },
    {
        "Postcode": "93150",
        "Location": "Taman Poh Kwong",
        "Post_Office": "Kuching",
        "State": "Sarawak"
    },
    {
        "Postcode": "93150",
        "Location": "Taman Prince",
        "Post_Office": "Kuching",
        "State": "Sarawak"
    },
    {
        "Postcode": "93150",
        "Location": "Taman Regent (Sungai Maong Tengah)",
        "Post_Office": "Kuching",
        "State": "Sarawak"
    },
    {
        "Postcode": "93150",
        "Location": "Taman Ros (Sungai Maong Tengah)",
        "Post_Office": "Kuching",
        "State": "Sarawak"
    },
    {
        "Postcode": "93150",
        "Location": "Taman Ruby",
        "Post_Office": "Kuching",
        "State": "Sarawak"
    },
    {
        "Postcode": "93150",
        "Location": "Taman Sin Sin",
        "Post_Office": "Kuching",
        "State": "Sarawak"
    },
    {
        "Postcode": "93150",
        "Location": "Taman Sky",
        "Post_Office": "Kuching",
        "State": "Sarawak"
    },
    {
        "Postcode": "93150",
        "Location": "Taman Star",
        "Post_Office": "Kuching",
        "State": "Sarawak"
    },
    {
        "Postcode": "93150",
        "Location": "Taman Sungai Maong",
        "Post_Office": "Kuching",
        "State": "Sarawak"
    },
    {
        "Postcode": "93150",
        "Location": "Taman Sunrise",
        "Post_Office": "Kuching",
        "State": "Sarawak"
    },
    {
        "Postcode": "93150",
        "Location": "Taman Swee Joo",
        "Post_Office": "Kuching",
        "State": "Sarawak"
    },
    {
        "Postcode": "93150",
        "Location": "Taman Wee \u0026 Wee",
        "Post_Office": "Kuching",
        "State": "Sarawak"
    },
    {
        "Postcode": "93150",
        "Location": "Lorong 8, Jalan Kapor ",
        "Post_Office": "Kuching",
        "State": "Sarawak"
    },
    {
        "Postcode": "93150",
        "Location": "Taman Sentiasa",
        "Post_Office": "Kuching",
        "State": "Sarawak"
    }
]
