[
    {
        "Postcode": "93200",
        "Location": "Halaman Kim San",
        "Post_Office": "Kuching",
        "State": "Sarawak"
    },
    {
        "Postcode": "93200",
        "Location": "Jalan Bampfylde",
        "Post_Office": "Kuching",
        "State": "Sarawak"
    },
    {
        "Postcode": "93200",
        "Location": "Jalan Batu Kinyang",
        "Post_Office": "Kuching",
        "State": "Sarawak"
    },
    {
        "Postcode": "93200",
        "Location": "Jalan Batu Lintang",
        "Post_Office": "Kuching",
        "State": "Sarawak"
    },
    {
        "Postcode": "93200",
        "Location": "Jalan Bidayuh",
        "Post_Office": "Kuching",
        "State": "Sarawak"
    },
    {
        "Postcode": "93200",
        "Location": "Jalan Bisayah",
        "Post_Office": "Kuching",
        "State": "Sarawak"
    },
    {
        "Postcode": "93200",
        "Location": "Jalan Bukit Antu",
        "Post_Office": "Kuching",
        "State": "Sarawak"
    },
    {
        "Postcode": "93200",
        "Location": "Jalan Bukit Lintang",
        "Post_Office": "Kuching",
        "State": "Sarawak"
    },
    {
        "Postcode": "93200",
        "Location": "Jalan Bukitan",
        "Post_Office": "Kuching",
        "State": "Sarawak"
    },
    {
        "Postcode": "93200",
        "Location": "Jalan Chua Say Chat",
        "Post_Office": "Kuching",
        "State": "Sarawak"
    },
    {
        "Postcode": "93200",
        "Location": "Jalan Datin Wee Siew Eng",
        "Post_Office": "Kuching",
        "State": "Sarawak"
    },
    {
        "Postcode": "93200",
        "Location": "Jalan Datuk Hamdan",
        "Post_Office": "Kuching",
        "State": "Sarawak"
    },
    {
        "Postcode": "93200",
        "Location": "Jalan Dusun",
        "Post_Office": "Kuching",
        "State": "Sarawak"
    },
    {
        "Postcode": "93200",
        "Location": "Jalan Hua Joo",
        "Post_Office": "Kuching",
        "State": "Sarawak"
    },
    {
        "Postcode": "93200",
        "Location": "Jalan Keretapi (Batu 3)",
        "Post_Office": "Kuching",
        "State": "Sarawak"
    },
    {
        "Postcode": "93200",
        "Location": "Jalan Kolej",
        "Post_Office": "Kuching",
        "State": "Sarawak"
    },
    {
        "Postcode": "93200",
        "Location": "Jalan Kumpang",
        "Post_Office": "Kuching",
        "State": "Sarawak"
    },
    {
        "Postcode": "93200",
        "Location": "Jalan Lintang Park",
        "Post_Office": "Kuching",
        "State": "Sarawak"
    },
    {
        "Postcode": "93200",
        "Location": "Jalan Lintang Selatan",
        "Post_Office": "Kuching",
        "State": "Sarawak"
    },
    {
        "Postcode": "93200",
        "Location": "Jalan Lowlands",
        "Post_Office": "Kuching",
        "State": "Sarawak"
    },
    {
        "Postcode": "93200",
        "Location": "Jalan Manggis",
        "Post_Office": "Kuching",
        "State": "Sarawak"
    },
    {
        "Postcode": "93200",
        "Location": "Jalan Mendu",
        "Post_Office": "Kuching",
        "State": "Sarawak"
    },
    {
        "Postcode": "93200",
        "Location": "Jalan Midland",
        "Post_Office": "Kuching",
        "State": "Sarawak"
    },
    {
        "Postcode": "93200",
        "Location": "Jalan Midlands",
        "Post_Office": "Kuching",
        "State": "Sarawak"
    },
    {
        "Postcode": "93200",
        "Location": "Jalan Nangka (Batu Lintang)",
        "Post_Office": "Kuching",
        "State": "Sarawak"
    },
    {
        "Postcode": "93200",
        "Location": "Jalan Nyiur",
        "Post_Office": "Kuching",
        "State": "Sarawak"
    },
    {
        "Postcode": "93200",
        "Location": "Jalan Ong Hup Leong",
        "Post_Office": "Kuching",
        "State": "Sarawak"
    },
    {
        "Postcode": "93200",
        "Location": "Jalan Ong Tiang Swee",
        "Post_Office": "Kuching",
        "State": "Sarawak"
    },
    {
        "Postcode": "93200",
        "Location": "Jalan Ridgeway",
        "Post_Office": "Kuching",
        "State": "Sarawak"
    },
    {
        "Postcode": "93200",
        "Location": "Jalan Rock",
        "Post_Office": "Kuching",
        "State": "Sarawak"
    },
    {
        "Postcode": "93200",
        "Location": "Jalan Rockview",
        "Post_Office": "Kuching",
        "State": "Sarawak"
    },
    {
        "Postcode": "93200",
        "Location": "Jalan Simpang Tiga",
        "Post_Office": "Kuching",
        "State": "Sarawak"
    },
    {
        "Postcode": "93200",
        "Location": "Jalan Tabuan (41 \u0026 Ke Atas)",
        "Post_Office": "Kuching",
        "State": "Sarawak"
    },
    {
        "Postcode": "93200",
        "Location": "Jalan Tai Tshin Jar",
        "Post_Office": "Kuching",
        "State": "Sarawak"
    },
    {
        "Postcode": "93200",
        "Location": "Jalan Thian Guan",
        "Post_Office": "Kuching",
        "State": "Sarawak"
    },
    {
        "Postcode": "93200",
        "Location": "Jalan Tong Wei Tah",
        "Post_Office": "Kuching",
        "State": "Sarawak"
    },
    {
        "Postcode": "93200",
        "Location": "Jalan Tun Ahmad Zaidi Adruce",
        "Post_Office": "Kuching",
        "State": "Sarawak"
    },
    {
        "Postcode": "93200",
        "Location": "Jalan Wee Boon Ping",
        "Post_Office": "Kuching",
        "State": "Sarawak"
    },
    {
        "Postcode": "93200",
        "Location": "Jalan Wee Seng Goon",
        "Post_Office": "Kuching",
        "State": "Sarawak"
    },
    {
        "Postcode": "93200",
        "Location": "Kampung Simpang Tiga",
        "Post_Office": "Kuching",
        "State": "Sarawak"
    },
    {
        "Postcode": "93200",
        "Location": "Kampung Simpang Tiga Jalan Mendu",
        "Post_Office": "Kuching",
        "State": "Sarawak"
    },
    {
        "Postcode": "93200",
        "Location": "Kim San Court",
        "Post_Office": "Kuching",
        "State": "Sarawak"
    },
    {
        "Postcode": "93200",
        "Location": "Laman Bong Chin",
        "Post_Office": "Kuching",
        "State": "Sarawak"
    },
    {
        "Postcode": "93200",
        "Location": "Laman Rock",
        "Post_Office": "Kuching",
        "State": "Sarawak"
    },
    {
        "Postcode": "93200",
        "Location": "Lintang Heights",
        "Post_Office": "Kuching",
        "State": "Sarawak"
    },
    {
        "Postcode": "93200",
        "Location": "Lorong Batu",
        "Post_Office": "Kuching",
        "State": "Sarawak"
    },
    {
        "Postcode": "93200",
        "Location": "Lorong Batu Bata",
        "Post_Office": "Kuching",
        "State": "Sarawak"
    },
    {
        "Postcode": "93200",
        "Location": "Lorong Karangan",
        "Post_Office": "Kuching",
        "State": "Sarawak"
    },
    {
        "Postcode": "93200",
        "Location": "Lorong Kelikir",
        "Post_Office": "Kuching",
        "State": "Sarawak"
    },
    {
        "Postcode": "93200",
        "Location": "Lorong Pasir",
        "Post_Office": "Kuching",
        "State": "Sarawak"
    },
    {
        "Postcode": "93200",
        "Location": "Lorong Permata",
        "Post_Office": "Kuching",
        "State": "Sarawak"
    },
    {
        "Postcode": "93200",
        "Location": "Lorong Rock",
        "Post_Office": "Kuching",
        "State": "Sarawak"
    },
    {
        "Postcode": "93200",
        "Location": "Lorong Rock Terrace",
        "Post_Office": "Kuching",
        "State": "Sarawak"
    },
    {
        "Postcode": "93200",
        "Location": "Lorong Tabuan",
        "Post_Office": "Kuching",
        "State": "Sarawak"
    },
    {
        "Postcode": "93200",
        "Location": "Lorong Tabuan Timur",
        "Post_Office": "Kuching",
        "State": "Sarawak"
    },
    {
        "Postcode": "93200",
        "Location": "Pasar Batu 3 Jalan Rock",
        "Post_Office": "Kuching",
        "State": "Sarawak"
    },
    {
        "Postcode": "93200",
        "Location": "Pekan Batu 3",
        "Post_Office": "Kuching",
        "State": "Sarawak"
    },
    {
        "Postcode": "93200",
        "Location": "Rock Terrace",
        "Post_Office": "Kuching",
        "State": "Sarawak"
    },
    {
        "Postcode": "93200",
        "Location": "Sunny Estate",
        "Post_Office": "Kuching",
        "State": "Sarawak"
    },
    {
        "Postcode": "93200",
        "Location": "Taman Acme",
        "Post_Office": "Kuching",
        "State": "Sarawak"
    },
    {
        "Postcode": "93200",
        "Location": "Taman Bong Chin",
        "Post_Office": "Kuching",
        "State": "Sarawak"
    },
    {
        "Postcode": "93200",
        "Location": "Taman Bunga Teratai (Batu Lintang)",
        "Post_Office": "Kuching",
        "State": "Sarawak"
    },
    {
        "Postcode": "93200",
        "Location": "Taman Central (Jalan Rock)",
        "Post_Office": "Kuching",
        "State": "Sarawak"
    },
    {
        "Postcode": "93200",
        "Location": "Taman Dunwa",
        "Post_Office": "Kuching",
        "State": "Sarawak"
    },
    {
        "Postcode": "93200",
        "Location": "Taman Gan Swee Cho",
        "Post_Office": "Kuching",
        "State": "Sarawak"
    },
    {
        "Postcode": "93200",
        "Location": "Taman Ho San",
        "Post_Office": "Kuching",
        "State": "Sarawak"
    },
    {
        "Postcode": "93200",
        "Location": "Taman Hua Joo",
        "Post_Office": "Kuching",
        "State": "Sarawak"
    },
    {
        "Postcode": "93200",
        "Location": "Taman Hwata",
        "Post_Office": "Kuching",
        "State": "Sarawak"
    },
    {
        "Postcode": "93200",
        "Location": "Taman Intersar",
        "Post_Office": "Kuching",
        "State": "Sarawak"
    },
    {
        "Postcode": "93200",
        "Location": "Taman Iris",
        "Post_Office": "Kuching",
        "State": "Sarawak"
    },
    {
        "Postcode": "93200",
        "Location": "Taman Kelly",
        "Post_Office": "Kuching",
        "State": "Sarawak"
    },
    {
        "Postcode": "93200",
        "Location": "Taman Kim San",
        "Post_Office": "Kuching",
        "State": "Sarawak"
    },
    {
        "Postcode": "93200",
        "Location": "Taman Lintang",
        "Post_Office": "Kuching",
        "State": "Sarawak"
    },
    {
        "Postcode": "93200",
        "Location": "Taman Liong Seng",
        "Post_Office": "Kuching",
        "State": "Sarawak"
    },
    {
        "Postcode": "93200",
        "Location": "Taman Meng Meng",
        "Post_Office": "Kuching",
        "State": "Sarawak"
    },
    {
        "Postcode": "93200",
        "Location": "Taman Merlin",
        "Post_Office": "Kuching",
        "State": "Sarawak"
    },
    {
        "Postcode": "93200",
        "Location": "Taman Min Chu",
        "Post_Office": "Kuching",
        "State": "Sarawak"
    },
    {
        "Postcode": "93200",
        "Location": "Taman Ong Guan Tee",
        "Post_Office": "Kuching",
        "State": "Sarawak"
    },
    {
        "Postcode": "93200",
        "Location": "Taman Ridge",
        "Post_Office": "Kuching",
        "State": "Sarawak"
    },
    {
        "Postcode": "93200",
        "Location": "Taman Rock View",
        "Post_Office": "Kuching",
        "State": "Sarawak"
    },
    {
        "Postcode": "93200",
        "Location": "Taman Sun Valley",
        "Post_Office": "Kuching",
        "State": "Sarawak"
    },
    {
        "Postcode": "93200",
        "Location": "Taman Thian Guan",
        "Post_Office": "Kuching",
        "State": "Sarawak"
    },
    {
        "Postcode": "93200",
        "Location": "Taman Timberland",
        "Post_Office": "Kuching",
        "State": "Sarawak"
    },
    {
        "Postcode": "93200",
        "Location": "Taman Westwood",
        "Post_Office": "Kuching",
        "State": "Sarawak"
    },
    {
        "Postcode": "93200",
        "Location": "Taman Wingli",
        "Post_Office": "Kuching",
        "State": "Sarawak"
    },
    {
        "Postcode": "93200",
        "Location": "Third Miles Bazaar",
        "Post_Office": "Kuching",
        "State": "Sarawak"
    },
    {
        "Postcode": "93200",
        "Location": "Lorong 1, Jalan Mendu",
        "Post_Office": "Kuching",
        "State": "Sarawak"
    },
    {
        "Postcode": "93200",
        "Location": "Lorong 2, Jalan Mendu",
        "Post_Office": "Kuching",
        "State": "Sarawak"
    },
    {
        "Postcode": "93200",
        "Location": "Lorong 3, Jalan Mendu",
        "Post_Office": "Kuching",
        "State": "Sarawak"
    },
    {
        "Postcode": "93200",
        "Location": "Batu Lintang",
        "Post_Office": "Kuching",
        "State": "Sarawak"
    }
]
