[
    {
        "Postcode": "93250",
        "Location": "Taman Batu 12",
        "Post_Office": "Kuching",
        "State": "Sarawak"
    },
    {
        "Postcode": "93250",
        "Location": "Taman Beautiful ",
        "Post_Office": "Kuching",
        "State": "Sarawak"
    },
    {
        "Postcode": "93250",
        "Location": "Taman Blessed ",
        "Post_Office": "Kuching",
        "State": "Sarawak"
    },
    {
        "Postcode": "93250",
        "Location": "Taman Cavery",
        "Post_Office": "Kuching",
        "State": "Sarawak"
    },
    {
        "Postcode": "93250",
        "Location": "Taman Chuan Liaw ",
        "Post_Office": "Kuching",
        "State": "Sarawak"
    },
    {
        "Postcode": "93250",
        "Location": "Taman Dogan ",
        "Post_Office": "Kuching",
        "State": "Sarawak"
    },
    {
        "Postcode": "93250",
        "Location": "Taman Eligen Villa",
        "Post_Office": "Kuching",
        "State": "Sarawak"
    },
    {
        "Postcode": "93250",
        "Location": "Taman Fairyland",
        "Post_Office": "Kuching",
        "State": "Sarawak"
    },
    {
        "Postcode": "93250",
        "Location": "Taman Flora Indah",
        "Post_Office": "Kuching",
        "State": "Sarawak"
    },
    {
        "Postcode": "93250",
        "Location": "Taman Golden View",
        "Post_Office": "Kuching",
        "State": "Sarawak"
    },
    {
        "Postcode": "93250",
        "Location": "Taman High Field ",
        "Post_Office": "Kuching",
        "State": "Sarawak"
    },
    {
        "Postcode": "93250",
        "Location": "Taman Ing Ling ",
        "Post_Office": "Kuching",
        "State": "Sarawak"
    },
    {
        "Postcode": "93250",
        "Location": "Taman Lucky Hill ",
        "Post_Office": "Kuching",
        "State": "Sarawak"
    },
    {
        "Postcode": "93250",
        "Location": "Taman Summerhill Villa ",
        "Post_Office": "Kuching",
        "State": "Sarawak"
    },
    {
        "Postcode": "93250",
        "Location": "Taman Xafa",
        "Post_Office": "Kuching",
        "State": "Sarawak"
    },
    {
        "Postcode": "93250",
        "Location": "Taman Ramin ",
        "Post_Office": "Kuching",
        "State": "Sarawak"
    },
    {
        "Postcode": "93250",
        "Location": "Taman Semaba ",
        "Post_Office": "Kuching",
        "State": "Sarawak"
    },
    {
        "Postcode": "93250",
        "Location": "Taman Inspire Height",
        "Post_Office": "Kuching",
        "State": "Sarawak"
    },
    {
        "Postcode": "93250",
        "Location": "Batu Kawa Commercial Centre",
        "Post_Office": "Kuching",
        "State": "Sarawak"
    },
    {
        "Postcode": "93250",
        "Location": "Taman Moyan Utama ",
        "Post_Office": "Kuching",
        "State": "Sarawak"
    },
    {
        "Postcode": "93250",
        "Location": "Taman Putera Park",
        "Post_Office": "Kuching",
        "State": "Sarawak"
    },
    {
        "Postcode": "93250",
        "Location": "Industrial Area Jalan Kuching/Serian Batu 13",
        "Post_Office": "Kuching",
        "State": "Sarawak"
    },
    {
        "Postcode": "93250",
        "Location": "Jalan Arang",
        "Post_Office": "Kuching",
        "State": "Sarawak"
    },
    {
        "Postcode": "93250",
        "Location": "Jalan Arang Barat",
        "Post_Office": "Kuching",
        "State": "Sarawak"
    },
    {
        "Postcode": "93250",
        "Location": "Jalan Batu Kawa",
        "Post_Office": "Kuching",
        "State": "Sarawak"
    },
    {
        "Postcode": "93250",
        "Location": "Jalan Batu Kawa - Matang",
        "Post_Office": "Kuching",
        "State": "Sarawak"
    },
    {
        "Postcode": "93250",
        "Location": "Jalan Batu Kawa Lorong 3",
        "Post_Office": "Kuching",
        "State": "Sarawak"
    },
    {
        "Postcode": "93250",
        "Location": "Jalan Batu Kawa/ Tondong",
        "Post_Office": "Kuching",
        "State": "Sarawak"
    },
    {
        "Postcode": "93250",
        "Location": "Jalan Batu Kawa/Bau",
        "Post_Office": "Kuching",
        "State": "Sarawak"
    },
    {
        "Postcode": "93250",
        "Location": "Jalan Batu Kitang",
        "Post_Office": "Kuching",
        "State": "Sarawak"
    },
    {
        "Postcode": "93250",
        "Location": "Jalan Bayan",
        "Post_Office": "Kuching",
        "State": "Sarawak"
    },
    {
        "Postcode": "93250",
        "Location": "Jalan Bengang",
        "Post_Office": "Kuching",
        "State": "Sarawak"
    },
    {
        "Postcode": "93250",
        "Location": "Jalan Benggang",
        "Post_Office": "Kuching",
        "State": "Sarawak"
    },
    {
        "Postcode": "93250",
        "Location": "Jalan Bukit Cahaya",
        "Post_Office": "Kuching",
        "State": "Sarawak"
    },
    {
        "Postcode": "93250",
        "Location": "Jalan Burung Bunga Api",
        "Post_Office": "Kuching",
        "State": "Sarawak"
    },
    {
        "Postcode": "93250",
        "Location": "Jalan Burung Kawok",
        "Post_Office": "Kuching",
        "State": "Sarawak"
    },
    {
        "Postcode": "93250",
        "Location": "Jalan Burung Landas",
        "Post_Office": "Kuching",
        "State": "Sarawak"
    },
    {
        "Postcode": "93250",
        "Location": "Jalan Burung Lilin",
        "Post_Office": "Kuching",
        "State": "Sarawak"
    },
    {
        "Postcode": "93250",
        "Location": "Jalan Burung Rawa",
        "Post_Office": "Kuching",
        "State": "Sarawak"
    },
    {
        "Postcode": "93250",
        "Location": "Jalan Chaya Batu 3",
        "Post_Office": "Kuching",
        "State": "Sarawak"
    },
    {
        "Postcode": "93250",
        "Location": "Jalan Chong Jing Chong",
        "Post_Office": "Kuching",
        "State": "Sarawak"
    },
    {
        "Postcode": "93250",
        "Location": "Jalan Datok Tawi Sli",
        "Post_Office": "Kuching",
        "State": "Sarawak"
    },
    {
        "Postcode": "93250",
        "Location": "Jalan Datuk Mustapha",
        "Post_Office": "Kuching",
        "State": "Sarawak"
    },
    {
        "Postcode": "93250",
        "Location": "Jalan Datuk Stephen Yong",
        "Post_Office": "Kuching",
        "State": "Sarawak"
    },
    {
        "Postcode": "93250",
        "Location": "Jalan Dogan",
        "Post_Office": "Kuching",
        "State": "Sarawak"
    },
    {
        "Postcode": "93250",
        "Location": "Jalan Dogan Arang",
        "Post_Office": "Kuching",
        "State": "Sarawak"
    },
    {
        "Postcode": "93250",
        "Location": "Jalan Embok Tanah",
        "Post_Office": "Kuching",
        "State": "Sarawak"
    },
    {
        "Postcode": "93250",
        "Location": "Jalan Ensing",
        "Post_Office": "Kuching",
        "State": "Sarawak"
    },
    {
        "Postcode": "93250",
        "Location": "Jalan Golden Farm",
        "Post_Office": "Kuching",
        "State": "Sarawak"
    },
    {
        "Postcode": "93250",
        "Location": "Jalan Hup Kee",
        "Post_Office": "Kuching",
        "State": "Sarawak"
    },
    {
        "Postcode": "93250",
        "Location": "Jalan Kampung Kuap Batu 10",
        "Post_Office": "Kuching",
        "State": "Sarawak"
    },
    {
        "Postcode": "93250",
        "Location": "Jalan Kangking",
        "Post_Office": "Kuching",
        "State": "Sarawak"
    },
    {
        "Postcode": "93250",
        "Location": "Jalan Kangkok",
        "Post_Office": "Kuching",
        "State": "Sarawak"
    },
    {
        "Postcode": "93250",
        "Location": "Jalan Ketek",
        "Post_Office": "Kuching",
        "State": "Sarawak"
    },
    {
        "Postcode": "93250",
        "Location": "Jalan Ketitir",
        "Post_Office": "Kuching",
        "State": "Sarawak"
    },
    {
        "Postcode": "93250",
        "Location": "Jalan Kong Ping",
        "Post_Office": "Kuching",
        "State": "Sarawak"
    },
    {
        "Postcode": "93250",
        "Location": "Jalan Kopua",
        "Post_Office": "Kuching",
        "State": "Sarawak"
    },
    {
        "Postcode": "93250",
        "Location": "Jalan Kuching - Serian (Km 23)",
        "Post_Office": "Kuching",
        "State": "Sarawak"
    },
    {
        "Postcode": "93250",
        "Location": "Jalan Kunchit",
        "Post_Office": "Kuching",
        "State": "Sarawak"
    },
    {
        "Postcode": "93250",
        "Location": "Jalan Landeh",
        "Post_Office": "Kuching",
        "State": "Sarawak"
    },
    {
        "Postcode": "93250",
        "Location": "Jalan Lapangan Terbang Lama",
        "Post_Office": "Kuching",
        "State": "Sarawak"
    },
    {
        "Postcode": "93250",
        "Location": "Jalan Lapangan Terbang Lrg 2 Dan 4",
        "Post_Office": "Kuching",
        "State": "Sarawak"
    },
    {
        "Postcode": "93250",
        "Location": "Jalan Meng Chong",
        "Post_Office": "Kuching",
        "State": "Sarawak"
    },
    {
        "Postcode": "93250",
        "Location": "Jalan Minggi",
        "Post_Office": "Kuching",
        "State": "Sarawak"
    },
    {
        "Postcode": "93250",
        "Location": "Jalan Penrissen (Km 6 - 24)",
        "Post_Office": "Kuching",
        "State": "Sarawak"
    },
    {
        "Postcode": "93250",
        "Location": "Jalan Penrissen Lama",
        "Post_Office": "Kuching",
        "State": "Sarawak"
    },
    {
        "Postcode": "93250",
        "Location": "Jalan Puncak Borneo Km. 18-20",
        "Post_Office": "Kuching",
        "State": "Sarawak"
    },
    {
        "Postcode": "93250",
        "Location": "Jalan Semeba",
        "Post_Office": "Kuching",
        "State": "Sarawak"
    },
    {
        "Postcode": "93250",
        "Location": "Jalan Semenggok",
        "Post_Office": "Kuching",
        "State": "Sarawak"
    },
    {
        "Postcode": "93250",
        "Location": "Jalan Sg Tapang Batu 7 - 7 1/2Th",
        "Post_Office": "Kuching",
        "State": "Sarawak"
    },
    {
        "Postcode": "93250",
        "Location": "Jalan Stakan",
        "Post_Office": "Kuching",
        "State": "Sarawak"
    },
    {
        "Postcode": "93250",
        "Location": "Jalan Stampin Tengah",
        "Post_Office": "Kuching",
        "State": "Sarawak"
    },
    {
        "Postcode": "93250",
        "Location": "Jalan Stapok",
        "Post_Office": "Kuching",
        "State": "Sarawak"
    },
    {
        "Postcode": "93250",
        "Location": "Jalan Stephen Kalong Ningkan",
        "Post_Office": "Kuching",
        "State": "Sarawak"
    },
    {
        "Postcode": "93250",
        "Location": "Jalan Stephen Yong",
        "Post_Office": "Kuching",
        "State": "Sarawak"
    },
    {
        "Postcode": "93250",
        "Location": "Jalan Tawi Seli",
        "Post_Office": "Kuching",
        "State": "Sarawak"
    },
    {
        "Postcode": "93250",
        "Location": "Kampung Batu Kitang",
        "Post_Office": "Kuching",
        "State": "Sarawak"
    },
    {
        "Postcode": "93250",
        "Location": "Kampung Bumbok",
        "Post_Office": "Kuching",
        "State": "Sarawak"
    },
    {
        "Postcode": "93250",
        "Location": "Kampung Haji Baki",
        "Post_Office": "Kuching",
        "State": "Sarawak"
    },
    {
        "Postcode": "93250",
        "Location": "Kampung Jawa",
        "Post_Office": "Kuching",
        "State": "Sarawak"
    },
    {
        "Postcode": "93250",
        "Location": "Kampung Jawa Semenggok",
        "Post_Office": "Kuching",
        "State": "Sarawak"
    },
    {
        "Postcode": "93250",
        "Location": "Kampung Sandong",
        "Post_Office": "Kuching",
        "State": "Sarawak"
    },
    {
        "Postcode": "93250",
        "Location": "Kampung Segedup Jalan Segedup",
        "Post_Office": "Kuching",
        "State": "Sarawak"
    },
    {
        "Postcode": "93250",
        "Location": "Kampung Semeba Jalan Semeba",
        "Post_Office": "Kuching",
        "State": "Sarawak"
    },
    {
        "Postcode": "93250",
        "Location": "Kampung Seri Arjuna",
        "Post_Office": "Kuching",
        "State": "Sarawak"
    },
    {
        "Postcode": "93250",
        "Location": "Kampung Sinar Budi",
        "Post_Office": "Kuching",
        "State": "Sarawak"
    },
    {
        "Postcode": "93250",
        "Location": "Kampung Stapok",
        "Post_Office": "Kuching",
        "State": "Sarawak"
    },
    {
        "Postcode": "93250",
        "Location": "Kampung Stapok Cina",
        "Post_Office": "Kuching",
        "State": "Sarawak"
    },
    {
        "Postcode": "93250",
        "Location": "Kampung Tematu",
        "Post_Office": "Kuching",
        "State": "Sarawak"
    },
    {
        "Postcode": "93250",
        "Location": "Kampung Tematu Jalan Batu Kitang",
        "Post_Office": "Kuching",
        "State": "Sarawak"
    },
    {
        "Postcode": "93250",
        "Location": "Lapangan Terbang Antarabangsa Kuching",
        "Post_Office": "Kuching",
        "State": "Sarawak"
    },
    {
        "Postcode": "93250",
        "Location": "Lorong 1 (Batu Kawa)",
        "Post_Office": "Kuching",
        "State": "Sarawak"
    },
    {
        "Postcode": "93250",
        "Location": "Lorong 2 (Batu Kawa)",
        "Post_Office": "Kuching",
        "State": "Sarawak"
    },
    {
        "Postcode": "93250",
        "Location": "Lorong 3 (Batu Kawa)",
        "Post_Office": "Kuching",
        "State": "Sarawak"
    },
    {
        "Postcode": "93250",
        "Location": "Mjc Apartment \u0026 Condo Jalan Batu Kawa",
        "Post_Office": "Kuching",
        "State": "Sarawak"
    },
    {
        "Postcode": "93250",
        "Location": "Mjc Commercial Centre Jalan Batu Kawa",
        "Post_Office": "Kuching",
        "State": "Sarawak"
    },
    {
        "Postcode": "93250",
        "Location": "Pasar Batu 10 (Jalan Penrissen)",
        "Post_Office": "Kuching",
        "State": "Sarawak"
    },
    {
        "Postcode": "93250",
        "Location": "Pasar Batu 7 (Jalan Penrissen)",
        "Post_Office": "Kuching",
        "State": "Sarawak"
    },
    {
        "Postcode": "93250",
        "Location": "Pasar Batu Kitang",
        "Post_Office": "Kuching",
        "State": "Sarawak"
    },
    {
        "Postcode": "93250",
        "Location": "Pasar Batu Kitang (Km 11)",
        "Post_Office": "Kuching",
        "State": "Sarawak"
    },
    {
        "Postcode": "93250",
        "Location": "Pengkalan Baru",
        "Post_Office": "Kuching",
        "State": "Sarawak"
    },
    {
        "Postcode": "93250",
        "Location": "Persiaran Kingsway",
        "Post_Office": "Kuching",
        "State": "Sarawak"
    },
    {
        "Postcode": "93250",
        "Location": "Resettlement Scheme Kampung Jawa",
        "Post_Office": "Kuching",
        "State": "Sarawak"
    },
    {
        "Postcode": "93250",
        "Location": "Resettlement Scheme Stapok",
        "Post_Office": "Kuching",
        "State": "Sarawak"
    },
    {
        "Postcode": "93250",
        "Location": "Seventh Mile Bazaar",
        "Post_Office": "Kuching",
        "State": "Sarawak"
    },
    {
        "Postcode": "93250",
        "Location": "Taman Ann Siang",
        "Post_Office": "Kuching",
        "State": "Sarawak"
    },
    {
        "Postcode": "93250",
        "Location": "Taman Arang",
        "Post_Office": "Kuching",
        "State": "Sarawak"
    },
    {
        "Postcode": "93250",
        "Location": "Taman Aromatic",
        "Post_Office": "Kuching",
        "State": "Sarawak"
    },
    {
        "Postcode": "93250",
        "Location": "Taman Batu 9",
        "Post_Office": "Kuching",
        "State": "Sarawak"
    },
    {
        "Postcode": "93250",
        "Location": "Taman Batu Kawa Heights",
        "Post_Office": "Kuching",
        "State": "Sarawak"
    },
    {
        "Postcode": "93250",
        "Location": "Taman Beauty",
        "Post_Office": "Kuching",
        "State": "Sarawak"
    },
    {
        "Postcode": "93250",
        "Location": "Taman Bengoh",
        "Post_Office": "Kuching",
        "State": "Sarawak"
    },
    {
        "Postcode": "93250",
        "Location": "Taman Berjaya",
        "Post_Office": "Kuching",
        "State": "Sarawak"
    },
    {
        "Postcode": "93250",
        "Location": "Taman Bj",
        "Post_Office": "Kuching",
        "State": "Sarawak"
    },
    {
        "Postcode": "93250",
        "Location": "Taman Bolder Built",
        "Post_Office": "Kuching",
        "State": "Sarawak"
    },
    {
        "Postcode": "93250",
        "Location": "Taman Brilliance",
        "Post_Office": "Kuching",
        "State": "Sarawak"
    },
    {
        "Postcode": "93250",
        "Location": "Taman Budi Jasa",
        "Post_Office": "Kuching",
        "State": "Sarawak"
    },
    {
        "Postcode": "93250",
        "Location": "Taman Buditra Jaya",
        "Post_Office": "Kuching",
        "State": "Sarawak"
    },
    {
        "Postcode": "93250",
        "Location": "Taman Bukit Stampin",
        "Post_Office": "Kuching",
        "State": "Sarawak"
    },
    {
        "Postcode": "93250",
        "Location": "Taman Bumiko",
        "Post_Office": "Kuching",
        "State": "Sarawak"
    },
    {
        "Postcode": "93250",
        "Location": "Taman Capital",
        "Post_Office": "Kuching",
        "State": "Sarawak"
    },
    {
        "Postcode": "93250",
        "Location": "Taman Carina Estate",
        "Post_Office": "Kuching",
        "State": "Sarawak"
    },
    {
        "Postcode": "93250",
        "Location": "Taman Chai Yii",
        "Post_Office": "Kuching",
        "State": "Sarawak"
    },
    {
        "Postcode": "93250",
        "Location": "Taman Chia Teng Chew",
        "Post_Office": "Kuching",
        "State": "Sarawak"
    },
    {
        "Postcode": "93250",
        "Location": "Taman Chong",
        "Post_Office": "Kuching",
        "State": "Sarawak"
    },
    {
        "Postcode": "93250",
        "Location": "Taman Chong Kong",
        "Post_Office": "Kuching",
        "State": "Sarawak"
    },
    {
        "Postcode": "93250",
        "Location": "Taman Chung Nion",
        "Post_Office": "Kuching",
        "State": "Sarawak"
    },
    {
        "Postcode": "93250",
        "Location": "Taman Cinmuk",
        "Post_Office": "Kuching",
        "State": "Sarawak"
    },
    {
        "Postcode": "93250",
        "Location": "Taman Contemporary",
        "Post_Office": "Kuching",
        "State": "Sarawak"
    },
    {
        "Postcode": "93250",
        "Location": "Taman Coral",
        "Post_Office": "Kuching",
        "State": "Sarawak"
    },
    {
        "Postcode": "93250",
        "Location": "Taman Country Hill",
        "Post_Office": "Kuching",
        "State": "Sarawak"
    },
    {
        "Postcode": "93250",
        "Location": "Taman Country Vale",
        "Post_Office": "Kuching",
        "State": "Sarawak"
    },
    {
        "Postcode": "93250",
        "Location": "Taman Cuaca",
        "Post_Office": "Kuching",
        "State": "Sarawak"
    },
    {
        "Postcode": "93250",
        "Location": "Taman Damansara",
        "Post_Office": "Kuching",
        "State": "Sarawak"
    },
    {
        "Postcode": "93250",
        "Location": "Taman Desa Moyan",
        "Post_Office": "Kuching",
        "State": "Sarawak"
    },
    {
        "Postcode": "93250",
        "Location": "Taman Desa Wira",
        "Post_Office": "Kuching",
        "State": "Sarawak"
    },
    {
        "Postcode": "93250",
        "Location": "Taman East Height",
        "Post_Office": "Kuching",
        "State": "Sarawak"
    },
    {
        "Postcode": "93250",
        "Location": "Taman Eden Field",
        "Post_Office": "Kuching",
        "State": "Sarawak"
    },
    {
        "Postcode": "93250",
        "Location": "Taman Everbright Estate (Batu Kawa)",
        "Post_Office": "Kuching",
        "State": "Sarawak"
    },
    {
        "Postcode": "93250",
        "Location": "Taman Everbright Park",
        "Post_Office": "Kuching",
        "State": "Sarawak"
    },
    {
        "Postcode": "93250",
        "Location": "Taman Fairview Height",
        "Post_Office": "Kuching",
        "State": "Sarawak"
    },
    {
        "Postcode": "93250",
        "Location": "Taman Fook Nyen",
        "Post_Office": "Kuching",
        "State": "Sarawak"
    },
    {
        "Postcode": "93250",
        "Location": "Taman Fuyi",
        "Post_Office": "Kuching",
        "State": "Sarawak"
    },
    {
        "Postcode": "93250",
        "Location": "Taman Genesis",
        "Post_Office": "Kuching",
        "State": "Sarawak"
    },
    {
        "Postcode": "93250",
        "Location": "Taman Grace",
        "Post_Office": "Kuching",
        "State": "Sarawak"
    },
    {
        "Postcode": "93250",
        "Location": "Taman Green Heights",
        "Post_Office": "Kuching",
        "State": "Sarawak"
    },
    {
        "Postcode": "93250",
        "Location": "Taman Green Ville",
        "Post_Office": "Kuching",
        "State": "Sarawak"
    },
    {
        "Postcode": "93250",
        "Location": "Taman Greenhill",
        "Post_Office": "Kuching",
        "State": "Sarawak"
    },
    {
        "Postcode": "93250",
        "Location": "Taman Greenland Villa",
        "Post_Office": "Kuching",
        "State": "Sarawak"
    },
    {
        "Postcode": "93250",
        "Location": "Taman Greenvilla",
        "Post_Office": "Kuching",
        "State": "Sarawak"
    },
    {
        "Postcode": "93250",
        "Location": "Taman Greenwood Park",
        "Post_Office": "Kuching",
        "State": "Sarawak"
    },
    {
        "Postcode": "93250",
        "Location": "Taman Haji Baki",
        "Post_Office": "Kuching",
        "State": "Sarawak"
    },
    {
        "Postcode": "93250",
        "Location": "Taman Hdc (Rpr Batu 12)",
        "Post_Office": "Kuching",
        "State": "Sarawak"
    },
    {
        "Postcode": "93250",
        "Location": "Taman Hdc (Rpr Batu Kawa)",
        "Post_Office": "Kuching",
        "State": "Sarawak"
    },
    {
        "Postcode": "93250",
        "Location": "Taman Hin Yu",
        "Post_Office": "Kuching",
        "State": "Sarawak"
    },
    {
        "Postcode": "93250",
        "Location": "Taman Hock Nion",
        "Post_Office": "Kuching",
        "State": "Sarawak"
    },
    {
        "Postcode": "93250",
        "Location": "Taman Hoi Lee",
        "Post_Office": "Kuching",
        "State": "Sarawak"
    },
    {
        "Postcode": "93250",
        "Location": "Taman Home Mart",
        "Post_Office": "Kuching",
        "State": "Sarawak"
    },
    {
        "Postcode": "93250",
        "Location": "Taman Home Park",
        "Post_Office": "Kuching",
        "State": "Sarawak"
    },
    {
        "Postcode": "93250",
        "Location": "Taman Hong Hong",
        "Post_Office": "Kuching",
        "State": "Sarawak"
    },
    {
        "Postcode": "93250",
        "Location": "Taman How Ching",
        "Post_Office": "Kuching",
        "State": "Sarawak"
    },
    {
        "Postcode": "93250",
        "Location": "Taman Hua Ling",
        "Post_Office": "Kuching",
        "State": "Sarawak"
    },
    {
        "Postcode": "93250",
        "Location": "Taman Hua Yan",
        "Post_Office": "Kuching",
        "State": "Sarawak"
    },
    {
        "Postcode": "93250",
        "Location": "Taman Iddylick",
        "Post_Office": "Kuching",
        "State": "Sarawak"
    },
    {
        "Postcode": "93250",
        "Location": "Taman Indah Height",
        "Post_Office": "Kuching",
        "State": "Sarawak"
    },
    {
        "Postcode": "93250",
        "Location": "Taman Indah Jaya",
        "Post_Office": "Kuching",
        "State": "Sarawak"
    },
    {
        "Postcode": "93250",
        "Location": "Taman Indah Landeh",
        "Post_Office": "Kuching",
        "State": "Sarawak"
    },
    {
        "Postcode": "93250",
        "Location": "Taman Indah Ria",
        "Post_Office": "Kuching",
        "State": "Sarawak"
    },
    {
        "Postcode": "93250",
        "Location": "Taman Janting",
        "Post_Office": "Kuching",
        "State": "Sarawak"
    },
    {
        "Postcode": "93250",
        "Location": "Taman Ketika",
        "Post_Office": "Kuching",
        "State": "Sarawak"
    },
    {
        "Postcode": "93250",
        "Location": "Taman Khua Hua",
        "Post_Office": "Kuching",
        "State": "Sarawak"
    },
    {
        "Postcode": "93250",
        "Location": "Taman Kim Lee",
        "Post_Office": "Kuching",
        "State": "Sarawak"
    },
    {
        "Postcode": "93250",
        "Location": "Taman Kim Pang",
        "Post_Office": "Kuching",
        "State": "Sarawak"
    },
    {
        "Postcode": "93250",
        "Location": "Taman Kit Fah",
        "Post_Office": "Kuching",
        "State": "Sarawak"
    },
    {
        "Postcode": "93250",
        "Location": "Taman Kong Ping",
        "Post_Office": "Kuching",
        "State": "Sarawak"
    },
    {
        "Postcode": "93250",
        "Location": "Taman Kong Ping Height",
        "Post_Office": "Kuching",
        "State": "Sarawak"
    },
    {
        "Postcode": "93250",
        "Location": "Taman Kota Padawan",
        "Post_Office": "Kuching",
        "State": "Sarawak"
    },
    {
        "Postcode": "93250",
        "Location": "Taman Kuap",
        "Post_Office": "Kuching",
        "State": "Sarawak"
    },
    {
        "Postcode": "93250",
        "Location": "Taman Kwong Tiong",
        "Post_Office": "Kuching",
        "State": "Sarawak"
    },
    {
        "Postcode": "93250",
        "Location": "Taman Lai - Lai",
        "Post_Office": "Kuching",
        "State": "Sarawak"
    },
    {
        "Postcode": "93250",
        "Location": "Taman Landeh",
        "Post_Office": "Kuching",
        "State": "Sarawak"
    },
    {
        "Postcode": "93250",
        "Location": "Taman Lee Onn",
        "Post_Office": "Kuching",
        "State": "Sarawak"
    },
    {
        "Postcode": "93250",
        "Location": "Taman Lian Hua",
        "Post_Office": "Kuching",
        "State": "Sarawak"
    },
    {
        "Postcode": "93250",
        "Location": "Taman Lian Kwang",
        "Post_Office": "Kuching",
        "State": "Sarawak"
    },
    {
        "Postcode": "93250",
        "Location": "Taman Lilok",
        "Post_Office": "Kuching",
        "State": "Sarawak"
    },
    {
        "Postcode": "93250",
        "Location": "Taman Lok Thiam",
        "Post_Office": "Kuching",
        "State": "Sarawak"
    },
    {
        "Postcode": "93250",
        "Location": "Taman Lovely Land",
        "Post_Office": "Kuching",
        "State": "Sarawak"
    },
    {
        "Postcode": "93250",
        "Location": "Taman Lung Foo",
        "Post_Office": "Kuching",
        "State": "Sarawak"
    },
    {
        "Postcode": "93250",
        "Location": "Taman Mawar (Jalan Arang)",
        "Post_Office": "Kuching",
        "State": "Sarawak"
    },
    {
        "Postcode": "93250",
        "Location": "Taman Megajuta",
        "Post_Office": "Kuching",
        "State": "Sarawak"
    },
    {
        "Postcode": "93250",
        "Location": "Taman Mei Lee",
        "Post_Office": "Kuching",
        "State": "Sarawak"
    },
    {
        "Postcode": "93250",
        "Location": "Taman Metro",
        "Post_Office": "Kuching",
        "State": "Sarawak"
    },
    {
        "Postcode": "93250",
        "Location": "Taman Mewah",
        "Post_Office": "Kuching",
        "State": "Sarawak"
    },
    {
        "Postcode": "93250",
        "Location": "Taman Millinium",
        "Post_Office": "Kuching",
        "State": "Sarawak"
    },
    {
        "Postcode": "93250",
        "Location": "Taman Mjc Mutiara",
        "Post_Office": "Kuching",
        "State": "Sarawak"
    },
    {
        "Postcode": "93250",
        "Location": "Taman Moyan Height",
        "Post_Office": "Kuching",
        "State": "Sarawak"
    },
    {
        "Postcode": "93250",
        "Location": "Taman Mulbery",
        "Post_Office": "Kuching",
        "State": "Sarawak"
    },
    {
        "Postcode": "93250",
        "Location": "Taman Nam Hoi",
        "Post_Office": "Kuching",
        "State": "Sarawak"
    },
    {
        "Postcode": "93250",
        "Location": "Taman Nan Chi",
        "Post_Office": "Kuching",
        "State": "Sarawak"
    },
    {
        "Postcode": "93250",
        "Location": "Taman Olive",
        "Post_Office": "Kuching",
        "State": "Sarawak"
    },
    {
        "Postcode": "93250",
        "Location": "Taman Orchid (Jalan Arang Bara)",
        "Post_Office": "Kuching",
        "State": "Sarawak"
    },
    {
        "Postcode": "93250",
        "Location": "Taman Paradise",
        "Post_Office": "Kuching",
        "State": "Sarawak"
    },
    {
        "Postcode": "93250",
        "Location": "Taman Parkview",
        "Post_Office": "Kuching",
        "State": "Sarawak"
    },
    {
        "Postcode": "93250",
        "Location": "Taman Pek Seng",
        "Post_Office": "Kuching",
        "State": "Sarawak"
    },
    {
        "Postcode": "93250",
        "Location": "Taman Penrissen",
        "Post_Office": "Kuching",
        "State": "Sarawak"
    },
    {
        "Postcode": "93250",
        "Location": "Taman Phoenix",
        "Post_Office": "Kuching",
        "State": "Sarawak"
    },
    {
        "Postcode": "93250",
        "Location": "Taman Princess",
        "Post_Office": "Kuching",
        "State": "Sarawak"
    },
    {
        "Postcode": "93250",
        "Location": "Taman Punica",
        "Post_Office": "Kuching",
        "State": "Sarawak"
    },
    {
        "Postcode": "93250",
        "Location": "Taman Range",
        "Post_Office": "Kuching",
        "State": "Sarawak"
    },
    {
        "Postcode": "93250",
        "Location": "Taman Regal",
        "Post_Office": "Kuching",
        "State": "Sarawak"
    },
    {
        "Postcode": "93250",
        "Location": "Taman Renggas Estate",
        "Post_Office": "Kuching",
        "State": "Sarawak"
    },
    {
        "Postcode": "93250",
        "Location": "Taman Richmond Hill",
        "Post_Office": "Kuching",
        "State": "Sarawak"
    },
    {
        "Postcode": "93250",
        "Location": "Taman Rimba Stapok",
        "Post_Office": "Kuching",
        "State": "Sarawak"
    },
    {
        "Postcode": "93250",
        "Location": "Taman Royal",
        "Post_Office": "Kuching",
        "State": "Sarawak"
    },
    {
        "Postcode": "93250",
        "Location": "Taman Saidu Khan",
        "Post_Office": "Kuching",
        "State": "Sarawak"
    },
    {
        "Postcode": "93250",
        "Location": "Taman Sakura Indah",
        "Post_Office": "Kuching",
        "State": "Sarawak"
    },
    {
        "Postcode": "93250",
        "Location": "Taman San Chin",
        "Post_Office": "Kuching",
        "State": "Sarawak"
    },
    {
        "Postcode": "93250",
        "Location": "Taman Sarmax",
        "Post_Office": "Kuching",
        "State": "Sarawak"
    },
    {
        "Postcode": "93250",
        "Location": "Taman Sasa",
        "Post_Office": "Kuching",
        "State": "Sarawak"
    },
    {
        "Postcode": "93250",
        "Location": "Taman Sati",
        "Post_Office": "Kuching",
        "State": "Sarawak"
    },
    {
        "Postcode": "93250",
        "Location": "Taman Segedup Height",
        "Post_Office": "Kuching",
        "State": "Sarawak"
    },
    {
        "Postcode": "93250",
        "Location": "Taman Seng Goon",
        "Post_Office": "Kuching",
        "State": "Sarawak"
    },
    {
        "Postcode": "93250",
        "Location": "Taman Seri Emas",
        "Post_Office": "Kuching",
        "State": "Sarawak"
    },
    {
        "Postcode": "93250",
        "Location": "Taman Shefford View",
        "Post_Office": "Kuching",
        "State": "Sarawak"
    },
    {
        "Postcode": "93250",
        "Location": "Taman Shing Yu",
        "Post_Office": "Kuching",
        "State": "Sarawak"
    },
    {
        "Postcode": "93250",
        "Location": "Taman Siwi",
        "Post_Office": "Kuching",
        "State": "Sarawak"
    },
    {
        "Postcode": "93250",
        "Location": "Taman Spring Field",
        "Post_Office": "Kuching",
        "State": "Sarawak"
    },
    {
        "Postcode": "93250",
        "Location": "Taman Sri Borneo",
        "Post_Office": "Kuching",
        "State": "Sarawak"
    },
    {
        "Postcode": "93250",
        "Location": "Taman Sri Cahaya",
        "Post_Office": "Kuching",
        "State": "Sarawak"
    },
    {
        "Postcode": "93250",
        "Location": "Taman Sri Moyan",
        "Post_Office": "Kuching",
        "State": "Sarawak"
    },
    {
        "Postcode": "93250",
        "Location": "Taman Sri Muhibbah",
        "Post_Office": "Kuching",
        "State": "Sarawak"
    },
    {
        "Postcode": "93250",
        "Location": "Taman Sri Segedup",
        "Post_Office": "Kuching",
        "State": "Sarawak"
    },
    {
        "Postcode": "93250",
        "Location": "Taman Stc",
        "Post_Office": "Kuching",
        "State": "Sarawak"
    },
    {
        "Postcode": "93250",
        "Location": "Taman Stella",
        "Post_Office": "Kuching",
        "State": "Sarawak"
    },
    {
        "Postcode": "93250",
        "Location": "Taman Stephen Yong Avenue",
        "Post_Office": "Kuching",
        "State": "Sarawak"
    },
    {
        "Postcode": "93250",
        "Location": "Taman Sunny Heights",
        "Post_Office": "Kuching",
        "State": "Sarawak"
    },
    {
        "Postcode": "93250",
        "Location": "Taman Sunny Hill",
        "Post_Office": "Kuching",
        "State": "Sarawak"
    },
    {
        "Postcode": "93250",
        "Location": "Taman Sunyeh",
        "Post_Office": "Kuching",
        "State": "Sarawak"
    },
    {
        "Postcode": "93250",
        "Location": "Taman Taipei",
        "Post_Office": "Kuching",
        "State": "Sarawak"
    },
    {
        "Postcode": "93250",
        "Location": "Taman Tiang Ling",
        "Post_Office": "Kuching",
        "State": "Sarawak"
    },
    {
        "Postcode": "93250",
        "Location": "Taman Tjm",
        "Post_Office": "Kuching",
        "State": "Sarawak"
    },
    {
        "Postcode": "93250",
        "Location": "Taman Tropimas",
        "Post_Office": "Kuching",
        "State": "Sarawak"
    },
    {
        "Postcode": "93250",
        "Location": "Taman Ultra",
        "Post_Office": "Kuching",
        "State": "Sarawak"
    },
    {
        "Postcode": "93250",
        "Location": "Taman Union",
        "Post_Office": "Kuching",
        "State": "Sarawak"
    },
    {
        "Postcode": "93250",
        "Location": "Taman Victoria",
        "Post_Office": "Kuching",
        "State": "Sarawak"
    },
    {
        "Postcode": "93250",
        "Location": "Taman Victory",
        "Post_Office": "Kuching",
        "State": "Sarawak"
    },
    {
        "Postcode": "93250",
        "Location": "Taman Wai Leong",
        "Post_Office": "Kuching",
        "State": "Sarawak"
    },
    {
        "Postcode": "93250",
        "Location": "Taman Wec",
        "Post_Office": "Kuching",
        "State": "Sarawak"
    },
    {
        "Postcode": "93250",
        "Location": "Taman Wepac",
        "Post_Office": "Kuching",
        "State": "Sarawak"
    },
    {
        "Postcode": "93250",
        "Location": "Taman Wui Lee",
        "Post_Office": "Kuching",
        "State": "Sarawak"
    },
    {
        "Postcode": "93250",
        "Location": "Tenth Mile Bazaar",
        "Post_Office": "Kuching",
        "State": "Sarawak"
    },
    {
        "Postcode": "93250",
        "Location": "Taman Kalien 1",
        "Post_Office": "Kuching",
        "State": "Sarawak"
    },
    {
        "Postcode": "93250",
        "Location": "Taman Kalien 2",
        "Post_Office": "Kuching",
        "State": "Sarawak"
    },
    {
        "Postcode": "93250",
        "Location": "Taman Kalien 3",
        "Post_Office": "Kuching",
        "State": "Sarawak"
    },
    {
        "Postcode": "93250",
        "Location": "Taman Kalien 4",
        "Post_Office": "Kuching",
        "State": "Sarawak"
    },
    {
        "Postcode": "93250",
        "Location": "Taman Kalien 5",
        "Post_Office": "Kuching",
        "State": "Sarawak"
    },
    {
        "Postcode": "93250",
        "Location": "Taman Kalien 6",
        "Post_Office": "Kuching",
        "State": "Sarawak"
    },
    {
        "Postcode": "93250",
        "Location": "Taman Stapok Avenue ",
        "Post_Office": "Kuching",
        "State": "Sarawak"
    },
    {
        "Postcode": "93250",
        "Location": "Taman Stapok Central ",
        "Post_Office": "Kuching",
        "State": "Sarawak"
    },
    {
        "Postcode": "93250",
        "Location": "Taman Stapok Estate",
        "Post_Office": "Kuching",
        "State": "Sarawak"
    },
    {
        "Postcode": "93250",
        "Location": "Taman Emas",
        "Post_Office": "Kuching",
        "State": "Sarawak"
    },
    {
        "Postcode": "93250",
        "Location": "Taman Pearl",
        "Post_Office": "Kuching",
        "State": "Sarawak"
    },
    {
        "Postcode": "93250",
        "Location": "Taman Sentosa",
        "Post_Office": "Kuching",
        "State": "Sarawak"
    },
    {
        "Postcode": "93250",
        "Location": "Taman Wawasan",
        "Post_Office": "Kuching",
        "State": "Sarawak"
    },
    {
        "Postcode": "93250",
        "Location": "Inspire Heights",
        "Post_Office": "Kuching",
        "State": "Sarawak"
    },
    {
        "Postcode": "93250",
        "Location": "Taman Harmoni",
        "Post_Office": "Kuching",
        "State": "Sarawak"
    },
    {
        "Postcode": "93250",
        "Location": "Taman Hong Leong",
        "Post_Office": "Kuching",
        "State": "Sarawak"
    },
    {
        "Postcode": "93250",
        "Location": "Taman Stapok",
        "Post_Office": "Kuching",
        "State": "Sarawak"
    }
]
