[
    {
        "Postcode": "93300",
        "Location": "Jalan Cahaya",
        "Post_Office": "Kuching",
        "State": "Sarawak"
    },
    {
        "Postcode": "93300",
        "Location": "Jalan Central Barat",
        "Post_Office": "Kuching",
        "State": "Sarawak"
    },
    {
        "Postcode": "93300",
        "Location": "Jalan Central Esat/Ellis",
        "Post_Office": "Kuching",
        "State": "Sarawak"
    },
    {
        "Postcode": "93300",
        "Location": "Jalan Central Timur",
        "Post_Office": "Kuching",
        "State": "Sarawak"
    },
    {
        "Postcode": "93300",
        "Location": "Jalan Chawan",
        "Post_Office": "Kuching",
        "State": "Sarawak"
    },
    {
        "Postcode": "93300",
        "Location": "Jalan Chawan Hulu",
        "Post_Office": "Kuching",
        "State": "Sarawak"
    },
    {
        "Postcode": "93300",
        "Location": "Jalan Chong Kiun Kong",
        "Post_Office": "Kuching",
        "State": "Sarawak"
    },
    {
        "Postcode": "93300",
        "Location": "Jalan Datuk Bandar",
        "Post_Office": "Kuching",
        "State": "Sarawak"
    },
    {
        "Postcode": "93300",
        "Location": "Jalan Datuk Sim Kheng Hong",
        "Post_Office": "Kuching",
        "State": "Sarawak"
    },
    {
        "Postcode": "93300",
        "Location": "Jalan Ellis",
        "Post_Office": "Kuching",
        "State": "Sarawak"
    },
    {
        "Postcode": "93300",
        "Location": "Jalan Foochow 1",
        "Post_Office": "Kuching",
        "State": "Sarawak"
    },
    {
        "Postcode": "93300",
        "Location": "Jalan Foochow 2",
        "Post_Office": "Kuching",
        "State": "Sarawak"
    },
    {
        "Postcode": "93300",
        "Location": "Jalan Foochow Barat",
        "Post_Office": "Kuching",
        "State": "Sarawak"
    },
    {
        "Postcode": "93300",
        "Location": "Jalan Kuek Siok Hong",
        "Post_Office": "Kuching",
        "State": "Sarawak"
    },
    {
        "Postcode": "93300",
        "Location": "Jalan Ming Ching",
        "Post_Office": "Kuching",
        "State": "Sarawak"
    },
    {
        "Postcode": "93300",
        "Location": "Jalan Nyatoh",
        "Post_Office": "Kuching",
        "State": "Sarawak"
    },
    {
        "Postcode": "93300",
        "Location": "Jalan Parklane",
        "Post_Office": "Kuching",
        "State": "Sarawak"
    },
    {
        "Postcode": "93300",
        "Location": "Jalan Penyau",
        "Post_Office": "Kuching",
        "State": "Sarawak"
    },
    {
        "Postcode": "93300",
        "Location": "Jalan Rengas",
        "Post_Office": "Kuching",
        "State": "Sarawak"
    },
    {
        "Postcode": "93300",
        "Location": "Jalan Sekama",
        "Post_Office": "Kuching",
        "State": "Sarawak"
    },
    {
        "Postcode": "93300",
        "Location": "Jalan Sekama Utara",
        "Post_Office": "Kuching",
        "State": "Sarawak"
    },
    {
        "Postcode": "93300",
        "Location": "Jalan Sekama/Pending",
        "Post_Office": "Kuching",
        "State": "Sarawak"
    },
    {
        "Postcode": "93300",
        "Location": "Jalan Sinar",
        "Post_Office": "Kuching",
        "State": "Sarawak"
    },
    {
        "Postcode": "93300",
        "Location": "Jalan Suadi Haji Arshad",
        "Post_Office": "Kuching",
        "State": "Sarawak"
    },
    {
        "Postcode": "93300",
        "Location": "Jalan Tai Poo",
        "Post_Office": "Kuching",
        "State": "Sarawak"
    },
    {
        "Postcode": "93300",
        "Location": "Jalan Upper Chawan",
        "Post_Office": "Kuching",
        "State": "Sarawak"
    },
    {
        "Postcode": "93300",
        "Location": "Jalan Wan Abdul Rahman",
        "Post_Office": "Kuching",
        "State": "Sarawak"
    },
    {
        "Postcode": "93300",
        "Location": "Kampung Tabuan Foochow Jalan Foochow No. 1",
        "Post_Office": "Kuching",
        "State": "Sarawak"
    },
    {
        "Postcode": "93300",
        "Location": "Kuching By Pass (Foochow)",
        "Post_Office": "Kuching",
        "State": "Sarawak"
    },
    {
        "Postcode": "93300",
        "Location": "Lebuh Sekama",
        "Post_Office": "Kuching",
        "State": "Sarawak"
    },
    {
        "Postcode": "93300",
        "Location": "Lorong Goh Meng Teck",
        "Post_Office": "Kuching",
        "State": "Sarawak"
    },
    {
        "Postcode": "93300",
        "Location": "Lorong Park",
        "Post_Office": "Kuching",
        "State": "Sarawak"
    },
    {
        "Postcode": "93300",
        "Location": "Sekama Utara",
        "Post_Office": "Kuching",
        "State": "Sarawak"
    },
    {
        "Postcode": "93300",
        "Location": "Tabuan Ulu Chawan Cina",
        "Post_Office": "Kuching",
        "State": "Sarawak"
    },
    {
        "Postcode": "93300",
        "Location": "Taman Chung Hua",
        "Post_Office": "Kuching",
        "State": "Sarawak"
    },
    {
        "Postcode": "93300",
        "Location": "Taman Dirgahayu",
        "Post_Office": "Kuching",
        "State": "Sarawak"
    },
    {
        "Postcode": "93300",
        "Location": "Taman Fushing",
        "Post_Office": "Kuching",
        "State": "Sarawak"
    },
    {
        "Postcode": "93300",
        "Location": "Taman Futee",
        "Post_Office": "Kuching",
        "State": "Sarawak"
    },
    {
        "Postcode": "93300",
        "Location": "Taman Hawaii",
        "Post_Office": "Kuching",
        "State": "Sarawak"
    },
    {
        "Postcode": "93300",
        "Location": "Taman Joo Chuan (Jalan Ellis)",
        "Post_Office": "Kuching",
        "State": "Sarawak"
    },
    {
        "Postcode": "93300",
        "Location": "Taman Kali",
        "Post_Office": "Kuching",
        "State": "Sarawak"
    },
    {
        "Postcode": "93300",
        "Location": "Taman Kenyalang",
        "Post_Office": "Kuching",
        "State": "Sarawak"
    },
    {
        "Postcode": "93300",
        "Location": "Taman Kim Fook",
        "Post_Office": "Kuching",
        "State": "Sarawak"
    },
    {
        "Postcode": "93300",
        "Location": "Taman Kuching",
        "Post_Office": "Kuching",
        "State": "Sarawak"
    },
    {
        "Postcode": "93300",
        "Location": "Taman Lein Kun",
        "Post_Office": "Kuching",
        "State": "Sarawak"
    },
    {
        "Postcode": "93300",
        "Location": "Taman Mei Teck",
        "Post_Office": "Kuching",
        "State": "Sarawak"
    },
    {
        "Postcode": "93300",
        "Location": "Taman Orchid Jalan Foochow No. 1",
        "Post_Office": "Kuching",
        "State": "Sarawak"
    },
    {
        "Postcode": "93300",
        "Location": "Taman Pecky",
        "Post_Office": "Kuching",
        "State": "Sarawak"
    },
    {
        "Postcode": "93300",
        "Location": "Taman Poh Hua",
        "Post_Office": "Kuching",
        "State": "Sarawak"
    },
    {
        "Postcode": "93300",
        "Location": "Taman Poh Ming",
        "Post_Office": "Kuching",
        "State": "Sarawak"
    },
    {
        "Postcode": "93300",
        "Location": "Taman Sin Juak",
        "Post_Office": "Kuching",
        "State": "Sarawak"
    },
    {
        "Postcode": "93300",
        "Location": "Taman Sung Hong",
        "Post_Office": "Kuching",
        "State": "Sarawak"
    },
    {
        "Postcode": "93300",
        "Location": "Taman Supreme",
        "Post_Office": "Kuching",
        "State": "Sarawak"
    },
    {
        "Postcode": "93300",
        "Location": "Taman Tabuan Supreme",
        "Post_Office": "Kuching",
        "State": "Sarawak"
    },
    {
        "Postcode": "93300",
        "Location": "Taman Three Hill",
        "Post_Office": "Kuching",
        "State": "Sarawak"
    },
    {
        "Postcode": "93300",
        "Location": "Taman Tungshi",
        "Post_Office": "Kuching",
        "State": "Sarawak"
    },
    {
        "Postcode": "93300",
        "Location": "Taman Yung Kong",
        "Post_Office": "Kuching",
        "State": "Sarawak"
    },
    {
        "Postcode": "93300",
        "Location": "Jalan Resak",
        "Post_Office": "Kuching",
        "State": "Sarawak"
    },
    {
        "Postcode": "93300",
        "Location": "Jalan Berjaya",
        "Post_Office": "Kuching",
        "State": "Sarawak"
    }
]
