[
    {
        "Postcode": "93350",
        "Location": "Tabuan Court",
        "Post_Office": "Kuching",
        "State": "Sarawak"
    },
    {
        "Postcode": "93350",
        "Location": "Tabuan Stutong",
        "Post_Office": "Kuching",
        "State": "Sarawak"
    },
    {
        "Postcode": "93350",
        "Location": "Taman 7Th Avenue",
        "Post_Office": "Kuching",
        "State": "Sarawak"
    },
    {
        "Postcode": "93350",
        "Location": "Taman Bahagia",
        "Post_Office": "Kuching",
        "State": "Sarawak"
    },
    {
        "Postcode": "93350",
        "Location": "Taman Durian Burung ",
        "Post_Office": "Kuching",
        "State": "Sarawak"
    },
    {
        "Postcode": "93350",
        "Location": "Taman Golden Height ",
        "Post_Office": "Kuching",
        "State": "Sarawak"
    },
    {
        "Postcode": "93350",
        "Location": "Taman Height Estate",
        "Post_Office": "Kuching",
        "State": "Sarawak"
    },
    {
        "Postcode": "93350",
        "Location": "Taman Pelita Height ",
        "Post_Office": "Kuching",
        "State": "Sarawak"
    },
    {
        "Postcode": "93350",
        "Location": "Jalan Keranji 1",
        "Post_Office": "Kuching",
        "State": "Sarawak"
    },
    {
        "Postcode": "93350",
        "Location": "Jalan Keranji 2",
        "Post_Office": "Kuching",
        "State": "Sarawak"
    },
    {
        "Postcode": "93350",
        "Location": "Jalan Keranji 3",
        "Post_Office": "Kuching",
        "State": "Sarawak"
    },
    {
        "Postcode": "93350",
        "Location": "Jalan Keranji 4",
        "Post_Office": "Kuching",
        "State": "Sarawak"
    },
    {
        "Postcode": "93350",
        "Location": "Jalan Keranji 5",
        "Post_Office": "Kuching",
        "State": "Sarawak"
    },
    {
        "Postcode": "93350",
        "Location": "Jalan Keranji 6",
        "Post_Office": "Kuching",
        "State": "Sarawak"
    },
    {
        "Postcode": "93350",
        "Location": "Samajaya Appartment",
        "Post_Office": "Kuching",
        "State": "Sarawak"
    },
    {
        "Postcode": "93350",
        "Location": "Samajaya Comercial Centre",
        "Post_Office": "Kuching",
        "State": "Sarawak"
    },
    {
        "Postcode": "93350",
        "Location": "Taman Jade Villa",
        "Post_Office": "Kuching",
        "State": "Sarawak"
    },
    {
        "Postcode": "93350",
        "Location": "Taman Million",
        "Post_Office": "Kuching",
        "State": "Sarawak"
    },
    {
        "Postcode": "93350",
        "Location": "Taman Polarwood ",
        "Post_Office": "Kuching",
        "State": "Sarawak"
    },
    {
        "Postcode": "93350",
        "Location": "Taman Sri Stutong",
        "Post_Office": "Kuching",
        "State": "Sarawak"
    },
    {
        "Postcode": "93350",
        "Location": "Taman Tabuan Height Boulevard",
        "Post_Office": "Kuching",
        "State": "Sarawak"
    },
    {
        "Postcode": "93350",
        "Location": "Taman Tabuan Height Drive",
        "Post_Office": "Kuching",
        "State": "Sarawak"
    },
    {
        "Postcode": "93350",
        "Location": "Muara Tabuan Industrial Free Zone",
        "Post_Office": "Kuching",
        "State": "Sarawak"
    },
    {
        "Postcode": "93350",
        "Location": "Happy Valley",
        "Post_Office": "Kuching",
        "State": "Sarawak"
    },
    {
        "Postcode": "93350",
        "Location": "Hui Sing Heights",
        "Post_Office": "Kuching",
        "State": "Sarawak"
    },
    {
        "Postcode": "93350",
        "Location": "Jalan Bayor Bukit",
        "Post_Office": "Kuching",
        "State": "Sarawak"
    },
    {
        "Postcode": "93350",
        "Location": "Jalan Bintangor",
        "Post_Office": "Kuching",
        "State": "Sarawak"
    },
    {
        "Postcode": "93350",
        "Location": "Jalan Durian Burong",
        "Post_Office": "Kuching",
        "State": "Sarawak"
    },
    {
        "Postcode": "93350",
        "Location": "Jalan Geronggang",
        "Post_Office": "Kuching",
        "State": "Sarawak"
    },
    {
        "Postcode": "93350",
        "Location": "Jalan Hui Sing",
        "Post_Office": "Kuching",
        "State": "Sarawak"
    },
    {
        "Postcode": "93350",
        "Location": "Jalan Jelutong",
        "Post_Office": "Kuching",
        "State": "Sarawak"
    },
    {
        "Postcode": "93350",
        "Location": "Jalan Kedandi 11",
        "Post_Office": "Kuching",
        "State": "Sarawak"
    },
    {
        "Postcode": "93350",
        "Location": "Jalan Kedandi 14",
        "Post_Office": "Kuching",
        "State": "Sarawak"
    },
    {
        "Postcode": "93350",
        "Location": "Jalan Kempas",
        "Post_Office": "Kuching",
        "State": "Sarawak"
    },
    {
        "Postcode": "93350",
        "Location": "Jalan Kenny Hill",
        "Post_Office": "Kuching",
        "State": "Sarawak"
    },
    {
        "Postcode": "93350",
        "Location": "Jalan Kruak",
        "Post_Office": "Kuching",
        "State": "Sarawak"
    },
    {
        "Postcode": "93350",
        "Location": "Jalan Laksamana Cheng Ho",
        "Post_Office": "Kuching",
        "State": "Sarawak"
    },
    {
        "Postcode": "93350",
        "Location": "Jalan Luis",
        "Post_Office": "Kuching",
        "State": "Sarawak"
    },
    {
        "Postcode": "93350",
        "Location": "Jalan Muara Tabuan",
        "Post_Office": "Kuching",
        "State": "Sarawak"
    },
    {
        "Postcode": "93350",
        "Location": "Jalan Murut",
        "Post_Office": "Kuching",
        "State": "Sarawak"
    },
    {
        "Postcode": "93350",
        "Location": "Jalan Seladah",
        "Post_Office": "Kuching",
        "State": "Sarawak"
    },
    {
        "Postcode": "93350",
        "Location": "Jalan Setia Raja",
        "Post_Office": "Kuching",
        "State": "Sarawak"
    },
    {
        "Postcode": "93350",
        "Location": "Jalan Sherip Mansor",
        "Post_Office": "Kuching",
        "State": "Sarawak"
    },
    {
        "Postcode": "93350",
        "Location": "Jalan Simpang Tiga (Main Road)",
        "Post_Office": "Kuching",
        "State": "Sarawak"
    },
    {
        "Postcode": "93350",
        "Location": "Jalan Song",
        "Post_Office": "Kuching",
        "State": "Sarawak"
    },
    {
        "Postcode": "93350",
        "Location": "Jalan Stampin",
        "Post_Office": "Kuching",
        "State": "Sarawak"
    },
    {
        "Postcode": "93350",
        "Location": "Jalan Stampin Barat",
        "Post_Office": "Kuching",
        "State": "Sarawak"
    },
    {
        "Postcode": "93350",
        "Location": "Jalan Stampin Timur",
        "Post_Office": "Kuching",
        "State": "Sarawak"
    },
    {
        "Postcode": "93350",
        "Location": "Jalan Stutong Indah",
        "Post_Office": "Kuching",
        "State": "Sarawak"
    },
    {
        "Postcode": "93350",
        "Location": "Jalan Stutong Jaya",
        "Post_Office": "Kuching",
        "State": "Sarawak"
    },
    {
        "Postcode": "93350",
        "Location": "Jalan Tabuan Dayak",
        "Post_Office": "Kuching",
        "State": "Sarawak"
    },
    {
        "Postcode": "93350",
        "Location": "Jalan Tabuan Jaya",
        "Post_Office": "Kuching",
        "State": "Sarawak"
    },
    {
        "Postcode": "93350",
        "Location": "Jalan Temenggong Jugah",
        "Post_Office": "Kuching",
        "State": "Sarawak"
    },
    {
        "Postcode": "93350",
        "Location": "Jalan Tun Jugah",
        "Post_Office": "Kuching",
        "State": "Sarawak"
    },
    {
        "Postcode": "93350",
        "Location": "Jalan Upland",
        "Post_Office": "Kuching",
        "State": "Sarawak"
    },
    {
        "Postcode": "93350",
        "Location": "Jalan Urat Mata",
        "Post_Office": "Kuching",
        "State": "Sarawak"
    },
    {
        "Postcode": "93350",
        "Location": "Jalan Wan Alwi",
        "Post_Office": "Kuching",
        "State": "Sarawak"
    },
    {
        "Postcode": "93350",
        "Location": "Jalan Wan Alwi Tunku Ibrahim",
        "Post_Office": "Kuching",
        "State": "Sarawak"
    },
    {
        "Postcode": "93350",
        "Location": "Kampung Stampin",
        "Post_Office": "Kuching",
        "State": "Sarawak"
    },
    {
        "Postcode": "93350",
        "Location": "Kampung Tabuan Jaya",
        "Post_Office": "Kuching",
        "State": "Sarawak"
    },
    {
        "Postcode": "93350",
        "Location": "Kuching By Pass (Km 7)",
        "Post_Office": "Kuching",
        "State": "Sarawak"
    },
    {
        "Postcode": "93350",
        "Location": "Kuching By Pass Stampin",
        "Post_Office": "Kuching",
        "State": "Sarawak"
    },
    {
        "Postcode": "93350",
        "Location": "Lorong Wan Alwi 5",
        "Post_Office": "Kuching",
        "State": "Sarawak"
    },
    {
        "Postcode": "93350",
        "Location": "Resettlement Schme Stutong",
        "Post_Office": "Kuching",
        "State": "Sarawak"
    },
    {
        "Postcode": "93350",
        "Location": "Stutong Affordable Scheme (Phase 1 - 2)",
        "Post_Office": "Kuching",
        "State": "Sarawak"
    },
    {
        "Postcode": "93350",
        "Location": "Tabuan Dayak",
        "Post_Office": "Kuching",
        "State": "Sarawak"
    },
    {
        "Postcode": "93350",
        "Location": "Tabuan Dusun",
        "Post_Office": "Kuching",
        "State": "Sarawak"
    },
    {
        "Postcode": "93350",
        "Location": "Tabuan Dusun Tengah",
        "Post_Office": "Kuching",
        "State": "Sarawak"
    },
    {
        "Postcode": "93350",
        "Location": "Taman Tabuan Jaya 1",
        "Post_Office": "Kuching",
        "State": "Sarawak"
    },
    {
        "Postcode": "93350",
        "Location": "Taman Tabuan Jaya 2",
        "Post_Office": "Kuching",
        "State": "Sarawak"
    },
    {
        "Postcode": "93350",
        "Location": "Kampung Tabuan Dayak",
        "Post_Office": "Kuching",
        "State": "Sarawak"
    },
    {
        "Postcode": "93350",
        "Location": "Tabuan Heights",
        "Post_Office": "Kuching",
        "State": "Sarawak"
    },
    {
        "Postcode": "93350",
        "Location": "Tabuan Jaya",
        "Post_Office": "Kuching",
        "State": "Sarawak"
    },
    {
        "Postcode": "93350",
        "Location": "Tabuan Jaya Tengah",
        "Post_Office": "Kuching",
        "State": "Sarawak"
    },
    {
        "Postcode": "93350",
        "Location": "Tabuan Lalang",
        "Post_Office": "Kuching",
        "State": "Sarawak"
    },
    {
        "Postcode": "93350",
        "Location": "Taman Bayang",
        "Post_Office": "Kuching",
        "State": "Sarawak"
    },
    {
        "Postcode": "93350",
        "Location": "Taman Bayang Estate",
        "Post_Office": "Kuching",
        "State": "Sarawak"
    },
    {
        "Postcode": "93350",
        "Location": "Taman Bdc",
        "Post_Office": "Kuching",
        "State": "Sarawak"
    },
    {
        "Postcode": "93350",
        "Location": "Taman Bdc Stampin",
        "Post_Office": "Kuching",
        "State": "Sarawak"
    },
    {
        "Postcode": "93350",
        "Location": "Taman Beverly Heights",
        "Post_Office": "Kuching",
        "State": "Sarawak"
    },
    {
        "Postcode": "93350",
        "Location": "Taman Bintang",
        "Post_Office": "Kuching",
        "State": "Sarawak"
    },
    {
        "Postcode": "93350",
        "Location": "Taman Casamarbela",
        "Post_Office": "Kuching",
        "State": "Sarawak"
    },
    {
        "Postcode": "93350",
        "Location": "Taman Cemerlang",
        "Post_Office": "Kuching",
        "State": "Sarawak"
    },
    {
        "Postcode": "93350",
        "Location": "Taman Centurion 1",
        "Post_Office": "Kuching",
        "State": "Sarawak"
    },
    {
        "Postcode": "93350",
        "Location": "Taman Centurion 2",
        "Post_Office": "Kuching",
        "State": "Sarawak"
    },
    {
        "Postcode": "93350",
        "Location": "Taman Cinta Avenue",
        "Post_Office": "Kuching",
        "State": "Sarawak"
    },
    {
        "Postcode": "93350",
        "Location": "Taman Daya",
        "Post_Office": "Kuching",
        "State": "Sarawak"
    },
    {
        "Postcode": "93350",
        "Location": "Taman Desa Utara",
        "Post_Office": "Kuching",
        "State": "Sarawak"
    },
    {
        "Postcode": "93350",
        "Location": "Taman Esco Ville",
        "Post_Office": "Kuching",
        "State": "Sarawak"
    },
    {
        "Postcode": "93350",
        "Location": "Taman Everbright Jaya",
        "Post_Office": "Kuching",
        "State": "Sarawak"
    },
    {
        "Postcode": "93350",
        "Location": "Taman Fortune",
        "Post_Office": "Kuching",
        "State": "Sarawak"
    },
    {
        "Postcode": "93350",
        "Location": "Taman Gan Swee",
        "Post_Office": "Kuching",
        "State": "Sarawak"
    },
    {
        "Postcode": "93350",
        "Location": "Taman Gawing",
        "Post_Office": "Kuching",
        "State": "Sarawak"
    },
    {
        "Postcode": "93350",
        "Location": "Taman Happy Valley",
        "Post_Office": "Kuching",
        "State": "Sarawak"
    },
    {
        "Postcode": "93350",
        "Location": "Taman Hartawan",
        "Post_Office": "Kuching",
        "State": "Sarawak"
    },
    {
        "Postcode": "93350",
        "Location": "Taman Hua Lee",
        "Post_Office": "Kuching",
        "State": "Sarawak"
    },
    {
        "Postcode": "93350",
        "Location": "Taman Hui Sing",
        "Post_Office": "Kuching",
        "State": "Sarawak"
    },
    {
        "Postcode": "93350",
        "Location": "Taman Hui Sing Close",
        "Post_Office": "Kuching",
        "State": "Sarawak"
    },
    {
        "Postcode": "93350",
        "Location": "Taman Hui Sing Height",
        "Post_Office": "Kuching",
        "State": "Sarawak"
    },
    {
        "Postcode": "93350",
        "Location": "Taman Hui Sing Jaya",
        "Post_Office": "Kuching",
        "State": "Sarawak"
    },
    {
        "Postcode": "93350",
        "Location": "Taman Jelita",
        "Post_Office": "Kuching",
        "State": "Sarawak"
    },
    {
        "Postcode": "93350",
        "Location": "Taman Julemas",
        "Post_Office": "Kuching",
        "State": "Sarawak"
    },
    {
        "Postcode": "93350",
        "Location": "Taman Jupit",
        "Post_Office": "Kuching",
        "State": "Sarawak"
    },
    {
        "Postcode": "93350",
        "Location": "Taman Kenny",
        "Post_Office": "Kuching",
        "State": "Sarawak"
    },
    {
        "Postcode": "93350",
        "Location": "Taman Kenny Hill",
        "Post_Office": "Kuching",
        "State": "Sarawak"
    },
    {
        "Postcode": "93350",
        "Location": "Taman Lee Ling ( Song)",
        "Post_Office": "Kuching",
        "State": "Sarawak"
    },
    {
        "Postcode": "93350",
        "Location": "Taman Legend Hill",
        "Post_Office": "Kuching",
        "State": "Sarawak"
    },
    {
        "Postcode": "93350",
        "Location": "Taman Linang",
        "Post_Office": "Kuching",
        "State": "Sarawak"
    },
    {
        "Postcode": "93350",
        "Location": "Taman Linang Suboh",
        "Post_Office": "Kuching",
        "State": "Sarawak"
    },
    {
        "Postcode": "93350",
        "Location": "Taman Mabel",
        "Post_Office": "Kuching",
        "State": "Sarawak"
    },
    {
        "Postcode": "93350",
        "Location": "Taman Major",
        "Post_Office": "Kuching",
        "State": "Sarawak"
    },
    {
        "Postcode": "93350",
        "Location": "Taman Marble",
        "Post_Office": "Kuching",
        "State": "Sarawak"
    },
    {
        "Postcode": "93350",
        "Location": "Taman Meranja",
        "Post_Office": "Kuching",
        "State": "Sarawak"
    },
    {
        "Postcode": "93350",
        "Location": "Taman Mersing",
        "Post_Office": "Kuching",
        "State": "Sarawak"
    },
    {
        "Postcode": "93350",
        "Location": "Taman Muara Tabuan",
        "Post_Office": "Kuching",
        "State": "Sarawak"
    },
    {
        "Postcode": "93350",
        "Location": "Taman Mutiara Permai",
        "Post_Office": "Kuching",
        "State": "Sarawak"
    },
    {
        "Postcode": "93350",
        "Location": "Taman Opulence",
        "Post_Office": "Kuching",
        "State": "Sarawak"
    },
    {
        "Postcode": "93350",
        "Location": "Taman Orchard",
        "Post_Office": "Kuching",
        "State": "Sarawak"
    },
    {
        "Postcode": "93350",
        "Location": "Taman Phoning",
        "Post_Office": "Kuching",
        "State": "Sarawak"
    },
    {
        "Postcode": "93350",
        "Location": "Taman Pinery Villa",
        "Post_Office": "Kuching",
        "State": "Sarawak"
    },
    {
        "Postcode": "93350",
        "Location": "Taman Progress",
        "Post_Office": "Kuching",
        "State": "Sarawak"
    },
    {
        "Postcode": "93350",
        "Location": "Taman Rosewood",
        "Post_Office": "Kuching",
        "State": "Sarawak"
    },
    {
        "Postcode": "93350",
        "Location": "Taman Satria Jaya",
        "Post_Office": "Kuching",
        "State": "Sarawak"
    },
    {
        "Postcode": "93350",
        "Location": "Taman Scenery Villa",
        "Post_Office": "Kuching",
        "State": "Sarawak"
    },
    {
        "Postcode": "93350",
        "Location": "Taman Sherip Mansor",
        "Post_Office": "Kuching",
        "State": "Sarawak"
    },
    {
        "Postcode": "93350",
        "Location": "Taman Sin Hai Min",
        "Post_Office": "Kuching",
        "State": "Sarawak"
    },
    {
        "Postcode": "93350",
        "Location": "Taman Sin Hai Min 1",
        "Post_Office": "Kuching",
        "State": "Sarawak"
    },
    {
        "Postcode": "93350",
        "Location": "Taman Sin Hai Min 2",
        "Post_Office": "Kuching",
        "State": "Sarawak"
    },
    {
        "Postcode": "93350",
        "Location": "Taman Stampin Barat",
        "Post_Office": "Kuching",
        "State": "Sarawak"
    },
    {
        "Postcode": "93350",
        "Location": "Taman Stampin Heights",
        "Post_Office": "Kuching",
        "State": "Sarawak"
    },
    {
        "Postcode": "93350",
        "Location": "Taman Stutong Avenue",
        "Post_Office": "Kuching",
        "State": "Sarawak"
    },
    {
        "Postcode": "93350",
        "Location": "Taman Suboh",
        "Post_Office": "Kuching",
        "State": "Sarawak"
    },
    {
        "Postcode": "93350",
        "Location": "Taman Swee Lee",
        "Post_Office": "Kuching",
        "State": "Sarawak"
    },
    {
        "Postcode": "93350",
        "Location": "Taman Tabuan Desa",
        "Post_Office": "Kuching",
        "State": "Sarawak"
    },
    {
        "Postcode": "93350",
        "Location": "Taman Tabuan Dusun",
        "Post_Office": "Kuching",
        "State": "Sarawak"
    },
    {
        "Postcode": "93350",
        "Location": "Taman Tabuan Jaya",
        "Post_Office": "Kuching",
        "State": "Sarawak"
    },
    {
        "Postcode": "93350",
        "Location": "Taman Tabuan Laru",
        "Post_Office": "Kuching",
        "State": "Sarawak"
    },
    {
        "Postcode": "93350",
        "Location": "Taman Woodland",
        "Post_Office": "Kuching",
        "State": "Sarawak"
    },
    {
        "Postcode": "93350",
        "Location": "Taman Yet Ho",
        "Post_Office": "Kuching",
        "State": "Sarawak"
    },
    {
        "Postcode": "93350",
        "Location": "Uplands (Deret Kedai)",
        "Post_Office": "Kuching",
        "State": "Sarawak"
    }
]
