[
    {
        "Postcode": "93400",
        "Location": "Jalan Muhibbah",
        "Post_Office": "Kuching",
        "State": "Sarawak"
    },
    {
        "Postcode": "93400",
        "Location": "Jalan Abang Ateh",
        "Post_Office": "Kuching",
        "State": "Sarawak"
    },
    {
        "Postcode": "93400",
        "Location": "Jalan Abong Taip",
        "Post_Office": "Kuching",
        "State": "Sarawak"
    },
    {
        "Postcode": "93400",
        "Location": "Jalan Bintangor Besar",
        "Post_Office": "Kuching",
        "State": "Sarawak"
    },
    {
        "Postcode": "93400",
        "Location": "Jalan Bintangor Kecil",
        "Post_Office": "Kuching",
        "State": "Sarawak"
    },
    {
        "Postcode": "93400",
        "Location": "Jalan Bolhassan",
        "Post_Office": "Kuching",
        "State": "Sarawak"
    },
    {
        "Postcode": "93400",
        "Location": "Jalan Dagok Barat",
        "Post_Office": "Kuching",
        "State": "Sarawak"
    },
    {
        "Postcode": "93400",
        "Location": "Jalan Dagok Tengah",
        "Post_Office": "Kuching",
        "State": "Sarawak"
    },
    {
        "Postcode": "93400",
        "Location": "Jalan Dagok Timur",
        "Post_Office": "Kuching",
        "State": "Sarawak"
    },
    {
        "Postcode": "93400",
        "Location": "Jalan Datuk Ajibah Abol",
        "Post_Office": "Kuching",
        "State": "Sarawak"
    },
    {
        "Postcode": "93400",
        "Location": "Jalan Haji Bolhassan",
        "Post_Office": "Kuching",
        "State": "Sarawak"
    },
    {
        "Postcode": "93400",
        "Location": "Jalan Haji Kassan",
        "Post_Office": "Kuching",
        "State": "Sarawak"
    },
    {
        "Postcode": "93400",
        "Location": "Jalan Haji Mataim",
        "Post_Office": "Kuching",
        "State": "Sarawak"
    },
    {
        "Postcode": "93400",
        "Location": "Jalan Haji Mustapa Junit",
        "Post_Office": "Kuching",
        "State": "Sarawak"
    },
    {
        "Postcode": "93400",
        "Location": "Jalan Haji Taha",
        "Post_Office": "Kuching",
        "State": "Sarawak"
    },
    {
        "Postcode": "93400",
        "Location": "Jalan Jawa",
        "Post_Office": "Kuching",
        "State": "Sarawak"
    },
    {
        "Postcode": "93400",
        "Location": "Jalan Kulas",
        "Post_Office": "Kuching",
        "State": "Sarawak"
    },
    {
        "Postcode": "93400",
        "Location": "Jalan Kulas Barat",
        "Post_Office": "Kuching",
        "State": "Sarawak"
    },
    {
        "Postcode": "93400",
        "Location": "Jalan Kulas Tengah",
        "Post_Office": "Kuching",
        "State": "Sarawak"
    },
    {
        "Postcode": "93400",
        "Location": "Jalan Kulas Timur",
        "Post_Office": "Kuching",
        "State": "Sarawak"
    },
    {
        "Postcode": "93400",
        "Location": "Jalan Kulas Utara Dua",
        "Post_Office": "Kuching",
        "State": "Sarawak"
    },
    {
        "Postcode": "93400",
        "Location": "Jalan Laruh Barat",
        "Post_Office": "Kuching",
        "State": "Sarawak"
    },
    {
        "Postcode": "93400",
        "Location": "Jalan Laruh Tengah",
        "Post_Office": "Kuching",
        "State": "Sarawak"
    },
    {
        "Postcode": "93400",
        "Location": "Jalan Laruh Timur",
        "Post_Office": "Kuching",
        "State": "Sarawak"
    },
    {
        "Postcode": "93400",
        "Location": "Jalan Masjid",
        "Post_Office": "Kuching",
        "State": "Sarawak"
    },
    {
        "Postcode": "93400",
        "Location": "Jalan Medan Temple",
        "Post_Office": "Kuching",
        "State": "Sarawak"
    },
    {
        "Postcode": "93400",
        "Location": "Jalan Middle",
        "Post_Office": "Kuching",
        "State": "Sarawak"
    },
    {
        "Postcode": "93400",
        "Location": "Jalan Muda Hashim",
        "Post_Office": "Kuching",
        "State": "Sarawak"
    },
    {
        "Postcode": "93400",
        "Location": "Jalan Nagor",
        "Post_Office": "Kuching",
        "State": "Sarawak"
    },
    {
        "Postcode": "93400",
        "Location": "Jalan Nanas",
        "Post_Office": "Kuching",
        "State": "Sarawak"
    },
    {
        "Postcode": "93400",
        "Location": "Jalan Nanas Barat",
        "Post_Office": "Kuching",
        "State": "Sarawak"
    },
    {
        "Postcode": "93400",
        "Location": "Jalan Ong Guan Poh",
        "Post_Office": "Kuching",
        "State": "Sarawak"
    },
    {
        "Postcode": "93400",
        "Location": "Jalan P. Ramlee",
        "Post_Office": "Kuching",
        "State": "Sarawak"
    },
    {
        "Postcode": "93400",
        "Location": "Jalan Paduka Sitom",
        "Post_Office": "Kuching",
        "State": "Sarawak"
    },
    {
        "Postcode": "93400",
        "Location": "Jalan Palm",
        "Post_Office": "Kuching",
        "State": "Sarawak"
    },
    {
        "Postcode": "93400",
        "Location": "Jalan Parit Lama",
        "Post_Office": "Kuching",
        "State": "Sarawak"
    },
    {
        "Postcode": "93400",
        "Location": "Jalan Parit Lama Barat",
        "Post_Office": "Kuching",
        "State": "Sarawak"
    },
    {
        "Postcode": "93400",
        "Location": "Jalan Parit Lama Tengah",
        "Post_Office": "Kuching",
        "State": "Sarawak"
    },
    {
        "Postcode": "93400",
        "Location": "Jalan Patingan",
        "Post_Office": "Kuching",
        "State": "Sarawak"
    },
    {
        "Postcode": "93400",
        "Location": "Jalan Patinggi Ali",
        "Post_Office": "Kuching",
        "State": "Sarawak"
    },
    {
        "Postcode": "93400",
        "Location": "Jalan Pisang",
        "Post_Office": "Kuching",
        "State": "Sarawak"
    },
    {
        "Postcode": "93400",
        "Location": "Jalan Pisang Selatan",
        "Post_Office": "Kuching",
        "State": "Sarawak"
    },
    {
        "Postcode": "93400",
        "Location": "Jalan Pisang Utara",
        "Post_Office": "Kuching",
        "State": "Sarawak"
    },
    {
        "Postcode": "93400",
        "Location": "Jalan Rambutan",
        "Post_Office": "Kuching",
        "State": "Sarawak"
    },
    {
        "Postcode": "93400",
        "Location": "Jalan Rubber",
        "Post_Office": "Kuching",
        "State": "Sarawak"
    },
    {
        "Postcode": "93400",
        "Location": "Jalan Rubber Barat",
        "Post_Office": "Kuching",
        "State": "Sarawak"
    },
    {
        "Postcode": "93400",
        "Location": "Jalan Satok",
        "Post_Office": "Kuching",
        "State": "Sarawak"
    },
    {
        "Postcode": "93400",
        "Location": "Jalan Satok - Pisang",
        "Post_Office": "Kuching",
        "State": "Sarawak"
    },
    {
        "Postcode": "93400",
        "Location": "Jalan Tanjong Selatan",
        "Post_Office": "Kuching",
        "State": "Sarawak"
    },
    {
        "Postcode": "93400",
        "Location": "Jalan Tanjung",
        "Post_Office": "Kuching",
        "State": "Sarawak"
    },
    {
        "Postcode": "93400",
        "Location": "Jalan Tengah",
        "Post_Office": "Kuching",
        "State": "Sarawak"
    },
    {
        "Postcode": "93400",
        "Location": "Kampung Bandarshah",
        "Post_Office": "Kuching",
        "State": "Sarawak"
    },
    {
        "Postcode": "93400",
        "Location": "Kampung Bintangor",
        "Post_Office": "Kuching",
        "State": "Sarawak"
    },
    {
        "Postcode": "93400",
        "Location": "Kampung Kudei",
        "Post_Office": "Kuching",
        "State": "Sarawak"
    },
    {
        "Postcode": "93400",
        "Location": "Kampung Kudei Rubber",
        "Post_Office": "Kuching",
        "State": "Sarawak"
    },
    {
        "Postcode": "93400",
        "Location": "Kampung Kudei Tengah",
        "Post_Office": "Kuching",
        "State": "Sarawak"
    },
    {
        "Postcode": "93400",
        "Location": "Kampung Masjid Jalan Datuk Ajibah Abol",
        "Post_Office": "Kuching",
        "State": "Sarawak"
    },
    {
        "Postcode": "93400",
        "Location": "Satok",
        "Post_Office": "Kuching",
        "State": "Sarawak"
    },
    {
        "Postcode": "93400",
        "Location": "Taman Diamond",
        "Post_Office": "Kuching",
        "State": "Sarawak"
    },
    {
        "Postcode": "93400",
        "Location": "Taman Evergreen",
        "Post_Office": "Kuching",
        "State": "Sarawak"
    },
    {
        "Postcode": "93400",
        "Location": "Taman Fair Park Jalan Nanas",
        "Post_Office": "Kuching",
        "State": "Sarawak"
    },
    {
        "Postcode": "93400",
        "Location": "Taman Friendship",
        "Post_Office": "Kuching",
        "State": "Sarawak"
    },
    {
        "Postcode": "93400",
        "Location": "Taman Happy",
        "Post_Office": "Kuching",
        "State": "Sarawak"
    },
    {
        "Postcode": "93400",
        "Location": "Taman Hong Kong",
        "Post_Office": "Kuching",
        "State": "Sarawak"
    },
    {
        "Postcode": "93400",
        "Location": "Taman Intan Jalan Nanas Barat",
        "Post_Office": "Kuching",
        "State": "Sarawak"
    },
    {
        "Postcode": "93400",
        "Location": "Taman Kiaw Ann",
        "Post_Office": "Kuching",
        "State": "Sarawak"
    },
    {
        "Postcode": "93400",
        "Location": "Taman Nanas",
        "Post_Office": "Kuching",
        "State": "Sarawak"
    },
    {
        "Postcode": "93400",
        "Location": "Taman Ong Guan Poh Jalan Green",
        "Post_Office": "Kuching",
        "State": "Sarawak"
    },
    {
        "Postcode": "93400",
        "Location": "Taman Ong Soon",
        "Post_Office": "Kuching",
        "State": "Sarawak"
    },
    {
        "Postcode": "93400",
        "Location": "Taman San San",
        "Post_Office": "Kuching",
        "State": "Sarawak"
    },
    {
        "Postcode": "93400",
        "Location": "Taman Sin Lian Hin",
        "Post_Office": "Kuching",
        "State": "Sarawak"
    },
    {
        "Postcode": "93400",
        "Location": "Taman Yen Jalan Nanas Barat",
        "Post_Office": "Kuching",
        "State": "Sarawak"
    },
    {
        "Postcode": "93400",
        "Location": "Wisma Satok",
        "Post_Office": "Kuching",
        "State": "Sarawak"
    }
]
