[
    {
        "Postcode": "93450",
        "Location": "Taman Mee Teck",
        "Post_Office": "Kuching",
        "State": "Sarawak"
    },
    {
        "Postcode": "93450",
        "Location": "Jalan Noakes 1",
        "Post_Office": "Kuching",
        "State": "Sarawak"
    },
    {
        "Postcode": "93450",
        "Location": "Jalan Noakes 2",
        "Post_Office": "Kuching",
        "State": "Sarawak"
    },
    {
        "Postcode": "93450",
        "Location": "Bintawa Village",
        "Post_Office": "Kuching",
        "State": "Sarawak"
    },
    {
        "Postcode": "93450",
        "Location": "Jalan Abdul Rahim",
        "Post_Office": "Kuching",
        "State": "Sarawak"
    },
    {
        "Postcode": "93450",
        "Location": "Jalan Belian (Bintawa)",
        "Post_Office": "Kuching",
        "State": "Sarawak"
    },
    {
        "Postcode": "93450",
        "Location": "Jalan Bengkel",
        "Post_Office": "Kuching",
        "State": "Sarawak"
    },
    {
        "Postcode": "93450",
        "Location": "Jalan Bintawa",
        "Post_Office": "Kuching",
        "State": "Sarawak"
    },
    {
        "Postcode": "93450",
        "Location": "Jalan Bintawa Tengah",
        "Post_Office": "Kuching",
        "State": "Sarawak"
    },
    {
        "Postcode": "93450",
        "Location": "Jalan Buruh",
        "Post_Office": "Kuching",
        "State": "Sarawak"
    },
    {
        "Postcode": "93450",
        "Location": "Jalan Cement Raya",
        "Post_Office": "Kuching",
        "State": "Sarawak"
    },
    {
        "Postcode": "93450",
        "Location": "Jalan Datuk Sim Kheng Hong Wharf",
        "Post_Office": "Kuching",
        "State": "Sarawak"
    },
    {
        "Postcode": "93450",
        "Location": "Jalan Datuk Wee Kheng Chiang",
        "Post_Office": "Kuching",
        "State": "Sarawak"
    },
    {
        "Postcode": "93450",
        "Location": "Jalan Datuk William Tan",
        "Post_Office": "Kuching",
        "State": "Sarawak"
    },
    {
        "Postcode": "93450",
        "Location": "Jalan Daya",
        "Post_Office": "Kuching",
        "State": "Sarawak"
    },
    {
        "Postcode": "93450",
        "Location": "Jalan Dermaga",
        "Post_Office": "Kuching",
        "State": "Sarawak"
    },
    {
        "Postcode": "93450",
        "Location": "Jalan Eng Ai",
        "Post_Office": "Kuching",
        "State": "Sarawak"
    },
    {
        "Postcode": "93450",
        "Location": "Jalan Gedung",
        "Post_Office": "Kuching",
        "State": "Sarawak"
    },
    {
        "Postcode": "93450",
        "Location": "Jalan Gubah",
        "Post_Office": "Kuching",
        "State": "Sarawak"
    },
    {
        "Postcode": "93450",
        "Location": "Jalan Jentera",
        "Post_Office": "Kuching",
        "State": "Sarawak"
    },
    {
        "Postcode": "93450",
        "Location": "Jalan Keluli",
        "Post_Office": "Kuching",
        "State": "Sarawak"
    },
    {
        "Postcode": "93450",
        "Location": "Jalan Kemajuan",
        "Post_Office": "Kuching",
        "State": "Sarawak"
    },
    {
        "Postcode": "93450",
        "Location": "Jalan Keruing",
        "Post_Office": "Kuching",
        "State": "Sarawak"
    },
    {
        "Postcode": "93450",
        "Location": "Jalan Kilang",
        "Post_Office": "Kuching",
        "State": "Sarawak"
    },
    {
        "Postcode": "93450",
        "Location": "Jalan Kisar",
        "Post_Office": "Kuching",
        "State": "Sarawak"
    },
    {
        "Postcode": "93450",
        "Location": "Jalan Kwong Lee Bank",
        "Post_Office": "Kuching",
        "State": "Sarawak"
    },
    {
        "Postcode": "93450",
        "Location": "Jalan Lentor",
        "Post_Office": "Kuching",
        "State": "Sarawak"
    },
    {
        "Postcode": "93450",
        "Location": "Jalan Loji",
        "Post_Office": "Kuching",
        "State": "Sarawak"
    },
    {
        "Postcode": "93450",
        "Location": "Jalan Lumba Kuda",
        "Post_Office": "Kuching",
        "State": "Sarawak"
    },
    {
        "Postcode": "93450",
        "Location": "Jalan Lumba Kuda Lorong 5",
        "Post_Office": "Kuching",
        "State": "Sarawak"
    },
    {
        "Postcode": "93450",
        "Location": "Jalan Meranti",
        "Post_Office": "Kuching",
        "State": "Sarawak"
    },
    {
        "Postcode": "93450",
        "Location": "Jalan Merbau",
        "Post_Office": "Kuching",
        "State": "Sarawak"
    },
    {
        "Postcode": "93450",
        "Location": "Jalan Merican",
        "Post_Office": "Kuching",
        "State": "Sarawak"
    },
    {
        "Postcode": "93450",
        "Location": "Jalan Mersawa",
        "Post_Office": "Kuching",
        "State": "Sarawak"
    },
    {
        "Postcode": "93450",
        "Location": "Jalan Pangkalan",
        "Post_Office": "Kuching",
        "State": "Sarawak"
    },
    {
        "Postcode": "93450",
        "Location": "Jalan Peace",
        "Post_Office": "Kuching",
        "State": "Sarawak"
    },
    {
        "Postcode": "93450",
        "Location": "Jalan Pelabuhan",
        "Post_Office": "Kuching",
        "State": "Sarawak"
    },
    {
        "Postcode": "93450",
        "Location": "Jalan Pending",
        "Post_Office": "Kuching",
        "State": "Sarawak"
    },
    {
        "Postcode": "93450",
        "Location": "Jalan Pending / Sekama",
        "Post_Office": "Kuching",
        "State": "Sarawak"
    },
    {
        "Postcode": "93450",
        "Location": "Jalan Pending Lama",
        "Post_Office": "Kuching",
        "State": "Sarawak"
    },
    {
        "Postcode": "93450",
        "Location": "Jalan Perbadanan",
        "Post_Office": "Kuching",
        "State": "Sarawak"
    },
    {
        "Postcode": "93450",
        "Location": "Jalan Perdana",
        "Post_Office": "Kuching",
        "State": "Sarawak"
    },
    {
        "Postcode": "93450",
        "Location": "Jalan Peteri",
        "Post_Office": "Kuching",
        "State": "Sarawak"
    },
    {
        "Postcode": "93450",
        "Location": "Jalan Pinang",
        "Post_Office": "Kuching",
        "State": "Sarawak"
    },
    {
        "Postcode": "93450",
        "Location": "Jalan Sebor",
        "Post_Office": "Kuching",
        "State": "Sarawak"
    },
    {
        "Postcode": "93450",
        "Location": "Jalan Selangan Batu",
        "Post_Office": "Kuching",
        "State": "Sarawak"
    },
    {
        "Postcode": "93450",
        "Location": "Jalan Semangat",
        "Post_Office": "Kuching",
        "State": "Sarawak"
    },
    {
        "Postcode": "93450",
        "Location": "Jalan Semen Raya",
        "Post_Office": "Kuching",
        "State": "Sarawak"
    },
    {
        "Postcode": "93450",
        "Location": "Jalan Sentang",
        "Post_Office": "Kuching",
        "State": "Sarawak"
    },
    {
        "Postcode": "93450",
        "Location": "Jalan Sungai Apong",
        "Post_Office": "Kuching",
        "State": "Sarawak"
    },
    {
        "Postcode": "93450",
        "Location": "Jalan Sungai Biawak",
        "Post_Office": "Kuching",
        "State": "Sarawak"
    },
    {
        "Postcode": "93450",
        "Location": "Jalan Sungai Periok",
        "Post_Office": "Kuching",
        "State": "Sarawak"
    },
    {
        "Postcode": "93450",
        "Location": "Jalan Sungai Sekama",
        "Post_Office": "Kuching",
        "State": "Sarawak"
    },
    {
        "Postcode": "93450",
        "Location": "Jalan Swasta",
        "Post_Office": "Kuching",
        "State": "Sarawak"
    },
    {
        "Postcode": "93450",
        "Location": "Jalan Tambatan",
        "Post_Office": "Kuching",
        "State": "Sarawak"
    },
    {
        "Postcode": "93450",
        "Location": "Jalan Tekad",
        "Post_Office": "Kuching",
        "State": "Sarawak"
    },
    {
        "Postcode": "93450",
        "Location": "Jalan Tenaga",
        "Post_Office": "Kuching",
        "State": "Sarawak"
    },
    {
        "Postcode": "93450",
        "Location": "Jalan Tenun",
        "Post_Office": "Kuching",
        "State": "Sarawak"
    },
    {
        "Postcode": "93450",
        "Location": "Jalan Three Hill",
        "Post_Office": "Kuching",
        "State": "Sarawak"
    },
    {
        "Postcode": "93450",
        "Location": "Jalan Tun Abdul Rahim",
        "Post_Office": "Kuching",
        "State": "Sarawak"
    },
    {
        "Postcode": "93450",
        "Location": "Jalan Tun Razak",
        "Post_Office": "Kuching",
        "State": "Sarawak"
    },
    {
        "Postcode": "93450",
        "Location": "Jalan Utama",
        "Post_Office": "Kuching",
        "State": "Sarawak"
    },
    {
        "Postcode": "93450",
        "Location": "Jalan William Tan",
        "Post_Office": "Kuching",
        "State": "Sarawak"
    },
    {
        "Postcode": "93450",
        "Location": "Kampung Nelayan Bintawa",
        "Post_Office": "Kuching",
        "State": "Sarawak"
    },
    {
        "Postcode": "93450",
        "Location": "Kampung Sungai Apong",
        "Post_Office": "Kuching",
        "State": "Sarawak"
    },
    {
        "Postcode": "93450",
        "Location": "Kampung Sungai Periok",
        "Post_Office": "Kuching",
        "State": "Sarawak"
    },
    {
        "Postcode": "93450",
        "Location": "Kampung Tabuan (Lot No 3)",
        "Post_Office": "Kuching",
        "State": "Sarawak"
    },
    {
        "Postcode": "93450",
        "Location": "Kampung Tabuan Hilir",
        "Post_Office": "Kuching",
        "State": "Sarawak"
    },
    {
        "Postcode": "93450",
        "Location": "Kampung Tabuan Hilir Seberang Sungai",
        "Post_Office": "Kuching",
        "State": "Sarawak"
    },
    {
        "Postcode": "93450",
        "Location": "Kampung Tabuan Lot",
        "Post_Office": "Kuching",
        "State": "Sarawak"
    },
    {
        "Postcode": "93450",
        "Location": "Kampung Tabuan Tengah",
        "Post_Office": "Kuching",
        "State": "Sarawak"
    },
    {
        "Postcode": "93450",
        "Location": "Kampung Tabuan Tengah Seberang Sungai",
        "Post_Office": "Kuching",
        "State": "Sarawak"
    },
    {
        "Postcode": "93450",
        "Location": "Kampung Tabuan Ulu",
        "Post_Office": "Kuching",
        "State": "Sarawak"
    },
    {
        "Postcode": "93450",
        "Location": "Kawasan Perindustrian Bintawa",
        "Post_Office": "Kuching",
        "State": "Sarawak"
    },
    {
        "Postcode": "93450",
        "Location": "Lebuh Chan Bee Kiew",
        "Post_Office": "Kuching",
        "State": "Sarawak"
    },
    {
        "Postcode": "93450",
        "Location": "Muara Tuang Industrial Zon",
        "Post_Office": "Kuching",
        "State": "Sarawak"
    },
    {
        "Postcode": "93450",
        "Location": "Pending",
        "Post_Office": "Kuching",
        "State": "Sarawak"
    },
    {
        "Postcode": "93450",
        "Location": "Pending Heights",
        "Post_Office": "Kuching",
        "State": "Sarawak"
    },
    {
        "Postcode": "93450",
        "Location": "Persiaran Kong Ming",
        "Post_Office": "Kuching",
        "State": "Sarawak"
    },
    {
        "Postcode": "93450",
        "Location": "Persiaran Poh Ming",
        "Post_Office": "Kuching",
        "State": "Sarawak"
    },
    {
        "Postcode": "93450",
        "Location": "Taman Arbi",
        "Post_Office": "Kuching",
        "State": "Sarawak"
    },
    {
        "Postcode": "93450",
        "Location": "Taman Henghua",
        "Post_Office": "Kuching",
        "State": "Sarawak"
    },
    {
        "Postcode": "93450",
        "Location": "Taman Kong Ann",
        "Post_Office": "Kuching",
        "State": "Sarawak"
    },
    {
        "Postcode": "93450",
        "Location": "Taman Kong Ming",
        "Post_Office": "Kuching",
        "State": "Sarawak"
    },
    {
        "Postcode": "93450",
        "Location": "Taman Pending Height",
        "Post_Office": "Kuching",
        "State": "Sarawak"
    },
    {
        "Postcode": "93450",
        "Location": "Taman River View",
        "Post_Office": "Kuching",
        "State": "Sarawak"
    },
    {
        "Postcode": "93450",
        "Location": "Taman Tabuan Park",
        "Post_Office": "Kuching",
        "State": "Sarawak"
    }
]
