[
    {
        "Postcode": "24000",
        "Location": "Kampung Olong",
        "Post_Office": "Cukai",
        "State": "Terengganu"
    },
    {
        "Postcode": "24000",
        "Location": "Kampung Pulau Tempurung",
        "Post_Office": "Cukai",
        "State": "Terengganu"
    },
    {
        "Postcode": "24000",
        "Location": "Kampung Tengah",
        "Post_Office": "Cukai",
        "State": "Terengganu"
    },
    {
        "Postcode": "24000",
        "Location": "Taman Desa Jaya",
        "Post_Office": "Cukai",
        "State": "Terengganu"
    },
    {
        "Postcode": "24000",
        "Location": "Bandar Cukai",
        "Post_Office": "Cukai",
        "State": "Terengganu"
    },
    {
        "Postcode": "24000",
        "Location": "Kawasan Perindustrian Jakar 1",
        "Post_Office": "Cukai",
        "State": "Terengganu"
    },
    {
        "Postcode": "24000",
        "Location": "Kawasan Perindustrian Jakar 2",
        "Post_Office": "Cukai",
        "State": "Terengganu"
    },
    {
        "Postcode": "24000",
        "Location": "Kampung Habib Mohsin",
        "Post_Office": "Ayer Puteh",
        "State": "Terengganu"
    },
    {
        "Postcode": "24000",
        "Location": "Kampung Jabor Kubur",
        "Post_Office": "Cukai",
        "State": "Terengganu"
    },
    {
        "Postcode": "24000",
        "Location": "Kampung Pengkalan Sir",
        "Post_Office": "Cukai",
        "State": "Terengganu"
    },
    {
        "Postcode": "24000",
        "Location": "Kampung Telok Kalong",
        "Post_Office": "Cukai",
        "State": "Terengganu"
    },
    {
        "Postcode": "24000",
        "Location": "Kampung Kubang Kurus",
        "Post_Office": "Cukai",
        "State": "Terengganu"
    },
    {
        "Postcode": "24000",
        "Location": "Kampung Mak Cili",
        "Post_Office": "Cukai",
        "State": "Terengganu"
    },
    {
        "Postcode": "24000",
        "Location": "Kampung Tok Kapor",
        "Post_Office": "Cukai",
        "State": "Terengganu"
    },
    {
        "Postcode": "24000",
        "Location": "Taman Geliga Permai",
        "Post_Office": "Cukai",
        "State": "Terengganu"
    },
    {
        "Postcode": "24000",
        "Location": "Taman Ixora",
        "Post_Office": "Cukai",
        "State": "Terengganu"
    },
    {
        "Postcode": "24000",
        "Location": "Taman Mohd Noor",
        "Post_Office": "Cukai",
        "State": "Terengganu"
    },
    {
        "Postcode": "24000",
        "Location": "Taman Desa Sri Geliga",
        "Post_Office": "Cukai",
        "State": "Terengganu"
    },
    {
        "Postcode": "24000",
        "Location": "Taman Samudera",
        "Post_Office": "Cukai",
        "State": "Terengganu"
    },
    {
        "Postcode": "24000",
        "Location": "Taman Mehram",
        "Post_Office": "Cukai",
        "State": "Terengganu"
    },
    {
        "Postcode": "24000",
        "Location": "Taman Perwaja",
        "Post_Office": "Cukai",
        "State": "Terengganu"
    },
    {
        "Postcode": "24000",
        "Location": "Pusat Perniagaan Coast Kemaman",
        "Post_Office": "Cukai",
        "State": "Terengganu"
    },
    {
        "Postcode": "24000",
        "Location": "Bandar Baru Bukit Mentok",
        "Post_Office": "Cukai",
        "State": "Terengganu"
    },
    {
        "Postcode": "24000",
        "Location": "Bukit Mentok",
        "Post_Office": "Cukai",
        "State": "Terengganu"
    },
    {
        "Postcode": "24000",
        "Location": "Kampung Air Jabur Kubur",
        "Post_Office": "Cukai",
        "State": "Terengganu"
    },
    {
        "Postcode": "24000",
        "Location": "Kampung Air Mak Cili",
        "Post_Office": "Cukai",
        "State": "Terengganu"
    },
    {
        "Postcode": "24000",
        "Location": "Kampung Bukit Mentok Paya",
        "Post_Office": "Cukai",
        "State": "Terengganu"
    },
    {
        "Postcode": "24000",
        "Location": "Kampung Bukit Takal",
        "Post_Office": "Cukai",
        "State": "Terengganu"
    },
    {
        "Postcode": "24000",
        "Location": "Kampung Bukit Tengah",
        "Post_Office": "Cukai",
        "State": "Terengganu"
    },
    {
        "Postcode": "24000",
        "Location": "Kampung Jabor  Kubur",
        "Post_Office": "Cukai",
        "State": "Terengganu"
    },
    {
        "Postcode": "24000",
        "Location": "Kampung Mak Lagam",
        "Post_Office": "Cukai",
        "State": "Terengganu"
    },
    {
        "Postcode": "24000",
        "Location": "Kampung Pasir Semut",
        "Post_Office": "Cukai",
        "State": "Terengganu"
    },
    {
        "Postcode": "24000",
        "Location": "Kampung Sungai Pergam",
        "Post_Office": "Cukai",
        "State": "Terengganu"
    },
    {
        "Postcode": "24000",
        "Location": "Kampung Tempurung",
        "Post_Office": "Cukai",
        "State": "Terengganu"
    },
    {
        "Postcode": "24000",
        "Location": "Kawasan Perindustrian Telok Kalong",
        "Post_Office": "Cukai",
        "State": "Terengganu"
    },
    {
        "Postcode": "24000",
        "Location": "Ladang Ketengah Jaya",
        "Post_Office": "Cukai",
        "State": "Terengganu"
    },
    {
        "Postcode": "24000",
        "Location": "Taman Alam Perdana",
        "Post_Office": "Cukai",
        "State": "Terengganu"
    },
    {
        "Postcode": "24000",
        "Location": "Taman Alamanda",
        "Post_Office": "Cukai",
        "State": "Terengganu"
    },
    {
        "Postcode": "24000",
        "Location": "Taman Banggol Indah",
        "Post_Office": "Cukai",
        "State": "Terengganu"
    },
    {
        "Postcode": "24000",
        "Location": "Taman Banggol Permai",
        "Post_Office": "Cukai",
        "State": "Terengganu"
    },
    {
        "Postcode": "24000",
        "Location": "Taman Cukai Indah",
        "Post_Office": "Cukai",
        "State": "Terengganu"
    },
    {
        "Postcode": "24000",
        "Location": "Taman Desa Maidam",
        "Post_Office": "Cukai",
        "State": "Terengganu"
    },
    {
        "Postcode": "24000",
        "Location": "Taman Desa Solehah",
        "Post_Office": "Cukai",
        "State": "Terengganu"
    },
    {
        "Postcode": "24000",
        "Location": "Taman Desa Yaacob",
        "Post_Office": "Cukai",
        "State": "Terengganu"
    },
    {
        "Postcode": "24000",
        "Location": "Taman Geliga Bahagia",
        "Post_Office": "Cukai",
        "State": "Terengganu"
    },
    {
        "Postcode": "24000",
        "Location": "Taman Geliga Baru",
        "Post_Office": "Cukai",
        "State": "Terengganu"
    },
    {
        "Postcode": "24000",
        "Location": "Taman Geliga Indah",
        "Post_Office": "Cukai",
        "State": "Terengganu"
    },
    {
        "Postcode": "24000",
        "Location": "Taman Geliga Intan",
        "Post_Office": "Cukai",
        "State": "Terengganu"
    },
    {
        "Postcode": "24000",
        "Location": "Taman Geliga Pantai",
        "Post_Office": "Cukai",
        "State": "Terengganu"
    },
    {
        "Postcode": "24000",
        "Location": "Taman Geliga Sejahtera",
        "Post_Office": "Cukai",
        "State": "Terengganu"
    },
    {
        "Postcode": "24000",
        "Location": "Taman Gemilang",
        "Post_Office": "Cukai",
        "State": "Terengganu"
    },
    {
        "Postcode": "24000",
        "Location": "Taman Harmoni",
        "Post_Office": "Cukai",
        "State": "Terengganu"
    },
    {
        "Postcode": "24000",
        "Location": "Taman Ig Pesona",
        "Post_Office": "Cukai",
        "State": "Terengganu"
    },
    {
        "Postcode": "24000",
        "Location": "Taman Ilham",
        "Post_Office": "Cukai",
        "State": "Terengganu"
    },
    {
        "Postcode": "24000",
        "Location": "Taman Jasmin",
        "Post_Office": "Cukai",
        "State": "Terengganu"
    },
    {
        "Postcode": "24000",
        "Location": "Taman Kastam",
        "Post_Office": "Cukai",
        "State": "Terengganu"
    },
    {
        "Postcode": "24000",
        "Location": "Taman Ketapang",
        "Post_Office": "Cukai",
        "State": "Terengganu"
    },
    {
        "Postcode": "24000",
        "Location": "Taman Koperasi Binjai",
        "Post_Office": "Cukai",
        "State": "Terengganu"
    },
    {
        "Postcode": "24000",
        "Location": "Taman Mak Chili Bayu",
        "Post_Office": "Cukai",
        "State": "Terengganu"
    },
    {
        "Postcode": "24000",
        "Location": "Taman Mak Chili Murni 2",
        "Post_Office": "Cukai",
        "State": "Terengganu"
    },
    {
        "Postcode": "24000",
        "Location": "Taman Melati",
        "Post_Office": "Cukai",
        "State": "Terengganu"
    },
    {
        "Postcode": "24000",
        "Location": "Taman Melati Jaya",
        "Post_Office": "Cukai",
        "State": "Terengganu"
    },
    {
        "Postcode": "24000",
        "Location": "Taman Melor 1",
        "Post_Office": "Cukai",
        "State": "Terengganu"
    },
    {
        "Postcode": "24000",
        "Location": "Taman Merpati Jaya",
        "Post_Office": "Cukai",
        "State": "Terengganu"
    },
    {
        "Postcode": "24000",
        "Location": "Taman Pertama",
        "Post_Office": "Cukai",
        "State": "Terengganu"
    },
    {
        "Postcode": "24000",
        "Location": "Taman Rela",
        "Post_Office": "Cukai",
        "State": "Terengganu"
    },
    {
        "Postcode": "24000",
        "Location": "Taman Ros Merah",
        "Post_Office": "Cukai",
        "State": "Terengganu"
    },
    {
        "Postcode": "24000",
        "Location": "Taman Sepakat",
        "Post_Office": "Cukai",
        "State": "Terengganu"
    },
    {
        "Postcode": "24000",
        "Location": "Taman Seri Mekar",
        "Post_Office": "Cukai",
        "State": "Terengganu"
    },
    {
        "Postcode": "24000",
        "Location": "Taman Seroja 1",
        "Post_Office": "Cukai",
        "State": "Terengganu"
    },
    {
        "Postcode": "24000",
        "Location": "Taman Sri Chendana",
        "Post_Office": "Cukai",
        "State": "Terengganu"
    },
    {
        "Postcode": "24000",
        "Location": "Taman Sri Delima",
        "Post_Office": "Cukai",
        "State": "Terengganu"
    },
    {
        "Postcode": "24000",
        "Location": "Taman Sri Indah",
        "Post_Office": "Cukai",
        "State": "Terengganu"
    },
    {
        "Postcode": "24000",
        "Location": "Taman Sri Kalongan",
        "Post_Office": "Cukai",
        "State": "Terengganu"
    },
    {
        "Postcode": "24000",
        "Location": "Taman Sri Kalongan 2",
        "Post_Office": "Cukai",
        "State": "Terengganu"
    },
    {
        "Postcode": "24000",
        "Location": "Taman Sri Nilam",
        "Post_Office": "Cukai",
        "State": "Terengganu"
    },
    {
        "Postcode": "24000",
        "Location": "Taman Sri Taja",
        "Post_Office": "Cukai",
        "State": "Terengganu"
    },
    {
        "Postcode": "24000",
        "Location": "Taman Teja Murni",
        "Post_Office": "Cukai",
        "State": "Terengganu"
    },
    {
        "Postcode": "24000",
        "Location": "Taman Telok",
        "Post_Office": "Cukai",
        "State": "Terengganu"
    },
    {
        "Postcode": "24000",
        "Location": "Kampung Panchor",
        "Post_Office": "Cukai",
        "State": "Terengganu"
    },
    {
        "Postcode": "24000",
        "Location": "Bakau Tinggi",
        "Post_Office": "Cukai",
        "State": "Terengganu"
    },
    {
        "Postcode": "24000",
        "Location": "Bukit Kuang",
        "Post_Office": "Cukai",
        "State": "Terengganu"
    },
    {
        "Postcode": "24000",
        "Location": "Dusun Nyior",
        "Post_Office": "Cukai",
        "State": "Terengganu"
    },
    {
        "Postcode": "24000",
        "Location": "Jalan Abdul Rahman",
        "Post_Office": "Cukai",
        "State": "Terengganu"
    },
    {
        "Postcode": "24000",
        "Location": "Jalan Air Puteh",
        "Post_Office": "Cukai",
        "State": "Terengganu"
    },
    {
        "Postcode": "24000",
        "Location": "Jalan Hospital",
        "Post_Office": "Cukai",
        "State": "Terengganu"
    },
    {
        "Postcode": "24000",
        "Location": "Jalan Kenanga",
        "Post_Office": "Cukai",
        "State": "Terengganu"
    },
    {
        "Postcode": "24000",
        "Location": "Kampung Binjai",
        "Post_Office": "Cukai",
        "State": "Terengganu"
    },
    {
        "Postcode": "24000",
        "Location": "Kampung Padang Lalang",
        "Post_Office": "Cukai",
        "State": "Terengganu"
    },
    {
        "Postcode": "24000",
        "Location": "Taman Cempaka",
        "Post_Office": "Cukai",
        "State": "Terengganu"
    },
    {
        "Postcode": "24000",
        "Location": "Taman Delima",
        "Post_Office": "Cukai",
        "State": "Terengganu"
    },
    {
        "Postcode": "24000",
        "Location": "Taman Mawar",
        "Post_Office": "Cukai",
        "State": "Terengganu"
    },
    {
        "Postcode": "24000",
        "Location": "Taman Melor",
        "Post_Office": "Cukai",
        "State": "Terengganu"
    },
    {
        "Postcode": "24000",
        "Location": "Taman Anggerik",
        "Post_Office": "Cukai",
        "State": "Terengganu"
    },
    {
        "Postcode": "24000",
        "Location": "Taman Baiduri",
        "Post_Office": "Cukai",
        "State": "Terengganu"
    },
    {
        "Postcode": "24000",
        "Location": "Taman Budi",
        "Post_Office": "Cukai",
        "State": "Terengganu"
    },
    {
        "Postcode": "24000",
        "Location": "Taman Desa Darul Iman",
        "Post_Office": "Cukai",
        "State": "Terengganu"
    },
    {
        "Postcode": "24000",
        "Location": "Taman Mutiara",
        "Post_Office": "Cukai",
        "State": "Terengganu"
    },
    {
        "Postcode": "24000",
        "Location": "Jalan Che Teng",
        "Post_Office": "Cukai",
        "State": "Terengganu"
    },
    {
        "Postcode": "24000",
        "Location": "Jalan Da Omar",
        "Post_Office": "Cukai",
        "State": "Terengganu"
    },
    {
        "Postcode": "24000",
        "Location": "Jalan Datok",
        "Post_Office": "Cukai",
        "State": "Terengganu"
    },
    {
        "Postcode": "24000",
        "Location": "Jalan Feri Lama",
        "Post_Office": "Cukai",
        "State": "Terengganu"
    },
    {
        "Postcode": "24000",
        "Location": "Jalan Injin Gergaji",
        "Post_Office": "Cukai",
        "State": "Terengganu"
    },
    {
        "Postcode": "24000",
        "Location": "Jalan Jakar",
        "Post_Office": "Cukai",
        "State": "Terengganu"
    },
    {
        "Postcode": "24000",
        "Location": "Jalan Kubang Kurus",
        "Post_Office": "Cukai",
        "State": "Terengganu"
    },
    {
        "Postcode": "24000",
        "Location": "Jalan Mak Dayang",
        "Post_Office": "Cukai",
        "State": "Terengganu"
    },
    {
        "Postcode": "24000",
        "Location": "Jalan Masjid Lama",
        "Post_Office": "Cukai",
        "State": "Terengganu"
    },
    {
        "Postcode": "24000",
        "Location": "Jalan Pasar",
        "Post_Office": "Cukai",
        "State": "Terengganu"
    },
    {
        "Postcode": "24000",
        "Location": "Jalan Penghiburan",
        "Post_Office": "Cukai",
        "State": "Terengganu"
    },
    {
        "Postcode": "24000",
        "Location": "Jalan Sulaiman",
        "Post_Office": "Cukai",
        "State": "Terengganu"
    },
    {
        "Postcode": "24000",
        "Location": "Jalan Taha",
        "Post_Office": "Cukai",
        "State": "Terengganu"
    },
    {
        "Postcode": "24000",
        "Location": "Jalan Teratai",
        "Post_Office": "Cukai",
        "State": "Terengganu"
    },
    {
        "Postcode": "24000",
        "Location": "Kampung Air",
        "Post_Office": "Cukai",
        "State": "Terengganu"
    },
    {
        "Postcode": "24000",
        "Location": "Kampung Bakau Tinggi",
        "Post_Office": "Cukai",
        "State": "Terengganu"
    },
    {
        "Postcode": "24000",
        "Location": "Kampung Banggol Kanan",
        "Post_Office": "Cukai",
        "State": "Terengganu"
    },
    {
        "Postcode": "24000",
        "Location": "Kampung Banggol Kiri",
        "Post_Office": "Cukai",
        "State": "Terengganu"
    },
    {
        "Postcode": "24000",
        "Location": "Kampung Batu 4 (Binjai)",
        "Post_Office": "Cukai",
        "State": "Terengganu"
    },
    {
        "Postcode": "24000",
        "Location": "Kampung Belakang Esso",
        "Post_Office": "Cukai",
        "State": "Terengganu"
    },
    {
        "Postcode": "24000",
        "Location": "Kampung Belakang Hospital",
        "Post_Office": "Cukai",
        "State": "Terengganu"
    },
    {
        "Postcode": "24000",
        "Location": "Kampung Besut",
        "Post_Office": "Cukai",
        "State": "Terengganu"
    },
    {
        "Postcode": "24000",
        "Location": "Kampung Bukit Kuang",
        "Post_Office": "Cukai",
        "State": "Terengganu"
    },
    {
        "Postcode": "24000",
        "Location": "Kampung Bukit Mentok",
        "Post_Office": "Cukai",
        "State": "Terengganu"
    },
    {
        "Postcode": "24000",
        "Location": "Kampung Cina",
        "Post_Office": "Cukai",
        "State": "Terengganu"
    },
    {
        "Postcode": "24000",
        "Location": "Kampung Dusun Nyior",
        "Post_Office": "Cukai",
        "State": "Terengganu"
    },
    {
        "Postcode": "24000",
        "Location": "Kampung Fikri",
        "Post_Office": "Cukai",
        "State": "Terengganu"
    },
    {
        "Postcode": "24000",
        "Location": "Kampung Geliga",
        "Post_Office": "Cukai",
        "State": "Terengganu"
    },
    {
        "Postcode": "24000",
        "Location": "Kampung Geliga Baru",
        "Post_Office": "Cukai",
        "State": "Terengganu"
    },
    {
        "Postcode": "24000",
        "Location": "Kampung Geliga Besar",
        "Post_Office": "Cukai",
        "State": "Terengganu"
    },
    {
        "Postcode": "24000",
        "Location": "Kampung Geliga Haji Ali",
        "Post_Office": "Cukai",
        "State": "Terengganu"
    },
    {
        "Postcode": "24000",
        "Location": "Kampung Geliga Jambatan",
        "Post_Office": "Cukai",
        "State": "Terengganu"
    },
    {
        "Postcode": "24000",
        "Location": "Kampung Geliga Mengambang",
        "Post_Office": "Cukai",
        "State": "Terengganu"
    },
    {
        "Postcode": "24000",
        "Location": "Kampung Gong Limau",
        "Post_Office": "Cukai",
        "State": "Terengganu"
    },
    {
        "Postcode": "24000",
        "Location": "Kampung Gong Pauh",
        "Post_Office": "Cukai",
        "State": "Terengganu"
    },
    {
        "Postcode": "24000",
        "Location": "Kampung Jaya",
        "Post_Office": "Cukai",
        "State": "Terengganu"
    },
    {
        "Postcode": "24000",
        "Location": "Kampung Kuala Kemaman",
        "Post_Office": "Cukai",
        "State": "Terengganu"
    },
    {
        "Postcode": "24000",
        "Location": "Kampung Lot Seri Jaya",
        "Post_Office": "Cukai",
        "State": "Terengganu"
    },
    {
        "Postcode": "24000",
        "Location": "Kampung Mak Cili Paya",
        "Post_Office": "Cukai",
        "State": "Terengganu"
    },
    {
        "Postcode": "24000",
        "Location": "Kampung Mak Dayang",
        "Post_Office": "Cukai",
        "State": "Terengganu"
    },
    {
        "Postcode": "24000",
        "Location": "Kampung Paman",
        "Post_Office": "Cukai",
        "State": "Terengganu"
    },
    {
        "Postcode": "24000",
        "Location": "Kampung Pandan",
        "Post_Office": "Cukai",
        "State": "Terengganu"
    },
    {
        "Postcode": "24000",
        "Location": "Kampung Pasir Minal",
        "Post_Office": "Cukai",
        "State": "Terengganu"
    },
    {
        "Postcode": "24000",
        "Location": "Kampung Paya Berenjut",
        "Post_Office": "Cukai",
        "State": "Terengganu"
    },
    {
        "Postcode": "24000",
        "Location": "Kampung Pengkalan Binjai",
        "Post_Office": "Cukai",
        "State": "Terengganu"
    },
    {
        "Postcode": "24000",
        "Location": "Kampung Pengkalan Cicar",
        "Post_Office": "Cukai",
        "State": "Terengganu"
    },
    {
        "Postcode": "24000",
        "Location": "Kampung Pengkalan Pandan",
        "Post_Office": "Cukai",
        "State": "Terengganu"
    },
    {
        "Postcode": "24000",
        "Location": "Kampung Tanah Lot Geliga",
        "Post_Office": "Cukai",
        "State": "Terengganu"
    },
    {
        "Postcode": "24000",
        "Location": "Kampung Tempurong",
        "Post_Office": "Cukai",
        "State": "Terengganu"
    },
    {
        "Postcode": "24000",
        "Location": "Kampung Tuan",
        "Post_Office": "Cukai",
        "State": "Terengganu"
    },
    {
        "Postcode": "24000",
        "Location": "Kampung Wakaf Jambu",
        "Post_Office": "Cukai",
        "State": "Terengganu"
    },
    {
        "Postcode": "24000",
        "Location": "Kuala Kemaman",
        "Post_Office": "Cukai",
        "State": "Terengganu"
    },
    {
        "Postcode": "24000",
        "Location": "Padang Lalang",
        "Post_Office": "Cukai",
        "State": "Terengganu"
    },
    {
        "Postcode": "24000",
        "Location": "Pasir Minar",
        "Post_Office": "Cukai",
        "State": "Terengganu"
    },
    {
        "Postcode": "24000",
        "Location": "Pengkalan Binjai",
        "Post_Office": "Cukai",
        "State": "Terengganu"
    },
    {
        "Postcode": "24000",
        "Location": "Pengkalan Cicar",
        "Post_Office": "Cukai",
        "State": "Terengganu"
    },
    {
        "Postcode": "24000",
        "Location": "Taman Air Puteh",
        "Post_Office": "Cukai",
        "State": "Terengganu"
    },
    {
        "Postcode": "24000",
        "Location": "Taman Bahagia",
        "Post_Office": "Cukai",
        "State": "Terengganu"
    },
    {
        "Postcode": "24000",
        "Location": "Taman Bakar Daud",
        "Post_Office": "Cukai",
        "State": "Terengganu"
    },
    {
        "Postcode": "24000",
        "Location": "Taman Berjaya",
        "Post_Office": "Cukai",
        "State": "Terengganu"
    },
    {
        "Postcode": "24000",
        "Location": "Taman Bersekutu",
        "Post_Office": "Cukai",
        "State": "Terengganu"
    },
    {
        "Postcode": "24000",
        "Location": "Taman Bukit Mentok",
        "Post_Office": "Cukai",
        "State": "Terengganu"
    },
    {
        "Postcode": "24000",
        "Location": "Taman Bunga Tanjung",
        "Post_Office": "Cukai",
        "State": "Terengganu"
    },
    {
        "Postcode": "24000",
        "Location": "Taman Cendana",
        "Post_Office": "Cukai",
        "State": "Terengganu"
    },
    {
        "Postcode": "24000",
        "Location": "Taman Chua Ah Kee",
        "Post_Office": "Cukai",
        "State": "Terengganu"
    },
    {
        "Postcode": "24000",
        "Location": "Taman Cukai",
        "Post_Office": "Cukai",
        "State": "Terengganu"
    },
    {
        "Postcode": "24000",
        "Location": "Taman Cukai Utama",
        "Post_Office": "Cukai",
        "State": "Terengganu"
    },
    {
        "Postcode": "24000",
        "Location": "Taman Dahlia",
        "Post_Office": "Cukai",
        "State": "Terengganu"
    },
    {
        "Postcode": "24000",
        "Location": "Taman Darul Iman",
        "Post_Office": "Cukai",
        "State": "Terengganu"
    },
    {
        "Postcode": "24000",
        "Location": "Taman Darul Iman 1",
        "Post_Office": "Cukai",
        "State": "Terengganu"
    },
    {
        "Postcode": "24000",
        "Location": "Taman Darul Iman 2",
        "Post_Office": "Cukai",
        "State": "Terengganu"
    },
    {
        "Postcode": "24000",
        "Location": "Taman Darul Iman 3",
        "Post_Office": "Cukai",
        "State": "Terengganu"
    },
    {
        "Postcode": "24000",
        "Location": "Taman Dataran Geliga",
        "Post_Office": "Cukai",
        "State": "Terengganu"
    },
    {
        "Postcode": "24000",
        "Location": "Taman Desa Awana",
        "Post_Office": "Cukai",
        "State": "Terengganu"
    },
    {
        "Postcode": "24000",
        "Location": "Taman Desa Cukai",
        "Post_Office": "Cukai",
        "State": "Terengganu"
    },
    {
        "Postcode": "24000",
        "Location": "Taman Desa Impian",
        "Post_Office": "Cukai",
        "State": "Terengganu"
    },
    {
        "Postcode": "24000",
        "Location": "Taman Desa Permai 1",
        "Post_Office": "Cukai",
        "State": "Terengganu"
    },
    {
        "Postcode": "24000",
        "Location": "Taman Desa Permai 2",
        "Post_Office": "Cukai",
        "State": "Terengganu"
    },
    {
        "Postcode": "24000",
        "Location": "Taman Desa Sentosa",
        "Post_Office": "Cukai",
        "State": "Terengganu"
    },
    {
        "Postcode": "24000",
        "Location": "Taman Geliga",
        "Post_Office": "Cukai",
        "State": "Terengganu"
    },
    {
        "Postcode": "24000",
        "Location": "Taman Geliga Besar",
        "Post_Office": "Cukai",
        "State": "Terengganu"
    },
    {
        "Postcode": "24000",
        "Location": "Taman Geliga Maju",
        "Post_Office": "Cukai",
        "State": "Terengganu"
    },
    {
        "Postcode": "24000",
        "Location": "Taman Geliga Sakti",
        "Post_Office": "Cukai",
        "State": "Terengganu"
    },
    {
        "Postcode": "24000",
        "Location": "Taman Ghulam",
        "Post_Office": "Cukai",
        "State": "Terengganu"
    },
    {
        "Postcode": "24000",
        "Location": "Taman Gong Pauh",
        "Post_Office": "Cukai",
        "State": "Terengganu"
    },
    {
        "Postcode": "24000",
        "Location": "Taman Haji Hamzah",
        "Post_Office": "Cukai",
        "State": "Terengganu"
    },
    {
        "Postcode": "24000",
        "Location": "Taman Haji Wan Ngah",
        "Post_Office": "Cukai",
        "State": "Terengganu"
    },
    {
        "Postcode": "24000",
        "Location": "Taman Haji Yaacob",
        "Post_Office": "Cukai",
        "State": "Terengganu"
    },
    {
        "Postcode": "24000",
        "Location": "Taman Idaman",
        "Post_Office": "Cukai",
        "State": "Terengganu"
    },
    {
        "Postcode": "24000",
        "Location": "Taman Indah",
        "Post_Office": "Cukai",
        "State": "Terengganu"
    },
    {
        "Postcode": "24000",
        "Location": "Taman Intan",
        "Post_Office": "Cukai",
        "State": "Terengganu"
    },
    {
        "Postcode": "24000",
        "Location": "Taman Itafah",
        "Post_Office": "Cukai",
        "State": "Terengganu"
    },
    {
        "Postcode": "24000",
        "Location": "Taman Jakar Jaya",
        "Post_Office": "Cukai",
        "State": "Terengganu"
    },
    {
        "Postcode": "24000",
        "Location": "Taman Kediaman Indah",
        "Post_Office": "Cukai",
        "State": "Terengganu"
    },
    {
        "Postcode": "24000",
        "Location": "Taman Kekwa",
        "Post_Office": "Cukai",
        "State": "Terengganu"
    },
    {
        "Postcode": "24000",
        "Location": "Taman Kemaman",
        "Post_Office": "Cukai",
        "State": "Terengganu"
    },
    {
        "Postcode": "24000",
        "Location": "Taman Kenari",
        "Post_Office": "Cukai",
        "State": "Terengganu"
    },
    {
        "Postcode": "24000",
        "Location": "Taman Lembah Geliga",
        "Post_Office": "Cukai",
        "State": "Terengganu"
    },
    {
        "Postcode": "24000",
        "Location": "Taman Lgl",
        "Post_Office": "Cukai",
        "State": "Terengganu"
    },
    {
        "Postcode": "24000",
        "Location": "Taman Lim Guan Lim",
        "Post_Office": "Cukai",
        "State": "Terengganu"
    },
    {
        "Postcode": "24000",
        "Location": "Taman Mak Cili",
        "Post_Office": "Cukai",
        "State": "Terengganu"
    },
    {
        "Postcode": "24000",
        "Location": "Taman Mat Nor",
        "Post_Office": "Cukai",
        "State": "Terengganu"
    },
    {
        "Postcode": "24000",
        "Location": "Taman Melor 2",
        "Post_Office": "Cukai",
        "State": "Terengganu"
    },
    {
        "Postcode": "24000",
        "Location": "Taman Merpati",
        "Post_Office": "Cukai",
        "State": "Terengganu"
    },
    {
        "Postcode": "24000",
        "Location": "Taman Muda",
        "Post_Office": "Cukai",
        "State": "Terengganu"
    },
    {
        "Postcode": "24000",
        "Location": "Taman Muhibbah",
        "Post_Office": "Cukai",
        "State": "Terengganu"
    },
    {
        "Postcode": "24000",
        "Location": "Taman Peladang",
        "Post_Office": "Cukai",
        "State": "Terengganu"
    },
    {
        "Postcode": "24000",
        "Location": "Taman Pelangi",
        "Post_Office": "Cukai",
        "State": "Terengganu"
    },
    {
        "Postcode": "24000",
        "Location": "Taman Permai Jaya",
        "Post_Office": "Cukai",
        "State": "Terengganu"
    },
    {
        "Postcode": "24000",
        "Location": "Taman Perumahan Haji Ismail",
        "Post_Office": "Cukai",
        "State": "Terengganu"
    },
    {
        "Postcode": "24000",
        "Location": "Taman Rahmat",
        "Post_Office": "Cukai",
        "State": "Terengganu"
    },
    {
        "Postcode": "24000",
        "Location": "Taman Sangsura",
        "Post_Office": "Cukai",
        "State": "Terengganu"
    },
    {
        "Postcode": "24000",
        "Location": "Taman Selera",
        "Post_Office": "Cukai",
        "State": "Terengganu"
    },
    {
        "Postcode": "24000",
        "Location": "Taman Seri Cukai",
        "Post_Office": "Cukai",
        "State": "Terengganu"
    },
    {
        "Postcode": "24000",
        "Location": "Taman Seri Geliga",
        "Post_Office": "Cukai",
        "State": "Terengganu"
    },
    {
        "Postcode": "24000",
        "Location": "Taman Seri Jakar",
        "Post_Office": "Cukai",
        "State": "Terengganu"
    },
    {
        "Postcode": "24000",
        "Location": "Taman Seri Jaya",
        "Post_Office": "Cukai",
        "State": "Terengganu"
    },
    {
        "Postcode": "24000",
        "Location": "Taman Seri Kemaman",
        "Post_Office": "Cukai",
        "State": "Terengganu"
    },
    {
        "Postcode": "24000",
        "Location": "Taman Seri Pandan",
        "Post_Office": "Cukai",
        "State": "Terengganu"
    },
    {
        "Postcode": "24000",
        "Location": "Taman Seri Pandan 2",
        "Post_Office": "Cukai",
        "State": "Terengganu"
    },
    {
        "Postcode": "24000",
        "Location": "Taman Seri Pauh",
        "Post_Office": "Cukai",
        "State": "Terengganu"
    },
    {
        "Postcode": "24000",
        "Location": "Taman Si Buyung",
        "Post_Office": "Cukai",
        "State": "Terengganu"
    },
    {
        "Postcode": "24000",
        "Location": "Taman Taja",
        "Post_Office": "Cukai",
        "State": "Terengganu"
    },
    {
        "Postcode": "24000",
        "Location": "Tanjung Berhala",
        "Post_Office": "Cukai",
        "State": "Terengganu"
    },
    {
        "Postcode": "24000",
        "Location": "Teluk Puchong",
        "Post_Office": "Cukai",
        "State": "Terengganu"
    }
]
