[
    {
        "Postcode": "24050",
        "Location": "Kampung Teladas",
        "Post_Office": "Ayer Puteh",
        "State": "Terengganu"
    },
    {
        "Postcode": "24050",
        "Location": "Bandar Cheneh Baru",
        "Post_Office": "Ayer Puteh",
        "State": "Terengganu"
    },
    {
        "Postcode": "24050",
        "Location": "Kampung Dadong",
        "Post_Office": "Ayer Puteh",
        "State": "Terengganu"
    },
    {
        "Postcode": "24050",
        "Location": "Kampung Pasir Gajah",
        "Post_Office": "Ayer Puteh",
        "State": "Terengganu"
    },
    {
        "Postcode": "24050",
        "Location": "Felda Cerul 1",
        "Post_Office": "Ayer Puteh",
        "State": "Terengganu"
    },
    {
        "Postcode": "24050",
        "Location": "Felda Cerul 2",
        "Post_Office": "Ayer Puteh",
        "State": "Terengganu"
    },
    {
        "Postcode": "24050",
        "Location": "Felda Seberang Tayor",
        "Post_Office": "Ayer Puteh",
        "State": "Terengganu"
    },
    {
        "Postcode": "24050",
        "Location": "Kampung Air Puteh",
        "Post_Office": "Ayer Puteh",
        "State": "Terengganu"
    },
    {
        "Postcode": "24050",
        "Location": "Kampung Lubuk Lesung",
        "Post_Office": "Ayer Puteh",
        "State": "Terengganu"
    },
    {
        "Postcode": "24050",
        "Location": "Kampung Padang Kubu",
        "Post_Office": "Ayer Puteh",
        "State": "Terengganu"
    },
    {
        "Postcode": "24050",
        "Location": "Kampung Seberang Tayor ",
        "Post_Office": "Ayer Puteh",
        "State": "Terengganu"
    },
    {
        "Postcode": "24050",
        "Location": "Kampung Sungai Timah",
        "Post_Office": "Ayer Puteh",
        "State": "Terengganu"
    },
    {
        "Postcode": "24050",
        "Location": "Ladang Air Puteh",
        "Post_Office": "Ayer Puteh",
        "State": "Terengganu"
    },
    {
        "Postcode": "24050",
        "Location": "Kampung Sungai Pinang",
        "Post_Office": "Ayer Puteh\r\n",
        "State": "Terengganu"
    },
    {
        "Postcode": "24050",
        "Location": "Arkid Mara",
        "Post_Office": "Ayer Puteh",
        "State": "Terengganu"
    },
    {
        "Postcode": "24050",
        "Location": "Ayer Puteh",
        "Post_Office": "Ayer Puteh",
        "State": "Terengganu"
    },
    {
        "Postcode": "24050",
        "Location": "Ceneh",
        "Post_Office": "Ayer Puteh",
        "State": "Terengganu"
    },
    {
        "Postcode": "24050",
        "Location": "Cerul Baru",
        "Post_Office": "Ayer Puteh",
        "State": "Terengganu"
    },
    {
        "Postcode": "24050",
        "Location": "Kampung Baran",
        "Post_Office": "Ayer Puteh",
        "State": "Terengganu"
    },
    {
        "Postcode": "24050",
        "Location": "Kampung Batu 14",
        "Post_Office": "Ayer Puteh",
        "State": "Terengganu"
    },
    {
        "Postcode": "24050",
        "Location": "Kampung Batu 16",
        "Post_Office": "Ayer Puteh",
        "State": "Terengganu"
    },
    {
        "Postcode": "24050",
        "Location": "Kampung Hilir Pasir Gajah",
        "Post_Office": "Ayer Puteh",
        "State": "Terengganu"
    },
    {
        "Postcode": "24050",
        "Location": "Kampung Hulu",
        "Post_Office": "Ayer Puteh",
        "State": "Terengganu"
    },
    {
        "Postcode": "24050",
        "Location": "Kampung Hulu Pasir Gajah",
        "Post_Office": "Ayer Puteh",
        "State": "Terengganu"
    },
    {
        "Postcode": "24050",
        "Location": "Kampung Hulu Seberang Tayor",
        "Post_Office": "Ayer Puteh",
        "State": "Terengganu"
    },
    {
        "Postcode": "24050",
        "Location": "Kampung Laut Pasir Gajah",
        "Post_Office": "Ayer Puteh",
        "State": "Terengganu"
    },
    {
        "Postcode": "24050",
        "Location": "Kampung Sungai Mas",
        "Post_Office": "Ayer Puteh",
        "State": "Terengganu"
    },
    {
        "Postcode": "24050",
        "Location": "Kampung Tanah Lot Ayer Puteh",
        "Post_Office": "Ayer Puteh",
        "State": "Terengganu"
    },
    {
        "Postcode": "24050",
        "Location": "Kampung Tanah Lot Pasir Gajah",
        "Post_Office": "Ayer Puteh",
        "State": "Terengganu"
    },
    {
        "Postcode": "24050",
        "Location": "Kampung Tengah Pasir Gajah",
        "Post_Office": "Ayer Puteh",
        "State": "Terengganu"
    },
    {
        "Postcode": "24050",
        "Location": "Ladang Tebak",
        "Post_Office": "Ayer Puteh",
        "State": "Terengganu"
    },
    {
        "Postcode": "24050",
        "Location": "Padang Kubu",
        "Post_Office": "Ayer Puteh",
        "State": "Terengganu"
    },
    {
        "Postcode": "24050",
        "Location": "Rkt Seberang Tayor",
        "Post_Office": "Ayer Puteh",
        "State": "Terengganu"
    },
    {
        "Postcode": "24050",
        "Location": "Seberang Tayor",
        "Post_Office": "Ayer Puteh",
        "State": "Terengganu"
    }
]
