[
    {
        "Postcode": "24100",
        "Location": "Kampung Tengah",
        "Post_Office": "Kijal",
        "State": "Terengganu"
    },
    {
        "Postcode": "24100",
        "Location": "Kampung Titian Berayung",
        "Post_Office": "Kijal",
        "State": "Terengganu"
    },
    {
        "Postcode": "24100",
        "Location": "Kampung Yak Yah",
        "Post_Office": "Kijal",
        "State": "Terengganu"
    },
    {
        "Postcode": "24100",
        "Location": "Kampung Baru Beris Nanas",
        "Post_Office": "Kijal",
        "State": "Terengganu"
    },
    {
        "Postcode": "24100",
        "Location": "Kampung Darat Simpang Empat",
        "Post_Office": "Kijal",
        "State": "Terengganu"
    },
    {
        "Postcode": "24100",
        "Location": "Kampung Pondok Pasir",
        "Post_Office": "Kijal",
        "State": "Terengganu"
    },
    {
        "Postcode": "24100",
        "Location": "Taman Kijal Jaya",
        "Post_Office": "Kijal",
        "State": "Terengganu"
    },
    {
        "Postcode": "24100",
        "Location": "Taman Meraga Beris",
        "Post_Office": "Kijal",
        "State": "Terengganu"
    },
    {
        "Postcode": "24100",
        "Location": "Taman Seri Penunjuk",
        "Post_Office": "Kijal",
        "State": "Terengganu"
    },
    {
        "Postcode": "24100",
        "Location": "Kampung Atas Tebing",
        "Post_Office": "Kijal",
        "State": "Terengganu"
    },
    {
        "Postcode": "24100",
        "Location": "Kampung Baru Bukit Anak Dara",
        "Post_Office": "Kijal",
        "State": "Terengganu"
    },
    {
        "Postcode": "24100",
        "Location": "Kampung Baru Titian Berayong",
        "Post_Office": "Kijal",
        "State": "Terengganu"
    },
    {
        "Postcode": "24100",
        "Location": "Kampung Beris Nenas",
        "Post_Office": "Kijal",
        "State": "Terengganu"
    },
    {
        "Postcode": "24100",
        "Location": "Kampung Bukit Anak Dara",
        "Post_Office": "Kijal",
        "State": "Terengganu"
    },
    {
        "Postcode": "24100",
        "Location": "Kampung Bukit Sembilan",
        "Post_Office": "Kijal",
        "State": "Terengganu"
    },
    {
        "Postcode": "24100",
        "Location": "Kampung Che Wan",
        "Post_Office": "Kijal",
        "State": "Terengganu"
    },
    {
        "Postcode": "24100",
        "Location": "Kampung Darat Air Puteh",
        "Post_Office": "Kijal",
        "State": "Terengganu"
    },
    {
        "Postcode": "24100",
        "Location": "Kampung Darat Haji Awang",
        "Post_Office": "Kijal",
        "State": "Terengganu"
    },
    {
        "Postcode": "24100",
        "Location": "Kampung Darat Kijal",
        "Post_Office": "Kijal",
        "State": "Terengganu"
    },
    {
        "Postcode": "24100",
        "Location": "Kampung Darat Penunjuk",
        "Post_Office": "Kijal",
        "State": "Terengganu"
    },
    {
        "Postcode": "24100",
        "Location": "Kampung Darat Stesyen Bawah",
        "Post_Office": "Kijal",
        "State": "Terengganu"
    },
    {
        "Postcode": "24100",
        "Location": "Kampung Ibai",
        "Post_Office": "Kijal",
        "State": "Terengganu"
    },
    {
        "Postcode": "24100",
        "Location": "Kampung Ibok",
        "Post_Office": "Kijal",
        "State": "Terengganu"
    },
    {
        "Postcode": "24100",
        "Location": "Kampung Jong Berlaboh",
        "Post_Office": "Kijal",
        "State": "Terengganu"
    },
    {
        "Postcode": "24100",
        "Location": "Kampung Lasir Darat Kijal",
        "Post_Office": "Kijal",
        "State": "Terengganu"
    },
    {
        "Postcode": "24100",
        "Location": "Kampung Masjid (Kijal)",
        "Post_Office": "Kijal",
        "State": "Terengganu"
    },
    {
        "Postcode": "24100",
        "Location": "Kampung Mentauh",
        "Post_Office": "Kijal",
        "State": "Terengganu"
    },
    {
        "Postcode": "24100",
        "Location": "Kampung Meraga Beris",
        "Post_Office": "Kijal",
        "State": "Terengganu"
    },
    {
        "Postcode": "24100",
        "Location": "Kampung Padang Kemunting",
        "Post_Office": "Kijal",
        "State": "Terengganu"
    },
    {
        "Postcode": "24100",
        "Location": "Kampung Pantai Penunjuk",
        "Post_Office": "Kijal",
        "State": "Terengganu"
    },
    {
        "Postcode": "24100",
        "Location": "Kampung Penunjuk",
        "Post_Office": "Kijal",
        "State": "Terengganu"
    },
    {
        "Postcode": "24100",
        "Location": "Kampung Pondok Limau",
        "Post_Office": "Kijal",
        "State": "Terengganu"
    },
    {
        "Postcode": "24100",
        "Location": "Kampung Pondok Paska",
        "Post_Office": "Kijal",
        "State": "Terengganu"
    },
    {
        "Postcode": "24100",
        "Location": "Kampung Simpang Bukit Kemuning",
        "Post_Office": "Kijal",
        "State": "Terengganu"
    },
    {
        "Postcode": "24100",
        "Location": "Kampung Simpang Empat",
        "Post_Office": "Kijal",
        "State": "Terengganu"
    },
    {
        "Postcode": "24100",
        "Location": "Kampung Tengah Bawah Tebing",
        "Post_Office": "Kijal",
        "State": "Terengganu"
    },
    {
        "Postcode": "24100",
        "Location": "Kampung Tengah Ibok",
        "Post_Office": "Kijal",
        "State": "Terengganu"
    },
    {
        "Postcode": "24100",
        "Location": "Kampung Tengah Pantai",
        "Post_Office": "Kijal",
        "State": "Terengganu"
    },
    {
        "Postcode": "24100",
        "Location": "Kijal",
        "Post_Office": "Kijal",
        "State": "Terengganu"
    },
    {
        "Postcode": "24100",
        "Location": "Kijal Beach Resort",
        "Post_Office": "Kijal",
        "State": "Terengganu"
    },
    {
        "Postcode": "24100",
        "Location": "Simpang Pelatoh",
        "Post_Office": "Kijal",
        "State": "Terengganu"
    }
]
