[
    {
        "Postcode": "24200",
        "Location": "Bandar Seri Bandi",
        "Post_Office": "Kemasek",
        "State": "Terengganu"
    },
    {
        "Postcode": "24200",
        "Location": "Kampung Bukit Teruna ",
        "Post_Office": "Kemasek",
        "State": "Terengganu"
    },
    {
        "Postcode": "24200",
        "Location": "Kampung Baru Kanan",
        "Post_Office": "Kemasek",
        "State": "Terengganu"
    },
    {
        "Postcode": "24200",
        "Location": "Kampung Tok Kaya",
        "Post_Office": "Kemasek",
        "State": "Terengganu"
    },
    {
        "Postcode": "24200",
        "Location": "Kampung Air Jernih",
        "Post_Office": "Kemasek",
        "State": "Terengganu"
    },
    {
        "Postcode": "24200",
        "Location": "Kampung Baru Kiri Kemasek",
        "Post_Office": "Kemasek",
        "State": "Terengganu"
    },
    {
        "Postcode": "24200",
        "Location": "Kampung Feri",
        "Post_Office": "Kemasek",
        "State": "Terengganu"
    },
    {
        "Postcode": "24200",
        "Location": "Kampung Ibai",
        "Post_Office": "Kemasek",
        "State": "Terengganu"
    },
    {
        "Postcode": "24200",
        "Location": "Kampung Padang Tampin",
        "Post_Office": "Kemasek",
        "State": "Terengganu"
    },
    {
        "Postcode": "24200",
        "Location": "Kampung Semayor",
        "Post_Office": "Kemasek",
        "State": "Terengganu"
    },
    {
        "Postcode": "24200",
        "Location": "Kampung Tanjung Tengah",
        "Post_Office": "Kemasek",
        "State": "Terengganu"
    },
    {
        "Postcode": "24200",
        "Location": "Taman Desa Air Jerneh",
        "Post_Office": "Kemasek",
        "State": "Terengganu"
    },
    {
        "Postcode": "24200",
        "Location": "Taman Desa Sri Kemasek",
        "Post_Office": "Kemasek",
        "State": "Terengganu"
    },
    {
        "Postcode": "24200",
        "Location": "Taman Sri Kemasek",
        "Post_Office": "Kemasek",
        "State": "Terengganu"
    },
    {
        "Postcode": "24200",
        "Location": "Kampung Padang",
        "Post_Office": "Kemasek",
        "State": "Terengganu"
    },
    {
        "Postcode": "24200",
        "Location": "Ayer Jerneh",
        "Post_Office": "Kemasek",
        "State": "Terengganu"
    },
    {
        "Postcode": "24200",
        "Location": "Bandar D",
        "Post_Office": "Kemasek",
        "State": "Terengganu"
    },
    {
        "Postcode": "24200",
        "Location": "Kampung Baru Semanyor",
        "Post_Office": "Kemasek",
        "State": "Terengganu"
    },
    {
        "Postcode": "24200",
        "Location": "Kampung Batu 6 1/2 (Ayer Jerneh)",
        "Post_Office": "Kemasek",
        "State": "Terengganu"
    },
    {
        "Postcode": "24200",
        "Location": "Kampung Bukit Kijang",
        "Post_Office": "Kemasek",
        "State": "Terengganu"
    },
    {
        "Postcode": "24200",
        "Location": "Kampung Bukit Pak Long",
        "Post_Office": "Kemasek",
        "State": "Terengganu"
    },
    {
        "Postcode": "24200",
        "Location": "Kampung Gong Chengal",
        "Post_Office": "Kemasek",
        "State": "Terengganu"
    },
    {
        "Postcode": "24200",
        "Location": "Kampung Loke Kod Ayer Jernih",
        "Post_Office": "Kemasek",
        "State": "Terengganu"
    },
    {
        "Postcode": "24200",
        "Location": "Kampung Melayu Ayer Jerneh",
        "Post_Office": "Kemasek",
        "State": "Terengganu"
    },
    {
        "Postcode": "24200",
        "Location": "Kampung Payoh",
        "Post_Office": "Kemasek",
        "State": "Terengganu"
    },
    {
        "Postcode": "24200",
        "Location": "Kampung Seberang Payoh",
        "Post_Office": "Kemasek",
        "State": "Terengganu"
    },
    {
        "Postcode": "24200",
        "Location": "Kampung Semanyor",
        "Post_Office": "Kemasek",
        "State": "Terengganu"
    },
    {
        "Postcode": "24200",
        "Location": "Kemasek",
        "Post_Office": "Kemasek",
        "State": "Terengganu"
    }
]
