[
    {
        "Postcode": "24300",
        "Location": "Kampung Baru",
        "Post_Office": "Kerteh",
        "State": "Terengganu"
    },
    {
        "Postcode": "24300",
        "Location": "Kampung Tengah",
        "Post_Office": "Kerteh",
        "State": "Terengganu"
    },
    {
        "Postcode": "24300",
        "Location": "Taman Bakti",
        "Post_Office": "Kerteh",
        "State": "Terengganu"
    },
    {
        "Postcode": "24300",
        "Location": "Kampung Seberang Padang Lalang",
        "Post_Office": "Kerteh",
        "State": "Terengganu"
    },
    {
        "Postcode": "24300",
        "Location": "Kampung Chabang",
        "Post_Office": "Kerteh",
        "State": "Terengganu"
    },
    {
        "Postcode": "24300",
        "Location": "Bandar Baru Kerteh",
        "Post_Office": "Kerteh",
        "State": "Terengganu"
    },
    {
        "Postcode": "24300",
        "Location": "Bandar Seri Kerteh",
        "Post_Office": "Kerteh",
        "State": "Terengganu"
    },
    {
        "Postcode": "24300",
        "Location": "Kampung Baru Kerteh",
        "Post_Office": "Kerteh",
        "State": "Terengganu"
    },
    {
        "Postcode": "24300",
        "Location": "Kampung Darat Kolam",
        "Post_Office": "Kerteh",
        "State": "Terengganu"
    },
    {
        "Postcode": "24300",
        "Location": "Kampung Gelugur",
        "Post_Office": "Kerteh",
        "State": "Terengganu"
    },
    {
        "Postcode": "24300",
        "Location": "Lapangan Terbang Kerteh",
        "Post_Office": "Kerteh",
        "State": "Terengganu"
    },
    {
        "Postcode": "24300",
        "Location": "Taman Cergas Tulin",
        "Post_Office": "Kerteh",
        "State": "Terengganu"
    },
    {
        "Postcode": "24300",
        "Location": "Taman City",
        "Post_Office": "Kerteh",
        "State": "Terengganu"
    },
    {
        "Postcode": "24300",
        "Location": "Taman Dahlia",
        "Post_Office": "Kerteh",
        "State": "Terengganu"
    },
    {
        "Postcode": "24300",
        "Location": "Taman Dahlia Jaya 1",
        "Post_Office": "Kerteh",
        "State": "Terengganu"
    },
    {
        "Postcode": "24300",
        "Location": "Taman Desa",
        "Post_Office": "Kerteh",
        "State": "Terengganu"
    },
    {
        "Postcode": "24300",
        "Location": "Taman Indah Permai",
        "Post_Office": "Kerteh",
        "State": "Terengganu"
    },
    {
        "Postcode": "24300",
        "Location": "Taman Kektus",
        "Post_Office": "Kerteh",
        "State": "Terengganu"
    },
    {
        "Postcode": "24300",
        "Location": "Taman Kerteh Indah",
        "Post_Office": "Kerteh",
        "State": "Terengganu"
    },
    {
        "Postcode": "24300",
        "Location": "Taman Mega",
        "Post_Office": "Kerteh",
        "State": "Terengganu"
    },
    {
        "Postcode": "24300",
        "Location": "Taman Nabila",
        "Post_Office": "Kerteh",
        "State": "Terengganu"
    },
    {
        "Postcode": "24300",
        "Location": "Taman Perumahan Panalex",
        "Post_Office": "Kerteh",
        "State": "Terengganu"
    },
    {
        "Postcode": "24300",
        "Location": "Taman Putra Jaya",
        "Post_Office": "Kerteh",
        "State": "Terengganu"
    },
    {
        "Postcode": "24300",
        "Location": "Taman Sekawan",
        "Post_Office": "Kerteh",
        "State": "Terengganu"
    },
    {
        "Postcode": "24300",
        "Location": "Taman Selasih 2",
        "Post_Office": "Kerteh",
        "State": "Terengganu"
    },
    {
        "Postcode": "24300",
        "Location": "Taman Selasih Satu",
        "Post_Office": "Kerteh",
        "State": "Terengganu"
    },
    {
        "Postcode": "24300",
        "Location": "Taman Sri Kerteh",
        "Post_Office": "Kerteh",
        "State": "Terengganu"
    },
    {
        "Postcode": "24300",
        "Location": "Taman Teratai",
        "Post_Office": "Kerteh",
        "State": "Terengganu"
    },
    {
        "Postcode": "24300",
        "Location": "Taman Wafa",
        "Post_Office": "Kerteh",
        "State": "Terengganu"
    },
    {
        "Postcode": "24300",
        "Location": "Taman Wan Adnan",
        "Post_Office": "Kerteh",
        "State": "Terengganu"
    },
    {
        "Postcode": "24300",
        "Location": "Taman Anggerik",
        "Post_Office": "Kerteh",
        "State": "Terengganu"
    },
    {
        "Postcode": "24300",
        "Location": "Taman Mutiara",
        "Post_Office": "Kerteh",
        "State": "Terengganu"
    },
    {
        "Postcode": "24300",
        "Location": "Bandar Baru",
        "Post_Office": "Kerteh",
        "State": "Terengganu"
    },
    {
        "Postcode": "24300",
        "Location": "Estatetengah / Petronas",
        "Post_Office": "Kerteh",
        "State": "Terengganu"
    },
    {
        "Postcode": "24300",
        "Location": "Jalan Besar",
        "Post_Office": "Kerteh",
        "State": "Terengganu"
    },
    {
        "Postcode": "24300",
        "Location": "Jalan Chabang",
        "Post_Office": "Kerteh",
        "State": "Terengganu"
    },
    {
        "Postcode": "24300",
        "Location": "Jalan Federal",
        "Post_Office": "Kerteh",
        "State": "Terengganu"
    },
    {
        "Postcode": "24300",
        "Location": "Kampung Api Rokok",
        "Post_Office": "Kerteh",
        "State": "Terengganu"
    },
    {
        "Postcode": "24300",
        "Location": "Kampung Bangsal Arang",
        "Post_Office": "Kerteh",
        "State": "Terengganu"
    },
    {
        "Postcode": "24300",
        "Location": "Kampung Baru Chabang",
        "Post_Office": "Kerteh",
        "State": "Terengganu"
    },
    {
        "Postcode": "24300",
        "Location": "Kampung Batu Puteh",
        "Post_Office": "Kerteh",
        "State": "Terengganu"
    },
    {
        "Postcode": "24300",
        "Location": "Kampung Bukit Pahang Estate",
        "Post_Office": "Kerteh",
        "State": "Terengganu"
    },
    {
        "Postcode": "24300",
        "Location": "Kampung Gelugor",
        "Post_Office": "Kerteh",
        "State": "Terengganu"
    },
    {
        "Postcode": "24300",
        "Location": "Kampung Kolam Austasia",
        "Post_Office": "Kerteh",
        "State": "Terengganu"
    },
    {
        "Postcode": "24300",
        "Location": "Kampung Labohan",
        "Post_Office": "Kerteh",
        "State": "Terengganu"
    },
    {
        "Postcode": "24300",
        "Location": "Kampung Padang Bola",
        "Post_Office": "Kerteh",
        "State": "Terengganu"
    },
    {
        "Postcode": "24300",
        "Location": "Kampung Pengkalan Ranggon",
        "Post_Office": "Kerteh",
        "State": "Terengganu"
    },
    {
        "Postcode": "24300",
        "Location": "Kampung Ranggon Estate",
        "Post_Office": "Kerteh",
        "State": "Terengganu"
    },
    {
        "Postcode": "24300",
        "Location": "Kampung Telaga Papan",
        "Post_Office": "Kerteh",
        "State": "Terengganu"
    },
    {
        "Postcode": "24300",
        "Location": "Kerteh",
        "Post_Office": "Kerteh",
        "State": "Terengganu"
    },
    {
        "Postcode": "24300",
        "Location": "Kompleks Rantau Petronas",
        "Post_Office": "Kerteh",
        "State": "Terengganu"
    },
    {
        "Postcode": "24300",
        "Location": "Nyor Matel",
        "Post_Office": "Kerteh",
        "State": "Terengganu"
    },
    {
        "Postcode": "24300",
        "Location": "Rantau Petronas",
        "Post_Office": "Kerteh",
        "State": "Terengganu"
    }
]
