[
    {
        "Postcode": "23100",
        "Location": "Taman Desa Jaya",
        "Post_Office": "Paka",
        "State": "Terengganu"
    },
    {
        "Postcode": "23100",
        "Location": "Kampung Gong Gemia",
        "Post_Office": "Paka",
        "State": "Terengganu"
    },
    {
        "Postcode": "23100",
        "Location": "Kampung Tanjung Hutan",
        "Post_Office": "Paka",
        "State": "Terengganu"
    },
    {
        "Postcode": "23100",
        "Location": "Kampung Telaga Mas",
        "Post_Office": "Paka",
        "State": "Terengganu"
    },
    {
        "Postcode": "23100",
        "Location": "Kampung Tembing Tembah",
        "Post_Office": "Paka",
        "State": "Terengganu"
    },
    {
        "Postcode": "23100",
        "Location": "Taman Air Hitam",
        "Post_Office": "Paka",
        "State": "Terengganu"
    },
    {
        "Postcode": "23100",
        "Location": "Taman Anz",
        "Post_Office": "Paka",
        "State": "Terengganu"
    },
    {
        "Postcode": "23100",
        "Location": "Taman Bayu",
        "Post_Office": "Paka",
        "State": "Terengganu"
    },
    {
        "Postcode": "23100",
        "Location": "Taman Cacar Laut",
        "Post_Office": "Paka",
        "State": "Terengganu"
    },
    {
        "Postcode": "23100",
        "Location": "Taman Desa Murni 1",
        "Post_Office": "Paka",
        "State": "Terengganu"
    },
    {
        "Postcode": "23100",
        "Location": "Taman Desa Murni 2",
        "Post_Office": "Paka",
        "State": "Terengganu"
    },
    {
        "Postcode": "23100",
        "Location": "Taman Desa Paka",
        "Post_Office": "Paka",
        "State": "Terengganu"
    },
    {
        "Postcode": "23100",
        "Location": "Taman Desa Tuah",
        "Post_Office": "Paka",
        "State": "Terengganu"
    },
    {
        "Postcode": "23100",
        "Location": "Taman Flora",
        "Post_Office": "Paka",
        "State": "Terengganu"
    },
    {
        "Postcode": "23100",
        "Location": "Taman Hadhari",
        "Post_Office": "Paka",
        "State": "Terengganu"
    },
    {
        "Postcode": "23100",
        "Location": "Taman Haji Othman",
        "Post_Office": "Paka",
        "State": "Terengganu"
    },
    {
        "Postcode": "23100",
        "Location": "Taman Impian",
        "Post_Office": "Paka",
        "State": "Terengganu"
    },
    {
        "Postcode": "23100",
        "Location": "Taman Impiana",
        "Post_Office": "Paka",
        "State": "Terengganu"
    },
    {
        "Postcode": "23100",
        "Location": "Taman Indah 2",
        "Post_Office": "Paka",
        "State": "Terengganu"
    },
    {
        "Postcode": "23100",
        "Location": "Taman Indah Jaya",
        "Post_Office": "Paka",
        "State": "Terengganu"
    },
    {
        "Postcode": "23100",
        "Location": "Taman Indah Permai",
        "Post_Office": "Paka",
        "State": "Terengganu"
    },
    {
        "Postcode": "23100",
        "Location": "Taman Johan",
        "Post_Office": "Paka",
        "State": "Terengganu"
    },
    {
        "Postcode": "23100",
        "Location": "Taman Kasturi",
        "Post_Office": "Paka",
        "State": "Terengganu"
    },
    {
        "Postcode": "23100",
        "Location": "Taman Murni Perdana",
        "Post_Office": "Paka",
        "State": "Terengganu"
    },
    {
        "Postcode": "23100",
        "Location": "Taman Murni Perdana Idaman",
        "Post_Office": "Paka",
        "State": "Terengganu"
    },
    {
        "Postcode": "23100",
        "Location": "Taman Murni Perdana Idaman 2",
        "Post_Office": "Paka",
        "State": "Terengganu"
    },
    {
        "Postcode": "23100",
        "Location": "Taman Nadi Putra 2",
        "Post_Office": "Paka",
        "State": "Terengganu"
    },
    {
        "Postcode": "23100",
        "Location": "Taman Nikmat Ria",
        "Post_Office": "Paka",
        "State": "Terengganu"
    },
    {
        "Postcode": "23100",
        "Location": "Taman Paka 2",
        "Post_Office": "Paka",
        "State": "Terengganu"
    },
    {
        "Postcode": "23100",
        "Location": "Taman Paka Indah 2",
        "Post_Office": "Paka",
        "State": "Terengganu"
    },
    {
        "Postcode": "23100",
        "Location": "Taman Paka Indah 3",
        "Post_Office": "Paka",
        "State": "Terengganu"
    },
    {
        "Postcode": "23100",
        "Location": "Taman Paka Jaya 3",
        "Post_Office": "Paka",
        "State": "Terengganu"
    },
    {
        "Postcode": "23100",
        "Location": "Taman Paka Perdana",
        "Post_Office": "Paka",
        "State": "Terengganu"
    },
    {
        "Postcode": "23100",
        "Location": "Taman Paka Pertama",
        "Post_Office": "Paka",
        "State": "Terengganu"
    },
    {
        "Postcode": "23100",
        "Location": "Taman Paka Putra",
        "Post_Office": "Paka",
        "State": "Terengganu"
    },
    {
        "Postcode": "23100",
        "Location": "Taman Paka Wangsa",
        "Post_Office": "Paka",
        "State": "Terengganu"
    },
    {
        "Postcode": "23100",
        "Location": "Taman Pantai",
        "Post_Office": "Paka",
        "State": "Terengganu"
    },
    {
        "Postcode": "23100",
        "Location": "Taman Permata",
        "Post_Office": "Paka",
        "State": "Terengganu"
    },
    {
        "Postcode": "23100",
        "Location": "Taman Rose",
        "Post_Office": "Paka",
        "State": "Terengganu"
    },
    {
        "Postcode": "23100",
        "Location": "Taman Saujana 1",
        "Post_Office": "Paka",
        "State": "Terengganu"
    },
    {
        "Postcode": "23100",
        "Location": "Taman Selimbor",
        "Post_Office": "Paka",
        "State": "Terengganu"
    },
    {
        "Postcode": "23100",
        "Location": "Taman Seraya",
        "Post_Office": "Paka",
        "State": "Terengganu"
    },
    {
        "Postcode": "23100",
        "Location": "Taman Setia",
        "Post_Office": "Paka",
        "State": "Terengganu"
    },
    {
        "Postcode": "23100",
        "Location": "Taman Sri Bayu",
        "Post_Office": "Paka",
        "State": "Terengganu"
    },
    {
        "Postcode": "23100",
        "Location": "Taman Sri Gembira",
        "Post_Office": "Paka",
        "State": "Terengganu"
    },
    {
        "Postcode": "23100",
        "Location": "Taman Sri Indah",
        "Post_Office": "Paka",
        "State": "Terengganu"
    },
    {
        "Postcode": "23100",
        "Location": "Taman Sri Limbong",
        "Post_Office": "Paka",
        "State": "Terengganu"
    },
    {
        "Postcode": "23100",
        "Location": "Taman Sri Wangi",
        "Post_Office": "Paka",
        "State": "Terengganu"
    },
    {
        "Postcode": "23100",
        "Location": "Taman Suria",
        "Post_Office": "Paka",
        "State": "Terengganu"
    },
    {
        "Postcode": "23100",
        "Location": "Taman Tasik",
        "Post_Office": "Paka",
        "State": "Terengganu"
    },
    {
        "Postcode": "23100",
        "Location": "Taman Teratai",
        "Post_Office": "Paka",
        "State": "Terengganu"
    },
    {
        "Postcode": "23100",
        "Location": "Taman Yurai",
        "Post_Office": "Paka",
        "State": "Terengganu"
    },
    {
        "Postcode": "23100",
        "Location": "Jalan Besar Paka",
        "Post_Office": "Paka",
        "State": "Terengganu"
    },
    {
        "Postcode": "23100",
        "Location": "Jalan Klinik",
        "Post_Office": "Paka",
        "State": "Terengganu"
    },
    {
        "Postcode": "23100",
        "Location": "Jalan Santong",
        "Post_Office": "Paka",
        "State": "Terengganu"
    },
    {
        "Postcode": "23100",
        "Location": "Kampung Air Hitam",
        "Post_Office": "Paka",
        "State": "Terengganu"
    },
    {
        "Postcode": "23100",
        "Location": "Kampung Baru Paka",
        "Post_Office": "Paka",
        "State": "Terengganu"
    },
    {
        "Postcode": "23100",
        "Location": "Kampung Baru Tebing Tembah",
        "Post_Office": "Paka",
        "State": "Terengganu"
    },
    {
        "Postcode": "23100",
        "Location": "Kampung Cacar",
        "Post_Office": "Paka",
        "State": "Terengganu"
    },
    {
        "Postcode": "23100",
        "Location": "Kampung Cacar Baru",
        "Post_Office": "Paka",
        "State": "Terengganu"
    },
    {
        "Postcode": "23100",
        "Location": "Kampung Durian Mentangau",
        "Post_Office": "Paka",
        "State": "Terengganu"
    },
    {
        "Postcode": "23100",
        "Location": "Kampung Gemia",
        "Post_Office": "Paka",
        "State": "Terengganu"
    },
    {
        "Postcode": "23100",
        "Location": "Kampung Layout Cacar",
        "Post_Office": "Paka",
        "State": "Terengganu"
    },
    {
        "Postcode": "23100",
        "Location": "Kampung Limbong",
        "Post_Office": "Paka",
        "State": "Terengganu"
    },
    {
        "Postcode": "23100",
        "Location": "Kampung Nyior",
        "Post_Office": "Paka",
        "State": "Terengganu"
    },
    {
        "Postcode": "23100",
        "Location": "Kampung Pantai Laut",
        "Post_Office": "Paka",
        "State": "Terengganu"
    },
    {
        "Postcode": "23100",
        "Location": "Kampung Pinang Merah",
        "Post_Office": "Paka",
        "State": "Terengganu"
    },
    {
        "Postcode": "23100",
        "Location": "Kampung Santong",
        "Post_Office": "Paka",
        "State": "Terengganu"
    },
    {
        "Postcode": "23100",
        "Location": "Kampung Seberang Alor",
        "Post_Office": "Paka",
        "State": "Terengganu"
    },
    {
        "Postcode": "23100",
        "Location": "Kampung Tebing Tembah",
        "Post_Office": "Paka",
        "State": "Terengganu"
    },
    {
        "Postcode": "23100",
        "Location": "Kampung Wakaf Hijau",
        "Post_Office": "Paka",
        "State": "Terengganu"
    },
    {
        "Postcode": "23100",
        "Location": "Paka",
        "Post_Office": "Paka",
        "State": "Terengganu"
    },
    {
        "Postcode": "23100",
        "Location": "Kampung Masjid",
        "Post_Office": "Paka",
        "State": "Terengganu"
    },
    {
        "Postcode": "23100",
        "Location": "Kampung Bukit Merah",
        "Post_Office": "Paka",
        "State": "Terengganu"
    },
    {
        "Postcode": "23100",
        "Location": "Taman Anggerik",
        "Post_Office": "Paka",
        "State": "Terengganu"
    },
    {
        "Postcode": "23100",
        "Location": "Taman Baiduri",
        "Post_Office": "Paka",
        "State": "Terengganu"
    },
    {
        "Postcode": "23100",
        "Location": "Taman Budi",
        "Post_Office": "Paka",
        "State": "Terengganu"
    }
]
