[
    {
        "Postcode": "23200",
        "Location": "Kampung Dendang",
        "Post_Office": "Bukit Besi",
        "State": "Terengganu"
    },
    {
        "Postcode": "23200",
        "Location": "Kampung Lubuk Panjang",
        "Post_Office": "Bukit Besi",
        "State": "Terengganu"
    },
    {
        "Postcode": "23200",
        "Location": "Kampung Padang Ping",
        "Post_Office": "Bukit Besi",
        "State": "Terengganu"
    },
    {
        "Postcode": "23200",
        "Location": "Kampung Pinang Baru",
        "Post_Office": "Bukit Besi",
        "State": "Terengganu"
    },
    {
        "Postcode": "23200",
        "Location": "Kampung Tepus",
        "Post_Office": "Bukit Besi",
        "State": "Terengganu"
    },
    {
        "Postcode": "23200",
        "Location": "Ladang Gajah Mati",
        "Post_Office": "Bukit Besi",
        "State": "Terengganu"
    },
    {
        "Postcode": "23200",
        "Location": "Bukit Besi",
        "Post_Office": "Bukit Besi",
        "State": "Terengganu"
    },
    {
        "Postcode": "23200",
        "Location": "Jerangau",
        "Post_Office": "Bukit Besi",
        "State": "Terengganu"
    },
    {
        "Postcode": "23200",
        "Location": "Kampung Besol",
        "Post_Office": "Bukit Besi",
        "State": "Terengganu"
    },
    {
        "Postcode": "23200",
        "Location": "Kampung Jerangau",
        "Post_Office": "Bukit Besi",
        "State": "Terengganu"
    },
    {
        "Postcode": "23200",
        "Location": "Kampung Kubur",
        "Post_Office": "Bukit Besi",
        "State": "Terengganu"
    },
    {
        "Postcode": "23200",
        "Location": "Pinang",
        "Post_Office": "Bukit Besi",
        "State": "Terengganu"
    },
    {
        "Postcode": "23200",
        "Location": "Rasau",
        "Post_Office": "Bukit Besi",
        "State": "Terengganu"
    },
    {
        "Postcode": "23200",
        "Location": "Kampung Padang Lalang",
        "Post_Office": "Bukit Besi\r\n",
        "State": "Terengganu"
    }
]
