[
    {
        "Postcode": "23300",
        "Location": "Felda Kerteh 1",
        "Post_Office": "Ketengah Jaya",
        "State": "Terengganu"
    },
    {
        "Postcode": "23300",
        "Location": "Felda Kerteh 2",
        "Post_Office": "Ketengah Jaya",
        "State": "Terengganu"
    },
    {
        "Postcode": "23300",
        "Location": "Felda Kerteh 3",
        "Post_Office": "Ketengah Jaya",
        "State": "Terengganu"
    },
    {
        "Postcode": "23300",
        "Location": "Felda Kerteh 4",
        "Post_Office": "Ketengah Jaya",
        "State": "Terengganu"
    },
    {
        "Postcode": "23300",
        "Location": "Felda Kerteh 5",
        "Post_Office": "Ketengah Jaya",
        "State": "Terengganu"
    },
    {
        "Postcode": "23300",
        "Location": "Felda Kerteh 6",
        "Post_Office": "Ketengah Jaya",
        "State": "Terengganu"
    },
    {
        "Postcode": "23300",
        "Location": "Ketengah Jaya",
        "Post_Office": "Ketengah Jaya",
        "State": "Terengganu"
    },
    {
        "Postcode": "23300",
        "Location": "Bandar Ketengah Jaya",
        "Post_Office": "Ketengah Jaya",
        "State": "Terengganu"
    }
]
