[
    {
        "Postcode": "44000",
        "Location": "Taman Selesa ",
        "Post_Office": "Kuala Kubu Baru",
        "State": "Selangor"
    },
    {
        "Postcode": "44000",
        "Location": "Kampung Asam Kumbang",
        "Post_Office": "Kuala Kubu Baru",
        "State": "Selangor"
    },
    {
        "Postcode": "44000",
        "Location": "Kampung Orang Asli Buloh Telor",
        "Post_Office": "Kuala Kubu Baru",
        "State": "Selangor"
    },
    {
        "Postcode": "44000",
        "Location": "Taman Bukit Bujang",
        "Post_Office": "Kuala Kubu Baru",
        "State": "Selangor"
    },
    {
        "Postcode": "44000",
        "Location": "Taman Sri Teratai",
        "Post_Office": "Kuala Kubu Baru",
        "State": "Selangor"
    },
    {
        "Postcode": "44000",
        "Location": "Jalan Bendahara",
        "Post_Office": "Kuala Kubu Baru",
        "State": "Selangor"
    },
    {
        "Postcode": "44000",
        "Location": "Jalan Dato Muda Jaafar",
        "Post_Office": "Kuala Kubu Baru",
        "State": "Selangor"
    },
    {
        "Postcode": "44000",
        "Location": "Jalan Dato Tabal",
        "Post_Office": "Kuala Kubu Baru",
        "State": "Selangor"
    },
    {
        "Postcode": "44000",
        "Location": "Jalan Hamzah",
        "Post_Office": "Kuala Kubu Baru",
        "State": "Selangor"
    },
    {
        "Postcode": "44000",
        "Location": "Jalan Hang Jebat",
        "Post_Office": "Kuala Kubu Baru",
        "State": "Selangor"
    },
    {
        "Postcode": "44000",
        "Location": "Jalan Hang Kasturi",
        "Post_Office": "Kuala Kubu Baru",
        "State": "Selangor"
    },
    {
        "Postcode": "44000",
        "Location": "Jalan Hang Lekir",
        "Post_Office": "Kuala Kubu Baru",
        "State": "Selangor"
    },
    {
        "Postcode": "44000",
        "Location": "Jalan Hang Tuah",
        "Post_Office": "Kuala Kubu Baru",
        "State": "Selangor"
    },
    {
        "Postcode": "44000",
        "Location": "Jalan Kolam Air",
        "Post_Office": "Kuala Kubu Baru",
        "State": "Selangor"
    },
    {
        "Postcode": "44000",
        "Location": "Jalan Mat Kilau",
        "Post_Office": "Kuala Kubu Baru",
        "State": "Selangor"
    },
    {
        "Postcode": "44000",
        "Location": "Jalan Padang Golf",
        "Post_Office": "Kuala Kubu Baru",
        "State": "Selangor"
    },
    {
        "Postcode": "44000",
        "Location": "Jalan Padang Tembak",
        "Post_Office": "Kuala Kubu Baru",
        "State": "Selangor"
    },
    {
        "Postcode": "44000",
        "Location": "Jalan Sinaran Harapan",
        "Post_Office": "Kuala Kubu Baru",
        "State": "Selangor"
    },
    {
        "Postcode": "44000",
        "Location": "Jalan Syed Mashor",
        "Post_Office": "Kuala Kubu Baru",
        "State": "Selangor"
    },
    {
        "Postcode": "44000",
        "Location": "Jalan Taming Sari",
        "Post_Office": "Kuala Kubu Baru",
        "State": "Selangor"
    },
    {
        "Postcode": "44000",
        "Location": "Kampung Ampang Pecah",
        "Post_Office": "Kuala Kubu Baru",
        "State": "Selangor"
    },
    {
        "Postcode": "44000",
        "Location": "Kampung Baru Cina",
        "Post_Office": "Kuala Kubu Baru",
        "State": "Selangor"
    },
    {
        "Postcode": "44000",
        "Location": "Kampung Dagang Setia",
        "Post_Office": "Kuala Kubu Baru",
        "State": "Selangor"
    },
    {
        "Postcode": "44000",
        "Location": "Kampung Kuala Kubu Road",
        "Post_Office": "Kuala Kubu Baru",
        "State": "Selangor"
    },
    {
        "Postcode": "44000",
        "Location": "Kampung Sungai Damar",
        "Post_Office": "Kuala Kubu Baru",
        "State": "Selangor"
    },
    {
        "Postcode": "44000",
        "Location": "Kampung Tun Abdul Razak",
        "Post_Office": "Kuala Kubu Baru",
        "State": "Selangor"
    },
    {
        "Postcode": "44000",
        "Location": "Kuala Kubu Baru",
        "Post_Office": "Kuala Kubu Baru",
        "State": "Selangor"
    },
    {
        "Postcode": "44000",
        "Location": "Pertak",
        "Post_Office": "Kuala Kubu Baru",
        "State": "Selangor"
    },
    {
        "Postcode": "44000",
        "Location": "Rumah Kos Rendah Padang Golf",
        "Post_Office": "Kuala Kubu Baru",
        "State": "Selangor"
    },
    {
        "Postcode": "44000",
        "Location": "Taman Ampang Pecah",
        "Post_Office": "Kuala Kubu Baru",
        "State": "Selangor"
    },
    {
        "Postcode": "44000",
        "Location": "Taman Ampang Pecah Indah",
        "Post_Office": "Kuala Kubu Baru",
        "State": "Selangor"
    },
    {
        "Postcode": "44000",
        "Location": "Taman Bukit Bunga",
        "Post_Office": "Kuala Kubu Baru",
        "State": "Selangor"
    },
    {
        "Postcode": "44000",
        "Location": "Taman Dato Tabal",
        "Post_Office": "Kuala Kubu Baru",
        "State": "Selangor"
    },
    {
        "Postcode": "44000",
        "Location": "Taman Desa Bukit Bujang",
        "Post_Office": "Kuala Kubu Baru",
        "State": "Selangor"
    },
    {
        "Postcode": "44000",
        "Location": "Taman Gamelan",
        "Post_Office": "Kuala Kubu Baru",
        "State": "Selangor"
    },
    {
        "Postcode": "44000",
        "Location": "Taman Juta",
        "Post_Office": "Kuala Kubu Baru",
        "State": "Selangor"
    },
    {
        "Postcode": "44000",
        "Location": "Taman Kuala Kubu Utama",
        "Post_Office": "Kuala Kubu Baru",
        "State": "Selangor"
    },
    {
        "Postcode": "44000",
        "Location": "Taman Pesara",
        "Post_Office": "Kuala Kubu Baru",
        "State": "Selangor"
    },
    {
        "Postcode": "44000",
        "Location": "Taman Seri Kubu",
        "Post_Office": "Kuala Kubu Baru",
        "State": "Selangor"
    },
    {
        "Postcode": "44000",
        "Location": "Taman Seruling",
        "Post_Office": "Kuala Kubu Baru",
        "State": "Selangor"
    },
    {
        "Postcode": "44000",
        "Location": "Taman Tanjak",
        "Post_Office": "Kuala Kubu Baru",
        "State": "Selangor"
    },
    {
        "Postcode": "44000",
        "Location": "Taman Teratai",
        "Post_Office": "Kuala Kubu Baru",
        "State": "Selangor"
    },
    {
        "Postcode": "44000",
        "Location": "Taman Arif Utama",
        "Post_Office": "Kuala Kubu Baru",
        "State": "Selangor"
    },
    {
        "Postcode": "44000",
        "Location": "Taman Damai Utama",
        "Post_Office": "Kuala Kubu Baru",
        "State": "Selangor"
    },
    {
        "Postcode": "44000",
        "Location": "Jalan Hospital",
        "Post_Office": "Kuala Kubu Baru",
        "State": "Selangor"
    },
    {
        "Postcode": "44000",
        "Location": "Taman Ampang Indah",
        "Post_Office": "Kuala Kubu Baru",
        "State": "Selangor"
    }
]
