[
    {
        "Postcode": "44010",
        "Location": "Felda Sungai Dusun",
        "Post_Office": "Kuala Kubu Baru",
        "State": "Selangor"
    },
    {
        "Postcode": "44010",
        "Location": "Felda Sungai Tengi",
        "Post_Office": "Kuala Kubu Baru",
        "State": "Selangor"
    },
    {
        "Postcode": "44010",
        "Location": "Felda Sungai Tengi 1",
        "Post_Office": "Kuala Kubu Baru",
        "State": "Selangor"
    },
    {
        "Postcode": "44010",
        "Location": "Felda Sungai Tengi 2",
        "Post_Office": "Kuala Kubu Baru",
        "State": "Selangor"
    },
    {
        "Postcode": "44010",
        "Location": "Felda Sungai Tengi 3",
        "Post_Office": "Kuala Kubu Baru",
        "State": "Selangor"
    },
    {
        "Postcode": "44010",
        "Location": "Felda Sungai Tengi Selatan",
        "Post_Office": "Kuala Kubu Baru",
        "State": "Selangor"
    },
    {
        "Postcode": "44010",
        "Location": "Gedangsa",
        "Post_Office": "Kuala Kubu Baru",
        "State": "Selangor"
    },
    {
        "Postcode": "44010",
        "Location": "Jalan Budiman",
        "Post_Office": "Kuala Kubu Baru",
        "State": "Selangor"
    },
    {
        "Postcode": "44010",
        "Location": "Jalan Damai",
        "Post_Office": "Kuala Kubu Baru",
        "State": "Selangor"
    },
    {
        "Postcode": "44010",
        "Location": "Jalan Keliling",
        "Post_Office": "Kuala Kubu Baru",
        "State": "Selangor"
    },
    {
        "Postcode": "44010",
        "Location": "Jalan Kenanga",
        "Post_Office": "Kuala Kubu Baru",
        "State": "Selangor"
    },
    {
        "Postcode": "44010",
        "Location": "Jalan Keranji",
        "Post_Office": "Kuala Kubu Baru",
        "State": "Selangor"
    },
    {
        "Postcode": "44010",
        "Location": "Jalan Manggis",
        "Post_Office": "Kuala Kubu Baru",
        "State": "Selangor"
    },
    {
        "Postcode": "44010",
        "Location": "Jalan Nuri",
        "Post_Office": "Kuala Kubu Baru",
        "State": "Selangor"
    },
    {
        "Postcode": "44010",
        "Location": "Jalan Pam Air",
        "Post_Office": "Kuala Kubu Baru",
        "State": "Selangor"
    },
    {
        "Postcode": "44010",
        "Location": "Jalan Pasar",
        "Post_Office": "Kuala Kubu Baru",
        "State": "Selangor"
    },
    {
        "Postcode": "44010",
        "Location": "Jalan Pauh",
        "Post_Office": "Kuala Kubu Baru",
        "State": "Selangor"
    },
    {
        "Postcode": "44010",
        "Location": "Jalan Pegawai",
        "Post_Office": "Kuala Kubu Baru",
        "State": "Selangor"
    },
    {
        "Postcode": "44010",
        "Location": "Jalan Pejabat",
        "Post_Office": "Kuala Kubu Baru",
        "State": "Selangor"
    },
    {
        "Postcode": "44010",
        "Location": "Jalan Perwira",
        "Post_Office": "Kuala Kubu Baru",
        "State": "Selangor"
    },
    {
        "Postcode": "44010",
        "Location": "Jalan Puyuh",
        "Post_Office": "Kuala Kubu Baru",
        "State": "Selangor"
    },
    {
        "Postcode": "44010",
        "Location": "Jalan Satria",
        "Post_Office": "Kuala Kubu Baru",
        "State": "Selangor"
    },
    {
        "Postcode": "44010",
        "Location": "Jalan Sukun",
        "Post_Office": "Kuala Kubu Baru",
        "State": "Selangor"
    },
    {
        "Postcode": "44010",
        "Location": "Jalan Taman",
        "Post_Office": "Kuala Kubu Baru",
        "State": "Selangor"
    },
    {
        "Postcode": "44010",
        "Location": "Jalan Tanah Wakaf",
        "Post_Office": "Kuala Kubu Baru",
        "State": "Selangor"
    },
    {
        "Postcode": "44010",
        "Location": "Jalan Tangki Air",
        "Post_Office": "Kuala Kubu Baru",
        "State": "Selangor"
    },
    {
        "Postcode": "44010",
        "Location": "Jalan Tiong",
        "Post_Office": "Kuala Kubu Baru",
        "State": "Selangor"
    },
    {
        "Postcode": "44010",
        "Location": "Kampung Kerandang",
        "Post_Office": "Kuala Kubu Baru",
        "State": "Selangor"
    },
    {
        "Postcode": "44010",
        "Location": "Kampung Tasek Hijau",
        "Post_Office": "Kuala Kubu Baru",
        "State": "Selangor"
    },
    {
        "Postcode": "44010",
        "Location": "Sungai Dusun",
        "Post_Office": "Kuala Kubu Baru",
        "State": "Selangor"
    },
    {
        "Postcode": "44010",
        "Location": "Sungai Tengi",
        "Post_Office": "Kuala Kubu Baru",
        "State": "Selangor"
    },
    {
        "Postcode": "44010",
        "Location": "Jalan Sekolah",
        "Post_Office": "Kuala Kubu Baru",
        "State": "Selangor"
    },
    {
        "Postcode": "44010",
        "Location": "Jalan Merak",
        "Post_Office": "Kuala Kubu Baru",
        "State": "Selangor"
    },
    {
        "Postcode": "44010",
        "Location": "Jalan Merdeka",
        "Post_Office": "Kuala Kubu Baru",
        "State": "Selangor"
    }
]
