[
    {
        "Postcode": "44020",
        "Location": "Kampung Gesir Tengah",
        "Post_Office": "Kuala Kubu Baru",
        "State": "Selangor"
    },
    {
        "Postcode": "44020",
        "Location": "Kampung Raja A",
        "Post_Office": "Kuala Kubu Baru",
        "State": "Selangor"
    },
    {
        "Postcode": "44020",
        "Location": "Kampung Tersusun",
        "Post_Office": "Kuala Kubu Baru",
        "State": "Selangor"
    },
    {
        "Postcode": "44020",
        "Location": "Jalan Kemudi",
        "Post_Office": "Kuala Kubu Baru",
        "State": "Selangor"
    },
    {
        "Postcode": "44020",
        "Location": "Kampung 15",
        "Post_Office": "Kuala Kubu Baru",
        "State": "Selangor"
    },
    {
        "Postcode": "44020",
        "Location": "Kampung Bahagia",
        "Post_Office": "Kuala Kubu Baru",
        "State": "Selangor"
    },
    {
        "Postcode": "44020",
        "Location": "Kampung Bahagia Baru",
        "Post_Office": "Kuala Kubu Baru",
        "State": "Selangor"
    },
    {
        "Postcode": "44020",
        "Location": "Kampung Bahum",
        "Post_Office": "Kuala Kubu Baru",
        "State": "Selangor"
    },
    {
        "Postcode": "44020",
        "Location": "Kampung Bukit",
        "Post_Office": "Kuala Kubu Baru",
        "State": "Selangor"
    },
    {
        "Postcode": "44020",
        "Location": "Kampung Gesir",
        "Post_Office": "Kuala Kubu Baru",
        "State": "Selangor"
    },
    {
        "Postcode": "44020",
        "Location": "Kampung Gesir Ulu",
        "Post_Office": "Kuala Kubu Baru",
        "State": "Selangor"
    },
    {
        "Postcode": "44020",
        "Location": "Kampung Keliling",
        "Post_Office": "Kuala Kubu Baru",
        "State": "Selangor"
    },
    {
        "Postcode": "44020",
        "Location": "Kampung Masjid",
        "Post_Office": "Kuala Kubu Baru",
        "State": "Selangor"
    },
    {
        "Postcode": "44020",
        "Location": "Kampung Rahmat",
        "Post_Office": "Kuala Kubu Baru",
        "State": "Selangor"
    },
    {
        "Postcode": "44020",
        "Location": "Kampung Raja",
        "Post_Office": "Kuala Kubu Baru",
        "State": "Selangor"
    },
    {
        "Postcode": "44020",
        "Location": "Kampung Seberang",
        "Post_Office": "Kuala Kubu Baru",
        "State": "Selangor"
    },
    {
        "Postcode": "44020",
        "Location": "Kampung Sentosa",
        "Post_Office": "Kuala Kubu Baru",
        "State": "Selangor"
    },
    {
        "Postcode": "44020",
        "Location": "Kampung Serigala Tengah",
        "Post_Office": "Kuala Kubu Baru",
        "State": "Selangor"
    },
    {
        "Postcode": "44020",
        "Location": "Kampung Serigala Ulu",
        "Post_Office": "Kuala Kubu Baru",
        "State": "Selangor"
    },
    {
        "Postcode": "44020",
        "Location": "Kampung Serigala Utama",
        "Post_Office": "Kuala Kubu Baru",
        "State": "Selangor"
    },
    {
        "Postcode": "44020",
        "Location": "Kampung Sungai Nilam",
        "Post_Office": "Kuala Kubu Baru",
        "State": "Selangor"
    },
    {
        "Postcode": "44020",
        "Location": "Kampung Sungai Pagi",
        "Post_Office": "Kuala Kubu Baru",
        "State": "Selangor"
    },
    {
        "Postcode": "44020",
        "Location": "Kampung Tengah",
        "Post_Office": "Kuala Kubu Baru",
        "State": "Selangor"
    },
    {
        "Postcode": "44020",
        "Location": "Sungai Selisek",
        "Post_Office": "Kuala Kubu Baru",
        "State": "Selangor"
    },
    {
        "Postcode": "44020",
        "Location": "Kampung Sekolah",
        "Post_Office": "Kuala Kubu Baru",
        "State": "Selangor"
    },
    {
        "Postcode": "44020",
        "Location": "Kampung Lalang",
        "Post_Office": "Kuala Kubu Baru",
        "State": "Selangor"
    },
    {
        "Postcode": "44020",
        "Location": "Kampung Seri Aman",
        "Post_Office": "Kuala Kubu Baru",
        "State": "Selangor"
    }
]
