[
    {
        "Postcode": "44100",
        "Location": "Kampung Baru Kalumpang",
        "Post_Office": "Kerling",
        "State": "Selangor"
    },
    {
        "Postcode": "44100",
        "Location": "Kampung Baru Sejantung ",
        "Post_Office": "Kerling",
        "State": "Selangor"
    },
    {
        "Postcode": "44100",
        "Location": "Kampung Gumut Tambahan",
        "Post_Office": "Kerling",
        "State": "Selangor"
    },
    {
        "Postcode": "44100",
        "Location": "Kampung Jelutong Tambahan",
        "Post_Office": "Kerling",
        "State": "Selangor"
    },
    {
        "Postcode": "44100",
        "Location": "Kampung Sungai Jang",
        "Post_Office": "Kerling",
        "State": "Selangor"
    },
    {
        "Postcode": "44100",
        "Location": "Taman Angkasa",
        "Post_Office": "Kerling",
        "State": "Selangor"
    },
    {
        "Postcode": "44100",
        "Location": "Taman Cenderawasih",
        "Post_Office": "Kerling",
        "State": "Selangor"
    },
    {
        "Postcode": "44100",
        "Location": "Taman Desa Kasih",
        "Post_Office": "Kerling",
        "State": "Selangor"
    },
    {
        "Postcode": "44100",
        "Location": "Taman Desa Kenari",
        "Post_Office": "Kerling",
        "State": "Selangor"
    },
    {
        "Postcode": "44100",
        "Location": "Taman Rajawali",
        "Post_Office": "Kerling",
        "State": "Selangor"
    },
    {
        "Postcode": "44100",
        "Location": "Taman Zamrud",
        "Post_Office": "Kerling",
        "State": "Selangor"
    },
    {
        "Postcode": "44100",
        "Location": "Bandar Baru Lembah Beringin",
        "Post_Office": "Kerling",
        "State": "Selangor"
    },
    {
        "Postcode": "44100",
        "Location": "Kalumpang",
        "Post_Office": "Kerling",
        "State": "Selangor"
    },
    {
        "Postcode": "44100",
        "Location": "Kampung Baru Cina",
        "Post_Office": "Kerling",
        "State": "Selangor"
    },
    {
        "Postcode": "44100",
        "Location": "Kampung Gumut",
        "Post_Office": "Kerling",
        "State": "Selangor"
    },
    {
        "Postcode": "44100",
        "Location": "Kampung Jelutong",
        "Post_Office": "Kerling",
        "State": "Selangor"
    },
    {
        "Postcode": "44100",
        "Location": "Kampung Kandang Lembu",
        "Post_Office": "Kerling",
        "State": "Selangor"
    },
    {
        "Postcode": "44100",
        "Location": "Kampung Keliang",
        "Post_Office": "Kerling",
        "State": "Selangor"
    },
    {
        "Postcode": "44100",
        "Location": "Kampung Kerling",
        "Post_Office": "Kerling",
        "State": "Selangor"
    },
    {
        "Postcode": "44100",
        "Location": "Kampung Kl Tin (Benggali)",
        "Post_Office": "Kerling",
        "State": "Selangor"
    },
    {
        "Postcode": "44100",
        "Location": "Kampung Koil",
        "Post_Office": "Kerling",
        "State": "Selangor"
    },
    {
        "Postcode": "44100",
        "Location": "Kampung Pasir Puteh",
        "Post_Office": "Kerling",
        "State": "Selangor"
    },
    {
        "Postcode": "44100",
        "Location": "Kampung Syed Mashur",
        "Post_Office": "Kerling",
        "State": "Selangor"
    },
    {
        "Postcode": "44100",
        "Location": "Kerling",
        "Post_Office": "Kerling",
        "State": "Selangor"
    },
    {
        "Postcode": "44100",
        "Location": "Taman Bernam Jaya",
        "Post_Office": "Kerling",
        "State": "Selangor"
    },
    {
        "Postcode": "44100",
        "Location": "Taman Desa Keliang",
        "Post_Office": "Kerling",
        "State": "Selangor"
    },
    {
        "Postcode": "44100",
        "Location": "Taman Desa Merpati",
        "Post_Office": "Kerling",
        "State": "Selangor"
    },
    {
        "Postcode": "44100",
        "Location": "Taman Kalumpang",
        "Post_Office": "Kerling",
        "State": "Selangor"
    },
    {
        "Postcode": "44100",
        "Location": "Taman Musabika",
        "Post_Office": "Kerling",
        "State": "Selangor"
    },
    {
        "Postcode": "44100",
        "Location": "Kampung Air Panas",
        "Post_Office": "Kerling",
        "State": "Selangor"
    },
    {
        "Postcode": "44100",
        "Location": "Kampung Paya Dalam",
        "Post_Office": "Kerling",
        "State": "Selangor"
    },
    {
        "Postcode": "44100",
        "Location": "Kampung Titiwangsa",
        "Post_Office": "Kerling",
        "State": "Selangor"
    },
    {
        "Postcode": "44100",
        "Location": "Taman Lembah Damai",
        "Post_Office": "Kerling",
        "State": "Selangor"
    },
    {
        "Postcode": "44100",
        "Location": "Taman Tempua Bistari",
        "Post_Office": "Kerling",
        "State": "Selangor"
    },
    {
        "Postcode": "44100",
        "Location": "Kampung Jawa",
        "Post_Office": "Kerling",
        "State": "Selangor"
    },
    {
        "Postcode": "44100",
        "Location": "Kampung Pasir",
        "Post_Office": "Kerling",
        "State": "Selangor"
    },
    {
        "Postcode": "44100",
        "Location": "Laman 1",
        "Post_Office": "Kerling",
        "State": "Selangor"
    },
    {
        "Postcode": "44100",
        "Location": "Seksyen 4",
        "Post_Office": "Kerling",
        "State": "Selangor"
    },
    {
        "Postcode": "44100",
        "Location": "Kampung Jambu ",
        "Post_Office": "Kerling",
        "State": "Selangor"
    }
]
