[
    {
        "Postcode": "44110",
        "Location": "Taman Sentosa",
        "Post_Office": "Kuala Kubu Baru",
        "State": "Selangor"
    },
    {
        "Postcode": "44110",
        "Location": "Jalan Anggerik",
        "Post_Office": "Kuala Kubu Baru",
        "State": "Selangor"
    },
    {
        "Postcode": "44110",
        "Location": "Jalan Changkat Asa",
        "Post_Office": "Kuala Kubu Baru",
        "State": "Selangor"
    },
    {
        "Postcode": "44110",
        "Location": "Kampung Baru A ",
        "Post_Office": "Kuala Kubu Baru",
        "State": "Selangor"
    },
    {
        "Postcode": "44110",
        "Location": "Kampung Baru B",
        "Post_Office": "Kuala Kubu Baru",
        "State": "Selangor"
    },
    {
        "Postcode": "44110",
        "Location": "Kampung Bilal",
        "Post_Office": "Kuala Kubu Baru",
        "State": "Selangor"
    },
    {
        "Postcode": "44110",
        "Location": "Kampung Bota Singh",
        "Post_Office": "Kuala Kubu Baru",
        "State": "Selangor"
    },
    {
        "Postcode": "44110",
        "Location": "Kampung Hassan",
        "Post_Office": "Kuala Kubu Baru",
        "State": "Selangor"
    },
    {
        "Postcode": "44110",
        "Location": "Kampung Jambatan",
        "Post_Office": "Kuala Kubu Baru",
        "State": "Selangor"
    },
    {
        "Postcode": "44110",
        "Location": "Kampung Kilang Papan",
        "Post_Office": "Kuala Kubu Baru",
        "State": "Selangor"
    },
    {
        "Postcode": "44110",
        "Location": "Taman Seri Asa",
        "Post_Office": "Kuala Kubu Baru",
        "State": "Selangor"
    },
    {
        "Postcode": "44110",
        "Location": "Taman Ulu Bernam",
        "Post_Office": "Kuala Kubu Baru",
        "State": "Selangor"
    },
    {
        "Postcode": "44110",
        "Location": "Kampung Pinang",
        "Post_Office": "Kuala Kubu Baru",
        "State": "Selangor"
    },
    {
        "Postcode": "44110",
        "Location": "Taman Hijau",
        "Post_Office": "Kuala Kubu Baru",
        "State": "Selangor"
    },
    {
        "Postcode": "44110",
        "Location": "Jalan Besar Ulu Bernam",
        "Post_Office": "Kuala Kubu Baru",
        "State": "Selangor"
    },
    {
        "Postcode": "44110",
        "Location": "Jalan Kolam Air",
        "Post_Office": "Kuala Kubu Baru",
        "State": "Selangor"
    },
    {
        "Postcode": "44110",
        "Location": "Kampung Kilang Papan B",
        "Post_Office": "Kuala Kubu Baru",
        "State": "Selangor"
    },
    {
        "Postcode": "44110",
        "Location": "Kampung Kilang Papan C",
        "Post_Office": "Kuala Kubu Baru",
        "State": "Selangor"
    },
    {
        "Postcode": "44110",
        "Location": "Ko Chow Club",
        "Post_Office": "Kuala Kubu Baru",
        "State": "Selangor"
    },
    {
        "Postcode": "44110",
        "Location": "Rumah Kilat",
        "Post_Office": "Kuala Kubu Baru",
        "State": "Selangor"
    },
    {
        "Postcode": "44110",
        "Location": "Rumah Murah 2",
        "Post_Office": "Kuala Kubu Baru",
        "State": "Selangor"
    },
    {
        "Postcode": "44110",
        "Location": "Rumah Murah Seri Geriang",
        "Post_Office": "Kuala Kubu Baru",
        "State": "Selangor"
    },
    {
        "Postcode": "44110",
        "Location": "Taman Bayu",
        "Post_Office": "Kuala Kubu Baru",
        "State": "Selangor"
    },
    {
        "Postcode": "44110",
        "Location": "Taman Danau",
        "Post_Office": "Kuala Kubu Baru",
        "State": "Selangor"
    },
    {
        "Postcode": "44110",
        "Location": "Taman Geriang Utama",
        "Post_Office": "Kuala Kubu Baru",
        "State": "Selangor"
    },
    {
        "Postcode": "44110",
        "Location": "Taman Indah",
        "Post_Office": "Kuala Kubu Baru",
        "State": "Selangor"
    },
    {
        "Postcode": "44110",
        "Location": "Taman Kolek",
        "Post_Office": "Kuala Kubu Baru",
        "State": "Selangor"
    },
    {
        "Postcode": "44110",
        "Location": "Taman Samudera",
        "Post_Office": "Kuala Kubu Baru",
        "State": "Selangor"
    },
    {
        "Postcode": "44110",
        "Location": "Taman Weng Cheong",
        "Post_Office": "Kuala Kubu Baru",
        "State": "Selangor"
    },
    {
        "Postcode": "44110",
        "Location": "Ulu Bernam",
        "Post_Office": "Kuala Kubu Baru",
        "State": "Selangor"
    },
    {
        "Postcode": "44110",
        "Location": "Taman Bahtera",
        "Post_Office": "Kuala Kubu Baru",
        "State": "Selangor"
    }
]
