[
    {
        "Postcode": "44200",
        "Location": "Desa Rening Jaya",
        "Post_Office": "Rasa",
        "State": "Selangor"
    },
    {
        "Postcode": "44200",
        "Location": "Kampung Chuang",
        "Post_Office": "Rasa",
        "State": "Selangor"
    },
    {
        "Postcode": "44200",
        "Location": "Kampung Kandaiah",
        "Post_Office": "Rasa",
        "State": "Selangor"
    },
    {
        "Postcode": "44200",
        "Location": "Kampung Melayu Rasa",
        "Post_Office": "Rasa",
        "State": "Selangor"
    },
    {
        "Postcode": "44200",
        "Location": "Kampung Tok Napi",
        "Post_Office": "Rasa",
        "State": "Selangor"
    },
    {
        "Postcode": "44200",
        "Location": "Kawasan Perindustrian Zurah",
        "Post_Office": "Rasa",
        "State": "Selangor"
    },
    {
        "Postcode": "44200",
        "Location": "Taman Rasa Indah",
        "Post_Office": "Rasa",
        "State": "Selangor"
    },
    {
        "Postcode": "44200",
        "Location": "Taman Seri Rasa",
        "Post_Office": "Rasa",
        "State": "Selangor"
    },
    {
        "Postcode": "44200",
        "Location": "Batang Kali",
        "Post_Office": "Rasa",
        "State": "Selangor"
    },
    {
        "Postcode": "44200",
        "Location": "Jalan Cemperai",
        "Post_Office": "Rasa",
        "State": "Selangor"
    },
    {
        "Postcode": "44200",
        "Location": "Jalan Dahlia",
        "Post_Office": "Rasa",
        "State": "Selangor"
    },
    {
        "Postcode": "44200",
        "Location": "Jalan Kuala Kali",
        "Post_Office": "Rasa",
        "State": "Selangor"
    },
    {
        "Postcode": "44200",
        "Location": "Jalan Loke Yew",
        "Post_Office": "Rasa",
        "State": "Selangor"
    },
    {
        "Postcode": "44200",
        "Location": "Jalan Melati",
        "Post_Office": "Rasa",
        "State": "Selangor"
    },
    {
        "Postcode": "44200",
        "Location": "Jalan Renong Tin",
        "Post_Office": "Rasa",
        "State": "Selangor"
    },
    {
        "Postcode": "44200",
        "Location": "Jalan Station",
        "Post_Office": "Rasa",
        "State": "Selangor"
    },
    {
        "Postcode": "44200",
        "Location": "Kampung Baru",
        "Post_Office": "Rasa",
        "State": "Selangor"
    },
    {
        "Postcode": "44200",
        "Location": "Kampung Bukit Rasa",
        "Post_Office": "Rasa",
        "State": "Selangor"
    },
    {
        "Postcode": "44200",
        "Location": "Kampung Dato Napi",
        "Post_Office": "Rasa",
        "State": "Selangor"
    },
    {
        "Postcode": "44200",
        "Location": "Kampung Kandiah",
        "Post_Office": "Rasa",
        "State": "Selangor"
    },
    {
        "Postcode": "44200",
        "Location": "Kampung Melayu",
        "Post_Office": "Rasa",
        "State": "Selangor"
    },
    {
        "Postcode": "44200",
        "Location": "Kampung Tok Empat Napi",
        "Post_Office": "Rasa",
        "State": "Selangor"
    },
    {
        "Postcode": "44200",
        "Location": "Ladang Nam Bee",
        "Post_Office": "Rasa",
        "State": "Selangor"
    },
    {
        "Postcode": "44200",
        "Location": "Ladang Rasa",
        "Post_Office": "Rasa",
        "State": "Selangor"
    },
    {
        "Postcode": "44200",
        "Location": "Rasa",
        "Post_Office": "Rasa",
        "State": "Selangor"
    },
    {
        "Postcode": "44200",
        "Location": "Taman Damar",
        "Post_Office": "Rasa",
        "State": "Selangor"
    },
    {
        "Postcode": "44200",
        "Location": "Taman Damar Indah",
        "Post_Office": "Rasa",
        "State": "Selangor"
    },
    {
        "Postcode": "44200",
        "Location": "Taman Keruing",
        "Post_Office": "Rasa",
        "State": "Selangor"
    },
    {
        "Postcode": "44200",
        "Location": "Taman Rasa Jaya",
        "Post_Office": "Rasa",
        "State": "Selangor"
    },
    {
        "Postcode": "44200",
        "Location": "Taman Rasa Utama",
        "Post_Office": "Rasa",
        "State": "Selangor"
    },
    {
        "Postcode": "44200",
        "Location": "Kampung Kelapa",
        "Post_Office": "Rasa",
        "State": "Selangor"
    },
    {
        "Postcode": "44200",
        "Location": "Jalan Keruing 1A/3",
        "Post_Office": "Rasa",
        "State": "Selangor"
    },
    {
        "Postcode": "44200",
        "Location": "Jalan Mawar",
        "Post_Office": "Rasa",
        "State": "Selangor"
    },
    {
        "Postcode": "44200",
        "Location": "Jalan Teratai",
        "Post_Office": "Rasa",
        "State": "Selangor"
    },
    {
        "Postcode": "44200",
        "Location": "Jalan Kekwa",
        "Post_Office": "Rasa",
        "State": "Selangor"
    },
    {
        "Postcode": "44200",
        "Location": "Kampung Sekolah",
        "Post_Office": "Rasa",
        "State": "Selangor"
    },
    {
        "Postcode": "44200",
        "Location": "Jalan Bunga Raya",
        "Post_Office": "Rasa",
        "State": "Selangor"
    },
    {
        "Postcode": "44200",
        "Location": "Jalan Ros",
        "Post_Office": "Rasa",
        "State": "Selangor"
    },
    {
        "Postcode": "44200",
        "Location": "Taman Keruing 2",
        "Post_Office": "Rasa",
        "State": "Selangor"
    },
    {
        "Postcode": "44200",
        "Location": "Jalan Orkid",
        "Post_Office": "Rasa",
        "State": "Selangor"
    }
]
