[
    {
        "Postcode": "44300",
        "Location": "Taman Sri Kamin",
        "Post_Office": "Batang Kali",
        "State": "Selangor"
    },
    {
        "Postcode": "44300",
        "Location": "Bandar Baru Batang Kali",
        "Post_Office": "Batang Kali",
        "State": "Selangor"
    },
    {
        "Postcode": "44300",
        "Location": "Desa Alam Ria",
        "Post_Office": "Batang Kali",
        "State": "Selangor"
    },
    {
        "Postcode": "44300",
        "Location": "Kampung Menyuruk",
        "Post_Office": "Batang Kali",
        "State": "Selangor"
    },
    {
        "Postcode": "44300",
        "Location": "Kampung Orang Asli Sungai Kedondong",
        "Post_Office": "Batang Kali",
        "State": "Selangor"
    },
    {
        "Postcode": "44300",
        "Location": "Kampung Pisang",
        "Post_Office": "Batang Kali",
        "State": "Selangor"
    },
    {
        "Postcode": "44300",
        "Location": "Kampung Sentosa Indah",
        "Post_Office": "Batang Kali",
        "State": "Selangor"
    },
    {
        "Postcode": "44300",
        "Location": "Kampung Sungai Chik Tambahan",
        "Post_Office": "Batang Kali",
        "State": "Selangor"
    },
    {
        "Postcode": "44300",
        "Location": "Kampung Tengas",
        "Post_Office": "Batang Kali",
        "State": "Selangor"
    },
    {
        "Postcode": "44300",
        "Location": "Park Tamu Hill",
        "Post_Office": "Batang Kali",
        "State": "Selangor"
    },
    {
        "Postcode": "44300",
        "Location": "Pusat Perdagangan Ara Bandar Utama\r\n",
        "Post_Office": "Batang Kali",
        "State": "Selangor"
    },
    {
        "Postcode": "44300",
        "Location": "Taman Akasia",
        "Post_Office": "Batang Kali",
        "State": "Selangor"
    },
    {
        "Postcode": "44300",
        "Location": "Taman Batang Kali",
        "Post_Office": "Batang Kali",
        "State": "Selangor"
    },
    {
        "Postcode": "44300",
        "Location": "Taman Bayan",
        "Post_Office": "Batang Kali",
        "State": "Selangor"
    },
    {
        "Postcode": "44300",
        "Location": "Taman Desa",
        "Post_Office": "Batang Kali",
        "State": "Selangor"
    },
    {
        "Postcode": "44300",
        "Location": "Taman Desa Fatin",
        "Post_Office": "Batang Kali",
        "State": "Selangor"
    },
    {
        "Postcode": "44300",
        "Location": "Taman Desa Kaloi",
        "Post_Office": "Batang Kali",
        "State": "Selangor"
    },
    {
        "Postcode": "44300",
        "Location": "Taman Emas",
        "Post_Office": "Batang Kali",
        "State": "Selangor"
    },
    {
        "Postcode": "44300",
        "Location": "Taman Jaya ",
        "Post_Office": "Batang Kali",
        "State": "Selangor"
    },
    {
        "Postcode": "44300",
        "Location": "Taman Perniagaan Kelah",
        "Post_Office": "Batang Kali",
        "State": "Selangor"
    },
    {
        "Postcode": "44300",
        "Location": "Taman Semarak",
        "Post_Office": "Batang Kali",
        "State": "Selangor"
    },
    {
        "Postcode": "44300",
        "Location": "Taman Sri Kelah",
        "Post_Office": "Batang Kali",
        "State": "Selangor"
    },
    {
        "Postcode": "44300",
        "Location": "Taman Villa Impian",
        "Post_Office": "Batang Kali",
        "State": "Selangor"
    },
    {
        "Postcode": "44300",
        "Location": "Taman Wawasan",
        "Post_Office": "Batang Kali",
        "State": "Selangor"
    },
    {
        "Postcode": "44300",
        "Location": "Bagan Pasir Penampang",
        "Post_Office": "Batang Kali",
        "State": "Selangor"
    },
    {
        "Postcode": "44300",
        "Location": "Batang Kali (Km 32)",
        "Post_Office": "Batang Kali",
        "State": "Selangor"
    },
    {
        "Postcode": "44300",
        "Location": "Batang Kali Estate",
        "Post_Office": "Batang Kali",
        "State": "Selangor"
    },
    {
        "Postcode": "44300",
        "Location": "Jalan Arowana",
        "Post_Office": "Batang Kali",
        "State": "Selangor"
    },
    {
        "Postcode": "44300",
        "Location": "Jalan Cahaya",
        "Post_Office": "Batang Kali",
        "State": "Selangor"
    },
    {
        "Postcode": "44300",
        "Location": "Jalan Cempaka",
        "Post_Office": "Batang Kali",
        "State": "Selangor"
    },
    {
        "Postcode": "44300",
        "Location": "Jalan Mahagony",
        "Post_Office": "Batang Kali",
        "State": "Selangor"
    },
    {
        "Postcode": "44300",
        "Location": "Jalan Melor",
        "Post_Office": "Batang Kali",
        "State": "Selangor"
    },
    {
        "Postcode": "44300",
        "Location": "Jalan Menanti",
        "Post_Office": "Batang Kali",
        "State": "Selangor"
    },
    {
        "Postcode": "44300",
        "Location": "Jalan Meranti",
        "Post_Office": "Batang Kali",
        "State": "Selangor"
    },
    {
        "Postcode": "44300",
        "Location": "Jalan Semarak",
        "Post_Office": "Batang Kali",
        "State": "Selangor"
    },
    {
        "Postcode": "44300",
        "Location": "Kalong Tengah Tambahan",
        "Post_Office": "Batang Kali",
        "State": "Selangor"
    },
    {
        "Postcode": "44300",
        "Location": "Kampung Baru",
        "Post_Office": "Batang Kali",
        "State": "Selangor"
    },
    {
        "Postcode": "44300",
        "Location": "Kampung Batu 30",
        "Post_Office": "Batang Kali",
        "State": "Selangor"
    },
    {
        "Postcode": "44300",
        "Location": "Kampung Batu Belang",
        "Post_Office": "Batang Kali",
        "State": "Selangor"
    },
    {
        "Postcode": "44300",
        "Location": "Kampung Genting Malek",
        "Post_Office": "Batang Kali",
        "State": "Selangor"
    },
    {
        "Postcode": "44300",
        "Location": "Kampung Gurney",
        "Post_Office": "Batang Kali",
        "State": "Selangor"
    },
    {
        "Postcode": "44300",
        "Location": "Kampung Kalong Tengah",
        "Post_Office": "Batang Kali",
        "State": "Selangor"
    },
    {
        "Postcode": "44300",
        "Location": "Kampung Lekok",
        "Post_Office": "Batang Kali",
        "State": "Selangor"
    },
    {
        "Postcode": "44300",
        "Location": "Kampung Masjid",
        "Post_Office": "Batang Kali",
        "State": "Selangor"
    },
    {
        "Postcode": "44300",
        "Location": "Kampung Pertak Menyurok",
        "Post_Office": "Batang Kali",
        "State": "Selangor"
    },
    {
        "Postcode": "44300",
        "Location": "Kampung Rawang Putar",
        "Post_Office": "Batang Kali",
        "State": "Selangor"
    },
    {
        "Postcode": "44300",
        "Location": "Kampung Sentosa",
        "Post_Office": "Batang Kali",
        "State": "Selangor"
    },
    {
        "Postcode": "44300",
        "Location": "Kampung Sikh",
        "Post_Office": "Batang Kali",
        "State": "Selangor"
    },
    {
        "Postcode": "44300",
        "Location": "Kampung Stesyen",
        "Post_Office": "Batang Kali",
        "State": "Selangor"
    },
    {
        "Postcode": "44300",
        "Location": "Kampung Sungai Chik",
        "Post_Office": "Batang Kali",
        "State": "Selangor"
    },
    {
        "Postcode": "44300",
        "Location": "Kampung Sungai Kamin",
        "Post_Office": "Batang Kali",
        "State": "Selangor"
    },
    {
        "Postcode": "44300",
        "Location": "Kampung Sungai Masin",
        "Post_Office": "Batang Kali",
        "State": "Selangor"
    },
    {
        "Postcode": "44300",
        "Location": "Kampung Sungai Sendat",
        "Post_Office": "Batang Kali",
        "State": "Selangor"
    },
    {
        "Postcode": "44300",
        "Location": "Kampung Talu",
        "Post_Office": "Batang Kali",
        "State": "Selangor"
    },
    {
        "Postcode": "44300",
        "Location": "Kampung Tengah",
        "Post_Office": "Batang Kali",
        "State": "Selangor"
    },
    {
        "Postcode": "44300",
        "Location": "Kampung Ulu Kalong",
        "Post_Office": "Batang Kali",
        "State": "Selangor"
    },
    {
        "Postcode": "44300",
        "Location": "Kampung Ulu Rening",
        "Post_Office": "Batang Kali",
        "State": "Selangor"
    },
    {
        "Postcode": "44300",
        "Location": "Kawasan Meil Batang Kali",
        "Post_Office": "Batang Kali",
        "State": "Selangor"
    },
    {
        "Postcode": "44300",
        "Location": "Kilang Acp",
        "Post_Office": "Batang Kali",
        "State": "Selangor"
    },
    {
        "Postcode": "44300",
        "Location": "Kuala Kubu Bharu Estate",
        "Post_Office": "Batang Kali",
        "State": "Selangor"
    },
    {
        "Postcode": "44300",
        "Location": "Liga Mas 2 Kampung Sungai Chik",
        "Post_Office": "Batang Kali",
        "State": "Selangor"
    },
    {
        "Postcode": "44300",
        "Location": "Pekan Baru Batang Kali",
        "Post_Office": "Batang Kali",
        "State": "Selangor"
    },
    {
        "Postcode": "44300",
        "Location": "Sungai Tamu Estate",
        "Post_Office": "Batang Kali",
        "State": "Selangor"
    },
    {
        "Postcode": "44300",
        "Location": "Taman Genting Permai",
        "Post_Office": "Batang Kali",
        "State": "Selangor"
    },
    {
        "Postcode": "44300",
        "Location": "Taman Jaya (Ulu Yam Baru)",
        "Post_Office": "Batang Kali",
        "State": "Selangor"
    },
    {
        "Postcode": "44300",
        "Location": "Taman Sentosa Indah",
        "Post_Office": "Batang Kali",
        "State": "Selangor"
    },
    {
        "Postcode": "44300",
        "Location": "Taman Seri",
        "Post_Office": "Batang Kali",
        "State": "Selangor"
    },
    {
        "Postcode": "44300",
        "Location": "Taman Seri Batang Kali",
        "Post_Office": "Batang Kali",
        "State": "Selangor"
    },
    {
        "Postcode": "44300",
        "Location": "Taman Seri Cahaya",
        "Post_Office": "Batang Kali",
        "State": "Selangor"
    },
    {
        "Postcode": "44300",
        "Location": "Taman Seri Liam",
        "Post_Office": "Batang Kali",
        "State": "Selangor"
    },
    {
        "Postcode": "44300",
        "Location": "Ulu Yam Baru",
        "Post_Office": "Batang Kali",
        "State": "Selangor"
    },
    {
        "Postcode": "44300",
        "Location": "Desa Alamria",
        "Post_Office": "Batang Kali",
        "State": "Selangor"
    },
    {
        "Postcode": "44300",
        "Location": "Jalan Cengal Utama",
        "Post_Office": "Batang Kali",
        "State": "Selangor"
    },
    {
        "Postcode": "44300",
        "Location": "Desa Sebarau",
        "Post_Office": "Batang Kali",
        "State": "Selangor"
    },
    {
        "Postcode": "44300",
        "Location": "Kampung Kalong Hilir ",
        "Post_Office": "Batang Kali",
        "State": "Selangor"
    },
    {
        "Postcode": "44300",
        "Location": "Kampung Kalong Hulu ",
        "Post_Office": "Batang Kali",
        "State": "Selangor"
    },
    {
        "Postcode": "44300",
        "Location": "Kampung Pasir Ulu Yam",
        "Post_Office": "Batang Kali",
        "State": "Selangor"
    },
    {
        "Postcode": "44300",
        "Location": "Taman Desa Kelisa ",
        "Post_Office": "Batang Kali",
        "State": "Selangor"
    },
    {
        "Postcode": "44300",
        "Location": "Taman Desa Patin",
        "Post_Office": "Batang Kali",
        "State": "Selangor"
    },
    {
        "Postcode": "44300",
        "Location": "Taman Hulu Yam Lama",
        "Post_Office": "Batang Kali",
        "State": "Selangor"
    },
    {
        "Postcode": "44300",
        "Location": "Jalan Merbau",
        "Post_Office": "Batang Kali",
        "State": "Selangor"
    },
    {
        "Postcode": "44300",
        "Location": "Kampung Rantau Panjang",
        "Post_Office": "Batang Kali",
        "State": "Selangor"
    },
    {
        "Postcode": "44300",
        "Location": "Kampung Kuantan",
        "Post_Office": "Batang Kali",
        "State": "Selangor"
    },
    {
        "Postcode": "44300",
        "Location": "Kampung Sekolah",
        "Post_Office": "Batang Kali",
        "State": "Selangor"
    },
    {
        "Postcode": "44300",
        "Location": "Taman Desa Jaya",
        "Post_Office": "Batang Kali",
        "State": "Selangor"
    },
    {
        "Postcode": "44300",
        "Location": "Bandar Utama Batang Kali",
        "Post_Office": "Batang Kali",
        "State": "Selangor"
    },
    {
        "Postcode": "44300",
        "Location": "Kampung Padang",
        "Post_Office": "Batang Kali",
        "State": "Selangor"
    },
    {
        "Postcode": "44300",
        "Location": "Kampung Setia",
        "Post_Office": "Batang Kali",
        "State": "Selangor"
    },
    {
        "Postcode": "44300",
        "Location": "Jalan Cengal 1",
        "Post_Office": "Batang Kali",
        "State": "Selangor"
    },
    {
        "Postcode": "44300",
        "Location": "Jalan Cengal 2",
        "Post_Office": "Batang Kali",
        "State": "Selangor"
    },
    {
        "Postcode": "44300",
        "Location": "Jalan Cengal 3",
        "Post_Office": "Batang Kali",
        "State": "Selangor"
    },
    {
        "Postcode": "44300",
        "Location": "Jalan Cengal 4",
        "Post_Office": "Batang Kali",
        "State": "Selangor"
    },
    {
        "Postcode": "44300",
        "Location": "Jalan Cengal 5",
        "Post_Office": "Batang Kali",
        "State": "Selangor"
    },
    {
        "Postcode": "44300",
        "Location": "Jalan Cengal 6",
        "Post_Office": "Batang Kali",
        "State": "Selangor"
    },
    {
        "Postcode": "44300",
        "Location": "Jalan Cengal 7",
        "Post_Office": "Batang Kali",
        "State": "Selangor"
    },
    {
        "Postcode": "44300",
        "Location": "Jalan Jati 1",
        "Post_Office": "Batang Kali",
        "State": "Selangor"
    },
    {
        "Postcode": "44300",
        "Location": "Jalan Jati 2",
        "Post_Office": "Batang Kali",
        "State": "Selangor"
    },
    {
        "Postcode": "44300",
        "Location": "Jalan Jati 3",
        "Post_Office": "Batang Kali",
        "State": "Selangor"
    }
]
