[
    {
        "Postcode": "80000",
        "Location": "Jalan Ibrahim",
        "Post_Office": "Johor Bahru",
        "State": "Johor"
    },
    {
        "Postcode": "80000",
        "Location": "Jalan Sulaiman",
        "Post_Office": "Johor Bahru",
        "State": "Johor"
    },
    {
        "Postcode": "80000",
        "Location": "Jalan Dato Onn",
        "Post_Office": "Johor Bahru",
        "State": "Johor"
    },
    {
        "Postcode": "80000",
        "Location": "Jalan Gertak Merah",
        "Post_Office": "Johor Bahru",
        "State": "Johor"
    },
    {
        "Postcode": "80000",
        "Location": "Jalan Station",
        "Post_Office": "Johor Bahru",
        "State": "Johor"
    },
    {
        "Postcode": "80000",
        "Location": "Jalan Tun Abdul Razak",
        "Post_Office": "Johor Bahru",
        "State": "Johor"
    },
    {
        "Postcode": "80000",
        "Location": "Jalan Abdullah Ibrahim",
        "Post_Office": "Johor Bahru",
        "State": "Johor"
    },
    {
        "Postcode": "80000",
        "Location": "Jalan Ayer Molek",
        "Post_Office": "Johor Bahru",
        "State": "Johor"
    },
    {
        "Postcode": "80000",
        "Location": "Jalan Bukit Timbalan",
        "Post_Office": "Johor Bahru",
        "State": "Johor"
    },
    {
        "Postcode": "80000",
        "Location": "Jalan Bukit Zaharah",
        "Post_Office": "Johor Bahru",
        "State": "Johor"
    },
    {
        "Postcode": "80000",
        "Location": "Jalan Dato Dalam",
        "Post_Office": "Johor Bahru",
        "State": "Johor"
    },
    {
        "Postcode": "80000",
        "Location": "Jalan Dhoby",
        "Post_Office": "Johor Bahru",
        "State": "Johor"
    },
    {
        "Postcode": "80000",
        "Location": "Jalan Duke",
        "Post_Office": "Johor Bahru",
        "State": "Johor"
    },
    {
        "Postcode": "80000",
        "Location": "Jalan Engku Endut",
        "Post_Office": "Johor Bahru",
        "State": "Johor"
    },
    {
        "Postcode": "80000",
        "Location": "Jalan Khalid Abdullah",
        "Post_Office": "Johor Bahru",
        "State": "Johor"
    },
    {
        "Postcode": "80000",
        "Location": "Jalan Lee Thye Heng",
        "Post_Office": "Johor Bahru",
        "State": "Johor"
    },
    {
        "Postcode": "80000",
        "Location": "Jalan Meldrum",
        "Post_Office": "Johor Bahru",
        "State": "Johor"
    },
    {
        "Postcode": "80000",
        "Location": "Jalan Mohd Noor",
        "Post_Office": "Johor Bahru",
        "State": "Johor"
    },
    {
        "Postcode": "80000",
        "Location": "Jalan Ngee Heng",
        "Post_Office": "Johor Bahru",
        "State": "Johor"
    },
    {
        "Postcode": "80000",
        "Location": "Jalan Pahang",
        "Post_Office": "Johor Bahru",
        "State": "Johor"
    },
    {
        "Postcode": "80000",
        "Location": "Jalan Segget",
        "Post_Office": "Johor Bahru",
        "State": "Johor"
    },
    {
        "Postcode": "80000",
        "Location": "Jalan Selat Tebrau",
        "Post_Office": "Johor Bahru",
        "State": "Johor"
    },
    {
        "Postcode": "80000",
        "Location": "Jalan Sieu Koon",
        "Post_Office": "Johor Bahru",
        "State": "Johor"
    },
    {
        "Postcode": "80000",
        "Location": "Jalan Siew Chin",
        "Post_Office": "Johor Bahru",
        "State": "Johor"
    },
    {
        "Postcode": "80000",
        "Location": "Jalan Siu Nam",
        "Post_Office": "Johor Bahru",
        "State": "Johor"
    },
    {
        "Postcode": "80000",
        "Location": "Jalan Syed Mohamad Mufti",
        "Post_Office": "Johor Bahru",
        "State": "Johor"
    },
    {
        "Postcode": "80000",
        "Location": "Jalan Tan Hock Nee",
        "Post_Office": "Johor Bahru",
        "State": "Johor"
    },
    {
        "Postcode": "80000",
        "Location": "Jalan Tangga Duke",
        "Post_Office": "Johor Bahru",
        "State": "Johor"
    },
    {
        "Postcode": "80000",
        "Location": "Jalan Tun Sri Lanang",
        "Post_Office": "Johor Bahru",
        "State": "Johor"
    },
    {
        "Postcode": "80000",
        "Location": "Jalan Ungku Puan",
        "Post_Office": "Johor Bahru",
        "State": "Johor"
    },
    {
        "Postcode": "80000",
        "Location": "Jalan Wong Ah Fook",
        "Post_Office": "Johor Bahru",
        "State": "Johor"
    },
    {
        "Postcode": "80000",
        "Location": "Kampung Air Molek",
        "Post_Office": "Johor Bahru",
        "State": "Johor"
    },
    {
        "Postcode": "80000",
        "Location": "Kompleks Tun Abdul Razak (Komtar)",
        "Post_Office": "Johor Bahru",
        "State": "Johor"
    },
    {
        "Postcode": "80000",
        "Location": "Wisma Persekutuan",
        "Post_Office": "Johor Bahru",
        "State": "Johor"
    },
    {
        "Postcode": "80000",
        "Location": "Jalan Salim",
        "Post_Office": "Johor Bahru",
        "State": "Johor"
    },
    {
        "Postcode": "80000",
        "Location": "Jalan Sawmill",
        "Post_Office": "Johor Bahru",
        "State": "Johor"
    },
    {
        "Postcode": "80000",
        "Location": "Jalan Pasar",
        "Post_Office": "Johor Bahru",
        "State": "Johor"
    },
    {
        "Postcode": "80000",
        "Location": "Jalan Trus",
        "Post_Office": "Johor Bahru",
        "State": "Johor"
    }
]
