[
    {
        "Postcode": "80100",
        "Location": "Jalan Ismail",
        "Post_Office": "Johor Bahru",
        "State": "Johor"
    },
    {
        "Postcode": "80100",
        "Location": "Jalan Abu Bakar",
        "Post_Office": "Johor Bahru",
        "State": "Johor"
    },
    {
        "Postcode": "80100",
        "Location": "Kampung Kubur",
        "Post_Office": "Johor Bahru",
        "State": "Johor"
    },
    {
        "Postcode": "80100",
        "Location": "Jalan Dapat",
        "Post_Office": "Johor Bahru",
        "State": "Johor"
    },
    {
        "Postcode": "80100",
        "Location": "Jalan Gertak Merah",
        "Post_Office": "Johor Bahru",
        "State": "Johor"
    },
    {
        "Postcode": "80100",
        "Location": "Aloha Tower",
        "Post_Office": "Johor Bahru",
        "State": "Johor"
    },
    {
        "Postcode": "80100",
        "Location": "Friza Court",
        "Post_Office": "Johor Bahru",
        "State": "Johor"
    },
    {
        "Postcode": "80100",
        "Location": "Indah Samudera Condominium",
        "Post_Office": "Johor Bahru",
        "State": "Johor"
    },
    {
        "Postcode": "80100",
        "Location": "Jalan Abdul Rahman Andak",
        "Post_Office": "Johor Bahru",
        "State": "Johor"
    },
    {
        "Postcode": "80100",
        "Location": "Jalan Abdul Samad",
        "Post_Office": "Johor Bahru",
        "State": "Johor"
    },
    {
        "Postcode": "80100",
        "Location": "Jalan Abdul Samad 1",
        "Post_Office": "Johor Bahru",
        "State": "Johor"
    },
    {
        "Postcode": "80100",
        "Location": "Jalan Ariffin",
        "Post_Office": "Johor Bahru",
        "State": "Johor"
    },
    {
        "Postcode": "80100",
        "Location": "Jalan Baiduri",
        "Post_Office": "Johor Bahru",
        "State": "Johor"
    },
    {
        "Postcode": "80100",
        "Location": "Jalan Petri",
        "Post_Office": "Johor Bahru",
        "State": "Johor"
    },
    {
        "Postcode": "80100",
        "Location": "Jalan Abdul Samad 2",
        "Post_Office": "Johor Bahru",
        "State": "Johor"
    },
    {
        "Postcode": "80100",
        "Location": "Jalan Abdul Samad 3",
        "Post_Office": "Johor Bahru",
        "State": "Johor"
    },
    {
        "Postcode": "80100",
        "Location": "Jalan Abdul Samad 4",
        "Post_Office": "Johor Bahru",
        "State": "Johor"
    },
    {
        "Postcode": "80100",
        "Location": "Jalan Abdul Samad 5",
        "Post_Office": "Johor Bahru",
        "State": "Johor"
    },
    {
        "Postcode": "80100",
        "Location": "Jalan Abdul Samad 6",
        "Post_Office": "Johor Bahru",
        "State": "Johor"
    },
    {
        "Postcode": "80100",
        "Location": "Jalan Abdul Samad 7",
        "Post_Office": "Johor Bahru",
        "State": "Johor"
    },
    {
        "Postcode": "80100",
        "Location": "Jalan Abdul Samad 8",
        "Post_Office": "Johor Bahru",
        "State": "Johor"
    },
    {
        "Postcode": "80100",
        "Location": "Jalan Abdul Samad 9",
        "Post_Office": "Johor Bahru",
        "State": "Johor"
    },
    {
        "Postcode": "80100",
        "Location": "Jalan Kemuncak 1",
        "Post_Office": "Johor Bahru",
        "State": "Johor"
    },
    {
        "Postcode": "80100",
        "Location": "Jalan Kemuncak 10",
        "Post_Office": "Johor Bahru",
        "State": "Johor"
    },
    {
        "Postcode": "80100",
        "Location": "Jalan Kemuncak 11",
        "Post_Office": "Johor Bahru",
        "State": "Johor"
    },
    {
        "Postcode": "80100",
        "Location": "Jalan Kemuncak 12",
        "Post_Office": "Johor Bahru",
        "State": "Johor"
    },
    {
        "Postcode": "80100",
        "Location": "Jalan Kemuncak 13",
        "Post_Office": "Johor Bahru",
        "State": "Johor"
    },
    {
        "Postcode": "80100",
        "Location": "Jalan Kemuncak 14",
        "Post_Office": "Johor Bahru",
        "State": "Johor"
    },
    {
        "Postcode": "80100",
        "Location": "Jalan Kemuncak 2",
        "Post_Office": "Johor Bahru",
        "State": "Johor"
    },
    {
        "Postcode": "80100",
        "Location": "Jalan Kemuncak 3",
        "Post_Office": "Johor Bahru",
        "State": "Johor"
    },
    {
        "Postcode": "80100",
        "Location": "Jalan Kemuncak 4",
        "Post_Office": "Johor Bahru",
        "State": "Johor"
    },
    {
        "Postcode": "80100",
        "Location": "Jalan Kemuncak 5",
        "Post_Office": "Johor Bahru",
        "State": "Johor"
    },
    {
        "Postcode": "80100",
        "Location": "Jalan Kemuncak 6",
        "Post_Office": "Johor Bahru",
        "State": "Johor"
    },
    {
        "Postcode": "80100",
        "Location": "Jalan Kemuncak 7",
        "Post_Office": "Johor Bahru",
        "State": "Johor"
    },
    {
        "Postcode": "80100",
        "Location": "Jalan Kemuncak 8",
        "Post_Office": "Johor Bahru",
        "State": "Johor"
    },
    {
        "Postcode": "80100",
        "Location": "Jalan Kemuncak 9",
        "Post_Office": "Johor Bahru",
        "State": "Johor"
    },
    {
        "Postcode": "80100",
        "Location": "Jalan Petri 1",
        "Post_Office": "Johor Bahru",
        "State": "Johor"
    },
    {
        "Postcode": "80100",
        "Location": "Jalan Petri 2",
        "Post_Office": "Johor Bahru",
        "State": "Johor"
    },
    {
        "Postcode": "80100",
        "Location": "Jalan Petri 3",
        "Post_Office": "Johor Bahru",
        "State": "Johor"
    },
    {
        "Postcode": "80100",
        "Location": "Jalan Petri 4",
        "Post_Office": "Johor Bahru",
        "State": "Johor"
    },
    {
        "Postcode": "80100",
        "Location": "Jalan Petri 5",
        "Post_Office": "Johor Bahru",
        "State": "Johor"
    },
    {
        "Postcode": "80100",
        "Location": "Jalan Petri 6",
        "Post_Office": "Johor Bahru",
        "State": "Johor"
    },
    {
        "Postcode": "80100",
        "Location": "Jalan Petri 7",
        "Post_Office": "Johor Bahru",
        "State": "Johor"
    },
    {
        "Postcode": "80100",
        "Location": "Jalan Petri 8",
        "Post_Office": "Johor Bahru",
        "State": "Johor"
    },
    {
        "Postcode": "80100",
        "Location": "Jalan Petri 9",
        "Post_Office": "Johor Bahru",
        "State": "Johor"
    },
    {
        "Postcode": "80100",
        "Location": "Jalan Rubi 1",
        "Post_Office": "Johor Bahru",
        "State": "Johor"
    },
    {
        "Postcode": "80100",
        "Location": "Jalan Rubi 2",
        "Post_Office": "Johor Bahru",
        "State": "Johor"
    },
    {
        "Postcode": "80100",
        "Location": "Jalan Rubi 3",
        "Post_Office": "Johor Bahru",
        "State": "Johor"
    },
    {
        "Postcode": "80100",
        "Location": "Lorong 1, Jalan Mohd Amin ",
        "Post_Office": "Johor Bahru",
        "State": "Johor"
    },
    {
        "Postcode": "80100",
        "Location": "Lorong 1, Jalan Yahya Awal",
        "Post_Office": "Johor Bahru",
        "State": "Johor"
    },
    {
        "Postcode": "80100",
        "Location": "Lorong 2, Jalan Mohd Amin ",
        "Post_Office": "Johor Bahru",
        "State": "Johor"
    },
    {
        "Postcode": "80100",
        "Location": "Lorong 2, Jalan Yahya Awal",
        "Post_Office": "Johor Bahru",
        "State": "Johor"
    },
    {
        "Postcode": "80100",
        "Location": "Lorong 3, Jalan Mohd Amin ",
        "Post_Office": "Johor Bahru",
        "State": "Johor"
    },
    {
        "Postcode": "80100",
        "Location": "Lorong 3, Jalan Yahya Awal",
        "Post_Office": "Johor Bahru",
        "State": "Johor"
    },
    {
        "Postcode": "80100",
        "Location": "Lorong 4, Jalan Mohd Amin ",
        "Post_Office": "Johor Bahru",
        "State": "Johor"
    },
    {
        "Postcode": "80100",
        "Location": "Lorong 4, Jalan Yahya Awal",
        "Post_Office": "Johor Bahru",
        "State": "Johor"
    },
    {
        "Postcode": "80100",
        "Location": "Lorong 5, Jalan Mohd Amin ",
        "Post_Office": "Johor Bahru",
        "State": "Johor"
    },
    {
        "Postcode": "80100",
        "Location": "Lorong 5, Jalan Yahya Awal",
        "Post_Office": "Johor Bahru",
        "State": "Johor"
    },
    {
        "Postcode": "80100",
        "Location": "Lorong 6, Jalan Mohd Amin ",
        "Post_Office": "Johor Bahru",
        "State": "Johor"
    },
    {
        "Postcode": "80100",
        "Location": "Lorong 7, Jalan Mohd Amin ",
        "Post_Office": "Johor Bahru",
        "State": "Johor"
    },
    {
        "Postcode": "80100",
        "Location": "Kawasan Hospital Sultanah Aminah",
        "Post_Office": "Johor Bahru",
        "State": "Johor"
    },
    {
        "Postcode": "80100",
        "Location": "Kuarters Hospital Sultanah Aminah",
        "Post_Office": "Johor Bahru",
        "State": "Johor"
    },
    {
        "Postcode": "80100",
        "Location": "Taman Larkin",
        "Post_Office": "Johor Bahru",
        "State": "Johor"
    },
    {
        "Postcode": "80100",
        "Location": "Jalan Bendahara",
        "Post_Office": "Johor Bahru",
        "State": "Johor"
    },
    {
        "Postcode": "80100",
        "Location": "Jalan Bilal Mahmod",
        "Post_Office": "Johor Bahru",
        "State": "Johor"
    },
    {
        "Postcode": "80100",
        "Location": "Jalan Bukit Combi",
        "Post_Office": "Johor Bahru",
        "State": "Johor"
    },
    {
        "Postcode": "80100",
        "Location": "Jalan Capt Mohd Amin",
        "Post_Office": "Johor Bahru",
        "State": "Johor"
    },
    {
        "Postcode": "80100",
        "Location": "Jalan Cik Besar Zubaidah",
        "Post_Office": "Johor Bahru",
        "State": "Johor"
    },
    {
        "Postcode": "80100",
        "Location": "Jalan Dato Haji Abdullah",
        "Post_Office": "Johor Bahru",
        "State": "Johor"
    },
    {
        "Postcode": "80100",
        "Location": "Jalan Dato Kathi",
        "Post_Office": "Johor Bahru",
        "State": "Johor"
    },
    {
        "Postcode": "80100",
        "Location": "Jalan Dato Menteri",
        "Post_Office": "Johor Bahru",
        "State": "Johor"
    },
    {
        "Postcode": "80100",
        "Location": "Jalan Dato Mohamad",
        "Post_Office": "Johor Bahru",
        "State": "Johor"
    },
    {
        "Postcode": "80100",
        "Location": "Jalan Dato Mohd Salleh",
        "Post_Office": "Johor Bahru",
        "State": "Johor"
    },
    {
        "Postcode": "80100",
        "Location": "Jalan Dato Setia",
        "Post_Office": "Johor Bahru",
        "State": "Johor"
    },
    {
        "Postcode": "80100",
        "Location": "Jalan Dato Wilson",
        "Post_Office": "Johor Bahru",
        "State": "Johor"
    },
    {
        "Postcode": "80100",
        "Location": "Jalan Draper",
        "Post_Office": "Johor Bahru",
        "State": "Johor"
    },
    {
        "Postcode": "80100",
        "Location": "Jalan Gelendening",
        "Post_Office": "Johor Bahru",
        "State": "Johor"
    },
    {
        "Postcode": "80100",
        "Location": "Jalan Gereja",
        "Post_Office": "Johor Bahru",
        "State": "Johor"
    },
    {
        "Postcode": "80100",
        "Location": "Jalan Haji Ali",
        "Post_Office": "Johor Bahru",
        "State": "Johor"
    },
    {
        "Postcode": "80100",
        "Location": "Jalan Haji Yaakob",
        "Post_Office": "Johor Bahru",
        "State": "Johor"
    },
    {
        "Postcode": "80100",
        "Location": "Jalan Harun",
        "Post_Office": "Johor Bahru",
        "State": "Johor"
    },
    {
        "Postcode": "80100",
        "Location": "Jalan Hassan Al-Atas",
        "Post_Office": "Johor Bahru",
        "State": "Johor"
    },
    {
        "Postcode": "80100",
        "Location": "Jalan Ikhwan",
        "Post_Office": "Johor Bahru",
        "State": "Johor"
    },
    {
        "Postcode": "80100",
        "Location": "Jalan Juara",
        "Post_Office": "Johor Bahru",
        "State": "Johor"
    },
    {
        "Postcode": "80100",
        "Location": "Jalan Jujor",
        "Post_Office": "Johor Bahru",
        "State": "Johor"
    },
    {
        "Postcode": "80100",
        "Location": "Jalan Kampung Jawa Tarom",
        "Post_Office": "Johor Bahru",
        "State": "Johor"
    },
    {
        "Postcode": "80100",
        "Location": "Jalan Kebun Bunga",
        "Post_Office": "Johor Bahru",
        "State": "Johor"
    },
    {
        "Postcode": "80100",
        "Location": "Jalan Kemaman",
        "Post_Office": "Johor Bahru",
        "State": "Johor"
    },
    {
        "Postcode": "80100",
        "Location": "Jalan Kemuncak",
        "Post_Office": "Johor Bahru",
        "State": "Johor"
    },
    {
        "Postcode": "80100",
        "Location": "Jalan Kolam Ayer",
        "Post_Office": "Johor Bahru",
        "State": "Johor"
    },
    {
        "Postcode": "80100",
        "Location": "Jalan Laksamana",
        "Post_Office": "Johor Bahru",
        "State": "Johor"
    },
    {
        "Postcode": "80100",
        "Location": "Jalan Lingkaran Dalam",
        "Post_Office": "Johor Bahru",
        "State": "Johor"
    },
    {
        "Postcode": "80100",
        "Location": "Jalan Mahmoodiah",
        "Post_Office": "Johor Bahru",
        "State": "Johor"
    },
    {
        "Postcode": "80100",
        "Location": "Jalan Mariamah",
        "Post_Office": "Johor Bahru",
        "State": "Johor"
    },
    {
        "Postcode": "80100",
        "Location": "Jalan Masjid Abu Bakar",
        "Post_Office": "Johor Bahru",
        "State": "Johor"
    },
    {
        "Postcode": "80100",
        "Location": "Jalan Mustaffa",
        "Post_Office": "Johor Bahru",
        "State": "Johor"
    },
    {
        "Postcode": "80100",
        "Location": "Jalan Noja",
        "Post_Office": "Johor Bahru",
        "State": "Johor"
    },
    {
        "Postcode": "80100",
        "Location": "Jalan Nong Chik",
        "Post_Office": "Johor Bahru",
        "State": "Johor"
    },
    {
        "Postcode": "80100",
        "Location": "Jalan Pahlawan",
        "Post_Office": "Johor Bahru",
        "State": "Johor"
    },
    {
        "Postcode": "80100",
        "Location": "Jalan Pak Lomak",
        "Post_Office": "Johor Bahru",
        "State": "Johor"
    },
    {
        "Postcode": "80100",
        "Location": "Jalan Pakatan",
        "Post_Office": "Johor Bahru",
        "State": "Johor"
    },
    {
        "Postcode": "80100",
        "Location": "Jalan Pucuk",
        "Post_Office": "Johor Bahru",
        "State": "Johor"
    },
    {
        "Postcode": "80100",
        "Location": "Jalan Rubi",
        "Post_Office": "Johor Bahru",
        "State": "Johor"
    },
    {
        "Postcode": "80100",
        "Location": "Jalan Semalu",
        "Post_Office": "Johor Bahru",
        "State": "Johor"
    },
    {
        "Postcode": "80100",
        "Location": "Jalan Seri Gelam",
        "Post_Office": "Johor Bahru",
        "State": "Johor"
    },
    {
        "Postcode": "80100",
        "Location": "Jalan Seri Lanang",
        "Post_Office": "Johor Bahru",
        "State": "Johor"
    },
    {
        "Postcode": "80100",
        "Location": "Jalan Seri Rambutan",
        "Post_Office": "Johor Bahru",
        "State": "Johor"
    },
    {
        "Postcode": "80100",
        "Location": "Jalan Suasana",
        "Post_Office": "Johor Bahru",
        "State": "Johor"
    },
    {
        "Postcode": "80100",
        "Location": "Jalan Sungai Chat",
        "Post_Office": "Johor Bahru",
        "State": "Johor"
    },
    {
        "Postcode": "80100",
        "Location": "Jalan Taat",
        "Post_Office": "Johor Bahru",
        "State": "Johor"
    },
    {
        "Postcode": "80100",
        "Location": "Jalan Tarom",
        "Post_Office": "Johor Bahru",
        "State": "Johor"
    },
    {
        "Postcode": "80100",
        "Location": "Jalan Thompson",
        "Post_Office": "Johor Bahru",
        "State": "Johor"
    },
    {
        "Postcode": "80100",
        "Location": "Jalan Wadi Hassan",
        "Post_Office": "Johor Bahru",
        "State": "Johor"
    },
    {
        "Postcode": "80100",
        "Location": "Jalan Wirawan",
        "Post_Office": "Johor Bahru",
        "State": "Johor"
    },
    {
        "Postcode": "80100",
        "Location": "Jalan Yahya Awal",
        "Post_Office": "Johor Bahru",
        "State": "Johor"
    },
    {
        "Postcode": "80100",
        "Location": "Jalan Yusof Taha",
        "Post_Office": "Johor Bahru",
        "State": "Johor"
    },
    {
        "Postcode": "80100",
        "Location": "Kampung Chek Ami",
        "Post_Office": "Johor Bahru",
        "State": "Johor"
    },
    {
        "Postcode": "80100",
        "Location": "Kampung Habib Hassan",
        "Post_Office": "Johor Bahru",
        "State": "Johor"
    },
    {
        "Postcode": "80100",
        "Location": "Kampung Mahmodiah",
        "Post_Office": "Johor Bahru",
        "State": "Johor"
    },
    {
        "Postcode": "80100",
        "Location": "Kampung Mohd Amin",
        "Post_Office": "Johor Bahru",
        "State": "Johor"
    },
    {
        "Postcode": "80100",
        "Location": "Kampung Ngee Heng",
        "Post_Office": "Johor Bahru",
        "State": "Johor"
    },
    {
        "Postcode": "80100",
        "Location": "Kampung Nong Chik",
        "Post_Office": "Johor Bahru",
        "State": "Johor"
    },
    {
        "Postcode": "80100",
        "Location": "Kampung Tarom",
        "Post_Office": "Johor Bahru",
        "State": "Johor"
    },
    {
        "Postcode": "80100",
        "Location": "Kampung Wadi Hassan",
        "Post_Office": "Johor Bahru",
        "State": "Johor"
    },
    {
        "Postcode": "80100",
        "Location": "Kampung Yahya Awal",
        "Post_Office": "Johor Bahru",
        "State": "Johor"
    },
    {
        "Postcode": "80100",
        "Location": "Kondominium Petrie",
        "Post_Office": "Johor Bahru",
        "State": "Johor"
    },
    {
        "Postcode": "80100",
        "Location": "Taman Kolam Air",
        "Post_Office": "Johor Bahru",
        "State": "Johor"
    },
    {
        "Postcode": "80100",
        "Location": "Taman Nong Chik",
        "Post_Office": "Johor Bahru",
        "State": "Johor"
    },
    {
        "Postcode": "80100",
        "Location": "Jalan Dato Hassan",
        "Post_Office": "Johor Bahru",
        "State": "Johor"
    },
    {
        "Postcode": "80100",
        "Location": "Jalan Mohd Amin",
        "Post_Office": "Johor Bahru",
        "State": "Johor"
    },
    {
        "Postcode": "80100",
        "Location": "Kampung Baharu",
        "Post_Office": "Johor Bahru",
        "State": "Johor"
    },
    {
        "Postcode": "80100",
        "Location": "Kampung Jawa",
        "Post_Office": "Johor Bahru",
        "State": "Johor"
    }
]
