[
    {
        "Postcode": "80150",
        "Location": "Jalan Sekolah",
        "Post_Office": "Johor Bahru",
        "State": "Johor"
    },
    {
        "Postcode": "80150",
        "Location": "Kampung Bakar Batu",
        "Post_Office": "Johor Bahru",
        "State": "Johor"
    },
    {
        "Postcode": "80150",
        "Location": "Jalan Baldu 1",
        "Post_Office": "Johor Bahru",
        "State": "Johor"
    },
    {
        "Postcode": "80150",
        "Location": "Jalan Baldu 2",
        "Post_Office": "Johor Bahru",
        "State": "Johor"
    },
    {
        "Postcode": "80150",
        "Location": "Jalan Baldu 3",
        "Post_Office": "Johor Bahru",
        "State": "Johor"
    },
    {
        "Postcode": "80150",
        "Location": "Jalan Baldu 4",
        "Post_Office": "Johor Bahru",
        "State": "Johor"
    },
    {
        "Postcode": "80150",
        "Location": "Jalan Baldu 5",
        "Post_Office": "Johor Bahru",
        "State": "Johor"
    },
    {
        "Postcode": "80150",
        "Location": "Jalan Benang 1",
        "Post_Office": "Johor Bahru",
        "State": "Johor"
    },
    {
        "Postcode": "80150",
        "Location": "Jalan Benang 2",
        "Post_Office": "Johor Bahru",
        "State": "Johor"
    },
    {
        "Postcode": "80150",
        "Location": "Jalan Benang 3",
        "Post_Office": "Johor Bahru",
        "State": "Johor"
    },
    {
        "Postcode": "80150",
        "Location": "Jalan Benang 4",
        "Post_Office": "Johor Bahru",
        "State": "Johor"
    },
    {
        "Postcode": "80150",
        "Location": "Jalan Benang 5",
        "Post_Office": "Johor Bahru",
        "State": "Johor"
    },
    {
        "Postcode": "80150",
        "Location": "Jalan Benang 6",
        "Post_Office": "Johor Bahru",
        "State": "Johor"
    },
    {
        "Postcode": "80150",
        "Location": "Jalan Kasa 1",
        "Post_Office": "Johor Bahru",
        "State": "Johor"
    },
    {
        "Postcode": "80150",
        "Location": "Jalan Kasa 10",
        "Post_Office": "Johor Bahru",
        "State": "Johor"
    },
    {
        "Postcode": "80150",
        "Location": "Jalan Kasa 11",
        "Post_Office": "Johor Bahru",
        "State": "Johor"
    },
    {
        "Postcode": "80150",
        "Location": "Jalan Kasa 12",
        "Post_Office": "Johor Bahru",
        "State": "Johor"
    },
    {
        "Postcode": "80150",
        "Location": "Jalan Kasa 13",
        "Post_Office": "Johor Bahru",
        "State": "Johor"
    },
    {
        "Postcode": "80150",
        "Location": "Jalan Kasa 14",
        "Post_Office": "Johor Bahru",
        "State": "Johor"
    },
    {
        "Postcode": "80150",
        "Location": "Jalan Kasa 2",
        "Post_Office": "Johor Bahru",
        "State": "Johor"
    },
    {
        "Postcode": "80150",
        "Location": "Jalan Kasa 3",
        "Post_Office": "Johor Bahru",
        "State": "Johor"
    },
    {
        "Postcode": "80150",
        "Location": "Jalan Kasa 4",
        "Post_Office": "Johor Bahru",
        "State": "Johor"
    },
    {
        "Postcode": "80150",
        "Location": "Jalan Kasa 5",
        "Post_Office": "Johor Bahru",
        "State": "Johor"
    },
    {
        "Postcode": "80150",
        "Location": "Jalan Kasa 6",
        "Post_Office": "Johor Bahru",
        "State": "Johor"
    },
    {
        "Postcode": "80150",
        "Location": "Jalan Kasa 7",
        "Post_Office": "Johor Bahru",
        "State": "Johor"
    },
    {
        "Postcode": "80150",
        "Location": "Jalan Kasa 8",
        "Post_Office": "Johor Bahru",
        "State": "Johor"
    },
    {
        "Postcode": "80150",
        "Location": "Jalan Kasa 9",
        "Post_Office": "Johor Bahru",
        "State": "Johor"
    },
    {
        "Postcode": "80150",
        "Location": "Jalan Songket 1",
        "Post_Office": "Johor Bahru",
        "State": "Johor"
    },
    {
        "Postcode": "80150",
        "Location": "Jalan Songket 10",
        "Post_Office": "Johor Bahru",
        "State": "Johor"
    },
    {
        "Postcode": "80150",
        "Location": "Jalan Songket 11",
        "Post_Office": "Johor Bahru",
        "State": "Johor"
    },
    {
        "Postcode": "80150",
        "Location": "Jalan Songket 12",
        "Post_Office": "Johor Bahru",
        "State": "Johor"
    },
    {
        "Postcode": "80150",
        "Location": "Jalan Songket 2",
        "Post_Office": "Johor Bahru",
        "State": "Johor"
    },
    {
        "Postcode": "80150",
        "Location": "Jalan Songket 3",
        "Post_Office": "Johor Bahru",
        "State": "Johor"
    },
    {
        "Postcode": "80150",
        "Location": "Jalan Songket 4",
        "Post_Office": "Johor Bahru",
        "State": "Johor"
    },
    {
        "Postcode": "80150",
        "Location": "Jalan Songket 5",
        "Post_Office": "Johor Bahru",
        "State": "Johor"
    },
    {
        "Postcode": "80150",
        "Location": "Jalan Songket 6",
        "Post_Office": "Johor Bahru",
        "State": "Johor"
    },
    {
        "Postcode": "80150",
        "Location": "Jalan Songket 7",
        "Post_Office": "Johor Bahru",
        "State": "Johor"
    },
    {
        "Postcode": "80150",
        "Location": "Jalan Songket 8",
        "Post_Office": "Johor Bahru",
        "State": "Johor"
    },
    {
        "Postcode": "80150",
        "Location": "Jalan Songket 9",
        "Post_Office": "Johor Bahru",
        "State": "Johor"
    },
    {
        "Postcode": "80150",
        "Location": "Jalan Sutera 1",
        "Post_Office": "Johor Bahru",
        "State": "Johor"
    },
    {
        "Postcode": "80150",
        "Location": "Jalan Sutera 10",
        "Post_Office": "Johor Bahru",
        "State": "Johor"
    },
    {
        "Postcode": "80150",
        "Location": "Jalan Sutera 11",
        "Post_Office": "Johor Bahru",
        "State": "Johor"
    },
    {
        "Postcode": "80150",
        "Location": "Jalan Sutera 2",
        "Post_Office": "Johor Bahru",
        "State": "Johor"
    },
    {
        "Postcode": "80150",
        "Location": "Jalan Sutera 3",
        "Post_Office": "Johor Bahru",
        "State": "Johor"
    },
    {
        "Postcode": "80150",
        "Location": "Jalan Sutera 4",
        "Post_Office": "Johor Bahru",
        "State": "Johor"
    },
    {
        "Postcode": "80150",
        "Location": "Jalan Sutera 5",
        "Post_Office": "Johor Bahru",
        "State": "Johor"
    },
    {
        "Postcode": "80150",
        "Location": "Jalan Sutera 6",
        "Post_Office": "Johor Bahru",
        "State": "Johor"
    },
    {
        "Postcode": "80150",
        "Location": "Jalan Sutera 7",
        "Post_Office": "Johor Bahru",
        "State": "Johor"
    },
    {
        "Postcode": "80150",
        "Location": "Jalan Sutera 8",
        "Post_Office": "Johor Bahru",
        "State": "Johor"
    },
    {
        "Postcode": "80150",
        "Location": "Jalan Sutera 9",
        "Post_Office": "Johor Bahru",
        "State": "Johor"
    },
    {
        "Postcode": "80150",
        "Location": "Bayu Marina",
        "Post_Office": "Johor Bahru",
        "State": "Johor"
    },
    {
        "Postcode": "80150",
        "Location": "Perumahan Rakyat Iskandar",
        "Post_Office": "Johor Bahru",
        "State": "Johor"
    },
    {
        "Postcode": "80150",
        "Location": "Taman Seri Setanggi",
        "Post_Office": "Johor Bahru",
        "State": "Johor"
    },
    {
        "Postcode": "80150",
        "Location": "Bangunan Daiman",
        "Post_Office": "Johor Bahru",
        "State": "Johor"
    },
    {
        "Postcode": "80150",
        "Location": "Jalan Bakar Batu",
        "Post_Office": "Johor Bahru",
        "State": "Johor"
    },
    {
        "Postcode": "80150",
        "Location": "Jalan Baldu",
        "Post_Office": "Johor Bahru",
        "State": "Johor"
    },
    {
        "Postcode": "80150",
        "Location": "Jalan Batik",
        "Post_Office": "Johor Bahru",
        "State": "Johor"
    },
    {
        "Postcode": "80150",
        "Location": "Jalan Batik 1",
        "Post_Office": "Johor Bahru",
        "State": "Johor"
    },
    {
        "Postcode": "80150",
        "Location": "Jalan Benang",
        "Post_Office": "Johor Bahru",
        "State": "Johor"
    },
    {
        "Postcode": "80150",
        "Location": "Jalan Dewasa",
        "Post_Office": "Johor Bahru",
        "State": "Johor"
    },
    {
        "Postcode": "80150",
        "Location": "Jalan Jambatan",
        "Post_Office": "Johor Bahru",
        "State": "Johor"
    },
    {
        "Postcode": "80150",
        "Location": "Jalan Kasa",
        "Post_Office": "Johor Bahru",
        "State": "Johor"
    },
    {
        "Postcode": "80150",
        "Location": "Jalan Kubur",
        "Post_Office": "Johor Bahru",
        "State": "Johor"
    },
    {
        "Postcode": "80150",
        "Location": "Jalan Madrasah",
        "Post_Office": "Johor Bahru",
        "State": "Johor"
    },
    {
        "Postcode": "80150",
        "Location": "Jalan Pantai",
        "Post_Office": "Johor Bahru",
        "State": "Johor"
    },
    {
        "Postcode": "80150",
        "Location": "Jalan Songket",
        "Post_Office": "Johor Bahru",
        "State": "Johor"
    },
    {
        "Postcode": "80150",
        "Location": "Jalan Sulam",
        "Post_Office": "Johor Bahru",
        "State": "Johor"
    },
    {
        "Postcode": "80150",
        "Location": "Jalan Sutera",
        "Post_Office": "Johor Bahru",
        "State": "Johor"
    },
    {
        "Postcode": "80150",
        "Location": "Kompleks Sentosa",
        "Post_Office": "Johor Bahru",
        "State": "Johor"
    },
    {
        "Postcode": "80150",
        "Location": "Taman Bayu Puteri",
        "Post_Office": "Johor Bahru",
        "State": "Johor"
    },
    {
        "Postcode": "80150",
        "Location": "Taman Perumahan Rakyat Sri Iskandar",
        "Post_Office": "Johor Bahru",
        "State": "Johor"
    },
    {
        "Postcode": "80150",
        "Location": "Taman Sri Stulang",
        "Post_Office": "Johor Bahru",
        "State": "Johor"
    },
    {
        "Postcode": "80150",
        "Location": "Persiaran Southkey 1",
        "Post_Office": "Johor Bahru",
        "State": "Johor"
    },
    {
        "Postcode": "80150",
        "Location": "Kota Southkey",
        "Post_Office": "Johor Bahru",
        "State": "Johor"
    },
    {
        "Postcode": "80150",
        "Location": "Taman Sentosa",
        "Post_Office": "Johor Bahru",
        "State": "Johor"
    }
]
