[
    {
        "Postcode": "80200",
        "Location": "Jalan Jeram",
        "Post_Office": "Johor Bahru",
        "State": "Johor"
    },
    {
        "Postcode": "80200",
        "Location": "Jalan Tun Abdul Razak ",
        "Post_Office": "Johor Bahru",
        "State": "Johor"
    },
    {
        "Postcode": "80200",
        "Location": "Taman Gembira",
        "Post_Office": "Johor Bahru",
        "State": "Johor"
    },
    {
        "Postcode": "80200",
        "Location": "Jalan Lembah 1",
        "Post_Office": "Johor Bahru",
        "State": "Johor"
    },
    {
        "Postcode": "80200",
        "Location": "Jalan Lembah 2",
        "Post_Office": "Johor Bahru",
        "State": "Johor"
    },
    {
        "Postcode": "80200",
        "Location": "Jalan Lembah 3",
        "Post_Office": "Johor Bahru",
        "State": "Johor"
    },
    {
        "Postcode": "80200",
        "Location": "Jalan Lembah 4",
        "Post_Office": "Johor Bahru",
        "State": "Johor"
    },
    {
        "Postcode": "80200",
        "Location": "Jalan Lembah 5",
        "Post_Office": "Johor Bahru",
        "State": "Johor"
    },
    {
        "Postcode": "80200",
        "Location": "Jalan Mesra",
        "Post_Office": "Johor Bahru",
        "State": "Johor"
    },
    {
        "Postcode": "80200",
        "Location": "Jalan Tasek",
        "Post_Office": "Johor Bahru",
        "State": "Johor"
    },
    {
        "Postcode": "80200",
        "Location": "Country Garden Danga Bay",
        "Post_Office": "Johor Bahru",
        "State": "Johor"
    },
    {
        "Postcode": "80200",
        "Location": "Jalan Jeram 1",
        "Post_Office": "Johor Bahru",
        "State": "Johor"
    },
    {
        "Postcode": "80200",
        "Location": "Jalan Jeram 2",
        "Post_Office": "Johor Bahru",
        "State": "Johor"
    },
    {
        "Postcode": "80200",
        "Location": "Jalan Straits View 1",
        "Post_Office": "Johor Bahru",
        "State": "Johor"
    },
    {
        "Postcode": "80200",
        "Location": "Jalan Straits View 2",
        "Post_Office": "Johor Bahru",
        "State": "Johor"
    },
    {
        "Postcode": "80200",
        "Location": "Jalan Straits View 3",
        "Post_Office": "Johor Bahru",
        "State": "Johor"
    },
    {
        "Postcode": "80200",
        "Location": "Jalan Straits View 4",
        "Post_Office": "Johor Bahru",
        "State": "Johor"
    },
    {
        "Postcode": "80200",
        "Location": "Jalan Straits View 5",
        "Post_Office": "Johor Bahru",
        "State": "Johor"
    },
    {
        "Postcode": "80200",
        "Location": "Jalan Suasa 1",
        "Post_Office": "Johor Bahru",
        "State": "Johor"
    },
    {
        "Postcode": "80200",
        "Location": "Jalan Suasa 2",
        "Post_Office": "Johor Bahru",
        "State": "Johor"
    },
    {
        "Postcode": "80200",
        "Location": "Jalan Suasa 3",
        "Post_Office": "Johor Bahru",
        "State": "Johor"
    },
    {
        "Postcode": "80200",
        "Location": "Jalan Suasa 4",
        "Post_Office": "Johor Bahru",
        "State": "Johor"
    },
    {
        "Postcode": "80200",
        "Location": "Jalan Suasa 5",
        "Post_Office": "Johor Bahru",
        "State": "Johor"
    },
    {
        "Postcode": "80200",
        "Location": "Jalan Tasek 1",
        "Post_Office": "Johor Bahru",
        "State": "Johor"
    },
    {
        "Postcode": "80200",
        "Location": "Jalan Tasek 2",
        "Post_Office": "Johor Bahru",
        "State": "Johor"
    },
    {
        "Postcode": "80200",
        "Location": "Jalan Tudor Drive",
        "Post_Office": "Johor Bahru",
        "State": "Johor"
    },
    {
        "Postcode": "80200",
        "Location": "Jalan Utama Jgcc",
        "Post_Office": "Johor Bahru",
        "State": "Johor"
    },
    {
        "Postcode": "80200",
        "Location": "Danga Bay (Teluk Danga)",
        "Post_Office": "Johor Bahru",
        "State": "Johor"
    },
    {
        "Postcode": "80200",
        "Location": "Istana Bukit Serene",
        "Post_Office": "Johor Bahru",
        "State": "Johor"
    },
    {
        "Postcode": "80200",
        "Location": "Jalan Besi Kawi",
        "Post_Office": "Johor Bahru",
        "State": "Johor"
    },
    {
        "Postcode": "80200",
        "Location": "Jalan Cantek",
        "Post_Office": "Johor Bahru",
        "State": "Johor"
    },
    {
        "Postcode": "80200",
        "Location": "Jalan Cantum",
        "Post_Office": "Johor Bahru",
        "State": "Johor"
    },
    {
        "Postcode": "80200",
        "Location": "Jalan Danau",
        "Post_Office": "Johor Bahru",
        "State": "Johor"
    },
    {
        "Postcode": "80200",
        "Location": "Jalan Gangsa",
        "Post_Office": "Johor Bahru",
        "State": "Johor"
    },
    {
        "Postcode": "80200",
        "Location": "Jalan Glasiar",
        "Post_Office": "Johor Bahru",
        "State": "Johor"
    },
    {
        "Postcode": "80200",
        "Location": "Jalan Kolam",
        "Post_Office": "Johor Bahru",
        "State": "Johor"
    },
    {
        "Postcode": "80200",
        "Location": "Jalan Larkin",
        "Post_Office": "Johor Bahru",
        "State": "Johor"
    },
    {
        "Postcode": "80200",
        "Location": "Jalan Lembah",
        "Post_Office": "Johor Bahru",
        "State": "Johor"
    },
    {
        "Postcode": "80200",
        "Location": "Jalan Loyang",
        "Post_Office": "Johor Bahru",
        "State": "Johor"
    },
    {
        "Postcode": "80200",
        "Location": "Jalan Mas",
        "Post_Office": "Johor Bahru",
        "State": "Johor"
    },
    {
        "Postcode": "80200",
        "Location": "Jalan Mas 1",
        "Post_Office": "Johor Bahru",
        "State": "Johor"
    },
    {
        "Postcode": "80200",
        "Location": "Jalan Peduka",
        "Post_Office": "Johor Bahru",
        "State": "Johor"
    },
    {
        "Postcode": "80200",
        "Location": "Jalan Perak",
        "Post_Office": "Johor Bahru",
        "State": "Johor"
    },
    {
        "Postcode": "80200",
        "Location": "Jalan Sepoi",
        "Post_Office": "Johor Bahru",
        "State": "Johor"
    },
    {
        "Postcode": "80200",
        "Location": "Jalan Serama",
        "Post_Office": "Johor Bahru",
        "State": "Johor"
    },
    {
        "Postcode": "80200",
        "Location": "Jalan Skudai",
        "Post_Office": "Johor Bahru",
        "State": "Johor"
    },
    {
        "Postcode": "80200",
        "Location": "Jalan Straits View",
        "Post_Office": "Johor Bahru",
        "State": "Johor"
    },
    {
        "Postcode": "80200",
        "Location": "Jalan Suasa",
        "Post_Office": "Johor Bahru",
        "State": "Johor"
    },
    {
        "Postcode": "80200",
        "Location": "Jalan Tahar",
        "Post_Office": "Johor Bahru",
        "State": "Johor"
    },
    {
        "Postcode": "80200",
        "Location": "Jalan Tangki Ayer",
        "Post_Office": "Johor Bahru",
        "State": "Johor"
    },
    {
        "Postcode": "80200",
        "Location": "Jalan Tasek Utara",
        "Post_Office": "Johor Bahru",
        "State": "Johor"
    },
    {
        "Postcode": "80200",
        "Location": "Jalan Tembaga",
        "Post_Office": "Johor Bahru",
        "State": "Johor"
    },
    {
        "Postcode": "80200",
        "Location": "Jalan Tengku Putri",
        "Post_Office": "Johor Bahru",
        "State": "Johor"
    },
    {
        "Postcode": "80200",
        "Location": "Jalan Teruna",
        "Post_Office": "Johor Bahru",
        "State": "Johor"
    },
    {
        "Postcode": "80200",
        "Location": "Jalan Timah Sari",
        "Post_Office": "Johor Bahru",
        "State": "Johor"
    },
    {
        "Postcode": "80200",
        "Location": "Jalan Tun Abd Razak ",
        "Post_Office": "Johor Bahru",
        "State": "Johor"
    },
    {
        "Postcode": "80200",
        "Location": "Jalan Ulu Ayer Molek",
        "Post_Office": "Johor Bahru",
        "State": "Johor"
    },
    {
        "Postcode": "80200",
        "Location": "Jalan Waspada",
        "Post_Office": "Johor Bahru",
        "State": "Johor"
    },
    {
        "Postcode": "80200",
        "Location": "Jalan Wira",
        "Post_Office": "Johor Bahru",
        "State": "Johor"
    },
    {
        "Postcode": "80200",
        "Location": "Jalan Wisata",
        "Post_Office": "Johor Bahru",
        "State": "Johor"
    },
    {
        "Postcode": "80200",
        "Location": "Kampung Sungai Melayu",
        "Post_Office": "Johor Bahru",
        "State": "Johor"
    },
    {
        "Postcode": "80200",
        "Location": "Kondo Tanjung Petri",
        "Post_Office": "Johor Bahru",
        "State": "Johor"
    },
    {
        "Postcode": "80200",
        "Location": "Sungai Melayu",
        "Post_Office": "Johor Bahru",
        "State": "Johor"
    },
    {
        "Postcode": "80200",
        "Location": "Taman Coronation Park",
        "Post_Office": "Johor Bahru",
        "State": "Johor"
    },
    {
        "Postcode": "80200",
        "Location": "Taman Fresh Breeze",
        "Post_Office": "Johor Bahru",
        "State": "Johor"
    },
    {
        "Postcode": "80200",
        "Location": "Taman Imigresen",
        "Post_Office": "Johor Bahru",
        "State": "Johor"
    },
    {
        "Postcode": "80200",
        "Location": "Taman Selat Tebrau",
        "Post_Office": "Johor Bahru",
        "State": "Johor"
    },
    {
        "Postcode": "80200",
        "Location": "Taman Straits View",
        "Post_Office": "Johor Bahru",
        "State": "Johor"
    },
    {
        "Postcode": "80200",
        "Location": "Taman Tasek Utara",
        "Post_Office": "Johor Bahru",
        "State": "Johor"
    },
    {
        "Postcode": "80200",
        "Location": "Taman Tengku Molek",
        "Post_Office": "Johor Bahru",
        "State": "Johor"
    },
    {
        "Postcode": "80200",
        "Location": "Vista Height",
        "Post_Office": "Johor Bahru",
        "State": "Johor"
    },
    {
        "Postcode": "80200",
        "Location": "Taman Merdeka",
        "Post_Office": "Johor Bahru",
        "State": "Johor"
    },
    {
        "Postcode": "80200",
        "Location": "Taman Bakti",
        "Post_Office": "Johor Bahru",
        "State": "Johor"
    },
    {
        "Postcode": "80200",
        "Location": "Taman Tasek",
        "Post_Office": "Johor Bahru",
        "State": "Johor"
    }
]
