[
    {
        "Postcode": "80350",
        "Location": "Jalan Merpati",
        "Post_Office": "Johor Bahru",
        "State": "Johor"
    },
    {
        "Postcode": "80350",
        "Location": "Jalan Bakti",
        "Post_Office": "Johor Bahru",
        "State": "Johor"
    },
    {
        "Postcode": "80350",
        "Location": "Jalan Bangau",
        "Post_Office": "Johor Bahru",
        "State": "Johor"
    },
    {
        "Postcode": "80350",
        "Location": "Jalan Cenderawasih",
        "Post_Office": "Johor Bahru",
        "State": "Johor"
    },
    {
        "Postcode": "80350",
        "Location": "Jalan Helang",
        "Post_Office": "Johor Bahru",
        "State": "Johor"
    },
    {
        "Postcode": "80350",
        "Location": "Jalan Sentosa ",
        "Post_Office": "Johor Bahru",
        "State": "Johor"
    },
    {
        "Postcode": "80350",
        "Location": "Jalan Murai",
        "Post_Office": "Johor Bahru",
        "State": "Johor"
    },
    {
        "Postcode": "80350",
        "Location": "Jalan Padi Makmur",
        "Post_Office": "Johor Bahru",
        "State": "Johor"
    },
    {
        "Postcode": "80350",
        "Location": "Jalan Punai",
        "Post_Office": "Johor Bahru",
        "State": "Johor"
    },
    {
        "Postcode": "80350",
        "Location": "Jalan Rajawali",
        "Post_Office": "Johor Bahru",
        "State": "Johor"
    },
    {
        "Postcode": "80350",
        "Location": "Jalan Serindit",
        "Post_Office": "Johor Bahru",
        "State": "Johor"
    },
    {
        "Postcode": "80350",
        "Location": "Jalan Tiong",
        "Post_Office": "Johor Bahru",
        "State": "Johor"
    },
    {
        "Postcode": "80350",
        "Location": "Kampung Aman",
        "Post_Office": "Johor Bahru",
        "State": "Johor"
    },
    {
        "Postcode": "80350",
        "Location": "Kawasan Perindustrian Larkin",
        "Post_Office": "Johor Bahru",
        "State": "Johor"
    },
    {
        "Postcode": "80350",
        "Location": "Kampung Kastam",
        "Post_Office": "Johor Bahru",
        "State": "Johor"
    },
    {
        "Postcode": "80350",
        "Location": "Larkin",
        "Post_Office": "Johor Bahru",
        "State": "Johor"
    },
    {
        "Postcode": "80350",
        "Location": "Perumahan Kastam",
        "Post_Office": "Johor Bahru",
        "State": "Johor"
    },
    {
        "Postcode": "80350",
        "Location": "Perumahan Persinggahan Larkin",
        "Post_Office": "Johor Bahru",
        "State": "Johor"
    },
    {
        "Postcode": "80350",
        "Location": "Taman Dataran Larkin",
        "Post_Office": "Johor Bahru",
        "State": "Johor"
    },
    {
        "Postcode": "80350",
        "Location": "Taman Larkin Idaman",
        "Post_Office": "Johor Bahru",
        "State": "Johor"
    },
    {
        "Postcode": "80350",
        "Location": "Taman Sinar Harapan",
        "Post_Office": "Johor Bahru",
        "State": "Johor"
    },
    {
        "Postcode": "80350",
        "Location": "Terminal Larkin",
        "Post_Office": "Johor Bahru",
        "State": "Johor"
    },
    {
        "Postcode": "80350",
        "Location": "Aman Larkin",
        "Post_Office": "Johor Bahru",
        "State": "Johor"
    },
    {
        "Postcode": "80350",
        "Location": "Apartment Serantau Baru",
        "Post_Office": "Johor Bahru",
        "State": "Johor"
    },
    {
        "Postcode": "80350",
        "Location": "Flat Larkin",
        "Post_Office": "Johor Bahru",
        "State": "Johor"
    },
    {
        "Postcode": "80350",
        "Location": "Jalan Ahad",
        "Post_Office": "Johor Bahru",
        "State": "Johor"
    },
    {
        "Postcode": "80350",
        "Location": "Jalan Asa",
        "Post_Office": "Johor Bahru",
        "State": "Johor"
    },
    {
        "Postcode": "80350",
        "Location": "Jalan Asas",
        "Post_Office": "Johor Bahru",
        "State": "Johor"
    },
    {
        "Postcode": "80350",
        "Location": "Jalan Bayan",
        "Post_Office": "Johor Bahru",
        "State": "Johor"
    },
    {
        "Postcode": "80350",
        "Location": "Jalan Belatok",
        "Post_Office": "Johor Bahru",
        "State": "Johor"
    },
    {
        "Postcode": "80350",
        "Location": "Jalan Bunga Kenanga",
        "Post_Office": "Johor Bahru",
        "State": "Johor"
    },
    {
        "Postcode": "80350",
        "Location": "Jalan Cahaya",
        "Post_Office": "Johor Bahru",
        "State": "Johor"
    },
    {
        "Postcode": "80350",
        "Location": "Jalan Cenderasari",
        "Post_Office": "Johor Bahru",
        "State": "Johor"
    },
    {
        "Postcode": "80350",
        "Location": "Jalan Datin Halimah",
        "Post_Office": "Johor Bahru",
        "State": "Johor"
    },
    {
        "Postcode": "80350",
        "Location": "Jalan Dato Haji Abdullah Othman",
        "Post_Office": "Johor Bahru",
        "State": "Johor"
    },
    {
        "Postcode": "80350",
        "Location": "Jalan Dato Jaafar",
        "Post_Office": "Johor Bahru",
        "State": "Johor"
    },
    {
        "Postcode": "80350",
        "Location": "Jalan Dato Mohd Dom",
        "Post_Office": "Johor Bahru",
        "State": "Johor"
    },
    {
        "Postcode": "80350",
        "Location": "Jalan Dato Muhd Said Sulaiman",
        "Post_Office": "Johor Bahru",
        "State": "Johor"
    },
    {
        "Postcode": "80350",
        "Location": "Jalan Dewata",
        "Post_Office": "Johor Bahru",
        "State": "Johor"
    },
    {
        "Postcode": "80350",
        "Location": "Jalan Enggang",
        "Post_Office": "Johor Bahru",
        "State": "Johor"
    },
    {
        "Postcode": "80350",
        "Location": "Jalan Gagah",
        "Post_Office": "Johor Bahru",
        "State": "Johor"
    },
    {
        "Postcode": "80350",
        "Location": "Jalan Garuda",
        "Post_Office": "Johor Bahru",
        "State": "Johor"
    },
    {
        "Postcode": "80350",
        "Location": "Jalan Gembira",
        "Post_Office": "Johor Bahru",
        "State": "Johor"
    },
    {
        "Postcode": "80350",
        "Location": "Jalan Herman",
        "Post_Office": "Johor Bahru",
        "State": "Johor"
    },
    {
        "Postcode": "80350",
        "Location": "Jalan Insaf",
        "Post_Office": "Johor Bahru",
        "State": "Johor"
    },
    {
        "Postcode": "80350",
        "Location": "Jalan Isnin",
        "Post_Office": "Johor Bahru",
        "State": "Johor"
    },
    {
        "Postcode": "80350",
        "Location": "Jalan Jeladan",
        "Post_Office": "Johor Bahru",
        "State": "Johor"
    },
    {
        "Postcode": "80350",
        "Location": "Jalan Jelatek",
        "Post_Office": "Johor Bahru",
        "State": "Johor"
    },
    {
        "Postcode": "80350",
        "Location": "Jalan Jumaat",
        "Post_Office": "Johor Bahru",
        "State": "Johor"
    },
    {
        "Postcode": "80350",
        "Location": "Jalan Kakak Tua",
        "Post_Office": "Johor Bahru",
        "State": "Johor"
    },
    {
        "Postcode": "80350",
        "Location": "Jalan Kalicap",
        "Post_Office": "Johor Bahru",
        "State": "Johor"
    },
    {
        "Postcode": "80350",
        "Location": "Jalan Kasawari",
        "Post_Office": "Johor Bahru",
        "State": "Johor"
    },
    {
        "Postcode": "80350",
        "Location": "Jalan Kediri",
        "Post_Office": "Johor Bahru",
        "State": "Johor"
    },
    {
        "Postcode": "80350",
        "Location": "Jalan Kelok",
        "Post_Office": "Johor Bahru",
        "State": "Johor"
    },
    {
        "Postcode": "80350",
        "Location": "Jalan Kenari",
        "Post_Office": "Johor Bahru",
        "State": "Johor"
    },
    {
        "Postcode": "80350",
        "Location": "Jalan Ketitir",
        "Post_Office": "Johor Bahru",
        "State": "Johor"
    },
    {
        "Postcode": "80350",
        "Location": "Jalan Khamis",
        "Post_Office": "Johor Bahru",
        "State": "Johor"
    },
    {
        "Postcode": "80350",
        "Location": "Jalan Kilang",
        "Post_Office": "Johor Bahru",
        "State": "Johor"
    },
    {
        "Postcode": "80350",
        "Location": "Jalan Kukuh",
        "Post_Office": "Johor Bahru",
        "State": "Johor"
    },
    {
        "Postcode": "80350",
        "Location": "Jalan Langkasuka",
        "Post_Office": "Johor Bahru",
        "State": "Johor"
    },
    {
        "Postcode": "80350",
        "Location": "Jalan Lega",
        "Post_Office": "Johor Bahru",
        "State": "Johor"
    },
    {
        "Postcode": "80350",
        "Location": "Jalan Merak",
        "Post_Office": "Johor Bahru",
        "State": "Johor"
    },
    {
        "Postcode": "80350",
        "Location": "Jalan Merbah",
        "Post_Office": "Johor Bahru",
        "State": "Johor"
    },
    {
        "Postcode": "80350",
        "Location": "Jalan Merbok",
        "Post_Office": "Johor Bahru",
        "State": "Johor"
    },
    {
        "Postcode": "80350",
        "Location": "Jalan Murai Gajah",
        "Post_Office": "Johor Bahru",
        "State": "Johor"
    },
    {
        "Postcode": "80350",
        "Location": "Jalan Nuri",
        "Post_Office": "Johor Bahru",
        "State": "Johor"
    },
    {
        "Postcode": "80350",
        "Location": "Jalan Padi Murni",
        "Post_Office": "Johor Bahru",
        "State": "Johor"
    },
    {
        "Postcode": "80350",
        "Location": "Jalan Padu",
        "Post_Office": "Johor Bahru",
        "State": "Johor"
    },
    {
        "Postcode": "80350",
        "Location": "Jalan Pedoman",
        "Post_Office": "Johor Bahru",
        "State": "Johor"
    },
    {
        "Postcode": "80350",
        "Location": "Jalan Pergam",
        "Post_Office": "Johor Bahru",
        "State": "Johor"
    },
    {
        "Postcode": "80350",
        "Location": "Jalan Perling",
        "Post_Office": "Johor Bahru",
        "State": "Johor"
    },
    {
        "Postcode": "80350",
        "Location": "Jalan Petaling",
        "Post_Office": "Johor Bahru",
        "State": "Johor"
    },
    {
        "Postcode": "80350",
        "Location": "Jalan Pujaan",
        "Post_Office": "Johor Bahru",
        "State": "Johor"
    },
    {
        "Postcode": "80350",
        "Location": "Jalan Pungguk",
        "Post_Office": "Johor Bahru",
        "State": "Johor"
    },
    {
        "Postcode": "80350",
        "Location": "Jalan Puyuh",
        "Post_Office": "Johor Bahru",
        "State": "Johor"
    },
    {
        "Postcode": "80350",
        "Location": "Jalan Rabu",
        "Post_Office": "Johor Bahru",
        "State": "Johor"
    },
    {
        "Postcode": "80350",
        "Location": "Jalan Raja Udang",
        "Post_Office": "Johor Bahru",
        "State": "Johor"
    },
    {
        "Postcode": "80350",
        "Location": "Jalan Sabar",
        "Post_Office": "Johor Bahru",
        "State": "Johor"
    },
    {
        "Postcode": "80350",
        "Location": "Jalan Saksama",
        "Post_Office": "Johor Bahru",
        "State": "Johor"
    },
    {
        "Postcode": "80350",
        "Location": "Jalan Selasa",
        "Post_Office": "Johor Bahru",
        "State": "Johor"
    },
    {
        "Postcode": "80350",
        "Location": "Jalan Senggama",
        "Post_Office": "Johor Bahru",
        "State": "Johor"
    },
    {
        "Postcode": "80350",
        "Location": "Jalan Sukarela",
        "Post_Office": "Johor Bahru",
        "State": "Johor"
    },
    {
        "Postcode": "80350",
        "Location": "Jalan Tahana",
        "Post_Office": "Johor Bahru",
        "State": "Johor"
    },
    {
        "Postcode": "80350",
        "Location": "Jalan Tani",
        "Post_Office": "Johor Bahru",
        "State": "Johor"
    },
    {
        "Postcode": "80350",
        "Location": "Jalan Tara",
        "Post_Office": "Johor Bahru",
        "State": "Johor"
    },
    {
        "Postcode": "80350",
        "Location": "Jalan Taruka",
        "Post_Office": "Johor Bahru",
        "State": "Johor"
    },
    {
        "Postcode": "80350",
        "Location": "Jalan Tawakal",
        "Post_Office": "Johor Bahru",
        "State": "Johor"
    },
    {
        "Postcode": "80350",
        "Location": "Jalan Tempua",
        "Post_Office": "Johor Bahru",
        "State": "Johor"
    },
    {
        "Postcode": "80350",
        "Location": "Jalan Ungku Mohsin",
        "Post_Office": "Johor Bahru",
        "State": "Johor"
    },
    {
        "Postcode": "80350",
        "Location": "Jalan Upaya",
        "Post_Office": "Johor Bahru",
        "State": "Johor"
    },
    {
        "Postcode": "80350",
        "Location": "Kampung Dato Onn",
        "Post_Office": "Johor Bahru",
        "State": "Johor"
    },
    {
        "Postcode": "80350",
        "Location": "Kampung Kastam Larkin",
        "Post_Office": "Johor Bahru",
        "State": "Johor"
    },
    {
        "Postcode": "80350",
        "Location": "Kampung Muafakat",
        "Post_Office": "Johor Bahru",
        "State": "Johor"
    },
    {
        "Postcode": "80350",
        "Location": "Kampung Tahana",
        "Post_Office": "Johor Bahru",
        "State": "Johor"
    },
    {
        "Postcode": "80350",
        "Location": "Kampung Ungku Mohsin",
        "Post_Office": "Johor Bahru",
        "State": "Johor"
    },
    {
        "Postcode": "80350",
        "Location": "Kawasan Perindustrian Dato Onn",
        "Post_Office": "Johor Bahru",
        "State": "Johor"
    },
    {
        "Postcode": "80350",
        "Location": "Larkin Jaya",
        "Post_Office": "Johor Bahru",
        "State": "Johor"
    },
    {
        "Postcode": "80350",
        "Location": "Larkin Lama",
        "Post_Office": "Johor Bahru",
        "State": "Johor"
    },
    {
        "Postcode": "80350",
        "Location": "Larkin Perdana",
        "Post_Office": "Johor Bahru",
        "State": "Johor"
    },
    {
        "Postcode": "80350",
        "Location": "Lorong Serindit",
        "Post_Office": "Johor Bahru",
        "State": "Johor"
    },
    {
        "Postcode": "80350",
        "Location": "Pejabat Institut Penyelidikan Getah",
        "Post_Office": "Johor Bahru",
        "State": "Johor"
    },
    {
        "Postcode": "80350",
        "Location": "Taman Bistari Impian",
        "Post_Office": "Johor Bahru",
        "State": "Johor"
    },
    {
        "Postcode": "80350",
        "Location": "Taman Dato Onn",
        "Post_Office": "Johor Bahru",
        "State": "Johor"
    },
    {
        "Postcode": "80350",
        "Location": "Taman Desa Larkin",
        "Post_Office": "Johor Bahru",
        "State": "Johor"
    },
    {
        "Postcode": "80350",
        "Location": "Taman Larkin Jaya",
        "Post_Office": "Johor Bahru",
        "State": "Johor"
    },
    {
        "Postcode": "80350",
        "Location": "Taman Perbadanan Islam Datin Halimah",
        "Post_Office": "Johor Bahru",
        "State": "Johor"
    },
    {
        "Postcode": "80350",
        "Location": "Taman Perbadanan Islam Larkin",
        "Post_Office": "Johor Bahru",
        "State": "Johor"
    },
    {
        "Postcode": "80350",
        "Location": "Taman Larkin Perdana",
        "Post_Office": "Johor Bahru",
        "State": "Johor"
    },
    {
        "Postcode": "80350",
        "Location": "Taman Suria Muafakat",
        "Post_Office": "Johor Bahru",
        "State": "Johor"
    },
    {
        "Postcode": "80350",
        "Location": "Jalan Layang-Layang",
        "Post_Office": "Johor Bahru",
        "State": "Johor"
    },
    {
        "Postcode": "80350",
        "Location": "Jalan Terkukur",
        "Post_Office": "Johor Bahru",
        "State": "Johor"
    }
]
