[
    {
        "Postcode": "80400",
        "Location": "Taman Maju Jaya",
        "Post_Office": "Johor Bahru",
        "State": "Johor"
    },
    {
        "Postcode": "80400",
        "Location": "Jalan Maju",
        "Post_Office": "Johor Bahru",
        "State": "Johor"
    },
    {
        "Postcode": "80400",
        "Location": "Jalan Abiad 1",
        "Post_Office": "Johor Bahru",
        "State": "Johor"
    },
    {
        "Postcode": "80400",
        "Location": "Jalan Abiad 2",
        "Post_Office": "Johor Bahru",
        "State": "Johor"
    },
    {
        "Postcode": "80400",
        "Location": "Jalan Abiad 3",
        "Post_Office": "Johor Bahru",
        "State": "Johor"
    },
    {
        "Postcode": "80400",
        "Location": "Jalan Abiad 4",
        "Post_Office": "Johor Bahru",
        "State": "Johor"
    },
    {
        "Postcode": "80400",
        "Location": "Jalan Abiad 5",
        "Post_Office": "Johor Bahru",
        "State": "Johor"
    },
    {
        "Postcode": "80400",
        "Location": "Jalan Abiad 6",
        "Post_Office": "Johor Bahru",
        "State": "Johor"
    },
    {
        "Postcode": "80400",
        "Location": "Jalan Abiad 7",
        "Post_Office": "Johor Bahru",
        "State": "Johor"
    },
    {
        "Postcode": "80400",
        "Location": "Jalan Abiad 8",
        "Post_Office": "Johor Bahru",
        "State": "Johor"
    },
    {
        "Postcode": "80400",
        "Location": "Jalan Biru 1 ",
        "Post_Office": "Johor Bahru",
        "State": "Johor"
    },
    {
        "Postcode": "80400",
        "Location": "Jalan Biru 2",
        "Post_Office": "Johor Bahru",
        "State": "Johor"
    },
    {
        "Postcode": "80400",
        "Location": "Jalan Biru 3",
        "Post_Office": "Johor Bahru",
        "State": "Johor"
    },
    {
        "Postcode": "80400",
        "Location": "Jalan Biru 4 ",
        "Post_Office": "Johor Bahru",
        "State": "Johor"
    },
    {
        "Postcode": "80400",
        "Location": "Jalan Biru 5",
        "Post_Office": "Johor Bahru",
        "State": "Johor"
    },
    {
        "Postcode": "80400",
        "Location": "Jalan Biru 6 ",
        "Post_Office": "Johor Bahru",
        "State": "Johor"
    },
    {
        "Postcode": "80400",
        "Location": "Jalan Cermat 1",
        "Post_Office": "Johor Bahru",
        "State": "Johor"
    },
    {
        "Postcode": "80400",
        "Location": "Jalan Cermat 2",
        "Post_Office": "Johor Bahru",
        "State": "Johor"
    },
    {
        "Postcode": "80400",
        "Location": "Jalan Cermat 3",
        "Post_Office": "Johor Bahru",
        "State": "Johor"
    },
    {
        "Postcode": "80400",
        "Location": "Jalan Cermat 4",
        "Post_Office": "Johor Bahru",
        "State": "Johor"
    },
    {
        "Postcode": "80400",
        "Location": "Jalan Cermat 5",
        "Post_Office": "Johor Bahru",
        "State": "Johor"
    },
    {
        "Postcode": "80400",
        "Location": "Jalan Cermat 6",
        "Post_Office": "Johor Bahru",
        "State": "Johor"
    },
    {
        "Postcode": "80400",
        "Location": "Jalan Cermat 7",
        "Post_Office": "Johor Bahru",
        "State": "Johor"
    },
    {
        "Postcode": "80400",
        "Location": "Jalan Cermat 8",
        "Post_Office": "Johor Bahru",
        "State": "Johor"
    },
    {
        "Postcode": "80400",
        "Location": "Jalan Hijau 1",
        "Post_Office": "Johor Bahru",
        "State": "Johor"
    },
    {
        "Postcode": "80400",
        "Location": "Jalan Hijau 2",
        "Post_Office": "Johor Bahru",
        "State": "Johor"
    },
    {
        "Postcode": "80400",
        "Location": "Jalan Hijau 3",
        "Post_Office": "Johor Bahru",
        "State": "Johor"
    },
    {
        "Postcode": "80400",
        "Location": "Jalan Hijau Muda 1",
        "Post_Office": "Johor Bahru",
        "State": "Johor"
    },
    {
        "Postcode": "80400",
        "Location": "Jalan Hijau Muda 2",
        "Post_Office": "Johor Bahru",
        "State": "Johor"
    },
    {
        "Postcode": "80400",
        "Location": "Jalan Hijau Muda 3",
        "Post_Office": "Johor Bahru",
        "State": "Johor"
    },
    {
        "Postcode": "80400",
        "Location": "Jalan Hijau Muda 4",
        "Post_Office": "Johor Bahru",
        "State": "Johor"
    },
    {
        "Postcode": "80400",
        "Location": "Jalan Hijau Muda 5",
        "Post_Office": "Johor Bahru",
        "State": "Johor"
    },
    {
        "Postcode": "80400",
        "Location": "Jalan Hijau Muda 6",
        "Post_Office": "Johor Bahru",
        "State": "Johor"
    },
    {
        "Postcode": "80400",
        "Location": "Jalan Hijau Muda 7",
        "Post_Office": "Johor Bahru",
        "State": "Johor"
    },
    {
        "Postcode": "80400",
        "Location": "Jalan Hijau Muda 8",
        "Post_Office": "Johor Bahru",
        "State": "Johor"
    },
    {
        "Postcode": "80400",
        "Location": "Jalan Hijau Muda 9",
        "Post_Office": "Johor Bahru",
        "State": "Johor"
    },
    {
        "Postcode": "80400",
        "Location": "Jalan Jerau 1",
        "Post_Office": "Johor Bahru",
        "State": "Johor"
    },
    {
        "Postcode": "80400",
        "Location": "Jalan Jerau 10",
        "Post_Office": "Johor Bahru",
        "State": "Johor"
    },
    {
        "Postcode": "80400",
        "Location": "Jalan Jerau 11",
        "Post_Office": "Johor Bahru",
        "State": "Johor"
    },
    {
        "Postcode": "80400",
        "Location": "Jalan Jerau 2",
        "Post_Office": "Johor Bahru",
        "State": "Johor"
    },
    {
        "Postcode": "80400",
        "Location": "Jalan Jerau 3",
        "Post_Office": "Johor Bahru",
        "State": "Johor"
    },
    {
        "Postcode": "80400",
        "Location": "Jalan Jerau 4",
        "Post_Office": "Johor Bahru",
        "State": "Johor"
    },
    {
        "Postcode": "80400",
        "Location": "Jalan Jerau 5",
        "Post_Office": "Johor Bahru",
        "State": "Johor"
    },
    {
        "Postcode": "80400",
        "Location": "Jalan Jerau 6",
        "Post_Office": "Johor Bahru",
        "State": "Johor"
    },
    {
        "Postcode": "80400",
        "Location": "Jalan Jerau 7",
        "Post_Office": "Johor Bahru",
        "State": "Johor"
    },
    {
        "Postcode": "80400",
        "Location": "Jalan Jerau 8",
        "Post_Office": "Johor Bahru",
        "State": "Johor"
    },
    {
        "Postcode": "80400",
        "Location": "Jalan Jerau 9",
        "Post_Office": "Johor Bahru",
        "State": "Johor"
    },
    {
        "Postcode": "80400",
        "Location": "Jalan Jingga 1",
        "Post_Office": "Johor Bahru",
        "State": "Johor"
    },
    {
        "Postcode": "80400",
        "Location": "Jalan Jingga 2",
        "Post_Office": "Johor Bahru",
        "State": "Johor"
    },
    {
        "Postcode": "80400",
        "Location": "Jalan Jingga 3",
        "Post_Office": "Johor Bahru",
        "State": "Johor"
    },
    {
        "Postcode": "80400",
        "Location": "Jalan Jingga 4",
        "Post_Office": "Johor Bahru",
        "State": "Johor"
    },
    {
        "Postcode": "80400",
        "Location": "Jalan Jingga 5",
        "Post_Office": "Johor Bahru",
        "State": "Johor"
    },
    {
        "Postcode": "80400",
        "Location": "Jalan Kelabu 1",
        "Post_Office": "Johor Bahru",
        "State": "Johor"
    },
    {
        "Postcode": "80400",
        "Location": "Jalan Kelabu 2",
        "Post_Office": "Johor Bahru",
        "State": "Johor"
    },
    {
        "Postcode": "80400",
        "Location": "Jalan Kelabu 3",
        "Post_Office": "Johor Bahru",
        "State": "Johor"
    },
    {
        "Postcode": "80400",
        "Location": "Jalan Kelabu 4",
        "Post_Office": "Johor Bahru",
        "State": "Johor"
    },
    {
        "Postcode": "80400",
        "Location": "Jalan Kelabu 5",
        "Post_Office": "Johor Bahru",
        "State": "Johor"
    },
    {
        "Postcode": "80400",
        "Location": "Jalan Kelabu 6",
        "Post_Office": "Johor Bahru",
        "State": "Johor"
    },
    {
        "Postcode": "80400",
        "Location": "Jalan Kelabu 7",
        "Post_Office": "Johor Bahru",
        "State": "Johor"
    },
    {
        "Postcode": "80400",
        "Location": "Jalan Kuning 1",
        "Post_Office": "Johor Bahru",
        "State": "Johor"
    },
    {
        "Postcode": "80400",
        "Location": "Jalan Kuning 2",
        "Post_Office": "Johor Bahru",
        "State": "Johor"
    },
    {
        "Postcode": "80400",
        "Location": "Jalan Kuning 3",
        "Post_Office": "Johor Bahru",
        "State": "Johor"
    },
    {
        "Postcode": "80400",
        "Location": "Jalan Kuning 4",
        "Post_Office": "Johor Bahru",
        "State": "Johor"
    },
    {
        "Postcode": "80400",
        "Location": "Jalan Kuning Muda 1",
        "Post_Office": "Johor Bahru",
        "State": "Johor"
    },
    {
        "Postcode": "80400",
        "Location": "Jalan Kuning Muda 2",
        "Post_Office": "Johor Bahru",
        "State": "Johor"
    },
    {
        "Postcode": "80400",
        "Location": "Jalan Kuning Muda 3",
        "Post_Office": "Johor Bahru",
        "State": "Johor"
    },
    {
        "Postcode": "80400",
        "Location": "Jalan Kuning Muda 4",
        "Post_Office": "Johor Bahru",
        "State": "Johor"
    },
    {
        "Postcode": "80400",
        "Location": "Jalan Kuning Muda 5",
        "Post_Office": "Johor Bahru",
        "State": "Johor"
    },
    {
        "Postcode": "80400",
        "Location": "Jalan Kuning Muda 6",
        "Post_Office": "Johor Bahru",
        "State": "Johor"
    },
    {
        "Postcode": "80400",
        "Location": "Jalan Maju 1 ",
        "Post_Office": "Johor Bahru",
        "State": "Johor"
    },
    {
        "Postcode": "80400",
        "Location": "Jalan Maju 2",
        "Post_Office": "Johor Bahru",
        "State": "Johor"
    },
    {
        "Postcode": "80400",
        "Location": "Jalan Maju 3",
        "Post_Office": "Johor Bahru",
        "State": "Johor"
    },
    {
        "Postcode": "80400",
        "Location": "Jalan Maju 4",
        "Post_Office": "Johor Bahru",
        "State": "Johor"
    },
    {
        "Postcode": "80400",
        "Location": "Jalan Merah 1",
        "Post_Office": "Johor Bahru",
        "State": "Johor"
    },
    {
        "Postcode": "80400",
        "Location": "Jalan Merah 10",
        "Post_Office": "Johor Bahru",
        "State": "Johor"
    },
    {
        "Postcode": "80400",
        "Location": "Jalan Merah 11",
        "Post_Office": "Johor Bahru",
        "State": "Johor"
    },
    {
        "Postcode": "80400",
        "Location": "Jalan Merah 2",
        "Post_Office": "Johor Bahru",
        "State": "Johor"
    },
    {
        "Postcode": "80400",
        "Location": "Jalan Merah 3",
        "Post_Office": "Johor Bahru",
        "State": "Johor"
    },
    {
        "Postcode": "80400",
        "Location": "Jalan Merah 4",
        "Post_Office": "Johor Bahru",
        "State": "Johor"
    },
    {
        "Postcode": "80400",
        "Location": "Jalan Merah 5",
        "Post_Office": "Johor Bahru",
        "State": "Johor"
    },
    {
        "Postcode": "80400",
        "Location": "Jalan Merah 6",
        "Post_Office": "Johor Bahru",
        "State": "Johor"
    },
    {
        "Postcode": "80400",
        "Location": "Jalan Merah 7",
        "Post_Office": "Johor Bahru",
        "State": "Johor"
    },
    {
        "Postcode": "80400",
        "Location": "Jalan Merah 8",
        "Post_Office": "Johor Bahru",
        "State": "Johor"
    },
    {
        "Postcode": "80400",
        "Location": "Jalan Merah 9",
        "Post_Office": "Johor Bahru",
        "State": "Johor"
    },
    {
        "Postcode": "80400",
        "Location": "Jalan Nila 1",
        "Post_Office": "Johor Bahru",
        "State": "Johor"
    },
    {
        "Postcode": "80400",
        "Location": "Jalan Nila 2",
        "Post_Office": "Johor Bahru",
        "State": "Johor"
    },
    {
        "Postcode": "80400",
        "Location": "Jalan Nila 3",
        "Post_Office": "Johor Bahru",
        "State": "Johor"
    },
    {
        "Postcode": "80400",
        "Location": "Jalan Nila 4",
        "Post_Office": "Johor Bahru",
        "State": "Johor"
    },
    {
        "Postcode": "80400",
        "Location": "Jalan Nila 5",
        "Post_Office": "Johor Bahru",
        "State": "Johor"
    },
    {
        "Postcode": "80400",
        "Location": "Jalan Nila 6",
        "Post_Office": "Johor Bahru",
        "State": "Johor"
    },
    {
        "Postcode": "80400",
        "Location": "Jalan Nila 7",
        "Post_Office": "Johor Bahru",
        "State": "Johor"
    },
    {
        "Postcode": "80400",
        "Location": "Jalan Putih 1",
        "Post_Office": "Johor Bahru",
        "State": "Johor"
    },
    {
        "Postcode": "80400",
        "Location": "Jalan Putih 2",
        "Post_Office": "Johor Bahru",
        "State": "Johor"
    },
    {
        "Postcode": "80400",
        "Location": "Jalan Putih 3",
        "Post_Office": "Johor Bahru",
        "State": "Johor"
    },
    {
        "Postcode": "80400",
        "Location": "Jalan Putih 4",
        "Post_Office": "Johor Bahru",
        "State": "Johor"
    },
    {
        "Postcode": "80400",
        "Location": "Jalan Putih 5",
        "Post_Office": "Johor Bahru",
        "State": "Johor"
    },
    {
        "Postcode": "80400",
        "Location": "Jalan Seri Pelangi 1 ",
        "Post_Office": "Johor Bahru",
        "State": "Johor"
    },
    {
        "Postcode": "80400",
        "Location": "Jalan Seri Pelangi 2",
        "Post_Office": "Johor Bahru",
        "State": "Johor"
    },
    {
        "Postcode": "80400",
        "Location": "Jalan Tekun 1",
        "Post_Office": "Johor Bahru",
        "State": "Johor"
    },
    {
        "Postcode": "80400",
        "Location": "Jalan Tekun 2",
        "Post_Office": "Johor Bahru",
        "State": "Johor"
    },
    {
        "Postcode": "80400",
        "Location": "Jalan Tekun 3",
        "Post_Office": "Johor Bahru",
        "State": "Johor"
    },
    {
        "Postcode": "80400",
        "Location": "Jalan Tekun 4",
        "Post_Office": "Johor Bahru",
        "State": "Johor"
    },
    {
        "Postcode": "80400",
        "Location": "Jalan Tekun 5",
        "Post_Office": "Johor Bahru",
        "State": "Johor"
    },
    {
        "Postcode": "80400",
        "Location": "Jalan Tekun 6",
        "Post_Office": "Johor Bahru",
        "State": "Johor"
    },
    {
        "Postcode": "80400",
        "Location": "Jalan Ungu 1",
        "Post_Office": "Johor Bahru",
        "State": "Johor"
    },
    {
        "Postcode": "80400",
        "Location": "Jalan Ungu 2",
        "Post_Office": "Johor Bahru",
        "State": "Johor"
    },
    {
        "Postcode": "80400",
        "Location": "Jalan Ungu 3",
        "Post_Office": "Johor Bahru",
        "State": "Johor"
    },
    {
        "Postcode": "80400",
        "Location": "Jalan Ungu 4",
        "Post_Office": "Johor Bahru",
        "State": "Johor"
    },
    {
        "Postcode": "80400",
        "Location": "Jalan Ungu 5",
        "Post_Office": "Johor Bahru",
        "State": "Johor"
    },
    {
        "Postcode": "80400",
        "Location": "Jalan Ungu 6",
        "Post_Office": "Johor Bahru",
        "State": "Johor"
    },
    {
        "Postcode": "80400",
        "Location": "Jalan Ungu 7",
        "Post_Office": "Johor Bahru",
        "State": "Johor"
    },
    {
        "Postcode": "80400",
        "Location": "Jalan Abiad",
        "Post_Office": "Johor Bahru",
        "State": "Johor"
    },
    {
        "Postcode": "80400",
        "Location": "Jalan Bahtera Dua",
        "Post_Office": "Johor Bahru",
        "State": "Johor"
    },
    {
        "Postcode": "80400",
        "Location": "Jalan Bersatu",
        "Post_Office": "Johor Bahru",
        "State": "Johor"
    },
    {
        "Postcode": "80400",
        "Location": "Jalan Biru Muda",
        "Post_Office": "Johor Bahru",
        "State": "Johor"
    },
    {
        "Postcode": "80400",
        "Location": "Jalan Hijau",
        "Post_Office": "Johor Bahru",
        "State": "Johor"
    },
    {
        "Postcode": "80400",
        "Location": "Jalan Hijau Muda",
        "Post_Office": "Johor Bahru",
        "State": "Johor"
    },
    {
        "Postcode": "80400",
        "Location": "Jalan Jaya",
        "Post_Office": "Johor Bahru",
        "State": "Johor"
    },
    {
        "Postcode": "80400",
        "Location": "Jalan Jerau",
        "Post_Office": "Johor Bahru",
        "State": "Johor"
    },
    {
        "Postcode": "80400",
        "Location": "Jalan Kuning",
        "Post_Office": "Johor Bahru",
        "State": "Johor"
    },
    {
        "Postcode": "80400",
        "Location": "Jalan Kuning Muda",
        "Post_Office": "Johor Bahru",
        "State": "Johor"
    },
    {
        "Postcode": "80400",
        "Location": "Jalan Merah",
        "Post_Office": "Johor Bahru",
        "State": "Johor"
    },
    {
        "Postcode": "80400",
        "Location": "Jalan Nila",
        "Post_Office": "Johor Bahru",
        "State": "Johor"
    },
    {
        "Postcode": "80400",
        "Location": "Jalan Perang",
        "Post_Office": "Johor Bahru",
        "State": "Johor"
    },
    {
        "Postcode": "80400",
        "Location": "Jalan Pingai",
        "Post_Office": "Johor Bahru",
        "State": "Johor"
    },
    {
        "Postcode": "80400",
        "Location": "Jalan Seri Pelangi",
        "Post_Office": "Johor Bahru",
        "State": "Johor"
    },
    {
        "Postcode": "80400",
        "Location": "Jalan Tekun",
        "Post_Office": "Johor Bahru",
        "State": "Johor"
    },
    {
        "Postcode": "80400",
        "Location": "Jalan Ungu",
        "Post_Office": "Johor Bahru",
        "State": "Johor"
    },
    {
        "Postcode": "80400",
        "Location": "Lorong Biru",
        "Post_Office": "Johor Bahru",
        "State": "Johor"
    },
    {
        "Postcode": "80400",
        "Location": "Taman Tebrau Jaya",
        "Post_Office": "Johor Bahru",
        "State": "Johor"
    },
    {
        "Postcode": "80400",
        "Location": "Taman Pelangi",
        "Post_Office": "Johor Bahru",
        "State": "Johor"
    }
]
