[
    {
        "Postcode": "81000",
        "Location": "Taman Gemilang",
        "Post_Office": "Kulai",
        "State": "Johor"
    },
    {
        "Postcode": "81000",
        "Location": "Taman Makmur",
        "Post_Office": "Kulai",
        "State": "Johor"
    },
    {
        "Postcode": "81000",
        "Location": "Taman Palma",
        "Post_Office": "Kulai",
        "State": "Johor"
    },
    {
        "Postcode": "81000",
        "Location": "Taman Permai",
        "Post_Office": "Kulai",
        "State": "Johor"
    },
    {
        "Postcode": "81000",
        "Location": "Taman Pertama",
        "Post_Office": "Kulai",
        "State": "Johor"
    },
    {
        "Postcode": "81000",
        "Location": "Bandar Putra",
        "Post_Office": "Kulai",
        "State": "Johor"
    },
    {
        "Postcode": "81000",
        "Location": "Jalan Tun Abdul Razak",
        "Post_Office": "Kulai",
        "State": "Johor"
    },
    {
        "Postcode": "81000",
        "Location": "Taman Indah Jaya",
        "Post_Office": "Kulai",
        "State": "Johor"
    },
    {
        "Postcode": "81000",
        "Location": "Taman Putri",
        "Post_Office": "Kulai",
        "State": "Johor"
    },
    {
        "Postcode": "81000",
        "Location": "Taman Scientex",
        "Post_Office": "Kulai",
        "State": "Johor"
    },
    {
        "Postcode": "81000",
        "Location": "Taman Sri Sentosa",
        "Post_Office": "Kulai",
        "State": "Johor"
    },
    {
        "Postcode": "81000",
        "Location": "Taman Timur",
        "Post_Office": "Kulai",
        "State": "Johor"
    },
    {
        "Postcode": "81000",
        "Location": "Bandar Indahpura",
        "Post_Office": "Kulai",
        "State": "Johor"
    },
    {
        "Postcode": "81000",
        "Location": "Bandar Kulai",
        "Post_Office": "Kulai",
        "State": "Johor"
    },
    {
        "Postcode": "81000",
        "Location": "Felda Bukit Batu",
        "Post_Office": "Kulai",
        "State": "Johor"
    },
    {
        "Postcode": "81000",
        "Location": "Felda Seelong",
        "Post_Office": "Kulai",
        "State": "Johor"
    },
    {
        "Postcode": "81000",
        "Location": "Felda Taib Andak",
        "Post_Office": "Kulai",
        "State": "Johor"
    },
    {
        "Postcode": "81000",
        "Location": "Kampung Air Manis",
        "Post_Office": "Kulai",
        "State": "Johor"
    },
    {
        "Postcode": "81000",
        "Location": "Kampung Bari (Air Bemban)",
        "Post_Office": "Kulai",
        "State": "Johor"
    },
    {
        "Postcode": "81000",
        "Location": "Kampung Baru (Bukit Batu)",
        "Post_Office": "Kulai",
        "State": "Johor"
    },
    {
        "Postcode": "81000",
        "Location": "Kampung Baru (Jalan Sulaiman)",
        "Post_Office": "Kulai",
        "State": "Johor"
    },
    {
        "Postcode": "81000",
        "Location": "Kampung Baru Air Bemban",
        "Post_Office": "Kulai",
        "State": "Johor"
    },
    {
        "Postcode": "81000",
        "Location": "Kampung Baru Air Manis",
        "Post_Office": "Kulai",
        "State": "Johor"
    },
    {
        "Postcode": "81000",
        "Location": "Kampung Baru Kelapa Sawit",
        "Post_Office": "Kulai",
        "State": "Johor"
    },
    {
        "Postcode": "81000",
        "Location": "Kampung Baru Kulai",
        "Post_Office": "Kulai",
        "State": "Johor"
    },
    {
        "Postcode": "81000",
        "Location": "Kampung Baru Sedenak",
        "Post_Office": "Kulai",
        "State": "Johor"
    },
    {
        "Postcode": "81000",
        "Location": "Kampung Baru Sengkang",
        "Post_Office": "Kulai",
        "State": "Johor"
    },
    {
        "Postcode": "81000",
        "Location": "Kampung Gate Sengkang",
        "Post_Office": "Kulai",
        "State": "Johor"
    },
    {
        "Postcode": "81000",
        "Location": "Kampung Gunong Pulai",
        "Post_Office": "Kulai",
        "State": "Johor"
    },
    {
        "Postcode": "81000",
        "Location": "Kampung Kenangan Kelapa Sawit",
        "Post_Office": "Kulai",
        "State": "Johor"
    },
    {
        "Postcode": "81000",
        "Location": "Kampung Melayu (Sengkang)",
        "Post_Office": "Kulai",
        "State": "Johor"
    },
    {
        "Postcode": "81000",
        "Location": "Kampung Melayu Ayer Bemban",
        "Post_Office": "Kulai",
        "State": "Johor"
    },
    {
        "Postcode": "81000",
        "Location": "Kampung Melayu Bukit Batu",
        "Post_Office": "Kulai",
        "State": "Johor"
    },
    {
        "Postcode": "81000",
        "Location": "Kampung Melayu Kulai",
        "Post_Office": "Kulai",
        "State": "Johor"
    },
    {
        "Postcode": "81000",
        "Location": "Kampung Melayu Sedenak",
        "Post_Office": "Kulai",
        "State": "Johor"
    },
    {
        "Postcode": "81000",
        "Location": "Kampung Sedara",
        "Post_Office": "Kulai",
        "State": "Johor"
    },
    {
        "Postcode": "81000",
        "Location": "Kampung Seelong",
        "Post_Office": "Kulai",
        "State": "Johor"
    },
    {
        "Postcode": "81000",
        "Location": "Kampung Separa",
        "Post_Office": "Kulai",
        "State": "Johor"
    },
    {
        "Postcode": "81000",
        "Location": "Kampung Simpang",
        "Post_Office": "Kulai",
        "State": "Johor"
    },
    {
        "Postcode": "81000",
        "Location": "Kampung Sri Sempurna",
        "Post_Office": "Kulai",
        "State": "Johor"
    },
    {
        "Postcode": "81000",
        "Location": "Kampung Tang Hoe",
        "Post_Office": "Kulai",
        "State": "Johor"
    },
    {
        "Postcode": "81000",
        "Location": "Kaw.Perindustiran Sawit Baru",
        "Post_Office": "Kulai",
        "State": "Johor"
    },
    {
        "Postcode": "81000",
        "Location": "Kawasan Perindustrian Timur",
        "Post_Office": "Kulai",
        "State": "Johor"
    },
    {
        "Postcode": "81000",
        "Location": "Kelapa Sawit",
        "Post_Office": "Kulai",
        "State": "Johor"
    },
    {
        "Postcode": "81000",
        "Location": "Kulai",
        "Post_Office": "Kulai",
        "State": "Johor"
    },
    {
        "Postcode": "81000",
        "Location": "Kulai Besar",
        "Post_Office": "Kulai",
        "State": "Johor"
    },
    {
        "Postcode": "81000",
        "Location": "Lagenda Putra",
        "Post_Office": "Kulai",
        "State": "Johor"
    },
    {
        "Postcode": "81000",
        "Location": "Lembaga Kulai",
        "Post_Office": "Kulai",
        "State": "Johor"
    },
    {
        "Postcode": "81000",
        "Location": "Pasir Raja",
        "Post_Office": "Kulai",
        "State": "Johor"
    },
    {
        "Postcode": "81000",
        "Location": "Sedenak",
        "Post_Office": "Kulai",
        "State": "Johor"
    },
    {
        "Postcode": "81000",
        "Location": "Taman Air Bemban",
        "Post_Office": "Kulai",
        "State": "Johor"
    },
    {
        "Postcode": "81000",
        "Location": "Taman Anjaria",
        "Post_Office": "Kulai",
        "State": "Johor"
    },
    {
        "Postcode": "81000",
        "Location": "Taman Bukit",
        "Post_Office": "Kulai",
        "State": "Johor"
    },
    {
        "Postcode": "81000",
        "Location": "Taman Chok Kim Kee",
        "Post_Office": "Kulai",
        "State": "Johor"
    },
    {
        "Postcode": "81000",
        "Location": "Taman Desa Idaman",
        "Post_Office": "Kulai",
        "State": "Johor"
    },
    {
        "Postcode": "81000",
        "Location": "Taman Desa Mas",
        "Post_Office": "Kulai",
        "State": "Johor"
    },
    {
        "Postcode": "81000",
        "Location": "Taman Gunung Pulai",
        "Post_Office": "Kulai",
        "State": "Johor"
    },
    {
        "Postcode": "81000",
        "Location": "Taman Khet Loong",
        "Post_Office": "Kulai",
        "State": "Johor"
    },
    {
        "Postcode": "81000",
        "Location": "Taman Kota Kulai",
        "Post_Office": "Kulai",
        "State": "Johor"
    },
    {
        "Postcode": "81000",
        "Location": "Taman Kulai",
        "Post_Office": "Kulai",
        "State": "Johor"
    },
    {
        "Postcode": "81000",
        "Location": "Taman Kulai Baru",
        "Post_Office": "Kulai",
        "State": "Johor"
    },
    {
        "Postcode": "81000",
        "Location": "Taman Kulai Besar",
        "Post_Office": "Kulai",
        "State": "Johor"
    },
    {
        "Postcode": "81000",
        "Location": "Taman Kulai Jaya",
        "Post_Office": "Kulai",
        "State": "Johor"
    },
    {
        "Postcode": "81000",
        "Location": "Taman Kulai Permai",
        "Post_Office": "Kulai",
        "State": "Johor"
    },
    {
        "Postcode": "81000",
        "Location": "Taman Kulai Utama",
        "Post_Office": "Kulai",
        "State": "Johor"
    },
    {
        "Postcode": "81000",
        "Location": "Taman Permata Impian",
        "Post_Office": "Kulai",
        "State": "Johor"
    },
    {
        "Postcode": "81000",
        "Location": "Taman Prisma",
        "Post_Office": "Kulai",
        "State": "Johor"
    },
    {
        "Postcode": "81000",
        "Location": "Taman Saga",
        "Post_Office": "Kulai",
        "State": "Johor"
    },
    {
        "Postcode": "81000",
        "Location": "Taman Sawit",
        "Post_Office": "Kulai",
        "State": "Johor"
    },
    {
        "Postcode": "81000",
        "Location": "Taman Sawit Indah",
        "Post_Office": "Kulai",
        "State": "Johor"
    },
    {
        "Postcode": "81000",
        "Location": "Taman Sawit Jaya",
        "Post_Office": "Kulai",
        "State": "Johor"
    },
    {
        "Postcode": "81000",
        "Location": "Taman Semenanjung",
        "Post_Office": "Kulai",
        "State": "Johor"
    },
    {
        "Postcode": "81000",
        "Location": "Taman Sentul",
        "Post_Office": "Kulai",
        "State": "Johor"
    },
    {
        "Postcode": "81000",
        "Location": "Taman Serata",
        "Post_Office": "Kulai",
        "State": "Johor"
    },
    {
        "Postcode": "81000",
        "Location": "Taman Seraya",
        "Post_Office": "Kulai",
        "State": "Johor"
    },
    {
        "Postcode": "81000",
        "Location": "Taman Seri Muhibah",
        "Post_Office": "Kulai",
        "State": "Johor"
    },
    {
        "Postcode": "81000",
        "Location": "Taman Seri Putri",
        "Post_Office": "Kulai",
        "State": "Johor"
    },
    {
        "Postcode": "81000",
        "Location": "Taman Sin Sawit",
        "Post_Office": "Kulai",
        "State": "Johor"
    },
    {
        "Postcode": "81000",
        "Location": "Taman Sri Kulai ",
        "Post_Office": "Kulai",
        "State": "Johor"
    },
    {
        "Postcode": "81000",
        "Location": "Taman Sri Kulai Baru 2",
        "Post_Office": "Kulai",
        "State": "Johor"
    },
    {
        "Postcode": "81000",
        "Location": "Taman Sungai Emas",
        "Post_Office": "Kulai",
        "State": "Johor"
    },
    {
        "Postcode": "81000",
        "Location": "Taman Tai Kheng",
        "Post_Office": "Kulai",
        "State": "Johor"
    },
    {
        "Postcode": "81000",
        "Location": "Taman Teok",
        "Post_Office": "Kulai",
        "State": "Johor"
    },
    {
        "Postcode": "81000",
        "Location": "Taman Wedo",
        "Post_Office": "Kulai",
        "State": "Johor"
    },
    {
        "Postcode": "81000",
        "Location": "Taman Yoke Fong",
        "Post_Office": "Kulai",
        "State": "Johor"
    },
    {
        "Postcode": "81000",
        "Location": "Kampung Rahmat 1",
        "Post_Office": "Kulai",
        "State": "Johor"
    },
    {
        "Postcode": "81000",
        "Location": "Kampung Rahmat 2",
        "Post_Office": "Kulai",
        "State": "Johor"
    },
    {
        "Postcode": "81000",
        "Location": "Ayer Bemban",
        "Post_Office": "Kulai",
        "State": "Johor"
    },
    {
        "Postcode": "81000",
        "Location": "Desa Perindustrian Kulai 2",
        "Post_Office": "Kulai",
        "State": "Johor"
    },
    {
        "Postcode": "81000",
        "Location": "Indahpura Industrial Park\t",
        "Post_Office": "Kulai",
        "State": "Johor"
    },
    {
        "Postcode": "81000",
        "Location": "Kampung Sri",
        "Post_Office": "Kulai",
        "State": "Johor"
    },
    {
        "Postcode": "81000",
        "Location": "Kampung Sri Gunung Pulai",
        "Post_Office": "Kulai",
        "State": "Johor"
    },
    {
        "Postcode": "81000",
        "Location": "Kawasan Perindustrian I-Park\t",
        "Post_Office": "Kulai",
        "State": "Johor"
    },
    {
        "Postcode": "81000",
        "Location": "Pekan Bukit Batu",
        "Post_Office": "Kulai",
        "State": "Johor"
    },
    {
        "Postcode": "81000",
        "Location": "Rumah Awam Kelapa Sawit",
        "Post_Office": "Kulai",
        "State": "Johor"
    },
    {
        "Postcode": "81000",
        "Location": "Taman Anggerik Villa",
        "Post_Office": "Kulai",
        "State": "Johor"
    },
    {
        "Postcode": "81000",
        "Location": "Taman Desa Baiduri\t",
        "Post_Office": "Kulai",
        "State": "Johor"
    },
    {
        "Postcode": "81000",
        "Location": "Taman Indahpura",
        "Post_Office": "Kulai",
        "State": "Johor"
    },
    {
        "Postcode": "81000",
        "Location": "Taman Industri Kulai",
        "Post_Office": "Kulai",
        "State": "Johor"
    },
    {
        "Postcode": "81000",
        "Location": "Taman Kulai Indah",
        "Post_Office": "Kulai",
        "State": "Johor"
    },
    {
        "Postcode": "81000",
        "Location": "Taman Mas Dua",
        "Post_Office": "Kulai",
        "State": "Johor"
    },
    {
        "Postcode": "81000",
        "Location": "Taman Sri Kulai Baru",
        "Post_Office": "Kulai",
        "State": "Johor"
    },
    {
        "Postcode": "81000",
        "Location": "Taman Sri Muhibah",
        "Post_Office": "Kulai",
        "State": "Johor"
    },
    {
        "Postcode": "81000",
        "Location": "Taman Ypj",
        "Post_Office": "Kulai",
        "State": "Johor"
    },
    {
        "Postcode": "81000",
        "Location": "Jalan Alor Bukit",
        "Post_Office": "Kulai",
        "State": "Johor"
    },
    {
        "Postcode": "81000",
        "Location": "Kampung Bukit Batu",
        "Post_Office": "Kulai",
        "State": "Johor"
    },
    {
        "Postcode": "81000",
        "Location": "Kampung Lama",
        "Post_Office": "Kulai",
        "State": "Johor"
    },
    {
        "Postcode": "81000",
        "Location": "Kampung Pertanian",
        "Post_Office": "Kulai",
        "State": "Johor"
    },
    {
        "Postcode": "81000",
        "Location": "Kampung Sri Paya",
        "Post_Office": "Kulai",
        "State": "Johor"
    },
    {
        "Postcode": "81000",
        "Location": "Taman Cantik",
        "Post_Office": "Kulai",
        "State": "Johor"
    },
    {
        "Postcode": "81000",
        "Location": "Taman Manis",
        "Post_Office": "Kulai",
        "State": "Johor"
    },
    {
        "Postcode": "81000",
        "Location": "Taman Selatan",
        "Post_Office": "Kulai",
        "State": "Johor"
    },
    {
        "Postcode": "81000",
        "Location": "Taman Tropika",
        "Post_Office": "Kulai",
        "State": "Johor"
    },
    {
        "Postcode": "81000",
        "Location": "Bukit Batu",
        "Post_Office": "Kulai",
        "State": "Johor"
    },
    {
        "Postcode": "81000",
        "Location": "Kampung Baru",
        "Post_Office": "Kulai",
        "State": "Johor"
    },
    {
        "Postcode": "81000",
        "Location": "Kampung Melayu",
        "Post_Office": "Kulai",
        "State": "Johor"
    },
    {
        "Postcode": "81000",
        "Location": "Kampung Pasir",
        "Post_Office": "Kulai",
        "State": "Johor"
    },
    {
        "Postcode": "81000",
        "Location": "Kampung Rahmat",
        "Post_Office": "Kulai",
        "State": "Johor"
    },
    {
        "Postcode": "81000",
        "Location": "Sengkang",
        "Post_Office": "Kulai",
        "State": "Johor"
    },
    {
        "Postcode": "81000",
        "Location": "Taman Anggerik",
        "Post_Office": "Kulai",
        "State": "Johor"
    },
    {
        "Postcode": "81000",
        "Location": "Taman Damai",
        "Post_Office": "Kulai",
        "State": "Johor"
    },
    {
        "Postcode": "81000",
        "Location": "Taman Desa",
        "Post_Office": "Kulai",
        "State": "Johor"
    },
    {
        "Postcode": "81000",
        "Location": "Taman Harmoni",
        "Post_Office": "Kulai",
        "State": "Johor"
    },
    {
        "Postcode": "81000",
        "Location": "Taman Legenda",
        "Post_Office": "Kulai",
        "State": "Johor"
    },
    {
        "Postcode": "81000",
        "Location": "Taman Mas",
        "Post_Office": "Kulai",
        "State": "Johor"
    },
    {
        "Postcode": "81000",
        "Location": "Taman Matahari",
        "Post_Office": "Kulai",
        "State": "Johor"
    },
    {
        "Postcode": "81000",
        "Location": "Taman Mawar",
        "Post_Office": "Kulai",
        "State": "Johor"
    },
    {
        "Postcode": "81000",
        "Location": "Taman Melati",
        "Post_Office": "Kulai",
        "State": "Johor"
    },
    {
        "Postcode": "81000",
        "Location": "Taman Mewah",
        "Post_Office": "Kulai",
        "State": "Johor"
    },
    {
        "Postcode": "81000",
        "Location": "Taman Ria",
        "Post_Office": "Kulai",
        "State": "Johor"
    },
    {
        "Postcode": "81000",
        "Location": "Taman Siantan",
        "Post_Office": "Kulai",
        "State": "Johor"
    },
    {
        "Postcode": "81000",
        "Location": "Taman Bersatu",
        "Post_Office": "Kulai",
        "State": "Johor"
    },
    {
        "Postcode": "81000",
        "Location": "Taman Meranti",
        "Post_Office": "Kulai",
        "State": "Johor"
    },
    {
        "Postcode": "81000",
        "Location": "Taman Mutiara",
        "Post_Office": "Kulai",
        "State": "Johor"
    },
    {
        "Postcode": "81000",
        "Location": "Taman Nam Tak",
        "Post_Office": "Kulai",
        "State": "Johor"
    },
    {
        "Postcode": "81000",
        "Location": "Taman Wawasan",
        "Post_Office": "Kulai",
        "State": "Johor"
    }
]
