[
    {
        "Postcode": "81100",
        "Location": "Jalan Pandan Kota Tinggi ",
        "Post_Office": "Johor Bahru",
        "State": "Johor"
    },
    {
        "Postcode": "81100",
        "Location": "Jalan Bunga Raya",
        "Post_Office": "Johor Bahru",
        "State": "Johor"
    },
    {
        "Postcode": "81100",
        "Location": "Jalan Masjid",
        "Post_Office": "Johor Bahru",
        "State": "Johor"
    },
    {
        "Postcode": "81100",
        "Location": "Jalan Sekolah",
        "Post_Office": "Johor Bahru",
        "State": "Johor"
    },
    {
        "Postcode": "81100",
        "Location": "Jalan Rahmat",
        "Post_Office": "Johor Bahru",
        "State": "Johor"
    },
    {
        "Postcode": "81100",
        "Location": "Taman Delima",
        "Post_Office": "Johor Bahru",
        "State": "Johor"
    },
    {
        "Postcode": "81100",
        "Location": "Taman Palma",
        "Post_Office": "Johor Bahru",
        "State": "Johor"
    },
    {
        "Postcode": "81100",
        "Location": "Taman Putera",
        "Post_Office": "Johor Bahru",
        "State": "Johor"
    },
    {
        "Postcode": "81100",
        "Location": "Jalan Cempaka",
        "Post_Office": "Johor Bahru",
        "State": "Johor"
    },
    {
        "Postcode": "81100",
        "Location": "Jalan Kiambang",
        "Post_Office": "Johor Bahru",
        "State": "Johor"
    },
    {
        "Postcode": "81100",
        "Location": "Jalan Melati",
        "Post_Office": "Johor Bahru",
        "State": "Johor"
    },
    {
        "Postcode": "81100",
        "Location": "Jalan Bawang",
        "Post_Office": "Johor Bahru",
        "State": "Johor"
    },
    {
        "Postcode": "81100",
        "Location": "Jalan Bayam",
        "Post_Office": "Johor Bahru",
        "State": "Johor"
    },
    {
        "Postcode": "81100",
        "Location": "Jalan Berkat",
        "Post_Office": "Johor Bahru",
        "State": "Johor"
    },
    {
        "Postcode": "81100",
        "Location": "Jalan Bermi",
        "Post_Office": "Johor Bahru",
        "State": "Johor"
    },
    {
        "Postcode": "81100",
        "Location": "Jalan Kenangan",
        "Post_Office": "Johor Bahru",
        "State": "Johor"
    },
    {
        "Postcode": "81100",
        "Location": "Jalan Kota Tinggi",
        "Post_Office": "Johor Bahru",
        "State": "Johor"
    },
    {
        "Postcode": "81100",
        "Location": "Jalan Orkid",
        "Post_Office": "Johor Bahru",
        "State": "Johor"
    },
    {
        "Postcode": "81100",
        "Location": "Jalan Sentosa",
        "Post_Office": "Johor Bahru",
        "State": "Johor"
    },
    {
        "Postcode": "81100",
        "Location": "Jalan Teratai",
        "Post_Office": "Johor Bahru",
        "State": "Johor"
    },
    {
        "Postcode": "81100",
        "Location": "Taman Desa Jaya",
        "Post_Office": "Johor Bahru",
        "State": "Johor"
    },
    {
        "Postcode": "81100",
        "Location": "Taman Setia Indah",
        "Post_Office": "Johor Bahru",
        "State": "Johor"
    },
    {
        "Postcode": "81100",
        "Location": "Jalan Lembah 1",
        "Post_Office": "Johor Bahru",
        "State": "Johor"
    },
    {
        "Postcode": "81100",
        "Location": "Jalan Lembah 2",
        "Post_Office": "Johor Bahru",
        "State": "Johor"
    },
    {
        "Postcode": "81100",
        "Location": "Jalan Lembah 3",
        "Post_Office": "Johor Bahru",
        "State": "Johor"
    },
    {
        "Postcode": "81100",
        "Location": "Jalan Lembah 4",
        "Post_Office": "Johor Bahru",
        "State": "Johor"
    },
    {
        "Postcode": "81100",
        "Location": "Jalan Lembah 5",
        "Post_Office": "Johor Bahru",
        "State": "Johor"
    },
    {
        "Postcode": "81100",
        "Location": "Jalan Lobak",
        "Post_Office": "Johor Bahru",
        "State": "Johor"
    },
    {
        "Postcode": "81100",
        "Location": "Jalan Merdeka",
        "Post_Office": "Johor Bahru",
        "State": "Johor"
    },
    {
        "Postcode": "81100",
        "Location": "Jalan Muafakat",
        "Post_Office": "Johor Bahru",
        "State": "Johor"
    },
    {
        "Postcode": "81100",
        "Location": "Sunway Bukit Lenang",
        "Post_Office": "Johor Bahru",
        "State": "Johor"
    },
    {
        "Postcode": "81100",
        "Location": "Taman Desa Mutiara",
        "Post_Office": "Johor Bahru",
        "State": "Johor"
    },
    {
        "Postcode": "81100",
        "Location": "Jalan Nipah 1",
        "Post_Office": "Johor Bahru",
        "State": "Johor"
    },
    {
        "Postcode": "81100",
        "Location": "Jalan Nipah 10",
        "Post_Office": "Johor Bahru",
        "State": "Johor"
    },
    {
        "Postcode": "81100",
        "Location": "Jalan Nipah 11",
        "Post_Office": "Johor Bahru",
        "State": "Johor"
    },
    {
        "Postcode": "81100",
        "Location": "Jalan Nipah 12",
        "Post_Office": "Johor Bahru",
        "State": "Johor"
    },
    {
        "Postcode": "81100",
        "Location": "Jalan Nipah 13",
        "Post_Office": "Johor Bahru",
        "State": "Johor"
    },
    {
        "Postcode": "81100",
        "Location": "Jalan Nipah 14",
        "Post_Office": "Johor Bahru",
        "State": "Johor"
    },
    {
        "Postcode": "81100",
        "Location": "Jalan Nipah 15",
        "Post_Office": "Johor Bahru",
        "State": "Johor"
    },
    {
        "Postcode": "81100",
        "Location": "Jalan Nipah 16",
        "Post_Office": "Johor Bahru",
        "State": "Johor"
    },
    {
        "Postcode": "81100",
        "Location": "Jalan Nipah 17",
        "Post_Office": "Johor Bahru",
        "State": "Johor"
    },
    {
        "Postcode": "81100",
        "Location": "Jalan Nipah 18",
        "Post_Office": "Johor Bahru",
        "State": "Johor"
    },
    {
        "Postcode": "81100",
        "Location": "Jalan Nipah 19",
        "Post_Office": "Johor Bahru",
        "State": "Johor"
    },
    {
        "Postcode": "81100",
        "Location": "Jalan Nipah 2",
        "Post_Office": "Johor Bahru",
        "State": "Johor"
    },
    {
        "Postcode": "81100",
        "Location": "Jalan Nipah 3",
        "Post_Office": "Johor Bahru",
        "State": "Johor"
    },
    {
        "Postcode": "81100",
        "Location": "Jalan Nipah 4",
        "Post_Office": "Johor Bahru",
        "State": "Johor"
    },
    {
        "Postcode": "81100",
        "Location": "Jalan Nipah 5",
        "Post_Office": "Johor Bahru",
        "State": "Johor"
    },
    {
        "Postcode": "81100",
        "Location": "Jalan Nipah 6",
        "Post_Office": "Johor Bahru",
        "State": "Johor"
    },
    {
        "Postcode": "81100",
        "Location": "Jalan Nipah 7",
        "Post_Office": "Johor Bahru",
        "State": "Johor"
    },
    {
        "Postcode": "81100",
        "Location": "Jalan Nipah 8",
        "Post_Office": "Johor Bahru",
        "State": "Johor"
    },
    {
        "Postcode": "81100",
        "Location": "Jalan Nipah 9",
        "Post_Office": "Johor Bahru",
        "State": "Johor"
    },
    {
        "Postcode": "81100",
        "Location": "Jalan Pinang 10",
        "Post_Office": "Johor Bahru",
        "State": "Johor"
    },
    {
        "Postcode": "81100",
        "Location": "Jalan Pinang 11",
        "Post_Office": "Johor Bahru",
        "State": "Johor"
    },
    {
        "Postcode": "81100",
        "Location": "Jalan Pinang 12",
        "Post_Office": "Johor Bahru",
        "State": "Johor"
    },
    {
        "Postcode": "81100",
        "Location": "Jalan Pinang 13",
        "Post_Office": "Johor Bahru",
        "State": "Johor"
    },
    {
        "Postcode": "81100",
        "Location": "Jalan Pinang 14",
        "Post_Office": "Johor Bahru",
        "State": "Johor"
    },
    {
        "Postcode": "81100",
        "Location": "Jalan Pinang 15",
        "Post_Office": "Johor Bahru",
        "State": "Johor"
    },
    {
        "Postcode": "81100",
        "Location": "Jalan Pinang 16",
        "Post_Office": "Johor Bahru",
        "State": "Johor"
    },
    {
        "Postcode": "81100",
        "Location": "Jalan Pinang 17",
        "Post_Office": "Johor Bahru",
        "State": "Johor"
    },
    {
        "Postcode": "81100",
        "Location": "Jalan Pinang 18",
        "Post_Office": "Johor Bahru",
        "State": "Johor"
    },
    {
        "Postcode": "81100",
        "Location": "Jalan Pinang 19",
        "Post_Office": "Johor Bahru",
        "State": "Johor"
    },
    {
        "Postcode": "81100",
        "Location": "Jalan Pinang 20",
        "Post_Office": "Johor Bahru",
        "State": "Johor"
    },
    {
        "Postcode": "81100",
        "Location": "Jalan Pinang 21",
        "Post_Office": "Johor Bahru",
        "State": "Johor"
    },
    {
        "Postcode": "81100",
        "Location": "Jalan Pinang 22",
        "Post_Office": "Johor Bahru",
        "State": "Johor"
    },
    {
        "Postcode": "81100",
        "Location": "Jalan Pinang 23",
        "Post_Office": "Johor Bahru",
        "State": "Johor"
    },
    {
        "Postcode": "81100",
        "Location": "Jalan Pinang 24",
        "Post_Office": "Johor Bahru",
        "State": "Johor"
    },
    {
        "Postcode": "81100",
        "Location": "Jalan Pinang 25",
        "Post_Office": "Johor Bahru",
        "State": "Johor"
    },
    {
        "Postcode": "81100",
        "Location": "Jalan Pinang 26",
        "Post_Office": "Johor Bahru",
        "State": "Johor"
    },
    {
        "Postcode": "81100",
        "Location": "Jalan Pinang 27",
        "Post_Office": "Johor Bahru",
        "State": "Johor"
    },
    {
        "Postcode": "81100",
        "Location": "Jalan Pinang 28",
        "Post_Office": "Johor Bahru",
        "State": "Johor"
    },
    {
        "Postcode": "81100",
        "Location": "Jalan Pinang 29",
        "Post_Office": "Johor Bahru",
        "State": "Johor"
    },
    {
        "Postcode": "81100",
        "Location": "Jalan Pinang 30",
        "Post_Office": "Johor Bahru",
        "State": "Johor"
    },
    {
        "Postcode": "81100",
        "Location": "Jalan Pinang 31",
        "Post_Office": "Johor Bahru",
        "State": "Johor"
    },
    {
        "Postcode": "81100",
        "Location": "Jalan Pinang 32",
        "Post_Office": "Johor Bahru",
        "State": "Johor"
    },
    {
        "Postcode": "81100",
        "Location": "Jalan Pinang 33",
        "Post_Office": "Johor Bahru",
        "State": "Johor"
    },
    {
        "Postcode": "81100",
        "Location": "Jalan Pinang 34",
        "Post_Office": "Johor Bahru",
        "State": "Johor"
    },
    {
        "Postcode": "81100",
        "Location": "Jalan Pinang 35",
        "Post_Office": "Johor Bahru",
        "State": "Johor"
    },
    {
        "Postcode": "81100",
        "Location": "Jalan Pinang 36",
        "Post_Office": "Johor Bahru",
        "State": "Johor"
    },
    {
        "Postcode": "81100",
        "Location": "Jalan Pinang 37",
        "Post_Office": "Johor Bahru",
        "State": "Johor"
    },
    {
        "Postcode": "81100",
        "Location": "Jalan Ros Merah 1/1",
        "Post_Office": "Johor Bahru",
        "State": "Johor"
    },
    {
        "Postcode": "81100",
        "Location": "Jalan Ros Merah 2/1",
        "Post_Office": "Johor Bahru",
        "State": "Johor"
    },
    {
        "Postcode": "81100",
        "Location": "Jalan Ros Merah 2/10",
        "Post_Office": "Johor Bahru",
        "State": "Johor"
    },
    {
        "Postcode": "81100",
        "Location": "Jalan Ros Merah 2/11",
        "Post_Office": "Johor Bahru",
        "State": "Johor"
    },
    {
        "Postcode": "81100",
        "Location": "Jalan Ros Merah 2/12",
        "Post_Office": "Johor Bahru",
        "State": "Johor"
    },
    {
        "Postcode": "81100",
        "Location": "Jalan Ros Merah 2/13",
        "Post_Office": "Johor Bahru",
        "State": "Johor"
    },
    {
        "Postcode": "81100",
        "Location": "Jalan Ros Merah 2/2",
        "Post_Office": "Johor Bahru",
        "State": "Johor"
    },
    {
        "Postcode": "81100",
        "Location": "Jalan Ros Merah 2/3",
        "Post_Office": "Johor Bahru",
        "State": "Johor"
    },
    {
        "Postcode": "81100",
        "Location": "Jalan Ros Merah 2/4",
        "Post_Office": "Johor Bahru",
        "State": "Johor"
    },
    {
        "Postcode": "81100",
        "Location": "Jalan Ros Merah 2/5",
        "Post_Office": "Johor Bahru",
        "State": "Johor"
    },
    {
        "Postcode": "81100",
        "Location": "Jalan Ros Merah 2/6",
        "Post_Office": "Johor Bahru",
        "State": "Johor"
    },
    {
        "Postcode": "81100",
        "Location": "Jalan Ros Merah 2/7",
        "Post_Office": "Johor Bahru",
        "State": "Johor"
    },
    {
        "Postcode": "81100",
        "Location": "Jalan Ros Merah 2/8",
        "Post_Office": "Johor Bahru",
        "State": "Johor"
    },
    {
        "Postcode": "81100",
        "Location": "Jalan Ros Merah 2/9",
        "Post_Office": "Johor Bahru",
        "State": "Johor"
    },
    {
        "Postcode": "81100",
        "Location": "Jalan Ros Merah 3/1",
        "Post_Office": "Johor Bahru",
        "State": "Johor"
    },
    {
        "Postcode": "81100",
        "Location": "Jalan Ros Merah 4/1",
        "Post_Office": "Johor Bahru",
        "State": "Johor"
    },
    {
        "Postcode": "81100",
        "Location": "Jalan Ros Merah 5/1",
        "Post_Office": "Johor Bahru",
        "State": "Johor"
    },
    {
        "Postcode": "81100",
        "Location": "Jalan Rumbia 1",
        "Post_Office": "Johor Bahru",
        "State": "Johor"
    },
    {
        "Postcode": "81100",
        "Location": "Jalan Rumbia 10",
        "Post_Office": "Johor Bahru",
        "State": "Johor"
    },
    {
        "Postcode": "81100",
        "Location": "Jalan Rumbia 11",
        "Post_Office": "Johor Bahru",
        "State": "Johor"
    },
    {
        "Postcode": "81100",
        "Location": "Jalan Rumbia 12",
        "Post_Office": "Johor Bahru",
        "State": "Johor"
    },
    {
        "Postcode": "81100",
        "Location": "Jalan Rumbia 13",
        "Post_Office": "Johor Bahru",
        "State": "Johor"
    },
    {
        "Postcode": "81100",
        "Location": "Jalan Rumbia 14",
        "Post_Office": "Johor Bahru",
        "State": "Johor"
    },
    {
        "Postcode": "81100",
        "Location": "Jalan Rumbia 15",
        "Post_Office": "Johor Bahru",
        "State": "Johor"
    },
    {
        "Postcode": "81100",
        "Location": "Jalan Rumbia 16",
        "Post_Office": "Johor Bahru",
        "State": "Johor"
    },
    {
        "Postcode": "81100",
        "Location": "Jalan Rumbia 17",
        "Post_Office": "Johor Bahru",
        "State": "Johor"
    },
    {
        "Postcode": "81100",
        "Location": "Jalan Rumbia 18",
        "Post_Office": "Johor Bahru",
        "State": "Johor"
    },
    {
        "Postcode": "81100",
        "Location": "Jalan Rumbia 19",
        "Post_Office": "Johor Bahru",
        "State": "Johor"
    },
    {
        "Postcode": "81100",
        "Location": "Jalan Rumbia 2",
        "Post_Office": "Johor Bahru",
        "State": "Johor"
    },
    {
        "Postcode": "81100",
        "Location": "Jalan Rumbia 20",
        "Post_Office": "Johor Bahru",
        "State": "Johor"
    },
    {
        "Postcode": "81100",
        "Location": "Jalan Rumbia 21",
        "Post_Office": "Johor Bahru",
        "State": "Johor"
    },
    {
        "Postcode": "81100",
        "Location": "Jalan Rumbia 22",
        "Post_Office": "Johor Bahru",
        "State": "Johor"
    },
    {
        "Postcode": "81100",
        "Location": "Jalan Rumbia 23",
        "Post_Office": "Johor Bahru",
        "State": "Johor"
    },
    {
        "Postcode": "81100",
        "Location": "Jalan Rumbia 24",
        "Post_Office": "Johor Bahru",
        "State": "Johor"
    },
    {
        "Postcode": "81100",
        "Location": "Jalan Rumbia 25",
        "Post_Office": "Johor Bahru",
        "State": "Johor"
    },
    {
        "Postcode": "81100",
        "Location": "Jalan Rumbia 26",
        "Post_Office": "Johor Bahru",
        "State": "Johor"
    },
    {
        "Postcode": "81100",
        "Location": "Jalan Rumbia 27",
        "Post_Office": "Johor Bahru",
        "State": "Johor"
    },
    {
        "Postcode": "81100",
        "Location": "Jalan Rumbia 28",
        "Post_Office": "Johor Bahru",
        "State": "Johor"
    },
    {
        "Postcode": "81100",
        "Location": "Jalan Rumbia 29",
        "Post_Office": "Johor Bahru",
        "State": "Johor"
    },
    {
        "Postcode": "81100",
        "Location": "Jalan Rumbia 3",
        "Post_Office": "Johor Bahru",
        "State": "Johor"
    },
    {
        "Postcode": "81100",
        "Location": "Jalan Rumbia 30",
        "Post_Office": "Johor Bahru",
        "State": "Johor"
    },
    {
        "Postcode": "81100",
        "Location": "Jalan Rumbia 31",
        "Post_Office": "Johor Bahru",
        "State": "Johor"
    },
    {
        "Postcode": "81100",
        "Location": "Jalan Rumbia 32",
        "Post_Office": "Johor Bahru",
        "State": "Johor"
    },
    {
        "Postcode": "81100",
        "Location": "Jalan Rumbia 33",
        "Post_Office": "Johor Bahru",
        "State": "Johor"
    },
    {
        "Postcode": "81100",
        "Location": "Jalan Rumbia 34",
        "Post_Office": "Johor Bahru",
        "State": "Johor"
    },
    {
        "Postcode": "81100",
        "Location": "Jalan Rumbia 35",
        "Post_Office": "Johor Bahru",
        "State": "Johor"
    },
    {
        "Postcode": "81100",
        "Location": "Jalan Rumbia 36",
        "Post_Office": "Johor Bahru",
        "State": "Johor"
    },
    {
        "Postcode": "81100",
        "Location": "Jalan Rumbia 37",
        "Post_Office": "Johor Bahru",
        "State": "Johor"
    },
    {
        "Postcode": "81100",
        "Location": "Jalan Rumbia 38",
        "Post_Office": "Johor Bahru",
        "State": "Johor"
    },
    {
        "Postcode": "81100",
        "Location": "Jalan Rumbia 39",
        "Post_Office": "Johor Bahru",
        "State": "Johor"
    },
    {
        "Postcode": "81100",
        "Location": "Jalan Rumbia 4",
        "Post_Office": "Johor Bahru",
        "State": "Johor"
    },
    {
        "Postcode": "81100",
        "Location": "Jalan Rumbia 40",
        "Post_Office": "Johor Bahru",
        "State": "Johor"
    },
    {
        "Postcode": "81100",
        "Location": "Jalan Rumbia 41",
        "Post_Office": "Johor Bahru",
        "State": "Johor"
    },
    {
        "Postcode": "81100",
        "Location": "Jalan Rumbia 42",
        "Post_Office": "Johor Bahru",
        "State": "Johor"
    },
    {
        "Postcode": "81100",
        "Location": "Jalan Rumbia 43",
        "Post_Office": "Johor Bahru",
        "State": "Johor"
    },
    {
        "Postcode": "81100",
        "Location": "Jalan Rumbia 44",
        "Post_Office": "Johor Bahru",
        "State": "Johor"
    },
    {
        "Postcode": "81100",
        "Location": "Jalan Rumbia 45",
        "Post_Office": "Johor Bahru",
        "State": "Johor"
    },
    {
        "Postcode": "81100",
        "Location": "Jalan Rumbia 46",
        "Post_Office": "Johor Bahru",
        "State": "Johor"
    },
    {
        "Postcode": "81100",
        "Location": "Jalan Rumbia 47",
        "Post_Office": "Johor Bahru",
        "State": "Johor"
    },
    {
        "Postcode": "81100",
        "Location": "Jalan Rumbia 48",
        "Post_Office": "Johor Bahru",
        "State": "Johor"
    },
    {
        "Postcode": "81100",
        "Location": "Jalan Rumbia 49",
        "Post_Office": "Johor Bahru",
        "State": "Johor"
    },
    {
        "Postcode": "81100",
        "Location": "Jalan Rumbia 5",
        "Post_Office": "Johor Bahru",
        "State": "Johor"
    },
    {
        "Postcode": "81100",
        "Location": "Jalan Rumbia 50",
        "Post_Office": "Johor Bahru",
        "State": "Johor"
    },
    {
        "Postcode": "81100",
        "Location": "Jalan Rumbia 51",
        "Post_Office": "Johor Bahru",
        "State": "Johor"
    },
    {
        "Postcode": "81100",
        "Location": "Jalan Rumbia 52",
        "Post_Office": "Johor Bahru",
        "State": "Johor"
    },
    {
        "Postcode": "81100",
        "Location": "Jalan Rumbia 53",
        "Post_Office": "Johor Bahru",
        "State": "Johor"
    },
    {
        "Postcode": "81100",
        "Location": "Jalan Rumbia 54",
        "Post_Office": "Johor Bahru",
        "State": "Johor"
    },
    {
        "Postcode": "81100",
        "Location": "Jalan Rumbia 55",
        "Post_Office": "Johor Bahru",
        "State": "Johor"
    },
    {
        "Postcode": "81100",
        "Location": "Jalan Rumbia 56",
        "Post_Office": "Johor Bahru",
        "State": "Johor"
    },
    {
        "Postcode": "81100",
        "Location": "Jalan Rumbia 57",
        "Post_Office": "Johor Bahru",
        "State": "Johor"
    },
    {
        "Postcode": "81100",
        "Location": "Jalan Rumbia 58",
        "Post_Office": "Johor Bahru",
        "State": "Johor"
    },
    {
        "Postcode": "81100",
        "Location": "Jalan Rumbia 59",
        "Post_Office": "Johor Bahru",
        "State": "Johor"
    },
    {
        "Postcode": "81100",
        "Location": "Jalan Rumbia 6",
        "Post_Office": "Johor Bahru",
        "State": "Johor"
    },
    {
        "Postcode": "81100",
        "Location": "Jalan Rumbia 60",
        "Post_Office": "Johor Bahru",
        "State": "Johor"
    },
    {
        "Postcode": "81100",
        "Location": "Jalan Rumbia 61",
        "Post_Office": "Johor Bahru",
        "State": "Johor"
    },
    {
        "Postcode": "81100",
        "Location": "Jalan Rumbia 62",
        "Post_Office": "Johor Bahru",
        "State": "Johor"
    },
    {
        "Postcode": "81100",
        "Location": "Jalan Rumbia 63",
        "Post_Office": "Johor Bahru",
        "State": "Johor"
    },
    {
        "Postcode": "81100",
        "Location": "Jalan Rumbia 64",
        "Post_Office": "Johor Bahru",
        "State": "Johor"
    },
    {
        "Postcode": "81100",
        "Location": "Jalan Rumbia 65",
        "Post_Office": "Johor Bahru",
        "State": "Johor"
    },
    {
        "Postcode": "81100",
        "Location": "Jalan Rumbia 66",
        "Post_Office": "Johor Bahru",
        "State": "Johor"
    },
    {
        "Postcode": "81100",
        "Location": "Jalan Rumbia 67",
        "Post_Office": "Johor Bahru",
        "State": "Johor"
    },
    {
        "Postcode": "81100",
        "Location": "Jalan Rumbia 68",
        "Post_Office": "Johor Bahru",
        "State": "Johor"
    },
    {
        "Postcode": "81100",
        "Location": "Jalan Rumbia 69",
        "Post_Office": "Johor Bahru",
        "State": "Johor"
    },
    {
        "Postcode": "81100",
        "Location": "Jalan Rumbia 7",
        "Post_Office": "Johor Bahru",
        "State": "Johor"
    },
    {
        "Postcode": "81100",
        "Location": "Jalan Rumbia 70",
        "Post_Office": "Johor Bahru",
        "State": "Johor"
    },
    {
        "Postcode": "81100",
        "Location": "Jalan Rumbia 71",
        "Post_Office": "Johor Bahru",
        "State": "Johor"
    },
    {
        "Postcode": "81100",
        "Location": "Jalan Rumbia 72",
        "Post_Office": "Johor Bahru",
        "State": "Johor"
    },
    {
        "Postcode": "81100",
        "Location": "Jalan Rumbia 73",
        "Post_Office": "Johor Bahru",
        "State": "Johor"
    },
    {
        "Postcode": "81100",
        "Location": "Jalan Rumbia 74",
        "Post_Office": "Johor Bahru",
        "State": "Johor"
    },
    {
        "Postcode": "81100",
        "Location": "Jalan Rumbia 75",
        "Post_Office": "Johor Bahru",
        "State": "Johor"
    },
    {
        "Postcode": "81100",
        "Location": "Jalan Rumbia 76",
        "Post_Office": "Johor Bahru",
        "State": "Johor"
    },
    {
        "Postcode": "81100",
        "Location": "Jalan Rumbia 77",
        "Post_Office": "Johor Bahru",
        "State": "Johor"
    },
    {
        "Postcode": "81100",
        "Location": "Jalan Rumbia 78",
        "Post_Office": "Johor Bahru",
        "State": "Johor"
    },
    {
        "Postcode": "81100",
        "Location": "Jalan Rumbia 79",
        "Post_Office": "Johor Bahru",
        "State": "Johor"
    },
    {
        "Postcode": "81100",
        "Location": "Jalan Rumbia 8",
        "Post_Office": "Johor Bahru",
        "State": "Johor"
    },
    {
        "Postcode": "81100",
        "Location": "Jalan Rumbia 80",
        "Post_Office": "Johor Bahru",
        "State": "Johor"
    },
    {
        "Postcode": "81100",
        "Location": "Jalan Rumbia 9",
        "Post_Office": "Johor Bahru",
        "State": "Johor"
    },
    {
        "Postcode": "81100",
        "Location": "Jalan Sagu 1",
        "Post_Office": "Johor Bahru",
        "State": "Johor"
    },
    {
        "Postcode": "81100",
        "Location": "Jalan Sagu 10",
        "Post_Office": "Johor Bahru",
        "State": "Johor"
    },
    {
        "Postcode": "81100",
        "Location": "Jalan Sagu 11",
        "Post_Office": "Johor Bahru",
        "State": "Johor"
    },
    {
        "Postcode": "81100",
        "Location": "Jalan Sagu 12",
        "Post_Office": "Johor Bahru",
        "State": "Johor"
    },
    {
        "Postcode": "81100",
        "Location": "Jalan Sagu 13",
        "Post_Office": "Johor Bahru",
        "State": "Johor"
    },
    {
        "Postcode": "81100",
        "Location": "Jalan Sagu 14",
        "Post_Office": "Johor Bahru",
        "State": "Johor"
    },
    {
        "Postcode": "81100",
        "Location": "Jalan Sagu 15",
        "Post_Office": "Johor Bahru",
        "State": "Johor"
    },
    {
        "Postcode": "81100",
        "Location": "Jalan Sagu 16",
        "Post_Office": "Johor Bahru",
        "State": "Johor"
    },
    {
        "Postcode": "81100",
        "Location": "Jalan Sagu 17",
        "Post_Office": "Johor Bahru",
        "State": "Johor"
    },
    {
        "Postcode": "81100",
        "Location": "Jalan Sagu 18",
        "Post_Office": "Johor Bahru",
        "State": "Johor"
    },
    {
        "Postcode": "81100",
        "Location": "Jalan Sagu 19",
        "Post_Office": "Johor Bahru",
        "State": "Johor"
    },
    {
        "Postcode": "81100",
        "Location": "Jalan Sagu 2",
        "Post_Office": "Johor Bahru",
        "State": "Johor"
    },
    {
        "Postcode": "81100",
        "Location": "Jalan Sagu 20",
        "Post_Office": "Johor Bahru",
        "State": "Johor"
    },
    {
        "Postcode": "81100",
        "Location": "Jalan Sagu 21",
        "Post_Office": "Johor Bahru",
        "State": "Johor"
    },
    {
        "Postcode": "81100",
        "Location": "Jalan Sagu 22",
        "Post_Office": "Johor Bahru",
        "State": "Johor"
    },
    {
        "Postcode": "81100",
        "Location": "Jalan Sagu 23",
        "Post_Office": "Johor Bahru",
        "State": "Johor"
    },
    {
        "Postcode": "81100",
        "Location": "Jalan Sagu 24",
        "Post_Office": "Johor Bahru",
        "State": "Johor"
    },
    {
        "Postcode": "81100",
        "Location": "Jalan Sagu 25",
        "Post_Office": "Johor Bahru",
        "State": "Johor"
    },
    {
        "Postcode": "81100",
        "Location": "Jalan Sagu 26",
        "Post_Office": "Johor Bahru",
        "State": "Johor"
    },
    {
        "Postcode": "81100",
        "Location": "Jalan Sagu 27",
        "Post_Office": "Johor Bahru",
        "State": "Johor"
    },
    {
        "Postcode": "81100",
        "Location": "Jalan Sagu 28",
        "Post_Office": "Johor Bahru",
        "State": "Johor"
    },
    {
        "Postcode": "81100",
        "Location": "Jalan Sagu 29",
        "Post_Office": "Johor Bahru",
        "State": "Johor"
    },
    {
        "Postcode": "81100",
        "Location": "Jalan Sagu 3",
        "Post_Office": "Johor Bahru",
        "State": "Johor"
    },
    {
        "Postcode": "81100",
        "Location": "Jalan Sagu 30",
        "Post_Office": "Johor Bahru",
        "State": "Johor"
    },
    {
        "Postcode": "81100",
        "Location": "Jalan Sagu 31",
        "Post_Office": "Johor Bahru",
        "State": "Johor"
    },
    {
        "Postcode": "81100",
        "Location": "Jalan Sagu 32",
        "Post_Office": "Johor Bahru",
        "State": "Johor"
    },
    {
        "Postcode": "81100",
        "Location": "Jalan Sagu 33",
        "Post_Office": "Johor Bahru",
        "State": "Johor"
    },
    {
        "Postcode": "81100",
        "Location": "Jalan Sagu 34",
        "Post_Office": "Johor Bahru",
        "State": "Johor"
    },
    {
        "Postcode": "81100",
        "Location": "Jalan Sagu 35",
        "Post_Office": "Johor Bahru",
        "State": "Johor"
    },
    {
        "Postcode": "81100",
        "Location": "Jalan Sagu 36",
        "Post_Office": "Johor Bahru",
        "State": "Johor"
    },
    {
        "Postcode": "81100",
        "Location": "Jalan Sagu 4",
        "Post_Office": "Johor Bahru",
        "State": "Johor"
    },
    {
        "Postcode": "81100",
        "Location": "Jalan Sagu 5",
        "Post_Office": "Johor Bahru",
        "State": "Johor"
    },
    {
        "Postcode": "81100",
        "Location": "Jalan Sagu 6",
        "Post_Office": "Johor Bahru",
        "State": "Johor"
    },
    {
        "Postcode": "81100",
        "Location": "Jalan Sagu 7",
        "Post_Office": "Johor Bahru",
        "State": "Johor"
    },
    {
        "Postcode": "81100",
        "Location": "Jalan Sagu 8",
        "Post_Office": "Johor Bahru",
        "State": "Johor"
    },
    {
        "Postcode": "81100",
        "Location": "Jalan Sagu 9",
        "Post_Office": "Johor Bahru",
        "State": "Johor"
    },
    {
        "Postcode": "81100",
        "Location": "Jalan Semangkok 1",
        "Post_Office": "Johor Bahru",
        "State": "Johor"
    },
    {
        "Postcode": "81100",
        "Location": "Jalan Semangkok 2",
        "Post_Office": "Johor Bahru",
        "State": "Johor"
    },
    {
        "Postcode": "81100",
        "Location": "Jalan Semangkok 3",
        "Post_Office": "Johor Bahru",
        "State": "Johor"
    },
    {
        "Postcode": "81100",
        "Location": "Jalan Semangkok 4",
        "Post_Office": "Johor Bahru",
        "State": "Johor"
    },
    {
        "Postcode": "81100",
        "Location": "Jalan Semangkok 5",
        "Post_Office": "Johor Bahru",
        "State": "Johor"
    },
    {
        "Postcode": "81100",
        "Location": "Jalan Seri Purnama 2/1",
        "Post_Office": "Johor Bahru",
        "State": "Johor"
    },
    {
        "Postcode": "81100",
        "Location": "Jalan Seri Purnama 2/2",
        "Post_Office": "Johor Bahru",
        "State": "Johor"
    },
    {
        "Postcode": "81100",
        "Location": "Jalan Seri Purnama 2/3",
        "Post_Office": "Johor Bahru",
        "State": "Johor"
    },
    {
        "Postcode": "81100",
        "Location": "Jalan Seroja 1",
        "Post_Office": "Johor Bahru",
        "State": "Johor"
    },
    {
        "Postcode": "81100",
        "Location": "Jalan Seroja 10",
        "Post_Office": "Johor Bahru",
        "State": "Johor"
    },
    {
        "Postcode": "81100",
        "Location": "Jalan Seroja 11",
        "Post_Office": "Johor Bahru",
        "State": "Johor"
    },
    {
        "Postcode": "81100",
        "Location": "Jalan Seroja 12",
        "Post_Office": "Johor Bahru",
        "State": "Johor"
    },
    {
        "Postcode": "81100",
        "Location": "Jalan Seroja 13",
        "Post_Office": "Johor Bahru",
        "State": "Johor"
    },
    {
        "Postcode": "81100",
        "Location": "Jalan Seroja 14",
        "Post_Office": "Johor Bahru",
        "State": "Johor"
    },
    {
        "Postcode": "81100",
        "Location": "Jalan Seroja 15",
        "Post_Office": "Johor Bahru",
        "State": "Johor"
    },
    {
        "Postcode": "81100",
        "Location": "Jalan Seroja 16",
        "Post_Office": "Johor Bahru",
        "State": "Johor"
    },
    {
        "Postcode": "81100",
        "Location": "Jalan Seroja 17",
        "Post_Office": "Johor Bahru",
        "State": "Johor"
    },
    {
        "Postcode": "81100",
        "Location": "Jalan Seroja 18",
        "Post_Office": "Johor Bahru",
        "State": "Johor"
    },
    {
        "Postcode": "81100",
        "Location": "Jalan Seroja 19",
        "Post_Office": "Johor Bahru",
        "State": "Johor"
    },
    {
        "Postcode": "81100",
        "Location": "Jalan Seroja 2",
        "Post_Office": "Johor Bahru",
        "State": "Johor"
    },
    {
        "Postcode": "81100",
        "Location": "Jalan Seroja 20",
        "Post_Office": "Johor Bahru",
        "State": "Johor"
    },
    {
        "Postcode": "81100",
        "Location": "Jalan Seroja 21",
        "Post_Office": "Johor Bahru",
        "State": "Johor"
    },
    {
        "Postcode": "81100",
        "Location": "Jalan Seroja 22",
        "Post_Office": "Johor Bahru",
        "State": "Johor"
    },
    {
        "Postcode": "81100",
        "Location": "Jalan Seroja 23",
        "Post_Office": "Johor Bahru",
        "State": "Johor"
    },
    {
        "Postcode": "81100",
        "Location": "Jalan Seroja 24",
        "Post_Office": "Johor Bahru",
        "State": "Johor"
    },
    {
        "Postcode": "81100",
        "Location": "Jalan Seroja 25",
        "Post_Office": "Johor Bahru",
        "State": "Johor"
    },
    {
        "Postcode": "81100",
        "Location": "Jalan Seroja 26",
        "Post_Office": "Johor Bahru",
        "State": "Johor"
    },
    {
        "Postcode": "81100",
        "Location": "Jalan Seroja 27",
        "Post_Office": "Johor Bahru",
        "State": "Johor"
    },
    {
        "Postcode": "81100",
        "Location": "Jalan Seroja 28",
        "Post_Office": "Johor Bahru",
        "State": "Johor"
    },
    {
        "Postcode": "81100",
        "Location": "Jalan Seroja 29",
        "Post_Office": "Johor Bahru",
        "State": "Johor"
    },
    {
        "Postcode": "81100",
        "Location": "Jalan Seroja 3",
        "Post_Office": "Johor Bahru",
        "State": "Johor"
    },
    {
        "Postcode": "81100",
        "Location": "Jalan Seroja 30",
        "Post_Office": "Johor Bahru",
        "State": "Johor"
    },
    {
        "Postcode": "81100",
        "Location": "Jalan Seroja 31",
        "Post_Office": "Johor Bahru",
        "State": "Johor"
    },
    {
        "Postcode": "81100",
        "Location": "Jalan Seroja 32",
        "Post_Office": "Johor Bahru",
        "State": "Johor"
    },
    {
        "Postcode": "81100",
        "Location": "Jalan Seroja 33",
        "Post_Office": "Johor Bahru",
        "State": "Johor"
    },
    {
        "Postcode": "81100",
        "Location": "Jalan Seroja 34",
        "Post_Office": "Johor Bahru",
        "State": "Johor"
    },
    {
        "Postcode": "81100",
        "Location": "Jalan Seroja 35",
        "Post_Office": "Johor Bahru",
        "State": "Johor"
    },
    {
        "Postcode": "81100",
        "Location": "Jalan Seroja 36",
        "Post_Office": "Johor Bahru",
        "State": "Johor"
    },
    {
        "Postcode": "81100",
        "Location": "Jalan Seroja 37",
        "Post_Office": "Johor Bahru",
        "State": "Johor"
    },
    {
        "Postcode": "81100",
        "Location": "Jalan Seroja 38",
        "Post_Office": "Johor Bahru",
        "State": "Johor"
    },
    {
        "Postcode": "81100",
        "Location": "Jalan Seroja 39",
        "Post_Office": "Johor Bahru",
        "State": "Johor"
    },
    {
        "Postcode": "81100",
        "Location": "Jalan Seroja 4",
        "Post_Office": "Johor Bahru",
        "State": "Johor"
    },
    {
        "Postcode": "81100",
        "Location": "Jalan Seroja 40",
        "Post_Office": "Johor Bahru",
        "State": "Johor"
    },
    {
        "Postcode": "81100",
        "Location": "Jalan Seroja 41",
        "Post_Office": "Johor Bahru",
        "State": "Johor"
    },
    {
        "Postcode": "81100",
        "Location": "Jalan Seroja 42",
        "Post_Office": "Johor Bahru",
        "State": "Johor"
    },
    {
        "Postcode": "81100",
        "Location": "Jalan Seroja 43",
        "Post_Office": "Johor Bahru",
        "State": "Johor"
    },
    {
        "Postcode": "81100",
        "Location": "Jalan Seroja 44",
        "Post_Office": "Johor Bahru",
        "State": "Johor"
    },
    {
        "Postcode": "81100",
        "Location": "Jalan Seroja 45",
        "Post_Office": "Johor Bahru",
        "State": "Johor"
    },
    {
        "Postcode": "81100",
        "Location": "Jalan Seroja 46",
        "Post_Office": "Johor Bahru",
        "State": "Johor"
    },
    {
        "Postcode": "81100",
        "Location": "Jalan Seroja 47",
        "Post_Office": "Johor Bahru",
        "State": "Johor"
    },
    {
        "Postcode": "81100",
        "Location": "Jalan Seroja 5",
        "Post_Office": "Johor Bahru",
        "State": "Johor"
    },
    {
        "Postcode": "81100",
        "Location": "Jalan Seroja 6",
        "Post_Office": "Johor Bahru",
        "State": "Johor"
    },
    {
        "Postcode": "81100",
        "Location": "Jalan Seroja 7",
        "Post_Office": "Johor Bahru",
        "State": "Johor"
    },
    {
        "Postcode": "81100",
        "Location": "Jalan Seroja 8",
        "Post_Office": "Johor Bahru",
        "State": "Johor"
    },
    {
        "Postcode": "81100",
        "Location": "Jalan Seroja 9",
        "Post_Office": "Johor Bahru",
        "State": "Johor"
    },
    {
        "Postcode": "81100",
        "Location": "Jalan Suria 1",
        "Post_Office": "Johor Bahru",
        "State": "Johor"
    },
    {
        "Postcode": "81100",
        "Location": "Jalan Suria 10",
        "Post_Office": "Johor Bahru",
        "State": "Johor"
    },
    {
        "Postcode": "81100",
        "Location": "Jalan Suria 11",
        "Post_Office": "Johor Bahru",
        "State": "Johor"
    },
    {
        "Postcode": "81100",
        "Location": "Jalan Suria 12",
        "Post_Office": "Johor Bahru",
        "State": "Johor"
    },
    {
        "Postcode": "81100",
        "Location": "Jalan Suria 13",
        "Post_Office": "Johor Bahru",
        "State": "Johor"
    },
    {
        "Postcode": "81100",
        "Location": "Jalan Suria 14",
        "Post_Office": "Johor Bahru",
        "State": "Johor"
    },
    {
        "Postcode": "81100",
        "Location": "Jalan Suria 15",
        "Post_Office": "Johor Bahru",
        "State": "Johor"
    },
    {
        "Postcode": "81100",
        "Location": "Jalan Suria 16",
        "Post_Office": "Johor Bahru",
        "State": "Johor"
    },
    {
        "Postcode": "81100",
        "Location": "Jalan Suria 17",
        "Post_Office": "Johor Bahru",
        "State": "Johor"
    },
    {
        "Postcode": "81100",
        "Location": "Jalan Suria 18",
        "Post_Office": "Johor Bahru",
        "State": "Johor"
    },
    {
        "Postcode": "81100",
        "Location": "Jalan Suria 19",
        "Post_Office": "Johor Bahru",
        "State": "Johor"
    },
    {
        "Postcode": "81100",
        "Location": "Jalan Suria 2",
        "Post_Office": "Johor Bahru",
        "State": "Johor"
    },
    {
        "Postcode": "81100",
        "Location": "Jalan Suria 3",
        "Post_Office": "Johor Bahru",
        "State": "Johor"
    },
    {
        "Postcode": "81100",
        "Location": "Jalan Suria 4",
        "Post_Office": "Johor Bahru",
        "State": "Johor"
    },
    {
        "Postcode": "81100",
        "Location": "Jalan Suria 4/1",
        "Post_Office": "Johor Bahru",
        "State": "Johor"
    },
    {
        "Postcode": "81100",
        "Location": "Jalan Suria 4/2",
        "Post_Office": "Johor Bahru",
        "State": "Johor"
    },
    {
        "Postcode": "81100",
        "Location": "Jalan Suria 5",
        "Post_Office": "Johor Bahru",
        "State": "Johor"
    },
    {
        "Postcode": "81100",
        "Location": "Jalan Suria 6",
        "Post_Office": "Johor Bahru",
        "State": "Johor"
    },
    {
        "Postcode": "81100",
        "Location": "Jalan Suria 7",
        "Post_Office": "Johor Bahru",
        "State": "Johor"
    },
    {
        "Postcode": "81100",
        "Location": "Jalan Suria 8",
        "Post_Office": "Johor Bahru",
        "State": "Johor"
    },
    {
        "Postcode": "81100",
        "Location": "Jalan Suria 9",
        "Post_Office": "Johor Bahru",
        "State": "Johor"
    },
    {
        "Postcode": "81100",
        "Location": "Jalan Tapah 1",
        "Post_Office": "Johor Bahru",
        "State": "Johor"
    },
    {
        "Postcode": "81100",
        "Location": "Jalan Tapah 2",
        "Post_Office": "Johor Bahru",
        "State": "Johor"
    },
    {
        "Postcode": "81100",
        "Location": "Jalan Tapah 3",
        "Post_Office": "Johor Bahru",
        "State": "Johor"
    },
    {
        "Postcode": "81100",
        "Location": "Jalan Tapah 4",
        "Post_Office": "Johor Bahru",
        "State": "Johor"
    },
    {
        "Postcode": "81100",
        "Location": "Jalan Temenggong 1",
        "Post_Office": "Johor Bahru",
        "State": "Johor"
    },
    {
        "Postcode": "81100",
        "Location": "Jalan Temenggong 2",
        "Post_Office": "Johor Bahru",
        "State": "Johor"
    },
    {
        "Postcode": "81100",
        "Location": "Jalan Teratai 10",
        "Post_Office": "Johor Bahru",
        "State": "Johor"
    },
    {
        "Postcode": "81100",
        "Location": "Jalan Teratai 11",
        "Post_Office": "Johor Bahru",
        "State": "Johor"
    },
    {
        "Postcode": "81100",
        "Location": "Jalan Teratai 12",
        "Post_Office": "Johor Bahru",
        "State": "Johor"
    },
    {
        "Postcode": "81100",
        "Location": "Jalan Teratai 13",
        "Post_Office": "Johor Bahru",
        "State": "Johor"
    },
    {
        "Postcode": "81100",
        "Location": "Jalan Teratai 14",
        "Post_Office": "Johor Bahru",
        "State": "Johor"
    },
    {
        "Postcode": "81100",
        "Location": "Jalan Teratai 15",
        "Post_Office": "Johor Bahru",
        "State": "Johor"
    },
    {
        "Postcode": "81100",
        "Location": "Jalan Teratai 16",
        "Post_Office": "Johor Bahru",
        "State": "Johor"
    },
    {
        "Postcode": "81100",
        "Location": "Jalan Teratai 17",
        "Post_Office": "Johor Bahru",
        "State": "Johor"
    },
    {
        "Postcode": "81100",
        "Location": "Jalan Teratai 18",
        "Post_Office": "Johor Bahru",
        "State": "Johor"
    },
    {
        "Postcode": "81100",
        "Location": "Jalan Teratai 19",
        "Post_Office": "Johor Bahru",
        "State": "Johor"
    },
    {
        "Postcode": "81100",
        "Location": "Jalan Teratai 2",
        "Post_Office": "Johor Bahru",
        "State": "Johor"
    },
    {
        "Postcode": "81100",
        "Location": "Jalan Teratai 20",
        "Post_Office": "Johor Bahru",
        "State": "Johor"
    },
    {
        "Postcode": "81100",
        "Location": "Jalan Teratai 21",
        "Post_Office": "Johor Bahru",
        "State": "Johor"
    },
    {
        "Postcode": "81100",
        "Location": "Jalan Teratai 22",
        "Post_Office": "Johor Bahru",
        "State": "Johor"
    },
    {
        "Postcode": "81100",
        "Location": "Jalan Teratai 23",
        "Post_Office": "Johor Bahru",
        "State": "Johor"
    },
    {
        "Postcode": "81100",
        "Location": "Jalan Teratai 24",
        "Post_Office": "Johor Bahru",
        "State": "Johor"
    },
    {
        "Postcode": "81100",
        "Location": "Jalan Teratai 25",
        "Post_Office": "Johor Bahru",
        "State": "Johor"
    },
    {
        "Postcode": "81100",
        "Location": "Jalan Teratai 26",
        "Post_Office": "Johor Bahru",
        "State": "Johor"
    },
    {
        "Postcode": "81100",
        "Location": "Jalan Teratai 27",
        "Post_Office": "Johor Bahru",
        "State": "Johor"
    },
    {
        "Postcode": "81100",
        "Location": "Jalan Teratai 28",
        "Post_Office": "Johor Bahru",
        "State": "Johor"
    },
    {
        "Postcode": "81100",
        "Location": "Jalan Teratai 29",
        "Post_Office": "Johor Bahru",
        "State": "Johor"
    },
    {
        "Postcode": "81100",
        "Location": "Jalan Teratai 3",
        "Post_Office": "Johor Bahru",
        "State": "Johor"
    },
    {
        "Postcode": "81100",
        "Location": "Jalan Teratai 30",
        "Post_Office": "Johor Bahru",
        "State": "Johor"
    },
    {
        "Postcode": "81100",
        "Location": "Jalan Teratai 31",
        "Post_Office": "Johor Bahru",
        "State": "Johor"
    },
    {
        "Postcode": "81100",
        "Location": "Jalan Teratai 32",
        "Post_Office": "Johor Bahru",
        "State": "Johor"
    },
    {
        "Postcode": "81100",
        "Location": "Jalan Teratai 33",
        "Post_Office": "Johor Bahru",
        "State": "Johor"
    },
    {
        "Postcode": "81100",
        "Location": "Jalan Teratai 34",
        "Post_Office": "Johor Bahru",
        "State": "Johor"
    },
    {
        "Postcode": "81100",
        "Location": "Jalan Teratai 35",
        "Post_Office": "Johor Bahru",
        "State": "Johor"
    },
    {
        "Postcode": "81100",
        "Location": "Jalan Teratai 36",
        "Post_Office": "Johor Bahru",
        "State": "Johor"
    },
    {
        "Postcode": "81100",
        "Location": "Jalan Teratai 37",
        "Post_Office": "Johor Bahru",
        "State": "Johor"
    },
    {
        "Postcode": "81100",
        "Location": "Jalan Teratai 38",
        "Post_Office": "Johor Bahru",
        "State": "Johor"
    },
    {
        "Postcode": "81100",
        "Location": "Jalan Teratai 39",
        "Post_Office": "Johor Bahru",
        "State": "Johor"
    },
    {
        "Postcode": "81100",
        "Location": "Jalan Teratai 4",
        "Post_Office": "Johor Bahru",
        "State": "Johor"
    },
    {
        "Postcode": "81100",
        "Location": "Jalan Teratai 40",
        "Post_Office": "Johor Bahru",
        "State": "Johor"
    },
    {
        "Postcode": "81100",
        "Location": "Jalan Teratai 41",
        "Post_Office": "Johor Bahru",
        "State": "Johor"
    },
    {
        "Postcode": "81100",
        "Location": "Jalan Teratai 42",
        "Post_Office": "Johor Bahru",
        "State": "Johor"
    },
    {
        "Postcode": "81100",
        "Location": "Jalan Teratai 43",
        "Post_Office": "Johor Bahru",
        "State": "Johor"
    },
    {
        "Postcode": "81100",
        "Location": "Jalan Teratai 44",
        "Post_Office": "Johor Bahru",
        "State": "Johor"
    },
    {
        "Postcode": "81100",
        "Location": "Jalan Teratai 45",
        "Post_Office": "Johor Bahru",
        "State": "Johor"
    },
    {
        "Postcode": "81100",
        "Location": "Jalan Teratai 46",
        "Post_Office": "Johor Bahru",
        "State": "Johor"
    },
    {
        "Postcode": "81100",
        "Location": "Jalan Teratai 47",
        "Post_Office": "Johor Bahru",
        "State": "Johor"
    },
    {
        "Postcode": "81100",
        "Location": "Jalan Teratai 48",
        "Post_Office": "Johor Bahru",
        "State": "Johor"
    },
    {
        "Postcode": "81100",
        "Location": "Jalan Teratai 49",
        "Post_Office": "Johor Bahru",
        "State": "Johor"
    },
    {
        "Postcode": "81100",
        "Location": "Jalan Teratai 5",
        "Post_Office": "Johor Bahru",
        "State": "Johor"
    },
    {
        "Postcode": "81100",
        "Location": "Jalan Teratai 50",
        "Post_Office": "Johor Bahru",
        "State": "Johor"
    },
    {
        "Postcode": "81100",
        "Location": "Jalan Teratai 51",
        "Post_Office": "Johor Bahru",
        "State": "Johor"
    },
    {
        "Postcode": "81100",
        "Location": "Jalan Teratai 52",
        "Post_Office": "Johor Bahru",
        "State": "Johor"
    },
    {
        "Postcode": "81100",
        "Location": "Jalan Teratai 53",
        "Post_Office": "Johor Bahru",
        "State": "Johor"
    },
    {
        "Postcode": "81100",
        "Location": "Jalan Teratai 54",
        "Post_Office": "Johor Bahru",
        "State": "Johor"
    },
    {
        "Postcode": "81100",
        "Location": "Jalan Teratai 55",
        "Post_Office": "Johor Bahru",
        "State": "Johor"
    },
    {
        "Postcode": "81100",
        "Location": "Jalan Teratai 56",
        "Post_Office": "Johor Bahru",
        "State": "Johor"
    },
    {
        "Postcode": "81100",
        "Location": "Jalan Teratai 57",
        "Post_Office": "Johor Bahru",
        "State": "Johor"
    },
    {
        "Postcode": "81100",
        "Location": "Jalan Teratai 58",
        "Post_Office": "Johor Bahru",
        "State": "Johor"
    },
    {
        "Postcode": "81100",
        "Location": "Jalan Teratai 59",
        "Post_Office": "Johor Bahru",
        "State": "Johor"
    },
    {
        "Postcode": "81100",
        "Location": "Jalan Teratai 6",
        "Post_Office": "Johor Bahru",
        "State": "Johor"
    },
    {
        "Postcode": "81100",
        "Location": "Jalan Teratai 60",
        "Post_Office": "Johor Bahru",
        "State": "Johor"
    },
    {
        "Postcode": "81100",
        "Location": "Jalan Teratai 61",
        "Post_Office": "Johor Bahru",
        "State": "Johor"
    },
    {
        "Postcode": "81100",
        "Location": "Jalan Teratai 62",
        "Post_Office": "Johor Bahru",
        "State": "Johor"
    },
    {
        "Postcode": "81100",
        "Location": "Jalan Teratai 63",
        "Post_Office": "Johor Bahru",
        "State": "Johor"
    },
    {
        "Postcode": "81100",
        "Location": "Jalan Teratai 64",
        "Post_Office": "Johor Bahru",
        "State": "Johor"
    },
    {
        "Postcode": "81100",
        "Location": "Jalan Teratai 65",
        "Post_Office": "Johor Bahru",
        "State": "Johor"
    },
    {
        "Postcode": "81100",
        "Location": "Jalan Teratai 66",
        "Post_Office": "Johor Bahru",
        "State": "Johor"
    },
    {
        "Postcode": "81100",
        "Location": "Jalan Teratai 67",
        "Post_Office": "Johor Bahru",
        "State": "Johor"
    },
    {
        "Postcode": "81100",
        "Location": "Jalan Teratai 68",
        "Post_Office": "Johor Bahru",
        "State": "Johor"
    },
    {
        "Postcode": "81100",
        "Location": "Jalan Teratai 69",
        "Post_Office": "Johor Bahru",
        "State": "Johor"
    },
    {
        "Postcode": "81100",
        "Location": "Jalan Teratai 7",
        "Post_Office": "Johor Bahru",
        "State": "Johor"
    },
    {
        "Postcode": "81100",
        "Location": "Jalan Teratai 70",
        "Post_Office": "Johor Bahru",
        "State": "Johor"
    },
    {
        "Postcode": "81100",
        "Location": "Jalan Teratai 71",
        "Post_Office": "Johor Bahru",
        "State": "Johor"
    },
    {
        "Postcode": "81100",
        "Location": "Jalan Teratai 72",
        "Post_Office": "Johor Bahru",
        "State": "Johor"
    },
    {
        "Postcode": "81100",
        "Location": "Jalan Teratai 73",
        "Post_Office": "Johor Bahru",
        "State": "Johor"
    },
    {
        "Postcode": "81100",
        "Location": "Jalan Teratai 74",
        "Post_Office": "Johor Bahru",
        "State": "Johor"
    },
    {
        "Postcode": "81100",
        "Location": "Jalan Teratai 75",
        "Post_Office": "Johor Bahru",
        "State": "Johor"
    },
    {
        "Postcode": "81100",
        "Location": "Jalan Teratai 76",
        "Post_Office": "Johor Bahru",
        "State": "Johor"
    },
    {
        "Postcode": "81100",
        "Location": "Jalan Teratai 77",
        "Post_Office": "Johor Bahru",
        "State": "Johor"
    },
    {
        "Postcode": "81100",
        "Location": "Jalan Teratai 78",
        "Post_Office": "Johor Bahru",
        "State": "Johor"
    },
    {
        "Postcode": "81100",
        "Location": "Jalan Teratai 79",
        "Post_Office": "Johor Bahru",
        "State": "Johor"
    },
    {
        "Postcode": "81100",
        "Location": "Jalan Teratai 8",
        "Post_Office": "Johor Bahru",
        "State": "Johor"
    },
    {
        "Postcode": "81100",
        "Location": "Jalan Teratai 80",
        "Post_Office": "Johor Bahru",
        "State": "Johor"
    },
    {
        "Postcode": "81100",
        "Location": "Jalan Teratai 81",
        "Post_Office": "Johor Bahru",
        "State": "Johor"
    },
    {
        "Postcode": "81100",
        "Location": "Jalan Teratai 9",
        "Post_Office": "Johor Bahru",
        "State": "Johor"
    },
    {
        "Postcode": "81100",
        "Location": "Jalan Tun Teja 1",
        "Post_Office": "Johor Bahru",
        "State": "Johor"
    },
    {
        "Postcode": "81100",
        "Location": "Jalan Tun Teja 2",
        "Post_Office": "Johor Bahru",
        "State": "Johor"
    },
    {
        "Postcode": "81100",
        "Location": "Jalan Waja 1",
        "Post_Office": "Johor Bahru",
        "State": "Johor"
    },
    {
        "Postcode": "81100",
        "Location": "Jalan Waja 2",
        "Post_Office": "Johor Bahru",
        "State": "Johor"
    },
    {
        "Postcode": "81100",
        "Location": "Jalan Waja 3",
        "Post_Office": "Johor Bahru",
        "State": "Johor"
    },
    {
        "Postcode": "81100",
        "Location": "Jalan Waja 4",
        "Post_Office": "Johor Bahru",
        "State": "Johor"
    },
    {
        "Postcode": "81100",
        "Location": "Jalan Waja 5",
        "Post_Office": "Johor Bahru",
        "State": "Johor"
    },
    {
        "Postcode": "81100",
        "Location": "Jalan Waja 6",
        "Post_Office": "Johor Bahru",
        "State": "Johor"
    },
    {
        "Postcode": "81100",
        "Location": "Jalan Waja 7",
        "Post_Office": "Johor Bahru",
        "State": "Johor"
    },
    {
        "Postcode": "81100",
        "Location": "Jalan Waja 8",
        "Post_Office": "Johor Bahru",
        "State": "Johor"
    },
    {
        "Postcode": "81100",
        "Location": "Kawasan Perindustrian Tebrau I",
        "Post_Office": "Johor Bahru",
        "State": "Johor"
    },
    {
        "Postcode": "81100",
        "Location": "Kawasan Perindustrian Tebrau Ii",
        "Post_Office": "Johor Bahru",
        "State": "Johor"
    },
    {
        "Postcode": "81100",
        "Location": "Kawasan Perindustrian Tebrau Iii",
        "Post_Office": "Johor Bahru",
        "State": "Johor"
    },
    {
        "Postcode": "81100",
        "Location": "Kawasan Perindustrian Tebrau Iv",
        "Post_Office": "Johor Bahru",
        "State": "Johor"
    },
    {
        "Postcode": "81100",
        "Location": "Lorong 1, Jalan Orkid",
        "Post_Office": "Johor Bahru",
        "State": "Johor"
    },
    {
        "Postcode": "81100",
        "Location": "Lorong 1, Jalan Surau",
        "Post_Office": "Johor Bahru",
        "State": "Johor"
    },
    {
        "Postcode": "81100",
        "Location": "Lorong 1, Jalan Syukor",
        "Post_Office": "Johor Bahru",
        "State": "Johor"
    },
    {
        "Postcode": "81100",
        "Location": "Lorong 2, Jalan Rahmat",
        "Post_Office": "Johor Bahru",
        "State": "Johor"
    },
    {
        "Postcode": "81100",
        "Location": "Lorong 2, Jalan Syukor",
        "Post_Office": "Johor Bahru",
        "State": "Johor"
    },
    {
        "Postcode": "81100",
        "Location": "Lorong 3, Jalan Rahmat",
        "Post_Office": "Johor Bahru",
        "State": "Johor"
    },
    {
        "Postcode": "81100",
        "Location": "Jalan Sakti",
        "Post_Office": "Johor Bahru",
        "State": "Johor"
    },
    {
        "Postcode": "81100",
        "Location": "Jalan Sawi",
        "Post_Office": "Johor Bahru",
        "State": "Johor"
    },
    {
        "Postcode": "81100",
        "Location": "Jalan Sehat",
        "Post_Office": "Johor Bahru",
        "State": "Johor"
    },
    {
        "Postcode": "81100",
        "Location": "Jalan Setia",
        "Post_Office": "Johor Bahru",
        "State": "Johor"
    },
    {
        "Postcode": "81100",
        "Location": "Jalan Suka",
        "Post_Office": "Johor Bahru",
        "State": "Johor"
    },
    {
        "Postcode": "81100",
        "Location": "Jalan Tengah",
        "Post_Office": "Johor Bahru",
        "State": "Johor"
    },
    {
        "Postcode": "81100",
        "Location": "Taman Setia Eco Cascadia",
        "Post_Office": "Johor Bahru",
        "State": "Johor"
    },
    {
        "Postcode": "81100",
        "Location": "Jalan Andang 1",
        "Post_Office": "Johor Bahru",
        "State": "Johor"
    },
    {
        "Postcode": "81100",
        "Location": "Jalan Andang 2",
        "Post_Office": "Johor Bahru",
        "State": "Johor"
    },
    {
        "Postcode": "81100",
        "Location": "Jalan Andang 3",
        "Post_Office": "Johor Bahru",
        "State": "Johor"
    },
    {
        "Postcode": "81100",
        "Location": "Jalan Andang 4",
        "Post_Office": "Johor Bahru",
        "State": "Johor"
    },
    {
        "Postcode": "81100",
        "Location": "Jalan Andang 5",
        "Post_Office": "Johor Bahru",
        "State": "Johor"
    },
    {
        "Postcode": "81100",
        "Location": "Jalan Andang 6",
        "Post_Office": "Johor Bahru",
        "State": "Johor"
    },
    {
        "Postcode": "81100",
        "Location": "Jalan Anggerik 1",
        "Post_Office": "Johor Bahru",
        "State": "Johor"
    },
    {
        "Postcode": "81100",
        "Location": "Jalan Anggerik 10",
        "Post_Office": "Johor Bahru",
        "State": "Johor"
    },
    {
        "Postcode": "81100",
        "Location": "Jalan Anggerik 11",
        "Post_Office": "Johor Bahru",
        "State": "Johor"
    },
    {
        "Postcode": "81100",
        "Location": "Jalan Anggerik 12",
        "Post_Office": "Johor Bahru",
        "State": "Johor"
    },
    {
        "Postcode": "81100",
        "Location": "Jalan Anggerik 13",
        "Post_Office": "Johor Bahru",
        "State": "Johor"
    },
    {
        "Postcode": "81100",
        "Location": "Jalan Anggerik 14",
        "Post_Office": "Johor Bahru",
        "State": "Johor"
    },
    {
        "Postcode": "81100",
        "Location": "Jalan Anggerik 15",
        "Post_Office": "Johor Bahru",
        "State": "Johor"
    },
    {
        "Postcode": "81100",
        "Location": "Jalan Anggerik 16",
        "Post_Office": "Johor Bahru",
        "State": "Johor"
    },
    {
        "Postcode": "81100",
        "Location": "Jalan Anggerik 17",
        "Post_Office": "Johor Bahru",
        "State": "Johor"
    },
    {
        "Postcode": "81100",
        "Location": "Jalan Anggerik 18",
        "Post_Office": "Johor Bahru",
        "State": "Johor"
    },
    {
        "Postcode": "81100",
        "Location": "Jalan Anggerik 19",
        "Post_Office": "Johor Bahru",
        "State": "Johor"
    },
    {
        "Postcode": "81100",
        "Location": "Jalan Anggerik 2",
        "Post_Office": "Johor Bahru",
        "State": "Johor"
    },
    {
        "Postcode": "81100",
        "Location": "Jalan Anggerik 20",
        "Post_Office": "Johor Bahru",
        "State": "Johor"
    },
    {
        "Postcode": "81100",
        "Location": "Jalan Anggerik 21",
        "Post_Office": "Johor Bahru",
        "State": "Johor"
    },
    {
        "Postcode": "81100",
        "Location": "Jalan Anggerik 22",
        "Post_Office": "Johor Bahru",
        "State": "Johor"
    },
    {
        "Postcode": "81100",
        "Location": "Jalan Anggerik 23",
        "Post_Office": "Johor Bahru",
        "State": "Johor"
    },
    {
        "Postcode": "81100",
        "Location": "Jalan Anggerik 24",
        "Post_Office": "Johor Bahru",
        "State": "Johor"
    },
    {
        "Postcode": "81100",
        "Location": "Jalan Anggerik 25",
        "Post_Office": "Johor Bahru",
        "State": "Johor"
    },
    {
        "Postcode": "81100",
        "Location": "Jalan Anggerik 26",
        "Post_Office": "Johor Bahru",
        "State": "Johor"
    },
    {
        "Postcode": "81100",
        "Location": "Jalan Anggerik 27",
        "Post_Office": "Johor Bahru",
        "State": "Johor"
    },
    {
        "Postcode": "81100",
        "Location": "Jalan Anggerik 28",
        "Post_Office": "Johor Bahru",
        "State": "Johor"
    },
    {
        "Postcode": "81100",
        "Location": "Jalan Anggerik 29",
        "Post_Office": "Johor Bahru",
        "State": "Johor"
    },
    {
        "Postcode": "81100",
        "Location": "Jalan Anggerik 3",
        "Post_Office": "Johor Bahru",
        "State": "Johor"
    },
    {
        "Postcode": "81100",
        "Location": "Jalan Anggerik 30",
        "Post_Office": "Johor Bahru",
        "State": "Johor"
    },
    {
        "Postcode": "81100",
        "Location": "Jalan Anggerik 31",
        "Post_Office": "Johor Bahru",
        "State": "Johor"
    },
    {
        "Postcode": "81100",
        "Location": "Jalan Anggerik 32",
        "Post_Office": "Johor Bahru",
        "State": "Johor"
    },
    {
        "Postcode": "81100",
        "Location": "Jalan Anggerik 33",
        "Post_Office": "Johor Bahru",
        "State": "Johor"
    },
    {
        "Postcode": "81100",
        "Location": "Jalan Anggerik 34",
        "Post_Office": "Johor Bahru",
        "State": "Johor"
    },
    {
        "Postcode": "81100",
        "Location": "Jalan Anggerik 35",
        "Post_Office": "Johor Bahru",
        "State": "Johor"
    },
    {
        "Postcode": "81100",
        "Location": "Jalan Anggerik 36",
        "Post_Office": "Johor Bahru",
        "State": "Johor"
    },
    {
        "Postcode": "81100",
        "Location": "Jalan Anggerik 37",
        "Post_Office": "Johor Bahru",
        "State": "Johor"
    },
    {
        "Postcode": "81100",
        "Location": "Jalan Anggerik 38",
        "Post_Office": "Johor Bahru",
        "State": "Johor"
    },
    {
        "Postcode": "81100",
        "Location": "Jalan Anggerik 39",
        "Post_Office": "Johor Bahru",
        "State": "Johor"
    },
    {
        "Postcode": "81100",
        "Location": "Jalan Anggerik 4",
        "Post_Office": "Johor Bahru",
        "State": "Johor"
    },
    {
        "Postcode": "81100",
        "Location": "Jalan Anggerik 40",
        "Post_Office": "Johor Bahru",
        "State": "Johor"
    },
    {
        "Postcode": "81100",
        "Location": "Jalan Anggerik 41",
        "Post_Office": "Johor Bahru",
        "State": "Johor"
    },
    {
        "Postcode": "81100",
        "Location": "Jalan Anggerik 42",
        "Post_Office": "Johor Bahru",
        "State": "Johor"
    },
    {
        "Postcode": "81100",
        "Location": "Taman Perbadanan Islam Setulang Baru",
        "Post_Office": "Johor Bahru",
        "State": "Johor"
    },
    {
        "Postcode": "81100",
        "Location": "Jalan Kesom",
        "Post_Office": "Johor Bahru",
        "State": "Johor"
    },
    {
        "Postcode": "81100",
        "Location": "Bandar Jaya Putra",
        "Post_Office": "Johor Bahru",
        "State": "Johor"
    },
    {
        "Postcode": "81100",
        "Location": "Kampung Desa Melayu",
        "Post_Office": "Johor Bahru",
        "State": "Johor"
    },
    {
        "Postcode": "81100",
        "Location": "Kampung Hajjah Hasnah",
        "Post_Office": "Johor Bahru",
        "State": "Johor"
    },
    {
        "Postcode": "81100",
        "Location": "Kampung Melayu Majidee",
        "Post_Office": "Johor Bahru",
        "State": "Johor"
    },
    {
        "Postcode": "81100",
        "Location": "Kampung Tengah Tebrau",
        "Post_Office": "Johor Bahru",
        "State": "Johor"
    },
    {
        "Postcode": "81100",
        "Location": "Kangkar Terbau",
        "Post_Office": "Johor Bahru",
        "State": "Johor"
    },
    {
        "Postcode": "81100",
        "Location": "Kawasan Perindustrian Pandan",
        "Post_Office": "Johor Bahru",
        "State": "Johor"
    },
    {
        "Postcode": "81100",
        "Location": "Setia Business Park 2",
        "Post_Office": "Johor Bahru",
        "State": "Johor"
    },
    {
        "Postcode": "81100",
        "Location": "Taman Austin Duta",
        "Post_Office": "Johor Bahru",
        "State": "Johor"
    },
    {
        "Postcode": "81100",
        "Location": "Bandar Jaya Putera",
        "Post_Office": "Johor Bahru",
        "State": "Johor"
    },
    {
        "Postcode": "81100",
        "Location": "Kompleks Sukan Johor",
        "Post_Office": "Johor Bahru",
        "State": "Johor"
    },
    {
        "Postcode": "81100",
        "Location": "Jalan Bakawali 34",
        "Post_Office": "Johor Bahru",
        "State": "Johor"
    },
    {
        "Postcode": "81100",
        "Location": "Jalan Bakawali 35",
        "Post_Office": "Johor Bahru",
        "State": "Johor"
    },
    {
        "Postcode": "81100",
        "Location": "Jalan Bakawali 36",
        "Post_Office": "Johor Bahru",
        "State": "Johor"
    },
    {
        "Postcode": "81100",
        "Location": "Jalan Bakawali 37",
        "Post_Office": "Johor Bahru",
        "State": "Johor"
    },
    {
        "Postcode": "81100",
        "Location": "Jalan Bakawali 38",
        "Post_Office": "Johor Bahru",
        "State": "Johor"
    },
    {
        "Postcode": "81100",
        "Location": "Jalan Bakawali 39",
        "Post_Office": "Johor Bahru",
        "State": "Johor"
    },
    {
        "Postcode": "81100",
        "Location": "Jalan Bakawali 4",
        "Post_Office": "Johor Bahru",
        "State": "Johor"
    },
    {
        "Postcode": "81100",
        "Location": "Jalan Bakawali 40",
        "Post_Office": "Johor Bahru",
        "State": "Johor"
    },
    {
        "Postcode": "81100",
        "Location": "Jalan Bakawali 41",
        "Post_Office": "Johor Bahru",
        "State": "Johor"
    },
    {
        "Postcode": "81100",
        "Location": "Jalan Bakawali 42",
        "Post_Office": "Johor Bahru",
        "State": "Johor"
    },
    {
        "Postcode": "81100",
        "Location": "Jalan Bakawali 43",
        "Post_Office": "Johor Bahru",
        "State": "Johor"
    },
    {
        "Postcode": "81100",
        "Location": "Jalan Bakawali 44",
        "Post_Office": "Johor Bahru",
        "State": "Johor"
    },
    {
        "Postcode": "81100",
        "Location": "Jalan Bakawali 45",
        "Post_Office": "Johor Bahru",
        "State": "Johor"
    },
    {
        "Postcode": "81100",
        "Location": "Jalan Bakawali 46",
        "Post_Office": "Johor Bahru",
        "State": "Johor"
    },
    {
        "Postcode": "81100",
        "Location": "Jalan Bakawali 47",
        "Post_Office": "Johor Bahru",
        "State": "Johor"
    },
    {
        "Postcode": "81100",
        "Location": "Jalan Bakawali 48",
        "Post_Office": "Johor Bahru",
        "State": "Johor"
    },
    {
        "Postcode": "81100",
        "Location": "Jalan Bakawali 49",
        "Post_Office": "Johor Bahru",
        "State": "Johor"
    },
    {
        "Postcode": "81100",
        "Location": "Jalan Bakawali 5",
        "Post_Office": "Johor Bahru",
        "State": "Johor"
    },
    {
        "Postcode": "81100",
        "Location": "Jalan Bakawali 50",
        "Post_Office": "Johor Bahru",
        "State": "Johor"
    },
    {
        "Postcode": "81100",
        "Location": "Jalan Bakawali 51",
        "Post_Office": "Johor Bahru",
        "State": "Johor"
    },
    {
        "Postcode": "81100",
        "Location": "Jalan Bakawali 52",
        "Post_Office": "Johor Bahru",
        "State": "Johor"
    },
    {
        "Postcode": "81100",
        "Location": "Jalan Bakawali 53",
        "Post_Office": "Johor Bahru",
        "State": "Johor"
    },
    {
        "Postcode": "81100",
        "Location": "Jalan Bakawali 54",
        "Post_Office": "Johor Bahru",
        "State": "Johor"
    },
    {
        "Postcode": "81100",
        "Location": "Jalan Bakawali 55",
        "Post_Office": "Johor Bahru",
        "State": "Johor"
    },
    {
        "Postcode": "81100",
        "Location": "Jalan Bakawali 56",
        "Post_Office": "Johor Bahru",
        "State": "Johor"
    },
    {
        "Postcode": "81100",
        "Location": "Jalan Bakawali 57",
        "Post_Office": "Johor Bahru",
        "State": "Johor"
    },
    {
        "Postcode": "81100",
        "Location": "Jalan Bakawali 58",
        "Post_Office": "Johor Bahru",
        "State": "Johor"
    },
    {
        "Postcode": "81100",
        "Location": "Jalan Bakawali 59",
        "Post_Office": "Johor Bahru",
        "State": "Johor"
    },
    {
        "Postcode": "81100",
        "Location": "Jalan Bakawali 6",
        "Post_Office": "Johor Bahru",
        "State": "Johor"
    },
    {
        "Postcode": "81100",
        "Location": "Jalan Bakawali 60",
        "Post_Office": "Johor Bahru",
        "State": "Johor"
    },
    {
        "Postcode": "81100",
        "Location": "Jalan Bakawali 61",
        "Post_Office": "Johor Bahru",
        "State": "Johor"
    },
    {
        "Postcode": "81100",
        "Location": "Jalan Bakawali 62",
        "Post_Office": "Johor Bahru",
        "State": "Johor"
    },
    {
        "Postcode": "81100",
        "Location": "Jalan Bakawali 63",
        "Post_Office": "Johor Bahru",
        "State": "Johor"
    },
    {
        "Postcode": "81100",
        "Location": "Jalan Bakawali 64",
        "Post_Office": "Johor Bahru",
        "State": "Johor"
    },
    {
        "Postcode": "81100",
        "Location": "Jalan Bakawali 65",
        "Post_Office": "Johor Bahru",
        "State": "Johor"
    },
    {
        "Postcode": "81100",
        "Location": "Jalan Bakawali 66",
        "Post_Office": "Johor Bahru",
        "State": "Johor"
    },
    {
        "Postcode": "81100",
        "Location": "Jalan Bakawali 67",
        "Post_Office": "Johor Bahru",
        "State": "Johor"
    },
    {
        "Postcode": "81100",
        "Location": "Jalan Bakawali 68",
        "Post_Office": "Johor Bahru",
        "State": "Johor"
    },
    {
        "Postcode": "81100",
        "Location": "Jalan Bakawali 69",
        "Post_Office": "Johor Bahru",
        "State": "Johor"
    },
    {
        "Postcode": "81100",
        "Location": "Jalan Bakawali 7",
        "Post_Office": "Johor Bahru",
        "State": "Johor"
    },
    {
        "Postcode": "81100",
        "Location": "Jalan Bakawali 70",
        "Post_Office": "Johor Bahru",
        "State": "Johor"
    },
    {
        "Postcode": "81100",
        "Location": "Jalan Bakawali 71",
        "Post_Office": "Johor Bahru",
        "State": "Johor"
    },
    {
        "Postcode": "81100",
        "Location": "Jalan Bakawali 72",
        "Post_Office": "Johor Bahru",
        "State": "Johor"
    },
    {
        "Postcode": "81100",
        "Location": "Jalan Bakawali 73",
        "Post_Office": "Johor Bahru",
        "State": "Johor"
    },
    {
        "Postcode": "81100",
        "Location": "Jalan Bakawali 74",
        "Post_Office": "Johor Bahru",
        "State": "Johor"
    },
    {
        "Postcode": "81100",
        "Location": "Jalan Bakawali 75",
        "Post_Office": "Johor Bahru",
        "State": "Johor"
    },
    {
        "Postcode": "81100",
        "Location": "Jalan Bakawali 76",
        "Post_Office": "Johor Bahru",
        "State": "Johor"
    },
    {
        "Postcode": "81100",
        "Location": "Jalan Bakawali 77",
        "Post_Office": "Johor Bahru",
        "State": "Johor"
    },
    {
        "Postcode": "81100",
        "Location": "Jalan Bakawali 78",
        "Post_Office": "Johor Bahru",
        "State": "Johor"
    },
    {
        "Postcode": "81100",
        "Location": "Jalan Bakawali 79",
        "Post_Office": "Johor Bahru",
        "State": "Johor"
    },
    {
        "Postcode": "81100",
        "Location": "Jalan Bakawali 8",
        "Post_Office": "Johor Bahru",
        "State": "Johor"
    },
    {
        "Postcode": "81100",
        "Location": "Jalan Bakawali 80",
        "Post_Office": "Johor Bahru",
        "State": "Johor"
    },
    {
        "Postcode": "81100",
        "Location": "Jalan Bakawali 81",
        "Post_Office": "Johor Bahru",
        "State": "Johor"
    },
    {
        "Postcode": "81100",
        "Location": "Jalan Bakawali 82",
        "Post_Office": "Johor Bahru",
        "State": "Johor"
    },
    {
        "Postcode": "81100",
        "Location": "Jalan Bakawali 83",
        "Post_Office": "Johor Bahru",
        "State": "Johor"
    },
    {
        "Postcode": "81100",
        "Location": "Jalan Bakawali 84",
        "Post_Office": "Johor Bahru",
        "State": "Johor"
    },
    {
        "Postcode": "81100",
        "Location": "Jalan Bakawali 85",
        "Post_Office": "Johor Bahru",
        "State": "Johor"
    },
    {
        "Postcode": "81100",
        "Location": "Jalan Bakawali 86",
        "Post_Office": "Johor Bahru",
        "State": "Johor"
    },
    {
        "Postcode": "81100",
        "Location": "Jalan Bakawali 87",
        "Post_Office": "Johor Bahru",
        "State": "Johor"
    },
    {
        "Postcode": "81100",
        "Location": "Jalan Bakawali 88",
        "Post_Office": "Johor Bahru",
        "State": "Johor"
    },
    {
        "Postcode": "81100",
        "Location": "Jalan Bakawali 89",
        "Post_Office": "Johor Bahru",
        "State": "Johor"
    },
    {
        "Postcode": "81100",
        "Location": "Jalan Bakawali 9",
        "Post_Office": "Johor Bahru",
        "State": "Johor"
    },
    {
        "Postcode": "81100",
        "Location": "Jalan Bakawali 90",
        "Post_Office": "Johor Bahru",
        "State": "Johor"
    },
    {
        "Postcode": "81100",
        "Location": "Jalan Bertam 1",
        "Post_Office": "Johor Bahru",
        "State": "Johor"
    },
    {
        "Postcode": "81100",
        "Location": "Jalan Bertam 10",
        "Post_Office": "Johor Bahru",
        "State": "Johor"
    },
    {
        "Postcode": "81100",
        "Location": "Jalan Bertam 11",
        "Post_Office": "Johor Bahru",
        "State": "Johor"
    },
    {
        "Postcode": "81100",
        "Location": "Jalan Bertam 12",
        "Post_Office": "Johor Bahru",
        "State": "Johor"
    },
    {
        "Postcode": "81100",
        "Location": "Jalan Bertam 13",
        "Post_Office": "Johor Bahru",
        "State": "Johor"
    },
    {
        "Postcode": "81100",
        "Location": "Jalan Bertam 14",
        "Post_Office": "Johor Bahru",
        "State": "Johor"
    },
    {
        "Postcode": "81100",
        "Location": "Jalan Bertam 15",
        "Post_Office": "Johor Bahru",
        "State": "Johor"
    },
    {
        "Postcode": "81100",
        "Location": "Jalan Bertam 16",
        "Post_Office": "Johor Bahru",
        "State": "Johor"
    },
    {
        "Postcode": "81100",
        "Location": "Jalan Bertam 17",
        "Post_Office": "Johor Bahru",
        "State": "Johor"
    },
    {
        "Postcode": "81100",
        "Location": "Jalan Bertam 18",
        "Post_Office": "Johor Bahru",
        "State": "Johor"
    },
    {
        "Postcode": "81100",
        "Location": "Jalan Bertam 19",
        "Post_Office": "Johor Bahru",
        "State": "Johor"
    },
    {
        "Postcode": "81100",
        "Location": "Jalan Bertam 2",
        "Post_Office": "Johor Bahru",
        "State": "Johor"
    },
    {
        "Postcode": "81100",
        "Location": "Jalan Bertam 20",
        "Post_Office": "Johor Bahru",
        "State": "Johor"
    },
    {
        "Postcode": "81100",
        "Location": "Jalan Bertam 21",
        "Post_Office": "Johor Bahru",
        "State": "Johor"
    },
    {
        "Postcode": "81100",
        "Location": "Jalan Bertam 22",
        "Post_Office": "Johor Bahru",
        "State": "Johor"
    },
    {
        "Postcode": "81100",
        "Location": "Jalan Bertam 23",
        "Post_Office": "Johor Bahru",
        "State": "Johor"
    },
    {
        "Postcode": "81100",
        "Location": "Jalan Bertam 24",
        "Post_Office": "Johor Bahru",
        "State": "Johor"
    },
    {
        "Postcode": "81100",
        "Location": "Jalan Bertam 25",
        "Post_Office": "Johor Bahru",
        "State": "Johor"
    },
    {
        "Postcode": "81100",
        "Location": "Jalan Bertam 26",
        "Post_Office": "Johor Bahru",
        "State": "Johor"
    },
    {
        "Postcode": "81100",
        "Location": "Jalan Bertam 27",
        "Post_Office": "Johor Bahru",
        "State": "Johor"
    },
    {
        "Postcode": "81100",
        "Location": "Jalan Bertam 3",
        "Post_Office": "Johor Bahru",
        "State": "Johor"
    },
    {
        "Postcode": "81100",
        "Location": "Jalan Bertam 4",
        "Post_Office": "Johor Bahru",
        "State": "Johor"
    },
    {
        "Postcode": "81100",
        "Location": "Jalan Bertam 5",
        "Post_Office": "Johor Bahru",
        "State": "Johor"
    },
    {
        "Postcode": "81100",
        "Location": "Jalan Bertam 6",
        "Post_Office": "Johor Bahru",
        "State": "Johor"
    },
    {
        "Postcode": "81100",
        "Location": "Jalan Bertam 7",
        "Post_Office": "Johor Bahru",
        "State": "Johor"
    },
    {
        "Postcode": "81100",
        "Location": "Jalan Bertam 8",
        "Post_Office": "Johor Bahru",
        "State": "Johor"
    },
    {
        "Postcode": "81100",
        "Location": "Jalan Bertam 9",
        "Post_Office": "Johor Bahru",
        "State": "Johor"
    },
    {
        "Postcode": "81100",
        "Location": "Lorong 2, Jalan Bunga Raya",
        "Post_Office": "Johor Bahru",
        "State": "Johor"
    },
    {
        "Postcode": "81100",
        "Location": "Lorong 3, Jalan Bunga Raya",
        "Post_Office": "Johor Bahru",
        "State": "Johor"
    },
    {
        "Postcode": "81100",
        "Location": "Lorong 4, Jalan Bunga Raya",
        "Post_Office": "Johor Bahru",
        "State": "Johor"
    },
    {
        "Postcode": "81100",
        "Location": "Lorong 5, Jalan Bunga Raya",
        "Post_Office": "Johor Bahru",
        "State": "Johor"
    },
    {
        "Postcode": "81100",
        "Location": "Lorong 5, Jalan Bunga Ros Besar",
        "Post_Office": "Johor Bahru",
        "State": "Johor"
    },
    {
        "Postcode": "81100",
        "Location": "Lorong 6, Jalan Bunga Ros Besar",
        "Post_Office": "Johor Bahru",
        "State": "Johor"
    },
    {
        "Postcode": "81100",
        "Location": "Jalan Cekor Manis 1",
        "Post_Office": "Johor Bahru",
        "State": "Johor"
    },
    {
        "Postcode": "81100",
        "Location": "Jalan Cekor Manis 2",
        "Post_Office": "Johor Bahru",
        "State": "Johor"
    },
    {
        "Postcode": "81100",
        "Location": "Jalan Cekor Manis 3",
        "Post_Office": "Johor Bahru",
        "State": "Johor"
    },
    {
        "Postcode": "81100",
        "Location": "Jalan Danau 1",
        "Post_Office": "Johor Bahru",
        "State": "Johor"
    },
    {
        "Postcode": "81100",
        "Location": "Jalan Danau 10",
        "Post_Office": "Johor Bahru",
        "State": "Johor"
    },
    {
        "Postcode": "81100",
        "Location": "Jalan Danau 11",
        "Post_Office": "Johor Bahru",
        "State": "Johor"
    },
    {
        "Postcode": "81100",
        "Location": "Jalan Danau 12",
        "Post_Office": "Johor Bahru",
        "State": "Johor"
    },
    {
        "Postcode": "81100",
        "Location": "Jalan Danau 13",
        "Post_Office": "Johor Bahru",
        "State": "Johor"
    },
    {
        "Postcode": "81100",
        "Location": "Jalan Danau 14",
        "Post_Office": "Johor Bahru",
        "State": "Johor"
    },
    {
        "Postcode": "81100",
        "Location": "Jalan Danau 15",
        "Post_Office": "Johor Bahru",
        "State": "Johor"
    },
    {
        "Postcode": "81100",
        "Location": "Jalan Danau 16",
        "Post_Office": "Johor Bahru",
        "State": "Johor"
    },
    {
        "Postcode": "81100",
        "Location": "Jalan Danau 17",
        "Post_Office": "Johor Bahru",
        "State": "Johor"
    },
    {
        "Postcode": "81100",
        "Location": "Jalan Danau 18",
        "Post_Office": "Johor Bahru",
        "State": "Johor"
    },
    {
        "Postcode": "81100",
        "Location": "Jalan Danau 19",
        "Post_Office": "Johor Bahru",
        "State": "Johor"
    },
    {
        "Postcode": "81100",
        "Location": "Jalan Danau 2",
        "Post_Office": "Johor Bahru",
        "State": "Johor"
    },
    {
        "Postcode": "81100",
        "Location": "Jalan Danau 20",
        "Post_Office": "Johor Bahru",
        "State": "Johor"
    },
    {
        "Postcode": "81100",
        "Location": "Jalan Danau 21",
        "Post_Office": "Johor Bahru",
        "State": "Johor"
    },
    {
        "Postcode": "81100",
        "Location": "Jalan Danau 22",
        "Post_Office": "Johor Bahru",
        "State": "Johor"
    },
    {
        "Postcode": "81100",
        "Location": "Jalan Danau 23",
        "Post_Office": "Johor Bahru",
        "State": "Johor"
    },
    {
        "Postcode": "81100",
        "Location": "Jalan Danau 24",
        "Post_Office": "Johor Bahru",
        "State": "Johor"
    },
    {
        "Postcode": "81100",
        "Location": "Jalan Danau 25",
        "Post_Office": "Johor Bahru",
        "State": "Johor"
    },
    {
        "Postcode": "81100",
        "Location": "Jalan Danau 26",
        "Post_Office": "Johor Bahru",
        "State": "Johor"
    },
    {
        "Postcode": "81100",
        "Location": "Jalan Danau 27",
        "Post_Office": "Johor Bahru",
        "State": "Johor"
    },
    {
        "Postcode": "81100",
        "Location": "Jalan Danau 28",
        "Post_Office": "Johor Bahru",
        "State": "Johor"
    },
    {
        "Postcode": "81100",
        "Location": "Jalan Danau 29",
        "Post_Office": "Johor Bahru",
        "State": "Johor"
    },
    {
        "Postcode": "81100",
        "Location": "Jalan Danau 3",
        "Post_Office": "Johor Bahru",
        "State": "Johor"
    },
    {
        "Postcode": "81100",
        "Location": "Jalan Danau 30",
        "Post_Office": "Johor Bahru",
        "State": "Johor"
    },
    {
        "Postcode": "81100",
        "Location": "Jalan Danau 31",
        "Post_Office": "Johor Bahru",
        "State": "Johor"
    },
    {
        "Postcode": "81100",
        "Location": "Jalan Danau 32",
        "Post_Office": "Johor Bahru",
        "State": "Johor"
    },
    {
        "Postcode": "81100",
        "Location": "Jalan Danau 33",
        "Post_Office": "Johor Bahru",
        "State": "Johor"
    },
    {
        "Postcode": "81100",
        "Location": "Jalan Danau 34",
        "Post_Office": "Johor Bahru",
        "State": "Johor"
    },
    {
        "Postcode": "81100",
        "Location": "Jalan Danau 35",
        "Post_Office": "Johor Bahru",
        "State": "Johor"
    },
    {
        "Postcode": "81100",
        "Location": "Jalan Danau 36",
        "Post_Office": "Johor Bahru",
        "State": "Johor"
    },
    {
        "Postcode": "81100",
        "Location": "Jalan Danau 37",
        "Post_Office": "Johor Bahru",
        "State": "Johor"
    },
    {
        "Postcode": "81100",
        "Location": "Jalan Danau 38",
        "Post_Office": "Johor Bahru",
        "State": "Johor"
    },
    {
        "Postcode": "81100",
        "Location": "Jalan Danau 39",
        "Post_Office": "Johor Bahru",
        "State": "Johor"
    },
    {
        "Postcode": "81100",
        "Location": "Jalan Danau 4",
        "Post_Office": "Johor Bahru",
        "State": "Johor"
    },
    {
        "Postcode": "81100",
        "Location": "Jalan Danau 40",
        "Post_Office": "Johor Bahru",
        "State": "Johor"
    },
    {
        "Postcode": "81100",
        "Location": "Jalan Danau 41",
        "Post_Office": "Johor Bahru",
        "State": "Johor"
    },
    {
        "Postcode": "81100",
        "Location": "Jalan Danau 42",
        "Post_Office": "Johor Bahru",
        "State": "Johor"
    },
    {
        "Postcode": "81100",
        "Location": "Jalan Danau 43",
        "Post_Office": "Johor Bahru",
        "State": "Johor"
    },
    {
        "Postcode": "81100",
        "Location": "Jalan Danau 44",
        "Post_Office": "Johor Bahru",
        "State": "Johor"
    },
    {
        "Postcode": "81100",
        "Location": "Jalan Danau 45",
        "Post_Office": "Johor Bahru",
        "State": "Johor"
    },
    {
        "Postcode": "81100",
        "Location": "Jalan Danau 46",
        "Post_Office": "Johor Bahru",
        "State": "Johor"
    },
    {
        "Postcode": "81100",
        "Location": "Jalan Danau 47",
        "Post_Office": "Johor Bahru",
        "State": "Johor"
    },
    {
        "Postcode": "81100",
        "Location": "Jalan Danau 5",
        "Post_Office": "Johor Bahru",
        "State": "Johor"
    },
    {
        "Postcode": "81100",
        "Location": "Jalan Danau 6",
        "Post_Office": "Johor Bahru",
        "State": "Johor"
    },
    {
        "Postcode": "81100",
        "Location": "Jalan Danau 7",
        "Post_Office": "Johor Bahru",
        "State": "Johor"
    },
    {
        "Postcode": "81100",
        "Location": "Jalan Danau 8",
        "Post_Office": "Johor Bahru",
        "State": "Johor"
    },
    {
        "Postcode": "81100",
        "Location": "Jalan Danau 9",
        "Post_Office": "Johor Bahru",
        "State": "Johor"
    },
    {
        "Postcode": "81100",
        "Location": "Jalan Dedap 1",
        "Post_Office": "Johor Bahru",
        "State": "Johor"
    },
    {
        "Postcode": "81100",
        "Location": "Jalan Dedap 10",
        "Post_Office": "Johor Bahru",
        "State": "Johor"
    },
    {
        "Postcode": "81100",
        "Location": "Jalan Dedap 11",
        "Post_Office": "Johor Bahru",
        "State": "Johor"
    },
    {
        "Postcode": "81100",
        "Location": "Jalan Dedap 12",
        "Post_Office": "Johor Bahru",
        "State": "Johor"
    },
    {
        "Postcode": "81100",
        "Location": "Jalan Dedap 13",
        "Post_Office": "Johor Bahru",
        "State": "Johor"
    },
    {
        "Postcode": "81100",
        "Location": "Jalan Dedap 14",
        "Post_Office": "Johor Bahru",
        "State": "Johor"
    },
    {
        "Postcode": "81100",
        "Location": "Jalan Dedap 15",
        "Post_Office": "Johor Bahru",
        "State": "Johor"
    },
    {
        "Postcode": "81100",
        "Location": "Jalan Dedap 16",
        "Post_Office": "Johor Bahru",
        "State": "Johor"
    },
    {
        "Postcode": "81100",
        "Location": "Jalan Dedap 17",
        "Post_Office": "Johor Bahru",
        "State": "Johor"
    },
    {
        "Postcode": "81100",
        "Location": "Jalan Dedap 18",
        "Post_Office": "Johor Bahru",
        "State": "Johor"
    },
    {
        "Postcode": "81100",
        "Location": "Jalan Dedap 19",
        "Post_Office": "Johor Bahru",
        "State": "Johor"
    },
    {
        "Postcode": "81100",
        "Location": "Jalan Dedap 2",
        "Post_Office": "Johor Bahru",
        "State": "Johor"
    },
    {
        "Postcode": "81100",
        "Location": "Jalan Dedap 20",
        "Post_Office": "Johor Bahru",
        "State": "Johor"
    },
    {
        "Postcode": "81100",
        "Location": "Jalan Dedap 21",
        "Post_Office": "Johor Bahru",
        "State": "Johor"
    },
    {
        "Postcode": "81100",
        "Location": "Jalan Dedap 22",
        "Post_Office": "Johor Bahru",
        "State": "Johor"
    },
    {
        "Postcode": "81100",
        "Location": "Jalan Dedap 23",
        "Post_Office": "Johor Bahru",
        "State": "Johor"
    },
    {
        "Postcode": "81100",
        "Location": "Jalan Dedap 24",
        "Post_Office": "Johor Bahru",
        "State": "Johor"
    },
    {
        "Postcode": "81100",
        "Location": "Jalan Dedap 25",
        "Post_Office": "Johor Bahru",
        "State": "Johor"
    },
    {
        "Postcode": "81100",
        "Location": "Jalan Dedap 26",
        "Post_Office": "Johor Bahru",
        "State": "Johor"
    },
    {
        "Postcode": "81100",
        "Location": "Jalan Dedap 27",
        "Post_Office": "Johor Bahru",
        "State": "Johor"
    },
    {
        "Postcode": "81100",
        "Location": "Jalan Dedap 28",
        "Post_Office": "Johor Bahru",
        "State": "Johor"
    },
    {
        "Postcode": "81100",
        "Location": "Jalan Dedap 29",
        "Post_Office": "Johor Bahru",
        "State": "Johor"
    },
    {
        "Postcode": "81100",
        "Location": "Jalan Dedap 3",
        "Post_Office": "Johor Bahru",
        "State": "Johor"
    },
    {
        "Postcode": "81100",
        "Location": "Jalan Dedap 30",
        "Post_Office": "Johor Bahru",
        "State": "Johor"
    },
    {
        "Postcode": "81100",
        "Location": "Jalan Dedap 31",
        "Post_Office": "Johor Bahru",
        "State": "Johor"
    },
    {
        "Postcode": "81100",
        "Location": "Jalan Dedap 32",
        "Post_Office": "Johor Bahru",
        "State": "Johor"
    },
    {
        "Postcode": "81100",
        "Location": "Jalan Dedap 33",
        "Post_Office": "Johor Bahru",
        "State": "Johor"
    },
    {
        "Postcode": "81100",
        "Location": "Jalan Dedap 34",
        "Post_Office": "Johor Bahru",
        "State": "Johor"
    },
    {
        "Postcode": "81100",
        "Location": "Jalan Dedap 35",
        "Post_Office": "Johor Bahru",
        "State": "Johor"
    },
    {
        "Postcode": "81100",
        "Location": "Jalan Dedap 36",
        "Post_Office": "Johor Bahru",
        "State": "Johor"
    },
    {
        "Postcode": "81100",
        "Location": "Jalan Dedap 37",
        "Post_Office": "Johor Bahru",
        "State": "Johor"
    },
    {
        "Postcode": "81100",
        "Location": "Jalan Dedap 38",
        "Post_Office": "Johor Bahru",
        "State": "Johor"
    },
    {
        "Postcode": "81100",
        "Location": "Jalan Dedap 39",
        "Post_Office": "Johor Bahru",
        "State": "Johor"
    },
    {
        "Postcode": "81100",
        "Location": "Jalan Dedap 4",
        "Post_Office": "Johor Bahru",
        "State": "Johor"
    },
    {
        "Postcode": "81100",
        "Location": "Jalan Dedap 40",
        "Post_Office": "Johor Bahru",
        "State": "Johor"
    },
    {
        "Postcode": "81100",
        "Location": "Jalan Dedap 41",
        "Post_Office": "Johor Bahru",
        "State": "Johor"
    },
    {
        "Postcode": "81100",
        "Location": "Jalan Dedap 42",
        "Post_Office": "Johor Bahru",
        "State": "Johor"
    },
    {
        "Postcode": "81100",
        "Location": "Jalan Dedap 43",
        "Post_Office": "Johor Bahru",
        "State": "Johor"
    },
    {
        "Postcode": "81100",
        "Location": "Jalan Dedap 44",
        "Post_Office": "Johor Bahru",
        "State": "Johor"
    },
    {
        "Postcode": "81100",
        "Location": "Jalan Dedap 45",
        "Post_Office": "Johor Bahru",
        "State": "Johor"
    },
    {
        "Postcode": "81100",
        "Location": "Jalan Dedap 46",
        "Post_Office": "Johor Bahru",
        "State": "Johor"
    },
    {
        "Postcode": "81100",
        "Location": "Jalan Dedap 5",
        "Post_Office": "Johor Bahru",
        "State": "Johor"
    },
    {
        "Postcode": "81100",
        "Location": "Jalan Dedap 6",
        "Post_Office": "Johor Bahru",
        "State": "Johor"
    },
    {
        "Postcode": "81100",
        "Location": "Jalan Dedap 7",
        "Post_Office": "Johor Bahru",
        "State": "Johor"
    },
    {
        "Postcode": "81100",
        "Location": "Jalan Dedap 8",
        "Post_Office": "Johor Bahru",
        "State": "Johor"
    },
    {
        "Postcode": "81100",
        "Location": "Jalan Dedap 9",
        "Post_Office": "Johor Bahru",
        "State": "Johor"
    },
    {
        "Postcode": "81100",
        "Location": "Jalan Delima 1/1",
        "Post_Office": "Johor Bahru",
        "State": "Johor"
    },
    {
        "Postcode": "81100",
        "Location": "Jalan Delima 1/2",
        "Post_Office": "Johor Bahru",
        "State": "Johor"
    },
    {
        "Postcode": "81100",
        "Location": "Jalan Delima 1/3",
        "Post_Office": "Johor Bahru",
        "State": "Johor"
    },
    {
        "Postcode": "81100",
        "Location": "Jalan Delima 1/4",
        "Post_Office": "Johor Bahru",
        "State": "Johor"
    },
    {
        "Postcode": "81100",
        "Location": "Jalan Delima 1/5",
        "Post_Office": "Johor Bahru",
        "State": "Johor"
    },
    {
        "Postcode": "81100",
        "Location": "Jalan Delima 2/1",
        "Post_Office": "Johor Bahru",
        "State": "Johor"
    },
    {
        "Postcode": "81100",
        "Location": "Jalan Delima 2/10",
        "Post_Office": "Johor Bahru",
        "State": "Johor"
    },
    {
        "Postcode": "81100",
        "Location": "Jalan Delima 2/11",
        "Post_Office": "Johor Bahru",
        "State": "Johor"
    },
    {
        "Postcode": "81100",
        "Location": "Jalan Delima 2/12",
        "Post_Office": "Johor Bahru",
        "State": "Johor"
    },
    {
        "Postcode": "81100",
        "Location": "Jalan Delima 2/2",
        "Post_Office": "Johor Bahru",
        "State": "Johor"
    },
    {
        "Postcode": "81100",
        "Location": "Jalan Delima 2/3",
        "Post_Office": "Johor Bahru",
        "State": "Johor"
    },
    {
        "Postcode": "81100",
        "Location": "Jalan Delima 2/4",
        "Post_Office": "Johor Bahru",
        "State": "Johor"
    },
    {
        "Postcode": "81100",
        "Location": "Jalan Delima 2/5",
        "Post_Office": "Johor Bahru",
        "State": "Johor"
    },
    {
        "Postcode": "81100",
        "Location": "Jalan Delima 2/6",
        "Post_Office": "Johor Bahru",
        "State": "Johor"
    },
    {
        "Postcode": "81100",
        "Location": "Jalan Delima 2/7",
        "Post_Office": "Johor Bahru",
        "State": "Johor"
    },
    {
        "Postcode": "81100",
        "Location": "Jalan Delima 2/8",
        "Post_Office": "Johor Bahru",
        "State": "Johor"
    },
    {
        "Postcode": "81100",
        "Location": "Jalan Delima 2/9",
        "Post_Office": "Johor Bahru",
        "State": "Johor"
    },
    {
        "Postcode": "81100",
        "Location": "Jalan Delima 3/1",
        "Post_Office": "Johor Bahru",
        "State": "Johor"
    },
    {
        "Postcode": "81100",
        "Location": "Jalan Delima 4/1",
        "Post_Office": "Johor Bahru",
        "State": "Johor"
    },
    {
        "Postcode": "81100",
        "Location": "Jalan Delima 4/2",
        "Post_Office": "Johor Bahru",
        "State": "Johor"
    },
    {
        "Postcode": "81100",
        "Location": "Jalan Delima 4/3",
        "Post_Office": "Johor Bahru",
        "State": "Johor"
    },
    {
        "Postcode": "81100",
        "Location": "Jalan Delima 4/4",
        "Post_Office": "Johor Bahru",
        "State": "Johor"
    },
    {
        "Postcode": "81100",
        "Location": "Jalan Delima 4/5",
        "Post_Office": "Johor Bahru",
        "State": "Johor"
    },
    {
        "Postcode": "81100",
        "Location": "Jalan Delima 4/6",
        "Post_Office": "Johor Bahru",
        "State": "Johor"
    },
    {
        "Postcode": "81100",
        "Location": "Jalan Delima 4/7",
        "Post_Office": "Johor Bahru",
        "State": "Johor"
    },
    {
        "Postcode": "81100",
        "Location": "Jalan Delima 4/8",
        "Post_Office": "Johor Bahru",
        "State": "Johor"
    },
    {
        "Postcode": "81100",
        "Location": "Jalan Delima 5/1",
        "Post_Office": "Johor Bahru",
        "State": "Johor"
    },
    {
        "Postcode": "81100",
        "Location": "Jalan Delima 5/10",
        "Post_Office": "Johor Bahru",
        "State": "Johor"
    },
    {
        "Postcode": "81100",
        "Location": "Jalan Delima 5/11",
        "Post_Office": "Johor Bahru",
        "State": "Johor"
    },
    {
        "Postcode": "81100",
        "Location": "Jalan Delima 5/12",
        "Post_Office": "Johor Bahru",
        "State": "Johor"
    },
    {
        "Postcode": "81100",
        "Location": "Jalan Delima 5/13",
        "Post_Office": "Johor Bahru",
        "State": "Johor"
    },
    {
        "Postcode": "81100",
        "Location": "Jalan Delima 5/14",
        "Post_Office": "Johor Bahru",
        "State": "Johor"
    },
    {
        "Postcode": "81100",
        "Location": "Jalan Delima 5/15",
        "Post_Office": "Johor Bahru",
        "State": "Johor"
    },
    {
        "Postcode": "81100",
        "Location": "Jalan Delima 5/16",
        "Post_Office": "Johor Bahru",
        "State": "Johor"
    },
    {
        "Postcode": "81100",
        "Location": "Jalan Delima 5/17",
        "Post_Office": "Johor Bahru",
        "State": "Johor"
    },
    {
        "Postcode": "81100",
        "Location": "Jalan Delima 5/18",
        "Post_Office": "Johor Bahru",
        "State": "Johor"
    },
    {
        "Postcode": "81100",
        "Location": "Jalan Delima 5/19",
        "Post_Office": "Johor Bahru",
        "State": "Johor"
    },
    {
        "Postcode": "81100",
        "Location": "Jalan Delima 5/2",
        "Post_Office": "Johor Bahru",
        "State": "Johor"
    },
    {
        "Postcode": "81100",
        "Location": "Jalan Delima 5/20",
        "Post_Office": "Johor Bahru",
        "State": "Johor"
    },
    {
        "Postcode": "81100",
        "Location": "Jalan Delima 5/21",
        "Post_Office": "Johor Bahru",
        "State": "Johor"
    },
    {
        "Postcode": "81100",
        "Location": "Jalan Delima 5/22",
        "Post_Office": "Johor Bahru",
        "State": "Johor"
    },
    {
        "Postcode": "81100",
        "Location": "Jalan Delima 5/23",
        "Post_Office": "Johor Bahru",
        "State": "Johor"
    },
    {
        "Postcode": "81100",
        "Location": "Jalan Delima 5/24",
        "Post_Office": "Johor Bahru",
        "State": "Johor"
    },
    {
        "Postcode": "81100",
        "Location": "Jalan Delima 5/25",
        "Post_Office": "Johor Bahru",
        "State": "Johor"
    },
    {
        "Postcode": "81100",
        "Location": "Jalan Delima 5/26",
        "Post_Office": "Johor Bahru",
        "State": "Johor"
    },
    {
        "Postcode": "81100",
        "Location": "Jalan Delima 5/27",
        "Post_Office": "Johor Bahru",
        "State": "Johor"
    },
    {
        "Postcode": "81100",
        "Location": "Jalan Delima 5/28",
        "Post_Office": "Johor Bahru",
        "State": "Johor"
    },
    {
        "Postcode": "81100",
        "Location": "Jalan Delima 5/29",
        "Post_Office": "Johor Bahru",
        "State": "Johor"
    },
    {
        "Postcode": "81100",
        "Location": "Jalan Delima 5/3",
        "Post_Office": "Johor Bahru",
        "State": "Johor"
    },
    {
        "Postcode": "81100",
        "Location": "Jalan Delima 5/4",
        "Post_Office": "Johor Bahru",
        "State": "Johor"
    },
    {
        "Postcode": "81100",
        "Location": "Jalan Delima 5/5",
        "Post_Office": "Johor Bahru",
        "State": "Johor"
    },
    {
        "Postcode": "81100",
        "Location": "Jalan Delima 5/6",
        "Post_Office": "Johor Bahru",
        "State": "Johor"
    },
    {
        "Postcode": "81100",
        "Location": "Jalan Delima 5/7",
        "Post_Office": "Johor Bahru",
        "State": "Johor"
    },
    {
        "Postcode": "81100",
        "Location": "Jalan Delima 5/8",
        "Post_Office": "Johor Bahru",
        "State": "Johor"
    },
    {
        "Postcode": "81100",
        "Location": "Jalan Delima 5/9",
        "Post_Office": "Johor Bahru",
        "State": "Johor"
    },
    {
        "Postcode": "81100",
        "Location": "Jalan Dewani 1",
        "Post_Office": "Johor Bahru",
        "State": "Johor"
    },
    {
        "Postcode": "81100",
        "Location": "Jalan Dewani 2",
        "Post_Office": "Johor Bahru",
        "State": "Johor"
    },
    {
        "Postcode": "81100",
        "Location": "Jalan Dewani 3",
        "Post_Office": "Johor Bahru",
        "State": "Johor"
    },
    {
        "Postcode": "81100",
        "Location": "Jalan Dewani 4",
        "Post_Office": "Johor Bahru",
        "State": "Johor"
    },
    {
        "Postcode": "81100",
        "Location": "Jalan Firma 1/1",
        "Post_Office": "Johor Bahru",
        "State": "Johor"
    },
    {
        "Postcode": "81100",
        "Location": "Jalan Firma 1/3",
        "Post_Office": "Johor Bahru",
        "State": "Johor"
    },
    {
        "Postcode": "81100",
        "Location": "Jalan Firma 1/5",
        "Post_Office": "Johor Bahru",
        "State": "Johor"
    },
    {
        "Postcode": "81100",
        "Location": "Jalan Firma 2/1",
        "Post_Office": "Johor Bahru",
        "State": "Johor"
    },
    {
        "Postcode": "81100",
        "Location": "Jalan Firma 2/2",
        "Post_Office": "Johor Bahru",
        "State": "Johor"
    },
    {
        "Postcode": "81100",
        "Location": "Jalan Firma 2/3",
        "Post_Office": "Johor Bahru",
        "State": "Johor"
    },
    {
        "Postcode": "81100",
        "Location": "Jalan Firma 3",
        "Post_Office": "Johor Bahru",
        "State": "Johor"
    },
    {
        "Postcode": "81100",
        "Location": "Jalan Firma 3/1",
        "Post_Office": "Johor Bahru",
        "State": "Johor"
    },
    {
        "Postcode": "81100",
        "Location": "Jalan Keembong 1",
        "Post_Office": "Johor Bahru",
        "State": "Johor"
    },
    {
        "Postcode": "81100",
        "Location": "Jalan Keembong 10",
        "Post_Office": "Johor Bahru",
        "State": "Johor"
    },
    {
        "Postcode": "81100",
        "Location": "Jalan Keembong 11",
        "Post_Office": "Johor Bahru",
        "State": "Johor"
    },
    {
        "Postcode": "81100",
        "Location": "Jalan Keembong 12",
        "Post_Office": "Johor Bahru",
        "State": "Johor"
    },
    {
        "Postcode": "81100",
        "Location": "Jalan Keembong 13",
        "Post_Office": "Johor Bahru",
        "State": "Johor"
    },
    {
        "Postcode": "81100",
        "Location": "Jalan Keembong 14",
        "Post_Office": "Johor Bahru",
        "State": "Johor"
    },
    {
        "Postcode": "81100",
        "Location": "Jalan Keembong 15",
        "Post_Office": "Johor Bahru",
        "State": "Johor"
    },
    {
        "Postcode": "81100",
        "Location": "Jalan Keembong 16",
        "Post_Office": "Johor Bahru",
        "State": "Johor"
    },
    {
        "Postcode": "81100",
        "Location": "Jalan Keembong 17",
        "Post_Office": "Johor Bahru",
        "State": "Johor"
    },
    {
        "Postcode": "81100",
        "Location": "Jalan Keembong 18",
        "Post_Office": "Johor Bahru",
        "State": "Johor"
    },
    {
        "Postcode": "81100",
        "Location": "Jalan Keembong 19",
        "Post_Office": "Johor Bahru",
        "State": "Johor"
    },
    {
        "Postcode": "81100",
        "Location": "Jalan Keembong 2",
        "Post_Office": "Johor Bahru",
        "State": "Johor"
    },
    {
        "Postcode": "81100",
        "Location": "Jalan Keembong 20",
        "Post_Office": "Johor Bahru",
        "State": "Johor"
    },
    {
        "Postcode": "81100",
        "Location": "Jalan Keembong 21",
        "Post_Office": "Johor Bahru",
        "State": "Johor"
    },
    {
        "Postcode": "81100",
        "Location": "Jalan Keembong 22",
        "Post_Office": "Johor Bahru",
        "State": "Johor"
    },
    {
        "Postcode": "81100",
        "Location": "Jalan Keembong 23",
        "Post_Office": "Johor Bahru",
        "State": "Johor"
    },
    {
        "Postcode": "81100",
        "Location": "Jalan Keembong 24",
        "Post_Office": "Johor Bahru",
        "State": "Johor"
    },
    {
        "Postcode": "81100",
        "Location": "Jalan Keembong 25",
        "Post_Office": "Johor Bahru",
        "State": "Johor"
    },
    {
        "Postcode": "81100",
        "Location": "Jalan Keembong 26",
        "Post_Office": "Johor Bahru",
        "State": "Johor"
    },
    {
        "Postcode": "81100",
        "Location": "Jalan Keembong 27",
        "Post_Office": "Johor Bahru",
        "State": "Johor"
    },
    {
        "Postcode": "81100",
        "Location": "Jalan Keembong 28",
        "Post_Office": "Johor Bahru",
        "State": "Johor"
    },
    {
        "Postcode": "81100",
        "Location": "Jalan Keembong 29",
        "Post_Office": "Johor Bahru",
        "State": "Johor"
    },
    {
        "Postcode": "81100",
        "Location": "Jalan Keembong 3",
        "Post_Office": "Johor Bahru",
        "State": "Johor"
    },
    {
        "Postcode": "81100",
        "Location": "Jalan Keembong 30",
        "Post_Office": "Johor Bahru",
        "State": "Johor"
    },
    {
        "Postcode": "81100",
        "Location": "Jalan Keembong 31",
        "Post_Office": "Johor Bahru",
        "State": "Johor"
    },
    {
        "Postcode": "81100",
        "Location": "Jalan Keembong 32",
        "Post_Office": "Johor Bahru",
        "State": "Johor"
    },
    {
        "Postcode": "81100",
        "Location": "Jalan Keembong 33",
        "Post_Office": "Johor Bahru",
        "State": "Johor"
    },
    {
        "Postcode": "81100",
        "Location": "Jalan Keembong 34",
        "Post_Office": "Johor Bahru",
        "State": "Johor"
    },
    {
        "Postcode": "81100",
        "Location": "Jalan Keembong 35",
        "Post_Office": "Johor Bahru",
        "State": "Johor"
    },
    {
        "Postcode": "81100",
        "Location": "Jalan Keembong 36",
        "Post_Office": "Johor Bahru",
        "State": "Johor"
    },
    {
        "Postcode": "81100",
        "Location": "Jalan Keembong 37",
        "Post_Office": "Johor Bahru",
        "State": "Johor"
    },
    {
        "Postcode": "81100",
        "Location": "Jalan Keembong 38",
        "Post_Office": "Johor Bahru",
        "State": "Johor"
    },
    {
        "Postcode": "81100",
        "Location": "Jalan Keembong 39",
        "Post_Office": "Johor Bahru",
        "State": "Johor"
    },
    {
        "Postcode": "81100",
        "Location": "Jalan Keembong 4",
        "Post_Office": "Johor Bahru",
        "State": "Johor"
    },
    {
        "Postcode": "81100",
        "Location": "Jalan Keembong 40",
        "Post_Office": "Johor Bahru",
        "State": "Johor"
    },
    {
        "Postcode": "81100",
        "Location": "Jalan Keembong 41",
        "Post_Office": "Johor Bahru",
        "State": "Johor"
    },
    {
        "Postcode": "81100",
        "Location": "Jalan Keembong 42",
        "Post_Office": "Johor Bahru",
        "State": "Johor"
    },
    {
        "Postcode": "81100",
        "Location": "Jalan Keembong 43",
        "Post_Office": "Johor Bahru",
        "State": "Johor"
    },
    {
        "Postcode": "81100",
        "Location": "Jalan Keembong 44",
        "Post_Office": "Johor Bahru",
        "State": "Johor"
    },
    {
        "Postcode": "81100",
        "Location": "Jalan Keembong 45",
        "Post_Office": "Johor Bahru",
        "State": "Johor"
    },
    {
        "Postcode": "81100",
        "Location": "Jalan Keembong 46",
        "Post_Office": "Johor Bahru",
        "State": "Johor"
    },
    {
        "Postcode": "81100",
        "Location": "Jalan Keembong 47",
        "Post_Office": "Johor Bahru",
        "State": "Johor"
    },
    {
        "Postcode": "81100",
        "Location": "Jalan Keembong 48",
        "Post_Office": "Johor Bahru",
        "State": "Johor"
    },
    {
        "Postcode": "81100",
        "Location": "Jalan Keembong 49",
        "Post_Office": "Johor Bahru",
        "State": "Johor"
    },
    {
        "Postcode": "81100",
        "Location": "Jalan Keembong 5",
        "Post_Office": "Johor Bahru",
        "State": "Johor"
    },
    {
        "Postcode": "81100",
        "Location": "Jalan Keembong 6",
        "Post_Office": "Johor Bahru",
        "State": "Johor"
    },
    {
        "Postcode": "81100",
        "Location": "Jalan Keembong 7",
        "Post_Office": "Johor Bahru",
        "State": "Johor"
    },
    {
        "Postcode": "81100",
        "Location": "Jalan Keembong 8",
        "Post_Office": "Johor Bahru",
        "State": "Johor"
    },
    {
        "Postcode": "81100",
        "Location": "Jalan Keembong 9",
        "Post_Office": "Johor Bahru",
        "State": "Johor"
    },
    {
        "Postcode": "81100",
        "Location": "Jalan Kiambang 1",
        "Post_Office": "Johor Bahru",
        "State": "Johor"
    },
    {
        "Postcode": "81100",
        "Location": "Jalan Kiambang 2",
        "Post_Office": "Johor Bahru",
        "State": "Johor"
    },
    {
        "Postcode": "81100",
        "Location": "Jalan Kiambang 3",
        "Post_Office": "Johor Bahru",
        "State": "Johor"
    },
    {
        "Postcode": "81100",
        "Location": "Jalan Kiambang 4",
        "Post_Office": "Johor Bahru",
        "State": "Johor"
    },
    {
        "Postcode": "81100",
        "Location": "Jalan Kiambang 5",
        "Post_Office": "Johor Bahru",
        "State": "Johor"
    },
    {
        "Postcode": "81100",
        "Location": "Jalan Kiambang 6",
        "Post_Office": "Johor Bahru",
        "State": "Johor"
    },
    {
        "Postcode": "81100",
        "Location": "Jalan Kiambang 7",
        "Post_Office": "Johor Bahru",
        "State": "Johor"
    },
    {
        "Postcode": "81100",
        "Location": "Jalan Kiambang 8",
        "Post_Office": "Johor Bahru",
        "State": "Johor"
    },
    {
        "Postcode": "81100",
        "Location": "Jalan Kiambang 9",
        "Post_Office": "Johor Bahru",
        "State": "Johor"
    },
    {
        "Postcode": "81100",
        "Location": "Jalan Lembah 10",
        "Post_Office": "Johor Bahru",
        "State": "Johor"
    },
    {
        "Postcode": "81100",
        "Location": "Jalan Lembah 11",
        "Post_Office": "Johor Bahru",
        "State": "Johor"
    },
    {
        "Postcode": "81100",
        "Location": "Jalan Lembah 12",
        "Post_Office": "Johor Bahru",
        "State": "Johor"
    },
    {
        "Postcode": "81100",
        "Location": "Jalan Lembah 13",
        "Post_Office": "Johor Bahru",
        "State": "Johor"
    },
    {
        "Postcode": "81100",
        "Location": "Jalan Lembah 14",
        "Post_Office": "Johor Bahru",
        "State": "Johor"
    },
    {
        "Postcode": "81100",
        "Location": "Jalan Lembah 15",
        "Post_Office": "Johor Bahru",
        "State": "Johor"
    },
    {
        "Postcode": "81100",
        "Location": "Jalan Lembah 16",
        "Post_Office": "Johor Bahru",
        "State": "Johor"
    },
    {
        "Postcode": "81100",
        "Location": "Jalan Lembah 17",
        "Post_Office": "Johor Bahru",
        "State": "Johor"
    },
    {
        "Postcode": "81100",
        "Location": "Jalan Lembah 18",
        "Post_Office": "Johor Bahru",
        "State": "Johor"
    },
    {
        "Postcode": "81100",
        "Location": "Jalan Lembah 19",
        "Post_Office": "Johor Bahru",
        "State": "Johor"
    },
    {
        "Postcode": "81100",
        "Location": "Jalan Lembah 20",
        "Post_Office": "Johor Bahru",
        "State": "Johor"
    },
    {
        "Postcode": "81100",
        "Location": "Jalan Lembah 21",
        "Post_Office": "Johor Bahru",
        "State": "Johor"
    },
    {
        "Postcode": "81100",
        "Location": "Jalan Lembah 22",
        "Post_Office": "Johor Bahru",
        "State": "Johor"
    },
    {
        "Postcode": "81100",
        "Location": "Jalan Lembah 23",
        "Post_Office": "Johor Bahru",
        "State": "Johor"
    },
    {
        "Postcode": "81100",
        "Location": "Jalan Lembah 24",
        "Post_Office": "Johor Bahru",
        "State": "Johor"
    },
    {
        "Postcode": "81100",
        "Location": "Jalan Lembah 25",
        "Post_Office": "Johor Bahru",
        "State": "Johor"
    },
    {
        "Postcode": "81100",
        "Location": "Jalan Lembah 26",
        "Post_Office": "Johor Bahru",
        "State": "Johor"
    },
    {
        "Postcode": "81100",
        "Location": "Jalan Lembah 27",
        "Post_Office": "Johor Bahru",
        "State": "Johor"
    },
    {
        "Postcode": "81100",
        "Location": "Jalan Lembah 28",
        "Post_Office": "Johor Bahru",
        "State": "Johor"
    },
    {
        "Postcode": "81100",
        "Location": "Jalan Lembah 29",
        "Post_Office": "Johor Bahru",
        "State": "Johor"
    },
    {
        "Postcode": "81100",
        "Location": "Jalan Lembah 30",
        "Post_Office": "Johor Bahru",
        "State": "Johor"
    },
    {
        "Postcode": "81100",
        "Location": "Jalan Lembah 31",
        "Post_Office": "Johor Bahru",
        "State": "Johor"
    },
    {
        "Postcode": "81100",
        "Location": "Jalan Lembah 32",
        "Post_Office": "Johor Bahru",
        "State": "Johor"
    },
    {
        "Postcode": "81100",
        "Location": "Jalan Lembah 33",
        "Post_Office": "Johor Bahru",
        "State": "Johor"
    },
    {
        "Postcode": "81100",
        "Location": "Jalan Lembah 34",
        "Post_Office": "Johor Bahru",
        "State": "Johor"
    },
    {
        "Postcode": "81100",
        "Location": "Jalan Lembah 35",
        "Post_Office": "Johor Bahru",
        "State": "Johor"
    },
    {
        "Postcode": "81100",
        "Location": "Jalan Lembah 36",
        "Post_Office": "Johor Bahru",
        "State": "Johor"
    },
    {
        "Postcode": "81100",
        "Location": "Jalan Lembah 37",
        "Post_Office": "Johor Bahru",
        "State": "Johor"
    },
    {
        "Postcode": "81100",
        "Location": "Jalan Lembah 38",
        "Post_Office": "Johor Bahru",
        "State": "Johor"
    },
    {
        "Postcode": "81100",
        "Location": "Jalan Lembah 39",
        "Post_Office": "Johor Bahru",
        "State": "Johor"
    },
    {
        "Postcode": "81100",
        "Location": "Jalan Lembah 40",
        "Post_Office": "Johor Bahru",
        "State": "Johor"
    },
    {
        "Postcode": "81100",
        "Location": "Jalan Lembah 41",
        "Post_Office": "Johor Bahru",
        "State": "Johor"
    },
    {
        "Postcode": "81100",
        "Location": "Jalan Lembah 42",
        "Post_Office": "Johor Bahru",
        "State": "Johor"
    },
    {
        "Postcode": "81100",
        "Location": "Jalan Lembah 43",
        "Post_Office": "Johor Bahru",
        "State": "Johor"
    },
    {
        "Postcode": "81100",
        "Location": "Jalan Lembah 44",
        "Post_Office": "Johor Bahru",
        "State": "Johor"
    },
    {
        "Postcode": "81100",
        "Location": "Jalan Lembah 45",
        "Post_Office": "Johor Bahru",
        "State": "Johor"
    },
    {
        "Postcode": "81100",
        "Location": "Jalan Lembah 6",
        "Post_Office": "Johor Bahru",
        "State": "Johor"
    },
    {
        "Postcode": "81100",
        "Location": "Jalan Lembah 7",
        "Post_Office": "Johor Bahru",
        "State": "Johor"
    },
    {
        "Postcode": "81100",
        "Location": "Jalan Lembah 8",
        "Post_Office": "Johor Bahru",
        "State": "Johor"
    },
    {
        "Postcode": "81100",
        "Location": "Jalan Lembah 9",
        "Post_Office": "Johor Bahru",
        "State": "Johor"
    },
    {
        "Postcode": "81100",
        "Location": "Jalan Mengkudu 1",
        "Post_Office": "Johor Bahru",
        "State": "Johor"
    },
    {
        "Postcode": "81100",
        "Location": "Jalan Mengkudu 2",
        "Post_Office": "Johor Bahru",
        "State": "Johor"
    },
    {
        "Postcode": "81100",
        "Location": "Jalan Mengkudu 3",
        "Post_Office": "Johor Bahru",
        "State": "Johor"
    },
    {
        "Postcode": "81100",
        "Location": "Jalan Mengkudu 4",
        "Post_Office": "Johor Bahru",
        "State": "Johor"
    },
    {
        "Postcode": "81100",
        "Location": "Jalan Molek 1",
        "Post_Office": "Johor Bahru",
        "State": "Johor"
    },
    {
        "Postcode": "81100",
        "Location": "Jalan Molek 1/1",
        "Post_Office": "Johor Bahru",
        "State": "Johor"
    },
    {
        "Postcode": "81100",
        "Location": "Jalan Molek 1/10",
        "Post_Office": "Johor Bahru",
        "State": "Johor"
    },
    {
        "Postcode": "81100",
        "Location": "Jalan Molek 1/11",
        "Post_Office": "Johor Bahru",
        "State": "Johor"
    },
    {
        "Postcode": "81100",
        "Location": "Jalan Molek 1/12",
        "Post_Office": "Johor Bahru",
        "State": "Johor"
    },
    {
        "Postcode": "81100",
        "Location": "Jalan Molek 1/13",
        "Post_Office": "Johor Bahru",
        "State": "Johor"
    },
    {
        "Postcode": "81100",
        "Location": "Jalan Molek 1/14",
        "Post_Office": "Johor Bahru",
        "State": "Johor"
    },
    {
        "Postcode": "81100",
        "Location": "Jalan Molek 1/15",
        "Post_Office": "Johor Bahru",
        "State": "Johor"
    },
    {
        "Postcode": "81100",
        "Location": "Jalan Molek 1/16",
        "Post_Office": "Johor Bahru",
        "State": "Johor"
    },
    {
        "Postcode": "81100",
        "Location": "Jalan Molek 1/17",
        "Post_Office": "Johor Bahru",
        "State": "Johor"
    },
    {
        "Postcode": "81100",
        "Location": "Jalan Molek 1/18",
        "Post_Office": "Johor Bahru",
        "State": "Johor"
    },
    {
        "Postcode": "81100",
        "Location": "Jalan Molek 1/19",
        "Post_Office": "Johor Bahru",
        "State": "Johor"
    },
    {
        "Postcode": "81100",
        "Location": "Jalan Molek 1/2",
        "Post_Office": "Johor Bahru",
        "State": "Johor"
    },
    {
        "Postcode": "81100",
        "Location": "Jalan Molek 1/20",
        "Post_Office": "Johor Bahru",
        "State": "Johor"
    },
    {
        "Postcode": "81100",
        "Location": "Jalan Molek 1/21",
        "Post_Office": "Johor Bahru",
        "State": "Johor"
    },
    {
        "Postcode": "81100",
        "Location": "Jalan Molek 1/23",
        "Post_Office": "Johor Bahru",
        "State": "Johor"
    },
    {
        "Postcode": "81100",
        "Location": "Jalan Molek 1/24",
        "Post_Office": "Johor Bahru",
        "State": "Johor"
    },
    {
        "Postcode": "81100",
        "Location": "Jalan Molek 1/25",
        "Post_Office": "Johor Bahru",
        "State": "Johor"
    },
    {
        "Postcode": "81100",
        "Location": "Jalan Molek 1/26",
        "Post_Office": "Johor Bahru",
        "State": "Johor"
    },
    {
        "Postcode": "81100",
        "Location": "Jalan Molek 1/27",
        "Post_Office": "Johor Bahru",
        "State": "Johor"
    },
    {
        "Postcode": "81100",
        "Location": "Jalan Molek 1/28",
        "Post_Office": "Johor Bahru",
        "State": "Johor"
    },
    {
        "Postcode": "81100",
        "Location": "Jalan Molek 1/29",
        "Post_Office": "Johor Bahru",
        "State": "Johor"
    },
    {
        "Postcode": "81100",
        "Location": "Jalan Molek 1/3",
        "Post_Office": "Johor Bahru",
        "State": "Johor"
    },
    {
        "Postcode": "81100",
        "Location": "Jalan Molek 1/30",
        "Post_Office": "Johor Bahru",
        "State": "Johor"
    },
    {
        "Postcode": "81100",
        "Location": "Jalan Molek 1/31",
        "Post_Office": "Johor Bahru",
        "State": "Johor"
    },
    {
        "Postcode": "81100",
        "Location": "Jalan Molek 1/32",
        "Post_Office": "Johor Bahru",
        "State": "Johor"
    },
    {
        "Postcode": "81100",
        "Location": "Jalan Molek 1/33",
        "Post_Office": "Johor Bahru",
        "State": "Johor"
    },
    {
        "Postcode": "81100",
        "Location": "Jalan Molek 1/34",
        "Post_Office": "Johor Bahru",
        "State": "Johor"
    },
    {
        "Postcode": "81100",
        "Location": "Jalan Molek 1/35",
        "Post_Office": "Johor Bahru",
        "State": "Johor"
    },
    {
        "Postcode": "81100",
        "Location": "Jalan Molek 1/36",
        "Post_Office": "Johor Bahru",
        "State": "Johor"
    },
    {
        "Postcode": "81100",
        "Location": "Jalan Molek 1/37",
        "Post_Office": "Johor Bahru",
        "State": "Johor"
    },
    {
        "Postcode": "81100",
        "Location": "Jalan Molek 1/38",
        "Post_Office": "Johor Bahru",
        "State": "Johor"
    },
    {
        "Postcode": "81100",
        "Location": "Jalan Molek 1/39",
        "Post_Office": "Johor Bahru",
        "State": "Johor"
    },
    {
        "Postcode": "81100",
        "Location": "Jalan Molek 1/4",
        "Post_Office": "Johor Bahru",
        "State": "Johor"
    },
    {
        "Postcode": "81100",
        "Location": "Jalan Molek 1/40",
        "Post_Office": "Johor Bahru",
        "State": "Johor"
    },
    {
        "Postcode": "81100",
        "Location": "Jalan Molek 1/41",
        "Post_Office": "Johor Bahru",
        "State": "Johor"
    },
    {
        "Postcode": "81100",
        "Location": "Jalan Molek 1/5",
        "Post_Office": "Johor Bahru",
        "State": "Johor"
    },
    {
        "Postcode": "81100",
        "Location": "Jalan Molek 1/6",
        "Post_Office": "Johor Bahru",
        "State": "Johor"
    },
    {
        "Postcode": "81100",
        "Location": "Jalan Molek 1/7",
        "Post_Office": "Johor Bahru",
        "State": "Johor"
    },
    {
        "Postcode": "81100",
        "Location": "Jalan Molek 1/8",
        "Post_Office": "Johor Bahru",
        "State": "Johor"
    },
    {
        "Postcode": "81100",
        "Location": "Jalan Molek 1/9",
        "Post_Office": "Johor Bahru",
        "State": "Johor"
    },
    {
        "Postcode": "81100",
        "Location": "Jalan Molek 3",
        "Post_Office": "Johor Bahru",
        "State": "Johor"
    },
    {
        "Postcode": "81100",
        "Location": "Jalan Molek 3/1",
        "Post_Office": "Johor Bahru",
        "State": "Johor"
    },
    {
        "Postcode": "81100",
        "Location": "Jalan Molek 3/10",
        "Post_Office": "Johor Bahru",
        "State": "Johor"
    },
    {
        "Postcode": "81100",
        "Location": "Jalan Molek 3/11",
        "Post_Office": "Johor Bahru",
        "State": "Johor"
    },
    {
        "Postcode": "81100",
        "Location": "Jalan Molek 3/12",
        "Post_Office": "Johor Bahru",
        "State": "Johor"
    },
    {
        "Postcode": "81100",
        "Location": "Jalan Molek 3/13",
        "Post_Office": "Johor Bahru",
        "State": "Johor"
    },
    {
        "Postcode": "81100",
        "Location": "Jalan Molek 3/14",
        "Post_Office": "Johor Bahru",
        "State": "Johor"
    },
    {
        "Postcode": "81100",
        "Location": "Jalan Molek 3/15",
        "Post_Office": "Johor Bahru",
        "State": "Johor"
    },
    {
        "Postcode": "81100",
        "Location": "Jalan Molek 3/16",
        "Post_Office": "Johor Bahru",
        "State": "Johor"
    },
    {
        "Postcode": "81100",
        "Location": "Jalan Molek 3/17",
        "Post_Office": "Johor Bahru",
        "State": "Johor"
    },
    {
        "Postcode": "81100",
        "Location": "Jalan Molek 3/18",
        "Post_Office": "Johor Bahru",
        "State": "Johor"
    },
    {
        "Postcode": "81100",
        "Location": "Jalan Molek 3/19",
        "Post_Office": "Johor Bahru",
        "State": "Johor"
    },
    {
        "Postcode": "81100",
        "Location": "Jalan Molek 3/2",
        "Post_Office": "Johor Bahru",
        "State": "Johor"
    },
    {
        "Postcode": "81100",
        "Location": "Jalan Molek 3/3",
        "Post_Office": "Johor Bahru",
        "State": "Johor"
    },
    {
        "Postcode": "81100",
        "Location": "Jalan Molek 3/4",
        "Post_Office": "Johor Bahru",
        "State": "Johor"
    },
    {
        "Postcode": "81100",
        "Location": "Jalan Molek 3/5",
        "Post_Office": "Johor Bahru",
        "State": "Johor"
    },
    {
        "Postcode": "81100",
        "Location": "Jalan Molek 3/6",
        "Post_Office": "Johor Bahru",
        "State": "Johor"
    },
    {
        "Postcode": "81100",
        "Location": "Jalan Molek 3/7",
        "Post_Office": "Johor Bahru",
        "State": "Johor"
    },
    {
        "Postcode": "81100",
        "Location": "Jalan Molek 3/8",
        "Post_Office": "Johor Bahru",
        "State": "Johor"
    },
    {
        "Postcode": "81100",
        "Location": "Jalan Molek 3/9",
        "Post_Office": "Johor Bahru",
        "State": "Johor"
    },
    {
        "Postcode": "81100",
        "Location": "Jalan Murni 1",
        "Post_Office": "Johor Bahru",
        "State": "Johor"
    },
    {
        "Postcode": "81100",
        "Location": "Jalan Murni 10",
        "Post_Office": "Johor Bahru",
        "State": "Johor"
    },
    {
        "Postcode": "81100",
        "Location": "Jalan Murni 11",
        "Post_Office": "Johor Bahru",
        "State": "Johor"
    },
    {
        "Postcode": "81100",
        "Location": "Jalan Murni 12",
        "Post_Office": "Johor Bahru",
        "State": "Johor"
    },
    {
        "Postcode": "81100",
        "Location": "Jalan Murni 2",
        "Post_Office": "Johor Bahru",
        "State": "Johor"
    },
    {
        "Postcode": "81100",
        "Location": "Jalan Murni 3",
        "Post_Office": "Johor Bahru",
        "State": "Johor"
    },
    {
        "Postcode": "81100",
        "Location": "Jalan Murni 4",
        "Post_Office": "Johor Bahru",
        "State": "Johor"
    },
    {
        "Postcode": "81100",
        "Location": "Jalan Murni 5",
        "Post_Office": "Johor Bahru",
        "State": "Johor"
    },
    {
        "Postcode": "81100",
        "Location": "Jalan Murni 6",
        "Post_Office": "Johor Bahru",
        "State": "Johor"
    },
    {
        "Postcode": "81100",
        "Location": "Jalan Murni 7",
        "Post_Office": "Johor Bahru",
        "State": "Johor"
    },
    {
        "Postcode": "81100",
        "Location": "Jalan Murni 8",
        "Post_Office": "Johor Bahru",
        "State": "Johor"
    },
    {
        "Postcode": "81100",
        "Location": "Jalan Murni 9",
        "Post_Office": "Johor Bahru",
        "State": "Johor"
    },
    {
        "Postcode": "81100",
        "Location": "Jalan Mutiara Emas 2",
        "Post_Office": "Johor Bahru",
        "State": "Johor"
    },
    {
        "Postcode": "81100",
        "Location": "Jalan Mutiara Emas 2/1",
        "Post_Office": "Johor Bahru",
        "State": "Johor"
    },
    {
        "Postcode": "81100",
        "Location": "Jalan Mutiara Emas 2/10",
        "Post_Office": "Johor Bahru",
        "State": "Johor"
    },
    {
        "Postcode": "81100",
        "Location": "Jalan Mutiara Emas 2/11",
        "Post_Office": "Johor Bahru",
        "State": "Johor"
    },
    {
        "Postcode": "81100",
        "Location": "Jalan Mutiara Emas 2/12",
        "Post_Office": "Johor Bahru",
        "State": "Johor"
    },
    {
        "Postcode": "81100",
        "Location": "Jalan Mutiara Emas 2/13",
        "Post_Office": "Johor Bahru",
        "State": "Johor"
    },
    {
        "Postcode": "81100",
        "Location": "Jalan Mutiara Emas 2/14",
        "Post_Office": "Johor Bahru",
        "State": "Johor"
    },
    {
        "Postcode": "81100",
        "Location": "Jalan Mutiara Emas 2/15",
        "Post_Office": "Johor Bahru",
        "State": "Johor"
    },
    {
        "Postcode": "81100",
        "Location": "Jalan Mutiara Emas 2/16",
        "Post_Office": "Johor Bahru",
        "State": "Johor"
    },
    {
        "Postcode": "81100",
        "Location": "Jalan Mutiara Emas 2/17",
        "Post_Office": "Johor Bahru",
        "State": "Johor"
    },
    {
        "Postcode": "81100",
        "Location": "Jalan Mutiara Emas 2/18",
        "Post_Office": "Johor Bahru",
        "State": "Johor"
    },
    {
        "Postcode": "81100",
        "Location": "Jalan Mutiara Emas 2/19",
        "Post_Office": "Johor Bahru",
        "State": "Johor"
    },
    {
        "Postcode": "81100",
        "Location": "Jalan Mutiara Emas 2/2",
        "Post_Office": "Johor Bahru",
        "State": "Johor"
    },
    {
        "Postcode": "81100",
        "Location": "Jalan Mutiara Emas 2/20",
        "Post_Office": "Johor Bahru",
        "State": "Johor"
    },
    {
        "Postcode": "81100",
        "Location": "Jalan Mutiara Emas 2/21",
        "Post_Office": "Johor Bahru",
        "State": "Johor"
    },
    {
        "Postcode": "81100",
        "Location": "Jalan Mutiara Emas 2/22",
        "Post_Office": "Johor Bahru",
        "State": "Johor"
    },
    {
        "Postcode": "81100",
        "Location": "Jalan Mutiara Emas 2/23",
        "Post_Office": "Johor Bahru",
        "State": "Johor"
    },
    {
        "Postcode": "81100",
        "Location": "Jalan Mutiara Emas 2/24",
        "Post_Office": "Johor Bahru",
        "State": "Johor"
    },
    {
        "Postcode": "81100",
        "Location": "Jalan Mutiara Emas 2/30",
        "Post_Office": "Johor Bahru",
        "State": "Johor"
    },
    {
        "Postcode": "81100",
        "Location": "Jalan Mutiara Emas 2/31",
        "Post_Office": "Johor Bahru",
        "State": "Johor"
    },
    {
        "Postcode": "81100",
        "Location": "Jalan Mutiara Emas 2/32",
        "Post_Office": "Johor Bahru",
        "State": "Johor"
    },
    {
        "Postcode": "81100",
        "Location": "Jalan Mutiara Emas 2/33",
        "Post_Office": "Johor Bahru",
        "State": "Johor"
    },
    {
        "Postcode": "81100",
        "Location": "Jalan Mutiara Emas 2/34",
        "Post_Office": "Johor Bahru",
        "State": "Johor"
    },
    {
        "Postcode": "81100",
        "Location": "Jalan Mutiara Emas 2/7",
        "Post_Office": "Johor Bahru",
        "State": "Johor"
    },
    {
        "Postcode": "81100",
        "Location": "Jalan Mutiara Emas 2/8",
        "Post_Office": "Johor Bahru",
        "State": "Johor"
    },
    {
        "Postcode": "81100",
        "Location": "Jalan Mutiara Emas 2/9",
        "Post_Office": "Johor Bahru",
        "State": "Johor"
    },
    {
        "Postcode": "81100",
        "Location": "Lorong 4, Jalan Cempaka",
        "Post_Office": "Johor Bahru",
        "State": "Johor"
    },
    {
        "Postcode": "81100",
        "Location": "Lorong 5, Jalan Cempaka",
        "Post_Office": "Johor Bahru",
        "State": "Johor"
    },
    {
        "Postcode": "81100",
        "Location": "Lorong 6, Jalan Cempaka",
        "Post_Office": "Johor Bahru",
        "State": "Johor"
    },
    {
        "Postcode": "81100",
        "Location": "Lorong 7, Jalan Cempaka",
        "Post_Office": "Johor Bahru",
        "State": "Johor"
    },
    {
        "Postcode": "81100",
        "Location": "Taman Setia Perniagaan ",
        "Post_Office": "Johor Bahru",
        "State": "Johor"
    },
    {
        "Postcode": "81100",
        "Location": "Bandar Dato Onn",
        "Post_Office": "Johor Bahru",
        "State": "Johor"
    },
    {
        "Postcode": "81100",
        "Location": "Desa Bukit Mutiara",
        "Post_Office": "Johor Bahru",
        "State": "Johor"
    },
    {
        "Postcode": "81100",
        "Location": "Desa Palma",
        "Post_Office": "Johor Bahru",
        "State": "Johor"
    },
    {
        "Postcode": "81100",
        "Location": "Hospital Sultan Ismail",
        "Post_Office": "Johor Bahru",
        "State": "Johor"
    },
    {
        "Postcode": "81100",
        "Location": "Jalan A (Sungai Sebulong)",
        "Post_Office": "Johor Bahru",
        "State": "Johor"
    },
    {
        "Postcode": "81100",
        "Location": "Jalan Abdul Rahman",
        "Post_Office": "Johor Bahru",
        "State": "Johor"
    },
    {
        "Postcode": "81100",
        "Location": "Jalan Afiat",
        "Post_Office": "Johor Bahru",
        "State": "Johor"
    },
    {
        "Postcode": "81100",
        "Location": "Jalan Aman",
        "Post_Office": "Johor Bahru",
        "State": "Johor"
    },
    {
        "Postcode": "81100",
        "Location": "Jalan Anak Sebulung",
        "Post_Office": "Johor Bahru",
        "State": "Johor"
    },
    {
        "Postcode": "81100",
        "Location": "Jalan Andak",
        "Post_Office": "Johor Bahru",
        "State": "Johor"
    },
    {
        "Postcode": "81100",
        "Location": "Jalan Andang",
        "Post_Office": "Johor Bahru",
        "State": "Johor"
    },
    {
        "Postcode": "81100",
        "Location": "Jalan Anggerik",
        "Post_Office": "Johor Bahru",
        "State": "Johor"
    },
    {
        "Postcode": "81100",
        "Location": "Jalan Antoi",
        "Post_Office": "Johor Bahru",
        "State": "Johor"
    },
    {
        "Postcode": "81100",
        "Location": "Jalan Anum",
        "Post_Office": "Johor Bahru",
        "State": "Johor"
    },
    {
        "Postcode": "81100",
        "Location": "Jalan Askar",
        "Post_Office": "Johor Bahru",
        "State": "Johor"
    },
    {
        "Postcode": "81100",
        "Location": "Jalan Bahgia",
        "Post_Office": "Johor Bahru",
        "State": "Johor"
    },
    {
        "Postcode": "81100",
        "Location": "Jalan Balai",
        "Post_Office": "Johor Bahru",
        "State": "Johor"
    },
    {
        "Postcode": "81100",
        "Location": "Jalan Bantuan",
        "Post_Office": "Johor Bahru",
        "State": "Johor"
    },
    {
        "Postcode": "81100",
        "Location": "Jalan Belia",
        "Post_Office": "Johor Bahru",
        "State": "Johor"
    },
    {
        "Postcode": "81100",
        "Location": "Jalan Besar Pandan",
        "Post_Office": "Johor Bahru",
        "State": "Johor"
    },
    {
        "Postcode": "81100",
        "Location": "Jalan Budiman",
        "Post_Office": "Johor Bahru",
        "State": "Johor"
    },
    {
        "Postcode": "81100",
        "Location": "Jalan Bumi Hijau",
        "Post_Office": "Johor Bahru",
        "State": "Johor"
    },
    {
        "Postcode": "81100",
        "Location": "Jalan Bunga Antoi",
        "Post_Office": "Johor Bahru",
        "State": "Johor"
    },
    {
        "Postcode": "81100",
        "Location": "Jalan Bunga Cempaka",
        "Post_Office": "Johor Bahru",
        "State": "Johor"
    },
    {
        "Postcode": "81100",
        "Location": "Jalan Bunga Mawar",
        "Post_Office": "Johor Bahru",
        "State": "Johor"
    },
    {
        "Postcode": "81100",
        "Location": "Jalan Bunga Melor",
        "Post_Office": "Johor Bahru",
        "State": "Johor"
    },
    {
        "Postcode": "81100",
        "Location": "Jalan Bunga Raya Besar",
        "Post_Office": "Johor Bahru",
        "State": "Johor"
    },
    {
        "Postcode": "81100",
        "Location": "Jalan Bunga Raya Kecil",
        "Post_Office": "Johor Bahru",
        "State": "Johor"
    },
    {
        "Postcode": "81100",
        "Location": "Jalan Bunga Ros",
        "Post_Office": "Johor Bahru",
        "State": "Johor"
    },
    {
        "Postcode": "81100",
        "Location": "Jalan Bunga Ros Besar",
        "Post_Office": "Johor Bahru",
        "State": "Johor"
    },
    {
        "Postcode": "81100",
        "Location": "Jalan C",
        "Post_Office": "Johor Bahru",
        "State": "Johor"
    },
    {
        "Postcode": "81100",
        "Location": "Jalan Cekor",
        "Post_Office": "Johor Bahru",
        "State": "Johor"
    },
    {
        "Postcode": "81100",
        "Location": "Jalan Cemperai",
        "Post_Office": "Johor Bahru",
        "State": "Johor"
    },
    {
        "Postcode": "81100",
        "Location": "Jalan Cemperai 1",
        "Post_Office": "Johor Bahru",
        "State": "Johor"
    },
    {
        "Postcode": "81100",
        "Location": "Jalan Chia Jin Chuan",
        "Post_Office": "Johor Bahru",
        "State": "Johor"
    },
    {
        "Postcode": "81100",
        "Location": "Jalan Dagang 3",
        "Post_Office": "Johor Bahru",
        "State": "Johor"
    },
    {
        "Postcode": "81100",
        "Location": "Jalan Dang Anom",
        "Post_Office": "Johor Bahru",
        "State": "Johor"
    },
    {
        "Postcode": "81100",
        "Location": "Jalan Dermawan",
        "Post_Office": "Johor Bahru",
        "State": "Johor"
    },
    {
        "Postcode": "81100",
        "Location": "Jalan Dewani",
        "Post_Office": "Johor Bahru",
        "State": "Johor"
    },
    {
        "Postcode": "81100",
        "Location": "Jalan Enau",
        "Post_Office": "Johor Bahru",
        "State": "Johor"
    },
    {
        "Postcode": "81100",
        "Location": "Jalan Fatimah Sultanah",
        "Post_Office": "Johor Bahru",
        "State": "Johor"
    },
    {
        "Postcode": "81100",
        "Location": "Jalan Firma 1",
        "Post_Office": "Johor Bahru",
        "State": "Johor"
    },
    {
        "Postcode": "81100",
        "Location": "Jalan Firma 2",
        "Post_Office": "Johor Bahru",
        "State": "Johor"
    },
    {
        "Postcode": "81100",
        "Location": "Jalan Gerai ",
        "Post_Office": "Johor Bahru",
        "State": "Johor"
    },
    {
        "Postcode": "81100",
        "Location": "Jalan Haji Abd Rahman",
        "Post_Office": "Johor Bahru",
        "State": "Johor"
    },
    {
        "Postcode": "81100",
        "Location": "Jalan Halia",
        "Post_Office": "Johor Bahru",
        "State": "Johor"
    },
    {
        "Postcode": "81100",
        "Location": "Jalan Hikmat",
        "Post_Office": "Johor Bahru",
        "State": "Johor"
    },
    {
        "Postcode": "81100",
        "Location": "Jalan Hujong",
        "Post_Office": "Johor Bahru",
        "State": "Johor"
    },
    {
        "Postcode": "81100",
        "Location": "Jalan Inai",
        "Post_Office": "Johor Bahru",
        "State": "Johor"
    },
    {
        "Postcode": "81100",
        "Location": "Jalan Ingatan",
        "Post_Office": "Johor Bahru",
        "State": "Johor"
    },
    {
        "Postcode": "81100",
        "Location": "Jalan Jaafar Nong Chik",
        "Post_Office": "Johor Bahru",
        "State": "Johor"
    },
    {
        "Postcode": "81100",
        "Location": "Jalan Jaya",
        "Post_Office": "Johor Bahru",
        "State": "Johor"
    },
    {
        "Postcode": "81100",
        "Location": "Jalan Johor Jaya",
        "Post_Office": "Johor Bahru",
        "State": "Johor"
    },
    {
        "Postcode": "81100",
        "Location": "Jalan Kacang",
        "Post_Office": "Johor Bahru",
        "State": "Johor"
    },
    {
        "Postcode": "81100",
        "Location": "Jalan Kangkar Kecil",
        "Post_Office": "Johor Bahru",
        "State": "Johor"
    },
    {
        "Postcode": "81100",
        "Location": "Jalan Kangkar Tebrau",
        "Post_Office": "Johor Bahru",
        "State": "Johor"
    },
    {
        "Postcode": "81100",
        "Location": "Jalan Kangkong",
        "Post_Office": "Johor Bahru",
        "State": "Johor"
    },
    {
        "Postcode": "81100",
        "Location": "Jalan Kechil",
        "Post_Office": "Johor Bahru",
        "State": "Johor"
    },
    {
        "Postcode": "81100",
        "Location": "Jalan Keladi",
        "Post_Office": "Johor Bahru",
        "State": "Johor"
    },
    {
        "Postcode": "81100",
        "Location": "Jalan Keledek",
        "Post_Office": "Johor Bahru",
        "State": "Johor"
    },
    {
        "Postcode": "81100",
        "Location": "Jalan Kemboja",
        "Post_Office": "Johor Bahru",
        "State": "Johor"
    },
    {
        "Postcode": "81100",
        "Location": "Jalan Kentang",
        "Post_Office": "Johor Bahru",
        "State": "Johor"
    },
    {
        "Postcode": "81100",
        "Location": "Jalan Kesum",
        "Post_Office": "Johor Bahru",
        "State": "Johor"
    },
    {
        "Postcode": "81100",
        "Location": "Jalan Ketam",
        "Post_Office": "Johor Bahru",
        "State": "Johor"
    },
    {
        "Postcode": "81100",
        "Location": "Jalan Ketola",
        "Post_Office": "Johor Bahru",
        "State": "Johor"
    },
    {
        "Postcode": "81100",
        "Location": "Jalan Ketumbar",
        "Post_Office": "Johor Bahru",
        "State": "Johor"
    },
    {
        "Postcode": "81100",
        "Location": "Jalan Kobis",
        "Post_Office": "Johor Bahru",
        "State": "Johor"
    },
    {
        "Postcode": "81100",
        "Location": "Jalan Kunyit",
        "Post_Office": "Johor Bahru",
        "State": "Johor"
    },
    {
        "Postcode": "81100",
        "Location": "Jalan Labu",
        "Post_Office": "Johor Bahru",
        "State": "Johor"
    },
    {
        "Postcode": "81100",
        "Location": "Jalan Langkuas",
        "Post_Office": "Johor Bahru",
        "State": "Johor"
    },
    {
        "Postcode": "81100",
        "Location": "Jalan Lobak Merah",
        "Post_Office": "Johor Bahru",
        "State": "Johor"
    },
    {
        "Postcode": "81100",
        "Location": "Jalan Lobak Putih",
        "Post_Office": "Johor Bahru",
        "State": "Johor"
    },
    {
        "Postcode": "81100",
        "Location": "Jalan Loo Hoon Joun",
        "Post_Office": "Johor Bahru",
        "State": "Johor"
    },
    {
        "Postcode": "81100",
        "Location": "Jalan Mahsuri",
        "Post_Office": "Johor Bahru",
        "State": "Johor"
    },
    {
        "Postcode": "81100",
        "Location": "Jalan Makmur",
        "Post_Office": "Johor Bahru",
        "State": "Johor"
    },
    {
        "Postcode": "81100",
        "Location": "Jalan Masai Lama",
        "Post_Office": "Johor Bahru",
        "State": "Johor"
    },
    {
        "Postcode": "81100",
        "Location": "Jalan Mawar",
        "Post_Office": "Johor Bahru",
        "State": "Johor"
    },
    {
        "Postcode": "81100",
        "Location": "Jalan Melur",
        "Post_Office": "Johor Bahru",
        "State": "Johor"
    },
    {
        "Postcode": "81100",
        "Location": "Jalan Mengkudu",
        "Post_Office": "Johor Bahru",
        "State": "Johor"
    },
    {
        "Postcode": "81100",
        "Location": "Jalan Mentimun",
        "Post_Office": "Johor Bahru",
        "State": "Johor"
    },
    {
        "Postcode": "81100",
        "Location": "Jalan Mewah",
        "Post_Office": "Johor Bahru",
        "State": "Johor"
    },
    {
        "Postcode": "81100",
        "Location": "Jalan Mohd Ibrahim",
        "Post_Office": "Johor Bahru",
        "State": "Johor"
    },
    {
        "Postcode": "81100",
        "Location": "Jalan Mohd Mahbob",
        "Post_Office": "Johor Bahru",
        "State": "Johor"
    },
    {
        "Postcode": "81100",
        "Location": "Jalan Mohd Salleh",
        "Post_Office": "Johor Bahru",
        "State": "Johor"
    },
    {
        "Postcode": "81100",
        "Location": "Jalan Molek 1/22",
        "Post_Office": "Johor Bahru",
        "State": "Johor"
    },
    {
        "Postcode": "81100",
        "Location": "Jalan Molek 2",
        "Post_Office": "Johor Bahru",
        "State": "Johor"
    },
    {
        "Postcode": "81100",
        "Location": "Jalan Molek 2/1",
        "Post_Office": "Johor Bahru",
        "State": "Johor"
    },
    {
        "Postcode": "81100",
        "Location": "Jalan Molek 2/10",
        "Post_Office": "Johor Bahru",
        "State": "Johor"
    },
    {
        "Postcode": "81100",
        "Location": "Jalan Molek 2/11",
        "Post_Office": "Johor Bahru",
        "State": "Johor"
    },
    {
        "Postcode": "81100",
        "Location": "Jalan Molek 2/12",
        "Post_Office": "Johor Bahru",
        "State": "Johor"
    },
    {
        "Postcode": "81100",
        "Location": "Jalan Molek 2/13",
        "Post_Office": "Johor Bahru",
        "State": "Johor"
    },
    {
        "Postcode": "81100",
        "Location": "Jalan Molek 2/14",
        "Post_Office": "Johor Bahru",
        "State": "Johor"
    },
    {
        "Postcode": "81100",
        "Location": "Jalan Molek 2/15",
        "Post_Office": "Johor Bahru",
        "State": "Johor"
    },
    {
        "Postcode": "81100",
        "Location": "Jalan Molek 2/16",
        "Post_Office": "Johor Bahru",
        "State": "Johor"
    },
    {
        "Postcode": "81100",
        "Location": "Jalan Molek 2/17",
        "Post_Office": "Johor Bahru",
        "State": "Johor"
    },
    {
        "Postcode": "81100",
        "Location": "Jalan Molek 2/18",
        "Post_Office": "Johor Bahru",
        "State": "Johor"
    },
    {
        "Postcode": "81100",
        "Location": "Jalan Molek 2/19",
        "Post_Office": "Johor Bahru",
        "State": "Johor"
    },
    {
        "Postcode": "81100",
        "Location": "Jalan Molek 2/2",
        "Post_Office": "Johor Bahru",
        "State": "Johor"
    },
    {
        "Postcode": "81100",
        "Location": "Jalan Molek 2/20",
        "Post_Office": "Johor Bahru",
        "State": "Johor"
    },
    {
        "Postcode": "81100",
        "Location": "Jalan Molek 2/21",
        "Post_Office": "Johor Bahru",
        "State": "Johor"
    },
    {
        "Postcode": "81100",
        "Location": "Jalan Molek 2/22",
        "Post_Office": "Johor Bahru",
        "State": "Johor"
    },
    {
        "Postcode": "81100",
        "Location": "Jalan Molek 2/23",
        "Post_Office": "Johor Bahru",
        "State": "Johor"
    },
    {
        "Postcode": "81100",
        "Location": "Jalan Molek 2/24",
        "Post_Office": "Johor Bahru",
        "State": "Johor"
    },
    {
        "Postcode": "81100",
        "Location": "Jalan Molek 2/25",
        "Post_Office": "Johor Bahru",
        "State": "Johor"
    },
    {
        "Postcode": "81100",
        "Location": "Jalan Molek 2/26",
        "Post_Office": "Johor Bahru",
        "State": "Johor"
    },
    {
        "Postcode": "81100",
        "Location": "Jalan Molek 2/27",
        "Post_Office": "Johor Bahru",
        "State": "Johor"
    },
    {
        "Postcode": "81100",
        "Location": "Jalan Molek 2/28",
        "Post_Office": "Johor Bahru",
        "State": "Johor"
    },
    {
        "Postcode": "81100",
        "Location": "Jalan Molek 2/29",
        "Post_Office": "Johor Bahru",
        "State": "Johor"
    },
    {
        "Postcode": "81100",
        "Location": "Jalan Molek 2/3",
        "Post_Office": "Johor Bahru",
        "State": "Johor"
    },
    {
        "Postcode": "81100",
        "Location": "Jalan Molek 2/30",
        "Post_Office": "Johor Bahru",
        "State": "Johor"
    },
    {
        "Postcode": "81100",
        "Location": "Jalan Molek 2/31",
        "Post_Office": "Johor Bahru",
        "State": "Johor"
    },
    {
        "Postcode": "81100",
        "Location": "Jalan Molek 2/32",
        "Post_Office": "Johor Bahru",
        "State": "Johor"
    },
    {
        "Postcode": "81100",
        "Location": "Jalan Molek 2/33",
        "Post_Office": "Johor Bahru",
        "State": "Johor"
    },
    {
        "Postcode": "81100",
        "Location": "Jalan Molek 2/34",
        "Post_Office": "Johor Bahru",
        "State": "Johor"
    },
    {
        "Postcode": "81100",
        "Location": "Jalan Molek 2/35",
        "Post_Office": "Johor Bahru",
        "State": "Johor"
    },
    {
        "Postcode": "81100",
        "Location": "Jalan Molek 2/36",
        "Post_Office": "Johor Bahru",
        "State": "Johor"
    },
    {
        "Postcode": "81100",
        "Location": "Jalan Molek 2/37",
        "Post_Office": "Johor Bahru",
        "State": "Johor"
    },
    {
        "Postcode": "81100",
        "Location": "Jalan Molek 2/38",
        "Post_Office": "Johor Bahru",
        "State": "Johor"
    },
    {
        "Postcode": "81100",
        "Location": "Jalan Molek 2/39",
        "Post_Office": "Johor Bahru",
        "State": "Johor"
    },
    {
        "Postcode": "81100",
        "Location": "Jalan Molek 2/4",
        "Post_Office": "Johor Bahru",
        "State": "Johor"
    },
    {
        "Postcode": "81100",
        "Location": "Jalan Molek 2/40",
        "Post_Office": "Johor Bahru",
        "State": "Johor"
    },
    {
        "Postcode": "81100",
        "Location": "Jalan Molek 2/41",
        "Post_Office": "Johor Bahru",
        "State": "Johor"
    },
    {
        "Postcode": "81100",
        "Location": "Jalan Molek 2/42",
        "Post_Office": "Johor Bahru",
        "State": "Johor"
    },
    {
        "Postcode": "81100",
        "Location": "Jalan Molek 2/5",
        "Post_Office": "Johor Bahru",
        "State": "Johor"
    },
    {
        "Postcode": "81100",
        "Location": "Jalan Molek 2/6",
        "Post_Office": "Johor Bahru",
        "State": "Johor"
    },
    {
        "Postcode": "81100",
        "Location": "Jalan Molek 2/7",
        "Post_Office": "Johor Bahru",
        "State": "Johor"
    },
    {
        "Postcode": "81100",
        "Location": "Jalan Molek 2/8",
        "Post_Office": "Johor Bahru",
        "State": "Johor"
    },
    {
        "Postcode": "81100",
        "Location": "Jalan Molek 2/9",
        "Post_Office": "Johor Bahru",
        "State": "Johor"
    },
    {
        "Postcode": "81100",
        "Location": "Jalan Mulia",
        "Post_Office": "Johor Bahru",
        "State": "Johor"
    },
    {
        "Postcode": "81100",
        "Location": "Jalan Murni",
        "Post_Office": "Johor Bahru",
        "State": "Johor"
    },
    {
        "Postcode": "81100",
        "Location": "Jalan Mustika",
        "Post_Office": "Johor Bahru",
        "State": "Johor"
    },
    {
        "Postcode": "81100",
        "Location": "Jalan Nasib",
        "Post_Office": "Johor Bahru",
        "State": "Johor"
    },
    {
        "Postcode": "81100",
        "Location": "Jalan Nikmat",
        "Post_Office": "Johor Bahru",
        "State": "Johor"
    },
    {
        "Postcode": "81100",
        "Location": "Jalan Nipah",
        "Post_Office": "Johor Bahru",
        "State": "Johor"
    },
    {
        "Postcode": "81100",
        "Location": "Jalan Nyior",
        "Post_Office": "Johor Bahru",
        "State": "Johor"
    },
    {
        "Postcode": "81100",
        "Location": "Jalan Padang 1",
        "Post_Office": "Johor Bahru",
        "State": "Johor"
    },
    {
        "Postcode": "81100",
        "Location": "Jalan Padang 2",
        "Post_Office": "Johor Bahru",
        "State": "Johor"
    },
    {
        "Postcode": "81100",
        "Location": "Jalan Padang 3",
        "Post_Office": "Johor Bahru",
        "State": "Johor"
    },
    {
        "Postcode": "81100",
        "Location": "Jalan Palas 1",
        "Post_Office": "Johor Bahru",
        "State": "Johor"
    },
    {
        "Postcode": "81100",
        "Location": "Jalan Pegaga 3",
        "Post_Office": "Johor Bahru",
        "State": "Johor"
    },
    {
        "Postcode": "81100",
        "Location": "Jalan Pendita",
        "Post_Office": "Johor Bahru",
        "State": "Johor"
    },
    {
        "Postcode": "81100",
        "Location": "Jalan Penjuru",
        "Post_Office": "Johor Bahru",
        "State": "Johor"
    },
    {
        "Postcode": "81100",
        "Location": "Jalan Peria",
        "Post_Office": "Johor Bahru",
        "State": "Johor"
    },
    {
        "Postcode": "81100",
        "Location": "Jalan Permata",
        "Post_Office": "Johor Bahru",
        "State": "Johor"
    },
    {
        "Postcode": "81100",
        "Location": "Jalan Pudina",
        "Post_Office": "Johor Bahru",
        "State": "Johor"
    },
    {
        "Postcode": "81100",
        "Location": "Jalan Pujangga",
        "Post_Office": "Johor Bahru",
        "State": "Johor"
    },
    {
        "Postcode": "81100",
        "Location": "Jalan Rebong",
        "Post_Office": "Johor Bahru",
        "State": "Johor"
    },
    {
        "Postcode": "81100",
        "Location": "Jalan Rumbia",
        "Post_Office": "Johor Bahru",
        "State": "Johor"
    },
    {
        "Postcode": "81100",
        "Location": "Jalan Sadri",
        "Post_Office": "Johor Bahru",
        "State": "Johor"
    },
    {
        "Postcode": "81100",
        "Location": "Jalan Sahabat",
        "Post_Office": "Johor Bahru",
        "State": "Johor"
    },
    {
        "Postcode": "81100",
        "Location": "Jalan Satu",
        "Post_Office": "Johor Bahru",
        "State": "Johor"
    },
    {
        "Postcode": "81100",
        "Location": "Jalan Saudara",
        "Post_Office": "Johor Bahru",
        "State": "Johor"
    },
    {
        "Postcode": "81100",
        "Location": "Jalan Sebulong",
        "Post_Office": "Johor Bahru",
        "State": "Johor"
    },
    {
        "Postcode": "81100",
        "Location": "Jalan Sebulung",
        "Post_Office": "Johor Bahru",
        "State": "Johor"
    },
    {
        "Postcode": "81100",
        "Location": "Jalan Selamat",
        "Post_Office": "Johor Bahru",
        "State": "Johor"
    },
    {
        "Postcode": "81100",
        "Location": "Jalan Selasih",
        "Post_Office": "Johor Bahru",
        "State": "Johor"
    },
    {
        "Postcode": "81100",
        "Location": "Jalan Semangkok",
        "Post_Office": "Johor Bahru",
        "State": "Johor"
    },
    {
        "Postcode": "81100",
        "Location": "Jalan Sempadan",
        "Post_Office": "Johor Bahru",
        "State": "Johor"
    },
    {
        "Postcode": "81100",
        "Location": "Jalan Senang",
        "Post_Office": "Johor Bahru",
        "State": "Johor"
    },
    {
        "Postcode": "81100",
        "Location": "Jalan Sendayan",
        "Post_Office": "Johor Bahru",
        "State": "Johor"
    },
    {
        "Postcode": "81100",
        "Location": "Jalan Senduduk",
        "Post_Office": "Johor Bahru",
        "State": "Johor"
    },
    {
        "Postcode": "81100",
        "Location": "Jalan Senyuman",
        "Post_Office": "Johor Bahru",
        "State": "Johor"
    },
    {
        "Postcode": "81100",
        "Location": "Jalan Seri Purnama 2",
        "Post_Office": "Johor Bahru",
        "State": "Johor"
    },
    {
        "Postcode": "81100",
        "Location": "Jalan Setulang Baru",
        "Post_Office": "Johor Bahru",
        "State": "Johor"
    },
    {
        "Postcode": "81100",
        "Location": "Jalan Shukor",
        "Post_Office": "Johor Bahru",
        "State": "Johor"
    },
    {
        "Postcode": "81100",
        "Location": "Jalan Soldadu",
        "Post_Office": "Johor Bahru",
        "State": "Johor"
    },
    {
        "Postcode": "81100",
        "Location": "Jalan Surau",
        "Post_Office": "Johor Bahru",
        "State": "Johor"
    },
    {
        "Postcode": "81100",
        "Location": "Jalan Suria Utama",
        "Post_Office": "Johor Bahru",
        "State": "Johor"
    },
    {
        "Postcode": "81100",
        "Location": "Jalan Tampoi",
        "Post_Office": "Johor Bahru",
        "State": "Johor"
    },
    {
        "Postcode": "81100",
        "Location": "Jalan Tebrau",
        "Post_Office": "Johor Bahru",
        "State": "Johor"
    },
    {
        "Postcode": "81100",
        "Location": "Jalan Tebrau (Km 6 - 8)",
        "Post_Office": "Johor Bahru",
        "State": "Johor"
    },
    {
        "Postcode": "81100",
        "Location": "Jalan Tebrau Lama",
        "Post_Office": "Johor Bahru",
        "State": "Johor"
    },
    {
        "Postcode": "81100",
        "Location": "Jalan Tenang",
        "Post_Office": "Johor Bahru",
        "State": "Johor"
    },
    {
        "Postcode": "81100",
        "Location": "Jalan Tentera",
        "Post_Office": "Johor Bahru",
        "State": "Johor"
    },
    {
        "Postcode": "81100",
        "Location": "Jalan Terong",
        "Post_Office": "Johor Bahru",
        "State": "Johor"
    },
    {
        "Postcode": "81100",
        "Location": "Jalan Timon",
        "Post_Office": "Johor Bahru",
        "State": "Johor"
    },
    {
        "Postcode": "81100",
        "Location": "Jalan Tiram",
        "Post_Office": "Johor Bahru",
        "State": "Johor"
    },
    {
        "Postcode": "81100",
        "Location": "Jalan Tuah",
        "Post_Office": "Johor Bahru",
        "State": "Johor"
    },
    {
        "Postcode": "81100",
        "Location": "Jalan Tun Fatimah",
        "Post_Office": "Johor Bahru",
        "State": "Johor"
    },
    {
        "Postcode": "81100",
        "Location": "Jalan Tun Teja",
        "Post_Office": "Johor Bahru",
        "State": "Johor"
    },
    {
        "Postcode": "81100",
        "Location": "Jalan Ubi Kayu",
        "Post_Office": "Johor Bahru",
        "State": "Johor"
    },
    {
        "Postcode": "81100",
        "Location": "Jalan Ubi Pulut",
        "Post_Office": "Johor Bahru",
        "State": "Johor"
    },
    {
        "Postcode": "81100",
        "Location": "Jalan Ulu Pandan",
        "Post_Office": "Johor Bahru",
        "State": "Johor"
    },
    {
        "Postcode": "81100",
        "Location": "Jalan Utama",
        "Post_Office": "Johor Bahru",
        "State": "Johor"
    },
    {
        "Postcode": "81100",
        "Location": "Jalan Yahya Saaban",
        "Post_Office": "Johor Bahru",
        "State": "Johor"
    },
    {
        "Postcode": "81100",
        "Location": "Jaya Jusco (Tebrau City)",
        "Post_Office": "Johor Bahru",
        "State": "Johor"
    },
    {
        "Postcode": "81100",
        "Location": "Kampung Baru Pandan",
        "Post_Office": "Johor Bahru",
        "State": "Johor"
    },
    {
        "Postcode": "81100",
        "Location": "Kampung Belantik",
        "Post_Office": "Johor Bahru",
        "State": "Johor"
    },
    {
        "Postcode": "81100",
        "Location": "Kampung Bendahara",
        "Post_Office": "Johor Bahru",
        "State": "Johor"
    },
    {
        "Postcode": "81100",
        "Location": "Kampung Bunga Ros",
        "Post_Office": "Johor Bahru",
        "State": "Johor"
    },
    {
        "Postcode": "81100",
        "Location": "Kampung Dato Sulaiman Menteri",
        "Post_Office": "Johor Bahru",
        "State": "Johor"
    },
    {
        "Postcode": "81100",
        "Location": "Kampung Desa Jaya",
        "Post_Office": "Johor Bahru",
        "State": "Johor"
    },
    {
        "Postcode": "81100",
        "Location": "Kampung Desa Pewira",
        "Post_Office": "Johor Bahru",
        "State": "Johor"
    },
    {
        "Postcode": "81100",
        "Location": "Kampung Hajah Hasnah",
        "Post_Office": "Johor Bahru",
        "State": "Johor"
    },
    {
        "Postcode": "81100",
        "Location": "Kampung Kangkar Tebrau",
        "Post_Office": "Johor Bahru",
        "State": "Johor"
    },
    {
        "Postcode": "81100",
        "Location": "Kampung Kangkar Tebrau Kechil",
        "Post_Office": "Johor Bahru",
        "State": "Johor"
    },
    {
        "Postcode": "81100",
        "Location": "Kampung Melayu Pandan",
        "Post_Office": "Johor Bahru",
        "State": "Johor"
    },
    {
        "Postcode": "81100",
        "Location": "Kampung Paya Kenangan",
        "Post_Office": "Johor Bahru",
        "State": "Johor"
    },
    {
        "Postcode": "81100",
        "Location": "Kampung Penggawa Timor",
        "Post_Office": "Johor Bahru",
        "State": "Johor"
    },
    {
        "Postcode": "81100",
        "Location": "Kampung Pulada",
        "Post_Office": "Johor Bahru",
        "State": "Johor"
    },
    {
        "Postcode": "81100",
        "Location": "Kampung Seri Purnama",
        "Post_Office": "Johor Bahru",
        "State": "Johor"
    },
    {
        "Postcode": "81100",
        "Location": "Kampung Ubi Baru",
        "Post_Office": "Johor Bahru",
        "State": "Johor"
    },
    {
        "Postcode": "81100",
        "Location": "Kampung Ulu Pandan",
        "Post_Office": "Johor Bahru",
        "State": "Johor"
    },
    {
        "Postcode": "81100",
        "Location": "Kangkar Tebrau Baru",
        "Post_Office": "Johor Bahru",
        "State": "Johor"
    },
    {
        "Postcode": "81100",
        "Location": "Lorong Adil",
        "Post_Office": "Johor Bahru",
        "State": "Johor"
    },
    {
        "Postcode": "81100",
        "Location": "Lorong Bahgia",
        "Post_Office": "Johor Bahru",
        "State": "Johor"
    },
    {
        "Postcode": "81100",
        "Location": "Lorong Balai",
        "Post_Office": "Johor Bahru",
        "State": "Johor"
    },
    {
        "Postcode": "81100",
        "Location": "Lorong Bunga Melati",
        "Post_Office": "Johor Bahru",
        "State": "Johor"
    },
    {
        "Postcode": "81100",
        "Location": "Lorong Halia",
        "Post_Office": "Johor Bahru",
        "State": "Johor"
    },
    {
        "Postcode": "81100",
        "Location": "Lorong Hikmat",
        "Post_Office": "Johor Bahru",
        "State": "Johor"
    },
    {
        "Postcode": "81100",
        "Location": "Lorong Ketola",
        "Post_Office": "Johor Bahru",
        "State": "Johor"
    },
    {
        "Postcode": "81100",
        "Location": "Lorong Maju",
        "Post_Office": "Johor Bahru",
        "State": "Johor"
    },
    {
        "Postcode": "81100",
        "Location": "Lorong Makmor",
        "Post_Office": "Johor Bahru",
        "State": "Johor"
    },
    {
        "Postcode": "81100",
        "Location": "Lorong Murni",
        "Post_Office": "Johor Bahru",
        "State": "Johor"
    },
    {
        "Postcode": "81100",
        "Location": "Lorong Mustika",
        "Post_Office": "Johor Bahru",
        "State": "Johor"
    },
    {
        "Postcode": "81100",
        "Location": "Lorong Mutiara",
        "Post_Office": "Johor Bahru",
        "State": "Johor"
    },
    {
        "Postcode": "81100",
        "Location": "Lorong Pemuda",
        "Post_Office": "Johor Bahru",
        "State": "Johor"
    },
    {
        "Postcode": "81100",
        "Location": "Lorong Perajurit",
        "Post_Office": "Johor Bahru",
        "State": "Johor"
    },
    {
        "Postcode": "81100",
        "Location": "Lorong Permata",
        "Post_Office": "Johor Bahru",
        "State": "Johor"
    },
    {
        "Postcode": "81100",
        "Location": "Lorong Pujangga",
        "Post_Office": "Johor Bahru",
        "State": "Johor"
    },
    {
        "Postcode": "81100",
        "Location": "Lorong Sakti",
        "Post_Office": "Johor Bahru",
        "State": "Johor"
    },
    {
        "Postcode": "81100",
        "Location": "Lorong Seldadu",
        "Post_Office": "Johor Bahru",
        "State": "Johor"
    },
    {
        "Postcode": "81100",
        "Location": "Lorong Tentera",
        "Post_Office": "Johor Bahru",
        "State": "Johor"
    },
    {
        "Postcode": "81100",
        "Location": "Lorong Tuah",
        "Post_Office": "Johor Bahru",
        "State": "Johor"
    },
    {
        "Postcode": "81100",
        "Location": "Majidee",
        "Post_Office": "Johor Bahru",
        "State": "Johor"
    },
    {
        "Postcode": "81100",
        "Location": "Taman Adda Heights",
        "Post_Office": "Johor Bahru",
        "State": "Johor"
    },
    {
        "Postcode": "81100",
        "Location": "Taman Austin Heights",
        "Post_Office": "Johor Bahru",
        "State": "Johor"
    },
    {
        "Postcode": "81100",
        "Location": "Taman Austin Perdana",
        "Post_Office": "Johor Bahru",
        "State": "Johor"
    },
    {
        "Postcode": "81100",
        "Location": "Taman Austin Utama",
        "Post_Office": "Johor Bahru",
        "State": "Johor"
    },
    {
        "Postcode": "81100",
        "Location": "Taman Dato Penggawa Timur",
        "Post_Office": "Johor Bahru",
        "State": "Johor"
    },
    {
        "Postcode": "81100",
        "Location": "Taman Desa Palma",
        "Post_Office": "Johor Bahru",
        "State": "Johor"
    },
    {
        "Postcode": "81100",
        "Location": "Taman Desa Tebrau",
        "Post_Office": "Johor Bahru",
        "State": "Johor"
    },
    {
        "Postcode": "81100",
        "Location": "Taman Ehsan Jaya",
        "Post_Office": "Johor Bahru",
        "State": "Johor"
    },
    {
        "Postcode": "81100",
        "Location": "Taman Istimewa",
        "Post_Office": "Johor Bahru",
        "State": "Johor"
    },
    {
        "Postcode": "81100",
        "Location": "Taman Johor Jaya",
        "Post_Office": "Johor Bahru",
        "State": "Johor"
    },
    {
        "Postcode": "81100",
        "Location": "Taman Jp Perdana",
        "Post_Office": "Johor Bahru",
        "State": "Johor"
    },
    {
        "Postcode": "81100",
        "Location": "Taman Kencana Mas",
        "Post_Office": "Johor Bahru",
        "State": "Johor"
    },
    {
        "Postcode": "81100",
        "Location": "Taman Mount Austin",
        "Post_Office": "Johor Bahru",
        "State": "Johor"
    },
    {
        "Postcode": "81100",
        "Location": "Taman Pandan",
        "Post_Office": "Johor Bahru",
        "State": "Johor"
    },
    {
        "Postcode": "81100",
        "Location": "Taman Panderosa",
        "Post_Office": "Johor Bahru",
        "State": "Johor"
    },
    {
        "Postcode": "81100",
        "Location": "Taman Redang",
        "Post_Office": "Johor Bahru",
        "State": "Johor"
    },
    {
        "Postcode": "81100",
        "Location": "Taman Seri Amar",
        "Post_Office": "Johor Bahru",
        "State": "Johor"
    },
    {
        "Postcode": "81100",
        "Location": "Taman Seri Austin",
        "Post_Office": "Johor Bahru",
        "State": "Johor"
    },
    {
        "Postcode": "81100",
        "Location": "Taman Sri Pandan",
        "Post_Office": "Johor Bahru",
        "State": "Johor"
    },
    {
        "Postcode": "81100",
        "Location": "Taman Ekoperniagaan",
        "Post_Office": "Johor Bahru",
        "State": "Johor"
    },
    {
        "Postcode": "81100",
        "Location": "Jalan Anggerik 43",
        "Post_Office": "Johor Bahru",
        "State": "Johor"
    },
    {
        "Postcode": "81100",
        "Location": "Jalan Anggerik 44",
        "Post_Office": "Johor Bahru",
        "State": "Johor"
    },
    {
        "Postcode": "81100",
        "Location": "Jalan Anggerik 45",
        "Post_Office": "Johor Bahru",
        "State": "Johor"
    },
    {
        "Postcode": "81100",
        "Location": "Jalan Anggerik 46",
        "Post_Office": "Johor Bahru",
        "State": "Johor"
    },
    {
        "Postcode": "81100",
        "Location": "Jalan Anggerik 47",
        "Post_Office": "Johor Bahru",
        "State": "Johor"
    },
    {
        "Postcode": "81100",
        "Location": "Jalan Anggerik 48",
        "Post_Office": "Johor Bahru",
        "State": "Johor"
    },
    {
        "Postcode": "81100",
        "Location": "Jalan Anggerik 49",
        "Post_Office": "Johor Bahru",
        "State": "Johor"
    },
    {
        "Postcode": "81100",
        "Location": "Jalan Anggerik 5",
        "Post_Office": "Johor Bahru",
        "State": "Johor"
    },
    {
        "Postcode": "81100",
        "Location": "Jalan Anggerik 50",
        "Post_Office": "Johor Bahru",
        "State": "Johor"
    },
    {
        "Postcode": "81100",
        "Location": "Jalan Anggerik 51",
        "Post_Office": "Johor Bahru",
        "State": "Johor"
    },
    {
        "Postcode": "81100",
        "Location": "Jalan Anggerik 52",
        "Post_Office": "Johor Bahru",
        "State": "Johor"
    },
    {
        "Postcode": "81100",
        "Location": "Jalan Anggerik 53",
        "Post_Office": "Johor Bahru",
        "State": "Johor"
    },
    {
        "Postcode": "81100",
        "Location": "Jalan Anggerik 54",
        "Post_Office": "Johor Bahru",
        "State": "Johor"
    },
    {
        "Postcode": "81100",
        "Location": "Jalan Anggerik 55",
        "Post_Office": "Johor Bahru",
        "State": "Johor"
    },
    {
        "Postcode": "81100",
        "Location": "Jalan Anggerik 56",
        "Post_Office": "Johor Bahru",
        "State": "Johor"
    },
    {
        "Postcode": "81100",
        "Location": "Jalan Anggerik 57",
        "Post_Office": "Johor Bahru",
        "State": "Johor"
    },
    {
        "Postcode": "81100",
        "Location": "Jalan Anggerik 58",
        "Post_Office": "Johor Bahru",
        "State": "Johor"
    },
    {
        "Postcode": "81100",
        "Location": "Jalan Anggerik 59",
        "Post_Office": "Johor Bahru",
        "State": "Johor"
    },
    {
        "Postcode": "81100",
        "Location": "Jalan Anggerik 6",
        "Post_Office": "Johor Bahru",
        "State": "Johor"
    },
    {
        "Postcode": "81100",
        "Location": "Jalan Anggerik 60",
        "Post_Office": "Johor Bahru",
        "State": "Johor"
    },
    {
        "Postcode": "81100",
        "Location": "Jalan Anggerik 7",
        "Post_Office": "Johor Bahru",
        "State": "Johor"
    },
    {
        "Postcode": "81100",
        "Location": "Jalan Anggerik 8",
        "Post_Office": "Johor Bahru",
        "State": "Johor"
    },
    {
        "Postcode": "81100",
        "Location": "Jalan Anggerik 9",
        "Post_Office": "Johor Bahru",
        "State": "Johor"
    },
    {
        "Postcode": "81100",
        "Location": "Jalan Angkasa Mas Utama 1",
        "Post_Office": "Johor Bahru",
        "State": "Johor"
    },
    {
        "Postcode": "81100",
        "Location": "Jalan Angkasa Mas Utama 2",
        "Post_Office": "Johor Bahru",
        "State": "Johor"
    },
    {
        "Postcode": "81100",
        "Location": "Jalan Angkasa Mas Utama 3",
        "Post_Office": "Johor Bahru",
        "State": "Johor"
    },
    {
        "Postcode": "81100",
        "Location": "Jalan Angkasa Mas Utama 4",
        "Post_Office": "Johor Bahru",
        "State": "Johor"
    },
    {
        "Postcode": "81100",
        "Location": "Jalan Angkasa Mas Utama 5",
        "Post_Office": "Johor Bahru",
        "State": "Johor"
    },
    {
        "Postcode": "81100",
        "Location": "Jalan Bakawali 1",
        "Post_Office": "Johor Bahru",
        "State": "Johor"
    },
    {
        "Postcode": "81100",
        "Location": "Jalan Bakawali 10",
        "Post_Office": "Johor Bahru",
        "State": "Johor"
    },
    {
        "Postcode": "81100",
        "Location": "Jalan Bakawali 11",
        "Post_Office": "Johor Bahru",
        "State": "Johor"
    },
    {
        "Postcode": "81100",
        "Location": "Jalan Bakawali 12",
        "Post_Office": "Johor Bahru",
        "State": "Johor"
    },
    {
        "Postcode": "81100",
        "Location": "Jalan Bakawali 13",
        "Post_Office": "Johor Bahru",
        "State": "Johor"
    },
    {
        "Postcode": "81100",
        "Location": "Jalan Bakawali 14",
        "Post_Office": "Johor Bahru",
        "State": "Johor"
    },
    {
        "Postcode": "81100",
        "Location": "Jalan Bakawali 15",
        "Post_Office": "Johor Bahru",
        "State": "Johor"
    },
    {
        "Postcode": "81100",
        "Location": "Jalan Bakawali 16",
        "Post_Office": "Johor Bahru",
        "State": "Johor"
    },
    {
        "Postcode": "81100",
        "Location": "Jalan Bakawali 17",
        "Post_Office": "Johor Bahru",
        "State": "Johor"
    },
    {
        "Postcode": "81100",
        "Location": "Jalan Bakawali 18",
        "Post_Office": "Johor Bahru",
        "State": "Johor"
    },
    {
        "Postcode": "81100",
        "Location": "Jalan Bakawali 19",
        "Post_Office": "Johor Bahru",
        "State": "Johor"
    },
    {
        "Postcode": "81100",
        "Location": "Jalan Bakawali 2",
        "Post_Office": "Johor Bahru",
        "State": "Johor"
    },
    {
        "Postcode": "81100",
        "Location": "Jalan Bakawali 20",
        "Post_Office": "Johor Bahru",
        "State": "Johor"
    },
    {
        "Postcode": "81100",
        "Location": "Jalan Bakawali 21",
        "Post_Office": "Johor Bahru",
        "State": "Johor"
    },
    {
        "Postcode": "81100",
        "Location": "Jalan Bakawali 22",
        "Post_Office": "Johor Bahru",
        "State": "Johor"
    },
    {
        "Postcode": "81100",
        "Location": "Jalan Bakawali 23",
        "Post_Office": "Johor Bahru",
        "State": "Johor"
    },
    {
        "Postcode": "81100",
        "Location": "Jalan Bakawali 24",
        "Post_Office": "Johor Bahru",
        "State": "Johor"
    },
    {
        "Postcode": "81100",
        "Location": "Jalan Bakawali 25",
        "Post_Office": "Johor Bahru",
        "State": "Johor"
    },
    {
        "Postcode": "81100",
        "Location": "Jalan Bakawali 26",
        "Post_Office": "Johor Bahru",
        "State": "Johor"
    },
    {
        "Postcode": "81100",
        "Location": "Jalan Bakawali 27",
        "Post_Office": "Johor Bahru",
        "State": "Johor"
    },
    {
        "Postcode": "81100",
        "Location": "Jalan Bakawali 28",
        "Post_Office": "Johor Bahru",
        "State": "Johor"
    },
    {
        "Postcode": "81100",
        "Location": "Jalan Bakawali 29",
        "Post_Office": "Johor Bahru",
        "State": "Johor"
    },
    {
        "Postcode": "81100",
        "Location": "Jalan Bakawali 3",
        "Post_Office": "Johor Bahru",
        "State": "Johor"
    },
    {
        "Postcode": "81100",
        "Location": "Jalan Bakawali 30",
        "Post_Office": "Johor Bahru",
        "State": "Johor"
    },
    {
        "Postcode": "81100",
        "Location": "Jalan Bakawali 31",
        "Post_Office": "Johor Bahru",
        "State": "Johor"
    },
    {
        "Postcode": "81100",
        "Location": "Jalan Bakawali 32",
        "Post_Office": "Johor Bahru",
        "State": "Johor"
    },
    {
        "Postcode": "81100",
        "Location": "Jalan Bakawali 33",
        "Post_Office": "Johor Bahru",
        "State": "Johor"
    },
    {
        "Postcode": "81100",
        "Location": "Jalan Austin Perdana Utama",
        "Post_Office": "Johor Bahru",
        "State": "Johor"
    },
    {
        "Postcode": "81100",
        "Location": "Taman Ekoflora",
        "Post_Office": "Johor Bahru",
        "State": "Johor"
    },
    {
        "Postcode": "81100",
        "Location": "Kampung Desa Makmur",
        "Post_Office": "Johor Bahru",
        "State": "Johor"
    },
    {
        "Postcode": "81100",
        "Location": "Lorong Berlian",
        "Post_Office": "Johor Bahru",
        "State": "Johor"
    },
    {
        "Postcode": "81100",
        "Location": "Lorong Intan",
        "Post_Office": "Johor Bahru",
        "State": "Johor"
    },
    {
        "Postcode": "81100",
        "Location": "Lorong Jaya",
        "Post_Office": "Johor Bahru",
        "State": "Johor"
    },
    {
        "Postcode": "81100",
        "Location": "Lorong Peria",
        "Post_Office": "Johor Bahru",
        "State": "Johor"
    },
    {
        "Postcode": "81100",
        "Location": "Lorong Ria",
        "Post_Office": "Johor Bahru",
        "State": "Johor"
    },
    {
        "Postcode": "81100",
        "Location": "Taman Bukit Mutiara",
        "Post_Office": "Johor Bahru",
        "State": "Johor"
    },
    {
        "Postcode": "81100",
        "Location": "Taman Daya",
        "Post_Office": "Johor Bahru",
        "State": "Johor"
    },
    {
        "Postcode": "81100",
        "Location": "Taman Delima 2",
        "Post_Office": "Johor Bahru",
        "State": "Johor"
    },
    {
        "Postcode": "81100",
        "Location": "Taman Desa Harmoni",
        "Post_Office": "Johor Bahru",
        "State": "Johor"
    },
    {
        "Postcode": "81100",
        "Location": "Taman Dewani",
        "Post_Office": "Johor Bahru",
        "State": "Johor"
    },
    {
        "Postcode": "81100",
        "Location": "Jalan Adil",
        "Post_Office": "Johor Bahru",
        "State": "Johor"
    },
    {
        "Postcode": "81100",
        "Location": "Jalan Keembong",
        "Post_Office": "Johor Bahru",
        "State": "Johor"
    },
    {
        "Postcode": "81100",
        "Location": "Jalan Pasar",
        "Post_Office": "Johor Bahru",
        "State": "Johor"
    },
    {
        "Postcode": "81100",
        "Location": "Jalan Ria",
        "Post_Office": "Johor Bahru",
        "State": "Johor"
    },
    {
        "Postcode": "81100",
        "Location": "Jalan Seroja",
        "Post_Office": "Johor Bahru",
        "State": "Johor"
    },
    {
        "Postcode": "81100",
        "Location": "Jalan Temenggong",
        "Post_Office": "Johor Bahru",
        "State": "Johor"
    },
    {
        "Postcode": "81100",
        "Location": "Kampung Pasir",
        "Post_Office": "Johor Bahru",
        "State": "Johor"
    },
    {
        "Postcode": "81100",
        "Location": "Kampung Tengah",
        "Post_Office": "Johor Bahru",
        "State": "Johor"
    },
    {
        "Postcode": "81100",
        "Location": "Lorong Aman",
        "Post_Office": "Johor Bahru",
        "State": "Johor"
    },
    {
        "Postcode": "81100",
        "Location": "Lorong Pendita",
        "Post_Office": "Johor Bahru",
        "State": "Johor"
    },
    {
        "Postcode": "81100",
        "Location": "Taman Molek",
        "Post_Office": "Johor Bahru",
        "State": "Johor"
    },
    {
        "Postcode": "81100",
        "Location": "Taman Bunga Ros",
        "Post_Office": "Johor Bahru",
        "State": "Johor"
    },
    {
        "Postcode": "81100",
        "Location": "Taman Suria",
        "Post_Office": "Johor Bahru",
        "State": "Johor"
    }
]
