[
    {
        "Postcode": "81200",
        "Location": "Jalan Besar",
        "Post_Office": "Johor Bahru",
        "State": "Johor"
    },
    {
        "Postcode": "81200",
        "Location": "Taman Orkid",
        "Post_Office": "Johor Bahru",
        "State": "Johor"
    },
    {
        "Postcode": "81200",
        "Location": "Taman Permata",
        "Post_Office": "Johor Bahru",
        "State": "Johor"
    },
    {
        "Postcode": "81200",
        "Location": "Taman Sri Indah",
        "Post_Office": "Johor Bahru",
        "State": "Johor"
    },
    {
        "Postcode": "81200",
        "Location": "Taman Purnama",
        "Post_Office": "Johor Bahru",
        "State": "Johor"
    },
    {
        "Postcode": "81200",
        "Location": "Taman Sri Bahagia",
        "Post_Office": "Johor Bahru",
        "State": "Johor"
    },
    {
        "Postcode": "81200",
        "Location": "Jalan Durian",
        "Post_Office": "Johor Bahru",
        "State": "Johor"
    },
    {
        "Postcode": "81200",
        "Location": "Jalan Manggis",
        "Post_Office": "Johor Bahru",
        "State": "Johor"
    },
    {
        "Postcode": "81200",
        "Location": "Jalan Asrama",
        "Post_Office": "Johor Bahru",
        "State": "Johor"
    },
    {
        "Postcode": "81200",
        "Location": "Jalan Cempedak",
        "Post_Office": "Johor Bahru",
        "State": "Johor"
    },
    {
        "Postcode": "81200",
        "Location": "Jalan Dato Musa",
        "Post_Office": "Johor Bahru",
        "State": "Johor"
    },
    {
        "Postcode": "81200",
        "Location": "Jalan Gajus",
        "Post_Office": "Johor Bahru",
        "State": "Johor"
    },
    {
        "Postcode": "81200",
        "Location": "Jalan Kemajuan",
        "Post_Office": "Johor Bahru",
        "State": "Johor"
    },
    {
        "Postcode": "81200",
        "Location": "Jalan Rambutan",
        "Post_Office": "Johor Bahru",
        "State": "Johor"
    },
    {
        "Postcode": "81200",
        "Location": "Taman Seroja",
        "Post_Office": "Johor Bahru",
        "State": "Johor"
    },
    {
        "Postcode": "81200",
        "Location": "Jalan Langsat",
        "Post_Office": "Johor Bahru",
        "State": "Johor"
    },
    {
        "Postcode": "81200",
        "Location": "Jalan Limau",
        "Post_Office": "Johor Bahru",
        "State": "Johor"
    },
    {
        "Postcode": "81200",
        "Location": "Jalan Mangga",
        "Post_Office": "Johor Bahru",
        "State": "Johor"
    },
    {
        "Postcode": "81200",
        "Location": "Taman Csa Almyra ",
        "Post_Office": "Johor Bahru",
        "State": "Johor"
    },
    {
        "Postcode": "81200",
        "Location": "Jalan Banang 1",
        "Post_Office": "Johor Bahru",
        "State": "Johor"
    },
    {
        "Postcode": "81200",
        "Location": "Jalan Banang 2",
        "Post_Office": "Johor Bahru",
        "State": "Johor"
    },
    {
        "Postcode": "81200",
        "Location": "Jalan Banang 3",
        "Post_Office": "Johor Bahru",
        "State": "Johor"
    },
    {
        "Postcode": "81200",
        "Location": "Jalan Banjaran 1",
        "Post_Office": "Johor Bahru",
        "State": "Johor"
    },
    {
        "Postcode": "81200",
        "Location": "Jalan Banjaran 10",
        "Post_Office": "Johor Bahru",
        "State": "Johor"
    },
    {
        "Postcode": "81200",
        "Location": "Jalan Banjaran 11",
        "Post_Office": "Johor Bahru",
        "State": "Johor"
    },
    {
        "Postcode": "81200",
        "Location": "Jalan Banjaran 2",
        "Post_Office": "Johor Bahru",
        "State": "Johor"
    },
    {
        "Postcode": "81200",
        "Location": "Jalan Banjaran 3",
        "Post_Office": "Johor Bahru",
        "State": "Johor"
    },
    {
        "Postcode": "81200",
        "Location": "Jalan Banjaran 4",
        "Post_Office": "Johor Bahru",
        "State": "Johor"
    },
    {
        "Postcode": "81200",
        "Location": "Jalan Banjaran 5",
        "Post_Office": "Johor Bahru",
        "State": "Johor"
    },
    {
        "Postcode": "81200",
        "Location": "Jalan Banjaran 6",
        "Post_Office": "Johor Bahru",
        "State": "Johor"
    },
    {
        "Postcode": "81200",
        "Location": "Jalan Banjaran 7",
        "Post_Office": "Johor Bahru",
        "State": "Johor"
    },
    {
        "Postcode": "81200",
        "Location": "Jalan Banjaran 8",
        "Post_Office": "Johor Bahru",
        "State": "Johor"
    },
    {
        "Postcode": "81200",
        "Location": "Jalan Banjaran 9",
        "Post_Office": "Johor Bahru",
        "State": "Johor"
    },
    {
        "Postcode": "81200",
        "Location": "Jalan Barli 1/1",
        "Post_Office": "Johor Bahru",
        "State": "Johor"
    },
    {
        "Postcode": "81200",
        "Location": "Jalan Barli 1/10",
        "Post_Office": "Johor Bahru",
        "State": "Johor"
    },
    {
        "Postcode": "81200",
        "Location": "Jalan Barli 1/11",
        "Post_Office": "Johor Bahru",
        "State": "Johor"
    },
    {
        "Postcode": "81200",
        "Location": "Jalan Barli 1/12",
        "Post_Office": "Johor Bahru",
        "State": "Johor"
    },
    {
        "Postcode": "81200",
        "Location": "Jalan Barli 1/2",
        "Post_Office": "Johor Bahru",
        "State": "Johor"
    },
    {
        "Postcode": "81200",
        "Location": "Jalan Barli 1/3",
        "Post_Office": "Johor Bahru",
        "State": "Johor"
    },
    {
        "Postcode": "81200",
        "Location": "Jalan Barli 1/4",
        "Post_Office": "Johor Bahru",
        "State": "Johor"
    },
    {
        "Postcode": "81200",
        "Location": "Jalan Barli 1/5",
        "Post_Office": "Johor Bahru",
        "State": "Johor"
    },
    {
        "Postcode": "81200",
        "Location": "Jalan Barli 1/6",
        "Post_Office": "Johor Bahru",
        "State": "Johor"
    },
    {
        "Postcode": "81200",
        "Location": "Jalan Barli 1/7",
        "Post_Office": "Johor Bahru",
        "State": "Johor"
    },
    {
        "Postcode": "81200",
        "Location": "Jalan Barli 1/8",
        "Post_Office": "Johor Bahru",
        "State": "Johor"
    },
    {
        "Postcode": "81200",
        "Location": "Jalan Barli 1/9",
        "Post_Office": "Johor Bahru",
        "State": "Johor"
    },
    {
        "Postcode": "81200",
        "Location": "Jalan Bayu 2/1",
        "Post_Office": "Johor Bahru",
        "State": "Johor"
    },
    {
        "Postcode": "81200",
        "Location": "Jalan Bayu 2/2",
        "Post_Office": "Johor Bahru",
        "State": "Johor"
    },
    {
        "Postcode": "81200",
        "Location": "Jalan Bayu 2/3",
        "Post_Office": "Johor Bahru",
        "State": "Johor"
    },
    {
        "Postcode": "81200",
        "Location": "Jalan Bayu 2/4",
        "Post_Office": "Johor Bahru",
        "State": "Johor"
    },
    {
        "Postcode": "81200",
        "Location": "Jalan Belalang 1",
        "Post_Office": "Johor Bahru",
        "State": "Johor"
    },
    {
        "Postcode": "81200",
        "Location": "Jalan Belalang 2",
        "Post_Office": "Johor Bahru",
        "State": "Johor"
    },
    {
        "Postcode": "81200",
        "Location": "Jalan Belalang 3",
        "Post_Office": "Johor Bahru",
        "State": "Johor"
    },
    {
        "Postcode": "81200",
        "Location": "Jalan Belalang 4",
        "Post_Office": "Johor Bahru",
        "State": "Johor"
    },
    {
        "Postcode": "81200",
        "Location": "Jalan Belalang 5",
        "Post_Office": "Johor Bahru",
        "State": "Johor"
    },
    {
        "Postcode": "81200",
        "Location": "Jalan Belalang 6",
        "Post_Office": "Johor Bahru",
        "State": "Johor"
    },
    {
        "Postcode": "81200",
        "Location": "Jalan Belalang 7",
        "Post_Office": "Johor Bahru",
        "State": "Johor"
    },
    {
        "Postcode": "81200",
        "Location": "Jalan Belibis 1",
        "Post_Office": "Johor Bahru",
        "State": "Johor"
    },
    {
        "Postcode": "81200",
        "Location": "Jalan Belibis 10",
        "Post_Office": "Johor Bahru",
        "State": "Johor"
    },
    {
        "Postcode": "81200",
        "Location": "Jalan Belibis 11",
        "Post_Office": "Johor Bahru",
        "State": "Johor"
    },
    {
        "Postcode": "81200",
        "Location": "Jalan Belibis 12",
        "Post_Office": "Johor Bahru",
        "State": "Johor"
    },
    {
        "Postcode": "81200",
        "Location": "Jalan Belibis 13",
        "Post_Office": "Johor Bahru",
        "State": "Johor"
    },
    {
        "Postcode": "81200",
        "Location": "Jalan Belibis 14",
        "Post_Office": "Johor Bahru",
        "State": "Johor"
    },
    {
        "Postcode": "81200",
        "Location": "Jalan Belibis 15",
        "Post_Office": "Johor Bahru",
        "State": "Johor"
    },
    {
        "Postcode": "81200",
        "Location": "Jalan Belibis 16",
        "Post_Office": "Johor Bahru",
        "State": "Johor"
    },
    {
        "Postcode": "81200",
        "Location": "Jalan Belibis 17",
        "Post_Office": "Johor Bahru",
        "State": "Johor"
    },
    {
        "Postcode": "81200",
        "Location": "Jalan Belibis 18",
        "Post_Office": "Johor Bahru",
        "State": "Johor"
    },
    {
        "Postcode": "81200",
        "Location": "Jalan Belibis 19",
        "Post_Office": "Johor Bahru",
        "State": "Johor"
    },
    {
        "Postcode": "81200",
        "Location": "Jalan Belibis 2",
        "Post_Office": "Johor Bahru",
        "State": "Johor"
    },
    {
        "Postcode": "81200",
        "Location": "Jalan Belibis 3",
        "Post_Office": "Johor Bahru",
        "State": "Johor"
    },
    {
        "Postcode": "81200",
        "Location": "Jalan Belibis 4",
        "Post_Office": "Johor Bahru",
        "State": "Johor"
    },
    {
        "Postcode": "81200",
        "Location": "Jalan Belibis 5",
        "Post_Office": "Johor Bahru",
        "State": "Johor"
    },
    {
        "Postcode": "81200",
        "Location": "Jalan Belibis 6",
        "Post_Office": "Johor Bahru",
        "State": "Johor"
    },
    {
        "Postcode": "81200",
        "Location": "Jalan Belibis 7",
        "Post_Office": "Johor Bahru",
        "State": "Johor"
    },
    {
        "Postcode": "81200",
        "Location": "Jalan Belibis 8",
        "Post_Office": "Johor Bahru",
        "State": "Johor"
    },
    {
        "Postcode": "81200",
        "Location": "Jalan Belibis 9",
        "Post_Office": "Johor Bahru",
        "State": "Johor"
    },
    {
        "Postcode": "81200",
        "Location": "Jalan Bukit Kempas 1",
        "Post_Office": "Johor Bahru",
        "State": "Johor"
    },
    {
        "Postcode": "81200",
        "Location": "Jalan Camar 10",
        "Post_Office": "Johor Bahru",
        "State": "Johor"
    },
    {
        "Postcode": "81200",
        "Location": "Jalan Camar 11",
        "Post_Office": "Johor Bahru",
        "State": "Johor"
    },
    {
        "Postcode": "81200",
        "Location": "Jalan Camar 12",
        "Post_Office": "Johor Bahru",
        "State": "Johor"
    },
    {
        "Postcode": "81200",
        "Location": "Jalan Camar 13",
        "Post_Office": "Johor Bahru",
        "State": "Johor"
    },
    {
        "Postcode": "81200",
        "Location": "Jalan Camar 14",
        "Post_Office": "Johor Bahru",
        "State": "Johor"
    },
    {
        "Postcode": "81200",
        "Location": "Jalan Camar 15",
        "Post_Office": "Johor Bahru",
        "State": "Johor"
    },
    {
        "Postcode": "81200",
        "Location": "Jalan Camar 16",
        "Post_Office": "Johor Bahru",
        "State": "Johor"
    },
    {
        "Postcode": "81200",
        "Location": "Jalan Camar 3",
        "Post_Office": "Johor Bahru",
        "State": "Johor"
    },
    {
        "Postcode": "81200",
        "Location": "Jalan Camar 4",
        "Post_Office": "Johor Bahru",
        "State": "Johor"
    },
    {
        "Postcode": "81200",
        "Location": "Jalan Camar 5",
        "Post_Office": "Johor Bahru",
        "State": "Johor"
    },
    {
        "Postcode": "81200",
        "Location": "Jalan Camar 6",
        "Post_Office": "Johor Bahru",
        "State": "Johor"
    },
    {
        "Postcode": "81200",
        "Location": "Jalan Camar 7",
        "Post_Office": "Johor Bahru",
        "State": "Johor"
    },
    {
        "Postcode": "81200",
        "Location": "Jalan Camar 8",
        "Post_Office": "Johor Bahru",
        "State": "Johor"
    },
    {
        "Postcode": "81200",
        "Location": "Jalan Camar 9",
        "Post_Office": "Johor Bahru",
        "State": "Johor"
    },
    {
        "Postcode": "81200",
        "Location": "Jalan Cengkerik 1",
        "Post_Office": "Johor Bahru",
        "State": "Johor"
    },
    {
        "Postcode": "81200",
        "Location": "Jalan Cengkerik 10",
        "Post_Office": "Johor Bahru",
        "State": "Johor"
    },
    {
        "Postcode": "81200",
        "Location": "Jalan Cengkerik 11",
        "Post_Office": "Johor Bahru",
        "State": "Johor"
    },
    {
        "Postcode": "81200",
        "Location": "Jalan Cengkerik 12",
        "Post_Office": "Johor Bahru",
        "State": "Johor"
    },
    {
        "Postcode": "81200",
        "Location": "Jalan Cengkerik 13",
        "Post_Office": "Johor Bahru",
        "State": "Johor"
    },
    {
        "Postcode": "81200",
        "Location": "Jalan Cengkerik 14",
        "Post_Office": "Johor Bahru",
        "State": "Johor"
    },
    {
        "Postcode": "81200",
        "Location": "Jalan Cengkerik 15",
        "Post_Office": "Johor Bahru",
        "State": "Johor"
    },
    {
        "Postcode": "81200",
        "Location": "Jalan Cengkerik 16",
        "Post_Office": "Johor Bahru",
        "State": "Johor"
    },
    {
        "Postcode": "81200",
        "Location": "Jalan Cengkerik 17",
        "Post_Office": "Johor Bahru",
        "State": "Johor"
    },
    {
        "Postcode": "81200",
        "Location": "Jalan Cengkerik 2",
        "Post_Office": "Johor Bahru",
        "State": "Johor"
    },
    {
        "Postcode": "81200",
        "Location": "Jalan Cengkerik 3",
        "Post_Office": "Johor Bahru",
        "State": "Johor"
    },
    {
        "Postcode": "81200",
        "Location": "Jalan Cengkerik 4",
        "Post_Office": "Johor Bahru",
        "State": "Johor"
    },
    {
        "Postcode": "81200",
        "Location": "Jalan Cengkerik 5",
        "Post_Office": "Johor Bahru",
        "State": "Johor"
    },
    {
        "Postcode": "81200",
        "Location": "Jalan Cengkerik 6",
        "Post_Office": "Johor Bahru",
        "State": "Johor"
    },
    {
        "Postcode": "81200",
        "Location": "Jalan Cengkerik 7",
        "Post_Office": "Johor Bahru",
        "State": "Johor"
    },
    {
        "Postcode": "81200",
        "Location": "Jalan Cengkerik 8",
        "Post_Office": "Johor Bahru",
        "State": "Johor"
    },
    {
        "Postcode": "81200",
        "Location": "Jalan Cengkerik 9",
        "Post_Office": "Johor Bahru",
        "State": "Johor"
    },
    {
        "Postcode": "81200",
        "Location": "Jalan Dahlia 1",
        "Post_Office": "Johor Bahru",
        "State": "Johor"
    },
    {
        "Postcode": "81200",
        "Location": "Jalan Dahlia 10",
        "Post_Office": "Johor Bahru",
        "State": "Johor"
    },
    {
        "Postcode": "81200",
        "Location": "Jalan Dahlia 11",
        "Post_Office": "Johor Bahru",
        "State": "Johor"
    },
    {
        "Postcode": "81200",
        "Location": "Jalan Dahlia 12",
        "Post_Office": "Johor Bahru",
        "State": "Johor"
    },
    {
        "Postcode": "81200",
        "Location": "Jalan Dahlia 13",
        "Post_Office": "Johor Bahru",
        "State": "Johor"
    },
    {
        "Postcode": "81200",
        "Location": "Jalan Dahlia 14",
        "Post_Office": "Johor Bahru",
        "State": "Johor"
    },
    {
        "Postcode": "81200",
        "Location": "Jalan Dahlia 15",
        "Post_Office": "Johor Bahru",
        "State": "Johor"
    },
    {
        "Postcode": "81200",
        "Location": "Jalan Dahlia 16",
        "Post_Office": "Johor Bahru",
        "State": "Johor"
    },
    {
        "Postcode": "81200",
        "Location": "Jalan Dahlia 17",
        "Post_Office": "Johor Bahru",
        "State": "Johor"
    },
    {
        "Postcode": "81200",
        "Location": "Jalan Dahlia 18",
        "Post_Office": "Johor Bahru",
        "State": "Johor"
    },
    {
        "Postcode": "81200",
        "Location": "Jalan Dahlia 19",
        "Post_Office": "Johor Bahru",
        "State": "Johor"
    },
    {
        "Postcode": "81200",
        "Location": "Jalan Dahlia 2",
        "Post_Office": "Johor Bahru",
        "State": "Johor"
    },
    {
        "Postcode": "81200",
        "Location": "Jalan Dahlia 20",
        "Post_Office": "Johor Bahru",
        "State": "Johor"
    },
    {
        "Postcode": "81200",
        "Location": "Jalan Dahlia 21",
        "Post_Office": "Johor Bahru",
        "State": "Johor"
    },
    {
        "Postcode": "81200",
        "Location": "Jalan Dahlia 22",
        "Post_Office": "Johor Bahru",
        "State": "Johor"
    },
    {
        "Postcode": "81200",
        "Location": "Jalan Dahlia 23",
        "Post_Office": "Johor Bahru",
        "State": "Johor"
    },
    {
        "Postcode": "81200",
        "Location": "Jalan Dahlia 24",
        "Post_Office": "Johor Bahru",
        "State": "Johor"
    },
    {
        "Postcode": "81200",
        "Location": "Jalan Dahlia 24/1 ",
        "Post_Office": "Johor Bahru",
        "State": "Johor"
    },
    {
        "Postcode": "81200",
        "Location": "Jalan Dahlia 25",
        "Post_Office": "Johor Bahru",
        "State": "Johor"
    },
    {
        "Postcode": "81200",
        "Location": "Jalan Dahlia 26",
        "Post_Office": "Johor Bahru",
        "State": "Johor"
    },
    {
        "Postcode": "81200",
        "Location": "Jalan Dahlia 27",
        "Post_Office": "Johor Bahru",
        "State": "Johor"
    },
    {
        "Postcode": "81200",
        "Location": "Jalan Dahlia 28",
        "Post_Office": "Johor Bahru",
        "State": "Johor"
    },
    {
        "Postcode": "81200",
        "Location": "Jalan Dahlia 28/2",
        "Post_Office": "Johor Bahru",
        "State": "Johor"
    },
    {
        "Postcode": "81200",
        "Location": "Jalan Dahlia 29",
        "Post_Office": "Johor Bahru",
        "State": "Johor"
    },
    {
        "Postcode": "81200",
        "Location": "Jalan Dahlia 3",
        "Post_Office": "Johor Bahru",
        "State": "Johor"
    },
    {
        "Postcode": "81200",
        "Location": "Jalan Dahlia 30",
        "Post_Office": "Johor Bahru",
        "State": "Johor"
    },
    {
        "Postcode": "81200",
        "Location": "Jalan Dahlia 31",
        "Post_Office": "Johor Bahru",
        "State": "Johor"
    },
    {
        "Postcode": "81200",
        "Location": "Jalan Dahlia 32",
        "Post_Office": "Johor Bahru",
        "State": "Johor"
    },
    {
        "Postcode": "81200",
        "Location": "Jalan Dahlia 33",
        "Post_Office": "Johor Bahru",
        "State": "Johor"
    },
    {
        "Postcode": "81200",
        "Location": "Jalan Dahlia 4",
        "Post_Office": "Johor Bahru",
        "State": "Johor"
    },
    {
        "Postcode": "81200",
        "Location": "Jalan Dahlia 5",
        "Post_Office": "Johor Bahru",
        "State": "Johor"
    },
    {
        "Postcode": "81200",
        "Location": "Jalan Dahlia 6",
        "Post_Office": "Johor Bahru",
        "State": "Johor"
    },
    {
        "Postcode": "81200",
        "Location": "Jalan Dahlia 7",
        "Post_Office": "Johor Bahru",
        "State": "Johor"
    },
    {
        "Postcode": "81200",
        "Location": "Jalan Dahlia 8",
        "Post_Office": "Johor Bahru",
        "State": "Johor"
    },
    {
        "Postcode": "81200",
        "Location": "Jalan Dahlia 9",
        "Post_Office": "Johor Bahru",
        "State": "Johor"
    },
    {
        "Postcode": "81200",
        "Location": "Jalan Dataran 1",
        "Post_Office": "Johor Bahru",
        "State": "Johor"
    },
    {
        "Postcode": "81200",
        "Location": "Jalan Dataran 1/1 ",
        "Post_Office": "Johor Bahru",
        "State": "Johor"
    },
    {
        "Postcode": "81200",
        "Location": "Jalan Dataran 2",
        "Post_Office": "Johor Bahru",
        "State": "Johor"
    },
    {
        "Postcode": "81200",
        "Location": "Jalan Dataran 3",
        "Post_Office": "Johor Bahru",
        "State": "Johor"
    },
    {
        "Postcode": "81200",
        "Location": "Jalan Dataran 4/8",
        "Post_Office": "Johor Bahru",
        "State": "Johor"
    },
    {
        "Postcode": "81200",
        "Location": "Jalan Denai 1",
        "Post_Office": "Johor Bahru",
        "State": "Johor"
    },
    {
        "Postcode": "81200",
        "Location": "Jalan Denai 10",
        "Post_Office": "Johor Bahru",
        "State": "Johor"
    },
    {
        "Postcode": "81200",
        "Location": "Jalan Denai 11",
        "Post_Office": "Johor Bahru",
        "State": "Johor"
    },
    {
        "Postcode": "81200",
        "Location": "Jalan Denai 12",
        "Post_Office": "Johor Bahru",
        "State": "Johor"
    },
    {
        "Postcode": "81200",
        "Location": "Jalan Denai 13",
        "Post_Office": "Johor Bahru",
        "State": "Johor"
    },
    {
        "Postcode": "81200",
        "Location": "Jalan Denai 2",
        "Post_Office": "Johor Bahru",
        "State": "Johor"
    },
    {
        "Postcode": "81200",
        "Location": "Jalan Denai 3",
        "Post_Office": "Johor Bahru",
        "State": "Johor"
    },
    {
        "Postcode": "81200",
        "Location": "Jalan Denai 4",
        "Post_Office": "Johor Bahru",
        "State": "Johor"
    },
    {
        "Postcode": "81200",
        "Location": "Jalan Denai 5",
        "Post_Office": "Johor Bahru",
        "State": "Johor"
    },
    {
        "Postcode": "81200",
        "Location": "Jalan Denai 6",
        "Post_Office": "Johor Bahru",
        "State": "Johor"
    },
    {
        "Postcode": "81200",
        "Location": "Jalan Denai 7",
        "Post_Office": "Johor Bahru",
        "State": "Johor"
    },
    {
        "Postcode": "81200",
        "Location": "Jalan Denai 8",
        "Post_Office": "Johor Bahru",
        "State": "Johor"
    },
    {
        "Postcode": "81200",
        "Location": "Jalan Denai 9",
        "Post_Office": "Johor Bahru",
        "State": "Johor"
    },
    {
        "Postcode": "81200",
        "Location": "Jalan Dian 1",
        "Post_Office": "Johor Bahru",
        "State": "Johor"
    },
    {
        "Postcode": "81200",
        "Location": "Jalan Dian 10",
        "Post_Office": "Johor Bahru",
        "State": "Johor"
    },
    {
        "Postcode": "81200",
        "Location": "Jalan Dian 11",
        "Post_Office": "Johor Bahru",
        "State": "Johor"
    },
    {
        "Postcode": "81200",
        "Location": "Jalan Dian 12",
        "Post_Office": "Johor Bahru",
        "State": "Johor"
    },
    {
        "Postcode": "81200",
        "Location": "Jalan Dian 13",
        "Post_Office": "Johor Bahru",
        "State": "Johor"
    },
    {
        "Postcode": "81200",
        "Location": "Jalan Dian 14",
        "Post_Office": "Johor Bahru",
        "State": "Johor"
    },
    {
        "Postcode": "81200",
        "Location": "Jalan Dian 15",
        "Post_Office": "Johor Bahru",
        "State": "Johor"
    },
    {
        "Postcode": "81200",
        "Location": "Jalan Dian 16",
        "Post_Office": "Johor Bahru",
        "State": "Johor"
    },
    {
        "Postcode": "81200",
        "Location": "Jalan Dian 17",
        "Post_Office": "Johor Bahru",
        "State": "Johor"
    },
    {
        "Postcode": "81200",
        "Location": "Jalan Dian 18",
        "Post_Office": "Johor Bahru",
        "State": "Johor"
    },
    {
        "Postcode": "81200",
        "Location": "Jalan Dian 19",
        "Post_Office": "Johor Bahru",
        "State": "Johor"
    },
    {
        "Postcode": "81200",
        "Location": "Jalan Dian 2",
        "Post_Office": "Johor Bahru",
        "State": "Johor"
    },
    {
        "Postcode": "81200",
        "Location": "Jalan Dian 20",
        "Post_Office": "Johor Bahru",
        "State": "Johor"
    },
    {
        "Postcode": "81200",
        "Location": "Jalan Dian 21",
        "Post_Office": "Johor Bahru",
        "State": "Johor"
    },
    {
        "Postcode": "81200",
        "Location": "Jalan Dian 22",
        "Post_Office": "Johor Bahru",
        "State": "Johor"
    },
    {
        "Postcode": "81200",
        "Location": "Jalan Dian 3",
        "Post_Office": "Johor Bahru",
        "State": "Johor"
    },
    {
        "Postcode": "81200",
        "Location": "Jalan Dian 4",
        "Post_Office": "Johor Bahru",
        "State": "Johor"
    },
    {
        "Postcode": "81200",
        "Location": "Jalan Dian 5",
        "Post_Office": "Johor Bahru",
        "State": "Johor"
    },
    {
        "Postcode": "81200",
        "Location": "Jalan Dian 6",
        "Post_Office": "Johor Bahru",
        "State": "Johor"
    },
    {
        "Postcode": "81200",
        "Location": "Jalan Dian 7",
        "Post_Office": "Johor Bahru",
        "State": "Johor"
    },
    {
        "Postcode": "81200",
        "Location": "Jalan Dian 8",
        "Post_Office": "Johor Bahru",
        "State": "Johor"
    },
    {
        "Postcode": "81200",
        "Location": "Jalan Dian 9",
        "Post_Office": "Johor Bahru",
        "State": "Johor"
    },
    {
        "Postcode": "81200",
        "Location": "Jalan Hasil 1",
        "Post_Office": "Johor Bahru",
        "State": "Johor"
    },
    {
        "Postcode": "81200",
        "Location": "Jalan Hasil 2",
        "Post_Office": "Johor Bahru",
        "State": "Johor"
    },
    {
        "Postcode": "81200",
        "Location": "Jalan Indah 1",
        "Post_Office": "Johor Bahru",
        "State": "Johor"
    },
    {
        "Postcode": "81200",
        "Location": "Jalan Indah 2",
        "Post_Office": "Johor Bahru",
        "State": "Johor"
    },
    {
        "Postcode": "81200",
        "Location": "Jalan Indah 3",
        "Post_Office": "Johor Bahru",
        "State": "Johor"
    },
    {
        "Postcode": "81200",
        "Location": "Jalan Indah 4",
        "Post_Office": "Johor Bahru",
        "State": "Johor"
    },
    {
        "Postcode": "81200",
        "Location": "Jalan Jagong 1",
        "Post_Office": "Johor Bahru",
        "State": "Johor"
    },
    {
        "Postcode": "81200",
        "Location": "Jalan Jagong 10",
        "Post_Office": "Johor Bahru",
        "State": "Johor"
    },
    {
        "Postcode": "81200",
        "Location": "Jalan Jagong 11",
        "Post_Office": "Johor Bahru",
        "State": "Johor"
    },
    {
        "Postcode": "81200",
        "Location": "Jalan Jagong 12",
        "Post_Office": "Johor Bahru",
        "State": "Johor"
    },
    {
        "Postcode": "81200",
        "Location": "Jalan Jagong 13",
        "Post_Office": "Johor Bahru",
        "State": "Johor"
    },
    {
        "Postcode": "81200",
        "Location": "Jalan Jagong 14",
        "Post_Office": "Johor Bahru",
        "State": "Johor"
    },
    {
        "Postcode": "81200",
        "Location": "Jalan Jagong 15",
        "Post_Office": "Johor Bahru",
        "State": "Johor"
    },
    {
        "Postcode": "81200",
        "Location": "Jalan Jagong 16",
        "Post_Office": "Johor Bahru",
        "State": "Johor"
    },
    {
        "Postcode": "81200",
        "Location": "Jalan Jagong 17",
        "Post_Office": "Johor Bahru",
        "State": "Johor"
    },
    {
        "Postcode": "81200",
        "Location": "Jalan Jagong 18",
        "Post_Office": "Johor Bahru",
        "State": "Johor"
    },
    {
        "Postcode": "81200",
        "Location": "Jalan Jagong 2",
        "Post_Office": "Johor Bahru",
        "State": "Johor"
    },
    {
        "Postcode": "81200",
        "Location": "Jalan Jagong 3",
        "Post_Office": "Johor Bahru",
        "State": "Johor"
    },
    {
        "Postcode": "81200",
        "Location": "Jalan Jagong 4",
        "Post_Office": "Johor Bahru",
        "State": "Johor"
    },
    {
        "Postcode": "81200",
        "Location": "Jalan Jagong 5",
        "Post_Office": "Johor Bahru",
        "State": "Johor"
    },
    {
        "Postcode": "81200",
        "Location": "Jalan Jagong 6",
        "Post_Office": "Johor Bahru",
        "State": "Johor"
    },
    {
        "Postcode": "81200",
        "Location": "Jalan Jagong 7",
        "Post_Office": "Johor Bahru",
        "State": "Johor"
    },
    {
        "Postcode": "81200",
        "Location": "Jalan Jagong 8",
        "Post_Office": "Johor Bahru",
        "State": "Johor"
    },
    {
        "Postcode": "81200",
        "Location": "Jalan Jagong 9",
        "Post_Office": "Johor Bahru",
        "State": "Johor"
    },
    {
        "Postcode": "81200",
        "Location": "Jalan Kacung 1",
        "Post_Office": "Johor Bahru",
        "State": "Johor"
    },
    {
        "Postcode": "81200",
        "Location": "Jalan Kacung 2",
        "Post_Office": "Johor Bahru",
        "State": "Johor"
    },
    {
        "Postcode": "81200",
        "Location": "Jalan Kacung 3",
        "Post_Office": "Johor Bahru",
        "State": "Johor"
    },
    {
        "Postcode": "81200",
        "Location": "Jalan Kacung 4",
        "Post_Office": "Johor Bahru",
        "State": "Johor"
    },
    {
        "Postcode": "81200",
        "Location": "Jalan Kempas 2/1 ",
        "Post_Office": "Johor Bahru",
        "State": "Johor"
    },
    {
        "Postcode": "81200",
        "Location": "Jalan Kempas 2/2",
        "Post_Office": "Johor Bahru",
        "State": "Johor"
    },
    {
        "Postcode": "81200",
        "Location": "Jalan Kempas 2/3",
        "Post_Office": "Johor Bahru",
        "State": "Johor"
    },
    {
        "Postcode": "81200",
        "Location": "Jalan Kempas 2/4",
        "Post_Office": "Johor Bahru",
        "State": "Johor"
    },
    {
        "Postcode": "81200",
        "Location": "Jalan Kempas 3",
        "Post_Office": "Johor Bahru",
        "State": "Johor"
    },
    {
        "Postcode": "81200",
        "Location": "Jalan Kempas 3/1",
        "Post_Office": "Johor Bahru",
        "State": "Johor"
    },
    {
        "Postcode": "81200",
        "Location": "Jalan Kempas 4",
        "Post_Office": "Johor Bahru",
        "State": "Johor"
    },
    {
        "Postcode": "81200",
        "Location": "Jalan Kempas 5",
        "Post_Office": "Johor Bahru",
        "State": "Johor"
    },
    {
        "Postcode": "81200",
        "Location": "Jalan Kempas 5/1",
        "Post_Office": "Johor Bahru",
        "State": "Johor"
    },
    {
        "Postcode": "81200",
        "Location": "Jalan Kempas 5/2",
        "Post_Office": "Johor Bahru",
        "State": "Johor"
    },
    {
        "Postcode": "81200",
        "Location": "Jalan Kempas 5/3",
        "Post_Office": "Johor Bahru",
        "State": "Johor"
    },
    {
        "Postcode": "81200",
        "Location": "Jalan Kempas 5/4",
        "Post_Office": "Johor Bahru",
        "State": "Johor"
    },
    {
        "Postcode": "81200",
        "Location": "Jalan Kempas 5/5",
        "Post_Office": "Johor Bahru",
        "State": "Johor"
    },
    {
        "Postcode": "81200",
        "Location": "Jalan Kempas 6",
        "Post_Office": "Johor Bahru",
        "State": "Johor"
    },
    {
        "Postcode": "81200",
        "Location": "Jalan Kempas 7",
        "Post_Office": "Johor Bahru",
        "State": "Johor"
    },
    {
        "Postcode": "81200",
        "Location": "Jalan Kempas 8",
        "Post_Office": "Johor Bahru",
        "State": "Johor"
    },
    {
        "Postcode": "81200",
        "Location": "Jalan Kempas 9",
        "Post_Office": "Johor Bahru",
        "State": "Johor"
    },
    {
        "Postcode": "81200",
        "Location": "Jalan Kempas 9/1",
        "Post_Office": "Johor Bahru",
        "State": "Johor"
    },
    {
        "Postcode": "81200",
        "Location": "Jalan Kempas 9/2",
        "Post_Office": "Johor Bahru",
        "State": "Johor"
    },
    {
        "Postcode": "81200",
        "Location": "Jalan Kempas 9/3",
        "Post_Office": "Johor Bahru",
        "State": "Johor"
    },
    {
        "Postcode": "81200",
        "Location": "Jalan Kempas 9/4",
        "Post_Office": "Johor Bahru",
        "State": "Johor"
    },
    {
        "Postcode": "81200",
        "Location": "Jalan Kempas 9/5",
        "Post_Office": "Johor Bahru",
        "State": "Johor"
    },
    {
        "Postcode": "81200",
        "Location": "Jalan Kempas 9/6",
        "Post_Office": "Johor Bahru",
        "State": "Johor"
    },
    {
        "Postcode": "81200",
        "Location": "Jalan Kempas Baru",
        "Post_Office": "Johor Bahru",
        "State": "Johor"
    },
    {
        "Postcode": "81200",
        "Location": "Jalan Kilang 1/1",
        "Post_Office": "Johor Bahru",
        "State": "Johor"
    },
    {
        "Postcode": "81200",
        "Location": "Jalan Kilang 1/2",
        "Post_Office": "Johor Bahru",
        "State": "Johor"
    },
    {
        "Postcode": "81200",
        "Location": "Jalan Kilang 1/3",
        "Post_Office": "Johor Bahru",
        "State": "Johor"
    },
    {
        "Postcode": "81200",
        "Location": "Jalan Kilang 1/4",
        "Post_Office": "Johor Bahru",
        "State": "Johor"
    },
    {
        "Postcode": "81200",
        "Location": "Jalan Kilang 1/5",
        "Post_Office": "Johor Bahru",
        "State": "Johor"
    },
    {
        "Postcode": "81200",
        "Location": "Jalan Kosa 1",
        "Post_Office": "Johor Bahru",
        "State": "Johor"
    },
    {
        "Postcode": "81200",
        "Location": "Jalan Kosa 2",
        "Post_Office": "Johor Bahru",
        "State": "Johor"
    },
    {
        "Postcode": "81200",
        "Location": "Jalan Kosa 3",
        "Post_Office": "Johor Bahru",
        "State": "Johor"
    },
    {
        "Postcode": "81200",
        "Location": "Jalan Kosa 4",
        "Post_Office": "Johor Bahru",
        "State": "Johor"
    },
    {
        "Postcode": "81200",
        "Location": "Jalan Kosa 5",
        "Post_Office": "Johor Bahru",
        "State": "Johor"
    },
    {
        "Postcode": "81200",
        "Location": "Jalan Kosa 6",
        "Post_Office": "Johor Bahru",
        "State": "Johor"
    },
    {
        "Postcode": "81200",
        "Location": "Jalan Kosa 7",
        "Post_Office": "Johor Bahru",
        "State": "Johor"
    },
    {
        "Postcode": "81200",
        "Location": "Jalan Kosa 8",
        "Post_Office": "Johor Bahru",
        "State": "Johor"
    },
    {
        "Postcode": "81200",
        "Location": "Jalan Kunang-Kunang 1",
        "Post_Office": "Johor Bahru",
        "State": "Johor"
    },
    {
        "Postcode": "81200",
        "Location": "Jalan Kunang-Kunang 2",
        "Post_Office": "Johor Bahru",
        "State": "Johor"
    },
    {
        "Postcode": "81200",
        "Location": "Jalan Kunang-Kunang 3",
        "Post_Office": "Johor Bahru",
        "State": "Johor"
    },
    {
        "Postcode": "81200",
        "Location": "Jalan Kunang-Kunang 4",
        "Post_Office": "Johor Bahru",
        "State": "Johor"
    },
    {
        "Postcode": "81200",
        "Location": "Jalan Kunang-Kunang 5",
        "Post_Office": "Johor Bahru",
        "State": "Johor"
    },
    {
        "Postcode": "81200",
        "Location": "Jalan Kunang-Kunang 6",
        "Post_Office": "Johor Bahru",
        "State": "Johor"
    },
    {
        "Postcode": "81200",
        "Location": "Jalan Kunang-Kunang 7",
        "Post_Office": "Johor Bahru",
        "State": "Johor"
    },
    {
        "Postcode": "81200",
        "Location": "Jalan Kupang 1",
        "Post_Office": "Johor Bahru",
        "State": "Johor"
    },
    {
        "Postcode": "81200",
        "Location": "Jalan Kupang 2",
        "Post_Office": "Johor Bahru",
        "State": "Johor"
    },
    {
        "Postcode": "81200",
        "Location": "Jalan Kupang 3",
        "Post_Office": "Johor Bahru",
        "State": "Johor"
    },
    {
        "Postcode": "81200",
        "Location": "Jalan Kupang 4",
        "Post_Office": "Johor Bahru",
        "State": "Johor"
    },
    {
        "Postcode": "81200",
        "Location": "Jalan Kupang 5",
        "Post_Office": "Johor Bahru",
        "State": "Johor"
    },
    {
        "Postcode": "81200",
        "Location": "Jalan Kupang 6",
        "Post_Office": "Johor Bahru",
        "State": "Johor"
    },
    {
        "Postcode": "81200",
        "Location": "Jalan Kupu-Kupu 1",
        "Post_Office": "Johor Bahru",
        "State": "Johor"
    },
    {
        "Postcode": "81200",
        "Location": "Jalan Kupu-Kupu 2",
        "Post_Office": "Johor Bahru",
        "State": "Johor"
    },
    {
        "Postcode": "81200",
        "Location": "Jalan Kupu-Kupu 3",
        "Post_Office": "Johor Bahru",
        "State": "Johor"
    },
    {
        "Postcode": "81200",
        "Location": "Jalan Layang 10",
        "Post_Office": "Johor Bahru",
        "State": "Johor"
    },
    {
        "Postcode": "81200",
        "Location": "Jalan Layang 11",
        "Post_Office": "Johor Bahru",
        "State": "Johor"
    },
    {
        "Postcode": "81200",
        "Location": "Jalan Layang 12",
        "Post_Office": "Johor Bahru",
        "State": "Johor"
    },
    {
        "Postcode": "81200",
        "Location": "Jalan Layang 13",
        "Post_Office": "Johor Bahru",
        "State": "Johor"
    },
    {
        "Postcode": "81200",
        "Location": "Jalan Layang 14",
        "Post_Office": "Johor Bahru",
        "State": "Johor"
    },
    {
        "Postcode": "81200",
        "Location": "Jalan Layang 15",
        "Post_Office": "Johor Bahru",
        "State": "Johor"
    },
    {
        "Postcode": "81200",
        "Location": "Jalan Layang 16",
        "Post_Office": "Johor Bahru",
        "State": "Johor"
    },
    {
        "Postcode": "81200",
        "Location": "Jalan Layang 2",
        "Post_Office": "Johor Bahru",
        "State": "Johor"
    },
    {
        "Postcode": "81200",
        "Location": "Jalan Layang 3",
        "Post_Office": "Johor Bahru",
        "State": "Johor"
    },
    {
        "Postcode": "81200",
        "Location": "Jalan Layang 4",
        "Post_Office": "Johor Bahru",
        "State": "Johor"
    },
    {
        "Postcode": "81200",
        "Location": "Jalan Layang 5",
        "Post_Office": "Johor Bahru",
        "State": "Johor"
    },
    {
        "Postcode": "81200",
        "Location": "Jalan Layang 6",
        "Post_Office": "Johor Bahru",
        "State": "Johor"
    },
    {
        "Postcode": "81200",
        "Location": "Jalan Layang 7",
        "Post_Office": "Johor Bahru",
        "State": "Johor"
    },
    {
        "Postcode": "81200",
        "Location": "Jalan Layang 8",
        "Post_Office": "Johor Bahru",
        "State": "Johor"
    },
    {
        "Postcode": "81200",
        "Location": "Jalan Layang 9",
        "Post_Office": "Johor Bahru",
        "State": "Johor"
    },
    {
        "Postcode": "81200",
        "Location": "Jalan Lurah 1",
        "Post_Office": "Johor Bahru",
        "State": "Johor"
    },
    {
        "Postcode": "81200",
        "Location": "Jalan Lurah 10",
        "Post_Office": "Johor Bahru",
        "State": "Johor"
    },
    {
        "Postcode": "81200",
        "Location": "Jalan Lurah 11",
        "Post_Office": "Johor Bahru",
        "State": "Johor"
    },
    {
        "Postcode": "81200",
        "Location": "Jalan Lurah 12",
        "Post_Office": "Johor Bahru",
        "State": "Johor"
    },
    {
        "Postcode": "81200",
        "Location": "Jalan Lurah 13",
        "Post_Office": "Johor Bahru",
        "State": "Johor"
    },
    {
        "Postcode": "81200",
        "Location": "Jalan Lurah 14",
        "Post_Office": "Johor Bahru",
        "State": "Johor"
    },
    {
        "Postcode": "81200",
        "Location": "Jalan Lurah 15",
        "Post_Office": "Johor Bahru",
        "State": "Johor"
    },
    {
        "Postcode": "81200",
        "Location": "Jalan Lurah 16",
        "Post_Office": "Johor Bahru",
        "State": "Johor"
    },
    {
        "Postcode": "81200",
        "Location": "Jalan Lurah 17",
        "Post_Office": "Johor Bahru",
        "State": "Johor"
    },
    {
        "Postcode": "81200",
        "Location": "Jalan Lurah 18",
        "Post_Office": "Johor Bahru",
        "State": "Johor"
    },
    {
        "Postcode": "81200",
        "Location": "Jalan Lurah 19",
        "Post_Office": "Johor Bahru",
        "State": "Johor"
    },
    {
        "Postcode": "81200",
        "Location": "Jalan Lurah 2",
        "Post_Office": "Johor Bahru",
        "State": "Johor"
    },
    {
        "Postcode": "81200",
        "Location": "Jalan Lurah 20",
        "Post_Office": "Johor Bahru",
        "State": "Johor"
    },
    {
        "Postcode": "81200",
        "Location": "Jalan Lurah 21",
        "Post_Office": "Johor Bahru",
        "State": "Johor"
    },
    {
        "Postcode": "81200",
        "Location": "Jalan Lurah 22",
        "Post_Office": "Johor Bahru",
        "State": "Johor"
    },
    {
        "Postcode": "81200",
        "Location": "Jalan Lurah 3",
        "Post_Office": "Johor Bahru",
        "State": "Johor"
    },
    {
        "Postcode": "81200",
        "Location": "Jalan Lurah 4",
        "Post_Office": "Johor Bahru",
        "State": "Johor"
    },
    {
        "Postcode": "81200",
        "Location": "Jalan Lurah 5",
        "Post_Office": "Johor Bahru",
        "State": "Johor"
    },
    {
        "Postcode": "81200",
        "Location": "Jalan Lurah 6",
        "Post_Office": "Johor Bahru",
        "State": "Johor"
    },
    {
        "Postcode": "81200",
        "Location": "Jalan Lurah 7",
        "Post_Office": "Johor Bahru",
        "State": "Johor"
    },
    {
        "Postcode": "81200",
        "Location": "Jalan Lurah 8",
        "Post_Office": "Johor Bahru",
        "State": "Johor"
    },
    {
        "Postcode": "81200",
        "Location": "Jalan Lurah 9",
        "Post_Office": "Johor Bahru",
        "State": "Johor"
    },
    {
        "Postcode": "81200",
        "Location": "Jalan Melati 5",
        "Post_Office": "Johor Bahru",
        "State": "Johor"
    },
    {
        "Postcode": "81200",
        "Location": "Jalan Melati 6",
        "Post_Office": "Johor Bahru",
        "State": "Johor"
    },
    {
        "Postcode": "81200",
        "Location": "Jalan Padi 1",
        "Post_Office": "Johor Bahru",
        "State": "Johor"
    },
    {
        "Postcode": "81200",
        "Location": "Jalan Padi 10",
        "Post_Office": "Johor Bahru",
        "State": "Johor"
    },
    {
        "Postcode": "81200",
        "Location": "Jalan Padi 11",
        "Post_Office": "Johor Bahru",
        "State": "Johor"
    },
    {
        "Postcode": "81200",
        "Location": "Jalan Padi 2",
        "Post_Office": "Johor Bahru",
        "State": "Johor"
    },
    {
        "Postcode": "81200",
        "Location": "Jalan Padi 3",
        "Post_Office": "Johor Bahru",
        "State": "Johor"
    },
    {
        "Postcode": "81200",
        "Location": "Jalan Padi 4",
        "Post_Office": "Johor Bahru",
        "State": "Johor"
    },
    {
        "Postcode": "81200",
        "Location": "Jalan Padi 5",
        "Post_Office": "Johor Bahru",
        "State": "Johor"
    },
    {
        "Postcode": "81200",
        "Location": "Jalan Padi 6",
        "Post_Office": "Johor Bahru",
        "State": "Johor"
    },
    {
        "Postcode": "81200",
        "Location": "Jalan Padi 7",
        "Post_Office": "Johor Bahru",
        "State": "Johor"
    },
    {
        "Postcode": "81200",
        "Location": "Jalan Padi 8",
        "Post_Office": "Johor Bahru",
        "State": "Johor"
    },
    {
        "Postcode": "81200",
        "Location": "Jalan Padi 9",
        "Post_Office": "Johor Bahru",
        "State": "Johor"
    },
    {
        "Postcode": "81200",
        "Location": "Jalan Padi Huma 1",
        "Post_Office": "Johor Bahru",
        "State": "Johor"
    },
    {
        "Postcode": "81200",
        "Location": "Jalan Padi Huma 2",
        "Post_Office": "Johor Bahru",
        "State": "Johor"
    },
    {
        "Postcode": "81200",
        "Location": "Jalan Padi Huma 3",
        "Post_Office": "Johor Bahru",
        "State": "Johor"
    },
    {
        "Postcode": "81200",
        "Location": "Jalan Padi Huma 4",
        "Post_Office": "Johor Bahru",
        "State": "Johor"
    },
    {
        "Postcode": "81200",
        "Location": "Jalan Padi Huma 5",
        "Post_Office": "Johor Bahru",
        "State": "Johor"
    },
    {
        "Postcode": "81200",
        "Location": "Jalan Padi Huma 6",
        "Post_Office": "Johor Bahru",
        "State": "Johor"
    },
    {
        "Postcode": "81200",
        "Location": "Jalan Padi Huma 7",
        "Post_Office": "Johor Bahru",
        "State": "Johor"
    },
    {
        "Postcode": "81200",
        "Location": "Jalan Padi Huma 8",
        "Post_Office": "Johor Bahru",
        "State": "Johor"
    },
    {
        "Postcode": "81200",
        "Location": "Jalan Padi Mahsuri 1",
        "Post_Office": "Johor Bahru",
        "State": "Johor"
    },
    {
        "Postcode": "81200",
        "Location": "Jalan Padi Ria 10",
        "Post_Office": "Johor Bahru",
        "State": "Johor"
    },
    {
        "Postcode": "81200",
        "Location": "Jalan Padi Ria 11",
        "Post_Office": "Johor Bahru",
        "State": "Johor"
    },
    {
        "Postcode": "81200",
        "Location": "Jalan Padi Ria 12",
        "Post_Office": "Johor Bahru",
        "State": "Johor"
    },
    {
        "Postcode": "81200",
        "Location": "Jalan Padi Ria 13",
        "Post_Office": "Johor Bahru",
        "State": "Johor"
    },
    {
        "Postcode": "81200",
        "Location": "Jalan Padi Ria 14",
        "Post_Office": "Johor Bahru",
        "State": "Johor"
    },
    {
        "Postcode": "81200",
        "Location": "Jalan Padi Ria 15",
        "Post_Office": "Johor Bahru",
        "State": "Johor"
    },
    {
        "Postcode": "81200",
        "Location": "Jalan Padi Ria 16",
        "Post_Office": "Johor Bahru",
        "State": "Johor"
    },
    {
        "Postcode": "81200",
        "Location": "Jalan Padi Ria 17",
        "Post_Office": "Johor Bahru",
        "State": "Johor"
    },
    {
        "Postcode": "81200",
        "Location": "Jalan Padi Ria 18",
        "Post_Office": "Johor Bahru",
        "State": "Johor"
    },
    {
        "Postcode": "81200",
        "Location": "Jalan Padi Ria 19",
        "Post_Office": "Johor Bahru",
        "State": "Johor"
    },
    {
        "Postcode": "81200",
        "Location": "Jalan Padi Ria 2",
        "Post_Office": "Johor Bahru",
        "State": "Johor"
    },
    {
        "Postcode": "81200",
        "Location": "Jalan Padi Ria 3",
        "Post_Office": "Johor Bahru",
        "State": "Johor"
    },
    {
        "Postcode": "81200",
        "Location": "Jalan Padi Ria 4",
        "Post_Office": "Johor Bahru",
        "State": "Johor"
    },
    {
        "Postcode": "81200",
        "Location": "Jalan Padi Ria 5",
        "Post_Office": "Johor Bahru",
        "State": "Johor"
    },
    {
        "Postcode": "81200",
        "Location": "Jalan Padi Ria 6",
        "Post_Office": "Johor Bahru",
        "State": "Johor"
    },
    {
        "Postcode": "81200",
        "Location": "Jalan Padi Ria 7",
        "Post_Office": "Johor Bahru",
        "State": "Johor"
    },
    {
        "Postcode": "81200",
        "Location": "Jalan Padi Ria 8",
        "Post_Office": "Johor Bahru",
        "State": "Johor"
    },
    {
        "Postcode": "81200",
        "Location": "Jalan Padi Ria 9",
        "Post_Office": "Johor Bahru",
        "State": "Johor"
    },
    {
        "Postcode": "81200",
        "Location": "Jalan Panglin 1",
        "Post_Office": "Johor Bahru",
        "State": "Johor"
    },
    {
        "Postcode": "81200",
        "Location": "Jalan Panglin 10",
        "Post_Office": "Johor Bahru",
        "State": "Johor"
    },
    {
        "Postcode": "81200",
        "Location": "Jalan Panglin 11",
        "Post_Office": "Johor Bahru",
        "State": "Johor"
    },
    {
        "Postcode": "81200",
        "Location": "Jalan Panglin 2",
        "Post_Office": "Johor Bahru",
        "State": "Johor"
    },
    {
        "Postcode": "81200",
        "Location": "Jalan Panglin 3",
        "Post_Office": "Johor Bahru",
        "State": "Johor"
    },
    {
        "Postcode": "81200",
        "Location": "Jalan Panglin 4",
        "Post_Office": "Johor Bahru",
        "State": "Johor"
    },
    {
        "Postcode": "81200",
        "Location": "Jalan Panglin 5",
        "Post_Office": "Johor Bahru",
        "State": "Johor"
    },
    {
        "Postcode": "81200",
        "Location": "Jalan Panglin 6",
        "Post_Office": "Johor Bahru",
        "State": "Johor"
    },
    {
        "Postcode": "81200",
        "Location": "Jalan Panglin 7",
        "Post_Office": "Johor Bahru",
        "State": "Johor"
    },
    {
        "Postcode": "81200",
        "Location": "Jalan Panglin 8",
        "Post_Office": "Johor Bahru",
        "State": "Johor"
    },
    {
        "Postcode": "81200",
        "Location": "Jalan Panglin 9",
        "Post_Office": "Johor Bahru",
        "State": "Johor"
    },
    {
        "Postcode": "81200",
        "Location": "Jalan Panti 1",
        "Post_Office": "Johor Bahru",
        "State": "Johor"
    },
    {
        "Postcode": "81200",
        "Location": "Jalan Panti 2",
        "Post_Office": "Johor Bahru",
        "State": "Johor"
    },
    {
        "Postcode": "81200",
        "Location": "Jalan Panti 3",
        "Post_Office": "Johor Bahru",
        "State": "Johor"
    },
    {
        "Postcode": "81200",
        "Location": "Jalan Panti 4",
        "Post_Office": "Johor Bahru",
        "State": "Johor"
    },
    {
        "Postcode": "81200",
        "Location": "Jalan Panti 5",
        "Post_Office": "Johor Bahru",
        "State": "Johor"
    },
    {
        "Postcode": "81200",
        "Location": "Jalan Panti 6",
        "Post_Office": "Johor Bahru",
        "State": "Johor"
    },
    {
        "Postcode": "81200",
        "Location": "Jalan Panti 7",
        "Post_Office": "Johor Bahru",
        "State": "Johor"
    },
    {
        "Postcode": "81200",
        "Location": "Jalan Panti 8",
        "Post_Office": "Johor Bahru",
        "State": "Johor"
    },
    {
        "Postcode": "81200",
        "Location": "Jalan Pekaka 1",
        "Post_Office": "Johor Bahru",
        "State": "Johor"
    },
    {
        "Postcode": "81200",
        "Location": "Jalan Pekaka 10",
        "Post_Office": "Johor Bahru",
        "State": "Johor"
    },
    {
        "Postcode": "81200",
        "Location": "Jalan Pekaka 11",
        "Post_Office": "Johor Bahru",
        "State": "Johor"
    },
    {
        "Postcode": "81200",
        "Location": "Jalan Pekaka 12",
        "Post_Office": "Johor Bahru",
        "State": "Johor"
    },
    {
        "Postcode": "81200",
        "Location": "Jalan Pekaka 13",
        "Post_Office": "Johor Bahru",
        "State": "Johor"
    },
    {
        "Postcode": "81200",
        "Location": "Jalan Pekaka 14",
        "Post_Office": "Johor Bahru",
        "State": "Johor"
    },
    {
        "Postcode": "81200",
        "Location": "Jalan Pekaka 15",
        "Post_Office": "Johor Bahru",
        "State": "Johor"
    },
    {
        "Postcode": "81200",
        "Location": "Jalan Pekaka 2",
        "Post_Office": "Johor Bahru",
        "State": "Johor"
    },
    {
        "Postcode": "81200",
        "Location": "Jalan Pekaka 3",
        "Post_Office": "Johor Bahru",
        "State": "Johor"
    },
    {
        "Postcode": "81200",
        "Location": "Jalan Pekaka 4",
        "Post_Office": "Johor Bahru",
        "State": "Johor"
    },
    {
        "Postcode": "81200",
        "Location": "Jalan Pekaka 5",
        "Post_Office": "Johor Bahru",
        "State": "Johor"
    },
    {
        "Postcode": "81200",
        "Location": "Jalan Pekaka 6",
        "Post_Office": "Johor Bahru",
        "State": "Johor"
    },
    {
        "Postcode": "81200",
        "Location": "Jalan Pekaka 7",
        "Post_Office": "Johor Bahru",
        "State": "Johor"
    },
    {
        "Postcode": "81200",
        "Location": "Jalan Pekaka 8",
        "Post_Office": "Johor Bahru",
        "State": "Johor"
    },
    {
        "Postcode": "81200",
        "Location": "Jalan Pekaka 9",
        "Post_Office": "Johor Bahru",
        "State": "Johor"
    },
    {
        "Postcode": "81200",
        "Location": "Jalan Permatang 1",
        "Post_Office": "Johor Bahru",
        "State": "Johor"
    },
    {
        "Postcode": "81200",
        "Location": "Jalan Permatang 10",
        "Post_Office": "Johor Bahru",
        "State": "Johor"
    },
    {
        "Postcode": "81200",
        "Location": "Jalan Permatang 11",
        "Post_Office": "Johor Bahru",
        "State": "Johor"
    },
    {
        "Postcode": "81200",
        "Location": "Jalan Permatang 12",
        "Post_Office": "Johor Bahru",
        "State": "Johor"
    },
    {
        "Postcode": "81200",
        "Location": "Jalan Permatang 13",
        "Post_Office": "Johor Bahru",
        "State": "Johor"
    },
    {
        "Postcode": "81200",
        "Location": "Jalan Permatang 14",
        "Post_Office": "Johor Bahru",
        "State": "Johor"
    },
    {
        "Postcode": "81200",
        "Location": "Jalan Permatang 15",
        "Post_Office": "Johor Bahru",
        "State": "Johor"
    },
    {
        "Postcode": "81200",
        "Location": "Jalan Permatang 16",
        "Post_Office": "Johor Bahru",
        "State": "Johor"
    },
    {
        "Postcode": "81200",
        "Location": "Jalan Permatang 17",
        "Post_Office": "Johor Bahru",
        "State": "Johor"
    },
    {
        "Postcode": "81200",
        "Location": "Jalan Permatang 18",
        "Post_Office": "Johor Bahru",
        "State": "Johor"
    },
    {
        "Postcode": "81200",
        "Location": "Jalan Permatang 19",
        "Post_Office": "Johor Bahru",
        "State": "Johor"
    },
    {
        "Postcode": "81200",
        "Location": "Jalan Permatang 2",
        "Post_Office": "Johor Bahru",
        "State": "Johor"
    },
    {
        "Postcode": "81200",
        "Location": "Jalan Permatang 20",
        "Post_Office": "Johor Bahru",
        "State": "Johor"
    },
    {
        "Postcode": "81200",
        "Location": "Jalan Permatang 21",
        "Post_Office": "Johor Bahru",
        "State": "Johor"
    },
    {
        "Postcode": "81200",
        "Location": "Jalan Permatang 22",
        "Post_Office": "Johor Bahru",
        "State": "Johor"
    },
    {
        "Postcode": "81200",
        "Location": "Jalan Permatang 23",
        "Post_Office": "Johor Bahru",
        "State": "Johor"
    },
    {
        "Postcode": "81200",
        "Location": "Jalan Permatang 24",
        "Post_Office": "Johor Bahru",
        "State": "Johor"
    },
    {
        "Postcode": "81200",
        "Location": "Jalan Permatang 25",
        "Post_Office": "Johor Bahru",
        "State": "Johor"
    },
    {
        "Postcode": "81200",
        "Location": "Jalan Permatang 26",
        "Post_Office": "Johor Bahru",
        "State": "Johor"
    },
    {
        "Postcode": "81200",
        "Location": "Jalan Permatang 27",
        "Post_Office": "Johor Bahru",
        "State": "Johor"
    },
    {
        "Postcode": "81200",
        "Location": "Jalan Permatang 28",
        "Post_Office": "Johor Bahru",
        "State": "Johor"
    },
    {
        "Postcode": "81200",
        "Location": "Jalan Permatang 29",
        "Post_Office": "Johor Bahru",
        "State": "Johor"
    },
    {
        "Postcode": "81200",
        "Location": "Jalan Permatang 3",
        "Post_Office": "Johor Bahru",
        "State": "Johor"
    },
    {
        "Postcode": "81200",
        "Location": "Jalan Permatang 30",
        "Post_Office": "Johor Bahru",
        "State": "Johor"
    },
    {
        "Postcode": "81200",
        "Location": "Jalan Permatang 31",
        "Post_Office": "Johor Bahru",
        "State": "Johor"
    },
    {
        "Postcode": "81200",
        "Location": "Jalan Permatang 32",
        "Post_Office": "Johor Bahru",
        "State": "Johor"
    },
    {
        "Postcode": "81200",
        "Location": "Jalan Permatang 33",
        "Post_Office": "Johor Bahru",
        "State": "Johor"
    },
    {
        "Postcode": "81200",
        "Location": "Jalan Permatang 34",
        "Post_Office": "Johor Bahru",
        "State": "Johor"
    },
    {
        "Postcode": "81200",
        "Location": "Jalan Permatang 35",
        "Post_Office": "Johor Bahru",
        "State": "Johor"
    },
    {
        "Postcode": "81200",
        "Location": "Jalan Permatang 36",
        "Post_Office": "Johor Bahru",
        "State": "Johor"
    },
    {
        "Postcode": "81200",
        "Location": "Jalan Permatang 4",
        "Post_Office": "Johor Bahru",
        "State": "Johor"
    },
    {
        "Postcode": "81200",
        "Location": "Jalan Permatang 5",
        "Post_Office": "Johor Bahru",
        "State": "Johor"
    },
    {
        "Postcode": "81200",
        "Location": "Jalan Permatang 6",
        "Post_Office": "Johor Bahru",
        "State": "Johor"
    },
    {
        "Postcode": "81200",
        "Location": "Jalan Permatang 7",
        "Post_Office": "Johor Bahru",
        "State": "Johor"
    },
    {
        "Postcode": "81200",
        "Location": "Jalan Permatang 8",
        "Post_Office": "Johor Bahru",
        "State": "Johor"
    },
    {
        "Postcode": "81200",
        "Location": "Jalan Permatang 9",
        "Post_Office": "Johor Bahru",
        "State": "Johor"
    },
    {
        "Postcode": "81200",
        "Location": "Jalan Pucung 1",
        "Post_Office": "Johor Bahru",
        "State": "Johor"
    },
    {
        "Postcode": "81200",
        "Location": "Jalan Pucung 10",
        "Post_Office": "Johor Bahru",
        "State": "Johor"
    },
    {
        "Postcode": "81200",
        "Location": "Jalan Pucung 2",
        "Post_Office": "Johor Bahru",
        "State": "Johor"
    },
    {
        "Postcode": "81200",
        "Location": "Jalan Pucung 3",
        "Post_Office": "Johor Bahru",
        "State": "Johor"
    },
    {
        "Postcode": "81200",
        "Location": "Jalan Pucung 4",
        "Post_Office": "Johor Bahru",
        "State": "Johor"
    },
    {
        "Postcode": "81200",
        "Location": "Jalan Pucung 5",
        "Post_Office": "Johor Bahru",
        "State": "Johor"
    },
    {
        "Postcode": "81200",
        "Location": "Jalan Pucung 6",
        "Post_Office": "Johor Bahru",
        "State": "Johor"
    },
    {
        "Postcode": "81200",
        "Location": "Jalan Pucung 7",
        "Post_Office": "Johor Bahru",
        "State": "Johor"
    },
    {
        "Postcode": "81200",
        "Location": "Jalan Pucung 8",
        "Post_Office": "Johor Bahru",
        "State": "Johor"
    },
    {
        "Postcode": "81200",
        "Location": "Jalan Pucung 9",
        "Post_Office": "Johor Bahru",
        "State": "Johor"
    },
    {
        "Postcode": "81200",
        "Location": "Jalan Rantai 1",
        "Post_Office": "Johor Bahru",
        "State": "Johor"
    },
    {
        "Postcode": "81200",
        "Location": "Jalan Rantai 2",
        "Post_Office": "Johor Bahru",
        "State": "Johor"
    },
    {
        "Postcode": "81200",
        "Location": "Jalan Riang 1",
        "Post_Office": "Johor Bahru",
        "State": "Johor"
    },
    {
        "Postcode": "81200",
        "Location": "Jalan Riang 10",
        "Post_Office": "Johor Bahru",
        "State": "Johor"
    },
    {
        "Postcode": "81200",
        "Location": "Jalan Riang 11",
        "Post_Office": "Johor Bahru",
        "State": "Johor"
    },
    {
        "Postcode": "81200",
        "Location": "Jalan Riang 12",
        "Post_Office": "Johor Bahru",
        "State": "Johor"
    },
    {
        "Postcode": "81200",
        "Location": "Jalan Riang 13",
        "Post_Office": "Johor Bahru",
        "State": "Johor"
    },
    {
        "Postcode": "81200",
        "Location": "Jalan Riang 14",
        "Post_Office": "Johor Bahru",
        "State": "Johor"
    },
    {
        "Postcode": "81200",
        "Location": "Jalan Riang 15",
        "Post_Office": "Johor Bahru",
        "State": "Johor"
    },
    {
        "Postcode": "81200",
        "Location": "Jalan Riang 16",
        "Post_Office": "Johor Bahru",
        "State": "Johor"
    },
    {
        "Postcode": "81200",
        "Location": "Jalan Riang 17",
        "Post_Office": "Johor Bahru",
        "State": "Johor"
    },
    {
        "Postcode": "81200",
        "Location": "Jalan Riang 18",
        "Post_Office": "Johor Bahru",
        "State": "Johor"
    },
    {
        "Postcode": "81200",
        "Location": "Jalan Riang 19",
        "Post_Office": "Johor Bahru",
        "State": "Johor"
    },
    {
        "Postcode": "81200",
        "Location": "Jalan Riang 2",
        "Post_Office": "Johor Bahru",
        "State": "Johor"
    },
    {
        "Postcode": "81200",
        "Location": "Jalan Riang 20",
        "Post_Office": "Johor Bahru",
        "State": "Johor"
    },
    {
        "Postcode": "81200",
        "Location": "Jalan Riang 21",
        "Post_Office": "Johor Bahru",
        "State": "Johor"
    },
    {
        "Postcode": "81200",
        "Location": "Jalan Riang 22",
        "Post_Office": "Johor Bahru",
        "State": "Johor"
    },
    {
        "Postcode": "81200",
        "Location": "Jalan Riang 23",
        "Post_Office": "Johor Bahru",
        "State": "Johor"
    },
    {
        "Postcode": "81200",
        "Location": "Jalan Riang 24",
        "Post_Office": "Johor Bahru",
        "State": "Johor"
    },
    {
        "Postcode": "81200",
        "Location": "Jalan Riang 3",
        "Post_Office": "Johor Bahru",
        "State": "Johor"
    },
    {
        "Postcode": "81200",
        "Location": "Jalan Riang 4",
        "Post_Office": "Johor Bahru",
        "State": "Johor"
    },
    {
        "Postcode": "81200",
        "Location": "Jalan Riang 5",
        "Post_Office": "Johor Bahru",
        "State": "Johor"
    },
    {
        "Postcode": "81200",
        "Location": "Jalan Riang 6",
        "Post_Office": "Johor Bahru",
        "State": "Johor"
    },
    {
        "Postcode": "81200",
        "Location": "Jalan Riang 7",
        "Post_Office": "Johor Bahru",
        "State": "Johor"
    },
    {
        "Postcode": "81200",
        "Location": "Jalan Riang 8",
        "Post_Office": "Johor Bahru",
        "State": "Johor"
    },
    {
        "Postcode": "81200",
        "Location": "Jalan Riang 9",
        "Post_Office": "Johor Bahru",
        "State": "Johor"
    },
    {
        "Postcode": "81200",
        "Location": "Jalan Riang 21/1 ",
        "Post_Office": "Johor Bahru",
        "State": "Johor"
    },
    {
        "Postcode": "81200",
        "Location": "Jalan Riang 21/5",
        "Post_Office": "Johor Bahru",
        "State": "Johor"
    },
    {
        "Postcode": "81200",
        "Location": "Jalan Riang 22",
        "Post_Office": "Johor Bahru",
        "State": "Johor"
    },
    {
        "Postcode": "81200",
        "Location": "Jalan Riang 22/1",
        "Post_Office": "Johor Bahru",
        "State": "Johor"
    },
    {
        "Postcode": "81200",
        "Location": "Jalan Riang 22/2",
        "Post_Office": "Johor Bahru",
        "State": "Johor"
    },
    {
        "Postcode": "81200",
        "Location": "Jalan Riang 22/3",
        "Post_Office": "Johor Bahru",
        "State": "Johor"
    },
    {
        "Postcode": "81200",
        "Location": "Jalan Riang 23",
        "Post_Office": "Johor Bahru",
        "State": "Johor"
    },
    {
        "Postcode": "81200",
        "Location": "Jalan Riang 24",
        "Post_Office": "Johor Bahru",
        "State": "Johor"
    },
    {
        "Postcode": "81200",
        "Location": "Jalan Selasih 1",
        "Post_Office": "Johor Bahru",
        "State": "Johor"
    },
    {
        "Postcode": "81200",
        "Location": "Jalan Selasih 10",
        "Post_Office": "Johor Bahru",
        "State": "Johor"
    },
    {
        "Postcode": "81200",
        "Location": "Jalan Selasih 11",
        "Post_Office": "Johor Bahru",
        "State": "Johor"
    },
    {
        "Postcode": "81200",
        "Location": "Jalan Selasih 2",
        "Post_Office": "Johor Bahru",
        "State": "Johor"
    },
    {
        "Postcode": "81200",
        "Location": "Jalan Selasih 3",
        "Post_Office": "Johor Bahru",
        "State": "Johor"
    },
    {
        "Postcode": "81200",
        "Location": "Jalan Selasih 4",
        "Post_Office": "Johor Bahru",
        "State": "Johor"
    },
    {
        "Postcode": "81200",
        "Location": "Jalan Selasih 5",
        "Post_Office": "Johor Bahru",
        "State": "Johor"
    },
    {
        "Postcode": "81200",
        "Location": "Jalan Selasih 6",
        "Post_Office": "Johor Bahru",
        "State": "Johor"
    },
    {
        "Postcode": "81200",
        "Location": "Jalan Selasih 7",
        "Post_Office": "Johor Bahru",
        "State": "Johor"
    },
    {
        "Postcode": "81200",
        "Location": "Jalan Selasih 8",
        "Post_Office": "Johor Bahru",
        "State": "Johor"
    },
    {
        "Postcode": "81200",
        "Location": "Jalan Selasih 9",
        "Post_Office": "Johor Bahru",
        "State": "Johor"
    },
    {
        "Postcode": "81200",
        "Location": "Jalan Semangka 1",
        "Post_Office": "Johor Bahru",
        "State": "Johor"
    },
    {
        "Postcode": "81200",
        "Location": "Jalan Semangka 2",
        "Post_Office": "Johor Bahru",
        "State": "Johor"
    },
    {
        "Postcode": "81200",
        "Location": "Jalan Semangka 3",
        "Post_Office": "Johor Bahru",
        "State": "Johor"
    },
    {
        "Postcode": "81200",
        "Location": "Jalan Semangka 4",
        "Post_Office": "Johor Bahru",
        "State": "Johor"
    },
    {
        "Postcode": "81200",
        "Location": "Jalan Semangka 5",
        "Post_Office": "Johor Bahru",
        "State": "Johor"
    },
    {
        "Postcode": "81200",
        "Location": "Jalan Semangka 6",
        "Post_Office": "Johor Bahru",
        "State": "Johor"
    },
    {
        "Postcode": "81200",
        "Location": "Jalan Semangka 7",
        "Post_Office": "Johor Bahru",
        "State": "Johor"
    },
    {
        "Postcode": "81200",
        "Location": "Jalan Seri Bahagia 1",
        "Post_Office": "Johor Bahru",
        "State": "Johor"
    },
    {
        "Postcode": "81200",
        "Location": "Jalan Seri Bahagia 10",
        "Post_Office": "Johor Bahru",
        "State": "Johor"
    },
    {
        "Postcode": "81200",
        "Location": "Jalan Seri Bahagia 11",
        "Post_Office": "Johor Bahru",
        "State": "Johor"
    },
    {
        "Postcode": "81200",
        "Location": "Jalan Seri Bahagia 12",
        "Post_Office": "Johor Bahru",
        "State": "Johor"
    },
    {
        "Postcode": "81200",
        "Location": "Jalan Seri Bahagia 13",
        "Post_Office": "Johor Bahru",
        "State": "Johor"
    },
    {
        "Postcode": "81200",
        "Location": "Jalan Seri Bahagia 14",
        "Post_Office": "Johor Bahru",
        "State": "Johor"
    },
    {
        "Postcode": "81200",
        "Location": "Jalan Seri Bahagia 15",
        "Post_Office": "Johor Bahru",
        "State": "Johor"
    },
    {
        "Postcode": "81200",
        "Location": "Jalan Seri Bahagia 16",
        "Post_Office": "Johor Bahru",
        "State": "Johor"
    },
    {
        "Postcode": "81200",
        "Location": "Jalan Seri Bahagia 2",
        "Post_Office": "Johor Bahru",
        "State": "Johor"
    },
    {
        "Postcode": "81200",
        "Location": "Jalan Seri Bahagia 3",
        "Post_Office": "Johor Bahru",
        "State": "Johor"
    },
    {
        "Postcode": "81200",
        "Location": "Jalan Seri Bahagia 4",
        "Post_Office": "Johor Bahru",
        "State": "Johor"
    },
    {
        "Postcode": "81200",
        "Location": "Jalan Seri Bahagia 5",
        "Post_Office": "Johor Bahru",
        "State": "Johor"
    },
    {
        "Postcode": "81200",
        "Location": "Jalan Seri Bahagia 6",
        "Post_Office": "Johor Bahru",
        "State": "Johor"
    },
    {
        "Postcode": "81200",
        "Location": "Jalan Seri Bahagia 7",
        "Post_Office": "Johor Bahru",
        "State": "Johor"
    },
    {
        "Postcode": "81200",
        "Location": "Jalan Seri Bahagia 8",
        "Post_Office": "Johor Bahru",
        "State": "Johor"
    },
    {
        "Postcode": "81200",
        "Location": "Jalan Seri Bahagia 9",
        "Post_Office": "Johor Bahru",
        "State": "Johor"
    },
    {
        "Postcode": "81200",
        "Location": "Jalan Seri Perkasa 2/10",
        "Post_Office": "Johor Bahru",
        "State": "Johor"
    },
    {
        "Postcode": "81200",
        "Location": "Jalan Seri Perkasa 2/11",
        "Post_Office": "Johor Bahru",
        "State": "Johor"
    },
    {
        "Postcode": "81200",
        "Location": "Jalan Seri Perkasa 2/12",
        "Post_Office": "Johor Bahru",
        "State": "Johor"
    },
    {
        "Postcode": "81200",
        "Location": "Jalan Seri Perkasa 2/13",
        "Post_Office": "Johor Bahru",
        "State": "Johor"
    },
    {
        "Postcode": "81200",
        "Location": "Jalan Seri Perkasa 2/14",
        "Post_Office": "Johor Bahru",
        "State": "Johor"
    },
    {
        "Postcode": "81200",
        "Location": "Jalan Seri Perkasa 2/15",
        "Post_Office": "Johor Bahru",
        "State": "Johor"
    },
    {
        "Postcode": "81200",
        "Location": "Jalan Seri Perkasa 2/16",
        "Post_Office": "Johor Bahru",
        "State": "Johor"
    },
    {
        "Postcode": "81200",
        "Location": "Jalan Seri Perkasa 2/17",
        "Post_Office": "Johor Bahru",
        "State": "Johor"
    },
    {
        "Postcode": "81200",
        "Location": "Jalan Seri Perkasa 2/18",
        "Post_Office": "Johor Bahru",
        "State": "Johor"
    },
    {
        "Postcode": "81200",
        "Location": "Jalan Seri Perkasa 2/3",
        "Post_Office": "Johor Bahru",
        "State": "Johor"
    },
    {
        "Postcode": "81200",
        "Location": "Jalan Seri Perkasa 2/4",
        "Post_Office": "Johor Bahru",
        "State": "Johor"
    },
    {
        "Postcode": "81200",
        "Location": "Jalan Seri Perkasa 2/5",
        "Post_Office": "Johor Bahru",
        "State": "Johor"
    },
    {
        "Postcode": "81200",
        "Location": "Jalan Seri Perkasa 2/6",
        "Post_Office": "Johor Bahru",
        "State": "Johor"
    },
    {
        "Postcode": "81200",
        "Location": "Jalan Seri Perkasa 2/7",
        "Post_Office": "Johor Bahru",
        "State": "Johor"
    },
    {
        "Postcode": "81200",
        "Location": "Jalan Seri Perkasa 2/8",
        "Post_Office": "Johor Bahru",
        "State": "Johor"
    },
    {
        "Postcode": "81200",
        "Location": "Jalan Seri Perkasa 2/9",
        "Post_Office": "Johor Bahru",
        "State": "Johor"
    },
    {
        "Postcode": "81200",
        "Location": "Jalan Siantan 1",
        "Post_Office": "Johor Bahru",
        "State": "Johor"
    },
    {
        "Postcode": "81200",
        "Location": "Jalan Siantan 2",
        "Post_Office": "Johor Bahru",
        "State": "Johor"
    },
    {
        "Postcode": "81200",
        "Location": "Jalan Siantan 3",
        "Post_Office": "Johor Bahru",
        "State": "Johor"
    },
    {
        "Postcode": "81200",
        "Location": "Jalan Siantan 4",
        "Post_Office": "Johor Bahru",
        "State": "Johor"
    },
    {
        "Postcode": "81200",
        "Location": "Jalan Siantan 5",
        "Post_Office": "Johor Bahru",
        "State": "Johor"
    },
    {
        "Postcode": "81200",
        "Location": "Jalan Siantan 6",
        "Post_Office": "Johor Bahru",
        "State": "Johor"
    },
    {
        "Postcode": "81200",
        "Location": "Jalan Siantan 7",
        "Post_Office": "Johor Bahru",
        "State": "Johor"
    },
    {
        "Postcode": "81200",
        "Location": "Jalan Simbang 1",
        "Post_Office": "Johor Bahru",
        "State": "Johor"
    },
    {
        "Postcode": "81200",
        "Location": "Jalan Simbang 10",
        "Post_Office": "Johor Bahru",
        "State": "Johor"
    },
    {
        "Postcode": "81200",
        "Location": "Jalan Simbang 11",
        "Post_Office": "Johor Bahru",
        "State": "Johor"
    },
    {
        "Postcode": "81200",
        "Location": "Jalan Simbang 12",
        "Post_Office": "Johor Bahru",
        "State": "Johor"
    },
    {
        "Postcode": "81200",
        "Location": "Jalan Simbang 13",
        "Post_Office": "Johor Bahru",
        "State": "Johor"
    },
    {
        "Postcode": "81200",
        "Location": "Jalan Simbang 14",
        "Post_Office": "Johor Bahru",
        "State": "Johor"
    },
    {
        "Postcode": "81200",
        "Location": "Jalan Simbang 15",
        "Post_Office": "Johor Bahru",
        "State": "Johor"
    },
    {
        "Postcode": "81200",
        "Location": "Jalan Simbang 16",
        "Post_Office": "Johor Bahru",
        "State": "Johor"
    },
    {
        "Postcode": "81200",
        "Location": "Jalan Simbang 2",
        "Post_Office": "Johor Bahru",
        "State": "Johor"
    },
    {
        "Postcode": "81200",
        "Location": "Jalan Simbang 3",
        "Post_Office": "Johor Bahru",
        "State": "Johor"
    },
    {
        "Postcode": "81200",
        "Location": "Jalan Simbang 4",
        "Post_Office": "Johor Bahru",
        "State": "Johor"
    },
    {
        "Postcode": "81200",
        "Location": "Jalan Simbang 5",
        "Post_Office": "Johor Bahru",
        "State": "Johor"
    },
    {
        "Postcode": "81200",
        "Location": "Jalan Simbang 6",
        "Post_Office": "Johor Bahru",
        "State": "Johor"
    },
    {
        "Postcode": "81200",
        "Location": "Jalan Simbang 7",
        "Post_Office": "Johor Bahru",
        "State": "Johor"
    },
    {
        "Postcode": "81200",
        "Location": "Jalan Simbang 8",
        "Post_Office": "Johor Bahru",
        "State": "Johor"
    },
    {
        "Postcode": "81200",
        "Location": "Jalan Simbang 9",
        "Post_Office": "Johor Bahru",
        "State": "Johor"
    },
    {
        "Postcode": "81200",
        "Location": "Jalan Subang 1",
        "Post_Office": "Johor Bahru",
        "State": "Johor"
    },
    {
        "Postcode": "81200",
        "Location": "Jalan Subang 2",
        "Post_Office": "Johor Bahru",
        "State": "Johor"
    },
    {
        "Postcode": "81200",
        "Location": "Jalan Subang 3",
        "Post_Office": "Johor Bahru",
        "State": "Johor"
    },
    {
        "Postcode": "81200",
        "Location": "Jalan Subang 4",
        "Post_Office": "Johor Bahru",
        "State": "Johor"
    },
    {
        "Postcode": "81200",
        "Location": "Jalan Subang 5",
        "Post_Office": "Johor Bahru",
        "State": "Johor"
    },
    {
        "Postcode": "81200",
        "Location": "Jalan Titiwangsa 10",
        "Post_Office": "Johor Bahru",
        "State": "Johor"
    },
    {
        "Postcode": "81200",
        "Location": "Jalan Titiwangsa 11",
        "Post_Office": "Johor Bahru",
        "State": "Johor"
    },
    {
        "Postcode": "81200",
        "Location": "Jalan Titiwangsa 12",
        "Post_Office": "Johor Bahru",
        "State": "Johor"
    },
    {
        "Postcode": "81200",
        "Location": "Jalan Titiwangsa 13",
        "Post_Office": "Johor Bahru",
        "State": "Johor"
    },
    {
        "Postcode": "81200",
        "Location": "Jalan Titiwangsa 5",
        "Post_Office": "Johor Bahru",
        "State": "Johor"
    },
    {
        "Postcode": "81200",
        "Location": "Jalan Titiwangsa 6",
        "Post_Office": "Johor Bahru",
        "State": "Johor"
    },
    {
        "Postcode": "81200",
        "Location": "Jalan Titiwangsa 7",
        "Post_Office": "Johor Bahru",
        "State": "Johor"
    },
    {
        "Postcode": "81200",
        "Location": "Jalan Titiwangsa 8",
        "Post_Office": "Johor Bahru",
        "State": "Johor"
    },
    {
        "Postcode": "81200",
        "Location": "Jalan Titiwangsa 9",
        "Post_Office": "Johor Bahru",
        "State": "Johor"
    },
    {
        "Postcode": "81200",
        "Location": "Jalan Undan 10",
        "Post_Office": "Johor Bahru",
        "State": "Johor"
    },
    {
        "Postcode": "81200",
        "Location": "Jalan Undan 11",
        "Post_Office": "Johor Bahru",
        "State": "Johor"
    },
    {
        "Postcode": "81200",
        "Location": "Jalan Undan 12",
        "Post_Office": "Johor Bahru",
        "State": "Johor"
    },
    {
        "Postcode": "81200",
        "Location": "Jalan Undan 13",
        "Post_Office": "Johor Bahru",
        "State": "Johor"
    },
    {
        "Postcode": "81200",
        "Location": "Jalan Undan 2",
        "Post_Office": "Johor Bahru",
        "State": "Johor"
    },
    {
        "Postcode": "81200",
        "Location": "Jalan Undan 3",
        "Post_Office": "Johor Bahru",
        "State": "Johor"
    },
    {
        "Postcode": "81200",
        "Location": "Jalan Undan 4",
        "Post_Office": "Johor Bahru",
        "State": "Johor"
    },
    {
        "Postcode": "81200",
        "Location": "Jalan Undan 5",
        "Post_Office": "Johor Bahru",
        "State": "Johor"
    },
    {
        "Postcode": "81200",
        "Location": "Jalan Undan 6",
        "Post_Office": "Johor Bahru",
        "State": "Johor"
    },
    {
        "Postcode": "81200",
        "Location": "Jalan Undan 7",
        "Post_Office": "Johor Bahru",
        "State": "Johor"
    },
    {
        "Postcode": "81200",
        "Location": "Jalan Undan 8",
        "Post_Office": "Johor Bahru",
        "State": "Johor"
    },
    {
        "Postcode": "81200",
        "Location": "Jalan Undan 9",
        "Post_Office": "Johor Bahru",
        "State": "Johor"
    },
    {
        "Postcode": "81200",
        "Location": "Lorong 1, Jalan Ledang",
        "Post_Office": "Johor Bahru",
        "State": "Johor"
    },
    {
        "Postcode": "81200",
        "Location": "Lorong 1, Jalan Subang ",
        "Post_Office": "Johor Bahru",
        "State": "Johor"
    },
    {
        "Postcode": "81200",
        "Location": "Lorong 2, Jalan Ledang",
        "Post_Office": "Johor Bahru",
        "State": "Johor"
    },
    {
        "Postcode": "81200",
        "Location": "Lorong 2, Jalan Subang ",
        "Post_Office": "Johor Bahru",
        "State": "Johor"
    },
    {
        "Postcode": "81200",
        "Location": "Lorong 3, Jalan Ledang",
        "Post_Office": "Johor Bahru",
        "State": "Johor"
    },
    {
        "Postcode": "81200",
        "Location": "Lorong 3, Jalan Subang ",
        "Post_Office": "Johor Bahru",
        "State": "Johor"
    },
    {
        "Postcode": "81200",
        "Location": "Lorong 4, Jalan Ledang",
        "Post_Office": "Johor Bahru",
        "State": "Johor"
    },
    {
        "Postcode": "81200",
        "Location": "Lorong 4, Jalan Subang ",
        "Post_Office": "Johor Bahru",
        "State": "Johor"
    },
    {
        "Postcode": "81200",
        "Location": "Lorong 5, Jalan Ledang",
        "Post_Office": "Johor Bahru",
        "State": "Johor"
    },
    {
        "Postcode": "81200",
        "Location": "Lorong 5, Jalan Subang ",
        "Post_Office": "Johor Bahru",
        "State": "Johor"
    },
    {
        "Postcode": "81200",
        "Location": "Lorong 6, Jalan Ledang",
        "Post_Office": "Johor Bahru",
        "State": "Johor"
    },
    {
        "Postcode": "81200",
        "Location": "Lorong 6, Jalan Subang ",
        "Post_Office": "Johor Bahru",
        "State": "Johor"
    },
    {
        "Postcode": "81200",
        "Location": "Lorong 7, Jalan Ledang",
        "Post_Office": "Johor Bahru",
        "State": "Johor"
    },
    {
        "Postcode": "81200",
        "Location": "Lorong 7, Jalan Subang ",
        "Post_Office": "Johor Bahru",
        "State": "Johor"
    },
    {
        "Postcode": "81200",
        "Location": "Lorong 8, Jalan Ledang",
        "Post_Office": "Johor Bahru",
        "State": "Johor"
    },
    {
        "Postcode": "81200",
        "Location": "Jalan Nenas",
        "Post_Office": "Johor Bahru",
        "State": "Johor"
    },
    {
        "Postcode": "81200",
        "Location": "Jalan Perikanan",
        "Post_Office": "Johor Bahru",
        "State": "Johor"
    },
    {
        "Postcode": "81200",
        "Location": "Jalan Pucong",
        "Post_Office": "Johor Bahru",
        "State": "Johor"
    },
    {
        "Postcode": "81200",
        "Location": "Jalan Soga",
        "Post_Office": "Johor Bahru",
        "State": "Johor"
    },
    {
        "Postcode": "81200",
        "Location": "Kampung Bakar Batu",
        "Post_Office": "Johor Bahru",
        "State": "Johor"
    },
    {
        "Postcode": "81200",
        "Location": "Bandar Uda Utama",
        "Post_Office": "Johor Bahru",
        "State": "Johor"
    },
    {
        "Postcode": "81200",
        "Location": "Country Garden Central",
        "Post_Office": "Johor Bahru",
        "State": "Johor"
    },
    {
        "Postcode": "81200",
        "Location": "Kampung Denai Aman",
        "Post_Office": "Johor Bahru",
        "State": "Johor"
    },
    {
        "Postcode": "81200",
        "Location": "Kampung Kempas Bahru",
        "Post_Office": "Johor Bahru",
        "State": "Johor"
    },
    {
        "Postcode": "81200",
        "Location": "Kampung Melayu Sri Kempas",
        "Post_Office": "Johor Bahru",
        "State": "Johor"
    },
    {
        "Postcode": "81200",
        "Location": "Kampung Serdang Baru",
        "Post_Office": "Johor Bahru",
        "State": "Johor"
    },
    {
        "Postcode": "81200",
        "Location": "Kampung Sri Kempas 1",
        "Post_Office": "Johor Bahru",
        "State": "Johor"
    },
    {
        "Postcode": "81200",
        "Location": "Kawasan Perindustrian Tampoi Indah",
        "Post_Office": "Johor Bahru",
        "State": "Johor"
    },
    {
        "Postcode": "81200",
        "Location": "Kawasan Perindustrian Tampoi Jaya",
        "Post_Office": "Johor Bahru",
        "State": "Johor"
    },
    {
        "Postcode": "81200",
        "Location": "Taman Bandar Baru Uda",
        "Post_Office": "Johor Bahru",
        "State": "Johor"
    },
    {
        "Postcode": "81200",
        "Location": "Taman Bukit Alif",
        "Post_Office": "Johor Bahru",
        "State": "Johor"
    },
    {
        "Postcode": "81200",
        "Location": "Taman Cengkerik",
        "Post_Office": "Johor Bahru",
        "State": "Johor"
    },
    {
        "Postcode": "81200",
        "Location": "Taman Danga Utama",
        "Post_Office": "Johor Bahru",
        "State": "Johor"
    },
    {
        "Postcode": "81200",
        "Location": "Taman Kacung",
        "Post_Office": "Johor Bahru",
        "State": "Johor"
    },
    {
        "Postcode": "81200",
        "Location": "Taman Kempas Permai",
        "Post_Office": "Johor Bahru",
        "State": "Johor"
    },
    {
        "Postcode": "81200",
        "Location": "Taman Munsyi Ibrahim",
        "Post_Office": "Johor Bahru",
        "State": "Johor"
    },
    {
        "Postcode": "81200",
        "Location": "Taman Pengawa Barat",
        "Post_Office": "Johor Bahru",
        "State": "Johor"
    },
    {
        "Postcode": "81200",
        "Location": "Taman Perindustrian Tampoi Jaya",
        "Post_Office": "Johor Bahru",
        "State": "Johor"
    },
    {
        "Postcode": "81200",
        "Location": "Taman Sutera D Serambi",
        "Post_Office": "Johor Bahru",
        "State": "Johor"
    },
    {
        "Postcode": "81200",
        "Location": "Taman Tampoi Utama 2",
        "Post_Office": "Johor Bahru",
        "State": "Johor"
    },
    {
        "Postcode": "81200",
        "Location": "Kawasan Perindustrian Taman Gembira",
        "Post_Office": "Johor Bahru",
        "State": "Johor"
    },
    {
        "Postcode": "81200",
        "Location": "Kampung Kempas Baru",
        "Post_Office": "Johor Bahru",
        "State": "Johor"
    },
    {
        "Postcode": "81200",
        "Location": "Apartment Jasmin \u0026 Lily",
        "Post_Office": "Johor Bahru",
        "State": "Johor"
    },
    {
        "Postcode": "81200",
        "Location": "Apartment Sri Indah",
        "Post_Office": "Johor Bahru",
        "State": "Johor"
    },
    {
        "Postcode": "81200",
        "Location": "Bandar Baru Uda",
        "Post_Office": "Johor Bahru",
        "State": "Johor"
    },
    {
        "Postcode": "81200",
        "Location": "Jalan Asam Paya",
        "Post_Office": "Johor Bahru",
        "State": "Johor"
    },
    {
        "Postcode": "81200",
        "Location": "Jalan Bacang",
        "Post_Office": "Johor Bahru",
        "State": "Johor"
    },
    {
        "Postcode": "81200",
        "Location": "Jalan Banjaran Utama",
        "Post_Office": "Johor Bahru",
        "State": "Johor"
    },
    {
        "Postcode": "81200",
        "Location": "Jalan Baru",
        "Post_Office": "Johor Bahru",
        "State": "Johor"
    },
    {
        "Postcode": "81200",
        "Location": "Jalan Bawang 3",
        "Post_Office": "Johor Bahru",
        "State": "Johor"
    },
    {
        "Postcode": "81200",
        "Location": "Jalan Bayu 2",
        "Post_Office": "Johor Bahru",
        "State": "Johor"
    },
    {
        "Postcode": "81200",
        "Location": "Jalan Bekok",
        "Post_Office": "Johor Bahru",
        "State": "Johor"
    },
    {
        "Postcode": "81200",
        "Location": "Jalan Belalang",
        "Post_Office": "Johor Bahru",
        "State": "Johor"
    },
    {
        "Postcode": "81200",
        "Location": "Jalan Belibis",
        "Post_Office": "Johor Bahru",
        "State": "Johor"
    },
    {
        "Postcode": "81200",
        "Location": "Jalan Belimbing",
        "Post_Office": "Johor Bahru",
        "State": "Johor"
    },
    {
        "Postcode": "81200",
        "Location": "Jalan Beremban",
        "Post_Office": "Johor Bahru",
        "State": "Johor"
    },
    {
        "Postcode": "81200",
        "Location": "Jalan Betik",
        "Post_Office": "Johor Bahru",
        "State": "Johor"
    },
    {
        "Postcode": "81200",
        "Location": "Jalan Bukit Kempas",
        "Post_Office": "Johor Bahru",
        "State": "Johor"
    },
    {
        "Postcode": "81200",
        "Location": "Jalan Bukit Kempas 1/1",
        "Post_Office": "Johor Bahru",
        "State": "Johor"
    },
    {
        "Postcode": "81200",
        "Location": "Jalan Bukit Kempas 1/2",
        "Post_Office": "Johor Bahru",
        "State": "Johor"
    },
    {
        "Postcode": "81200",
        "Location": "Jalan Bukit Kempas 1/3",
        "Post_Office": "Johor Bahru",
        "State": "Johor"
    },
    {
        "Postcode": "81200",
        "Location": "Jalan Bukit Kempas 1/4",
        "Post_Office": "Johor Bahru",
        "State": "Johor"
    },
    {
        "Postcode": "81200",
        "Location": "Jalan Bukit Kempas 1/5",
        "Post_Office": "Johor Bahru",
        "State": "Johor"
    },
    {
        "Postcode": "81200",
        "Location": "Jalan Bukit Kempas 1/6",
        "Post_Office": "Johor Bahru",
        "State": "Johor"
    },
    {
        "Postcode": "81200",
        "Location": "Jalan Bukit Kempas 1/7",
        "Post_Office": "Johor Bahru",
        "State": "Johor"
    },
    {
        "Postcode": "81200",
        "Location": "Jalan Bukit Kempas 1/8",
        "Post_Office": "Johor Bahru",
        "State": "Johor"
    },
    {
        "Postcode": "81200",
        "Location": "Jalan Bukit Kempas 1/9",
        "Post_Office": "Johor Bahru",
        "State": "Johor"
    },
    {
        "Postcode": "81200",
        "Location": "Jalan Bukit Kempas 1/10",
        "Post_Office": "Johor Bahru",
        "State": "Johor"
    },
    {
        "Postcode": "81200",
        "Location": "Jalan Bukit Kempas 1/11",
        "Post_Office": "Johor Bahru",
        "State": "Johor"
    },
    {
        "Postcode": "81200",
        "Location": "Jalan Bukit Kempas 1/12",
        "Post_Office": "Johor Bahru",
        "State": "Johor"
    },
    {
        "Postcode": "81200",
        "Location": "Jalan Bukit Kempas 1/13",
        "Post_Office": "Johor Bahru",
        "State": "Johor"
    },
    {
        "Postcode": "81200",
        "Location": "Jalan Bukit Kempas 1/14",
        "Post_Office": "Johor Bahru",
        "State": "Johor"
    },
    {
        "Postcode": "81200",
        "Location": "Jalan Bukit Kempas 1/15",
        "Post_Office": "Johor Bahru",
        "State": "Johor"
    },
    {
        "Postcode": "81200",
        "Location": "Jalan Bukit Kempas 1/16",
        "Post_Office": "Johor Bahru",
        "State": "Johor"
    },
    {
        "Postcode": "81200",
        "Location": "Jalan Bukit Kempas 1/17",
        "Post_Office": "Johor Bahru",
        "State": "Johor"
    },
    {
        "Postcode": "81200",
        "Location": "Jalan Bukit Kempas 1/18",
        "Post_Office": "Johor Bahru",
        "State": "Johor"
    },
    {
        "Postcode": "81200",
        "Location": "Jalan Bukit Kempas 2",
        "Post_Office": "Johor Bahru",
        "State": "Johor"
    },
    {
        "Postcode": "81200",
        "Location": "Jalan Bukit Kempas 2/1",
        "Post_Office": "Johor Bahru",
        "State": "Johor"
    },
    {
        "Postcode": "81200",
        "Location": "Jalan Bukit Kempas 2/2",
        "Post_Office": "Johor Bahru",
        "State": "Johor"
    },
    {
        "Postcode": "81200",
        "Location": "Jalan Bukit Kempas 2/3",
        "Post_Office": "Johor Bahru",
        "State": "Johor"
    },
    {
        "Postcode": "81200",
        "Location": "Jalan Bukit Kempas 2/4",
        "Post_Office": "Johor Bahru",
        "State": "Johor"
    },
    {
        "Postcode": "81200",
        "Location": "Jalan Bukit Kempas 2/5",
        "Post_Office": "Johor Bahru",
        "State": "Johor"
    },
    {
        "Postcode": "81200",
        "Location": "Jalan Bukit Kempas 2/6",
        "Post_Office": "Johor Bahru",
        "State": "Johor"
    },
    {
        "Postcode": "81200",
        "Location": "Jalan Bukit Kempas 2/7",
        "Post_Office": "Johor Bahru",
        "State": "Johor"
    },
    {
        "Postcode": "81200",
        "Location": "Jalan Bukit Kempas 2/8",
        "Post_Office": "Johor Bahru",
        "State": "Johor"
    },
    {
        "Postcode": "81200",
        "Location": "Jalan Bukit Kempas 2/9",
        "Post_Office": "Johor Bahru",
        "State": "Johor"
    },
    {
        "Postcode": "81200",
        "Location": "Jalan Bukit Kempas 2/10",
        "Post_Office": "Johor Bahru",
        "State": "Johor"
    },
    {
        "Postcode": "81200",
        "Location": "Jalan Bukit Kempas 2/11",
        "Post_Office": "Johor Bahru",
        "State": "Johor"
    },
    {
        "Postcode": "81200",
        "Location": "Jalan Bukit Kempas 2/12",
        "Post_Office": "Johor Bahru",
        "State": "Johor"
    },
    {
        "Postcode": "81200",
        "Location": "Jalan Bukit Kempas 2/13",
        "Post_Office": "Johor Bahru",
        "State": "Johor"
    },
    {
        "Postcode": "81200",
        "Location": "Jalan Bukit Kempas 2/14",
        "Post_Office": "Johor Bahru",
        "State": "Johor"
    },
    {
        "Postcode": "81200",
        "Location": "Jalan Bukit Kempas 2/15",
        "Post_Office": "Johor Bahru",
        "State": "Johor"
    },
    {
        "Postcode": "81200",
        "Location": "Jalan Bukit Kempas 3",
        "Post_Office": "Johor Bahru",
        "State": "Johor"
    },
    {
        "Postcode": "81200",
        "Location": "Jalan Bukit Kempas 3/1",
        "Post_Office": "Johor Bahru",
        "State": "Johor"
    },
    {
        "Postcode": "81200",
        "Location": "Jalan Bukit Kempas 3/2",
        "Post_Office": "Johor Bahru",
        "State": "Johor"
    },
    {
        "Postcode": "81200",
        "Location": "Jalan Bukit Kempas 3/3",
        "Post_Office": "Johor Bahru",
        "State": "Johor"
    },
    {
        "Postcode": "81200",
        "Location": "Jalan Bukit Kempas 3/4",
        "Post_Office": "Johor Bahru",
        "State": "Johor"
    },
    {
        "Postcode": "81200",
        "Location": "Jalan Bukit Kempas 4",
        "Post_Office": "Johor Bahru",
        "State": "Johor"
    },
    {
        "Postcode": "81200",
        "Location": "Jalan Bukit Kempas 4/1",
        "Post_Office": "Johor Bahru",
        "State": "Johor"
    },
    {
        "Postcode": "81200",
        "Location": "Jalan Bukit Kempas 4/2",
        "Post_Office": "Johor Bahru",
        "State": "Johor"
    },
    {
        "Postcode": "81200",
        "Location": "Jalan Bukit Kempas 4/3",
        "Post_Office": "Johor Bahru",
        "State": "Johor"
    },
    {
        "Postcode": "81200",
        "Location": "Jalan Bukit Kempas 4/4",
        "Post_Office": "Johor Bahru",
        "State": "Johor"
    },
    {
        "Postcode": "81200",
        "Location": "Jalan Bukit Kempas 4/5",
        "Post_Office": "Johor Bahru",
        "State": "Johor"
    },
    {
        "Postcode": "81200",
        "Location": "Jalan Bukit Kempas 4/6",
        "Post_Office": "Johor Bahru",
        "State": "Johor"
    },
    {
        "Postcode": "81200",
        "Location": "Jalan Bukit Kempas 4/7",
        "Post_Office": "Johor Bahru",
        "State": "Johor"
    },
    {
        "Postcode": "81200",
        "Location": "Jalan Bukit Kempas 4/8",
        "Post_Office": "Johor Bahru",
        "State": "Johor"
    },
    {
        "Postcode": "81200",
        "Location": "Jalan Bukit Kempas 4/9",
        "Post_Office": "Johor Bahru",
        "State": "Johor"
    },
    {
        "Postcode": "81200",
        "Location": "Jalan Bukit Kempas 4/10",
        "Post_Office": "Johor Bahru",
        "State": "Johor"
    },
    {
        "Postcode": "81200",
        "Location": "Jalan Bukit Kempas 4/11",
        "Post_Office": "Johor Bahru",
        "State": "Johor"
    },
    {
        "Postcode": "81200",
        "Location": "Jalan Bukit Kempas 4/12",
        "Post_Office": "Johor Bahru",
        "State": "Johor"
    },
    {
        "Postcode": "81200",
        "Location": "Jalan Bukit Kempas 4/13",
        "Post_Office": "Johor Bahru",
        "State": "Johor"
    },
    {
        "Postcode": "81200",
        "Location": "Jalan Bukit Kempas 4/14",
        "Post_Office": "Johor Bahru",
        "State": "Johor"
    },
    {
        "Postcode": "81200",
        "Location": "Jalan Bukit Kempas 4/15",
        "Post_Office": "Johor Bahru",
        "State": "Johor"
    },
    {
        "Postcode": "81200",
        "Location": "Jalan Bukit Kempas 4/16",
        "Post_Office": "Johor Bahru",
        "State": "Johor"
    },
    {
        "Postcode": "81200",
        "Location": "Jalan Bukit Kempas 5",
        "Post_Office": "Johor Bahru",
        "State": "Johor"
    },
    {
        "Postcode": "81200",
        "Location": "Jalan Bukit Kempas 5/1",
        "Post_Office": "Johor Bahru",
        "State": "Johor"
    },
    {
        "Postcode": "81200",
        "Location": "Jalan Bukit Kempas 5/2",
        "Post_Office": "Johor Bahru",
        "State": "Johor"
    },
    {
        "Postcode": "81200",
        "Location": "Jalan Bukit Kempas 5/3",
        "Post_Office": "Johor Bahru",
        "State": "Johor"
    },
    {
        "Postcode": "81200",
        "Location": "Jalan Bukit Kempas 5/4",
        "Post_Office": "Johor Bahru",
        "State": "Johor"
    },
    {
        "Postcode": "81200",
        "Location": "Jalan Bukit Kempas 5/5",
        "Post_Office": "Johor Bahru",
        "State": "Johor"
    },
    {
        "Postcode": "81200",
        "Location": "Jalan Bukit Kempas 5/6",
        "Post_Office": "Johor Bahru",
        "State": "Johor"
    },
    {
        "Postcode": "81200",
        "Location": "Jalan Bukit Kempas Utama",
        "Post_Office": "Johor Bahru",
        "State": "Johor"
    },
    {
        "Postcode": "81200",
        "Location": "Jalan Bulatan",
        "Post_Office": "Johor Bahru",
        "State": "Johor"
    },
    {
        "Postcode": "81200",
        "Location": "Jalan Buluh",
        "Post_Office": "Johor Bahru",
        "State": "Johor"
    },
    {
        "Postcode": "81200",
        "Location": "Jalan Buruh",
        "Post_Office": "Johor Bahru",
        "State": "Johor"
    },
    {
        "Postcode": "81200",
        "Location": "Jalan Camah",
        "Post_Office": "Johor Bahru",
        "State": "Johor"
    },
    {
        "Postcode": "81200",
        "Location": "Jalan Camar",
        "Post_Office": "Johor Bahru",
        "State": "Johor"
    },
    {
        "Postcode": "81200",
        "Location": "Jalan Capt Wan Ngah",
        "Post_Office": "Johor Bahru",
        "State": "Johor"
    },
    {
        "Postcode": "81200",
        "Location": "Jalan Cengkerik",
        "Post_Office": "Johor Bahru",
        "State": "Johor"
    },
    {
        "Postcode": "81200",
        "Location": "Jalan Cermai",
        "Post_Office": "Johor Bahru",
        "State": "Johor"
    },
    {
        "Postcode": "81200",
        "Location": "Jalan Dato Abd. Hamid",
        "Post_Office": "Johor Bahru",
        "State": "Johor"
    },
    {
        "Postcode": "81200",
        "Location": "Jalan Dato Abdul Hamid",
        "Post_Office": "Johor Bahru",
        "State": "Johor"
    },
    {
        "Postcode": "81200",
        "Location": "Jalan Dato Abu Bakar",
        "Post_Office": "Johor Bahru",
        "State": "Johor"
    },
    {
        "Postcode": "81200",
        "Location": "Jalan Dato Daud",
        "Post_Office": "Johor Bahru",
        "State": "Johor"
    },
    {
        "Postcode": "81200",
        "Location": "Jalan Dato Esa",
        "Post_Office": "Johor Bahru",
        "State": "Johor"
    },
    {
        "Postcode": "81200",
        "Location": "Jalan Dato Haji Md Said",
        "Post_Office": "Johor Bahru",
        "State": "Johor"
    },
    {
        "Postcode": "81200",
        "Location": "Jalan Dato Md Seth",
        "Post_Office": "Johor Bahru",
        "State": "Johor"
    },
    {
        "Postcode": "81200",
        "Location": "Jalan Dato Muttutambi",
        "Post_Office": "Johor Bahru",
        "State": "Johor"
    },
    {
        "Postcode": "81200",
        "Location": "Jalan Dato Toh Ah Boon",
        "Post_Office": "Johor Bahru",
        "State": "Johor"
    },
    {
        "Postcode": "81200",
        "Location": "Jalan Denai",
        "Post_Office": "Johor Bahru",
        "State": "Johor"
    },
    {
        "Postcode": "81200",
        "Location": "Jalan Denai Utama",
        "Post_Office": "Johor Bahru",
        "State": "Johor"
    },
    {
        "Postcode": "81200",
        "Location": "Jalan Dian",
        "Post_Office": "Johor Bahru",
        "State": "Johor"
    },
    {
        "Postcode": "81200",
        "Location": "Jalan Dian Utama",
        "Post_Office": "Johor Bahru",
        "State": "Johor"
    },
    {
        "Postcode": "81200",
        "Location": "Jalan Galian",
        "Post_Office": "Johor Bahru",
        "State": "Johor"
    },
    {
        "Postcode": "81200",
        "Location": "Jalan Haiwan",
        "Post_Office": "Johor Bahru",
        "State": "Johor"
    },
    {
        "Postcode": "81200",
        "Location": "Jalan Hasil",
        "Post_Office": "Johor Bahru",
        "State": "Johor"
    },
    {
        "Postcode": "81200",
        "Location": "Jalan Hospital Permai",
        "Post_Office": "Johor Bahru",
        "State": "Johor"
    },
    {
        "Postcode": "81200",
        "Location": "Jalan Jagong",
        "Post_Office": "Johor Bahru",
        "State": "Johor"
    },
    {
        "Postcode": "81200",
        "Location": "Jalan Jening",
        "Post_Office": "Johor Bahru",
        "State": "Johor"
    },
    {
        "Postcode": "81200",
        "Location": "Jalan Jering",
        "Post_Office": "Johor Bahru",
        "State": "Johor"
    },
    {
        "Postcode": "81200",
        "Location": "Jalan Kacung",
        "Post_Office": "Johor Bahru",
        "State": "Johor"
    },
    {
        "Postcode": "81200",
        "Location": "Jalan Kalong",
        "Post_Office": "Johor Bahru",
        "State": "Johor"
    },
    {
        "Postcode": "81200",
        "Location": "Jalan Kampung Baru Kempas",
        "Post_Office": "Johor Bahru",
        "State": "Johor"
    },
    {
        "Postcode": "81200",
        "Location": "Jalan Kebajikan",
        "Post_Office": "Johor Bahru",
        "State": "Johor"
    },
    {
        "Postcode": "81200",
        "Location": "Jalan Kebudayaan",
        "Post_Office": "Johor Bahru",
        "State": "Johor"
    },
    {
        "Postcode": "81200",
        "Location": "Jalan Kedondong",
        "Post_Office": "Johor Bahru",
        "State": "Johor"
    },
    {
        "Postcode": "81200",
        "Location": "Jalan Kehakiman",
        "Post_Office": "Johor Bahru",
        "State": "Johor"
    },
    {
        "Postcode": "81200",
        "Location": "Jalan Kemang",
        "Post_Office": "Johor Bahru",
        "State": "Johor"
    },
    {
        "Postcode": "81200",
        "Location": "Jalan Kepong",
        "Post_Office": "Johor Bahru",
        "State": "Johor"
    },
    {
        "Postcode": "81200",
        "Location": "Jalan Kesemak",
        "Post_Office": "Johor Bahru",
        "State": "Johor"
    },
    {
        "Postcode": "81200",
        "Location": "Jalan Kesihatan",
        "Post_Office": "Johor Bahru",
        "State": "Johor"
    },
    {
        "Postcode": "81200",
        "Location": "Jalan Kewangan",
        "Post_Office": "Johor Bahru",
        "State": "Johor"
    },
    {
        "Postcode": "81200",
        "Location": "Jalan Kolonel Musa",
        "Post_Office": "Johor Bahru",
        "State": "Johor"
    },
    {
        "Postcode": "81200",
        "Location": "Jalan Kosa",
        "Post_Office": "Johor Bahru",
        "State": "Johor"
    },
    {
        "Postcode": "81200",
        "Location": "Jalan Kuini",
        "Post_Office": "Johor Bahru",
        "State": "Johor"
    },
    {
        "Postcode": "81200",
        "Location": "Jalan Kupu-Kupu",
        "Post_Office": "Johor Bahru",
        "State": "Johor"
    },
    {
        "Postcode": "81200",
        "Location": "Jalan Lambak",
        "Post_Office": "Johor Bahru",
        "State": "Johor"
    },
    {
        "Postcode": "81200",
        "Location": "Jalan Layang",
        "Post_Office": "Johor Bahru",
        "State": "Johor"
    },
    {
        "Postcode": "81200",
        "Location": "Jalan Ledang",
        "Post_Office": "Johor Bahru",
        "State": "Johor"
    },
    {
        "Postcode": "81200",
        "Location": "Jalan Limau Kasturi",
        "Post_Office": "Johor Bahru",
        "State": "Johor"
    },
    {
        "Postcode": "81200",
        "Location": "Jalan Limau Manis",
        "Post_Office": "Johor Bahru",
        "State": "Johor"
    },
    {
        "Postcode": "81200",
        "Location": "Jalan Lot Musa",
        "Post_Office": "Johor Bahru",
        "State": "Johor"
    },
    {
        "Postcode": "81200",
        "Location": "Jalan Major Abu",
        "Post_Office": "Johor Bahru",
        "State": "Johor"
    },
    {
        "Postcode": "81200",
        "Location": "Jalan Mata Kuching",
        "Post_Office": "Johor Bahru",
        "State": "Johor"
    },
    {
        "Postcode": "81200",
        "Location": "Jalan Mejar Agil",
        "Post_Office": "Johor Bahru",
        "State": "Johor"
    },
    {
        "Postcode": "81200",
        "Location": "Jalan Mempelam",
        "Post_Office": "Johor Bahru",
        "State": "Johor"
    },
    {
        "Postcode": "81200",
        "Location": "Jalan Mentahak",
        "Post_Office": "Johor Bahru",
        "State": "Johor"
    },
    {
        "Postcode": "81200",
        "Location": "Jalan Nanas",
        "Post_Office": "Johor Bahru",
        "State": "Johor"
    },
    {
        "Postcode": "81200",
        "Location": "Jalan Nangka",
        "Post_Office": "Johor Bahru",
        "State": "Johor"
    },
    {
        "Postcode": "81200",
        "Location": "Jalan Nona",
        "Post_Office": "Johor Bahru",
        "State": "Johor"
    },
    {
        "Postcode": "81200",
        "Location": "Jalan Padi",
        "Post_Office": "Johor Bahru",
        "State": "Johor"
    },
    {
        "Postcode": "81200",
        "Location": "Jalan Padi Huma",
        "Post_Office": "Johor Bahru",
        "State": "Johor"
    },
    {
        "Postcode": "81200",
        "Location": "Jalan Padi Mahsuri",
        "Post_Office": "Johor Bahru",
        "State": "Johor"
    },
    {
        "Postcode": "81200",
        "Location": "Jalan Padi Mahsuri 1/1",
        "Post_Office": "Johor Bahru",
        "State": "Johor"
    },
    {
        "Postcode": "81200",
        "Location": "Jalan Padi Mahsuri 10",
        "Post_Office": "Johor Bahru",
        "State": "Johor"
    },
    {
        "Postcode": "81200",
        "Location": "Jalan Padi Mahsuri 11",
        "Post_Office": "Johor Bahru",
        "State": "Johor"
    },
    {
        "Postcode": "81200",
        "Location": "Jalan Padi Mahsuri 12",
        "Post_Office": "Johor Bahru",
        "State": "Johor"
    },
    {
        "Postcode": "81200",
        "Location": "Jalan Padi Mahsuri 13",
        "Post_Office": "Johor Bahru",
        "State": "Johor"
    },
    {
        "Postcode": "81200",
        "Location": "Jalan Padi Mahsuri 14",
        "Post_Office": "Johor Bahru",
        "State": "Johor"
    },
    {
        "Postcode": "81200",
        "Location": "Jalan Padi Mahsuri 15",
        "Post_Office": "Johor Bahru",
        "State": "Johor"
    },
    {
        "Postcode": "81200",
        "Location": "Jalan Padi Mahsuri 16",
        "Post_Office": "Johor Bahru",
        "State": "Johor"
    },
    {
        "Postcode": "81200",
        "Location": "Jalan Padi Mahsuri 2",
        "Post_Office": "Johor Bahru",
        "State": "Johor"
    },
    {
        "Postcode": "81200",
        "Location": "Jalan Padi Mahsuri 2/1",
        "Post_Office": "Johor Bahru",
        "State": "Johor"
    },
    {
        "Postcode": "81200",
        "Location": "Jalan Padi Mahsuri 2/2",
        "Post_Office": "Johor Bahru",
        "State": "Johor"
    },
    {
        "Postcode": "81200",
        "Location": "Jalan Padi Mahsuri 2/3",
        "Post_Office": "Johor Bahru",
        "State": "Johor"
    },
    {
        "Postcode": "81200",
        "Location": "Jalan Padi Mahsuri 2/4",
        "Post_Office": "Johor Bahru",
        "State": "Johor"
    },
    {
        "Postcode": "81200",
        "Location": "Jalan Padi Mahsuri 2/5",
        "Post_Office": "Johor Bahru",
        "State": "Johor"
    },
    {
        "Postcode": "81200",
        "Location": "Jalan Padi Mahsuri 2/6",
        "Post_Office": "Johor Bahru",
        "State": "Johor"
    },
    {
        "Postcode": "81200",
        "Location": "Jalan Padi Mahsuri 3",
        "Post_Office": "Johor Bahru",
        "State": "Johor"
    },
    {
        "Postcode": "81200",
        "Location": "Jalan Padi Mahsuri 4",
        "Post_Office": "Johor Bahru",
        "State": "Johor"
    },
    {
        "Postcode": "81200",
        "Location": "Jalan Padi Mahsuri 5",
        "Post_Office": "Johor Bahru",
        "State": "Johor"
    },
    {
        "Postcode": "81200",
        "Location": "Jalan Padi Mahsuri 5/1",
        "Post_Office": "Johor Bahru",
        "State": "Johor"
    },
    {
        "Postcode": "81200",
        "Location": "Jalan Padi Mahsuri 5/2",
        "Post_Office": "Johor Bahru",
        "State": "Johor"
    },
    {
        "Postcode": "81200",
        "Location": "Jalan Padi Mahsuri 6",
        "Post_Office": "Johor Bahru",
        "State": "Johor"
    },
    {
        "Postcode": "81200",
        "Location": "Jalan Padi Mahsuri 6/1",
        "Post_Office": "Johor Bahru",
        "State": "Johor"
    },
    {
        "Postcode": "81200",
        "Location": "Jalan Padi Mahsuri 6/2",
        "Post_Office": "Johor Bahru",
        "State": "Johor"
    },
    {
        "Postcode": "81200",
        "Location": "Jalan Padi Mahsuri 7",
        "Post_Office": "Johor Bahru",
        "State": "Johor"
    },
    {
        "Postcode": "81200",
        "Location": "Jalan Padi Mahsuri 8",
        "Post_Office": "Johor Bahru",
        "State": "Johor"
    },
    {
        "Postcode": "81200",
        "Location": "Jalan Padi Mahsuri 9",
        "Post_Office": "Johor Bahru",
        "State": "Johor"
    },
    {
        "Postcode": "81200",
        "Location": "Jalan Padi Malinja",
        "Post_Office": "Johor Bahru",
        "State": "Johor"
    },
    {
        "Postcode": "81200",
        "Location": "Jalan Padi Malinja 1 ",
        "Post_Office": "Johor Bahru",
        "State": "Johor"
    },
    {
        "Postcode": "81200",
        "Location": "Jalan Padi Ria",
        "Post_Office": "Johor Bahru",
        "State": "Johor"
    },
    {
        "Postcode": "81200",
        "Location": "Jalan Pala",
        "Post_Office": "Johor Bahru",
        "State": "Johor"
    },
    {
        "Postcode": "81200",
        "Location": "Jalan Panglin",
        "Post_Office": "Johor Bahru",
        "State": "Johor"
    },
    {
        "Postcode": "81200",
        "Location": "Jalan Panti",
        "Post_Office": "Johor Bahru",
        "State": "Johor"
    },
    {
        "Postcode": "81200",
        "Location": "Jalan Pekaka",
        "Post_Office": "Johor Bahru",
        "State": "Johor"
    },
    {
        "Postcode": "81200",
        "Location": "Jalan Pelajaran",
        "Post_Office": "Johor Bahru",
        "State": "Johor"
    },
    {
        "Postcode": "81200",
        "Location": "Jalan Pelalai",
        "Post_Office": "Johor Bahru",
        "State": "Johor"
    },
    {
        "Postcode": "81200",
        "Location": "Jalan Pelam Bengkok",
        "Post_Office": "Johor Bahru",
        "State": "Johor"
    },
    {
        "Postcode": "81200",
        "Location": "Jalan Pelam Damar",
        "Post_Office": "Johor Bahru",
        "State": "Johor"
    },
    {
        "Postcode": "81200",
        "Location": "Jalan Pelancongan",
        "Post_Office": "Johor Bahru",
        "State": "Johor"
    },
    {
        "Postcode": "81200",
        "Location": "Jalan Pembangunan",
        "Post_Office": "Johor Bahru",
        "State": "Johor"
    },
    {
        "Postcode": "81200",
        "Location": "Jalan Penerangan",
        "Post_Office": "Johor Bahru",
        "State": "Johor"
    },
    {
        "Postcode": "81200",
        "Location": "Jalan Pengangkutan",
        "Post_Office": "Johor Bahru",
        "State": "Johor"
    },
    {
        "Postcode": "81200",
        "Location": "Jalan Penyiaran",
        "Post_Office": "Johor Bahru",
        "State": "Johor"
    },
    {
        "Postcode": "81200",
        "Location": "Jalan Perhubungan",
        "Post_Office": "Johor Bahru",
        "State": "Johor"
    },
    {
        "Postcode": "81200",
        "Location": "Jalan Perhutanan",
        "Post_Office": "Johor Bahru",
        "State": "Johor"
    },
    {
        "Postcode": "81200",
        "Location": "Jalan Perindustrian",
        "Post_Office": "Johor Bahru",
        "State": "Johor"
    },
    {
        "Postcode": "81200",
        "Location": "Jalan Permatang Utama",
        "Post_Office": "Johor Bahru",
        "State": "Johor"
    },
    {
        "Postcode": "81200",
        "Location": "Jalan Persiaran Tanjung",
        "Post_Office": "Johor Bahru",
        "State": "Johor"
    },
    {
        "Postcode": "81200",
        "Location": "Jalan Persisiran",
        "Post_Office": "Johor Bahru",
        "State": "Johor"
    },
    {
        "Postcode": "81200",
        "Location": "Jalan Persisiran Dahlia",
        "Post_Office": "Johor Bahru",
        "State": "Johor"
    },
    {
        "Postcode": "81200",
        "Location": "Jalan Persisiran Perling",
        "Post_Office": "Johor Bahru",
        "State": "Johor"
    },
    {
        "Postcode": "81200",
        "Location": "Jalan Pertahanan",
        "Post_Office": "Johor Bahru",
        "State": "Johor"
    },
    {
        "Postcode": "81200",
        "Location": "Jalan Pertanian",
        "Post_Office": "Johor Bahru",
        "State": "Johor"
    },
    {
        "Postcode": "81200",
        "Location": "Jalan Perusahaan",
        "Post_Office": "Johor Bahru",
        "State": "Johor"
    },
    {
        "Postcode": "81200",
        "Location": "Jalan Petai",
        "Post_Office": "Johor Bahru",
        "State": "Johor"
    },
    {
        "Postcode": "81200",
        "Location": "Jalan Petawai",
        "Post_Office": "Johor Bahru",
        "State": "Johor"
    },
    {
        "Postcode": "81200",
        "Location": "Jalan Pisang",
        "Post_Office": "Johor Bahru",
        "State": "Johor"
    },
    {
        "Postcode": "81200",
        "Location": "Jalan Pulau",
        "Post_Office": "Johor Bahru",
        "State": "Johor"
    },
    {
        "Postcode": "81200",
        "Location": "Jalan Pulau 1",
        "Post_Office": "Johor Bahru",
        "State": "Johor"
    },
    {
        "Postcode": "81200",
        "Location": "Jalan Rambai",
        "Post_Office": "Johor Bahru",
        "State": "Johor"
    },
    {
        "Postcode": "81200",
        "Location": "Jalan Rantai 5",
        "Post_Office": "Johor Bahru",
        "State": "Johor"
    },
    {
        "Postcode": "81200",
        "Location": "Jalan Riang Ria 1",
        "Post_Office": "Johor Bahru",
        "State": "Johor"
    },
    {
        "Postcode": "81200",
        "Location": "Jalan Riang Utama",
        "Post_Office": "Johor Bahru",
        "State": "Johor"
    },
    {
        "Postcode": "81200",
        "Location": "Jalan Salak",
        "Post_Office": "Johor Bahru",
        "State": "Johor"
    },
    {
        "Postcode": "81200",
        "Location": "Jalan Sawa",
        "Post_Office": "Johor Bahru",
        "State": "Johor"
    },
    {
        "Postcode": "81200",
        "Location": "Jalan Segenting",
        "Post_Office": "Johor Bahru",
        "State": "Johor"
    },
    {
        "Postcode": "81200",
        "Location": "Jalan Sekoi",
        "Post_Office": "Johor Bahru",
        "State": "Johor"
    },
    {
        "Postcode": "81200",
        "Location": "Jalan Selat",
        "Post_Office": "Johor Bahru",
        "State": "Johor"
    },
    {
        "Postcode": "81200",
        "Location": "Jalan Selat 1",
        "Post_Office": "Johor Bahru",
        "State": "Johor"
    },
    {
        "Postcode": "81200",
        "Location": "Jalan Semangka",
        "Post_Office": "Johor Bahru",
        "State": "Johor"
    },
    {
        "Postcode": "81200",
        "Location": "Jalan Semenanjung",
        "Post_Office": "Johor Bahru",
        "State": "Johor"
    },
    {
        "Postcode": "81200",
        "Location": "Jalan Semikai",
        "Post_Office": "Johor Bahru",
        "State": "Johor"
    },
    {
        "Postcode": "81200",
        "Location": "Jalan Sengkuang",
        "Post_Office": "Johor Bahru",
        "State": "Johor"
    },
    {
        "Postcode": "81200",
        "Location": "Jalan Seri Panti",
        "Post_Office": "Johor Bahru",
        "State": "Johor"
    },
    {
        "Postcode": "81200",
        "Location": "Jalan Skudai (Batu 4 1/4 - 6 1/2)",
        "Post_Office": "Johor Bahru",
        "State": "Johor"
    },
    {
        "Postcode": "81200",
        "Location": "Jalan Skudai (Km 7 - 13)",
        "Post_Office": "Johor Bahru",
        "State": "Johor"
    },
    {
        "Postcode": "81200",
        "Location": "Jalan Skudai Kanan",
        "Post_Office": "Johor Bahru",
        "State": "Johor"
    },
    {
        "Postcode": "81200",
        "Location": "Jalan Subang",
        "Post_Office": "Johor Bahru",
        "State": "Johor"
    },
    {
        "Postcode": "81200",
        "Location": "Jalan Sumalayang",
        "Post_Office": "Johor Bahru",
        "State": "Johor"
    },
    {
        "Postcode": "81200",
        "Location": "Jalan Sungai Melayu",
        "Post_Office": "Johor Bahru",
        "State": "Johor"
    },
    {
        "Postcode": "81200",
        "Location": "Jalan Susu",
        "Post_Office": "Johor Bahru",
        "State": "Johor"
    },
    {
        "Postcode": "81200",
        "Location": "Jalan Tampoi (Km 1 Hingga Km 9)",
        "Post_Office": "Johor Bahru",
        "State": "Johor"
    },
    {
        "Postcode": "81200",
        "Location": "Jalan Tan Hack Kiat",
        "Post_Office": "Johor Bahru",
        "State": "Johor"
    },
    {
        "Postcode": "81200",
        "Location": "Jalan Tanjong",
        "Post_Office": "Johor Bahru",
        "State": "Johor"
    },
    {
        "Postcode": "81200",
        "Location": "Jalan Tanjong 1",
        "Post_Office": "Johor Bahru",
        "State": "Johor"
    },
    {
        "Postcode": "81200",
        "Location": "Jalan Telok 1",
        "Post_Office": "Johor Bahru",
        "State": "Johor"
    },
    {
        "Postcode": "81200",
        "Location": "Jalan Teluk",
        "Post_Office": "Johor Bahru",
        "State": "Johor"
    },
    {
        "Postcode": "81200",
        "Location": "Jalan Tok Ah Boon",
        "Post_Office": "Johor Bahru",
        "State": "Johor"
    },
    {
        "Postcode": "81200",
        "Location": "Jalan Tomato",
        "Post_Office": "Johor Bahru",
        "State": "Johor"
    },
    {
        "Postcode": "81200",
        "Location": "Jalan Ubi",
        "Post_Office": "Johor Bahru",
        "State": "Johor"
    },
    {
        "Postcode": "81200",
        "Location": "Jalan Undan",
        "Post_Office": "Johor Bahru",
        "State": "Johor"
    },
    {
        "Postcode": "81200",
        "Location": "Jalan Zaiton",
        "Post_Office": "Johor Bahru",
        "State": "Johor"
    },
    {
        "Postcode": "81200",
        "Location": "Kampung Bukit Alif",
        "Post_Office": "Johor Bahru",
        "State": "Johor"
    },
    {
        "Postcode": "81200",
        "Location": "Kampung Denai Pinggiran",
        "Post_Office": "Johor Bahru",
        "State": "Johor"
    },
    {
        "Postcode": "81200",
        "Location": "Kampung Pasir Baru",
        "Post_Office": "Johor Bahru",
        "State": "Johor"
    },
    {
        "Postcode": "81200",
        "Location": "Kampung Pengkalan Rinting",
        "Post_Office": "Johor Bahru",
        "State": "Johor"
    },
    {
        "Postcode": "81200",
        "Location": "Kampung Seri Jaya",
        "Post_Office": "Johor Bahru",
        "State": "Johor"
    },
    {
        "Postcode": "81200",
        "Location": "Kampung Seri Serdang",
        "Post_Office": "Johor Bahru",
        "State": "Johor"
    },
    {
        "Postcode": "81200",
        "Location": "Kampung Seri Serdang Baru",
        "Post_Office": "Johor Bahru",
        "State": "Johor"
    },
    {
        "Postcode": "81200",
        "Location": "Kampung Skudai Kiri",
        "Post_Office": "Johor Bahru",
        "State": "Johor"
    },
    {
        "Postcode": "81200",
        "Location": "Kampung Sri Permai",
        "Post_Office": "Johor Bahru",
        "State": "Johor"
    },
    {
        "Postcode": "81200",
        "Location": "Kampung Sri Rahmat 2",
        "Post_Office": "Johor Bahru",
        "State": "Johor"
    },
    {
        "Postcode": "81200",
        "Location": "Kampung Sungai Danga",
        "Post_Office": "Johor Bahru",
        "State": "Johor"
    },
    {
        "Postcode": "81200",
        "Location": "Kampung Sungai Perling",
        "Post_Office": "Johor Bahru",
        "State": "Johor"
    },
    {
        "Postcode": "81200",
        "Location": "Kampung Sungai Tenom",
        "Post_Office": "Johor Bahru",
        "State": "Johor"
    },
    {
        "Postcode": "81200",
        "Location": "Kampung Telok Serdang",
        "Post_Office": "Johor Bahru",
        "State": "Johor"
    },
    {
        "Postcode": "81200",
        "Location": "Kampung Teluk Serdang Pinggir",
        "Post_Office": "Johor Bahru",
        "State": "Johor"
    },
    {
        "Postcode": "81200",
        "Location": "Kampung Tuah Jaya",
        "Post_Office": "Johor Bahru",
        "State": "Johor"
    },
    {
        "Postcode": "81200",
        "Location": "Kawasan Perindustrian Tampoi",
        "Post_Office": "Johor Bahru",
        "State": "Johor"
    },
    {
        "Postcode": "81200",
        "Location": "Kawasan Perumahan Mara",
        "Post_Office": "Johor Bahru",
        "State": "Johor"
    },
    {
        "Postcode": "81200",
        "Location": "Kempas",
        "Post_Office": "Johor Bahru",
        "State": "Johor"
    },
    {
        "Postcode": "81200",
        "Location": "Kondominium Sri Kenari",
        "Post_Office": "Johor Bahru",
        "State": "Johor"
    },
    {
        "Postcode": "81200",
        "Location": "Kondominium Sri Wangi",
        "Post_Office": "Johor Bahru",
        "State": "Johor"
    },
    {
        "Postcode": "81200",
        "Location": "Kuarters Hospital Permai",
        "Post_Office": "Johor Bahru",
        "State": "Johor"
    },
    {
        "Postcode": "81200",
        "Location": "Lebuhraya Pasir Gudang",
        "Post_Office": "Johor Bahru",
        "State": "Johor"
    },
    {
        "Postcode": "81200",
        "Location": "Lebuhraya Pasir Gudang Km1 - Km5",
        "Post_Office": "Johor Bahru",
        "State": "Johor"
    },
    {
        "Postcode": "81200",
        "Location": "Lorong Aman (Tampoi)",
        "Post_Office": "Johor Bahru",
        "State": "Johor"
    },
    {
        "Postcode": "81200",
        "Location": "Lorong Surau Kiri",
        "Post_Office": "Johor Bahru",
        "State": "Johor"
    },
    {
        "Postcode": "81200",
        "Location": "Lorong Wong Hee Choo",
        "Post_Office": "Johor Bahru",
        "State": "Johor"
    },
    {
        "Postcode": "81200",
        "Location": "Lorong Zaiton",
        "Post_Office": "Johor Bahru",
        "State": "Johor"
    },
    {
        "Postcode": "81200",
        "Location": "Pekan Rabu",
        "Post_Office": "Johor Bahru",
        "State": "Johor"
    },
    {
        "Postcode": "81200",
        "Location": "Persairan Siantan",
        "Post_Office": "Johor Bahru",
        "State": "Johor"
    },
    {
        "Postcode": "81200",
        "Location": "Persiaran Dahlia",
        "Post_Office": "Johor Bahru",
        "State": "Johor"
    },
    {
        "Postcode": "81200",
        "Location": "Persiaran Perling 1",
        "Post_Office": "Johor Bahru",
        "State": "Johor"
    },
    {
        "Postcode": "81200",
        "Location": "Persiaran Selasih",
        "Post_Office": "Johor Bahru",
        "State": "Johor"
    },
    {
        "Postcode": "81200",
        "Location": "Perumahan Kobena",
        "Post_Office": "Johor Bahru",
        "State": "Johor"
    },
    {
        "Postcode": "81200",
        "Location": "Perumahan Mara",
        "Post_Office": "Johor Bahru",
        "State": "Johor"
    },
    {
        "Postcode": "81200",
        "Location": "Plaza Angsana",
        "Post_Office": "Johor Bahru",
        "State": "Johor"
    },
    {
        "Postcode": "81200",
        "Location": "Pulai View Condominium",
        "Post_Office": "Johor Bahru",
        "State": "Johor"
    },
    {
        "Postcode": "81200",
        "Location": "Pusat Insaf Diri",
        "Post_Office": "Johor Bahru",
        "State": "Johor"
    },
    {
        "Postcode": "81200",
        "Location": "River Ris Condo",
        "Post_Office": "Johor Bahru",
        "State": "Johor"
    },
    {
        "Postcode": "81200",
        "Location": "Rumah Rakyat Sedc",
        "Post_Office": "Johor Bahru",
        "State": "Johor"
    },
    {
        "Postcode": "81200",
        "Location": "Taman Bukit Kempas",
        "Post_Office": "Johor Bahru",
        "State": "Johor"
    },
    {
        "Postcode": "81200",
        "Location": "Taman Bukit Mewah",
        "Post_Office": "Johor Bahru",
        "State": "Johor"
    },
    {
        "Postcode": "81200",
        "Location": "Taman Casa Amira",
        "Post_Office": "Johor Bahru",
        "State": "Johor"
    },
    {
        "Postcode": "81200",
        "Location": "Taman D' Utama",
        "Post_Office": "Johor Bahru",
        "State": "Johor"
    },
    {
        "Postcode": "81200",
        "Location": "Taman Damansara Aliff",
        "Post_Office": "Johor Bahru",
        "State": "Johor"
    },
    {
        "Postcode": "81200",
        "Location": "Taman Dato Penggawa Barat",
        "Post_Office": "Johor Bahru",
        "State": "Johor"
    },
    {
        "Postcode": "81200",
        "Location": "Taman Desa Kempas",
        "Post_Office": "Johor Bahru",
        "State": "Johor"
    },
    {
        "Postcode": "81200",
        "Location": "Taman Desa Rahmat",
        "Post_Office": "Johor Bahru",
        "State": "Johor"
    },
    {
        "Postcode": "81200",
        "Location": "Taman Gembira (Tampoi)",
        "Post_Office": "Johor Bahru",
        "State": "Johor"
    },
    {
        "Postcode": "81200",
        "Location": "Taman Johor",
        "Post_Office": "Johor Bahru",
        "State": "Johor"
    },
    {
        "Postcode": "81200",
        "Location": "Taman Kemas",
        "Post_Office": "Johor Bahru",
        "State": "Johor"
    },
    {
        "Postcode": "81200",
        "Location": "Taman Kempas",
        "Post_Office": "Johor Bahru",
        "State": "Johor"
    },
    {
        "Postcode": "81200",
        "Location": "Taman Kempas Baru",
        "Post_Office": "Johor Bahru",
        "State": "Johor"
    },
    {
        "Postcode": "81200",
        "Location": "Taman Kempas Utama Industri Dan Perdagangan",
        "Post_Office": "Johor Bahru",
        "State": "Johor"
    },
    {
        "Postcode": "81200",
        "Location": "Taman Kobena",
        "Post_Office": "Johor Bahru",
        "State": "Johor"
    },
    {
        "Postcode": "81200",
        "Location": "Taman Laguna",
        "Post_Office": "Johor Bahru",
        "State": "Johor"
    },
    {
        "Postcode": "81200",
        "Location": "Taman Munshi Ibrahim",
        "Post_Office": "Johor Bahru",
        "State": "Johor"
    },
    {
        "Postcode": "81200",
        "Location": "Taman Perindustrian Tampoi",
        "Post_Office": "Johor Bahru",
        "State": "Johor"
    },
    {
        "Postcode": "81200",
        "Location": "Taman Setia Tropika",
        "Post_Office": "Johor Bahru",
        "State": "Johor"
    },
    {
        "Postcode": "81200",
        "Location": "Taman Sinaran Harapan",
        "Post_Office": "Johor Bahru",
        "State": "Johor"
    },
    {
        "Postcode": "81200",
        "Location": "Taman Sinaran Kempas",
        "Post_Office": "Johor Bahru",
        "State": "Johor"
    },
    {
        "Postcode": "81200",
        "Location": "Taman Skudai Kanan",
        "Post_Office": "Johor Bahru",
        "State": "Johor"
    },
    {
        "Postcode": "81200",
        "Location": "Taman Sri Putra",
        "Post_Office": "Johor Bahru",
        "State": "Johor"
    },
    {
        "Postcode": "81200",
        "Location": "Taman Tampoi",
        "Post_Office": "Johor Bahru",
        "State": "Johor"
    },
    {
        "Postcode": "81200",
        "Location": "Taman Tampoi Indah",
        "Post_Office": "Johor Bahru",
        "State": "Johor"
    },
    {
        "Postcode": "81200",
        "Location": "Taman Tampoi Indah Ii",
        "Post_Office": "Johor Bahru",
        "State": "Johor"
    },
    {
        "Postcode": "81200",
        "Location": "Taman Tampoi Jaya",
        "Post_Office": "Johor Bahru",
        "State": "Johor"
    },
    {
        "Postcode": "81200",
        "Location": "Taman Tampoi Utama",
        "Post_Office": "Johor Bahru",
        "State": "Johor"
    },
    {
        "Postcode": "81200",
        "Location": "Taman Uda Utama",
        "Post_Office": "Johor Bahru",
        "State": "Johor"
    },
    {
        "Postcode": "81200",
        "Location": "Taman Villa Ros",
        "Post_Office": "Johor Bahru",
        "State": "Johor"
    },
    {
        "Postcode": "81200",
        "Location": "Tampoi",
        "Post_Office": "Johor Bahru",
        "State": "Johor"
    },
    {
        "Postcode": "81200",
        "Location": "View Danga Bay",
        "Post_Office": "Johor Bahru",
        "State": "Johor"
    },
    {
        "Postcode": "81200",
        "Location": "Wisma Pahlawan",
        "Post_Office": "Johor Bahru",
        "State": "Johor"
    },
    {
        "Postcode": "81200",
        "Location": "Jalan Uda Utama 1/1",
        "Post_Office": "Johor Bahru",
        "State": "Johor"
    },
    {
        "Postcode": "81200",
        "Location": "Kawasan Perindustrian Taman Tampoi Indah",
        "Post_Office": "Johor Bahru",
        "State": "Johor"
    },
    {
        "Postcode": "81200",
        "Location": "Kawasan Perniagaan Indah",
        "Post_Office": "Johor Bahru",
        "State": "Johor"
    },
    {
        "Postcode": "81200",
        "Location": "Kampung Hajah Fatimah",
        "Post_Office": "Johor Bahru",
        "State": "Johor"
    },
    {
        "Postcode": "81200",
        "Location": "Kampung Usaha Jaya",
        "Post_Office": "Johor Bahru",
        "State": "Johor"
    },
    {
        "Postcode": "81200",
        "Location": "Pusat Perdagangan Danga Utama",
        "Post_Office": "Johor Bahru",
        "State": "Johor"
    },
    {
        "Postcode": "81200",
        "Location": "Taman Kenanga",
        "Post_Office": "Johor Bahru",
        "State": "Johor"
    },
    {
        "Postcode": "81200",
        "Location": "Taman Mulia",
        "Post_Office": "Johor Bahru",
        "State": "Johor"
    },
    {
        "Postcode": "81200",
        "Location": "Taman Selasih",
        "Post_Office": "Johor Bahru",
        "State": "Johor"
    },
    {
        "Postcode": "81200",
        "Location": "Jalan Dahlia",
        "Post_Office": "Johor Bahru",
        "State": "Johor"
    },
    {
        "Postcode": "81200",
        "Location": "Kampung Pasir",
        "Post_Office": "Johor Bahru",
        "State": "Johor"
    },
    {
        "Postcode": "81200",
        "Location": "Taman Anggerik",
        "Post_Office": "Johor Bahru",
        "State": "Johor"
    },
    {
        "Postcode": "81200",
        "Location": "Taman Dahlia",
        "Post_Office": "Johor Bahru",
        "State": "Johor"
    },
    {
        "Postcode": "81200",
        "Location": "Taman Indah",
        "Post_Office": "Johor Bahru",
        "State": "Johor"
    },
    {
        "Postcode": "81200",
        "Location": "Taman Intan",
        "Post_Office": "Johor Bahru",
        "State": "Johor"
    },
    {
        "Postcode": "81200",
        "Location": "Taman Melati",
        "Post_Office": "Johor Bahru",
        "State": "Johor"
    },
    {
        "Postcode": "81200",
        "Location": "Taman Perling",
        "Post_Office": "Johor Bahru",
        "State": "Johor"
    },
    {
        "Postcode": "81200",
        "Location": "Taman Siantan",
        "Post_Office": "Johor Bahru",
        "State": "Johor"
    },
    {
        "Postcode": "81200",
        "Location": "Taman Sutera",
        "Post_Office": "Johor Bahru",
        "State": "Johor"
    },
    {
        "Postcode": "81200",
        "Location": "Taman Baiduri",
        "Post_Office": "Johor Bahru",
        "State": "Johor"
    },
    {
        "Postcode": "81200",
        "Location": "Taman Cempaka",
        "Post_Office": "Johor Bahru",
        "State": "Johor"
    },
    {
        "Postcode": "81200",
        "Location": "Taman Melor",
        "Post_Office": "Johor Bahru",
        "State": "Johor"
    }
]
