[
    {
        "Postcode": "81300",
        "Location": "Taman Damai Jaya",
        "Post_Office": "Johor Bahru",
        "State": "Johor"
    },
    {
        "Postcode": "81300",
        "Location": "Taman Timur",
        "Post_Office": "Johor Bahru",
        "State": "Johor"
    },
    {
        "Postcode": "81300",
        "Location": "Jalan Kempas Lama",
        "Post_Office": "Johor Bahru",
        "State": "Johor"
    },
    {
        "Postcode": "81300",
        "Location": "Jalan Puyu",
        "Post_Office": "Johor Bahru",
        "State": "Johor"
    },
    {
        "Postcode": "81300",
        "Location": "Jalan Sepat",
        "Post_Office": "Johor Bahru",
        "State": "Johor"
    },
    {
        "Postcode": "81300",
        "Location": "Jalan Tapah",
        "Post_Office": "Johor Bahru",
        "State": "Johor"
    },
    {
        "Postcode": "81300",
        "Location": "Taman Ksl Pulai Spring",
        "Post_Office": "Johor Bahru",
        "State": "Johor"
    },
    {
        "Postcode": "81300",
        "Location": "Kangkar Pulai",
        "Post_Office": "Johor Bahru",
        "State": "Johor"
    },
    {
        "Postcode": "81300",
        "Location": "Taman Desa Skudai",
        "Post_Office": "Johor Bahru",
        "State": "Johor"
    },
    {
        "Postcode": "81300",
        "Location": "Taman Harmoni 1",
        "Post_Office": "Johor Bahru",
        "State": "Johor"
    },
    {
        "Postcode": "81300",
        "Location": "Taman Perindustrian Jb Perdana",
        "Post_Office": "Johor Bahru",
        "State": "Johor"
    },
    {
        "Postcode": "81300",
        "Location": "Taman Seri Orkid",
        "Post_Office": "Johor Bahru",
        "State": "Johor"
    },
    {
        "Postcode": "81300",
        "Location": "Taman Skudai Indah 2",
        "Post_Office": "Johor Bahru",
        "State": "Johor"
    },
    {
        "Postcode": "81300",
        "Location": "Taman Sri Pulai Perdana 2\t",
        "Post_Office": "Johor Bahru",
        "State": "Johor"
    },
    {
        "Postcode": "81300",
        "Location": "Taman Mutiara Jaya",
        "Post_Office": "Johor Bahru",
        "State": "Johor"
    },
    {
        "Postcode": "81300",
        "Location": "Taman Mutiara Mas",
        "Post_Office": "Johor Bahru",
        "State": "Johor"
    },
    {
        "Postcode": "81300",
        "Location": "Taman Tropika Arena",
        "Post_Office": "Skudai",
        "State": "Johor"
    },
    {
        "Postcode": "81300",
        "Location": "Bandar Baru Kangkar Pulai",
        "Post_Office": "Johor Bahru",
        "State": "Johor"
    },
    {
        "Postcode": "81300",
        "Location": "Batu 10 Skudai",
        "Post_Office": "Johor Bahru",
        "State": "Johor"
    },
    {
        "Postcode": "81300",
        "Location": "Jalan Bakak",
        "Post_Office": "Johor Bahru",
        "State": "Johor"
    },
    {
        "Postcode": "81300",
        "Location": "Jalan Baung",
        "Post_Office": "Johor Bahru",
        "State": "Johor"
    },
    {
        "Postcode": "81300",
        "Location": "Jalan Belida",
        "Post_Office": "Johor Bahru",
        "State": "Johor"
    },
    {
        "Postcode": "81300",
        "Location": "Jalan Besar Skudai",
        "Post_Office": "Johor Bahru",
        "State": "Johor"
    },
    {
        "Postcode": "81300",
        "Location": "Jalan Besi",
        "Post_Office": "Johor Bahru",
        "State": "Johor"
    },
    {
        "Postcode": "81300",
        "Location": "Jalan Bujuk",
        "Post_Office": "Johor Bahru",
        "State": "Johor"
    },
    {
        "Postcode": "81300",
        "Location": "Jalan Jelawat",
        "Post_Office": "Johor Bahru",
        "State": "Johor"
    },
    {
        "Postcode": "81300",
        "Location": "Jalan Jemerang",
        "Post_Office": "Johor Bahru",
        "State": "Johor"
    },
    {
        "Postcode": "81300",
        "Location": "Jalan Kaloi",
        "Post_Office": "Johor Bahru",
        "State": "Johor"
    },
    {
        "Postcode": "81300",
        "Location": "Jalan Keli",
        "Post_Office": "Johor Bahru",
        "State": "Johor"
    },
    {
        "Postcode": "81300",
        "Location": "Jalan Kelisa",
        "Post_Office": "Johor Bahru",
        "State": "Johor"
    },
    {
        "Postcode": "81300",
        "Location": "Jalan Kepar",
        "Post_Office": "Johor Bahru",
        "State": "Johor"
    },
    {
        "Postcode": "81300",
        "Location": "Jalan Kerai",
        "Post_Office": "Johor Bahru",
        "State": "Johor"
    },
    {
        "Postcode": "81300",
        "Location": "Jalan Lampan",
        "Post_Office": "Johor Bahru",
        "State": "Johor"
    },
    {
        "Postcode": "81300",
        "Location": "Jalan Lawang",
        "Post_Office": "Johor Bahru",
        "State": "Johor"
    },
    {
        "Postcode": "81300",
        "Location": "Jalan Limbat",
        "Post_Office": "Johor Bahru",
        "State": "Johor"
    },
    {
        "Postcode": "81300",
        "Location": "Jalan Patin",
        "Post_Office": "Johor Bahru",
        "State": "Johor"
    },
    {
        "Postcode": "81300",
        "Location": "Jalan Pelaga",
        "Post_Office": "Johor Bahru",
        "State": "Johor"
    },
    {
        "Postcode": "81300",
        "Location": "Jalan Sumpit",
        "Post_Office": "Johor Bahru",
        "State": "Johor"
    },
    {
        "Postcode": "81300",
        "Location": "Jalan Talapia",
        "Post_Office": "Johor Bahru",
        "State": "Johor"
    },
    {
        "Postcode": "81300",
        "Location": "Jalan Tengas",
        "Post_Office": "Johor Bahru",
        "State": "Johor"
    },
    {
        "Postcode": "81300",
        "Location": "Jalan Tilan",
        "Post_Office": "Johor Bahru",
        "State": "Johor"
    },
    {
        "Postcode": "81300",
        "Location": "Jalan Toman",
        "Post_Office": "Johor Bahru",
        "State": "Johor"
    },
    {
        "Postcode": "81300",
        "Location": "Kampung Baru Seri Aman",
        "Post_Office": "Johor Bahru",
        "State": "Johor"
    },
    {
        "Postcode": "81300",
        "Location": "Kampung Baru Skudai",
        "Post_Office": "Johor Bahru",
        "State": "Johor"
    },
    {
        "Postcode": "81300",
        "Location": "Kampung Batu 8 1/2",
        "Post_Office": "Johor Bahru",
        "State": "Johor"
    },
    {
        "Postcode": "81300",
        "Location": "Kampung India Jaya",
        "Post_Office": "Johor Bahru",
        "State": "Johor"
    },
    {
        "Postcode": "81300",
        "Location": "Kampung Kangkar Kecil",
        "Post_Office": "Johor Bahru",
        "State": "Johor"
    },
    {
        "Postcode": "81300",
        "Location": "Kampung Melayu Kangkar Pulai",
        "Post_Office": "Johor Bahru",
        "State": "Johor"
    },
    {
        "Postcode": "81300",
        "Location": "Kampung Melayu Lima Kedai",
        "Post_Office": "Johor Bahru",
        "State": "Johor"
    },
    {
        "Postcode": "81300",
        "Location": "Kampung Melayu Skudai",
        "Post_Office": "Johor Bahru",
        "State": "Johor"
    },
    {
        "Postcode": "81300",
        "Location": "Kampung Nesa",
        "Post_Office": "Johor Bahru",
        "State": "Johor"
    },
    {
        "Postcode": "81300",
        "Location": "Kampung Poh Che Leng",
        "Post_Office": "Johor Bahru",
        "State": "Johor"
    },
    {
        "Postcode": "81300",
        "Location": "Kampung Seelong Baru",
        "Post_Office": "Johor Bahru",
        "State": "Johor"
    },
    {
        "Postcode": "81300",
        "Location": "Kampung Seelong Jaya",
        "Post_Office": "Johor Bahru",
        "State": "Johor"
    },
    {
        "Postcode": "81300",
        "Location": "Kampung Sinaran Baru",
        "Post_Office": "Johor Bahru",
        "State": "Johor"
    },
    {
        "Postcode": "81300",
        "Location": "Kampung Tawakal",
        "Post_Office": "Johor Bahru",
        "State": "Johor"
    },
    {
        "Postcode": "81300",
        "Location": "Kaw. Perindustrian Berjaya",
        "Post_Office": "Johor Bahru",
        "State": "Johor"
    },
    {
        "Postcode": "81300",
        "Location": "Ladang Lee Plantation",
        "Post_Office": "Johor Bahru",
        "State": "Johor"
    },
    {
        "Postcode": "81300",
        "Location": "Lima Kedai",
        "Post_Office": "Johor Bahru",
        "State": "Johor"
    },
    {
        "Postcode": "81300",
        "Location": "Sekudai",
        "Post_Office": "Johor Bahru",
        "State": "Johor"
    },
    {
        "Postcode": "81300",
        "Location": "Sekudai (Batu 8 1/2)",
        "Post_Office": "Johor Bahru",
        "State": "Johor"
    },
    {
        "Postcode": "81300",
        "Location": "Sekudai Kechil",
        "Post_Office": "Johor Bahru",
        "State": "Johor"
    },
    {
        "Postcode": "81300",
        "Location": "Taman Bandar Baru Kangkar Pulai",
        "Post_Office": "Johor Bahru",
        "State": "Johor"
    },
    {
        "Postcode": "81300",
        "Location": "Taman Bestari Jaya",
        "Post_Office": "Johor Bahru",
        "State": "Johor"
    },
    {
        "Postcode": "81300",
        "Location": "Taman Bukit Gemilang",
        "Post_Office": "Johor Bahru",
        "State": "Johor"
    },
    {
        "Postcode": "81300",
        "Location": "Taman Bukit Impian Emas",
        "Post_Office": "Johor Bahru",
        "State": "Johor"
    },
    {
        "Postcode": "81300",
        "Location": "Taman Harmoni 2",
        "Post_Office": "Johor Bahru",
        "State": "Johor"
    },
    {
        "Postcode": "81300",
        "Location": "Taman Impian Skudai",
        "Post_Office": "Johor Bahru",
        "State": "Johor"
    },
    {
        "Postcode": "81300",
        "Location": "Taman Industri Maju Jaya",
        "Post_Office": "Johor Bahru",
        "State": "Johor"
    },
    {
        "Postcode": "81300",
        "Location": "Taman Jaya Mas",
        "Post_Office": "Johor Bahru",
        "State": "Johor"
    },
    {
        "Postcode": "81300",
        "Location": "Taman Kempas Indah",
        "Post_Office": "Johor Bahru",
        "State": "Johor"
    },
    {
        "Postcode": "81300",
        "Location": "Taman Kempas Utama",
        "Post_Office": "Johor Bahru",
        "State": "Johor"
    },
    {
        "Postcode": "81300",
        "Location": "Taman Mutiara Rini",
        "Post_Office": "Johor Bahru",
        "State": "Johor"
    },
    {
        "Postcode": "81300",
        "Location": "Taman Perindustrian Bestari",
        "Post_Office": "Johor Bahru",
        "State": "Johor"
    },
    {
        "Postcode": "81300",
        "Location": "Taman Perindustrian Dato Yunus Sulaiman",
        "Post_Office": "Johor Bahru",
        "State": "Johor"
    },
    {
        "Postcode": "81300",
        "Location": "Taman Perindustrian Maju Jaya",
        "Post_Office": "Johor Bahru",
        "State": "Johor"
    },
    {
        "Postcode": "81300",
        "Location": "Taman Pulai Bayu",
        "Post_Office": "Johor Bahru",
        "State": "Johor"
    },
    {
        "Postcode": "81300",
        "Location": "Taman Pulai Bestari",
        "Post_Office": "Johor Bahru",
        "State": "Johor"
    },
    {
        "Postcode": "81300",
        "Location": "Taman Pulai Emas",
        "Post_Office": "Johor Bahru",
        "State": "Johor"
    },
    {
        "Postcode": "81300",
        "Location": "Taman Pulai Flora",
        "Post_Office": "Johor Bahru",
        "State": "Johor"
    },
    {
        "Postcode": "81300",
        "Location": "Taman Pulai Jaya",
        "Post_Office": "Johor Bahru",
        "State": "Johor"
    },
    {
        "Postcode": "81300",
        "Location": "Taman Pulai Saujana",
        "Post_Office": "Johor Bahru",
        "State": "Johor"
    },
    {
        "Postcode": "81300",
        "Location": "Taman Seri Pulai",
        "Post_Office": "Johor Bahru",
        "State": "Johor"
    },
    {
        "Postcode": "81300",
        "Location": "Taman Seri Puteri",
        "Post_Office": "Johor Bahru",
        "State": "Johor"
    },
    {
        "Postcode": "81300",
        "Location": "Taman Skudai",
        "Post_Office": "Johor Bahru",
        "State": "Johor"
    },
    {
        "Postcode": "81300",
        "Location": "Taman Skudai Baru",
        "Post_Office": "Johor Bahru",
        "State": "Johor"
    },
    {
        "Postcode": "81300",
        "Location": "Taman Skudai Indah",
        "Post_Office": "Johor Bahru",
        "State": "Johor"
    },
    {
        "Postcode": "81300",
        "Location": "Taman Skudai Ria",
        "Post_Office": "Johor Bahru",
        "State": "Johor"
    },
    {
        "Postcode": "81300",
        "Location": "Taman Sri Pulai Perdana",
        "Post_Office": "Johor Bahru",
        "State": "Johor"
    },
    {
        "Postcode": "81300",
        "Location": "Taman Sri Skudai",
        "Post_Office": "Johor Bahru",
        "State": "Johor"
    },
    {
        "Postcode": "81300",
        "Location": "Taman Sutera Utama",
        "Post_Office": "Johor Bahru",
        "State": "Johor"
    },
    {
        "Postcode": "81300",
        "Location": "Taman Tan Sri Yaakob",
        "Post_Office": "Johor Bahru",
        "State": "Johor"
    },
    {
        "Postcode": "81300",
        "Location": "Taman Teratai (Skudai)",
        "Post_Office": "Johor Bahru",
        "State": "Johor"
    },
    {
        "Postcode": "81300",
        "Location": "Taman Timor (Skudai)",
        "Post_Office": "Johor Bahru",
        "State": "Johor"
    },
    {
        "Postcode": "81300",
        "Location": "Taman Ulam Raja",
        "Post_Office": "Johor Bahru",
        "State": "Johor"
    },
    {
        "Postcode": "81300",
        "Location": "Taman Ungku Tun Aminah",
        "Post_Office": "Johor Bahru",
        "State": "Johor"
    },
    {
        "Postcode": "81300",
        "Location": "Teknovision Park",
        "Post_Office": "Johor Bahru",
        "State": "Johor"
    },
    {
        "Postcode": "81300",
        "Location": "Taman Pulai Mutiara",
        "Post_Office": "Johor Bahru",
        "State": "Johor"
    },
    {
        "Postcode": "81300",
        "Location": "Taman Industri Jaya",
        "Post_Office": "Johor Bahru",
        "State": "Johor"
    },
    {
        "Postcode": "81300",
        "Location": "Taman Pulai Hijauan ",
        "Post_Office": "Johor Bahru",
        "State": "Johor"
    },
    {
        "Postcode": "81300",
        "Location": "Taman Danga Sutera",
        "Post_Office": "Johor Bahru",
        "State": "Johor"
    },
    {
        "Postcode": "81300",
        "Location": "Taman Mutiara Bestari",
        "Post_Office": "Johor Bahru",
        "State": "Johor"
    },
    {
        "Postcode": "81300",
        "Location": "Taman Pulai Makmur",
        "Post_Office": "Johor Bahru",
        "State": "Johor"
    },
    {
        "Postcode": "81300",
        "Location": "Taman Mutiara Maju",
        "Post_Office": "Johor Bahru",
        "State": "Johor"
    },
    {
        "Postcode": "81300",
        "Location": "Kampung Maju Jaya",
        "Post_Office": "Johor Bahru",
        "State": "Johor"
    },
    {
        "Postcode": "81300",
        "Location": "Kampung Sepakat Baru",
        "Post_Office": "Johor Bahru",
        "State": "Johor"
    },
    {
        "Postcode": "81300",
        "Location": "Bandar Selesa Jaya",
        "Post_Office": "Johor Bahru",
        "State": "Johor"
    },
    {
        "Postcode": "81300",
        "Location": "Taman Desa Permai",
        "Post_Office": "Johor Bahru",
        "State": "Johor"
    },
    {
        "Postcode": "81300",
        "Location": "Taman Impian Emas",
        "Post_Office": "Johor Bahru",
        "State": "Johor"
    },
    {
        "Postcode": "81300",
        "Location": "Taman Melawati",
        "Post_Office": "Johor Bahru",
        "State": "Johor"
    },
    {
        "Postcode": "81300",
        "Location": "Taman Nesa",
        "Post_Office": "Johor Bahru",
        "State": "Johor"
    },
    {
        "Postcode": "81300",
        "Location": "Taman Pulai Utama",
        "Post_Office": "Johor Bahru",
        "State": "Johor"
    },
    {
        "Postcode": "81300",
        "Location": "Taman Universiti",
        "Post_Office": "Johor Bahru",
        "State": "Johor"
    },
    {
        "Postcode": "81300",
        "Location": "Jalan Seluang",
        "Post_Office": "Johor Bahru",
        "State": "Johor"
    },
    {
        "Postcode": "81300",
        "Location": "Kampung Laut",
        "Post_Office": "Johor Bahru",
        "State": "Johor"
    },
    {
        "Postcode": "81300",
        "Location": "Kampung Melayu",
        "Post_Office": "Johor Bahru",
        "State": "Johor"
    },
    {
        "Postcode": "81300",
        "Location": "Kampung Sri Aman",
        "Post_Office": "Johor Bahru",
        "State": "Johor"
    },
    {
        "Postcode": "81300",
        "Location": "Taman Anggerik",
        "Post_Office": "Johor Bahru",
        "State": "Johor"
    },
    {
        "Postcode": "81300",
        "Location": "Taman Harmoni",
        "Post_Office": "Johor Bahru",
        "State": "Johor"
    },
    {
        "Postcode": "81300",
        "Location": "Taman Jaya",
        "Post_Office": "Johor Bahru",
        "State": "Johor"
    },
    {
        "Postcode": "81300",
        "Location": "Taman Mutiara Indah",
        "Post_Office": "Johor Bahru",
        "State": "Johor"
    },
    {
        "Postcode": "81300",
        "Location": "Taman Pulai Indah",
        "Post_Office": "Johor Bahru",
        "State": "Johor"
    },
    {
        "Postcode": "81300",
        "Location": "Taman Sri Mutiara",
        "Post_Office": "Johor Bahru",
        "State": "Johor"
    },
    {
        "Postcode": "81300",
        "Location": "Taman Tropika Arena",
        "Post_Office": "Skudai",
        "State": "Johor"
    },
    {
        "Postcode": "81300",
        "Location": "Taman Pulai Duta",
        "Post_Office": "Johor Bahru",
        "State": "Johor"
    },
    {
        "Postcode": "81300",
        "Location": "Taman Pulai Impian",
        "Post_Office": "Johor Bahru",
        "State": "Johor"
    },
    {
        "Postcode": "81300",
        "Location": "Residensi Mutiara Indah",
        "Post_Office": "Johor Bahru",
        "State": "Johor"
    }
]
