[
    {
        "Postcode": "81400",
        "Location": "Taman Aman",
        "Post_Office": "Senai",
        "State": "Johor"
    },
    {
        "Postcode": "81400",
        "Location": "Taman Sutra",
        "Post_Office": "Senai",
        "State": "Johor"
    },
    {
        "Postcode": "81400",
        "Location": "Taman Mesra",
        "Post_Office": "Senai",
        "State": "Johor"
    },
    {
        "Postcode": "81400",
        "Location": "Taman Selesa",
        "Post_Office": "Senai",
        "State": "Johor"
    },
    {
        "Postcode": "81400",
        "Location": "Taman Muhibbah (Senai)",
        "Post_Office": "Senai",
        "State": "Johor"
    },
    {
        "Postcode": "81400",
        "Location": "Kawasan Perindustrian Senai Fasa 3",
        "Post_Office": "Senai",
        "State": "Johor"
    },
    {
        "Postcode": "81400",
        "Location": "Taman Dawani",
        "Post_Office": "Senai",
        "State": "Johor"
    },
    {
        "Postcode": "81400",
        "Location": "Taman Impian Senai",
        "Post_Office": "Senai",
        "State": "Johor"
    },
    {
        "Postcode": "81400",
        "Location": "Flat Perindu",
        "Post_Office": "Senai",
        "State": "Johor"
    },
    {
        "Postcode": "81400",
        "Location": "Flat Selasih",
        "Post_Office": "Senai",
        "State": "Johor"
    },
    {
        "Postcode": "81400",
        "Location": "Flat Sri Bayu",
        "Post_Office": "Senai",
        "State": "Johor"
    },
    {
        "Postcode": "81400",
        "Location": "Flat Sri Indah",
        "Post_Office": "Senai",
        "State": "Johor"
    },
    {
        "Postcode": "81400",
        "Location": "Jalan Seelong",
        "Post_Office": "Senai",
        "State": "Johor"
    },
    {
        "Postcode": "81400",
        "Location": "Kampung Baru Saleng",
        "Post_Office": "Senai",
        "State": "Johor"
    },
    {
        "Postcode": "81400",
        "Location": "Kampung Baru Seelong",
        "Post_Office": "Senai",
        "State": "Johor"
    },
    {
        "Postcode": "81400",
        "Location": "Kampung Baru Senai",
        "Post_Office": "Senai",
        "State": "Johor"
    },
    {
        "Postcode": "81400",
        "Location": "Kampung Melayu Saleng",
        "Post_Office": "Senai",
        "State": "Johor"
    },
    {
        "Postcode": "81400",
        "Location": "Kampung Melayu Seelong Selatan",
        "Post_Office": "Senai",
        "State": "Johor"
    },
    {
        "Postcode": "81400",
        "Location": "Kampung Melayu Senai",
        "Post_Office": "Senai",
        "State": "Johor"
    },
    {
        "Postcode": "81400",
        "Location": "Kampung Melayu Senai Utama",
        "Post_Office": "Senai",
        "State": "Johor"
    },
    {
        "Postcode": "81400",
        "Location": "Kampung Sri Maju",
        "Post_Office": "Senai",
        "State": "Johor"
    },
    {
        "Postcode": "81400",
        "Location": "Kampung Tan Hoe Estate",
        "Post_Office": "Senai",
        "State": "Johor"
    },
    {
        "Postcode": "81400",
        "Location": "Kaw. Perdagangan Bebas Senai",
        "Post_Office": "Senai",
        "State": "Johor"
    },
    {
        "Postcode": "81400",
        "Location": "Kawasan Industri Saleng",
        "Post_Office": "Senai",
        "State": "Johor"
    },
    {
        "Postcode": "81400",
        "Location": "Lapangan Terbang Senai",
        "Post_Office": "Senai",
        "State": "Johor"
    },
    {
        "Postcode": "81400",
        "Location": "Palm Resort Country Club",
        "Post_Office": "Senai",
        "State": "Johor"
    },
    {
        "Postcode": "81400",
        "Location": "Pekan Senai",
        "Post_Office": "Senai",
        "State": "Johor"
    },
    {
        "Postcode": "81400",
        "Location": "Perindustrian Murni",
        "Post_Office": "Senai",
        "State": "Johor"
    },
    {
        "Postcode": "81400",
        "Location": "Rancangan Tanah Pemuda Seelong",
        "Post_Office": "Senai",
        "State": "Johor"
    },
    {
        "Postcode": "81400",
        "Location": "Saleng",
        "Post_Office": "Senai",
        "State": "Johor"
    },
    {
        "Postcode": "81400",
        "Location": "Senai Industrial Park",
        "Post_Office": "Senai",
        "State": "Johor"
    },
    {
        "Postcode": "81400",
        "Location": "Taman Anak Bukit",
        "Post_Office": "Senai",
        "State": "Johor"
    },
    {
        "Postcode": "81400",
        "Location": "Taman Angkasa",
        "Post_Office": "Senai",
        "State": "Johor"
    },
    {
        "Postcode": "81400",
        "Location": "Taman Beringin",
        "Post_Office": "Senai",
        "State": "Johor"
    },
    {
        "Postcode": "81400",
        "Location": "Taman Bintang Utama",
        "Post_Office": "Senai",
        "State": "Johor"
    },
    {
        "Postcode": "81400",
        "Location": "Taman Bukit Senang",
        "Post_Office": "Senai",
        "State": "Johor"
    },
    {
        "Postcode": "81400",
        "Location": "Taman Dasa",
        "Post_Office": "Senai",
        "State": "Johor"
    },
    {
        "Postcode": "81400",
        "Location": "Taman Impian Jaya",
        "Post_Office": "Senai",
        "State": "Johor"
    },
    {
        "Postcode": "81400",
        "Location": "Taman Impian Jaya (Senai)",
        "Post_Office": "Senai",
        "State": "Johor"
    },
    {
        "Postcode": "81400",
        "Location": "Taman Impian Jaya Senai",
        "Post_Office": "Senai",
        "State": "Johor"
    },
    {
        "Postcode": "81400",
        "Location": "Taman Indera",
        "Post_Office": "Senai",
        "State": "Johor"
    },
    {
        "Postcode": "81400",
        "Location": "Taman Jaya Sepakat",
        "Post_Office": "Senai",
        "State": "Johor"
    },
    {
        "Postcode": "81400",
        "Location": "Taman Komersil",
        "Post_Office": "Senai",
        "State": "Johor"
    },
    {
        "Postcode": "81400",
        "Location": "Taman Pancasila",
        "Post_Office": "Senai",
        "State": "Johor"
    },
    {
        "Postcode": "81400",
        "Location": "Taman Riang",
        "Post_Office": "Senai",
        "State": "Johor"
    },
    {
        "Postcode": "81400",
        "Location": "Taman Saleng",
        "Post_Office": "Senai",
        "State": "Johor"
    },
    {
        "Postcode": "81400",
        "Location": "Taman Saleng Baru",
        "Post_Office": "Senai",
        "State": "Johor"
    },
    {
        "Postcode": "81400",
        "Location": "Taman Saleng Indah",
        "Post_Office": "Senai",
        "State": "Johor"
    },
    {
        "Postcode": "81400",
        "Location": "Taman Saleng Jaya",
        "Post_Office": "Senai",
        "State": "Johor"
    },
    {
        "Postcode": "81400",
        "Location": "Taman Saleng Maju",
        "Post_Office": "Senai",
        "State": "Johor"
    },
    {
        "Postcode": "81400",
        "Location": "Taman Sempena",
        "Post_Office": "Senai",
        "State": "Johor"
    },
    {
        "Postcode": "81400",
        "Location": "Taman Semporna",
        "Post_Office": "Senai",
        "State": "Johor"
    },
    {
        "Postcode": "81400",
        "Location": "Taman Senai",
        "Post_Office": "Senai",
        "State": "Johor"
    },
    {
        "Postcode": "81400",
        "Location": "Taman Senai Baru",
        "Post_Office": "Senai",
        "State": "Johor"
    },
    {
        "Postcode": "81400",
        "Location": "Taman Senai Indah",
        "Post_Office": "Senai",
        "State": "Johor"
    },
    {
        "Postcode": "81400",
        "Location": "Taman Senai Industri Park",
        "Post_Office": "Senai",
        "State": "Johor"
    },
    {
        "Postcode": "81400",
        "Location": "Taman Senai Jaya",
        "Post_Office": "Senai",
        "State": "Johor"
    },
    {
        "Postcode": "81400",
        "Location": "Taman Senai Utama",
        "Post_Office": "Senai",
        "State": "Johor"
    },
    {
        "Postcode": "81400",
        "Location": "Taman Seri Senai",
        "Post_Office": "Senai",
        "State": "Johor"
    },
    {
        "Postcode": "81400",
        "Location": "Taman Sri Saleng",
        "Post_Office": "Senai",
        "State": "Johor"
    },
    {
        "Postcode": "81400",
        "Location": "Taman Teknologi Johor",
        "Post_Office": "Senai",
        "State": "Johor"
    },
    {
        "Postcode": "81400",
        "Location": "Kampung Sepakat Baru",
        "Post_Office": "Senai",
        "State": "Johor"
    },
    {
        "Postcode": "81400",
        "Location": "Taman Dewani",
        "Post_Office": "Senai",
        "State": "Johor"
    },
    {
        "Postcode": "81400",
        "Location": "Kampung Jaya Sepakat",
        "Post_Office": "Senai",
        "State": "Johor"
    },
    {
        "Postcode": "81400",
        "Location": "Kampung Melayu",
        "Post_Office": "Senai",
        "State": "Johor"
    },
    {
        "Postcode": "81400",
        "Location": "Kampung Pasir",
        "Post_Office": "Senai",
        "State": "Johor"
    },
    {
        "Postcode": "81400",
        "Location": "Taman Bahagia",
        "Post_Office": "Senai",
        "State": "Johor"
    },
    {
        "Postcode": "81400",
        "Location": "Taman Damai",
        "Post_Office": "Senai",
        "State": "Johor"
    },
    {
        "Postcode": "81400",
        "Location": "Taman Mewah",
        "Post_Office": "Senai",
        "State": "Johor"
    },
    {
        "Postcode": "81400",
        "Location": "Taman Bintang",
        "Post_Office": "Senai",
        "State": "Johor"
    },
    {
        "Postcode": "81400",
        "Location": "Taman Handal",
        "Post_Office": "Senai",
        "State": "Johor"
    }
]
