[
    {
        "Postcode": "81440",
        "Location": "Felda Penggeli Timur",
        "Post_Office": "Bandar Tenggara",
        "State": "Johor"
    },
    {
        "Postcode": "81440",
        "Location": "Bandar Petri Jaya",
        "Post_Office": "Bandar Tenggara",
        "State": "Johor"
    },
    {
        "Postcode": "81440",
        "Location": "Bandar Tenggara",
        "Post_Office": "Bandar Tenggara",
        "State": "Johor"
    },
    {
        "Postcode": "81440",
        "Location": "Desa Harmoni",
        "Post_Office": "Bandar Tenggara",
        "State": "Johor"
    },
    {
        "Postcode": "81440",
        "Location": "Felda Inas Selatan",
        "Post_Office": "Bandar Tenggara",
        "State": "Johor"
    },
    {
        "Postcode": "81440",
        "Location": "Felda Linggiu",
        "Post_Office": "Bandar Tenggara",
        "State": "Johor"
    },
    {
        "Postcode": "81440",
        "Location": "Felda Pengeli Timur",
        "Post_Office": "Bandar Tenggara",
        "State": "Johor"
    },
    {
        "Postcode": "81440",
        "Location": "Felda Sungai Sibol",
        "Post_Office": "Bandar Tenggara",
        "State": "Johor"
    },
    {
        "Postcode": "81440",
        "Location": "Kampung Pasir Intan",
        "Post_Office": "Bandar Tenggara",
        "State": "Johor"
    },
    {
        "Postcode": "81440",
        "Location": "Kampung Sayong Pinang",
        "Post_Office": "Bandar Tenggara",
        "State": "Johor"
    },
    {
        "Postcode": "81440",
        "Location": "Kampung Sri Pekan",
        "Post_Office": "Bandar Tenggara",
        "State": "Johor"
    },
    {
        "Postcode": "81440",
        "Location": "Kawasan Perindustrian Bandar Tenggara",
        "Post_Office": "Bandar Tenggara",
        "State": "Johor"
    },
    {
        "Postcode": "81440",
        "Location": "Ladang Agro Maju",
        "Post_Office": "Bandar Tenggara",
        "State": "Johor"
    },
    {
        "Postcode": "81440",
        "Location": "Ladang Cenas",
        "Post_Office": "Bandar Tenggara",
        "State": "Johor"
    },
    {
        "Postcode": "81440",
        "Location": "Ladang Pekan",
        "Post_Office": "Bandar Tenggara",
        "State": "Johor"
    },
    {
        "Postcode": "81440",
        "Location": "Ladang Sungai Penggeli",
        "Post_Office": "Bandar Tenggara",
        "State": "Johor"
    },
    {
        "Postcode": "81440",
        "Location": "Ladang Ulu Sibol",
        "Post_Office": "Bandar Tenggara",
        "State": "Johor"
    },
    {
        "Postcode": "81440",
        "Location": "Taman Anggerik Tenggara",
        "Post_Office": "Bandar Tenggara",
        "State": "Johor"
    },
    {
        "Postcode": "81440",
        "Location": "Taman Bandar Tenggara",
        "Post_Office": "Bandar Tenggara",
        "State": "Johor"
    },
    {
        "Postcode": "81440",
        "Location": "Taman Sayong Indah",
        "Post_Office": "Bandar Tenggara",
        "State": "Johor"
    },
    {
        "Postcode": "81440",
        "Location": "Taman Sayong Pinang",
        "Post_Office": "Bandar Tenggara",
        "State": "Johor"
    }
]
