[
    {
        "Postcode": "81550",
        "Location": "Taman Gp Prima",
        "Post_Office": "Gelang Patah",
        "State": "johor"
    },
    {
        "Postcode": "81550",
        "Location": "Forest City ",
        "Post_Office": "Pulau Satu",
        "State": "Johor"
    },
    {
        "Postcode": "81550",
        "Location": "Kampung Ladang Barat",
        "Post_Office": "Gelang Patah",
        "State": "Johor"
    },
    {
        "Postcode": "81550",
        "Location": "Leisure Farm Resort",
        "Post_Office": "Gelang Patah",
        "State": "Johor"
    },
    {
        "Postcode": "81550",
        "Location": "Taman Tropicana Sanctuary",
        "Post_Office": "Gelang Patah",
        "State": "Johor"
    },
    {
        "Postcode": "81550",
        "Location": "Kampung Ladang Darat",
        "Post_Office": "Gelang Patah",
        "State": "Johor"
    },
    {
        "Postcode": "81550",
        "Location": "Kampung Tanjung Adang",
        "Post_Office": "Gelang Patah",
        "State": "Johor"
    },
    {
        "Postcode": "81550",
        "Location": "Kampung Tebing Runtoh",
        "Post_Office": "Gelang Patah",
        "State": "Johor"
    },
    {
        "Postcode": "81550",
        "Location": "Taman Dato Syed Mohd Idrus",
        "Post_Office": "Gelang Patah",
        "State": "Johor"
    },
    {
        "Postcode": "81550",
        "Location": "Forest City Golf \u0026 Resort",
        "Post_Office": "Pulau Satu",
        "State": "Johor"
    },
    {
        "Postcode": "81550",
        "Location": "Jalan Pendas Laut",
        "Post_Office": "Gelang Patah",
        "State": "Johor"
    },
    {
        "Postcode": "81550",
        "Location": "Pusat Komersial Suria",
        "Post_Office": "Gelang Patah",
        "State": "Johor"
    },
    {
        "Postcode": "81550",
        "Location": "Kampung Melayu Baru",
        "Post_Office": "Gelang Patah",
        "State": "Johor"
    },
    {
        "Postcode": "81550",
        "Location": "Kampung Pulai",
        "Post_Office": "Gelang Patah",
        "State": "Johor"
    },
    {
        "Postcode": "81550",
        "Location": "Kampung Ulu Pulai",
        "Post_Office": "Gelang Patah",
        "State": "Johor"
    },
    {
        "Postcode": "81550",
        "Location": "Kampung Baru",
        "Post_Office": "Gelang Patah",
        "State": "Johor"
    },
    {
        "Postcode": "81550",
        "Location": "Kampung Melayu",
        "Post_Office": "Gelang Patah",
        "State": "Johor"
    },
    {
        "Postcode": "81550",
        "Location": "Sunway City Iskandar Puteri",
        "Post_Office": "Gelang Patah",
        "State": "Johor"
    },
    {
        "Postcode": "81550",
        "Location": "Taman Kews Senibong",
        "Post_Office": "Gelang Patah",
        "State": "Johor"
    },
    {
        "Postcode": "81550",
        "Location": "Taman Nusantara",
        "Post_Office": "Gelang Patah",
        "State": "Johor"
    },
    {
        "Postcode": "81550",
        "Location": "Desa Paya Mengkuang",
        "Post_Office": "Gelang Patah",
        "State": "Johor"
    },
    {
        "Postcode": "81550",
        "Location": "Eco Garden",
        "Post_Office": "Gelang Patah",
        "State": "Johor"
    },
    {
        "Postcode": "81550",
        "Location": "Gelang Patah",
        "Post_Office": "Gelang Patah",
        "State": "Johor"
    },
    {
        "Postcode": "81550",
        "Location": "Jalan Gelang Patah - Ulu Choh",
        "Post_Office": "Gelang Patah",
        "State": "Johor"
    },
    {
        "Postcode": "81550",
        "Location": "Kampung Baru Muafakat",
        "Post_Office": "Gelang Patah",
        "State": "Johor"
    },
    {
        "Postcode": "81550",
        "Location": "Kampung Bukit Kucing",
        "Post_Office": "Gelang Patah",
        "State": "Johor"
    },
    {
        "Postcode": "81550",
        "Location": "Kampung Bukit Tempurung",
        "Post_Office": "Gelang Patah",
        "State": "Johor"
    },
    {
        "Postcode": "81550",
        "Location": "Kampung Ladang",
        "Post_Office": "Gelang Patah",
        "State": "Johor"
    },
    {
        "Postcode": "81550",
        "Location": "Kampung Melayu Dapur Arang",
        "Post_Office": "Gelang Patah",
        "State": "Johor"
    },
    {
        "Postcode": "81550",
        "Location": "Kampung Paya Mengkuang",
        "Post_Office": "Gelang Patah",
        "State": "Johor"
    },
    {
        "Postcode": "81550",
        "Location": "Kampung Pekajang",
        "Post_Office": "Gelang Patah",
        "State": "Johor"
    },
    {
        "Postcode": "81550",
        "Location": "Kampung Pendas",
        "Post_Office": "Gelang Patah",
        "State": "Johor"
    },
    {
        "Postcode": "81550",
        "Location": "Kampung Pendas Laut",
        "Post_Office": "Gelang Patah",
        "State": "Johor"
    },
    {
        "Postcode": "81550",
        "Location": "Kampung Pok",
        "Post_Office": "Gelang Patah",
        "State": "Johor"
    },
    {
        "Postcode": "81550",
        "Location": "Kampung Pok Besar",
        "Post_Office": "Gelang Patah",
        "State": "Johor"
    },
    {
        "Postcode": "81550",
        "Location": "Kampung Pok Kecil",
        "Post_Office": "Gelang Patah",
        "State": "Johor"
    },
    {
        "Postcode": "81550",
        "Location": "Kampung Pulai Jelutung",
        "Post_Office": "Gelang Patah",
        "State": "Johor"
    },
    {
        "Postcode": "81550",
        "Location": "Kampung Pulai Mutiara",
        "Post_Office": "Gelang Patah",
        "State": "Johor"
    },
    {
        "Postcode": "81550",
        "Location": "Kampung Tanjong Andang",
        "Post_Office": "Gelang Patah",
        "State": "Johor"
    },
    {
        "Postcode": "81550",
        "Location": "Kampung Tanjong Kupang",
        "Post_Office": "Gelang Patah",
        "State": "Johor"
    },
    {
        "Postcode": "81550",
        "Location": "Kampung Tanjong Pelepas",
        "Post_Office": "Gelang Patah",
        "State": "Johor"
    },
    {
        "Postcode": "81550",
        "Location": "Kampung Tebing Runtuh",
        "Post_Office": "Gelang Patah",
        "State": "Johor"
    },
    {
        "Postcode": "81550",
        "Location": "Kampung Tiram Duku",
        "Post_Office": "Gelang Patah",
        "State": "Johor"
    },
    {
        "Postcode": "81550",
        "Location": "Leaser Farm",
        "Post_Office": "Gelang Patah",
        "State": "Johor"
    },
    {
        "Postcode": "81550",
        "Location": "Pekan Gelang Patah",
        "Post_Office": "Gelang Patah",
        "State": "Johor"
    },
    {
        "Postcode": "81550",
        "Location": "Pelabuhan Tanjung Pelepas",
        "Post_Office": "Gelang Patah",
        "State": "Johor"
    },
    {
        "Postcode": "81550",
        "Location": "Taman Gelang Mas",
        "Post_Office": "Gelang Patah",
        "State": "Johor"
    },
    {
        "Postcode": "81550",
        "Location": "Taman Syed Idros",
        "Post_Office": "Gelang Patah",
        "State": "Johor"
    },
    {
        "Postcode": "81550",
        "Location": "Tanjung Kupang",
        "Post_Office": "Gelang Patah",
        "State": "Johor"
    }
]
