[
    {
        "Postcode": "81600",
        "Location": "Jalan Kurau",
        "Post_Office": "Pengerang",
        "State": "Johor"
    },
    {
        "Postcode": "81600",
        "Location": "Kampung Baru Teluk Beserah",
        "Post_Office": "Pengerang",
        "State": "Johor"
    },
    {
        "Postcode": "81600",
        "Location": "Perumahan Transit Bayu Damai",
        "Post_Office": "Pengerang",
        "State": "Johor"
    },
    {
        "Postcode": "81600",
        "Location": "Kampung Bukit Raja",
        "Post_Office": "Pengerang",
        "State": "Johor"
    },
    {
        "Postcode": "81600",
        "Location": "Kampung Teluk Empang",
        "Post_Office": "Pengerang",
        "State": "Johor"
    },
    {
        "Postcode": "81600",
        "Location": "Kampung Teluk Ramunia",
        "Post_Office": "Pengerang",
        "State": "Johor"
    },
    {
        "Postcode": "81600",
        "Location": "Tanjung Pengelih",
        "Post_Office": "Pengerang",
        "State": "Johor"
    },
    {
        "Postcode": "81600",
        "Location": "Kampung Sungai Buntu",
        "Post_Office": "Pengerang",
        "State": "Johor"
    },
    {
        "Postcode": "81600",
        "Location": "Taman Rengit Jaya",
        "Post_Office": "Pengerang",
        "State": "Johor"
    },
    {
        "Postcode": "81600",
        "Location": "Jalan Damai",
        "Post_Office": "Pengerang",
        "State": "Johor"
    },
    {
        "Postcode": "81600",
        "Location": "Kampung Bukit Lintang",
        "Post_Office": "Pengerang",
        "State": "Johor"
    },
    {
        "Postcode": "81600",
        "Location": "Kampung Jawa Darat",
        "Post_Office": "Pengerang",
        "State": "Johor"
    },
    {
        "Postcode": "81600",
        "Location": "Kampung Jawa Laut",
        "Post_Office": "Pengerang",
        "State": "Johor"
    },
    {
        "Postcode": "81600",
        "Location": "Kampung Masjid",
        "Post_Office": "Pengerang",
        "State": "Johor"
    },
    {
        "Postcode": "81600",
        "Location": "Batu Layar",
        "Post_Office": "Pengerang",
        "State": "Johor"
    },
    {
        "Postcode": "81600",
        "Location": "Estet Penggerang",
        "Post_Office": "Pengerang",
        "State": "Johor"
    },
    {
        "Postcode": "81600",
        "Location": "Jalan Senangin",
        "Post_Office": "Pengerang",
        "State": "Johor"
    },
    {
        "Postcode": "81600",
        "Location": "Kampung Batu Mas",
        "Post_Office": "Pengerang",
        "State": "Johor"
    },
    {
        "Postcode": "81600",
        "Location": "Kampung Bukit Buloh",
        "Post_Office": "Pengerang",
        "State": "Johor"
    },
    {
        "Postcode": "81600",
        "Location": "Kampung Bukit Gelugor",
        "Post_Office": "Pengerang",
        "State": "Johor"
    },
    {
        "Postcode": "81600",
        "Location": "Kampung Bukit Raja Darat",
        "Post_Office": "Pengerang",
        "State": "Johor"
    },
    {
        "Postcode": "81600",
        "Location": "Kampung Bukit Raja Laut",
        "Post_Office": "Pengerang",
        "State": "Johor"
    },
    {
        "Postcode": "81600",
        "Location": "Kampung Bukit Saga",
        "Post_Office": "Pengerang",
        "State": "Johor"
    },
    {
        "Postcode": "81600",
        "Location": "Kampung Changi",
        "Post_Office": "Pengerang",
        "State": "Johor"
    },
    {
        "Postcode": "81600",
        "Location": "Kampung Dato Haji Abdul Ghani Bin Othman",
        "Post_Office": "Pengerang",
        "State": "Johor"
    },
    {
        "Postcode": "81600",
        "Location": "Kampung Desa Wawasan",
        "Post_Office": "Pengerang",
        "State": "Johor"
    },
    {
        "Postcode": "81600",
        "Location": "Kampung Haji Abdullah",
        "Post_Office": "Pengerang",
        "State": "Johor"
    },
    {
        "Postcode": "81600",
        "Location": "Kampung Industri Jaket",
        "Post_Office": "Pengerang",
        "State": "Johor"
    },
    {
        "Postcode": "81600",
        "Location": "Kampung Jomis",
        "Post_Office": "Pengerang",
        "State": "Johor"
    },
    {
        "Postcode": "81600",
        "Location": "Kampung Kelompok",
        "Post_Office": "Pengerang",
        "State": "Johor"
    },
    {
        "Postcode": "81600",
        "Location": "Kampung Langkah Baik",
        "Post_Office": "Pengerang",
        "State": "Johor"
    },
    {
        "Postcode": "81600",
        "Location": "Kampung Lepau",
        "Post_Office": "Pengerang",
        "State": "Johor"
    },
    {
        "Postcode": "81600",
        "Location": "Kampung Pelali",
        "Post_Office": "Pengerang",
        "State": "Johor"
    },
    {
        "Postcode": "81600",
        "Location": "Kampung Pengeleh",
        "Post_Office": "Pengerang",
        "State": "Johor"
    },
    {
        "Postcode": "81600",
        "Location": "Kampung Punggai",
        "Post_Office": "Pengerang",
        "State": "Johor"
    },
    {
        "Postcode": "81600",
        "Location": "Kampung Sebong",
        "Post_Office": "Pengerang",
        "State": "Johor"
    },
    {
        "Postcode": "81600",
        "Location": "Kampung Sepang",
        "Post_Office": "Pengerang",
        "State": "Johor"
    },
    {
        "Postcode": "81600",
        "Location": "Kampung Simon",
        "Post_Office": "Pengerang",
        "State": "Johor"
    },
    {
        "Postcode": "81600",
        "Location": "Kampung Sungai Kapal",
        "Post_Office": "Pengerang",
        "State": "Johor"
    },
    {
        "Postcode": "81600",
        "Location": "Kampung Sungai Rengit",
        "Post_Office": "Pengerang",
        "State": "Johor"
    },
    {
        "Postcode": "81600",
        "Location": "Kampung Telok Empang",
        "Post_Office": "Pengerang",
        "State": "Johor"
    },
    {
        "Postcode": "81600",
        "Location": "Kampung Telok Ramunia",
        "Post_Office": "Pengerang",
        "State": "Johor"
    },
    {
        "Postcode": "81600",
        "Location": "Kampung Teluk Besreh",
        "Post_Office": "Pengerang",
        "State": "Johor"
    },
    {
        "Postcode": "81600",
        "Location": "Kampung Tersusun Pungai",
        "Post_Office": "Pengerang",
        "State": "Johor"
    },
    {
        "Postcode": "81600",
        "Location": "Kuaters Kastam",
        "Post_Office": "Pengerang",
        "State": "Johor"
    },
    {
        "Postcode": "81600",
        "Location": "Pekan Pengerang",
        "Post_Office": "Pengerang",
        "State": "Johor"
    },
    {
        "Postcode": "81600",
        "Location": "Pengerang",
        "Post_Office": "Pengerang",
        "State": "Johor"
    },
    {
        "Postcode": "81600",
        "Location": "Pularek (Tldm)",
        "Post_Office": "Pengerang",
        "State": "Johor"
    },
    {
        "Postcode": "81600",
        "Location": "Sebana Cove",
        "Post_Office": "Pengerang",
        "State": "Johor"
    },
    {
        "Postcode": "81600",
        "Location": "Taman Perumahan Bukit Ayam",
        "Post_Office": "Pengerang",
        "State": "Johor"
    },
    {
        "Postcode": "81600",
        "Location": "Taman Ramunia",
        "Post_Office": "Pengerang",
        "State": "Johor"
    },
    {
        "Postcode": "81600",
        "Location": "Tanjong Pengelih",
        "Post_Office": "Pengerang",
        "State": "Johor"
    }
]
