[
    {
        "Postcode": "81700",
        "Location": "Taman Scientex",
        "Post_Office": "Pasir Gudang",
        "State": "Johor"
    },
    {
        "Postcode": "81700",
        "Location": "Bandar Bistari Perdana",
        "Post_Office": "Pasir Gudang",
        "State": "Johor"
    },
    {
        "Postcode": "81700",
        "Location": "Harvest Green Industrial Park",
        "Post_Office": "Pasir Gudang",
        "State": "Johor"
    },
    {
        "Postcode": "81700",
        "Location": "Kawasan Perindustrian Pasir Gudang",
        "Post_Office": "Pasir Gudang",
        "State": "Johor"
    },
    {
        "Postcode": "81700",
        "Location": "Kawasan Perindustrian Tanjung Langsat",
        "Post_Office": "Pasir Gudang",
        "State": "Johor"
    },
    {
        "Postcode": "81700",
        "Location": "Taman Pasir Putih",
        "Post_Office": "Pasir Gudang",
        "State": "Johor"
    },
    {
        "Postcode": "81700",
        "Location": "Taman Tanjung Putri Resort",
        "Post_Office": "Pasir Gudang",
        "State": "Johor"
    },
    {
        "Postcode": "81700",
        "Location": "Iskandar Halal Park",
        "Post_Office": "Pasir Gudang",
        "State": "Johor"
    },
    {
        "Postcode": "81700",
        "Location": "Taman Cahaya Masai",
        "Post_Office": "Pasir Gudang",
        "State": "Johor"
    },
    {
        "Postcode": "81700",
        "Location": "Taman Kota Masai",
        "Post_Office": "Pasir Gudang",
        "State": "Johor"
    },
    {
        "Postcode": "81700",
        "Location": "Taman Dahlia",
        "Post_Office": "Pasir Gudang",
        "State": "Johor"
    },
    {
        "Postcode": "81700",
        "Location": "Taman Mawar",
        "Post_Office": "Pasir Gudang",
        "State": "Johor"
    },
    {
        "Postcode": "81700",
        "Location": "Tanjung Puteri ",
        "Post_Office": "Pasir Gudang\r\n",
        "State": "Johor"
    },
    {
        "Postcode": "81700",
        "Location": "Kampung Pasir Gudang Baru",
        "Post_Office": "Pasir Gudang",
        "State": "Johor"
    },
    {
        "Postcode": "81700",
        "Location": "Kampung Pasir Puteh",
        "Post_Office": "Pasir Gudang",
        "State": "Johor"
    },
    {
        "Postcode": "81700",
        "Location": "Kampung Pasir Putih",
        "Post_Office": "Pasir Gudang",
        "State": "Johor"
    },
    {
        "Postcode": "81700",
        "Location": "Kampung Perigi Acheh",
        "Post_Office": "Pasir Gudang",
        "State": "Johor"
    },
    {
        "Postcode": "81700",
        "Location": "Kampung Sungai Cupak",
        "Post_Office": "Pasir Gudang",
        "State": "Johor"
    },
    {
        "Postcode": "81700",
        "Location": "Lembaga Pelabuhan Johor",
        "Post_Office": "Pasir Gudang",
        "State": "Johor"
    },
    {
        "Postcode": "81700",
        "Location": "Pasir Gudang",
        "Post_Office": "Pasir Gudang",
        "State": "Johor"
    },
    {
        "Postcode": "81700",
        "Location": "Pasir Gudang Bussiness Park",
        "Post_Office": "Pasir Gudang",
        "State": "Johor"
    },
    {
        "Postcode": "81700",
        "Location": "Pelabuhan Pasir Gudang",
        "Post_Office": "Pasir Gudang",
        "State": "Johor"
    },
    {
        "Postcode": "81700",
        "Location": "Taman Air Biru",
        "Post_Office": "Pasir Gudang",
        "State": "Johor"
    },
    {
        "Postcode": "81700",
        "Location": "Taman Bestari Perdana",
        "Post_Office": "Pasir Gudang",
        "State": "Johor"
    },
    {
        "Postcode": "81700",
        "Location": "Taman Bukit Dahlia",
        "Post_Office": "Pasir Gudang",
        "State": "Johor"
    },
    {
        "Postcode": "81700",
        "Location": "Taman Cendana",
        "Post_Office": "Pasir Gudang",
        "State": "Johor"
    },
    {
        "Postcode": "81700",
        "Location": "Taman Imigresen (Pasir Gudang)",
        "Post_Office": "Pasir Gudang",
        "State": "Johor"
    },
    {
        "Postcode": "81700",
        "Location": "Taman Mse",
        "Post_Office": "Pasir Gudang",
        "State": "Johor"
    },
    {
        "Postcode": "81700",
        "Location": "Taman Nusa Damai",
        "Post_Office": "Pasir Gudang",
        "State": "Johor"
    },
    {
        "Postcode": "81700",
        "Location": "Taman Pasir Puteh",
        "Post_Office": "Pasir Gudang",
        "State": "Johor"
    },
    {
        "Postcode": "81700",
        "Location": "Taman Sedc",
        "Post_Office": "Pasir Gudang",
        "State": "Johor"
    },
    {
        "Postcode": "81700",
        "Location": "Tanjung Puteri (Pasir Gudang)",
        "Post_Office": "Pasir Gudang",
        "State": "Johor"
    }
]
