[
    {
        "Postcode": "81750",
        "Location": "Taman Teluk Tropikana",
        "Post_Office": "Masai",
        "State": "Johor"
    },
    {
        "Postcode": "81750",
        "Location": "Taman Saujana",
        "Post_Office": "Masai",
        "State": "Johor"
    },
    {
        "Postcode": "81750",
        "Location": "Taman Scientex",
        "Post_Office": "Masai",
        "State": "Johor"
    },
    {
        "Postcode": "81750",
        "Location": "Bandar Baru Kota Putri",
        "Post_Office": "Masai",
        "State": "Johor"
    },
    {
        "Postcode": "81750",
        "Location": "Kampung Saujana Baru",
        "Post_Office": "Masai",
        "State": "Johor"
    },
    {
        "Postcode": "81750",
        "Location": "Kampung Teluk Jawa",
        "Post_Office": "Masai",
        "State": "Johor"
    },
    {
        "Postcode": "81750",
        "Location": "Kawasan Perindustrian Plentong",
        "Post_Office": "Masai",
        "State": "Johor"
    },
    {
        "Postcode": "81750",
        "Location": "Senibong Cove",
        "Post_Office": "Masai",
        "State": "Johor"
    },
    {
        "Postcode": "81750",
        "Location": "Taman Plentong  Utama",
        "Post_Office": "Masai",
        "State": "Johor"
    },
    {
        "Postcode": "81750",
        "Location": "Taman Plentong Utama",
        "Post_Office": "Masai",
        "State": "Johor"
    },
    {
        "Postcode": "81750",
        "Location": "The Straits View Residence",
        "Post_Office": "Masai",
        "State": "Johor"
    },
    {
        "Postcode": "81750",
        "Location": "Bandar Danga Cove",
        "Post_Office": "Masai",
        "State": "Johor"
    },
    {
        "Postcode": "81750",
        "Location": "Jalan Masai Jaya 2",
        "Post_Office": "Masai",
        "State": "Johor"
    },
    {
        "Postcode": "81750",
        "Location": "Taman Bayu Senibong",
        "Post_Office": "Masai",
        "State": "Johor"
    },
    {
        "Postcode": "81750",
        "Location": "Teluk Senibong",
        "Post_Office": "Masai",
        "State": "Johor"
    },
    {
        "Postcode": "81750",
        "Location": "Taman Perindustrian Plentong",
        "Post_Office": "Masai",
        "State": "Johor"
    },
    {
        "Postcode": "81750",
        "Location": "Tanjung Senibong",
        "Post_Office": "Masai",
        "State": "Johor"
    },
    {
        "Postcode": "81750",
        "Location": "Taman Cahaya Kota Puteri",
        "Post_Office": "Masai",
        "State": "Johor"
    },
    {
        "Postcode": "81750",
        "Location": "Taman Bukir Senibong",
        "Post_Office": "Masai",
        "State": "Johor"
    },
    {
        "Postcode": "81750",
        "Location": "Taman Seri Molek Perdana",
        "Post_Office": "Masai",
        "State": "Johor"
    },
    {
        "Postcode": "81750",
        "Location": "Bandar Seri Alam",
        "Post_Office": "Masai",
        "State": "Johor"
    },
    {
        "Postcode": "81750",
        "Location": "Kampung Pertanian",
        "Post_Office": "Masai",
        "State": "Johor"
    },
    {
        "Postcode": "81750",
        "Location": "Kampung Sepakat",
        "Post_Office": "Masai",
        "State": "Johor"
    },
    {
        "Postcode": "81750",
        "Location": "Kampung Sri Makmor",
        "Post_Office": "Masai",
        "State": "Johor"
    },
    {
        "Postcode": "81750",
        "Location": "Kampung Baru",
        "Post_Office": "Masai",
        "State": "Johor"
    },
    {
        "Postcode": "81750",
        "Location": "Kampung Masjid",
        "Post_Office": "Masai",
        "State": "Johor"
    },
    {
        "Postcode": "81750",
        "Location": "Kampung Sri Aman",
        "Post_Office": "Masai",
        "State": "Johor"
    },
    {
        "Postcode": "81750",
        "Location": "Kampung Tengah",
        "Post_Office": "Masai",
        "State": "Johor"
    },
    {
        "Postcode": "81750",
        "Location": "Taman Bunga Raya",
        "Post_Office": "Masai",
        "State": "Johor"
    },
    {
        "Postcode": "81750",
        "Location": "Taman Flora Heights",
        "Post_Office": "Masai",
        "State": "Johor"
    },
    {
        "Postcode": "81750",
        "Location": "Taman Ria",
        "Post_Office": "Masai",
        "State": "Johor"
    },
    {
        "Postcode": "81750",
        "Location": "Apartment Prima Agency",
        "Post_Office": "Masai",
        "State": "Johor"
    },
    {
        "Postcode": "81750",
        "Location": "Bandar Baru Permas Jaya",
        "Post_Office": "Masai",
        "State": "Johor"
    },
    {
        "Postcode": "81750",
        "Location": "Bandar Permas Jaya",
        "Post_Office": "Masai",
        "State": "Johor"
    },
    {
        "Postcode": "81750",
        "Location": "Bandar Sri Alam",
        "Post_Office": "Masai",
        "State": "Johor"
    },
    {
        "Postcode": "81750",
        "Location": "Felda Cahaya Baru",
        "Post_Office": "Masai",
        "State": "Johor"
    },
    {
        "Postcode": "81750",
        "Location": "Flat Senibong",
        "Post_Office": "Masai",
        "State": "Johor"
    },
    {
        "Postcode": "81750",
        "Location": "Flat Sri Alam",
        "Post_Office": "Masai",
        "State": "Johor"
    },
    {
        "Postcode": "81750",
        "Location": "Jalan Persiaran Senibong",
        "Post_Office": "Masai",
        "State": "Johor"
    },
    {
        "Postcode": "81750",
        "Location": "Kampung Baru Sentosa",
        "Post_Office": "Masai",
        "State": "Johor"
    },
    {
        "Postcode": "81750",
        "Location": "Kampung Kong Kong Laut",
        "Post_Office": "Masai",
        "State": "Johor"
    },
    {
        "Postcode": "81750",
        "Location": "Kampung Kopok",
        "Post_Office": "Masai",
        "State": "Johor"
    },
    {
        "Postcode": "81750",
        "Location": "Kampung Kuala Masai",
        "Post_Office": "Masai",
        "State": "Johor"
    },
    {
        "Postcode": "81750",
        "Location": "Kampung Luncu",
        "Post_Office": "Masai",
        "State": "Johor"
    },
    {
        "Postcode": "81750",
        "Location": "Kampung Orang Asli Masai",
        "Post_Office": "Masai",
        "State": "Johor"
    },
    {
        "Postcode": "81750",
        "Location": "Kampung Plentong Baru",
        "Post_Office": "Masai",
        "State": "Johor"
    },
    {
        "Postcode": "81750",
        "Location": "Kampung Plentong Tengah",
        "Post_Office": "Masai",
        "State": "Johor"
    },
    {
        "Postcode": "81750",
        "Location": "Kampung Rekoh",
        "Post_Office": "Masai",
        "State": "Johor"
    },
    {
        "Postcode": "81750",
        "Location": "Kampung Sempadan",
        "Post_Office": "Masai",
        "State": "Johor"
    },
    {
        "Postcode": "81750",
        "Location": "Kampung Senibong",
        "Post_Office": "Masai",
        "State": "Johor"
    },
    {
        "Postcode": "81750",
        "Location": "Kampung Seri Bahagia",
        "Post_Office": "Masai",
        "State": "Johor"
    },
    {
        "Postcode": "81750",
        "Location": "Kampung Sri Tasek",
        "Post_Office": "Masai",
        "State": "Johor"
    },
    {
        "Postcode": "81750",
        "Location": "Kampung Sungai Kuala Masai",
        "Post_Office": "Masai",
        "State": "Johor"
    },
    {
        "Postcode": "81750",
        "Location": "Kampung Sungai Latoh",
        "Post_Office": "Masai",
        "State": "Johor"
    },
    {
        "Postcode": "81750",
        "Location": "Kampung Sungai Rinting",
        "Post_Office": "Masai",
        "State": "Johor"
    },
    {
        "Postcode": "81750",
        "Location": "Kampung Tanjong Langsat",
        "Post_Office": "Masai",
        "State": "Johor"
    },
    {
        "Postcode": "81750",
        "Location": "Kampung Tanjong Surat",
        "Post_Office": "Masai",
        "State": "Johor"
    },
    {
        "Postcode": "81750",
        "Location": "Kampung Telok Jawa",
        "Post_Office": "Masai",
        "State": "Johor"
    },
    {
        "Postcode": "81750",
        "Location": "Kampung Tengkorak",
        "Post_Office": "Masai",
        "State": "Johor"
    },
    {
        "Postcode": "81750",
        "Location": "Kampung Tun Sambanthan",
        "Post_Office": "Masai",
        "State": "Johor"
    },
    {
        "Postcode": "81750",
        "Location": "Masai",
        "Post_Office": "Masai",
        "State": "Johor"
    },
    {
        "Postcode": "81750",
        "Location": "Perindustrian Sri Alam",
        "Post_Office": "Masai",
        "State": "Johor"
    },
    {
        "Postcode": "81750",
        "Location": "Permas Jaya",
        "Post_Office": "Masai",
        "State": "Johor"
    },
    {
        "Postcode": "81750",
        "Location": "Plentung Baru",
        "Post_Office": "Masai",
        "State": "Johor"
    },
    {
        "Postcode": "81750",
        "Location": "Politeknik Johor Bahru",
        "Post_Office": "Masai",
        "State": "Johor"
    },
    {
        "Postcode": "81750",
        "Location": "Summer Park",
        "Post_Office": "Masai",
        "State": "Johor"
    },
    {
        "Postcode": "81750",
        "Location": "Taman Desa Rakyat Perdana",
        "Post_Office": "Masai",
        "State": "Johor"
    },
    {
        "Postcode": "81750",
        "Location": "Taman Flora Height",
        "Post_Office": "Masai",
        "State": "Johor"
    },
    {
        "Postcode": "81750",
        "Location": "Taman Kota Puteri",
        "Post_Office": "Masai",
        "State": "Johor"
    },
    {
        "Postcode": "81750",
        "Location": "Taman Masai",
        "Post_Office": "Masai",
        "State": "Johor"
    },
    {
        "Postcode": "81750",
        "Location": "Taman Masai Utama",
        "Post_Office": "Masai",
        "State": "Johor"
    },
    {
        "Postcode": "81750",
        "Location": "Taman Megah Ria",
        "Post_Office": "Masai",
        "State": "Johor"
    },
    {
        "Postcode": "81750",
        "Location": "Taman Perindustrian Desa Plentong",
        "Post_Office": "Masai",
        "State": "Johor"
    },
    {
        "Postcode": "81750",
        "Location": "Taman Perindustrian Kota Putri",
        "Post_Office": "Masai",
        "State": "Johor"
    },
    {
        "Postcode": "81750",
        "Location": "Taman Perindustrian Sri Plentong",
        "Post_Office": "Masai",
        "State": "Johor"
    },
    {
        "Postcode": "81750",
        "Location": "Taman Permas Indah",
        "Post_Office": "Masai",
        "State": "Johor"
    },
    {
        "Postcode": "81750",
        "Location": "Taman Permas Jaya",
        "Post_Office": "Masai",
        "State": "Johor"
    },
    {
        "Postcode": "81750",
        "Location": "Taman Plentong Baru",
        "Post_Office": "Masai",
        "State": "Johor"
    },
    {
        "Postcode": "81750",
        "Location": "Taman Rinting",
        "Post_Office": "Masai",
        "State": "Johor"
    },
    {
        "Postcode": "81750",
        "Location": "Taman Seri Alam",
        "Post_Office": "Masai",
        "State": "Johor"
    },
    {
        "Postcode": "81750",
        "Location": "Taman Sierra Perdana",
        "Post_Office": "Masai",
        "State": "Johor"
    },
    {
        "Postcode": "81750",
        "Location": "Taman Sri Plentong",
        "Post_Office": "Masai",
        "State": "Johor"
    }
]
