[
    {
        "Postcode": "81800",
        "Location": "Kampung Kubur",
        "Post_Office": "Ulu Tiram",
        "State": "Johor"
    },
    {
        "Postcode": "81800",
        "Location": "Taman Mesra",
        "Post_Office": "Ulu Tiram",
        "State": "Johor"
    },
    {
        "Postcode": "81800",
        "Location": "Jalan Kempas",
        "Post_Office": "Ulu Tiram",
        "State": "Johor"
    },
    {
        "Postcode": "81800",
        "Location": "Kampung Tenang",
        "Post_Office": "Ulu Tiram",
        "State": "Johor"
    },
    {
        "Postcode": "81800",
        "Location": "Taman Gaya",
        "Post_Office": "Ulu Tiram",
        "State": "Johor"
    },
    {
        "Postcode": "81800",
        "Location": "Taman Maluri Jaya",
        "Post_Office": "Ulu Tiram",
        "State": "Johor"
    },
    {
        "Postcode": "81800",
        "Location": "Kampung Mulai Sungai Tiram",
        "Post_Office": "Ulu Tiram",
        "State": "Johor"
    },
    {
        "Postcode": "81800",
        "Location": "Kampung Bukit Dagang",
        "Post_Office": "Ulu Tiram",
        "State": "Johor"
    },
    {
        "Postcode": "81800",
        "Location": "Taman Perindustrain Gemilang",
        "Post_Office": "Ulu Tiram",
        "State": "Johor"
    },
    {
        "Postcode": "81800",
        "Location": "Taman Perindustrian Tiram Utama",
        "Post_Office": "Ulu Tiram",
        "State": "Johor"
    },
    {
        "Postcode": "81800",
        "Location": "Taman Puteri Wangsa",
        "Post_Office": "Ulu Tiram",
        "State": "Johor"
    },
    {
        "Postcode": "81800",
        "Location": "Taman Tiram Baru",
        "Post_Office": "Ulu Tiram",
        "State": "Johor"
    },
    {
        "Postcode": "81800",
        "Location": "Taman Tiram Jaya",
        "Post_Office": "Ulu Tiram",
        "State": "Johor"
    },
    {
        "Postcode": "81800",
        "Location": "Taman Ulu Tiram",
        "Post_Office": "Ulu Tiram",
        "State": "Johor"
    },
    {
        "Postcode": "81800",
        "Location": "Jalan Makmur 4",
        "Post_Office": "Ulu Tiram",
        "State": "Johor"
    },
    {
        "Postcode": "81800",
        "Location": "Kawasan Perindustrian Sederhana Platinum",
        "Post_Office": "Ulu Tiram",
        "State": "Johor"
    },
    {
        "Postcode": "81800",
        "Location": "Taman Bukit Jaya",
        "Post_Office": "Ulu Tiram",
        "State": "Johor"
    },
    {
        "Postcode": "81800",
        "Location": "Taman Perindustrian Gemilang",
        "Post_Office": "Ulu Tiram",
        "State": "Johor"
    },
    {
        "Postcode": "81800",
        "Location": "Kampung Baru",
        "Post_Office": "Ulu Tiram",
        "State": "Johor"
    },
    {
        "Postcode": "81800",
        "Location": "Kampung Oren",
        "Post_Office": "Ulu Tiram",
        "State": "Johor"
    },
    {
        "Postcode": "81800",
        "Location": "Taman Bunga Raya",
        "Post_Office": "Ulu Tiram",
        "State": "Johor"
    },
    {
        "Postcode": "81800",
        "Location": "Taman Intan",
        "Post_Office": "Ulu Tiram",
        "State": "Johor"
    },
    {
        "Postcode": "81800",
        "Location": "Taman Kasih",
        "Post_Office": "Ulu Tiram",
        "State": "Johor"
    },
    {
        "Postcode": "81800",
        "Location": "Taman Melati",
        "Post_Office": "Ulu Tiram",
        "State": "Johor"
    },
    {
        "Postcode": "81800",
        "Location": "Taman Pelangi Indah",
        "Post_Office": "Ulu Tiram",
        "State": "Johor"
    },
    {
        "Postcode": "81800",
        "Location": "Taman Gunung Emas",
        "Post_Office": "Ulu Tiram",
        "State": "Johor"
    },
    {
        "Postcode": "81800",
        "Location": "Taman Mutiara",
        "Post_Office": "Ulu Tiram",
        "State": "Johor"
    },
    {
        "Postcode": "81800",
        "Location": "Ban Foo",
        "Post_Office": "Ulu Tiram",
        "State": "Johor"
    },
    {
        "Postcode": "81800",
        "Location": "Felda Sungai Tiram",
        "Post_Office": "Ulu Tiram",
        "State": "Johor"
    },
    {
        "Postcode": "81800",
        "Location": "Felda Ulu Tebrau",
        "Post_Office": "Ulu Tiram",
        "State": "Johor"
    },
    {
        "Postcode": "81800",
        "Location": "Jalan Sungai Tiram",
        "Post_Office": "Ulu Tiram",
        "State": "Johor"
    },
    {
        "Postcode": "81800",
        "Location": "Kampung Ac Batu 18",
        "Post_Office": "Ulu Tiram",
        "State": "Johor"
    },
    {
        "Postcode": "81800",
        "Location": "Kampung Banjar Batu 16 1/2",
        "Post_Office": "Ulu Tiram",
        "State": "Johor"
    },
    {
        "Postcode": "81800",
        "Location": "Kampung Baru Jaya",
        "Post_Office": "Ulu Tiram",
        "State": "Johor"
    },
    {
        "Postcode": "81800",
        "Location": "Kampung Dato Bentara",
        "Post_Office": "Ulu Tiram",
        "State": "Johor"
    },
    {
        "Postcode": "81800",
        "Location": "Kampung Iswati Sohot",
        "Post_Office": "Ulu Tiram",
        "State": "Johor"
    },
    {
        "Postcode": "81800",
        "Location": "Kampung Mic",
        "Post_Office": "Ulu Tiram",
        "State": "Johor"
    },
    {
        "Postcode": "81800",
        "Location": "Kampung Mulia",
        "Post_Office": "Ulu Tiram",
        "State": "Johor"
    },
    {
        "Postcode": "81800",
        "Location": "Kampung Pasir Batu 20",
        "Post_Office": "Ulu Tiram",
        "State": "Johor"
    },
    {
        "Postcode": "81800",
        "Location": "Kampung Sungai Redan",
        "Post_Office": "Ulu Tiram",
        "State": "Johor"
    },
    {
        "Postcode": "81800",
        "Location": "Kampung Sungai Tiram",
        "Post_Office": "Ulu Tiram",
        "State": "Johor"
    },
    {
        "Postcode": "81800",
        "Location": "Sungai Tiram",
        "Post_Office": "Ulu Tiram",
        "State": "Johor"
    },
    {
        "Postcode": "81800",
        "Location": "Taman Bestari Indah",
        "Post_Office": "Ulu Tiram",
        "State": "Johor"
    },
    {
        "Postcode": "81800",
        "Location": "Taman Bukit Tiram",
        "Post_Office": "Ulu Tiram",
        "State": "Johor"
    },
    {
        "Postcode": "81800",
        "Location": "Taman Bukit Tropika",
        "Post_Office": "Ulu Tiram",
        "State": "Johor"
    },
    {
        "Postcode": "81800",
        "Location": "Taman Dato Chellam",
        "Post_Office": "Ulu Tiram",
        "State": "Johor"
    },
    {
        "Postcode": "81800",
        "Location": "Taman Desa Cemerlang",
        "Post_Office": "Ulu Tiram",
        "State": "Johor"
    },
    {
        "Postcode": "81800",
        "Location": "Taman Kejayaan",
        "Post_Office": "Ulu Tiram",
        "State": "Johor"
    },
    {
        "Postcode": "81800",
        "Location": "Taman Maju Jaya (Ulu Tiram)",
        "Post_Office": "Ulu Tiram",
        "State": "Johor"
    },
    {
        "Postcode": "81800",
        "Location": "Taman Maluri",
        "Post_Office": "Ulu Tiram",
        "State": "Johor"
    },
    {
        "Postcode": "81800",
        "Location": "Taman Muhibah (Ulu Tiram)",
        "Post_Office": "Ulu Tiram",
        "State": "Johor"
    },
    {
        "Postcode": "81800",
        "Location": "Taman Murni 2",
        "Post_Office": "Ulu Tiram",
        "State": "Johor"
    },
    {
        "Postcode": "81800",
        "Location": "Taman Nora",
        "Post_Office": "Ulu Tiram",
        "State": "Johor"
    },
    {
        "Postcode": "81800",
        "Location": "Taman Oren",
        "Post_Office": "Ulu Tiram",
        "State": "Johor"
    },
    {
        "Postcode": "81800",
        "Location": "Taman Perindustrian Cemerlang",
        "Post_Office": "Ulu Tiram",
        "State": "Johor"
    },
    {
        "Postcode": "81800",
        "Location": "Taman Perindustrian Tropika",
        "Post_Office": "Ulu Tiram",
        "State": "Johor"
    },
    {
        "Postcode": "81800",
        "Location": "Taman Putri Park",
        "Post_Office": "Ulu Tiram",
        "State": "Johor"
    },
    {
        "Postcode": "81800",
        "Location": "Taman Putri Wangsa",
        "Post_Office": "Ulu Tiram",
        "State": "Johor"
    },
    {
        "Postcode": "81800",
        "Location": "Taman Sri Tiram",
        "Post_Office": "Ulu Tiram",
        "State": "Johor"
    },
    {
        "Postcode": "81800",
        "Location": "Taman Zamrud",
        "Post_Office": "Ulu Tiram",
        "State": "Johor"
    },
    {
        "Postcode": "81800",
        "Location": "Ulu Tiram",
        "Post_Office": "Ulu Tiram",
        "State": "Johor"
    }
]
