[
    {
        "Postcode": "81850",
        "Location": "Taman Puteri",
        "Post_Office": "Layang-Layang",
        "State": "Johor"
    },
    {
        "Postcode": "81850",
        "Location": "Kampung Kenangan",
        "Post_Office": "Layang-Layang",
        "State": "Johor"
    },
    {
        "Postcode": "81850",
        "Location": "Kampung Paya Baru",
        "Post_Office": "Layang-Layang",
        "State": "Johor"
    },
    {
        "Postcode": "81850",
        "Location": "Taman Rumah Murah",
        "Post_Office": "Layang-Layang",
        "State": "Johor"
    },
    {
        "Postcode": "81850",
        "Location": "Taman Paya Indah",
        "Post_Office": "Layang-Layang",
        "State": "Johor"
    },
    {
        "Postcode": "81850",
        "Location": "Kampung Baru Cina",
        "Post_Office": "Layang-Layang",
        "State": "Johor"
    },
    {
        "Postcode": "81850",
        "Location": "Kampung Jaya Sepakat",
        "Post_Office": "Layang-Layang",
        "State": "Johor"
    },
    {
        "Postcode": "81850",
        "Location": "Kampung Melayu",
        "Post_Office": "Layang-Layang",
        "State": "Johor"
    },
    {
        "Postcode": "81850",
        "Location": "Kampung Paya",
        "Post_Office": "Layang-Layang",
        "State": "Johor"
    },
    {
        "Postcode": "81850",
        "Location": "Kampung Tengah",
        "Post_Office": "Layang-Layang",
        "State": "Johor"
    },
    {
        "Postcode": "81850",
        "Location": "Taman Mawar",
        "Post_Office": "Layang-Layang",
        "State": "Johor"
    },
    {
        "Postcode": "81850",
        "Location": "Taman Cempaka",
        "Post_Office": "Layang-Layang",
        "State": "Johor"
    },
    {
        "Postcode": "81850",
        "Location": "Taman Ros",
        "Post_Office": "Layang-Layang",
        "State": "Johor"
    },
    {
        "Postcode": "81850",
        "Location": "Bukit Permai",
        "Post_Office": "Layang-Layang",
        "State": "Johor"
    },
    {
        "Postcode": "81850",
        "Location": "Felda Bukit Permai",
        "Post_Office": "Layang-Layang",
        "State": "Johor"
    },
    {
        "Postcode": "81850",
        "Location": "Kampung Hong Seng Kong",
        "Post_Office": "Layang-Layang",
        "State": "Johor"
    },
    {
        "Postcode": "81850",
        "Location": "Kampung Jalan Melati",
        "Post_Office": "Layang-Layang",
        "State": "Johor"
    },
    {
        "Postcode": "81850",
        "Location": "Kampung Murai Jaya",
        "Post_Office": "Layang-Layang",
        "State": "Johor"
    },
    {
        "Postcode": "81850",
        "Location": "Kampung Murni Jaya",
        "Post_Office": "Layang-Layang",
        "State": "Johor"
    },
    {
        "Postcode": "81850",
        "Location": "Kampung Sri Muar",
        "Post_Office": "Layang-Layang",
        "State": "Johor"
    },
    {
        "Postcode": "81850",
        "Location": "Kampung Sungai Besi",
        "Post_Office": "Layang-Layang",
        "State": "Johor"
    },
    {
        "Postcode": "81850",
        "Location": "Kampung Sungai Besoi",
        "Post_Office": "Layang-Layang",
        "State": "Johor"
    },
    {
        "Postcode": "81850",
        "Location": "Kampung Sungai Sayang",
        "Post_Office": "Layang-Layang",
        "State": "Johor"
    },
    {
        "Postcode": "81850",
        "Location": "Kampung Sungai Sayong",
        "Post_Office": "Layang-Layang",
        "State": "Johor"
    },
    {
        "Postcode": "81850",
        "Location": "Kampung Sungai Siam",
        "Post_Office": "Layang-Layang",
        "State": "Johor"
    },
    {
        "Postcode": "81850",
        "Location": "Layang-Layang",
        "Post_Office": "Layang-Layang",
        "State": "Johor"
    },
    {
        "Postcode": "81850",
        "Location": "Taman Layang",
        "Post_Office": "Layang-Layang",
        "State": "Johor"
    },
    {
        "Postcode": "81850",
        "Location": "Taman Sri Layang",
        "Post_Office": "Layang-Layang",
        "State": "Johor"
    }
]
