[
    {
        "Postcode": "81900",
        "Location": "Jalan Abdullah",
        "Post_Office": "Kota Tinggi",
        "State": "Johor"
    },
    {
        "Postcode": "81900",
        "Location": "Jalan Besar",
        "Post_Office": "Kota Tinggi",
        "State": "Johor"
    },
    {
        "Postcode": "81900",
        "Location": "Jalan Bunga Raya",
        "Post_Office": "Kota Tinggi",
        "State": "Johor"
    },
    {
        "Postcode": "81900",
        "Location": "Jalan Ibrahim",
        "Post_Office": "Kota Tinggi",
        "State": "Johor"
    },
    {
        "Postcode": "81900",
        "Location": "Taman Aman",
        "Post_Office": "Kota Tinggi",
        "State": "Johor"
    },
    {
        "Postcode": "81900",
        "Location": "Jalan Kolam Air",
        "Post_Office": "Kota Tinggi",
        "State": "Johor"
    },
    {
        "Postcode": "81900",
        "Location": "Taman Guru",
        "Post_Office": "Kota Tinggi",
        "State": "Johor"
    },
    {
        "Postcode": "81900",
        "Location": "Taman Kota",
        "Post_Office": "Kota Tinggi",
        "State": "Johor"
    },
    {
        "Postcode": "81900",
        "Location": "Taman Laksamana",
        "Post_Office": "Kota Tinggi",
        "State": "Johor"
    },
    {
        "Postcode": "81900",
        "Location": "Jalan Cempaka",
        "Post_Office": "Kota Tinggi",
        "State": "Johor"
    },
    {
        "Postcode": "81900",
        "Location": "Jalan Kekwa",
        "Post_Office": "Kota Tinggi",
        "State": "Johor"
    },
    {
        "Postcode": "81900",
        "Location": "Jalan Melati",
        "Post_Office": "Kota Tinggi",
        "State": "Johor"
    },
    {
        "Postcode": "81900",
        "Location": "Jalan Melor",
        "Post_Office": "Kota Tinggi",
        "State": "Johor"
    },
    {
        "Postcode": "81900",
        "Location": "Jalan Ah Siang",
        "Post_Office": "Kota Tinggi",
        "State": "Johor"
    },
    {
        "Postcode": "81900",
        "Location": "Jalan Bayam",
        "Post_Office": "Kota Tinggi",
        "State": "Johor"
    },
    {
        "Postcode": "81900",
        "Location": "Jalan Kancil",
        "Post_Office": "Kota Tinggi",
        "State": "Johor"
    },
    {
        "Postcode": "81900",
        "Location": "Jalan Kijang",
        "Post_Office": "Kota Tinggi",
        "State": "Johor"
    },
    {
        "Postcode": "81900",
        "Location": "Jalan Kota Tinggi",
        "Post_Office": "Kota Tinggi",
        "State": "Johor"
    },
    {
        "Postcode": "81900",
        "Location": "Jalan Omar",
        "Post_Office": "Kota Tinggi",
        "State": "Johor"
    },
    {
        "Postcode": "81900",
        "Location": "Jalan Orkid",
        "Post_Office": "Kota Tinggi",
        "State": "Johor"
    },
    {
        "Postcode": "81900",
        "Location": "Jalan Pejabat",
        "Post_Office": "Kota Tinggi",
        "State": "Johor"
    },
    {
        "Postcode": "81900",
        "Location": "Jalan Teratai",
        "Post_Office": "Kota Tinggi",
        "State": "Johor"
    },
    {
        "Postcode": "81900",
        "Location": "Kampung Makam",
        "Post_Office": "Kota Tinggi",
        "State": "Johor"
    },
    {
        "Postcode": "81900",
        "Location": "Kampung Sri Gading",
        "Post_Office": "Kota Tinggi",
        "State": "Johor"
    },
    {
        "Postcode": "81900",
        "Location": "Taman Bendahara",
        "Post_Office": "Kota Tinggi",
        "State": "Johor"
    },
    {
        "Postcode": "81900",
        "Location": "Jalan Lobak",
        "Post_Office": "Kota Tinggi",
        "State": "Johor"
    },
    {
        "Postcode": "81900",
        "Location": "Jalan Melor 1",
        "Post_Office": "Kota Tinggi",
        "State": "Johor"
    },
    {
        "Postcode": "81900",
        "Location": "Taman Kota Besar",
        "Post_Office": "Kota Tinggi",
        "State": "Johor"
    },
    {
        "Postcode": "81900",
        "Location": "Jalan Bayam 1",
        "Post_Office": "Kota Tinggi",
        "State": "Johor"
    },
    {
        "Postcode": "81900",
        "Location": "Jalan Bayam 2",
        "Post_Office": "Kota Tinggi",
        "State": "Johor"
    },
    {
        "Postcode": "81900",
        "Location": "Jalan Bayam 3",
        "Post_Office": "Kota Tinggi",
        "State": "Johor"
    },
    {
        "Postcode": "81900",
        "Location": "Jalan Bayam 4",
        "Post_Office": "Kota Tinggi",
        "State": "Johor"
    },
    {
        "Postcode": "81900",
        "Location": "Jalan Lobak 1",
        "Post_Office": "Kota Tinggi",
        "State": "Johor"
    },
    {
        "Postcode": "81900",
        "Location": "Jalan Lobak 2",
        "Post_Office": "Kota Tinggi",
        "State": "Johor"
    },
    {
        "Postcode": "81900",
        "Location": "Jalan Melor 4",
        "Post_Office": "Kota Tinggi",
        "State": "Johor"
    },
    {
        "Postcode": "81900",
        "Location": "Jalan Muhamad 1",
        "Post_Office": "Kota Tinggi",
        "State": "Johor"
    },
    {
        "Postcode": "81900",
        "Location": "Jalan Muhamad 2",
        "Post_Office": "Kota Tinggi",
        "State": "Johor"
    },
    {
        "Postcode": "81900",
        "Location": "Jalan Niaga 1",
        "Post_Office": "Kota Tinggi",
        "State": "Johor"
    },
    {
        "Postcode": "81900",
        "Location": "Jalan Niaga 10",
        "Post_Office": "Kota Tinggi",
        "State": "Johor"
    },
    {
        "Postcode": "81900",
        "Location": "Jalan Niaga 11",
        "Post_Office": "Kota Tinggi",
        "State": "Johor"
    },
    {
        "Postcode": "81900",
        "Location": "Jalan Niaga 2",
        "Post_Office": "Kota Tinggi",
        "State": "Johor"
    },
    {
        "Postcode": "81900",
        "Location": "Jalan Niaga 3",
        "Post_Office": "Kota Tinggi",
        "State": "Johor"
    },
    {
        "Postcode": "81900",
        "Location": "Jalan Niaga 4",
        "Post_Office": "Kota Tinggi",
        "State": "Johor"
    },
    {
        "Postcode": "81900",
        "Location": "Jalan Niaga 5",
        "Post_Office": "Kota Tinggi",
        "State": "Johor"
    },
    {
        "Postcode": "81900",
        "Location": "Jalan Niaga 6",
        "Post_Office": "Kota Tinggi",
        "State": "Johor"
    },
    {
        "Postcode": "81900",
        "Location": "Jalan Niaga 7",
        "Post_Office": "Kota Tinggi",
        "State": "Johor"
    },
    {
        "Postcode": "81900",
        "Location": "Jalan Niaga 8",
        "Post_Office": "Kota Tinggi",
        "State": "Johor"
    },
    {
        "Postcode": "81900",
        "Location": "Jalan Niaga 9",
        "Post_Office": "Kota Tinggi",
        "State": "Johor"
    },
    {
        "Postcode": "81900",
        "Location": "Jalan Sawi 1",
        "Post_Office": "Kota Tinggi",
        "State": "Johor"
    },
    {
        "Postcode": "81900",
        "Location": "Jalan Sawi 2",
        "Post_Office": "Kota Tinggi",
        "State": "Johor"
    },
    {
        "Postcode": "81900",
        "Location": "Jalan Sawi 3",
        "Post_Office": "Kota Tinggi",
        "State": "Johor"
    },
    {
        "Postcode": "81900",
        "Location": "Jalan Sawi 4",
        "Post_Office": "Kota Tinggi",
        "State": "Johor"
    },
    {
        "Postcode": "81900",
        "Location": "Jalan Sawi 5",
        "Post_Office": "Kota Tinggi",
        "State": "Johor"
    },
    {
        "Postcode": "81900",
        "Location": "Jalan Sawi 6",
        "Post_Office": "Kota Tinggi",
        "State": "Johor"
    },
    {
        "Postcode": "81900",
        "Location": "Jalan Sawi 7",
        "Post_Office": "Kota Tinggi",
        "State": "Johor"
    },
    {
        "Postcode": "81900",
        "Location": "Jalan Sawi 8",
        "Post_Office": "Kota Tinggi",
        "State": "Johor"
    },
    {
        "Postcode": "81900",
        "Location": "Jalan Taib 1",
        "Post_Office": "Kota Tinggi",
        "State": "Johor"
    },
    {
        "Postcode": "81900",
        "Location": "Jalan Taib 2",
        "Post_Office": "Kota Tinggi",
        "State": "Johor"
    },
    {
        "Postcode": "81900",
        "Location": "Jalan Taib 3",
        "Post_Office": "Kota Tinggi",
        "State": "Johor"
    },
    {
        "Postcode": "81900",
        "Location": "Lorong Mohideen 1",
        "Post_Office": "Kota Tinggi",
        "State": "Johor"
    },
    {
        "Postcode": "81900",
        "Location": "Lorong Mohideen 2",
        "Post_Office": "Kota Tinggi",
        "State": "Johor"
    },
    {
        "Postcode": "81900",
        "Location": "Lorong Mohideen 3",
        "Post_Office": "Kota Tinggi",
        "State": "Johor"
    },
    {
        "Postcode": "81900",
        "Location": "Lorong Mohideen 4",
        "Post_Office": "Kota Tinggi",
        "State": "Johor"
    },
    {
        "Postcode": "81900",
        "Location": "Lorong Mohideen 5",
        "Post_Office": "Kota Tinggi",
        "State": "Johor"
    },
    {
        "Postcode": "81900",
        "Location": "Jalan Melor 2",
        "Post_Office": "Kota Tinggi",
        "State": "Johor"
    },
    {
        "Postcode": "81900",
        "Location": "Jalan Melor 3",
        "Post_Office": "Kota Tinggi",
        "State": "Johor"
    },
    {
        "Postcode": "81900",
        "Location": "Jalan Mersing",
        "Post_Office": "Kota Tinggi",
        "State": "Johor"
    },
    {
        "Postcode": "81900",
        "Location": "Kampung Haji Mohd Jambi\t",
        "Post_Office": "Kota Tinggi",
        "State": "Johor"
    },
    {
        "Postcode": "81900",
        "Location": "Kampung Temenin Baru",
        "Post_Office": "Kota Tinggi",
        "State": "Johor"
    },
    {
        "Postcode": "81900",
        "Location": "Kampung Teminin Baru",
        "Post_Office": "Kota Tinggi",
        "State": "Johor"
    },
    {
        "Postcode": "81900",
        "Location": "Kawasan Perindustrian Lukut",
        "Post_Office": "Kota Tinggi",
        "State": "Johor"
    },
    {
        "Postcode": "81900",
        "Location": "Ladang Rem",
        "Post_Office": "Kota Tinggi",
        "State": "Johor"
    },
    {
        "Postcode": "81900",
        "Location": "Pekan Tanjung Sedili",
        "Post_Office": "Kota Tinggi",
        "State": "Johor"
    },
    {
        "Postcode": "81900",
        "Location": "Taman Kemang",
        "Post_Office": "Kota Tinggi",
        "State": "Johor"
    },
    {
        "Postcode": "81900",
        "Location": "Taman Kota Intan",
        "Post_Office": "Kota Tinggi",
        "State": "Johor"
    },
    {
        "Postcode": "81900",
        "Location": "Taman Kota Merdesa",
        "Post_Office": "Kota Tinggi",
        "State": "Johor"
    },
    {
        "Postcode": "81900",
        "Location": "Jalan Napoh",
        "Post_Office": "Kota Tinggi",
        "State": "Johor"
    },
    {
        "Postcode": "81900",
        "Location": "Jalan Padang",
        "Post_Office": "Kota Tinggi",
        "State": "Johor"
    },
    {
        "Postcode": "81900",
        "Location": "Jalan Perikanan",
        "Post_Office": "Kota Tinggi",
        "State": "Johor"
    },
    {
        "Postcode": "81900",
        "Location": "Jalan Pucong",
        "Post_Office": "Kota Tinggi",
        "State": "Johor"
    },
    {
        "Postcode": "81900",
        "Location": "Jalan Rajawali",
        "Post_Office": "Kota Tinggi",
        "State": "Johor"
    },
    {
        "Postcode": "81900",
        "Location": "Jalan Rusa",
        "Post_Office": "Kota Tinggi",
        "State": "Johor"
    },
    {
        "Postcode": "81900",
        "Location": "Jalan Sawi",
        "Post_Office": "Kota Tinggi",
        "State": "Johor"
    },
    {
        "Postcode": "81900",
        "Location": "Jalan Taib",
        "Post_Office": "Kota Tinggi",
        "State": "Johor"
    },
    {
        "Postcode": "81900",
        "Location": "Jalan Tepi Sungai",
        "Post_Office": "Kota Tinggi",
        "State": "Johor"
    },
    {
        "Postcode": "81900",
        "Location": "Jalan Wayang",
        "Post_Office": "Kota Tinggi",
        "State": "Johor"
    },
    {
        "Postcode": "81900",
        "Location": "Kampung Batu 25",
        "Post_Office": "Kota Tinggi",
        "State": "Johor"
    },
    {
        "Postcode": "81900",
        "Location": "Kampung Desa Makmur",
        "Post_Office": "Kota Tinggi",
        "State": "Johor"
    },
    {
        "Postcode": "81900",
        "Location": "Kampung Kelantan",
        "Post_Office": "Kota Tinggi",
        "State": "Johor"
    },
    {
        "Postcode": "81900",
        "Location": "Taman Hidayat",
        "Post_Office": "Kota Tinggi",
        "State": "Johor"
    },
    {
        "Postcode": "81900",
        "Location": "Taman Sri Lalang",
        "Post_Office": "Kota Tinggi",
        "State": "Johor"
    },
    {
        "Postcode": "81900",
        "Location": "Jalan Mohd Amin",
        "Post_Office": "Kota Tinggi",
        "State": "Johor"
    },
    {
        "Postcode": "81900",
        "Location": "Jalan Muhamad",
        "Post_Office": "Kota Tinggi",
        "State": "Johor"
    },
    {
        "Postcode": "81900",
        "Location": "Kampung Baru",
        "Post_Office": "Kota Tinggi",
        "State": "Johor"
    },
    {
        "Postcode": "81900",
        "Location": "Kampung Bukit Lintang",
        "Post_Office": "Kota Tinggi",
        "State": "Johor"
    },
    {
        "Postcode": "81900",
        "Location": "Kampung Jawa",
        "Post_Office": "Kota Tinggi",
        "State": "Johor"
    },
    {
        "Postcode": "81900",
        "Location": "Kampung Nelayan",
        "Post_Office": "Kota Tinggi",
        "State": "Johor"
    },
    {
        "Postcode": "81900",
        "Location": "Kampung Padang",
        "Post_Office": "Kota Tinggi",
        "State": "Johor"
    },
    {
        "Postcode": "81900",
        "Location": "Kampung Sentosa",
        "Post_Office": "Kota Tinggi",
        "State": "Johor"
    },
    {
        "Postcode": "81900",
        "Location": "Kampung Sri Aman",
        "Post_Office": "Kota Tinggi",
        "State": "Johor"
    },
    {
        "Postcode": "81900",
        "Location": "Kampung Tengah",
        "Post_Office": "Kota Tinggi",
        "State": "Johor"
    },
    {
        "Postcode": "81900",
        "Location": "Taman Desa Sejahtera",
        "Post_Office": "Kota Tinggi",
        "State": "Johor"
    },
    {
        "Postcode": "81900",
        "Location": "Taman Kota Mas",
        "Post_Office": "Kota Tinggi",
        "State": "Johor"
    },
    {
        "Postcode": "81900",
        "Location": "Taman Muhibbah",
        "Post_Office": "Kota Tinggi",
        "State": "Johor"
    },
    {
        "Postcode": "81900",
        "Location": "Taman Gunung Emas",
        "Post_Office": "Kota Tinggi",
        "State": "Johor"
    },
    {
        "Postcode": "81900",
        "Location": "Taman Sri Saujana",
        "Post_Office": "Kota Tinggi",
        "State": "Johor"
    },
    {
        "Postcode": "81900",
        "Location": "Bandar Sri Perani",
        "Post_Office": "Kota Tinggi",
        "State": "Johor"
    },
    {
        "Postcode": "81900",
        "Location": "Felcra Sungai Ara",
        "Post_Office": "Kota Tinggi",
        "State": "Johor"
    },
    {
        "Postcode": "81900",
        "Location": "Felda Bukit Aping Barat",
        "Post_Office": "Kota Tinggi",
        "State": "Johor"
    },
    {
        "Postcode": "81900",
        "Location": "Felda Bukit Aping Timur",
        "Post_Office": "Kota Tinggi",
        "State": "Johor"
    },
    {
        "Postcode": "81900",
        "Location": "Felda Bukit Ester",
        "Post_Office": "Kota Tinggi",
        "State": "Johor"
    },
    {
        "Postcode": "81900",
        "Location": "Felda Bukit Waha",
        "Post_Office": "Kota Tinggi",
        "State": "Johor"
    },
    {
        "Postcode": "81900",
        "Location": "Felda Pasak",
        "Post_Office": "Kota Tinggi",
        "State": "Johor"
    },
    {
        "Postcode": "81900",
        "Location": "Felda Simpang Waha",
        "Post_Office": "Kota Tinggi",
        "State": "Johor"
    },
    {
        "Postcode": "81900",
        "Location": "Jalan Abd Aziz",
        "Post_Office": "Kota Tinggi",
        "State": "Johor"
    },
    {
        "Postcode": "81900",
        "Location": "Jalan Ahmad Ujian",
        "Post_Office": "Kota Tinggi",
        "State": "Johor"
    },
    {
        "Postcode": "81900",
        "Location": "Jalan Bakar Arang",
        "Post_Office": "Kota Tinggi",
        "State": "Johor"
    },
    {
        "Postcode": "81900",
        "Location": "Jalan Bunga Tanjung",
        "Post_Office": "Kota Tinggi",
        "State": "Johor"
    },
    {
        "Postcode": "81900",
        "Location": "Jalan Chia Eee Koh",
        "Post_Office": "Kota Tinggi",
        "State": "Johor"
    },
    {
        "Postcode": "81900",
        "Location": "Jalan Chia Tu Sang",
        "Post_Office": "Kota Tinggi",
        "State": "Johor"
    },
    {
        "Postcode": "81900",
        "Location": "Jalan Haji Awang",
        "Post_Office": "Kota Tinggi",
        "State": "Johor"
    },
    {
        "Postcode": "81900",
        "Location": "Jalan Haji Omar",
        "Post_Office": "Kota Tinggi",
        "State": "Johor"
    },
    {
        "Postcode": "81900",
        "Location": "Jalan Hussein",
        "Post_Office": "Kota Tinggi",
        "State": "Johor"
    },
    {
        "Postcode": "81900",
        "Location": "Jalan Jaafar",
        "Post_Office": "Kota Tinggi",
        "State": "Johor"
    },
    {
        "Postcode": "81900",
        "Location": "Jalan Jaya",
        "Post_Office": "Kota Tinggi",
        "State": "Johor"
    },
    {
        "Postcode": "81900",
        "Location": "Jalan Johor ",
        "Post_Office": "Kota Tinggi",
        "State": "Johor"
    },
    {
        "Postcode": "81900",
        "Location": "Jalan Kedidi",
        "Post_Office": "Kota Tinggi",
        "State": "Johor"
    },
    {
        "Postcode": "81900",
        "Location": "Jalan Kota Kecil",
        "Post_Office": "Kota Tinggi",
        "State": "Johor"
    },
    {
        "Postcode": "81900",
        "Location": "Jalan Lim Lee",
        "Post_Office": "Kota Tinggi",
        "State": "Johor"
    },
    {
        "Postcode": "81900",
        "Location": "Jalan Lombong",
        "Post_Office": "Kota Tinggi",
        "State": "Johor"
    },
    {
        "Postcode": "81900",
        "Location": "Jalan Lukut Cina",
        "Post_Office": "Kota Tinggi",
        "State": "Johor"
    },
    {
        "Postcode": "81900",
        "Location": "Jalan Mawai",
        "Post_Office": "Kota Tinggi",
        "State": "Johor"
    },
    {
        "Postcode": "81900",
        "Location": "Jalan Mohideen",
        "Post_Office": "Kota Tinggi",
        "State": "Johor"
    },
    {
        "Postcode": "81900",
        "Location": "Jalan Moi Hiang",
        "Post_Office": "Kota Tinggi",
        "State": "Johor"
    },
    {
        "Postcode": "81900",
        "Location": "Jalan Niaga",
        "Post_Office": "Kota Tinggi",
        "State": "Johor"
    },
    {
        "Postcode": "81900",
        "Location": "Jalan Niaga Utama",
        "Post_Office": "Kota Tinggi",
        "State": "Johor"
    },
    {
        "Postcode": "81900",
        "Location": "Jalan Pasak",
        "Post_Office": "Kota Tinggi",
        "State": "Johor"
    },
    {
        "Postcode": "81900",
        "Location": "Jalan Pekan",
        "Post_Office": "Kota Tinggi",
        "State": "Johor"
    },
    {
        "Postcode": "81900",
        "Location": "Jalan Pelandok",
        "Post_Office": "Kota Tinggi",
        "State": "Johor"
    },
    {
        "Postcode": "81900",
        "Location": "Jalan Sedili Kecil",
        "Post_Office": "Kota Tinggi",
        "State": "Johor"
    },
    {
        "Postcode": "81900",
        "Location": "Jalan Simpang Kota Kecil",
        "Post_Office": "Kota Tinggi",
        "State": "Johor"
    },
    {
        "Postcode": "81900",
        "Location": "Jalan Srijaya",
        "Post_Office": "Kota Tinggi",
        "State": "Johor"
    },
    {
        "Postcode": "81900",
        "Location": "Jalan Suin",
        "Post_Office": "Kota Tinggi",
        "State": "Johor"
    },
    {
        "Postcode": "81900",
        "Location": "Jalan Sungai Kemang",
        "Post_Office": "Kota Tinggi",
        "State": "Johor"
    },
    {
        "Postcode": "81900",
        "Location": "Jalan Tambatan",
        "Post_Office": "Kota Tinggi",
        "State": "Johor"
    },
    {
        "Postcode": "81900",
        "Location": "Jalan Tan Hang Seng",
        "Post_Office": "Kota Tinggi",
        "State": "Johor"
    },
    {
        "Postcode": "81900",
        "Location": "Jalan Tay Kia Hong",
        "Post_Office": "Kota Tinggi",
        "State": "Johor"
    },
    {
        "Postcode": "81900",
        "Location": "Jalan Teo Kwee Chon",
        "Post_Office": "Kota Tinggi",
        "State": "Johor"
    },
    {
        "Postcode": "81900",
        "Location": "Jalan Teoh Koh Lee",
        "Post_Office": "Kota Tinggi",
        "State": "Johor"
    },
    {
        "Postcode": "81900",
        "Location": "Jalan Workshop",
        "Post_Office": "Kota Tinggi",
        "State": "Johor"
    },
    {
        "Postcode": "81900",
        "Location": "Jalan Yusof",
        "Post_Office": "Kota Tinggi",
        "State": "Johor"
    },
    {
        "Postcode": "81900",
        "Location": "Kampung Baru Sungai Telur",
        "Post_Office": "Kota Tinggi",
        "State": "Johor"
    },
    {
        "Postcode": "81900",
        "Location": "Kampung Batu Ampat",
        "Post_Office": "Kota Tinggi",
        "State": "Johor"
    },
    {
        "Postcode": "81900",
        "Location": "Kampung Belukar Durian",
        "Post_Office": "Kota Tinggi",
        "State": "Johor"
    },
    {
        "Postcode": "81900",
        "Location": "Kampung Bukit Kuala",
        "Post_Office": "Kota Tinggi",
        "State": "Johor"
    },
    {
        "Postcode": "81900",
        "Location": "Kampung Bukit Samsu",
        "Post_Office": "Kota Tinggi",
        "State": "Johor"
    },
    {
        "Postcode": "81900",
        "Location": "Kampung Gambut",
        "Post_Office": "Kota Tinggi",
        "State": "Johor"
    },
    {
        "Postcode": "81900",
        "Location": "Kampung Hutan Lesong",
        "Post_Office": "Kota Tinggi",
        "State": "Johor"
    },
    {
        "Postcode": "81900",
        "Location": "Kampung Jaloa",
        "Post_Office": "Kota Tinggi",
        "State": "Johor"
    },
    {
        "Postcode": "81900",
        "Location": "Kampung Jawa Dalam",
        "Post_Office": "Kota Tinggi",
        "State": "Johor"
    },
    {
        "Postcode": "81900",
        "Location": "Kampung Jawa Luar",
        "Post_Office": "Kota Tinggi",
        "State": "Johor"
    },
    {
        "Postcode": "81900",
        "Location": "Kampung Lipat Kajang",
        "Post_Office": "Kota Tinggi",
        "State": "Johor"
    },
    {
        "Postcode": "81900",
        "Location": "Kampung Lukut",
        "Post_Office": "Kota Tinggi",
        "State": "Johor"
    },
    {
        "Postcode": "81900",
        "Location": "Kampung Lukut Cina",
        "Post_Office": "Kota Tinggi",
        "State": "Johor"
    },
    {
        "Postcode": "81900",
        "Location": "Kampung Lukut Rambah",
        "Post_Office": "Kota Tinggi",
        "State": "Johor"
    },
    {
        "Postcode": "81900",
        "Location": "Kampung Makam Tauhid",
        "Post_Office": "Kota Tinggi",
        "State": "Johor"
    },
    {
        "Postcode": "81900",
        "Location": "Kampung Mawai Baru",
        "Post_Office": "Kota Tinggi",
        "State": "Johor"
    },
    {
        "Postcode": "81900",
        "Location": "Kampung Mawai Lama",
        "Post_Office": "Kota Tinggi",
        "State": "Johor"
    },
    {
        "Postcode": "81900",
        "Location": "Kampung Panti",
        "Post_Office": "Kota Tinggi",
        "State": "Johor"
    },
    {
        "Postcode": "81900",
        "Location": "Kampung Pprt",
        "Post_Office": "Kota Tinggi",
        "State": "Johor"
    },
    {
        "Postcode": "81900",
        "Location": "Kampung Sayang",
        "Post_Office": "Kota Tinggi",
        "State": "Johor"
    },
    {
        "Postcode": "81900",
        "Location": "Kampung Sedili Besar",
        "Post_Office": "Kota Tinggi",
        "State": "Johor"
    },
    {
        "Postcode": "81900",
        "Location": "Kampung Sedili Kecil",
        "Post_Office": "Kota Tinggi",
        "State": "Johor"
    },
    {
        "Postcode": "81900",
        "Location": "Kampung Semanggar Dalam",
        "Post_Office": "Kota Tinggi",
        "State": "Johor"
    },
    {
        "Postcode": "81900",
        "Location": "Kampung Semanggar Luar",
        "Post_Office": "Kota Tinggi",
        "State": "Johor"
    },
    {
        "Postcode": "81900",
        "Location": "Kampung Sembayong",
        "Post_Office": "Kota Tinggi",
        "State": "Johor"
    },
    {
        "Postcode": "81900",
        "Location": "Kampung Sepak Hilir",
        "Post_Office": "Kota Tinggi",
        "State": "Johor"
    },
    {
        "Postcode": "81900",
        "Location": "Kampung Sepak Hulu",
        "Post_Office": "Kota Tinggi",
        "State": "Johor"
    },
    {
        "Postcode": "81900",
        "Location": "Kampung Singapura",
        "Post_Office": "Kota Tinggi",
        "State": "Johor"
    },
    {
        "Postcode": "81900",
        "Location": "Kampung Sri Lalang",
        "Post_Office": "Kota Tinggi",
        "State": "Johor"
    },
    {
        "Postcode": "81900",
        "Location": "Kampung Sungai Bang",
        "Post_Office": "Kota Tinggi",
        "State": "Johor"
    },
    {
        "Postcode": "81900",
        "Location": "Kampung Sungai Telor",
        "Post_Office": "Kota Tinggi",
        "State": "Johor"
    },
    {
        "Postcode": "81900",
        "Location": "Kampung Tai Hong",
        "Post_Office": "Kota Tinggi",
        "State": "Johor"
    },
    {
        "Postcode": "81900",
        "Location": "Kampung Tanah Putih",
        "Post_Office": "Kota Tinggi",
        "State": "Johor"
    },
    {
        "Postcode": "81900",
        "Location": "Kampung Tanjung Sedili",
        "Post_Office": "Kota Tinggi",
        "State": "Johor"
    },
    {
        "Postcode": "81900",
        "Location": "Kampung Teluk Jeri Luar",
        "Post_Office": "Kota Tinggi",
        "State": "Johor"
    },
    {
        "Postcode": "81900",
        "Location": "Kampung Tembioh",
        "Post_Office": "Kota Tinggi",
        "State": "Johor"
    },
    {
        "Postcode": "81900",
        "Location": "Kampung Temin Baru",
        "Post_Office": "Kota Tinggi",
        "State": "Johor"
    },
    {
        "Postcode": "81900",
        "Location": "Kampung Temin Lama",
        "Post_Office": "Kota Tinggi",
        "State": "Johor"
    },
    {
        "Postcode": "81900",
        "Location": "Kampung Tuan Seh",
        "Post_Office": "Kota Tinggi",
        "State": "Johor"
    },
    {
        "Postcode": "81900",
        "Location": "Kampung Tuan She",
        "Post_Office": "Kota Tinggi",
        "State": "Johor"
    },
    {
        "Postcode": "81900",
        "Location": "Kota Tinggi Industri Park",
        "Post_Office": "Kota Tinggi",
        "State": "Johor"
    },
    {
        "Postcode": "81900",
        "Location": "Perindustrian Kota Tinggi",
        "Post_Office": "Kota Tinggi",
        "State": "Johor"
    },
    {
        "Postcode": "81900",
        "Location": "Taman Ahmad Perang",
        "Post_Office": "Kota Tinggi",
        "State": "Johor"
    },
    {
        "Postcode": "81900",
        "Location": "Taman Daiman Jaya",
        "Post_Office": "Kota Tinggi",
        "State": "Johor"
    },
    {
        "Postcode": "81900",
        "Location": "Taman Daiman Utama",
        "Post_Office": "Kota Tinggi",
        "State": "Johor"
    },
    {
        "Postcode": "81900",
        "Location": "Taman Hijrah",
        "Post_Office": "Kota Tinggi",
        "State": "Johor"
    },
    {
        "Postcode": "81900",
        "Location": "Taman Koguna Indah",
        "Post_Office": "Kota Tinggi",
        "State": "Johor"
    },
    {
        "Postcode": "81900",
        "Location": "Taman Kota Baru",
        "Post_Office": "Kota Tinggi",
        "State": "Johor"
    },
    {
        "Postcode": "81900",
        "Location": "Taman Kota Jaya",
        "Post_Office": "Kota Tinggi",
        "State": "Johor"
    },
    {
        "Postcode": "81900",
        "Location": "Taman Kota Jaya 2",
        "Post_Office": "Kota Tinggi",
        "State": "Johor"
    },
    {
        "Postcode": "81900",
        "Location": "Taman Kota Medan Jaya",
        "Post_Office": "Kota Tinggi",
        "State": "Johor"
    },
    {
        "Postcode": "81900",
        "Location": "Taman Kuso",
        "Post_Office": "Kota Tinggi",
        "State": "Johor"
    },
    {
        "Postcode": "81900",
        "Location": "Taman Mawai Jaya",
        "Post_Office": "Kota Tinggi",
        "State": "Johor"
    },
    {
        "Postcode": "81900",
        "Location": "Taman Medan Indah",
        "Post_Office": "Kota Tinggi",
        "State": "Johor"
    },
    {
        "Postcode": "81900",
        "Location": "Taman Medesa",
        "Post_Office": "Kota Tinggi",
        "State": "Johor"
    },
    {
        "Postcode": "81900",
        "Location": "Taman Melati Putih",
        "Post_Office": "Kota Tinggi",
        "State": "Johor"
    },
    {
        "Postcode": "81900",
        "Location": "Taman Riang Ria",
        "Post_Office": "Kota Tinggi",
        "State": "Johor"
    },
    {
        "Postcode": "81900",
        "Location": "Taman Sedili",
        "Post_Office": "Kota Tinggi",
        "State": "Johor"
    },
    {
        "Postcode": "81900",
        "Location": "Taman Tuan Seh",
        "Post_Office": "Kota Tinggi",
        "State": "Johor"
    },
    {
        "Postcode": "81900",
        "Location": "Taman Tuan She",
        "Post_Office": "Kota Tinggi",
        "State": "Johor"
    },
    {
        "Postcode": "81900",
        "Location": "Tanjung Sedili",
        "Post_Office": "Kota Tinggi",
        "State": "Johor"
    }
]
