[
    {
        "Postcode": "81920",
        "Location": "Kampung Panchor",
        "Post_Office": "Ayer Tawar 2",
        "State": "Johor"
    },
    {
        "Postcode": "81920",
        "Location": "Teluk Sengat",
        "Post_Office": "Ayer Tawar 2",
        "State": "Johor"
    },
    {
        "Postcode": "81920",
        "Location": "Ayer Tawar 2",
        "Post_Office": "Ayer Tawar 2",
        "State": "Johor"
    },
    {
        "Postcode": "81920",
        "Location": "Felcra Sungai Layar",
        "Post_Office": "Ayer Tawar 2",
        "State": "Johor"
    },
    {
        "Postcode": "81920",
        "Location": "Felda Air Tawar 1",
        "Post_Office": "Ayer Tawar 2",
        "State": "Johor"
    },
    {
        "Postcode": "81920",
        "Location": "Felda Air Tawar 2",
        "Post_Office": "Ayer Tawar 2",
        "State": "Johor"
    },
    {
        "Postcode": "81920",
        "Location": "Felda Air Tawar 3",
        "Post_Office": "Ayer Tawar 2",
        "State": "Johor"
    },
    {
        "Postcode": "81920",
        "Location": "Felda Air Tawar 4",
        "Post_Office": "Ayer Tawar 2",
        "State": "Johor"
    },
    {
        "Postcode": "81920",
        "Location": "Felda Air Tawar 5",
        "Post_Office": "Ayer Tawar 2",
        "State": "Johor"
    },
    {
        "Postcode": "81920",
        "Location": "Felda Semenchu",
        "Post_Office": "Ayer Tawar 2",
        "State": "Johor"
    },
    {
        "Postcode": "81920",
        "Location": "Johor Lama",
        "Post_Office": "Ayer Tawar 2",
        "State": "Johor"
    },
    {
        "Postcode": "81920",
        "Location": "Kampung Baru Sungai Layau",
        "Post_Office": "Ayer Tawar 2",
        "State": "Johor"
    },
    {
        "Postcode": "81920",
        "Location": "Kampung Belading Baru",
        "Post_Office": "Ayer Tawar 2",
        "State": "Johor"
    },
    {
        "Postcode": "81920",
        "Location": "Kampung Sungai Layau",
        "Post_Office": "Ayer Tawar 2",
        "State": "Johor"
    },
    {
        "Postcode": "81920",
        "Location": "Kampung Sungai Seluyut",
        "Post_Office": "Ayer Tawar 2",
        "State": "Johor"
    },
    {
        "Postcode": "81920",
        "Location": "Kampung Sungai Sembilang",
        "Post_Office": "Ayer Tawar 2",
        "State": "Johor"
    },
    {
        "Postcode": "81920",
        "Location": "Kampung Tanjung Buai",
        "Post_Office": "Ayer Tawar 2",
        "State": "Johor"
    },
    {
        "Postcode": "81920",
        "Location": "Kampung Telok Sengat",
        "Post_Office": "Ayer Tawar 2",
        "State": "Johor"
    },
    {
        "Postcode": "81920",
        "Location": "Ladang Ah Tong",
        "Post_Office": "Ayer Tawar 2",
        "State": "Johor"
    },
    {
        "Postcode": "81920",
        "Location": "Ladang Amboh",
        "Post_Office": "Ayer Tawar 2",
        "State": "Johor"
    },
    {
        "Postcode": "81920",
        "Location": "Ladang Asahi",
        "Post_Office": "Ayer Tawar 2",
        "State": "Johor"
    },
    {
        "Postcode": "81920",
        "Location": "Ladang Bukit Tinggi",
        "Post_Office": "Ayer Tawar 2",
        "State": "Johor"
    },
    {
        "Postcode": "81920",
        "Location": "Semenchu",
        "Post_Office": "Ayer Tawar 2",
        "State": "Johor"
    }
]
