[
    {
        "Postcode": "81930",
        "Location": "Maris Desaru Coast",
        "Post_Office": "Bandar Penawar",
        "State": "Johor"
    },
    {
        "Postcode": "81930",
        "Location": "Desaru Coast",
        "Post_Office": "Bandar Penawar",
        "State": "Johor"
    },
    {
        "Postcode": "81930",
        "Location": "Aman Resort \u0026 Villas",
        "Post_Office": "Bandar Penawar",
        "State": "Johor"
    },
    {
        "Postcode": "81930",
        "Location": "Anantara Desaru Coast Resort \u0026 Villas",
        "Post_Office": "Bandar Penawar",
        "State": "Johor"
    },
    {
        "Postcode": "81930",
        "Location": "Desaru Coast Adventure Waterpark",
        "Post_Office": "Bandar Penawar",
        "State": "Johor"
    },
    {
        "Postcode": "81930",
        "Location": "Desaru Coast Conference Ceber",
        "Post_Office": "Bandar Penawar",
        "State": "Johor"
    },
    {
        "Postcode": "81930",
        "Location": "Desaru Coast Riverside",
        "Post_Office": "Bandar Penawar",
        "State": "Johor"
    },
    {
        "Postcode": "81930",
        "Location": "Hard Rock Hotel Desaru Coast",
        "Post_Office": "Bandar Penawar",
        "State": "Johor"
    },
    {
        "Postcode": "81930",
        "Location": "The Els Club Desaru Coast (Ocean Course)",
        "Post_Office": "Bandar Penawar",
        "State": "Johor"
    },
    {
        "Postcode": "81930",
        "Location": "The Els Club Desaru Coast (Valley Course)",
        "Post_Office": "Bandar Penawar",
        "State": "Johor"
    },
    {
        "Postcode": "81930",
        "Location": "The Westin Desaru Coast Resort",
        "Post_Office": "Bandar Penawar",
        "State": "Johor"
    },
    {
        "Postcode": "81930",
        "Location": "Bandar Mas",
        "Post_Office": "Bandar Penawar",
        "State": "Johor"
    },
    {
        "Postcode": "81930",
        "Location": "Bandar Penawar",
        "Post_Office": "Bandar Penawar",
        "State": "Johor"
    },
    {
        "Postcode": "81930",
        "Location": "Felda Adela",
        "Post_Office": "Bandar Penawar",
        "State": "Johor"
    },
    {
        "Postcode": "81930",
        "Location": "Felda Kledang",
        "Post_Office": "Bandar Penawar",
        "State": "Johor"
    },
    {
        "Postcode": "81930",
        "Location": "Felda Lok Heng Barat",
        "Post_Office": "Bandar Penawar",
        "State": "Johor"
    },
    {
        "Postcode": "81930",
        "Location": "Felda Lok Heng Selatan",
        "Post_Office": "Bandar Penawar",
        "State": "Johor"
    },
    {
        "Postcode": "81930",
        "Location": "Felda Lok Heng Timor",
        "Post_Office": "Bandar Penawar",
        "State": "Johor"
    },
    {
        "Postcode": "81930",
        "Location": "Felda Papan Timur",
        "Post_Office": "Bandar Penawar",
        "State": "Johor"
    },
    {
        "Postcode": "81930",
        "Location": "Felda Sening",
        "Post_Office": "Bandar Penawar",
        "State": "Johor"
    },
    {
        "Postcode": "81930",
        "Location": "Felda Sungai Mas",
        "Post_Office": "Bandar Penawar",
        "State": "Johor"
    },
    {
        "Postcode": "81930",
        "Location": "Felda Tunggal",
        "Post_Office": "Bandar Penawar",
        "State": "Johor"
    },
    {
        "Postcode": "81930",
        "Location": "Flat Cempaka A",
        "Post_Office": "Bandar Penawar",
        "State": "Johor"
    },
    {
        "Postcode": "81930",
        "Location": "Flat Kenanga B",
        "Post_Office": "Bandar Penawar",
        "State": "Johor"
    },
    {
        "Postcode": "81930",
        "Location": "Flat Lta",
        "Post_Office": "Bandar Penawar",
        "State": "Johor"
    },
    {
        "Postcode": "81930",
        "Location": "Flat Sri Cempaka",
        "Post_Office": "Bandar Penawar",
        "State": "Johor"
    },
    {
        "Postcode": "81930",
        "Location": "Jalan Sungai Lebam",
        "Post_Office": "Bandar Penawar",
        "State": "Johor"
    },
    {
        "Postcode": "81930",
        "Location": "Kampung Baru Sungai Mas",
        "Post_Office": "Bandar Penawar",
        "State": "Johor"
    },
    {
        "Postcode": "81930",
        "Location": "Kampung Melayu Tanjong Balau",
        "Post_Office": "Bandar Penawar",
        "State": "Johor"
    },
    {
        "Postcode": "81930",
        "Location": "Kampung Nelayan Pasir Gogok",
        "Post_Office": "Bandar Penawar",
        "State": "Johor"
    },
    {
        "Postcode": "81930",
        "Location": "Kampung Pasir Gogok",
        "Post_Office": "Bandar Penawar",
        "State": "Johor"
    },
    {
        "Postcode": "81930",
        "Location": "Kampung Sungai Pacat",
        "Post_Office": "Bandar Penawar",
        "State": "Johor"
    },
    {
        "Postcode": "81930",
        "Location": "Kampung Tersusun",
        "Post_Office": "Bandar Penawar",
        "State": "Johor"
    },
    {
        "Postcode": "81930",
        "Location": "Kawasan Industri",
        "Post_Office": "Bandar Penawar",
        "State": "Johor"
    },
    {
        "Postcode": "81930",
        "Location": "Ladang Santi",
        "Post_Office": "Bandar Penawar",
        "State": "Johor"
    },
    {
        "Postcode": "81930",
        "Location": "Ladang Saw Thi",
        "Post_Office": "Bandar Penawar",
        "State": "Johor"
    },
    {
        "Postcode": "81930",
        "Location": "Tanjung Balau",
        "Post_Office": "Bandar Penawar",
        "State": "Johor"
    },
    {
        "Postcode": "81930",
        "Location": "Tanjung Belukor",
        "Post_Office": "Bandar Penawar",
        "State": "Johor"
    }
]
