[
    {
        "Postcode": "77000",
        "Location": "Taman Mesra Rim ",
        "Post_Office": "Jasin",
        "State": "Melaka"
    },
    {
        "Postcode": "77000",
        "Location": "Taman Seri Kemendor",
        "Post_Office": "Jasin",
        "State": "Melaka"
    },
    {
        "Postcode": "77000",
        "Location": "Kampung Ladang Baharu",
        "Post_Office": "Jasin",
        "State": "Melaka"
    },
    {
        "Postcode": "77000",
        "Location": "Taman Kesang Jaya",
        "Post_Office": "Jasin",
        "State": "Melaka"
    },
    {
        "Postcode": "77000",
        "Location": "Kampung Ayer Manggis",
        "Post_Office": "Jasin",
        "State": "Melaka"
    },
    {
        "Postcode": "77000",
        "Location": "Kampung Air Barok",
        "Post_Office": "Jasin",
        "State": "Melaka"
    },
    {
        "Postcode": "77000",
        "Location": "Kampung Kumpai",
        "Post_Office": "Jasin",
        "State": "Melaka"
    },
    {
        "Postcode": "77000",
        "Location": "Kampung Lipat Kajang",
        "Post_Office": "Jasin",
        "State": "Melaka"
    },
    {
        "Postcode": "77000",
        "Location": "Kampung Simpang Kerayong",
        "Post_Office": "Jasin",
        "State": "Melaka"
    },
    {
        "Postcode": "77000",
        "Location": "Balik Bukit (Chohong)",
        "Post_Office": "Jasin",
        "State": "Melaka"
    },
    {
        "Postcode": "77000",
        "Location": "Ct Tan Estate",
        "Post_Office": "Jasin",
        "State": "Melaka"
    },
    {
        "Postcode": "77000",
        "Location": "Felda Kemendor",
        "Post_Office": "Jasin",
        "State": "Melaka"
    },
    {
        "Postcode": "77000",
        "Location": "Jalan Teratai",
        "Post_Office": "Jasin",
        "State": "Melaka"
    },
    {
        "Postcode": "77000",
        "Location": "Jasin",
        "Post_Office": "Jasin",
        "State": "Melaka"
    },
    {
        "Postcode": "77000",
        "Location": "Kampung Bukit Katong",
        "Post_Office": "Jasin",
        "State": "Melaka"
    },
    {
        "Postcode": "77000",
        "Location": "Kampung Bukit Tinggi A",
        "Post_Office": "Jasin",
        "State": "Melaka"
    },
    {
        "Postcode": "77000",
        "Location": "Kampung Bukit Tinggi B",
        "Post_Office": "Jasin",
        "State": "Melaka"
    },
    {
        "Postcode": "77000",
        "Location": "Kampung Chenderawasih",
        "Post_Office": "Jasin",
        "State": "Melaka"
    },
    {
        "Postcode": "77000",
        "Location": "Kampung Chin-Chin",
        "Post_Office": "Jasin",
        "State": "Melaka"
    },
    {
        "Postcode": "77000",
        "Location": "Kampung Chinderah",
        "Post_Office": "Jasin",
        "State": "Melaka"
    },
    {
        "Postcode": "77000",
        "Location": "Kampung Chohong",
        "Post_Office": "Jasin",
        "State": "Melaka"
    },
    {
        "Postcode": "77000",
        "Location": "Kampung Kelubi",
        "Post_Office": "Jasin",
        "State": "Melaka"
    },
    {
        "Postcode": "77000",
        "Location": "Kampung Kemengkang",
        "Post_Office": "Jasin",
        "State": "Melaka"
    },
    {
        "Postcode": "77000",
        "Location": "Kampung Kesang Jaya, Hang Tuah Jaya",
        "Post_Office": "Jasin",
        "State": "Melaka"
    },
    {
        "Postcode": "77000",
        "Location": "Kampung Kesang Pajak",
        "Post_Office": "Jasin",
        "State": "Melaka"
    },
    {
        "Postcode": "77000",
        "Location": "Kampung Kesang Tua, Hang Tuah Jaya",
        "Post_Office": "Jasin",
        "State": "Melaka"
    },
    {
        "Postcode": "77000",
        "Location": "Kampung Rim",
        "Post_Office": "Jasin",
        "State": "Melaka"
    },
    {
        "Postcode": "77000",
        "Location": "Kampung Seri Kesang",
        "Post_Office": "Jasin",
        "State": "Melaka"
    },
    {
        "Postcode": "77000",
        "Location": "Kampung Simpang Badak",
        "Post_Office": "Jasin",
        "State": "Melaka"
    },
    {
        "Postcode": "77000",
        "Location": "Kampung Terentang",
        "Post_Office": "Jasin",
        "State": "Melaka"
    },
    {
        "Postcode": "77000",
        "Location": "Kesang Pajak",
        "Post_Office": "Jasin",
        "State": "Melaka"
    },
    {
        "Postcode": "77000",
        "Location": "Ladang R.M. Chettiar",
        "Post_Office": "Jasin",
        "State": "Melaka"
    },
    {
        "Postcode": "77000",
        "Location": "Loji Ayer",
        "Post_Office": "Jasin",
        "State": "Melaka"
    },
    {
        "Postcode": "77000",
        "Location": "Rumah Awam Cenderahwasih",
        "Post_Office": "Jasin",
        "State": "Melaka"
    },
    {
        "Postcode": "77000",
        "Location": "Rumah Awam Chin Chin",
        "Post_Office": "Jasin",
        "State": "Melaka"
    },
    {
        "Postcode": "77000",
        "Location": "Rumah Awam Kersang",
        "Post_Office": "Jasin",
        "State": "Melaka"
    },
    {
        "Postcode": "77000",
        "Location": "Rumah Awam Rim",
        "Post_Office": "Jasin",
        "State": "Melaka"
    },
    {
        "Postcode": "77000",
        "Location": "Rumah Awam Simpang Kerayong",
        "Post_Office": "Jasin",
        "State": "Melaka"
    },
    {
        "Postcode": "77000",
        "Location": "Rumah Awam Sri Kerayong",
        "Post_Office": "Jasin",
        "State": "Melaka"
    },
    {
        "Postcode": "77000",
        "Location": "Taman Chenderawasih",
        "Post_Office": "Jasin",
        "State": "Melaka"
    },
    {
        "Postcode": "77000",
        "Location": "Taman Desa Kesang",
        "Post_Office": "Jasin",
        "State": "Melaka"
    },
    {
        "Postcode": "77000",
        "Location": "Taman Desa Rim",
        "Post_Office": "Jasin",
        "State": "Melaka"
    },
    {
        "Postcode": "77000",
        "Location": "Taman Desa Rim 2",
        "Post_Office": "Jasin",
        "State": "Melaka"
    },
    {
        "Postcode": "77000",
        "Location": "Taman Jarim Jaya",
        "Post_Office": "Jasin",
        "State": "Melaka"
    },
    {
        "Postcode": "77000",
        "Location": "Taman Kelubi Damai",
        "Post_Office": "Jasin",
        "State": "Melaka"
    },
    {
        "Postcode": "77000",
        "Location": "Taman Kesang Indah",
        "Post_Office": "Jasin",
        "State": "Melaka"
    },
    {
        "Postcode": "77000",
        "Location": "Taman Kolam Air",
        "Post_Office": "Jasin",
        "State": "Melaka"
    },
    {
        "Postcode": "77000",
        "Location": "Taman Lot Baru Jalan Kemendor",
        "Post_Office": "Jasin",
        "State": "Melaka"
    },
    {
        "Postcode": "77000",
        "Location": "Taman Mesra",
        "Post_Office": "Jasin",
        "State": "Melaka"
    },
    {
        "Postcode": "77000",
        "Location": "Taman Permata",
        "Post_Office": "Jasin",
        "State": "Melaka"
    },
    {
        "Postcode": "77000",
        "Location": "Taman Rim Baru",
        "Post_Office": "Jasin",
        "State": "Melaka"
    },
    {
        "Postcode": "77000",
        "Location": "Taman Rim Jaya",
        "Post_Office": "Jasin",
        "State": "Melaka"
    },
    {
        "Postcode": "77000",
        "Location": "Taman Sin Ban Bee",
        "Post_Office": "Jasin",
        "State": "Melaka"
    },
    {
        "Postcode": "77000",
        "Location": "Taman Sri Chin-Chin",
        "Post_Office": "Jasin",
        "State": "Melaka"
    },
    {
        "Postcode": "77000",
        "Location": "Taman Sri Kelubi",
        "Post_Office": "Jasin",
        "State": "Melaka"
    },
    {
        "Postcode": "77000",
        "Location": "Taman Suria",
        "Post_Office": "Jasin",
        "State": "Melaka"
    },
    {
        "Postcode": "77000",
        "Location": "Taman Teman",
        "Post_Office": "Jasin",
        "State": "Melaka"
    },
    {
        "Postcode": "77000",
        "Location": "Taman Bahagia 1",
        "Post_Office": "Jasin",
        "State": "Melaka"
    },
    {
        "Postcode": "77000",
        "Location": "Taman Bahagia 2",
        "Post_Office": "Jasin",
        "State": "Melaka"
    },
    {
        "Postcode": "77000",
        "Location": "Taman Maju 1",
        "Post_Office": "Jasin",
        "State": "Melaka"
    },
    {
        "Postcode": "77000",
        "Location": "Taman Maju 2",
        "Post_Office": "Jasin",
        "State": "Melaka"
    },
    {
        "Postcode": "77000",
        "Location": "Taman Maju 3",
        "Post_Office": "Jasin",
        "State": "Melaka"
    }
]
