[
    {
        "Postcode": "77100",
        "Location": "Taman Seri Asahan",
        "Post_Office": "Asahan",
        "State": "Melaka"
    },
    {
        "Postcode": "77100",
        "Location": "Taman Seri Jaya",
        "Post_Office": "Asahan",
        "State": "Melaka"
    },
    {
        "Postcode": "77100",
        "Location": "Kampung Air Songsang",
        "Post_Office": "Asahan",
        "State": "Melaka"
    },
    {
        "Postcode": "77100",
        "Location": "Kampung Ayer Repat",
        "Post_Office": "Asahan",
        "State": "Melaka"
    },
    {
        "Postcode": "77100",
        "Location": "Kampung Bukit Palembang",
        "Post_Office": "Asahan",
        "State": "Melaka"
    },
    {
        "Postcode": "77100",
        "Location": "Kampung Bukit Panjang",
        "Post_Office": "Asahan",
        "State": "Melaka"
    },
    {
        "Postcode": "77100",
        "Location": "Kampung Chabau",
        "Post_Office": "Asahan",
        "State": "Melaka"
    },
    {
        "Postcode": "77100",
        "Location": "Kampung Pondok Batang",
        "Post_Office": "Asahan",
        "State": "Melaka"
    },
    {
        "Postcode": "77100",
        "Location": "Asahan",
        "Post_Office": "Asahan",
        "State": "Melaka"
    },
    {
        "Postcode": "77100",
        "Location": "Ayer Tekah",
        "Post_Office": "Asahan",
        "State": "Melaka"
    },
    {
        "Postcode": "77100",
        "Location": "Felda Bukit Senggeh",
        "Post_Office": "Asahan",
        "State": "Melaka"
    },
    {
        "Postcode": "77100",
        "Location": "Ho Seng San",
        "Post_Office": "Asahan",
        "State": "Melaka"
    },
    {
        "Postcode": "77100",
        "Location": "Kampung Abbey",
        "Post_Office": "Asahan",
        "State": "Melaka"
    },
    {
        "Postcode": "77100",
        "Location": "Kampung Air Kuning",
        "Post_Office": "Asahan",
        "State": "Melaka"
    },
    {
        "Postcode": "77100",
        "Location": "Kampung Air Pepat",
        "Post_Office": "Asahan",
        "State": "Melaka"
    },
    {
        "Postcode": "77100",
        "Location": "Kampung Air Repah",
        "Post_Office": "Asahan",
        "State": "Melaka"
    },
    {
        "Postcode": "77100",
        "Location": "Kampung Ayer Tekah",
        "Post_Office": "Asahan",
        "State": "Melaka"
    },
    {
        "Postcode": "77100",
        "Location": "Kampung Baru Cina Asahan",
        "Post_Office": "Asahan",
        "State": "Melaka"
    },
    {
        "Postcode": "77100",
        "Location": "Kampung Baru Mantai",
        "Post_Office": "Asahan",
        "State": "Melaka"
    },
    {
        "Postcode": "77100",
        "Location": "Kampung Baru Nyalas",
        "Post_Office": "Asahan",
        "State": "Melaka"
    },
    {
        "Postcode": "77100",
        "Location": "Kampung Baru Pondok Batang",
        "Post_Office": "Asahan",
        "State": "Melaka"
    },
    {
        "Postcode": "77100",
        "Location": "Kampung Bukit Asahan",
        "Post_Office": "Asahan",
        "State": "Melaka"
    },
    {
        "Postcode": "77100",
        "Location": "Kampung Gapis",
        "Post_Office": "Asahan",
        "State": "Melaka"
    },
    {
        "Postcode": "77100",
        "Location": "Kampung Gubah",
        "Post_Office": "Asahan",
        "State": "Melaka"
    },
    {
        "Postcode": "77100",
        "Location": "Kampung Gunung Emas",
        "Post_Office": "Asahan",
        "State": "Melaka"
    },
    {
        "Postcode": "77100",
        "Location": "Kampung Jalan Raja",
        "Post_Office": "Asahan",
        "State": "Melaka"
    },
    {
        "Postcode": "77100",
        "Location": "Kampung Ladang Keeming",
        "Post_Office": "Asahan",
        "State": "Melaka"
    },
    {
        "Postcode": "77100",
        "Location": "Kampung Lubok Bandong",
        "Post_Office": "Asahan",
        "State": "Melaka"
    },
    {
        "Postcode": "77100",
        "Location": "Kampung Maju",
        "Post_Office": "Asahan",
        "State": "Melaka"
    },
    {
        "Postcode": "77100",
        "Location": "Kampung Mantai",
        "Post_Office": "Asahan",
        "State": "Melaka"
    },
    {
        "Postcode": "77100",
        "Location": "Kampung Masjid Baru",
        "Post_Office": "Asahan",
        "State": "Melaka"
    },
    {
        "Postcode": "77100",
        "Location": "Kampung Melangkan",
        "Post_Office": "Asahan",
        "State": "Melaka"
    },
    {
        "Postcode": "77100",
        "Location": "Kampung Nyalas",
        "Post_Office": "Asahan",
        "State": "Melaka"
    },
    {
        "Postcode": "77100",
        "Location": "Kampung Padang Lebar",
        "Post_Office": "Asahan",
        "State": "Melaka"
    },
    {
        "Postcode": "77100",
        "Location": "Kampung Parit Keliling",
        "Post_Office": "Asahan",
        "State": "Melaka"
    },
    {
        "Postcode": "77100",
        "Location": "Kampung Pelembang",
        "Post_Office": "Asahan",
        "State": "Melaka"
    },
    {
        "Postcode": "77100",
        "Location": "Kampung Raja",
        "Post_Office": "Asahan",
        "State": "Melaka"
    },
    {
        "Postcode": "77100",
        "Location": "Kampung Relau",
        "Post_Office": "Asahan",
        "State": "Melaka"
    },
    {
        "Postcode": "77100",
        "Location": "Kampung Sialang",
        "Post_Office": "Asahan",
        "State": "Melaka"
    },
    {
        "Postcode": "77100",
        "Location": "Kampung Simpang Bekoh",
        "Post_Office": "Asahan",
        "State": "Melaka"
    },
    {
        "Postcode": "77100",
        "Location": "Kampung Simpang Meriang",
        "Post_Office": "Asahan",
        "State": "Melaka"
    },
    {
        "Postcode": "77100",
        "Location": "Kampung Solok Kemong",
        "Post_Office": "Asahan",
        "State": "Melaka"
    },
    {
        "Postcode": "77100",
        "Location": "Kampung Sungai Dua",
        "Post_Office": "Asahan",
        "State": "Melaka"
    },
    {
        "Postcode": "77100",
        "Location": "Kem Asahan",
        "Post_Office": "Asahan",
        "State": "Melaka"
    },
    {
        "Postcode": "77100",
        "Location": "Kolam Ayer",
        "Post_Office": "Asahan",
        "State": "Melaka"
    },
    {
        "Postcode": "77100",
        "Location": "Ladang Gapis",
        "Post_Office": "Asahan",
        "State": "Melaka"
    },
    {
        "Postcode": "77100",
        "Location": "Ladang Kim Kee",
        "Post_Office": "Asahan",
        "State": "Melaka"
    },
    {
        "Postcode": "77100",
        "Location": "Ladang Mantai",
        "Post_Office": "Asahan",
        "State": "Melaka"
    },
    {
        "Postcode": "77100",
        "Location": "Ladang Nyalas",
        "Post_Office": "Asahan",
        "State": "Melaka"
    },
    {
        "Postcode": "77100",
        "Location": "Mantai",
        "Post_Office": "Asahan",
        "State": "Melaka"
    },
    {
        "Postcode": "77100",
        "Location": "Nyalas",
        "Post_Office": "Asahan",
        "State": "Melaka"
    },
    {
        "Postcode": "77100",
        "Location": "Pondok Batang",
        "Post_Office": "Asahan",
        "State": "Melaka"
    },
    {
        "Postcode": "77100",
        "Location": "Rumah Awam Pondok Batang",
        "Post_Office": "Asahan",
        "State": "Melaka"
    },
    {
        "Postcode": "77100",
        "Location": "Sialang",
        "Post_Office": "Asahan",
        "State": "Melaka"
    },
    {
        "Postcode": "77100",
        "Location": "Simpang Meriang",
        "Post_Office": "Asahan",
        "State": "Melaka"
    },
    {
        "Postcode": "77100",
        "Location": "Solok Komong",
        "Post_Office": "Asahan",
        "State": "Melaka"
    },
    {
        "Postcode": "77100",
        "Location": "Sungai Dua",
        "Post_Office": "Asahan",
        "State": "Melaka"
    },
    {
        "Postcode": "77100",
        "Location": "Sungai Mering",
        "Post_Office": "Asahan",
        "State": "Melaka"
    },
    {
        "Postcode": "77100",
        "Location": "Taman Gunung Asahan",
        "Post_Office": "Asahan",
        "State": "Melaka"
    },
    {
        "Postcode": "77100",
        "Location": "Taman Nyalas",
        "Post_Office": "Asahan",
        "State": "Melaka"
    },
    {
        "Postcode": "77100",
        "Location": "Taman Nyalas Baru",
        "Post_Office": "Asahan",
        "State": "Melaka"
    },
    {
        "Postcode": "77100",
        "Location": "Taman Sri Nyalas",
        "Post_Office": "Asahan",
        "State": "Melaka"
    }
]
