[
    {
        "Postcode": "77200",
        "Location": "Kampung Tanjung Laboh",
        "Post_Office": "Bemban",
        "State": "Melaka"
    },
    {
        "Postcode": "77200",
        "Location": "Kampung Tehel, Hang Tuah Jaya",
        "Post_Office": "Bemban",
        "State": "Melaka"
    },
    {
        "Postcode": "77200",
        "Location": "Kampung Ulu Duyung, Hang Tuah Jaya",
        "Post_Office": "Bemban",
        "State": "Melaka"
    },
    {
        "Postcode": "77200",
        "Location": "Rumah Awam Taman Wira ",
        "Post_Office": "Bemban",
        "State": "Melaka"
    },
    {
        "Postcode": "77200",
        "Location": "Kampung Ayer Merbau",
        "Post_Office": "Bemban",
        "State": "Melaka"
    },
    {
        "Postcode": "77200",
        "Location": "Rumah Awam Ayer Merbau",
        "Post_Office": "Bemban",
        "State": "Melaka"
    },
    {
        "Postcode": "77200",
        "Location": "Taman Jasin Perdana",
        "Post_Office": "Bemban",
        "State": "Melaka"
    },
    {
        "Postcode": "77200",
        "Location": "Kampung Jilir",
        "Post_Office": "Bemban",
        "State": "Melaka"
    },
    {
        "Postcode": "77200",
        "Location": "Kampung Kesang",
        "Post_Office": "Bemban",
        "State": "Melaka"
    },
    {
        "Postcode": "77200",
        "Location": "Kampung Parit Lampong",
        "Post_Office": "Bemban",
        "State": "Melaka"
    },
    {
        "Postcode": "77200",
        "Location": "Taman Sri Bemban",
        "Post_Office": "Bemban",
        "State": "Melaka"
    },
    {
        "Postcode": "77200",
        "Location": "Taman Damai",
        "Post_Office": "Bemban",
        "State": "Melaka"
    },
    {
        "Postcode": "77200",
        "Location": "Taman Mewah",
        "Post_Office": "Bemban",
        "State": "Melaka"
    },
    {
        "Postcode": "77200",
        "Location": "Jalan Kolam Air Panas",
        "Post_Office": "Bemban",
        "State": "Melaka"
    },
    {
        "Postcode": "77200",
        "Location": "Kampung Ayer Panas",
        "Post_Office": "Bemban",
        "State": "Melaka"
    },
    {
        "Postcode": "77200",
        "Location": "Kampung Baru Ayer Panas",
        "Post_Office": "Bemban",
        "State": "Melaka"
    },
    {
        "Postcode": "77200",
        "Location": "Ladang Ayer Panas",
        "Post_Office": "Bemban",
        "State": "Melaka"
    },
    {
        "Postcode": "77200",
        "Location": "Taman Permai",
        "Post_Office": "Bemban",
        "State": "Melaka"
    },
    {
        "Postcode": "77200",
        "Location": "Jalan Tehel Harmoni",
        "Post_Office": "Bemban",
        "State": "Melaka"
    },
    {
        "Postcode": "77200",
        "Location": "Taman Tehel Harmoni",
        "Post_Office": "Bemban",
        "State": "Melaka"
    },
    {
        "Postcode": "77200",
        "Location": "Jalan Impian 1",
        "Post_Office": "Bemban",
        "State": "Melaka"
    },
    {
        "Postcode": "77200",
        "Location": "Country Villa Resort",
        "Post_Office": "Bemban",
        "State": "Melaka"
    },
    {
        "Postcode": "77200",
        "Location": "Taman Gapam Lestari",
        "Post_Office": "Bemban",
        "State": "Melaka"
    },
    {
        "Postcode": "77200",
        "Location": "Taman Tehel Impian",
        "Post_Office": "Bemban",
        "State": "Melaka"
    },
    {
        "Postcode": "77200",
        "Location": "Taman Anjung Gapam",
        "Post_Office": "Bemban",
        "State": "Melaka"
    },
    {
        "Postcode": "77200",
        "Location": "Jalan Apsf Utama",
        "Post_Office": "Bemban",
        "State": "Melaka"
    },
    {
        "Postcode": "77200",
        "Location": "Kawasan Perindustrian Jasin",
        "Post_Office": "Bemban",
        "State": "Melaka"
    },
    {
        "Postcode": "77200",
        "Location": "Kampung Ulu Tehel, Hang Tuah Jaya",
        "Post_Office": "Bemban",
        "State": "Melaka"
    },
    {
        "Postcode": "77200",
        "Location": "Taman Desa Seri Merbau",
        "Post_Office": "Bemban",
        "State": "Melaka"
    },
    {
        "Postcode": "77200",
        "Location": "Ayer Merbau",
        "Post_Office": "Bemban",
        "State": "Melaka"
    },
    {
        "Postcode": "77200",
        "Location": "Baba Dan Nyonya Resort, Hang Tuah Jaya",
        "Post_Office": "Bemban",
        "State": "Melaka"
    },
    {
        "Postcode": "77200",
        "Location": "Bemban (Pekan)",
        "Post_Office": "Bemban",
        "State": "Melaka"
    },
    {
        "Postcode": "77200",
        "Location": "Golden Valley Resort, Hang Tuah Jaya",
        "Post_Office": "Bemban",
        "State": "Melaka"
    },
    {
        "Postcode": "77200",
        "Location": "Jalan Gapam",
        "Post_Office": "Bemban",
        "State": "Melaka"
    },
    {
        "Postcode": "77200",
        "Location": "Jalan Jasin (Batu 14 - 15)",
        "Post_Office": "Bemban",
        "State": "Melaka"
    },
    {
        "Postcode": "77200",
        "Location": "Jalan Solok Bemban",
        "Post_Office": "Bemban",
        "State": "Melaka"
    },
    {
        "Postcode": "77200",
        "Location": "Kampung Asam Kumbang",
        "Post_Office": "Bemban",
        "State": "Melaka"
    },
    {
        "Postcode": "77200",
        "Location": "Kampung Ayer Panas, Hang Tuah Jaya",
        "Post_Office": "Bemban",
        "State": "Melaka"
    },
    {
        "Postcode": "77200",
        "Location": "Kampung Baru (Km 26)",
        "Post_Office": "Bemban",
        "State": "Melaka"
    },
    {
        "Postcode": "77200",
        "Location": "Kampung Baru Bukit Kajang",
        "Post_Office": "Bemban",
        "State": "Melaka"
    },
    {
        "Postcode": "77200",
        "Location": "Kampung Bemban",
        "Post_Office": "Bemban",
        "State": "Melaka"
    },
    {
        "Postcode": "77200",
        "Location": "Kampung Bukit Kajang",
        "Post_Office": "Bemban",
        "State": "Melaka"
    },
    {
        "Postcode": "77200",
        "Location": "Kampung Gapam, Hang Tuah Jaya",
        "Post_Office": "Bemban",
        "State": "Melaka"
    },
    {
        "Postcode": "77200",
        "Location": "Kampung Kongsai",
        "Post_Office": "Bemban",
        "State": "Melaka"
    },
    {
        "Postcode": "77200",
        "Location": "Kampung Paya Beringin (Km 19.2)",
        "Post_Office": "Bemban",
        "State": "Melaka"
    },
    {
        "Postcode": "77200",
        "Location": "Kampung Serompong",
        "Post_Office": "Bemban",
        "State": "Melaka"
    },
    {
        "Postcode": "77200",
        "Location": "Kampung Solok Hilir Ulu Duyong, Hang Tuah Jaya",
        "Post_Office": "Bemban",
        "State": "Melaka"
    },
    {
        "Postcode": "77200",
        "Location": "Kampung Tehel Tengah, Hang Tuah Jaya",
        "Post_Office": "Bemban",
        "State": "Melaka"
    },
    {
        "Postcode": "77200",
        "Location": "Ladang Bukit Kajang",
        "Post_Office": "Bemban",
        "State": "Melaka"
    },
    {
        "Postcode": "77200",
        "Location": "Ladang Leong Watt Hin",
        "Post_Office": "Bemban",
        "State": "Melaka"
    },
    {
        "Postcode": "77200",
        "Location": "Orna Resort, Hang Tuah Jaya",
        "Post_Office": "Bemban",
        "State": "Melaka"
    },
    {
        "Postcode": "77200",
        "Location": "Paya Asam Kumbang",
        "Post_Office": "Bemban",
        "State": "Melaka"
    },
    {
        "Postcode": "77200",
        "Location": "Pekan Tehel",
        "Post_Office": "Bemban",
        "State": "Melaka"
    },
    {
        "Postcode": "77200",
        "Location": "Solok Parit Lampong",
        "Post_Office": "Bemban",
        "State": "Melaka"
    },
    {
        "Postcode": "77200",
        "Location": "Solok Paya Kundang",
        "Post_Office": "Bemban",
        "State": "Melaka"
    },
    {
        "Postcode": "77200",
        "Location": "Solok Tehel Ulu",
        "Post_Office": "Bemban",
        "State": "Melaka"
    },
    {
        "Postcode": "77200",
        "Location": "Taman Asia Selatan",
        "Post_Office": "Bemban",
        "State": "Melaka"
    },
    {
        "Postcode": "77200",
        "Location": "Taman Bemban Baru",
        "Post_Office": "Bemban",
        "State": "Melaka"
    },
    {
        "Postcode": "77200",
        "Location": "Taman Bemban Jaya, Hang Tuah Jaya",
        "Post_Office": "Bemban",
        "State": "Melaka"
    },
    {
        "Postcode": "77200",
        "Location": "Taman Bemban Utama",
        "Post_Office": "Bemban",
        "State": "Melaka"
    },
    {
        "Postcode": "77200",
        "Location": "Taman Bemban, Hang Tuah Jaya",
        "Post_Office": "Bemban",
        "State": "Melaka"
    },
    {
        "Postcode": "77200",
        "Location": "Taman Iks Air Panas",
        "Post_Office": "Bemban",
        "State": "Melaka"
    },
    {
        "Postcode": "77200",
        "Location": "Taman Mayang",
        "Post_Office": "Bemban",
        "State": "Melaka"
    },
    {
        "Postcode": "77200",
        "Location": "Taman Mayang Baru",
        "Post_Office": "Bemban",
        "State": "Melaka"
    },
    {
        "Postcode": "77200",
        "Location": "Taman Megah",
        "Post_Office": "Bemban",
        "State": "Melaka"
    },
    {
        "Postcode": "77200",
        "Location": "Taman Merbau Jaya",
        "Post_Office": "Bemban",
        "State": "Melaka"
    },
    {
        "Postcode": "77200",
        "Location": "Taman Perumahan Polis",
        "Post_Office": "Bemban",
        "State": "Melaka"
    },
    {
        "Postcode": "77200",
        "Location": "Yen Chong Realty",
        "Post_Office": "Bemban",
        "State": "Melaka"
    },
    {
        "Postcode": "77200",
        "Location": "Taman Gapam Suria",
        "Post_Office": "Bemban",
        "State": "Melaka"
    },
    {
        "Postcode": "77200",
        "Location": "Taman Saujana Tehel",
        "Post_Office": "Bemban",
        "State": "Melaka"
    }
]
