[
    {
        "Postcode": "77300",
        "Location": "Kampung Permatang Serai",
        "Post_Office": "Merlimau",
        "State": "Melaka"
    },
    {
        "Postcode": "77300",
        "Location": "Taman Seri Serkam",
        "Post_Office": "Merlimau",
        "State": "Melaka"
    },
    {
        "Postcode": "77300",
        "Location": "Jalan Aman",
        "Post_Office": "Merlimau",
        "State": "Melaka"
    },
    {
        "Postcode": "77300",
        "Location": "Jalan Bakti",
        "Post_Office": "Merlimau",
        "State": "Melaka"
    },
    {
        "Postcode": "77300",
        "Location": "Jalan Bunga Raya",
        "Post_Office": "Merlimau",
        "State": "Melaka"
    },
    {
        "Postcode": "77300",
        "Location": "Jalan Haji Hassan",
        "Post_Office": "Merlimau",
        "State": "Melaka"
    },
    {
        "Postcode": "77300",
        "Location": "Jalan Indah",
        "Post_Office": "Merlimau",
        "State": "Melaka"
    },
    {
        "Postcode": "77300",
        "Location": "Jalan Masjid",
        "Post_Office": "Merlimau",
        "State": "Melaka"
    },
    {
        "Postcode": "77300",
        "Location": "Jalan Pahlawan",
        "Post_Office": "Merlimau",
        "State": "Melaka"
    },
    {
        "Postcode": "77300",
        "Location": "Jalan Serindit",
        "Post_Office": "Merlimau",
        "State": "Melaka"
    },
    {
        "Postcode": "77300",
        "Location": "Taman Harmoni",
        "Post_Office": "Merlimau",
        "State": "Melaka"
    },
    {
        "Postcode": "77300",
        "Location": "Taman Mewah",
        "Post_Office": "Merlimau",
        "State": "Melaka"
    },
    {
        "Postcode": "77300",
        "Location": "Taman Maju Jaya",
        "Post_Office": "Merlimau",
        "State": "Melaka"
    },
    {
        "Postcode": "77300",
        "Location": "Taman Makmur",
        "Post_Office": "Merlimau",
        "State": "Melaka"
    },
    {
        "Postcode": "77300",
        "Location": "Taman Pahlawan",
        "Post_Office": "Merlimau",
        "State": "Melaka"
    },
    {
        "Postcode": "77300",
        "Location": "Jalan Berkat",
        "Post_Office": "Merlimau",
        "State": "Melaka"
    },
    {
        "Postcode": "77300",
        "Location": "Jalan Damai",
        "Post_Office": "Merlimau",
        "State": "Melaka"
    },
    {
        "Postcode": "77300",
        "Location": "Jalan Rahmat",
        "Post_Office": "Merlimau",
        "State": "Melaka"
    },
    {
        "Postcode": "77300",
        "Location": "Jalan Tenaga Baru",
        "Post_Office": "Merlimau",
        "State": "Melaka"
    },
    {
        "Postcode": "77300",
        "Location": "Kampung Batak",
        "Post_Office": "Merlimau",
        "State": "Melaka"
    },
    {
        "Postcode": "77300",
        "Location": "Taman Merlimau Emas",
        "Post_Office": "Merlimau",
        "State": "Melaka"
    },
    {
        "Postcode": "77300",
        "Location": "Kampung Bukit Tembakau",
        "Post_Office": "Merlimau",
        "State": "Melaka"
    },
    {
        "Postcode": "77300",
        "Location": "Kampung Paya Tanjung",
        "Post_Office": "Merlimau",
        "State": "Melaka"
    },
    {
        "Postcode": "77300",
        "Location": "Kampung Serkam Anak Air",
        "Post_Office": "Merlimau",
        "State": "Melaka"
    },
    {
        "Postcode": "77300",
        "Location": "Kampung Serkam Darat",
        "Post_Office": "Merlimau",
        "State": "Melaka"
    },
    {
        "Postcode": "77300",
        "Location": "Kampung Serkam Tengah",
        "Post_Office": "Merlimau",
        "State": "Melaka"
    },
    {
        "Postcode": "77300",
        "Location": "Kampung Serkam Timur",
        "Post_Office": "Merlimau",
        "State": "Melaka"
    },
    {
        "Postcode": "77300",
        "Location": "Kampung Solok Minyak",
        "Post_Office": "Merlimau",
        "State": "Melaka"
    },
    {
        "Postcode": "77300",
        "Location": "Kampung Solok Pasal",
        "Post_Office": "Merlimau",
        "State": "Melaka"
    },
    {
        "Postcode": "77300",
        "Location": "Kampung Tedong Darat",
        "Post_Office": "Merlimau",
        "State": "Melaka"
    },
    {
        "Postcode": "77300",
        "Location": "Kampung Tedong Pantai",
        "Post_Office": "Merlimau",
        "State": "Melaka"
    },
    {
        "Postcode": "77300",
        "Location": "Kampung Umbai",
        "Post_Office": "Merlimau",
        "State": "Melaka"
    },
    {
        "Postcode": "77300",
        "Location": "Kawasan Perindustrian Serkam",
        "Post_Office": "Merlimau",
        "State": "Melaka"
    },
    {
        "Postcode": "77300",
        "Location": "Anjong Batu",
        "Post_Office": "Merlimau",
        "State": "Melaka"
    },
    {
        "Postcode": "77300",
        "Location": "Bandar Baru",
        "Post_Office": "Merlimau",
        "State": "Melaka"
    },
    {
        "Postcode": "77300",
        "Location": "Bandar Baru Merlimau",
        "Post_Office": "Merlimau",
        "State": "Melaka"
    },
    {
        "Postcode": "77300",
        "Location": "Batu Gajah (Batu 15 - 17 3/4)",
        "Post_Office": "Merlimau",
        "State": "Melaka"
    },
    {
        "Postcode": "77300",
        "Location": "Bukit Durian",
        "Post_Office": "Merlimau",
        "State": "Melaka"
    },
    {
        "Postcode": "77300",
        "Location": "Bukit Gereja",
        "Post_Office": "Merlimau",
        "State": "Melaka"
    },
    {
        "Postcode": "77300",
        "Location": "Bukit Kuda",
        "Post_Office": "Merlimau",
        "State": "Melaka"
    },
    {
        "Postcode": "77300",
        "Location": "Felcra Lembah Kesang",
        "Post_Office": "Merlimau",
        "State": "Melaka"
    },
    {
        "Postcode": "77300",
        "Location": "Jalan Abu Hassan",
        "Post_Office": "Merlimau",
        "State": "Melaka"
    },
    {
        "Postcode": "77300",
        "Location": "Jalan Ahmad",
        "Post_Office": "Merlimau",
        "State": "Melaka"
    },
    {
        "Postcode": "77300",
        "Location": "Jalan Baksan",
        "Post_Office": "Merlimau",
        "State": "Melaka"
    },
    {
        "Postcode": "77300",
        "Location": "Jalan Batu Gajah (Km 23 - 24)",
        "Post_Office": "Merlimau",
        "State": "Melaka"
    },
    {
        "Postcode": "77300",
        "Location": "Jalan Bayan",
        "Post_Office": "Merlimau",
        "State": "Melaka"
    },
    {
        "Postcode": "77300",
        "Location": "Jalan Boyak",
        "Post_Office": "Merlimau",
        "State": "Melaka"
    },
    {
        "Postcode": "77300",
        "Location": "Jalan Bukit Tasek",
        "Post_Office": "Merlimau",
        "State": "Melaka"
    },
    {
        "Postcode": "77300",
        "Location": "Jalan Darat Seberang",
        "Post_Office": "Merlimau",
        "State": "Melaka"
    },
    {
        "Postcode": "77300",
        "Location": "Jalan Dato Langgar",
        "Post_Office": "Merlimau",
        "State": "Melaka"
    },
    {
        "Postcode": "77300",
        "Location": "Jalan Dato Nawar",
        "Post_Office": "Merlimau",
        "State": "Melaka"
    },
    {
        "Postcode": "77300",
        "Location": "Jalan Dato Suri",
        "Post_Office": "Merlimau",
        "State": "Melaka"
    },
    {
        "Postcode": "77300",
        "Location": "Jalan Giang",
        "Post_Office": "Merlimau",
        "State": "Melaka"
    },
    {
        "Postcode": "77300",
        "Location": "Jalan Hajah Salbiah",
        "Post_Office": "Merlimau",
        "State": "Melaka"
    },
    {
        "Postcode": "77300",
        "Location": "Jalan Haji Kamis",
        "Post_Office": "Merlimau",
        "State": "Melaka"
    },
    {
        "Postcode": "77300",
        "Location": "Jalan Haji Mentol",
        "Post_Office": "Merlimau",
        "State": "Melaka"
    },
    {
        "Postcode": "77300",
        "Location": "Jalan Haji Sharif",
        "Post_Office": "Merlimau",
        "State": "Melaka"
    },
    {
        "Postcode": "77300",
        "Location": "Jalan Haji Yahya",
        "Post_Office": "Merlimau",
        "State": "Melaka"
    },
    {
        "Postcode": "77300",
        "Location": "Jalan Jasin (Batu 15)",
        "Post_Office": "Merlimau",
        "State": "Melaka"
    },
    {
        "Postcode": "77300",
        "Location": "Jalan Jasin (Km 23)",
        "Post_Office": "Merlimau",
        "State": "Melaka"
    },
    {
        "Postcode": "77300",
        "Location": "Jalan Kenari",
        "Post_Office": "Merlimau",
        "State": "Melaka"
    },
    {
        "Postcode": "77300",
        "Location": "Jalan Kubur",
        "Post_Office": "Merlimau",
        "State": "Melaka"
    },
    {
        "Postcode": "77300",
        "Location": "Jalan Ladang Pasir",
        "Post_Office": "Merlimau",
        "State": "Melaka"
    },
    {
        "Postcode": "77300",
        "Location": "Jalan Lombong",
        "Post_Office": "Merlimau",
        "State": "Melaka"
    },
    {
        "Postcode": "77300",
        "Location": "Jalan Madrasah",
        "Post_Office": "Merlimau",
        "State": "Melaka"
    },
    {
        "Postcode": "77300",
        "Location": "Jalan Masai",
        "Post_Office": "Merlimau",
        "State": "Melaka"
    },
    {
        "Postcode": "77300",
        "Location": "Jalan Merbok",
        "Post_Office": "Merlimau",
        "State": "Melaka"
    },
    {
        "Postcode": "77300",
        "Location": "Jalan Minhad",
        "Post_Office": "Merlimau",
        "State": "Melaka"
    },
    {
        "Postcode": "77300",
        "Location": "Jalan Muar (Batu 15 - 20)",
        "Post_Office": "Merlimau",
        "State": "Melaka"
    },
    {
        "Postcode": "77300",
        "Location": "Jalan Muar (Km 23)",
        "Post_Office": "Merlimau",
        "State": "Melaka"
    },
    {
        "Postcode": "77300",
        "Location": "Jalan Muar Lama",
        "Post_Office": "Merlimau",
        "State": "Melaka"
    },
    {
        "Postcode": "77300",
        "Location": "Jalan Mulia",
        "Post_Office": "Merlimau",
        "State": "Melaka"
    },
    {
        "Postcode": "77300",
        "Location": "Jalan Pantai Siring",
        "Post_Office": "Merlimau",
        "State": "Melaka"
    },
    {
        "Postcode": "77300",
        "Location": "Jalan Parit Alai",
        "Post_Office": "Merlimau",
        "State": "Melaka"
    },
    {
        "Postcode": "77300",
        "Location": "Jalan Parit Pendekar",
        "Post_Office": "Merlimau",
        "State": "Melaka"
    },
    {
        "Postcode": "77300",
        "Location": "Jalan Paya Goyang",
        "Post_Office": "Merlimau",
        "State": "Melaka"
    },
    {
        "Postcode": "77300",
        "Location": "Jalan Paya Lengkong",
        "Post_Office": "Merlimau",
        "State": "Melaka"
    },
    {
        "Postcode": "77300",
        "Location": "Jalan Paya Lukah",
        "Post_Office": "Merlimau",
        "State": "Melaka"
    },
    {
        "Postcode": "77300",
        "Location": "Jalan Paya Panglong",
        "Post_Office": "Merlimau",
        "State": "Melaka"
    },
    {
        "Postcode": "77300",
        "Location": "Jalan Paya Tanjong",
        "Post_Office": "Merlimau",
        "State": "Melaka"
    },
    {
        "Postcode": "77300",
        "Location": "Jalan Penghulu Ahim",
        "Post_Office": "Merlimau",
        "State": "Melaka"
    },
    {
        "Postcode": "77300",
        "Location": "Jalan Permatang Serai",
        "Post_Office": "Merlimau",
        "State": "Melaka"
    },
    {
        "Postcode": "77300",
        "Location": "Jalan Puyuh",
        "Post_Office": "Merlimau",
        "State": "Melaka"
    },
    {
        "Postcode": "77300",
        "Location": "Jalan Salim",
        "Post_Office": "Merlimau",
        "State": "Melaka"
    },
    {
        "Postcode": "77300",
        "Location": "Jalan Sayang",
        "Post_Office": "Merlimau",
        "State": "Melaka"
    },
    {
        "Postcode": "77300",
        "Location": "Jalan Sidang Harun",
        "Post_Office": "Merlimau",
        "State": "Melaka"
    },
    {
        "Postcode": "77300",
        "Location": "Jalan Sidang Md Diah",
        "Post_Office": "Merlimau",
        "State": "Melaka"
    },
    {
        "Postcode": "77300",
        "Location": "Jalan Simin",
        "Post_Office": "Merlimau",
        "State": "Melaka"
    },
    {
        "Postcode": "77300",
        "Location": "Jalan Simpang Pasir Gembur",
        "Post_Office": "Merlimau",
        "State": "Melaka"
    },
    {
        "Postcode": "77300",
        "Location": "Jalan Sokma",
        "Post_Office": "Merlimau",
        "State": "Melaka"
    },
    {
        "Postcode": "77300",
        "Location": "Jalan Solok Minyak 1",
        "Post_Office": "Merlimau",
        "State": "Melaka"
    },
    {
        "Postcode": "77300",
        "Location": "Jalan Solok Minyak 2",
        "Post_Office": "Merlimau",
        "State": "Melaka"
    },
    {
        "Postcode": "77300",
        "Location": "Jalan Solok Telok",
        "Post_Office": "Merlimau",
        "State": "Melaka"
    },
    {
        "Postcode": "77300",
        "Location": "Jalan Tiong",
        "Post_Office": "Merlimau",
        "State": "Melaka"
    },
    {
        "Postcode": "77300",
        "Location": "Jalan Ujong Tanjong",
        "Post_Office": "Merlimau",
        "State": "Melaka"
    },
    {
        "Postcode": "77300",
        "Location": "Jalan Zakaria",
        "Post_Office": "Merlimau",
        "State": "Melaka"
    },
    {
        "Postcode": "77300",
        "Location": "Kampung Ayer Tawar",
        "Post_Office": "Merlimau",
        "State": "Melaka"
    },
    {
        "Postcode": "77300",
        "Location": "Kampung Batu 14 (Jalan Melaka)",
        "Post_Office": "Merlimau",
        "State": "Melaka"
    },
    {
        "Postcode": "77300",
        "Location": "Kampung Batu 14 (Jalan Muar)",
        "Post_Office": "Merlimau",
        "State": "Melaka"
    },
    {
        "Postcode": "77300",
        "Location": "Kampung Batu Gajah",
        "Post_Office": "Merlimau",
        "State": "Melaka"
    },
    {
        "Postcode": "77300",
        "Location": "Kampung Batu Gajah Pasir (Batu 18)",
        "Post_Office": "Merlimau",
        "State": "Melaka"
    },
    {
        "Postcode": "77300",
        "Location": "Kampung Berangan Enam",
        "Post_Office": "Merlimau",
        "State": "Melaka"
    },
    {
        "Postcode": "77300",
        "Location": "Kampung Bukit Datok",
        "Post_Office": "Merlimau",
        "State": "Melaka"
    },
    {
        "Postcode": "77300",
        "Location": "Kampung Bukit Durian",
        "Post_Office": "Merlimau",
        "State": "Melaka"
    },
    {
        "Postcode": "77300",
        "Location": "Kampung Bukit Kepok",
        "Post_Office": "Merlimau",
        "State": "Melaka"
    },
    {
        "Postcode": "77300",
        "Location": "Kampung Kilang Berapi",
        "Post_Office": "Merlimau",
        "State": "Melaka"
    },
    {
        "Postcode": "77300",
        "Location": "Kampung Lancang",
        "Post_Office": "Merlimau",
        "State": "Melaka"
    },
    {
        "Postcode": "77300",
        "Location": "Kampung Merlimau Pasir",
        "Post_Office": "Merlimau",
        "State": "Melaka"
    },
    {
        "Postcode": "77300",
        "Location": "Kampung Paya Buloh",
        "Post_Office": "Merlimau",
        "State": "Melaka"
    },
    {
        "Postcode": "77300",
        "Location": "Kampung Paya Yoke",
        "Post_Office": "Merlimau",
        "State": "Melaka"
    },
    {
        "Postcode": "77300",
        "Location": "Kampung Pulai",
        "Post_Office": "Merlimau",
        "State": "Melaka"
    },
    {
        "Postcode": "77300",
        "Location": "Kampung Sawah Padang",
        "Post_Office": "Merlimau",
        "State": "Melaka"
    },
    {
        "Postcode": "77300",
        "Location": "Kampung Sempang",
        "Post_Office": "Merlimau",
        "State": "Melaka"
    },
    {
        "Postcode": "77300",
        "Location": "Kampung Semujuk",
        "Post_Office": "Merlimau",
        "State": "Melaka"
    },
    {
        "Postcode": "77300",
        "Location": "Kampung Semujuk Sri Mendapat",
        "Post_Office": "Merlimau",
        "State": "Melaka"
    },
    {
        "Postcode": "77300",
        "Location": "Kampung Sri Minyak",
        "Post_Office": "Merlimau",
        "State": "Melaka"
    },
    {
        "Postcode": "77300",
        "Location": "Kampung Sungai Sembilang",
        "Post_Office": "Merlimau",
        "State": "Melaka"
    },
    {
        "Postcode": "77300",
        "Location": "Kampung Telok",
        "Post_Office": "Merlimau",
        "State": "Melaka"
    },
    {
        "Postcode": "77300",
        "Location": "Kawasan Kilang Semujuk",
        "Post_Office": "Merlimau",
        "State": "Melaka"
    },
    {
        "Postcode": "77300",
        "Location": "Ladang Selatan Baru",
        "Post_Office": "Merlimau",
        "State": "Melaka"
    },
    {
        "Postcode": "77300",
        "Location": "Ladang Tong Bee",
        "Post_Office": "Merlimau",
        "State": "Melaka"
    },
    {
        "Postcode": "77300",
        "Location": "Ladang Yew Watt Hin",
        "Post_Office": "Merlimau",
        "State": "Melaka"
    },
    {
        "Postcode": "77300",
        "Location": "Lorong Terap Jalan Haji Jamat",
        "Post_Office": "Merlimau",
        "State": "Melaka"
    },
    {
        "Postcode": "77300",
        "Location": "Merlimau",
        "Post_Office": "Merlimau",
        "State": "Melaka"
    },
    {
        "Postcode": "77300",
        "Location": "Merlimau Estate",
        "Post_Office": "Merlimau",
        "State": "Melaka"
    },
    {
        "Postcode": "77300",
        "Location": "Merlimau Pantai",
        "Post_Office": "Merlimau",
        "State": "Melaka"
    },
    {
        "Postcode": "77300",
        "Location": "Pekan Batu Gajah Pasir",
        "Post_Office": "Merlimau",
        "State": "Melaka"
    },
    {
        "Postcode": "77300",
        "Location": "Pekan Sempang",
        "Post_Office": "Merlimau",
        "State": "Melaka"
    },
    {
        "Postcode": "77300",
        "Location": "Pekan Serkam",
        "Post_Office": "Merlimau",
        "State": "Melaka"
    },
    {
        "Postcode": "77300",
        "Location": "Pengkalan Samak",
        "Post_Office": "Merlimau",
        "State": "Melaka"
    },
    {
        "Postcode": "77300",
        "Location": "Rumah Awam Merlimau",
        "Post_Office": "Merlimau",
        "State": "Melaka"
    },
    {
        "Postcode": "77300",
        "Location": "Rumah Awam Sempang",
        "Post_Office": "Merlimau",
        "State": "Melaka"
    },
    {
        "Postcode": "77300",
        "Location": "Rumah Awam Umbai",
        "Post_Office": "Merlimau",
        "State": "Melaka"
    },
    {
        "Postcode": "77300",
        "Location": "Sebatu",
        "Post_Office": "Merlimau",
        "State": "Melaka"
    },
    {
        "Postcode": "77300",
        "Location": "Semujuk",
        "Post_Office": "Merlimau",
        "State": "Melaka"
    },
    {
        "Postcode": "77300",
        "Location": "Serkam",
        "Post_Office": "Merlimau",
        "State": "Melaka"
    },
    {
        "Postcode": "77300",
        "Location": "Serkam Estate",
        "Post_Office": "Merlimau",
        "State": "Melaka"
    },
    {
        "Postcode": "77300",
        "Location": "Serkam Pantai",
        "Post_Office": "Merlimau",
        "State": "Melaka"
    },
    {
        "Postcode": "77300",
        "Location": "Simpang Bunga Raya",
        "Post_Office": "Merlimau",
        "State": "Melaka"
    },
    {
        "Postcode": "77300",
        "Location": "Simpang Pasir Gembor",
        "Post_Office": "Merlimau",
        "State": "Melaka"
    },
    {
        "Postcode": "77300",
        "Location": "Simpang Pekan",
        "Post_Office": "Merlimau",
        "State": "Melaka"
    },
    {
        "Postcode": "77300",
        "Location": "Solok Paya Lengkong",
        "Post_Office": "Merlimau",
        "State": "Melaka"
    },
    {
        "Postcode": "77300",
        "Location": "Sri Minyak",
        "Post_Office": "Merlimau",
        "State": "Melaka"
    },
    {
        "Postcode": "77300",
        "Location": "Sungai Ayer Tawar",
        "Post_Office": "Merlimau",
        "State": "Melaka"
    },
    {
        "Postcode": "77300",
        "Location": "Sungai Rengi",
        "Post_Office": "Merlimau",
        "State": "Melaka"
    },
    {
        "Postcode": "77300",
        "Location": "Taman Balkis (Bukit Durian)",
        "Post_Office": "Merlimau",
        "State": "Melaka"
    },
    {
        "Postcode": "77300",
        "Location": "Taman Bukit Tembakau",
        "Post_Office": "Merlimau",
        "State": "Melaka"
    },
    {
        "Postcode": "77300",
        "Location": "Taman Dato Abdul Aziz Umbai",
        "Post_Office": "Merlimau",
        "State": "Melaka"
    },
    {
        "Postcode": "77300",
        "Location": "Taman Debunga",
        "Post_Office": "Merlimau",
        "State": "Melaka"
    },
    {
        "Postcode": "77300",
        "Location": "Taman Deretan",
        "Post_Office": "Merlimau",
        "State": "Melaka"
    },
    {
        "Postcode": "77300",
        "Location": "Taman Iks Industri",
        "Post_Office": "Merlimau",
        "State": "Melaka"
    },
    {
        "Postcode": "77300",
        "Location": "Taman Iks Serkam",
        "Post_Office": "Merlimau",
        "State": "Melaka"
    },
    {
        "Postcode": "77300",
        "Location": "Taman Koperasi Serkam Darat",
        "Post_Office": "Merlimau",
        "State": "Melaka"
    },
    {
        "Postcode": "77300",
        "Location": "Taman Merlimau Baru",
        "Post_Office": "Merlimau",
        "State": "Melaka"
    },
    {
        "Postcode": "77300",
        "Location": "Taman Merlimau Indah",
        "Post_Office": "Merlimau",
        "State": "Melaka"
    },
    {
        "Postcode": "77300",
        "Location": "Taman Merlimau Jaya",
        "Post_Office": "Merlimau",
        "State": "Melaka"
    },
    {
        "Postcode": "77300",
        "Location": "Taman Merlimau Utara",
        "Post_Office": "Merlimau",
        "State": "Melaka"
    },
    {
        "Postcode": "77300",
        "Location": "Taman Muhibbah",
        "Post_Office": "Merlimau",
        "State": "Melaka"
    },
    {
        "Postcode": "77300",
        "Location": "Taman Panglima Park",
        "Post_Office": "Merlimau",
        "State": "Melaka"
    },
    {
        "Postcode": "77300",
        "Location": "Taman Persona",
        "Post_Office": "Merlimau",
        "State": "Melaka"
    },
    {
        "Postcode": "77300",
        "Location": "Taman Pitis",
        "Post_Office": "Merlimau",
        "State": "Melaka"
    },
    {
        "Postcode": "77300",
        "Location": "Taman Pulai Indah",
        "Post_Office": "Merlimau",
        "State": "Melaka"
    },
    {
        "Postcode": "77300",
        "Location": "Taman Pulai Jaya",
        "Post_Office": "Merlimau",
        "State": "Melaka"
    },
    {
        "Postcode": "77300",
        "Location": "Taman Rakyat",
        "Post_Office": "Merlimau",
        "State": "Melaka"
    },
    {
        "Postcode": "77300",
        "Location": "Taman Sejati",
        "Post_Office": "Merlimau",
        "State": "Melaka"
    },
    {
        "Postcode": "77300",
        "Location": "Taman Seri Jati",
        "Post_Office": "Merlimau",
        "State": "Melaka"
    },
    {
        "Postcode": "77300",
        "Location": "Taman Seri Merlimau",
        "Post_Office": "Merlimau",
        "State": "Melaka"
    },
    {
        "Postcode": "77300",
        "Location": "Taman Serkam Jaya",
        "Post_Office": "Merlimau",
        "State": "Melaka"
    },
    {
        "Postcode": "77300",
        "Location": "Taman Serkam Perdana",
        "Post_Office": "Merlimau",
        "State": "Melaka"
    },
    {
        "Postcode": "77300",
        "Location": "Tedong (Pekan)",
        "Post_Office": "Merlimau",
        "State": "Melaka"
    },
    {
        "Postcode": "77300",
        "Location": "Tedong Barat",
        "Post_Office": "Merlimau",
        "State": "Melaka"
    },
    {
        "Postcode": "77300",
        "Location": "Taman Sebatu Putra",
        "Post_Office": "Merlimau",
        "State": "Melaka"
    },
    {
        "Postcode": "77300",
        "Location": "Jalan Bendang 1",
        "Post_Office": "Merlimau",
        "State": "Melaka"
    },
    {
        "Postcode": "77300",
        "Location": "Jalan Bendang 2",
        "Post_Office": "Merlimau",
        "State": "Melaka"
    },
    {
        "Postcode": "77300",
        "Location": "Jalan Bukit Kuda 1",
        "Post_Office": "Merlimau",
        "State": "Melaka"
    },
    {
        "Postcode": "77300",
        "Location": "Jalan Bukit Kuda 2",
        "Post_Office": "Merlimau",
        "State": "Melaka"
    },
    {
        "Postcode": "77300",
        "Location": "Jalan Bukit Kuda 3",
        "Post_Office": "Merlimau",
        "State": "Melaka"
    },
    {
        "Postcode": "77300",
        "Location": "Jalan Bukit Kuda 4",
        "Post_Office": "Merlimau",
        "State": "Melaka"
    },
    {
        "Postcode": "77300",
        "Location": "Jalan Permatang Bukit 1",
        "Post_Office": "Merlimau",
        "State": "Melaka"
    },
    {
        "Postcode": "77300",
        "Location": "Jalan Permatang Bukit 2",
        "Post_Office": "Merlimau",
        "State": "Melaka"
    },
    {
        "Postcode": "77300",
        "Location": "Jalan Permatang Bukit 3",
        "Post_Office": "Merlimau",
        "State": "Melaka"
    },
    {
        "Postcode": "77300",
        "Location": "Jalan Permatang Bukit 4",
        "Post_Office": "Merlimau",
        "State": "Melaka"
    },
    {
        "Postcode": "77300",
        "Location": "Jalan Sungai Renggi 1",
        "Post_Office": "Merlimau",
        "State": "Melaka"
    },
    {
        "Postcode": "77300",
        "Location": "Jalan Sungai Renggi 2",
        "Post_Office": "Merlimau",
        "State": "Melaka"
    },
    {
        "Postcode": "77300",
        "Location": "Taman Muhibbah 6A",
        "Post_Office": "Merlimau",
        "State": "Melaka"
    },
    {
        "Postcode": "77300",
        "Location": "Taman Muhibbah 6B",
        "Post_Office": "Merlimau",
        "State": "Melaka"
    },
    {
        "Postcode": "77300",
        "Location": "Taman Muhibbah 6C",
        "Post_Office": "Merlimau",
        "State": "Melaka"
    }
]
