[
    {
        "Postcode": "77400",
        "Location": "Taman Sungai Rambai Setia",
        "Post_Office": "Sungai Rambai",
        "State": "Melaka"
    },
    {
        "Postcode": "77400",
        "Location": "Taman Batu Gajah Emas",
        "Post_Office": "Sungai Rambai",
        "State": "Melaka"
    },
    {
        "Postcode": "77400",
        "Location": "Kampung Telok Gong",
        "Post_Office": "Sungai Rambai",
        "State": "Melaka"
    },
    {
        "Postcode": "77400",
        "Location": "Taman Anggerik",
        "Post_Office": "Sungai Rambai",
        "State": "Melaka"
    },
    {
        "Postcode": "77400",
        "Location": "Taman Cempaka",
        "Post_Office": "Sungai Rambai",
        "State": "Melaka"
    },
    {
        "Postcode": "77400",
        "Location": "Taman Jaya",
        "Post_Office": "Sungai Rambai",
        "State": "Melaka"
    },
    {
        "Postcode": "77400",
        "Location": "Jalan Pulai Darat",
        "Post_Office": "Sungai Rambai",
        "State": "Melaka"
    },
    {
        "Postcode": "77400",
        "Location": "Kampung Pulai Barat",
        "Post_Office": "Sungai Rambai",
        "State": "Melaka"
    },
    {
        "Postcode": "77400",
        "Location": "Kampung Sungai Rambai",
        "Post_Office": "Sungai Rambai",
        "State": "Melaka"
    },
    {
        "Postcode": "77400",
        "Location": "Pulai Darat",
        "Post_Office": "Sungai Rambai",
        "State": "Melaka"
    },
    {
        "Postcode": "77400",
        "Location": "Jalan Ghafar",
        "Post_Office": "Sungai Rambai",
        "State": "Melaka"
    },
    {
        "Postcode": "77400",
        "Location": "Jalan Haji Dahlan",
        "Post_Office": "Sungai Rambai",
        "State": "Melaka"
    },
    {
        "Postcode": "77400",
        "Location": "Jalan Haji Raya",
        "Post_Office": "Sungai Rambai",
        "State": "Melaka"
    },
    {
        "Postcode": "77400",
        "Location": "Jalan Ibrahim",
        "Post_Office": "Sungai Rambai",
        "State": "Melaka"
    },
    {
        "Postcode": "77400",
        "Location": "Jalan Laidin",
        "Post_Office": "Sungai Rambai",
        "State": "Melaka"
    },
    {
        "Postcode": "77400",
        "Location": "Jalan Parit Putat",
        "Post_Office": "Sungai Rambai",
        "State": "Melaka"
    },
    {
        "Postcode": "77400",
        "Location": "Jalan Parit Sialang",
        "Post_Office": "Sungai Rambai",
        "State": "Melaka"
    },
    {
        "Postcode": "77400",
        "Location": "Jalan Paya Rembut",
        "Post_Office": "Sungai Rambai",
        "State": "Melaka"
    },
    {
        "Postcode": "77400",
        "Location": "Kampung Benteng",
        "Post_Office": "Sungai Rambai",
        "State": "Melaka"
    },
    {
        "Postcode": "77400",
        "Location": "Kampung Parit Gantong",
        "Post_Office": "Sungai Rambai",
        "State": "Melaka"
    },
    {
        "Postcode": "77400",
        "Location": "Kampung Parit Penghulu",
        "Post_Office": "Sungai Rambai",
        "State": "Melaka"
    },
    {
        "Postcode": "77400",
        "Location": "Kampung Parit Perawas",
        "Post_Office": "Sungai Rambai",
        "State": "Melaka"
    },
    {
        "Postcode": "77400",
        "Location": "Kampung Parit Putat",
        "Post_Office": "Sungai Rambai",
        "State": "Melaka"
    },
    {
        "Postcode": "77400",
        "Location": "Kampung Parit Sidang Seman",
        "Post_Office": "Sungai Rambai",
        "State": "Melaka"
    },
    {
        "Postcode": "77400",
        "Location": "Kampung Paya Rembut",
        "Post_Office": "Sungai Rambai",
        "State": "Melaka"
    },
    {
        "Postcode": "77400",
        "Location": "Kampung Sebatu (Km 29 - 31)",
        "Post_Office": "Sungai Rambai",
        "State": "Melaka"
    },
    {
        "Postcode": "77400",
        "Location": "Kampung Solok Ikan Paus",
        "Post_Office": "Sungai Rambai",
        "State": "Melaka"
    },
    {
        "Postcode": "77400",
        "Location": "Kampung Tasek",
        "Post_Office": "Sungai Rambai",
        "State": "Melaka"
    },
    {
        "Postcode": "77400",
        "Location": "Lorong Baba",
        "Post_Office": "Sungai Rambai",
        "State": "Melaka"
    },
    {
        "Postcode": "77400",
        "Location": "Lorong Pengkalan Leban",
        "Post_Office": "Sungai Rambai",
        "State": "Melaka"
    },
    {
        "Postcode": "77400",
        "Location": "Lorong Sayang",
        "Post_Office": "Sungai Rambai",
        "State": "Melaka"
    },
    {
        "Postcode": "77400",
        "Location": "Parit Derhaka",
        "Post_Office": "Sungai Rambai",
        "State": "Melaka"
    },
    {
        "Postcode": "77400",
        "Location": "Parit Hailam",
        "Post_Office": "Sungai Rambai",
        "State": "Melaka"
    },
    {
        "Postcode": "77400",
        "Location": "Parit Penghulu Benteng",
        "Post_Office": "Sungai Rambai",
        "State": "Melaka"
    },
    {
        "Postcode": "77400",
        "Location": "Parit Putat Benting",
        "Post_Office": "Sungai Rambai",
        "State": "Melaka"
    },
    {
        "Postcode": "77400",
        "Location": "Parit Sialang",
        "Post_Office": "Sungai Rambai",
        "State": "Melaka"
    },
    {
        "Postcode": "77400",
        "Location": "Parit Sidang Seman",
        "Post_Office": "Sungai Rambai",
        "State": "Melaka"
    },
    {
        "Postcode": "77400",
        "Location": "Permatang Tualang",
        "Post_Office": "Sungai Rambai",
        "State": "Melaka"
    },
    {
        "Postcode": "77400",
        "Location": "Rumah Awam Sungai Rambai",
        "Post_Office": "Sungai Rambai",
        "State": "Melaka"
    },
    {
        "Postcode": "77400",
        "Location": "Sungai Rambai - Peti Surat",
        "Post_Office": "Sungai Rambai",
        "State": "Melaka"
    },
    {
        "Postcode": "77400",
        "Location": "Taman Jaya Parit Putat",
        "Post_Office": "Sungai Rambai",
        "State": "Melaka"
    },
    {
        "Postcode": "77400",
        "Location": "Taman Perdana",
        "Post_Office": "Sungai Rambai",
        "State": "Melaka"
    },
    {
        "Postcode": "77400",
        "Location": "Taman Rambai Perdana",
        "Post_Office": "Sungai Rambai",
        "State": "Melaka"
    },
    {
        "Postcode": "77400",
        "Location": "Taman Seri Desa",
        "Post_Office": "Sungai Rambai",
        "State": "Melaka"
    },
    {
        "Postcode": "77400",
        "Location": "Taman Sri Rambai",
        "Post_Office": "Sungai Rambai",
        "State": "Melaka"
    },
    {
        "Postcode": "77400",
        "Location": "Taman Sri Suria",
        "Post_Office": "Sungai Rambai",
        "State": "Melaka"
    },
    {
        "Postcode": "77400",
        "Location": "Tambak Merah",
        "Post_Office": "Sungai Rambai",
        "State": "Melaka"
    }
]
