[
    {
        "Postcode": "77500",
        "Location": "Taman Seri Hilir",
        "Post_Office": "Selandar",
        "State": "Melaka"
    },
    {
        "Postcode": "77500",
        "Location": "Jalan Tenaga Baru",
        "Post_Office": "Selandar",
        "State": "Melaka"
    },
    {
        "Postcode": "77500",
        "Location": "Kampung Pulau",
        "Post_Office": "Selandar",
        "State": "Melaka"
    },
    {
        "Postcode": "77500",
        "Location": "Kampung Tengah",
        "Post_Office": "Selandar",
        "State": "Melaka"
    },
    {
        "Postcode": "77500",
        "Location": "Taman Hilir",
        "Post_Office": "Selandar",
        "State": "Melaka"
    },
    {
        "Postcode": "77500",
        "Location": "Taman Indah",
        "Post_Office": "Selandar",
        "State": "Melaka"
    },
    {
        "Postcode": "77500",
        "Location": "Taman Pelangi",
        "Post_Office": "Selandar",
        "State": "Melaka"
    },
    {
        "Postcode": "77500",
        "Location": "Taman Permai",
        "Post_Office": "Selandar",
        "State": "Melaka"
    },
    {
        "Postcode": "77500",
        "Location": "Felda Air Kangkong",
        "Post_Office": "Selandar",
        "State": "Melaka"
    },
    {
        "Postcode": "77500",
        "Location": "Batang Melaka",
        "Post_Office": "Selandar",
        "State": "Melaka"
    },
    {
        "Postcode": "77500",
        "Location": "Kampung Kuala Sungga",
        "Post_Office": "Selandar",
        "State": "Melaka"
    },
    {
        "Postcode": "77500",
        "Location": "Kampung Orang Asli Air Sialang ",
        "Post_Office": "Selandar",
        "State": "Melaka"
    },
    {
        "Postcode": "77500",
        "Location": "Kuala Sungga (Pekan)",
        "Post_Office": "Selandar",
        "State": "Melaka"
    },
    {
        "Postcode": "77500",
        "Location": "Balai Polis Batang Melaka",
        "Post_Office": "Selandar",
        "State": "Melaka"
    },
    {
        "Postcode": "77500",
        "Location": "Batang Melaka (Batu 27 - 28)",
        "Post_Office": "Selandar",
        "State": "Melaka"
    },
    {
        "Postcode": "77500",
        "Location": "Batang Melaka (Km 43 - 44)",
        "Post_Office": "Selandar",
        "State": "Melaka"
    },
    {
        "Postcode": "77500",
        "Location": "Batang Melaka Estate",
        "Post_Office": "Selandar",
        "State": "Melaka"
    },
    {
        "Postcode": "77500",
        "Location": "Batu Ampar",
        "Post_Office": "Selandar",
        "State": "Melaka"
    },
    {
        "Postcode": "77500",
        "Location": "Bukit Senggeh",
        "Post_Office": "Selandar",
        "State": "Melaka"
    },
    {
        "Postcode": "77500",
        "Location": "Bukit Senggeh Hilir",
        "Post_Office": "Selandar",
        "State": "Melaka"
    },
    {
        "Postcode": "77500",
        "Location": "Chai Soon Hin Estate",
        "Post_Office": "Selandar",
        "State": "Melaka"
    },
    {
        "Postcode": "77500",
        "Location": "Felcra Bukit Sedanan",
        "Post_Office": "Selandar",
        "State": "Melaka"
    },
    {
        "Postcode": "77500",
        "Location": "Iks Selandar",
        "Post_Office": "Selandar",
        "State": "Melaka"
    },
    {
        "Postcode": "77500",
        "Location": "Jalan Air Talam",
        "Post_Office": "Selandar",
        "State": "Melaka"
    },
    {
        "Postcode": "77500",
        "Location": "Jalan Batang Melaka (Km 38 - 44)",
        "Post_Office": "Selandar",
        "State": "Melaka"
    },
    {
        "Postcode": "77500",
        "Location": "Jalan Bidan Kampung Bukit Senggeh",
        "Post_Office": "Selandar",
        "State": "Melaka"
    },
    {
        "Postcode": "77500",
        "Location": "Jalan Bilal",
        "Post_Office": "Selandar",
        "State": "Melaka"
    },
    {
        "Postcode": "77500",
        "Location": "Jalan Gemas - Tampin Tebong",
        "Post_Office": "Selandar",
        "State": "Melaka"
    },
    {
        "Postcode": "77500",
        "Location": "Jalan Gemas Tampin",
        "Post_Office": "Selandar",
        "State": "Melaka"
    },
    {
        "Postcode": "77500",
        "Location": "Jalan Hassan",
        "Post_Office": "Selandar",
        "State": "Melaka"
    },
    {
        "Postcode": "77500",
        "Location": "Jalan Imam Razak",
        "Post_Office": "Selandar",
        "State": "Melaka"
    },
    {
        "Postcode": "77500",
        "Location": "Jalan Machap Selandar",
        "Post_Office": "Selandar",
        "State": "Melaka"
    },
    {
        "Postcode": "77500",
        "Location": "Jalan Manja",
        "Post_Office": "Selandar",
        "State": "Melaka"
    },
    {
        "Postcode": "77500",
        "Location": "Kampung Ayer Kangkong",
        "Post_Office": "Selandar",
        "State": "Melaka"
    },
    {
        "Postcode": "77500",
        "Location": "Kampung Baru Anak Ayer Tebong",
        "Post_Office": "Selandar",
        "State": "Melaka"
    },
    {
        "Postcode": "77500",
        "Location": "Kampung Baru Bukit Sedanan",
        "Post_Office": "Selandar",
        "State": "Melaka"
    },
    {
        "Postcode": "77500",
        "Location": "Kampung Baru On Lok",
        "Post_Office": "Selandar",
        "State": "Melaka"
    },
    {
        "Postcode": "77500",
        "Location": "Kampung Baru Selandar",
        "Post_Office": "Selandar",
        "State": "Melaka"
    },
    {
        "Postcode": "77500",
        "Location": "Kampung Baru Tebong",
        "Post_Office": "Selandar",
        "State": "Melaka"
    },
    {
        "Postcode": "77500",
        "Location": "Kampung Bukit Senggeh",
        "Post_Office": "Selandar",
        "State": "Melaka"
    },
    {
        "Postcode": "77500",
        "Location": "Kampung Bukit Seraya",
        "Post_Office": "Selandar",
        "State": "Melaka"
    },
    {
        "Postcode": "77500",
        "Location": "Kampung Hilir (Batu 26 - 29)",
        "Post_Office": "Selandar",
        "State": "Melaka"
    },
    {
        "Postcode": "77500",
        "Location": "Kampung Hulu (Batu 3)",
        "Post_Office": "Selandar",
        "State": "Melaka"
    },
    {
        "Postcode": "77500",
        "Location": "Kampung Jalan Tebong",
        "Post_Office": "Selandar",
        "State": "Melaka"
    },
    {
        "Postcode": "77500",
        "Location": "Kampung Jus Permai",
        "Post_Office": "Selandar",
        "State": "Melaka"
    },
    {
        "Postcode": "77500",
        "Location": "Kampung Jus Selandar",
        "Post_Office": "Selandar",
        "State": "Melaka"
    },
    {
        "Postcode": "77500",
        "Location": "Kampung Nelayan Bukit Sendanan",
        "Post_Office": "Selandar",
        "State": "Melaka"
    },
    {
        "Postcode": "77500",
        "Location": "Kampung Orang Asli Air Dusun Tebong",
        "Post_Office": "Selandar",
        "State": "Melaka"
    },
    {
        "Postcode": "77500",
        "Location": "Kampung Orang Asli Batang Melaka",
        "Post_Office": "Selandar",
        "State": "Melaka"
    },
    {
        "Postcode": "77500",
        "Location": "Kampung Orang Asli Bukit Putus",
        "Post_Office": "Selandar",
        "State": "Melaka"
    },
    {
        "Postcode": "77500",
        "Location": "Kampung Orang Asli Bukit Seraya",
        "Post_Office": "Selandar",
        "State": "Melaka"
    },
    {
        "Postcode": "77500",
        "Location": "Kampung Orang Asli Gapam",
        "Post_Office": "Selandar",
        "State": "Melaka"
    },
    {
        "Postcode": "77500",
        "Location": "Kampung Orang Asli Jus",
        "Post_Office": "Selandar",
        "State": "Melaka"
    },
    {
        "Postcode": "77500",
        "Location": "Kampung Orang Asli Kubang Badak",
        "Post_Office": "Selandar",
        "State": "Melaka"
    },
    {
        "Postcode": "77500",
        "Location": "Kampung Orang Asli Tebong Station",
        "Post_Office": "Selandar",
        "State": "Melaka"
    },
    {
        "Postcode": "77500",
        "Location": "Kampung Orang Asli Terentang",
        "Post_Office": "Selandar",
        "State": "Melaka"
    },
    {
        "Postcode": "77500",
        "Location": "Kampung Pondok Kempas",
        "Post_Office": "Selandar",
        "State": "Melaka"
    },
    {
        "Postcode": "77500",
        "Location": "Kampung Rejang Selandar",
        "Post_Office": "Selandar",
        "State": "Melaka"
    },
    {
        "Postcode": "77500",
        "Location": "Kampung Selandar",
        "Post_Office": "Selandar",
        "State": "Melaka"
    },
    {
        "Postcode": "77500",
        "Location": "Kampung Solok Ayer Keroh",
        "Post_Office": "Selandar",
        "State": "Melaka"
    },
    {
        "Postcode": "77500",
        "Location": "Kampung Solok Bukit Putus",
        "Post_Office": "Selandar",
        "State": "Melaka"
    },
    {
        "Postcode": "77500",
        "Location": "Kampung Solok Kuala Sungga",
        "Post_Office": "Selandar",
        "State": "Melaka"
    },
    {
        "Postcode": "77500",
        "Location": "Kampung Tebong",
        "Post_Office": "Selandar",
        "State": "Melaka"
    },
    {
        "Postcode": "77500",
        "Location": "Kampung Tebong Dalam",
        "Post_Office": "Selandar",
        "State": "Melaka"
    },
    {
        "Postcode": "77500",
        "Location": "Kampung Tengah Batang Melaka",
        "Post_Office": "Selandar",
        "State": "Melaka"
    },
    {
        "Postcode": "77500",
        "Location": "Kampung Ulu Batang Melaka",
        "Post_Office": "Selandar",
        "State": "Melaka"
    },
    {
        "Postcode": "77500",
        "Location": "Kampung Ulu Jus",
        "Post_Office": "Selandar",
        "State": "Melaka"
    },
    {
        "Postcode": "77500",
        "Location": "Ladang Batu Berkarat",
        "Post_Office": "Selandar",
        "State": "Melaka"
    },
    {
        "Postcode": "77500",
        "Location": "Ladang Bukit Putus",
        "Post_Office": "Selandar",
        "State": "Melaka"
    },
    {
        "Postcode": "77500",
        "Location": "Ladang Chye Soon Hing",
        "Post_Office": "Selandar",
        "State": "Melaka"
    },
    {
        "Postcode": "77500",
        "Location": "Ladang Enam B Tebong",
        "Post_Office": "Selandar",
        "State": "Melaka"
    },
    {
        "Postcode": "77500",
        "Location": "Ladang Guthrie",
        "Post_Office": "Selandar",
        "State": "Melaka"
    },
    {
        "Postcode": "77500",
        "Location": "Ladang Kemuning",
        "Post_Office": "Selandar",
        "State": "Melaka"
    },
    {
        "Postcode": "77500",
        "Location": "Ladang Leong Whatt Hin",
        "Post_Office": "Selandar",
        "State": "Melaka"
    },
    {
        "Postcode": "77500",
        "Location": "Ladang Nam Bee",
        "Post_Office": "Selandar",
        "State": "Melaka"
    },
    {
        "Postcode": "77500",
        "Location": "Ladang Tebolang",
        "Post_Office": "Selandar",
        "State": "Melaka"
    },
    {
        "Postcode": "77500",
        "Location": "Ladang Tebong",
        "Post_Office": "Selandar",
        "State": "Melaka"
    },
    {
        "Postcode": "77500",
        "Location": "Ladang Tor Lee",
        "Post_Office": "Selandar",
        "State": "Melaka"
    },
    {
        "Postcode": "77500",
        "Location": "Ladang Yong Teck Nam",
        "Post_Office": "Selandar",
        "State": "Melaka"
    },
    {
        "Postcode": "77500",
        "Location": "Lim Kok Wah Estate",
        "Post_Office": "Selandar",
        "State": "Melaka"
    },
    {
        "Postcode": "77500",
        "Location": "Nam Bee Estate",
        "Post_Office": "Selandar",
        "State": "Melaka"
    },
    {
        "Postcode": "77500",
        "Location": "Pekan Selandar",
        "Post_Office": "Selandar",
        "State": "Melaka"
    },
    {
        "Postcode": "77500",
        "Location": "Rumah Awam Batang Melaka",
        "Post_Office": "Selandar",
        "State": "Melaka"
    },
    {
        "Postcode": "77500",
        "Location": "Rumah Awam Pondok Kempas",
        "Post_Office": "Selandar",
        "State": "Melaka"
    },
    {
        "Postcode": "77500",
        "Location": "Rumah Awam Selandar",
        "Post_Office": "Selandar",
        "State": "Melaka"
    },
    {
        "Postcode": "77500",
        "Location": "Rumah Awam Sri Cahaya",
        "Post_Office": "Selandar",
        "State": "Melaka"
    },
    {
        "Postcode": "77500",
        "Location": "Rumah Awam Tebong",
        "Post_Office": "Selandar",
        "State": "Melaka"
    },
    {
        "Postcode": "77500",
        "Location": "Rumah Keretapi Tebong",
        "Post_Office": "Selandar",
        "State": "Melaka"
    },
    {
        "Postcode": "77500",
        "Location": "Selandar",
        "Post_Office": "Selandar",
        "State": "Melaka"
    },
    {
        "Postcode": "77500",
        "Location": "Sing Lian Estate",
        "Post_Office": "Selandar",
        "State": "Melaka"
    },
    {
        "Postcode": "77500",
        "Location": "Solok Air Lanjut",
        "Post_Office": "Selandar",
        "State": "Melaka"
    },
    {
        "Postcode": "77500",
        "Location": "Solok Anak Air Tetaban",
        "Post_Office": "Selandar",
        "State": "Melaka"
    },
    {
        "Postcode": "77500",
        "Location": "Solok Ayer Keroh",
        "Post_Office": "Selandar",
        "State": "Melaka"
    },
    {
        "Postcode": "77500",
        "Location": "Solok Chembung",
        "Post_Office": "Selandar",
        "State": "Melaka"
    },
    {
        "Postcode": "77500",
        "Location": "Solok Kampung Pulau",
        "Post_Office": "Selandar",
        "State": "Melaka"
    },
    {
        "Postcode": "77500",
        "Location": "Solok Rejang",
        "Post_Office": "Selandar",
        "State": "Melaka"
    },
    {
        "Postcode": "77500",
        "Location": "Soon Huat Estate",
        "Post_Office": "Selandar",
        "State": "Melaka"
    },
    {
        "Postcode": "77500",
        "Location": "Tai Joo Estate",
        "Post_Office": "Selandar",
        "State": "Melaka"
    },
    {
        "Postcode": "77500",
        "Location": "Taman Baru Jus",
        "Post_Office": "Selandar",
        "State": "Melaka"
    },
    {
        "Postcode": "77500",
        "Location": "Taman Baru Selandar",
        "Post_Office": "Selandar",
        "State": "Melaka"
    },
    {
        "Postcode": "77500",
        "Location": "Taman Batang Melaka Baru",
        "Post_Office": "Selandar",
        "State": "Melaka"
    },
    {
        "Postcode": "77500",
        "Location": "Taman Batang Melaka Jaya",
        "Post_Office": "Selandar",
        "State": "Melaka"
    },
    {
        "Postcode": "77500",
        "Location": "Taman Desa",
        "Post_Office": "Selandar",
        "State": "Melaka"
    },
    {
        "Postcode": "77500",
        "Location": "Taman Desa Selandar",
        "Post_Office": "Selandar",
        "State": "Melaka"
    },
    {
        "Postcode": "77500",
        "Location": "Taman Indah 2",
        "Post_Office": "Selandar",
        "State": "Melaka"
    },
    {
        "Postcode": "77500",
        "Location": "Taman Jus Perdana",
        "Post_Office": "Selandar",
        "State": "Melaka"
    },
    {
        "Postcode": "77500",
        "Location": "Taman Kejora",
        "Post_Office": "Selandar",
        "State": "Melaka"
    },
    {
        "Postcode": "77500",
        "Location": "Taman Kuala Sungga",
        "Post_Office": "Selandar",
        "State": "Melaka"
    },
    {
        "Postcode": "77500",
        "Location": "Taman Pertanian Selandar",
        "Post_Office": "Selandar",
        "State": "Melaka"
    },
    {
        "Postcode": "77500",
        "Location": "Taman Selandar",
        "Post_Office": "Selandar",
        "State": "Melaka"
    },
    {
        "Postcode": "77500",
        "Location": "Taman Selandar Baru",
        "Post_Office": "Selandar",
        "State": "Melaka"
    },
    {
        "Postcode": "77500",
        "Location": "Taman Selandar Permai",
        "Post_Office": "Selandar",
        "State": "Melaka"
    },
    {
        "Postcode": "77500",
        "Location": "Taman Seri Selandar",
        "Post_Office": "Selandar",
        "State": "Melaka"
    },
    {
        "Postcode": "77500",
        "Location": "Tebong (Pekan)",
        "Post_Office": "Selandar",
        "State": "Melaka"
    },
    {
        "Postcode": "77500",
        "Location": "Tor Lee Estate",
        "Post_Office": "Selandar",
        "State": "Melaka"
    }
]
