[
    {
        "Postcode": "41000",
        "Location": "Taman Sri Menegon",
        "Post_Office": "Klang",
        "State": "Selangor"
    },
    {
        "Postcode": "41000",
        "Location": "Taman Sri Saga",
        "Post_Office": "Klang",
        "State": "Selangor"
    },
    {
        "Postcode": "41000",
        "Location": "Jalan Bentara",
        "Post_Office": "Klang",
        "State": "Selangor"
    },
    {
        "Postcode": "41000",
        "Location": "Jalan Besar",
        "Post_Office": "Klang",
        "State": "Selangor"
    },
    {
        "Postcode": "41000",
        "Location": "Jalan Bukit Badak",
        "Post_Office": "Klang",
        "State": "Selangor"
    },
    {
        "Postcode": "41000",
        "Location": "Jalan Bukit Jati",
        "Post_Office": "Klang",
        "State": "Selangor"
    },
    {
        "Postcode": "41000",
        "Location": "Jalan Bukit Jawa",
        "Post_Office": "Klang",
        "State": "Selangor"
    },
    {
        "Postcode": "41000",
        "Location": "Jalan Dato Hamzah",
        "Post_Office": "Klang",
        "State": "Selangor"
    },
    {
        "Postcode": "41000",
        "Location": "Jalan Dato' Mohd Sidin",
        "Post_Office": "Klang",
        "State": "Selangor"
    },
    {
        "Postcode": "41000",
        "Location": "Jalan Demang",
        "Post_Office": "Klang",
        "State": "Selangor"
    },
    {
        "Postcode": "41000",
        "Location": "Jalan Haji Abd Razak",
        "Post_Office": "Klang",
        "State": "Selangor"
    },
    {
        "Postcode": "41000",
        "Location": "Jalan Haji Haidar",
        "Post_Office": "Klang",
        "State": "Selangor"
    },
    {
        "Postcode": "41000",
        "Location": "Jalan Haji Syawal",
        "Post_Office": "Klang",
        "State": "Selangor"
    },
    {
        "Postcode": "41000",
        "Location": "Jalan Istana",
        "Post_Office": "Klang",
        "State": "Selangor"
    },
    {
        "Postcode": "41000",
        "Location": "Jalan Jambatan (Kampung Jawa)",
        "Post_Office": "Klang",
        "State": "Selangor"
    },
    {
        "Postcode": "41000",
        "Location": "Jalan Kechubong",
        "Post_Office": "Klang",
        "State": "Selangor"
    },
    {
        "Postcode": "41000",
        "Location": "Jalan Kelab",
        "Post_Office": "Klang",
        "State": "Selangor"
    },
    {
        "Postcode": "41000",
        "Location": "Jalan Kerak Nasi",
        "Post_Office": "Klang",
        "State": "Selangor"
    },
    {
        "Postcode": "41000",
        "Location": "Jalan Kota Raja (Hingga Km 1.5)",
        "Post_Office": "Klang",
        "State": "Selangor"
    },
    {
        "Postcode": "41000",
        "Location": "Jalan Menegun",
        "Post_Office": "Klang",
        "State": "Selangor"
    },
    {
        "Postcode": "41000",
        "Location": "Jalan Mohd Tahir",
        "Post_Office": "Klang",
        "State": "Selangor"
    },
    {
        "Postcode": "41000",
        "Location": "Jalan Mohet",
        "Post_Office": "Klang",
        "State": "Selangor"
    },
    {
        "Postcode": "41000",
        "Location": "Jalan Nakhoda Yusof",
        "Post_Office": "Klang",
        "State": "Selangor"
    },
    {
        "Postcode": "41000",
        "Location": "Jalan Padang",
        "Post_Office": "Klang",
        "State": "Selangor"
    },
    {
        "Postcode": "41000",
        "Location": "Jalan Paduka",
        "Post_Office": "Klang",
        "State": "Selangor"
    },
    {
        "Postcode": "41000",
        "Location": "Jalan Pegawai",
        "Post_Office": "Klang",
        "State": "Selangor"
    },
    {
        "Postcode": "41000",
        "Location": "Jalan Penghulu Kassim",
        "Post_Office": "Klang",
        "State": "Selangor"
    },
    {
        "Postcode": "41000",
        "Location": "Jalan Pokok Durian Sakat",
        "Post_Office": "Klang",
        "State": "Selangor"
    },
    {
        "Postcode": "41000",
        "Location": "Jalan Pulasan",
        "Post_Office": "Klang",
        "State": "Selangor"
    },
    {
        "Postcode": "41000",
        "Location": "Jalan Putri",
        "Post_Office": "Klang",
        "State": "Selangor"
    },
    {
        "Postcode": "41000",
        "Location": "Jalan Raja Nong",
        "Post_Office": "Klang",
        "State": "Selangor"
    },
    {
        "Postcode": "41000",
        "Location": "Jalan Raya Timur",
        "Post_Office": "Klang",
        "State": "Selangor"
    },
    {
        "Postcode": "41000",
        "Location": "Jalan Samarinda",
        "Post_Office": "Klang",
        "State": "Selangor"
    },
    {
        "Postcode": "41000",
        "Location": "Jalan Seri Banang",
        "Post_Office": "Klang",
        "State": "Selangor"
    },
    {
        "Postcode": "41000",
        "Location": "Jalan Seri Pandan",
        "Post_Office": "Klang",
        "State": "Selangor"
    },
    {
        "Postcode": "41000",
        "Location": "Jalan Songket",
        "Post_Office": "Klang",
        "State": "Selangor"
    },
    {
        "Postcode": "41000",
        "Location": "Jalan Stesyen 1",
        "Post_Office": "Klang",
        "State": "Selangor"
    },
    {
        "Postcode": "41000",
        "Location": "Jalan Sulam",
        "Post_Office": "Klang",
        "State": "Selangor"
    },
    {
        "Postcode": "41000",
        "Location": "Jalan Sultan",
        "Post_Office": "Klang",
        "State": "Selangor"
    },
    {
        "Postcode": "41000",
        "Location": "Jalan Taliair",
        "Post_Office": "Klang",
        "State": "Selangor"
    },
    {
        "Postcode": "41000",
        "Location": "Jalan Talipok",
        "Post_Office": "Klang",
        "State": "Selangor"
    },
    {
        "Postcode": "41000",
        "Location": "Jalan Tan Sri Manikavasagam",
        "Post_Office": "Klang",
        "State": "Selangor"
    },
    {
        "Postcode": "41000",
        "Location": "Jalan Tengku Diauddin",
        "Post_Office": "Klang",
        "State": "Selangor"
    },
    {
        "Postcode": "41000",
        "Location": "Jalan Tengku Zainon Rashid",
        "Post_Office": "Klang",
        "State": "Selangor"
    },
    {
        "Postcode": "41000",
        "Location": "Jalan Tunku Kelana",
        "Post_Office": "Klang",
        "State": "Selangor"
    },
    {
        "Postcode": "41000",
        "Location": "Jalan Uganda",
        "Post_Office": "Klang",
        "State": "Selangor"
    },
    {
        "Postcode": "41000",
        "Location": "Jalan Yahaya",
        "Post_Office": "Klang",
        "State": "Selangor"
    },
    {
        "Postcode": "41000",
        "Location": "Jalan Yeo Guan Hup",
        "Post_Office": "Klang",
        "State": "Selangor"
    },
    {
        "Postcode": "41000",
        "Location": "Jalan Zainorrashid",
        "Post_Office": "Klang",
        "State": "Selangor"
    },
    {
        "Postcode": "41000",
        "Location": "Kampung Bukit Jati",
        "Post_Office": "Klang",
        "State": "Selangor"
    },
    {
        "Postcode": "41000",
        "Location": "Kampung Dagang Jati",
        "Post_Office": "Klang",
        "State": "Selangor"
    },
    {
        "Postcode": "41000",
        "Location": "Kampung Dato Dagang",
        "Post_Office": "Klang",
        "State": "Selangor"
    },
    {
        "Postcode": "41000",
        "Location": "Kampung Jawa (Batu 5)",
        "Post_Office": "Klang",
        "State": "Selangor"
    },
    {
        "Postcode": "41000",
        "Location": "Kampung Pandan",
        "Post_Office": "Klang",
        "State": "Selangor"
    },
    {
        "Postcode": "41000",
        "Location": "Kampung Telok Menegon",
        "Post_Office": "Klang",
        "State": "Selangor"
    },
    {
        "Postcode": "41000",
        "Location": "Lorong Azmi (Kampung Pandan)",
        "Post_Office": "Klang",
        "State": "Selangor"
    },
    {
        "Postcode": "41000",
        "Location": "Lorong Balai",
        "Post_Office": "Klang",
        "State": "Selangor"
    },
    {
        "Postcode": "41000",
        "Location": "Lorong Istana",
        "Post_Office": "Klang",
        "State": "Selangor"
    },
    {
        "Postcode": "41000",
        "Location": "Lorong Menegun",
        "Post_Office": "Klang",
        "State": "Selangor"
    },
    {
        "Postcode": "41000",
        "Location": "Lorong Nuri",
        "Post_Office": "Klang",
        "State": "Selangor"
    },
    {
        "Postcode": "41000",
        "Location": "Lorong Pak Mahat",
        "Post_Office": "Klang",
        "State": "Selangor"
    },
    {
        "Postcode": "41000",
        "Location": "Lorong Puteri",
        "Post_Office": "Klang",
        "State": "Selangor"
    },
    {
        "Postcode": "41000",
        "Location": "Lorong Raja Yusof",
        "Post_Office": "Klang",
        "State": "Selangor"
    },
    {
        "Postcode": "41000",
        "Location": "Lorong Razak",
        "Post_Office": "Klang",
        "State": "Selangor"
    },
    {
        "Postcode": "41000",
        "Location": "Lorong Stesyen",
        "Post_Office": "Klang",
        "State": "Selangor"
    },
    {
        "Postcode": "41000",
        "Location": "Lorong Tingkat",
        "Post_Office": "Klang",
        "State": "Selangor"
    },
    {
        "Postcode": "41000",
        "Location": "Solok Besar",
        "Post_Office": "Klang",
        "State": "Selangor"
    },
    {
        "Postcode": "41000",
        "Location": "Solok Sri Banang",
        "Post_Office": "Klang",
        "State": "Selangor"
    },
    {
        "Postcode": "41000",
        "Location": "Taman Alam Shah",
        "Post_Office": "Klang",
        "State": "Selangor"
    },
    {
        "Postcode": "41000",
        "Location": "Taman Bijaya",
        "Post_Office": "Klang",
        "State": "Selangor"
    },
    {
        "Postcode": "41000",
        "Location": "Taman Bunga Raya",
        "Post_Office": "Klang",
        "State": "Selangor"
    },
    {
        "Postcode": "41000",
        "Location": "Taman Klang Indah",
        "Post_Office": "Klang",
        "State": "Selangor"
    },
    {
        "Postcode": "41000",
        "Location": "Taman Kota Raja",
        "Post_Office": "Klang",
        "State": "Selangor"
    },
    {
        "Postcode": "41000",
        "Location": "Taman Maznah",
        "Post_Office": "Klang",
        "State": "Selangor"
    },
    {
        "Postcode": "41000",
        "Location": "Taman Menara Maju",
        "Post_Office": "Klang",
        "State": "Selangor"
    },
    {
        "Postcode": "41000",
        "Location": "Taman Nakhoda Yusof",
        "Post_Office": "Klang",
        "State": "Selangor"
    },
    {
        "Postcode": "41000",
        "Location": "Taman Saga",
        "Post_Office": "Klang",
        "State": "Selangor"
    },
    {
        "Postcode": "41000",
        "Location": "Taman Sejati Kota Raja",
        "Post_Office": "Klang",
        "State": "Selangor"
    },
    {
        "Postcode": "41000",
        "Location": "Taman Sri Istana",
        "Post_Office": "Klang",
        "State": "Selangor"
    },
    {
        "Postcode": "41000",
        "Location": "Taman Sungai Jati Permai",
        "Post_Office": "Klang",
        "State": "Selangor"
    },
    {
        "Postcode": "41000",
        "Location": "Taman Syah Bandaraya",
        "Post_Office": "Klang",
        "State": "Selangor"
    },
    {
        "Postcode": "41000",
        "Location": "Taman Saga 3",
        "Post_Office": "Klang",
        "State": "Selangor"
    },
    {
        "Postcode": "41000",
        "Location": "Jalan Raja Nong 24/KS 7",
        "Post_Office": "Klang",
        "State": "Selangor"
    },
    {
        "Postcode": "41000",
        "Location": "Pangsapuri Trifolia",
        "Post_Office": "Klang",
        "State": "Selangor"
    },
    {
        "Postcode": "41000",
        "Location": "Taman Shahbandaraya",
        "Post_Office": "Klang",
        "State": "Selangor"
    },
    {
        "Postcode": "41000",
        "Location": "Taman Sri Mewah 1",
        "Post_Office": "Klang",
        "State": "Selangor"
    },
    {
        "Postcode": "41000",
        "Location": "Kampung Sri Pandan",
        "Post_Office": "Klang",
        "State": "Selangor"
    },
    {
        "Postcode": "41000",
        "Location": "Taman Alam Nyata",
        "Post_Office": "Klang",
        "State": "Selangor"
    },
    {
        "Postcode": "41000",
        "Location": "Taman Alam Nyata 2",
        "Post_Office": "Klang",
        "State": "Selangor"
    },
    {
        "Postcode": "41000",
        "Location": "Taman Alam Shah 2",
        "Post_Office": "Klang",
        "State": "Selangor"
    },
    {
        "Postcode": "41000",
        "Location": "Taman Bahagia Jaya",
        "Post_Office": "Klang",
        "State": "Selangor"
    },
    {
        "Postcode": "41000",
        "Location": "Taman Bukit Istana",
        "Post_Office": "Klang",
        "State": "Selangor"
    },
    {
        "Postcode": "41000",
        "Location": "Taman Bukit Jati",
        "Post_Office": "Klang",
        "State": "Selangor"
    },
    {
        "Postcode": "41000",
        "Location": "Taman Mesra",
        "Post_Office": "Klang",
        "State": "Selangor"
    },
    {
        "Postcode": "41000",
        "Location": "Taman Desa Indah",
        "Post_Office": "Klang",
        "State": "Selangor"
    },
    {
        "Postcode": "41000",
        "Location": "Taman Jati",
        "Post_Office": "Klang",
        "State": "Selangor"
    },
    {
        "Postcode": "41000",
        "Location": "Jalan Pekan Baru 3A/Ku1",
        "Post_Office": "Klang",
        "State": "Selangor"
    },
    {
        "Postcode": "41000",
        "Location": "Jalan Raja Jumaat",
        "Post_Office": "Klang",
        "State": "Selangor"
    },
    {
        "Postcode": "41000",
        "Location": "Jalan Stesen",
        "Post_Office": "Klang",
        "State": "Selangor"
    },
    {
        "Postcode": "41000",
        "Location": "Jalan Sungai Jati",
        "Post_Office": "Klang",
        "State": "Selangor"
    },
    {
        "Postcode": "41000",
        "Location": "Jalan Sutera",
        "Post_Office": "Klang",
        "State": "Selangor"
    },
    {
        "Postcode": "41000",
        "Location": "Lorong Tiong",
        "Post_Office": "Klang",
        "State": "Selangor"
    },
    {
        "Postcode": "41000",
        "Location": "Karya Residensi",
        "Post_Office": "Klang",
        "State": "Selangor"
    },
    {
        "Postcode": "41000",
        "Location": "Bandar Klang",
        "Post_Office": "Klang",
        "State": "Selangor"
    },
    {
        "Postcode": "41000",
        "Location": "Taman Juara",
        "Post_Office": "Klang",
        "State": "Selangor"
    },
    {
        "Postcode": "41000",
        "Location": "Taman Kandis Permai",
        "Post_Office": "Klang",
        "State": "Selangor"
    },
    {
        "Postcode": "41000",
        "Location": "Taman Mesra 3",
        "Post_Office": "Klang",
        "State": "Selangor"
    },
    {
        "Postcode": "41000",
        "Location": "Taman Mesra 3A",
        "Post_Office": "Klang",
        "State": "Selangor"
    },
    {
        "Postcode": "41000",
        "Location": "Taman Mesra Indah",
        "Post_Office": "Klang",
        "State": "Selangor"
    },
    {
        "Postcode": "41000",
        "Location": "Taman Raja Nong",
        "Post_Office": "Klang",
        "State": "Selangor"
    },
    {
        "Postcode": "41000",
        "Location": "Jalan Kota",
        "Post_Office": "Klang",
        "State": "Selangor"
    },
    {
        "Postcode": "41000",
        "Location": "Jalan Limau",
        "Post_Office": "Klang",
        "State": "Selangor"
    }
]
