[
    {
        "Postcode": "41050",
        "Location": "Jalan Dahlia/KU8",
        "Post_Office": "Klang",
        "State": "Selangor"
    },
    {
        "Postcode": "41050",
        "Location": "Batu 6, Jalan Meru ",
        "Post_Office": "Klang",
        "State": "Selangor"
    },
    {
        "Postcode": "41050",
        "Location": "Jalan Mulia 20",
        "Post_Office": "Klang",
        "State": "Selangor"
    },
    {
        "Postcode": "41050",
        "Location": "Taman Meru Aman",
        "Post_Office": "Klang",
        "State": "Selangor"
    },
    {
        "Postcode": "41050",
        "Location": "Jalan Aman Perdana 10E",
        "Post_Office": "Klang",
        "State": "Selangor"
    },
    {
        "Postcode": "41050",
        "Location": "Jalan Dahlia ",
        "Post_Office": "Klang",
        "State": "Selangor"
    },
    {
        "Postcode": "41050",
        "Location": "Pangsapuri Aman Perdana",
        "Post_Office": "Klang",
        "State": "Selangor"
    },
    {
        "Postcode": "41050",
        "Location": "Jalan Kasban 2",
        "Post_Office": "Klang",
        "State": "Selangor"
    },
    {
        "Postcode": "41050",
        "Location": "Taman Meru Makmur",
        "Post_Office": "Klang",
        "State": "Selangor"
    },
    {
        "Postcode": "41050",
        "Location": "Jalan Balau 13 A",
        "Post_Office": "Klang",
        "State": "Selangor"
    },
    {
        "Postcode": "41050",
        "Location": "Bandar Bukit Raja",
        "Post_Office": "Klang",
        "State": "Selangor"
    },
    {
        "Postcode": "41050",
        "Location": "Jalan Abadi",
        "Post_Office": "Klang",
        "State": "Selangor"
    },
    {
        "Postcode": "41050",
        "Location": "Jalan Abdul Manan",
        "Post_Office": "Klang",
        "State": "Selangor"
    },
    {
        "Postcode": "41050",
        "Location": "Jalan Abdul Rahman",
        "Post_Office": "Klang",
        "State": "Selangor"
    },
    {
        "Postcode": "41050",
        "Location": "Jalan Bukit",
        "Post_Office": "Klang",
        "State": "Selangor"
    },
    {
        "Postcode": "41050",
        "Location": "Jalan Bukit Meru",
        "Post_Office": "Klang",
        "State": "Selangor"
    },
    {
        "Postcode": "41050",
        "Location": "Jalan Cempaka",
        "Post_Office": "Klang",
        "State": "Selangor"
    },
    {
        "Postcode": "41050",
        "Location": "Jalan Cokmar",
        "Post_Office": "Klang",
        "State": "Selangor"
    },
    {
        "Postcode": "41050",
        "Location": "Jalan Enggang",
        "Post_Office": "Klang",
        "State": "Selangor"
    },
    {
        "Postcode": "41050",
        "Location": "Jalan Jabar",
        "Post_Office": "Klang",
        "State": "Selangor"
    },
    {
        "Postcode": "41050",
        "Location": "Jalan Jati",
        "Post_Office": "Klang",
        "State": "Selangor"
    },
    {
        "Postcode": "41050",
        "Location": "Jalan Kandis",
        "Post_Office": "Klang",
        "State": "Selangor"
    },
    {
        "Postcode": "41050",
        "Location": "Jalan Karanji",
        "Post_Office": "Klang",
        "State": "Selangor"
    },
    {
        "Postcode": "41050",
        "Location": "Jalan Kassim",
        "Post_Office": "Klang",
        "State": "Selangor"
    },
    {
        "Postcode": "41050",
        "Location": "Jalan Kedah",
        "Post_Office": "Klang",
        "State": "Selangor"
    },
    {
        "Postcode": "41050",
        "Location": "Jalan Keledang",
        "Post_Office": "Klang",
        "State": "Selangor"
    },
    {
        "Postcode": "41050",
        "Location": "Jalan Kelicap",
        "Post_Office": "Klang",
        "State": "Selangor"
    },
    {
        "Postcode": "41050",
        "Location": "Jalan Keluli",
        "Post_Office": "Klang",
        "State": "Selangor"
    },
    {
        "Postcode": "41050",
        "Location": "Jalan Kepayang",
        "Post_Office": "Klang",
        "State": "Selangor"
    },
    {
        "Postcode": "41050",
        "Location": "Jalan Keranji",
        "Post_Office": "Klang",
        "State": "Selangor"
    },
    {
        "Postcode": "41050",
        "Location": "Jalan Kodiang",
        "Post_Office": "Klang",
        "State": "Selangor"
    },
    {
        "Postcode": "41050",
        "Location": "Jalan Kulim",
        "Post_Office": "Klang",
        "State": "Selangor"
    },
    {
        "Postcode": "41050",
        "Location": "Jalan Limau Besar",
        "Post_Office": "Klang",
        "State": "Selangor"
    },
    {
        "Postcode": "41050",
        "Location": "Jalan Limau Gedong",
        "Post_Office": "Klang",
        "State": "Selangor"
    },
    {
        "Postcode": "41050",
        "Location": "Jalan Mahang",
        "Post_Office": "Klang",
        "State": "Selangor"
    },
    {
        "Postcode": "41050",
        "Location": "Jalan Manan",
        "Post_Office": "Klang",
        "State": "Selangor"
    },
    {
        "Postcode": "41050",
        "Location": "Jalan Mempari",
        "Post_Office": "Klang",
        "State": "Selangor"
    },
    {
        "Postcode": "41050",
        "Location": "Jalan Mengkudu",
        "Post_Office": "Klang",
        "State": "Selangor"
    },
    {
        "Postcode": "41050",
        "Location": "Jalan Meranti",
        "Post_Office": "Klang",
        "State": "Selangor"
    },
    {
        "Postcode": "41050",
        "Location": "Jalan Meranti Bunga",
        "Post_Office": "Klang",
        "State": "Selangor"
    },
    {
        "Postcode": "41050",
        "Location": "Jalan Meru",
        "Post_Office": "Klang",
        "State": "Selangor"
    },
    {
        "Postcode": "41050",
        "Location": "Jalan Muafakat",
        "Post_Office": "Klang",
        "State": "Selangor"
    },
    {
        "Postcode": "41050",
        "Location": "Jalan Mulia",
        "Post_Office": "Klang",
        "State": "Selangor"
    },
    {
        "Postcode": "41050",
        "Location": "Jalan Mutiara",
        "Post_Office": "Klang",
        "State": "Selangor"
    },
    {
        "Postcode": "41050",
        "Location": "Jalan Nona",
        "Post_Office": "Klang",
        "State": "Selangor"
    },
    {
        "Postcode": "41050",
        "Location": "Jalan Nuri",
        "Post_Office": "Klang",
        "State": "Selangor"
    },
    {
        "Postcode": "41050",
        "Location": "Jalan Paip",
        "Post_Office": "Klang",
        "State": "Selangor"
    },
    {
        "Postcode": "41050",
        "Location": "Jalan Pasar Baru",
        "Post_Office": "Klang",
        "State": "Selangor"
    },
    {
        "Postcode": "41050",
        "Location": "Jalan Patani",
        "Post_Office": "Klang",
        "State": "Selangor"
    },
    {
        "Postcode": "41050",
        "Location": "Jalan Pauh Kijang",
        "Post_Office": "Klang",
        "State": "Selangor"
    },
    {
        "Postcode": "41050",
        "Location": "Jalan Pepauh",
        "Post_Office": "Klang",
        "State": "Selangor"
    },
    {
        "Postcode": "41050",
        "Location": "Jalan Perai",
        "Post_Office": "Klang",
        "State": "Selangor"
    },
    {
        "Postcode": "41050",
        "Location": "Jalan Pipit",
        "Post_Office": "Klang",
        "State": "Selangor"
    },
    {
        "Postcode": "41050",
        "Location": "Jalan Ponak",
        "Post_Office": "Klang",
        "State": "Selangor"
    },
    {
        "Postcode": "41050",
        "Location": "Jalan Prai",
        "Post_Office": "Klang",
        "State": "Selangor"
    },
    {
        "Postcode": "41050",
        "Location": "Jalan Puchong",
        "Post_Office": "Klang",
        "State": "Selangor"
    },
    {
        "Postcode": "41050",
        "Location": "Jalan Pulau Pinang",
        "Post_Office": "Klang",
        "State": "Selangor"
    },
    {
        "Postcode": "41050",
        "Location": "Jalan Salleh",
        "Post_Office": "Klang",
        "State": "Selangor"
    },
    {
        "Postcode": "41050",
        "Location": "Jalan Sentosa",
        "Post_Office": "Klang",
        "State": "Selangor"
    },
    {
        "Postcode": "41050",
        "Location": "Jalan Seri Kenangan",
        "Post_Office": "Klang",
        "State": "Selangor"
    },
    {
        "Postcode": "41050",
        "Location": "Jalan Sesenduk",
        "Post_Office": "Klang",
        "State": "Selangor"
    },
    {
        "Postcode": "41050",
        "Location": "Jalan Tempinis",
        "Post_Office": "Klang",
        "State": "Selangor"
    },
    {
        "Postcode": "41050",
        "Location": "Jalan Tiong",
        "Post_Office": "Klang",
        "State": "Selangor"
    },
    {
        "Postcode": "41050",
        "Location": "Jalan Waja",
        "Post_Office": "Klang",
        "State": "Selangor"
    },
    {
        "Postcode": "41050",
        "Location": "Kampung Bukit Kiara",
        "Post_Office": "Klang",
        "State": "Selangor"
    },
    {
        "Postcode": "41050",
        "Location": "Kampung Cherakah",
        "Post_Office": "Klang",
        "State": "Selangor"
    },
    {
        "Postcode": "41050",
        "Location": "Kampung Haji Mohd Sharif",
        "Post_Office": "Klang",
        "State": "Selangor"
    },
    {
        "Postcode": "41050",
        "Location": "Kampung Kovil",
        "Post_Office": "Klang",
        "State": "Selangor"
    },
    {
        "Postcode": "41050",
        "Location": "Kampung Meru (Jalan Meru)",
        "Post_Office": "Klang",
        "State": "Selangor"
    },
    {
        "Postcode": "41050",
        "Location": "Kampung Peladang",
        "Post_Office": "Klang",
        "State": "Selangor"
    },
    {
        "Postcode": "41050",
        "Location": "Kawasan Perindustrian Meru Selatan ",
        "Post_Office": "Klang",
        "State": "Selangor"
    },
    {
        "Postcode": "41050",
        "Location": "Kawasan Perindustrian Meru Timur ",
        "Post_Office": "Klang",
        "State": "Selangor"
    },
    {
        "Postcode": "41050",
        "Location": "Klang Sentral",
        "Post_Office": "Klang",
        "State": "Selangor"
    },
    {
        "Postcode": "41050",
        "Location": "Lebuh Enggang",
        "Post_Office": "Klang",
        "State": "Selangor"
    },
    {
        "Postcode": "41050",
        "Location": "Lebuh Merpati",
        "Post_Office": "Klang",
        "State": "Selangor"
    },
    {
        "Postcode": "41050",
        "Location": "Lebuh Murai",
        "Post_Office": "Klang",
        "State": "Selangor"
    },
    {
        "Postcode": "41050",
        "Location": "Lintang Kulim",
        "Post_Office": "Klang",
        "State": "Selangor"
    },
    {
        "Postcode": "41050",
        "Location": "Lintang Murai",
        "Post_Office": "Klang",
        "State": "Selangor"
    },
    {
        "Postcode": "41050",
        "Location": "Lintang Pekan Meru",
        "Post_Office": "Klang",
        "State": "Selangor"
    },
    {
        "Postcode": "41050",
        "Location": "Lintang Petani",
        "Post_Office": "Klang",
        "State": "Selangor"
    },
    {
        "Postcode": "41050",
        "Location": "Lorong Arau",
        "Post_Office": "Klang",
        "State": "Selangor"
    },
    {
        "Postcode": "41050",
        "Location": "Lorong Beroga",
        "Post_Office": "Klang",
        "State": "Selangor"
    },
    {
        "Postcode": "41050",
        "Location": "Lorong Enggang",
        "Post_Office": "Klang",
        "State": "Selangor"
    },
    {
        "Postcode": "41050",
        "Location": "Lorong Gelugor",
        "Post_Office": "Klang",
        "State": "Selangor"
    },
    {
        "Postcode": "41050",
        "Location": "Lorong Kandis",
        "Post_Office": "Klang",
        "State": "Selangor"
    },
    {
        "Postcode": "41050",
        "Location": "Lorong Kedah",
        "Post_Office": "Klang",
        "State": "Selangor"
    },
    {
        "Postcode": "41050",
        "Location": "Lorong Kepayang",
        "Post_Office": "Klang",
        "State": "Selangor"
    },
    {
        "Postcode": "41050",
        "Location": "Lorong Keranji ( Kawasan 17)",
        "Post_Office": "Klang",
        "State": "Selangor"
    },
    {
        "Postcode": "41050",
        "Location": "Lorong Kodiang",
        "Post_Office": "Klang",
        "State": "Selangor"
    },
    {
        "Postcode": "41050",
        "Location": "Lorong Kulim",
        "Post_Office": "Klang",
        "State": "Selangor"
    },
    {
        "Postcode": "41050",
        "Location": "Lorong Limau Besar",
        "Post_Office": "Klang",
        "State": "Selangor"
    },
    {
        "Postcode": "41050",
        "Location": "Lorong Merak",
        "Post_Office": "Klang",
        "State": "Selangor"
    },
    {
        "Postcode": "41050",
        "Location": "Lorong Muda",
        "Post_Office": "Klang",
        "State": "Selangor"
    },
    {
        "Postcode": "41050",
        "Location": "Lorong Murai",
        "Post_Office": "Klang",
        "State": "Selangor"
    },
    {
        "Postcode": "41050",
        "Location": "Lorong Nona",
        "Post_Office": "Klang",
        "State": "Selangor"
    },
    {
        "Postcode": "41050",
        "Location": "Lorong Pipit",
        "Post_Office": "Klang",
        "State": "Selangor"
    },
    {
        "Postcode": "41050",
        "Location": "Lorong Prai",
        "Post_Office": "Klang",
        "State": "Selangor"
    },
    {
        "Postcode": "41050",
        "Location": "Lorong Sireh",
        "Post_Office": "Klang",
        "State": "Selangor"
    },
    {
        "Postcode": "41050",
        "Location": "Pekan Meru",
        "Post_Office": "Klang",
        "State": "Selangor"
    },
    {
        "Postcode": "41050",
        "Location": "Persiaran Waja",
        "Post_Office": "Klang",
        "State": "Selangor"
    },
    {
        "Postcode": "41050",
        "Location": "Solok Beroga",
        "Post_Office": "Klang",
        "State": "Selangor"
    },
    {
        "Postcode": "41050",
        "Location": "Solok Limau Manis",
        "Post_Office": "Klang",
        "State": "Selangor"
    },
    {
        "Postcode": "41050",
        "Location": "Solok Merak",
        "Post_Office": "Klang",
        "State": "Selangor"
    },
    {
        "Postcode": "41050",
        "Location": "Solok Murai",
        "Post_Office": "Klang",
        "State": "Selangor"
    },
    {
        "Postcode": "41050",
        "Location": "Solok Nona",
        "Post_Office": "Klang",
        "State": "Selangor"
    },
    {
        "Postcode": "41050",
        "Location": "Solok Tiong",
        "Post_Office": "Klang",
        "State": "Selangor"
    },
    {
        "Postcode": "41050",
        "Location": "Solok Waja",
        "Post_Office": "Klang",
        "State": "Selangor"
    },
    {
        "Postcode": "41050",
        "Location": "Taman Ahmad Redzuan",
        "Post_Office": "Klang",
        "State": "Selangor"
    },
    {
        "Postcode": "41050",
        "Location": "Taman Aman Perdana",
        "Post_Office": "Klang",
        "State": "Selangor"
    },
    {
        "Postcode": "41050",
        "Location": "Taman Binjai Jaya",
        "Post_Office": "Klang",
        "State": "Selangor"
    },
    {
        "Postcode": "41050",
        "Location": "Taman Bukit Raja",
        "Post_Office": "Klang",
        "State": "Selangor"
    },
    {
        "Postcode": "41050",
        "Location": "Taman Bunga Melor",
        "Post_Office": "Klang",
        "State": "Selangor"
    },
    {
        "Postcode": "41050",
        "Location": "Taman Daya (Meru)",
        "Post_Office": "Klang",
        "State": "Selangor"
    },
    {
        "Postcode": "41050",
        "Location": "Taman Duntex",
        "Post_Office": "Klang",
        "State": "Selangor"
    },
    {
        "Postcode": "41050",
        "Location": "Taman Haji Bardaie",
        "Post_Office": "Klang",
        "State": "Selangor"
    },
    {
        "Postcode": "41050",
        "Location": "Taman Klang",
        "Post_Office": "Klang",
        "State": "Selangor"
    },
    {
        "Postcode": "41050",
        "Location": "Taman Mahang",
        "Post_Office": "Klang",
        "State": "Selangor"
    },
    {
        "Postcode": "41050",
        "Location": "Taman Meru 1",
        "Post_Office": "Klang",
        "State": "Selangor"
    },
    {
        "Postcode": "41050",
        "Location": "Taman Meru 3",
        "Post_Office": "Klang",
        "State": "Selangor"
    },
    {
        "Postcode": "41050",
        "Location": "Taman Meru Daya",
        "Post_Office": "Klang",
        "State": "Selangor"
    },
    {
        "Postcode": "41050",
        "Location": "Taman Meru Jaya",
        "Post_Office": "Klang",
        "State": "Selangor"
    },
    {
        "Postcode": "41050",
        "Location": "Taman Meru Utama",
        "Post_Office": "Klang",
        "State": "Selangor"
    },
    {
        "Postcode": "41050",
        "Location": "Taman Muhibbah",
        "Post_Office": "Klang",
        "State": "Selangor"
    },
    {
        "Postcode": "41050",
        "Location": "Taman Orkid",
        "Post_Office": "Klang",
        "State": "Selangor"
    },
    {
        "Postcode": "41050",
        "Location": "Taman Pekan Meru",
        "Post_Office": "Klang",
        "State": "Selangor"
    },
    {
        "Postcode": "41050",
        "Location": "Taman Perindustrian Bukit Raja",
        "Post_Office": "Klang",
        "State": "Selangor"
    },
    {
        "Postcode": "41050",
        "Location": "Taman Seri Kenangan",
        "Post_Office": "Klang",
        "State": "Selangor"
    },
    {
        "Postcode": "41050",
        "Location": "Taman Wira",
        "Post_Office": "Klang",
        "State": "Selangor"
    },
    {
        "Postcode": "41050",
        "Location": "Jalan Meranti Bunga 10",
        "Post_Office": "Klang",
        "State": "Selangor"
    },
    {
        "Postcode": "41050",
        "Location": "Jalan Astaka 1C/KU2",
        "Post_Office": "Klang",
        "State": "Selangor"
    },
    {
        "Postcode": "41050",
        "Location": "Jalan Astana 5/KU2",
        "Post_Office": "Klang",
        "State": "Selangor"
    },
    {
        "Postcode": "41050",
        "Location": "Jalan Anding 3/KU5",
        "Post_Office": "Klang",
        "State": "Selangor"
    },
    {
        "Postcode": "41050",
        "Location": "Jalan Haji Sirat /KU 3",
        "Post_Office": "Klang",
        "State": "Selangor"
    },
    {
        "Postcode": "41050",
        "Location": "Kampung Batu Belah",
        "Post_Office": "Klang",
        "State": "Selangor"
    },
    {
        "Postcode": "41050",
        "Location": "Jalan Anggerik Kuning 8/KU10",
        "Post_Office": "Klang",
        "State": "Selangor"
    },
    {
        "Postcode": "41050",
        "Location": "Taman Meru Mutiara",
        "Post_Office": "Klang",
        "State": "Selangor"
    },
    {
        "Postcode": "41050",
        "Location": "Jalan Jabar 6/KU8",
        "Post_Office": "Klang",
        "State": "Selangor"
    },
    {
        "Postcode": "41050",
        "Location": "Jalan Kedah /KU3",
        "Post_Office": "Klang",
        "State": "Selangor"
    },
    {
        "Postcode": "41050",
        "Location": "Kampung Budiman",
        "Post_Office": "Klang",
        "State": "Selangor"
    },
    {
        "Postcode": "41050",
        "Location": "Taman Desa Meru",
        "Post_Office": "Klang",
        "State": "Selangor"
    },
    {
        "Postcode": "41050",
        "Location": "Taman Kiai Rizuan",
        "Post_Office": "Klang",
        "State": "Selangor"
    },
    {
        "Postcode": "41050",
        "Location": "Taman Sri Mewah",
        "Post_Office": "Klang",
        "State": "Selangor"
    },
    {
        "Postcode": "41050",
        "Location": "Taman Sri Pekan",
        "Post_Office": "Klang",
        "State": "Selangor"
    },
    {
        "Postcode": "41050",
        "Location": "Jalan Astaka 2",
        "Post_Office": "Klang",
        "State": "Selangor"
    },
    {
        "Postcode": "41050",
        "Location": "Jalan Sekolah",
        "Post_Office": "Klang",
        "State": "Selangor"
    },
    {
        "Postcode": "41050",
        "Location": "Jalan Merbau",
        "Post_Office": "Klang",
        "State": "Selangor"
    },
    {
        "Postcode": "41050",
        "Location": "Jalan Teratai",
        "Post_Office": "Klang",
        "State": "Selangor"
    },
    {
        "Postcode": "41050",
        "Location": "Taman Mulia",
        "Post_Office": "Klang",
        "State": "Selangor"
    },
    {
        "Postcode": "41050",
        "Location": "Jalan Jelutong",
        "Post_Office": "Klang",
        "State": "Selangor"
    },
    {
        "Postcode": "41050",
        "Location": "Jalan Kempas",
        "Post_Office": "Klang",
        "State": "Selangor"
    },
    {
        "Postcode": "41050",
        "Location": "Taman Bayu",
        "Post_Office": "Klang",
        "State": "Selangor"
    },
    {
        "Postcode": "41050",
        "Location": "Jalan Broga",
        "Post_Office": "Klang",
        "State": "Selangor"
    },
    {
        "Postcode": "41050",
        "Location": "Jalan Cendana",
        "Post_Office": "Klang",
        "State": "Selangor"
    },
    {
        "Postcode": "41050",
        "Location": "Jalan Duku",
        "Post_Office": "Klang",
        "State": "Selangor"
    },
    {
        "Postcode": "41050",
        "Location": "Jalan Gelugor",
        "Post_Office": "Klang",
        "State": "Selangor"
    },
    {
        "Postcode": "41050",
        "Location": "Jalan Meranti Sutera 1 ",
        "Post_Office": "Klang",
        "State": "Selangor"
    },
    {
        "Postcode": "41050",
        "Location": "Jalan Tanjung Permai 2 ",
        "Post_Office": "Klang",
        "State": "Selangor"
    },
    {
        "Postcode": "41050",
        "Location": "Jalan Pulau Pinang 6",
        "Post_Office": "Klang",
        "State": "Selangor"
    },
    {
        "Postcode": "41050",
        "Location": "Taman Meru Makmur 3",
        "Post_Office": "Klang",
        "State": "Selangor"
    },
    {
        "Postcode": "41050",
        "Location": "Taman Desa Permai",
        "Post_Office": "Klang",
        "State": "Selangor"
    },
    {
        "Postcode": "41050",
        "Location": "Laman Vista Alam",
        "Post_Office": "Klang",
        "State": "Selangor"
    },
    {
        "Postcode": "41050",
        "Location": "Jalan Pekan Baru",
        "Post_Office": "Klang",
        "State": "Selangor"
    },
    {
        "Postcode": "41050",
        "Location": "Jalan Sireh",
        "Post_Office": "Klang",
        "State": "Selangor"
    },
    {
        "Postcode": "41050",
        "Location": "Lorong Ehsan",
        "Post_Office": "Klang",
        "State": "Selangor"
    },
    {
        "Postcode": "41050",
        "Location": "Lorong Tiong",
        "Post_Office": "Klang",
        "State": "Selangor"
    },
    {
        "Postcode": "41050",
        "Location": "Solok Limau",
        "Post_Office": "Klang",
        "State": "Selangor"
    },
    {
        "Postcode": "41050",
        "Location": "Jalan Meranti Putih 22/KU10",
        "Post_Office": "Klang",
        "State": "Selangor"
    },
    {
        "Postcode": "41050",
        "Location": "Solok Waja 2/KU2",
        "Post_Office": "Klang",
        "State": "Selangor"
    },
    {
        "Postcode": "41050",
        "Location": "Jalan Petunia/KU8",
        "Post_Office": "Klang",
        "State": "Selangor"
    },
    {
        "Postcode": "41050",
        "Location": "Jalan Jabar 8/KU8",
        "Post_Office": "Klang",
        "State": "Selangor"
    },
    {
        "Postcode": "41050",
        "Location": "Jalan Kelicap 52",
        "Post_Office": "Klang",
        "State": "Selangor"
    },
    {
        "Postcode": "41050",
        "Location": "Avenue Pelangi",
        "Post_Office": "Klang",
        "State": "Selangor"
    },
    {
        "Postcode": "41050",
        "Location": "Kawasan 17",
        "Post_Office": "Klang",
        "State": "Selangor"
    },
    {
        "Postcode": "41050",
        "Location": "Pusat Perniagaan Nbc",
        "Post_Office": "Klang",
        "State": "Selangor"
    },
    {
        "Postcode": "41050",
        "Location": "Taman Dato Bandar",
        "Post_Office": "Klang",
        "State": "Selangor"
    },
    {
        "Postcode": "41050",
        "Location": "Taman Daya Maju",
        "Post_Office": "Klang",
        "State": "Selangor"
    },
    {
        "Postcode": "41050",
        "Location": "Taman Desa Meru Indah",
        "Post_Office": "Klang",
        "State": "Selangor"
    },
    {
        "Postcode": "41050",
        "Location": "Taman Haji Bardair",
        "Post_Office": "Klang",
        "State": "Selangor"
    },
    {
        "Postcode": "41050",
        "Location": "Taman Ikthiar",
        "Post_Office": "Klang",
        "State": "Selangor"
    },
    {
        "Postcode": "41050",
        "Location": "Taman Meru Murni",
        "Post_Office": "Klang",
        "State": "Selangor"
    },
    {
        "Postcode": "41050",
        "Location": "Taman Meru Putra",
        "Post_Office": "Klang",
        "State": "Selangor"
    },
    {
        "Postcode": "41050",
        "Location": "Taman Meru Sejahtera",
        "Post_Office": "Klang",
        "State": "Selangor"
    },
    {
        "Postcode": "41050",
        "Location": "Taman Meru Selatan",
        "Post_Office": "Klang",
        "State": "Selangor"
    },
    {
        "Postcode": "41050",
        "Location": "Taman Seri Meru",
        "Post_Office": "Klang",
        "State": "Selangor"
    },
    {
        "Postcode": "41050",
        "Location": "Taman Meru",
        "Post_Office": "Klang",
        "State": "Selangor"
    },
    {
        "Postcode": "41050",
        "Location": "Jalan Teratai /KU8",
        "Post_Office": "Klang",
        "State": "Selangor"
    },
    {
        "Postcode": "41050",
        "Location": "Jalan Kenangan",
        "Post_Office": "Klang",
        "State": "Selangor"
    },
    {
        "Postcode": "41050",
        "Location": "Jalan Limau Manis",
        "Post_Office": "Klang",
        "State": "Selangor"
    },
    {
        "Postcode": "41050",
        "Location": "Jalan Merak",
        "Post_Office": "Klang",
        "State": "Selangor"
    },
    {
        "Postcode": "41050",
        "Location": "Jalan Muda",
        "Post_Office": "Klang",
        "State": "Selangor"
    },
    {
        "Postcode": "41050",
        "Location": "Jalan Murai",
        "Post_Office": "Klang",
        "State": "Selangor"
    },
    {
        "Postcode": "41050",
        "Location": "Jalan Kasban 2A",
        "Post_Office": "Klang",
        "State": "Selangor"
    },
    {
        "Postcode": "41050",
        "Location": "Jalan Kasban 2B",
        "Post_Office": "Klang",
        "State": "Selangor"
    },
    {
        "Postcode": "41050",
        "Location": "Jalan Kasban 2C",
        "Post_Office": "Klang",
        "State": "Selangor"
    },
    {
        "Postcode": "41050",
        "Location": "Jalan Kasban 2D",
        "Post_Office": "Klang",
        "State": "Selangor"
    },
    {
        "Postcode": "41050",
        "Location": "Jalan Kasban 2E",
        "Post_Office": "Klang",
        "State": "Selangor"
    },
    {
        "Postcode": "41050",
        "Location": "Jalan Tempinis 1",
        "Post_Office": "Klang",
        "State": "Selangor"
    },
    {
        "Postcode": "41050",
        "Location": "Jalan Tempinis 2",
        "Post_Office": "Klang",
        "State": "Selangor"
    },
    {
        "Postcode": "41050",
        "Location": "Lebuh Pulau Pinang 1",
        "Post_Office": "Klang",
        "State": "Selangor"
    },
    {
        "Postcode": "41050",
        "Location": "Lebuh Pulau Pinang 2",
        "Post_Office": "Klang",
        "State": "Selangor"
    },
    {
        "Postcode": "41050",
        "Location": "Lebuh Pulau Pinang 3",
        "Post_Office": "Klang",
        "State": "Selangor"
    },
    {
        "Postcode": "41050",
        "Location": "Lebuh Pulau Pinang 4",
        "Post_Office": "Klang",
        "State": "Selangor"
    },
    {
        "Postcode": "41050",
        "Location": "Lebuh Pulau Pinang 5",
        "Post_Office": "Klang",
        "State": "Selangor"
    },
    {
        "Postcode": "41050",
        "Location": "Lebuh Pulau Pinang 6",
        "Post_Office": "Klang",
        "State": "Selangor"
    },
    {
        "Postcode": "41050",
        "Location": "Lebuh Pulau Pinang 7",
        "Post_Office": "Klang",
        "State": "Selangor"
    },
    {
        "Postcode": "41050",
        "Location": "Lebuh Pulau Pinang 8",
        "Post_Office": "Klang",
        "State": "Selangor"
    },
    {
        "Postcode": "41050",
        "Location": "Persiaran Batu Belah",
        "Post_Office": "Klang",
        "State": "Selangor"
    },
    {
        "Postcode": "41050",
        "Location": "Persiaran Astana/KU2",
        "Post_Office": "Klang",
        "State": "Selangor"
    }
]
