[
    {
        "Postcode": "41100",
        "Location": "Taman Kota Jaya",
        "Post_Office": "Klang",
        "State": "Selangor"
    },
    {
        "Postcode": "41100",
        "Location": "Taman Sin Hue ",
        "Post_Office": "Klang",
        "State": "Selangor"
    },
    {
        "Postcode": "41100",
        "Location": "Taman Sri Anika",
        "Post_Office": "Klang",
        "State": "Selangor"
    },
    {
        "Postcode": "41100",
        "Location": "Taman Sri Gadong",
        "Post_Office": "Klang",
        "State": "Selangor"
    },
    {
        "Postcode": "41100",
        "Location": "Gedung Raja Abdullah",
        "Post_Office": "Klang",
        "State": "Selangor"
    },
    {
        "Postcode": "41100",
        "Location": "Jalan Ati - Ati Paya",
        "Post_Office": "Klang",
        "State": "Selangor"
    },
    {
        "Postcode": "41100",
        "Location": "Jalan Bakawali",
        "Post_Office": "Klang",
        "State": "Selangor"
    },
    {
        "Postcode": "41100",
        "Location": "Jalan Bakong",
        "Post_Office": "Klang",
        "State": "Selangor"
    },
    {
        "Postcode": "41100",
        "Location": "Jalan Balung Ayam",
        "Post_Office": "Klang",
        "State": "Selangor"
    },
    {
        "Postcode": "41100",
        "Location": "Jalan Bawal Hitam",
        "Post_Office": "Klang",
        "State": "Selangor"
    },
    {
        "Postcode": "41100",
        "Location": "Jalan Bawal Putih",
        "Post_Office": "Klang",
        "State": "Selangor"
    },
    {
        "Postcode": "41100",
        "Location": "Jalan Bawal Tambak",
        "Post_Office": "Klang",
        "State": "Selangor"
    },
    {
        "Postcode": "41100",
        "Location": "Jalan Bedara",
        "Post_Office": "Klang",
        "State": "Selangor"
    },
    {
        "Postcode": "41100",
        "Location": "Jalan Besi",
        "Post_Office": "Klang",
        "State": "Selangor"
    },
    {
        "Postcode": "41100",
        "Location": "Jalan Beteng",
        "Post_Office": "Klang",
        "State": "Selangor"
    },
    {
        "Postcode": "41100",
        "Location": "Jalan Bunga Ros",
        "Post_Office": "Klang",
        "State": "Selangor"
    },
    {
        "Postcode": "41100",
        "Location": "Jalan Butang",
        "Post_Office": "Klang",
        "State": "Selangor"
    },
    {
        "Postcode": "41100",
        "Location": "Jalan Ceremai",
        "Post_Office": "Klang",
        "State": "Selangor"
    },
    {
        "Postcode": "41100",
        "Location": "Jalan Dato Amar",
        "Post_Office": "Klang",
        "State": "Selangor"
    },
    {
        "Postcode": "41100",
        "Location": "Jalan Dato Dollah",
        "Post_Office": "Klang",
        "State": "Selangor"
    },
    {
        "Postcode": "41100",
        "Location": "Jalan Dato Dollah 2",
        "Post_Office": "Klang",
        "State": "Selangor"
    },
    {
        "Postcode": "41100",
        "Location": "Jalan Dato Setia",
        "Post_Office": "Klang",
        "State": "Selangor"
    },
    {
        "Postcode": "41100",
        "Location": "Jalan Emas",
        "Post_Office": "Klang",
        "State": "Selangor"
    },
    {
        "Postcode": "41100",
        "Location": "Jalan Emas Putih",
        "Post_Office": "Klang",
        "State": "Selangor"
    },
    {
        "Postcode": "41100",
        "Location": "Jalan Gangsa",
        "Post_Office": "Klang",
        "State": "Selangor"
    },
    {
        "Postcode": "41100",
        "Location": "Jalan Gedong Raja Abdullah",
        "Post_Office": "Klang",
        "State": "Selangor"
    },
    {
        "Postcode": "41100",
        "Location": "Jalan Gelama",
        "Post_Office": "Klang",
        "State": "Selangor"
    },
    {
        "Postcode": "41100",
        "Location": "Jalan Hilir",
        "Post_Office": "Klang",
        "State": "Selangor"
    },
    {
        "Postcode": "41100",
        "Location": "Jalan Jambu",
        "Post_Office": "Klang",
        "State": "Selangor"
    },
    {
        "Postcode": "41100",
        "Location": "Jalan Jambu Air",
        "Post_Office": "Klang",
        "State": "Selangor"
    },
    {
        "Postcode": "41100",
        "Location": "Jalan Jambu Batu",
        "Post_Office": "Klang",
        "State": "Selangor"
    },
    {
        "Postcode": "41100",
        "Location": "Jalan Jambu Bol",
        "Post_Office": "Klang",
        "State": "Selangor"
    },
    {
        "Postcode": "41100",
        "Location": "Jalan Jambu Gajus",
        "Post_Office": "Klang",
        "State": "Selangor"
    },
    {
        "Postcode": "41100",
        "Location": "Jalan Jambu Mawar",
        "Post_Office": "Klang",
        "State": "Selangor"
    },
    {
        "Postcode": "41100",
        "Location": "Jalan Janggus",
        "Post_Office": "Klang",
        "State": "Selangor"
    },
    {
        "Postcode": "41100",
        "Location": "Jalan Jepun",
        "Post_Office": "Klang",
        "State": "Selangor"
    },
    {
        "Postcode": "41100",
        "Location": "Jalan Kabong",
        "Post_Office": "Klang",
        "State": "Selangor"
    },
    {
        "Postcode": "41100",
        "Location": "Jalan Kemboja",
        "Post_Office": "Klang",
        "State": "Selangor"
    },
    {
        "Postcode": "41100",
        "Location": "Jalan Kemuning",
        "Post_Office": "Klang",
        "State": "Selangor"
    },
    {
        "Postcode": "41100",
        "Location": "Jalan Keriang",
        "Post_Office": "Klang",
        "State": "Selangor"
    },
    {
        "Postcode": "41100",
        "Location": "Jalan Kurau",
        "Post_Office": "Klang",
        "State": "Selangor"
    },
    {
        "Postcode": "41100",
        "Location": "Jalan Lembaga Bandaran",
        "Post_Office": "Klang",
        "State": "Selangor"
    },
    {
        "Postcode": "41100",
        "Location": "Jalan Limau Kasturi",
        "Post_Office": "Klang",
        "State": "Selangor"
    },
    {
        "Postcode": "41100",
        "Location": "Jalan Loyang",
        "Post_Office": "Klang",
        "State": "Selangor"
    },
    {
        "Postcode": "41100",
        "Location": "Jalan Mastika",
        "Post_Office": "Klang",
        "State": "Selangor"
    },
    {
        "Postcode": "41100",
        "Location": "Jalan Mata Kuching",
        "Post_Office": "Klang",
        "State": "Selangor"
    },
    {
        "Postcode": "41100",
        "Location": "Jalan Matahari",
        "Post_Office": "Klang",
        "State": "Selangor"
    },
    {
        "Postcode": "41100",
        "Location": "Jalan Melawis",
        "Post_Office": "Klang",
        "State": "Selangor"
    },
    {
        "Postcode": "41100",
        "Location": "Jalan Mengkuang",
        "Post_Office": "Klang",
        "State": "Selangor"
    },
    {
        "Postcode": "41100",
        "Location": "Jalan Merlimau",
        "Post_Office": "Klang",
        "State": "Selangor"
    },
    {
        "Postcode": "41100",
        "Location": "Jalan Nam-Nam",
        "Post_Office": "Klang",
        "State": "Selangor"
    },
    {
        "Postcode": "41100",
        "Location": "Jalan Nilam",
        "Post_Office": "Klang",
        "State": "Selangor"
    },
    {
        "Postcode": "41100",
        "Location": "Jalan Pokok Sakat",
        "Post_Office": "Klang",
        "State": "Selangor"
    },
    {
        "Postcode": "41100",
        "Location": "Jalan Puding",
        "Post_Office": "Klang",
        "State": "Selangor"
    },
    {
        "Postcode": "41100",
        "Location": "Jalan Raya Barat",
        "Post_Office": "Klang",
        "State": "Selangor"
    },
    {
        "Postcode": "41100",
        "Location": "Jalan Selar",
        "Post_Office": "Klang",
        "State": "Selangor"
    },
    {
        "Postcode": "41100",
        "Location": "Jalan Selaseh",
        "Post_Office": "Klang",
        "State": "Selangor"
    },
    {
        "Postcode": "41100",
        "Location": "Jalan Selasih",
        "Post_Office": "Klang",
        "State": "Selangor"
    },
    {
        "Postcode": "41100",
        "Location": "Jalan Sepat",
        "Post_Office": "Klang",
        "State": "Selangor"
    },
    {
        "Postcode": "41100",
        "Location": "Jalan Sepat 1",
        "Post_Office": "Klang",
        "State": "Selangor"
    },
    {
        "Postcode": "41100",
        "Location": "Jalan Serampang Lama",
        "Post_Office": "Klang",
        "State": "Selangor"
    },
    {
        "Postcode": "41100",
        "Location": "Jalan Solok Puding",
        "Post_Office": "Klang",
        "State": "Selangor"
    },
    {
        "Postcode": "41100",
        "Location": "Jalan Sungai",
        "Post_Office": "Klang",
        "State": "Selangor"
    },
    {
        "Postcode": "41100",
        "Location": "Jalan Sungai Bertih",
        "Post_Office": "Klang",
        "State": "Selangor"
    },
    {
        "Postcode": "41100",
        "Location": "Jalan Tanjong",
        "Post_Office": "Klang",
        "State": "Selangor"
    },
    {
        "Postcode": "41100",
        "Location": "Jalan Teluk Pulai",
        "Post_Office": "Klang",
        "State": "Selangor"
    },
    {
        "Postcode": "41100",
        "Location": "Jalan Tenggiri",
        "Post_Office": "Klang",
        "State": "Selangor"
    },
    {
        "Postcode": "41100",
        "Location": "Jalan Turki",
        "Post_Office": "Klang",
        "State": "Selangor"
    },
    {
        "Postcode": "41100",
        "Location": "Kampung Mentaram",
        "Post_Office": "Klang",
        "State": "Selangor"
    },
    {
        "Postcode": "41100",
        "Location": "Lebuh Bedara",
        "Post_Office": "Klang",
        "State": "Selangor"
    },
    {
        "Postcode": "41100",
        "Location": "Lebuh Durian",
        "Post_Office": "Klang",
        "State": "Selangor"
    },
    {
        "Postcode": "41100",
        "Location": "Lebuh Nilam",
        "Post_Office": "Klang",
        "State": "Selangor"
    },
    {
        "Postcode": "41100",
        "Location": "Lebuh Selar",
        "Post_Office": "Klang",
        "State": "Selangor"
    },
    {
        "Postcode": "41100",
        "Location": "Lebuh Sembilang",
        "Post_Office": "Klang",
        "State": "Selangor"
    },
    {
        "Postcode": "41100",
        "Location": "Lengkongan Sembilang",
        "Post_Office": "Klang",
        "State": "Selangor"
    },
    {
        "Postcode": "41100",
        "Location": "Lintang Duku",
        "Post_Office": "Klang",
        "State": "Selangor"
    },
    {
        "Postcode": "41100",
        "Location": "Lintang Gangsa",
        "Post_Office": "Klang",
        "State": "Selangor"
    },
    {
        "Postcode": "41100",
        "Location": "Lintang Sendawa",
        "Post_Office": "Klang",
        "State": "Selangor"
    },
    {
        "Postcode": "41100",
        "Location": "Lintang Sungai Satu",
        "Post_Office": "Klang",
        "State": "Selangor"
    },
    {
        "Postcode": "41100",
        "Location": "Lorong Bakong",
        "Post_Office": "Klang",
        "State": "Selangor"
    },
    {
        "Postcode": "41100",
        "Location": "Lorong Bertam",
        "Post_Office": "Klang",
        "State": "Selangor"
    },
    {
        "Postcode": "41100",
        "Location": "Lorong Besi",
        "Post_Office": "Klang",
        "State": "Selangor"
    },
    {
        "Postcode": "41100",
        "Location": "Lorong Besi Batu",
        "Post_Office": "Klang",
        "State": "Selangor"
    },
    {
        "Postcode": "41100",
        "Location": "Lorong Ciku",
        "Post_Office": "Klang",
        "State": "Selangor"
    },
    {
        "Postcode": "41100",
        "Location": "Lorong Dato Amar",
        "Post_Office": "Klang",
        "State": "Selangor"
    },
    {
        "Postcode": "41100",
        "Location": "Lorong Duku",
        "Post_Office": "Klang",
        "State": "Selangor"
    },
    {
        "Postcode": "41100",
        "Location": "Lorong Emas",
        "Post_Office": "Klang",
        "State": "Selangor"
    },
    {
        "Postcode": "41100",
        "Location": "Lorong Gangsa",
        "Post_Office": "Klang",
        "State": "Selangor"
    },
    {
        "Postcode": "41100",
        "Location": "Lorong Haji Othman",
        "Post_Office": "Klang",
        "State": "Selangor"
    },
    {
        "Postcode": "41100",
        "Location": "Lorong Hilir",
        "Post_Office": "Klang",
        "State": "Selangor"
    },
    {
        "Postcode": "41100",
        "Location": "Lorong Hilir Lima",
        "Post_Office": "Klang",
        "State": "Selangor"
    },
    {
        "Postcode": "41100",
        "Location": "Lorong Hilir Satu",
        "Post_Office": "Klang",
        "State": "Selangor"
    },
    {
        "Postcode": "41100",
        "Location": "Lorong Jambatan Alley",
        "Post_Office": "Klang",
        "State": "Selangor"
    },
    {
        "Postcode": "41100",
        "Location": "Lorong Janggus",
        "Post_Office": "Klang",
        "State": "Selangor"
    },
    {
        "Postcode": "41100",
        "Location": "Lorong Loyang",
        "Post_Office": "Klang",
        "State": "Selangor"
    },
    {
        "Postcode": "41100",
        "Location": "Lorong Mastika",
        "Post_Office": "Klang",
        "State": "Selangor"
    },
    {
        "Postcode": "41100",
        "Location": "Lorong Mempelam",
        "Post_Office": "Klang",
        "State": "Selangor"
    },
    {
        "Postcode": "41100",
        "Location": "Lorong Mengkuang",
        "Post_Office": "Klang",
        "State": "Selangor"
    },
    {
        "Postcode": "41100",
        "Location": "Lorong Merlimau",
        "Post_Office": "Klang",
        "State": "Selangor"
    },
    {
        "Postcode": "41100",
        "Location": "Lorong Nam-Nam",
        "Post_Office": "Klang",
        "State": "Selangor"
    },
    {
        "Postcode": "41100",
        "Location": "Lorong Nilam",
        "Post_Office": "Klang",
        "State": "Selangor"
    },
    {
        "Postcode": "41100",
        "Location": "Lorong Pokok Sakat",
        "Post_Office": "Klang",
        "State": "Selangor"
    },
    {
        "Postcode": "41100",
        "Location": "Lorong Puding",
        "Post_Office": "Klang",
        "State": "Selangor"
    },
    {
        "Postcode": "41100",
        "Location": "Lorong Pulai",
        "Post_Office": "Klang",
        "State": "Selangor"
    },
    {
        "Postcode": "41100",
        "Location": "Lorong Sembilang",
        "Post_Office": "Klang",
        "State": "Selangor"
    },
    {
        "Postcode": "41100",
        "Location": "Lorong Serampang",
        "Post_Office": "Klang",
        "State": "Selangor"
    },
    {
        "Postcode": "41100",
        "Location": "Lorong Serampang Baru",
        "Post_Office": "Klang",
        "State": "Selangor"
    },
    {
        "Postcode": "41100",
        "Location": "Lorong Serampang Lama",
        "Post_Office": "Klang",
        "State": "Selangor"
    },
    {
        "Postcode": "41100",
        "Location": "Lorong Sungai 3",
        "Post_Office": "Klang",
        "State": "Selangor"
    },
    {
        "Postcode": "41100",
        "Location": "Lorong Sungai 4",
        "Post_Office": "Klang",
        "State": "Selangor"
    },
    {
        "Postcode": "41100",
        "Location": "Lorong Sungai 5",
        "Post_Office": "Klang",
        "State": "Selangor"
    },
    {
        "Postcode": "41100",
        "Location": "Lorong Telok Gadong",
        "Post_Office": "Klang",
        "State": "Selangor"
    },
    {
        "Postcode": "41100",
        "Location": "Lorong Tokong",
        "Post_Office": "Klang",
        "State": "Selangor"
    },
    {
        "Postcode": "41100",
        "Location": "Lorong Zamrud",
        "Post_Office": "Klang",
        "State": "Selangor"
    },
    {
        "Postcode": "41100",
        "Location": "Solok Loyang",
        "Post_Office": "Klang",
        "State": "Selangor"
    },
    {
        "Postcode": "41100",
        "Location": "Solok Matahari",
        "Post_Office": "Klang",
        "State": "Selangor"
    },
    {
        "Postcode": "41100",
        "Location": "Solok Nilam",
        "Post_Office": "Klang",
        "State": "Selangor"
    },
    {
        "Postcode": "41100",
        "Location": "Solok Pokok Sakat",
        "Post_Office": "Klang",
        "State": "Selangor"
    },
    {
        "Postcode": "41100",
        "Location": "Solok Pulai",
        "Post_Office": "Klang",
        "State": "Selangor"
    },
    {
        "Postcode": "41100",
        "Location": "Solok Sekul",
        "Post_Office": "Klang",
        "State": "Selangor"
    },
    {
        "Postcode": "41100",
        "Location": "Solok Sungai 2D",
        "Post_Office": "Klang",
        "State": "Selangor"
    },
    {
        "Postcode": "41100",
        "Location": "Sungai Bertek",
        "Post_Office": "Klang",
        "State": "Selangor"
    },
    {
        "Postcode": "41100",
        "Location": "Taman A \u0026 M",
        "Post_Office": "Klang",
        "State": "Selangor"
    },
    {
        "Postcode": "41100",
        "Location": "Taman Emas",
        "Post_Office": "Klang",
        "State": "Selangor"
    },
    {
        "Postcode": "41100",
        "Location": "Taman Eng Hing",
        "Post_Office": "Klang",
        "State": "Selangor"
    },
    {
        "Postcode": "41100",
        "Location": "Taman Gembira",
        "Post_Office": "Klang",
        "State": "Selangor"
    },
    {
        "Postcode": "41100",
        "Location": "Taman Hilir Jaya",
        "Post_Office": "Klang",
        "State": "Selangor"
    },
    {
        "Postcode": "41100",
        "Location": "Taman Maju",
        "Post_Office": "Klang",
        "State": "Selangor"
    },
    {
        "Postcode": "41100",
        "Location": "Taman Mas",
        "Post_Office": "Klang",
        "State": "Selangor"
    },
    {
        "Postcode": "41100",
        "Location": "Taman Mentaram",
        "Post_Office": "Klang",
        "State": "Selangor"
    },
    {
        "Postcode": "41100",
        "Location": "Taman Mewah",
        "Post_Office": "Klang",
        "State": "Selangor"
    },
    {
        "Postcode": "41100",
        "Location": "Taman Minah",
        "Post_Office": "Klang",
        "State": "Selangor"
    },
    {
        "Postcode": "41100",
        "Location": "Taman Mohd Yamin",
        "Post_Office": "Klang",
        "State": "Selangor"
    },
    {
        "Postcode": "41100",
        "Location": "Taman Ros",
        "Post_Office": "Klang",
        "State": "Selangor"
    },
    {
        "Postcode": "41100",
        "Location": "Taman Sungai Bertih",
        "Post_Office": "Klang",
        "State": "Selangor"
    },
    {
        "Postcode": "41100",
        "Location": "Taman Teluk Pulai",
        "Post_Office": "Klang",
        "State": "Selangor"
    },
    {
        "Postcode": "41100",
        "Location": "Taman Tepi Sungai",
        "Post_Office": "Klang",
        "State": "Selangor"
    },
    {
        "Postcode": "41100",
        "Location": "Taman Wangi",
        "Post_Office": "Klang",
        "State": "Selangor"
    },
    {
        "Postcode": "41100",
        "Location": "Taman Yamin",
        "Post_Office": "Klang",
        "State": "Selangor"
    },
    {
        "Postcode": "41100",
        "Location": "Telok Gadong Kecil",
        "Post_Office": "Klang",
        "State": "Selangor"
    },
    {
        "Postcode": "41100",
        "Location": "Lebuh Sembilang 2",
        "Post_Office": "Klang",
        "State": "Selangor"
    },
    {
        "Postcode": "41100",
        "Location": "Taman Aneka Baru",
        "Post_Office": "Klang",
        "State": "Selangor"
    },
    {
        "Postcode": "41100",
        "Location": "Taman Bertik",
        "Post_Office": "Klang",
        "State": "Selangor"
    },
    {
        "Postcode": "41100",
        "Location": "Taman Indah",
        "Post_Office": "Klang",
        "State": "Selangor"
    },
    {
        "Postcode": "41100",
        "Location": "Taman Sri Indah",
        "Post_Office": "Klang",
        "State": "Selangor"
    },
    {
        "Postcode": "41100",
        "Location": "Jalan Durian",
        "Post_Office": "Klang",
        "State": "Selangor"
    },
    {
        "Postcode": "41100",
        "Location": "Jalan Mangga",
        "Post_Office": "Klang",
        "State": "Selangor"
    },
    {
        "Postcode": "41100",
        "Location": "Jalan Rambutan",
        "Post_Office": "Klang",
        "State": "Selangor"
    },
    {
        "Postcode": "41100",
        "Location": "Persiaran Raja Muda Musa",
        "Post_Office": "Klang",
        "State": "Selangor"
    },
    {
        "Postcode": "41100",
        "Location": "Taman Kota",
        "Post_Office": "Klang",
        "State": "Selangor"
    },
    {
        "Postcode": "41100",
        "Location": "Taman Sinaran",
        "Post_Office": "Klang",
        "State": "Selangor"
    },
    {
        "Postcode": "41100",
        "Location": "Jalan Ciku",
        "Post_Office": "Klang",
        "State": "Selangor"
    },
    {
        "Postcode": "41100",
        "Location": "Jalan Duku",
        "Post_Office": "Klang",
        "State": "Selangor"
    },
    {
        "Postcode": "41100",
        "Location": "Jalan Delek Kanan 51",
        "Post_Office": "Klang",
        "State": "Selangor"
    },
    {
        "Postcode": "41100",
        "Location": "Lorong Kurau 1C",
        "Post_Office": "Klang",
        "State": "Selangor"
    },
    {
        "Postcode": "41100",
        "Location": "Kampung Telok Pulai",
        "Post_Office": "Klang",
        "State": "Selangor"
    },
    {
        "Postcode": "41100",
        "Location": "Jalan Tembusu",
        "Post_Office": "Klang",
        "State": "Selangor"
    },
    {
        "Postcode": "41100",
        "Location": "Jalan Tepi Sungai",
        "Post_Office": "Klang",
        "State": "Selangor"
    },
    {
        "Postcode": "41100",
        "Location": "Jalan Zamrud",
        "Post_Office": "Klang",
        "State": "Selangor"
    },
    {
        "Postcode": "41100",
        "Location": "Lorong Durian",
        "Post_Office": "Klang",
        "State": "Selangor"
    },
    {
        "Postcode": "41100",
        "Location": "Lorong Selar",
        "Post_Office": "Klang",
        "State": "Selangor"
    },
    {
        "Postcode": "41100",
        "Location": "Telok Gadong",
        "Post_Office": "Klang",
        "State": "Selangor"
    },
    {
        "Postcode": "41100",
        "Location": "Lorong Raja Haji Othman",
        "Post_Office": "Klang",
        "State": "Selangor"
    },
    {
        "Postcode": "41100",
        "Location": "Kampung Doraisamy",
        "Post_Office": "Klang",
        "State": "Selangor"
    },
    {
        "Postcode": "41100",
        "Location": "Taman Jaya ",
        "Post_Office": "Klang",
        "State": "Selangor"
    },
    {
        "Postcode": "41100",
        "Location": "Taman Melawis",
        "Post_Office": "Klang",
        "State": "Selangor"
    },
    {
        "Postcode": "41100",
        "Location": "Taman Sri Pelabuhan",
        "Post_Office": "Klang",
        "State": "Selangor"
    },
    {
        "Postcode": "41100",
        "Location": "Taman Sungai Bertek",
        "Post_Office": "Klang",
        "State": "Selangor"
    },
    {
        "Postcode": "41100",
        "Location": "Telok Pulai",
        "Post_Office": "Klang",
        "State": "Selangor"
    },
    {
        "Postcode": "41100",
        "Location": "Jalan Mempelam",
        "Post_Office": "Klang",
        "State": "Selangor"
    },
    {
        "Postcode": "41100",
        "Location": "Jalan Emas 1",
        "Post_Office": "Klang",
        "State": "Selangor"
    },
    {
        "Postcode": "41100",
        "Location": "Jalan Emas 2",
        "Post_Office": "Klang",
        "State": "Selangor"
    },
    {
        "Postcode": "41100",
        "Location": "Jalan Hilir 1",
        "Post_Office": "Klang",
        "State": "Selangor"
    },
    {
        "Postcode": "41100",
        "Location": "Jalan Hilir 2",
        "Post_Office": "Klang",
        "State": "Selangor"
    },
    {
        "Postcode": "41100",
        "Location": "Jalan Sembilang 1",
        "Post_Office": "Klang",
        "State": "Selangor"
    },
    {
        "Postcode": "41100",
        "Location": "Jalan Sembilang 2",
        "Post_Office": "Klang",
        "State": "Selangor"
    },
    {
        "Postcode": "41100",
        "Location": "Jalan Sembilang 3",
        "Post_Office": "Klang",
        "State": "Selangor"
    },
    {
        "Postcode": "41100",
        "Location": "Jalan Sembilang 4",
        "Post_Office": "Klang",
        "State": "Selangor"
    },
    {
        "Postcode": "41100",
        "Location": "Jalan Sembilang 5",
        "Post_Office": "Klang",
        "State": "Selangor"
    },
    {
        "Postcode": "41100",
        "Location": "Jalan Serampang 1",
        "Post_Office": "Klang",
        "State": "Selangor"
    },
    {
        "Postcode": "41100",
        "Location": "Jalan Serampang 2",
        "Post_Office": "Klang",
        "State": "Selangor"
    },
    {
        "Postcode": "41100",
        "Location": "Jalan Serampang 3",
        "Post_Office": "Klang",
        "State": "Selangor"
    },
    {
        "Postcode": "41100",
        "Location": "Jalan Serampang 4",
        "Post_Office": "Klang",
        "State": "Selangor"
    },
    {
        "Postcode": "41100",
        "Location": "Jalan Serampang 5",
        "Post_Office": "Klang",
        "State": "Selangor"
    },
    {
        "Postcode": "41100",
        "Location": "Lebuh Sembilang 1",
        "Post_Office": "Klang",
        "State": "Selangor"
    },
    {
        "Postcode": "41100",
        "Location": "Lebuh Sembilang 3",
        "Post_Office": "Klang",
        "State": "Selangor"
    },
    {
        "Postcode": "41100",
        "Location": "Lintang Besi 1",
        "Post_Office": "Klang",
        "State": "Selangor"
    },
    {
        "Postcode": "41100",
        "Location": "Lintang Besi 2",
        "Post_Office": "Klang",
        "State": "Selangor"
    },
    {
        "Postcode": "41100",
        "Location": "Lorong Besi 1",
        "Post_Office": "Klang",
        "State": "Selangor"
    },
    {
        "Postcode": "41100",
        "Location": "Lorong Besi 2",
        "Post_Office": "Klang",
        "State": "Selangor"
    },
    {
        "Postcode": "41100",
        "Location": "Lorong Besi 3",
        "Post_Office": "Klang",
        "State": "Selangor"
    },
    {
        "Postcode": "41100",
        "Location": "Lorong Besi 4",
        "Post_Office": "Klang",
        "State": "Selangor"
    },
    {
        "Postcode": "41100",
        "Location": "Lorong Besi 5",
        "Post_Office": "Klang",
        "State": "Selangor"
    },
    {
        "Postcode": "41100",
        "Location": "Lorong Dato Dollah 1",
        "Post_Office": "Klang",
        "State": "Selangor"
    },
    {
        "Postcode": "41100",
        "Location": "Lorong Dato Dollah 2",
        "Post_Office": "Klang",
        "State": "Selangor"
    },
    {
        "Postcode": "41100",
        "Location": "Lorong Dato Dollah 3",
        "Post_Office": "Klang",
        "State": "Selangor"
    },
    {
        "Postcode": "41100",
        "Location": "Lorong Hilir 1",
        "Post_Office": "Klang",
        "State": "Selangor"
    },
    {
        "Postcode": "41100",
        "Location": "Lorong Hilir 10",
        "Post_Office": "Klang",
        "State": "Selangor"
    },
    {
        "Postcode": "41100",
        "Location": "Lorong Hilir 11",
        "Post_Office": "Klang",
        "State": "Selangor"
    },
    {
        "Postcode": "41100",
        "Location": "Lorong Hilir 2",
        "Post_Office": "Klang",
        "State": "Selangor"
    },
    {
        "Postcode": "41100",
        "Location": "Lorong Hilir 3",
        "Post_Office": "Klang",
        "State": "Selangor"
    },
    {
        "Postcode": "41100",
        "Location": "Lorong Hilir 4",
        "Post_Office": "Klang",
        "State": "Selangor"
    },
    {
        "Postcode": "41100",
        "Location": "Lorong Hilir 5",
        "Post_Office": "Klang",
        "State": "Selangor"
    },
    {
        "Postcode": "41100",
        "Location": "Lorong Hilir 6",
        "Post_Office": "Klang",
        "State": "Selangor"
    },
    {
        "Postcode": "41100",
        "Location": "Lorong Hilir 7",
        "Post_Office": "Klang",
        "State": "Selangor"
    },
    {
        "Postcode": "41100",
        "Location": "Lorong Hilir 8",
        "Post_Office": "Klang",
        "State": "Selangor"
    },
    {
        "Postcode": "41100",
        "Location": "Lorong Hilir 9",
        "Post_Office": "Klang",
        "State": "Selangor"
    },
    {
        "Postcode": "41100",
        "Location": "Lorong Sembilang 2",
        "Post_Office": "Klang",
        "State": "Selangor"
    },
    {
        "Postcode": "41100",
        "Location": "Lorong Sembilang 3",
        "Post_Office": "Klang",
        "State": "Selangor"
    },
    {
        "Postcode": "41100",
        "Location": "Lorong Sepat 2",
        "Post_Office": "Klang",
        "State": "Selangor"
    },
    {
        "Postcode": "41100",
        "Location": "Lorong Sepat 3",
        "Post_Office": "Klang",
        "State": "Selangor"
    },
    {
        "Postcode": "41100",
        "Location": "Lorong Serampang 1",
        "Post_Office": "Klang",
        "State": "Selangor"
    },
    {
        "Postcode": "41100",
        "Location": "Lorong Serampang 2",
        "Post_Office": "Klang",
        "State": "Selangor"
    },
    {
        "Postcode": "41100",
        "Location": "Lorong Serampang 3",
        "Post_Office": "Klang",
        "State": "Selangor"
    },
    {
        "Postcode": "41100",
        "Location": "Lorong Serampang 4",
        "Post_Office": "Klang",
        "State": "Selangor"
    },
    {
        "Postcode": "41100",
        "Location": "Lorong Serampang 5",
        "Post_Office": "Klang",
        "State": "Selangor"
    },
    {
        "Postcode": "41100",
        "Location": "Lorong Serampang 6",
        "Post_Office": "Klang",
        "State": "Selangor"
    },
    {
        "Postcode": "41100",
        "Location": "Lorong Sungai Bertih 1",
        "Post_Office": "Klang",
        "State": "Selangor"
    },
    {
        "Postcode": "41100",
        "Location": "Lorong Sungai Bertih 2",
        "Post_Office": "Klang",
        "State": "Selangor"
    },
    {
        "Postcode": "41100",
        "Location": "Lorong Sungai Bertih 3",
        "Post_Office": "Klang",
        "State": "Selangor"
    },
    {
        "Postcode": "41100",
        "Location": "Lorong Tepi Sungai 4",
        "Post_Office": "Klang",
        "State": "Selangor"
    },
    {
        "Postcode": "41100",
        "Location": "Lorong Tepi Sungai 5",
        "Post_Office": "Klang",
        "State": "Selangor"
    },
    {
        "Postcode": "41100",
        "Location": "Lorong Turki 1",
        "Post_Office": "Klang",
        "State": "Selangor"
    },
    {
        "Postcode": "41100",
        "Location": "Lorong Turki 2",
        "Post_Office": "Klang",
        "State": "Selangor"
    },
    {
        "Postcode": "41100",
        "Location": "Solok Serampang 1",
        "Post_Office": "Klang",
        "State": "Selangor"
    },
    {
        "Postcode": "41100",
        "Location": "Solok Serampang 2",
        "Post_Office": "Klang",
        "State": "Selangor"
    },
    {
        "Postcode": "41100",
        "Location": "Solok Serampang 3",
        "Post_Office": "Klang",
        "State": "Selangor"
    },
    {
        "Postcode": "41100",
        "Location": "Solok Serampang 4",
        "Post_Office": "Klang",
        "State": "Selangor"
    },
    {
        "Postcode": "41100",
        "Location": "Solok Serampang 5",
        "Post_Office": "Klang",
        "State": "Selangor"
    },
    {
        "Postcode": "41100",
        "Location": "Solok Loyang/KS01",
        "Post_Office": "Klang",
        "State": "Selangor"
    }
]
