[
    {
        "Postcode": "41150",
        "Location": "Jalan Angsa",
        "Post_Office": "Klang",
        "State": "Selangor"
    },
    {
        "Postcode": "41150",
        "Location": "Jalan Bangau",
        "Post_Office": "Klang",
        "State": "Selangor"
    },
    {
        "Postcode": "41150",
        "Location": "Jalan Bayan",
        "Post_Office": "Klang",
        "State": "Selangor"
    },
    {
        "Postcode": "41150",
        "Location": "Jalan Kakak Tua",
        "Post_Office": "Klang",
        "State": "Selangor"
    },
    {
        "Postcode": "41150",
        "Location": "Jalan Kasawari",
        "Post_Office": "Klang",
        "State": "Selangor"
    },
    {
        "Postcode": "41150",
        "Location": "Jalan Kenari",
        "Post_Office": "Klang",
        "State": "Selangor"
    },
    {
        "Postcode": "41150",
        "Location": "Jalan Lang",
        "Post_Office": "Klang",
        "State": "Selangor"
    },
    {
        "Postcode": "41150",
        "Location": "Jalan Mahkota",
        "Post_Office": "Klang",
        "State": "Selangor"
    },
    {
        "Postcode": "41150",
        "Location": "Jalan Punai",
        "Post_Office": "Klang",
        "State": "Selangor"
    },
    {
        "Postcode": "41150",
        "Location": "Jalan Rajawali",
        "Post_Office": "Klang",
        "State": "Selangor"
    },
    {
        "Postcode": "41150",
        "Location": "Jalan Serindit",
        "Post_Office": "Klang",
        "State": "Selangor"
    },
    {
        "Postcode": "41150",
        "Location": "Jalan Tiara",
        "Post_Office": "Klang",
        "State": "Selangor"
    },
    {
        "Postcode": "41150",
        "Location": "Jalan Tiara 3/Ku 01",
        "Post_Office": "Klang",
        "State": "Selangor"
    },
    {
        "Postcode": "41150",
        "Location": "Jalan Undan",
        "Post_Office": "Klang",
        "State": "Selangor"
    },
    {
        "Postcode": "41150",
        "Location": "Jalan Undan Putih",
        "Post_Office": "Klang",
        "State": "Selangor"
    },
    {
        "Postcode": "41150",
        "Location": "Jalan Unta",
        "Post_Office": "Klang",
        "State": "Selangor"
    },
    {
        "Postcode": "41150",
        "Location": "Persiaran Bukit Raja 1 / Ku 1",
        "Post_Office": "Klang",
        "State": "Selangor"
    },
    {
        "Postcode": "41150",
        "Location": "Pusat Bandar Berkeley",
        "Post_Office": "Klang",
        "State": "Selangor"
    },
    {
        "Postcode": "41150",
        "Location": "Taman Berkeley",
        "Post_Office": "Klang",
        "State": "Selangor"
    },
    {
        "Postcode": "41150",
        "Location": "Taman Eng Ann",
        "Post_Office": "Klang",
        "State": "Selangor"
    },
    {
        "Postcode": "41150",
        "Location": "Bandar Baru Klang",
        "Post_Office": "Klang",
        "State": "Selangor"
    },
    {
        "Postcode": "41150",
        "Location": "Jalan Pekan Baru",
        "Post_Office": "Klang",
        "State": "Selangor"
    },
    {
        "Postcode": "41150",
        "Location": "Pusat Perniagaan Bbk",
        "Post_Office": "Klang",
        "State": "Selangor"
    }
]
