[
    {
        "Postcode": "41200",
        "Location": "Lorong Laksamana 32A/KS7",
        "Post_Office": "Klang",
        "State": "Selangor"
    },
    {
        "Postcode": "41200",
        "Location": "Lorong Laksamana 32B/KS7",
        "Post_Office": "Klang",
        "State": "Selangor"
    },
    {
        "Postcode": "41200",
        "Location": "Lorong Laksamana 32C/KS7",
        "Post_Office": "Klang",
        "State": "Selangor"
    },
    {
        "Postcode": "41200",
        "Location": "Lorong Laksamana 32D/KS7",
        "Post_Office": "Klang",
        "State": "Selangor"
    },
    {
        "Postcode": "41200",
        "Location": "Jalan Ikhlas 1J/KS8",
        "Post_Office": "Klang",
        "State": "Selangor"
    },
    {
        "Postcode": "41200",
        "Location": "Jalan Kasuarina 1",
        "Post_Office": "Klang",
        "State": "Selangor"
    },
    {
        "Postcode": "41200",
        "Location": "Jalan Ramin 2",
        "Post_Office": "Klang",
        "State": "Selangor"
    },
    {
        "Postcode": "41200",
        "Location": "Lorong Resak ",
        "Post_Office": "Klang",
        "State": "Selangor"
    },
    {
        "Postcode": "41200",
        "Location": "Taman Klang Ria",
        "Post_Office": "Klang",
        "State": "Selangor"
    },
    {
        "Postcode": "41200",
        "Location": "Taman Mewah Jaya 3",
        "Post_Office": "Klang",
        "State": "Selangor"
    },
    {
        "Postcode": "41200",
        "Location": "Taman Mewah Baru",
        "Post_Office": "Klang",
        "State": "Selangor"
    },
    {
        "Postcode": "41200",
        "Location": "Taman Setia",
        "Post_Office": "Klang",
        "State": "Selangor"
    },
    {
        "Postcode": "41200",
        "Location": "Jalan Gendang /KS02",
        "Post_Office": "Klang",
        "State": "Selangor"
    },
    {
        "Postcode": "41200",
        "Location": "Jalan Kebun Nenas 9A/KS8",
        "Post_Office": "Klang",
        "State": "Selangor"
    },
    {
        "Postcode": "41200",
        "Location": "Bandar Putera 2",
        "Post_Office": "Klang",
        "State": "Selangor"
    },
    {
        "Postcode": "41200",
        "Location": "Jalan Kebun Nenas 4A",
        "Post_Office": "Klang",
        "State": "Selangor"
    },
    {
        "Postcode": "41200",
        "Location": "Jalan Tun Abdul Razak",
        "Post_Office": "Klang",
        "State": "Selangor"
    },
    {
        "Postcode": "41200",
        "Location": "Lorong Laksamana 31 ",
        "Post_Office": "Klang",
        "State": "Selangor"
    },
    {
        "Postcode": "41200",
        "Location": "Bandar Botanic",
        "Post_Office": "Klang",
        "State": "Selangor"
    },
    {
        "Postcode": "41200",
        "Location": "Bandar Bukit Tinggi 2",
        "Post_Office": "Klang",
        "State": "Selangor"
    },
    {
        "Postcode": "41200",
        "Location": "Bandar Putera",
        "Post_Office": "Klang",
        "State": "Selangor"
    },
    {
        "Postcode": "41200",
        "Location": "Jalan Asam",
        "Post_Office": "Klang",
        "State": "Selangor"
    },
    {
        "Postcode": "41200",
        "Location": "Jalan Bagor",
        "Post_Office": "Klang",
        "State": "Selangor"
    },
    {
        "Postcode": "41200",
        "Location": "Jalan Batu Nilam",
        "Post_Office": "Klang",
        "State": "Selangor"
    },
    {
        "Postcode": "41200",
        "Location": "Jalan Batu Nilam 34",
        "Post_Office": "Klang",
        "State": "Selangor"
    },
    {
        "Postcode": "41200",
        "Location": "Jalan Bendahara",
        "Post_Office": "Klang",
        "State": "Selangor"
    },
    {
        "Postcode": "41200",
        "Location": "Jalan Biara",
        "Post_Office": "Klang",
        "State": "Selangor"
    },
    {
        "Postcode": "41200",
        "Location": "Jalan Cassia",
        "Post_Office": "Klang",
        "State": "Selangor"
    },
    {
        "Postcode": "41200",
        "Location": "Jalan Dato Abdul Hamid",
        "Post_Office": "Klang",
        "State": "Selangor"
    },
    {
        "Postcode": "41200",
        "Location": "Jalan Dato Dagang",
        "Post_Office": "Klang",
        "State": "Selangor"
    },
    {
        "Postcode": "41200",
        "Location": "Jalan Dato Mohd Tahir",
        "Post_Office": "Klang",
        "State": "Selangor"
    },
    {
        "Postcode": "41200",
        "Location": "Jalan Dato Shabuddin",
        "Post_Office": "Klang",
        "State": "Selangor"
    },
    {
        "Postcode": "41200",
        "Location": "Jalan Dato Yusuf Shahbudin",
        "Post_Office": "Klang",
        "State": "Selangor"
    },
    {
        "Postcode": "41200",
        "Location": "Jalan Delima 13",
        "Post_Office": "Klang",
        "State": "Selangor"
    },
    {
        "Postcode": "41200",
        "Location": "Jalan Gambus",
        "Post_Office": "Klang",
        "State": "Selangor"
    },
    {
        "Postcode": "41200",
        "Location": "Jalan Gapis",
        "Post_Office": "Klang",
        "State": "Selangor"
    },
    {
        "Postcode": "41200",
        "Location": "Jalan Haji Karim",
        "Post_Office": "Klang",
        "State": "Selangor"
    },
    {
        "Postcode": "41200",
        "Location": "Jalan Hulubalang",
        "Post_Office": "Klang",
        "State": "Selangor"
    },
    {
        "Postcode": "41200",
        "Location": "Jalan Ibus",
        "Post_Office": "Klang",
        "State": "Selangor"
    },
    {
        "Postcode": "41200",
        "Location": "Jalan Jerangor",
        "Post_Office": "Klang",
        "State": "Selangor"
    },
    {
        "Postcode": "41200",
        "Location": "Jalan Kadok",
        "Post_Office": "Klang",
        "State": "Selangor"
    },
    {
        "Postcode": "41200",
        "Location": "Jalan Kangkong",
        "Post_Office": "Klang",
        "State": "Selangor"
    },
    {
        "Postcode": "41200",
        "Location": "Jalan Kelupas",
        "Post_Office": "Klang",
        "State": "Selangor"
    },
    {
        "Postcode": "41200",
        "Location": "Jalan Kemenyan",
        "Post_Office": "Klang",
        "State": "Selangor"
    },
    {
        "Postcode": "41200",
        "Location": "Jalan Kerongsang",
        "Post_Office": "Klang",
        "State": "Selangor"
    },
    {
        "Postcode": "41200",
        "Location": "Jalan Kertas",
        "Post_Office": "Klang",
        "State": "Selangor"
    },
    {
        "Postcode": "41200",
        "Location": "Jalan Kiara",
        "Post_Office": "Klang",
        "State": "Selangor"
    },
    {
        "Postcode": "41200",
        "Location": "Jalan Kilat",
        "Post_Office": "Klang",
        "State": "Selangor"
    },
    {
        "Postcode": "41200",
        "Location": "Jalan Kopi",
        "Post_Office": "Klang",
        "State": "Selangor"
    },
    {
        "Postcode": "41200",
        "Location": "Jalan Ladang",
        "Post_Office": "Klang",
        "State": "Selangor"
    },
    {
        "Postcode": "41200",
        "Location": "Jalan Laksamana",
        "Post_Office": "Klang",
        "State": "Selangor"
    },
    {
        "Postcode": "41200",
        "Location": "Jalan Langat",
        "Post_Office": "Klang",
        "State": "Selangor"
    },
    {
        "Postcode": "41200",
        "Location": "Jalan Mampat",
        "Post_Office": "Klang",
        "State": "Selangor"
    },
    {
        "Postcode": "41200",
        "Location": "Jalan Menalu",
        "Post_Office": "Klang",
        "State": "Selangor"
    },
    {
        "Postcode": "41200",
        "Location": "Jalan Mohd Amin",
        "Post_Office": "Klang",
        "State": "Selangor"
    },
    {
        "Postcode": "41200",
        "Location": "Jalan Palas",
        "Post_Office": "Klang",
        "State": "Selangor"
    },
    {
        "Postcode": "41200",
        "Location": "Jalan Pegaga",
        "Post_Office": "Klang",
        "State": "Selangor"
    },
    {
        "Postcode": "41200",
        "Location": "Jalan Pelasari",
        "Post_Office": "Klang",
        "State": "Selangor"
    },
    {
        "Postcode": "41200",
        "Location": "Jalan Penaga",
        "Post_Office": "Klang",
        "State": "Selangor"
    },
    {
        "Postcode": "41200",
        "Location": "Jalan Pending",
        "Post_Office": "Klang",
        "State": "Selangor"
    },
    {
        "Postcode": "41200",
        "Location": "Jalan Perawas",
        "Post_Office": "Klang",
        "State": "Selangor"
    },
    {
        "Postcode": "41200",
        "Location": "Jalan Pinang",
        "Post_Office": "Klang",
        "State": "Selangor"
    },
    {
        "Postcode": "41200",
        "Location": "Jalan Rengas",
        "Post_Office": "Klang",
        "State": "Selangor"
    },
    {
        "Postcode": "41200",
        "Location": "Jalan Rhu",
        "Post_Office": "Klang",
        "State": "Selangor"
    },
    {
        "Postcode": "41200",
        "Location": "Jalan Saga",
        "Post_Office": "Klang",
        "State": "Selangor"
    },
    {
        "Postcode": "41200",
        "Location": "Jalan Sambau",
        "Post_Office": "Klang",
        "State": "Selangor"
    },
    {
        "Postcode": "41200",
        "Location": "Jalan Sanggul",
        "Post_Office": "Klang",
        "State": "Selangor"
    },
    {
        "Postcode": "41200",
        "Location": "Jalan Selampit",
        "Post_Office": "Klang",
        "State": "Selangor"
    },
    {
        "Postcode": "41200",
        "Location": "Jalan Seleguri",
        "Post_Office": "Klang",
        "State": "Selangor"
    },
    {
        "Postcode": "41200",
        "Location": "Jalan Selesuri",
        "Post_Office": "Klang",
        "State": "Selangor"
    },
    {
        "Postcode": "41200",
        "Location": "Jalan Seraya",
        "Post_Office": "Klang",
        "State": "Selangor"
    },
    {
        "Postcode": "41200",
        "Location": "Jalan Seri Banang",
        "Post_Office": "Klang",
        "State": "Selangor"
    },
    {
        "Postcode": "41200",
        "Location": "Jalan Seri Damak",
        "Post_Office": "Klang",
        "State": "Selangor"
    },
    {
        "Postcode": "41200",
        "Location": "Jalan Seri Siantan",
        "Post_Office": "Klang",
        "State": "Selangor"
    },
    {
        "Postcode": "41200",
        "Location": "Jalan Seruling",
        "Post_Office": "Klang",
        "State": "Selangor"
    },
    {
        "Postcode": "41200",
        "Location": "Jalan Serunai",
        "Post_Office": "Klang",
        "State": "Selangor"
    },
    {
        "Postcode": "41200",
        "Location": "Jalan Setaka",
        "Post_Office": "Klang",
        "State": "Selangor"
    },
    {
        "Postcode": "41200",
        "Location": "Jalan Setaka Indah",
        "Post_Office": "Klang",
        "State": "Selangor"
    },
    {
        "Postcode": "41200",
        "Location": "Jalan Setia",
        "Post_Office": "Klang",
        "State": "Selangor"
    },
    {
        "Postcode": "41200",
        "Location": "Jalan Setia Permai",
        "Post_Office": "Klang",
        "State": "Selangor"
    },
    {
        "Postcode": "41200",
        "Location": "Jalan Siput",
        "Post_Office": "Klang",
        "State": "Selangor"
    },
    {
        "Postcode": "41200",
        "Location": "Jalan Sri Banang",
        "Post_Office": "Klang",
        "State": "Selangor"
    },
    {
        "Postcode": "41200",
        "Location": "Jalan Sri Damak",
        "Post_Office": "Klang",
        "State": "Selangor"
    },
    {
        "Postcode": "41200",
        "Location": "Jalan Sri Mersing",
        "Post_Office": "Klang",
        "State": "Selangor"
    },
    {
        "Postcode": "41200",
        "Location": "Jalan Sri Sarawak",
        "Post_Office": "Klang",
        "State": "Selangor"
    },
    {
        "Postcode": "41200",
        "Location": "Jalan Sri Sedili",
        "Post_Office": "Klang",
        "State": "Selangor"
    },
    {
        "Postcode": "41200",
        "Location": "Jalan Sri Tanjung",
        "Post_Office": "Klang",
        "State": "Selangor"
    },
    {
        "Postcode": "41200",
        "Location": "Jalan Tamarind",
        "Post_Office": "Klang",
        "State": "Selangor"
    },
    {
        "Postcode": "41200",
        "Location": "Jalan Tebu",
        "Post_Office": "Klang",
        "State": "Selangor"
    },
    {
        "Postcode": "41200",
        "Location": "Jalan Telok Gadong Besar",
        "Post_Office": "Klang",
        "State": "Selangor"
    },
    {
        "Postcode": "41200",
        "Location": "Jalan Teluk Gadong",
        "Post_Office": "Klang",
        "State": "Selangor"
    },
    {
        "Postcode": "41200",
        "Location": "Jalan Temenggong",
        "Post_Office": "Klang",
        "State": "Selangor"
    },
    {
        "Postcode": "41200",
        "Location": "Jalan Tengku Badri Shah",
        "Post_Office": "Klang",
        "State": "Selangor"
    },
    {
        "Postcode": "41200",
        "Location": "Jalan Terap",
        "Post_Office": "Klang",
        "State": "Selangor"
    },
    {
        "Postcode": "41200",
        "Location": "Jalan Tun Dr Ismail",
        "Post_Office": "Klang",
        "State": "Selangor"
    },
    {
        "Postcode": "41200",
        "Location": "Jalan Tun Razak",
        "Post_Office": "Klang",
        "State": "Selangor"
    },
    {
        "Postcode": "41200",
        "Location": "Jalan Tun Sambanthan",
        "Post_Office": "Klang",
        "State": "Selangor"
    },
    {
        "Postcode": "41200",
        "Location": "Jalan Turi",
        "Post_Office": "Klang",
        "State": "Selangor"
    },
    {
        "Postcode": "41200",
        "Location": "Kampung Johan Setia",
        "Post_Office": "Klang",
        "State": "Selangor"
    },
    {
        "Postcode": "41200",
        "Location": "Kampung Sungai Jati",
        "Post_Office": "Klang",
        "State": "Selangor"
    },
    {
        "Postcode": "41200",
        "Location": "Lebuh Agar-Agar",
        "Post_Office": "Klang",
        "State": "Selangor"
    },
    {
        "Postcode": "41200",
        "Location": "Lebuh Bagor",
        "Post_Office": "Klang",
        "State": "Selangor"
    },
    {
        "Postcode": "41200",
        "Location": "Lebuh Jelutong",
        "Post_Office": "Klang",
        "State": "Selangor"
    },
    {
        "Postcode": "41200",
        "Location": "Lebuh Jerangor",
        "Post_Office": "Klang",
        "State": "Selangor"
    },
    {
        "Postcode": "41200",
        "Location": "Lebuh Menalu",
        "Post_Office": "Klang",
        "State": "Selangor"
    },
    {
        "Postcode": "41200",
        "Location": "Lebuh Palas",
        "Post_Office": "Klang",
        "State": "Selangor"
    },
    {
        "Postcode": "41200",
        "Location": "Lebuh Seraya",
        "Post_Office": "Klang",
        "State": "Selangor"
    },
    {
        "Postcode": "41200",
        "Location": "Lebuh Siput",
        "Post_Office": "Klang",
        "State": "Selangor"
    },
    {
        "Postcode": "41200",
        "Location": "Lebuh Tamarind",
        "Post_Office": "Klang",
        "State": "Selangor"
    },
    {
        "Postcode": "41200",
        "Location": "Lebuh Terap",
        "Post_Office": "Klang",
        "State": "Selangor"
    },
    {
        "Postcode": "41200",
        "Location": "Lebuh Turi",
        "Post_Office": "Klang",
        "State": "Selangor"
    },
    {
        "Postcode": "41200",
        "Location": "Lengkok Jelutong",
        "Post_Office": "Klang",
        "State": "Selangor"
    },
    {
        "Postcode": "41200",
        "Location": "Lintang Bagor",
        "Post_Office": "Klang",
        "State": "Selangor"
    },
    {
        "Postcode": "41200",
        "Location": "Lintang Seraya",
        "Post_Office": "Klang",
        "State": "Selangor"
    },
    {
        "Postcode": "41200",
        "Location": "Lorong Azmi",
        "Post_Office": "Klang",
        "State": "Selangor"
    },
    {
        "Postcode": "41200",
        "Location": "Lorong Haji Karim",
        "Post_Office": "Klang",
        "State": "Selangor"
    },
    {
        "Postcode": "41200",
        "Location": "Lorong Jelutong",
        "Post_Office": "Klang",
        "State": "Selangor"
    },
    {
        "Postcode": "41200",
        "Location": "Lorong Jerangor",
        "Post_Office": "Klang",
        "State": "Selangor"
    },
    {
        "Postcode": "41200",
        "Location": "Lorong Kadok",
        "Post_Office": "Klang",
        "State": "Selangor"
    },
    {
        "Postcode": "41200",
        "Location": "Lorong Ladang",
        "Post_Office": "Klang",
        "State": "Selangor"
    },
    {
        "Postcode": "41200",
        "Location": "Lorong Palas",
        "Post_Office": "Klang",
        "State": "Selangor"
    },
    {
        "Postcode": "41200",
        "Location": "Lorong Pegaga",
        "Post_Office": "Klang",
        "State": "Selangor"
    },
    {
        "Postcode": "41200",
        "Location": "Lorong Perawas",
        "Post_Office": "Klang",
        "State": "Selangor"
    },
    {
        "Postcode": "41200",
        "Location": "Lorong Puteri",
        "Post_Office": "Klang",
        "State": "Selangor"
    },
    {
        "Postcode": "41200",
        "Location": "Lorong Rengas",
        "Post_Office": "Klang",
        "State": "Selangor"
    },
    {
        "Postcode": "41200",
        "Location": "Lorong Sambau",
        "Post_Office": "Klang",
        "State": "Selangor"
    },
    {
        "Postcode": "41200",
        "Location": "Lorong Seleguri",
        "Post_Office": "Klang",
        "State": "Selangor"
    },
    {
        "Postcode": "41200",
        "Location": "Lorong Setaka",
        "Post_Office": "Klang",
        "State": "Selangor"
    },
    {
        "Postcode": "41200",
        "Location": "Lorong Setaka Indah",
        "Post_Office": "Klang",
        "State": "Selangor"
    },
    {
        "Postcode": "41200",
        "Location": "Lorong Setia",
        "Post_Office": "Klang",
        "State": "Selangor"
    },
    {
        "Postcode": "41200",
        "Location": "Lorong Tamarind",
        "Post_Office": "Klang",
        "State": "Selangor"
    },
    {
        "Postcode": "41200",
        "Location": "Lorong Tebu",
        "Post_Office": "Klang",
        "State": "Selangor"
    },
    {
        "Postcode": "41200",
        "Location": "Lorong Terap",
        "Post_Office": "Klang",
        "State": "Selangor"
    },
    {
        "Postcode": "41200",
        "Location": "Palm Grove",
        "Post_Office": "Klang",
        "State": "Selangor"
    },
    {
        "Postcode": "41200",
        "Location": "Persiaran Lebuh Bagor",
        "Post_Office": "Klang",
        "State": "Selangor"
    },
    {
        "Postcode": "41200",
        "Location": "Persiaran Setaka",
        "Post_Office": "Klang",
        "State": "Selangor"
    },
    {
        "Postcode": "41200",
        "Location": "Persiaran Tengku Ampuan Rahimah",
        "Post_Office": "Klang",
        "State": "Selangor"
    },
    {
        "Postcode": "41200",
        "Location": "Persiaran Turi",
        "Post_Office": "Klang",
        "State": "Selangor"
    },
    {
        "Postcode": "41200",
        "Location": "Solok Mempat",
        "Post_Office": "Klang",
        "State": "Selangor"
    },
    {
        "Postcode": "41200",
        "Location": "Solok Seraya",
        "Post_Office": "Klang",
        "State": "Selangor"
    },
    {
        "Postcode": "41200",
        "Location": "Solok Tamarin",
        "Post_Office": "Klang",
        "State": "Selangor"
    },
    {
        "Postcode": "41200",
        "Location": "Taman Andalas Jaya",
        "Post_Office": "Klang",
        "State": "Selangor"
    },
    {
        "Postcode": "41200",
        "Location": "Taman Asian",
        "Post_Office": "Klang",
        "State": "Selangor"
    },
    {
        "Postcode": "41200",
        "Location": "Taman Banang",
        "Post_Office": "Klang",
        "State": "Selangor"
    },
    {
        "Postcode": "41200",
        "Location": "Taman Bayu Mas",
        "Post_Office": "Klang",
        "State": "Selangor"
    },
    {
        "Postcode": "41200",
        "Location": "Taman Bayu Perdana",
        "Post_Office": "Klang",
        "State": "Selangor"
    },
    {
        "Postcode": "41200",
        "Location": "Taman Bintang",
        "Post_Office": "Klang",
        "State": "Selangor"
    },
    {
        "Postcode": "41200",
        "Location": "Taman Botanik",
        "Post_Office": "Klang",
        "State": "Selangor"
    },
    {
        "Postcode": "41200",
        "Location": "Taman Bukit Tinggi",
        "Post_Office": "Klang",
        "State": "Selangor"
    },
    {
        "Postcode": "41200",
        "Location": "Taman Bunga Indah",
        "Post_Office": "Klang",
        "State": "Selangor"
    },
    {
        "Postcode": "41200",
        "Location": "Taman Chi Liung",
        "Post_Office": "Klang",
        "State": "Selangor"
    },
    {
        "Postcode": "41200",
        "Location": "Taman Dato Abdul Hamid",
        "Post_Office": "Klang",
        "State": "Selangor"
    },
    {
        "Postcode": "41200",
        "Location": "Taman Desa Maju",
        "Post_Office": "Klang",
        "State": "Selangor"
    },
    {
        "Postcode": "41200",
        "Location": "Taman Desa Utama",
        "Post_Office": "Klang",
        "State": "Selangor"
    },
    {
        "Postcode": "41200",
        "Location": "Taman Desa Wan",
        "Post_Office": "Klang",
        "State": "Selangor"
    },
    {
        "Postcode": "41200",
        "Location": "Taman Goodwood",
        "Post_Office": "Klang",
        "State": "Selangor"
    },
    {
        "Postcode": "41200",
        "Location": "Taman Johan Setia",
        "Post_Office": "Klang",
        "State": "Selangor"
    },
    {
        "Postcode": "41200",
        "Location": "Taman Kelang Jaya",
        "Post_Office": "Klang",
        "State": "Selangor"
    },
    {
        "Postcode": "41200",
        "Location": "Taman Klang Jaya",
        "Post_Office": "Klang",
        "State": "Selangor"
    },
    {
        "Postcode": "41200",
        "Location": "Taman Lipat Kajang",
        "Post_Office": "Klang",
        "State": "Selangor"
    },
    {
        "Postcode": "41200",
        "Location": "Taman Majur",
        "Post_Office": "Klang",
        "State": "Selangor"
    },
    {
        "Postcode": "41200",
        "Location": "Taman Mujur",
        "Post_Office": "Klang",
        "State": "Selangor"
    },
    {
        "Postcode": "41200",
        "Location": "Taman Palm Grove",
        "Post_Office": "Klang",
        "State": "Selangor"
    },
    {
        "Postcode": "41200",
        "Location": "Taman Perindustrian Klang Jaya",
        "Post_Office": "Klang",
        "State": "Selangor"
    },
    {
        "Postcode": "41200",
        "Location": "Taman Petaling",
        "Post_Office": "Klang",
        "State": "Selangor"
    },
    {
        "Postcode": "41200",
        "Location": "Taman Rajee",
        "Post_Office": "Klang",
        "State": "Selangor"
    },
    {
        "Postcode": "41200",
        "Location": "Taman Saujana",
        "Post_Office": "Klang",
        "State": "Selangor"
    },
    {
        "Postcode": "41200",
        "Location": "Taman Selatan",
        "Post_Office": "Klang",
        "State": "Selangor"
    },
    {
        "Postcode": "41200",
        "Location": "Taman Sentosa",
        "Post_Office": "Klang",
        "State": "Selangor"
    },
    {
        "Postcode": "41200",
        "Location": "Taman Seri",
        "Post_Office": "Klang",
        "State": "Selangor"
    },
    {
        "Postcode": "41200",
        "Location": "Taman Setia Johan",
        "Post_Office": "Klang",
        "State": "Selangor"
    },
    {
        "Postcode": "41200",
        "Location": "Taman Southern",
        "Post_Office": "Klang",
        "State": "Selangor"
    },
    {
        "Postcode": "41200",
        "Location": "Taman Wangsa",
        "Post_Office": "Klang",
        "State": "Selangor"
    },
    {
        "Postcode": "41200",
        "Location": "Jalan Gelang 2",
        "Post_Office": "Klang",
        "State": "Selangor"
    },
    {
        "Postcode": "41200",
        "Location": "Jalan Seri Gambut 3 ",
        "Post_Office": "Klang",
        "State": "Selangor"
    },
    {
        "Postcode": "41200",
        "Location": "Lorong Laksamana 6A",
        "Post_Office": "Klang",
        "State": "Selangor"
    },
    {
        "Postcode": "41200",
        "Location": "Lorong Dato Dagang 52 B",
        "Post_Office": "Klang",
        "State": "Selangor"
    },
    {
        "Postcode": "41200",
        "Location": "Lebuh Sanggul 1",
        "Post_Office": "Klang",
        "State": "Selangor"
    },
    {
        "Postcode": "41200",
        "Location": "Jalan Temenggung 25/KS7",
        "Post_Office": "Klang",
        "State": "Selangor"
    },
    {
        "Postcode": "41200",
        "Location": "Jalan Desa Putera 26/KS8",
        "Post_Office": "Klang",
        "State": "Selangor"
    },
    {
        "Postcode": "41200",
        "Location": "Persiaran Batu Nilam",
        "Post_Office": "Klang",
        "State": "Selangor"
    },
    {
        "Postcode": "41200",
        "Location": "Taman Radzi",
        "Post_Office": "Klang",
        "State": "Selangor"
    },
    {
        "Postcode": "41200",
        "Location": "Taman Sentosa Perdana",
        "Post_Office": "Klang",
        "State": "Selangor"
    },
    {
        "Postcode": "41200",
        "Location": "Ambang Botanic",
        "Post_Office": "Klang",
        "State": "Selangor"
    },
    {
        "Postcode": "41200",
        "Location": "Pusat Perniagaan Gm Klang",
        "Post_Office": "Klang",
        "State": "Selangor"
    },
    {
        "Postcode": "41200",
        "Location": "Taman Sejati Kehijauan",
        "Post_Office": "Klang",
        "State": "Selangor"
    },
    {
        "Postcode": "41200",
        "Location": "Johan Setia",
        "Post_Office": "Klang",
        "State": "Selangor"
    },
    {
        "Postcode": "41200",
        "Location": "Taman Perindustrian Air Hitam",
        "Post_Office": "Klang",
        "State": "Selangor"
    },
    {
        "Postcode": "41200",
        "Location": "Bandar Bestari",
        "Post_Office": "Klang",
        "State": "Selangor"
    },
    {
        "Postcode": "41200",
        "Location": "Pusat Perdagangan Bestari",
        "Post_Office": "Klang",
        "State": "Selangor"
    },
    {
        "Postcode": "41200",
        "Location": "Ambang Botanik",
        "Post_Office": "Klang",
        "State": "Selangor"
    },
    {
        "Postcode": "41200",
        "Location": "Jalan Kebun Nenas",
        "Post_Office": "Klang",
        "State": "Selangor"
    },
    {
        "Postcode": "41200",
        "Location": "Telok Gadong Besar",
        "Post_Office": "Klang",
        "State": "Selangor"
    },
    {
        "Postcode": "41200",
        "Location": "Taman Sri Andalas",
        "Post_Office": "Klang",
        "State": "Selangor"
    },
    {
        "Postcode": "41200",
        "Location": "Batu Unjur",
        "Post_Office": "Klang",
        "State": "Selangor"
    },
    {
        "Postcode": "41200",
        "Location": "Kota Bayuemas",
        "Post_Office": "Klang",
        "State": "Selangor"
    },
    {
        "Postcode": "41200",
        "Location": "Taman Bayu Emas",
        "Post_Office": "Klang",
        "State": "Selangor"
    },
    {
        "Postcode": "41200",
        "Location": "Bandar Parkland",
        "Post_Office": "Klang",
        "State": "Selangor"
    },
    {
        "Postcode": "41200",
        "Location": "Jalan Kelapa",
        "Post_Office": "Klang",
        "State": "Selangor"
    },
    {
        "Postcode": "41200",
        "Location": "Taman Mulia",
        "Post_Office": "Klang",
        "State": "Selangor"
    },
    {
        "Postcode": "41200",
        "Location": "Taman Ria",
        "Post_Office": "Klang",
        "State": "Selangor"
    },
    {
        "Postcode": "41200",
        "Location": "Taman Suria",
        "Post_Office": "Klang",
        "State": "Selangor"
    },
    {
        "Postcode": "41200",
        "Location": "Bandar Puteri",
        "Post_Office": "Klang",
        "State": "Selangor"
    },
    {
        "Postcode": "41200",
        "Location": "Jalan Jelutong",
        "Post_Office": "Klang",
        "State": "Selangor"
    },
    {
        "Postcode": "41200",
        "Location": "Persiaran Raja Muda Musa",
        "Post_Office": "Klang",
        "State": "Selangor"
    },
    {
        "Postcode": "41200",
        "Location": "Taman Melawati",
        "Post_Office": "Klang",
        "State": "Selangor"
    },
    {
        "Postcode": "41200",
        "Location": "Taman Sejahtera",
        "Post_Office": "Klang",
        "State": "Selangor"
    },
    {
        "Postcode": "41200",
        "Location": "Jalan Batu Unjur",
        "Post_Office": "Klang",
        "State": "Selangor"
    },
    {
        "Postcode": "41200",
        "Location": "Jalan Bungor",
        "Post_Office": "Klang",
        "State": "Selangor"
    },
    {
        "Postcode": "41200",
        "Location": "Jalan Impian 2E ",
        "Post_Office": "Klang",
        "State": "Selangor"
    },
    {
        "Postcode": "41200",
        "Location": "Taman Ambang Botanic",
        "Post_Office": "Klang",
        "State": "Selangor"
    },
    {
        "Postcode": "41200",
        "Location": "Taman Ambang Botanik 2",
        "Post_Office": "Klang",
        "State": "Selangor"
    },
    {
        "Postcode": "41200",
        "Location": "Bandar Bukit Tinggi 1",
        "Post_Office": "Klang",
        "State": "Selangor"
    },
    {
        "Postcode": "41200",
        "Location": "Jalan Peria",
        "Post_Office": "Klang",
        "State": "Selangor"
    },
    {
        "Postcode": "41200",
        "Location": "Jalan Resak",
        "Post_Office": "Klang",
        "State": "Selangor"
    },
    {
        "Postcode": "41200",
        "Location": "Jalan Sungai Jati",
        "Post_Office": "Klang",
        "State": "Selangor"
    },
    {
        "Postcode": "41200",
        "Location": "Jalan Permata 7/KS9",
        "Post_Office": "Klang",
        "State": "Selangor"
    },
    {
        "Postcode": "41200",
        "Location": "Taman Sentosa Idaman",
        "Post_Office": "Klang",
        "State": "Selangor"
    },
    {
        "Postcode": "41200",
        "Location": "Lorong Laksamana 32/KS7",
        "Post_Office": "Klang",
        "State": "Selangor"
    },
    {
        "Postcode": "41200",
        "Location": "Persiaran Delima 4",
        "Post_Office": "Klang",
        "State": "Selangor"
    },
    {
        "Postcode": "41200",
        "Location": "Jalan Bestari 3A",
        "Post_Office": "Klang",
        "State": "Selangor"
    },
    {
        "Postcode": "41200",
        "Location": "Jalan Gelang 6",
        "Post_Office": "Klang",
        "State": "Selangor"
    },
    {
        "Postcode": "41200",
        "Location": "Jalan Jed 2",
        "Post_Office": "Klang",
        "State": "Selangor"
    },
    {
        "Postcode": "41200",
        "Location": "Jalan Sopan",
        "Post_Office": "Klang",
        "State": "Selangor"
    },
    {
        "Postcode": "41200",
        "Location": "Ambang Botanik 2",
        "Post_Office": "Klang",
        "State": "Selangor"
    },
    {
        "Postcode": "41200",
        "Location": "Bandar Bayu Tinggi",
        "Post_Office": "Klang",
        "State": "Selangor"
    },
    {
        "Postcode": "41200",
        "Location": "Desa Idaman",
        "Post_Office": "Klang",
        "State": "Selangor"
    },
    {
        "Postcode": "41200",
        "Location": "Kampung Ac",
        "Post_Office": "Klang",
        "State": "Selangor"
    },
    {
        "Postcode": "41200",
        "Location": "Kampung Sri Nadi",
        "Post_Office": "Klang",
        "State": "Selangor"
    },
    {
        "Postcode": "41200",
        "Location": "Park Kj Techno Industrial",
        "Post_Office": "Klang",
        "State": "Selangor"
    },
    {
        "Postcode": "41200",
        "Location": "Taman Bayu Tinggi",
        "Post_Office": "Klang",
        "State": "Selangor"
    },
    {
        "Postcode": "41200",
        "Location": "Taman Desa Putera",
        "Post_Office": "Klang",
        "State": "Selangor"
    },
    {
        "Postcode": "41200",
        "Location": "Taman Desawan",
        "Post_Office": "Klang",
        "State": "Selangor"
    },
    {
        "Postcode": "41200",
        "Location": "Taman Johan Setia Permai",
        "Post_Office": "Klang",
        "State": "Selangor"
    },
    {
        "Postcode": "41200",
        "Location": "Taman Kintaman",
        "Post_Office": "Klang",
        "State": "Selangor"
    },
    {
        "Postcode": "41200",
        "Location": "Taman Mewah Ria",
        "Post_Office": "Klang",
        "State": "Selangor"
    },
    {
        "Postcode": "41200",
        "Location": "Taman Millenium Sentosa",
        "Post_Office": "Klang",
        "State": "Selangor"
    },
    {
        "Postcode": "41200",
        "Location": "Taman Petaling Indah",
        "Post_Office": "Klang",
        "State": "Selangor"
    },
    {
        "Postcode": "41200",
        "Location": "Taman Saujana Jati",
        "Post_Office": "Klang",
        "State": "Selangor"
    },
    {
        "Postcode": "41200",
        "Location": "Taman Sejati",
        "Post_Office": "Klang",
        "State": "Selangor"
    },
    {
        "Postcode": "41200",
        "Location": "Taman Sentosa Perdana 2",
        "Post_Office": "Klang",
        "State": "Selangor"
    },
    {
        "Postcode": "41200",
        "Location": "Taman Sentosa Ria",
        "Post_Office": "Klang",
        "State": "Selangor"
    },
    {
        "Postcode": "41200",
        "Location": "Taman Sentosa Ria 2",
        "Post_Office": "Klang",
        "State": "Selangor"
    },
    {
        "Postcode": "41200",
        "Location": "Taman Sentosa Utama",
        "Post_Office": "Klang",
        "State": "Selangor"
    },
    {
        "Postcode": "41200",
        "Location": "Taman Setia Permai",
        "Post_Office": "Klang",
        "State": "Selangor"
    },
    {
        "Postcode": "41200",
        "Location": "Taman Sri Bahagia",
        "Post_Office": "Klang",
        "State": "Selangor"
    },
    {
        "Postcode": "41200",
        "Location": "Taman Sri Sentosa",
        "Post_Office": "Klang",
        "State": "Selangor"
    },
    {
        "Postcode": "41200",
        "Location": "Taman Sri Sentosa Jaya",
        "Post_Office": "Klang",
        "State": "Selangor"
    },
    {
        "Postcode": "41200",
        "Location": "Kota Bayu Emas",
        "Post_Office": "Klang",
        "State": "Selangor"
    },
    {
        "Postcode": "41200",
        "Location": "Jalan Permata /KS09",
        "Post_Office": "Klang",
        "State": "Selangor"
    },
    {
        "Postcode": "41200",
        "Location": "Lorong Batu Unjur 1",
        "Post_Office": "Klang",
        "State": "Selangor"
    },
    {
        "Postcode": "41200",
        "Location": "Lorong Batu Unjur 2",
        "Post_Office": "Klang",
        "State": "Selangor"
    },
    {
        "Postcode": "41200",
        "Location": "Lorong Batu Unjur 3",
        "Post_Office": "Klang",
        "State": "Selangor"
    },
    {
        "Postcode": "41200",
        "Location": "Lorong Batu Unjur 4",
        "Post_Office": "Klang",
        "State": "Selangor"
    },
    {
        "Postcode": "41200",
        "Location": "Lorong Batu Unjur 5",
        "Post_Office": "Klang",
        "State": "Selangor"
    },
    {
        "Postcode": "41200",
        "Location": "Jalan Permata 6/KS09",
        "Post_Office": "Klang",
        "State": "Selangor"
    },
    {
        "Postcode": "41200",
        "Location": "Lebuh Menalu/KS01",
        "Post_Office": "Klang",
        "State": "Selangor"
    },
    {
        "Postcode": "41200",
        "Location": "Jalan Rebung 4/KS7",
        "Post_Office": "Klang",
        "State": "Selangor"
    },
    {
        "Postcode": "41200",
        "Location": "Taman Sri Sentosa Jaya Business Park",
        "Post_Office": "Klang",
        "State": "Selangor"
    },
    {
        "Postcode": "41200",
        "Location": "Taman Teknik Jaya",
        "Post_Office": "Klang",
        "State": "Selangor"
    }
]
