[
    {
        "Postcode": "41250",
        "Location": "Jalan Kampung Delek",
        "Post_Office": "Klang",
        "State": "Selangor"
    },
    {
        "Postcode": "41250",
        "Location": "Jalan Kiai Khusairi",
        "Post_Office": "Klang",
        "State": "Selangor"
    },
    {
        "Postcode": "41250",
        "Location": "Jalan Kiai Khusairi 14",
        "Post_Office": "Klang",
        "State": "Selangor"
    },
    {
        "Postcode": "41250",
        "Location": "Jalan Lurah Said",
        "Post_Office": "Klang",
        "State": "Selangor"
    },
    {
        "Postcode": "41250",
        "Location": "Jalan Masjid (Kampung Delek)",
        "Post_Office": "Klang",
        "State": "Selangor"
    },
    {
        "Postcode": "41250",
        "Location": "Jalan Selamat",
        "Post_Office": "Klang",
        "State": "Selangor"
    },
    {
        "Postcode": "41250",
        "Location": "Jalan Sungai Udang",
        "Post_Office": "Klang",
        "State": "Selangor"
    },
    {
        "Postcode": "41250",
        "Location": "Jalan Yadi",
        "Post_Office": "Klang",
        "State": "Selangor"
    },
    {
        "Postcode": "41250",
        "Location": "Jalan Yusof Sungai Udang",
        "Post_Office": "Klang",
        "State": "Selangor"
    },
    {
        "Postcode": "41250",
        "Location": "Kampung Delek Kanan",
        "Post_Office": "Klang",
        "State": "Selangor"
    },
    {
        "Postcode": "41250",
        "Location": "Kampung Delek Kiri",
        "Post_Office": "Klang",
        "State": "Selangor"
    },
    {
        "Postcode": "41250",
        "Location": "Kampung Telok Gadong Kecil",
        "Post_Office": "Klang",
        "State": "Selangor"
    },
    {
        "Postcode": "41250",
        "Location": "Lorong Masjid",
        "Post_Office": "Klang",
        "State": "Selangor"
    },
    {
        "Postcode": "41250",
        "Location": "Lorong Yusof (Sungai Udang)",
        "Post_Office": "Klang",
        "State": "Selangor"
    },
    {
        "Postcode": "41250",
        "Location": "Simpang Tiga Sungai Udang",
        "Post_Office": "Klang",
        "State": "Selangor"
    },
    {
        "Postcode": "41250",
        "Location": "Taman Dahlia",
        "Post_Office": "Klang",
        "State": "Selangor"
    },
    {
        "Postcode": "41250",
        "Location": "Taman Firdaus",
        "Post_Office": "Klang",
        "State": "Selangor"
    },
    {
        "Postcode": "41250",
        "Location": "Taman Hassan",
        "Post_Office": "Klang",
        "State": "Selangor"
    },
    {
        "Postcode": "41250",
        "Location": "Taman Mutiara Indah",
        "Post_Office": "Klang",
        "State": "Selangor"
    },
    {
        "Postcode": "41250",
        "Location": "Taman Rahmat",
        "Post_Office": "Klang",
        "State": "Selangor"
    },
    {
        "Postcode": "41250",
        "Location": "Taman Sri Delek",
        "Post_Office": "Klang",
        "State": "Selangor"
    },
    {
        "Postcode": "41250",
        "Location": "Teluk Gadong Kecil",
        "Post_Office": "Klang",
        "State": "Selangor"
    },
    {
        "Postcode": "41250",
        "Location": "Lorong Haji Harmain 2B/ Ks3",
        "Post_Office": "Klang",
        "State": "Selangor"
    },
    {
        "Postcode": "41250",
        "Location": "Jalan Udang Mantis 6/KS3",
        "Post_Office": "Klang",
        "State": "Selangor"
    },
    {
        "Postcode": "41250",
        "Location": "Taman Udang Kuning",
        "Post_Office": "Klang",
        "State": "Selangor"
    },
    {
        "Postcode": "41250",
        "Location": "Taman Delek Kiri",
        "Post_Office": "Klang",
        "State": "Selangor"
    },
    {
        "Postcode": "41250",
        "Location": "Taman Delek Kanan",
        "Post_Office": "Klang",
        "State": "Selangor"
    },
    {
        "Postcode": "41250",
        "Location": "Kampung Sungai Udang",
        "Post_Office": "Klang",
        "State": "Selangor"
    },
    {
        "Postcode": "41250",
        "Location": "Taman Ehsan",
        "Post_Office": "Klang",
        "State": "Selangor"
    },
    {
        "Postcode": "41250",
        "Location": "Kampung Delek",
        "Post_Office": "Klang",
        "State": "Selangor"
    },
    {
        "Postcode": "41250",
        "Location": "Telok Gedong Besar",
        "Post_Office": "Klang",
        "State": "Selangor"
    },
    {
        "Postcode": "41250",
        "Location": "Taman Udang Cendana",
        "Post_Office": "Klang",
        "State": "Selangor"
    },
    {
        "Postcode": "41250",
        "Location": "Taman Udang Kara",
        "Post_Office": "Klang",
        "State": "Selangor"
    },
    {
        "Postcode": "41250",
        "Location": "Taman Udang Kertas",
        "Post_Office": "Klang",
        "State": "Selangor"
    }
]
