[
    {
        "Postcode": "41300",
        "Location": "Taman Ros",
        "Post_Office": "Klang",
        "State": "Selangor"
    },
    {
        "Postcode": "41300",
        "Location": "Jalan Baharu",
        "Post_Office": "Klang",
        "State": "Selangor"
    },
    {
        "Postcode": "41300",
        "Location": "Jalan Batai Laut",
        "Post_Office": "Klang",
        "State": "Selangor"
    },
    {
        "Postcode": "41300",
        "Location": "Jalan Batu Tiga",
        "Post_Office": "Klang",
        "State": "Selangor"
    },
    {
        "Postcode": "41300",
        "Location": "Jalan Batu Tiga Lama",
        "Post_Office": "Klang",
        "State": "Selangor"
    },
    {
        "Postcode": "41300",
        "Location": "Jalan Belakang",
        "Post_Office": "Klang",
        "State": "Selangor"
    },
    {
        "Postcode": "41300",
        "Location": "Jalan Bidor",
        "Post_Office": "Klang",
        "State": "Selangor"
    },
    {
        "Postcode": "41300",
        "Location": "Jalan Biru",
        "Post_Office": "Klang",
        "State": "Selangor"
    },
    {
        "Postcode": "41300",
        "Location": "Jalan Bukit Kuda / Ku 01",
        "Post_Office": "Klang",
        "State": "Selangor"
    },
    {
        "Postcode": "41300",
        "Location": "Jalan Chemor",
        "Post_Office": "Klang",
        "State": "Selangor"
    },
    {
        "Postcode": "41300",
        "Location": "Jalan Cox Solok Baru",
        "Post_Office": "Klang",
        "State": "Selangor"
    },
    {
        "Postcode": "41300",
        "Location": "Jalan Dato' Haji Mohd Sidin",
        "Post_Office": "Klang",
        "State": "Selangor"
    },
    {
        "Postcode": "41300",
        "Location": "Jalan Dato Kaya",
        "Post_Office": "Klang",
        "State": "Selangor"
    },
    {
        "Postcode": "41300",
        "Location": "Jalan Dendang",
        "Post_Office": "Klang",
        "State": "Selangor"
    },
    {
        "Postcode": "41300",
        "Location": "Jalan Haji Abas",
        "Post_Office": "Klang",
        "State": "Selangor"
    },
    {
        "Postcode": "41300",
        "Location": "Jalan Haji Salleh",
        "Post_Office": "Klang",
        "State": "Selangor"
    },
    {
        "Postcode": "41300",
        "Location": "Jalan Hijau",
        "Post_Office": "Klang",
        "State": "Selangor"
    },
    {
        "Postcode": "41300",
        "Location": "Jalan Intan",
        "Post_Office": "Klang",
        "State": "Selangor"
    },
    {
        "Postcode": "41300",
        "Location": "Jalan Jingga",
        "Post_Office": "Klang",
        "State": "Selangor"
    },
    {
        "Postcode": "41300",
        "Location": "Jalan Kampar",
        "Post_Office": "Klang",
        "State": "Selangor"
    },
    {
        "Postcode": "41300",
        "Location": "Jalan Kelabu",
        "Post_Office": "Klang",
        "State": "Selangor"
    },
    {
        "Postcode": "41300",
        "Location": "Jalan Kris",
        "Post_Office": "Klang",
        "State": "Selangor"
    },
    {
        "Postcode": "41300",
        "Location": "Jalan Landasan",
        "Post_Office": "Klang",
        "State": "Selangor"
    },
    {
        "Postcode": "41300",
        "Location": "Jalan Merah",
        "Post_Office": "Klang",
        "State": "Selangor"
    },
    {
        "Postcode": "41300",
        "Location": "Jalan Mohd Sidin",
        "Post_Office": "Klang",
        "State": "Selangor"
    },
    {
        "Postcode": "41300",
        "Location": "Jalan Pasi",
        "Post_Office": "Klang",
        "State": "Selangor"
    },
    {
        "Postcode": "41300",
        "Location": "Jalan Perak",
        "Post_Office": "Klang",
        "State": "Selangor"
    },
    {
        "Postcode": "41300",
        "Location": "Jalan Pos Baru",
        "Post_Office": "Klang",
        "State": "Selangor"
    },
    {
        "Postcode": "41300",
        "Location": "Jalan Puteh",
        "Post_Office": "Klang",
        "State": "Selangor"
    },
    {
        "Postcode": "41300",
        "Location": "Jalan Raksa",
        "Post_Office": "Klang",
        "State": "Selangor"
    },
    {
        "Postcode": "41300",
        "Location": "Jalan Rasah",
        "Post_Office": "Klang",
        "State": "Selangor"
    },
    {
        "Postcode": "41300",
        "Location": "Jalan Suasa",
        "Post_Office": "Klang",
        "State": "Selangor"
    },
    {
        "Postcode": "41300",
        "Location": "Jalan Sungai Rasah",
        "Post_Office": "Klang",
        "State": "Selangor"
    },
    {
        "Postcode": "41300",
        "Location": "Jalan Tembaga",
        "Post_Office": "Klang",
        "State": "Selangor"
    },
    {
        "Postcode": "41300",
        "Location": "Jalan Tengah",
        "Post_Office": "Klang",
        "State": "Selangor"
    },
    {
        "Postcode": "41300",
        "Location": "Jalan Zeng",
        "Post_Office": "Klang",
        "State": "Selangor"
    },
    {
        "Postcode": "41300",
        "Location": "Kampung Bukit Kuda",
        "Post_Office": "Klang",
        "State": "Selangor"
    },
    {
        "Postcode": "41300",
        "Location": "Lebuh Jingga",
        "Post_Office": "Klang",
        "State": "Selangor"
    },
    {
        "Postcode": "41300",
        "Location": "Lintang Batu Tiga",
        "Post_Office": "Klang",
        "State": "Selangor"
    },
    {
        "Postcode": "41300",
        "Location": "Lintang Gelugor",
        "Post_Office": "Klang",
        "State": "Selangor"
    },
    {
        "Postcode": "41300",
        "Location": "Lintang Kampar",
        "Post_Office": "Klang",
        "State": "Selangor"
    },
    {
        "Postcode": "41300",
        "Location": "Lintang Pasi",
        "Post_Office": "Klang",
        "State": "Selangor"
    },
    {
        "Postcode": "41300",
        "Location": "Lorong Batu Tiga",
        "Post_Office": "Klang",
        "State": "Selangor"
    },
    {
        "Postcode": "41300",
        "Location": "Lorong Bidor",
        "Post_Office": "Klang",
        "State": "Selangor"
    },
    {
        "Postcode": "41300",
        "Location": "Lorong Haji Salleh",
        "Post_Office": "Klang",
        "State": "Selangor"
    },
    {
        "Postcode": "41300",
        "Location": "Lorong Kampar",
        "Post_Office": "Klang",
        "State": "Selangor"
    },
    {
        "Postcode": "41300",
        "Location": "Lorong Kelabu",
        "Post_Office": "Klang",
        "State": "Selangor"
    },
    {
        "Postcode": "41300",
        "Location": "Lorong Lintang Batu Tiga",
        "Post_Office": "Klang",
        "State": "Selangor"
    },
    {
        "Postcode": "41300",
        "Location": "Lorong Pasi",
        "Post_Office": "Klang",
        "State": "Selangor"
    },
    {
        "Postcode": "41300",
        "Location": "Lorong Perak",
        "Post_Office": "Klang",
        "State": "Selangor"
    },
    {
        "Postcode": "41300",
        "Location": "Lorong Perdana",
        "Post_Office": "Klang",
        "State": "Selangor"
    },
    {
        "Postcode": "41300",
        "Location": "Persiaran Sultan Ibrahim",
        "Post_Office": "Klang",
        "State": "Selangor"
    },
    {
        "Postcode": "41300",
        "Location": "Solok Batai",
        "Post_Office": "Klang",
        "State": "Selangor"
    },
    {
        "Postcode": "41300",
        "Location": "Solok Batai Laut",
        "Post_Office": "Klang",
        "State": "Selangor"
    },
    {
        "Postcode": "41300",
        "Location": "Solok Dendang",
        "Post_Office": "Klang",
        "State": "Selangor"
    },
    {
        "Postcode": "41300",
        "Location": "Solok Jingga",
        "Post_Office": "Klang",
        "State": "Selangor"
    },
    {
        "Postcode": "41300",
        "Location": "Solok Kelabu",
        "Post_Office": "Klang",
        "State": "Selangor"
    },
    {
        "Postcode": "41300",
        "Location": "Solok Lima (Kawasan 15)",
        "Post_Office": "Klang",
        "State": "Selangor"
    },
    {
        "Postcode": "41300",
        "Location": "Solok Pasi",
        "Post_Office": "Klang",
        "State": "Selangor"
    },
    {
        "Postcode": "41300",
        "Location": "Solok Sumut",
        "Post_Office": "Klang",
        "State": "Selangor"
    },
    {
        "Postcode": "41300",
        "Location": "Solok Tiga (Kawasan 15)",
        "Post_Office": "Klang",
        "State": "Selangor"
    },
    {
        "Postcode": "41300",
        "Location": "Taman Bukit Cemerlang",
        "Post_Office": "Klang",
        "State": "Selangor"
    },
    {
        "Postcode": "41300",
        "Location": "Taman Bukit Kuda",
        "Post_Office": "Klang",
        "State": "Selangor"
    },
    {
        "Postcode": "41300",
        "Location": "Taman Dengang",
        "Post_Office": "Klang",
        "State": "Selangor"
    },
    {
        "Postcode": "41300",
        "Location": "Taman Intan",
        "Post_Office": "Klang",
        "State": "Selangor"
    },
    {
        "Postcode": "41300",
        "Location": "Taman Kampung Kuantan",
        "Post_Office": "Klang",
        "State": "Selangor"
    },
    {
        "Postcode": "41300",
        "Location": "Taman Kris",
        "Post_Office": "Klang",
        "State": "Selangor"
    },
    {
        "Postcode": "41300",
        "Location": "Taman Rashna",
        "Post_Office": "Klang",
        "State": "Selangor"
    },
    {
        "Postcode": "41300",
        "Location": "Taman Seng Chai",
        "Post_Office": "Klang",
        "State": "Selangor"
    },
    {
        "Postcode": "41300",
        "Location": "Taman Summit",
        "Post_Office": "Klang",
        "State": "Selangor"
    },
    {
        "Postcode": "41300",
        "Location": "Lintang Perak / Ku1",
        "Post_Office": "Klang",
        "State": "Selangor"
    },
    {
        "Postcode": "41300",
        "Location": "Bukit Kuda",
        "Post_Office": "Klang",
        "State": "Selangor"
    },
    {
        "Postcode": "41300",
        "Location": "Kawasan Perindustrian Sungai Rasau",
        "Post_Office": "Klang",
        "State": "Selangor"
    },
    {
        "Postcode": "41300",
        "Location": "Taman Aman",
        "Post_Office": "Klang",
        "State": "Selangor"
    },
    {
        "Postcode": "41300",
        "Location": "Kampung Kuantan",
        "Post_Office": "Klang",
        "State": "Selangor"
    },
    {
        "Postcode": "41300",
        "Location": "Jalan Baru",
        "Post_Office": "Klang",
        "State": "Selangor"
    },
    {
        "Postcode": "41300",
        "Location": "Jalan Gelugor",
        "Post_Office": "Klang",
        "State": "Selangor"
    },
    {
        "Postcode": "41300",
        "Location": "Jalan Pelangi",
        "Post_Office": "Klang",
        "State": "Selangor"
    },
    {
        "Postcode": "41300",
        "Location": "Jalan Sireh",
        "Post_Office": "Klang",
        "State": "Selangor"
    },
    {
        "Postcode": "41300",
        "Location": "Lorong Pasi/KU1",
        "Post_Office": "Klang",
        "State": "Selangor"
    },
    {
        "Postcode": "41300",
        "Location": "Jalan Bidor /KU1",
        "Post_Office": "klang",
        "State": "Selangor"
    },
    {
        "Postcode": "41300",
        "Location": "Kampung Sri Kenangan",
        "Post_Office": "Klang",
        "State": "Selangor"
    }
]
