[
    {
        "Postcode": "41400",
        "Location": "Taman Sri Pinang",
        "Post_Office": "Klang",
        "State": "Selangor"
    },
    {
        "Postcode": "41400",
        "Location": "Jalan Indah 10 ",
        "Post_Office": "Klang",
        "State": "Selangor"
    },
    {
        "Postcode": "41400",
        "Location": "Jalan Kangar 102 ",
        "Post_Office": "Klang",
        "State": "Selangor"
    },
    {
        "Postcode": "41400",
        "Location": "Jalan Kangar 81",
        "Post_Office": "Klang",
        "State": "Selangor"
    },
    {
        "Postcode": "41400",
        "Location": "Jalan Alor Setar",
        "Post_Office": "Klang",
        "State": "Selangor"
    },
    {
        "Postcode": "41400",
        "Location": "Jalan Bakti (Rantau Panjang)",
        "Post_Office": "Klang",
        "State": "Selangor"
    },
    {
        "Postcode": "41400",
        "Location": "Jalan Baling",
        "Post_Office": "Klang",
        "State": "Selangor"
    },
    {
        "Postcode": "41400",
        "Location": "Jalan Bukit Mertajam",
        "Post_Office": "Klang",
        "State": "Selangor"
    },
    {
        "Postcode": "41400",
        "Location": "Jalan Delima",
        "Post_Office": "Klang",
        "State": "Selangor"
    },
    {
        "Postcode": "41400",
        "Location": "Jalan Dungun",
        "Post_Office": "Klang",
        "State": "Selangor"
    },
    {
        "Postcode": "41400",
        "Location": "Jalan Goh Hock Huat",
        "Post_Office": "Klang",
        "State": "Selangor"
    },
    {
        "Postcode": "41400",
        "Location": "Jalan Gopeng",
        "Post_Office": "Klang",
        "State": "Selangor"
    },
    {
        "Postcode": "41400",
        "Location": "Jalan Gudang Nanas",
        "Post_Office": "Klang",
        "State": "Selangor"
    },
    {
        "Postcode": "41400",
        "Location": "Jalan Gurun",
        "Post_Office": "Klang",
        "State": "Selangor"
    },
    {
        "Postcode": "41400",
        "Location": "Jalan Haji Salam",
        "Post_Office": "Klang",
        "State": "Selangor"
    },
    {
        "Postcode": "41400",
        "Location": "Jalan Harper",
        "Post_Office": "Klang",
        "State": "Selangor"
    },
    {
        "Postcode": "41400",
        "Location": "Jalan Harper Light",
        "Post_Office": "Klang",
        "State": "Selangor"
    },
    {
        "Postcode": "41400",
        "Location": "Jalan Jarak",
        "Post_Office": "Klang",
        "State": "Selangor"
    },
    {
        "Postcode": "41400",
        "Location": "Jalan Kangar",
        "Post_Office": "Klang",
        "State": "Selangor"
    },
    {
        "Postcode": "41400",
        "Location": "Jalan Kapar (Hingga Km 4)",
        "Post_Office": "Klang",
        "State": "Selangor"
    },
    {
        "Postcode": "41400",
        "Location": "Jalan Kluang",
        "Post_Office": "Klang",
        "State": "Selangor"
    },
    {
        "Postcode": "41400",
        "Location": "Jalan Labis",
        "Post_Office": "Klang",
        "State": "Selangor"
    },
    {
        "Postcode": "41400",
        "Location": "Jalan Mantin (Kawasan 18)",
        "Post_Office": "Klang",
        "State": "Selangor"
    },
    {
        "Postcode": "41400",
        "Location": "Jalan Melayu",
        "Post_Office": "Klang",
        "State": "Selangor"
    },
    {
        "Postcode": "41400",
        "Location": "Jalan Mersing",
        "Post_Office": "Klang",
        "State": "Selangor"
    },
    {
        "Postcode": "41400",
        "Location": "Jalan Miri",
        "Post_Office": "Klang",
        "State": "Selangor"
    },
    {
        "Postcode": "41400",
        "Location": "Jalan Muar",
        "Post_Office": "Klang",
        "State": "Selangor"
    },
    {
        "Postcode": "41400",
        "Location": "Jalan Nanas",
        "Post_Office": "Klang",
        "State": "Selangor"
    },
    {
        "Postcode": "41400",
        "Location": "Jalan Nangka",
        "Post_Office": "Klang",
        "State": "Selangor"
    },
    {
        "Postcode": "41400",
        "Location": "Jalan Papaya",
        "Post_Office": "Klang",
        "State": "Selangor"
    },
    {
        "Postcode": "41400",
        "Location": "Jalan Pasar",
        "Post_Office": "Klang",
        "State": "Selangor"
    },
    {
        "Postcode": "41400",
        "Location": "Jalan Pasar Jawa",
        "Post_Office": "Klang",
        "State": "Selangor"
    },
    {
        "Postcode": "41400",
        "Location": "Jalan Pulau Pinang",
        "Post_Office": "Klang",
        "State": "Selangor"
    },
    {
        "Postcode": "41400",
        "Location": "Jalan Raja Bot",
        "Post_Office": "Klang",
        "State": "Selangor"
    },
    {
        "Postcode": "41400",
        "Location": "Jalan Raja Hassan",
        "Post_Office": "Klang",
        "State": "Selangor"
    },
    {
        "Postcode": "41400",
        "Location": "Jalan Sena",
        "Post_Office": "Klang",
        "State": "Selangor"
    },
    {
        "Postcode": "41400",
        "Location": "Jalan Sena (Kawasan 18)",
        "Post_Office": "Klang",
        "State": "Selangor"
    },
    {
        "Postcode": "41400",
        "Location": "Jalan Sentosa",
        "Post_Office": "Klang",
        "State": "Selangor"
    },
    {
        "Postcode": "41400",
        "Location": "Jalan Sungai Putus",
        "Post_Office": "Klang",
        "State": "Selangor"
    },
    {
        "Postcode": "41400",
        "Location": "Jalan Taman (Kawasan 18)",
        "Post_Office": "Klang",
        "State": "Selangor"
    },
    {
        "Postcode": "41400",
        "Location": "Jalan Tampin",
        "Post_Office": "Klang",
        "State": "Selangor"
    },
    {
        "Postcode": "41400",
        "Location": "Jalan Tanjung Shawal",
        "Post_Office": "Klang",
        "State": "Selangor"
    },
    {
        "Postcode": "41400",
        "Location": "Jalan Tapah",
        "Post_Office": "Klang",
        "State": "Selangor"
    },
    {
        "Postcode": "41400",
        "Location": "Jalan Tembikai",
        "Post_Office": "Klang",
        "State": "Selangor"
    },
    {
        "Postcode": "41400",
        "Location": "Jalan Temoh",
        "Post_Office": "Klang",
        "State": "Selangor"
    },
    {
        "Postcode": "41400",
        "Location": "Klang - Kawasan 18",
        "Post_Office": "Klang",
        "State": "Selangor"
    },
    {
        "Postcode": "41400",
        "Location": "Lebuh Gopeng",
        "Post_Office": "Klang",
        "State": "Selangor"
    },
    {
        "Postcode": "41400",
        "Location": "Lebuh Kangar",
        "Post_Office": "Klang",
        "State": "Selangor"
    },
    {
        "Postcode": "41400",
        "Location": "Lebuh Tampin",
        "Post_Office": "Klang",
        "State": "Selangor"
    },
    {
        "Postcode": "41400",
        "Location": "Lebuh Tapah",
        "Post_Office": "Klang",
        "State": "Selangor"
    },
    {
        "Postcode": "41400",
        "Location": "Lorong Baling",
        "Post_Office": "Klang",
        "State": "Selangor"
    },
    {
        "Postcode": "41400",
        "Location": "Lorong Biduri",
        "Post_Office": "Klang",
        "State": "Selangor"
    },
    {
        "Postcode": "41400",
        "Location": "Lorong Bukit Mertajam",
        "Post_Office": "Klang",
        "State": "Selangor"
    },
    {
        "Postcode": "41400",
        "Location": "Lorong Gopeng",
        "Post_Office": "Klang",
        "State": "Selangor"
    },
    {
        "Postcode": "41400",
        "Location": "Lorong Gurun",
        "Post_Office": "Klang",
        "State": "Selangor"
    },
    {
        "Postcode": "41400",
        "Location": "Lorong Haji Salam",
        "Post_Office": "Klang",
        "State": "Selangor"
    },
    {
        "Postcode": "41400",
        "Location": "Lorong Jarak ( Kawasan 18)",
        "Post_Office": "Klang",
        "State": "Selangor"
    },
    {
        "Postcode": "41400",
        "Location": "Lorong Kangar",
        "Post_Office": "Klang",
        "State": "Selangor"
    },
    {
        "Postcode": "41400",
        "Location": "Lorong Labis",
        "Post_Office": "Klang",
        "State": "Selangor"
    },
    {
        "Postcode": "41400",
        "Location": "Lorong Mersing",
        "Post_Office": "Klang",
        "State": "Selangor"
    },
    {
        "Postcode": "41400",
        "Location": "Lorong Muar",
        "Post_Office": "Klang",
        "State": "Selangor"
    },
    {
        "Postcode": "41400",
        "Location": "Lorong Raja Bot",
        "Post_Office": "Klang",
        "State": "Selangor"
    },
    {
        "Postcode": "41400",
        "Location": "Lorong Raja Hassan",
        "Post_Office": "Klang",
        "State": "Selangor"
    },
    {
        "Postcode": "41400",
        "Location": "Lorong Sena (Kawasan 18)",
        "Post_Office": "Klang",
        "State": "Selangor"
    },
    {
        "Postcode": "41400",
        "Location": "Lorong Tapah",
        "Post_Office": "Klang",
        "State": "Selangor"
    },
    {
        "Postcode": "41400",
        "Location": "Persiaran Pulau Pinang",
        "Post_Office": "Klang",
        "State": "Selangor"
    },
    {
        "Postcode": "41400",
        "Location": "Solok Baling",
        "Post_Office": "Klang",
        "State": "Selangor"
    },
    {
        "Postcode": "41400",
        "Location": "Solok Bukit Mertajam",
        "Post_Office": "Klang",
        "State": "Selangor"
    },
    {
        "Postcode": "41400",
        "Location": "Solok Raja Bot",
        "Post_Office": "Klang",
        "State": "Selangor"
    },
    {
        "Postcode": "41400",
        "Location": "Solok Sungai Putus",
        "Post_Office": "Klang",
        "State": "Selangor"
    },
    {
        "Postcode": "41400",
        "Location": "Taman Kim",
        "Post_Office": "Klang",
        "State": "Selangor"
    },
    {
        "Postcode": "41400",
        "Location": "Taman Kota (Jalan Kapar)",
        "Post_Office": "Klang",
        "State": "Selangor"
    },
    {
        "Postcode": "41400",
        "Location": "Taman Sentosa (Jalan Kapar)",
        "Post_Office": "Klang",
        "State": "Selangor"
    },
    {
        "Postcode": "41400",
        "Location": "Taman Sungai Putus",
        "Post_Office": "Klang",
        "State": "Selangor"
    },
    {
        "Postcode": "41400",
        "Location": "Taman Wangsa Indah",
        "Post_Office": "Klang",
        "State": "Selangor"
    },
    {
        "Postcode": "41400",
        "Location": "Taman Yeon Seng Chai",
        "Post_Office": "Klang",
        "State": "Selangor"
    },
    {
        "Postcode": "41400",
        "Location": "Tanjung Sawal",
        "Post_Office": "Klang",
        "State": "Selangor"
    },
    {
        "Postcode": "41400",
        "Location": "Jalan Pengasah 2B",
        "Post_Office": "Klang",
        "State": "Selangor"
    },
    {
        "Postcode": "41400",
        "Location": "Kawasan 19",
        "Post_Office": "Klang",
        "State": "Selangor"
    },
    {
        "Postcode": "41400",
        "Location": "Jalan Tampin 1",
        "Post_Office": "Klang",
        "State": "Selangor"
    },
    {
        "Postcode": "41400",
        "Location": "Jalan Taiping",
        "Post_Office": "Klang",
        "State": "Selangor"
    },
    {
        "Postcode": "41400",
        "Location": "Kampung Sungai Pinang",
        "Post_Office": "Klang",
        "State": "Selangor"
    },
    {
        "Postcode": "41400",
        "Location": "Lebuhraya Shapadu",
        "Post_Office": "Klang",
        "State": "Selangor"
    },
    {
        "Postcode": "41400",
        "Location": "Jalan Kapar/Ku3",
        "Post_Office": "Klang",
        "State": "Selangor"
    },
    {
        "Postcode": "41400",
        "Location": "Jalan Keretapi Lama",
        "Post_Office": "Klang",
        "State": "Selangor"
    },
    {
        "Postcode": "41400",
        "Location": "Jalan Muda ",
        "Post_Office": "Klang",
        "State": "Selangor"
    },
    {
        "Postcode": "41400",
        "Location": "Dataran Ocean",
        "Post_Office": "Klang",
        "State": "Selangor"
    },
    {
        "Postcode": "41400",
        "Location": "Kampung Sungai Pinang Dalam",
        "Post_Office": "Klang",
        "State": "Selangor"
    },
    {
        "Postcode": "41400",
        "Location": "Kampung Tanjung Shawal",
        "Post_Office": "Klang",
        "State": "Selangor"
    },
    {
        "Postcode": "41400",
        "Location": "Taman Bangsa Indah",
        "Post_Office": "Klang",
        "State": "Selangor"
    },
    {
        "Postcode": "41400",
        "Location": "Taman Sri Klang",
        "Post_Office": "Klang",
        "State": "Selangor"
    }
]
