[
    {
        "Postcode": "90000",
        "Location": "Rumah Persekutuan",
        "Post_Office": "Sandakan",
        "State": "Sabah"
    },
    {
        "Postcode": "90000",
        "Location": "Taman Damai",
        "Post_Office": "Sandakan",
        "State": "Sabah"
    },
    {
        "Postcode": "90000",
        "Location": "Bandar Laila",
        "Post_Office": "Sandakan",
        "State": "Sabah"
    },
    {
        "Postcode": "90000",
        "Location": "Bandar Ramai - Ramai",
        "Post_Office": "Sandakan",
        "State": "Sabah"
    },
    {
        "Postcode": "90000",
        "Location": "Elopura",
        "Post_Office": "Sandakan",
        "State": "Sabah"
    },
    {
        "Postcode": "90000",
        "Location": "Jalan Labuk (Batu 36)",
        "Post_Office": "Sandakan",
        "State": "Sabah"
    },
    {
        "Postcode": "90000",
        "Location": "Kampung B.D.C.",
        "Post_Office": "Sandakan",
        "State": "Sabah"
    },
    {
        "Postcode": "90000",
        "Location": "Kampung Karamunting",
        "Post_Office": "Sandakan",
        "State": "Sabah"
    },
    {
        "Postcode": "90000",
        "Location": "Kampung Seri Taman",
        "Post_Office": "Sandakan",
        "State": "Sabah"
    },
    {
        "Postcode": "90000",
        "Location": "Kampung Sim-Sim",
        "Post_Office": "Sandakan",
        "State": "Sabah"
    },
    {
        "Postcode": "90000",
        "Location": "Kampung Sungai Manila",
        "Post_Office": "Sandakan",
        "State": "Sabah"
    },
    {
        "Postcode": "90000",
        "Location": "Kampung Tambisan",
        "Post_Office": "Sandakan",
        "State": "Sabah"
    },
    {
        "Postcode": "90000",
        "Location": "Kampung Tongud",
        "Post_Office": "Sandakan",
        "State": "Sabah"
    },
    {
        "Postcode": "90000",
        "Location": "Labuk (Batu 9,11,13,15,\u0026 17)",
        "Post_Office": "Sandakan",
        "State": "Sabah"
    },
    {
        "Postcode": "90000",
        "Location": "Ladang Segaliud",
        "Post_Office": "Sandakan",
        "State": "Sabah"
    },
    {
        "Postcode": "90000",
        "Location": "Sabah Palm Estate",
        "Post_Office": "Sandakan",
        "State": "Sabah"
    },
    {
        "Postcode": "90000",
        "Location": "Sandakan",
        "Post_Office": "Sandakan",
        "State": "Sabah"
    },
    {
        "Postcode": "90000",
        "Location": "Taman Sibuga",
        "Post_Office": "Sandakan",
        "State": "Sabah"
    },
    {
        "Postcode": "90000",
        "Location": "Tanjung Papat",
        "Post_Office": "Sandakan",
        "State": "Sabah"
    },
    {
        "Postcode": "90000",
        "Location": "Tonggod",
        "Post_Office": "Sandakan",
        "State": "Sabah"
    },
    {
        "Postcode": "90000",
        "Location": "Ulu Dusun",
        "Post_Office": "Sandakan",
        "State": "Sabah"
    }
]
