[
    {
        "Postcode": "63000",
        "Location": "Myra Cove Condominium ",
        "Post_Office": "Cyberjaya",
        "State": "Selangor"
    },
    {
        "Postcode": "63000",
        "Location": "Edusphere International College",
        "Post_Office": "Cyberjaya",
        "State": "Selangor"
    },
    {
        "Postcode": "63000",
        "Location": "Cottage Walk",
        "Post_Office": "Cyberjaya",
        "State": "Selangor"
    },
    {
        "Postcode": "63000",
        "Location": "Jalan Cottage Walk",
        "Post_Office": "Cyberjaya",
        "State": "Selangor"
    },
    {
        "Postcode": "63000",
        "Location": "Bangunan Emerio Cyberjaya",
        "Post_Office": "Cyberjaya",
        "State": "Selangor"
    },
    {
        "Postcode": "63000",
        "Location": "Biz Avenue 2",
        "Post_Office": "Cyberjaya",
        "State": "Selangor"
    },
    {
        "Postcode": "63000",
        "Location": "Cbd Perdana 2",
        "Post_Office": "Cyberjaya",
        "State": "Selangor"
    },
    {
        "Postcode": "63000",
        "Location": "Jalan Pinggiran Cyber (3/1 - 3/3)",
        "Post_Office": "Cyberjaya",
        "State": "Selangor"
    },
    {
        "Postcode": "63000",
        "Location": "Jalan Pinggiran Cyber (3/4 - 3/6)",
        "Post_Office": "Cyberjaya",
        "State": "Selangor"
    },
    {
        "Postcode": "63000",
        "Location": "Jalan Pinggiran Cyber 3/3A",
        "Post_Office": "Cyberjaya",
        "State": "Selangor"
    },
    {
        "Postcode": "63000",
        "Location": "Jalan Teknokrat 6",
        "Post_Office": "Cyberjaya",
        "State": "Selangor"
    },
    {
        "Postcode": "63000",
        "Location": "Lingkaran Teknokrat 3 Barat",
        "Post_Office": "Cyberjaya",
        "State": "Selangor"
    },
    {
        "Postcode": "63000",
        "Location": "Prima Avenue 1",
        "Post_Office": "Cyberjaya",
        "State": "Selangor"
    },
    {
        "Postcode": "63000",
        "Location": "Satyam Malaysia Global Solution Centre",
        "Post_Office": "Cyberjaya",
        "State": "Selangor"
    },
    {
        "Postcode": "63000",
        "Location": "Taman Neocyber",
        "Post_Office": "Cyberjaya",
        "State": "Selangor"
    },
    {
        "Postcode": "63000",
        "Location": "The Domain",
        "Post_Office": "Cyberjaya",
        "State": "Selangor"
    },
    {
        "Postcode": "63000",
        "Location": "Lingkungan Apec",
        "Post_Office": "Cyberjaya",
        "State": "Selangor"
    },
    {
        "Postcode": "63000",
        "Location": "Taman Cyber 6",
        "Post_Office": "Cyberjaya",
        "State": "Selangor"
    },
    {
        "Postcode": "63000",
        "Location": "Kru Studios",
        "Post_Office": "Cyberjaya",
        "State": "Selangor"
    },
    {
        "Postcode": "63000",
        "Location": "Persiaran Cyber Point Selatan",
        "Post_Office": "Cyberjaya",
        "State": "Selangor"
    },
    {
        "Postcode": "63000",
        "Location": "Jalan Cyber Point 5",
        "Post_Office": "Cyberjaya",
        "State": "Selangor"
    },
    {
        "Postcode": "63000",
        "Location": "Jalan Impact",
        "Post_Office": "Cyberjaya",
        "State": "Selangor"
    },
    {
        "Postcode": "63000",
        "Location": "Jalan Kelab",
        "Post_Office": "Cyberjaya",
        "State": "Selangor"
    },
    {
        "Postcode": "63000",
        "Location": "Jalan Sri Tasik Barat",
        "Post_Office": "Cyberjaya",
        "State": "Selangor"
    },
    {
        "Postcode": "63000",
        "Location": "Jalan Sri Tasik Timur",
        "Post_Office": "Cyberjaya",
        "State": "Selangor"
    },
    {
        "Postcode": "63000",
        "Location": "Jalan Teknokrat 2",
        "Post_Office": "Cyberjaya",
        "State": "Selangor"
    },
    {
        "Postcode": "63000",
        "Location": "Jalan Teknokrat 5",
        "Post_Office": "Cyberjaya",
        "State": "Selangor"
    },
    {
        "Postcode": "63000",
        "Location": "Jalan Usahawan 1",
        "Post_Office": "Cyberjaya",
        "State": "Selangor"
    },
    {
        "Postcode": "63000",
        "Location": "Kelab Komuniti Cyberjaya",
        "Post_Office": "Cyberjaya",
        "State": "Selangor"
    },
    {
        "Postcode": "63000",
        "Location": "Lingkaran Cyber Point Barat ",
        "Post_Office": "Cyberjaya",
        "State": "Selangor"
    },
    {
        "Postcode": "63000",
        "Location": "Lingkaran Teknokrat ",
        "Post_Office": "Cyberjaya",
        "State": "Selangor"
    },
    {
        "Postcode": "63000",
        "Location": "Persiaran Apec",
        "Post_Office": "Cyberjaya",
        "State": "Selangor"
    },
    {
        "Postcode": "63000",
        "Location": "Persiaran Semarak Api",
        "Post_Office": "Cyberjaya",
        "State": "Selangor"
    },
    {
        "Postcode": "63000",
        "Location": "Wisma Matrix 1",
        "Post_Office": "Cyberjaya",
        "State": "Selangor"
    },
    {
        "Postcode": "63000",
        "Location": "The Promenade",
        "Post_Office": "Cyberjaya",
        "State": "Selangor"
    },
    {
        "Postcode": "63000",
        "Location": "Cyber Bistari Commercial Centre",
        "Post_Office": "Cyberjaya",
        "State": "Selangor"
    },
    {
        "Postcode": "63000",
        "Location": "Cyber 11",
        "Post_Office": "Cyberjaya",
        "State": "Selangor"
    },
    {
        "Postcode": "63000",
        "Location": "Kanvas Square",
        "Post_Office": "Cyberjaya",
        "State": "Selangor"
    },
    {
        "Postcode": "63000",
        "Location": "Glomac Cyberjaya Business Park",
        "Post_Office": "Cyberjaya",
        "State": "Selangor"
    },
    {
        "Postcode": "63000",
        "Location": "Lake Point Residences",
        "Post_Office": "Cyberjaya",
        "State": "Selangor"
    },
    {
        "Postcode": "63000",
        "Location": "The Arc Residence",
        "Post_Office": "Cyberjaya",
        "State": "Selangor"
    },
    {
        "Postcode": "63000",
        "Location": "Lakefront Villa",
        "Post_Office": "Cyberjaya",
        "State": "Selangor"
    },
    {
        "Postcode": "63000",
        "Location": "Cyber 6",
        "Post_Office": "Cyberjaya",
        "State": "Selangor"
    },
    {
        "Postcode": "63000",
        "Location": "Jalan Teknokrat 2/1",
        "Post_Office": "Cyberjaya",
        "State": "Selangor"
    },
    {
        "Postcode": "63000",
        "Location": "Radius Business Park",
        "Post_Office": "Cyberjaya",
        "State": "Selangor"
    },
    {
        "Postcode": "63000",
        "Location": "Cyber 3",
        "Post_Office": "Cyberjaya",
        "State": "Selangor"
    },
    {
        "Postcode": "63000",
        "Location": "Laman View",
        "Post_Office": "Cyberjaya",
        "State": "Selangor"
    },
    {
        "Postcode": "63000",
        "Location": "Cyber 12",
        "Post_Office": "Cyberjaya",
        "State": "Selangor"
    },
    {
        "Postcode": "63000",
        "Location": "Cyber 7",
        "Post_Office": "Cyberjaya",
        "State": "Selangor"
    },
    {
        "Postcode": "63000",
        "Location": "Cristal Serin Residence",
        "Post_Office": "Cyberjaya",
        "State": "Selangor"
    },
    {
        "Postcode": "63000",
        "Location": "Kenwingston Square Garden",
        "Post_Office": "Cyberjaya",
        "State": "Selangor"
    },
    {
        "Postcode": "63000",
        "Location": "Jalan Aspire 1",
        "Post_Office": "Cyberjaya",
        "State": "Selangor"
    },
    {
        "Postcode": "63000",
        "Location": "Maple Residence",
        "Post_Office": "Cyberjaya",
        "State": "Selangor"
    },
    {
        "Postcode": "63000",
        "Location": "Jalan Teknokrat 1",
        "Post_Office": "Cyberjaya",
        "State": "Selangor"
    },
    {
        "Postcode": "63000",
        "Location": "Jalan Ayu 1/1",
        "Post_Office": "Cyberjaya",
        "State": "Selangor"
    },
    {
        "Postcode": "63000",
        "Location": "Jalan Ayu 3",
        "Post_Office": "Cyberjaya",
        "State": "Selangor"
    },
    {
        "Postcode": "63000",
        "Location": "Cyber 10",
        "Post_Office": "Cyberjaya",
        "State": "Selangor"
    },
    {
        "Postcode": "63000",
        "Location": "Jalan Sp 2",
        "Post_Office": "Cyberjaya",
        "State": "Selangor"
    },
    {
        "Postcode": "63000",
        "Location": "Majlis Perbandaran Sepang",
        "Post_Office": "Cyberjaya",
        "State": "Selangor"
    },
    {
        "Postcode": "63000",
        "Location": "Persiaran Cyber Valley 3",
        "Post_Office": "Cyberjaya",
        "State": "Selangor"
    },
    {
        "Postcode": "63000",
        "Location": "Pusat Perdagangan Westlink 2",
        "Post_Office": "Cyberjaya",
        "State": "Selangor"
    },
    {
        "Postcode": "63000",
        "Location": "Selangor Cyber Valley",
        "Post_Office": "Cyberjaya",
        "State": "Selangor"
    },
    {
        "Postcode": "63000",
        "Location": "Taman Sains Selangor 2",
        "Post_Office": "Cyberjaya",
        "State": "Selangor"
    },
    {
        "Postcode": "63000",
        "Location": "Jalan Sri Tasik Barat (1A - 1E)",
        "Post_Office": "Cyberjaya",
        "State": "Selangor"
    },
    {
        "Postcode": "63000",
        "Location": "Taman Summerglades",
        "Post_Office": "Cyberjaya",
        "State": "Selangor"
    },
    {
        "Postcode": "63000",
        "Location": "Jalan Teknokrat 3",
        "Post_Office": "Cyberjaya",
        "State": "Selangor"
    },
    {
        "Postcode": "63000",
        "Location": "Sejati Residence",
        "Post_Office": "Cyberjaya",
        "State": "Selangor"
    },
    {
        "Postcode": "63000",
        "Location": "Serin Residency",
        "Post_Office": "Cyberjaya",
        "State": "Selangor"
    },
    {
        "Postcode": "63000",
        "Location": "Apartment Laman Sari",
        "Post_Office": "Cyberjaya",
        "State": "Selangor"
    },
    {
        "Postcode": "63000",
        "Location": "Clover Garden Residence",
        "Post_Office": "Cyberjaya",
        "State": "Selangor"
    },
    {
        "Postcode": "63000",
        "Location": "Kondominium Laman Ayu",
        "Post_Office": "Cyberjaya",
        "State": "Selangor"
    },
    {
        "Postcode": "63000",
        "Location": "Kondominium Laman Maya",
        "Post_Office": "Cyberjaya",
        "State": "Selangor"
    },
    {
        "Postcode": "63000",
        "Location": "Persiaran Rimba Permai",
        "Post_Office": "Cyberjaya",
        "State": "Selangor"
    },
    {
        "Postcode": "63000",
        "Location": "Taman Nadayu 99",
        "Post_Office": "Cyberjaya",
        "State": "Selangor"
    },
    {
        "Postcode": "63000",
        "Location": "Persiaran Cyber Point Timur",
        "Post_Office": "Cyberjaya",
        "State": "Selangor"
    },
    {
        "Postcode": "63000",
        "Location": "Taman Glomac Cyberjaya",
        "Post_Office": "Cyberjaya",
        "State": "Selangor"
    },
    {
        "Postcode": "63000",
        "Location": "Jalan Cyber Point 6",
        "Post_Office": "Cyberjaya",
        "State": "Selangor"
    },
    {
        "Postcode": "63000",
        "Location": "Opus Residence",
        "Post_Office": "Cyberjaya",
        "State": "Selangor"
    },
    {
        "Postcode": "63000",
        "Location": "Perdana Lakeview West Park",
        "Post_Office": "Cyberjaya",
        "State": "Selangor"
    },
    {
        "Postcode": "63000",
        "Location": "Persiaran Harmoni",
        "Post_Office": "Cyberjaya",
        "State": "Selangor"
    },
    {
        "Postcode": "63000",
        "Location": "Setia Eco Glades Park",
        "Post_Office": "Cyberjaya",
        "State": "Selangor"
    },
    {
        "Postcode": "63000",
        "Location": "Jalan Teknokrat 7",
        "Post_Office": "Cyberjaya",
        "State": "Selangor"
    },
    {
        "Postcode": "63000",
        "Location": "Perdana Lakeview East Park",
        "Post_Office": "Cyberjaya",
        "State": "Selangor"
    },
    {
        "Postcode": "63000",
        "Location": "Garden Residensi",
        "Post_Office": "Cyberjaya",
        "State": "Selangor"
    },
    {
        "Postcode": "63000",
        "Location": "Mansion Park",
        "Post_Office": "Cyberjaya",
        "State": "Selangor"
    },
    {
        "Postcode": "63000",
        "Location": "Persiaran Bestari",
        "Post_Office": "Cyberjaya",
        "State": "Selangor"
    },
    {
        "Postcode": "63000",
        "Location": "Persiaran Ceria",
        "Post_Office": "Cyberjaya",
        "State": "Selangor"
    },
    {
        "Postcode": "63000",
        "Location": "Lingkaran Cyber Point Timur",
        "Post_Office": "Cyberjaya",
        "State": "Selangor"
    },
    {
        "Postcode": "63000",
        "Location": "Cyber 5",
        "Post_Office": "Cyberjaya",
        "State": "Selangor"
    },
    {
        "Postcode": "63000",
        "Location": "Taman Pinggiran Cyber",
        "Post_Office": "Cyberjaya",
        "State": "Selangor"
    },
    {
        "Postcode": "63000",
        "Location": "Edusphere",
        "Post_Office": "Cyberjaya",
        "State": "Selangor"
    },
    {
        "Postcode": "63000",
        "Location": "University Of Cyberjaya (Uoc)",
        "Post_Office": "Cyberjaya",
        "State": "Selangor"
    },
    {
        "Postcode": "63000",
        "Location": "Persiaran Multimedia",
        "Post_Office": "Cyberjaya",
        "State": "Selangor"
    },
    {
        "Postcode": "63000",
        "Location": "Persiaran Sepang",
        "Post_Office": "Cyberjaya",
        "State": "Selangor"
    },
    {
        "Postcode": "63000",
        "Location": "Cyberjaya City Centre",
        "Post_Office": "Cyberjaya",
        "State": "Selangor"
    },
    {
        "Postcode": "63000",
        "Location": "Cyber 9",
        "Post_Office": "Cyberjaya",
        "State": "Selangor"
    },
    {
        "Postcode": "63000",
        "Location": "Cyber 4",
        "Post_Office": "Cyberjaya",
        "State": "Selangor"
    },
    {
        "Postcode": "63000",
        "Location": "Jalan Mulia 1",
        "Post_Office": "Cyberjaya",
        "State": "Selangor"
    },
    {
        "Postcode": "63000",
        "Location": "The Mulia Residences",
        "Post_Office": "Cyberjaya",
        "State": "Selangor"
    },
    {
        "Postcode": "63000",
        "Location": "Cyber 8",
        "Post_Office": "Cyberjaya",
        "State": "Selangor"
    },
    {
        "Postcode": "63000",
        "Location": "University Of Cyberjaya (UOC)",
        "Post_Office": "Cyberjaya",
        "State": "Selangor"
    }
]
