[
    {
        "Postcode": "85100",
        "Location": "Kampung Kenangan",
        "Post_Office": "Batu Anam",
        "State": "Johor"
    },
    {
        "Postcode": "85100",
        "Location": "Taman Permai",
        "Post_Office": "Batu Anam",
        "State": "Johor"
    },
    {
        "Postcode": "85100",
        "Location": "Taman Ksm",
        "Post_Office": "Batu Anam",
        "State": "Johor"
    },
    {
        "Postcode": "85100",
        "Location": "Batu Anam",
        "Post_Office": "Batu Anam",
        "State": "Johor"
    },
    {
        "Postcode": "85100",
        "Location": "Felcra Benang Air",
        "Post_Office": "Batu Anam",
        "State": "Johor"
    },
    {
        "Postcode": "85100",
        "Location": "Felda Gugusan Palong Timur",
        "Post_Office": "Batu Anam",
        "State": "Johor"
    },
    {
        "Postcode": "85100",
        "Location": "Felda Palong Timur",
        "Post_Office": "Batu Anam",
        "State": "Johor"
    },
    {
        "Postcode": "85100",
        "Location": "Felda Palong Timur 2",
        "Post_Office": "Batu Anam",
        "State": "Johor"
    },
    {
        "Postcode": "85100",
        "Location": "Felda Palong Timur 3",
        "Post_Office": "Batu Anam",
        "State": "Johor"
    },
    {
        "Postcode": "85100",
        "Location": "Gugusan Palong Timur",
        "Post_Office": "Batu Anam",
        "State": "Johor"
    },
    {
        "Postcode": "85100",
        "Location": "Hmpb Latex",
        "Post_Office": "Batu Anam",
        "State": "Johor"
    },
    {
        "Postcode": "85100",
        "Location": "Kampung Amat",
        "Post_Office": "Batu Anam",
        "State": "Johor"
    },
    {
        "Postcode": "85100",
        "Location": "Kampung Awat",
        "Post_Office": "Batu Anam",
        "State": "Johor"
    },
    {
        "Postcode": "85100",
        "Location": "Kampung Balai Badang",
        "Post_Office": "Batu Anam",
        "State": "Johor"
    },
    {
        "Postcode": "85100",
        "Location": "Kampung Bangkong",
        "Post_Office": "Batu Anam",
        "State": "Johor"
    },
    {
        "Postcode": "85100",
        "Location": "Kampung Baru Amat",
        "Post_Office": "Batu Anam",
        "State": "Johor"
    },
    {
        "Postcode": "85100",
        "Location": "Kampung Baru Awat",
        "Post_Office": "Batu Anam",
        "State": "Johor"
    },
    {
        "Postcode": "85100",
        "Location": "Kampung Baru Batu Anam",
        "Post_Office": "Batu Anam",
        "State": "Johor"
    },
    {
        "Postcode": "85100",
        "Location": "Kampung Baru Tambang",
        "Post_Office": "Batu Anam",
        "State": "Johor"
    },
    {
        "Postcode": "85100",
        "Location": "Kampung Lubok Lanjut",
        "Post_Office": "Batu Anam",
        "State": "Johor"
    },
    {
        "Postcode": "85100",
        "Location": "Kampung Lubuk Kepong",
        "Post_Office": "Batu Anam",
        "State": "Johor"
    },
    {
        "Postcode": "85100",
        "Location": "Kampung Marigi",
        "Post_Office": "Batu Anam",
        "State": "Johor"
    },
    {
        "Postcode": "85100",
        "Location": "Kampung Mengkudut",
        "Post_Office": "Batu Anam",
        "State": "Johor"
    },
    {
        "Postcode": "85100",
        "Location": "Kampung Mensudut Lama",
        "Post_Office": "Batu Anam",
        "State": "Johor"
    },
    {
        "Postcode": "85100",
        "Location": "Kampung Mensudut Pindah",
        "Post_Office": "Batu Anam",
        "State": "Johor"
    },
    {
        "Postcode": "85100",
        "Location": "Kampung Padang Kiambang",
        "Post_Office": "Batu Anam",
        "State": "Johor"
    },
    {
        "Postcode": "85100",
        "Location": "Kampung Pana Terap",
        "Post_Office": "Batu Anam",
        "State": "Johor"
    },
    {
        "Postcode": "85100",
        "Location": "Kampung Paya Lang Dua",
        "Post_Office": "Batu Anam",
        "State": "Johor"
    },
    {
        "Postcode": "85100",
        "Location": "Kampung Paya Lang Satu",
        "Post_Office": "Batu Anam",
        "State": "Johor"
    },
    {
        "Postcode": "85100",
        "Location": "Kampung Paya Lang Tiga",
        "Post_Office": "Batu Anam",
        "State": "Johor"
    },
    {
        "Postcode": "85100",
        "Location": "Kampung Paya Luas",
        "Post_Office": "Batu Anam",
        "State": "Johor"
    },
    {
        "Postcode": "85100",
        "Location": "Kampung Penawing",
        "Post_Office": "Batu Anam",
        "State": "Johor"
    },
    {
        "Postcode": "85100",
        "Location": "Kampung Pudu",
        "Post_Office": "Batu Anam",
        "State": "Johor"
    },
    {
        "Postcode": "85100",
        "Location": "Kampung Puting",
        "Post_Office": "Batu Anam",
        "State": "Johor"
    },
    {
        "Postcode": "85100",
        "Location": "Kampung Rokam",
        "Post_Office": "Batu Anam",
        "State": "Johor"
    },
    {
        "Postcode": "85100",
        "Location": "Kampung Sepang Loi",
        "Post_Office": "Batu Anam",
        "State": "Johor"
    },
    {
        "Postcode": "85100",
        "Location": "Kampung Seri Rawa",
        "Post_Office": "Batu Anam",
        "State": "Johor"
    },
    {
        "Postcode": "85100",
        "Location": "Kampung Tambang",
        "Post_Office": "Batu Anam",
        "State": "Johor"
    },
    {
        "Postcode": "85100",
        "Location": "Ladang Ayer Molek",
        "Post_Office": "Batu Anam",
        "State": "Johor"
    },
    {
        "Postcode": "85100",
        "Location": "Ladang Bahagian Tambang",
        "Post_Office": "Batu Anam",
        "State": "Johor"
    },
    {
        "Postcode": "85100",
        "Location": "Ladang Gomali",
        "Post_Office": "Batu Anam",
        "State": "Johor"
    },
    {
        "Postcode": "85100",
        "Location": "Ladang Hup Soon",
        "Post_Office": "Batu Anam",
        "State": "Johor"
    },
    {
        "Postcode": "85100",
        "Location": "Ladang Paya Lang",
        "Post_Office": "Batu Anam",
        "State": "Johor"
    },
    {
        "Postcode": "85100",
        "Location": "Ladang Sungai Senarut",
        "Post_Office": "Batu Anam",
        "State": "Johor"
    },
    {
        "Postcode": "85100",
        "Location": "Ladang Umre",
        "Post_Office": "Batu Anam",
        "State": "Johor"
    },
    {
        "Postcode": "85100",
        "Location": "Perumahan India",
        "Post_Office": "Batu Anam",
        "State": "Johor"
    },
    {
        "Postcode": "85100",
        "Location": "Perumahan Melayu",
        "Post_Office": "Batu Anam",
        "State": "Johor"
    },
    {
        "Postcode": "85100",
        "Location": "Sepang Loi",
        "Post_Office": "Batu Anam",
        "State": "Johor"
    },
    {
        "Postcode": "85100",
        "Location": "Taman Desa India",
        "Post_Office": "Batu Anam",
        "State": "Johor"
    },
    {
        "Postcode": "85100",
        "Location": "Taman Mina",
        "Post_Office": "Batu Anam",
        "State": "Johor"
    },
    {
        "Postcode": "85100",
        "Location": "Taman Sri Alam",
        "Post_Office": "Batu Anam",
        "State": "Johor"
    },
    {
        "Postcode": "85100",
        "Location": "Taman Sri Alam 2",
        "Post_Office": "Batu Anam",
        "State": "Johor"
    },
    {
        "Postcode": "85100",
        "Location": "Taman Sri Emas Jaya",
        "Post_Office": "Batu Anam",
        "State": "Johor"
    },
    {
        "Postcode": "85100",
        "Location": "Taman Sri Kenangan",
        "Post_Office": "Batu Anam",
        "State": "Johor"
    },
    {
        "Postcode": "85100",
        "Location": "Estate Tambang Batu 4",
        "Post_Office": "Batu Anam",
        "State": "Johor"
    },
    {
        "Postcode": "85100",
        "Location": "Estate Tambang Bt 4",
        "Post_Office": "Batu Anam",
        "State": "Johor"
    },
    {
        "Postcode": "85100",
        "Location": "Felda Palong Timur 1",
        "Post_Office": "Batu Anam",
        "State": "Johor"
    },
    {
        "Postcode": "85100",
        "Location": "Felda Palong Timur 4 Dan 5",
        "Post_Office": "Batu Anam",
        "State": "Johor"
    },
    {
        "Postcode": "85100",
        "Location": "Felda Palong Timur 6",
        "Post_Office": "Batu Anam",
        "State": "Johor"
    },
    {
        "Postcode": "85100",
        "Location": "Felda Palong Timur 7",
        "Post_Office": "Batu Anam",
        "State": "Johor"
    },
    {
        "Postcode": "85100",
        "Location": "Kampung Baru Batu 6",
        "Post_Office": "Batu Anam",
        "State": "Johor"
    },
    {
        "Postcode": "85100",
        "Location": "Kampung Lubok Kepong",
        "Post_Office": "Batu Anam",
        "State": "Johor"
    },
    {
        "Postcode": "85100",
        "Location": "Kampung Merigi",
        "Post_Office": "Batu Anam",
        "State": "Johor"
    },
    {
        "Postcode": "85100",
        "Location": "Kampung Paya Lang 1",
        "Post_Office": "Batu Anam",
        "State": "Johor"
    },
    {
        "Postcode": "85100",
        "Location": "Kampung Paya Lang 2",
        "Post_Office": "Batu Anam",
        "State": "Johor"
    },
    {
        "Postcode": "85100",
        "Location": "Kampung Tambang Batu 7",
        "Post_Office": "Batu Anam",
        "State": "Johor"
    },
    {
        "Postcode": "85100",
        "Location": "Kilang Sawit Palong Timur",
        "Post_Office": "Batu Anam",
        "State": "Johor"
    },
    {
        "Postcode": "85100",
        "Location": "Pekan Batu Anam",
        "Post_Office": "Batu Anam",
        "State": "Johor"
    },
    {
        "Postcode": "85100",
        "Location": "Rumah Rakyat",
        "Post_Office": "Batu Anam",
        "State": "Johor"
    },
    {
        "Postcode": "85100",
        "Location": "Kampung Batu 10",
        "Post_Office": "Batu Anam",
        "State": "Johor"
    },
    {
        "Postcode": "85100",
        "Location": "Perumahan Rakyat",
        "Post_Office": "Batu Anam",
        "State": "Johor"
    },
    {
        "Postcode": "85100",
        "Location": "Kampung Baru Cina",
        "Post_Office": "Batu Anam",
        "State": "Johor"
    },
    {
        "Postcode": "85100",
        "Location": "Kampung Jawa",
        "Post_Office": "Batu Anam",
        "State": "Johor"
    },
    {
        "Postcode": "85100",
        "Location": "Kampung Paya Lebar",
        "Post_Office": "Batu Anam",
        "State": "Johor"
    },
    {
        "Postcode": "85100",
        "Location": "Taman Damai",
        "Post_Office": "Batu Anam",
        "State": "Johor"
    },
    {
        "Postcode": "85100",
        "Location": "Taman Koperasi",
        "Post_Office": "Batu Anam",
        "State": "Johor"
    },
    {
        "Postcode": "85100",
        "Location": "Taman Sejati",
        "Post_Office": "Batu Anam",
        "State": "Johor"
    },
    {
        "Postcode": "85100",
        "Location": "Taman Bintang",
        "Post_Office": "Batu Anam",
        "State": "Johor"
    }
]
