[
    {
        "Postcode": "85200",
        "Location": "Taman Emas",
        "Post_Office": "Jementah",
        "State": "Johor"
    },
    {
        "Postcode": "85200",
        "Location": "Taman Puteri",
        "Post_Office": "Jementah",
        "State": "Johor"
    },
    {
        "Postcode": "85200",
        "Location": "Kampung Kenangan",
        "Post_Office": "Jementah",
        "State": "Johor"
    },
    {
        "Postcode": "85200",
        "Location": "Kampung Sawah",
        "Post_Office": "Jementah",
        "State": "Johor"
    },
    {
        "Postcode": "85200",
        "Location": "Taman Kota",
        "Post_Office": "Jementah",
        "State": "Johor"
    },
    {
        "Postcode": "85200",
        "Location": "Taman Saujana",
        "Post_Office": "Jementah",
        "State": "Johor"
    },
    {
        "Postcode": "85200",
        "Location": "Taman Ksm",
        "Post_Office": "Jementah",
        "State": "Johor"
    },
    {
        "Postcode": "85200",
        "Location": "Taman Rakyat",
        "Post_Office": "Jementah",
        "State": "Johor"
    },
    {
        "Postcode": "85200",
        "Location": "Taman Sri Damai",
        "Post_Office": "Jementah",
        "State": "Johor"
    },
    {
        "Postcode": "85200",
        "Location": "Taman Sri Mewah",
        "Post_Office": "Jementah",
        "State": "Johor"
    },
    {
        "Postcode": "85200",
        "Location": "Bukit Serampang",
        "Post_Office": "Jementah",
        "State": "Johor"
    },
    {
        "Postcode": "85200",
        "Location": "Felcra Kebun Baru",
        "Post_Office": "Jementah",
        "State": "Johor"
    },
    {
        "Postcode": "85200",
        "Location": "Felda Sri Jaya",
        "Post_Office": "Jementah",
        "State": "Johor"
    },
    {
        "Postcode": "85200",
        "Location": "Felda Sri Ledang",
        "Post_Office": "Jementah",
        "State": "Johor"
    },
    {
        "Postcode": "85200",
        "Location": "Jalan Kubur Cina",
        "Post_Office": "Jementah",
        "State": "Johor"
    },
    {
        "Postcode": "85200",
        "Location": "Jementah",
        "Post_Office": "Jementah",
        "State": "Johor"
    },
    {
        "Postcode": "85200",
        "Location": "Kampung Ah Tong",
        "Post_Office": "Jementah",
        "State": "Johor"
    },
    {
        "Postcode": "85200",
        "Location": "Kampung Baru Kebun Baru",
        "Post_Office": "Jementah",
        "State": "Johor"
    },
    {
        "Postcode": "85200",
        "Location": "Kampung Batu 11",
        "Post_Office": "Jementah",
        "State": "Johor"
    },
    {
        "Postcode": "85200",
        "Location": "Kampung Batu Dua Belas",
        "Post_Office": "Jementah",
        "State": "Johor"
    },
    {
        "Postcode": "85200",
        "Location": "Kampung Batu Sepuluh",
        "Post_Office": "Jementah",
        "State": "Johor"
    },
    {
        "Postcode": "85200",
        "Location": "Kampung Batu Tiga Belas",
        "Post_Office": "Jementah",
        "State": "Johor"
    },
    {
        "Postcode": "85200",
        "Location": "Kampung Bukit Keledang",
        "Post_Office": "Jementah",
        "State": "Johor"
    },
    {
        "Postcode": "85200",
        "Location": "Kampung Bukit Tunggal",
        "Post_Office": "Jementah",
        "State": "Johor"
    },
    {
        "Postcode": "85200",
        "Location": "Kampung Dato Samsu",
        "Post_Office": "Jementah",
        "State": "Johor"
    },
    {
        "Postcode": "85200",
        "Location": "Kampung Gemeh",
        "Post_Office": "Jementah",
        "State": "Johor"
    },
    {
        "Postcode": "85200",
        "Location": "Kampung Krisnan",
        "Post_Office": "Jementah",
        "State": "Johor"
    },
    {
        "Postcode": "85200",
        "Location": "Kampung Kubu Dedap",
        "Post_Office": "Jementah",
        "State": "Johor"
    },
    {
        "Postcode": "85200",
        "Location": "Kampung Lubuk Bandan",
        "Post_Office": "Jementah",
        "State": "Johor"
    },
    {
        "Postcode": "85200",
        "Location": "Kampung Paya Jakas",
        "Post_Office": "Jementah",
        "State": "Johor"
    },
    {
        "Postcode": "85200",
        "Location": "Kampung Permatang Panjang",
        "Post_Office": "Jementah",
        "State": "Johor"
    },
    {
        "Postcode": "85200",
        "Location": "Kampung Pulai Jering",
        "Post_Office": "Jementah",
        "State": "Johor"
    },
    {
        "Postcode": "85200",
        "Location": "Kampung Sawah Kebun Baru",
        "Post_Office": "Jementah",
        "State": "Johor"
    },
    {
        "Postcode": "85200",
        "Location": "Kampung Sengkang Legeh",
        "Post_Office": "Jementah",
        "State": "Johor"
    },
    {
        "Postcode": "85200",
        "Location": "Kampung Sungai Siput",
        "Post_Office": "Jementah",
        "State": "Johor"
    },
    {
        "Postcode": "85200",
        "Location": "Kampung Tendang",
        "Post_Office": "Jementah",
        "State": "Johor"
    },
    {
        "Postcode": "85200",
        "Location": "Kampung Tenong",
        "Post_Office": "Jementah",
        "State": "Johor"
    },
    {
        "Postcode": "85200",
        "Location": "Kampung Teratai",
        "Post_Office": "Jementah",
        "State": "Johor"
    },
    {
        "Postcode": "85200",
        "Location": "Kampung Ulu Jementah",
        "Post_Office": "Jementah",
        "State": "Johor"
    },
    {
        "Postcode": "85200",
        "Location": "Kebun Baru",
        "Post_Office": "Jementah",
        "State": "Johor"
    },
    {
        "Postcode": "85200",
        "Location": "Ladang Gim Aik",
        "Post_Office": "Jementah",
        "State": "Johor"
    },
    {
        "Postcode": "85200",
        "Location": "Ladang Welch",
        "Post_Office": "Jementah",
        "State": "Johor"
    },
    {
        "Postcode": "85200",
        "Location": "Paya Jakas",
        "Post_Office": "Jementah",
        "State": "Johor"
    },
    {
        "Postcode": "85200",
        "Location": "Rkt Sri Ledang",
        "Post_Office": "Jementah",
        "State": "Johor"
    },
    {
        "Postcode": "85200",
        "Location": "Taman Dedap",
        "Post_Office": "Jementah",
        "State": "Johor"
    },
    {
        "Postcode": "85200",
        "Location": "Taman Guan Choon",
        "Post_Office": "Jementah",
        "State": "Johor"
    },
    {
        "Postcode": "85200",
        "Location": "Taman Jementah",
        "Post_Office": "Jementah",
        "State": "Johor"
    },
    {
        "Postcode": "85200",
        "Location": "Taman Jementah Baharu",
        "Post_Office": "Jementah",
        "State": "Johor"
    },
    {
        "Postcode": "85200",
        "Location": "Taman Jementah Jaya",
        "Post_Office": "Jementah",
        "State": "Johor"
    },
    {
        "Postcode": "85200",
        "Location": "Taman Permatang Jaya",
        "Post_Office": "Jementah",
        "State": "Johor"
    },
    {
        "Postcode": "85200",
        "Location": "Taman Sengkang Jaya",
        "Post_Office": "Jementah",
        "State": "Johor"
    },
    {
        "Postcode": "85200",
        "Location": "Taman Seri Jementah",
        "Post_Office": "Jementah",
        "State": "Johor"
    },
    {
        "Postcode": "85200",
        "Location": "Taman Sri",
        "Post_Office": "Jementah",
        "State": "Johor"
    },
    {
        "Postcode": "85200",
        "Location": "Taman Sri Ganang",
        "Post_Office": "Jementah",
        "State": "Johor"
    },
    {
        "Postcode": "85200",
        "Location": "Taman Sri Jementah",
        "Post_Office": "Jementah",
        "State": "Johor"
    },
    {
        "Postcode": "85200",
        "Location": "Taman Sri Jementah Baru",
        "Post_Office": "Jementah",
        "State": "Johor"
    },
    {
        "Postcode": "85200",
        "Location": "Taman Molek Jaya",
        "Post_Office": "Jementah",
        "State": "Johor"
    },
    {
        "Postcode": "85200",
        "Location": "Kampung Ah Tong Baru",
        "Post_Office": "Jementah",
        "State": "Johor"
    },
    {
        "Postcode": "85200",
        "Location": "Kampung Bukit Kledang",
        "Post_Office": "Jementah",
        "State": "Johor"
    },
    {
        "Postcode": "85200",
        "Location": "Kampung Lubok Bandan Batu 10",
        "Post_Office": "Jementah",
        "State": "Johor"
    },
    {
        "Postcode": "85200",
        "Location": "Kampung Sengkong Legeh",
        "Post_Office": "Jementah",
        "State": "Johor"
    },
    {
        "Postcode": "85200",
        "Location": "Taman Sri Permatang",
        "Post_Office": "Jementah",
        "State": "Johor"
    },
    {
        "Postcode": "85200",
        "Location": "Taman Ledang",
        "Post_Office": "Jementah",
        "State": "Johor"
    },
    {
        "Postcode": "85200",
        "Location": "Taman Melodies",
        "Post_Office": "Jementah",
        "State": "Johor"
    },
    {
        "Postcode": "85200",
        "Location": "Taman Suraya",
        "Post_Office": "Jementah",
        "State": "Johor"
    },
    {
        "Postcode": "85200",
        "Location": "Kampung Baru",
        "Post_Office": "Jementah",
        "State": "Johor"
    },
    {
        "Postcode": "85200",
        "Location": "Kampung Gelugor",
        "Post_Office": "Jementah",
        "State": "Johor"
    },
    {
        "Postcode": "85200",
        "Location": "Taman Harmoni",
        "Post_Office": "Jementah",
        "State": "Johor"
    },
    {
        "Postcode": "85200",
        "Location": "Taman Intan",
        "Post_Office": "Jementah",
        "State": "Johor"
    },
    {
        "Postcode": "85200",
        "Location": "Taman Jaya",
        "Post_Office": "Jementah",
        "State": "Johor"
    },
    {
        "Postcode": "85200",
        "Location": "Taman Molek",
        "Post_Office": "Jementah",
        "State": "Johor"
    },
    {
        "Postcode": "85200",
        "Location": "Taman Pelangi",
        "Post_Office": "Jementah",
        "State": "Johor"
    },
    {
        "Postcode": "85200",
        "Location": "Taman Perpaduan",
        "Post_Office": "Jementah",
        "State": "Johor"
    },
    {
        "Postcode": "85200",
        "Location": "Taman Ria",
        "Post_Office": "Jementah",
        "State": "Johor"
    },
    {
        "Postcode": "85200",
        "Location": "Taman Sejati",
        "Post_Office": "Jementah",
        "State": "Johor"
    },
    {
        "Postcode": "85200",
        "Location": "Taman Cempaka",
        "Post_Office": "Jementah",
        "State": "Johor"
    },
    {
        "Postcode": "85200",
        "Location": "Taman Teratai",
        "Post_Office": "Jementah",
        "State": "Johor"
    }
]
