[
    {
        "Postcode": "85300",
        "Location": "Taman Berjaya",
        "Post_Office": "Labis",
        "State": "Johor"
    },
    {
        "Postcode": "85300",
        "Location": "Taman Sri Indah",
        "Post_Office": "Labis",
        "State": "Johor"
    },
    {
        "Postcode": "85300",
        "Location": "Taman Maju Jaya",
        "Post_Office": "Labis",
        "State": "Johor"
    },
    {
        "Postcode": "85300",
        "Location": "Taman Sri Bayu",
        "Post_Office": "Labis",
        "State": "Johor"
    },
    {
        "Postcode": "85300",
        "Location": "Taman Wijaya",
        "Post_Office": "Labis",
        "State": "Johor"
    },
    {
        "Postcode": "85300",
        "Location": "Kampung Tenang",
        "Post_Office": "Labis",
        "State": "Johor"
    },
    {
        "Postcode": "85300",
        "Location": "Taman Lagenda",
        "Post_Office": "Labis",
        "State": "Johor"
    },
    {
        "Postcode": "85300",
        "Location": "Taman Perwira",
        "Post_Office": "Labis",
        "State": "Johor"
    },
    {
        "Postcode": "85300",
        "Location": "Taman Berjaya 2",
        "Post_Office": "Labis",
        "State": "Johor"
    },
    {
        "Postcode": "85300",
        "Location": "Ayer Panas",
        "Post_Office": "Labis",
        "State": "Johor"
    },
    {
        "Postcode": "85300",
        "Location": "Bangunan Mara",
        "Post_Office": "Labis",
        "State": "Johor"
    },
    {
        "Postcode": "85300",
        "Location": "Bukit Mambai",
        "Post_Office": "Labis",
        "State": "Johor"
    },
    {
        "Postcode": "85300",
        "Location": "Felcra Bukit Kepong",
        "Post_Office": "Labis",
        "State": "Johor"
    },
    {
        "Postcode": "85300",
        "Location": "Felcra Paya Kepar",
        "Post_Office": "Labis",
        "State": "Johor"
    },
    {
        "Postcode": "85300",
        "Location": "Felcra Peta Tamalik",
        "Post_Office": "Labis",
        "State": "Johor"
    },
    {
        "Postcode": "85300",
        "Location": "Felda Chemplak",
        "Post_Office": "Labis",
        "State": "Johor"
    },
    {
        "Postcode": "85300",
        "Location": "Felda Chemplak Barat",
        "Post_Office": "Labis",
        "State": "Johor"
    },
    {
        "Postcode": "85300",
        "Location": "Felda Moakil",
        "Post_Office": "Labis",
        "State": "Johor"
    },
    {
        "Postcode": "85300",
        "Location": "Felda Moakil 1",
        "Post_Office": "Labis",
        "State": "Johor"
    },
    {
        "Postcode": "85300",
        "Location": "Felda Moakil 2",
        "Post_Office": "Labis",
        "State": "Johor"
    },
    {
        "Postcode": "85300",
        "Location": "Felda Moakil 3",
        "Post_Office": "Labis",
        "State": "Johor"
    },
    {
        "Postcode": "85300",
        "Location": "Felda Moakil 4",
        "Post_Office": "Labis",
        "State": "Johor"
    },
    {
        "Postcode": "85300",
        "Location": "Felda Tenang",
        "Post_Office": "Labis",
        "State": "Johor"
    },
    {
        "Postcode": "85300",
        "Location": "Kampung Cina Pekan Air Panas",
        "Post_Office": "Labis",
        "State": "Johor"
    },
    {
        "Postcode": "85300",
        "Location": "Kampung Jauseh",
        "Post_Office": "Labis",
        "State": "Johor"
    },
    {
        "Postcode": "85300",
        "Location": "Kampung Paya Merah",
        "Post_Office": "Labis",
        "State": "Johor"
    },
    {
        "Postcode": "85300",
        "Location": "Kampung Paya Merah Lama",
        "Post_Office": "Labis",
        "State": "Johor"
    },
    {
        "Postcode": "85300",
        "Location": "Kampung Sawah Baru",
        "Post_Office": "Labis",
        "State": "Johor"
    },
    {
        "Postcode": "85300",
        "Location": "Kampung Sri Tuah",
        "Post_Office": "Labis",
        "State": "Johor"
    },
    {
        "Postcode": "85300",
        "Location": "Kampung Sungai Gatum",
        "Post_Office": "Labis",
        "State": "Johor"
    },
    {
        "Postcode": "85300",
        "Location": "Labis",
        "Post_Office": "Labis",
        "State": "Johor"
    },
    {
        "Postcode": "85300",
        "Location": "Ladang North Labis",
        "Post_Office": "Labis",
        "State": "Johor"
    },
    {
        "Postcode": "85300",
        "Location": "Ladang Sungai Labis",
        "Post_Office": "Labis",
        "State": "Johor"
    },
    {
        "Postcode": "85300",
        "Location": "Perumahan Awam",
        "Post_Office": "Labis",
        "State": "Johor"
    },
    {
        "Postcode": "85300",
        "Location": "Rancangan Tanah Beliawanis",
        "Post_Office": "Labis",
        "State": "Johor"
    },
    {
        "Postcode": "85300",
        "Location": "Sungai Karas",
        "Post_Office": "Labis",
        "State": "Johor"
    },
    {
        "Postcode": "85300",
        "Location": "Taman Ah Pang",
        "Post_Office": "Labis",
        "State": "Johor"
    },
    {
        "Postcode": "85300",
        "Location": "Taman Asia Timor",
        "Post_Office": "Labis",
        "State": "Johor"
    },
    {
        "Postcode": "85300",
        "Location": "Taman Bandar Jaya",
        "Post_Office": "Labis",
        "State": "Johor"
    },
    {
        "Postcode": "85300",
        "Location": "Taman Bintang Jaya",
        "Post_Office": "Labis",
        "State": "Johor"
    },
    {
        "Postcode": "85300",
        "Location": "Taman East Asia",
        "Post_Office": "Labis",
        "State": "Johor"
    },
    {
        "Postcode": "85300",
        "Location": "Taman Eng Peng",
        "Post_Office": "Labis",
        "State": "Johor"
    },
    {
        "Postcode": "85300",
        "Location": "Taman Labis",
        "Post_Office": "Labis",
        "State": "Johor"
    },
    {
        "Postcode": "85300",
        "Location": "Taman Labis Indah",
        "Post_Office": "Labis",
        "State": "Johor"
    },
    {
        "Postcode": "85300",
        "Location": "Taman Labis Jaya",
        "Post_Office": "Labis",
        "State": "Johor"
    },
    {
        "Postcode": "85300",
        "Location": "Taman Mewah Sungai Karas",
        "Post_Office": "Labis",
        "State": "Johor"
    },
    {
        "Postcode": "85300",
        "Location": "Taman Orkid Baru",
        "Post_Office": "Labis",
        "State": "Johor"
    },
    {
        "Postcode": "85300",
        "Location": "Taman Pasar",
        "Post_Office": "Labis",
        "State": "Johor"
    },
    {
        "Postcode": "85300",
        "Location": "Taman Perindustrian Labis",
        "Post_Office": "Labis",
        "State": "Johor"
    },
    {
        "Postcode": "85300",
        "Location": "Taman Seri Belian",
        "Post_Office": "Labis",
        "State": "Johor"
    },
    {
        "Postcode": "85300",
        "Location": "Taman Seri Kaya",
        "Post_Office": "Labis",
        "State": "Johor"
    },
    {
        "Postcode": "85300",
        "Location": "Taman Sinar Emas",
        "Post_Office": "Labis",
        "State": "Johor"
    },
    {
        "Postcode": "85300",
        "Location": "Taman Siong Lian",
        "Post_Office": "Labis",
        "State": "Johor"
    },
    {
        "Postcode": "85300",
        "Location": "Taman Soon Cheong",
        "Post_Office": "Labis",
        "State": "Johor"
    },
    {
        "Postcode": "85300",
        "Location": "Taman Sri Tenang",
        "Post_Office": "Labis",
        "State": "Johor"
    },
    {
        "Postcode": "85300",
        "Location": "Taman Sri Tenang Jaya",
        "Post_Office": "Labis",
        "State": "Johor"
    },
    {
        "Postcode": "85300",
        "Location": "Taman Wijaya Labis",
        "Post_Office": "Labis",
        "State": "Johor"
    },
    {
        "Postcode": "85300",
        "Location": "Taman Wira 2",
        "Post_Office": "Labis",
        "State": "Johor"
    },
    {
        "Postcode": "85300",
        "Location": "Kampung Asli Juaseh",
        "Post_Office": "Labis",
        "State": "Johor"
    },
    {
        "Postcode": "85300",
        "Location": "Kampung Cina New  Village",
        "Post_Office": "Labis",
        "State": "Johor"
    },
    {
        "Postcode": "85300",
        "Location": "Kampung Cina New Village",
        "Post_Office": "Labis",
        "State": "Johor"
    },
    {
        "Postcode": "85300",
        "Location": "Kampung Juaseh Air Panas",
        "Post_Office": "Labis",
        "State": "Johor"
    },
    {
        "Postcode": "85300",
        "Location": "Kampung Sawah Padi",
        "Post_Office": "Labis",
        "State": "Johor"
    },
    {
        "Postcode": "85300",
        "Location": "Kampung Sungai Gatom",
        "Post_Office": "Labis",
        "State": "Johor"
    },
    {
        "Postcode": "85300",
        "Location": "Kampung Sungai Karas",
        "Post_Office": "Labis",
        "State": "Johor"
    },
    {
        "Postcode": "85300",
        "Location": "Kawasan Kilang Sawit Felda",
        "Post_Office": "Labis",
        "State": "Johor"
    },
    {
        "Postcode": "85300",
        "Location": "Kota Kecil",
        "Post_Office": "Labis",
        "State": "Johor"
    },
    {
        "Postcode": "85300",
        "Location": "Pekan Air Panas",
        "Post_Office": "Labis",
        "State": "Johor"
    },
    {
        "Postcode": "85300",
        "Location": "Taman Asia Timur",
        "Post_Office": "Labis",
        "State": "Johor"
    },
    {
        "Postcode": "85300",
        "Location": "Taman Okid Baru",
        "Post_Office": "Labis",
        "State": "Johor"
    },
    {
        "Postcode": "85300",
        "Location": "Taman Perling 2",
        "Post_Office": "Labis",
        "State": "Johor"
    },
    {
        "Postcode": "85300",
        "Location": "Taman Segar Tenang",
        "Post_Office": "Labis",
        "State": "Johor"
    },
    {
        "Postcode": "85300",
        "Location": "Taman Tenang Jaya",
        "Post_Office": "Labis",
        "State": "Johor"
    },
    {
        "Postcode": "85300",
        "Location": "Kampung Usaha Jaya",
        "Post_Office": "Labis",
        "State": "Johor"
    },
    {
        "Postcode": "85300",
        "Location": "Taman Daya",
        "Post_Office": "Labis",
        "State": "Johor"
    },
    {
        "Postcode": "85300",
        "Location": "Taman Seri Jaya",
        "Post_Office": "Labis",
        "State": "Johor"
    },
    {
        "Postcode": "85300",
        "Location": "Taman Wawasan 2",
        "Post_Office": "Labis",
        "State": "Johor"
    },
    {
        "Postcode": "85300",
        "Location": "Kampung Cina",
        "Post_Office": "Labis",
        "State": "Johor"
    },
    {
        "Postcode": "85300",
        "Location": "Taman Indah",
        "Post_Office": "Labis",
        "State": "Johor"
    },
    {
        "Postcode": "85300",
        "Location": "Taman Intan",
        "Post_Office": "Labis",
        "State": "Johor"
    },
    {
        "Postcode": "85300",
        "Location": "Taman Mewah",
        "Post_Office": "Labis",
        "State": "Johor"
    },
    {
        "Postcode": "85300",
        "Location": "Taman Pelangi",
        "Post_Office": "Labis",
        "State": "Johor"
    },
    {
        "Postcode": "85300",
        "Location": "Taman Perling",
        "Post_Office": "Labis",
        "State": "Johor"
    },
    {
        "Postcode": "85300",
        "Location": "Taman Ria",
        "Post_Office": "Labis",
        "State": "Johor"
    },
    {
        "Postcode": "85300",
        "Location": "Taman Sejati",
        "Post_Office": "Labis",
        "State": "Johor"
    },
    {
        "Postcode": "85300",
        "Location": "Taman Soon Chong",
        "Post_Office": "Labis",
        "State": "Johor"
    },
    {
        "Postcode": "85300",
        "Location": "Taman Sri Emas",
        "Post_Office": "Labis",
        "State": "Johor"
    },
    {
        "Postcode": "85300",
        "Location": "Taman Gunung Emas",
        "Post_Office": "Labis",
        "State": "Johor"
    },
    {
        "Postcode": "85300",
        "Location": "Taman Sentosa",
        "Post_Office": "Labis",
        "State": "Johor"
    },
    {
        "Postcode": "85300",
        "Location": "Taman Suria",
        "Post_Office": "Labis",
        "State": "Johor"
    },
    {
        "Postcode": "85300",
        "Location": "Taman Wawasan",
        "Post_Office": "Labis",
        "State": "Johor"
    },
    {
        "Postcode": "85300",
        "Location": "Taman Wira",
        "Post_Office": "Labis",
        "State": "Johor"
    }
]
