[
    {
        "Postcode": "85400",
        "Location": "Taman Permata",
        "Post_Office": "Chaah",
        "State": "Johor"
    },
    {
        "Postcode": "85400",
        "Location": "Taman Sri Indah",
        "Post_Office": "Chaah",
        "State": "Johor"
    },
    {
        "Postcode": "85400",
        "Location": "Taman Mesra",
        "Post_Office": "Chaah",
        "State": "Johor"
    },
    {
        "Postcode": "85400",
        "Location": "Chaah",
        "Post_Office": "Chaah",
        "State": "Johor"
    },
    {
        "Postcode": "85400",
        "Location": "Desa Temu Jodoh",
        "Post_Office": "Chaah",
        "State": "Johor"
    },
    {
        "Postcode": "85400",
        "Location": "Kampung Haji Kamisan",
        "Post_Office": "Chaah",
        "State": "Johor"
    },
    {
        "Postcode": "85400",
        "Location": "Kampung Jawa Baru",
        "Post_Office": "Chaah",
        "State": "Johor"
    },
    {
        "Postcode": "85400",
        "Location": "Kampung Kangkar",
        "Post_Office": "Chaah",
        "State": "Johor"
    },
    {
        "Postcode": "85400",
        "Location": "Kampung Kangkar 1",
        "Post_Office": "Chaah",
        "State": "Johor"
    },
    {
        "Postcode": "85400",
        "Location": "Kampung Kangkar 2",
        "Post_Office": "Chaah",
        "State": "Johor"
    },
    {
        "Postcode": "85400",
        "Location": "Kampung Sungai Lenek",
        "Post_Office": "Chaah",
        "State": "Johor"
    },
    {
        "Postcode": "85400",
        "Location": "Taman Chaah",
        "Post_Office": "Chaah",
        "State": "Johor"
    },
    {
        "Postcode": "85400",
        "Location": "Taman Chaah Baru",
        "Post_Office": "Chaah",
        "State": "Johor"
    },
    {
        "Postcode": "85400",
        "Location": "Taman Damai Jaya",
        "Post_Office": "Chaah",
        "State": "Johor"
    },
    {
        "Postcode": "85400",
        "Location": "Taman Kemakmoran",
        "Post_Office": "Chaah",
        "State": "Johor"
    },
    {
        "Postcode": "85400",
        "Location": "Taman Sri Chaah",
        "Post_Office": "Chaah",
        "State": "Johor"
    },
    {
        "Postcode": "85400",
        "Location": "Kampung Kangkar Baru",
        "Post_Office": "Chaah",
        "State": "Johor"
    },
    {
        "Postcode": "85400",
        "Location": "Kampung Kangkar Dua",
        "Post_Office": "Chaah",
        "State": "Johor"
    },
    {
        "Postcode": "85400",
        "Location": "Kampung Kangkar Satu",
        "Post_Office": "Chaah",
        "State": "Johor"
    },
    {
        "Postcode": "85400",
        "Location": "Kampung Parit Haji Kamisan",
        "Post_Office": "Chaah",
        "State": "Johor"
    },
    {
        "Postcode": "85400",
        "Location": "Kampung Sri Sepakat",
        "Post_Office": "Chaah",
        "State": "Johor"
    },
    {
        "Postcode": "85400",
        "Location": "Taman Chaah Utama",
        "Post_Office": "Chaah",
        "State": "Johor"
    },
    {
        "Postcode": "85400",
        "Location": "Taman Damai Jaya 2",
        "Post_Office": "Chaah",
        "State": "Johor"
    },
    {
        "Postcode": "85400",
        "Location": "Kampung Gajah",
        "Post_Office": "Chaah",
        "State": "Johor"
    },
    {
        "Postcode": "85400",
        "Location": "Taman Nesa",
        "Post_Office": "Chaah",
        "State": "Johor"
    },
    {
        "Postcode": "85400",
        "Location": "Taman Rumah Murah",
        "Post_Office": "Chaah",
        "State": "Johor"
    },
    {
        "Postcode": "85400",
        "Location": "Kampung Jawa",
        "Post_Office": "Chaah",
        "State": "Johor"
    },
    {
        "Postcode": "85400",
        "Location": "Taman Indah",
        "Post_Office": "Chaah",
        "State": "Johor"
    },
    {
        "Postcode": "85400",
        "Location": "Taman Mewah",
        "Post_Office": "Chaah",
        "State": "Johor"
    },
    {
        "Postcode": "85400",
        "Location": "Taman Muhibbah",
        "Post_Office": "Chaah",
        "State": "Johor"
    },
    {
        "Postcode": "85400",
        "Location": "Taman Perumahan Awam",
        "Post_Office": "Chaah",
        "State": "Johor"
    },
    {
        "Postcode": "85400",
        "Location": "Taman Sri Setia",
        "Post_Office": "Chaah",
        "State": "Johor"
    },
    {
        "Postcode": "85400",
        "Location": "Taman Okid",
        "Post_Office": "Chaah",
        "State": "Johor"
    },
    {
        "Postcode": "85400",
        "Location": "Taman Sentosa",
        "Post_Office": "Chaah",
        "State": "Johor"
    }
]
