[
    {
        "Postcode": "97000",
        "Location": "Abang Galau",
        "Post_Office": "Bintulu",
        "State": "Sarawak"
    },
    {
        "Postcode": "97000",
        "Location": "Bintulu",
        "Post_Office": "Bintulu",
        "State": "Sarawak"
    },
    {
        "Postcode": "97000",
        "Location": "Kampung Dato",
        "Post_Office": "Bintulu",
        "State": "Sarawak"
    },
    {
        "Postcode": "97000",
        "Location": "Kampung Jepak",
        "Post_Office": "Bintulu",
        "State": "Sarawak"
    },
    {
        "Postcode": "97000",
        "Location": "Kampung Sibiew",
        "Post_Office": "Bintulu",
        "State": "Sarawak"
    },
    {
        "Postcode": "97000",
        "Location": "Kampung Sinong",
        "Post_Office": "Bintulu",
        "State": "Sarawak"
    },
    {
        "Postcode": "97000",
        "Location": "Kampung Tepak",
        "Post_Office": "Bintulu",
        "State": "Sarawak"
    },
    {
        "Postcode": "97000",
        "Location": "Kemena",
        "Post_Office": "Bintulu",
        "State": "Sarawak"
    },
    {
        "Postcode": "97000",
        "Location": "Universiti Pertanian Bintulu",
        "Post_Office": "Bintulu",
        "State": "Sarawak"
    },
    {
        "Postcode": "97000",
        "Location": "Kampung Baru",
        "Post_Office": "Bintulu",
        "State": "Sarawak"
    },
    {
        "Postcode": "97000",
        "Location": "Kampung Dagang",
        "Post_Office": "Bintulu",
        "State": "Sarawak"
    },
    {
        "Postcode": "97000",
        "Location": "Kampung Masjid",
        "Post_Office": "Bintulu",
        "State": "Sarawak"
    }
]
