[
    {
        "Postcode": "32000",
        "Location": "Taman Aman Muhibbah 1",
        "Post_Office": "Sitiawan",
        "State": "Perak"
    },
    {
        "Postcode": "32000",
        "Location": "Taman Aman Muhibbah 2",
        "Post_Office": "Sitiawan",
        "State": "Perak"
    },
    {
        "Postcode": "32000",
        "Location": "Taman Aman Muhibbah 3",
        "Post_Office": "Sitiawan",
        "State": "Perak"
    },
    {
        "Postcode": "32000",
        "Location": "Taman Aman Muhibbah 4",
        "Post_Office": "Sitiawan",
        "State": "Perak"
    },
    {
        "Postcode": "32000",
        "Location": "Taman Jati 1",
        "Post_Office": "Sitiawan",
        "State": "Perak"
    },
    {
        "Postcode": "32000",
        "Location": "Taman Jati 2",
        "Post_Office": "Sitiawan",
        "State": "Perak"
    },
    {
        "Postcode": "32000",
        "Location": "Taman Mega 2",
        "Post_Office": "Sitiawan",
        "State": "Perak"
    },
    {
        "Postcode": "32000",
        "Location": "Taman Mega 3",
        "Post_Office": "Sitiawan",
        "State": "Perak"
    },
    {
        "Postcode": "32000",
        "Location": "Taman Muhibbah 3",
        "Post_Office": "Sitiawan",
        "State": "Perak"
    },
    {
        "Postcode": "32000",
        "Location": "Taman Raja Muda Musa Ii",
        "Post_Office": "Sitiawan",
        "State": "Perak"
    },
    {
        "Postcode": "32000",
        "Location": "Taman Raja Muda Musa Iv",
        "Post_Office": "Sitiawan",
        "State": "Perak"
    },
    {
        "Postcode": "32000",
        "Location": "Taman Sejati 1",
        "Post_Office": "Sitiawan",
        "State": "Perak"
    },
    {
        "Postcode": "32000",
        "Location": "Taman Sejati 2",
        "Post_Office": "Sitiawan",
        "State": "Perak"
    },
    {
        "Postcode": "32000",
        "Location": "Taman Singa 1",
        "Post_Office": "Sitiawan",
        "State": "Perak"
    },
    {
        "Postcode": "32000",
        "Location": "Taman Singa 2",
        "Post_Office": "Sitiawan",
        "State": "Perak"
    },
    {
        "Postcode": "32000",
        "Location": "Kampung Selamat",
        "Post_Office": "Sitiawan",
        "State": "Perak"
    },
    {
        "Postcode": "32000",
        "Location": "Kampung Simpang Lima",
        "Post_Office": "Sitiawan",
        "State": "Perak"
    },
    {
        "Postcode": "32000",
        "Location": "Ladang Fima",
        "Post_Office": "Sitiawan",
        "State": "Perak"
    },
    {
        "Postcode": "32000",
        "Location": "Taman Cahaya",
        "Post_Office": "Sitiawan",
        "State": "Perak"
    },
    {
        "Postcode": "32000",
        "Location": "Taman Indah",
        "Post_Office": "Sitiawan",
        "State": "Perak"
    },
    {
        "Postcode": "32000",
        "Location": "Taman Jaya",
        "Post_Office": "Sitiawan",
        "State": "Perak"
    },
    {
        "Postcode": "32000",
        "Location": "Taman Kenangan",
        "Post_Office": "Sitiawan",
        "State": "Perak"
    },
    {
        "Postcode": "32000",
        "Location": "Taman Krishnan",
        "Post_Office": "Sitiawan",
        "State": "Perak"
    },
    {
        "Postcode": "32000",
        "Location": "Taman Murni",
        "Post_Office": "Sitiawan",
        "State": "Perak"
    },
    {
        "Postcode": "32000",
        "Location": "Taman Sentosa 1",
        "Post_Office": "Sitiawan",
        "State": "Perak"
    },
    {
        "Postcode": "32000",
        "Location": "Taman Sentosa 2",
        "Post_Office": "Sitiawan",
        "State": "Perak"
    },
    {
        "Postcode": "32000",
        "Location": "Taman Setia",
        "Post_Office": "Sitiawan",
        "State": "Perak"
    },
    {
        "Postcode": "32000",
        "Location": "Simpang Lima",
        "Post_Office": "Sitiawan",
        "State": "Perak"
    },
    {
        "Postcode": "32000",
        "Location": "Taman Cempaka",
        "Post_Office": "Sitiawan",
        "State": "Perak"
    },
    {
        "Postcode": "32000",
        "Location": "Taman Desa Maju",
        "Post_Office": "Sitiawan",
        "State": "Perak"
    },
    {
        "Postcode": "32000",
        "Location": "Taman Guru",
        "Post_Office": "Sitiawan",
        "State": "Perak"
    },
    {
        "Postcode": "32000",
        "Location": "Taman Lapangan Terbang",
        "Post_Office": "Sitiawan",
        "State": "Perak"
    },
    {
        "Postcode": "32000",
        "Location": "Taman Muhibbah 1",
        "Post_Office": "Sitiawan",
        "State": "Perak"
    },
    {
        "Postcode": "32000",
        "Location": "Taman Muhibbah 2",
        "Post_Office": "Sitiawan",
        "State": "Perak"
    },
    {
        "Postcode": "32000",
        "Location": "Taman Seroja",
        "Post_Office": "Sitiawan",
        "State": "Perak"
    },
    {
        "Postcode": "32000",
        "Location": "Taman Teratai",
        "Post_Office": "Sitiawan",
        "State": "Perak"
    },
    {
        "Postcode": "32000",
        "Location": "Taman Berjaya",
        "Post_Office": "Sitiawan",
        "State": "Perak"
    },
    {
        "Postcode": "32000",
        "Location": "Taman Bintang",
        "Post_Office": "Sitiawan",
        "State": "Perak"
    },
    {
        "Postcode": "32000",
        "Location": "Jalan Baru",
        "Post_Office": "Sitiawan",
        "State": "Perak"
    },
    {
        "Postcode": "32000",
        "Location": "Taman Aman",
        "Post_Office": "Sitiawan",
        "State": "Perak"
    },
    {
        "Postcode": "32000",
        "Location": "Taman Anson",
        "Post_Office": "Sitiawan",
        "State": "Perak"
    },
    {
        "Postcode": "32000",
        "Location": "Taman Bunga Raya",
        "Post_Office": "Sitiawan",
        "State": "Perak"
    },
    {
        "Postcode": "32000",
        "Location": "Taman Desa Permai",
        "Post_Office": "Sitiawan",
        "State": "Perak"
    },
    {
        "Postcode": "32000",
        "Location": "Taman Harmoni",
        "Post_Office": "Sitiawan",
        "State": "Perak"
    },
    {
        "Postcode": "32000",
        "Location": "Taman Maju",
        "Post_Office": "Sitiawan",
        "State": "Perak"
    },
    {
        "Postcode": "32000",
        "Location": "Taman Mas",
        "Post_Office": "Sitiawan",
        "State": "Perak"
    },
    {
        "Postcode": "32000",
        "Location": "Taman Mawar",
        "Post_Office": "Sitiawan",
        "State": "Perak"
    },
    {
        "Postcode": "32000",
        "Location": "Taman Megah",
        "Post_Office": "Sitiawan",
        "State": "Perak"
    },
    {
        "Postcode": "32000",
        "Location": "Taman Pelangi",
        "Post_Office": "Sitiawan",
        "State": "Perak"
    },
    {
        "Postcode": "32000",
        "Location": "Taman Selamat",
        "Post_Office": "Sitiawan",
        "State": "Perak"
    },
    {
        "Postcode": "32000",
        "Location": "Taman Setia Jaya",
        "Post_Office": "Sitiawan",
        "State": "Perak"
    },
    {
        "Postcode": "32000",
        "Location": "Taman Sri Jaya",
        "Post_Office": "Sitiawan",
        "State": "Perak"
    },
    {
        "Postcode": "32000",
        "Location": "Jalan Pasir Panjang",
        "Post_Office": "Sitiawan",
        "State": "Perak"
    },
    {
        "Postcode": "32000",
        "Location": "Taman Bahagia",
        "Post_Office": "Sitiawan",
        "State": "Perak"
    },
    {
        "Postcode": "32000",
        "Location": "Taman Bakti",
        "Post_Office": "Sitiawan",
        "State": "Perak"
    },
    {
        "Postcode": "32000",
        "Location": "Taman Dahlia",
        "Post_Office": "Sitiawan",
        "State": "Perak"
    },
    {
        "Postcode": "32000",
        "Location": "Taman Desa Aman",
        "Post_Office": "Sitiawan",
        "State": "Perak"
    },
    {
        "Postcode": "32000",
        "Location": "Taman Hijau",
        "Post_Office": "Sitiawan",
        "State": "Perak"
    },
    {
        "Postcode": "32000",
        "Location": "Taman Jasmin",
        "Post_Office": "Sitiawan",
        "State": "Perak"
    },
    {
        "Postcode": "32000",
        "Location": "Taman Juta Jaya",
        "Post_Office": "Sitiawan",
        "State": "Perak"
    },
    {
        "Postcode": "32000",
        "Location": "Taman Maju Indah",
        "Post_Office": "Sitiawan",
        "State": "Perak"
    },
    {
        "Postcode": "32000",
        "Location": "Taman Maju Mewah",
        "Post_Office": "Sitiawan",
        "State": "Perak"
    },
    {
        "Postcode": "32000",
        "Location": "Taman Mutiara",
        "Post_Office": "Sitiawan",
        "State": "Perak"
    },
    {
        "Postcode": "32000",
        "Location": "Taman Rakyat",
        "Post_Office": "Sitiawan",
        "State": "Perak"
    },
    {
        "Postcode": "32000",
        "Location": "Taman Rasa Sayang",
        "Post_Office": "Sitiawan",
        "State": "Perak"
    },
    {
        "Postcode": "32000",
        "Location": "Taman Sepakat",
        "Post_Office": "Sitiawan",
        "State": "Perak"
    },
    {
        "Postcode": "32000",
        "Location": "Taman Suria",
        "Post_Office": "Sitiawan",
        "State": "Perak"
    },
    {
        "Postcode": "32000",
        "Location": "Kampung Cina",
        "Post_Office": "Sitiawan",
        "State": "Perak"
    },
    {
        "Postcode": "32000",
        "Location": "Kampung Masjid",
        "Post_Office": "Sitiawan",
        "State": "Perak"
    },
    {
        "Postcode": "32000",
        "Location": "Acheh Baru",
        "Post_Office": "Sitiawan",
        "State": "Perak"
    },
    {
        "Postcode": "32000",
        "Location": "Arcadia Estate",
        "Post_Office": "Sitiawan",
        "State": "Perak"
    },
    {
        "Postcode": "32000",
        "Location": "Arunasalam Estate",
        "Post_Office": "Sitiawan",
        "State": "Perak"
    },
    {
        "Postcode": "32000",
        "Location": "Back Street",
        "Post_Office": "Sitiawan",
        "State": "Perak"
    },
    {
        "Postcode": "32000",
        "Location": "Bangunan Mara",
        "Post_Office": "Sitiawan",
        "State": "Perak"
    },
    {
        "Postcode": "32000",
        "Location": "Bintang Estate",
        "Post_Office": "Sitiawan",
        "State": "Perak"
    },
    {
        "Postcode": "32000",
        "Location": "Desa Semarak",
        "Post_Office": "Sitiawan",
        "State": "Perak"
    },
    {
        "Postcode": "32000",
        "Location": "Felcra Lekir 2",
        "Post_Office": "Sitiawan",
        "State": "Perak"
    },
    {
        "Postcode": "32000",
        "Location": "Felcra Sitiawan",
        "Post_Office": "Sitiawan",
        "State": "Perak"
    },
    {
        "Postcode": "32000",
        "Location": "Fordson Estate",
        "Post_Office": "Sitiawan",
        "State": "Perak"
    },
    {
        "Postcode": "32000",
        "Location": "Jalan Bruas (Batu 1)",
        "Post_Office": "Sitiawan",
        "State": "Perak"
    },
    {
        "Postcode": "32000",
        "Location": "Jalan Dato Ahmad Yunus",
        "Post_Office": "Sitiawan",
        "State": "Perak"
    },
    {
        "Postcode": "32000",
        "Location": "Jalan Kampung Koh",
        "Post_Office": "Sitiawan",
        "State": "Perak"
    },
    {
        "Postcode": "32000",
        "Location": "Jalan Lekir Kampung Koh",
        "Post_Office": "Sitiawan",
        "State": "Perak"
    },
    {
        "Postcode": "32000",
        "Location": "Jalan Lumut",
        "Post_Office": "Sitiawan",
        "State": "Perak"
    },
    {
        "Postcode": "32000",
        "Location": "Jalan Mohmad",
        "Post_Office": "Sitiawan",
        "State": "Perak"
    },
    {
        "Postcode": "32000",
        "Location": "Jalan Raja Omar",
        "Post_Office": "Sitiawan",
        "State": "Perak"
    },
    {
        "Postcode": "32000",
        "Location": "Jalan Senawi",
        "Post_Office": "Sitiawan",
        "State": "Perak"
    },
    {
        "Postcode": "32000",
        "Location": "Jalan Sitiawan",
        "Post_Office": "Sitiawan",
        "State": "Perak"
    },
    {
        "Postcode": "32000",
        "Location": "Jalan Tazali",
        "Post_Office": "Sitiawan",
        "State": "Perak"
    },
    {
        "Postcode": "32000",
        "Location": "Jalan Tok Perdana",
        "Post_Office": "Sitiawan",
        "State": "Perak"
    },
    {
        "Postcode": "32000",
        "Location": "Kampung Acheh",
        "Post_Office": "Sitiawan",
        "State": "Perak"
    },
    {
        "Postcode": "32000",
        "Location": "Kampung Baru Kampung Koh",
        "Post_Office": "Sitiawan",
        "State": "Perak"
    },
    {
        "Postcode": "32000",
        "Location": "Kampung Batu 10 Parit",
        "Post_Office": "Sitiawan",
        "State": "Perak"
    },
    {
        "Postcode": "32000",
        "Location": "Kampung Batu 15 (Parit Hindu)",
        "Post_Office": "Sitiawan",
        "State": "Perak"
    },
    {
        "Postcode": "32000",
        "Location": "Kampung Batu 6 (Lekir)",
        "Post_Office": "Sitiawan",
        "State": "Perak"
    },
    {
        "Postcode": "32000",
        "Location": "Kampung Batu 9 1/2 (Selaba)",
        "Post_Office": "Sitiawan",
        "State": "Perak"
    },
    {
        "Postcode": "32000",
        "Location": "Kampung Bintang",
        "Post_Office": "Sitiawan",
        "State": "Perak"
    },
    {
        "Postcode": "32000",
        "Location": "Kampung Darat Jelutong",
        "Post_Office": "Sitiawan",
        "State": "Perak"
    },
    {
        "Postcode": "32000",
        "Location": "Kampung Derlik",
        "Post_Office": "Sitiawan",
        "State": "Perak"
    },
    {
        "Postcode": "32000",
        "Location": "Kampung Kayan",
        "Post_Office": "Sitiawan",
        "State": "Perak"
    },
    {
        "Postcode": "32000",
        "Location": "Kampung Kelir",
        "Post_Office": "Sitiawan",
        "State": "Perak"
    },
    {
        "Postcode": "32000",
        "Location": "Kampung Koh",
        "Post_Office": "Sitiawan",
        "State": "Perak"
    },
    {
        "Postcode": "32000",
        "Location": "Kampung Lekir",
        "Post_Office": "Sitiawan",
        "State": "Perak"
    },
    {
        "Postcode": "32000",
        "Location": "Kampung Parit Haji Dollah",
        "Post_Office": "Sitiawan",
        "State": "Perak"
    },
    {
        "Postcode": "32000",
        "Location": "Kampung Parit Haji Husain",
        "Post_Office": "Sitiawan",
        "State": "Perak"
    },
    {
        "Postcode": "32000",
        "Location": "Kampung Parit Jerman",
        "Post_Office": "Sitiawan",
        "State": "Perak"
    },
    {
        "Postcode": "32000",
        "Location": "Kampung Pekan Gurney",
        "Post_Office": "Sitiawan",
        "State": "Perak"
    },
    {
        "Postcode": "32000",
        "Location": "Kampung Seberang Parit",
        "Post_Office": "Sitiawan",
        "State": "Perak"
    },
    {
        "Postcode": "32000",
        "Location": "Kampung Serdang",
        "Post_Office": "Sitiawan",
        "State": "Perak"
    },
    {
        "Postcode": "32000",
        "Location": "Kampung Simpang Dua",
        "Post_Office": "Sitiawan",
        "State": "Perak"
    },
    {
        "Postcode": "32000",
        "Location": "Kampung Sitiawan",
        "Post_Office": "Sitiawan",
        "State": "Perak"
    },
    {
        "Postcode": "32000",
        "Location": "Kampung Spynie",
        "Post_Office": "Sitiawan",
        "State": "Perak"
    },
    {
        "Postcode": "32000",
        "Location": "Kampung Sri Acheh",
        "Post_Office": "Sitiawan",
        "State": "Perak"
    },
    {
        "Postcode": "32000",
        "Location": "Kampung Suffolk",
        "Post_Office": "Sitiawan",
        "State": "Perak"
    },
    {
        "Postcode": "32000",
        "Location": "Kampung Sungai Lombong",
        "Post_Office": "Sitiawan",
        "State": "Perak"
    },
    {
        "Postcode": "32000",
        "Location": "Kampung Sungai Rumput",
        "Post_Office": "Sitiawan",
        "State": "Perak"
    },
    {
        "Postcode": "32000",
        "Location": "Kampung Sungai Tiram",
        "Post_Office": "Sitiawan",
        "State": "Perak"
    },
    {
        "Postcode": "32000",
        "Location": "Kampung Tanjong Kepah",
        "Post_Office": "Sitiawan",
        "State": "Perak"
    },
    {
        "Postcode": "32000",
        "Location": "Kampung Telok Luas",
        "Post_Office": "Sitiawan",
        "State": "Perak"
    },
    {
        "Postcode": "32000",
        "Location": "Kampung Telok Pulai",
        "Post_Office": "Sitiawan",
        "State": "Perak"
    },
    {
        "Postcode": "32000",
        "Location": "Kampung Tersusun (Batu 6 Lekir)",
        "Post_Office": "Sitiawan",
        "State": "Perak"
    },
    {
        "Postcode": "32000",
        "Location": "Kampung Tersusun Batu 10 Lekir",
        "Post_Office": "Sitiawan",
        "State": "Perak"
    },
    {
        "Postcode": "32000",
        "Location": "Kampung Tersusun Spg. 4",
        "Post_Office": "Sitiawan",
        "State": "Perak"
    },
    {
        "Postcode": "32000",
        "Location": "Kampung Ulu",
        "Post_Office": "Sitiawan",
        "State": "Perak"
    },
    {
        "Postcode": "32000",
        "Location": "Kampung Ulu Kayan",
        "Post_Office": "Sitiawan",
        "State": "Perak"
    },
    {
        "Postcode": "32000",
        "Location": "Kayan",
        "Post_Office": "Sitiawan",
        "State": "Perak"
    },
    {
        "Postcode": "32000",
        "Location": "Kok Lim Estate",
        "Post_Office": "Sitiawan",
        "State": "Perak"
    },
    {
        "Postcode": "32000",
        "Location": "Ladang Haroff",
        "Post_Office": "Sitiawan",
        "State": "Perak"
    },
    {
        "Postcode": "32000",
        "Location": "Ladang Sitiawan",
        "Post_Office": "Sitiawan",
        "State": "Perak"
    },
    {
        "Postcode": "32000",
        "Location": "Ladang Sulfolk",
        "Post_Office": "Sitiawan",
        "State": "Perak"
    },
    {
        "Postcode": "32000",
        "Location": "Ladang Tok Perdana",
        "Post_Office": "Sitiawan",
        "State": "Perak"
    },
    {
        "Postcode": "32000",
        "Location": "Ladang Wibawa",
        "Post_Office": "Sitiawan",
        "State": "Perak"
    },
    {
        "Postcode": "32000",
        "Location": "Lekir",
        "Post_Office": "Sitiawan",
        "State": "Perak"
    },
    {
        "Postcode": "32000",
        "Location": "Lekir (Km 16 - 23)",
        "Post_Office": "Sitiawan",
        "State": "Perak"
    },
    {
        "Postcode": "32000",
        "Location": "Lumut Kiri",
        "Post_Office": "Sitiawan",
        "State": "Perak"
    },
    {
        "Postcode": "32000",
        "Location": "Lumut Maritime Kampung Acheh",
        "Post_Office": "Sitiawan",
        "State": "Perak"
    },
    {
        "Postcode": "32000",
        "Location": "Parit Haji Dollah",
        "Post_Office": "Sitiawan",
        "State": "Perak"
    },
    {
        "Postcode": "32000",
        "Location": "Pasir Belanda",
        "Post_Office": "Sitiawan",
        "State": "Perak"
    },
    {
        "Postcode": "32000",
        "Location": "Pekan Gurney",
        "Post_Office": "Sitiawan",
        "State": "Perak"
    },
    {
        "Postcode": "32000",
        "Location": "Pelabuhan Lumut",
        "Post_Office": "Sitiawan",
        "State": "Perak"
    },
    {
        "Postcode": "32000",
        "Location": "Pulau Tanjong Kepah",
        "Post_Office": "Sitiawan",
        "State": "Perak"
    },
    {
        "Postcode": "32000",
        "Location": "Rumah Awam",
        "Post_Office": "Sitiawan",
        "State": "Perak"
    },
    {
        "Postcode": "32000",
        "Location": "Simpang Dua",
        "Post_Office": "Sitiawan",
        "State": "Perak"
    },
    {
        "Postcode": "32000",
        "Location": "Sitiawan",
        "Post_Office": "Sitiawan",
        "State": "Perak"
    },
    {
        "Postcode": "32000",
        "Location": "Sitiawan (Km 10)",
        "Post_Office": "Sitiawan",
        "State": "Perak"
    },
    {
        "Postcode": "32000",
        "Location": "Sungai Lombong",
        "Post_Office": "Sitiawan",
        "State": "Perak"
    },
    {
        "Postcode": "32000",
        "Location": "Sungai Tiram",
        "Post_Office": "Sitiawan",
        "State": "Perak"
    },
    {
        "Postcode": "32000",
        "Location": "Taman Acheh Jaya",
        "Post_Office": "Sitiawan",
        "State": "Perak"
    },
    {
        "Postcode": "32000",
        "Location": "Taman Aman Damai",
        "Post_Office": "Sitiawan",
        "State": "Perak"
    },
    {
        "Postcode": "32000",
        "Location": "Taman Aman Permai",
        "Post_Office": "Sitiawan",
        "State": "Perak"
    },
    {
        "Postcode": "32000",
        "Location": "Taman Arasu",
        "Post_Office": "Sitiawan",
        "State": "Perak"
    },
    {
        "Postcode": "32000",
        "Location": "Taman Astaka",
        "Post_Office": "Sitiawan",
        "State": "Perak"
    },
    {
        "Postcode": "32000",
        "Location": "Taman Awam",
        "Post_Office": "Sitiawan",
        "State": "Perak"
    },
    {
        "Postcode": "32000",
        "Location": "Taman Baru",
        "Post_Office": "Sitiawan",
        "State": "Perak"
    },
    {
        "Postcode": "32000",
        "Location": "Taman Bauhinia",
        "Post_Office": "Sitiawan",
        "State": "Perak"
    },
    {
        "Postcode": "32000",
        "Location": "Taman Bayu Permai",
        "Post_Office": "Sitiawan",
        "State": "Perak"
    },
    {
        "Postcode": "32000",
        "Location": "Taman Berjaya Sama (Kampung Koh)",
        "Post_Office": "Sitiawan",
        "State": "Perak"
    },
    {
        "Postcode": "32000",
        "Location": "Taman Berkat (Kampung Selamat)",
        "Post_Office": "Sitiawan",
        "State": "Perak"
    },
    {
        "Postcode": "32000",
        "Location": "Taman Berpadu",
        "Post_Office": "Sitiawan",
        "State": "Perak"
    },
    {
        "Postcode": "32000",
        "Location": "Taman Bunga Ros",
        "Post_Office": "Sitiawan",
        "State": "Perak"
    },
    {
        "Postcode": "32000",
        "Location": "Taman Bunga Tanjung",
        "Post_Office": "Sitiawan",
        "State": "Perak"
    },
    {
        "Postcode": "32000",
        "Location": "Taman Cantik Pekan Gurney",
        "Post_Office": "Sitiawan",
        "State": "Perak"
    },
    {
        "Postcode": "32000",
        "Location": "Taman Chin San Hoe",
        "Post_Office": "Sitiawan",
        "State": "Perak"
    },
    {
        "Postcode": "32000",
        "Location": "Taman Delima Kampung Koh",
        "Post_Office": "Sitiawan",
        "State": "Perak"
    },
    {
        "Postcode": "32000",
        "Location": "Taman Delima P. Gurney",
        "Post_Office": "Sitiawan",
        "State": "Perak"
    },
    {
        "Postcode": "32000",
        "Location": "Taman Desa 1",
        "Post_Office": "Sitiawan",
        "State": "Perak"
    },
    {
        "Postcode": "32000",
        "Location": "Taman Desa Bintang",
        "Post_Office": "Sitiawan",
        "State": "Perak"
    },
    {
        "Postcode": "32000",
        "Location": "Taman Desa Ria",
        "Post_Office": "Sitiawan",
        "State": "Perak"
    },
    {
        "Postcode": "32000",
        "Location": "Taman Desa Simpang 2",
        "Post_Office": "Sitiawan",
        "State": "Perak"
    },
    {
        "Postcode": "32000",
        "Location": "Taman Green Villa",
        "Post_Office": "Sitiawan",
        "State": "Perak"
    },
    {
        "Postcode": "32000",
        "Location": "Taman Guru Ii",
        "Post_Office": "Sitiawan",
        "State": "Perak"
    },
    {
        "Postcode": "32000",
        "Location": "Taman Hijau 2",
        "Post_Office": "Sitiawan",
        "State": "Perak"
    },
    {
        "Postcode": "32000",
        "Location": "Taman Hijau Indah",
        "Post_Office": "Sitiawan",
        "State": "Perak"
    },
    {
        "Postcode": "32000",
        "Location": "Taman Ilmu",
        "Post_Office": "Sitiawan",
        "State": "Perak"
    },
    {
        "Postcode": "32000",
        "Location": "Taman Ilmu 2",
        "Post_Office": "Sitiawan",
        "State": "Perak"
    },
    {
        "Postcode": "32000",
        "Location": "Taman Indah (Kampung Koh)",
        "Post_Office": "Sitiawan",
        "State": "Perak"
    },
    {
        "Postcode": "32000",
        "Location": "Taman Indah Muhibah",
        "Post_Office": "Sitiawan",
        "State": "Perak"
    },
    {
        "Postcode": "32000",
        "Location": "Taman Intan Kampung Koh",
        "Post_Office": "Sitiawan",
        "State": "Perak"
    },
    {
        "Postcode": "32000",
        "Location": "Taman Intan Sitiawan",
        "Post_Office": "Sitiawan",
        "State": "Perak"
    },
    {
        "Postcode": "32000",
        "Location": "Taman Jati Indah",
        "Post_Office": "Sitiawan",
        "State": "Perak"
    },
    {
        "Postcode": "32000",
        "Location": "Taman Kampung Koh",
        "Post_Office": "Sitiawan",
        "State": "Perak"
    },
    {
        "Postcode": "32000",
        "Location": "Taman Kasturi",
        "Post_Office": "Sitiawan",
        "State": "Perak"
    },
    {
        "Postcode": "32000",
        "Location": "Taman Kiara",
        "Post_Office": "Sitiawan",
        "State": "Perak"
    },
    {
        "Postcode": "32000",
        "Location": "Taman Kim Joo",
        "Post_Office": "Sitiawan",
        "State": "Perak"
    },
    {
        "Postcode": "32000",
        "Location": "Taman Kot Tai",
        "Post_Office": "Sitiawan",
        "State": "Perak"
    },
    {
        "Postcode": "32000",
        "Location": "Taman Kris",
        "Post_Office": "Sitiawan",
        "State": "Perak"
    },
    {
        "Postcode": "32000",
        "Location": "Taman Kurnia",
        "Post_Office": "Sitiawan",
        "State": "Perak"
    },
    {
        "Postcode": "32000",
        "Location": "Taman Lekir",
        "Post_Office": "Sitiawan",
        "State": "Perak"
    },
    {
        "Postcode": "32000",
        "Location": "Taman Lekir Baru",
        "Post_Office": "Sitiawan",
        "State": "Perak"
    },
    {
        "Postcode": "32000",
        "Location": "Taman Limau",
        "Post_Office": "Sitiawan",
        "State": "Perak"
    },
    {
        "Postcode": "32000",
        "Location": "Taman Mahawangsa (Kampung Koh)",
        "Post_Office": "Sitiawan",
        "State": "Perak"
    },
    {
        "Postcode": "32000",
        "Location": "Taman Mahawasa",
        "Post_Office": "Sitiawan",
        "State": "Perak"
    },
    {
        "Postcode": "32000",
        "Location": "Taman Makmor",
        "Post_Office": "Sitiawan",
        "State": "Perak"
    },
    {
        "Postcode": "32000",
        "Location": "Taman Mas (Kampung Koh)",
        "Post_Office": "Sitiawan",
        "State": "Perak"
    },
    {
        "Postcode": "32000",
        "Location": "Taman Mas 1",
        "Post_Office": "Sitiawan",
        "State": "Perak"
    },
    {
        "Postcode": "32000",
        "Location": "Taman Mas Ii (Kampung China)",
        "Post_Office": "Sitiawan",
        "State": "Perak"
    },
    {
        "Postcode": "32000",
        "Location": "Taman Megah Terang",
        "Post_Office": "Sitiawan",
        "State": "Perak"
    },
    {
        "Postcode": "32000",
        "Location": "Taman Merak",
        "Post_Office": "Sitiawan",
        "State": "Perak"
    },
    {
        "Postcode": "32000",
        "Location": "Taman Mewah Aman",
        "Post_Office": "Sitiawan",
        "State": "Perak"
    },
    {
        "Postcode": "32000",
        "Location": "Taman Mewah Aman Ii",
        "Post_Office": "Sitiawan",
        "State": "Perak"
    },
    {
        "Postcode": "32000",
        "Location": "Taman Mewah Jaya",
        "Post_Office": "Sitiawan",
        "State": "Perak"
    },
    {
        "Postcode": "32000",
        "Location": "Taman Min Aun",
        "Post_Office": "Sitiawan",
        "State": "Perak"
    },
    {
        "Postcode": "32000",
        "Location": "Taman Muniandy",
        "Post_Office": "Sitiawan",
        "State": "Perak"
    },
    {
        "Postcode": "32000",
        "Location": "Taman Nesh",
        "Post_Office": "Sitiawan",
        "State": "Perak"
    },
    {
        "Postcode": "32000",
        "Location": "Taman Okid",
        "Post_Office": "Sitiawan",
        "State": "Perak"
    },
    {
        "Postcode": "32000",
        "Location": "Taman Pegawai",
        "Post_Office": "Sitiawan",
        "State": "Perak"
    },
    {
        "Postcode": "32000",
        "Location": "Taman Pekan Gurney",
        "Post_Office": "Sitiawan",
        "State": "Perak"
    },
    {
        "Postcode": "32000",
        "Location": "Taman Permatang Impian",
        "Post_Office": "Sitiawan",
        "State": "Perak"
    },
    {
        "Postcode": "32000",
        "Location": "Taman Permatang Jaya",
        "Post_Office": "Sitiawan",
        "State": "Perak"
    },
    {
        "Postcode": "32000",
        "Location": "Taman Plaza",
        "Post_Office": "Sitiawan",
        "State": "Perak"
    },
    {
        "Postcode": "32000",
        "Location": "Taman Raja Muda Musa",
        "Post_Office": "Sitiawan",
        "State": "Perak"
    },
    {
        "Postcode": "32000",
        "Location": "Taman Raja Shamriman",
        "Post_Office": "Sitiawan",
        "State": "Perak"
    },
    {
        "Postcode": "32000",
        "Location": "Taman Seng Hong",
        "Post_Office": "Sitiawan",
        "State": "Perak"
    },
    {
        "Postcode": "32000",
        "Location": "Taman Serdang",
        "Post_Office": "Sitiawan",
        "State": "Perak"
    },
    {
        "Postcode": "32000",
        "Location": "Taman Seri Kampung Koh",
        "Post_Office": "Sitiawan",
        "State": "Perak"
    },
    {
        "Postcode": "32000",
        "Location": "Taman Seri Kampung Sitiawan",
        "Post_Office": "Sitiawan",
        "State": "Perak"
    },
    {
        "Postcode": "32000",
        "Location": "Taman Seri Koh - 1",
        "Post_Office": "Sitiawan",
        "State": "Perak"
    },
    {
        "Postcode": "32000",
        "Location": "Taman Seri Krishnan",
        "Post_Office": "Sitiawan",
        "State": "Perak"
    },
    {
        "Postcode": "32000",
        "Location": "Taman Seri Lekir",
        "Post_Office": "Sitiawan",
        "State": "Perak"
    },
    {
        "Postcode": "32000",
        "Location": "Taman Seri Maju",
        "Post_Office": "Sitiawan",
        "State": "Perak"
    },
    {
        "Postcode": "32000",
        "Location": "Taman Seri Selamat",
        "Post_Office": "Sitiawan",
        "State": "Perak"
    },
    {
        "Postcode": "32000",
        "Location": "Taman Seroja Ii",
        "Post_Office": "Sitiawan",
        "State": "Perak"
    },
    {
        "Postcode": "32000",
        "Location": "Taman Setia Maju",
        "Post_Office": "Sitiawan",
        "State": "Perak"
    },
    {
        "Postcode": "32000",
        "Location": "Taman Singa",
        "Post_Office": "Sitiawan",
        "State": "Perak"
    },
    {
        "Postcode": "32000",
        "Location": "Taman Singa Baru",
        "Post_Office": "Sitiawan",
        "State": "Perak"
    },
    {
        "Postcode": "32000",
        "Location": "Taman Sitiawan",
        "Post_Office": "Sitiawan",
        "State": "Perak"
    },
    {
        "Postcode": "32000",
        "Location": "Taman Sitiawan 1",
        "Post_Office": "Sitiawan",
        "State": "Perak"
    },
    {
        "Postcode": "32000",
        "Location": "Taman Sitiawan 2",
        "Post_Office": "Sitiawan",
        "State": "Perak"
    },
    {
        "Postcode": "32000",
        "Location": "Taman Sitiawan Jaya",
        "Post_Office": "Sitiawan",
        "State": "Perak"
    },
    {
        "Postcode": "32000",
        "Location": "Taman Sitiawan Maju",
        "Post_Office": "Sitiawan",
        "State": "Perak"
    },
    {
        "Postcode": "32000",
        "Location": "Taman Sitiawan Maju 2",
        "Post_Office": "Sitiawan",
        "State": "Perak"
    },
    {
        "Postcode": "32000",
        "Location": "Taman Sri Kayan",
        "Post_Office": "Sitiawan",
        "State": "Perak"
    },
    {
        "Postcode": "32000",
        "Location": "Taman Sri Koh",
        "Post_Office": "Sitiawan",
        "State": "Perak"
    },
    {
        "Postcode": "32000",
        "Location": "Taman Suria Ii",
        "Post_Office": "Sitiawan",
        "State": "Perak"
    },
    {
        "Postcode": "32000",
        "Location": "Taman Tai Kim",
        "Post_Office": "Sitiawan",
        "State": "Perak"
    },
    {
        "Postcode": "32000",
        "Location": "Taman Terus Maju",
        "Post_Office": "Sitiawan",
        "State": "Perak"
    },
    {
        "Postcode": "32000",
        "Location": "Taman Tok Perdana",
        "Post_Office": "Sitiawan",
        "State": "Perak"
    },
    {
        "Postcode": "32000",
        "Location": "Taman Wazir",
        "Post_Office": "Sitiawan",
        "State": "Perak"
    },
    {
        "Postcode": "32000",
        "Location": "Taman Wong Bea Hea",
        "Post_Office": "Sitiawan",
        "State": "Perak"
    },
    {
        "Postcode": "32000",
        "Location": "Tanjung Kepah",
        "Post_Office": "Sitiawan",
        "State": "Perak"
    },
    {
        "Postcode": "32000",
        "Location": "Teluk Tiga",
        "Post_Office": "Sitiawan",
        "State": "Perak"
    },
    {
        "Postcode": "32000",
        "Location": "Ulu Kayan",
        "Post_Office": "Sitiawan",
        "State": "Perak"
    }
]
