[
    {
        "Postcode": "32040",
        "Location": "Kampung Permatang",
        "Post_Office": "Seri Manjong",
        "State": "Perak"
    },
    {
        "Postcode": "32040",
        "Location": "Taman Berkat",
        "Post_Office": "Seri Manjong",
        "State": "Perak"
    },
    {
        "Postcode": "32040",
        "Location": "Kampung Sungai Limau",
        "Post_Office": "Seri Manjong",
        "State": "Perak"
    },
    {
        "Postcode": "32040",
        "Location": "Bangunan Mahkamah Majistret",
        "Post_Office": "Seri Manjong",
        "State": "Perak"
    },
    {
        "Postcode": "32040",
        "Location": "Bangunan Pentadbiran Kerajaan Persekutuan",
        "Post_Office": "Seri Manjong",
        "State": "Perak"
    },
    {
        "Postcode": "32040",
        "Location": "Desa Bayu",
        "Post_Office": "Seri Manjong",
        "State": "Perak"
    },
    {
        "Postcode": "32040",
        "Location": "Fasa 1C1, 1C2, 1C3 Dan 1C4 (Rumah Kedai)",
        "Post_Office": "Seri Manjong",
        "State": "Perak"
    },
    {
        "Postcode": "32040",
        "Location": "Institut Kemahiran Mara",
        "Post_Office": "Seri Manjong",
        "State": "Perak"
    },
    {
        "Postcode": "32040",
        "Location": "Kampung Datok Sri Kamaruddin",
        "Post_Office": "Seri Manjong",
        "State": "Perak"
    },
    {
        "Postcode": "32040",
        "Location": "Kampung Datok Sri Kamarudin Tambahan",
        "Post_Office": "Seri Manjong",
        "State": "Perak"
    },
    {
        "Postcode": "32040",
        "Location": "Kampung Sungai Parit",
        "Post_Office": "Seri Manjong",
        "State": "Perak"
    },
    {
        "Postcode": "32040",
        "Location": "Kampung Tersusun Pundut 2",
        "Post_Office": "Seri Manjong",
        "State": "Perak"
    },
    {
        "Postcode": "32040",
        "Location": "Kompleks Pentadbiran Tanah Dan Daerah Manjong",
        "Post_Office": "Seri Manjong",
        "State": "Perak"
    },
    {
        "Postcode": "32040",
        "Location": "Kuarters Polis Daerah Manjong",
        "Post_Office": "Seri Manjong",
        "State": "Perak"
    },
    {
        "Postcode": "32040",
        "Location": "Majlis Daerah Manjong",
        "Post_Office": "Seri Manjong",
        "State": "Perak"
    },
    {
        "Postcode": "32040",
        "Location": "Pasir Pandak",
        "Post_Office": "Seri Manjong",
        "State": "Perak"
    },
    {
        "Postcode": "32040",
        "Location": "Pasir Panjang Barat",
        "Post_Office": "Seri Manjong",
        "State": "Perak"
    },
    {
        "Postcode": "32040",
        "Location": "Pasir Panjang Laut",
        "Post_Office": "Seri Manjong",
        "State": "Perak"
    },
    {
        "Postcode": "32040",
        "Location": "Pasir Panjang Timur",
        "Post_Office": "Seri Manjong",
        "State": "Perak"
    },
    {
        "Postcode": "32040",
        "Location": "Pejabat Bomba",
        "Post_Office": "Seri Manjong",
        "State": "Perak"
    },
    {
        "Postcode": "32040",
        "Location": "Pejabat Imigresen",
        "Post_Office": "Seri Manjong",
        "State": "Perak"
    },
    {
        "Postcode": "32040",
        "Location": "Pejabat Jabatan Pengangkutan Jalan",
        "Post_Office": "Seri Manjong",
        "State": "Perak"
    },
    {
        "Postcode": "32040",
        "Location": "Pejabat Kemas",
        "Post_Office": "Seri Manjong",
        "State": "Perak"
    },
    {
        "Postcode": "32040",
        "Location": "Pejabat Pertubuhan Peladang",
        "Post_Office": "Seri Manjong",
        "State": "Perak"
    },
    {
        "Postcode": "32040",
        "Location": "Pejabat Tnb",
        "Post_Office": "Seri Manjong",
        "State": "Perak"
    },
    {
        "Postcode": "32040",
        "Location": "Pusat Perniagaan Manjong 1",
        "Post_Office": "Seri Manjong",
        "State": "Perak"
    },
    {
        "Postcode": "32040",
        "Location": "Pusat Perniagaan Manjong 2",
        "Post_Office": "Seri Manjong",
        "State": "Perak"
    },
    {
        "Postcode": "32040",
        "Location": "Seri Manjong",
        "Post_Office": "Seri Manjong",
        "State": "Perak"
    },
    {
        "Postcode": "32040",
        "Location": "Sungai Parit",
        "Post_Office": "Seri Manjong",
        "State": "Perak"
    },
    {
        "Postcode": "32040",
        "Location": "Taman Cantik",
        "Post_Office": "Seri Manjong",
        "State": "Perak"
    },
    {
        "Postcode": "32040",
        "Location": "Taman Desa Manjung Point",
        "Post_Office": "Seri Manjong",
        "State": "Perak"
    },
    {
        "Postcode": "32040",
        "Location": "Taman Fasa 1 E",
        "Post_Office": "Seri Manjong",
        "State": "Perak"
    },
    {
        "Postcode": "32040",
        "Location": "Taman Fasa 103",
        "Post_Office": "Seri Manjong",
        "State": "Perak"
    },
    {
        "Postcode": "32040",
        "Location": "Taman Fasa 2A",
        "Post_Office": "Seri Manjong",
        "State": "Perak"
    },
    {
        "Postcode": "32040",
        "Location": "Taman Fasa 2B",
        "Post_Office": "Seri Manjong",
        "State": "Perak"
    },
    {
        "Postcode": "32040",
        "Location": "Taman Fasa 2C",
        "Post_Office": "Seri Manjong",
        "State": "Perak"
    },
    {
        "Postcode": "32040",
        "Location": "Taman Fasa 2C1",
        "Post_Office": "Seri Manjong",
        "State": "Perak"
    },
    {
        "Postcode": "32040",
        "Location": "Taman Fasa 2D",
        "Post_Office": "Seri Manjong",
        "State": "Perak"
    },
    {
        "Postcode": "32040",
        "Location": "Taman Fasa 2F",
        "Post_Office": "Seri Manjong",
        "State": "Perak"
    },
    {
        "Postcode": "32040",
        "Location": "Taman Fasa 2G",
        "Post_Office": "Seri Manjong",
        "State": "Perak"
    },
    {
        "Postcode": "32040",
        "Location": "Taman Fasa 2H",
        "Post_Office": "Seri Manjong",
        "State": "Perak"
    },
    {
        "Postcode": "32040",
        "Location": "Taman Fasa 2I (2I)",
        "Post_Office": "Seri Manjong",
        "State": "Perak"
    },
    {
        "Postcode": "32040",
        "Location": "Taman Fasa 2J",
        "Post_Office": "Seri Manjong",
        "State": "Perak"
    },
    {
        "Postcode": "32040",
        "Location": "Taman Fasa 3A",
        "Post_Office": "Seri Manjong",
        "State": "Perak"
    },
    {
        "Postcode": "32040",
        "Location": "Taman Fasa 3B",
        "Post_Office": "Seri Manjong",
        "State": "Perak"
    },
    {
        "Postcode": "32040",
        "Location": "Taman Fasa 3C",
        "Post_Office": "Seri Manjong",
        "State": "Perak"
    },
    {
        "Postcode": "32040",
        "Location": "Taman Fasa Id 1",
        "Post_Office": "Seri Manjong",
        "State": "Perak"
    },
    {
        "Postcode": "32040",
        "Location": "Taman Fasa Id 2",
        "Post_Office": "Seri Manjong",
        "State": "Perak"
    },
    {
        "Postcode": "32040",
        "Location": "Taman Manjong Point Seksyen 2",
        "Post_Office": "Seri Manjong",
        "State": "Perak"
    },
    {
        "Postcode": "32040",
        "Location": "Taman Manjung Point Seksyen 1",
        "Post_Office": "Seri Manjong",
        "State": "Perak"
    },
    {
        "Postcode": "32040",
        "Location": "Taman Samudera",
        "Post_Office": "Seri Manjong",
        "State": "Perak"
    },
    {
        "Postcode": "32040",
        "Location": "Taman Samudra Baru",
        "Post_Office": "Seri Manjong",
        "State": "Perak"
    },
    {
        "Postcode": "32040",
        "Location": "Teluk Pencalang",
        "Post_Office": "Seri Manjong",
        "State": "Perak"
    }
]
