[
    {
        "Postcode": "32200",
        "Location": "Persiaran Manjung Raya 1",
        "Post_Office": "Lumut",
        "State": "Perak"
    },
    {
        "Postcode": "32200",
        "Location": "Persiaran Manjung Raya 2",
        "Post_Office": "Lumut",
        "State": "Perak"
    },
    {
        "Postcode": "32200",
        "Location": "Persiaran Manjung Raya 3",
        "Post_Office": "Lumut",
        "State": "Perak"
    },
    {
        "Postcode": "32200",
        "Location": "Persiaran Manjung Raya 4",
        "Post_Office": "Lumut",
        "State": "Perak"
    },
    {
        "Postcode": "32200",
        "Location": "Persiaran Venice Intan 1",
        "Post_Office": "Lumut",
        "State": "Perak"
    },
    {
        "Postcode": "32200",
        "Location": "Persiaran Venice Intan 10",
        "Post_Office": "Lumut",
        "State": "Perak"
    },
    {
        "Postcode": "32200",
        "Location": "Persiaran Venice Intan 11",
        "Post_Office": "Lumut",
        "State": "Perak"
    },
    {
        "Postcode": "32200",
        "Location": "Persiaran Venice Intan 12",
        "Post_Office": "Lumut",
        "State": "Perak"
    },
    {
        "Postcode": "32200",
        "Location": "Persiaran Venice Intan 2",
        "Post_Office": "Lumut",
        "State": "Perak"
    },
    {
        "Postcode": "32200",
        "Location": "Persiaran Venice Intan 3",
        "Post_Office": "Lumut",
        "State": "Perak"
    },
    {
        "Postcode": "32200",
        "Location": "Persiaran Venice Intan 4",
        "Post_Office": "Lumut",
        "State": "Perak"
    },
    {
        "Postcode": "32200",
        "Location": "Persiaran Venice Intan 5",
        "Post_Office": "Lumut",
        "State": "Perak"
    },
    {
        "Postcode": "32200",
        "Location": "Persiaran Venice Intan 6",
        "Post_Office": "Lumut",
        "State": "Perak"
    },
    {
        "Postcode": "32200",
        "Location": "Persiaran Venice Intan 7",
        "Post_Office": "Lumut",
        "State": "Perak"
    },
    {
        "Postcode": "32200",
        "Location": "Persiaran Venice Intan 8",
        "Post_Office": "Lumut",
        "State": "Perak"
    },
    {
        "Postcode": "32200",
        "Location": "Persiaran Venice Intan 9",
        "Post_Office": "Lumut",
        "State": "Perak"
    },
    {
        "Postcode": "32200",
        "Location": "Persiaran Venice Sutera 1",
        "Post_Office": "Lumut",
        "State": "Perak"
    },
    {
        "Postcode": "32200",
        "Location": "Persiaran Venice Sutera 2",
        "Post_Office": "Lumut",
        "State": "Perak"
    },
    {
        "Postcode": "32200",
        "Location": "Persiaran Venice Sutera 3",
        "Post_Office": "Lumut",
        "State": "Perak"
    },
    {
        "Postcode": "32200",
        "Location": "Persiaran Venice Sutera 4",
        "Post_Office": "Lumut",
        "State": "Perak"
    },
    {
        "Postcode": "32200",
        "Location": "Persiaran Venice Sutera 5",
        "Post_Office": "Lumut",
        "State": "Perak"
    },
    {
        "Postcode": "32200",
        "Location": "Persiaran Venice Sutera 6",
        "Post_Office": "Lumut",
        "State": "Perak"
    },
    {
        "Postcode": "32200",
        "Location": "Persiaran Venice Sutera 7",
        "Post_Office": "Lumut",
        "State": "Perak"
    },
    {
        "Postcode": "32200",
        "Location": "Persiaran Venice Sutera 8",
        "Post_Office": "Lumut",
        "State": "Perak"
    },
    {
        "Postcode": "32200",
        "Location": "Persiaran Venice Sutera 9",
        "Post_Office": "Lumut",
        "State": "Perak"
    },
    {
        "Postcode": "32200",
        "Location": "Kampung Batu 2",
        "Post_Office": "Lumut",
        "State": "Perak"
    },
    {
        "Postcode": "32200",
        "Location": "Kampung Batu 3",
        "Post_Office": "Lumut",
        "State": "Perak"
    },
    {
        "Postcode": "32200",
        "Location": "Kampung Batu 4",
        "Post_Office": "Lumut",
        "State": "Perak"
    },
    {
        "Postcode": "32200",
        "Location": "Kampung Batu 6",
        "Post_Office": "Lumut",
        "State": "Perak"
    },
    {
        "Postcode": "32200",
        "Location": "Kampung Batu 8",
        "Post_Office": "Lumut",
        "State": "Perak"
    },
    {
        "Postcode": "32200",
        "Location": "Kampung Batu 9",
        "Post_Office": "Lumut",
        "State": "Perak"
    },
    {
        "Postcode": "32200",
        "Location": "Kampung Batu 1",
        "Post_Office": "Lumut",
        "State": "Perak"
    },
    {
        "Postcode": "32200",
        "Location": "Kampung Batu 5",
        "Post_Office": "Lumut",
        "State": "Perak"
    },
    {
        "Postcode": "32200",
        "Location": "Kampung Batu 7",
        "Post_Office": "Lumut",
        "State": "Perak"
    },
    {
        "Postcode": "32200",
        "Location": "Teluk Senangin",
        "Post_Office": "Lumut",
        "State": "Perak"
    },
    {
        "Postcode": "32200",
        "Location": "Kampung Padang Tembak",
        "Post_Office": "Lumut",
        "State": "Perak"
    },
    {
        "Postcode": "32200",
        "Location": "Taman Melati",
        "Post_Office": "Lumut",
        "State": "Perak"
    },
    {
        "Postcode": "32200",
        "Location": "Taman Permata",
        "Post_Office": "Lumut",
        "State": "Perak"
    },
    {
        "Postcode": "32200",
        "Location": "Jalan Pasir Panjang",
        "Post_Office": "Lumut",
        "State": "Perak"
    },
    {
        "Postcode": "32200",
        "Location": "Jalan Pegawai",
        "Post_Office": "Lumut",
        "State": "Perak"
    },
    {
        "Postcode": "32200",
        "Location": "Jalan Sultan Iskandar",
        "Post_Office": "Lumut",
        "State": "Perak"
    },
    {
        "Postcode": "32200",
        "Location": "Batu 1 Jalan Lumut",
        "Post_Office": "Lumut",
        "State": "Perak"
    },
    {
        "Postcode": "32200",
        "Location": "Batu 2 Pundut",
        "Post_Office": "Lumut",
        "State": "Perak"
    },
    {
        "Postcode": "32200",
        "Location": "Batu 3 Pundut",
        "Post_Office": "Lumut",
        "State": "Perak"
    },
    {
        "Postcode": "32200",
        "Location": "Damar Laut",
        "Post_Office": "Lumut",
        "State": "Perak"
    },
    {
        "Postcode": "32200",
        "Location": "Jalan Makhoda Mohd Taib",
        "Post_Office": "Lumut",
        "State": "Perak"
    },
    {
        "Postcode": "32200",
        "Location": "Jalan Raja Muda Musa",
        "Post_Office": "Lumut",
        "State": "Perak"
    },
    {
        "Postcode": "32200",
        "Location": "Jalan Sultan Yusof Izuddin",
        "Post_Office": "Lumut",
        "State": "Perak"
    },
    {
        "Postcode": "32200",
        "Location": "Jalan Titi Panjang",
        "Post_Office": "Lumut",
        "State": "Perak"
    },
    {
        "Postcode": "32200",
        "Location": "Kampung Ban Joo Seng",
        "Post_Office": "Lumut",
        "State": "Perak"
    },
    {
        "Postcode": "32200",
        "Location": "Kampung Batu 10 Segari",
        "Post_Office": "Lumut",
        "State": "Perak"
    },
    {
        "Postcode": "32200",
        "Location": "Kampung Damar Laut",
        "Post_Office": "Lumut",
        "State": "Perak"
    },
    {
        "Postcode": "32200",
        "Location": "Kampung Pundut",
        "Post_Office": "Lumut",
        "State": "Perak"
    },
    {
        "Postcode": "32200",
        "Location": "Kampung Segari",
        "Post_Office": "Lumut",
        "State": "Perak"
    },
    {
        "Postcode": "32200",
        "Location": "Kampung Semangat",
        "Post_Office": "Lumut",
        "State": "Perak"
    },
    {
        "Postcode": "32200",
        "Location": "Kampung Tanjong Batu",
        "Post_Office": "Lumut",
        "State": "Perak"
    },
    {
        "Postcode": "32200",
        "Location": "Kampung Telok Muroh",
        "Post_Office": "Lumut",
        "State": "Perak"
    },
    {
        "Postcode": "32200",
        "Location": "Kampung Tersusun Pundut",
        "Post_Office": "Lumut",
        "State": "Perak"
    },
    {
        "Postcode": "32200",
        "Location": "Ladang Segari",
        "Post_Office": "Lumut",
        "State": "Perak"
    },
    {
        "Postcode": "32200",
        "Location": "Lumut",
        "Post_Office": "Lumut",
        "State": "Perak"
    },
    {
        "Postcode": "32200",
        "Location": "Pundut",
        "Post_Office": "Lumut",
        "State": "Perak"
    },
    {
        "Postcode": "32200",
        "Location": "Segari",
        "Post_Office": "Lumut",
        "State": "Perak"
    },
    {
        "Postcode": "32200",
        "Location": "Simpang Tulok Muroh",
        "Post_Office": "Lumut",
        "State": "Perak"
    },
    {
        "Postcode": "32200",
        "Location": "Taman Bukit Maju",
        "Post_Office": "Lumut",
        "State": "Perak"
    },
    {
        "Postcode": "32200",
        "Location": "Taman Bukit Maju 1",
        "Post_Office": "Lumut",
        "State": "Perak"
    },
    {
        "Postcode": "32200",
        "Location": "Taman Bukit Maju 2",
        "Post_Office": "Lumut",
        "State": "Perak"
    },
    {
        "Postcode": "32200",
        "Location": "Taman Lumut Mewah",
        "Post_Office": "Lumut",
        "State": "Perak"
    },
    {
        "Postcode": "32200",
        "Location": "Taman Pantai Lumut Impian",
        "Post_Office": "Lumut",
        "State": "Perak"
    },
    {
        "Postcode": "32200",
        "Location": "Taman Segari",
        "Post_Office": "Lumut",
        "State": "Perak"
    },
    {
        "Postcode": "32200",
        "Location": "Taman Seri Batik",
        "Post_Office": "Lumut",
        "State": "Perak"
    },
    {
        "Postcode": "32200",
        "Location": "Tanjung Batu",
        "Post_Office": "Lumut",
        "State": "Perak"
    },
    {
        "Postcode": "32200",
        "Location": "Teluk Batik",
        "Post_Office": "Lumut",
        "State": "Perak"
    },
    {
        "Postcode": "32200",
        "Location": "Teluk Muroh",
        "Post_Office": "Lumut",
        "State": "Perak"
    }
]
