[
    {
        "Postcode": "32300",
        "Location": "Kampung Masjid",
        "Post_Office": "Pangkor",
        "State": "Perak"
    },
    {
        "Postcode": "32300",
        "Location": "Kampung Tengah",
        "Post_Office": "Pangkor",
        "State": "Perak"
    },
    {
        "Postcode": "32300",
        "Location": "Kampung Sungai Pinang Kecil",
        "Post_Office": "Pangkor",
        "State": "Perak"
    },
    {
        "Postcode": "32300",
        "Location": "Kampung Telok Chempadak",
        "Post_Office": "Pangkor",
        "State": "Perak"
    },
    {
        "Postcode": "32300",
        "Location": "Kampung Telok Dalam",
        "Post_Office": "Pangkor",
        "State": "Perak"
    },
    {
        "Postcode": "32300",
        "Location": "Kampung Telok Gedong",
        "Post_Office": "Pangkor",
        "State": "Perak"
    },
    {
        "Postcode": "32300",
        "Location": "Kampung Telok Kechil",
        "Post_Office": "Pangkor",
        "State": "Perak"
    },
    {
        "Postcode": "32300",
        "Location": "Kampung Telok Nipah",
        "Post_Office": "Pangkor",
        "State": "Perak"
    },
    {
        "Postcode": "32300",
        "Location": "Ladang Beh Ai Hoe",
        "Post_Office": "Pangkor",
        "State": "Perak"
    },
    {
        "Postcode": "32300",
        "Location": "Ladang Beh Kim Chooi",
        "Post_Office": "Pangkor",
        "State": "Perak"
    },
    {
        "Postcode": "32300",
        "Location": "Ladang Ong Soon Kim",
        "Post_Office": "Pangkor",
        "State": "Perak"
    },
    {
        "Postcode": "32300",
        "Location": "Pasir Bogak",
        "Post_Office": "Pangkor",
        "State": "Perak"
    },
    {
        "Postcode": "32300",
        "Location": "Pekan Pangkor (Jalan Besar)",
        "Post_Office": "Pangkor",
        "State": "Perak"
    },
    {
        "Postcode": "32300",
        "Location": "Perumahan Awam Pangkor",
        "Post_Office": "Pangkor",
        "State": "Perak"
    },
    {
        "Postcode": "32300",
        "Location": "Sungai Pinang Besar",
        "Post_Office": "Pangkor",
        "State": "Perak"
    },
    {
        "Postcode": "32300",
        "Location": "Sungai Pinang Kecil",
        "Post_Office": "Pangkor",
        "State": "Perak"
    },
    {
        "Postcode": "32300",
        "Location": "Taman Bogak Permai",
        "Post_Office": "Pangkor",
        "State": "Perak"
    },
    {
        "Postcode": "32300",
        "Location": "Taman Desa Pangkor",
        "Post_Office": "Pangkor",
        "State": "Perak"
    },
    {
        "Postcode": "32300",
        "Location": "Taman Foo Lin Kong",
        "Post_Office": "Pangkor",
        "State": "Perak"
    },
    {
        "Postcode": "32300",
        "Location": "Taman Seri Pangkor",
        "Post_Office": "Pangkor",
        "State": "Perak"
    },
    {
        "Postcode": "32300",
        "Location": "Teluk Baru - Teluk Gedong",
        "Post_Office": "Pangkor",
        "State": "Perak"
    },
    {
        "Postcode": "32300",
        "Location": "Teluk Gedong",
        "Post_Office": "Pangkor",
        "State": "Perak"
    },
    {
        "Postcode": "32300",
        "Location": "Teluk Kechil",
        "Post_Office": "Pangkor",
        "State": "Perak"
    },
    {
        "Postcode": "32300",
        "Location": "Jalan Belakang Pangkor",
        "Post_Office": "Pangkor",
        "State": "Perak"
    },
    {
        "Postcode": "32300",
        "Location": "Jalan Besar Sungai Pinang",
        "Post_Office": "Pangkor",
        "State": "Perak"
    },
    {
        "Postcode": "32300",
        "Location": "Jalan Kilang Ais Lama",
        "Post_Office": "Pangkor",
        "State": "Perak"
    },
    {
        "Postcode": "32300",
        "Location": "Jalan Panggong Wayang Spk",
        "Post_Office": "Pangkor",
        "State": "Perak"
    },
    {
        "Postcode": "32300",
        "Location": "Jalan Pasir Bogak",
        "Post_Office": "Pangkor",
        "State": "Perak"
    },
    {
        "Postcode": "32300",
        "Location": "Jalan Tepi Laut Spb",
        "Post_Office": "Pangkor",
        "State": "Perak"
    },
    {
        "Postcode": "32300",
        "Location": "Jalan Tepi Laut Sungai Pinang Kecil",
        "Post_Office": "Pangkor",
        "State": "Perak"
    },
    {
        "Postcode": "32300",
        "Location": "Kampung Hussin",
        "Post_Office": "Pangkor",
        "State": "Perak"
    },
    {
        "Postcode": "32300",
        "Location": "Kampung Kilang Ais Lama",
        "Post_Office": "Pangkor",
        "State": "Perak"
    },
    {
        "Postcode": "32300",
        "Location": "Kampung Melayu Pasir Bogak",
        "Post_Office": "Pangkor",
        "State": "Perak"
    },
    {
        "Postcode": "32300",
        "Location": "Kampung Pasir Bogak",
        "Post_Office": "Pangkor",
        "State": "Perak"
    },
    {
        "Postcode": "32300",
        "Location": "Kampung Sungai Pinang Besar",
        "Post_Office": "Pangkor",
        "State": "Perak"
    }
]
