[
    {
        "Postcode": "32400",
        "Location": "Taman Ayer Tawar 1",
        "Post_Office": "Ayer Tawar",
        "State": "Perak"
    },
    {
        "Postcode": "32400",
        "Location": "Taman Ayer Tawar 2",
        "Post_Office": "Ayer Tawar",
        "State": "Perak"
    },
    {
        "Postcode": "32400",
        "Location": "Taman Ayer Tawar Jaya 1",
        "Post_Office": "Ayer Tawar",
        "State": "Perak"
    },
    {
        "Postcode": "32400",
        "Location": "Taman Ayer Tawar Jaya 2",
        "Post_Office": "Ayer Tawar",
        "State": "Perak"
    },
    {
        "Postcode": "32400",
        "Location": "Taman Makmur 1",
        "Post_Office": "Ayer Tawar",
        "State": "Perak"
    },
    {
        "Postcode": "32400",
        "Location": "Taman Makmur 2",
        "Post_Office": "Ayer Tawar",
        "State": "Perak"
    },
    {
        "Postcode": "32400",
        "Location": "Taman Sungai Wang 1",
        "Post_Office": "Ayer Tawar",
        "State": "Perak"
    },
    {
        "Postcode": "32400",
        "Location": "Taman Sungai Wang 2",
        "Post_Office": "Ayer Tawar",
        "State": "Perak"
    },
    {
        "Postcode": "32400",
        "Location": "Jalan Besar",
        "Post_Office": "Ayer Tawar",
        "State": "Perak"
    },
    {
        "Postcode": "32400",
        "Location": "Kampung Baru",
        "Post_Office": "Ayer Tawar",
        "State": "Perak"
    },
    {
        "Postcode": "32400",
        "Location": "Kampung Kurnia",
        "Post_Office": "Ayer Tawar",
        "State": "Perak"
    },
    {
        "Postcode": "32400",
        "Location": "Kampung Lalang",
        "Post_Office": "Ayer Tawar",
        "State": "Perak"
    },
    {
        "Postcode": "32400",
        "Location": "Kampung Merbau",
        "Post_Office": "Ayer Tawar",
        "State": "Perak"
    },
    {
        "Postcode": "32400",
        "Location": "Kampung Muhibbah",
        "Post_Office": "Ayer Tawar",
        "State": "Perak"
    },
    {
        "Postcode": "32400",
        "Location": "Kampung Tengah",
        "Post_Office": "Ayer Tawar",
        "State": "Perak"
    },
    {
        "Postcode": "32400",
        "Location": "Ladang Fima",
        "Post_Office": "Ayer Tawar",
        "State": "Perak"
    },
    {
        "Postcode": "32400",
        "Location": "Taman Bistari",
        "Post_Office": "Ayer Tawar",
        "State": "Perak"
    },
    {
        "Postcode": "32400",
        "Location": "Taman Damai ",
        "Post_Office": "Ayer Tawar",
        "State": "Perak"
    },
    {
        "Postcode": "32400",
        "Location": "Taman Gembira",
        "Post_Office": "Ayer Tawar",
        "State": "Perak"
    },
    {
        "Postcode": "32400",
        "Location": "Jalan Gereja",
        "Post_Office": "Ayer Tawar",
        "State": "Perak"
    },
    {
        "Postcode": "32400",
        "Location": "Jalan Sekolah",
        "Post_Office": "Ayer Tawar",
        "State": "Perak"
    },
    {
        "Postcode": "32400",
        "Location": "Kampung Jelutong",
        "Post_Office": "Ayer Tawar",
        "State": "Perak"
    },
    {
        "Postcode": "32400",
        "Location": "Kampung Tebok",
        "Post_Office": "Ayer Tawar",
        "State": "Perak"
    },
    {
        "Postcode": "32400",
        "Location": "Taman Emas",
        "Post_Office": "Ayer Tawar",
        "State": "Perak"
    },
    {
        "Postcode": "32400",
        "Location": "Taman Pegoh",
        "Post_Office": "Ayer Tawar",
        "State": "Perak"
    },
    {
        "Postcode": "32400",
        "Location": "Taman Bersatu",
        "Post_Office": "Ayer Tawar",
        "State": "Perak"
    },
    {
        "Postcode": "32400",
        "Location": "Jalan Baru",
        "Post_Office": "Ayer Tawar",
        "State": "Perak"
    },
    {
        "Postcode": "32400",
        "Location": "Kampung Teluk",
        "Post_Office": "Ayer Tawar",
        "State": "Perak"
    },
    {
        "Postcode": "32400",
        "Location": "Taman Bunga Raya",
        "Post_Office": "Ayer Tawar",
        "State": "Perak"
    },
    {
        "Postcode": "32400",
        "Location": "Taman Desa Jaya",
        "Post_Office": "Ayer Tawar",
        "State": "Perak"
    },
    {
        "Postcode": "32400",
        "Location": "Taman Kenari",
        "Post_Office": "Ayer Tawar",
        "State": "Perak"
    },
    {
        "Postcode": "32400",
        "Location": "Taman Mawar",
        "Post_Office": "Ayer Tawar",
        "State": "Perak"
    },
    {
        "Postcode": "32400",
        "Location": "Taman Orkid",
        "Post_Office": "Ayer Tawar",
        "State": "Perak"
    },
    {
        "Postcode": "32400",
        "Location": "Taman Pelangi",
        "Post_Office": "Ayer Tawar",
        "State": "Perak"
    },
    {
        "Postcode": "32400",
        "Location": "Taman Permata",
        "Post_Office": "Ayer Tawar",
        "State": "Perak"
    },
    {
        "Postcode": "32400",
        "Location": "Taman Selamat",
        "Post_Office": "Ayer Tawar",
        "State": "Perak"
    },
    {
        "Postcode": "32400",
        "Location": "Kampung Bakar Bata",
        "Post_Office": "Ayer Tawar",
        "State": "Perak"
    },
    {
        "Postcode": "32400",
        "Location": "Kampung Banjar",
        "Post_Office": "Ayer Tawar",
        "State": "Perak"
    },
    {
        "Postcode": "32400",
        "Location": "Api Kong",
        "Post_Office": "Ayer Tawar",
        "State": "Perak"
    },
    {
        "Postcode": "32400",
        "Location": "Ayer Tawar",
        "Post_Office": "Ayer Tawar",
        "State": "Perak"
    },
    {
        "Postcode": "32400",
        "Location": "Bakar Bata",
        "Post_Office": "Ayer Tawar",
        "State": "Perak"
    },
    {
        "Postcode": "32400",
        "Location": "Batu 15 Hingga 20 Jalan Bruas",
        "Post_Office": "Ayer Tawar",
        "State": "Perak"
    },
    {
        "Postcode": "32400",
        "Location": "Batu 43 Hingga 45 Jalan Sitiawan",
        "Post_Office": "Ayer Tawar",
        "State": "Perak"
    },
    {
        "Postcode": "32400",
        "Location": "Belakang Kampung Baru",
        "Post_Office": "Ayer Tawar",
        "State": "Perak"
    },
    {
        "Postcode": "32400",
        "Location": "Changkat Chermin",
        "Post_Office": "Ayer Tawar",
        "State": "Perak"
    },
    {
        "Postcode": "32400",
        "Location": "Felcra Kampung Kurnia Gelong Gajah",
        "Post_Office": "Ayer Tawar",
        "State": "Perak"
    },
    {
        "Postcode": "32400",
        "Location": "Gelong Gajah",
        "Post_Office": "Ayer Tawar",
        "State": "Perak"
    },
    {
        "Postcode": "32400",
        "Location": "Jalan Kilang Kelapa Sawit",
        "Post_Office": "Ayer Tawar",
        "State": "Perak"
    },
    {
        "Postcode": "32400",
        "Location": "Jalan Klinik",
        "Post_Office": "Ayer Tawar",
        "State": "Perak"
    },
    {
        "Postcode": "32400",
        "Location": "Jalan Lapeh",
        "Post_Office": "Ayer Tawar",
        "State": "Perak"
    },
    {
        "Postcode": "32400",
        "Location": "Jalan Lee Boi Choon",
        "Post_Office": "Ayer Tawar",
        "State": "Perak"
    },
    {
        "Postcode": "32400",
        "Location": "Jalan Ling Sing Hang",
        "Post_Office": "Ayer Tawar",
        "State": "Perak"
    },
    {
        "Postcode": "32400",
        "Location": "Jalan Melayu",
        "Post_Office": "Ayer Tawar",
        "State": "Perak"
    },
    {
        "Postcode": "32400",
        "Location": "Jalan Tengah (Central Road)",
        "Post_Office": "Ayer Tawar",
        "State": "Perak"
    },
    {
        "Postcode": "32400",
        "Location": "Kampung Ambika",
        "Post_Office": "Ayer Tawar",
        "State": "Perak"
    },
    {
        "Postcode": "32400",
        "Location": "Kampung Ayer Estate",
        "Post_Office": "Ayer Tawar",
        "State": "Perak"
    },
    {
        "Postcode": "32400",
        "Location": "Kampung Ayer Tawar",
        "Post_Office": "Ayer Tawar",
        "State": "Perak"
    },
    {
        "Postcode": "32400",
        "Location": "Kampung Baru (L)",
        "Post_Office": "Ayer Tawar",
        "State": "Perak"
    },
    {
        "Postcode": "32400",
        "Location": "Kampung Changkat Assam",
        "Post_Office": "Ayer Tawar",
        "State": "Perak"
    },
    {
        "Postcode": "32400",
        "Location": "Kampung Changkat Chermin",
        "Post_Office": "Ayer Tawar",
        "State": "Perak"
    },
    {
        "Postcode": "32400",
        "Location": "Kampung Columbia",
        "Post_Office": "Ayer Tawar",
        "State": "Perak"
    },
    {
        "Postcode": "32400",
        "Location": "Kampung Gelong Gajah",
        "Post_Office": "Ayer Tawar",
        "State": "Perak"
    },
    {
        "Postcode": "32400",
        "Location": "Kampung Jering",
        "Post_Office": "Ayer Tawar",
        "State": "Perak"
    },
    {
        "Postcode": "32400",
        "Location": "Kampung Paya Nibong",
        "Post_Office": "Ayer Tawar",
        "State": "Perak"
    },
    {
        "Postcode": "32400",
        "Location": "Kampung Raja Hitam",
        "Post_Office": "Ayer Tawar",
        "State": "Perak"
    },
    {
        "Postcode": "32400",
        "Location": "Kampung Seberang Tambang",
        "Post_Office": "Ayer Tawar",
        "State": "Perak"
    },
    {
        "Postcode": "32400",
        "Location": "Kampung Sungai Pasir",
        "Post_Office": "Ayer Tawar",
        "State": "Perak"
    },
    {
        "Postcode": "32400",
        "Location": "Kampung Sungai Ramai",
        "Post_Office": "Ayer Tawar",
        "State": "Perak"
    },
    {
        "Postcode": "32400",
        "Location": "Kampung Sungai Tiong",
        "Post_Office": "Ayer Tawar",
        "State": "Perak"
    },
    {
        "Postcode": "32400",
        "Location": "Kampung Sungai Wangi",
        "Post_Office": "Ayer Tawar",
        "State": "Perak"
    },
    {
        "Postcode": "32400",
        "Location": "Kampung Tersusun Gelong Gajah",
        "Post_Office": "Ayer Tawar",
        "State": "Perak"
    },
    {
        "Postcode": "32400",
        "Location": "Kampung Tun Sambathan",
        "Post_Office": "Ayer Tawar",
        "State": "Perak"
    },
    {
        "Postcode": "32400",
        "Location": "Kampung Willingdon",
        "Post_Office": "Ayer Tawar",
        "State": "Perak"
    },
    {
        "Postcode": "32400",
        "Location": "Ladang Bilham",
        "Post_Office": "Ayer Tawar",
        "State": "Perak"
    },
    {
        "Postcode": "32400",
        "Location": "Ladang Cashwood",
        "Post_Office": "Ayer Tawar",
        "State": "Perak"
    },
    {
        "Postcode": "32400",
        "Location": "Ladang Changkat Cermin",
        "Post_Office": "Ayer Tawar",
        "State": "Perak"
    },
    {
        "Postcode": "32400",
        "Location": "Ladang Harcroft",
        "Post_Office": "Ayer Tawar",
        "State": "Perak"
    },
    {
        "Postcode": "32400",
        "Location": "Ladang Kelapa Sawit",
        "Post_Office": "Ayer Tawar",
        "State": "Perak"
    },
    {
        "Postcode": "32400",
        "Location": "Ladang Lim Swee Aun",
        "Post_Office": "Ayer Tawar",
        "State": "Perak"
    },
    {
        "Postcode": "32400",
        "Location": "Ladang Raja Hitam",
        "Post_Office": "Ayer Tawar",
        "State": "Perak"
    },
    {
        "Postcode": "32400",
        "Location": "Ladang Rycroft",
        "Post_Office": "Ayer Tawar",
        "State": "Perak"
    },
    {
        "Postcode": "32400",
        "Location": "Ladang Ulu Ayer Tawar",
        "Post_Office": "Ayer Tawar",
        "State": "Perak"
    },
    {
        "Postcode": "32400",
        "Location": "Ladang Walbrook",
        "Post_Office": "Ayer Tawar",
        "State": "Perak"
    },
    {
        "Postcode": "32400",
        "Location": "Northward",
        "Post_Office": "Ayer Tawar",
        "State": "Perak"
    },
    {
        "Postcode": "32400",
        "Location": "Perumahan Awam 1 \u0026 2",
        "Post_Office": "Ayer Tawar",
        "State": "Perak"
    },
    {
        "Postcode": "32400",
        "Location": "Stesen Komuniikasi Tldm",
        "Post_Office": "Ayer Tawar",
        "State": "Perak"
    },
    {
        "Postcode": "32400",
        "Location": "Sungai Tiong",
        "Post_Office": "Ayer Tawar",
        "State": "Perak"
    },
    {
        "Postcode": "32400",
        "Location": "Taman Biru",
        "Post_Office": "Ayer Tawar",
        "State": "Perak"
    },
    {
        "Postcode": "32400",
        "Location": "Taman Cahaya Jering",
        "Post_Office": "Ayer Tawar",
        "State": "Perak"
    },
    {
        "Postcode": "32400",
        "Location": "Taman Desa Baru",
        "Post_Office": "Ayer Tawar",
        "State": "Perak"
    },
    {
        "Postcode": "32400",
        "Location": "Taman Dindings",
        "Post_Office": "Ayer Tawar",
        "State": "Perak"
    },
    {
        "Postcode": "32400",
        "Location": "Taman Indah Ria",
        "Post_Office": "Ayer Tawar",
        "State": "Perak"
    },
    {
        "Postcode": "32400",
        "Location": "Taman Iswara",
        "Post_Office": "Ayer Tawar",
        "State": "Perak"
    },
    {
        "Postcode": "32400",
        "Location": "Taman Ling Sing Hang",
        "Post_Office": "Ayer Tawar",
        "State": "Perak"
    },
    {
        "Postcode": "32400",
        "Location": "Taman Manickavasagam",
        "Post_Office": "Ayer Tawar",
        "State": "Perak"
    },
    {
        "Postcode": "32400",
        "Location": "Taman Matahari",
        "Post_Office": "Ayer Tawar",
        "State": "Perak"
    },
    {
        "Postcode": "32400",
        "Location": "Taman Megah Jaya",
        "Post_Office": "Ayer Tawar",
        "State": "Perak"
    },
    {
        "Postcode": "32400",
        "Location": "Taman Seri Wangi",
        "Post_Office": "Ayer Tawar",
        "State": "Perak"
    },
    {
        "Postcode": "32400",
        "Location": "Taman Sri Ayer Tawar",
        "Post_Office": "Ayer Tawar",
        "State": "Perak"
    },
    {
        "Postcode": "32400",
        "Location": "Taman Sri Melur",
        "Post_Office": "Ayer Tawar",
        "State": "Perak"
    },
    {
        "Postcode": "32400",
        "Location": "Taman Sri Sentosa",
        "Post_Office": "Ayer Tawar",
        "State": "Perak"
    },
    {
        "Postcode": "32400",
        "Location": "Telaga Nenas",
        "Post_Office": "Ayer Tawar",
        "State": "Perak"
    },
    {
        "Postcode": "32400",
        "Location": "Taman Bandar",
        "Post_Office": "Ayer Tawar",
        "State": "Perak"
    },
    {
        "Postcode": "32400",
        "Location": "Taman Jasmin",
        "Post_Office": "Ayer Tawar",
        "State": "Perak"
    },
    {
        "Postcode": "32400",
        "Location": "Taman Maju Mewah",
        "Post_Office": "Ayer Tawar",
        "State": "Perak"
    },
    {
        "Postcode": "32400",
        "Location": "Taman Sri Indah",
        "Post_Office": "Ayer Tawar",
        "State": "Perak"
    },
    {
        "Postcode": "32400",
        "Location": "Taman Sri Megah",
        "Post_Office": "Ayer Tawar",
        "State": "Perak"
    },
    {
        "Postcode": "32400",
        "Location": "Taman Sri Perak",
        "Post_Office": "Ayer Tawar",
        "State": "Perak"
    }
]
