[
    {
        "Postcode": "32500",
        "Location": "Kampung Baru",
        "Post_Office": "Changkat Keruing",
        "State": "Perak"
    },
    {
        "Postcode": "32500",
        "Location": "Taman Intan",
        "Post_Office": "Changkat Keruing",
        "State": "Perak"
    },
    {
        "Postcode": "32500",
        "Location": "Kampung Lubuk Pusing",
        "Post_Office": "Changkat Keruing",
        "State": "Perak"
    },
    {
        "Postcode": "32500",
        "Location": "Belakang Taman Teck Seng",
        "Post_Office": "Changkat Keruing",
        "State": "Perak"
    },
    {
        "Postcode": "32500",
        "Location": "Changkat Keruing",
        "Post_Office": "Changkat Keruing",
        "State": "Perak"
    },
    {
        "Postcode": "32500",
        "Location": "Kampung 40 Rantai",
        "Post_Office": "Changkat Keruing",
        "State": "Perak"
    },
    {
        "Postcode": "32500",
        "Location": "Kampung Beting Luas",
        "Post_Office": "Changkat Keruing",
        "State": "Perak"
    },
    {
        "Postcode": "32500",
        "Location": "Kampung Empat Puloh Rantai",
        "Post_Office": "Changkat Keruing",
        "State": "Perak"
    },
    {
        "Postcode": "32500",
        "Location": "Kampung Gunung Tunggal",
        "Post_Office": "Changkat Keruing",
        "State": "Perak"
    },
    {
        "Postcode": "32500",
        "Location": "Kampung Indian Settlement",
        "Post_Office": "Changkat Keruing",
        "State": "Perak"
    },
    {
        "Postcode": "32500",
        "Location": "Kampung Ldg Ong Chin Seong",
        "Post_Office": "Changkat Keruing",
        "State": "Perak"
    },
    {
        "Postcode": "32500",
        "Location": "Kampung Ldg Ong Lai",
        "Post_Office": "Changkat Keruing",
        "State": "Perak"
    },
    {
        "Postcode": "32500",
        "Location": "Kampung Nesa",
        "Post_Office": "Changkat Keruing",
        "State": "Perak"
    },
    {
        "Postcode": "32500",
        "Location": "Lubok Pusing",
        "Post_Office": "Changkat Keruing",
        "State": "Perak"
    },
    {
        "Postcode": "32500",
        "Location": "Taman Berlian 1",
        "Post_Office": "Changkat Keruing",
        "State": "Perak"
    },
    {
        "Postcode": "32500",
        "Location": "Taman Berlian 2",
        "Post_Office": "Changkat Keruing",
        "State": "Perak"
    },
    {
        "Postcode": "32500",
        "Location": "Taman Desa Kruing",
        "Post_Office": "Changkat Keruing",
        "State": "Perak"
    },
    {
        "Postcode": "32500",
        "Location": "Taman Sinar",
        "Post_Office": "Changkat Keruing",
        "State": "Perak"
    },
    {
        "Postcode": "32500",
        "Location": "Taman Teck Seng",
        "Post_Office": "Changkat Keruing",
        "State": "Perak"
    }
]
