[
    {
        "Postcode": "32600",
        "Location": "Parit 10, Titi Gantong",
        "Post_Office": "Bota",
        "State": "Perak"
    },
    {
        "Postcode": "32600",
        "Location": "Parit 11, Titi Gantong",
        "Post_Office": "Bota",
        "State": "Perak"
    },
    {
        "Postcode": "32600",
        "Location": "Parit 12, Titi Gantong",
        "Post_Office": "Bota",
        "State": "Perak"
    },
    {
        "Postcode": "32600",
        "Location": "Parit 13, Titi Gantong",
        "Post_Office": "Bota",
        "State": "Perak"
    },
    {
        "Postcode": "32600",
        "Location": "Parit 14, Titi Gantong",
        "Post_Office": "Bota",
        "State": "Perak"
    },
    {
        "Postcode": "32600",
        "Location": "Parit 9, Titi Gantong",
        "Post_Office": "Bota",
        "State": "Perak"
    },
    {
        "Postcode": "32600",
        "Location": "Kampung Baru",
        "Post_Office": "Bota",
        "State": "Perak"
    },
    {
        "Postcode": "32600",
        "Location": "Kampung Haji",
        "Post_Office": "Bota",
        "State": "Perak"
    },
    {
        "Postcode": "32600",
        "Location": "Kampung Parit",
        "Post_Office": "Bota",
        "State": "Perak"
    },
    {
        "Postcode": "32600",
        "Location": "Kampung Pulau Pisang",
        "Post_Office": "Bota",
        "State": "Perak"
    },
    {
        "Postcode": "32600",
        "Location": "Kampung Selat",
        "Post_Office": "Bota",
        "State": "Perak"
    },
    {
        "Postcode": "32600",
        "Location": "Kampung Tali Ayer",
        "Post_Office": "Bota",
        "State": "Perak"
    },
    {
        "Postcode": "32600",
        "Location": "Taman Kenangan",
        "Post_Office": "Bota",
        "State": "Perak"
    },
    {
        "Postcode": "32600",
        "Location": "Taman Sri Wangsa",
        "Post_Office": "Bota",
        "State": "Perak"
    },
    {
        "Postcode": "32600",
        "Location": "Kampung Tebing Rebak\r\n",
        "Post_Office": "Selekoh",
        "State": "Perak"
    },
    {
        "Postcode": "32600",
        "Location": "Kampung Tebing Rebak\r\n",
        "Post_Office": "Selekoh",
        "State": "Perak"
    },
    {
        "Postcode": "32600",
        "Location": "Kampung Masjid Lama",
        "Post_Office": "Bota",
        "State": "Perak"
    },
    {
        "Postcode": "32600",
        "Location": "Kampung Panchor",
        "Post_Office": "Bota",
        "State": "Perak"
    },
    {
        "Postcode": "32600",
        "Location": "Kampung Pulau",
        "Post_Office": "Bota",
        "State": "Perak"
    },
    {
        "Postcode": "32600",
        "Location": "Ayer Mati",
        "Post_Office": "Bota",
        "State": "Perak"
    },
    {
        "Postcode": "32600",
        "Location": "Balai Bomba Daerah Sri Iskandar",
        "Post_Office": "Bota",
        "State": "Perak"
    },
    {
        "Postcode": "32600",
        "Location": "Bandar Seri Iskandar",
        "Post_Office": "Bota",
        "State": "Perak"
    },
    {
        "Postcode": "32600",
        "Location": "Bendang Bakong",
        "Post_Office": "Bota",
        "State": "Perak"
    },
    {
        "Postcode": "32600",
        "Location": "Bota",
        "Post_Office": "Bota",
        "State": "Perak"
    },
    {
        "Postcode": "32600",
        "Location": "Durian Kudong",
        "Post_Office": "Bota",
        "State": "Perak"
    },
    {
        "Postcode": "32600",
        "Location": "Ekor Bota",
        "Post_Office": "Bota",
        "State": "Perak"
    },
    {
        "Postcode": "32600",
        "Location": "Felcra Nasaruddin",
        "Post_Office": "Bota",
        "State": "Perak"
    },
    {
        "Postcode": "32600",
        "Location": "Gedong Batu",
        "Post_Office": "Bota",
        "State": "Perak"
    },
    {
        "Postcode": "32600",
        "Location": "Institut Latihan Kemas",
        "Post_Office": "Bota",
        "State": "Perak"
    },
    {
        "Postcode": "32600",
        "Location": "Jabatan Penerangan Daerah Sri Iskandar",
        "Post_Office": "Bota",
        "State": "Perak"
    },
    {
        "Postcode": "32600",
        "Location": "Kampung Aji Hilir",
        "Post_Office": "Bota",
        "State": "Perak"
    },
    {
        "Postcode": "32600",
        "Location": "Kampung Aji Hulu",
        "Post_Office": "Bota",
        "State": "Perak"
    },
    {
        "Postcode": "32600",
        "Location": "Kampung Alor Belibeh",
        "Post_Office": "Bota",
        "State": "Perak"
    },
    {
        "Postcode": "32600",
        "Location": "Kampung Asam Kumbang",
        "Post_Office": "Bota",
        "State": "Perak"
    },
    {
        "Postcode": "32600",
        "Location": "Kampung Baru Lambok Kiri",
        "Post_Office": "Bota",
        "State": "Perak"
    },
    {
        "Postcode": "32600",
        "Location": "Kampung Bendang Bakong",
        "Post_Office": "Bota",
        "State": "Perak"
    },
    {
        "Postcode": "32600",
        "Location": "Kampung Bota Kiri",
        "Post_Office": "Bota",
        "State": "Perak"
    },
    {
        "Postcode": "32600",
        "Location": "Kampung Changkat Melintang",
        "Post_Office": "Bota",
        "State": "Perak"
    },
    {
        "Postcode": "32600",
        "Location": "Kampung Changkat Panchor",
        "Post_Office": "Bota",
        "State": "Perak"
    },
    {
        "Postcode": "32600",
        "Location": "Kampung Durian Kudong",
        "Post_Office": "Bota",
        "State": "Perak"
    },
    {
        "Postcode": "32600",
        "Location": "Kampung Jalan Makam",
        "Post_Office": "Bota",
        "State": "Perak"
    },
    {
        "Postcode": "32600",
        "Location": "Kampung Jalan Tronoh",
        "Post_Office": "Bota",
        "State": "Perak"
    },
    {
        "Postcode": "32600",
        "Location": "Kampung Kubang Candong",
        "Post_Office": "Bota",
        "State": "Perak"
    },
    {
        "Postcode": "32600",
        "Location": "Kampung Kubang Ikan",
        "Post_Office": "Bota",
        "State": "Perak"
    },
    {
        "Postcode": "32600",
        "Location": "Kampung Nasaruddin",
        "Post_Office": "Bota",
        "State": "Perak"
    },
    {
        "Postcode": "32600",
        "Location": "Kampung Padang Kuncur",
        "Post_Office": "Bota",
        "State": "Perak"
    },
    {
        "Postcode": "32600",
        "Location": "Kampung Pulau Bota Kanan",
        "Post_Office": "Bota",
        "State": "Perak"
    },
    {
        "Postcode": "32600",
        "Location": "Kampung Pulau Padang",
        "Post_Office": "Bota",
        "State": "Perak"
    },
    {
        "Postcode": "32600",
        "Location": "Kampung Pulau Selat",
        "Post_Office": "Bota",
        "State": "Perak"
    },
    {
        "Postcode": "32600",
        "Location": "Kampung Sedingka",
        "Post_Office": "Bota",
        "State": "Perak"
    },
    {
        "Postcode": "32600",
        "Location": "Kampung Selat Bota Kanan",
        "Post_Office": "Bota",
        "State": "Perak"
    },
    {
        "Postcode": "32600",
        "Location": "Kampung Suak Padi",
        "Post_Office": "Bota",
        "State": "Perak"
    },
    {
        "Postcode": "32600",
        "Location": "Kampung Sungai Pendiat",
        "Post_Office": "Bota",
        "State": "Perak"
    },
    {
        "Postcode": "32600",
        "Location": "Kampung Tanjong Gelugor",
        "Post_Office": "Bota",
        "State": "Perak"
    },
    {
        "Postcode": "32600",
        "Location": "Kampung Tembok Hangat",
        "Post_Office": "Bota",
        "State": "Perak"
    },
    {
        "Postcode": "32600",
        "Location": "Kampung Tonjong Aur",
        "Post_Office": "Bota",
        "State": "Perak"
    },
    {
        "Postcode": "32600",
        "Location": "Kerajaan Seri Iskandar",
        "Post_Office": "Bota",
        "State": "Perak"
    },
    {
        "Postcode": "32600",
        "Location": "Kompleks Perumahan Kakitangan Kerajaan",
        "Post_Office": "Bota",
        "State": "Perak"
    },
    {
        "Postcode": "32600",
        "Location": "Kubang Chandong",
        "Post_Office": "Bota",
        "State": "Perak"
    },
    {
        "Postcode": "32600",
        "Location": "Kubang Ikan",
        "Post_Office": "Bota",
        "State": "Perak"
    },
    {
        "Postcode": "32600",
        "Location": "Padang Kuncur",
        "Post_Office": "Bota",
        "State": "Perak"
    },
    {
        "Postcode": "32600",
        "Location": "Padang Tengah",
        "Post_Office": "Bota",
        "State": "Perak"
    },
    {
        "Postcode": "32600",
        "Location": "Padang Tenggala",
        "Post_Office": "Bota",
        "State": "Perak"
    },
    {
        "Postcode": "32600",
        "Location": "Perkampungan Binjai Jaya",
        "Post_Office": "Bota",
        "State": "Perak"
    },
    {
        "Postcode": "32600",
        "Location": "Perkampungan Tersusun Gelung Pepuyu",
        "Post_Office": "Bota",
        "State": "Perak"
    },
    {
        "Postcode": "32600",
        "Location": "Perumahan Awam Gelung Pepuyu",
        "Post_Office": "Bota",
        "State": "Perak"
    },
    {
        "Postcode": "32600",
        "Location": "Pulau Padang",
        "Post_Office": "Bota",
        "State": "Perak"
    },
    {
        "Postcode": "32600",
        "Location": "Rpa Changkat Sodang",
        "Post_Office": "Bota",
        "State": "Perak"
    },
    {
        "Postcode": "32600",
        "Location": "Sauk Padi",
        "Post_Office": "Bota",
        "State": "Perak"
    },
    {
        "Postcode": "32600",
        "Location": "Serdang Seri Iskandar",
        "Post_Office": "Bota",
        "State": "Perak"
    },
    {
        "Postcode": "32600",
        "Location": "Setesen Komunikasi (Sktldm)",
        "Post_Office": "Bota",
        "State": "Perak"
    },
    {
        "Postcode": "32600",
        "Location": "Sungai Pendiat",
        "Post_Office": "Bota",
        "State": "Perak"
    },
    {
        "Postcode": "32600",
        "Location": "Taman Desa Seri Iskandar",
        "Post_Office": "Bota",
        "State": "Perak"
    },
    {
        "Postcode": "32600",
        "Location": "Taman Indera",
        "Post_Office": "Bota",
        "State": "Perak"
    },
    {
        "Postcode": "32600",
        "Location": "Taman Indera Barat",
        "Post_Office": "Bota",
        "State": "Perak"
    },
    {
        "Postcode": "32600",
        "Location": "Taman Indera Putra",
        "Post_Office": "Bota",
        "State": "Perak"
    },
    {
        "Postcode": "32600",
        "Location": "Taman Iskandar Perdana",
        "Post_Office": "Bota",
        "State": "Perak"
    },
    {
        "Postcode": "32600",
        "Location": "Taman Seri Semangat",
        "Post_Office": "Bota",
        "State": "Perak"
    },
    {
        "Postcode": "32600",
        "Location": "Taman Tok Said",
        "Post_Office": "Bota",
        "State": "Perak"
    },
    {
        "Postcode": "32600",
        "Location": "Tanjung Gelugor",
        "Post_Office": "Bota",
        "State": "Perak"
    },
    {
        "Postcode": "32600",
        "Location": "Tembok Hangat",
        "Post_Office": "Bota",
        "State": "Perak"
    },
    {
        "Postcode": "32600",
        "Location": "Titi Gantung",
        "Post_Office": "Bota",
        "State": "Perak"
    },
    {
        "Postcode": "32600",
        "Location": "Titi Gantung (Batu 29 - 30)",
        "Post_Office": "Bota",
        "State": "Perak"
    },
    {
        "Postcode": "32600",
        "Location": "Kampung Padang Changkat",
        "Post_Office": "Bota",
        "State": "Perak"
    },
    {
        "Postcode": "32600",
        "Location": "Kampung Padang Changkat",
        "Post_Office": "Bota",
        "State": "Perak"
    },
    {
        "Postcode": "32600",
        "Location": "Kampung Pendiat",
        "Post_Office": "Bota",
        "State": "Perak"
    },
    {
        "Postcode": "32600",
        "Location": "Taman Dahlia",
        "Post_Office": "Bota",
        "State": "Perak"
    }
]
