[
    {
        "Postcode": "32700",
        "Location": "Kampung Batu 26",
        "Post_Office": "Bruas",
        "State": "Perak"
    },
    {
        "Postcode": "32700",
        "Location": "Kampung Kota",
        "Post_Office": "Bruas",
        "State": "Perak"
    },
    {
        "Postcode": "32700",
        "Location": "Kampung Tersusun Kampung Kedah",
        "Post_Office": "Bruas",
        "State": "Perak"
    },
    {
        "Postcode": "32700",
        "Location": "Kampung Tersusun Kampung Tengah",
        "Post_Office": "Bruas",
        "State": "Perak"
    },
    {
        "Postcode": "32700",
        "Location": "Batu Hampar",
        "Post_Office": "Bruas",
        "State": "Perak"
    },
    {
        "Postcode": "32700",
        "Location": "Kampung Batu Hampar",
        "Post_Office": "Bruas",
        "State": "Perak"
    },
    {
        "Postcode": "32700",
        "Location": "Kampung Changkat Berangan",
        "Post_Office": "Bruas",
        "State": "Perak"
    },
    {
        "Postcode": "32700",
        "Location": "Taman Anggerik",
        "Post_Office": "Bruas",
        "State": "Perak"
    },
    {
        "Postcode": "32700",
        "Location": "Bruas",
        "Post_Office": "Bruas",
        "State": "Perak"
    },
    {
        "Postcode": "32700",
        "Location": "Gelong Pepuyu",
        "Post_Office": "Bruas",
        "State": "Perak"
    },
    {
        "Postcode": "32700",
        "Location": "Hujong Kota",
        "Post_Office": "Bruas",
        "State": "Perak"
    },
    {
        "Postcode": "32700",
        "Location": "Jalan Parit (Batu 34 - 36)",
        "Post_Office": "Bruas",
        "State": "Perak"
    },
    {
        "Postcode": "32700",
        "Location": "Jalan Sitiawan (Batu 36)",
        "Post_Office": "Bruas",
        "State": "Perak"
    },
    {
        "Postcode": "32700",
        "Location": "Kampung Banggol",
        "Post_Office": "Bruas",
        "State": "Perak"
    },
    {
        "Postcode": "32700",
        "Location": "Kampung Baru Bruas",
        "Post_Office": "Bruas",
        "State": "Perak"
    },
    {
        "Postcode": "32700",
        "Location": "Kampung Burok Bakul",
        "Post_Office": "Bruas",
        "State": "Perak"
    },
    {
        "Postcode": "32700",
        "Location": "Kampung Cik Putih",
        "Post_Office": "Bruas",
        "State": "Perak"
    },
    {
        "Postcode": "32700",
        "Location": "Kampung Dendang",
        "Post_Office": "Bruas",
        "State": "Perak"
    },
    {
        "Postcode": "32700",
        "Location": "Kampung Empang",
        "Post_Office": "Bruas",
        "State": "Perak"
    },
    {
        "Postcode": "32700",
        "Location": "Kampung Kilang",
        "Post_Office": "Bruas",
        "State": "Perak"
    },
    {
        "Postcode": "32700",
        "Location": "Kampung Kota Hujong",
        "Post_Office": "Bruas",
        "State": "Perak"
    },
    {
        "Postcode": "32700",
        "Location": "Kampung Padang Serai",
        "Post_Office": "Bruas",
        "State": "Perak"
    },
    {
        "Postcode": "32700",
        "Location": "Kampung Padang Serai Dalam",
        "Post_Office": "Bruas",
        "State": "Perak"
    },
    {
        "Postcode": "32700",
        "Location": "Kampung Paya Ara",
        "Post_Office": "Bruas",
        "State": "Perak"
    },
    {
        "Postcode": "32700",
        "Location": "Kampung Pengkalan Damar",
        "Post_Office": "Bruas",
        "State": "Perak"
    },
    {
        "Postcode": "32700",
        "Location": "Kampung Pulau Kabong",
        "Post_Office": "Bruas",
        "State": "Perak"
    },
    {
        "Postcode": "32700",
        "Location": "Kampung Pulau Rimau",
        "Post_Office": "Bruas",
        "State": "Perak"
    },
    {
        "Postcode": "32700",
        "Location": "Kampung Setia Sepakat",
        "Post_Office": "Bruas",
        "State": "Perak"
    },
    {
        "Postcode": "32700",
        "Location": "Kampung Tersusun Jalan Parit",
        "Post_Office": "Bruas",
        "State": "Perak"
    },
    {
        "Postcode": "32700",
        "Location": "Kampung Tualang",
        "Post_Office": "Bruas",
        "State": "Perak"
    },
    {
        "Postcode": "32700",
        "Location": "Kampung Ulu Lichin",
        "Post_Office": "Bruas",
        "State": "Perak"
    },
    {
        "Postcode": "32700",
        "Location": "Ladang Arunamari",
        "Post_Office": "Bruas",
        "State": "Perak"
    },
    {
        "Postcode": "32700",
        "Location": "Ladang Chan Woi Woh",
        "Post_Office": "Bruas",
        "State": "Perak"
    },
    {
        "Postcode": "32700",
        "Location": "Ladang Gelong Gajah",
        "Post_Office": "Bruas",
        "State": "Perak"
    },
    {
        "Postcode": "32700",
        "Location": "Ladang Hidden Stream",
        "Post_Office": "Bruas",
        "State": "Perak"
    },
    {
        "Postcode": "32700",
        "Location": "Ladang Kampung Tengah",
        "Post_Office": "Bruas",
        "State": "Perak"
    },
    {
        "Postcode": "32700",
        "Location": "Ladang Koop Pehuma",
        "Post_Office": "Bruas",
        "State": "Perak"
    },
    {
        "Postcode": "32700",
        "Location": "Ladang Perbadanan Kemajuan Ekonomi Islam Perak (Pkeinp)",
        "Post_Office": "Bruas",
        "State": "Perak"
    },
    {
        "Postcode": "32700",
        "Location": "Padang Serai",
        "Post_Office": "Bruas",
        "State": "Perak"
    },
    {
        "Postcode": "32700",
        "Location": "Paya Besar",
        "Post_Office": "Bruas",
        "State": "Perak"
    },
    {
        "Postcode": "32700",
        "Location": "Paya Lima",
        "Post_Office": "Bruas",
        "State": "Perak"
    },
    {
        "Postcode": "32700",
        "Location": "Paya Takong",
        "Post_Office": "Bruas",
        "State": "Perak"
    },
    {
        "Postcode": "32700",
        "Location": "Pintu Gerbang",
        "Post_Office": "Bruas",
        "State": "Perak"
    },
    {
        "Postcode": "32700",
        "Location": "Pulau Rimau",
        "Post_Office": "Bruas",
        "State": "Perak"
    },
    {
        "Postcode": "32700",
        "Location": "Taman Bruas",
        "Post_Office": "Bruas",
        "State": "Perak"
    },
    {
        "Postcode": "32700",
        "Location": "Taman Desa",
        "Post_Office": "Bruas",
        "State": "Perak"
    },
    {
        "Postcode": "32700",
        "Location": "Taman Khadijah Mariam",
        "Post_Office": "Bruas",
        "State": "Perak"
    },
    {
        "Postcode": "32700",
        "Location": "Taman Limau Mas",
        "Post_Office": "Bruas",
        "State": "Perak"
    },
    {
        "Postcode": "32700",
        "Location": "Taman Seri Delima",
        "Post_Office": "Bruas",
        "State": "Perak"
    },
    {
        "Postcode": "32700",
        "Location": "Ulu Bruas",
        "Post_Office": "Bruas",
        "State": "Perak"
    }
]
