[
    {
        "Postcode": "32800",
        "Location": "Parit 3, Padang Kangar",
        "Post_Office": "Parit",
        "State": "Perak"
    },
    {
        "Postcode": "32800",
        "Location": "Parit 4, Padang Kangar",
        "Post_Office": "Parit",
        "State": "Perak"
    },
    {
        "Postcode": "32800",
        "Location": "Parit 6, Layang Kiri",
        "Post_Office": "Parit",
        "State": "Perak"
    },
    {
        "Postcode": "32800",
        "Location": "Parit 7, Layang Kiri",
        "Post_Office": "Parit",
        "State": "Perak"
    },
    {
        "Postcode": "32800",
        "Location": "Parit 8, Layang Kiri",
        "Post_Office": "Parit",
        "State": "Perak"
    },
    {
        "Postcode": "32800",
        "Location": "Jalan Besar",
        "Post_Office": "Parit",
        "State": "Perak"
    },
    {
        "Postcode": "32800",
        "Location": "Kampung Changkat Perah",
        "Post_Office": "Parit",
        "State": "Perak"
    },
    {
        "Postcode": "32800",
        "Location": "Kampung Nyior",
        "Post_Office": "Parit",
        "State": "Perak"
    },
    {
        "Postcode": "32800",
        "Location": "Kampung Padang Kangar",
        "Post_Office": "Parit",
        "State": "Perak"
    },
    {
        "Postcode": "32800",
        "Location": "Kampung Paloh",
        "Post_Office": "Parit",
        "State": "Perak"
    },
    {
        "Postcode": "32800",
        "Location": "Kampung Raja",
        "Post_Office": "Parit",
        "State": "Perak"
    },
    {
        "Postcode": "32800",
        "Location": "Kampung Selat",
        "Post_Office": "Parit",
        "State": "Perak"
    },
    {
        "Postcode": "32800",
        "Location": "Kampung Sungai Korok",
        "Post_Office": "Parit",
        "State": "Perak"
    },
    {
        "Postcode": "32800",
        "Location": "Kampung Talang",
        "Post_Office": "Parit",
        "State": "Perak"
    },
    {
        "Postcode": "32800",
        "Location": "Kampung Tengah",
        "Post_Office": "Parit",
        "State": "Perak"
    },
    {
        "Postcode": "32800",
        "Location": "Simpang Tiga",
        "Post_Office": "Parit",
        "State": "Perak"
    },
    {
        "Postcode": "32800",
        "Location": "Taman Seri Sayang",
        "Post_Office": "Parit",
        "State": "Perak"
    },
    {
        "Postcode": "32800",
        "Location": "Kampung Batu 7",
        "Post_Office": "Parit",
        "State": "Perak"
    },
    {
        "Postcode": "32800",
        "Location": "Kampung Tasek",
        "Post_Office": "Parit",
        "State": "Perak"
    },
    {
        "Postcode": "32800",
        "Location": "Taman Melati",
        "Post_Office": "Parit",
        "State": "Perak"
    },
    {
        "Postcode": "32800",
        "Location": "Jalan Haji Wahab",
        "Post_Office": "Parit",
        "State": "Perak"
    },
    {
        "Postcode": "32800",
        "Location": "Kampung Kepala Pulau",
        "Post_Office": "Parit",
        "State": "Perak"
    },
    {
        "Postcode": "32800",
        "Location": "Kampung Padang Bola",
        "Post_Office": "Parit",
        "State": "Perak"
    },
    {
        "Postcode": "32800",
        "Location": "Kampung Tanjung Medan",
        "Post_Office": "Parit",
        "State": "Perak"
    },
    {
        "Postcode": "32800",
        "Location": "Kampung Tua",
        "Post_Office": "Parit",
        "State": "Perak"
    },
    {
        "Postcode": "32800",
        "Location": "Alor Kechor",
        "Post_Office": "Parit",
        "State": "Perak"
    },
    {
        "Postcode": "32800",
        "Location": "Blanja Kiri",
        "Post_Office": "Parit",
        "State": "Perak"
    },
    {
        "Postcode": "32800",
        "Location": "Buluh Akar Estate",
        "Post_Office": "Parit",
        "State": "Perak"
    },
    {
        "Postcode": "32800",
        "Location": "Changkat Banjar",
        "Post_Office": "Parit",
        "State": "Perak"
    },
    {
        "Postcode": "32800",
        "Location": "Changkat Semantan",
        "Post_Office": "Parit",
        "State": "Perak"
    },
    {
        "Postcode": "32800",
        "Location": "Ekor Dusun",
        "Post_Office": "Parit",
        "State": "Perak"
    },
    {
        "Postcode": "32800",
        "Location": "Jalan Blanja",
        "Post_Office": "Parit",
        "State": "Perak"
    },
    {
        "Postcode": "32800",
        "Location": "Jalan Nordin",
        "Post_Office": "Parit",
        "State": "Perak"
    },
    {
        "Postcode": "32800",
        "Location": "Jalan Pejabat Pos",
        "Post_Office": "Parit",
        "State": "Perak"
    },
    {
        "Postcode": "32800",
        "Location": "Jambatan Nordin",
        "Post_Office": "Parit",
        "State": "Perak"
    },
    {
        "Postcode": "32800",
        "Location": "Kampung Alor Kechor",
        "Post_Office": "Parit",
        "State": "Perak"
    },
    {
        "Postcode": "32800",
        "Location": "Kampung Baru Atas",
        "Post_Office": "Parit",
        "State": "Perak"
    },
    {
        "Postcode": "32800",
        "Location": "Kampung Baru Atas",
        "Post_Office": "Parit",
        "State": "Perak"
    },
    {
        "Postcode": "32800",
        "Location": "Kampung Baru Bidara",
        "Post_Office": "Parit",
        "State": "Perak"
    },
    {
        "Postcode": "32800",
        "Location": "Kampung Baru Jalan Masjid",
        "Post_Office": "Parit",
        "State": "Perak"
    },
    {
        "Postcode": "32800",
        "Location": "Kampung Baru Layang Kiri",
        "Post_Office": "Parit",
        "State": "Perak"
    },
    {
        "Postcode": "32800",
        "Location": "Kampung Baru Padang Kangar",
        "Post_Office": "Parit",
        "State": "Perak"
    },
    {
        "Postcode": "32800",
        "Location": "Kampung Baru Sadang",
        "Post_Office": "Parit",
        "State": "Perak"
    },
    {
        "Postcode": "32800",
        "Location": "Kampung Bidara",
        "Post_Office": "Parit",
        "State": "Perak"
    },
    {
        "Postcode": "32800",
        "Location": "Kampung Bukit Chupak",
        "Post_Office": "Parit",
        "State": "Perak"
    },
    {
        "Postcode": "32800",
        "Location": "Kampung Buloh Akar",
        "Post_Office": "Parit",
        "State": "Perak"
    },
    {
        "Postcode": "32800",
        "Location": "Kampung Changkat Banjar",
        "Post_Office": "Parit",
        "State": "Perak"
    },
    {
        "Postcode": "32800",
        "Location": "Kampung Changkat Parah",
        "Post_Office": "Parit",
        "State": "Perak"
    },
    {
        "Postcode": "32800",
        "Location": "Kampung Changkat Selboh",
        "Post_Office": "Parit",
        "State": "Perak"
    },
    {
        "Postcode": "32800",
        "Location": "Kampung Changkat Semanton",
        "Post_Office": "Parit",
        "State": "Perak"
    },
    {
        "Postcode": "32800",
        "Location": "Kampung Chopin Kanan",
        "Post_Office": "Parit",
        "State": "Perak"
    },
    {
        "Postcode": "32800",
        "Location": "Kampung Chopin Kiri",
        "Post_Office": "Parit",
        "State": "Perak"
    },
    {
        "Postcode": "32800",
        "Location": "Kampung Dusun",
        "Post_Office": "Parit",
        "State": "Perak"
    },
    {
        "Postcode": "32800",
        "Location": "Kampung Dusun Hilir",
        "Post_Office": "Parit",
        "State": "Perak"
    },
    {
        "Postcode": "32800",
        "Location": "Kampung Dusun Hulu",
        "Post_Office": "Parit",
        "State": "Perak"
    },
    {
        "Postcode": "32800",
        "Location": "Kampung Ekor Lambat",
        "Post_Office": "Parit",
        "State": "Perak"
    },
    {
        "Postcode": "32800",
        "Location": "Kampung Jalan Si Puteh",
        "Post_Office": "Parit",
        "State": "Perak"
    },
    {
        "Postcode": "32800",
        "Location": "Kampung Kapala Pulau",
        "Post_Office": "Parit",
        "State": "Perak"
    },
    {
        "Postcode": "32800",
        "Location": "Kampung Kobah",
        "Post_Office": "Parit",
        "State": "Perak"
    },
    {
        "Postcode": "32800",
        "Location": "Kampung Kota Pagar",
        "Post_Office": "Parit",
        "State": "Perak"
    },
    {
        "Postcode": "32800",
        "Location": "Kampung Kubang Haji",
        "Post_Office": "Parit",
        "State": "Perak"
    },
    {
        "Postcode": "32800",
        "Location": "Kampung Layang-Layang Kanan",
        "Post_Office": "Parit",
        "State": "Perak"
    },
    {
        "Postcode": "32800",
        "Location": "Kampung Lengkuas",
        "Post_Office": "Parit",
        "State": "Perak"
    },
    {
        "Postcode": "32800",
        "Location": "Kampung Merua",
        "Post_Office": "Parit",
        "State": "Perak"
    },
    {
        "Postcode": "32800",
        "Location": "Kampung Paloh Pacat",
        "Post_Office": "Parit",
        "State": "Perak"
    },
    {
        "Postcode": "32800",
        "Location": "Kampung Parit Perak Estate",
        "Post_Office": "Parit",
        "State": "Perak"
    },
    {
        "Postcode": "32800",
        "Location": "Kampung Pasir Gajah",
        "Post_Office": "Parit",
        "State": "Perak"
    },
    {
        "Postcode": "32800",
        "Location": "Kampung Sadang",
        "Post_Office": "Parit",
        "State": "Perak"
    },
    {
        "Postcode": "32800",
        "Location": "Kampung Sadang Tengah",
        "Post_Office": "Parit",
        "State": "Perak"
    },
    {
        "Postcode": "32800",
        "Location": "Kampung Selbah",
        "Post_Office": "Parit",
        "State": "Perak"
    },
    {
        "Postcode": "32800",
        "Location": "Kampung Senin",
        "Post_Office": "Parit",
        "State": "Perak"
    },
    {
        "Postcode": "32800",
        "Location": "Kampung Serapoh",
        "Post_Office": "Parit",
        "State": "Perak"
    },
    {
        "Postcode": "32800",
        "Location": "Kampung Sungai Perah",
        "Post_Office": "Parit",
        "State": "Perak"
    },
    {
        "Postcode": "32800",
        "Location": "Kampung Tajong Dedalu",
        "Post_Office": "Parit",
        "State": "Perak"
    },
    {
        "Postcode": "32800",
        "Location": "Kampung Talang Batin",
        "Post_Office": "Parit",
        "State": "Perak"
    },
    {
        "Postcode": "32800",
        "Location": "Kampung Tanjong Belanja",
        "Post_Office": "Parit",
        "State": "Perak"
    },
    {
        "Postcode": "32800",
        "Location": "Kampung Telok Manis",
        "Post_Office": "Parit",
        "State": "Perak"
    },
    {
        "Postcode": "32800",
        "Location": "Kampung Tepus",
        "Post_Office": "Parit",
        "State": "Perak"
    },
    {
        "Postcode": "32800",
        "Location": "Kampung Tua Blanja",
        "Post_Office": "Parit",
        "State": "Perak"
    },
    {
        "Postcode": "32800",
        "Location": "Layang-Layang Kanan",
        "Post_Office": "Parit",
        "State": "Perak"
    },
    {
        "Postcode": "32800",
        "Location": "Layang-Layang Kiri",
        "Post_Office": "Parit",
        "State": "Perak"
    },
    {
        "Postcode": "32800",
        "Location": "Lengkuas",
        "Post_Office": "Parit",
        "State": "Perak"
    },
    {
        "Postcode": "32800",
        "Location": "Padang Kangar",
        "Post_Office": "Parit",
        "State": "Perak"
    },
    {
        "Postcode": "32800",
        "Location": "Parit",
        "Post_Office": "Parit",
        "State": "Perak"
    },
    {
        "Postcode": "32800",
        "Location": "Sadang Camp",
        "Post_Office": "Parit",
        "State": "Perak"
    },
    {
        "Postcode": "32800",
        "Location": "Sadang Tengah",
        "Post_Office": "Parit",
        "State": "Perak"
    },
    {
        "Postcode": "32800",
        "Location": "Senin",
        "Post_Office": "Parit",
        "State": "Perak"
    },
    {
        "Postcode": "32800",
        "Location": "Serapuh",
        "Post_Office": "Parit",
        "State": "Perak"
    },
    {
        "Postcode": "32800",
        "Location": "Sungai Korok",
        "Post_Office": "Parit",
        "State": "Perak"
    },
    {
        "Postcode": "32800",
        "Location": "Sungai Riam",
        "Post_Office": "Parit",
        "State": "Perak"
    },
    {
        "Postcode": "32800",
        "Location": "Sungai Riang",
        "Post_Office": "Parit",
        "State": "Perak"
    },
    {
        "Postcode": "32800",
        "Location": "Talang Estate",
        "Post_Office": "Parit",
        "State": "Perak"
    },
    {
        "Postcode": "32800",
        "Location": "Taman Parit Jaya",
        "Post_Office": "Parit",
        "State": "Perak"
    },
    {
        "Postcode": "32800",
        "Location": "Taman Parit Setia",
        "Post_Office": "Parit",
        "State": "Perak"
    },
    {
        "Postcode": "32800",
        "Location": "Taman Seri Indah",
        "Post_Office": "Parit",
        "State": "Perak"
    },
    {
        "Postcode": "32800",
        "Location": "Taman Sri Ara",
        "Post_Office": "Parit",
        "State": "Perak"
    },
    {
        "Postcode": "32800",
        "Location": "Tanjung Belanja",
        "Post_Office": "Parit",
        "State": "Perak"
    },
    {
        "Postcode": "32800",
        "Location": "Tanjung Medan",
        "Post_Office": "Parit",
        "State": "Perak"
    },
    {
        "Postcode": "32800",
        "Location": "Teluk Perang",
        "Post_Office": "Parit",
        "State": "Perak"
    },
    {
        "Postcode": "32800",
        "Location": "Kampung Tanjung Ara",
        "Post_Office": "Parit",
        "State": "Perak"
    }
]
