[
    {
        "Postcode": "32900",
        "Location": "Kampung Masjid",
        "Post_Office": "Lambor Kanan",
        "State": "Perak"
    },
    {
        "Postcode": "32900",
        "Location": "Kampung Talang",
        "Post_Office": "Lambor Kanan",
        "State": "Perak"
    },
    {
        "Postcode": "32900",
        "Location": "Kampung Tanjong",
        "Post_Office": "Lambor Kanan",
        "State": "Perak"
    },
    {
        "Postcode": "32900",
        "Location": "Bota Kiri",
        "Post_Office": "Lambor Kanan",
        "State": "Perak"
    },
    {
        "Postcode": "32900",
        "Location": "Durian Sebatang",
        "Post_Office": "Lambor Kanan",
        "State": "Perak"
    },
    {
        "Postcode": "32900",
        "Location": "Hospital Ch Melintang",
        "Post_Office": "Lambor Kanan",
        "State": "Perak"
    },
    {
        "Postcode": "32900",
        "Location": "Kampung Ayer Mati",
        "Post_Office": "Lambor Kanan",
        "State": "Perak"
    },
    {
        "Postcode": "32900",
        "Location": "Kampung Bakong",
        "Post_Office": "Lambor Kanan",
        "State": "Perak"
    },
    {
        "Postcode": "32900",
        "Location": "Kampung Belimbing",
        "Post_Office": "Lambor Kanan",
        "State": "Perak"
    },
    {
        "Postcode": "32900",
        "Location": "Kampung Durian Sebatang",
        "Post_Office": "Lambor Kanan",
        "State": "Perak"
    },
    {
        "Postcode": "32900",
        "Location": "Kampung Ekor Bota",
        "Post_Office": "Lambor Kanan",
        "State": "Perak"
    },
    {
        "Postcode": "32900",
        "Location": "Kampung Jalan Sulaiman",
        "Post_Office": "Lambor Kanan",
        "State": "Perak"
    },
    {
        "Postcode": "32900",
        "Location": "Kampung Kota Lambor Kanan",
        "Post_Office": "Lambor Kanan",
        "State": "Perak"
    },
    {
        "Postcode": "32900",
        "Location": "Kampung Lambor Kanan",
        "Post_Office": "Lambor Kanan",
        "State": "Perak"
    },
    {
        "Postcode": "32900",
        "Location": "Kampung Lambor Kiri",
        "Post_Office": "Lambor Kanan",
        "State": "Perak"
    },
    {
        "Postcode": "32900",
        "Location": "Kampung Lubok Hancur",
        "Post_Office": "Lambor Kanan",
        "State": "Perak"
    },
    {
        "Postcode": "32900",
        "Location": "Kampung Madarasah",
        "Post_Office": "Lambor Kanan",
        "State": "Perak"
    },
    {
        "Postcode": "32900",
        "Location": "Kampung Masjid Lambor Kanan",
        "Post_Office": "Lambor Kanan",
        "State": "Perak"
    },
    {
        "Postcode": "32900",
        "Location": "Kampung Padang Marhom",
        "Post_Office": "Lambor Kanan",
        "State": "Perak"
    },
    {
        "Postcode": "32900",
        "Location": "Kampung Paloh Lambor Kanan",
        "Post_Office": "Lambor Kanan",
        "State": "Perak"
    },
    {
        "Postcode": "32900",
        "Location": "Kampung Paloh Teluk Bakong",
        "Post_Office": "Lambor Kanan",
        "State": "Perak"
    },
    {
        "Postcode": "32900",
        "Location": "Kampung Pasir Sena",
        "Post_Office": "Lambor Kanan",
        "State": "Perak"
    },
    {
        "Postcode": "32900",
        "Location": "Kampung Seri Kaya",
        "Post_Office": "Lambor Kanan",
        "State": "Perak"
    },
    {
        "Postcode": "32900",
        "Location": "Kampung Tanjong Ara",
        "Post_Office": "Lambor Kanan",
        "State": "Perak"
    },
    {
        "Postcode": "32900",
        "Location": "Kampung Telok Bakong",
        "Post_Office": "Lambor Kanan",
        "State": "Perak"
    },
    {
        "Postcode": "32900",
        "Location": "Kampung Telok Pedayong",
        "Post_Office": "Lambor Kanan",
        "State": "Perak"
    },
    {
        "Postcode": "32900",
        "Location": "Kampung Telok Sena",
        "Post_Office": "Lambor Kanan",
        "State": "Perak"
    },
    {
        "Postcode": "32900",
        "Location": "Kampung Tua Parit",
        "Post_Office": "Lambor Kanan",
        "State": "Perak"
    },
    {
        "Postcode": "32900",
        "Location": "Lambor Kanan",
        "Post_Office": "Lambor Kanan",
        "State": "Perak"
    },
    {
        "Postcode": "32900",
        "Location": "Padang Marhom",
        "Post_Office": "Lambor Kanan",
        "State": "Perak"
    },
    {
        "Postcode": "32900",
        "Location": "Parit Km 26",
        "Post_Office": "Lambor Kanan",
        "State": "Perak"
    },
    {
        "Postcode": "32900",
        "Location": "Parit Km 3",
        "Post_Office": "Lambor Kanan",
        "State": "Perak"
    },
    {
        "Postcode": "32900",
        "Location": "Talang Bonggor",
        "Post_Office": "Lambor Kanan",
        "State": "Perak"
    }
]
