[
    {
        "Postcode": "98000",
        "Location": "Beluru",
        "Post_Office": "Miri",
        "State": "Sarawak"
    },
    {
        "Postcode": "98000",
        "Location": "Jalan Miri - Bintulu (Batu 26)",
        "Post_Office": "Miri",
        "State": "Sarawak"
    },
    {
        "Postcode": "98000",
        "Location": "Kampung Bakam",
        "Post_Office": "Miri",
        "State": "Sarawak"
    },
    {
        "Postcode": "98000",
        "Location": "Kampung Kuala Baram",
        "Post_Office": "Miri",
        "State": "Sarawak"
    },
    {
        "Postcode": "98000",
        "Location": "Kampung Tuanku Abdul Rahman",
        "Post_Office": "Miri",
        "State": "Sarawak"
    },
    {
        "Postcode": "98000",
        "Location": "Kuala Baram",
        "Post_Office": "Miri",
        "State": "Sarawak"
    },
    {
        "Postcode": "98000",
        "Location": "Ladang Tiga",
        "Post_Office": "Miri",
        "State": "Sarawak"
    },
    {
        "Postcode": "98000",
        "Location": "Lambir",
        "Post_Office": "Miri",
        "State": "Sarawak"
    },
    {
        "Postcode": "98000",
        "Location": "Miri",
        "Post_Office": "Miri",
        "State": "Sarawak"
    },
    {
        "Postcode": "98000",
        "Location": "Morsjaya",
        "Post_Office": "Miri",
        "State": "Sarawak"
    },
    {
        "Postcode": "98000",
        "Location": "Piasau",
        "Post_Office": "Miri",
        "State": "Sarawak"
    },
    {
        "Postcode": "98000",
        "Location": "Senadin",
        "Post_Office": "Miri",
        "State": "Sarawak"
    },
    {
        "Postcode": "98000",
        "Location": "Sungai Rait",
        "Post_Office": "Miri",
        "State": "Sarawak"
    }
]
