[
    {
        "Postcode": "98050",
        "Location": "Baram",
        "Post_Office": "Baram",
        "State": "Sarawak"
    },
    {
        "Postcode": "98050",
        "Location": "Golden Hill (Jalan Hii Nguon Song)",
        "Post_Office": "Baram",
        "State": "Sarawak"
    },
    {
        "Postcode": "98050",
        "Location": "Jalan Kapitan Lim Ching Kiat",
        "Post_Office": "Baram",
        "State": "Sarawak"
    },
    {
        "Postcode": "98050",
        "Location": "Jalan Setia",
        "Post_Office": "Baram",
        "State": "Sarawak"
    },
    {
        "Postcode": "98050",
        "Location": "Kampung Baru (Jalan Dato Tuanku Abdul Rahman)",
        "Post_Office": "Baram",
        "State": "Sarawak"
    },
    {
        "Postcode": "98050",
        "Location": "Kampung Narum",
        "Post_Office": "Baram",
        "State": "Sarawak"
    },
    {
        "Postcode": "98050",
        "Location": "Kampung Padang Kerbau",
        "Post_Office": "Baram",
        "State": "Sarawak"
    },
    {
        "Postcode": "98050",
        "Location": "Kampung Permindahan (Jalan Muhibah) P1 \u0026 P2",
        "Post_Office": "Baram",
        "State": "Sarawak"
    },
    {
        "Postcode": "98050",
        "Location": "Long Akah",
        "Post_Office": "Baram",
        "State": "Sarawak"
    },
    {
        "Postcode": "98050",
        "Location": "Long Atip",
        "Post_Office": "Baram",
        "State": "Sarawak"
    },
    {
        "Postcode": "98050",
        "Location": "Long Lellang",
        "Post_Office": "Baram",
        "State": "Sarawak"
    },
    {
        "Postcode": "98050",
        "Location": "Long Seridan",
        "Post_Office": "Baram",
        "State": "Sarawak"
    },
    {
        "Postcode": "98050",
        "Location": "Long Teru",
        "Post_Office": "Baram",
        "State": "Sarawak"
    },
    {
        "Postcode": "98050",
        "Location": "Lubuk Nibong",
        "Post_Office": "Baram",
        "State": "Sarawak"
    },
    {
        "Postcode": "98050",
        "Location": "Marudi",
        "Post_Office": "Baram",
        "State": "Sarawak"
    },
    {
        "Postcode": "98050",
        "Location": "Rc Mission (Jalan Tem. Dato Oyong Lawai Jau)",
        "Post_Office": "Baram",
        "State": "Sarawak"
    },
    {
        "Postcode": "98050",
        "Location": "Sungai Jaong",
        "Post_Office": "Baram",
        "State": "Sarawak"
    },
    {
        "Postcode": "98050",
        "Location": "Taman Dah Yuh (Jalan Temenggong Gau Jau)",
        "Post_Office": "Baram",
        "State": "Sarawak"
    },
    {
        "Postcode": "98050",
        "Location": "Telang Usan",
        "Post_Office": "Baram",
        "State": "Sarawak"
    },
    {
        "Postcode": "98050",
        "Location": "Kampung Dagang",
        "Post_Office": "Baram",
        "State": "Sarawak"
    }
]
