[
    {
        "Postcode": "98060",
        "Location": "Batu Patong",
        "Post_Office": "Baram",
        "State": "Sarawak"
    },
    {
        "Postcode": "98060",
        "Location": "Kampung Arur Dalan Kubaan",
        "Post_Office": "Baram",
        "State": "Sarawak"
    },
    {
        "Postcode": "98060",
        "Location": "Kampung Arur Layun",
        "Post_Office": "Baram",
        "State": "Sarawak"
    },
    {
        "Postcode": "98060",
        "Location": "Kampung Bario Asal",
        "Post_Office": "Baram",
        "State": "Sarawak"
    },
    {
        "Postcode": "98060",
        "Location": "Kampung Pa Dalih",
        "Post_Office": "Baram",
        "State": "Sarawak"
    },
    {
        "Postcode": "98060",
        "Location": "Kampung Pa Derung",
        "Post_Office": "Baram",
        "State": "Sarawak"
    },
    {
        "Postcode": "98060",
        "Location": "Kampung Pa Mada",
        "Post_Office": "Baram",
        "State": "Sarawak"
    },
    {
        "Postcode": "98060",
        "Location": "Kampung Pa Ukat",
        "Post_Office": "Baram",
        "State": "Sarawak"
    },
    {
        "Postcode": "98060",
        "Location": "Kampung Pa Umor",
        "Post_Office": "Baram",
        "State": "Sarawak"
    },
    {
        "Postcode": "98060",
        "Location": "Kampung Padang Pasir",
        "Post_Office": "Baram",
        "State": "Sarawak"
    },
    {
        "Postcode": "98060",
        "Location": "Kampung Ramapoh A",
        "Post_Office": "Baram",
        "State": "Sarawak"
    },
    {
        "Postcode": "98060",
        "Location": "Kampung Ramapuh B",
        "Post_Office": "Baram",
        "State": "Sarawak"
    },
    {
        "Postcode": "98060",
        "Location": "Kampung Ramudu A",
        "Post_Office": "Baram",
        "State": "Sarawak"
    },
    {
        "Postcode": "98060",
        "Location": "Kampung Ulung Palang A",
        "Post_Office": "Baram",
        "State": "Sarawak"
    },
    {
        "Postcode": "98060",
        "Location": "Kampung Ulung Palang B",
        "Post_Office": "Baram",
        "State": "Sarawak"
    },
    {
        "Postcode": "98060",
        "Location": "Pekan Bario",
        "Post_Office": "Baram",
        "State": "Sarawak"
    },
    {
        "Postcode": "98060",
        "Location": "Bario",
        "Post_Office": "Baram",
        "State": "Sarawak"
    },
    {
        "Postcode": "98060",
        "Location": "Central Bario",
        "Post_Office": "Baram",
        "State": "Sarawak"
    }
]
