[
    {
        "Postcode": "98150",
        "Location": "Bekenu",
        "Post_Office": "Bekenu",
        "State": "Sarawak"
    },
    {
        "Postcode": "98150",
        "Location": "Kampung Bekenu",
        "Post_Office": "Bekenu",
        "State": "Sarawak"
    },
    {
        "Postcode": "98150",
        "Location": "Kampung Bulau",
        "Post_Office": "Bekenu",
        "State": "Sarawak"
    },
    {
        "Postcode": "98150",
        "Location": "Kampung Bungai",
        "Post_Office": "Bekenu",
        "State": "Sarawak"
    },
    {
        "Postcode": "98150",
        "Location": "Kampung Jangalas",
        "Post_Office": "Bekenu",
        "State": "Sarawak"
    },
    {
        "Postcode": "98150",
        "Location": "Kampung Kayu Kapur",
        "Post_Office": "Bekenu",
        "State": "Sarawak"
    },
    {
        "Postcode": "98150",
        "Location": "Kampung Kejapil",
        "Post_Office": "Bekenu",
        "State": "Sarawak"
    },
    {
        "Postcode": "98150",
        "Location": "Kampung Pejuang Kelulit",
        "Post_Office": "Bekenu",
        "State": "Sarawak"
    },
    {
        "Postcode": "98150",
        "Location": "Kampung Keluru",
        "Post_Office": "Bekenu",
        "State": "Sarawak"
    },
    {
        "Postcode": "98150",
        "Location": "Kampung Kuala Bakar",
        "Post_Office": "Bekenu",
        "State": "Sarawak"
    },
    {
        "Postcode": "98150",
        "Location": "Kampung Kuala Sibuti",
        "Post_Office": "Bekenu",
        "State": "Sarawak"
    },
    {
        "Postcode": "98150",
        "Location": "Kampung Menjelin",
        "Post_Office": "Bekenu",
        "State": "Sarawak"
    },
    {
        "Postcode": "98150",
        "Location": "Kampung Mutap",
        "Post_Office": "Bekenu",
        "State": "Sarawak"
    },
    {
        "Postcode": "98150",
        "Location": "Kampung Ranca-Ranca",
        "Post_Office": "Bekenu",
        "State": "Sarawak"
    },
    {
        "Postcode": "98150",
        "Location": "Kampung Satap",
        "Post_Office": "Bekenu",
        "State": "Sarawak"
    },
    {
        "Postcode": "98150",
        "Location": "Kampung Sebalik",
        "Post_Office": "Bekenu",
        "State": "Sarawak"
    },
    {
        "Postcode": "98150",
        "Location": "Kampung Selanyau",
        "Post_Office": "Bekenu",
        "State": "Sarawak"
    },
    {
        "Postcode": "98150",
        "Location": "Kampung Sepurau",
        "Post_Office": "Bekenu",
        "State": "Sarawak"
    },
    {
        "Postcode": "98150",
        "Location": "Kampung Sinop",
        "Post_Office": "Bekenu",
        "State": "Sarawak"
    },
    {
        "Postcode": "98150",
        "Location": "Kampung Subak",
        "Post_Office": "Bekenu",
        "State": "Sarawak"
    }
]
