[
    {
        "Postcode": "98700",
        "Location": "Taman Lucky ",
        "Post_Office": "Limbang",
        "State": "Sarawak"
    },
    {
        "Postcode": "98700",
        "Location": "Kampung Uma Bawang",
        "Post_Office": "Limbang",
        "State": "Sarawak"
    },
    {
        "Postcode": "98700",
        "Location": "Jalan Muhibbah",
        "Post_Office": "Limbang",
        "State": "Sarawak"
    },
    {
        "Postcode": "98700",
        "Location": "Jalan Wayang",
        "Post_Office": "Limbang",
        "State": "Sarawak"
    },
    {
        "Postcode": "98700",
        "Location": "Kampung Belimbing",
        "Post_Office": "Limbang",
        "State": "Sarawak"
    },
    {
        "Postcode": "98700",
        "Location": "Kampung Pemukat",
        "Post_Office": "Limbang",
        "State": "Sarawak"
    },
    {
        "Postcode": "98700",
        "Location": "Taman Sentosa",
        "Post_Office": "Limbang",
        "State": "Sarawak"
    },
    {
        "Postcode": "98700",
        "Location": "Jalan Bangkita",
        "Post_Office": "Limbang",
        "State": "Sarawak"
    },
    {
        "Postcode": "98700",
        "Location": "Jalan Buangsiol",
        "Post_Office": "Limbang",
        "State": "Sarawak"
    },
    {
        "Postcode": "98700",
        "Location": "Jalan Cempaka Utara",
        "Post_Office": "Limbang",
        "State": "Sarawak"
    },
    {
        "Postcode": "98700",
        "Location": "Jalan Kubong",
        "Post_Office": "Limbang",
        "State": "Sarawak"
    },
    {
        "Postcode": "98700",
        "Location": "Jalan Kubu",
        "Post_Office": "Limbang",
        "State": "Sarawak"
    },
    {
        "Postcode": "98700",
        "Location": "Jalan Maybank",
        "Post_Office": "Limbang",
        "State": "Sarawak"
    },
    {
        "Postcode": "98700",
        "Location": "Jalan Pandaruan",
        "Post_Office": "Limbang",
        "State": "Sarawak"
    },
    {
        "Postcode": "98700",
        "Location": "Jalan Pegong",
        "Post_Office": "Limbang",
        "State": "Sarawak"
    },
    {
        "Postcode": "98700",
        "Location": "Jalan Rickettes",
        "Post_Office": "Limbang",
        "State": "Sarawak"
    },
    {
        "Postcode": "98700",
        "Location": "Jalan Tarap",
        "Post_Office": "Limbang",
        "State": "Sarawak"
    },
    {
        "Postcode": "98700",
        "Location": "Jalan Wong Tsap Tsen",
        "Post_Office": "Limbang",
        "State": "Sarawak"
    },
    {
        "Postcode": "98700",
        "Location": "Kampung Agong Tua",
        "Post_Office": "Limbang",
        "State": "Sarawak"
    },
    {
        "Postcode": "98700",
        "Location": "Kampung Anak Bukit",
        "Post_Office": "Limbang",
        "State": "Sarawak"
    },
    {
        "Postcode": "98700",
        "Location": "Kampung Anak Tuno",
        "Post_Office": "Limbang",
        "State": "Sarawak"
    },
    {
        "Postcode": "98700",
        "Location": "Kampung Bakol",
        "Post_Office": "Limbang",
        "State": "Sarawak"
    },
    {
        "Postcode": "98700",
        "Location": "Kampung Bambangan",
        "Post_Office": "Limbang",
        "State": "Sarawak"
    },
    {
        "Postcode": "98700",
        "Location": "Kampung Bangkita",
        "Post_Office": "Limbang",
        "State": "Sarawak"
    },
    {
        "Postcode": "98700",
        "Location": "Kampung Bangkuati",
        "Post_Office": "Limbang",
        "State": "Sarawak"
    },
    {
        "Postcode": "98700",
        "Location": "Kampung Baru Kuala Berawan",
        "Post_Office": "Limbang",
        "State": "Sarawak"
    },
    {
        "Postcode": "98700",
        "Location": "Kampung Batu 2 1/2",
        "Post_Office": "Limbang",
        "State": "Sarawak"
    },
    {
        "Postcode": "98700",
        "Location": "Kampung Batu Bekarang",
        "Post_Office": "Limbang",
        "State": "Sarawak"
    },
    {
        "Postcode": "98700",
        "Location": "Kampung Tanjong",
        "Post_Office": "Limbang",
        "State": "Sarawak"
    },
    {
        "Postcode": "98700",
        "Location": "Kampung Batu Berawan",
        "Post_Office": "Limbang",
        "State": "Sarawak"
    },
    {
        "Postcode": "98700",
        "Location": "Kampung Batu Danau",
        "Post_Office": "Limbang",
        "State": "Sarawak"
    },
    {
        "Postcode": "98700",
        "Location": "Kampung Batu Kerang",
        "Post_Office": "Limbang",
        "State": "Sarawak"
    },
    {
        "Postcode": "98700",
        "Location": "Kampung Belading",
        "Post_Office": "Limbang",
        "State": "Sarawak"
    },
    {
        "Postcode": "98700",
        "Location": "Kampung Benuas",
        "Post_Office": "Limbang",
        "State": "Sarawak"
    },
    {
        "Postcode": "98700",
        "Location": "Kampung Bidang",
        "Post_Office": "Limbang",
        "State": "Sarawak"
    },
    {
        "Postcode": "98700",
        "Location": "Kampung Binjai",
        "Post_Office": "Limbang",
        "State": "Sarawak"
    },
    {
        "Postcode": "98700",
        "Location": "Kampung Buang Siol",
        "Post_Office": "Limbang",
        "State": "Sarawak"
    },
    {
        "Postcode": "98700",
        "Location": "Kampung Buangabai",
        "Post_Office": "Limbang",
        "State": "Sarawak"
    },
    {
        "Postcode": "98700",
        "Location": "Kampung Bukit Kota",
        "Post_Office": "Limbang",
        "State": "Sarawak"
    },
    {
        "Postcode": "98700",
        "Location": "Kampung Bukit Luba",
        "Post_Office": "Limbang",
        "State": "Sarawak"
    },
    {
        "Postcode": "98700",
        "Location": "Kampung Buluh Balui",
        "Post_Office": "Limbang",
        "State": "Sarawak"
    },
    {
        "Postcode": "98700",
        "Location": "Kampung Bumbun",
        "Post_Office": "Limbang",
        "State": "Sarawak"
    },
    {
        "Postcode": "98700",
        "Location": "Kampung Bunga Raya",
        "Post_Office": "Limbang",
        "State": "Sarawak"
    },
    {
        "Postcode": "98700",
        "Location": "Kampung Cempaka",
        "Post_Office": "Limbang",
        "State": "Sarawak"
    },
    {
        "Postcode": "98700",
        "Location": "Kampung Gadong",
        "Post_Office": "Limbang",
        "State": "Sarawak"
    },
    {
        "Postcode": "98700",
        "Location": "Kampung Gumaya",
        "Post_Office": "Limbang",
        "State": "Sarawak"
    },
    {
        "Postcode": "98700",
        "Location": "Kampung Imok",
        "Post_Office": "Limbang",
        "State": "Sarawak"
    },
    {
        "Postcode": "98700",
        "Location": "Kampung Indok",
        "Post_Office": "Limbang",
        "State": "Sarawak"
    },
    {
        "Postcode": "98700",
        "Location": "Kampung Ipai",
        "Post_Office": "Limbang",
        "State": "Sarawak"
    },
    {
        "Postcode": "98700",
        "Location": "Kampung Kelapa Mawar",
        "Post_Office": "Limbang",
        "State": "Sarawak"
    },
    {
        "Postcode": "98700",
        "Location": "Kampung Kuala Awang",
        "Post_Office": "Limbang",
        "State": "Sarawak"
    },
    {
        "Postcode": "98700",
        "Location": "Kampung Lembuak",
        "Post_Office": "Limbang",
        "State": "Sarawak"
    },
    {
        "Postcode": "98700",
        "Location": "Kampung Limpaki",
        "Post_Office": "Limbang",
        "State": "Sarawak"
    },
    {
        "Postcode": "98700",
        "Location": "Kampung Limpaong",
        "Post_Office": "Limbang",
        "State": "Sarawak"
    },
    {
        "Postcode": "98700",
        "Location": "Kampung Lubok Bidai",
        "Post_Office": "Limbang",
        "State": "Sarawak"
    },
    {
        "Postcode": "98700",
        "Location": "Kampung Lubok Lasa",
        "Post_Office": "Limbang",
        "State": "Sarawak"
    },
    {
        "Postcode": "98700",
        "Location": "Kampung Lubok Pangie",
        "Post_Office": "Limbang",
        "State": "Sarawak"
    },
    {
        "Postcode": "98700",
        "Location": "Kampung Lubok Piasau",
        "Post_Office": "Limbang",
        "State": "Sarawak"
    },
    {
        "Postcode": "98700",
        "Location": "Kampung Malagangai",
        "Post_Office": "Limbang",
        "State": "Sarawak"
    },
    {
        "Postcode": "98700",
        "Location": "Kampung Medait",
        "Post_Office": "Limbang",
        "State": "Sarawak"
    },
    {
        "Postcode": "98700",
        "Location": "Kampung Mengatai",
        "Post_Office": "Limbang",
        "State": "Sarawak"
    },
    {
        "Postcode": "98700",
        "Location": "Kampung Merasan",
        "Post_Office": "Limbang",
        "State": "Sarawak"
    },
    {
        "Postcode": "98700",
        "Location": "Kampung Meritam",
        "Post_Office": "Limbang",
        "State": "Sarawak"
    },
    {
        "Postcode": "98700",
        "Location": "Kampung Nauran",
        "Post_Office": "Limbang",
        "State": "Sarawak"
    },
    {
        "Postcode": "98700",
        "Location": "Kampung Pabahanan",
        "Post_Office": "Limbang",
        "State": "Sarawak"
    },
    {
        "Postcode": "98700",
        "Location": "Kampung Pahlawan",
        "Post_Office": "Limbang",
        "State": "Sarawak"
    },
    {
        "Postcode": "98700",
        "Location": "Kampung Pandak",
        "Post_Office": "Limbang",
        "State": "Sarawak"
    },
    {
        "Postcode": "98700",
        "Location": "Kampung Patiambun",
        "Post_Office": "Limbang",
        "State": "Sarawak"
    },
    {
        "Postcode": "98700",
        "Location": "Kampung Paya Mengeliong",
        "Post_Office": "Limbang",
        "State": "Sarawak"
    },
    {
        "Postcode": "98700",
        "Location": "Kampung Pekan Gurah",
        "Post_Office": "Limbang",
        "State": "Sarawak"
    },
    {
        "Postcode": "98700",
        "Location": "Kampung Pekan Jawa",
        "Post_Office": "Limbang",
        "State": "Sarawak"
    },
    {
        "Postcode": "98700",
        "Location": "Kampung Pekan Madang",
        "Post_Office": "Limbang",
        "State": "Sarawak"
    },
    {
        "Postcode": "98700",
        "Location": "Kampung Pelita (Lcda)",
        "Post_Office": "Limbang",
        "State": "Sarawak"
    },
    {
        "Postcode": "98700",
        "Location": "Kampung Penapak",
        "Post_Office": "Limbang",
        "State": "Sarawak"
    },
    {
        "Postcode": "98700",
        "Location": "Kampung Pendam",
        "Post_Office": "Limbang",
        "State": "Sarawak"
    },
    {
        "Postcode": "98700",
        "Location": "Kampung Petiambun",
        "Post_Office": "Limbang",
        "State": "Sarawak"
    },
    {
        "Postcode": "98700",
        "Location": "Kampung Pundut",
        "Post_Office": "Limbang",
        "State": "Sarawak"
    },
    {
        "Postcode": "98700",
        "Location": "Kampung Runggu",
        "Post_Office": "Limbang",
        "State": "Sarawak"
    },
    {
        "Postcode": "98700",
        "Location": "Kampung Sangkar",
        "Post_Office": "Limbang",
        "State": "Sarawak"
    },
    {
        "Postcode": "98700",
        "Location": "Kampung Sayong",
        "Post_Office": "Limbang",
        "State": "Sarawak"
    },
    {
        "Postcode": "98700",
        "Location": "Kampung Sebukang",
        "Post_Office": "Limbang",
        "State": "Sarawak"
    },
    {
        "Postcode": "98700",
        "Location": "Kampung Sembiling",
        "Post_Office": "Limbang",
        "State": "Sarawak"
    },
    {
        "Postcode": "98700",
        "Location": "Kampung Sigantang",
        "Post_Office": "Limbang",
        "State": "Sarawak"
    },
    {
        "Postcode": "98700",
        "Location": "Kampung Sungai Poyan",
        "Post_Office": "Limbang",
        "State": "Sarawak"
    },
    {
        "Postcode": "98700",
        "Location": "Kampung Tababang",
        "Post_Office": "Limbang",
        "State": "Sarawak"
    },
    {
        "Postcode": "98700",
        "Location": "Kampung Tabahan",
        "Post_Office": "Limbang",
        "State": "Sarawak"
    },
    {
        "Postcode": "98700",
        "Location": "Kampung Tanjong Darat",
        "Post_Office": "Limbang",
        "State": "Sarawak"
    },
    {
        "Postcode": "98700",
        "Location": "Kampung Tanjong Rimau",
        "Post_Office": "Limbang",
        "State": "Sarawak"
    },
    {
        "Postcode": "98700",
        "Location": "Kampung Tanjong Ungar",
        "Post_Office": "Limbang",
        "State": "Sarawak"
    },
    {
        "Postcode": "98700",
        "Location": "Kampung Tedungan",
        "Post_Office": "Limbang",
        "State": "Sarawak"
    },
    {
        "Postcode": "98700",
        "Location": "Kampung Telabak",
        "Post_Office": "Limbang",
        "State": "Sarawak"
    },
    {
        "Postcode": "98700",
        "Location": "Kampung Temiang",
        "Post_Office": "Limbang",
        "State": "Sarawak"
    },
    {
        "Postcode": "98700",
        "Location": "Kampung Tendungan",
        "Post_Office": "Limbang",
        "State": "Sarawak"
    },
    {
        "Postcode": "98700",
        "Location": "Kampung Tuna",
        "Post_Office": "Limbang",
        "State": "Sarawak"
    },
    {
        "Postcode": "98700",
        "Location": "Kampung Ukong",
        "Post_Office": "Limbang",
        "State": "Sarawak"
    },
    {
        "Postcode": "98700",
        "Location": "Kampung Ulak",
        "Post_Office": "Limbang",
        "State": "Sarawak"
    },
    {
        "Postcode": "98700",
        "Location": "Kubong",
        "Post_Office": "Limbang",
        "State": "Sarawak"
    },
    {
        "Postcode": "98700",
        "Location": "Limbang",
        "Post_Office": "Limbang",
        "State": "Sarawak"
    },
    {
        "Postcode": "98700",
        "Location": "Pandaruan",
        "Post_Office": "Limbang",
        "State": "Sarawak"
    },
    {
        "Postcode": "98700",
        "Location": "Penganan",
        "Post_Office": "Limbang",
        "State": "Sarawak"
    },
    {
        "Postcode": "98700",
        "Location": "Taman Batu Biah",
        "Post_Office": "Limbang",
        "State": "Sarawak"
    },
    {
        "Postcode": "98700",
        "Location": "Taman Batu Keramat Jalan Kubong",
        "Post_Office": "Limbang",
        "State": "Sarawak"
    },
    {
        "Postcode": "98700",
        "Location": "Taman Bunga Simpor Jalan Pekeliling",
        "Post_Office": "Limbang",
        "State": "Sarawak"
    },
    {
        "Postcode": "98700",
        "Location": "Taman Cahaya",
        "Post_Office": "Limbang",
        "State": "Sarawak"
    },
    {
        "Postcode": "98700",
        "Location": "Taman Desa Pabahanan",
        "Post_Office": "Limbang",
        "State": "Sarawak"
    },
    {
        "Postcode": "98700",
        "Location": "Taman Haji Mohidin Jalan Pandaruan",
        "Post_Office": "Limbang",
        "State": "Sarawak"
    },
    {
        "Postcode": "98700",
        "Location": "Taman Happy Jalan Kubong",
        "Post_Office": "Limbang",
        "State": "Sarawak"
    },
    {
        "Postcode": "98700",
        "Location": "Taman Hen Yii Jalan Batu Biah",
        "Post_Office": "Limbang",
        "State": "Sarawak"
    },
    {
        "Postcode": "98700",
        "Location": "Taman Indah Jalan Pekeliling",
        "Post_Office": "Limbang",
        "State": "Sarawak"
    },
    {
        "Postcode": "98700",
        "Location": "Taman International Jalan Pandaruan",
        "Post_Office": "Limbang",
        "State": "Sarawak"
    },
    {
        "Postcode": "98700",
        "Location": "Taman Jayitek",
        "Post_Office": "Limbang",
        "State": "Sarawak"
    },
    {
        "Postcode": "98700",
        "Location": "Taman Kaban Jalan Kubong",
        "Post_Office": "Limbang",
        "State": "Sarawak"
    },
    {
        "Postcode": "98700",
        "Location": "Taman Lik Hin Jalan Pekeliling",
        "Post_Office": "Limbang",
        "State": "Sarawak"
    },
    {
        "Postcode": "98700",
        "Location": "Taman Ming Hock Jalan Batu Biah",
        "Post_Office": "Limbang",
        "State": "Sarawak"
    },
    {
        "Postcode": "98700",
        "Location": "Taman Nyuk Lian",
        "Post_Office": "Limbang",
        "State": "Sarawak"
    },
    {
        "Postcode": "98700",
        "Location": "Taman Pertama Jalan Kubong",
        "Post_Office": "Limbang",
        "State": "Sarawak"
    },
    {
        "Postcode": "98700",
        "Location": "Taman Piramid Jalan Kubong",
        "Post_Office": "Limbang",
        "State": "Sarawak"
    },
    {
        "Postcode": "98700",
        "Location": "Taman Poyan Jaya Jalan Kubong",
        "Post_Office": "Limbang",
        "State": "Sarawak"
    },
    {
        "Postcode": "98700",
        "Location": "Taman Pulo Bunga Jalan Kubong",
        "Post_Office": "Limbang",
        "State": "Sarawak"
    },
    {
        "Postcode": "98700",
        "Location": "Taman Riverway Park Jalan Kubong",
        "Post_Office": "Limbang",
        "State": "Sarawak"
    },
    {
        "Postcode": "98700",
        "Location": "Taman St. Edmund Jalan Kubong",
        "Post_Office": "Limbang",
        "State": "Sarawak"
    },
    {
        "Postcode": "98700",
        "Location": "Taman Star Jalan Kubong",
        "Post_Office": "Limbang",
        "State": "Sarawak"
    },
    {
        "Postcode": "98700",
        "Location": "Taman Sungai Kaban Jalan Kubong",
        "Post_Office": "Limbang",
        "State": "Sarawak"
    },
    {
        "Postcode": "98700",
        "Location": "Taman Tasek Mas Jalan Kubong",
        "Post_Office": "Limbang",
        "State": "Sarawak"
    },
    {
        "Postcode": "98700",
        "Location": "Ukong",
        "Post_Office": "Limbang",
        "State": "Sarawak"
    }
]
