[
    {
        "Postcode": "98850",
        "Location": "Kampung Belimbing",
        "Post_Office": "Lawas",
        "State": "Sarawak"
    },
    {
        "Postcode": "98850",
        "Location": "Kampung Datu",
        "Post_Office": "Lawas",
        "State": "Sarawak"
    },
    {
        "Postcode": "98850",
        "Location": "Kampung Pemukat",
        "Post_Office": "Lawas",
        "State": "Sarawak"
    },
    {
        "Postcode": "98850",
        "Location": "Awat-Awat",
        "Post_Office": "Lawas",
        "State": "Sarawak"
    },
    {
        "Postcode": "98850",
        "Location": "Ba Kelalan",
        "Post_Office": "Lawas",
        "State": "Sarawak"
    },
    {
        "Postcode": "98850",
        "Location": "Belakang Kedai",
        "Post_Office": "Lawas",
        "State": "Sarawak"
    },
    {
        "Postcode": "98850",
        "Location": "Kampung Air Terjun",
        "Post_Office": "Lawas",
        "State": "Sarawak"
    },
    {
        "Postcode": "98850",
        "Location": "Kampung Batu Dua",
        "Post_Office": "Lawas",
        "State": "Sarawak"
    },
    {
        "Postcode": "98850",
        "Location": "Kampung Batu Tiga",
        "Post_Office": "Lawas",
        "State": "Sarawak"
    },
    {
        "Postcode": "98850",
        "Location": "Kampung Belangsat",
        "Post_Office": "Lawas",
        "State": "Sarawak"
    },
    {
        "Postcode": "98850",
        "Location": "Kampung Empittied",
        "Post_Office": "Lawas",
        "State": "Sarawak"
    },
    {
        "Postcode": "98850",
        "Location": "Kampung Long Sebangang",
        "Post_Office": "Lawas",
        "State": "Sarawak"
    },
    {
        "Postcode": "98850",
        "Location": "Kampung Merapok",
        "Post_Office": "Lawas",
        "State": "Sarawak"
    },
    {
        "Postcode": "98850",
        "Location": "Kampung Nor Islam",
        "Post_Office": "Lawas",
        "State": "Sarawak"
    },
    {
        "Postcode": "98850",
        "Location": "Kampung Pangi",
        "Post_Office": "Lawas",
        "State": "Sarawak"
    },
    {
        "Postcode": "98850",
        "Location": "Kampung Punang",
        "Post_Office": "Lawas",
        "State": "Sarawak"
    },
    {
        "Postcode": "98850",
        "Location": "Kampung Sebangan Lawas",
        "Post_Office": "Lawas",
        "State": "Sarawak"
    },
    {
        "Postcode": "98850",
        "Location": "Kampung Sesco",
        "Post_Office": "Lawas",
        "State": "Sarawak"
    },
    {
        "Postcode": "98850",
        "Location": "Kampung Tanjong Batu",
        "Post_Office": "Lawas",
        "State": "Sarawak"
    },
    {
        "Postcode": "98850",
        "Location": "Kampung Temanggis",
        "Post_Office": "Lawas",
        "State": "Sarawak"
    },
    {
        "Postcode": "98850",
        "Location": "Lawas",
        "Post_Office": "Lawas",
        "State": "Sarawak"
    },
    {
        "Postcode": "98850",
        "Location": "Long Semadoh",
        "Post_Office": "Lawas",
        "State": "Sarawak"
    },
    {
        "Postcode": "98850",
        "Location": "Long Sukang",
        "Post_Office": "Lawas",
        "State": "Sarawak"
    },
    {
        "Postcode": "98850",
        "Location": "Sungai Bangat",
        "Post_Office": "Lawas",
        "State": "Sarawak"
    },
    {
        "Postcode": "98850",
        "Location": "Sungai Berlipat",
        "Post_Office": "Lawas",
        "State": "Sarawak"
    },
    {
        "Postcode": "98850",
        "Location": "Sungai Seloating",
        "Post_Office": "Lawas",
        "State": "Sarawak"
    },
    {
        "Postcode": "98850",
        "Location": "Trusan",
        "Post_Office": "Lawas",
        "State": "Sarawak"
    },
    {
        "Postcode": "98850",
        "Location": "Tuaran",
        "Post_Office": "Lawas",
        "State": "Sarawak"
    }
]
