[
    {
        "Postcode": "84000",
        "Location": "Jalan Dato Haji Kosai",
        "Post_Office": "Muar",
        "State": "Johor"
    },
    {
        "Postcode": "84000",
        "Location": "Jalan Dato Mohd Tahir",
        "Post_Office": "Muar",
        "State": "Johor"
    },
    {
        "Postcode": "84000",
        "Location": "Jalan Daud",
        "Post_Office": "Muar",
        "State": "Johor"
    },
    {
        "Postcode": "84000",
        "Location": "Jalan Haji Jaib",
        "Post_Office": "Muar",
        "State": "Johor"
    },
    {
        "Postcode": "84000",
        "Location": "Jalan Haji Sairan Sabtu",
        "Post_Office": "Muar",
        "State": "Johor"
    },
    {
        "Postcode": "84000",
        "Location": "Jalan Haji Taib",
        "Post_Office": "Muar",
        "State": "Johor"
    },
    {
        "Postcode": "84000",
        "Location": "Jalan Haji Yunos",
        "Post_Office": "Muar",
        "State": "Johor"
    },
    {
        "Postcode": "84000",
        "Location": "Jalan Hashim",
        "Post_Office": "Muar",
        "State": "Johor"
    },
    {
        "Postcode": "84000",
        "Location": "Jalan Joned",
        "Post_Office": "Muar",
        "State": "Johor"
    },
    {
        "Postcode": "84000",
        "Location": "Jalan Katib",
        "Post_Office": "Muar",
        "State": "Johor"
    },
    {
        "Postcode": "84000",
        "Location": "Jalan Kesang",
        "Post_Office": "Muar",
        "State": "Johor"
    },
    {
        "Postcode": "84000",
        "Location": "Jalan Khalidi",
        "Post_Office": "Muar",
        "State": "Johor"
    },
    {
        "Postcode": "84000",
        "Location": "Jalan Maharani",
        "Post_Office": "Muar",
        "State": "Johor"
    },
    {
        "Postcode": "84000",
        "Location": "Jalan Majidi",
        "Post_Office": "Muar",
        "State": "Johor"
    },
    {
        "Postcode": "84000",
        "Location": "Jalan Meriam",
        "Post_Office": "Muar",
        "State": "Johor"
    },
    {
        "Postcode": "84000",
        "Location": "Jalan Mohamadiah",
        "Post_Office": "Muar",
        "State": "Johor"
    },
    {
        "Postcode": "84000",
        "Location": "Jalan Omri",
        "Post_Office": "Muar",
        "State": "Johor"
    },
    {
        "Postcode": "84000",
        "Location": "Jalan Othman",
        "Post_Office": "Muar",
        "State": "Johor"
    },
    {
        "Postcode": "84000",
        "Location": "Jalan Parit Tiram",
        "Post_Office": "Muar",
        "State": "Johor"
    },
    {
        "Postcode": "84000",
        "Location": "Jalan Sakeh",
        "Post_Office": "Muar",
        "State": "Johor"
    },
    {
        "Postcode": "84000",
        "Location": "Jalan Sisi",
        "Post_Office": "Muar",
        "State": "Johor"
    },
    {
        "Postcode": "84000",
        "Location": "Jalan Sri Muda",
        "Post_Office": "Muar",
        "State": "Johor"
    },
    {
        "Postcode": "84000",
        "Location": "Jalan Sri Tanjong",
        "Post_Office": "Muar",
        "State": "Johor"
    },
    {
        "Postcode": "84000",
        "Location": "Jalan Sultan Ibrahim",
        "Post_Office": "Muar",
        "State": "Johor"
    },
    {
        "Postcode": "84000",
        "Location": "Jalan Sungai Abong",
        "Post_Office": "Muar",
        "State": "Johor"
    },
    {
        "Postcode": "84000",
        "Location": "Jalan Terus",
        "Post_Office": "Muar",
        "State": "Johor"
    },
    {
        "Postcode": "84000",
        "Location": "Jalan Timbalan",
        "Post_Office": "Muar",
        "State": "Johor"
    },
    {
        "Postcode": "84000",
        "Location": "Jalan Tun Aminah",
        "Post_Office": "Muar",
        "State": "Johor"
    },
    {
        "Postcode": "84000",
        "Location": "Jalan Yahya",
        "Post_Office": "Muar",
        "State": "Johor"
    },
    {
        "Postcode": "84000",
        "Location": "Jalanhaji Abu",
        "Post_Office": "Muar",
        "State": "Johor"
    },
    {
        "Postcode": "84000",
        "Location": "Jeram Mesjid",
        "Post_Office": "Muar",
        "State": "Johor"
    },
    {
        "Postcode": "84000",
        "Location": "Jeram Tepi",
        "Post_Office": "Muar",
        "State": "Johor"
    },
    {
        "Postcode": "84000",
        "Location": "Kampung Batu 3 (Jalan Muar)",
        "Post_Office": "Muar",
        "State": "Johor"
    },
    {
        "Postcode": "84000",
        "Location": "Kampung Belakang",
        "Post_Office": "Muar",
        "State": "Johor"
    },
    {
        "Postcode": "84000",
        "Location": "Kampung Bukit Terih",
        "Post_Office": "Muar",
        "State": "Johor"
    },
    {
        "Postcode": "84000",
        "Location": "Kampung Bukit Treh",
        "Post_Office": "Muar",
        "State": "Johor"
    },
    {
        "Postcode": "84000",
        "Location": "Kampung Dato Bentara Luar",
        "Post_Office": "Muar",
        "State": "Johor"
    },
    {
        "Postcode": "84000",
        "Location": "Kampung Dato Sri Amar Di Raja",
        "Post_Office": "Muar",
        "State": "Johor"
    },
    {
        "Postcode": "84000",
        "Location": "Kampung Gelam (Jalan Lama)",
        "Post_Office": "Muar",
        "State": "Johor"
    },
    {
        "Postcode": "84000",
        "Location": "Kampung Jeram Mesjid",
        "Post_Office": "Muar",
        "State": "Johor"
    },
    {
        "Postcode": "84000",
        "Location": "Kampung Jeram Tengah",
        "Post_Office": "Muar",
        "State": "Johor"
    },
    {
        "Postcode": "84000",
        "Location": "Kampung Jeram Tepi",
        "Post_Office": "Muar",
        "State": "Johor"
    },
    {
        "Postcode": "84000",
        "Location": "Kampung Kenangan Sri Manis",
        "Post_Office": "Muar",
        "State": "Johor"
    },
    {
        "Postcode": "84000",
        "Location": "Kampung Paip Parit Bakar",
        "Post_Office": "Muar",
        "State": "Johor"
    },
    {
        "Postcode": "84000",
        "Location": "Kampung Parit Amal",
        "Post_Office": "Muar",
        "State": "Johor"
    },
    {
        "Postcode": "84000",
        "Location": "Kampung Parit Bakar",
        "Post_Office": "Muar",
        "State": "Johor"
    },
    {
        "Postcode": "84000",
        "Location": "Kampung Parit Bakar Darat",
        "Post_Office": "Muar",
        "State": "Johor"
    },
    {
        "Postcode": "84000",
        "Location": "Kampung Parit Buah Keras",
        "Post_Office": "Muar",
        "State": "Johor"
    },
    {
        "Postcode": "84000",
        "Location": "Kampung Parit Bunga Laut",
        "Post_Office": "Muar",
        "State": "Johor"
    },
    {
        "Postcode": "84000",
        "Location": "Kampung Parit Hulu",
        "Post_Office": "Muar",
        "State": "Johor"
    },
    {
        "Postcode": "84000",
        "Location": "Kampung Parit Payong",
        "Post_Office": "Muar",
        "State": "Johor"
    },
    {
        "Postcode": "84000",
        "Location": "Kampung Parit Perupok",
        "Post_Office": "Muar",
        "State": "Johor"
    },
    {
        "Postcode": "84000",
        "Location": "Kampung Parit Raibah",
        "Post_Office": "Muar",
        "State": "Johor"
    },
    {
        "Postcode": "84000",
        "Location": "Kampung Parit Raja Sari",
        "Post_Office": "Muar",
        "State": "Johor"
    },
    {
        "Postcode": "84000",
        "Location": "Kampung Parit Sakai",
        "Post_Office": "Muar",
        "State": "Johor"
    },
    {
        "Postcode": "84000",
        "Location": "Kampung Parit Setongkat Darat",
        "Post_Office": "Muar",
        "State": "Johor"
    },
    {
        "Postcode": "84000",
        "Location": "Kampung Paya Ronggang",
        "Post_Office": "Muar",
        "State": "Johor"
    },
    {
        "Postcode": "84000",
        "Location": "Kampung Pinang Kesang",
        "Post_Office": "Muar",
        "State": "Johor"
    },
    {
        "Postcode": "84000",
        "Location": "Kampung Sabak Aur",
        "Post_Office": "Muar",
        "State": "Johor"
    },
    {
        "Postcode": "84000",
        "Location": "Kampung Seri Bukit Batu",
        "Post_Office": "Muar",
        "State": "Johor"
    },
    {
        "Postcode": "84000",
        "Location": "Kampung Seri Tanjong",
        "Post_Office": "Muar",
        "State": "Johor"
    },
    {
        "Postcode": "84000",
        "Location": "Kampung Simpang Jeram Bakri",
        "Post_Office": "Muar",
        "State": "Johor"
    },
    {
        "Postcode": "84000",
        "Location": "Kampung Sungai Pulai",
        "Post_Office": "Muar",
        "State": "Johor"
    },
    {
        "Postcode": "84000",
        "Location": "Kampung Tanjong Agas",
        "Post_Office": "Muar",
        "State": "Johor"
    },
    {
        "Postcode": "84000",
        "Location": "Kampung Tengah (Sungai Abong)",
        "Post_Office": "Muar",
        "State": "Johor"
    },
    {
        "Postcode": "84000",
        "Location": "Kampung Tengah Jeram",
        "Post_Office": "Muar",
        "State": "Johor"
    },
    {
        "Postcode": "84000",
        "Location": "Kesang",
        "Post_Office": "Muar",
        "State": "Johor"
    },
    {
        "Postcode": "84000",
        "Location": "Kesang Gate",
        "Post_Office": "Muar",
        "State": "Johor"
    },
    {
        "Postcode": "84000",
        "Location": "Kesang Laut",
        "Post_Office": "Muar",
        "State": "Johor"
    },
    {
        "Postcode": "84000",
        "Location": "Ladang Chin Hupp",
        "Post_Office": "Muar",
        "State": "Johor"
    },
    {
        "Postcode": "84000",
        "Location": "Lorong Abd Rahman",
        "Post_Office": "Muar",
        "State": "Johor"
    },
    {
        "Postcode": "84000",
        "Location": "Lorong Abdullah",
        "Post_Office": "Muar",
        "State": "Johor"
    },
    {
        "Postcode": "84000",
        "Location": "Lorong Ahad",
        "Post_Office": "Muar",
        "State": "Johor"
    },
    {
        "Postcode": "84000",
        "Location": "Lorong Ahmad",
        "Post_Office": "Muar",
        "State": "Johor"
    },
    {
        "Postcode": "84000",
        "Location": "Lorong Belia",
        "Post_Office": "Muar",
        "State": "Johor"
    },
    {
        "Postcode": "84000",
        "Location": "Lorong Bersama",
        "Post_Office": "Muar",
        "State": "Johor"
    },
    {
        "Postcode": "84000",
        "Location": "Lorong Bunga",
        "Post_Office": "Muar",
        "State": "Johor"
    },
    {
        "Postcode": "84000",
        "Location": "Lorong Dato Samsu",
        "Post_Office": "Muar",
        "State": "Johor"
    },
    {
        "Postcode": "84000",
        "Location": "Lorong Dato Sulaiman",
        "Post_Office": "Muar",
        "State": "Johor"
    },
    {
        "Postcode": "84000",
        "Location": "Lorong Fatah",
        "Post_Office": "Muar",
        "State": "Johor"
    },
    {
        "Postcode": "84000",
        "Location": "Lorong Haji Idris",
        "Post_Office": "Muar",
        "State": "Johor"
    },
    {
        "Postcode": "84000",
        "Location": "Lorong Haji Jabar",
        "Post_Office": "Muar",
        "State": "Johor"
    },
    {
        "Postcode": "84000",
        "Location": "Lorong Haji Osman",
        "Post_Office": "Muar",
        "State": "Johor"
    },
    {
        "Postcode": "84000",
        "Location": "Lorong Haji Rais",
        "Post_Office": "Muar",
        "State": "Johor"
    },
    {
        "Postcode": "84000",
        "Location": "Lorong Haji Shamsuddin",
        "Post_Office": "Muar",
        "State": "Johor"
    },
    {
        "Postcode": "84000",
        "Location": "Lorong Haji Simon",
        "Post_Office": "Muar",
        "State": "Johor"
    },
    {
        "Postcode": "84000",
        "Location": "Lorong Hajjah Manis",
        "Post_Office": "Muar",
        "State": "Johor"
    },
    {
        "Postcode": "84000",
        "Location": "Lorong Hassan Nandong",
        "Post_Office": "Muar",
        "State": "Johor"
    },
    {
        "Postcode": "84000",
        "Location": "Lorong Hedrah",
        "Post_Office": "Muar",
        "State": "Johor"
    },
    {
        "Postcode": "84000",
        "Location": "Lorong Isnin",
        "Post_Office": "Muar",
        "State": "Johor"
    },
    {
        "Postcode": "84000",
        "Location": "Lorong Jaafar",
        "Post_Office": "Muar",
        "State": "Johor"
    },
    {
        "Postcode": "84000",
        "Location": "Lorong Johar",
        "Post_Office": "Muar",
        "State": "Johor"
    },
    {
        "Postcode": "84000",
        "Location": "Lorong Kim Kee",
        "Post_Office": "Muar",
        "State": "Johor"
    },
    {
        "Postcode": "84000",
        "Location": "Lorong Kutty",
        "Post_Office": "Muar",
        "State": "Johor"
    },
    {
        "Postcode": "84000",
        "Location": "Lorong Maisarah",
        "Post_Office": "Muar",
        "State": "Johor"
    },
    {
        "Postcode": "84000",
        "Location": "Lorong Manaf",
        "Post_Office": "Muar",
        "State": "Johor"
    },
    {
        "Postcode": "84000",
        "Location": "Lorong Mat Deros",
        "Post_Office": "Muar",
        "State": "Johor"
    },
    {
        "Postcode": "84000",
        "Location": "Lorong Maun",
        "Post_Office": "Muar",
        "State": "Johor"
    },
    {
        "Postcode": "84000",
        "Location": "Lorong Md. Noh",
        "Post_Office": "Muar",
        "State": "Johor"
    },
    {
        "Postcode": "84000",
        "Location": "Lorong Md. Said",
        "Post_Office": "Muar",
        "State": "Johor"
    },
    {
        "Postcode": "84000",
        "Location": "Lorong Md. Yassin",
        "Post_Office": "Muar",
        "State": "Johor"
    },
    {
        "Postcode": "84000",
        "Location": "Lorong Mohamadiah",
        "Post_Office": "Muar",
        "State": "Johor"
    },
    {
        "Postcode": "84000",
        "Location": "Lorong Mohd Dali",
        "Post_Office": "Muar",
        "State": "Johor"
    },
    {
        "Postcode": "84000",
        "Location": "Lorong Muniadi",
        "Post_Office": "Muar",
        "State": "Johor"
    },
    {
        "Postcode": "84000",
        "Location": "Lorong Nangka",
        "Post_Office": "Muar",
        "State": "Johor"
    },
    {
        "Postcode": "84000",
        "Location": "Lorong Ow Ben",
        "Post_Office": "Muar",
        "State": "Johor"
    },
    {
        "Postcode": "84000",
        "Location": "Lorong Paip",
        "Post_Office": "Muar",
        "State": "Johor"
    },
    {
        "Postcode": "84000",
        "Location": "Lorong Pak Sitam",
        "Post_Office": "Muar",
        "State": "Johor"
    },
    {
        "Postcode": "84000",
        "Location": "Lorong Parman",
        "Post_Office": "Muar",
        "State": "Johor"
    },
    {
        "Postcode": "84000",
        "Location": "Lorong Pencen",
        "Post_Office": "Muar",
        "State": "Johor"
    },
    {
        "Postcode": "84000",
        "Location": "Lorong Rahmat",
        "Post_Office": "Muar",
        "State": "Johor"
    },
    {
        "Postcode": "84000",
        "Location": "Lorong Salehan",
        "Post_Office": "Muar",
        "State": "Johor"
    },
    {
        "Postcode": "84000",
        "Location": "Lorong Saman",
        "Post_Office": "Muar",
        "State": "Johor"
    },
    {
        "Postcode": "84000",
        "Location": "Lorong Samsuri",
        "Post_Office": "Muar",
        "State": "Johor"
    },
    {
        "Postcode": "84000",
        "Location": "Lorong Serkam",
        "Post_Office": "Muar",
        "State": "Johor"
    },
    {
        "Postcode": "84000",
        "Location": "Lorong Sesama",
        "Post_Office": "Muar",
        "State": "Johor"
    },
    {
        "Postcode": "84000",
        "Location": "Lorong Syed Abu Bakar",
        "Post_Office": "Muar",
        "State": "Johor"
    },
    {
        "Postcode": "84000",
        "Location": "Lorong Taha Sharif",
        "Post_Office": "Muar",
        "State": "Johor"
    },
    {
        "Postcode": "84000",
        "Location": "Lorong Tahir",
        "Post_Office": "Muar",
        "State": "Johor"
    },
    {
        "Postcode": "84000",
        "Location": "Lorong Tee Boon Peah",
        "Post_Office": "Muar",
        "State": "Johor"
    },
    {
        "Postcode": "84000",
        "Location": "Lorong Tengah",
        "Post_Office": "Muar",
        "State": "Johor"
    },
    {
        "Postcode": "84000",
        "Location": "Lorong Wan Chik",
        "Post_Office": "Muar",
        "State": "Johor"
    },
    {
        "Postcode": "84000",
        "Location": "Lorong Wan Perkasa",
        "Post_Office": "Muar",
        "State": "Johor"
    },
    {
        "Postcode": "84000",
        "Location": "Lorongghani",
        "Post_Office": "Muar",
        "State": "Johor"
    },
    {
        "Postcode": "84000",
        "Location": "Muar",
        "Post_Office": "Muar",
        "State": "Johor"
    },
    {
        "Postcode": "84000",
        "Location": "Pangsapuri Anda",
        "Post_Office": "Muar",
        "State": "Johor"
    },
    {
        "Postcode": "84000",
        "Location": "Pangsapuri Aroma Park",
        "Post_Office": "Muar",
        "State": "Johor"
    },
    {
        "Postcode": "84000",
        "Location": "Pangsapuri Emas",
        "Post_Office": "Muar",
        "State": "Johor"
    },
    {
        "Postcode": "84000",
        "Location": "Pangsapuri Indah",
        "Post_Office": "Muar",
        "State": "Johor"
    },
    {
        "Postcode": "84000",
        "Location": "Pangsapuri Intan",
        "Post_Office": "Muar",
        "State": "Johor"
    },
    {
        "Postcode": "84000",
        "Location": "Pangsapuri Mutiara",
        "Post_Office": "Muar",
        "State": "Johor"
    },
    {
        "Postcode": "84000",
        "Location": "Pangsapuri Pemandangan Tanjong",
        "Post_Office": "Muar",
        "State": "Johor"
    },
    {
        "Postcode": "84000",
        "Location": "Pangsapuri Permata",
        "Post_Office": "Muar",
        "State": "Johor"
    },
    {
        "Postcode": "84000",
        "Location": "Pangsapuri Sri Bakariah",
        "Post_Office": "Muar",
        "State": "Johor"
    },
    {
        "Postcode": "84000",
        "Location": "Parit Amal",
        "Post_Office": "Muar",
        "State": "Johor"
    },
    {
        "Postcode": "84000",
        "Location": "Parit Amal Laut",
        "Post_Office": "Muar",
        "State": "Johor"
    },
    {
        "Postcode": "84000",
        "Location": "Parit Amal Tengah",
        "Post_Office": "Muar",
        "State": "Johor"
    },
    {
        "Postcode": "84000",
        "Location": "Parit Amat Darat",
        "Post_Office": "Muar",
        "State": "Johor"
    },
    {
        "Postcode": "84000",
        "Location": "Parit Amat Laut",
        "Post_Office": "Muar",
        "State": "Johor"
    },
    {
        "Postcode": "84000",
        "Location": "Parit Asam Kumbang Laut",
        "Post_Office": "Muar",
        "State": "Johor"
    },
    {
        "Postcode": "84000",
        "Location": "Parit Bakar",
        "Post_Office": "Muar",
        "State": "Johor"
    },
    {
        "Postcode": "84000",
        "Location": "Parit Bakar Darat",
        "Post_Office": "Muar",
        "State": "Johor"
    },
    {
        "Postcode": "84000",
        "Location": "Parit Bakar Laut",
        "Post_Office": "Muar",
        "State": "Johor"
    },
    {
        "Postcode": "84000",
        "Location": "Parit Bakar Tengah",
        "Post_Office": "Muar",
        "State": "Johor"
    },
    {
        "Postcode": "84000",
        "Location": "Parit Belukar China",
        "Post_Office": "Muar",
        "State": "Johor"
    },
    {
        "Postcode": "84000",
        "Location": "Parit Besar Darat",
        "Post_Office": "Muar",
        "State": "Johor"
    },
    {
        "Postcode": "84000",
        "Location": "Parit Besar Laut",
        "Post_Office": "Muar",
        "State": "Johor"
    },
    {
        "Postcode": "84000",
        "Location": "Parit Beting",
        "Post_Office": "Muar",
        "State": "Johor"
    },
    {
        "Postcode": "84000",
        "Location": "Parit Buah Keras",
        "Post_Office": "Muar",
        "State": "Johor"
    },
    {
        "Postcode": "84000",
        "Location": "Parit Bunga",
        "Post_Office": "Muar",
        "State": "Johor"
    },
    {
        "Postcode": "84000",
        "Location": "Parit Cik Mat",
        "Post_Office": "Muar",
        "State": "Johor"
    },
    {
        "Postcode": "84000",
        "Location": "Parit Fajar Darat",
        "Post_Office": "Muar",
        "State": "Johor"
    },
    {
        "Postcode": "84000",
        "Location": "Parit Haji Baki",
        "Post_Office": "Muar",
        "State": "Johor"
    },
    {
        "Postcode": "84000",
        "Location": "Parit Haji Othman",
        "Post_Office": "Muar",
        "State": "Johor"
    },
    {
        "Postcode": "84000",
        "Location": "Parit Imam Din",
        "Post_Office": "Muar",
        "State": "Johor"
    },
    {
        "Postcode": "84000",
        "Location": "Parit Karang Darat",
        "Post_Office": "Muar",
        "State": "Johor"
    },
    {
        "Postcode": "84000",
        "Location": "Parit Karang Laut",
        "Post_Office": "Muar",
        "State": "Johor"
    },
    {
        "Postcode": "84000",
        "Location": "Parit Keroma Laut",
        "Post_Office": "Muar",
        "State": "Johor"
    },
    {
        "Postcode": "84000",
        "Location": "Parit Keroma Tengah",
        "Post_Office": "Muar",
        "State": "Johor"
    },
    {
        "Postcode": "84000",
        "Location": "Parit Mohammed",
        "Post_Office": "Muar",
        "State": "Johor"
    },
    {
        "Postcode": "84000",
        "Location": "Parit Pajar",
        "Post_Office": "Muar",
        "State": "Johor"
    },
    {
        "Postcode": "84000",
        "Location": "Parit Panjar Darat",
        "Post_Office": "Muar",
        "State": "Johor"
    },
    {
        "Postcode": "84000",
        "Location": "Parit Panjar Laut",
        "Post_Office": "Muar",
        "State": "Johor"
    },
    {
        "Postcode": "84000",
        "Location": "Parit Payong",
        "Post_Office": "Muar",
        "State": "Johor"
    },
    {
        "Postcode": "84000",
        "Location": "Parit Payong Laut",
        "Post_Office": "Muar",
        "State": "Johor"
    },
    {
        "Postcode": "84000",
        "Location": "Parit Payong Tengah",
        "Post_Office": "Muar",
        "State": "Johor"
    },
    {
        "Postcode": "84000",
        "Location": "Parit Pelupuk",
        "Post_Office": "Muar",
        "State": "Johor"
    },
    {
        "Postcode": "84000",
        "Location": "Parit Penghulu Ibrahim",
        "Post_Office": "Muar",
        "State": "Johor"
    },
    {
        "Postcode": "84000",
        "Location": "Parit Penghulu Md Zin",
        "Post_Office": "Muar",
        "State": "Johor"
    },
    {
        "Postcode": "84000",
        "Location": "Parit Perupok",
        "Post_Office": "Muar",
        "State": "Johor"
    },
    {
        "Postcode": "84000",
        "Location": "Parit Perupok Darat",
        "Post_Office": "Muar",
        "State": "Johor"
    },
    {
        "Postcode": "84000",
        "Location": "Parit Perupok Laut",
        "Post_Office": "Muar",
        "State": "Johor"
    },
    {
        "Postcode": "84000",
        "Location": "Parit Raibah",
        "Post_Office": "Muar",
        "State": "Johor"
    },
    {
        "Postcode": "84000",
        "Location": "Parit Raibah Laut",
        "Post_Office": "Muar",
        "State": "Johor"
    },
    {
        "Postcode": "84000",
        "Location": "Parit Raja Sari",
        "Post_Office": "Muar",
        "State": "Johor"
    },
    {
        "Postcode": "84000",
        "Location": "Parit Sakai",
        "Post_Office": "Muar",
        "State": "Johor"
    },
    {
        "Postcode": "84000",
        "Location": "Parit Sakai Darat",
        "Post_Office": "Muar",
        "State": "Johor"
    },
    {
        "Postcode": "84000",
        "Location": "Parit Sakai Jalan Paip",
        "Post_Office": "Muar",
        "State": "Johor"
    },
    {
        "Postcode": "84000",
        "Location": "Parit Sakai Laut",
        "Post_Office": "Muar",
        "State": "Johor"
    },
    {
        "Postcode": "84000",
        "Location": "Parit Sakai Pantai",
        "Post_Office": "Muar",
        "State": "Johor"
    },
    {
        "Postcode": "84000",
        "Location": "Parit Salim",
        "Post_Office": "Muar",
        "State": "Johor"
    },
    {
        "Postcode": "84000",
        "Location": "Parit Samat",
        "Post_Office": "Muar",
        "State": "Johor"
    },
    {
        "Postcode": "84000",
        "Location": "Parit Sekoyan Kesang",
        "Post_Office": "Muar",
        "State": "Johor"
    },
    {
        "Postcode": "84000",
        "Location": "Parit Sri Tanjung",
        "Post_Office": "Muar",
        "State": "Johor"
    },
    {
        "Postcode": "84000",
        "Location": "Taman Mulia (Kesang)",
        "Post_Office": "Muar",
        "State": "Johor"
    },
    {
        "Postcode": "84000",
        "Location": "Taman Ophir",
        "Post_Office": "Muar",
        "State": "Johor"
    },
    {
        "Postcode": "84000",
        "Location": "Taman Pandan Jaya (Sungai Abong)",
        "Post_Office": "Muar",
        "State": "Johor"
    },
    {
        "Postcode": "84000",
        "Location": "Taman Parit Bakar",
        "Post_Office": "Muar",
        "State": "Johor"
    },
    {
        "Postcode": "84000",
        "Location": "Taman Parit Bakar Indah",
        "Post_Office": "Muar",
        "State": "Johor"
    },
    {
        "Postcode": "84000",
        "Location": "Taman Parit Setongkat",
        "Post_Office": "Muar",
        "State": "Johor"
    },
    {
        "Postcode": "84000",
        "Location": "Taman Pertama Indah",
        "Post_Office": "Muar",
        "State": "Johor"
    },
    {
        "Postcode": "84000",
        "Location": "Taman Pesona",
        "Post_Office": "Muar",
        "State": "Johor"
    },
    {
        "Postcode": "84000",
        "Location": "Taman Pesta Baru",
        "Post_Office": "Muar",
        "State": "Johor"
    },
    {
        "Postcode": "84000",
        "Location": "Taman Pon (Tanjung Agas)",
        "Post_Office": "Muar",
        "State": "Johor"
    },
    {
        "Postcode": "84000",
        "Location": "Taman Putera Murni",
        "Post_Office": "Muar",
        "State": "Johor"
    },
    {
        "Postcode": "84000",
        "Location": "Taman Puteri 1",
        "Post_Office": "Muar",
        "State": "Johor"
    },
    {
        "Postcode": "84000",
        "Location": "Taman Raya Ria",
        "Post_Office": "Muar",
        "State": "Johor"
    },
    {
        "Postcode": "84000",
        "Location": "Taman Rozy",
        "Post_Office": "Muar",
        "State": "Johor"
    },
    {
        "Postcode": "84000",
        "Location": "Taman Sakeh",
        "Post_Office": "Muar",
        "State": "Johor"
    },
    {
        "Postcode": "84000",
        "Location": "Taman Sakeh Baru",
        "Post_Office": "Muar",
        "State": "Johor"
    },
    {
        "Postcode": "84000",
        "Location": "Taman Sakeh Jaya",
        "Post_Office": "Muar",
        "State": "Johor"
    },
    {
        "Postcode": "84000",
        "Location": "Taman Semangat",
        "Post_Office": "Muar",
        "State": "Johor"
    },
    {
        "Postcode": "84000",
        "Location": "Taman Sempurna",
        "Post_Office": "Muar",
        "State": "Johor"
    },
    {
        "Postcode": "84000",
        "Location": "Taman Seri Abong",
        "Post_Office": "Muar",
        "State": "Johor"
    },
    {
        "Postcode": "84000",
        "Location": "Taman Seri Bahagia",
        "Post_Office": "Muar",
        "State": "Johor"
    },
    {
        "Postcode": "84000",
        "Location": "Taman Seri Bakri",
        "Post_Office": "Muar",
        "State": "Johor"
    },
    {
        "Postcode": "84000",
        "Location": "Taman Seri Intah",
        "Post_Office": "Muar",
        "State": "Johor"
    },
    {
        "Postcode": "84000",
        "Location": "Taman Seri Maharani",
        "Post_Office": "Muar",
        "State": "Johor"
    },
    {
        "Postcode": "84000",
        "Location": "Taman Seri Muar",
        "Post_Office": "Muar",
        "State": "Johor"
    },
    {
        "Postcode": "84000",
        "Location": "Taman Seri Tanjong",
        "Post_Office": "Muar",
        "State": "Johor"
    },
    {
        "Postcode": "84000",
        "Location": "Taman Seri Tanjong Indah",
        "Post_Office": "Muar",
        "State": "Johor"
    },
    {
        "Postcode": "84000",
        "Location": "Taman Seri Temenggong",
        "Post_Office": "Muar",
        "State": "Johor"
    },
    {
        "Postcode": "84000",
        "Location": "Taman Seri Utama",
        "Post_Office": "Muar",
        "State": "Johor"
    },
    {
        "Postcode": "84000",
        "Location": "Taman Sri Cempaka",
        "Post_Office": "Muar",
        "State": "Johor"
    },
    {
        "Postcode": "84000",
        "Location": "Taman Sri Gading",
        "Post_Office": "Muar",
        "State": "Johor"
    },
    {
        "Postcode": "84000",
        "Location": "Taman Sri Intan",
        "Post_Office": "Muar",
        "State": "Johor"
    },
    {
        "Postcode": "84000",
        "Location": "Taman Sri Jeram 1",
        "Post_Office": "Muar",
        "State": "Johor"
    },
    {
        "Postcode": "84000",
        "Location": "Taman Sri Jeram 2",
        "Post_Office": "Muar",
        "State": "Johor"
    },
    {
        "Postcode": "84000",
        "Location": "Taman Sri Jeram 3",
        "Post_Office": "Muar",
        "State": "Johor"
    },
    {
        "Postcode": "84000",
        "Location": "Taman Sri Kesang",
        "Post_Office": "Muar",
        "State": "Johor"
    },
    {
        "Postcode": "84000",
        "Location": "Taman Sri Maharani",
        "Post_Office": "Muar",
        "State": "Johor"
    },
    {
        "Postcode": "84000",
        "Location": "Taman Sri Siantan",
        "Post_Office": "Muar",
        "State": "Johor"
    },
    {
        "Postcode": "84000",
        "Location": "Taman Sri Tanjong Indah",
        "Post_Office": "Muar",
        "State": "Johor"
    },
    {
        "Postcode": "84000",
        "Location": "Taman Sri Temenggong",
        "Post_Office": "Muar",
        "State": "Johor"
    },
    {
        "Postcode": "84000",
        "Location": "Taman Sri Temiang",
        "Post_Office": "Muar",
        "State": "Johor"
    },
    {
        "Postcode": "84000",
        "Location": "Taman Sri Terap",
        "Post_Office": "Muar",
        "State": "Johor"
    },
    {
        "Postcode": "84000",
        "Location": "Taman Sri Treh",
        "Post_Office": "Muar",
        "State": "Johor"
    },
    {
        "Postcode": "84000",
        "Location": "Taman Sungai Abong",
        "Post_Office": "Muar",
        "State": "Johor"
    },
    {
        "Postcode": "84000",
        "Location": "Taman Sungai Abong Cemerlang",
        "Post_Office": "Muar",
        "State": "Johor"
    },
    {
        "Postcode": "84000",
        "Location": "Taman Sungai Abong Indah",
        "Post_Office": "Muar",
        "State": "Johor"
    },
    {
        "Postcode": "84000",
        "Location": "Taman Sungai Abong Jaya",
        "Post_Office": "Muar",
        "State": "Johor"
    },
    {
        "Postcode": "84000",
        "Location": "Taman Sungai Abong Mulia",
        "Post_Office": "Muar",
        "State": "Johor"
    },
    {
        "Postcode": "84000",
        "Location": "Taman Sungai Abong Permai",
        "Post_Office": "Muar",
        "State": "Johor"
    },
    {
        "Postcode": "84000",
        "Location": "Taman Sungai Abong Sutera",
        "Post_Office": "Muar",
        "State": "Johor"
    },
    {
        "Postcode": "84000",
        "Location": "Taman Tanjong",
        "Post_Office": "Muar",
        "State": "Johor"
    },
    {
        "Postcode": "84000",
        "Location": "Taman Tanjung Gading",
        "Post_Office": "Muar",
        "State": "Johor"
    },
    {
        "Postcode": "84000",
        "Location": "Taman Temiang Damai",
        "Post_Office": "Muar",
        "State": "Johor"
    },
    {
        "Postcode": "84000",
        "Location": "Taman Temiang Indah",
        "Post_Office": "Muar",
        "State": "Johor"
    },
    {
        "Postcode": "84000",
        "Location": "Taman Temiang Intan",
        "Post_Office": "Muar",
        "State": "Johor"
    },
    {
        "Postcode": "84000",
        "Location": "Taman Temiang Jaya",
        "Post_Office": "Muar",
        "State": "Johor"
    },
    {
        "Postcode": "84000",
        "Location": "Taman Temiang Makmur",
        "Post_Office": "Muar",
        "State": "Johor"
    },
    {
        "Postcode": "84000",
        "Location": "Taman Temiang Murni",
        "Post_Office": "Muar",
        "State": "Johor"
    },
    {
        "Postcode": "84000",
        "Location": "Taman Temiang Utama",
        "Post_Office": "Muar",
        "State": "Johor"
    },
    {
        "Postcode": "84000",
        "Location": "Taman Tun Syed Nasir",
        "Post_Office": "Muar",
        "State": "Johor"
    },
    {
        "Postcode": "84000",
        "Location": "Tanjung Agas",
        "Post_Office": "Muar",
        "State": "Johor"
    },
    {
        "Postcode": "84000",
        "Location": "Tanjung Gading",
        "Post_Office": "Muar",
        "State": "Johor"
    },
    {
        "Postcode": "84000",
        "Location": "Jalan Abdullah",
        "Post_Office": "Muar",
        "State": "Johor"
    },
    {
        "Postcode": "84000",
        "Location": "Jalan Ismail",
        "Post_Office": "Muar",
        "State": "Johor"
    },
    {
        "Postcode": "84000",
        "Location": "Taman Aman",
        "Post_Office": "Muar",
        "State": "Johor"
    },
    {
        "Postcode": "84000",
        "Location": "Taman Orkid",
        "Post_Office": "Muar",
        "State": "Johor"
    },
    {
        "Postcode": "84000",
        "Location": "Taman Permata",
        "Post_Office": "Muar",
        "State": "Johor"
    },
    {
        "Postcode": "84000",
        "Location": "Taman Puteri",
        "Post_Office": "Muar",
        "State": "Johor"
    },
    {
        "Postcode": "84000",
        "Location": "Taman Sri Indah",
        "Post_Office": "Muar",
        "State": "Johor"
    },
    {
        "Postcode": "84000",
        "Location": "Jalan Sulaiman",
        "Post_Office": "Muar",
        "State": "Johor"
    },
    {
        "Postcode": "84000",
        "Location": "Taman Gemilang",
        "Post_Office": "Muar",
        "State": "Johor"
    },
    {
        "Postcode": "84000",
        "Location": "Taman Guru",
        "Post_Office": "Muar",
        "State": "Johor"
    },
    {
        "Postcode": "84000",
        "Location": "Taman Laksamana",
        "Post_Office": "Muar",
        "State": "Johor"
    },
    {
        "Postcode": "84000",
        "Location": "Taman Mahkota",
        "Post_Office": "Muar",
        "State": "Johor"
    },
    {
        "Postcode": "84000",
        "Location": "Taman Mesra",
        "Post_Office": "Muar",
        "State": "Johor"
    },
    {
        "Postcode": "84000",
        "Location": "Taman Permai",
        "Post_Office": "Muar",
        "State": "Johor"
    },
    {
        "Postcode": "84000",
        "Location": "Taman Pertama",
        "Post_Office": "Muar",
        "State": "Johor"
    },
    {
        "Postcode": "84000",
        "Location": "Taman Warisan",
        "Post_Office": "Muar",
        "State": "Johor"
    },
    {
        "Postcode": "84000",
        "Location": "Jalan Ahmad",
        "Post_Office": "Muar",
        "State": "Johor"
    },
    {
        "Postcode": "84000",
        "Location": "Jalan Durian",
        "Post_Office": "Muar",
        "State": "Johor"
    },
    {
        "Postcode": "84000",
        "Location": "Jalan Manggis",
        "Post_Office": "Muar",
        "State": "Johor"
    },
    {
        "Postcode": "84000",
        "Location": "Jalan Duku",
        "Post_Office": "Muar",
        "State": "Johor"
    },
    {
        "Postcode": "84000",
        "Location": "Jalan Hassan",
        "Post_Office": "Muar",
        "State": "Johor"
    },
    {
        "Postcode": "84000",
        "Location": "Jalan Jeram",
        "Post_Office": "Muar",
        "State": "Johor"
    },
    {
        "Postcode": "84000",
        "Location": "Jalan Rambutan",
        "Post_Office": "Muar",
        "State": "Johor"
    },
    {
        "Postcode": "84000",
        "Location": "Jalan Salleh",
        "Post_Office": "Muar",
        "State": "Johor"
    },
    {
        "Postcode": "84000",
        "Location": "Kampung Parit Besar",
        "Post_Office": "Muar",
        "State": "Johor"
    },
    {
        "Postcode": "84000",
        "Location": "Kampung Parit Raja Laut",
        "Post_Office": "Muar",
        "State": "Johor"
    },
    {
        "Postcode": "84000",
        "Location": "Parit Bilal",
        "Post_Office": "Muar",
        "State": "Johor"
    },
    {
        "Postcode": "84000",
        "Location": "Taman Desa Jaya",
        "Post_Office": "Muar",
        "State": "Johor"
    },
    {
        "Postcode": "84000",
        "Location": "Taman Seroja",
        "Post_Office": "Muar",
        "State": "Johor"
    },
    {
        "Postcode": "84000",
        "Location": "Parit Stongkat",
        "Post_Office": "Muar",
        "State": "Johor"
    },
    {
        "Postcode": "84000",
        "Location": "Parit Tanjong",
        "Post_Office": "Muar",
        "State": "Johor"
    },
    {
        "Postcode": "84000",
        "Location": "Parit Tiram",
        "Post_Office": "Muar",
        "State": "Johor"
    },
    {
        "Postcode": "84000",
        "Location": "Perit Benu",
        "Post_Office": "Muar",
        "State": "Johor"
    },
    {
        "Postcode": "84000",
        "Location": "Simpang Jeram",
        "Post_Office": "Muar",
        "State": "Johor"
    },
    {
        "Postcode": "84000",
        "Location": "Simpang Lima Tanjung Gading",
        "Post_Office": "Muar",
        "State": "Johor"
    },
    {
        "Postcode": "84000",
        "Location": "Sungai Abong",
        "Post_Office": "Muar",
        "State": "Johor"
    },
    {
        "Postcode": "84000",
        "Location": "Sungai Abong Darat",
        "Post_Office": "Muar",
        "State": "Johor"
    },
    {
        "Postcode": "84000",
        "Location": "Taman Agas",
        "Post_Office": "Muar",
        "State": "Johor"
    },
    {
        "Postcode": "84000",
        "Location": "Taman Aked Jaya",
        "Post_Office": "Muar",
        "State": "Johor"
    },
    {
        "Postcode": "84000",
        "Location": "Taman Arosa",
        "Post_Office": "Muar",
        "State": "Johor"
    },
    {
        "Postcode": "84000",
        "Location": "Taman Bakariah",
        "Post_Office": "Muar",
        "State": "Johor"
    },
    {
        "Postcode": "84000",
        "Location": "Taman Bakariah Indah",
        "Post_Office": "Muar",
        "State": "Johor"
    },
    {
        "Postcode": "84000",
        "Location": "Taman Baru",
        "Post_Office": "Muar",
        "State": "Johor"
    },
    {
        "Postcode": "84000",
        "Location": "Taman Baru Parit Ulu",
        "Post_Office": "Muar",
        "State": "Johor"
    },
    {
        "Postcode": "84000",
        "Location": "Taman Beting",
        "Post_Office": "Muar",
        "State": "Johor"
    },
    {
        "Postcode": "84000",
        "Location": "Taman Beting Indah",
        "Post_Office": "Muar",
        "State": "Johor"
    },
    {
        "Postcode": "84000",
        "Location": "Taman Bukit Treh",
        "Post_Office": "Muar",
        "State": "Johor"
    },
    {
        "Postcode": "84000",
        "Location": "Taman Bunga Mawar",
        "Post_Office": "Muar",
        "State": "Johor"
    },
    {
        "Postcode": "84000",
        "Location": "Taman Bunga Tanjong",
        "Post_Office": "Muar",
        "State": "Johor"
    },
    {
        "Postcode": "84000",
        "Location": "Taman Cahaya Indah",
        "Post_Office": "Muar",
        "State": "Johor"
    },
    {
        "Postcode": "84000",
        "Location": "Taman Cempaka Selatan",
        "Post_Office": "Muar",
        "State": "Johor"
    },
    {
        "Postcode": "84000",
        "Location": "Taman Chew Loy",
        "Post_Office": "Muar",
        "State": "Johor"
    },
    {
        "Postcode": "84000",
        "Location": "Taman Desa Baiduri",
        "Post_Office": "Muar",
        "State": "Johor"
    },
    {
        "Postcode": "84000",
        "Location": "Taman Desa Jeram",
        "Post_Office": "Muar",
        "State": "Johor"
    },
    {
        "Postcode": "84000",
        "Location": "Taman Desa Keroma",
        "Post_Office": "Muar",
        "State": "Johor"
    },
    {
        "Postcode": "84000",
        "Location": "Taman Desa Murni",
        "Post_Office": "Muar",
        "State": "Johor"
    },
    {
        "Postcode": "84000",
        "Location": "Taman Desa Temiang",
        "Post_Office": "Muar",
        "State": "Johor"
    },
    {
        "Postcode": "84000",
        "Location": "Taman Desa Wisma",
        "Post_Office": "Muar",
        "State": "Johor"
    },
    {
        "Postcode": "84000",
        "Location": "Taman Dusun Permai",
        "Post_Office": "Muar",
        "State": "Johor"
    },
    {
        "Postcode": "84000",
        "Location": "Taman Emas Ria 2",
        "Post_Office": "Muar",
        "State": "Johor"
    },
    {
        "Postcode": "84000",
        "Location": "Taman Enggang",
        "Post_Office": "Muar",
        "State": "Johor"
    },
    {
        "Postcode": "84000",
        "Location": "Taman Gading Baru",
        "Post_Office": "Muar",
        "State": "Johor"
    },
    {
        "Postcode": "84000",
        "Location": "Taman Gading Perdana",
        "Post_Office": "Muar",
        "State": "Johor"
    },
    {
        "Postcode": "84000",
        "Location": "Taman Garuda",
        "Post_Office": "Muar",
        "State": "Johor"
    },
    {
        "Postcode": "84000",
        "Location": "Taman Haji Yunus",
        "Post_Office": "Muar",
        "State": "Johor"
    },
    {
        "Postcode": "84000",
        "Location": "Taman Impiana",
        "Post_Office": "Muar",
        "State": "Johor"
    },
    {
        "Postcode": "84000",
        "Location": "Taman Intan Sungai Abong Darat",
        "Post_Office": "Muar",
        "State": "Johor"
    },
    {
        "Postcode": "84000",
        "Location": "Taman Jeram Mulia",
        "Post_Office": "Muar",
        "State": "Johor"
    },
    {
        "Postcode": "84000",
        "Location": "Taman Junid Dalam",
        "Post_Office": "Muar",
        "State": "Johor"
    },
    {
        "Postcode": "84000",
        "Location": "Taman Junid Indah",
        "Post_Office": "Muar",
        "State": "Johor"
    },
    {
        "Postcode": "84000",
        "Location": "Taman Junid Perdana",
        "Post_Office": "Muar",
        "State": "Johor"
    },
    {
        "Postcode": "84000",
        "Location": "Taman Kemuning",
        "Post_Office": "Muar",
        "State": "Johor"
    },
    {
        "Postcode": "84000",
        "Location": "Taman Kesang",
        "Post_Office": "Muar",
        "State": "Johor"
    },
    {
        "Postcode": "84000",
        "Location": "Taman Kesang Baru",
        "Post_Office": "Muar",
        "State": "Johor"
    },
    {
        "Postcode": "84000",
        "Location": "Taman Kesang Indah",
        "Post_Office": "Muar",
        "State": "Johor"
    },
    {
        "Postcode": "84000",
        "Location": "Taman Kesang Jaya",
        "Post_Office": "Muar",
        "State": "Johor"
    },
    {
        "Postcode": "84000",
        "Location": "Taman Khalidi Bahru",
        "Post_Office": "Muar",
        "State": "Johor"
    },
    {
        "Postcode": "84000",
        "Location": "Taman Kilat",
        "Post_Office": "Muar",
        "State": "Johor"
    },
    {
        "Postcode": "84000",
        "Location": "Taman Koperasi Guru Melayu",
        "Post_Office": "Muar",
        "State": "Johor"
    },
    {
        "Postcode": "84000",
        "Location": "Taman Lembah Padang",
        "Post_Office": "Muar",
        "State": "Johor"
    },
    {
        "Postcode": "84000",
        "Location": "Taman Maharani",
        "Post_Office": "Muar",
        "State": "Johor"
    },
    {
        "Postcode": "84000",
        "Location": "Taman Maharani Property",
        "Post_Office": "Muar",
        "State": "Johor"
    },
    {
        "Postcode": "84000",
        "Location": "Taman Makmur Jaya",
        "Post_Office": "Muar",
        "State": "Johor"
    },
    {
        "Postcode": "84000",
        "Location": "Taman Marin",
        "Post_Office": "Muar",
        "State": "Johor"
    },
    {
        "Postcode": "84000",
        "Location": "Taman Mas Indah",
        "Post_Office": "Muar",
        "State": "Johor"
    },
    {
        "Postcode": "84000",
        "Location": "Taman Mas Jaya",
        "Post_Office": "Muar",
        "State": "Johor"
    },
    {
        "Postcode": "84000",
        "Location": "Taman Mas Merah",
        "Post_Office": "Muar",
        "State": "Johor"
    },
    {
        "Postcode": "84000",
        "Location": "Taman Mas Ria",
        "Post_Office": "Muar",
        "State": "Johor"
    },
    {
        "Postcode": "84000",
        "Location": "Taman Masria",
        "Post_Office": "Muar",
        "State": "Johor"
    },
    {
        "Postcode": "84000",
        "Location": "Taman Menang",
        "Post_Office": "Muar",
        "State": "Johor"
    },
    {
        "Postcode": "84000",
        "Location": "Taman Meria",
        "Post_Office": "Muar",
        "State": "Johor"
    },
    {
        "Postcode": "84000",
        "Location": "Taman Metro",
        "Post_Office": "Muar",
        "State": "Johor"
    },
    {
        "Postcode": "84000",
        "Location": "Taman Mewah Jeram",
        "Post_Office": "Muar",
        "State": "Johor"
    },
    {
        "Postcode": "84000",
        "Location": "Taman Muar",
        "Post_Office": "Muar",
        "State": "Johor"
    },
    {
        "Postcode": "84000",
        "Location": "Jalan Hasan",
        "Post_Office": "Muar",
        "State": "Johor"
    },
    {
        "Postcode": "84000",
        "Location": "Kampung Kenangan",
        "Post_Office": "Muar",
        "State": "Johor"
    },
    {
        "Postcode": "84000",
        "Location": "Kampung Ayer Hitam",
        "Post_Office": "Muar",
        "State": "Johor"
    },
    {
        "Postcode": "84000",
        "Location": "Taman Meranti 2",
        "Post_Office": "Muar",
        "State": "Johor"
    },
    {
        "Postcode": "84000",
        "Location": "Tanjung Gading Laut",
        "Post_Office": "Muar",
        "State": "Johor"
    },
    {
        "Postcode": "84000",
        "Location": "Taman Maharani Ayu",
        "Post_Office": "Muar",
        "State": "Johor"
    },
    {
        "Postcode": "84000",
        "Location": "Taman Parit Bakar Tengah",
        "Post_Office": "Muar",
        "State": "Johor"
    },
    {
        "Postcode": "84000",
        "Location": "Taman Berkat 1",
        "Post_Office": "Muar",
        "State": "Johor"
    },
    {
        "Postcode": "84000",
        "Location": "Taman Berkat 2",
        "Post_Office": "Muar",
        "State": "Johor"
    },
    {
        "Postcode": "84000",
        "Location": "Taman Seri Emas 1",
        "Post_Office": "Muar",
        "State": "Johor"
    },
    {
        "Postcode": "84000",
        "Location": "Taman Seri Emas 2",
        "Post_Office": "Muar",
        "State": "Johor"
    },
    {
        "Postcode": "84000",
        "Location": "Taman Seri Emas 3",
        "Post_Office": "Muar",
        "State": "Johor"
    },
    {
        "Postcode": "84000",
        "Location": "Taman Seri Emas 4",
        "Post_Office": "Muar",
        "State": "Johor"
    },
    {
        "Postcode": "84000",
        "Location": "Taman Utama 1",
        "Post_Office": "Muar",
        "State": "Johor"
    },
    {
        "Postcode": "84000",
        "Location": "Taman Utama 2",
        "Post_Office": "Muar",
        "State": "Johor"
    },
    {
        "Postcode": "84000",
        "Location": "Jalan Lama",
        "Post_Office": "Muar",
        "State": "Johor"
    },
    {
        "Postcode": "84000",
        "Location": "Bakariah Bukit Treh",
        "Post_Office": "Muar",
        "State": "Johor"
    },
    {
        "Postcode": "84000",
        "Location": "Kampung Kenangan Tun Syed Nasir",
        "Post_Office": "Muar",
        "State": "Johor"
    },
    {
        "Postcode": "84000",
        "Location": "Kampung Tanjung Temiang",
        "Post_Office": "Muar",
        "State": "Johor"
    },
    {
        "Postcode": "84000",
        "Location": "Parit Ayah Samad",
        "Post_Office": "Muar",
        "State": "Johor"
    },
    {
        "Postcode": "84000",
        "Location": "Parit Haji Osman",
        "Post_Office": "Muar",
        "State": "Johor"
    },
    {
        "Postcode": "84000",
        "Location": "Parit Payung",
        "Post_Office": "Muar",
        "State": "Johor"
    },
    {
        "Postcode": "84000",
        "Location": "Taman Bakri Batu 1 1/4",
        "Post_Office": "Muar",
        "State": "Johor"
    },
    {
        "Postcode": "84000",
        "Location": "Taman Bukit Kangkar",
        "Post_Office": "Muar",
        "State": "Johor"
    },
    {
        "Postcode": "84000",
        "Location": "Taman Desa Bistari",
        "Post_Office": "Muar",
        "State": "Johor"
    },
    {
        "Postcode": "84000",
        "Location": "Taman Desa Ikhwan",
        "Post_Office": "Muar",
        "State": "Johor"
    },
    {
        "Postcode": "84000",
        "Location": "Taman Impian Murni",
        "Post_Office": "Muar",
        "State": "Johor"
    },
    {
        "Postcode": "84000",
        "Location": "Taman Jonid Indah",
        "Post_Office": "Muar",
        "State": "Johor"
    },
    {
        "Postcode": "84000",
        "Location": "Taman Jonid Perdana",
        "Post_Office": "Muar",
        "State": "Johor"
    },
    {
        "Postcode": "84000",
        "Location": "Taman Karang Indah",
        "Post_Office": "Muar",
        "State": "Johor"
    },
    {
        "Postcode": "84000",
        "Location": "Taman Keroma Citra",
        "Post_Office": "Muar",
        "State": "Johor"
    },
    {
        "Postcode": "84000",
        "Location": "Taman Keroma Jaya",
        "Post_Office": "Muar",
        "State": "Johor"
    },
    {
        "Postcode": "84000",
        "Location": "Taman Lantapuri",
        "Post_Office": "Muar",
        "State": "Johor"
    },
    {
        "Postcode": "84000",
        "Location": "Taman Permata Indah",
        "Post_Office": "Muar",
        "State": "Johor"
    },
    {
        "Postcode": "84000",
        "Location": "Taman Perupok",
        "Post_Office": "Muar",
        "State": "Johor"
    },
    {
        "Postcode": "84000",
        "Location": "Taman Seri Gemilang",
        "Post_Office": "Muar",
        "State": "Johor"
    },
    {
        "Postcode": "84000",
        "Location": "Taman Siantan Permai",
        "Post_Office": "Muar",
        "State": "Johor"
    },
    {
        "Postcode": "84000",
        "Location": "Taman Sri Bakri 2",
        "Post_Office": "Muar",
        "State": "Johor"
    },
    {
        "Postcode": "84000",
        "Location": "Taman Sri Gemilang",
        "Post_Office": "Muar",
        "State": "Johor"
    },
    {
        "Postcode": "84000",
        "Location": "Taman Sri Tanjung",
        "Post_Office": "Muar",
        "State": "Johor"
    },
    {
        "Postcode": "84000",
        "Location": "Taman Sri Tanjung Indah",
        "Post_Office": "Muar",
        "State": "Johor"
    },
    {
        "Postcode": "84000",
        "Location": "Taman Sri Temenggung",
        "Post_Office": "Muar",
        "State": "Johor"
    },
    {
        "Postcode": "84000",
        "Location": "Taman Tanjung Impian",
        "Post_Office": "Muar",
        "State": "Johor"
    },
    {
        "Postcode": "84000",
        "Location": "Taman Temiang Permai",
        "Post_Office": "Muar",
        "State": "Johor"
    },
    {
        "Postcode": "84000",
        "Location": "Taman Tun Sulaiman Ninam Shah",
        "Post_Office": "Muar",
        "State": "Johor"
    },
    {
        "Postcode": "84000",
        "Location": "Taman Asoka",
        "Post_Office": "Muar",
        "State": "Johor"
    },
    {
        "Postcode": "84000",
        "Location": "Taman Kesang Mawar",
        "Post_Office": "Muar",
        "State": "Johor"
    },
    {
        "Postcode": "84000",
        "Location": "Taman Saujana Putra",
        "Post_Office": "Muar",
        "State": "Johor"
    },
    {
        "Postcode": "84000",
        "Location": "Kampung Kenangan Tun Dr Ismail",
        "Post_Office": "Muar",
        "State": "Johor"
    },
    {
        "Postcode": "84000",
        "Location": "Jalan Petri",
        "Post_Office": "Muar",
        "State": "Johor"
    },
    {
        "Postcode": "84000",
        "Location": "Jalan Pinang",
        "Post_Office": "Muar",
        "State": "Johor"
    },
    {
        "Postcode": "84000",
        "Location": "Jalan Sayang",
        "Post_Office": "Muar",
        "State": "Johor"
    },
    {
        "Postcode": "84000",
        "Location": "Kampung Kelantan",
        "Post_Office": "Muar",
        "State": "Johor"
    },
    {
        "Postcode": "84000",
        "Location": "Kampung Parit Raja",
        "Post_Office": "Muar",
        "State": "Johor"
    },
    {
        "Postcode": "84000",
        "Location": "Kampung Temiang",
        "Post_Office": "Muar",
        "State": "Johor"
    },
    {
        "Postcode": "84000",
        "Location": "Lorong Intan",
        "Post_Office": "Muar",
        "State": "Johor"
    },
    {
        "Postcode": "84000",
        "Location": "Lorong Kassim",
        "Post_Office": "Muar",
        "State": "Johor"
    },
    {
        "Postcode": "84000",
        "Location": "Lorong Surau",
        "Post_Office": "Muar",
        "State": "Johor"
    },
    {
        "Postcode": "84000",
        "Location": "Kampung Parit Keroma",
        "Post_Office": "Muar",
        "State": "Johor"
    },
    {
        "Postcode": "84000",
        "Location": "Taman Budiman 2",
        "Post_Office": "Muar",
        "State": "Johor"
    },
    {
        "Postcode": "84000",
        "Location": "Taman Cahaya",
        "Post_Office": "Muar",
        "State": "Johor"
    },
    {
        "Postcode": "84000",
        "Location": "Taman Desa Impian",
        "Post_Office": "Muar",
        "State": "Johor"
    },
    {
        "Postcode": "84000",
        "Location": "Taman Gading Jaya",
        "Post_Office": "Muar",
        "State": "Johor"
    },
    {
        "Postcode": "84000",
        "Location": "Taman Kenanga",
        "Post_Office": "Muar",
        "State": "Johor"
    },
    {
        "Postcode": "84000",
        "Location": "Taman Medan",
        "Post_Office": "Muar",
        "State": "Johor"
    },
    {
        "Postcode": "84000",
        "Location": "Taman Putera Indah",
        "Post_Office": "Muar",
        "State": "Johor"
    },
    {
        "Postcode": "84000",
        "Location": "Taman Saujana ",
        "Post_Office": "Muar",
        "State": "Johor"
    },
    {
        "Postcode": "84000",
        "Location": "Taman Selasih",
        "Post_Office": "Muar",
        "State": "Johor"
    },
    {
        "Postcode": "84000",
        "Location": "Ayer Hitam",
        "Post_Office": "Muar",
        "State": "Johor"
    },
    {
        "Postcode": "84000",
        "Location": "Bukit Batu",
        "Post_Office": "Muar",
        "State": "Johor"
    },
    {
        "Postcode": "84000",
        "Location": "Jalan Arab",
        "Post_Office": "Muar",
        "State": "Johor"
    },
    {
        "Postcode": "84000",
        "Location": "Jalan Haji Abdullah",
        "Post_Office": "Muar",
        "State": "Johor"
    },
    {
        "Postcode": "84000",
        "Location": "Jalan Temenggong Ahmad",
        "Post_Office": "Muar",
        "State": "Johor"
    },
    {
        "Postcode": "84000",
        "Location": "Kampung Bahagia",
        "Post_Office": "Muar",
        "State": "Johor"
    },
    {
        "Postcode": "84000",
        "Location": "Kampung Tengah",
        "Post_Office": "Muar",
        "State": "Johor"
    },
    {
        "Postcode": "84000",
        "Location": "Lorong Haji Omar",
        "Post_Office": "Muar",
        "State": "Johor"
    },
    {
        "Postcode": "84000",
        "Location": "Lorong Kenangan",
        "Post_Office": "Muar",
        "State": "Johor"
    },
    {
        "Postcode": "84000",
        "Location": "Lorong Perkasa",
        "Post_Office": "Muar",
        "State": "Johor"
    },
    {
        "Postcode": "84000",
        "Location": "Parit Amat",
        "Post_Office": "Muar",
        "State": "Johor"
    },
    {
        "Postcode": "84000",
        "Location": "Parit Gantong",
        "Post_Office": "Muar",
        "State": "Johor"
    },
    {
        "Postcode": "84000",
        "Location": "Parit Ismail",
        "Post_Office": "Muar",
        "State": "Johor"
    },
    {
        "Postcode": "84000",
        "Location": "Parit Keroma",
        "Post_Office": "Muar",
        "State": "Johor"
    },
    {
        "Postcode": "84000",
        "Location": "Parit Masjid",
        "Post_Office": "Muar",
        "State": "Johor"
    },
    {
        "Postcode": "84000",
        "Location": "Taman Anggerik",
        "Post_Office": "Muar",
        "State": "Johor"
    },
    {
        "Postcode": "84000",
        "Location": "Taman Bahagia",
        "Post_Office": "Muar",
        "State": "Johor"
    },
    {
        "Postcode": "84000",
        "Location": "Taman Bistari",
        "Post_Office": "Muar",
        "State": "Johor"
    },
    {
        "Postcode": "84000",
        "Location": "Taman Bunga Raya",
        "Post_Office": "Muar",
        "State": "Johor"
    },
    {
        "Postcode": "84000",
        "Location": "Taman Damai",
        "Post_Office": "Muar",
        "State": "Johor"
    },
    {
        "Postcode": "84000",
        "Location": "Taman Desa",
        "Post_Office": "Muar",
        "State": "Johor"
    },
    {
        "Postcode": "84000",
        "Location": "Taman Fajar",
        "Post_Office": "Muar",
        "State": "Johor"
    },
    {
        "Postcode": "84000",
        "Location": "Taman Harmoni",
        "Post_Office": "Muar",
        "State": "Johor"
    },
    {
        "Postcode": "84000",
        "Location": "Taman Indah",
        "Post_Office": "Muar",
        "State": "Johor"
    },
    {
        "Postcode": "84000",
        "Location": "Taman Jaya",
        "Post_Office": "Muar",
        "State": "Johor"
    },
    {
        "Postcode": "84000",
        "Location": "Taman Mawar",
        "Post_Office": "Muar",
        "State": "Johor"
    },
    {
        "Postcode": "84000",
        "Location": "Taman Murni",
        "Post_Office": "Muar",
        "State": "Johor"
    },
    {
        "Postcode": "84000",
        "Location": "Taman Perdana",
        "Post_Office": "Muar",
        "State": "Johor"
    },
    {
        "Postcode": "84000",
        "Location": "Taman Ria",
        "Post_Office": "Muar",
        "State": "Johor"
    },
    {
        "Postcode": "84000",
        "Location": "Taman Sri Emas",
        "Post_Office": "Muar",
        "State": "Johor"
    },
    {
        "Postcode": "84000",
        "Location": "Parit Besar",
        "Post_Office": "Muar",
        "State": "Johor"
    },
    {
        "Postcode": "84000",
        "Location": "Taman Bintang",
        "Post_Office": "Muar",
        "State": "Johor"
    },
    {
        "Postcode": "84000",
        "Location": "Taman Cempaka",
        "Post_Office": "Muar",
        "State": "Johor"
    },
    {
        "Postcode": "84000",
        "Location": "Taman Meranti",
        "Post_Office": "Muar",
        "State": "Johor"
    },
    {
        "Postcode": "84000",
        "Location": "Taman Mutiara",
        "Post_Office": "Muar",
        "State": "Johor"
    },
    {
        "Postcode": "84000",
        "Location": "Taman Sentosa",
        "Post_Office": "Muar",
        "State": "Johor"
    },
    {
        "Postcode": "84000",
        "Location": "Taman Sri Mulia",
        "Post_Office": "Muar",
        "State": "Johor"
    },
    {
        "Postcode": "84000",
        "Location": "Taman Suria",
        "Post_Office": "Muar",
        "State": "Johor"
    },
    {
        "Postcode": "84000",
        "Location": "Taman Teratai",
        "Post_Office": "Muar",
        "State": "Johor"
    },
    {
        "Postcode": "84000",
        "Location": "Taman Tiara",
        "Post_Office": "Muar",
        "State": "Johor"
    },
    {
        "Postcode": "84000",
        "Location": "Taman Wawasan",
        "Post_Office": "Muar",
        "State": "Johor"
    },
    {
        "Postcode": "84000",
        "Location": "Batu 12 Hingga Batu 18 Air Hitam",
        "Post_Office": "Muar",
        "State": "Johor"
    },
    {
        "Postcode": "84000",
        "Location": "Bukit Kubor",
        "Post_Office": "Muar",
        "State": "Johor"
    },
    {
        "Postcode": "84000",
        "Location": "Bukit Treh",
        "Post_Office": "Muar",
        "State": "Johor"
    },
    {
        "Postcode": "84000",
        "Location": "Empang Lima Tanjung Gading",
        "Post_Office": "Muar",
        "State": "Johor"
    },
    {
        "Postcode": "84000",
        "Location": "Jalan Abd. Rahman",
        "Post_Office": "Muar",
        "State": "Johor"
    },
    {
        "Postcode": "84000",
        "Location": "Jalan Ali",
        "Post_Office": "Muar",
        "State": "Johor"
    },
    {
        "Postcode": "84000",
        "Location": "Jalan Bakariah",
        "Post_Office": "Muar",
        "State": "Johor"
    },
    {
        "Postcode": "84000",
        "Location": "Jalan Bakri",
        "Post_Office": "Muar",
        "State": "Johor"
    },
    {
        "Postcode": "84000",
        "Location": "Jalan Bakri (Batu 2)",
        "Post_Office": "Muar",
        "State": "Johor"
    },
    {
        "Postcode": "84000",
        "Location": "Jalan Bentayan",
        "Post_Office": "Muar",
        "State": "Johor"
    },
    {
        "Postcode": "84000",
        "Location": "Jalan Dato Ahmad",
        "Post_Office": "Muar",
        "State": "Johor"
    }
]
