[
    {
        "Postcode": "84200",
        "Location": "Taman Delima",
        "Post_Office": "Muar",
        "State": "Johor"
    },
    {
        "Postcode": "84200",
        "Location": "Taman Putera",
        "Post_Office": "Muar",
        "State": "Johor"
    },
    {
        "Postcode": "84200",
        "Location": "Taman Gembira",
        "Post_Office": "Muar",
        "State": "Johor"
    },
    {
        "Postcode": "84200",
        "Location": "Taman Perwira",
        "Post_Office": "Muar",
        "State": "Johor"
    },
    {
        "Postcode": "84200",
        "Location": "Parit Taib",
        "Post_Office": "Muar",
        "State": "Johor"
    },
    {
        "Postcode": "84200",
        "Location": "Kampung Parit Taib",
        "Post_Office": "Muar",
        "State": "Johor"
    },
    {
        "Postcode": "84200",
        "Location": "Bakri",
        "Post_Office": "Muar",
        "State": "Johor"
    },
    {
        "Postcode": "84200",
        "Location": "Bukit Naning",
        "Post_Office": "Muar",
        "State": "Johor"
    },
    {
        "Postcode": "84200",
        "Location": "Chun Leo",
        "Post_Office": "Muar",
        "State": "Johor"
    },
    {
        "Postcode": "84200",
        "Location": "Jalan Besar Bakri",
        "Post_Office": "Muar",
        "State": "Johor"
    },
    {
        "Postcode": "84200",
        "Location": "Kampung Baru Bakri",
        "Post_Office": "Muar",
        "State": "Johor"
    },
    {
        "Postcode": "84200",
        "Location": "Kampung Kenangan Dato Abdullah Jaafar",
        "Post_Office": "Muar",
        "State": "Johor"
    },
    {
        "Postcode": "84200",
        "Location": "Kawasan Perindustrian Bakri",
        "Post_Office": "Muar",
        "State": "Johor"
    },
    {
        "Postcode": "84200",
        "Location": "Pangsapuri Bakri Jaya",
        "Post_Office": "Muar",
        "State": "Johor"
    },
    {
        "Postcode": "84200",
        "Location": "Parit Amat Pentil",
        "Post_Office": "Muar",
        "State": "Johor"
    },
    {
        "Postcode": "84200",
        "Location": "Parit Burham",
        "Post_Office": "Muar",
        "State": "Johor"
    },
    {
        "Postcode": "84200",
        "Location": "Parit Haji Anuar",
        "Post_Office": "Muar",
        "State": "Johor"
    },
    {
        "Postcode": "84200",
        "Location": "Parit Kadhi",
        "Post_Office": "Muar",
        "State": "Johor"
    },
    {
        "Postcode": "84200",
        "Location": "Parit Kemin",
        "Post_Office": "Muar",
        "State": "Johor"
    },
    {
        "Postcode": "84200",
        "Location": "Parit Noor",
        "Post_Office": "Muar",
        "State": "Johor"
    },
    {
        "Postcode": "84200",
        "Location": "Parit Sakir",
        "Post_Office": "Muar",
        "State": "Johor"
    },
    {
        "Postcode": "84200",
        "Location": "Parit Tubi",
        "Post_Office": "Muar",
        "State": "Johor"
    },
    {
        "Postcode": "84200",
        "Location": "Parit Wahit",
        "Post_Office": "Muar",
        "State": "Johor"
    },
    {
        "Postcode": "84200",
        "Location": "Parit Yaakob",
        "Post_Office": "Muar",
        "State": "Johor"
    },
    {
        "Postcode": "84200",
        "Location": "Parit Zain",
        "Post_Office": "Muar",
        "State": "Johor"
    },
    {
        "Postcode": "84200",
        "Location": "Pondok Polis Batu 15",
        "Post_Office": "Muar",
        "State": "Johor"
    },
    {
        "Postcode": "84200",
        "Location": "Pusat Kesihatan Kecil Batu 15",
        "Post_Office": "Muar",
        "State": "Johor"
    },
    {
        "Postcode": "84200",
        "Location": "Taman Bakri Indah",
        "Post_Office": "Muar",
        "State": "Johor"
    },
    {
        "Postcode": "84200",
        "Location": "Taman Bakri Jaya",
        "Post_Office": "Muar",
        "State": "Johor"
    },
    {
        "Postcode": "84200",
        "Location": "Taman Bakri Mulia",
        "Post_Office": "Muar",
        "State": "Johor"
    },
    {
        "Postcode": "84200",
        "Location": "Taman Bakri Permai",
        "Post_Office": "Muar",
        "State": "Johor"
    },
    {
        "Postcode": "84200",
        "Location": "Taman Bakri Permai Ii",
        "Post_Office": "Muar",
        "State": "Johor"
    },
    {
        "Postcode": "84200",
        "Location": "Taman Bakri Utama",
        "Post_Office": "Muar",
        "State": "Johor"
    },
    {
        "Postcode": "84200",
        "Location": "Taman Bukit Bakri",
        "Post_Office": "Muar",
        "State": "Johor"
    },
    {
        "Postcode": "84200",
        "Location": "Taman Ler Siong Gan",
        "Post_Office": "Muar",
        "State": "Johor"
    },
    {
        "Postcode": "84200",
        "Location": "Taman Putra Bakri",
        "Post_Office": "Muar",
        "State": "Johor"
    },
    {
        "Postcode": "84200",
        "Location": "Taman Sri Bakri",
        "Post_Office": "Muar",
        "State": "Johor"
    },
    {
        "Postcode": "84200",
        "Location": "Kampung Kebun Sayur",
        "Post_Office": "Muar",
        "State": "Johor"
    },
    {
        "Postcode": "84200",
        "Location": "Taman Pahlawan",
        "Post_Office": "Muar",
        "State": "Johor"
    },
    {
        "Postcode": "84200",
        "Location": "Kampung Parit Samad",
        "Post_Office": "Muar",
        "State": "Johor"
    },
    {
        "Postcode": "84200",
        "Location": "Parit Wahid",
        "Post_Office": "Muar",
        "State": "Johor"
    },
    {
        "Postcode": "84200",
        "Location": "Taman Bakri Makmur",
        "Post_Office": "Muar",
        "State": "Johor"
    },
    {
        "Postcode": "84200",
        "Location": "Ayer Hitam",
        "Post_Office": "Muar",
        "State": "Johor"
    },
    {
        "Postcode": "84200",
        "Location": "Kampung Lubuk Pusing",
        "Post_Office": "Muar",
        "State": "Johor"
    },
    {
        "Postcode": "84200",
        "Location": "Kampung Parit Haji Yaccob",
        "Post_Office": "Muar",
        "State": "Johor"
    },
    {
        "Postcode": "84200",
        "Location": "Kampung Parit Ulu Bakri",
        "Post_Office": "Muar",
        "State": "Johor"
    },
    {
        "Postcode": "84200",
        "Location": "Parit Arab",
        "Post_Office": "Muar",
        "State": "Johor"
    },
    {
        "Postcode": "84200",
        "Location": "Parit Haji Zain",
        "Post_Office": "Muar",
        "State": "Johor"
    },
    {
        "Postcode": "84200",
        "Location": "Parit Jepun",
        "Post_Office": "Muar",
        "State": "Johor"
    },
    {
        "Postcode": "84200",
        "Location": "Parit Kancil",
        "Post_Office": "Muar",
        "State": "Johor"
    },
    {
        "Postcode": "84200",
        "Location": "Taman Bakri",
        "Post_Office": "Muar",
        "State": "Johor"
    },
    {
        "Postcode": "84200",
        "Location": "Taman Putra",
        "Post_Office": "Muar",
        "State": "Johor"
    }
]
