[
    {
        "Postcode": "84300",
        "Location": "Kampung Padang Lalang",
        "Post_Office": "Bukit Pasir",
        "State": "Johor"
    },
    {
        "Postcode": "84300",
        "Location": "Taman Desa Jaya",
        "Post_Office": "Bukit Pasir",
        "State": "Johor"
    },
    {
        "Postcode": "84300",
        "Location": "Taman Setia Jaya",
        "Post_Office": "Bukit Pasir",
        "State": "Johor"
    },
    {
        "Postcode": "84300",
        "Location": "Taman Pasir Indah",
        "Post_Office": "Bukit Pasir",
        "State": "Johor"
    },
    {
        "Postcode": "84300",
        "Location": "Taman Setia Kasih",
        "Post_Office": "Bukit Pasir",
        "State": "Johor"
    },
    {
        "Postcode": "84300",
        "Location": "Taman Sri Rambai",
        "Post_Office": "Bukit Pasir",
        "State": "Johor"
    },
    {
        "Postcode": "84300",
        "Location": "Bukit Pasir",
        "Post_Office": "Bukit Pasir",
        "State": "Johor"
    },
    {
        "Postcode": "84300",
        "Location": "Jorak",
        "Post_Office": "Bukit Pasir",
        "State": "Johor"
    },
    {
        "Postcode": "84300",
        "Location": "Kampung Jalan Raja",
        "Post_Office": "Bukit Pasir",
        "State": "Johor"
    },
    {
        "Postcode": "84300",
        "Location": "Kampung Jorak",
        "Post_Office": "Bukit Pasir",
        "State": "Johor"
    },
    {
        "Postcode": "84300",
        "Location": "Kampung Naib Piee",
        "Post_Office": "Bukit Pasir",
        "State": "Johor"
    },
    {
        "Postcode": "84300",
        "Location": "Kampung Parit Buaya",
        "Post_Office": "Bukit Pasir",
        "State": "Johor"
    },
    {
        "Postcode": "84300",
        "Location": "Kampung Paya Panjang",
        "Post_Office": "Bukit Pasir",
        "State": "Johor"
    },
    {
        "Postcode": "84300",
        "Location": "Kampung Pergam",
        "Post_Office": "Bukit Pasir",
        "State": "Johor"
    },
    {
        "Postcode": "84300",
        "Location": "Kampung Simpang Baba",
        "Post_Office": "Bukit Pasir",
        "State": "Johor"
    },
    {
        "Postcode": "84300",
        "Location": "Kampung Sungai Raya",
        "Post_Office": "Bukit Pasir",
        "State": "Johor"
    },
    {
        "Postcode": "84300",
        "Location": "Kampung Sungai Terap",
        "Post_Office": "Bukit Pasir",
        "State": "Johor"
    },
    {
        "Postcode": "84300",
        "Location": "Kampung Tanjong Olak",
        "Post_Office": "Bukit Pasir",
        "State": "Johor"
    },
    {
        "Postcode": "84300",
        "Location": "Kampung Tanjung Selabu",
        "Post_Office": "Bukit Pasir",
        "State": "Johor"
    },
    {
        "Postcode": "84300",
        "Location": "Parit Buaya",
        "Post_Office": "Bukit Pasir",
        "State": "Johor"
    },
    {
        "Postcode": "84300",
        "Location": "Parit Haji Kasan",
        "Post_Office": "Bukit Pasir",
        "State": "Johor"
    },
    {
        "Postcode": "84300",
        "Location": "Parit Lanjut",
        "Post_Office": "Bukit Pasir",
        "State": "Johor"
    },
    {
        "Postcode": "84300",
        "Location": "Parit Osman Kanan",
        "Post_Office": "Bukit Pasir",
        "State": "Johor"
    },
    {
        "Postcode": "84300",
        "Location": "Parit Osman Kiri",
        "Post_Office": "Bukit Pasir",
        "State": "Johor"
    },
    {
        "Postcode": "84300",
        "Location": "Taman Bukit Pasir 2",
        "Post_Office": "Bukit Pasir",
        "State": "Johor"
    },
    {
        "Postcode": "84300",
        "Location": "Taman Pasir Emas",
        "Post_Office": "Bukit Pasir",
        "State": "Johor"
    },
    {
        "Postcode": "84300",
        "Location": "Taman Pasir Harmoni",
        "Post_Office": "Bukit Pasir",
        "State": "Johor"
    },
    {
        "Postcode": "84300",
        "Location": "Taman Permatang",
        "Post_Office": "Bukit Pasir",
        "State": "Johor"
    },
    {
        "Postcode": "84300",
        "Location": "Taman Permatang Pasir",
        "Post_Office": "Bukit Pasir",
        "State": "Johor"
    },
    {
        "Postcode": "84300",
        "Location": "Taman Permatang Pasir Dua",
        "Post_Office": "Bukit Pasir",
        "State": "Johor"
    },
    {
        "Postcode": "84300",
        "Location": "Taman Seri Permai 2",
        "Post_Office": "Bukit Pasir",
        "State": "Johor"
    },
    {
        "Postcode": "84300",
        "Location": "Taman Seri Permai 3",
        "Post_Office": "Bukit Pasir",
        "State": "Johor"
    },
    {
        "Postcode": "84300",
        "Location": "Taman Sri Bukit Pasir",
        "Post_Office": "Bukit Pasir",
        "State": "Johor"
    },
    {
        "Postcode": "84300",
        "Location": "Taman Sri Jorak",
        "Post_Office": "Bukit Pasir",
        "State": "Johor"
    },
    {
        "Postcode": "84300",
        "Location": "Taman Sri Pasir",
        "Post_Office": "Bukit Pasir",
        "State": "Johor"
    },
    {
        "Postcode": "84300",
        "Location": "Taman Temiang Baru",
        "Post_Office": "Bukit Pasir",
        "State": "Johor"
    },
    {
        "Postcode": "84300",
        "Location": "Temiang Panjang",
        "Post_Office": "Bukit Pasir",
        "State": "Johor"
    },
    {
        "Postcode": "84300",
        "Location": "Felda Ayer Tawar 1",
        "Post_Office": "Bukit Pasir",
        "State": "Johor"
    },
    {
        "Postcode": "84300",
        "Location": "Kampung Pergam Sungai Terap",
        "Post_Office": "Bukit Pasir",
        "State": "Johor"
    },
    {
        "Postcode": "84300",
        "Location": "Kampung Tanjung Olak",
        "Post_Office": "Bukit Pasir",
        "State": "Johor"
    },
    {
        "Postcode": "84300",
        "Location": "Taman Akrab",
        "Post_Office": "Bukit Pasir",
        "State": "Johor"
    },
    {
        "Postcode": "84300",
        "Location": "Kampung Temiang",
        "Post_Office": "Bukit Pasir",
        "State": "Johor"
    },
    {
        "Postcode": "84300",
        "Location": "Taman Bukit Pasir",
        "Post_Office": "Bukit Pasir",
        "State": "Johor"
    },
    {
        "Postcode": "84300",
        "Location": "Taman Desa Permai",
        "Post_Office": "Bukit Pasir",
        "State": "Johor"
    },
    {
        "Postcode": "84300",
        "Location": "Kampung Melayu",
        "Post_Office": "Bukit Pasir",
        "State": "Johor"
    },
    {
        "Postcode": "84300",
        "Location": "Kampung Parit Kadir",
        "Post_Office": "Bukit Pasir",
        "State": "Johor"
    },
    {
        "Postcode": "84300",
        "Location": "Parit Masjid",
        "Post_Office": "Bukit Pasir",
        "State": "Johor"
    },
    {
        "Postcode": "84300",
        "Location": "Taman Bahagia",
        "Post_Office": "Bukit Pasir",
        "State": "Johor"
    },
    {
        "Postcode": "84300",
        "Location": "Taman Sri Permai",
        "Post_Office": "Bukit Pasir",
        "State": "Johor"
    },
    {
        "Postcode": "84300",
        "Location": "Taman Bintang Emas",
        "Post_Office": "Bukit Pasir",
        "State": "Johor"
    },
    {
        "Postcode": "84300",
        "Location": "Taman Tiara",
        "Post_Office": "Bukit Pasir",
        "State": "Johor"
    },
    {
        "Postcode": "84300",
        "Location": "Taman Tiara 2",
        "Post_Office": "Bukit Pasir",
        "State": "Johor"
    }
]
