[
    {
        "Postcode": "84400",
        "Location": "Taman Sentosa 2",
        "Post_Office": "Sungai Mati",
        "State": "Johor"
    },
    {
        "Postcode": "84400",
        "Location": "Bukit Bandong",
        "Post_Office": "Sungai Mati",
        "State": "Johor"
    },
    {
        "Postcode": "84400",
        "Location": "Taman Aman",
        "Post_Office": "Sungai Mati",
        "State": "Johor"
    },
    {
        "Postcode": "84400",
        "Location": "Taman Sri Indah",
        "Post_Office": "Sungai Mati",
        "State": "Johor"
    },
    {
        "Postcode": "84400",
        "Location": "Taman Permai",
        "Post_Office": "Sungai Mati",
        "State": "Johor"
    },
    {
        "Postcode": "84400",
        "Location": "Kampung Parit Pulai",
        "Post_Office": "Sungai Mati",
        "State": "Johor"
    },
    {
        "Postcode": "84400",
        "Location": "Taman Jasa",
        "Post_Office": "Sungai Mati",
        "State": "Johor"
    },
    {
        "Postcode": "84400",
        "Location": "Taman Kenangan",
        "Post_Office": "Sungai Mati",
        "State": "Johor"
    },
    {
        "Postcode": "84400",
        "Location": "Taman Ksm",
        "Post_Office": "Sungai Mati",
        "State": "Johor"
    },
    {
        "Postcode": "84400",
        "Location": "Taman Selesa",
        "Post_Office": "Sungai Mati",
        "State": "Johor"
    },
    {
        "Postcode": "84400",
        "Location": "Taman Setia Indah",
        "Post_Office": "Sungai Mati",
        "State": "Johor"
    },
    {
        "Postcode": "84400",
        "Location": "Kampung Bukit Sekotok",
        "Post_Office": "Sungai Mati",
        "State": "Johor"
    },
    {
        "Postcode": "84400",
        "Location": "Jalan Bukit Kangkar",
        "Post_Office": "Sungai Mati",
        "State": "Johor"
    },
    {
        "Postcode": "84400",
        "Location": "Jalan Pai",
        "Post_Office": "Sungai Mati",
        "State": "Johor"
    },
    {
        "Postcode": "84400",
        "Location": "Jalan Tambak Merah",
        "Post_Office": "Sungai Mati",
        "State": "Johor"
    },
    {
        "Postcode": "84400",
        "Location": "Kampung 3 Jalan Masjid",
        "Post_Office": "Sungai Mati",
        "State": "Johor"
    },
    {
        "Postcode": "84400",
        "Location": "Kampung Batu 4 (Jalan Muar)",
        "Post_Office": "Sungai Mati",
        "State": "Johor"
    },
    {
        "Postcode": "84400",
        "Location": "Kampung Batu 9 1/2 (Jalan Tangkak)",
        "Post_Office": "Sungai Mati",
        "State": "Johor"
    },
    {
        "Postcode": "84400",
        "Location": "Kampung Belemang",
        "Post_Office": "Sungai Mati",
        "State": "Johor"
    },
    {
        "Postcode": "84400",
        "Location": "Kampung Belemang Pekan",
        "Post_Office": "Sungai Mati",
        "State": "Johor"
    },
    {
        "Postcode": "84400",
        "Location": "Kampung Bukit Bandar",
        "Post_Office": "Sungai Mati",
        "State": "Johor"
    },
    {
        "Postcode": "84400",
        "Location": "Kampung Jalan Paip",
        "Post_Office": "Sungai Mati",
        "State": "Johor"
    },
    {
        "Postcode": "84400",
        "Location": "Kampung Kesang Tasek",
        "Post_Office": "Sungai Mati",
        "State": "Johor"
    },
    {
        "Postcode": "84400",
        "Location": "Kampung Kolam",
        "Post_Office": "Sungai Mati",
        "State": "Johor"
    },
    {
        "Postcode": "84400",
        "Location": "Kampung Kundang Telok Rimba",
        "Post_Office": "Sungai Mati",
        "State": "Johor"
    },
    {
        "Postcode": "84400",
        "Location": "Kampung Lesung Tumpat",
        "Post_Office": "Sungai Mati",
        "State": "Johor"
    },
    {
        "Postcode": "84400",
        "Location": "Kampung Pantai Layang",
        "Post_Office": "Sungai Mati",
        "State": "Johor"
    },
    {
        "Postcode": "84400",
        "Location": "Kampung Parit Sialang",
        "Post_Office": "Sungai Mati",
        "State": "Johor"
    },
    {
        "Postcode": "84400",
        "Location": "Kampung Permatang Pasir",
        "Post_Office": "Sungai Mati",
        "State": "Johor"
    },
    {
        "Postcode": "84400",
        "Location": "Kampung Pulau Penarek",
        "Post_Office": "Sungai Mati",
        "State": "Johor"
    },
    {
        "Postcode": "84400",
        "Location": "Kampung Pulau Pinggir",
        "Post_Office": "Sungai Mati",
        "State": "Johor"
    },
    {
        "Postcode": "84400",
        "Location": "Kampung Sabak Sena",
        "Post_Office": "Sungai Mati",
        "State": "Johor"
    },
    {
        "Postcode": "84400",
        "Location": "Kampung Serom 1",
        "Post_Office": "Sungai Mati",
        "State": "Johor"
    },
    {
        "Postcode": "84400",
        "Location": "Kampung Serom 2",
        "Post_Office": "Sungai Mati",
        "State": "Johor"
    },
    {
        "Postcode": "84400",
        "Location": "Kampung Serom 3",
        "Post_Office": "Sungai Mati",
        "State": "Johor"
    },
    {
        "Postcode": "84400",
        "Location": "Kampung Serom 4",
        "Post_Office": "Sungai Mati",
        "State": "Johor"
    },
    {
        "Postcode": "84400",
        "Location": "Kampung Serom 5",
        "Post_Office": "Sungai Mati",
        "State": "Johor"
    },
    {
        "Postcode": "84400",
        "Location": "Kampung Serom 6",
        "Post_Office": "Sungai Mati",
        "State": "Johor"
    },
    {
        "Postcode": "84400",
        "Location": "Kampung Serom 7",
        "Post_Office": "Sungai Mati",
        "State": "Johor"
    },
    {
        "Postcode": "84400",
        "Location": "Kampung Serom 8",
        "Post_Office": "Sungai Mati",
        "State": "Johor"
    },
    {
        "Postcode": "84400",
        "Location": "Kampung Sungai Senduk",
        "Post_Office": "Sungai Mati",
        "State": "Johor"
    },
    {
        "Postcode": "84400",
        "Location": "Kampung Telok Rimbia",
        "Post_Office": "Sungai Mati",
        "State": "Johor"
    },
    {
        "Postcode": "84400",
        "Location": "Kampung Teluk Bakong",
        "Post_Office": "Sungai Mati",
        "State": "Johor"
    },
    {
        "Postcode": "84400",
        "Location": "Kampung Wali",
        "Post_Office": "Sungai Mati",
        "State": "Johor"
    },
    {
        "Postcode": "84400",
        "Location": "Pantai Layang",
        "Post_Office": "Sungai Mati",
        "State": "Johor"
    },
    {
        "Postcode": "84400",
        "Location": "Parit Haji Johari",
        "Post_Office": "Sungai Mati",
        "State": "Johor"
    },
    {
        "Postcode": "84400",
        "Location": "Parit Johan",
        "Post_Office": "Sungai Mati",
        "State": "Johor"
    },
    {
        "Postcode": "84400",
        "Location": "Parit Jussoh",
        "Post_Office": "Sungai Mati",
        "State": "Johor"
    },
    {
        "Postcode": "84400",
        "Location": "Parit Kepong",
        "Post_Office": "Sungai Mati",
        "State": "Johor"
    },
    {
        "Postcode": "84400",
        "Location": "Parit Pelampong",
        "Post_Office": "Sungai Mati",
        "State": "Johor"
    },
    {
        "Postcode": "84400",
        "Location": "Parit Pulau Kelapa",
        "Post_Office": "Sungai Mati",
        "State": "Johor"
    },
    {
        "Postcode": "84400",
        "Location": "Parit Sialang",
        "Post_Office": "Sungai Mati",
        "State": "Johor"
    },
    {
        "Postcode": "84400",
        "Location": "Parit Tamat",
        "Post_Office": "Sungai Mati",
        "State": "Johor"
    },
    {
        "Postcode": "84400",
        "Location": "Parit Zing",
        "Post_Office": "Sungai Mati",
        "State": "Johor"
    },
    {
        "Postcode": "84400",
        "Location": "Pekan Baru Kangkar",
        "Post_Office": "Sungai Mati",
        "State": "Johor"
    },
    {
        "Postcode": "84400",
        "Location": "Pekan Rawang",
        "Post_Office": "Sungai Mati",
        "State": "Johor"
    },
    {
        "Postcode": "84400",
        "Location": "Pekan Serom",
        "Post_Office": "Sungai Mati",
        "State": "Johor"
    },
    {
        "Postcode": "84400",
        "Location": "Pekan Sungai Mati",
        "Post_Office": "Sungai Mati",
        "State": "Johor"
    },
    {
        "Postcode": "84400",
        "Location": "Sebak Sena",
        "Post_Office": "Sungai Mati",
        "State": "Johor"
    },
    {
        "Postcode": "84400",
        "Location": "Serom",
        "Post_Office": "Sungai Mati",
        "State": "Johor"
    },
    {
        "Postcode": "84400",
        "Location": "Sungai Mati",
        "Post_Office": "Sungai Mati",
        "State": "Johor"
    },
    {
        "Postcode": "84400",
        "Location": "Taman Budi",
        "Post_Office": "Sungai Mati",
        "State": "Johor"
    },
    {
        "Postcode": "84400",
        "Location": "Taman Cempaka Wangi",
        "Post_Office": "Sungai Mati",
        "State": "Johor"
    },
    {
        "Postcode": "84400",
        "Location": "Taman Cerah Indah",
        "Post_Office": "Sungai Mati",
        "State": "Johor"
    },
    {
        "Postcode": "84400",
        "Location": "Taman Emas 6",
        "Post_Office": "Sungai Mati",
        "State": "Johor"
    },
    {
        "Postcode": "84400",
        "Location": "Taman Indah Serom",
        "Post_Office": "Sungai Mati",
        "State": "Johor"
    },
    {
        "Postcode": "84400",
        "Location": "Taman Kangkar Baru",
        "Post_Office": "Sungai Mati",
        "State": "Johor"
    },
    {
        "Postcode": "84400",
        "Location": "Taman Kangkar Jaya",
        "Post_Office": "Sungai Mati",
        "State": "Johor"
    },
    {
        "Postcode": "84400",
        "Location": "Taman Panggong Jaya",
        "Post_Office": "Sungai Mati",
        "State": "Johor"
    },
    {
        "Postcode": "84400",
        "Location": "Taman Serom 1",
        "Post_Office": "Sungai Mati",
        "State": "Johor"
    },
    {
        "Postcode": "84400",
        "Location": "Taman Serom Jaya",
        "Post_Office": "Sungai Mati",
        "State": "Johor"
    },
    {
        "Postcode": "84400",
        "Location": "Taman Serom Utama",
        "Post_Office": "Sungai Mati",
        "State": "Johor"
    },
    {
        "Postcode": "84400",
        "Location": "Taman Sri Rawang",
        "Post_Office": "Sungai Mati",
        "State": "Johor"
    },
    {
        "Postcode": "84400",
        "Location": "Taman Sri Serom",
        "Post_Office": "Sungai Mati",
        "State": "Johor"
    },
    {
        "Postcode": "84400",
        "Location": "Teluk Bakong",
        "Post_Office": "Sungai Mati",
        "State": "Johor"
    },
    {
        "Postcode": "84400",
        "Location": "Teluk Kemang",
        "Post_Office": "Sungai Mati",
        "State": "Johor"
    },
    {
        "Postcode": "84400",
        "Location": "Teluk Rimba",
        "Post_Office": "Sungai Mati",
        "State": "Johor"
    },
    {
        "Postcode": "84400",
        "Location": "Taman Sri Pulai",
        "Post_Office": "Sungai Mati",
        "State": "Johor"
    },
    {
        "Postcode": "84400",
        "Location": "Taman Serom Mutiara",
        "Post_Office": "Sungai Mati",
        "State": "Johor"
    },
    {
        "Postcode": "84400",
        "Location": "Kampung Rawang",
        "Post_Office": "Sungai Mati",
        "State": "Johor"
    },
    {
        "Postcode": "84400",
        "Location": "Taman Selesa 2",
        "Post_Office": "Sungai Mati",
        "State": "Johor"
    },
    {
        "Postcode": "84400",
        "Location": "Taman Serom 2",
        "Post_Office": "Sungai Mati",
        "State": "Johor"
    },
    {
        "Postcode": "84400",
        "Location": "Taman Sri Emas 7",
        "Post_Office": "Sungai Mati",
        "State": "Johor"
    },
    {
        "Postcode": "84400",
        "Location": "Taman Sinar Selesa",
        "Post_Office": "Sungai Mati",
        "State": "Johor"
    },
    {
        "Postcode": "84400",
        "Location": "Taman Serom 5",
        "Post_Office": "Sungai Mati",
        "State": "Johor"
    },
    {
        "Postcode": "84400",
        "Location": "Taman Serom Delima",
        "Post_Office": "Sungai Mati",
        "State": "Johor"
    },
    {
        "Postcode": "84400",
        "Location": "Kampung Parit Pelampong",
        "Post_Office": "Sungai Mati",
        "State": "Johor"
    },
    {
        "Postcode": "84400",
        "Location": "Kampung Telok Bakong",
        "Post_Office": "Sungai Mati",
        "State": "Johor"
    },
    {
        "Postcode": "84400",
        "Location": "Kampung Telok Kemang",
        "Post_Office": "Sungai Mati",
        "State": "Johor"
    },
    {
        "Postcode": "84400",
        "Location": "Taman Pulai Utama",
        "Post_Office": "Sungai Mati",
        "State": "Johor"
    },
    {
        "Postcode": "84400",
        "Location": "Taman Sayang",
        "Post_Office": "Sungai Mati",
        "State": "Johor"
    },
    {
        "Postcode": "84400",
        "Location": "Kampung Gelugor",
        "Post_Office": "Sungai Mati",
        "State": "Johor"
    },
    {
        "Postcode": "84400",
        "Location": "Parit Penghulu Ismail",
        "Post_Office": "Sungai Mati",
        "State": "Johor"
    },
    {
        "Postcode": "84400",
        "Location": "Parit Ponorogo",
        "Post_Office": "Sungai Mati",
        "State": "Johor"
    },
    {
        "Postcode": "84400",
        "Location": "Taman Bistari",
        "Post_Office": "Sungai Mati",
        "State": "Johor"
    },
    {
        "Postcode": "84400",
        "Location": "Taman Bunga Raya",
        "Post_Office": "Sungai Mati",
        "State": "Johor"
    },
    {
        "Postcode": "84400",
        "Location": "Taman Cemerlang",
        "Post_Office": "Sungai Mati",
        "State": "Johor"
    },
    {
        "Postcode": "84400",
        "Location": "Taman Indah",
        "Post_Office": "Sungai Mati",
        "State": "Johor"
    },
    {
        "Postcode": "84400",
        "Location": "Taman Mawar",
        "Post_Office": "Sungai Mati",
        "State": "Johor"
    },
    {
        "Postcode": "84400",
        "Location": "Taman Megah",
        "Post_Office": "Sungai Mati",
        "State": "Johor"
    },
    {
        "Postcode": "84400",
        "Location": "Taman Melodi",
        "Post_Office": "Sungai Mati",
        "State": "Johor"
    },
    {
        "Postcode": "84400",
        "Location": "Taman Mewah",
        "Post_Office": "Sungai Mati",
        "State": "Johor"
    },
    {
        "Postcode": "84400",
        "Location": "Taman Muhibbah",
        "Post_Office": "Sungai Mati",
        "State": "Johor"
    },
    {
        "Postcode": "84400",
        "Location": "Taman Murni",
        "Post_Office": "Sungai Mati",
        "State": "Johor"
    },
    {
        "Postcode": "84400",
        "Location": "Taman Pulai Indah",
        "Post_Office": "Sungai Mati",
        "State": "Johor"
    },
    {
        "Postcode": "84400",
        "Location": "Taman Sri Emas",
        "Post_Office": "Sungai Mati",
        "State": "Johor"
    },
    {
        "Postcode": "84400",
        "Location": "Taman Baiduri",
        "Post_Office": "Sungai Mati",
        "State": "Johor"
    },
    {
        "Postcode": "84400",
        "Location": "Taman Bunga Ros",
        "Post_Office": "Sungai Mati",
        "State": "Johor"
    },
    {
        "Postcode": "84400",
        "Location": "Taman Cempaka",
        "Post_Office": "Sungai Mati",
        "State": "Johor"
    },
    {
        "Postcode": "84400",
        "Location": "Taman Sentosa",
        "Post_Office": "Sungai Mati",
        "State": "Johor"
    },
    {
        "Postcode": "84400",
        "Location": "Taman Suria",
        "Post_Office": "Sungai Mati",
        "State": "Johor"
    }
]
