[
    {
        "Postcode": "84500",
        "Location": "Bukit Setaki",
        "Post_Office": "Panchor",
        "State": "Johor"
    },
    {
        "Postcode": "84500",
        "Location": "Kampung Batu 14",
        "Post_Office": "Panchor",
        "State": "Johor"
    },
    {
        "Postcode": "84500",
        "Location": "Kampung Brohol",
        "Post_Office": "Panchor",
        "State": "Johor"
    },
    {
        "Postcode": "84500",
        "Location": "Kampung Dusun",
        "Post_Office": "Panchor",
        "State": "Johor"
    },
    {
        "Postcode": "84500",
        "Location": "Kampung Kancil",
        "Post_Office": "Panchor",
        "State": "Johor"
    },
    {
        "Postcode": "84500",
        "Location": "Kampung Londang",
        "Post_Office": "Panchor",
        "State": "Johor"
    },
    {
        "Postcode": "84500",
        "Location": "Kampung Masharakat Jasa",
        "Post_Office": "Panchor",
        "State": "Johor"
    },
    {
        "Postcode": "84500",
        "Location": "Kampung Mawar",
        "Post_Office": "Panchor",
        "State": "Johor"
    },
    {
        "Postcode": "84500",
        "Location": "Kampung Melini",
        "Post_Office": "Panchor",
        "State": "Johor"
    },
    {
        "Postcode": "84500",
        "Location": "Kampung Semaseh",
        "Post_Office": "Panchor",
        "State": "Johor"
    },
    {
        "Postcode": "84500",
        "Location": "Kampung Seri Tanjung",
        "Post_Office": "Panchor",
        "State": "Johor"
    },
    {
        "Postcode": "84500",
        "Location": "Kampung Sungai Alai ",
        "Post_Office": "Panchor",
        "State": "Johor"
    },
    {
        "Postcode": "84500",
        "Location": "Kampung Sungai Ranggam",
        "Post_Office": "Panchor",
        "State": "Johor"
    },
    {
        "Postcode": "84500",
        "Location": "Kampung Sungai Terus",
        "Post_Office": "Panchor",
        "State": "Johor"
    },
    {
        "Postcode": "84500",
        "Location": "Kampung Sungai Terus Darat",
        "Post_Office": "Panchor",
        "State": "Johor"
    },
    {
        "Postcode": "84500",
        "Location": "Kampung Terus",
        "Post_Office": "Panchor",
        "State": "Johor"
    },
    {
        "Postcode": "84500",
        "Location": "Kawasan Perindustarian",
        "Post_Office": "Panchor",
        "State": "Johor"
    },
    {
        "Postcode": "84500",
        "Location": "Ladang Hoe Lee",
        "Post_Office": "Panchor",
        "State": "Johor"
    },
    {
        "Postcode": "84500",
        "Location": "Ladang Landron",
        "Post_Office": "Panchor",
        "State": "Johor"
    },
    {
        "Postcode": "84500",
        "Location": "Ladang Nordanal",
        "Post_Office": "Panchor",
        "State": "Johor"
    },
    {
        "Postcode": "84500",
        "Location": "Ladang Pengkalan Bukit",
        "Post_Office": "Panchor",
        "State": "Johor"
    },
    {
        "Postcode": "84500",
        "Location": "Ladang Sia Yeow Seng",
        "Post_Office": "Panchor",
        "State": "Johor"
    },
    {
        "Postcode": "84500",
        "Location": "Taman Samudra",
        "Post_Office": "Panchor",
        "State": "Johor"
    },
    {
        "Postcode": "84500",
        "Location": "Kampung Duku",
        "Post_Office": "Panchor",
        "State": "Johor"
    },
    {
        "Postcode": "84500",
        "Location": "Kampung Jawa Darat",
        "Post_Office": "Panchor",
        "State": "Johor"
    },
    {
        "Postcode": "84500",
        "Location": "Kampung Melayu",
        "Post_Office": "Panchor",
        "State": "Johor"
    },
    {
        "Postcode": "84500",
        "Location": "Kampung Parit Bugis",
        "Post_Office": "Panchor",
        "State": "Johor"
    },
    {
        "Postcode": "84500",
        "Location": "Panchor",
        "Post_Office": "Panchor",
        "State": "Johor"
    }
]
