[
    {
        "Postcode": "84600",
        "Location": "Kampung Sawah",
        "Post_Office": "Pagoh",
        "State": "Johor"
    },
    {
        "Postcode": "84600",
        "Location": "Kampung Makam",
        "Post_Office": "Pagoh",
        "State": "Johor"
    },
    {
        "Postcode": "84600",
        "Location": "Batu 30 Kampung Sarjan",
        "Post_Office": "Pagoh",
        "State": "Johor"
    },
    {
        "Postcode": "84600",
        "Location": "Dusun Damai",
        "Post_Office": "Pagoh",
        "State": "Johor"
    },
    {
        "Postcode": "84600",
        "Location": "Felda Lenga",
        "Post_Office": "Pagoh",
        "State": "Johor"
    },
    {
        "Postcode": "84600",
        "Location": "Jalan Besar Batu 23",
        "Post_Office": "Pagoh",
        "State": "Johor"
    },
    {
        "Postcode": "84600",
        "Location": "Kampung Baru Batu 28",
        "Post_Office": "Pagoh",
        "State": "Johor"
    },
    {
        "Postcode": "84600",
        "Location": "Kampung Batang Teras",
        "Post_Office": "Pagoh",
        "State": "Johor"
    },
    {
        "Postcode": "84600",
        "Location": "Kampung Batu 17 1/2",
        "Post_Office": "Pagoh",
        "State": "Johor"
    },
    {
        "Postcode": "84600",
        "Location": "Kampung Batu 17 3/4",
        "Post_Office": "Pagoh",
        "State": "Johor"
    },
    {
        "Postcode": "84600",
        "Location": "Kampung Batu 18",
        "Post_Office": "Pagoh",
        "State": "Johor"
    },
    {
        "Postcode": "84600",
        "Location": "Kampung Batu 19 (Paya Redan)",
        "Post_Office": "Pagoh",
        "State": "Johor"
    },
    {
        "Postcode": "84600",
        "Location": "Kampung Batu 23",
        "Post_Office": "Pagoh",
        "State": "Johor"
    },
    {
        "Postcode": "84600",
        "Location": "Kampung Batu 28 (Lenga)",
        "Post_Office": "Pagoh",
        "State": "Johor"
    },
    {
        "Postcode": "84600",
        "Location": "Kampung Batu 30",
        "Post_Office": "Pagoh",
        "State": "Johor"
    },
    {
        "Postcode": "84600",
        "Location": "Kampung Bukit Bendar",
        "Post_Office": "Pagoh",
        "State": "Johor"
    },
    {
        "Postcode": "84600",
        "Location": "Kampung Bukit Sedenak",
        "Post_Office": "Pagoh",
        "State": "Johor"
    },
    {
        "Postcode": "84600",
        "Location": "Kampung Bukitkepong",
        "Post_Office": "Pagoh",
        "State": "Johor"
    },
    {
        "Postcode": "84600",
        "Location": "Kampung Durian Condong",
        "Post_Office": "Pagoh",
        "State": "Johor"
    },
    {
        "Postcode": "84600",
        "Location": "Kampung Gombang",
        "Post_Office": "Pagoh",
        "State": "Johor"
    },
    {
        "Postcode": "84600",
        "Location": "Kampung Haji Sirat",
        "Post_Office": "Pagoh",
        "State": "Johor"
    },
    {
        "Postcode": "84600",
        "Location": "Kampung Jawa Bukit Payong",
        "Post_Office": "Pagoh",
        "State": "Johor"
    },
    {
        "Postcode": "84600",
        "Location": "Kampung Jawa Lenga",
        "Post_Office": "Pagoh",
        "State": "Johor"
    },
    {
        "Postcode": "84600",
        "Location": "Kampung Jawa Liang Batu",
        "Post_Office": "Pagoh",
        "State": "Johor"
    },
    {
        "Postcode": "84600",
        "Location": "Kampung Jayor",
        "Post_Office": "Pagoh",
        "State": "Johor"
    },
    {
        "Postcode": "84600",
        "Location": "Kampung Jujur",
        "Post_Office": "Pagoh",
        "State": "Johor"
    },
    {
        "Postcode": "84600",
        "Location": "Kampung Kelumpang",
        "Post_Office": "Pagoh",
        "State": "Johor"
    },
    {
        "Postcode": "84600",
        "Location": "Kampung Krisna",
        "Post_Office": "Pagoh",
        "State": "Johor"
    },
    {
        "Postcode": "84600",
        "Location": "Kampung Liang Batu",
        "Post_Office": "Pagoh",
        "State": "Johor"
    },
    {
        "Postcode": "84600",
        "Location": "Kampung Lubok Bakul",
        "Post_Office": "Pagoh",
        "State": "Johor"
    },
    {
        "Postcode": "84600",
        "Location": "Kampung Masyarakat Jasa",
        "Post_Office": "Pagoh",
        "State": "Johor"
    },
    {
        "Postcode": "84600",
        "Location": "Kampung Meranggi",
        "Post_Office": "Pagoh",
        "State": "Johor"
    },
    {
        "Postcode": "84600",
        "Location": "Kampung Meranti",
        "Post_Office": "Pagoh",
        "State": "Johor"
    },
    {
        "Postcode": "84600",
        "Location": "Kampung Mesjid",
        "Post_Office": "Pagoh",
        "State": "Johor"
    },
    {
        "Postcode": "84600",
        "Location": "Kampung Muda Jaya",
        "Post_Office": "Pagoh",
        "State": "Johor"
    },
    {
        "Postcode": "84600",
        "Location": "Kampung Oh Soy",
        "Post_Office": "Pagoh",
        "State": "Johor"
    },
    {
        "Postcode": "84600",
        "Location": "Kampung Olak Sepam",
        "Post_Office": "Pagoh",
        "State": "Johor"
    },
    {
        "Postcode": "84600",
        "Location": "Kampung Panjang Sari",
        "Post_Office": "Pagoh",
        "State": "Johor"
    },
    {
        "Postcode": "84600",
        "Location": "Kampung Paya Lempah",
        "Post_Office": "Pagoh",
        "State": "Johor"
    },
    {
        "Postcode": "84600",
        "Location": "Kampung Paya Redan",
        "Post_Office": "Pagoh",
        "State": "Johor"
    },
    {
        "Postcode": "84600",
        "Location": "Kampung Paya Selamat",
        "Post_Office": "Pagoh",
        "State": "Johor"
    },
    {
        "Postcode": "84600",
        "Location": "Kampung Pekan Pagoh",
        "Post_Office": "Pagoh",
        "State": "Johor"
    },
    {
        "Postcode": "84600",
        "Location": "Kampung Pinang Baru",
        "Post_Office": "Pagoh",
        "State": "Johor"
    },
    {
        "Postcode": "84600",
        "Location": "Kampung Pinang Biru",
        "Post_Office": "Pagoh",
        "State": "Johor"
    },
    {
        "Postcode": "84600",
        "Location": "Kampung Pinang Sari",
        "Post_Office": "Pagoh",
        "State": "Johor"
    },
    {
        "Postcode": "84600",
        "Location": "Kampung Raja",
        "Post_Office": "Pagoh",
        "State": "Johor"
    },
    {
        "Postcode": "84600",
        "Location": "Kampung Raja Cina/Melayu",
        "Post_Office": "Pagoh",
        "State": "Johor"
    },
    {
        "Postcode": "84600",
        "Location": "Kampung Raja Sawah Laku",
        "Post_Office": "Pagoh",
        "State": "Johor"
    },
    {
        "Postcode": "84600",
        "Location": "Kampung Renchong",
        "Post_Office": "Pagoh",
        "State": "Johor"
    },
    {
        "Postcode": "84600",
        "Location": "Kampung Sari Baru",
        "Post_Office": "Pagoh",
        "State": "Johor"
    },
    {
        "Postcode": "84600",
        "Location": "Kampung Saujana",
        "Post_Office": "Pagoh",
        "State": "Johor"
    },
    {
        "Postcode": "84600",
        "Location": "Kampung Sawah Laku",
        "Post_Office": "Pagoh",
        "State": "Johor"
    },
    {
        "Postcode": "84600",
        "Location": "Kampung Sebasu",
        "Post_Office": "Pagoh",
        "State": "Johor"
    },
    {
        "Postcode": "84600",
        "Location": "Kampung Sedenak",
        "Post_Office": "Pagoh",
        "State": "Johor"
    },
    {
        "Postcode": "84600",
        "Location": "Kampung Sekolah Paya Redan",
        "Post_Office": "Pagoh",
        "State": "Johor"
    },
    {
        "Postcode": "84600",
        "Location": "Kampung Selanchar",
        "Post_Office": "Pagoh",
        "State": "Johor"
    },
    {
        "Postcode": "84600",
        "Location": "Kampung Semeriot",
        "Post_Office": "Pagoh",
        "State": "Johor"
    },
    {
        "Postcode": "84600",
        "Location": "Kampung Seri Baru",
        "Post_Office": "Pagoh",
        "State": "Johor"
    },
    {
        "Postcode": "84600",
        "Location": "Kampung Seri Makmoor",
        "Post_Office": "Pagoh",
        "State": "Johor"
    },
    {
        "Postcode": "84600",
        "Location": "Kampung Sri Meranti",
        "Post_Office": "Pagoh",
        "State": "Johor"
    },
    {
        "Postcode": "84600",
        "Location": "Kampung Sungai Berani",
        "Post_Office": "Pagoh",
        "State": "Johor"
    },
    {
        "Postcode": "84600",
        "Location": "Kampung Sungai Meda",
        "Post_Office": "Pagoh",
        "State": "Johor"
    },
    {
        "Postcode": "84600",
        "Location": "Kampung Tanah Merah",
        "Post_Office": "Pagoh",
        "State": "Johor"
    },
    {
        "Postcode": "84600",
        "Location": "Kampung Tanjong Liang Batu",
        "Post_Office": "Pagoh",
        "State": "Johor"
    },
    {
        "Postcode": "84600",
        "Location": "Kampung Tengah (Pagoh)",
        "Post_Office": "Pagoh",
        "State": "Johor"
    },
    {
        "Postcode": "84600",
        "Location": "Kampung Tengah Paya Redan",
        "Post_Office": "Pagoh",
        "State": "Johor"
    },
    {
        "Postcode": "84600",
        "Location": "Kampung Tualang Gajah",
        "Post_Office": "Pagoh",
        "State": "Johor"
    },
    {
        "Postcode": "84600",
        "Location": "Kampung Tui",
        "Post_Office": "Pagoh",
        "State": "Johor"
    },
    {
        "Postcode": "84600",
        "Location": "Kampung Tulang Gajah",
        "Post_Office": "Pagoh",
        "State": "Johor"
    },
    {
        "Postcode": "84600",
        "Location": "Kawasan Perindustrian Pagoh",
        "Post_Office": "Pagoh",
        "State": "Johor"
    },
    {
        "Postcode": "84600",
        "Location": "Kem Nashuha",
        "Post_Office": "Pagoh",
        "State": "Johor"
    },
    {
        "Postcode": "84600",
        "Location": "Ladang Ban Heng",
        "Post_Office": "Pagoh",
        "State": "Johor"
    },
    {
        "Postcode": "84600",
        "Location": "Ladang Temiang Renchong",
        "Post_Office": "Pagoh",
        "State": "Johor"
    },
    {
        "Postcode": "84600",
        "Location": "Lembaga Lenga",
        "Post_Office": "Pagoh",
        "State": "Johor"
    },
    {
        "Postcode": "84600",
        "Location": "Lenga",
        "Post_Office": "Pagoh",
        "State": "Johor"
    },
    {
        "Postcode": "84600",
        "Location": "Lorong Pak Cik Gombang",
        "Post_Office": "Pagoh",
        "State": "Johor"
    },
    {
        "Postcode": "84600",
        "Location": "Pagoh",
        "Post_Office": "Pagoh",
        "State": "Johor"
    },
    {
        "Postcode": "84600",
        "Location": "Paya Redan",
        "Post_Office": "Pagoh",
        "State": "Johor"
    },
    {
        "Postcode": "84600",
        "Location": "Pekan Bukit Kepong",
        "Post_Office": "Pagoh",
        "State": "Johor"
    },
    {
        "Postcode": "84600",
        "Location": "Pekan Km 37",
        "Post_Office": "Pagoh",
        "State": "Johor"
    },
    {
        "Postcode": "84600",
        "Location": "Pekan Lenga",
        "Post_Office": "Pagoh",
        "State": "Johor"
    },
    {
        "Postcode": "84600",
        "Location": "Pekan Pagoh",
        "Post_Office": "Pagoh",
        "State": "Johor"
    },
    {
        "Postcode": "84600",
        "Location": "Rempah Ratus Nasuha",
        "Post_Office": "Pagoh",
        "State": "Johor"
    },
    {
        "Postcode": "84600",
        "Location": "Renchong",
        "Post_Office": "Pagoh",
        "State": "Johor"
    },
    {
        "Postcode": "84600",
        "Location": "Taman Bukit Kepong",
        "Post_Office": "Pagoh",
        "State": "Johor"
    },
    {
        "Postcode": "84600",
        "Location": "Taman Dato Abdul Rahman Mahmood",
        "Post_Office": "Pagoh",
        "State": "Johor"
    },
    {
        "Postcode": "84600",
        "Location": "Taman Kepong 2",
        "Post_Office": "Pagoh",
        "State": "Johor"
    },
    {
        "Postcode": "84600",
        "Location": "Taman Kepong Jaya",
        "Post_Office": "Pagoh",
        "State": "Johor"
    },
    {
        "Postcode": "84600",
        "Location": "Taman Pagoh",
        "Post_Office": "Pagoh",
        "State": "Johor"
    },
    {
        "Postcode": "84600",
        "Location": "Taman Pagoh Indah",
        "Post_Office": "Pagoh",
        "State": "Johor"
    },
    {
        "Postcode": "84600",
        "Location": "Taman Pagoh Jaya",
        "Post_Office": "Pagoh",
        "State": "Johor"
    },
    {
        "Postcode": "84600",
        "Location": "Taman Sri Pagoh",
        "Post_Office": "Pagoh",
        "State": "Johor"
    },
    {
        "Postcode": "84600",
        "Location": "Taman Sri Takdir",
        "Post_Office": "Pagoh",
        "State": "Johor"
    },
    {
        "Postcode": "84600",
        "Location": "Kampung Baru Lenga",
        "Post_Office": "Pagoh",
        "State": "Johor"
    },
    {
        "Postcode": "84600",
        "Location": "Kampung Semeriut",
        "Post_Office": "Pagoh",
        "State": "Johor"
    },
    {
        "Postcode": "84600",
        "Location": "Taman Kasturi Lenga",
        "Post_Office": "Pagoh",
        "State": "Johor"
    },
    {
        "Postcode": "84600",
        "Location": "Bandar Universiti Pagoh",
        "Post_Office": "Pagoh",
        "State": "Johor"
    },
    {
        "Postcode": "84600",
        "Location": "Politeknik Tun Syed Nasir",
        "Post_Office": "Pagoh",
        "State": "Johor"
    },
    {
        "Postcode": "84600",
        "Location": "Universiti Tun Hussein Onn Malaysia",
        "Post_Office": "Pagoh",
        "State": "Johor"
    },
    {
        "Postcode": "84600",
        "Location": "Kampung Bukit Panjang",
        "Post_Office": "Pagoh",
        "State": "Johor"
    },
    {
        "Postcode": "84600",
        "Location": "Kampung Sri Makmor",
        "Post_Office": "Pagoh",
        "State": "Johor"
    },
    {
        "Postcode": "84600",
        "Location": "Kampung Gelam",
        "Post_Office": "Pagoh",
        "State": "Johor"
    },
    {
        "Postcode": "84600",
        "Location": "Kampung Jawa",
        "Post_Office": "Pagoh",
        "State": "Johor"
    },
    {
        "Postcode": "84600",
        "Location": "Kampung Kecil",
        "Post_Office": "Pagoh",
        "State": "Johor"
    },
    {
        "Postcode": "84600",
        "Location": "Kampung Padang",
        "Post_Office": "Pagoh",
        "State": "Johor"
    },
    {
        "Postcode": "84600",
        "Location": "Kampung Pengkalan Kota",
        "Post_Office": "Pagoh",
        "State": "Johor"
    },
    {
        "Postcode": "84600",
        "Location": "Kampung Sentosa",
        "Post_Office": "Pagoh",
        "State": "Johor"
    },
    {
        "Postcode": "84600",
        "Location": "Kampung Seri Menanti",
        "Post_Office": "Pagoh",
        "State": "Johor"
    }
]
