[
    {
        "Postcode": "84700",
        "Location": "Kampung Kenangan",
        "Post_Office": "Gerisek",
        "State": "Johor"
    },
    {
        "Postcode": "84700",
        "Location": "Taman Wijaya",
        "Post_Office": "Gerisek",
        "State": "Johor"
    },
    {
        "Postcode": "84700",
        "Location": "Kampung Parit Bengkok",
        "Post_Office": "Gerisek",
        "State": "Johor"
    },
    {
        "Postcode": "84700",
        "Location": "Taman Suria Indah 2",
        "Post_Office": "Gerisek",
        "State": "Johor"
    },
    {
        "Postcode": "84700",
        "Location": "Bukit Katil Estate",
        "Post_Office": "Gerisek",
        "State": "Johor"
    },
    {
        "Postcode": "84700",
        "Location": "Gerisek",
        "Post_Office": "Gerisek",
        "State": "Johor"
    },
    {
        "Postcode": "84700",
        "Location": "Gugusan Felcra Kundang Ulu",
        "Post_Office": "Gerisek",
        "State": "Johor"
    },
    {
        "Postcode": "84700",
        "Location": "Jalan Kundang Hulu",
        "Post_Office": "Gerisek",
        "State": "Johor"
    },
    {
        "Postcode": "84700",
        "Location": "Kampung Bogak",
        "Post_Office": "Gerisek",
        "State": "Johor"
    },
    {
        "Postcode": "84700",
        "Location": "Kampung Bukit Katil",
        "Post_Office": "Gerisek",
        "State": "Johor"
    },
    {
        "Postcode": "84700",
        "Location": "Kampung Bukit Rahmat",
        "Post_Office": "Gerisek",
        "State": "Johor"
    },
    {
        "Postcode": "84700",
        "Location": "Kampung Bukit Rawan",
        "Post_Office": "Gerisek",
        "State": "Johor"
    },
    {
        "Postcode": "84700",
        "Location": "Kampung Bukit Skala",
        "Post_Office": "Gerisek",
        "State": "Johor"
    },
    {
        "Postcode": "84700",
        "Location": "Kampung Bukit Tenggorak",
        "Post_Office": "Gerisek",
        "State": "Johor"
    },
    {
        "Postcode": "84700",
        "Location": "Kampung Gaung Kepar",
        "Post_Office": "Gerisek",
        "State": "Johor"
    },
    {
        "Postcode": "84700",
        "Location": "Kampung Hassan",
        "Post_Office": "Gerisek",
        "State": "Johor"
    },
    {
        "Postcode": "84700",
        "Location": "Kampung Hujong Tambak",
        "Post_Office": "Gerisek",
        "State": "Johor"
    },
    {
        "Postcode": "84700",
        "Location": "Kampung Hujung",
        "Post_Office": "Gerisek",
        "State": "Johor"
    },
    {
        "Postcode": "84700",
        "Location": "Kampung Kurnia Sakti",
        "Post_Office": "Gerisek",
        "State": "Johor"
    },
    {
        "Postcode": "84700",
        "Location": "Kampung Mat Jadi",
        "Post_Office": "Gerisek",
        "State": "Johor"
    },
    {
        "Postcode": "84700",
        "Location": "Kampung Parit Medan",
        "Post_Office": "Gerisek",
        "State": "Johor"
    },
    {
        "Postcode": "84700",
        "Location": "Kampung Parit Sawah",
        "Post_Office": "Gerisek",
        "State": "Johor"
    },
    {
        "Postcode": "84700",
        "Location": "Kampung Parit Simpang",
        "Post_Office": "Gerisek",
        "State": "Johor"
    },
    {
        "Postcode": "84700",
        "Location": "Kampung Parit Tepi",
        "Post_Office": "Gerisek",
        "State": "Johor"
    },
    {
        "Postcode": "84700",
        "Location": "Kampung Parit Tunggul",
        "Post_Office": "Gerisek",
        "State": "Johor"
    },
    {
        "Postcode": "84700",
        "Location": "Kampung Penchu",
        "Post_Office": "Gerisek",
        "State": "Johor"
    },
    {
        "Postcode": "84700",
        "Location": "Kampung Sawah Ring",
        "Post_Office": "Gerisek",
        "State": "Johor"
    },
    {
        "Postcode": "84700",
        "Location": "Kampung Semanchar",
        "Post_Office": "Gerisek",
        "State": "Johor"
    },
    {
        "Postcode": "84700",
        "Location": "Kampung Semandar",
        "Post_Office": "Gerisek",
        "State": "Johor"
    },
    {
        "Postcode": "84700",
        "Location": "Kampung Semayar",
        "Post_Office": "Gerisek",
        "State": "Johor"
    },
    {
        "Postcode": "84700",
        "Location": "Kampung Telok Bogak",
        "Post_Office": "Gerisek",
        "State": "Johor"
    },
    {
        "Postcode": "84700",
        "Location": "Kampung Telok Penchu",
        "Post_Office": "Gerisek",
        "State": "Johor"
    },
    {
        "Postcode": "84700",
        "Location": "Kampung Tiong Baru",
        "Post_Office": "Gerisek",
        "State": "Johor"
    },
    {
        "Postcode": "84700",
        "Location": "Kundang Ulu",
        "Post_Office": "Gerisek",
        "State": "Johor"
    },
    {
        "Postcode": "84700",
        "Location": "Ladang Chin Soon Sun",
        "Post_Office": "Gerisek",
        "State": "Johor"
    },
    {
        "Postcode": "84700",
        "Location": "Leong Hup Industri",
        "Post_Office": "Gerisek",
        "State": "Johor"
    },
    {
        "Postcode": "84700",
        "Location": "Parit Cina",
        "Post_Office": "Gerisek",
        "State": "Johor"
    },
    {
        "Postcode": "84700",
        "Location": "Sungai Sendok",
        "Post_Office": "Gerisek",
        "State": "Johor"
    },
    {
        "Postcode": "84700",
        "Location": "Sungai Sendok Hujung",
        "Post_Office": "Gerisek",
        "State": "Johor"
    },
    {
        "Postcode": "84700",
        "Location": "Taman Industry",
        "Post_Office": "Gerisek",
        "State": "Johor"
    },
    {
        "Postcode": "84700",
        "Location": "Taman Kundang Jaya",
        "Post_Office": "Gerisek",
        "State": "Johor"
    },
    {
        "Postcode": "84700",
        "Location": "Taman Sri Gerisek",
        "Post_Office": "Gerisek",
        "State": "Johor"
    },
    {
        "Postcode": "84700",
        "Location": "Tiong Baru Barat",
        "Post_Office": "Gerisek",
        "State": "Johor"
    },
    {
        "Postcode": "84700",
        "Location": "Kampung Kundang",
        "Post_Office": "Gerisek",
        "State": "Johor"
    },
    {
        "Postcode": "84700",
        "Location": "Kampung Parit Pelampong",
        "Post_Office": "Gerisek",
        "State": "Johor"
    },
    {
        "Postcode": "84700",
        "Location": "Kampung Parit Raja",
        "Post_Office": "Gerisek",
        "State": "Johor"
    },
    {
        "Postcode": "84700",
        "Location": "Kampung Parit Surau",
        "Post_Office": "Gerisek",
        "State": "Johor"
    },
    {
        "Postcode": "84700",
        "Location": "Kampung Melayu",
        "Post_Office": "Gerisek",
        "State": "Johor"
    },
    {
        "Postcode": "84700",
        "Location": "Parit Raja Baroh",
        "Post_Office": "Gerisek",
        "State": "Johor"
    },
    {
        "Postcode": "84700",
        "Location": "Taman Bakri",
        "Post_Office": "Gerisek",
        "State": "Johor"
    },
    {
        "Postcode": "84700",
        "Location": "Taman Industri",
        "Post_Office": "Gerisek",
        "State": "Johor"
    },
    {
        "Postcode": "84700",
        "Location": "Taman Suria",
        "Post_Office": "Gerisek",
        "State": "Johor"
    },
    {
        "Postcode": "84700",
        "Location": "Taman Utama",
        "Post_Office": "Gerisek",
        "State": "Johor"
    }
]
