[
    {
        "Postcode": "84800",
        "Location": "Taman Sri Jaya",
        "Post_Office": "Bukit Gambir",
        "State": "Johor"
    },
    {
        "Postcode": "84800",
        "Location": "Parit Kassim",
        "Post_Office": "Bukit Gambir",
        "State": "Johor"
    },
    {
        "Postcode": "84800",
        "Location": "Taman Gemilang",
        "Post_Office": "Bukit Gambir",
        "State": "Johor"
    },
    {
        "Postcode": "84800",
        "Location": "Taman Kenangan",
        "Post_Office": "Bukit Gambir",
        "State": "Johor"
    },
    {
        "Postcode": "84800",
        "Location": "Bandar Baru Bukit Gambir",
        "Post_Office": "Bukit Gambir",
        "State": "Johor"
    },
    {
        "Postcode": "84800",
        "Location": "Bukit Gambir",
        "Post_Office": "Bukit Gambir",
        "State": "Johor"
    },
    {
        "Postcode": "84800",
        "Location": "Gantian Estate",
        "Post_Office": "Bukit Gambir",
        "State": "Johor"
    },
    {
        "Postcode": "84800",
        "Location": "Kampung Batu 18 Sengkang",
        "Post_Office": "Bukit Gambir",
        "State": "Johor"
    },
    {
        "Postcode": "84800",
        "Location": "Kampung Batu 19 (Pekan / Dalam)",
        "Post_Office": "Bukit Gambir",
        "State": "Johor"
    },
    {
        "Postcode": "84800",
        "Location": "Kampung Che Paimin",
        "Post_Office": "Bukit Gambir",
        "State": "Johor"
    },
    {
        "Postcode": "84800",
        "Location": "Kampung Dato Ngah",
        "Post_Office": "Bukit Gambir",
        "State": "Johor"
    },
    {
        "Postcode": "84800",
        "Location": "Kampung Parit Turun",
        "Post_Office": "Bukit Gambir",
        "State": "Johor"
    },
    {
        "Postcode": "84800",
        "Location": "Kampung Seri Melawa",
        "Post_Office": "Bukit Gambir",
        "State": "Johor"
    },
    {
        "Postcode": "84800",
        "Location": "Kampung Sri Cantik",
        "Post_Office": "Bukit Gambir",
        "State": "Johor"
    },
    {
        "Postcode": "84800",
        "Location": "Kampung Sri Labis",
        "Post_Office": "Bukit Gambir",
        "State": "Johor"
    },
    {
        "Postcode": "84800",
        "Location": "Kampung Sri Melaka",
        "Post_Office": "Bukit Gambir",
        "State": "Johor"
    },
    {
        "Postcode": "84800",
        "Location": "Kampung Sri Menanti Sundai",
        "Post_Office": "Bukit Gambir",
        "State": "Johor"
    },
    {
        "Postcode": "84800",
        "Location": "Kampung Sri Pekaka",
        "Post_Office": "Bukit Gambir",
        "State": "Johor"
    },
    {
        "Postcode": "84800",
        "Location": "Kampung Sungai Jaja",
        "Post_Office": "Bukit Gambir",
        "State": "Johor"
    },
    {
        "Postcode": "84800",
        "Location": "Meranti Sundai",
        "Post_Office": "Bukit Gambir",
        "State": "Johor"
    },
    {
        "Postcode": "84800",
        "Location": "Parit Babok",
        "Post_Office": "Bukit Gambir",
        "State": "Johor"
    },
    {
        "Postcode": "84800",
        "Location": "Parit Bunga Raya",
        "Post_Office": "Bukit Gambir",
        "State": "Johor"
    },
    {
        "Postcode": "84800",
        "Location": "Parit Haron",
        "Post_Office": "Bukit Gambir",
        "State": "Johor"
    },
    {
        "Postcode": "84800",
        "Location": "Parit Jarum",
        "Post_Office": "Bukit Gambir",
        "State": "Johor"
    },
    {
        "Postcode": "84800",
        "Location": "Parit Jarum Darat",
        "Post_Office": "Bukit Gambir",
        "State": "Johor"
    },
    {
        "Postcode": "84800",
        "Location": "Parit Jarum Laut",
        "Post_Office": "Bukit Gambir",
        "State": "Johor"
    },
    {
        "Postcode": "84800",
        "Location": "Parit Jarum Tengah",
        "Post_Office": "Bukit Gambir",
        "State": "Johor"
    },
    {
        "Postcode": "84800",
        "Location": "Parit Kasban",
        "Post_Office": "Bukit Gambir",
        "State": "Johor"
    },
    {
        "Postcode": "84800",
        "Location": "Parit Kassan",
        "Post_Office": "Bukit Gambir",
        "State": "Johor"
    },
    {
        "Postcode": "84800",
        "Location": "Parit Lian",
        "Post_Office": "Bukit Gambir",
        "State": "Johor"
    },
    {
        "Postcode": "84800",
        "Location": "Parit Rabu",
        "Post_Office": "Bukit Gambir",
        "State": "Johor"
    },
    {
        "Postcode": "84800",
        "Location": "Seri Melaka",
        "Post_Office": "Bukit Gambir",
        "State": "Johor"
    },
    {
        "Postcode": "84800",
        "Location": "Simpang Lima Darat",
        "Post_Office": "Bukit Gambir",
        "State": "Johor"
    },
    {
        "Postcode": "84800",
        "Location": "Simpang Lima Pekan",
        "Post_Office": "Bukit Gambir",
        "State": "Johor"
    },
    {
        "Postcode": "84800",
        "Location": "Sungai Baru",
        "Post_Office": "Bukit Gambir",
        "State": "Johor"
    },
    {
        "Postcode": "84800",
        "Location": "Sungai Bilah",
        "Post_Office": "Bukit Gambir",
        "State": "Johor"
    },
    {
        "Postcode": "84800",
        "Location": "Sungai Leban",
        "Post_Office": "Bukit Gambir",
        "State": "Johor"
    },
    {
        "Postcode": "84800",
        "Location": "Sungai Meriam",
        "Post_Office": "Bukit Gambir",
        "State": "Johor"
    },
    {
        "Postcode": "84800",
        "Location": "Taman Bukit Gambir",
        "Post_Office": "Bukit Gambir",
        "State": "Johor"
    },
    {
        "Postcode": "84800",
        "Location": "Taman Desa Besar",
        "Post_Office": "Bukit Gambir",
        "State": "Johor"
    },
    {
        "Postcode": "84800",
        "Location": "Taman Happy Garden (Gemboye)",
        "Post_Office": "Bukit Gambir",
        "State": "Johor"
    },
    {
        "Postcode": "84800",
        "Location": "Taman Jalan Boey",
        "Post_Office": "Bukit Gambir",
        "State": "Johor"
    },
    {
        "Postcode": "84800",
        "Location": "Kampung Sri Menanti",
        "Post_Office": "Bukit Gambir",
        "State": "Johor"
    },
    {
        "Postcode": "84800",
        "Location": "Taman Melor Utama",
        "Post_Office": "Bukit Gambir",
        "State": "Johor"
    },
    {
        "Postcode": "84800",
        "Location": "Taman Sakura",
        "Post_Office": "Bukit Gambir",
        "State": "Johor"
    },
    {
        "Postcode": "84800",
        "Location": "Gersik Estate",
        "Post_Office": "Bukit Gambir",
        "State": "Johor"
    },
    {
        "Postcode": "84800",
        "Location": "Kampung Che Paiman",
        "Post_Office": "Bukit Gambir",
        "State": "Johor"
    },
    {
        "Postcode": "84800",
        "Location": "Kampung Cikgu Paiman",
        "Post_Office": "Bukit Gambir",
        "State": "Johor"
    },
    {
        "Postcode": "84800",
        "Location": "Kampung Melayu Melapang Gantian",
        "Post_Office": "Bukit Gambir",
        "State": "Johor"
    },
    {
        "Postcode": "84800",
        "Location": "Kampung Melayu Melepang",
        "Post_Office": "Bukit Gambir",
        "State": "Johor"
    },
    {
        "Postcode": "84800",
        "Location": "Kampung Melayu Sengkang Dalam Batu 19",
        "Post_Office": "Bukit Gambir",
        "State": "Johor"
    },
    {
        "Postcode": "84800",
        "Location": "Kampung Meranti Sungai",
        "Post_Office": "Bukit Gambir",
        "State": "Johor"
    },
    {
        "Postcode": "84800",
        "Location": "Kampung Parit Bunga Raya Hujung",
        "Post_Office": "Bukit Gambir",
        "State": "Johor"
    },
    {
        "Postcode": "84800",
        "Location": "Kampung Parit Bunga Raya Luar",
        "Post_Office": "Bukit Gambir",
        "State": "Johor"
    },
    {
        "Postcode": "84800",
        "Location": "Kampung Parit Ghani",
        "Post_Office": "Bukit Gambir",
        "State": "Johor"
    },
    {
        "Postcode": "84800",
        "Location": "Kampung Parit Jarum Darat",
        "Post_Office": "Bukit Gambir",
        "State": "Johor"
    },
    {
        "Postcode": "84800",
        "Location": "Kampung Parit Jarum Tengah",
        "Post_Office": "Bukit Gambir",
        "State": "Johor"
    },
    {
        "Postcode": "84800",
        "Location": "Kampung Parit Lian Sungai Baru",
        "Post_Office": "Bukit Gambir",
        "State": "Johor"
    },
    {
        "Postcode": "84800",
        "Location": "Kampung Parit Lian Sungai Bilah",
        "Post_Office": "Bukit Gambir",
        "State": "Johor"
    },
    {
        "Postcode": "84800",
        "Location": "Kampung Parit Rabu",
        "Post_Office": "Bukit Gambir",
        "State": "Johor"
    },
    {
        "Postcode": "84800",
        "Location": "Kampung Simpang 5 Darat Hujung",
        "Post_Office": "Bukit Gambir",
        "State": "Johor"
    },
    {
        "Postcode": "84800",
        "Location": "Kampung Sri Baka",
        "Post_Office": "Bukit Gambir",
        "State": "Johor"
    },
    {
        "Postcode": "84800",
        "Location": "Kampung Sungai Bilah",
        "Post_Office": "Bukit Gambir",
        "State": "Johor"
    },
    {
        "Postcode": "84800",
        "Location": "Kampung Sungai Jaja Lapis",
        "Post_Office": "Bukit Gambir",
        "State": "Johor"
    },
    {
        "Postcode": "84800",
        "Location": "Parit Gani",
        "Post_Office": "Bukit Gambir",
        "State": "Johor"
    },
    {
        "Postcode": "84800",
        "Location": "Parit Hj Idris",
        "Post_Office": "Bukit Gambir",
        "State": "Johor"
    },
    {
        "Postcode": "84800",
        "Location": "Pekan Sengkang Batu 19",
        "Post_Office": "Bukit Gambir",
        "State": "Johor"
    },
    {
        "Postcode": "84800",
        "Location": "Taman Bandar Baru Bukit Gambir",
        "Post_Office": "Bukit Gambir",
        "State": "Johor"
    },
    {
        "Postcode": "84800",
        "Location": "Taman Desa Besar 2",
        "Post_Office": "Bukit Gambir",
        "State": "Johor"
    },
    {
        "Postcode": "84800",
        "Location": "Taman Desa Jarom Jaya",
        "Post_Office": "Bukit Gambir",
        "State": "Johor"
    },
    {
        "Postcode": "84800",
        "Location": "Taman Happy Garden 1",
        "Post_Office": "Bukit Gambir",
        "State": "Johor"
    },
    {
        "Postcode": "84800",
        "Location": "Taman Happy Garden 2",
        "Post_Office": "Bukit Gambir",
        "State": "Johor"
    },
    {
        "Postcode": "84800",
        "Location": "Taman Perdagangan",
        "Post_Office": "Bukit Gambir",
        "State": "Johor"
    },
    {
        "Postcode": "84800",
        "Location": "Taman Perindustrian Bukit Gambir",
        "Post_Office": "Bukit Gambir",
        "State": "Johor"
    },
    {
        "Postcode": "84800",
        "Location": "Kampung Parit Haji Idris",
        "Post_Office": "Bukit Gambir",
        "State": "Johor"
    },
    {
        "Postcode": "84800",
        "Location": "Kampung Sri Paya",
        "Post_Office": "Bukit Gambir",
        "State": "Johor"
    },
    {
        "Postcode": "84800",
        "Location": "Sungai Rambai",
        "Post_Office": "Bukit Gambir",
        "State": "Johor"
    },
    {
        "Postcode": "84800",
        "Location": "Taman Mulia",
        "Post_Office": "Bukit Gambir",
        "State": "Johor"
    },
    {
        "Postcode": "84800",
        "Location": "Kampung Baru",
        "Post_Office": "Bukit Gambir",
        "State": "Johor"
    },
    {
        "Postcode": "84800",
        "Location": "Kampung Melayu",
        "Post_Office": "Bukit Gambir",
        "State": "Johor"
    },
    {
        "Postcode": "84800",
        "Location": "Kampung Seri Menanti",
        "Post_Office": "Bukit Gambir",
        "State": "Johor"
    },
    {
        "Postcode": "84800",
        "Location": "Parit Kasan",
        "Post_Office": "Bukit Gambir",
        "State": "Johor"
    },
    {
        "Postcode": "84800",
        "Location": "Parit Kerinci",
        "Post_Office": "Bukit Gambir",
        "State": "Johor"
    },
    {
        "Postcode": "84800",
        "Location": "Parit Raja",
        "Post_Office": "Bukit Gambir",
        "State": "Johor"
    },
    {
        "Postcode": "84800",
        "Location": "Parit Raja Baroh",
        "Post_Office": "Bukit Gambir",
        "State": "Johor"
    },
    {
        "Postcode": "84800",
        "Location": "Sengkang",
        "Post_Office": "Bukit Gambir",
        "State": "Johor"
    },
    {
        "Postcode": "84800",
        "Location": "Taman Cempaka",
        "Post_Office": "Bukit Gambir",
        "State": "Johor"
    },
    {
        "Postcode": "84800",
        "Location": "Taman Melor",
        "Post_Office": "Bukit Gambir",
        "State": "Johor"
    },
    {
        "Postcode": "84800",
        "Location": "Taman Okid",
        "Post_Office": "Bukit Gambir",
        "State": "Johor"
    },
    {
        "Postcode": "84800",
        "Location": "Taman Wira",
        "Post_Office": "Bukit Gambir",
        "State": "Johor"
    }
]
