[
    {
        "Postcode": "84900",
        "Location": "Jalan Besar",
        "Post_Office": "Tangkak",
        "State": "Johor"
    },
    {
        "Postcode": "84900",
        "Location": "Jalan Sekolah",
        "Post_Office": "Tangkak",
        "State": "Johor"
    },
    {
        "Postcode": "84900",
        "Location": "Taman Emas",
        "Post_Office": "Tangkak",
        "State": "Johor"
    },
    {
        "Postcode": "84900",
        "Location": "Taman Permata",
        "Post_Office": "Tangkak",
        "State": "Johor"
    },
    {
        "Postcode": "84900",
        "Location": "Taman Sri Jaya",
        "Post_Office": "Tangkak",
        "State": "Johor"
    },
    {
        "Postcode": "84900",
        "Location": "Taman Delima",
        "Post_Office": "Tangkak",
        "State": "Johor"
    },
    {
        "Postcode": "84900",
        "Location": "Taman Kurnia",
        "Post_Office": "Tangkak",
        "State": "Johor"
    },
    {
        "Postcode": "84900",
        "Location": "Taman Mahkota",
        "Post_Office": "Tangkak",
        "State": "Johor"
    },
    {
        "Postcode": "84900",
        "Location": "Taman Maju Jaya",
        "Post_Office": "Tangkak",
        "State": "Johor"
    },
    {
        "Postcode": "84900",
        "Location": "Taman Pertama",
        "Post_Office": "Tangkak",
        "State": "Johor"
    },
    {
        "Postcode": "84900",
        "Location": "Taman Putera",
        "Post_Office": "Tangkak",
        "State": "Johor"
    },
    {
        "Postcode": "84900",
        "Location": "Taman Warisan",
        "Post_Office": "Tangkak",
        "State": "Johor"
    },
    {
        "Postcode": "84900",
        "Location": "Jalan Hassan",
        "Post_Office": "Tangkak",
        "State": "Johor"
    },
    {
        "Postcode": "84900",
        "Location": "Jalan Hospital",
        "Post_Office": "Tangkak",
        "State": "Johor"
    },
    {
        "Postcode": "84900",
        "Location": "Jalan Kemajuan",
        "Post_Office": "Tangkak",
        "State": "Johor"
    },
    {
        "Postcode": "84900",
        "Location": "Kampung Melayu Raya",
        "Post_Office": "Tangkak",
        "State": "Johor"
    },
    {
        "Postcode": "84900",
        "Location": "Kampung Padang Lalang",
        "Post_Office": "Tangkak",
        "State": "Johor"
    },
    {
        "Postcode": "84900",
        "Location": "Taman Lagenda",
        "Post_Office": "Tangkak",
        "State": "Johor"
    },
    {
        "Postcode": "84900",
        "Location": "Taman Perindustrian",
        "Post_Office": "Tangkak",
        "State": "Johor"
    },
    {
        "Postcode": "84900",
        "Location": "Taman Putri",
        "Post_Office": "Tangkak",
        "State": "Johor"
    },
    {
        "Postcode": "84900",
        "Location": "Taman Sri Sentosa",
        "Post_Office": "Tangkak",
        "State": "Johor"
    },
    {
        "Postcode": "84900",
        "Location": "Ledang Emas",
        "Post_Office": "Tangkak",
        "State": "Johor"
    },
    {
        "Postcode": "84900",
        "Location": "Taman Industri Tiara",
        "Post_Office": "Tangkak",
        "State": "Johor"
    },
    {
        "Postcode": "84900",
        "Location": "Bandar Baru Tangkak",
        "Post_Office": "Tangkak",
        "State": "Johor"
    },
    {
        "Postcode": "84900",
        "Location": "Bukit Banjar",
        "Post_Office": "Tangkak",
        "State": "Johor"
    },
    {
        "Postcode": "84900",
        "Location": "Jalan Abd Ghani",
        "Post_Office": "Tangkak",
        "State": "Johor"
    },
    {
        "Postcode": "84900",
        "Location": "Jalan Ah Jin",
        "Post_Office": "Tangkak",
        "State": "Johor"
    },
    {
        "Postcode": "84900",
        "Location": "Jalan Baru 2",
        "Post_Office": "Tangkak",
        "State": "Johor"
    },
    {
        "Postcode": "84900",
        "Location": "Jalan Baru Belembang",
        "Post_Office": "Tangkak",
        "State": "Johor"
    },
    {
        "Postcode": "84900",
        "Location": "Jalan Belading",
        "Post_Office": "Tangkak",
        "State": "Johor"
    },
    {
        "Postcode": "84900",
        "Location": "Jalan Bukit Kontang",
        "Post_Office": "Tangkak",
        "State": "Johor"
    },
    {
        "Postcode": "84900",
        "Location": "Jalan Jaamat",
        "Post_Office": "Tangkak",
        "State": "Johor"
    },
    {
        "Postcode": "84900",
        "Location": "Jalan Kartini",
        "Post_Office": "Tangkak",
        "State": "Johor"
    },
    {
        "Postcode": "84900",
        "Location": "Jalan Megamas",
        "Post_Office": "Tangkak",
        "State": "Johor"
    },
    {
        "Postcode": "84900",
        "Location": "Jalan Muar Batu 13",
        "Post_Office": "Tangkak",
        "State": "Johor"
    },
    {
        "Postcode": "84900",
        "Location": "Jalan Naib Long",
        "Post_Office": "Tangkak",
        "State": "Johor"
    },
    {
        "Postcode": "84900",
        "Location": "Jalan Ong Siang",
        "Post_Office": "Tangkak",
        "State": "Johor"
    },
    {
        "Postcode": "84900",
        "Location": "Jalan Payamas",
        "Post_Office": "Tangkak",
        "State": "Johor"
    },
    {
        "Postcode": "84900",
        "Location": "Jalan Pusat Pertanian",
        "Post_Office": "Tangkak",
        "State": "Johor"
    },
    {
        "Postcode": "84900",
        "Location": "Jalan Segamat",
        "Post_Office": "Tangkak",
        "State": "Johor"
    },
    {
        "Postcode": "84900",
        "Location": "Jalan Sialang",
        "Post_Office": "Tangkak",
        "State": "Johor"
    },
    {
        "Postcode": "84900",
        "Location": "Jalan Solok",
        "Post_Office": "Tangkak",
        "State": "Johor"
    },
    {
        "Postcode": "84900",
        "Location": "Jalan Sri Maamor",
        "Post_Office": "Tangkak",
        "State": "Johor"
    },
    {
        "Postcode": "84900",
        "Location": "Kampung  Seheng",
        "Post_Office": "Tangkak",
        "State": "Johor"
    },
    {
        "Postcode": "84900",
        "Location": "Kampung Â Teheng",
        "Post_Office": "Tangkak",
        "State": "Johor"
    },
    {
        "Postcode": "84900",
        "Location": "Kampung Anjong Batu",
        "Post_Office": "Tangkak",
        "State": "Johor"
    },
    {
        "Postcode": "84900",
        "Location": "Kampung Anjung Batu Dalam",
        "Post_Office": "Tangkak",
        "State": "Johor"
    },
    {
        "Postcode": "84900",
        "Location": "Kampung Ban Hup Baru",
        "Post_Office": "Tangkak",
        "State": "Johor"
    },
    {
        "Postcode": "84900",
        "Location": "Kampung Baru 1",
        "Post_Office": "Tangkak",
        "State": "Johor"
    },
    {
        "Postcode": "84900",
        "Location": "Kampung Baru 2",
        "Post_Office": "Tangkak",
        "State": "Johor"
    },
    {
        "Postcode": "84900",
        "Location": "Kampung Baru Bekoh",
        "Post_Office": "Tangkak",
        "State": "Johor"
    },
    {
        "Postcode": "84900",
        "Location": "Kampung Baru Cina Bekoh",
        "Post_Office": "Tangkak",
        "State": "Johor"
    },
    {
        "Postcode": "84900",
        "Location": "Kampung Baru Sagil",
        "Post_Office": "Tangkak",
        "State": "Johor"
    },
    {
        "Postcode": "84900",
        "Location": "Kampung Baru Satu",
        "Post_Office": "Tangkak",
        "State": "Johor"
    },
    {
        "Postcode": "84900",
        "Location": "Kampung Bekoh",
        "Post_Office": "Tangkak",
        "State": "Johor"
    },
    {
        "Postcode": "84900",
        "Location": "Kampung Bukit Banjar",
        "Post_Office": "Tangkak",
        "State": "Johor"
    },
    {
        "Postcode": "84900",
        "Location": "Kampung Bukit Kechil",
        "Post_Office": "Tangkak",
        "State": "Johor"
    },
    {
        "Postcode": "84900",
        "Location": "Kampung Chenas",
        "Post_Office": "Tangkak",
        "State": "Johor"
    },
    {
        "Postcode": "84900",
        "Location": "Kampung Conggo Sagil",
        "Post_Office": "Tangkak",
        "State": "Johor"
    },
    {
        "Postcode": "84900",
        "Location": "Kampung Dangku",
        "Post_Office": "Tangkak",
        "State": "Johor"
    },
    {
        "Postcode": "84900",
        "Location": "Kampung Dok",
        "Post_Office": "Tangkak",
        "State": "Johor"
    },
    {
        "Postcode": "84900",
        "Location": "Kampung Hang Tuah",
        "Post_Office": "Tangkak",
        "State": "Johor"
    },
    {
        "Postcode": "84900",
        "Location": "Kampung Kemuning",
        "Post_Office": "Tangkak",
        "State": "Johor"
    },
    {
        "Postcode": "84900",
        "Location": "Kampung Kurnia Jaya",
        "Post_Office": "Tangkak",
        "State": "Johor"
    },
    {
        "Postcode": "84900",
        "Location": "Kampung Melapang",
        "Post_Office": "Tangkak",
        "State": "Johor"
    },
    {
        "Postcode": "84900",
        "Location": "Kampung Padang Larek 1",
        "Post_Office": "Tangkak",
        "State": "Johor"
    },
    {
        "Postcode": "84900",
        "Location": "Kampung Padang Lerek 2",
        "Post_Office": "Tangkak",
        "State": "Johor"
    },
    {
        "Postcode": "84900",
        "Location": "Kampung Parit Timin",
        "Post_Office": "Tangkak",
        "State": "Johor"
    },
    {
        "Postcode": "84900",
        "Location": "Kampung Paya Kepong",
        "Post_Office": "Tangkak",
        "State": "Johor"
    },
    {
        "Postcode": "84900",
        "Location": "Kampung Paya Pupok",
        "Post_Office": "Tangkak",
        "State": "Johor"
    },
    {
        "Postcode": "84900",
        "Location": "Kampung Payamas",
        "Post_Office": "Tangkak",
        "State": "Johor"
    },
    {
        "Postcode": "84900",
        "Location": "Kampung Pengkalan Besar",
        "Post_Office": "Tangkak",
        "State": "Johor"
    },
    {
        "Postcode": "84900",
        "Location": "Kampung Sagil (Batu 1 - 3)",
        "Post_Office": "Tangkak",
        "State": "Johor"
    },
    {
        "Postcode": "84900",
        "Location": "Kampung Seberang Gajah",
        "Post_Office": "Tangkak",
        "State": "Johor"
    },
    {
        "Postcode": "84900",
        "Location": "Kampung Seheng",
        "Post_Office": "Tangkak",
        "State": "Johor"
    },
    {
        "Postcode": "84900",
        "Location": "Kampung Seri Maamur",
        "Post_Office": "Tangkak",
        "State": "Johor"
    },
    {
        "Postcode": "84900",
        "Location": "Kampung Sialang",
        "Post_Office": "Tangkak",
        "State": "Johor"
    },
    {
        "Postcode": "84900",
        "Location": "Kampung Sialang Dalam",
        "Post_Office": "Tangkak",
        "State": "Johor"
    },
    {
        "Postcode": "84900",
        "Location": "Kampung Solok",
        "Post_Office": "Tangkak",
        "State": "Johor"
    },
    {
        "Postcode": "84900",
        "Location": "Kampung Solok Jaya",
        "Post_Office": "Tangkak",
        "State": "Johor"
    },
    {
        "Postcode": "84900",
        "Location": "Kampung Sri Jaya",
        "Post_Office": "Tangkak",
        "State": "Johor"
    },
    {
        "Postcode": "84900",
        "Location": "Kampung Tanjong Laboh",
        "Post_Office": "Tangkak",
        "State": "Johor"
    },
    {
        "Postcode": "84900",
        "Location": "Kampung Termil",
        "Post_Office": "Tangkak",
        "State": "Johor"
    },
    {
        "Postcode": "84900",
        "Location": "Kawasan Perindustrian Tangkak",
        "Post_Office": "Tangkak",
        "State": "Johor"
    },
    {
        "Postcode": "84900",
        "Location": "Ladang Bekoh",
        "Post_Office": "Tangkak",
        "State": "Johor"
    },
    {
        "Postcode": "84900",
        "Location": "Ladang Bukit Serampang",
        "Post_Office": "Tangkak",
        "State": "Johor"
    },
    {
        "Postcode": "84900",
        "Location": "Ladang Eng Kee",
        "Post_Office": "Tangkak",
        "State": "Johor"
    },
    {
        "Postcode": "84900",
        "Location": "Ladang Ledang",
        "Post_Office": "Tangkak",
        "State": "Johor"
    },
    {
        "Postcode": "84900",
        "Location": "Ladang Sagil",
        "Post_Office": "Tangkak",
        "State": "Johor"
    },
    {
        "Postcode": "84900",
        "Location": "Ladang Serom",
        "Post_Office": "Tangkak",
        "State": "Johor"
    },
    {
        "Postcode": "84900",
        "Location": "Ladang Tanah Merah",
        "Post_Office": "Tangkak",
        "State": "Johor"
    },
    {
        "Postcode": "84900",
        "Location": "Ladang Tangkak",
        "Post_Office": "Tangkak",
        "State": "Johor"
    },
    {
        "Postcode": "84900",
        "Location": "Lorong Haji Mat Sirot",
        "Post_Office": "Tangkak",
        "State": "Johor"
    },
    {
        "Postcode": "84900",
        "Location": "Parit Dahalan",
        "Post_Office": "Tangkak",
        "State": "Johor"
    },
    {
        "Postcode": "84900",
        "Location": "Parit Timin",
        "Post_Office": "Tangkak",
        "State": "Johor"
    },
    {
        "Postcode": "84900",
        "Location": "Pasar Awam Tangkak",
        "Post_Office": "Tangkak",
        "State": "Johor"
    },
    {
        "Postcode": "84900",
        "Location": "Sagil",
        "Post_Office": "Tangkak",
        "State": "Johor"
    },
    {
        "Postcode": "84900",
        "Location": "Simpang Bekoh",
        "Post_Office": "Tangkak",
        "State": "Johor"
    },
    {
        "Postcode": "84900",
        "Location": "Taman Air Molek",
        "Post_Office": "Tangkak",
        "State": "Johor"
    },
    {
        "Postcode": "84900",
        "Location": "Taman Alam Indah",
        "Post_Office": "Tangkak",
        "State": "Johor"
    },
    {
        "Postcode": "84900",
        "Location": "Taman Chi Meng",
        "Post_Office": "Tangkak",
        "State": "Johor"
    },
    {
        "Postcode": "84900",
        "Location": "Taman Elok",
        "Post_Office": "Tangkak",
        "State": "Johor"
    },
    {
        "Postcode": "84900",
        "Location": "Taman Gunung Mas",
        "Post_Office": "Tangkak",
        "State": "Johor"
    },
    {
        "Postcode": "84900",
        "Location": "Taman Ithari",
        "Post_Office": "Tangkak",
        "State": "Johor"
    },
    {
        "Postcode": "84900",
        "Location": "Taman Kurnia Jaya",
        "Post_Office": "Tangkak",
        "State": "Johor"
    },
    {
        "Postcode": "84900",
        "Location": "Taman Mega Ria",
        "Post_Office": "Tangkak",
        "State": "Johor"
    },
    {
        "Postcode": "84900",
        "Location": "Taman Naib Long",
        "Post_Office": "Tangkak",
        "State": "Johor"
    },
    {
        "Postcode": "84900",
        "Location": "Taman Naib Long 2",
        "Post_Office": "Tangkak",
        "State": "Johor"
    },
    {
        "Postcode": "84900",
        "Location": "Taman Padang Lalang",
        "Post_Office": "Tangkak",
        "State": "Johor"
    },
    {
        "Postcode": "84900",
        "Location": "Taman Payamas",
        "Post_Office": "Tangkak",
        "State": "Johor"
    },
    {
        "Postcode": "84900",
        "Location": "Taman Permanis",
        "Post_Office": "Tangkak",
        "State": "Johor"
    },
    {
        "Postcode": "84900",
        "Location": "Taman Sagil Jaya",
        "Post_Office": "Tangkak",
        "State": "Johor"
    },
    {
        "Postcode": "84900",
        "Location": "Taman Sagil Jaya 3",
        "Post_Office": "Tangkak",
        "State": "Johor"
    },
    {
        "Postcode": "84900",
        "Location": "Taman Seri Nilam",
        "Post_Office": "Tangkak",
        "State": "Johor"
    },
    {
        "Postcode": "84900",
        "Location": "Taman Sia Hai Eng",
        "Post_Office": "Tangkak",
        "State": "Johor"
    },
    {
        "Postcode": "84900",
        "Location": "Taman Sialang",
        "Post_Office": "Tangkak",
        "State": "Johor"
    },
    {
        "Postcode": "84900",
        "Location": "Taman Sri Ledang",
        "Post_Office": "Tangkak",
        "State": "Johor"
    },
    {
        "Postcode": "84900",
        "Location": "Taman Sri Nilam",
        "Post_Office": "Tangkak",
        "State": "Johor"
    },
    {
        "Postcode": "84900",
        "Location": "Taman Sri Tangkak",
        "Post_Office": "Tangkak",
        "State": "Johor"
    },
    {
        "Postcode": "84900",
        "Location": "Taman Tangkak 2",
        "Post_Office": "Tangkak",
        "State": "Johor"
    },
    {
        "Postcode": "84900",
        "Location": "Taman Tangkak Emas",
        "Post_Office": "Tangkak",
        "State": "Johor"
    },
    {
        "Postcode": "84900",
        "Location": "Taman Tangkak Jaya 1",
        "Post_Office": "Tangkak",
        "State": "Johor"
    },
    {
        "Postcode": "84900",
        "Location": "Taman Tangkak Jaya 2",
        "Post_Office": "Tangkak",
        "State": "Johor"
    },
    {
        "Postcode": "84900",
        "Location": "Taman Tangkak Jaya 3",
        "Post_Office": "Tangkak",
        "State": "Johor"
    },
    {
        "Postcode": "84900",
        "Location": "Taman Tangkak Jaya 4",
        "Post_Office": "Tangkak",
        "State": "Johor"
    },
    {
        "Postcode": "84900",
        "Location": "Taman Tangkak Jaya 5",
        "Post_Office": "Tangkak",
        "State": "Johor"
    },
    {
        "Postcode": "84900",
        "Location": "Taman Tangkak Jaya 6",
        "Post_Office": "Tangkak",
        "State": "Johor"
    },
    {
        "Postcode": "84900",
        "Location": "Taman Tasik Ria",
        "Post_Office": "Tangkak",
        "State": "Johor"
    },
    {
        "Postcode": "84900",
        "Location": "Taman Tiara 1",
        "Post_Office": "Tangkak",
        "State": "Johor"
    },
    {
        "Postcode": "84900",
        "Location": "Taman Tiara 4",
        "Post_Office": "Tangkak",
        "State": "Johor"
    },
    {
        "Postcode": "84900",
        "Location": "Taman Tiara 5",
        "Post_Office": "Tangkak",
        "State": "Johor"
    },
    {
        "Postcode": "84900",
        "Location": "Tangkak",
        "Post_Office": "Tangkak",
        "State": "Johor"
    },
    {
        "Postcode": "84900",
        "Location": "Tanjung Meranti",
        "Post_Office": "Tangkak",
        "State": "Johor"
    },
    {
        "Postcode": "84900",
        "Location": "Taman Pelangi 4",
        "Post_Office": "Tangkak",
        "State": "Johor"
    },
    {
        "Postcode": "84900",
        "Location": "Kampung Parit 1",
        "Post_Office": "Tangkak",
        "State": "Johor"
    },
    {
        "Postcode": "84900",
        "Location": "Kampung Parit 2",
        "Post_Office": "Tangkak",
        "State": "Johor"
    },
    {
        "Postcode": "84900",
        "Location": "Kampung Parit 3",
        "Post_Office": "Tangkak",
        "State": "Johor"
    },
    {
        "Postcode": "84900",
        "Location": "Taman Indah 1",
        "Post_Office": "Tangkak",
        "State": "Johor"
    },
    {
        "Postcode": "84900",
        "Location": "Taman Indah 2",
        "Post_Office": "Tangkak",
        "State": "Johor"
    },
    {
        "Postcode": "84900",
        "Location": "Taman Sri Jaya 1",
        "Post_Office": "Tangkak",
        "State": "Johor"
    },
    {
        "Postcode": "84900",
        "Location": "Jalan Manja",
        "Post_Office": "Tangkak",
        "State": "Johor"
    },
    {
        "Postcode": "84900",
        "Location": "Batu 17 1/2 Kampung Sialang",
        "Post_Office": "Tangkak",
        "State": "Johor"
    },
    {
        "Postcode": "84900",
        "Location": "Batu 18 Kampung Sialang",
        "Post_Office": "Tangkak",
        "State": "Johor"
    },
    {
        "Postcode": "84900",
        "Location": "Batu 19 Kampung Sialang",
        "Post_Office": "Tangkak",
        "State": "Johor"
    },
    {
        "Postcode": "84900",
        "Location": "Batu 8 1/2 Kampung Sialang",
        "Post_Office": "Tangkak",
        "State": "Johor"
    },
    {
        "Postcode": "84900",
        "Location": "Happy Garden",
        "Post_Office": "Tangkak",
        "State": "Johor"
    },
    {
        "Postcode": "84900",
        "Location": "Heights Tangkak",
        "Post_Office": "Tangkak",
        "State": "Johor"
    },
    {
        "Postcode": "84900",
        "Location": "Kampung Anjung Batu 15",
        "Post_Office": "Tangkak",
        "State": "Johor"
    },
    {
        "Postcode": "84900",
        "Location": "Kampung Anjung Batu 15 1/2",
        "Post_Office": "Tangkak",
        "State": "Johor"
    },
    {
        "Postcode": "84900",
        "Location": "Kampung Anjung Batu 16",
        "Post_Office": "Tangkak",
        "State": "Johor"
    },
    {
        "Postcode": "84900",
        "Location": "Kampung Bukit Kecil",
        "Post_Office": "Tangkak",
        "State": "Johor"
    },
    {
        "Postcode": "84900",
        "Location": "Kampung Cenas",
        "Post_Office": "Tangkak",
        "State": "Johor"
    },
    {
        "Postcode": "84900",
        "Location": "Kampung Dok Bekoh",
        "Post_Office": "Tangkak",
        "State": "Johor"
    },
    {
        "Postcode": "84900",
        "Location": "Kampung Padang Lerek",
        "Post_Office": "Tangkak",
        "State": "Johor"
    },
    {
        "Postcode": "84900",
        "Location": "Kampung Padang Lerek 1",
        "Post_Office": "Tangkak",
        "State": "Johor"
    },
    {
        "Postcode": "84900",
        "Location": "Kampung Paya Pupuk",
        "Post_Office": "Tangkak",
        "State": "Johor"
    },
    {
        "Postcode": "84900",
        "Location": "Kampung Payamas Batu 17",
        "Post_Office": "Tangkak",
        "State": "Johor"
    },
    {
        "Postcode": "84900",
        "Location": "Kampung Payamas Batu 17 1/2",
        "Post_Office": "Tangkak",
        "State": "Johor"
    },
    {
        "Postcode": "84900",
        "Location": "Kampung Sagil Parit 1",
        "Post_Office": "Tangkak",
        "State": "Johor"
    },
    {
        "Postcode": "84900",
        "Location": "Kampung Sagil Parit 1 Konggo",
        "Post_Office": "Tangkak",
        "State": "Johor"
    },
    {
        "Postcode": "84900",
        "Location": "Kampung Sagil Parit 2",
        "Post_Office": "Tangkak",
        "State": "Johor"
    },
    {
        "Postcode": "84900",
        "Location": "Kampung Sagil Parit 3",
        "Post_Office": "Tangkak",
        "State": "Johor"
    },
    {
        "Postcode": "84900",
        "Location": "Kampung Sialang Batu 18",
        "Post_Office": "Tangkak",
        "State": "Johor"
    },
    {
        "Postcode": "84900",
        "Location": "Kawasan Industri Tiara",
        "Post_Office": "Tangkak",
        "State": "Johor"
    },
    {
        "Postcode": "84900",
        "Location": "Ladang Tangkah",
        "Post_Office": "Tangkak",
        "State": "Johor"
    },
    {
        "Postcode": "84900",
        "Location": "Taman Bidara",
        "Post_Office": "Tangkak",
        "State": "Johor"
    },
    {
        "Postcode": "84900",
        "Location": "Taman Ikhtiari",
        "Post_Office": "Tangkak",
        "State": "Johor"
    },
    {
        "Postcode": "84900",
        "Location": "Taman Jaya Tangkak 4",
        "Post_Office": "Tangkak",
        "State": "Johor"
    },
    {
        "Postcode": "84900",
        "Location": "Taman Mahkota  3",
        "Post_Office": "Tangkak",
        "State": "Johor"
    },
    {
        "Postcode": "84900",
        "Location": "Taman Payamas 2",
        "Post_Office": "Tangkak",
        "State": "Johor"
    },
    {
        "Postcode": "84900",
        "Location": "Taman Payamas 3",
        "Post_Office": "Tangkak",
        "State": "Johor"
    },
    {
        "Postcode": "84900",
        "Location": "Taman Pemanis",
        "Post_Office": "Tangkak",
        "State": "Johor"
    },
    {
        "Postcode": "84900",
        "Location": "Taman Putera Sagil",
        "Post_Office": "Tangkak",
        "State": "Johor"
    },
    {
        "Postcode": "84900",
        "Location": "Taman Sialang 3",
        "Post_Office": "Tangkak",
        "State": "Johor"
    },
    {
        "Postcode": "84900",
        "Location": "Taman Sri Jaya 2",
        "Post_Office": "Tangkak",
        "State": "Johor"
    },
    {
        "Postcode": "84900",
        "Location": "Taman Tangkak Jaya",
        "Post_Office": "Tangkak",
        "State": "Johor"
    },
    {
        "Postcode": "84900",
        "Location": "Taman Tiara Fasa 3",
        "Post_Office": "Tangkak",
        "State": "Johor"
    },
    {
        "Postcode": "84900",
        "Location": "Tangkak Villa",
        "Post_Office": "Tangkak",
        "State": "Johor"
    },
    {
        "Postcode": "84900",
        "Location": "Taman Gunung Emas 3",
        "Post_Office": "Tangkak",
        "State": "Johor"
    },
    {
        "Postcode": "84900",
        "Location": "Taman Sialang 6",
        "Post_Office": "Tangkak",
        "State": "Johor"
    },
    {
        "Postcode": "84900",
        "Location": "Jalan Sawmill",
        "Post_Office": "Tangkak",
        "State": "Johor"
    },
    {
        "Postcode": "84900",
        "Location": "Kampung Batu 10",
        "Post_Office": "Tangkak",
        "State": "Johor"
    },
    {
        "Postcode": "84900",
        "Location": "Kampung Melepang",
        "Post_Office": "Tangkak",
        "State": "Johor"
    },
    {
        "Postcode": "84900",
        "Location": "Kampung Tanjung Laboh",
        "Post_Office": "Tangkak",
        "State": "Johor"
    },
    {
        "Postcode": "84900",
        "Location": "Taman Bandar",
        "Post_Office": "Tangkak",
        "State": "Johor"
    },
    {
        "Postcode": "84900",
        "Location": "Taman Ledang",
        "Post_Office": "Tangkak",
        "State": "Johor"
    },
    {
        "Postcode": "84900",
        "Location": "Taman Wawasan 2",
        "Post_Office": "Tangkak",
        "State": "Johor"
    },
    {
        "Postcode": "84900",
        "Location": "Jalan Padang Lalang",
        "Post_Office": "Tangkak",
        "State": "Johor"
    },
    {
        "Postcode": "84900",
        "Location": "Jalan Panggung Wayang",
        "Post_Office": "Tangkak",
        "State": "Johor"
    },
    {
        "Postcode": "84900",
        "Location": "Kampung Baru",
        "Post_Office": "Tangkak",
        "State": "Johor"
    },
    {
        "Postcode": "84900",
        "Location": "Kampung Tengah",
        "Post_Office": "Tangkak",
        "State": "Johor"
    },
    {
        "Postcode": "84900",
        "Location": "Taman Anggerik",
        "Post_Office": "Tangkak",
        "State": "Johor"
    },
    {
        "Postcode": "84900",
        "Location": "Taman Bahagia",
        "Post_Office": "Tangkak",
        "State": "Johor"
    },
    {
        "Postcode": "84900",
        "Location": "Taman Damai",
        "Post_Office": "Tangkak",
        "State": "Johor"
    },
    {
        "Postcode": "84900",
        "Location": "Taman Fajar",
        "Post_Office": "Tangkak",
        "State": "Johor"
    },
    {
        "Postcode": "84900",
        "Location": "Taman Indah",
        "Post_Office": "Tangkak",
        "State": "Johor"
    },
    {
        "Postcode": "84900",
        "Location": "Taman Intan",
        "Post_Office": "Tangkak",
        "State": "Johor"
    },
    {
        "Postcode": "84900",
        "Location": "Taman Mewah",
        "Post_Office": "Tangkak",
        "State": "Johor"
    },
    {
        "Postcode": "84900",
        "Location": "Taman Nilam",
        "Post_Office": "Tangkak",
        "State": "Johor"
    },
    {
        "Postcode": "84900",
        "Location": "Taman Pelangi",
        "Post_Office": "Tangkak",
        "State": "Johor"
    },
    {
        "Postcode": "84900",
        "Location": "Taman Ria",
        "Post_Office": "Tangkak",
        "State": "Johor"
    },
    {
        "Postcode": "84900",
        "Location": "Taman Bintang",
        "Post_Office": "Tangkak",
        "State": "Johor"
    },
    {
        "Postcode": "84900",
        "Location": "Taman Gunung Emas",
        "Post_Office": "Tangkak",
        "State": "Johor"
    },
    {
        "Postcode": "84900",
        "Location": "Taman Mutiara",
        "Post_Office": "Tangkak",
        "State": "Johor"
    },
    {
        "Postcode": "84900",
        "Location": "Taman Sentosa",
        "Post_Office": "Tangkak",
        "State": "Johor"
    },
    {
        "Postcode": "84900",
        "Location": "Taman Tiara",
        "Post_Office": "Tangkak",
        "State": "Johor"
    },
    {
        "Postcode": "84900",
        "Location": "Taman Wawasan",
        "Post_Office": "Tangkak",
        "State": "Johor"
    }
]
