[
    {
        "Postcode": "22000",
        "Location": "Kampung Bukit Kenak",
        "Post_Office": "Jerteh",
        "State": "Terengganu"
    },
    {
        "Postcode": "22000",
        "Location": "Kampung Baru",
        "Post_Office": "Jerteh",
        "State": "Terengganu"
    },
    {
        "Postcode": "22000",
        "Location": "Kampung Gong Nangka",
        "Post_Office": "Jerteh",
        "State": "Terengganu"
    },
    {
        "Postcode": "22000",
        "Location": "Taman Bakti",
        "Post_Office": "Jerteh",
        "State": "Terengganu"
    },
    {
        "Postcode": "22000",
        "Location": "Felda Tenang",
        "Post_Office": "Jerteh",
        "State": "Terengganu"
    },
    {
        "Postcode": "22000",
        "Location": "Kampung Air Terjun",
        "Post_Office": "Jerteh",
        "State": "Terengganu"
    },
    {
        "Postcode": "22000",
        "Location": "Kampung Padang Baloh",
        "Post_Office": "Jerteh",
        "State": "Terengganu"
    },
    {
        "Postcode": "22000",
        "Location": "Kampung Bukit Tempurung",
        "Post_Office": "Jerteh",
        "State": "Terengganu"
    },
    {
        "Postcode": "22000",
        "Location": "Kampung Gong Duik",
        "Post_Office": "Jerteh",
        "State": "Terengganu"
    },
    {
        "Postcode": "22000",
        "Location": "Kampung Gong Lilit",
        "Post_Office": "Jerteh",
        "State": "Terengganu"
    },
    {
        "Postcode": "22000",
        "Location": "Kampung Anak Ikan",
        "Post_Office": "Jerteh",
        "State": "Terengganu"
    },
    {
        "Postcode": "22000",
        "Location": "Kampung Cherang Melintang",
        "Post_Office": "Jerteh",
        "State": "Terengganu"
    },
    {
        "Postcode": "22000",
        "Location": "Kampung Telaga Nibung",
        "Post_Office": "Jerteh",
        "State": "Terengganu"
    },
    {
        "Postcode": "22000",
        "Location": "Kampung Lak Lok",
        "Post_Office": "Jerteh",
        "State": "Terengganu"
    },
    {
        "Postcode": "22000",
        "Location": "Kampung Lubuk Kawah",
        "Post_Office": "Jerteh",
        "State": "Terengganu"
    },
    {
        "Postcode": "22000",
        "Location": "Kampung Oh",
        "Post_Office": "Jerteh",
        "State": "Terengganu"
    },
    {
        "Postcode": "22000",
        "Location": "Kampung Pasir Tawar",
        "Post_Office": "Jerteh",
        "State": "Terengganu"
    },
    {
        "Postcode": "22000",
        "Location": "Kampung Tasik Mengkuang",
        "Post_Office": "Jerteh",
        "State": "Terengganu"
    },
    {
        "Postcode": "22000",
        "Location": "Kampung Tempinis",
        "Post_Office": "Jerteh",
        "State": "Terengganu"
    },
    {
        "Postcode": "22000",
        "Location": "Kampung Alor Lintah",
        "Post_Office": "Jerteh",
        "State": "Terengganu"
    },
    {
        "Postcode": "22000",
        "Location": "Kampung Anak Musang",
        "Post_Office": "Jerteh",
        "State": "Terengganu"
    },
    {
        "Postcode": "22000",
        "Location": "Kampung Apal",
        "Post_Office": "Jerteh",
        "State": "Terengganu"
    },
    {
        "Postcode": "22000",
        "Location": "Kampung Bakat",
        "Post_Office": "Jerteh",
        "State": "Terengganu"
    },
    {
        "Postcode": "22000",
        "Location": "Kampung Bekok",
        "Post_Office": "Jerteh",
        "State": "Terengganu"
    },
    {
        "Postcode": "22000",
        "Location": "Kampung Belaoh",
        "Post_Office": "Jerteh",
        "State": "Terengganu"
    },
    {
        "Postcode": "22000",
        "Location": "Kampung Bukit Cina",
        "Post_Office": "Jerteh",
        "State": "Terengganu"
    },
    {
        "Postcode": "22000",
        "Location": "Kampung Gong Nering",
        "Post_Office": "Jerteh",
        "State": "Terengganu"
    },
    {
        "Postcode": "22000",
        "Location": "Kampung Gong Pasir Oh",
        "Post_Office": "Jerteh",
        "State": "Terengganu"
    },
    {
        "Postcode": "22000",
        "Location": "Kampung Gong Penaga Jabi",
        "Post_Office": "Jerteh",
        "State": "Terengganu"
    },
    {
        "Postcode": "22000",
        "Location": "Kampung Kerandang",
        "Post_Office": "Jerteh",
        "State": "Terengganu"
    },
    {
        "Postcode": "22000",
        "Location": "Kampung Lay Out (Jabi)",
        "Post_Office": "Jerteh",
        "State": "Terengganu"
    },
    {
        "Postcode": "22000",
        "Location": "Kampung Lepan Kejur",
        "Post_Office": "Jerteh",
        "State": "Terengganu"
    },
    {
        "Postcode": "22000",
        "Location": "Kampung Pancur",
        "Post_Office": "Jerteh",
        "State": "Terengganu"
    },
    {
        "Postcode": "22000",
        "Location": "Kampung Pulau Berangan",
        "Post_Office": "Jerteh",
        "State": "Terengganu"
    },
    {
        "Postcode": "22000",
        "Location": "Taman Sri Sepakat",
        "Post_Office": "Jerteh",
        "State": "Terengganu"
    },
    {
        "Postcode": "22000",
        "Location": "Felda Selasih",
        "Post_Office": "Jerteh",
        "State": "Terengganu"
    },
    {
        "Postcode": "22000",
        "Location": "Kampung Air Hangat",
        "Post_Office": "Jerteh",
        "State": "Terengganu"
    },
    {
        "Postcode": "22000",
        "Location": "Kampung Air Puteh",
        "Post_Office": "Jerteh",
        "State": "Terengganu"
    },
    {
        "Postcode": "22000",
        "Location": "Kampung Batang Gergaji",
        "Post_Office": "Jerteh",
        "State": "Terengganu"
    },
    {
        "Postcode": "22000",
        "Location": "Kampung Batu Balai",
        "Post_Office": "Jerteh",
        "State": "Terengganu"
    },
    {
        "Postcode": "22000",
        "Location": "Kampung Berangan",
        "Post_Office": "Jerteh",
        "State": "Terengganu"
    },
    {
        "Postcode": "22000",
        "Location": "Kampung Bukit Renek",
        "Post_Office": "Jerteh",
        "State": "Terengganu"
    },
    {
        "Postcode": "22000",
        "Location": "Kampung Cegar Batang",
        "Post_Office": "Jerteh",
        "State": "Terengganu"
    },
    {
        "Postcode": "22000",
        "Location": "Kampung Cegar Malok",
        "Post_Office": "Jerteh",
        "State": "Terengganu"
    },
    {
        "Postcode": "22000",
        "Location": "Kampung Cerang Meliling",
        "Post_Office": "Jerteh",
        "State": "Terengganu"
    },
    {
        "Postcode": "22000",
        "Location": "Kampung Dengir",
        "Post_Office": "Jerteh",
        "State": "Terengganu"
    },
    {
        "Postcode": "22000",
        "Location": "Kampung Durian Kunyit",
        "Post_Office": "Jerteh",
        "State": "Terengganu"
    },
    {
        "Postcode": "22000",
        "Location": "Kampung Gong Berangan",
        "Post_Office": "Jerteh",
        "State": "Terengganu"
    },
    {
        "Postcode": "22000",
        "Location": "Kampung Gong Dasar",
        "Post_Office": "Jerteh",
        "State": "Terengganu"
    },
    {
        "Postcode": "22000",
        "Location": "Kampung Gong Kemuntong",
        "Post_Office": "Jerteh",
        "State": "Terengganu"
    },
    {
        "Postcode": "22000",
        "Location": "Kampung Gong Kulim",
        "Post_Office": "Jerteh",
        "State": "Terengganu"
    },
    {
        "Postcode": "22000",
        "Location": "Kampung Gong Mak Som",
        "Post_Office": "Jerteh",
        "State": "Terengganu"
    },
    {
        "Postcode": "22000",
        "Location": "Kampung Gong Pasir Kerandang",
        "Post_Office": "Jerteh",
        "State": "Terengganu"
    },
    {
        "Postcode": "22000",
        "Location": "Kampung Gong Resam",
        "Post_Office": "Jerteh",
        "State": "Terengganu"
    },
    {
        "Postcode": "22000",
        "Location": "Kampung Gong Tok Tor",
        "Post_Office": "Jerteh",
        "State": "Terengganu"
    },
    {
        "Postcode": "22000",
        "Location": "Kampung Jawik",
        "Post_Office": "Jerteh",
        "State": "Terengganu"
    },
    {
        "Postcode": "22000",
        "Location": "Kampung Jebak Puyuh",
        "Post_Office": "Jerteh",
        "State": "Terengganu"
    },
    {
        "Postcode": "22000",
        "Location": "Kampung Kuala Kubang",
        "Post_Office": "Jerteh",
        "State": "Terengganu"
    },
    {
        "Postcode": "22000",
        "Location": "Kampung Kubang Depu",
        "Post_Office": "Jerteh",
        "State": "Terengganu"
    },
    {
        "Postcode": "22000",
        "Location": "Kampung Kubang Siam",
        "Post_Office": "Jerteh",
        "State": "Terengganu"
    },
    {
        "Postcode": "22000",
        "Location": "Kampung Lembah",
        "Post_Office": "Jerteh",
        "State": "Terengganu"
    },
    {
        "Postcode": "22000",
        "Location": "Kampung Mak Sara",
        "Post_Office": "Jerteh",
        "State": "Terengganu"
    },
    {
        "Postcode": "22000",
        "Location": "Kampung Pasir Badak",
        "Post_Office": "Jerteh",
        "State": "Terengganu"
    },
    {
        "Postcode": "22000",
        "Location": "Kampung Pengkalan Sentol",
        "Post_Office": "Jerteh",
        "State": "Terengganu"
    },
    {
        "Postcode": "22000",
        "Location": "Kampung Pulau Rimau",
        "Post_Office": "Jerteh",
        "State": "Terengganu"
    },
    {
        "Postcode": "22000",
        "Location": "Kampung Renek",
        "Post_Office": "Jerteh",
        "State": "Terengganu"
    },
    {
        "Postcode": "22000",
        "Location": "Kampung Seberang Jerteh",
        "Post_Office": "Jerteh",
        "State": "Terengganu"
    },
    {
        "Postcode": "22000",
        "Location": "Kampung Seberang Sungai Gali",
        "Post_Office": "Jerteh",
        "State": "Terengganu"
    },
    {
        "Postcode": "22000",
        "Location": "Kampung Tasik Tok Lebai",
        "Post_Office": "Jerteh",
        "State": "Terengganu"
    },
    {
        "Postcode": "22000",
        "Location": "Kampung Tok Has",
        "Post_Office": "Jerteh",
        "State": "Terengganu"
    },
    {
        "Postcode": "22000",
        "Location": "Kampung Tok Raja",
        "Post_Office": "Jerteh",
        "State": "Terengganu"
    },
    {
        "Postcode": "22000",
        "Location": "Lapangan Terbang Gong Kedak",
        "Post_Office": "Jerteh",
        "State": "Terengganu"
    },
    {
        "Postcode": "22000",
        "Location": "Taman Aman",
        "Post_Office": "Jerteh",
        "State": "Terengganu"
    },
    {
        "Postcode": "22000",
        "Location": "Taman Anak Ikan",
        "Post_Office": "Jerteh",
        "State": "Terengganu"
    },
    {
        "Postcode": "22000",
        "Location": "Taman Bistari",
        "Post_Office": "Jerteh",
        "State": "Terengganu"
    },
    {
        "Postcode": "22000",
        "Location": "Taman D Isma",
        "Post_Office": "Jerteh",
        "State": "Terengganu"
    },
    {
        "Postcode": "22000",
        "Location": "Taman D Said",
        "Post_Office": "Jerteh",
        "State": "Terengganu"
    },
    {
        "Postcode": "22000",
        "Location": "Taman D Tijah",
        "Post_Office": "Jerteh",
        "State": "Terengganu"
    },
    {
        "Postcode": "22000",
        "Location": "Taman Gong Gondek",
        "Post_Office": "Jerteh",
        "State": "Terengganu"
    },
    {
        "Postcode": "22000",
        "Location": "Taman Jabi Putra",
        "Post_Office": "Jerteh",
        "State": "Terengganu"
    },
    {
        "Postcode": "22000",
        "Location": "Taman Kukuh Aman",
        "Post_Office": "Jerteh",
        "State": "Terengganu"
    },
    {
        "Postcode": "22000",
        "Location": "Taman Nyior 7",
        "Post_Office": "Jerteh",
        "State": "Terengganu"
    },
    {
        "Postcode": "22000",
        "Location": "Taman Pelagat 3",
        "Post_Office": "Jerteh",
        "State": "Terengganu"
    },
    {
        "Postcode": "22000",
        "Location": "Taman Puteri",
        "Post_Office": "Jerteh",
        "State": "Terengganu"
    },
    {
        "Postcode": "22000",
        "Location": "Taman Putri",
        "Post_Office": "Jerteh",
        "State": "Terengganu"
    },
    {
        "Postcode": "22000",
        "Location": "Taman Selasih Dua",
        "Post_Office": "Jerteh",
        "State": "Terengganu"
    },
    {
        "Postcode": "22000",
        "Location": "Taman Semerak Kampung Renek",
        "Post_Office": "Jerteh",
        "State": "Terengganu"
    },
    {
        "Postcode": "22000",
        "Location": "Taman Sri Jaya",
        "Post_Office": "Jerteh",
        "State": "Terengganu"
    },
    {
        "Postcode": "22000",
        "Location": "Taman Tuah Jaya",
        "Post_Office": "Jerteh",
        "State": "Terengganu"
    },
    {
        "Postcode": "22000",
        "Location": "Taman Tuan Jaya",
        "Post_Office": "Jerteh",
        "State": "Terengganu"
    },
    {
        "Postcode": "22000",
        "Location": "Bukit Kenak",
        "Post_Office": "Jerteh",
        "State": "Terengganu"
    },
    {
        "Postcode": "22000",
        "Location": "Bukit Puteri",
        "Post_Office": "Jerteh",
        "State": "Terengganu"
    },
    {
        "Postcode": "22000",
        "Location": "Felda Selaseh",
        "Post_Office": "Jerteh",
        "State": "Terengganu"
    },
    {
        "Postcode": "22000",
        "Location": "Jerteh",
        "Post_Office": "Jerteh",
        "State": "Terengganu"
    },
    {
        "Postcode": "22000",
        "Location": "Kampung Alor Belanga",
        "Post_Office": "Jerteh",
        "State": "Terengganu"
    },
    {
        "Postcode": "22000",
        "Location": "Kampung Alor Keladi",
        "Post_Office": "Jerteh",
        "State": "Terengganu"
    },
    {
        "Postcode": "22000",
        "Location": "Kampung Alor Selising",
        "Post_Office": "Jerteh",
        "State": "Terengganu"
    },
    {
        "Postcode": "22000",
        "Location": "Kampung Awek Darau",
        "Post_Office": "Jerteh",
        "State": "Terengganu"
    },
    {
        "Postcode": "22000",
        "Location": "Kampung Baruh Mesin",
        "Post_Office": "Jerteh",
        "State": "Terengganu"
    },
    {
        "Postcode": "22000",
        "Location": "Kampung Berhala Tambun",
        "Post_Office": "Jerteh",
        "State": "Terengganu"
    },
    {
        "Postcode": "22000",
        "Location": "Kampung Beris Pak Abu",
        "Post_Office": "Jerteh",
        "State": "Terengganu"
    },
    {
        "Postcode": "22000",
        "Location": "Kampung Dalam Huma",
        "Post_Office": "Jerteh",
        "State": "Terengganu"
    },
    {
        "Postcode": "22000",
        "Location": "Kampung Darau",
        "Post_Office": "Jerteh",
        "State": "Terengganu"
    },
    {
        "Postcode": "22000",
        "Location": "Kampung Denger",
        "Post_Office": "Jerteh",
        "State": "Terengganu"
    },
    {
        "Postcode": "22000",
        "Location": "Kampung Durian Merkah",
        "Post_Office": "Jerteh",
        "State": "Terengganu"
    },
    {
        "Postcode": "22000",
        "Location": "Kampung Durian Telor",
        "Post_Office": "Jerteh",
        "State": "Terengganu"
    },
    {
        "Postcode": "22000",
        "Location": "Kampung Gegar Batang",
        "Post_Office": "Jerteh",
        "State": "Terengganu"
    },
    {
        "Postcode": "22000",
        "Location": "Kampung Gerai Muda",
        "Post_Office": "Jerteh",
        "State": "Terengganu"
    },
    {
        "Postcode": "22000",
        "Location": "Kampung Gerai Tua",
        "Post_Office": "Jerteh",
        "State": "Terengganu"
    },
    {
        "Postcode": "22000",
        "Location": "Kampung Gong Badang",
        "Post_Office": "Jerteh",
        "State": "Terengganu"
    },
    {
        "Postcode": "22000",
        "Location": "Kampung Gong Chenerai",
        "Post_Office": "Jerteh",
        "State": "Terengganu"
    },
    {
        "Postcode": "22000",
        "Location": "Kampung Gong Guchil",
        "Post_Office": "Jerteh",
        "State": "Terengganu"
    },
    {
        "Postcode": "22000",
        "Location": "Kampung Gong Jaga",
        "Post_Office": "Jerteh",
        "State": "Terengganu"
    },
    {
        "Postcode": "22000",
        "Location": "Kampung Gong Mat Som",
        "Post_Office": "Jerteh",
        "State": "Terengganu"
    },
    {
        "Postcode": "22000",
        "Location": "Kampung Gong Pak Cheng",
        "Post_Office": "Jerteh",
        "State": "Terengganu"
    },
    {
        "Postcode": "22000",
        "Location": "Kampung Gong Pasir",
        "Post_Office": "Jerteh",
        "State": "Terengganu"
    },
    {
        "Postcode": "22000",
        "Location": "Kampung Gong Rengas",
        "Post_Office": "Jerteh",
        "State": "Terengganu"
    },
    {
        "Postcode": "22000",
        "Location": "Kampung Gong Tanah Merah",
        "Post_Office": "Jerteh",
        "State": "Terengganu"
    },
    {
        "Postcode": "22000",
        "Location": "Kampung Gong Terap",
        "Post_Office": "Jerteh",
        "State": "Terengganu"
    },
    {
        "Postcode": "22000",
        "Location": "Kampung Hutan Nangka",
        "Post_Office": "Jerteh",
        "State": "Terengganu"
    },
    {
        "Postcode": "22000",
        "Location": "Kampung Kolam Jerteh",
        "Post_Office": "Jerteh",
        "State": "Terengganu"
    },
    {
        "Postcode": "22000",
        "Location": "Kampung Kubang Bemban",
        "Post_Office": "Jerteh",
        "State": "Terengganu"
    },
    {
        "Postcode": "22000",
        "Location": "Kampung Lapan Kotak",
        "Post_Office": "Jerteh",
        "State": "Terengganu"
    },
    {
        "Postcode": "22000",
        "Location": "Kampung Nyior Tujuh",
        "Post_Office": "Jerteh",
        "State": "Terengganu"
    },
    {
        "Postcode": "22000",
        "Location": "Kampung Padang Landak",
        "Post_Office": "Jerteh",
        "State": "Terengganu"
    },
    {
        "Postcode": "22000",
        "Location": "Kampung Padang Luas",
        "Post_Office": "Jerteh",
        "State": "Terengganu"
    },
    {
        "Postcode": "22000",
        "Location": "Kampung Pak Da Malik",
        "Post_Office": "Jerteh",
        "State": "Terengganu"
    },
    {
        "Postcode": "22000",
        "Location": "Kampung Pak Wong",
        "Post_Office": "Jerteh",
        "State": "Terengganu"
    },
    {
        "Postcode": "22000",
        "Location": "Kampung Paroh",
        "Post_Office": "Jerteh",
        "State": "Terengganu"
    },
    {
        "Postcode": "22000",
        "Location": "Kampung Pasir Akar",
        "Post_Office": "Jerteh",
        "State": "Terengganu"
    },
    {
        "Postcode": "22000",
        "Location": "Kampung Pekakok",
        "Post_Office": "Jerteh",
        "State": "Terengganu"
    },
    {
        "Postcode": "22000",
        "Location": "Kampung Pelagat",
        "Post_Office": "Jerteh",
        "State": "Terengganu"
    },
    {
        "Postcode": "22000",
        "Location": "Kampung Pengkalan Setol",
        "Post_Office": "Jerteh",
        "State": "Terengganu"
    },
    {
        "Postcode": "22000",
        "Location": "Kampung Pondok Paku",
        "Post_Office": "Jerteh",
        "State": "Terengganu"
    },
    {
        "Postcode": "22000",
        "Location": "Kampung Pulai Rimau",
        "Post_Office": "Jerteh",
        "State": "Terengganu"
    },
    {
        "Postcode": "22000",
        "Location": "Kampung Pulau Panjang",
        "Post_Office": "Jerteh",
        "State": "Terengganu"
    },
    {
        "Postcode": "22000",
        "Location": "Kampung Pulau Ribu",
        "Post_Office": "Jerteh",
        "State": "Terengganu"
    },
    {
        "Postcode": "22000",
        "Location": "Kampung Pusu Tinggi",
        "Post_Office": "Jerteh",
        "State": "Terengganu"
    },
    {
        "Postcode": "22000",
        "Location": "Kampung Seberang Panggong",
        "Post_Office": "Jerteh",
        "State": "Terengganu"
    },
    {
        "Postcode": "22000",
        "Location": "Kampung Tanah Merah",
        "Post_Office": "Jerteh",
        "State": "Terengganu"
    },
    {
        "Postcode": "22000",
        "Location": "Kampung Tanjong Alir",
        "Post_Office": "Jerteh",
        "State": "Terengganu"
    },
    {
        "Postcode": "22000",
        "Location": "Kampung Tasek",
        "Post_Office": "Jerteh",
        "State": "Terengganu"
    },
    {
        "Postcode": "22000",
        "Location": "Kampung Telok",
        "Post_Office": "Jerteh",
        "State": "Terengganu"
    },
    {
        "Postcode": "22000",
        "Location": "Kampung Tok Dat",
        "Post_Office": "Jerteh",
        "State": "Terengganu"
    },
    {
        "Postcode": "22000",
        "Location": "Kampung Tok Motong",
        "Post_Office": "Jerteh",
        "State": "Terengganu"
    },
    {
        "Postcode": "22000",
        "Location": "Pasir Akar",
        "Post_Office": "Jerteh",
        "State": "Terengganu"
    },
    {
        "Postcode": "22000",
        "Location": "Taman Desa Aman",
        "Post_Office": "Jerteh",
        "State": "Terengganu"
    },
    {
        "Postcode": "22000",
        "Location": "Taman Desa Saujana",
        "Post_Office": "Jerteh",
        "State": "Terengganu"
    },
    {
        "Postcode": "22000",
        "Location": "Taman Desa Sepakat",
        "Post_Office": "Jerteh",
        "State": "Terengganu"
    },
    {
        "Postcode": "22000",
        "Location": "Taman Desa Tani",
        "Post_Office": "Jerteh",
        "State": "Terengganu"
    },
    {
        "Postcode": "22000",
        "Location": "Taman Desa Tanjung",
        "Post_Office": "Jerteh",
        "State": "Terengganu"
    },
    {
        "Postcode": "22000",
        "Location": "Taman Pelagat",
        "Post_Office": "Jerteh",
        "State": "Terengganu"
    },
    {
        "Postcode": "22000",
        "Location": "Taman Saujana",
        "Post_Office": "Jerteh",
        "State": "Terengganu"
    },
    {
        "Postcode": "22000",
        "Location": "Taman Seri Nering",
        "Post_Office": "Jerteh",
        "State": "Terengganu"
    },
    {
        "Postcode": "22000",
        "Location": "Taman Teratur",
        "Post_Office": "Jerteh",
        "State": "Terengganu"
    },
    {
        "Postcode": "22000",
        "Location": "Taman Tuah",
        "Post_Office": "Jerteh",
        "State": "Terengganu"
    },
    {
        "Postcode": "22000",
        "Location": "Tok Kundur",
        "Post_Office": "Jerteh",
        "State": "Terengganu"
    },
    {
        "Postcode": "22000",
        "Location": "Tudm Bukit Putri",
        "Post_Office": "Jerteh",
        "State": "Terengganu"
    },
    {
        "Postcode": "22000",
        "Location": "Kampung Balik Bukit",
        "Post_Office": "Jerteh",
        "State": "Terengganu"
    },
    {
        "Postcode": "22000",
        "Location": "Kampung Gong Penaga",
        "Post_Office": "Jerteh",
        "State": "Terengganu"
    },
    {
        "Postcode": "22000",
        "Location": "Kampung Kayu Kelat",
        "Post_Office": "Jerteh",
        "State": "Terengganu"
    },
    {
        "Postcode": "22000",
        "Location": "Taman Desa Permai",
        "Post_Office": "Jerteh",
        "State": "Terengganu"
    },
    {
        "Postcode": "22000",
        "Location": "Taman Jaya",
        "Post_Office": "Jerteh",
        "State": "Terengganu"
    }
]
