[
    {
        "Postcode": "22010",
        "Location": "Bukit Payong (Jerteh)",
        "Post_Office": "Jerteh",
        "State": "Terengganu"
    },
    {
        "Postcode": "22010",
        "Location": "Felcra Keruak",
        "Post_Office": "Jerteh",
        "State": "Terengganu"
    },
    {
        "Postcode": "22010",
        "Location": "Kampung Bukit Mali",
        "Post_Office": "Jerteh",
        "State": "Terengganu"
    },
    {
        "Postcode": "22010",
        "Location": "Kampung Bukit Payong",
        "Post_Office": "Jerteh",
        "State": "Terengganu"
    },
    {
        "Postcode": "22010",
        "Location": "Kampung Cawangan",
        "Post_Office": "Jerteh",
        "State": "Terengganu"
    },
    {
        "Postcode": "22010",
        "Location": "Kampung Dengir Tenang",
        "Post_Office": "Jerteh",
        "State": "Terengganu"
    },
    {
        "Postcode": "22010",
        "Location": "Kampung Keruak",
        "Post_Office": "Jerteh",
        "State": "Terengganu"
    },
    {
        "Postcode": "22010",
        "Location": "Kampung Kuala Sayak",
        "Post_Office": "Jerteh",
        "State": "Terengganu"
    },
    {
        "Postcode": "22010",
        "Location": "Kampung La",
        "Post_Office": "Jerteh",
        "State": "Terengganu"
    },
    {
        "Postcode": "22010",
        "Location": "Kampung Mata Ayer",
        "Post_Office": "Jerteh",
        "State": "Terengganu"
    },
    {
        "Postcode": "22010",
        "Location": "Kampung Padang Bual",
        "Post_Office": "Jerteh",
        "State": "Terengganu"
    },
    {
        "Postcode": "22010",
        "Location": "Kampung Seberang Lalang",
        "Post_Office": "Jerteh",
        "State": "Terengganu"
    }
]
