[
    {
        "Postcode": "22020",
        "Location": "Bukit Jerok",
        "Post_Office": "Jerteh",
        "State": "Terengganu"
    },
    {
        "Postcode": "22020",
        "Location": "Jabi",
        "Post_Office": "Jerteh",
        "State": "Terengganu"
    },
    {
        "Postcode": "22020",
        "Location": "Kampung Baru Tok Dor",
        "Post_Office": "Jerteh",
        "State": "Terengganu"
    },
    {
        "Postcode": "22020",
        "Location": "Kampung Gong Pasir Jabi",
        "Post_Office": "Jerteh",
        "State": "Terengganu"
    },
    {
        "Postcode": "22020",
        "Location": "Kampung Kepala Gajah",
        "Post_Office": "Jerteh",
        "State": "Terengganu"
    },
    {
        "Postcode": "22020",
        "Location": "Kampung Kuala Lubang",
        "Post_Office": "Jerteh",
        "State": "Terengganu"
    },
    {
        "Postcode": "22020",
        "Location": "Kampung Padang Lengkuas",
        "Post_Office": "Jerteh",
        "State": "Terengganu"
    },
    {
        "Postcode": "22020",
        "Location": "Kampung Pohon Tar",
        "Post_Office": "Jerteh",
        "State": "Terengganu"
    },
    {
        "Postcode": "22020",
        "Location": "Kampung Pulau Kala",
        "Post_Office": "Jerteh",
        "State": "Terengganu"
    },
    {
        "Postcode": "22020",
        "Location": "Kampung Tok Dor",
        "Post_Office": "Jerteh",
        "State": "Terengganu"
    }
]
