[
    {
        "Postcode": "22100",
        "Location": "Kampung Bukit Kemudu",
        "Post_Office": "Permaisuri",
        "State": "Terengganu"
    },
    {
        "Postcode": "22100",
        "Location": "Kampung Guntung",
        "Post_Office": "Permaisuri",
        "State": "Terengganu"
    },
    {
        "Postcode": "22100",
        "Location": "Kampung Guntung Dalam",
        "Post_Office": "Permaisuri",
        "State": "Terengganu"
    },
    {
        "Postcode": "22100",
        "Location": "Kampung Guntung Luar",
        "Post_Office": "Permaisuri",
        "State": "Terengganu"
    },
    {
        "Postcode": "22100",
        "Location": "Kampung Rhu Sepuluh",
        "Post_Office": "Permaisuri",
        "State": "Terengganu"
    },
    {
        "Postcode": "22100",
        "Location": "Kampung Seladang",
        "Post_Office": "Permaisuri",
        "State": "Terengganu"
    },
    {
        "Postcode": "22100",
        "Location": "Kampung Tasik",
        "Post_Office": "Permaisuri",
        "State": "Terengganu"
    },
    {
        "Postcode": "22100",
        "Location": "Kampung Beris Tok Ku",
        "Post_Office": "Permaisuri",
        "State": "Terengganu"
    },
    {
        "Postcode": "22100",
        "Location": "Kampung Binjai Manis",
        "Post_Office": "Permaisuri",
        "State": "Terengganu"
    },
    {
        "Postcode": "22100",
        "Location": "Kampung Bukit Chalok ",
        "Post_Office": "Permaisuri",
        "State": "Terengganu"
    },
    {
        "Postcode": "22100",
        "Location": "Kampung Che Mohid",
        "Post_Office": "Permaisuri",
        "State": "Terengganu"
    },
    {
        "Postcode": "22100",
        "Location": "Kampung Fikri",
        "Post_Office": "Permaisuri",
        "State": "Terengganu"
    },
    {
        "Postcode": "22100",
        "Location": "Felcra Pancur Merah",
        "Post_Office": "Permaisuri",
        "State": "Terengganu"
    },
    {
        "Postcode": "22100",
        "Location": "Kampung Air Sejuk",
        "Post_Office": "Permaisuri",
        "State": "Terengganu"
    },
    {
        "Postcode": "22100",
        "Location": "Kampung Bukit  Maras",
        "Post_Office": "Permaisuri",
        "State": "Terengganu"
    },
    {
        "Postcode": "22100",
        "Location": "Kampung Bukit Maras",
        "Post_Office": "Permaisuri",
        "State": "Terengganu"
    },
    {
        "Postcode": "22100",
        "Location": "Kampung Merang",
        "Post_Office": "Permaisuri",
        "State": "Terengganu"
    },
    {
        "Postcode": "22100",
        "Location": "Kampung Pandan Jaya",
        "Post_Office": "Permaisuri",
        "State": "Terengganu"
    },
    {
        "Postcode": "22100",
        "Location": "Kampung Pengkalan  Gelap",
        "Post_Office": "Permaisuri",
        "State": "Terengganu"
    },
    {
        "Postcode": "22100",
        "Location": "Kampung Pengkalan Gelap",
        "Post_Office": "Permaisuri",
        "State": "Terengganu"
    },
    {
        "Postcode": "22100",
        "Location": "Putera Jaya",
        "Post_Office": "Permaisuri",
        "State": "Terengganu"
    },
    {
        "Postcode": "22100",
        "Location": "Lorong Senayong",
        "Post_Office": "Permaisuri",
        "State": "Terengganu"
    },
    {
        "Postcode": "22100",
        "Location": "Lorong Senayong Saujana",
        "Post_Office": "Permaisuri",
        "State": "Terengganu"
    },
    {
        "Postcode": "22100",
        "Location": "Balik Bukit",
        "Post_Office": "Permaisuri",
        "State": "Terengganu"
    },
    {
        "Postcode": "22100",
        "Location": "Bukit Pari",
        "Post_Office": "Permaisuri",
        "State": "Terengganu"
    },
    {
        "Postcode": "22100",
        "Location": "Bukit Pelong",
        "Post_Office": "Permaisuri",
        "State": "Terengganu"
    },
    {
        "Postcode": "22100",
        "Location": "Jalan Penarik",
        "Post_Office": "Permaisuri",
        "State": "Terengganu"
    },
    {
        "Postcode": "22100",
        "Location": "Jalan Ulu Serdang",
        "Post_Office": "Permaisuri",
        "State": "Terengganu"
    },
    {
        "Postcode": "22100",
        "Location": "Kampung Alor Pasir",
        "Post_Office": "Permaisuri",
        "State": "Terengganu"
    },
    {
        "Postcode": "22100",
        "Location": "Kampung Alor Serdang",
        "Post_Office": "Permaisuri",
        "State": "Terengganu"
    },
    {
        "Postcode": "22100",
        "Location": "Kampung Apek",
        "Post_Office": "Permaisuri",
        "State": "Terengganu"
    },
    {
        "Postcode": "22100",
        "Location": "Kampung Bahagia",
        "Post_Office": "Permaisuri",
        "State": "Terengganu"
    },
    {
        "Postcode": "22100",
        "Location": "Kampung Banggol",
        "Post_Office": "Permaisuri",
        "State": "Terengganu"
    },
    {
        "Postcode": "22100",
        "Location": "Kampung Bari Kecil",
        "Post_Office": "Permaisuri",
        "State": "Terengganu"
    },
    {
        "Postcode": "22100",
        "Location": "Kampung Besut",
        "Post_Office": "Permaisuri",
        "State": "Terengganu"
    },
    {
        "Postcode": "22100",
        "Location": "Kampung Bintang",
        "Post_Office": "Permaisuri",
        "State": "Terengganu"
    },
    {
        "Postcode": "22100",
        "Location": "Kampung Bukit Pelong",
        "Post_Office": "Permaisuri",
        "State": "Terengganu"
    },
    {
        "Postcode": "22100",
        "Location": "Kampung Bukit Swee",
        "Post_Office": "Permaisuri",
        "State": "Terengganu"
    },
    {
        "Postcode": "22100",
        "Location": "Kampung Buloh",
        "Post_Office": "Permaisuri",
        "State": "Terengganu"
    },
    {
        "Postcode": "22100",
        "Location": "Kampung Buruk",
        "Post_Office": "Permaisuri",
        "State": "Terengganu"
    },
    {
        "Postcode": "22100",
        "Location": "Kampung Che Long",
        "Post_Office": "Permaisuri",
        "State": "Terengganu"
    },
    {
        "Postcode": "22100",
        "Location": "Kampung Kederang",
        "Post_Office": "Permaisuri",
        "State": "Terengganu"
    },
    {
        "Postcode": "22100",
        "Location": "Kampung Kuari Batu",
        "Post_Office": "Permaisuri",
        "State": "Terengganu"
    },
    {
        "Postcode": "22100",
        "Location": "Kampung Nyatok",
        "Post_Office": "Permaisuri",
        "State": "Terengganu"
    },
    {
        "Postcode": "22100",
        "Location": "Kampung Padang Serai",
        "Post_Office": "Permaisuri",
        "State": "Terengganu"
    },
    {
        "Postcode": "22100",
        "Location": "Kampung Pak Kancil",
        "Post_Office": "Permaisuri",
        "State": "Terengganu"
    },
    {
        "Postcode": "22100",
        "Location": "Kampung Panchor Merah",
        "Post_Office": "Permaisuri",
        "State": "Terengganu"
    },
    {
        "Postcode": "22100",
        "Location": "Kampung Pancur Merah",
        "Post_Office": "Permaisuri",
        "State": "Terengganu"
    },
    {
        "Postcode": "22100",
        "Location": "Kampung Permaisuri",
        "Post_Office": "Permaisuri",
        "State": "Terengganu"
    },
    {
        "Postcode": "22100",
        "Location": "Kampung Seri Bayas",
        "Post_Office": "Permaisuri",
        "State": "Terengganu"
    },
    {
        "Postcode": "22100",
        "Location": "Kampung Ulu Kekabu",
        "Post_Office": "Permaisuri",
        "State": "Terengganu"
    },
    {
        "Postcode": "22100",
        "Location": "Kampung Padang",
        "Post_Office": "Permaisuri",
        "State": "Terengganu"
    }
]
