[
    {
        "Postcode": "22110",
        "Location": "Kampung Penarik",
        "Post_Office": "Permaisuri",
        "State": "Terengganu"
    },
    {
        "Postcode": "22110",
        "Location": "Kampung Saujana",
        "Post_Office": "Permaisuri",
        "State": "Terengganu"
    },
    {
        "Postcode": "22110",
        "Location": "Kuala Setiu Baru",
        "Post_Office": "Permaisuri",
        "State": "Terengganu"
    },
    {
        "Postcode": "22110",
        "Location": "Kuala Setiu Lama",
        "Post_Office": "Permaisuri",
        "State": "Terengganu"
    },
    {
        "Postcode": "22110",
        "Location": "Lorong Saga",
        "Post_Office": "Permaisuri",
        "State": "Terengganu"
    },
    {
        "Postcode": "22110",
        "Location": "Lorong Saga Saujana",
        "Post_Office": "Permaisuri",
        "State": "Terengganu"
    },
    {
        "Postcode": "22110",
        "Location": "Lorong Seliat Saujana",
        "Post_Office": "Permaisuri",
        "State": "Terengganu"
    },
    {
        "Postcode": "22110",
        "Location": "Lorong Senandong",
        "Post_Office": "Permaisuri",
        "State": "Terengganu"
    },
    {
        "Postcode": "22110",
        "Location": "Lorong Senandong Saujana",
        "Post_Office": "Permaisuri",
        "State": "Terengganu"
    },
    {
        "Postcode": "22110",
        "Location": "Lorong Siakap",
        "Post_Office": "Permaisuri",
        "State": "Terengganu"
    },
    {
        "Postcode": "22110",
        "Location": "Lorong Siakap Saujana",
        "Post_Office": "Permaisuri",
        "State": "Terengganu"
    },
    {
        "Postcode": "22110",
        "Location": "Lorong Silat",
        "Post_Office": "Permaisuri",
        "State": "Terengganu"
    },
    {
        "Postcode": "22110",
        "Location": "Setiu",
        "Post_Office": "Permaisuri",
        "State": "Terengganu"
    }
]
