[
    {
        "Postcode": "22120",
        "Location": "Kampung Baru Penarik",
        "Post_Office": "Permaisuri",
        "State": "Terengganu"
    },
    {
        "Postcode": "22120",
        "Location": "Jalan Aman",
        "Post_Office": "Permaisuri",
        "State": "Terengganu"
    },
    {
        "Postcode": "22120",
        "Location": "Jalan Aman Rhu Sepuluh Penarik",
        "Post_Office": "Permaisuri",
        "State": "Terengganu"
    },
    {
        "Postcode": "22120",
        "Location": "Jalan Bahagia",
        "Post_Office": "Permaisuri",
        "State": "Terengganu"
    },
    {
        "Postcode": "22120",
        "Location": "Jalan Bahagia Rhu Sepuluh Penarik",
        "Post_Office": "Permaisuri",
        "State": "Terengganu"
    },
    {
        "Postcode": "22120",
        "Location": "Jalan Makmur",
        "Post_Office": "Permaisuri",
        "State": "Terengganu"
    },
    {
        "Postcode": "22120",
        "Location": "Jalan Makmur Rhu Sepuluh Penarik",
        "Post_Office": "Permaisuri",
        "State": "Terengganu"
    },
    {
        "Postcode": "22120",
        "Location": "Kampung Gong Batu",
        "Post_Office": "Permaisuri",
        "State": "Terengganu"
    },
    {
        "Postcode": "22120",
        "Location": "Kampung Mangkok",
        "Post_Office": "Permaisuri",
        "State": "Terengganu"
    }
]
