[
    {
        "Postcode": "22200",
        "Location": "Kampung Raja ",
        "Post_Office": "Kampung Raja",
        "State": "Terengganu"
    },
    {
        "Postcode": "22200",
        "Location": "Kampung Air Tawar",
        "Post_Office": "Kampung Raja",
        "State": "Terengganu"
    },
    {
        "Postcode": "22200",
        "Location": "Kampung Gong Bayor",
        "Post_Office": "Kampung Raja",
        "State": "Terengganu"
    },
    {
        "Postcode": "22200",
        "Location": "Kampung Gong Kepas Dalam",
        "Post_Office": "Kampung Raja",
        "State": "Terengganu"
    },
    {
        "Postcode": "22200",
        "Location": "Kampung Gong Medang",
        "Post_Office": "Kampung Raja",
        "State": "Terengganu"
    },
    {
        "Postcode": "22200",
        "Location": "Kampung Wakaf Kubur",
        "Post_Office": "Kampung Raja",
        "State": "Terengganu"
    },
    {
        "Postcode": "22200",
        "Location": "Kampung Pak Mentosa",
        "Post_Office": "Kampung Raja",
        "State": "Terengganu"
    },
    {
        "Postcode": "22200",
        "Location": "Kampung Pengkalan Teras",
        "Post_Office": "Kampung Raja",
        "State": "Terengganu"
    },
    {
        "Postcode": "22200",
        "Location": "Kampung Alor Lintang",
        "Post_Office": "Kampung Raja",
        "State": "Terengganu"
    },
    {
        "Postcode": "22200",
        "Location": "Kampung Gong Jelutung",
        "Post_Office": "Kampung Raja",
        "State": "Terengganu"
    },
    {
        "Postcode": "22200",
        "Location": "Kampung Kubang Ikan",
        "Post_Office": "Kampung Raja",
        "State": "Terengganu"
    },
    {
        "Postcode": "22200",
        "Location": "Kampung Pengkalan Kubor",
        "Post_Office": "Kampung Raja",
        "State": "Terengganu"
    },
    {
        "Postcode": "22200",
        "Location": "Kampung Seberang Kastam",
        "Post_Office": "Kampung Raja",
        "State": "Terengganu"
    },
    {
        "Postcode": "22200",
        "Location": "Kampung Tembila",
        "Post_Office": "Kampung Raja",
        "State": "Terengganu"
    },
    {
        "Postcode": "22200",
        "Location": "Kampung Amer Hilir",
        "Post_Office": "Kampung Raja",
        "State": "Terengganu"
    },
    {
        "Postcode": "22200",
        "Location": "Kampung Batu Tumboh",
        "Post_Office": "Kampung Raja",
        "State": "Terengganu"
    },
    {
        "Postcode": "22200",
        "Location": "Kampung Benting Lintang",
        "Post_Office": "Kampung Raja",
        "State": "Terengganu"
    },
    {
        "Postcode": "22200",
        "Location": "Kampung Gelam Mas",
        "Post_Office": "Kampung Raja",
        "State": "Terengganu"
    },
    {
        "Postcode": "22200",
        "Location": "Kampung Limbongan",
        "Post_Office": "Kampung Raja",
        "State": "Terengganu"
    },
    {
        "Postcode": "22200",
        "Location": "Kampung Pengkalan Gadoh",
        "Post_Office": "Kampung Raja",
        "State": "Terengganu"
    },
    {
        "Postcode": "22200",
        "Location": "Kampung Tanjung Demong",
        "Post_Office": "Kampung Raja",
        "State": "Terengganu"
    },
    {
        "Postcode": "22200",
        "Location": "Taman Amir Makmur",
        "Post_Office": "Kampung Raja",
        "State": "Terengganu"
    },
    {
        "Postcode": "22200",
        "Location": "Taman An-Nur",
        "Post_Office": "Kampung Raja",
        "State": "Terengganu"
    },
    {
        "Postcode": "22200",
        "Location": "Taman Che Yah",
        "Post_Office": "Kampung Raja",
        "State": "Terengganu"
    },
    {
        "Postcode": "22200",
        "Location": "Taman D' Hawa",
        "Post_Office": "Kampung Raja",
        "State": "Terengganu"
    },
    {
        "Postcode": "22200",
        "Location": "Taman D Lahar",
        "Post_Office": "Kampung Raja",
        "State": "Terengganu"
    },
    {
        "Postcode": "22200",
        "Location": "Taman Desa Harmoni",
        "Post_Office": "Kampung Raja",
        "State": "Terengganu"
    },
    {
        "Postcode": "22200",
        "Location": "Taman Desa Jannah",
        "Post_Office": "Kampung Raja",
        "State": "Terengganu"
    },
    {
        "Postcode": "22200",
        "Location": "Taman Eman",
        "Post_Office": "Kampung Raja",
        "State": "Terengganu"
    },
    {
        "Postcode": "22200",
        "Location": "Taman Firdaus",
        "Post_Office": "Kampung Raja",
        "State": "Terengganu"
    },
    {
        "Postcode": "22200",
        "Location": "Taman Kenari",
        "Post_Office": "Kampung Raja",
        "State": "Terengganu"
    },
    {
        "Postcode": "22200",
        "Location": "Taman Norhayati ",
        "Post_Office": "Kampung Raja",
        "State": "Terengganu"
    },
    {
        "Postcode": "22200",
        "Location": "Taman Pelangi",
        "Post_Office": "Kampung Raja",
        "State": "Terengganu"
    },
    {
        "Postcode": "22200",
        "Location": "Taman Permint Putra",
        "Post_Office": "Kampung Raja",
        "State": "Terengganu"
    },
    {
        "Postcode": "22200",
        "Location": "Taman Sri Medang",
        "Post_Office": "Kampung Raja",
        "State": "Terengganu"
    },
    {
        "Postcode": "22200",
        "Location": "Besut",
        "Post_Office": "Kampung Raja",
        "State": "Terengganu"
    },
    {
        "Postcode": "22200",
        "Location": "Kampung Alor Simpol",
        "Post_Office": "Kampung Raja",
        "State": "Terengganu"
    },
    {
        "Postcode": "22200",
        "Location": "Kampung Amir",
        "Post_Office": "Kampung Raja",
        "State": "Terengganu"
    },
    {
        "Postcode": "22200",
        "Location": "Kampung Baru Ayer Tawar",
        "Post_Office": "Kampung Raja",
        "State": "Terengganu"
    },
    {
        "Postcode": "22200",
        "Location": "Kampung Baru Batu Tumboh",
        "Post_Office": "Kampung Raja",
        "State": "Terengganu"
    },
    {
        "Postcode": "22200",
        "Location": "Kampung Baru Gong Bayor",
        "Post_Office": "Kampung Raja",
        "State": "Terengganu"
    },
    {
        "Postcode": "22200",
        "Location": "Kampung Beting Lintang",
        "Post_Office": "Kampung Raja",
        "State": "Terengganu"
    },
    {
        "Postcode": "22200",
        "Location": "Kampung Gelang Mas",
        "Post_Office": "Kampung Raja",
        "State": "Terengganu"
    },
    {
        "Postcode": "22200",
        "Location": "Kampung Gong Machang",
        "Post_Office": "Kampung Raja",
        "State": "Terengganu"
    },
    {
        "Postcode": "22200",
        "Location": "Kampung Gong Tiang Layar",
        "Post_Office": "Kampung Raja",
        "State": "Terengganu"
    },
    {
        "Postcode": "22200",
        "Location": "Kampung Gong Tiong",
        "Post_Office": "Kampung Raja",
        "State": "Terengganu"
    },
    {
        "Postcode": "22200",
        "Location": "Kampung Keluang",
        "Post_Office": "Kampung Raja",
        "State": "Terengganu"
    },
    {
        "Postcode": "22200",
        "Location": "Kampung Laha",
        "Post_Office": "Kampung Raja",
        "State": "Terengganu"
    },
    {
        "Postcode": "22200",
        "Location": "Kampung Laman",
        "Post_Office": "Kampung Raja",
        "State": "Terengganu"
    },
    {
        "Postcode": "22200",
        "Location": "Kampung Lohor",
        "Post_Office": "Kampung Raja",
        "State": "Terengganu"
    },
    {
        "Postcode": "22200",
        "Location": "Kampung Pak Kiang",
        "Post_Office": "Kampung Raja",
        "State": "Terengganu"
    },
    {
        "Postcode": "22200",
        "Location": "Kampung Parit",
        "Post_Office": "Kampung Raja",
        "State": "Terengganu"
    },
    {
        "Postcode": "22200",
        "Location": "Kampung Paya Rawa",
        "Post_Office": "Kampung Raja",
        "State": "Terengganu"
    },
    {
        "Postcode": "22200",
        "Location": "Kampung Pengkalan Nyireh",
        "Post_Office": "Kampung Raja",
        "State": "Terengganu"
    },
    {
        "Postcode": "22200",
        "Location": "Kampung Pinang",
        "Post_Office": "Kampung Raja",
        "State": "Terengganu"
    },
    {
        "Postcode": "22200",
        "Location": "Kampung Sentosa",
        "Post_Office": "Kampung Raja",
        "State": "Terengganu"
    },
    {
        "Postcode": "22200",
        "Location": "Kampung Tok Fakir Besut",
        "Post_Office": "Kampung Raja",
        "State": "Terengganu"
    },
    {
        "Postcode": "22200",
        "Location": "Kampung Tok Pek",
        "Post_Office": "Kampung Raja",
        "State": "Terengganu"
    },
    {
        "Postcode": "22200",
        "Location": "Kedeper",
        "Post_Office": "Kampung Raja",
        "State": "Terengganu"
    },
    {
        "Postcode": "22200",
        "Location": "Seberang Limbongan",
        "Post_Office": "Kampung Raja",
        "State": "Terengganu"
    },
    {
        "Postcode": "22200",
        "Location": "Teluk Kubor",
        "Post_Office": "Kampung Raja",
        "State": "Terengganu"
    },
    {
        "Postcode": "22200",
        "Location": "Kampung Bukit Tanah",
        "Post_Office": "Kampung Raja",
        "State": "Terengganu"
    }
]
