[
    {
        "Postcode": "22300",
        "Location": "Kampung Baru",
        "Post_Office": "Kuala Besut",
        "State": "Terengganu"
    },
    {
        "Postcode": "22300",
        "Location": "Kampung Gong Manok",
        "Post_Office": "Kuala Besut",
        "State": "Terengganu"
    },
    {
        "Postcode": "22300",
        "Location": "Kampung Alor Peroi",
        "Post_Office": "Kuala Besut",
        "State": "Terengganu"
    },
    {
        "Postcode": "22300",
        "Location": "Kampung Alor Teratai",
        "Post_Office": "Kuala Besut",
        "State": "Terengganu"
    },
    {
        "Postcode": "22300",
        "Location": "Kampung Tok Saboh",
        "Post_Office": "Kuala Besut",
        "State": "Terengganu"
    },
    {
        "Postcode": "22300",
        "Location": "Kampung Beris Alor Pisang",
        "Post_Office": "Kuala Besut",
        "State": "Terengganu"
    },
    {
        "Postcode": "22300",
        "Location": "Kampung Teluk Budu",
        "Post_Office": "Kuala Besut",
        "State": "Terengganu"
    },
    {
        "Postcode": "22300",
        "Location": "Kampung Pacakan",
        "Post_Office": "Kuala Besut",
        "State": "Terengganu"
    },
    {
        "Postcode": "22300",
        "Location": "Kampung Alor Jejawi",
        "Post_Office": "Kuala Besut",
        "State": "Terengganu"
    },
    {
        "Postcode": "22300",
        "Location": "Kampung Alor Pisang",
        "Post_Office": "Kuala Besut",
        "State": "Terengganu"
    },
    {
        "Postcode": "22300",
        "Location": "Kampung Beris Cawat",
        "Post_Office": "Kuala Besut",
        "State": "Terengganu"
    },
    {
        "Postcode": "22300",
        "Location": "Kampung Gong Surau",
        "Post_Office": "Kuala Besut",
        "State": "Terengganu"
    },
    {
        "Postcode": "22300",
        "Location": "Kampung Baru Pengkalan Nangka",
        "Post_Office": "Kuala Besut",
        "State": "Terengganu"
    },
    {
        "Postcode": "22300",
        "Location": "Kampung Beris Lampu",
        "Post_Office": "Kuala Besut",
        "State": "Terengganu"
    },
    {
        "Postcode": "22300",
        "Location": "Kampung Gong Tengah",
        "Post_Office": "Kuala Besut",
        "State": "Terengganu"
    },
    {
        "Postcode": "22300",
        "Location": "Kampung Jalan Teluk Bayu",
        "Post_Office": "Kuala Besut",
        "State": "Terengganu"
    },
    {
        "Postcode": "22300",
        "Location": "Kampung Pulau Salim",
        "Post_Office": "Kuala Besut",
        "State": "Terengganu"
    },
    {
        "Postcode": "22300",
        "Location": "Kampung Seri Kemunting Cawat",
        "Post_Office": "Kuala Besut",
        "State": "Terengganu"
    },
    {
        "Postcode": "22300",
        "Location": "Taman Perwira",
        "Post_Office": "Kuala Besut",
        "State": "Terengganu"
    },
    {
        "Postcode": "22300",
        "Location": "Alor Pak Ndok",
        "Post_Office": "Kuala Besut",
        "State": "Terengganu"
    },
    {
        "Postcode": "22300",
        "Location": "Beris Alor Peroi",
        "Post_Office": "Kuala Besut",
        "State": "Terengganu"
    },
    {
        "Postcode": "22300",
        "Location": "Gong Nering",
        "Post_Office": "Kuala Besut",
        "State": "Terengganu"
    },
    {
        "Postcode": "22300",
        "Location": "Kampung Beris Panggong",
        "Post_Office": "Kuala Besut",
        "State": "Terengganu"
    },
    {
        "Postcode": "22300",
        "Location": "Kampung Gertak Seratus",
        "Post_Office": "Kuala Besut",
        "State": "Terengganu"
    },
    {
        "Postcode": "22300",
        "Location": "Kampung Lampu",
        "Post_Office": "Kuala Besut",
        "State": "Terengganu"
    },
    {
        "Postcode": "22300",
        "Location": "Kampung Nail",
        "Post_Office": "Kuala Besut",
        "State": "Terengganu"
    },
    {
        "Postcode": "22300",
        "Location": "Kampung Nangka",
        "Post_Office": "Kuala Besut",
        "State": "Terengganu"
    },
    {
        "Postcode": "22300",
        "Location": "Kampung Sungai",
        "Post_Office": "Kuala Besut",
        "State": "Terengganu"
    },
    {
        "Postcode": "22300",
        "Location": "Kampung Tengah (Kuala Besut)",
        "Post_Office": "Kuala Besut",
        "State": "Terengganu"
    },
    {
        "Postcode": "22300",
        "Location": "Kampung Timur",
        "Post_Office": "Kuala Besut",
        "State": "Terengganu"
    },
    {
        "Postcode": "22300",
        "Location": "Kuala Bedah",
        "Post_Office": "Kuala Besut",
        "State": "Terengganu"
    },
    {
        "Postcode": "22300",
        "Location": "Kuala Besut",
        "Post_Office": "Kuala Besut",
        "State": "Terengganu"
    },
    {
        "Postcode": "22300",
        "Location": "Pulau Perhentian",
        "Post_Office": "Kuala Besut",
        "State": "Terengganu"
    },
    {
        "Postcode": "22300",
        "Location": "Pulau Salim",
        "Post_Office": "Kuala Besut",
        "State": "Terengganu"
    },
    {
        "Postcode": "22300",
        "Location": "Kampung Paya",
        "Post_Office": "Kuala Besut",
        "State": "Terengganu"
    }
]
