[
    {
        "Postcode": "55000",
        "Location": "Desa Pahlawan",
        "Post_Office": "Kuala Lumpur",
        "State": "WP Kuala Lumpur"
    },
    {
        "Postcode": "55000",
        "Location": "Jalan Ampang Hilir 1",
        "Post_Office": "Kuala Lumpur",
        "State": "WP Kuala Lumpur"
    },
    {
        "Postcode": "55000",
        "Location": "Jalan Ampang Hilir 2",
        "Post_Office": "Kuala Lumpur",
        "State": "WP Kuala Lumpur"
    },
    {
        "Postcode": "55000",
        "Location": "Jalan Ampang Hilir 3",
        "Post_Office": "Kuala Lumpur",
        "State": "WP Kuala Lumpur"
    },
    {
        "Postcode": "55000",
        "Location": "Jalan Ampang Hilir 4",
        "Post_Office": "Kuala Lumpur",
        "State": "WP Kuala Lumpur"
    },
    {
        "Postcode": "55000",
        "Location": "Jalan Ampang Hilir 5",
        "Post_Office": "Kuala Lumpur",
        "State": "WP Kuala Lumpur"
    },
    {
        "Postcode": "55000",
        "Location": "Jalan Kedondong 1",
        "Post_Office": "Kuala Lumpur",
        "State": "WP Kuala Lumpur"
    },
    {
        "Postcode": "55000",
        "Location": "Jalan Kedondong 2",
        "Post_Office": "Kuala Lumpur",
        "State": "WP Kuala Lumpur"
    },
    {
        "Postcode": "55000",
        "Location": "Jalan Kedondong 3",
        "Post_Office": "Kuala Lumpur",
        "State": "WP Kuala Lumpur"
    },
    {
        "Postcode": "55000",
        "Location": "Jalan Keranji 1",
        "Post_Office": "Kuala Lumpur",
        "State": "WP Kuala Lumpur"
    },
    {
        "Postcode": "55000",
        "Location": "Jalan Keranji 2",
        "Post_Office": "Kuala Lumpur",
        "State": "WP Kuala Lumpur"
    },
    {
        "Postcode": "55000",
        "Location": "Jalan Kundang 1",
        "Post_Office": "Kuala Lumpur",
        "State": "WP Kuala Lumpur"
    },
    {
        "Postcode": "55000",
        "Location": "Jalan Kundang 2",
        "Post_Office": "Kuala Lumpur",
        "State": "WP Kuala Lumpur"
    },
    {
        "Postcode": "55000",
        "Location": "Jalan Kundang 3",
        "Post_Office": "Kuala Lumpur",
        "State": "WP Kuala Lumpur"
    },
    {
        "Postcode": "55000",
        "Location": "Jalan Taman U Thant 1",
        "Post_Office": "Kuala Lumpur",
        "State": "WP Kuala Lumpur"
    },
    {
        "Postcode": "55000",
        "Location": "Jalan Taman U Thant 2",
        "Post_Office": "Kuala Lumpur",
        "State": "WP Kuala Lumpur"
    },
    {
        "Postcode": "55000",
        "Location": "Jalan Taman U Thant 3",
        "Post_Office": "Kuala Lumpur",
        "State": "WP Kuala Lumpur"
    },
    {
        "Postcode": "55000",
        "Location": "Jalan Taman U Thant 4",
        "Post_Office": "Kuala Lumpur",
        "State": "WP Kuala Lumpur"
    },
    {
        "Postcode": "55000",
        "Location": "Lorong Damai 1",
        "Post_Office": "Kuala Lumpur",
        "State": "WP Kuala Lumpur"
    },
    {
        "Postcode": "55000",
        "Location": "Lorong Damai 10",
        "Post_Office": "Kuala Lumpur",
        "State": "WP Kuala Lumpur"
    },
    {
        "Postcode": "55000",
        "Location": "Lorong Damai 11",
        "Post_Office": "Kuala Lumpur",
        "State": "WP Kuala Lumpur"
    },
    {
        "Postcode": "55000",
        "Location": "Lorong Damai 12",
        "Post_Office": "Kuala Lumpur",
        "State": "WP Kuala Lumpur"
    },
    {
        "Postcode": "55000",
        "Location": "Lorong Damai 13",
        "Post_Office": "Kuala Lumpur",
        "State": "WP Kuala Lumpur"
    },
    {
        "Postcode": "55000",
        "Location": "Lorong Damai 2",
        "Post_Office": "Kuala Lumpur",
        "State": "WP Kuala Lumpur"
    },
    {
        "Postcode": "55000",
        "Location": "Lorong Damai 3",
        "Post_Office": "Kuala Lumpur",
        "State": "WP Kuala Lumpur"
    },
    {
        "Postcode": "55000",
        "Location": "Lorong Damai 4",
        "Post_Office": "Kuala Lumpur",
        "State": "WP Kuala Lumpur"
    },
    {
        "Postcode": "55000",
        "Location": "Lorong Damai 5",
        "Post_Office": "Kuala Lumpur",
        "State": "WP Kuala Lumpur"
    },
    {
        "Postcode": "55000",
        "Location": "Lorong Damai 6",
        "Post_Office": "Kuala Lumpur",
        "State": "WP Kuala Lumpur"
    },
    {
        "Postcode": "55000",
        "Location": "Lorong Damai 7",
        "Post_Office": "Kuala Lumpur",
        "State": "WP Kuala Lumpur"
    },
    {
        "Postcode": "55000",
        "Location": "Lorong Damai 8",
        "Post_Office": "Kuala Lumpur",
        "State": "WP Kuala Lumpur"
    },
    {
        "Postcode": "55000",
        "Location": "Lorong Damai 9",
        "Post_Office": "Kuala Lumpur",
        "State": "WP Kuala Lumpur"
    },
    {
        "Postcode": "55000",
        "Location": "Lorong U Thant 1",
        "Post_Office": "Kuala Lumpur",
        "State": "WP Kuala Lumpur"
    },
    {
        "Postcode": "55000",
        "Location": "Lorong U Thant 2",
        "Post_Office": "Kuala Lumpur",
        "State": "WP Kuala Lumpur"
    },
    {
        "Postcode": "55000",
        "Location": "Kondominium Iringan Hijau",
        "Post_Office": "Kuala Lumpur",
        "State": "WP Kuala Lumpur"
    },
    {
        "Postcode": "55000",
        "Location": "Pangsapuri My Habitat, Jalan Aman",
        "Post_Office": "Kuala Lumpur",
        "State": "WP Kuala Lumpur"
    },
    {
        "Postcode": "55000",
        "Location": "Residensi Ampang Tengah 6",
        "Post_Office": "Kuala Lumpur",
        "State": "WP Kuala Lumpur"
    },
    {
        "Postcode": "55000",
        "Location": "Kondominium Seri Ampang Hilir",
        "Post_Office": "Kuala Lumpur",
        "State": "WP Kuala Lumpur"
    },
    {
        "Postcode": "55000",
        "Location": "Lorong Damai 13 Kiri",
        "Post_Office": "Kuala Lumpur",
        "State": "WP Kuala Lumpur"
    },
    {
        "Postcode": "55000",
        "Location": "Residensi 18 Madge",
        "Post_Office": "Kuala Lumpur",
        "State": "WP Kuala Lumpur"
    },
    {
        "Postcode": "55000",
        "Location": "Gerbang Ampang Hilir",
        "Post_Office": "Kuala Lumpur",
        "State": "WP Kuala Lumpur"
    },
    {
        "Postcode": "55000",
        "Location": "Jalan Aman",
        "Post_Office": "Kuala Lumpur",
        "State": "WP Kuala Lumpur"
    },
    {
        "Postcode": "55000",
        "Location": "Jalan Ampang Hilir",
        "Post_Office": "Kuala Lumpur",
        "State": "WP Kuala Lumpur"
    },
    {
        "Postcode": "55000",
        "Location": "Jalan Ampang Kiri",
        "Post_Office": "Kuala Lumpur",
        "State": "WP Kuala Lumpur"
    },
    {
        "Postcode": "55000",
        "Location": "Jalan Ampang Tengah",
        "Post_Office": "Kuala Lumpur",
        "State": "WP Kuala Lumpur"
    },
    {
        "Postcode": "55000",
        "Location": "Jalan Ampang Ulu",
        "Post_Office": "Kuala Lumpur",
        "State": "WP Kuala Lumpur"
    },
    {
        "Postcode": "55000",
        "Location": "Jalan Ampang Ulu 3",
        "Post_Office": "Kuala Lumpur",
        "State": "WP Kuala Lumpur"
    },
    {
        "Postcode": "55000",
        "Location": "Jalan Berembang (Pudu)",
        "Post_Office": "Kuala Lumpur",
        "State": "WP Kuala Lumpur"
    },
    {
        "Postcode": "55000",
        "Location": "Jalan Damai",
        "Post_Office": "Kuala Lumpur",
        "State": "WP Kuala Lumpur"
    },
    {
        "Postcode": "55000",
        "Location": "Jalan Dedalu",
        "Post_Office": "Kuala Lumpur",
        "State": "WP Kuala Lumpur"
    },
    {
        "Postcode": "55000",
        "Location": "Jalan Fajar",
        "Post_Office": "Kuala Lumpur",
        "State": "WP Kuala Lumpur"
    },
    {
        "Postcode": "55000",
        "Location": "Jalan Kedondong",
        "Post_Office": "Kuala Lumpur",
        "State": "WP Kuala Lumpur"
    },
    {
        "Postcode": "55000",
        "Location": "Jalan Kelab Golf",
        "Post_Office": "Kuala Lumpur",
        "State": "WP Kuala Lumpur"
    },
    {
        "Postcode": "55000",
        "Location": "Jalan Kundang",
        "Post_Office": "Kuala Lumpur",
        "State": "WP Kuala Lumpur"
    },
    {
        "Postcode": "55000",
        "Location": "Jalan Langgak Golf",
        "Post_Office": "Kuala Lumpur",
        "State": "WP Kuala Lumpur"
    },
    {
        "Postcode": "55000",
        "Location": "Jalan Madge",
        "Post_Office": "Kuala Lumpur",
        "State": "WP Kuala Lumpur"
    },
    {
        "Postcode": "55000",
        "Location": "Jalan Mengkuang",
        "Post_Office": "Kuala Lumpur",
        "State": "WP Kuala Lumpur"
    },
    {
        "Postcode": "55000",
        "Location": "Jalan Mengkudu",
        "Post_Office": "Kuala Lumpur",
        "State": "WP Kuala Lumpur"
    },
    {
        "Postcode": "55000",
        "Location": "Jalan Mesra",
        "Post_Office": "Kuala Lumpur",
        "State": "WP Kuala Lumpur"
    },
    {
        "Postcode": "55000",
        "Location": "Jalan Murni",
        "Post_Office": "Kuala Lumpur",
        "State": "WP Kuala Lumpur"
    },
    {
        "Postcode": "55000",
        "Location": "Jalan Nipah",
        "Post_Office": "Kuala Lumpur",
        "State": "WP Kuala Lumpur"
    },
    {
        "Postcode": "55000",
        "Location": "Jalan Pegawai",
        "Post_Office": "Kuala Lumpur",
        "State": "WP Kuala Lumpur"
    },
    {
        "Postcode": "55000",
        "Location": "Jalan Penggawa",
        "Post_Office": "Kuala Lumpur",
        "State": "WP Kuala Lumpur"
    },
    {
        "Postcode": "55000",
        "Location": "Jalan Ritchie",
        "Post_Office": "Kuala Lumpur",
        "State": "WP Kuala Lumpur"
    },
    {
        "Postcode": "55000",
        "Location": "Jalan Ru (Pudu)",
        "Post_Office": "Kuala Lumpur",
        "State": "WP Kuala Lumpur"
    },
    {
        "Postcode": "55000",
        "Location": "Jalan Sejahtera",
        "Post_Office": "Kuala Lumpur",
        "State": "WP Kuala Lumpur"
    },
    {
        "Postcode": "55000",
        "Location": "Jalan Taman U Thant",
        "Post_Office": "Kuala Lumpur",
        "State": "WP Kuala Lumpur"
    },
    {
        "Postcode": "55000",
        "Location": "Jalan Tun Sri Lanang",
        "Post_Office": "Kuala Lumpur",
        "State": "WP Kuala Lumpur"
    },
    {
        "Postcode": "55000",
        "Location": "Jalan U Thant",
        "Post_Office": "Kuala Lumpur",
        "State": "WP Kuala Lumpur"
    },
    {
        "Postcode": "55000",
        "Location": "Jalan Wickham",
        "Post_Office": "Kuala Lumpur",
        "State": "WP Kuala Lumpur"
    },
    {
        "Postcode": "55000",
        "Location": "Kampung Berembang",
        "Post_Office": "Kuala Lumpur",
        "State": "WP Kuala Lumpur"
    },
    {
        "Postcode": "55000",
        "Location": "Kampung Mengkudu",
        "Post_Office": "Kuala Lumpur",
        "State": "WP Kuala Lumpur"
    },
    {
        "Postcode": "55000",
        "Location": "Kampung Perwira Jaya",
        "Post_Office": "Kuala Lumpur",
        "State": "WP Kuala Lumpur"
    },
    {
        "Postcode": "55000",
        "Location": "Kelab Golf Di Raja Selangor",
        "Post_Office": "Kuala Lumpur",
        "State": "WP Kuala Lumpur"
    },
    {
        "Postcode": "55000",
        "Location": "Lingkungan U Thant",
        "Post_Office": "Kuala Lumpur",
        "State": "WP Kuala Lumpur"
    },
    {
        "Postcode": "55000",
        "Location": "Lorong Ampang 2 (Ampang)",
        "Post_Office": "Kuala Lumpur",
        "State": "WP Kuala Lumpur"
    },
    {
        "Postcode": "55000",
        "Location": "Lorong Dedalu",
        "Post_Office": "Kuala Lumpur",
        "State": "WP Kuala Lumpur"
    },
    {
        "Postcode": "55000",
        "Location": "Lorong Enau",
        "Post_Office": "Kuala Lumpur",
        "State": "WP Kuala Lumpur"
    },
    {
        "Postcode": "55000",
        "Location": "Lorong Kedondong",
        "Post_Office": "Kuala Lumpur",
        "State": "WP Kuala Lumpur"
    },
    {
        "Postcode": "55000",
        "Location": "Lorong Kundang",
        "Post_Office": "Kuala Lumpur",
        "State": "WP Kuala Lumpur"
    },
    {
        "Postcode": "55000",
        "Location": "Lorong Mengkuang",
        "Post_Office": "Kuala Lumpur",
        "State": "WP Kuala Lumpur"
    },
    {
        "Postcode": "55000",
        "Location": "Lorong Mengkudu 1",
        "Post_Office": "Kuala Lumpur",
        "State": "WP Kuala Lumpur"
    },
    {
        "Postcode": "55000",
        "Location": "Lorong Mengkudu 2",
        "Post_Office": "Kuala Lumpur",
        "State": "WP Kuala Lumpur"
    },
    {
        "Postcode": "55000",
        "Location": "Lorong Mesra 1",
        "Post_Office": "Kuala Lumpur",
        "State": "WP Kuala Lumpur"
    },
    {
        "Postcode": "55000",
        "Location": "Lorong Mesra 2",
        "Post_Office": "Kuala Lumpur",
        "State": "WP Kuala Lumpur"
    },
    {
        "Postcode": "55000",
        "Location": "Lorong Mesra 3",
        "Post_Office": "Kuala Lumpur",
        "State": "WP Kuala Lumpur"
    },
    {
        "Postcode": "55000",
        "Location": "Lorong Mesra 4",
        "Post_Office": "Kuala Lumpur",
        "State": "WP Kuala Lumpur"
    },
    {
        "Postcode": "55000",
        "Location": "Lorong Ru Kedua",
        "Post_Office": "Kuala Lumpur",
        "State": "WP Kuala Lumpur"
    },
    {
        "Postcode": "55000",
        "Location": "Lorong Ru Pertama",
        "Post_Office": "Kuala Lumpur",
        "State": "WP Kuala Lumpur"
    },
    {
        "Postcode": "55000",
        "Location": "Persiaran Ampang",
        "Post_Office": "Kuala Lumpur",
        "State": "WP Kuala Lumpur"
    },
    {
        "Postcode": "55000",
        "Location": "Persiaran Ampang Hilir",
        "Post_Office": "Kuala Lumpur",
        "State": "WP Kuala Lumpur"
    },
    {
        "Postcode": "55000",
        "Location": "Persiaran Anderson",
        "Post_Office": "Kuala Lumpur",
        "State": "WP Kuala Lumpur"
    },
    {
        "Postcode": "55000",
        "Location": "Persiaran Madge",
        "Post_Office": "Kuala Lumpur",
        "State": "WP Kuala Lumpur"
    },
    {
        "Postcode": "55000",
        "Location": "Persiaran Ritchie",
        "Post_Office": "Kuala Lumpur",
        "State": "WP Kuala Lumpur"
    },
    {
        "Postcode": "55000",
        "Location": "Pinggir Ridley",
        "Post_Office": "Kuala Lumpur",
        "State": "WP Kuala Lumpur"
    },
    {
        "Postcode": "55000",
        "Location": "U-Thant Residence",
        "Post_Office": "Kuala Lumpur",
        "State": "WP Kuala Lumpur"
    }
]
