[
    {
        "Postcode": "55710",
        "Location": "Pudu - Peti Surat  6081 - 6100",
        "Post_Office": "Kuala Lumpur",
        "State": "WP Kuala Lumpur"
    },
    {
        "Postcode": "55710",
        "Location": "Pudu - Peti Surat  6102",
        "Post_Office": "Kuala Lumpur",
        "State": "WP Kuala Lumpur"
    },
    {
        "Postcode": "55710",
        "Location": "Pudu - Peti Surat  6104 - 6117",
        "Post_Office": "Kuala Lumpur",
        "State": "WP Kuala Lumpur"
    },
    {
        "Postcode": "55710",
        "Location": "Pudu - Peti Surat  6119",
        "Post_Office": "Kuala Lumpur",
        "State": "WP Kuala Lumpur"
    },
    {
        "Postcode": "55710",
        "Location": "Pudu - Peti Surat  6121",
        "Post_Office": "Kuala Lumpur",
        "State": "WP Kuala Lumpur"
    },
    {
        "Postcode": "55710",
        "Location": "Pudu - Peti Surat  6131",
        "Post_Office": "Kuala Lumpur",
        "State": "WP Kuala Lumpur"
    },
    {
        "Postcode": "55710",
        "Location": "Pudu - Peti Surat  6133 - 6139",
        "Post_Office": "Kuala Lumpur",
        "State": "WP Kuala Lumpur"
    },
    {
        "Postcode": "55710",
        "Location": "Pudu - Peti Surat  6141 - 6145",
        "Post_Office": "Kuala Lumpur",
        "State": "WP Kuala Lumpur"
    },
    {
        "Postcode": "55710",
        "Location": "Pudu - Peti Surat  6147",
        "Post_Office": "Kuala Lumpur",
        "State": "WP Kuala Lumpur"
    },
    {
        "Postcode": "55710",
        "Location": "Pudu - Peti Surat  6149",
        "Post_Office": "Kuala Lumpur",
        "State": "WP Kuala Lumpur"
    },
    {
        "Postcode": "55710",
        "Location": "Pudu - Peti Surat  6151 - 6154",
        "Post_Office": "Kuala Lumpur",
        "State": "WP Kuala Lumpur"
    },
    {
        "Postcode": "55710",
        "Location": "Pudu - Peti Surat  6156 - 6160",
        "Post_Office": "Kuala Lumpur",
        "State": "WP Kuala Lumpur"
    }
]
