[
    {
        "Postcode": "07000",
        "Location": "Kampung Bendang Baru",
        "Post_Office": "Langkawi",
        "State": "Kedah"
    },
    {
        "Postcode": "07000",
        "Location": "Kampung Dusun",
        "Post_Office": "Langkawi",
        "State": "Kedah"
    },
    {
        "Postcode": "07000",
        "Location": "Kampung Kubang Badak",
        "Post_Office": "Langkawi",
        "State": "Kedah"
    },
    {
        "Postcode": "07000",
        "Location": "Kampung Paya Mengkuang",
        "Post_Office": "Langkawi",
        "State": "Kedah"
    },
    {
        "Postcode": "07000",
        "Location": "Kampung Tepi Laut",
        "Post_Office": "Langkawi",
        "State": "Kedah"
    },
    {
        "Postcode": "07000",
        "Location": "Taman Seri Aman",
        "Post_Office": "Langkawi",
        "State": "Kedah"
    },
    {
        "Postcode": "07000",
        "Location": "Ayer Hangat",
        "Post_Office": "Langkawi",
        "State": "Kedah"
    },
    {
        "Postcode": "07000",
        "Location": "Bukit Malut",
        "Post_Office": "Langkawi",
        "State": "Kedah"
    },
    {
        "Postcode": "07000",
        "Location": "Kampung Atas",
        "Post_Office": "Langkawi",
        "State": "Kedah"
    },
    {
        "Postcode": "07000",
        "Location": "Kampung Bagan Asam",
        "Post_Office": "Langkawi",
        "State": "Kedah"
    },
    {
        "Postcode": "07000",
        "Location": "Kampung Bagan Pauh",
        "Post_Office": "Langkawi",
        "State": "Kedah"
    },
    {
        "Postcode": "07000",
        "Location": "Kampung Baru Ewa",
        "Post_Office": "Langkawi",
        "State": "Kedah"
    },
    {
        "Postcode": "07000",
        "Location": "Kampung Baru Ulu Melaka",
        "Post_Office": "Langkawi",
        "State": "Kedah"
    },
    {
        "Postcode": "07000",
        "Location": "Kampung Batu Ara",
        "Post_Office": "Langkawi",
        "State": "Kedah"
    },
    {
        "Postcode": "07000",
        "Location": "Kampung Batu Asah",
        "Post_Office": "Langkawi",
        "State": "Kedah"
    },
    {
        "Postcode": "07000",
        "Location": "Kampung Batu Gajah",
        "Post_Office": "Langkawi",
        "State": "Kedah"
    },
    {
        "Postcode": "07000",
        "Location": "Kampung Bawah",
        "Post_Office": "Langkawi",
        "State": "Kedah"
    },
    {
        "Postcode": "07000",
        "Location": "Kampung Belak",
        "Post_Office": "Langkawi",
        "State": "Kedah"
    },
    {
        "Postcode": "07000",
        "Location": "Kampung Belanga Pecah",
        "Post_Office": "Langkawi",
        "State": "Kedah"
    },
    {
        "Postcode": "07000",
        "Location": "Kampung Belibis",
        "Post_Office": "Langkawi",
        "State": "Kedah"
    },
    {
        "Postcode": "07000",
        "Location": "Kampung Bohor Berendam",
        "Post_Office": "Langkawi",
        "State": "Kedah"
    },
    {
        "Postcode": "07000",
        "Location": "Kampung Bohor Chantek",
        "Post_Office": "Langkawi",
        "State": "Kedah"
    },
    {
        "Postcode": "07000",
        "Location": "Kampung Bohor Chempedak",
        "Post_Office": "Langkawi",
        "State": "Kedah"
    },
    {
        "Postcode": "07000",
        "Location": "Kampung Bohor Darat",
        "Post_Office": "Langkawi",
        "State": "Kedah"
    },
    {
        "Postcode": "07000",
        "Location": "Kampung Bohor Masjid",
        "Post_Office": "Langkawi",
        "State": "Kedah"
    },
    {
        "Postcode": "07000",
        "Location": "Kampung Bohor Merah",
        "Post_Office": "Langkawi",
        "State": "Kedah"
    },
    {
        "Postcode": "07000",
        "Location": "Kampung Bohor Raja",
        "Post_Office": "Langkawi",
        "State": "Kedah"
    },
    {
        "Postcode": "07000",
        "Location": "Kampung Bohor Tempoyak",
        "Post_Office": "Langkawi",
        "State": "Kedah"
    },
    {
        "Postcode": "07000",
        "Location": "Kampung Bubor",
        "Post_Office": "Langkawi",
        "State": "Kedah"
    },
    {
        "Postcode": "07000",
        "Location": "Kampung Bukit Benggali",
        "Post_Office": "Langkawi",
        "State": "Kedah"
    },
    {
        "Postcode": "07000",
        "Location": "Kampung Bukit Cengkuan",
        "Post_Office": "Langkawi",
        "State": "Kedah"
    },
    {
        "Postcode": "07000",
        "Location": "Kampung Bukit Kemboja",
        "Post_Office": "Langkawi",
        "State": "Kedah"
    },
    {
        "Postcode": "07000",
        "Location": "Kampung Bukit Lembu",
        "Post_Office": "Langkawi",
        "State": "Kedah"
    },
    {
        "Postcode": "07000",
        "Location": "Kampung Bukit Morang",
        "Post_Office": "Langkawi",
        "State": "Kedah"
    },
    {
        "Postcode": "07000",
        "Location": "Kampung Bukit Nau",
        "Post_Office": "Langkawi",
        "State": "Kedah"
    },
    {
        "Postcode": "07000",
        "Location": "Kampung Bukit Puteh",
        "Post_Office": "Langkawi",
        "State": "Kedah"
    },
    {
        "Postcode": "07000",
        "Location": "Kampung Bukit Puteri",
        "Post_Office": "Langkawi",
        "State": "Kedah"
    },
    {
        "Postcode": "07000",
        "Location": "Kampung Bukit Tekoh",
        "Post_Office": "Langkawi",
        "State": "Kedah"
    },
    {
        "Postcode": "07000",
        "Location": "Kampung Bukit Temin",
        "Post_Office": "Langkawi",
        "State": "Kedah"
    },
    {
        "Postcode": "07000",
        "Location": "Kampung Chenarong",
        "Post_Office": "Langkawi",
        "State": "Kedah"
    },
    {
        "Postcode": "07000",
        "Location": "Kampung Darat Benta",
        "Post_Office": "Langkawi",
        "State": "Kedah"
    },
    {
        "Postcode": "07000",
        "Location": "Kampung Darat Padang Matsirat",
        "Post_Office": "Langkawi",
        "State": "Kedah"
    },
    {
        "Postcode": "07000",
        "Location": "Kampung Dato Bakar",
        "Post_Office": "Langkawi",
        "State": "Kedah"
    },
    {
        "Postcode": "07000",
        "Location": "Kampung Durian Perangin",
        "Post_Office": "Langkawi",
        "State": "Kedah"
    },
    {
        "Postcode": "07000",
        "Location": "Kampung Geronggang",
        "Post_Office": "Langkawi",
        "State": "Kedah"
    },
    {
        "Postcode": "07000",
        "Location": "Kampung Kelibang",
        "Post_Office": "Langkawi",
        "State": "Kedah"
    },
    {
        "Postcode": "07000",
        "Location": "Kampung Kelubi",
        "Post_Office": "Langkawi",
        "State": "Kedah"
    },
    {
        "Postcode": "07000",
        "Location": "Kampung Kenyum",
        "Post_Office": "Langkawi",
        "State": "Kedah"
    },
    {
        "Postcode": "07000",
        "Location": "Kampung Kilim",
        "Post_Office": "Langkawi",
        "State": "Kedah"
    },
    {
        "Postcode": "07000",
        "Location": "Kampung Kisap",
        "Post_Office": "Langkawi",
        "State": "Kedah"
    },
    {
        "Postcode": "07000",
        "Location": "Kampung Kok",
        "Post_Office": "Langkawi",
        "State": "Kedah"
    },
    {
        "Postcode": "07000",
        "Location": "Kampung Kuah",
        "Post_Office": "Langkawi",
        "State": "Kedah"
    },
    {
        "Postcode": "07000",
        "Location": "Kampung Kuala Chenang",
        "Post_Office": "Langkawi",
        "State": "Kedah"
    },
    {
        "Postcode": "07000",
        "Location": "Kampung Kuala Melaka",
        "Post_Office": "Langkawi",
        "State": "Kedah"
    },
    {
        "Postcode": "07000",
        "Location": "Kampung Kuala Muda",
        "Post_Office": "Langkawi",
        "State": "Kedah"
    },
    {
        "Postcode": "07000",
        "Location": "Kampung Kuala Sungai",
        "Post_Office": "Langkawi",
        "State": "Kedah"
    },
    {
        "Postcode": "07000",
        "Location": "Kampung Kumpulan",
        "Post_Office": "Langkawi",
        "State": "Kedah"
    },
    {
        "Postcode": "07000",
        "Location": "Kampung Lawer",
        "Post_Office": "Langkawi",
        "State": "Kedah"
    },
    {
        "Postcode": "07000",
        "Location": "Kampung Linchai",
        "Post_Office": "Langkawi",
        "State": "Kedah"
    },
    {
        "Postcode": "07000",
        "Location": "Kampung Lubok Cempedak",
        "Post_Office": "Langkawi",
        "State": "Kedah"
    },
    {
        "Postcode": "07000",
        "Location": "Kampung Lubok Etok",
        "Post_Office": "Langkawi",
        "State": "Kedah"
    },
    {
        "Postcode": "07000",
        "Location": "Kampung Lubok Setol",
        "Post_Office": "Langkawi",
        "State": "Kedah"
    },
    {
        "Postcode": "07000",
        "Location": "Kampung Lubuk Etok",
        "Post_Office": "Langkawi",
        "State": "Kedah"
    },
    {
        "Postcode": "07000",
        "Location": "Kampung Mata Ayer",
        "Post_Office": "Langkawi",
        "State": "Kedah"
    },
    {
        "Postcode": "07000",
        "Location": "Kampung Mawat",
        "Post_Office": "Langkawi",
        "State": "Kedah"
    },
    {
        "Postcode": "07000",
        "Location": "Kampung Nyior Chabang",
        "Post_Office": "Langkawi",
        "State": "Kedah"
    },
    {
        "Postcode": "07000",
        "Location": "Kampung Padang Kandang",
        "Post_Office": "Langkawi",
        "State": "Kedah"
    },
    {
        "Postcode": "07000",
        "Location": "Kampung Padang Lunas",
        "Post_Office": "Langkawi",
        "State": "Kedah"
    },
    {
        "Postcode": "07000",
        "Location": "Kampung Padang Putih",
        "Post_Office": "Langkawi",
        "State": "Kedah"
    },
    {
        "Postcode": "07000",
        "Location": "Kampung Padang Saga",
        "Post_Office": "Langkawi",
        "State": "Kedah"
    },
    {
        "Postcode": "07000",
        "Location": "Kampung Padang Wahid",
        "Post_Office": "Langkawi",
        "State": "Kedah"
    },
    {
        "Postcode": "07000",
        "Location": "Kampung Pasir Hitam",
        "Post_Office": "Langkawi",
        "State": "Kedah"
    },
    {
        "Postcode": "07000",
        "Location": "Kampung Pasir Ok",
        "Post_Office": "Langkawi",
        "State": "Kedah"
    },
    {
        "Postcode": "07000",
        "Location": "Kampung Paya Jin",
        "Post_Office": "Langkawi",
        "State": "Kedah"
    },
    {
        "Postcode": "07000",
        "Location": "Kampung Paya Kuala Triang",
        "Post_Office": "Langkawi",
        "State": "Kedah"
    },
    {
        "Postcode": "07000",
        "Location": "Kampung Paya Mempelam",
        "Post_Office": "Langkawi",
        "State": "Kedah"
    },
    {
        "Postcode": "07000",
        "Location": "Kampung Paya Padang Mat Sirat",
        "Post_Office": "Langkawi",
        "State": "Kedah"
    },
    {
        "Postcode": "07000",
        "Location": "Kampung Penarik",
        "Post_Office": "Langkawi",
        "State": "Kedah"
    },
    {
        "Postcode": "07000",
        "Location": "Kampung Perana",
        "Post_Office": "Langkawi",
        "State": "Kedah"
    },
    {
        "Postcode": "07000",
        "Location": "Kampung Pokok Asam",
        "Post_Office": "Langkawi",
        "State": "Kedah"
    },
    {
        "Postcode": "07000",
        "Location": "Kampung Raja",
        "Post_Office": "Langkawi",
        "State": "Kedah"
    },
    {
        "Postcode": "07000",
        "Location": "Kampung Ranggut",
        "Post_Office": "Langkawi",
        "State": "Kedah"
    },
    {
        "Postcode": "07000",
        "Location": "Kampung Seberang Kedawang",
        "Post_Office": "Langkawi",
        "State": "Kedah"
    },
    {
        "Postcode": "07000",
        "Location": "Kampung Seberang Kelibang",
        "Post_Office": "Langkawi",
        "State": "Kedah"
    },
    {
        "Postcode": "07000",
        "Location": "Kampung Seberang Ulu Melaka",
        "Post_Office": "Langkawi",
        "State": "Kedah"
    },
    {
        "Postcode": "07000",
        "Location": "Kampung Selat Bagan Asam",
        "Post_Office": "Langkawi",
        "State": "Kedah"
    },
    {
        "Postcode": "07000",
        "Location": "Kampung Selat Bagan Nyior",
        "Post_Office": "Langkawi",
        "State": "Kedah"
    },
    {
        "Postcode": "07000",
        "Location": "Kampung Simpang Empat",
        "Post_Office": "Langkawi",
        "State": "Kedah"
    },
    {
        "Postcode": "07000",
        "Location": "Kampung Sungai Itau",
        "Post_Office": "Langkawi",
        "State": "Kedah"
    },
    {
        "Postcode": "07000",
        "Location": "Kampung Sungai Kedak",
        "Post_Office": "Langkawi",
        "State": "Kedah"
    },
    {
        "Postcode": "07000",
        "Location": "Kampung Sungai Mati Akar",
        "Post_Office": "Langkawi",
        "State": "Kedah"
    },
    {
        "Postcode": "07000",
        "Location": "Kampung Sungai Menghulu",
        "Post_Office": "Langkawi",
        "State": "Kedah"
    },
    {
        "Postcode": "07000",
        "Location": "Kampung Sungai Nahar",
        "Post_Office": "Langkawi",
        "State": "Kedah"
    },
    {
        "Postcode": "07000",
        "Location": "Kampung Tanjong Kedawang",
        "Post_Office": "Langkawi",
        "State": "Kedah"
    },
    {
        "Postcode": "07000",
        "Location": "Kampung Tanjong Rhu",
        "Post_Office": "Langkawi",
        "State": "Kedah"
    },
    {
        "Postcode": "07000",
        "Location": "Kampung Tanjung Pandan",
        "Post_Office": "Langkawi",
        "State": "Kedah"
    },
    {
        "Postcode": "07000",
        "Location": "Kampung Telok Apau",
        "Post_Office": "Langkawi",
        "State": "Kedah"
    },
    {
        "Postcode": "07000",
        "Location": "Kampung Telok Berembang",
        "Post_Office": "Langkawi",
        "State": "Kedah"
    },
    {
        "Postcode": "07000",
        "Location": "Kampung Telok Kedak",
        "Post_Office": "Langkawi",
        "State": "Kedah"
    },
    {
        "Postcode": "07000",
        "Location": "Kampung Telok Kisap",
        "Post_Office": "Langkawi",
        "State": "Kedah"
    },
    {
        "Postcode": "07000",
        "Location": "Kampung Telok Kumbar",
        "Post_Office": "Langkawi",
        "State": "Kedah"
    },
    {
        "Postcode": "07000",
        "Location": "Kampung Telok Ulu Melaka",
        "Post_Office": "Langkawi",
        "State": "Kedah"
    },
    {
        "Postcode": "07000",
        "Location": "Kampung Teluk Berembang",
        "Post_Office": "Langkawi",
        "State": "Kedah"
    },
    {
        "Postcode": "07000",
        "Location": "Kampung Teluk Bujur",
        "Post_Office": "Langkawi",
        "State": "Kedah"
    },
    {
        "Postcode": "07000",
        "Location": "Kampung Tengah",
        "Post_Office": "Langkawi",
        "State": "Kedah"
    },
    {
        "Postcode": "07000",
        "Location": "Kampung Tepa",
        "Post_Office": "Langkawi",
        "State": "Kedah"
    },
    {
        "Postcode": "07000",
        "Location": "Kampung Titi Chanwang",
        "Post_Office": "Langkawi",
        "State": "Kedah"
    },
    {
        "Postcode": "07000",
        "Location": "Kampung Titi Tinggi",
        "Post_Office": "Langkawi",
        "State": "Kedah"
    },
    {
        "Postcode": "07000",
        "Location": "Kampung Wang Tok Rendong",
        "Post_Office": "Langkawi",
        "State": "Kedah"
    },
    {
        "Postcode": "07000",
        "Location": "Kampung Yooi",
        "Post_Office": "Langkawi",
        "State": "Kedah"
    },
    {
        "Postcode": "07000",
        "Location": "Kedawang",
        "Post_Office": "Langkawi",
        "State": "Kedah"
    },
    {
        "Postcode": "07000",
        "Location": "Kelab Desa Langkawi",
        "Post_Office": "Langkawi",
        "State": "Kedah"
    },
    {
        "Postcode": "07000",
        "Location": "Kompleks Lada",
        "Post_Office": "Langkawi",
        "State": "Kedah"
    },
    {
        "Postcode": "07000",
        "Location": "Kompleks Perumahan Guuru",
        "Post_Office": "Langkawi",
        "State": "Kedah"
    },
    {
        "Postcode": "07000",
        "Location": "Kompleks Perumahan Sri Negeri",
        "Post_Office": "Langkawi",
        "State": "Kedah"
    },
    {
        "Postcode": "07000",
        "Location": "Kondi Sri Idaman",
        "Post_Office": "Langkawi",
        "State": "Kedah"
    },
    {
        "Postcode": "07000",
        "Location": "Kuah",
        "Post_Office": "Langkawi",
        "State": "Kedah"
    },
    {
        "Postcode": "07000",
        "Location": "Kuala Teriang",
        "Post_Office": "Langkawi",
        "State": "Kedah"
    },
    {
        "Postcode": "07000",
        "Location": "Langkawi",
        "Post_Office": "Langkawi",
        "State": "Kedah"
    },
    {
        "Postcode": "07000",
        "Location": "Oriental Village",
        "Post_Office": "Langkawi",
        "State": "Kedah"
    },
    {
        "Postcode": "07000",
        "Location": "Padang Matsirat",
        "Post_Office": "Langkawi",
        "State": "Kedah"
    },
    {
        "Postcode": "07000",
        "Location": "Perumahan Kedah Cement",
        "Post_Office": "Langkawi",
        "State": "Kedah"
    },
    {
        "Postcode": "07000",
        "Location": "Port Langkasuka",
        "Post_Office": "Langkawi",
        "State": "Kedah"
    },
    {
        "Postcode": "07000",
        "Location": "Pulau Tuba",
        "Post_Office": "Langkawi",
        "State": "Kedah"
    },
    {
        "Postcode": "07000",
        "Location": "Sungai Limau Dalam",
        "Post_Office": "Langkawi",
        "State": "Kedah"
    },
    {
        "Postcode": "07000",
        "Location": "Sungai Raya Estate",
        "Post_Office": "Langkawi",
        "State": "Kedah"
    },
    {
        "Postcode": "07000",
        "Location": "Suria Century Resort",
        "Post_Office": "Langkawi",
        "State": "Kedah"
    },
    {
        "Postcode": "07000",
        "Location": "Taman Ara Jaya",
        "Post_Office": "Langkawi",
        "State": "Kedah"
    },
    {
        "Postcode": "07000",
        "Location": "Taman Dahlia ",
        "Post_Office": "Langkawi",
        "State": "Kedah"
    },
    {
        "Postcode": "07000",
        "Location": "Taman Dayang",
        "Post_Office": "Langkawi",
        "State": "Kedah"
    },
    {
        "Postcode": "07000",
        "Location": "Taman Dayang Berjaya",
        "Post_Office": "Langkawi",
        "State": "Kedah"
    },
    {
        "Postcode": "07000",
        "Location": "Taman Desa Permata",
        "Post_Office": "Langkawi",
        "State": "Kedah"
    },
    {
        "Postcode": "07000",
        "Location": "Taman Indah",
        "Post_Office": "Langkawi",
        "State": "Kedah"
    },
    {
        "Postcode": "07000",
        "Location": "Taman Kemboja",
        "Post_Office": "Langkawi",
        "State": "Kedah"
    },
    {
        "Postcode": "07000",
        "Location": "Taman Langkawi",
        "Post_Office": "Langkawi",
        "State": "Kedah"
    },
    {
        "Postcode": "07000",
        "Location": "Taman Medan Jaya",
        "Post_Office": "Langkawi",
        "State": "Kedah"
    },
    {
        "Postcode": "07000",
        "Location": "Taman Nilam",
        "Post_Office": "Langkawi",
        "State": "Kedah"
    },
    {
        "Postcode": "07000",
        "Location": "Taman Perdana Quay",
        "Post_Office": "Langkawi",
        "State": "Kedah"
    },
    {
        "Postcode": "07000",
        "Location": "Taman Rimba Hijau",
        "Post_Office": "Langkawi",
        "State": "Kedah"
    },
    {
        "Postcode": "07000",
        "Location": "Taman Selaseh",
        "Post_Office": "Langkawi",
        "State": "Kedah"
    },
    {
        "Postcode": "07000",
        "Location": "Taman Seri Ayu",
        "Post_Office": "Langkawi",
        "State": "Kedah"
    },
    {
        "Postcode": "07000",
        "Location": "Taman Seri Berlian",
        "Post_Office": "Langkawi",
        "State": "Kedah"
    },
    {
        "Postcode": "07000",
        "Location": "Taman Seri Langkawi",
        "Post_Office": "Langkawi",
        "State": "Kedah"
    },
    {
        "Postcode": "07000",
        "Location": "Taman Seri Negeri",
        "Post_Office": "Langkawi",
        "State": "Kedah"
    },
    {
        "Postcode": "07000",
        "Location": "Taman Seroja",
        "Post_Office": "Langkawi",
        "State": "Kedah"
    },
    {
        "Postcode": "07000",
        "Location": "Taman Sri Dayang",
        "Post_Office": "Langkawi",
        "State": "Kedah"
    },
    {
        "Postcode": "07000",
        "Location": "Taman Sri Taman",
        "Post_Office": "Langkawi",
        "State": "Kedah"
    },
    {
        "Postcode": "07000",
        "Location": "Taman Unity",
        "Post_Office": "Langkawi",
        "State": "Kedah"
    },
    {
        "Postcode": "07000",
        "Location": "Taman Vokesional",
        "Post_Office": "Langkawi",
        "State": "Kedah"
    },
    {
        "Postcode": "07000",
        "Location": "Taman Wawasan Baru",
        "Post_Office": "Langkawi",
        "State": "Kedah"
    },
    {
        "Postcode": "07000",
        "Location": "Tanjung Gerak",
        "Post_Office": "Langkawi",
        "State": "Kedah"
    },
    {
        "Postcode": "07000",
        "Location": "Telaga Tujuh",
        "Post_Office": "Langkawi",
        "State": "Kedah"
    },
    {
        "Postcode": "07000",
        "Location": "Tok Puyuh",
        "Post_Office": "Langkawi",
        "State": "Kedah"
    },
    {
        "Postcode": "07000",
        "Location": "Ulu Melaka",
        "Post_Office": "Langkawi",
        "State": "Kedah"
    },
    {
        "Postcode": "07000",
        "Location": "Kampung Teluk Yu",
        "Post_Office": "Langkawi",
        "State": "Kedah"
    },
    {
        "Postcode": "07000",
        "Location": "Felcra Kok",
        "Post_Office": "Langkawi",
        "State": "Kedah"
    },
    {
        "Postcode": "07000",
        "Location": "Kampung Bakau",
        "Post_Office": "Langkawi",
        "State": "Kedah"
    },
    {
        "Postcode": "07000",
        "Location": "Kampung Bayas",
        "Post_Office": "Langkawi",
        "State": "Kedah"
    },
    {
        "Postcode": "07000",
        "Location": "Kampung Chandek Kura",
        "Post_Office": "Langkawi",
        "State": "Kedah"
    },
    {
        "Postcode": "07000",
        "Location": "Kampung Ewa",
        "Post_Office": "Langkawi",
        "State": "Kedah"
    },
    {
        "Postcode": "07000",
        "Location": "Kampung Ketapang ",
        "Post_Office": "Langkawi",
        "State": "Kedah"
    },
    {
        "Postcode": "07000",
        "Location": "Kampung Lubuk Buaya",
        "Post_Office": "Langkawi",
        "State": "Kedah"
    },
    {
        "Postcode": "07000",
        "Location": "Kampung Lubuk Chempedak",
        "Post_Office": "Langkawi",
        "State": "Kedah"
    },
    {
        "Postcode": "07000",
        "Location": "Kampung Padang Gaong",
        "Post_Office": "Langkawi",
        "State": "Kedah"
    },
    {
        "Postcode": "07000",
        "Location": "Kampung Tanjung Mali",
        "Post_Office": "Langkawi",
        "State": "Kedah"
    },
    {
        "Postcode": "07000",
        "Location": "Kampung Temoyong",
        "Post_Office": "Langkawi",
        "State": "Kedah"
    },
    {
        "Postcode": "07000",
        "Location": "Taman Bukit Indah",
        "Post_Office": "Langkawi",
        "State": "Kedah"
    },
    {
        "Postcode": "07000",
        "Location": "Taman Desa Kemboja",
        "Post_Office": "Langkawi",
        "State": "Kedah"
    },
    {
        "Postcode": "07000",
        "Location": "Kampung Berjaya",
        "Post_Office": "Langkawi",
        "State": "Kedah"
    },
    {
        "Postcode": "07000",
        "Location": "Kampung Bukit Hantu",
        "Post_Office": "Langkawi",
        "State": "Kedah"
    },
    {
        "Postcode": "07000",
        "Location": "Kampung Gelam",
        "Post_Office": "Langkawi",
        "State": "Kedah"
    },
    {
        "Postcode": "07000",
        "Location": "Kampung Huma",
        "Post_Office": "Langkawi",
        "State": "Kedah"
    },
    {
        "Postcode": "07000",
        "Location": "Taman Delima",
        "Post_Office": "Langkawi",
        "State": "Kedah"
    },
    {
        "Postcode": "07000",
        "Location": "Taman Intan",
        "Post_Office": "Langkawi",
        "State": "Kedah"
    },
    {
        "Postcode": "07000",
        "Location": "Taman Kenari",
        "Post_Office": "Langkawi",
        "State": "Kedah"
    },
    {
        "Postcode": "07000",
        "Location": "Taman Seri Pelangi",
        "Post_Office": "Langkawi",
        "State": "Kedah"
    }
]
