[
    {
        "Postcode": "27000",
        "Location": "Bersungai Tembeling",
        "Post_Office": "Jerantut",
        "State": "Pahang"
    },
    {
        "Postcode": "27000",
        "Location": "Jerantut",
        "Post_Office": "Jerantut",
        "State": "Pahang"
    },
    {
        "Postcode": "27000",
        "Location": "Kampung Batu Embun",
        "Post_Office": "Jerantut",
        "State": "Pahang"
    },
    {
        "Postcode": "27000",
        "Location": "Kampung Batu Kawah",
        "Post_Office": "Jerantut",
        "State": "Pahang"
    },
    {
        "Postcode": "27000",
        "Location": "Kampung Besol",
        "Post_Office": "Jerantut",
        "State": "Pahang"
    },
    {
        "Postcode": "27000",
        "Location": "Kampung Bukit Dinding",
        "Post_Office": "Jerantut",
        "State": "Pahang"
    },
    {
        "Postcode": "27000",
        "Location": "Kampung Bukit Genting",
        "Post_Office": "Jerantut",
        "State": "Pahang"
    },
    {
        "Postcode": "27000",
        "Location": "Kampung Bukit Puas",
        "Post_Office": "Jerantut",
        "State": "Pahang"
    },
    {
        "Postcode": "27000",
        "Location": "Kampung Gintong",
        "Post_Office": "Jerantut",
        "State": "Pahang"
    },
    {
        "Postcode": "27000",
        "Location": "Kampung Jerangsong",
        "Post_Office": "Jerantut",
        "State": "Pahang"
    },
    {
        "Postcode": "27000",
        "Location": "Kampung Kuala Tahan",
        "Post_Office": "Jerantut",
        "State": "Pahang"
    },
    {
        "Postcode": "27000",
        "Location": "Kampung Lata Kasah",
        "Post_Office": "Jerantut",
        "State": "Pahang"
    },
    {
        "Postcode": "27000",
        "Location": "Kampung Mat Kilau",
        "Post_Office": "Jerantut",
        "State": "Pahang"
    },
    {
        "Postcode": "27000",
        "Location": "Kampung Muhibbah",
        "Post_Office": "Jerantut",
        "State": "Pahang"
    },
    {
        "Postcode": "27000",
        "Location": "Kampung Padang Piol",
        "Post_Office": "Jerantut",
        "State": "Pahang"
    },
    {
        "Postcode": "27000",
        "Location": "Kampung Pamah Kuning",
        "Post_Office": "Jerantut",
        "State": "Pahang"
    },
    {
        "Postcode": "27000",
        "Location": "Kampung Paya Garok",
        "Post_Office": "Jerantut",
        "State": "Pahang"
    },
    {
        "Postcode": "27000",
        "Location": "Kampung Paya The",
        "Post_Office": "Jerantut",
        "State": "Pahang"
    },
    {
        "Postcode": "27000",
        "Location": "Kampung Simpang Tebing Tinggi",
        "Post_Office": "Jerantut",
        "State": "Pahang"
    },
    {
        "Postcode": "27000",
        "Location": "Kampung Sokti",
        "Post_Office": "Jerantut",
        "State": "Pahang"
    },
    {
        "Postcode": "27000",
        "Location": "Kampung Sri Kool",
        "Post_Office": "Jerantut",
        "State": "Pahang"
    },
    {
        "Postcode": "27000",
        "Location": "Kampung Sri Muda",
        "Post_Office": "Jerantut",
        "State": "Pahang"
    },
    {
        "Postcode": "27000",
        "Location": "Kampung Sungai Badak",
        "Post_Office": "Jerantut",
        "State": "Pahang"
    },
    {
        "Postcode": "27000",
        "Location": "Kampung Sungai Lekok",
        "Post_Office": "Jerantut",
        "State": "Pahang"
    },
    {
        "Postcode": "27000",
        "Location": "Kampung Sungai Par Jerantut",
        "Post_Office": "Jerantut",
        "State": "Pahang"
    },
    {
        "Postcode": "27000",
        "Location": "Kampung Tanjong Benta",
        "Post_Office": "Jerantut",
        "State": "Pahang"
    },
    {
        "Postcode": "27000",
        "Location": "Kampung Temin Hilir",
        "Post_Office": "Jerantut",
        "State": "Pahang"
    },
    {
        "Postcode": "27000",
        "Location": "Kampung Temin Ulu",
        "Post_Office": "Jerantut",
        "State": "Pahang"
    },
    {
        "Postcode": "27000",
        "Location": "Km 2 Jalan Temerloh",
        "Post_Office": "Jerantut",
        "State": "Pahang"
    },
    {
        "Postcode": "27000",
        "Location": "Kuala Tahan",
        "Post_Office": "Jerantut",
        "State": "Pahang"
    },
    {
        "Postcode": "27000",
        "Location": "Lorong Embun Jaya 2",
        "Post_Office": "Jerantut",
        "State": "Pahang"
    },
    {
        "Postcode": "27000",
        "Location": "Lorong Si 2",
        "Post_Office": "Jerantut",
        "State": "Pahang"
    },
    {
        "Postcode": "27000",
        "Location": "Lorong Wawasan 1/1",
        "Post_Office": "Jerantut",
        "State": "Pahang"
    },
    {
        "Postcode": "27000",
        "Location": "Mukim Pedah",
        "Post_Office": "Jerantut",
        "State": "Pahang"
    },
    {
        "Postcode": "27000",
        "Location": "Perumahan Kos Rendah Kampung Jaya Jerantut",
        "Post_Office": "Jerantut",
        "State": "Pahang"
    },
    {
        "Postcode": "27000",
        "Location": "Rrm Bandar Baru",
        "Post_Office": "Jerantut",
        "State": "Pahang"
    },
    {
        "Postcode": "27000",
        "Location": "Sungai Jan",
        "Post_Office": "Jerantut",
        "State": "Pahang"
    },
    {
        "Postcode": "27000",
        "Location": "Taman Alamanda",
        "Post_Office": "Jerantut",
        "State": "Pahang"
    },
    {
        "Postcode": "27000",
        "Location": "Taman Bukit Ketupat",
        "Post_Office": "Jerantut",
        "State": "Pahang"
    },
    {
        "Postcode": "27000",
        "Location": "Taman Bukit Pedah",
        "Post_Office": "Jerantut",
        "State": "Pahang"
    },
    {
        "Postcode": "27000",
        "Location": "Taman Bukit Permai",
        "Post_Office": "Jerantut",
        "State": "Pahang"
    },
    {
        "Postcode": "27000",
        "Location": "Taman Desa Indah",
        "Post_Office": "Jerantut",
        "State": "Pahang"
    },
    {
        "Postcode": "27000",
        "Location": "Taman Desa Wawasan",
        "Post_Office": "Jerantut",
        "State": "Pahang"
    },
    {
        "Postcode": "27000",
        "Location": "Taman Impian",
        "Post_Office": "Jerantut",
        "State": "Pahang"
    },
    {
        "Postcode": "27000",
        "Location": "Taman Inderapura",
        "Post_Office": "Jerantut",
        "State": "Pahang"
    },
    {
        "Postcode": "27000",
        "Location": "Taman Jerantut",
        "Post_Office": "Jerantut",
        "State": "Pahang"
    },
    {
        "Postcode": "27000",
        "Location": "Taman Kelisa",
        "Post_Office": "Jerantut",
        "State": "Pahang"
    },
    {
        "Postcode": "27000",
        "Location": "Taman Koperasi",
        "Post_Office": "Jerantut",
        "State": "Pahang"
    },
    {
        "Postcode": "27000",
        "Location": "Taman Mawar Murni",
        "Post_Office": "Jerantut",
        "State": "Pahang"
    },
    {
        "Postcode": "27000",
        "Location": "Taman Pedah Jaya",
        "Post_Office": "Jerantut",
        "State": "Pahang"
    },
    {
        "Postcode": "27000",
        "Location": "Taman Pine",
        "Post_Office": "Jerantut",
        "State": "Pahang"
    },
    {
        "Postcode": "27000",
        "Location": "Taman Raya Wira",
        "Post_Office": "Jerantut",
        "State": "Pahang"
    },
    {
        "Postcode": "27000",
        "Location": "Taman Ria",
        "Post_Office": "Jerantut",
        "State": "Pahang"
    },
    {
        "Postcode": "27000",
        "Location": "Taman Saujana Idaman",
        "Post_Office": "Jerantut",
        "State": "Pahang"
    },
    {
        "Postcode": "27000",
        "Location": "Taman Sri Embun",
        "Post_Office": "Jerantut",
        "State": "Pahang"
    },
    {
        "Postcode": "27000",
        "Location": "Taman Sri Tahan",
        "Post_Office": "Jerantut",
        "State": "Pahang"
    },
    {
        "Postcode": "27000",
        "Location": "Taman Tiow Soon",
        "Post_Office": "Jerantut",
        "State": "Pahang"
    },
    {
        "Postcode": "27000",
        "Location": "Ulu Tembeling",
        "Post_Office": "Jerantut",
        "State": "Pahang"
    },
    {
        "Postcode": "27000",
        "Location": "Ulu Tembeling Damak",
        "Post_Office": "Jerantut",
        "State": "Pahang"
    },
    {
        "Postcode": "27000",
        "Location": "Kampung Jerangsang",
        "Post_Office": "Jerantut",
        "State": "Pahang"
    },
    {
        "Postcode": "27000",
        "Location": "Kampung Tebing Tinggi",
        "Post_Office": "Jerantut",
        "State": "Pahang"
    },
    {
        "Postcode": "27000",
        "Location": "Taman Damai",
        "Post_Office": "Jerantut",
        "State": "Pahang"
    },
    {
        "Postcode": "27000",
        "Location": "Taman Desa Jaya",
        "Post_Office": "Jerantut",
        "State": "Pahang"
    },
    {
        "Postcode": "27000",
        "Location": "Taman Jaya",
        "Post_Office": "Jerantut",
        "State": "Pahang"
    },
    {
        "Postcode": "27000",
        "Location": "Taman Mat Kilau",
        "Post_Office": "Jerantut",
        "State": "Pahang"
    },
    {
        "Postcode": "27000",
        "Location": "Taman Pelangi",
        "Post_Office": "Jerantut",
        "State": "Pahang"
    },
    {
        "Postcode": "27000",
        "Location": "Jalan Teratai 2",
        "Post_Office": "Jerantut",
        "State": "Pahang"
    },
    {
        "Postcode": "27000",
        "Location": "Lorong Damai 6/3",
        "Post_Office": "Jerantut",
        "State": "Pahang"
    },
    {
        "Postcode": "27000",
        "Location": "Taman Damai Fasa 3",
        "Post_Office": "Jerantut",
        "State": "Pahang"
    },
    {
        "Postcode": "27000",
        "Location": "Lorong Taman Wj",
        "Post_Office": "Jerantut",
        "State": "Pahang"
    },
    {
        "Postcode": "27000",
        "Location": "Taman Woodland Jaya",
        "Post_Office": "Jerantut",
        "State": "Pahang"
    },
    {
        "Postcode": "27000",
        "Location": "Kampung Binjai",
        "Post_Office": "Jerantut",
        "State": "Pahang"
    },
    {
        "Postcode": "27000",
        "Location": "Kampung Bukit Ketupat",
        "Post_Office": "Jerantut",
        "State": "Pahang"
    },
    {
        "Postcode": "27000",
        "Location": "Kampung Buntut Pulau",
        "Post_Office": "Jerantut",
        "State": "Pahang"
    },
    {
        "Postcode": "27000",
        "Location": "Taman Angsana",
        "Post_Office": "Jerantut",
        "State": "Pahang"
    },
    {
        "Postcode": "27000",
        "Location": "Taman Berlian",
        "Post_Office": "Jerantut",
        "State": "Pahang"
    },
    {
        "Postcode": "27000",
        "Location": "Taman Cempaka",
        "Post_Office": "Jerantut",
        "State": "Pahang"
    },
    {
        "Postcode": "27000",
        "Location": "Taman Gemilang",
        "Post_Office": "Jerantut",
        "State": "Pahang"
    },
    {
        "Postcode": "27000",
        "Location": "Taman Mawar",
        "Post_Office": "Jerantut",
        "State": "Pahang"
    },
    {
        "Postcode": "27000",
        "Location": "Taman Muhibbah",
        "Post_Office": "Jerantut",
        "State": "Pahang"
    },
    {
        "Postcode": "27000",
        "Location": "Taman Mutiara",
        "Post_Office": "Jerantut",
        "State": "Pahang"
    },
    {
        "Postcode": "27000",
        "Location": "Taman Perdana",
        "Post_Office": "Jerantut",
        "State": "Pahang"
    },
    {
        "Postcode": "27000",
        "Location": "Taman Raya",
        "Post_Office": "Jerantut",
        "State": "Pahang"
    },
    {
        "Postcode": "27000",
        "Location": "Taman Ruby",
        "Post_Office": "Jerantut",
        "State": "Pahang"
    },
    {
        "Postcode": "27000",
        "Location": "Taman Sentosa",
        "Post_Office": "Jerantut",
        "State": "Pahang"
    },
    {
        "Postcode": "27000",
        "Location": "Taman Sri Makmur",
        "Post_Office": "Jerantut",
        "State": "Pahang"
    },
    {
        "Postcode": "27000",
        "Location": "Taman Teratai",
        "Post_Office": "Jerantut",
        "State": "Pahang"
    },
    {
        "Postcode": "27000",
        "Location": "Jalan Sejahtera",
        "Post_Office": "Jerantut",
        "State": "Pahang"
    },
    {
        "Postcode": "27000",
        "Location": "Taman Sejahtera",
        "Post_Office": "Jerantut",
        "State": "Pahang"
    },
    {
        "Postcode": "27000",
        "Location": "Jalan Bandar Baru 12",
        "Post_Office": "Jerantut",
        "State": "Pahang"
    },
    {
        "Postcode": "27000",
        "Location": "Taman Desa Gemilang",
        "Post_Office": "Jerantut",
        "State": "Pahang"
    },
    {
        "Postcode": "27000",
        "Location": "Taman Angsana Height",
        "Post_Office": "Jerantut",
        "State": "Pahang"
    },
    {
        "Postcode": "27000",
        "Location": "Taman Saujana Utama",
        "Post_Office": "Jerantut",
        "State": "Pahang"
    },
    {
        "Postcode": "27000",
        "Location": "Pusat Perniagaan Persona",
        "Post_Office": "Jerantut",
        "State": "Pahang"
    },
    {
        "Postcode": "27000",
        "Location": "Taman Teratai 2",
        "Post_Office": "Jerantut",
        "State": "Pahang"
    },
    {
        "Postcode": "27000",
        "Location": "Taman Villa Mutiara",
        "Post_Office": "Jerantut",
        "State": "Pahang"
    },
    {
        "Postcode": "27000",
        "Location": "Kawasan Industri Ringan Chuan Huat 2",
        "Post_Office": "Jerantut",
        "State": "Pahang"
    },
    {
        "Postcode": "27000",
        "Location": "Taman Embun Jaya",
        "Post_Office": "Jerantut",
        "State": "Pahang"
    },
    {
        "Postcode": "27000",
        "Location": "Taman Perdana 2",
        "Post_Office": "Jerantut",
        "State": "Pahang"
    },
    {
        "Postcode": "27000",
        "Location": "Taman Teratai 3",
        "Post_Office": "Jerantut",
        "State": "Pahang"
    },
    {
        "Postcode": "27000",
        "Location": "Taman Alam Pedah",
        "Post_Office": "Jerantut",
        "State": "Pahang"
    },
    {
        "Postcode": "27000",
        "Location": "Kota Gelanggi 1",
        "Post_Office": "Jerantut",
        "State": "Pahang"
    },
    {
        "Postcode": "27000",
        "Location": "Kota Gelanggi 2",
        "Post_Office": "Jerantut",
        "State": "Pahang"
    },
    {
        "Postcode": "27000",
        "Location": "Taman Lknp 1",
        "Post_Office": "Jerantut",
        "State": "Pahang"
    },
    {
        "Postcode": "27000",
        "Location": "Taman Lknp 2",
        "Post_Office": "Jerantut",
        "State": "Pahang"
    },
    {
        "Postcode": "27000",
        "Location": "Taman Lknp 3",
        "Post_Office": "Jerantut",
        "State": "Pahang"
    },
    {
        "Postcode": "27000",
        "Location": "Taman Lknp 4",
        "Post_Office": "Jerantut",
        "State": "Pahang"
    }
]
