[
    {
        "Postcode": "27010",
        "Location": "Kampung Cheka",
        "Post_Office": "Jerantut",
        "State": "Pahang"
    },
    {
        "Postcode": "27010",
        "Location": "Kampung Gemunchor",
        "Post_Office": "Jerantut",
        "State": "Pahang"
    },
    {
        "Postcode": "27010",
        "Location": "Kampung Jani",
        "Post_Office": "Jerantut",
        "State": "Pahang"
    },
    {
        "Postcode": "27010",
        "Location": "Kampung Limau Purut",
        "Post_Office": "Jerantut",
        "State": "Pahang"
    },
    {
        "Postcode": "27010",
        "Location": "Kampung Redan",
        "Post_Office": "Jerantut",
        "State": "Pahang"
    },
    {
        "Postcode": "27010",
        "Location": "Kampung Sarak",
        "Post_Office": "Jerantut",
        "State": "Pahang"
    },
    {
        "Postcode": "27010",
        "Location": "Kampung Selang Datok",
        "Post_Office": "Jerantut",
        "State": "Pahang"
    },
    {
        "Postcode": "27010",
        "Location": "Kampung Serdang",
        "Post_Office": "Jerantut",
        "State": "Pahang"
    },
    {
        "Postcode": "27010",
        "Location": "Kampung Serunai",
        "Post_Office": "Jerantut",
        "State": "Pahang"
    },
    {
        "Postcode": "27010",
        "Location": "Mela Jerantut",
        "Post_Office": "Jerantut",
        "State": "Pahang"
    },
    {
        "Postcode": "27010",
        "Location": "Kampung Gading",
        "Post_Office": "Jerantut",
        "State": "Pahang"
    }
]
