[
    {
        "Postcode": "27020",
        "Location": "Kampung Kuala Retang",
        "Post_Office": "Jerantut",
        "State": "Pahang"
    },
    {
        "Postcode": "27020",
        "Location": "Kampung Lahang",
        "Post_Office": "Jerantut",
        "State": "Pahang"
    },
    {
        "Postcode": "27020",
        "Location": "Kampung Pamah Limau",
        "Post_Office": "Jerantut",
        "State": "Pahang"
    },
    {
        "Postcode": "27020",
        "Location": "Kampung Sepail",
        "Post_Office": "Jerantut",
        "State": "Pahang"
    },
    {
        "Postcode": "27020",
        "Location": "Kampung Sungai Yap",
        "Post_Office": "Jerantut",
        "State": "Pahang"
    },
    {
        "Postcode": "27020",
        "Location": "Kampung Talus",
        "Post_Office": "Jerantut",
        "State": "Pahang"
    },
    {
        "Postcode": "27020",
        "Location": "Kampung Tanjung Bungor",
        "Post_Office": "Jerantut",
        "State": "Pahang"
    },
    {
        "Postcode": "27020",
        "Location": "Kuala Tembeling",
        "Post_Office": "Jerantut",
        "State": "Pahang"
    },
    {
        "Postcode": "27020",
        "Location": "Kampung Lalang",
        "Post_Office": "Jerantut",
        "State": "Pahang"
    }
]
