[
    {
        "Postcode": "27030",
        "Location": "Batu Balai",
        "Post_Office": "Damak",
        "State": "Pahang"
    },
    {
        "Postcode": "27030",
        "Location": "Bukit Chermin",
        "Post_Office": "Damak",
        "State": "Pahang"
    },
    {
        "Postcode": "27030",
        "Location": "Damak",
        "Post_Office": "Damak",
        "State": "Pahang"
    },
    {
        "Postcode": "27030",
        "Location": "Jalan Masjid Jamek",
        "Post_Office": "Damak",
        "State": "Pahang"
    },
    {
        "Postcode": "27030",
        "Location": "Kampung Anak Gajah",
        "Post_Office": "Damak",
        "State": "Pahang"
    },
    {
        "Postcode": "27030",
        "Location": "Kampung Balang",
        "Post_Office": "Damak",
        "State": "Pahang"
    },
    {
        "Postcode": "27030",
        "Location": "Kampung Batu 35",
        "Post_Office": "Damak",
        "State": "Pahang"
    },
    {
        "Postcode": "27030",
        "Location": "Kampung Batu 40",
        "Post_Office": "Damak",
        "State": "Pahang"
    },
    {
        "Postcode": "27030",
        "Location": "Kampung Batu Balai Jambatan",
        "Post_Office": "Damak",
        "State": "Pahang"
    },
    {
        "Postcode": "27030",
        "Location": "Kampung Bau",
        "Post_Office": "Damak",
        "State": "Pahang"
    },
    {
        "Postcode": "27030",
        "Location": "Kampung Berau",
        "Post_Office": "Damak",
        "State": "Pahang"
    },
    {
        "Postcode": "27030",
        "Location": "Kampung Berlukar",
        "Post_Office": "Damak",
        "State": "Pahang"
    },
    {
        "Postcode": "27030",
        "Location": "Kampung Bukit Baru",
        "Post_Office": "Damak",
        "State": "Pahang"
    },
    {
        "Postcode": "27030",
        "Location": "Kampung Bukit Kor",
        "Post_Office": "Damak",
        "State": "Pahang"
    },
    {
        "Postcode": "27030",
        "Location": "Kampung Cengkuak",
        "Post_Office": "Damak",
        "State": "Pahang"
    },
    {
        "Postcode": "27030",
        "Location": "Kampung Chap",
        "Post_Office": "Damak",
        "State": "Pahang"
    },
    {
        "Postcode": "27030",
        "Location": "Kampung Damak",
        "Post_Office": "Damak",
        "State": "Pahang"
    },
    {
        "Postcode": "27030",
        "Location": "Kampung Jaya Putra",
        "Post_Office": "Damak",
        "State": "Pahang"
    },
    {
        "Postcode": "27030",
        "Location": "Kampung Jelai",
        "Post_Office": "Damak",
        "State": "Pahang"
    },
    {
        "Postcode": "27030",
        "Location": "Kampung Jeneris",
        "Post_Office": "Damak",
        "State": "Pahang"
    },
    {
        "Postcode": "27030",
        "Location": "Kampung Jinggu",
        "Post_Office": "Damak",
        "State": "Pahang"
    },
    {
        "Postcode": "27030",
        "Location": "Kampung Kaki Bukit",
        "Post_Office": "Damak",
        "State": "Pahang"
    },
    {
        "Postcode": "27030",
        "Location": "Kampung Koi",
        "Post_Office": "Damak",
        "State": "Pahang"
    },
    {
        "Postcode": "27030",
        "Location": "Kampung Konggo",
        "Post_Office": "Damak",
        "State": "Pahang"
    },
    {
        "Postcode": "27030",
        "Location": "Kampung Peka Sari Ulu Chek",
        "Post_Office": "Damak",
        "State": "Pahang"
    },
    {
        "Postcode": "27030",
        "Location": "Kampung Perlok",
        "Post_Office": "Damak",
        "State": "Pahang"
    },
    {
        "Postcode": "27030",
        "Location": "Kampung Som",
        "Post_Office": "Damak",
        "State": "Pahang"
    },
    {
        "Postcode": "27030",
        "Location": "Kampung Sungai Balang",
        "Post_Office": "Damak",
        "State": "Pahang"
    },
    {
        "Postcode": "27030",
        "Location": "Kampung Sungai Berjuang",
        "Post_Office": "Damak",
        "State": "Pahang"
    },
    {
        "Postcode": "27030",
        "Location": "Kampung Tanjung Puteri",
        "Post_Office": "Damak",
        "State": "Pahang"
    },
    {
        "Postcode": "27030",
        "Location": "Kampung Tepam",
        "Post_Office": "Damak",
        "State": "Pahang"
    },
    {
        "Postcode": "27030",
        "Location": "Kampung Ulu Cheka",
        "Post_Office": "Damak",
        "State": "Pahang"
    },
    {
        "Postcode": "27030",
        "Location": "Kawasan Pejabat",
        "Post_Office": "Damak",
        "State": "Pahang"
    },
    {
        "Postcode": "27030",
        "Location": "Kuala Kenang",
        "Post_Office": "Damak",
        "State": "Pahang"
    },
    {
        "Postcode": "27030",
        "Location": "Ladang Kingsmeat",
        "Post_Office": "Damak",
        "State": "Pahang"
    },
    {
        "Postcode": "27030",
        "Location": "Rps Batu Balai",
        "Post_Office": "Damak",
        "State": "Pahang"
    },
    {
        "Postcode": "27030",
        "Location": "Taman Damak",
        "Post_Office": "Damak",
        "State": "Pahang"
    },
    {
        "Postcode": "27030",
        "Location": "Taman Sri Damak",
        "Post_Office": "Damak",
        "State": "Pahang"
    },
    {
        "Postcode": "27030",
        "Location": "Ulu Cheka Damak",
        "Post_Office": "Damak",
        "State": "Pahang"
    },
    {
        "Postcode": "27030",
        "Location": "Kampung Batu Balai",
        "Post_Office": "Damak",
        "State": "Pahang"
    },
    {
        "Postcode": "27030",
        "Location": "Kampung Bukit Batu",
        "Post_Office": "Damak",
        "State": "Pahang"
    },
    {
        "Postcode": "27030",
        "Location": "Kampung Sempadan",
        "Post_Office": "Damak",
        "State": "Pahang"
    },
    {
        "Postcode": "27030",
        "Location": "Kampung Tengah",
        "Post_Office": "Damak",
        "State": "Pahang"
    },
    {
        "Postcode": "27030",
        "Location": "Kampung Terlang",
        "Post_Office": "Damak",
        "State": "Pahang"
    }
]
