[
    {
        "Postcode": "27040",
        "Location": "Kampung Gajah Mati",
        "Post_Office": "Jerantut",
        "State": "Pahang"
    },
    {
        "Postcode": "27040",
        "Location": "Felda Sungai Retang",
        "Post_Office": "Jerantut",
        "State": "Pahang"
    },
    {
        "Postcode": "27040",
        "Location": "Kampung Hulu Retang",
        "Post_Office": "Jerantut",
        "State": "Pahang"
    },
    {
        "Postcode": "27040",
        "Location": "Kampung Pasir Durian",
        "Post_Office": "Jerantut",
        "State": "Pahang"
    },
    {
        "Postcode": "27040",
        "Location": "Kampung Sungai Putat",
        "Post_Office": "Jerantut",
        "State": "Pahang"
    },
    {
        "Postcode": "27040",
        "Location": "Kampung Tanjung Betong",
        "Post_Office": "Jerantut",
        "State": "Pahang"
    },
    {
        "Postcode": "27040",
        "Location": "Padang Piol",
        "Post_Office": "Jerantut",
        "State": "Pahang"
    },
    {
        "Postcode": "27040",
        "Location": "Perumahan Generasi Baru Felda Padang Piol",
        "Post_Office": "Jerantut",
        "State": "Pahang"
    }
]
