[
    {
        "Postcode": "27050",
        "Location": "Kampung Kerayong",
        "Post_Office": "Jerantut",
        "State": "Pahang"
    },
    {
        "Postcode": "27050",
        "Location": "Kampung Masjid",
        "Post_Office": "Jerantut",
        "State": "Pahang"
    },
    {
        "Postcode": "27050",
        "Location": "Bukit Rang",
        "Post_Office": "Jerantut",
        "State": "Pahang"
    },
    {
        "Postcode": "27050",
        "Location": "Burau",
        "Post_Office": "Jerantut",
        "State": "Pahang"
    },
    {
        "Postcode": "27050",
        "Location": "Kampung Bandar",
        "Post_Office": "Jerantut",
        "State": "Pahang"
    },
    {
        "Postcode": "27050",
        "Location": "Kampung Kedondong",
        "Post_Office": "Jerantut",
        "State": "Pahang"
    },
    {
        "Postcode": "27050",
        "Location": "Kampung Kubang Sekandal",
        "Post_Office": "Jerantut",
        "State": "Pahang"
    },
    {
        "Postcode": "27050",
        "Location": "Kampung Perian",
        "Post_Office": "Jerantut",
        "State": "Pahang"
    },
    {
        "Postcode": "27050",
        "Location": "Pulau Tawar",
        "Post_Office": "Jerantut",
        "State": "Pahang"
    },
    {
        "Postcode": "27050",
        "Location": "Sungai Retang",
        "Post_Office": "Jerantut",
        "State": "Pahang"
    },
    {
        "Postcode": "27050",
        "Location": "Kampung Pamah Keruing",
        "Post_Office": "Jerantut",
        "State": "Pahang"
    }
]
