[
    {
        "Postcode": "27090",
        "Location": "Kampung Batu Leja",
        "Post_Office": "Jerantut",
        "State": "Pahang"
    },
    {
        "Postcode": "27090",
        "Location": "Kampung Bukit Nikmat",
        "Post_Office": "Jerantut",
        "State": "Pahang"
    },
    {
        "Postcode": "27090",
        "Location": "Kampung Burau",
        "Post_Office": "Jerantut",
        "State": "Pahang"
    },
    {
        "Postcode": "27090",
        "Location": "Kampung Durian Hijau",
        "Post_Office": "Jerantut",
        "State": "Pahang"
    },
    {
        "Postcode": "27090",
        "Location": "Kampung Kelola",
        "Post_Office": "Jerantut",
        "State": "Pahang"
    },
    {
        "Postcode": "27090",
        "Location": "Kampung Kepala Pulau",
        "Post_Office": "Jerantut",
        "State": "Pahang"
    },
    {
        "Postcode": "27090",
        "Location": "Kampung Padang Sengkelau",
        "Post_Office": "Jerantut",
        "State": "Pahang"
    },
    {
        "Postcode": "27090",
        "Location": "Kampung Tanjong Antam",
        "Post_Office": "Jerantut",
        "State": "Pahang"
    },
    {
        "Postcode": "27090",
        "Location": "Kampung Tanjong Belanja",
        "Post_Office": "Jerantut",
        "State": "Pahang"
    },
    {
        "Postcode": "27090",
        "Location": "Kampung Benta",
        "Post_Office": "Jerantut",
        "State": "Pahang"
    }
]
