[
    {
        "Postcode": "27100",
        "Location": "Kampung Baru",
        "Post_Office": "Padang Tengku",
        "State": "Pahang"
    },
    {
        "Postcode": "27100",
        "Location": "Batu 16 Jalan Pagar Sasak",
        "Post_Office": "Padang Tengku",
        "State": "Pahang"
    },
    {
        "Postcode": "27100",
        "Location": "Kampung Balik Gua",
        "Post_Office": "Padang Tengku",
        "State": "Pahang"
    },
    {
        "Postcode": "27100",
        "Location": "Kampung Batu Burong",
        "Post_Office": "Padang Tengku",
        "State": "Pahang"
    },
    {
        "Postcode": "27100",
        "Location": "Kampung Batu Nering",
        "Post_Office": "Padang Tengku",
        "State": "Pahang"
    },
    {
        "Postcode": "27100",
        "Location": "Kampung Beralas",
        "Post_Office": "Padang Tengku",
        "State": "Pahang"
    },
    {
        "Postcode": "27100",
        "Location": "Kampung Berchang",
        "Post_Office": "Padang Tengku",
        "State": "Pahang"
    },
    {
        "Postcode": "27100",
        "Location": "Kampung Bukit",
        "Post_Office": "Padang Tengku",
        "State": "Pahang"
    },
    {
        "Postcode": "27100",
        "Location": "Kampung Daling Hilir/Hulu",
        "Post_Office": "Padang Tengku",
        "State": "Pahang"
    },
    {
        "Postcode": "27100",
        "Location": "Kampung Dusun",
        "Post_Office": "Padang Tengku",
        "State": "Pahang"
    },
    {
        "Postcode": "27100",
        "Location": "Kampung Gelanggang",
        "Post_Office": "Padang Tengku",
        "State": "Pahang"
    },
    {
        "Postcode": "27100",
        "Location": "Kampung Gua",
        "Post_Office": "Padang Tengku",
        "State": "Pahang"
    },
    {
        "Postcode": "27100",
        "Location": "Kampung Kebal",
        "Post_Office": "Padang Tengku",
        "State": "Pahang"
    },
    {
        "Postcode": "27100",
        "Location": "Kampung Kechor Tui",
        "Post_Office": "Padang Tengku",
        "State": "Pahang"
    },
    {
        "Postcode": "27100",
        "Location": "Kampung Keramat",
        "Post_Office": "Padang Tengku",
        "State": "Pahang"
    },
    {
        "Postcode": "27100",
        "Location": "Kampung Kuala Bedong",
        "Post_Office": "Padang Tengku",
        "State": "Pahang"
    },
    {
        "Postcode": "27100",
        "Location": "Kampung Kuala Tebang",
        "Post_Office": "Padang Tengku",
        "State": "Pahang"
    },
    {
        "Postcode": "27100",
        "Location": "Kampung Melaka",
        "Post_Office": "Padang Tengku",
        "State": "Pahang"
    },
    {
        "Postcode": "27100",
        "Location": "Kampung Padang Lebak",
        "Post_Office": "Padang Tengku",
        "State": "Pahang"
    },
    {
        "Postcode": "27100",
        "Location": "Kampung Pagar Sasak",
        "Post_Office": "Padang Tengku",
        "State": "Pahang"
    },
    {
        "Postcode": "27100",
        "Location": "Kampung Pamah Jijak",
        "Post_Office": "Padang Tengku",
        "State": "Pahang"
    },
    {
        "Postcode": "27100",
        "Location": "Kampung Pasir Sia",
        "Post_Office": "Padang Tengku",
        "State": "Pahang"
    },
    {
        "Postcode": "27100",
        "Location": "Kampung Perlak",
        "Post_Office": "Padang Tengku",
        "State": "Pahang"
    },
    {
        "Postcode": "27100",
        "Location": "Kampung Petola",
        "Post_Office": "Padang Tengku",
        "State": "Pahang"
    },
    {
        "Postcode": "27100",
        "Location": "Kampung Rimau",
        "Post_Office": "Padang Tengku",
        "State": "Pahang"
    },
    {
        "Postcode": "27100",
        "Location": "Kampung Seberang Jelai",
        "Post_Office": "Padang Tengku",
        "State": "Pahang"
    },
    {
        "Postcode": "27100",
        "Location": "Kampung Sungai Mun",
        "Post_Office": "Padang Tengku",
        "State": "Pahang"
    },
    {
        "Postcode": "27100",
        "Location": "Kampung Teha",
        "Post_Office": "Padang Tengku",
        "State": "Pahang"
    },
    {
        "Postcode": "27100",
        "Location": "Kampung Telemin",
        "Post_Office": "Padang Tengku",
        "State": "Pahang"
    },
    {
        "Postcode": "27100",
        "Location": "Kampung Tenggok",
        "Post_Office": "Padang Tengku",
        "State": "Pahang"
    },
    {
        "Postcode": "27100",
        "Location": "Ladang Dura",
        "Post_Office": "Padang Tengku",
        "State": "Pahang"
    },
    {
        "Postcode": "27100",
        "Location": "Ladang Selborne",
        "Post_Office": "Padang Tengku",
        "State": "Pahang"
    },
    {
        "Postcode": "27100",
        "Location": "Lktp Kecau 1",
        "Post_Office": "Padang Tengku",
        "State": "Pahang"
    },
    {
        "Postcode": "27100",
        "Location": "Lubok Kulit",
        "Post_Office": "Padang Tengku",
        "State": "Pahang"
    },
    {
        "Postcode": "27100",
        "Location": "Padang Tengku",
        "Post_Office": "Padang Tengku",
        "State": "Pahang"
    },
    {
        "Postcode": "27100",
        "Location": "Sungai Selancar",
        "Post_Office": "Padang Tengku",
        "State": "Pahang"
    },
    {
        "Postcode": "27100",
        "Location": "Kampung Selindang",
        "Post_Office": "Padang Tengku",
        "State": "Pahang"
    },
    {
        "Postcode": "27100",
        "Location": "Kampung Sentang",
        "Post_Office": "Padang Tengku",
        "State": "Pahang"
    },
    {
        "Postcode": "27100",
        "Location": "Felda Chegar Perah 1",
        "Post_Office": "Padang Tengku",
        "State": "Pahang"
    },
    {
        "Postcode": "27100",
        "Location": "Felda Chegar Perah 2",
        "Post_Office": "Padang Tengku",
        "State": "Pahang"
    },
    {
        "Postcode": "27100",
        "Location": "Felda Chegar Perah 3",
        "Post_Office": "Padang Tengku",
        "State": "Pahang"
    },
    {
        "Postcode": "27100",
        "Location": "Felda Chegar Perah 4",
        "Post_Office": "Padang Tengku",
        "State": "Pahang"
    },
    {
        "Postcode": "27100",
        "Location": "Felda Kechau 1",
        "Post_Office": "Padang Tengku",
        "State": "Pahang"
    },
    {
        "Postcode": "27100",
        "Location": "Felda Kechau 2",
        "Post_Office": "Padang Tengku",
        "State": "Pahang"
    },
    {
        "Postcode": "27100",
        "Location": "Felda Kechau 3",
        "Post_Office": "Padang Tengku",
        "State": "Pahang"
    },
    {
        "Postcode": "27100",
        "Location": "Felda Kechau 4",
        "Post_Office": "Padang Tengku",
        "State": "Pahang"
    },
    {
        "Postcode": "27100",
        "Location": "Felda Kechau 5",
        "Post_Office": "Padang Tengku",
        "State": "Pahang"
    },
    {
        "Postcode": "27100",
        "Location": "Felda Kechau 6",
        "Post_Office": "Padang Tengku",
        "State": "Pahang"
    },
    {
        "Postcode": "27100",
        "Location": "Felda Kechau 7",
        "Post_Office": "Padang Tengku",
        "State": "Pahang"
    }
]
