[
    {
        "Postcode": "27150",
        "Location": "Kampung Jerantut Feri",
        "Post_Office": "Jerantut",
        "State": "Pahang"
    },
    {
        "Postcode": "27150",
        "Location": "Kampung Kelonding",
        "Post_Office": "Jerantut",
        "State": "Pahang"
    },
    {
        "Postcode": "27150",
        "Location": "Kampung Kolam",
        "Post_Office": "Jerantut",
        "State": "Pahang"
    },
    {
        "Postcode": "27150",
        "Location": "Kampung Lada",
        "Post_Office": "Jerantut",
        "State": "Pahang"
    },
    {
        "Postcode": "27150",
        "Location": "Kampung Pamah Dusun",
        "Post_Office": "Jerantut",
        "State": "Pahang"
    },
    {
        "Postcode": "27150",
        "Location": "Kampung Paya Gunong",
        "Post_Office": "Jerantut",
        "State": "Pahang"
    },
    {
        "Postcode": "27150",
        "Location": "Kampung Pedah",
        "Post_Office": "Jerantut",
        "State": "Pahang"
    },
    {
        "Postcode": "27150",
        "Location": "Kampung Tanah Nyior",
        "Post_Office": "Jerantut",
        "State": "Pahang"
    },
    {
        "Postcode": "27150",
        "Location": "Taman Sri Pedah",
        "Post_Office": "Jerantut",
        "State": "Pahang"
    },
    {
        "Postcode": "27150",
        "Location": "Kampung Sentosa",
        "Post_Office": "Jerantut",
        "State": "Pahang"
    }
]
