[
    {
        "Postcode": "27200",
        "Location": "Kampung Dala",
        "Post_Office": "Kuala Lipis",
        "State": "Pahang"
    },
    {
        "Postcode": "27200",
        "Location": "Kampung Lalang",
        "Post_Office": "Kuala Lipis",
        "State": "Pahang"
    },
    {
        "Postcode": "27200",
        "Location": "Taman Damai",
        "Post_Office": "Kuala Lipis",
        "State": "Pahang"
    },
    {
        "Postcode": "27200",
        "Location": "Taman Pertama",
        "Post_Office": "Kuala Lipis",
        "State": "Pahang"
    },
    {
        "Postcode": "27200",
        "Location": "Batu Sepuloh",
        "Post_Office": "Kuala Lipis",
        "State": "Pahang"
    },
    {
        "Postcode": "27200",
        "Location": "Bukit Betong",
        "Post_Office": "Kuala Lipis",
        "State": "Pahang"
    },
    {
        "Postcode": "27200",
        "Location": "Desa Aman",
        "Post_Office": "Kuala Lipis",
        "State": "Pahang"
    },
    {
        "Postcode": "27200",
        "Location": "Desa Jeram Batu",
        "Post_Office": "Kuala Lipis",
        "State": "Pahang"
    },
    {
        "Postcode": "27200",
        "Location": "Desa Kenari",
        "Post_Office": "Kuala Lipis",
        "State": "Pahang"
    },
    {
        "Postcode": "27200",
        "Location": "Kampung Banja",
        "Post_Office": "Kuala Lipis",
        "State": "Pahang"
    },
    {
        "Postcode": "27200",
        "Location": "Kampung Bapong",
        "Post_Office": "Kuala Lipis",
        "State": "Pahang"
    },
    {
        "Postcode": "27200",
        "Location": "Kampung Baru Cina Penjom",
        "Post_Office": "Kuala Lipis",
        "State": "Pahang"
    },
    {
        "Postcode": "27200",
        "Location": "Kampung Batu Kurap",
        "Post_Office": "Kuala Lipis",
        "State": "Pahang"
    },
    {
        "Postcode": "27200",
        "Location": "Kampung Berang",
        "Post_Office": "Kuala Lipis",
        "State": "Pahang"
    },
    {
        "Postcode": "27200",
        "Location": "Kampung Berembang",
        "Post_Office": "Kuala Lipis",
        "State": "Pahang"
    },
    {
        "Postcode": "27200",
        "Location": "Kampung Bukit Betong",
        "Post_Office": "Kuala Lipis",
        "State": "Pahang"
    },
    {
        "Postcode": "27200",
        "Location": "Kampung Bukit Damar",
        "Post_Office": "Kuala Lipis",
        "State": "Pahang"
    },
    {
        "Postcode": "27200",
        "Location": "Kampung Bukit Tualang",
        "Post_Office": "Kuala Lipis",
        "State": "Pahang"
    },
    {
        "Postcode": "27200",
        "Location": "Kampung Genting",
        "Post_Office": "Kuala Lipis",
        "State": "Pahang"
    },
    {
        "Postcode": "27200",
        "Location": "Kampung Jeram Bongor",
        "Post_Office": "Kuala Lipis",
        "State": "Pahang"
    },
    {
        "Postcode": "27200",
        "Location": "Kampung Jeram Landak",
        "Post_Office": "Kuala Lipis",
        "State": "Pahang"
    },
    {
        "Postcode": "27200",
        "Location": "Kampung Kechau",
        "Post_Office": "Kuala Lipis",
        "State": "Pahang"
    },
    {
        "Postcode": "27200",
        "Location": "Kampung Keledek",
        "Post_Office": "Kuala Lipis",
        "State": "Pahang"
    },
    {
        "Postcode": "27200",
        "Location": "Kampung Kuala Kechau",
        "Post_Office": "Kuala Lipis",
        "State": "Pahang"
    },
    {
        "Postcode": "27200",
        "Location": "Kampung Lubok Kulit",
        "Post_Office": "Kuala Lipis",
        "State": "Pahang"
    },
    {
        "Postcode": "27200",
        "Location": "Kampung Pagar",
        "Post_Office": "Kuala Lipis",
        "State": "Pahang"
    },
    {
        "Postcode": "27200",
        "Location": "Kampung Relong",
        "Post_Office": "Kuala Lipis",
        "State": "Pahang"
    },
    {
        "Postcode": "27200",
        "Location": "Kampung Rengai",
        "Post_Office": "Kuala Lipis",
        "State": "Pahang"
    },
    {
        "Postcode": "27200",
        "Location": "Kampung Rusa",
        "Post_Office": "Kuala Lipis",
        "State": "Pahang"
    },
    {
        "Postcode": "27200",
        "Location": "Kampung Salang",
        "Post_Office": "Kuala Lipis",
        "State": "Pahang"
    },
    {
        "Postcode": "27200",
        "Location": "Kampung Sibar",
        "Post_Office": "Kuala Lipis",
        "State": "Pahang"
    },
    {
        "Postcode": "27200",
        "Location": "Kampung Sungkai",
        "Post_Office": "Kuala Lipis",
        "State": "Pahang"
    },
    {
        "Postcode": "27200",
        "Location": "Kampung Tanah Rom",
        "Post_Office": "Kuala Lipis",
        "State": "Pahang"
    },
    {
        "Postcode": "27200",
        "Location": "Kampung Tanjong Lipis",
        "Post_Office": "Kuala Lipis",
        "State": "Pahang"
    },
    {
        "Postcode": "27200",
        "Location": "Kampung Tanjong Rambai",
        "Post_Office": "Kuala Lipis",
        "State": "Pahang"
    },
    {
        "Postcode": "27200",
        "Location": "Kampung Temperah",
        "Post_Office": "Kuala Lipis",
        "State": "Pahang"
    },
    {
        "Postcode": "27200",
        "Location": "Kampung Tempoyang",
        "Post_Office": "Kuala Lipis",
        "State": "Pahang"
    },
    {
        "Postcode": "27200",
        "Location": "Kampung Ulu Teris",
        "Post_Office": "Kuala Lipis",
        "State": "Pahang"
    },
    {
        "Postcode": "27200",
        "Location": "Kem Bina Negara",
        "Post_Office": "Kuala Lipis",
        "State": "Pahang"
    },
    {
        "Postcode": "27200",
        "Location": "Kerambit",
        "Post_Office": "Kuala Lipis",
        "State": "Pahang"
    },
    {
        "Postcode": "27200",
        "Location": "Krambit",
        "Post_Office": "Kuala Lipis",
        "State": "Pahang"
    },
    {
        "Postcode": "27200",
        "Location": "Kuala Lipis",
        "Post_Office": "Kuala Lipis",
        "State": "Pahang"
    },
    {
        "Postcode": "27200",
        "Location": "Mrsm Kuala Lipis",
        "Post_Office": "Kuala Lipis",
        "State": "Pahang"
    },
    {
        "Postcode": "27200",
        "Location": "Penjom",
        "Post_Office": "Kuala Lipis",
        "State": "Pahang"
    },
    {
        "Postcode": "27200",
        "Location": "Rtp Sungai Ular",
        "Post_Office": "Kuala Lipis",
        "State": "Pahang"
    },
    {
        "Postcode": "27200",
        "Location": "Rumah Kilat",
        "Post_Office": "Kuala Lipis",
        "State": "Pahang"
    },
    {
        "Postcode": "27200",
        "Location": "Rumah Murah Sungai Kerpan",
        "Post_Office": "Kuala Lipis",
        "State": "Pahang"
    },
    {
        "Postcode": "27200",
        "Location": "Sekolah Kebangsaan Sri Lipis",
        "Post_Office": "Kuala Lipis",
        "State": "Pahang"
    },
    {
        "Postcode": "27200",
        "Location": "Sekolah Menegah Kuala Lanar",
        "Post_Office": "Kuala Lipis",
        "State": "Pahang"
    },
    {
        "Postcode": "27200",
        "Location": "Sekolah Menegah Sri Lipis",
        "Post_Office": "Kuala Lipis",
        "State": "Pahang"
    },
    {
        "Postcode": "27200",
        "Location": "Taman Cahaya",
        "Post_Office": "Kuala Lipis",
        "State": "Pahang"
    },
    {
        "Postcode": "27200",
        "Location": "Taman Desa Chuan",
        "Post_Office": "Kuala Lipis",
        "State": "Pahang"
    },
    {
        "Postcode": "27200",
        "Location": "Taman Jelai",
        "Post_Office": "Kuala Lipis",
        "State": "Pahang"
    },
    {
        "Postcode": "27200",
        "Location": "Taman Lipis",
        "Post_Office": "Kuala Lipis",
        "State": "Pahang"
    },
    {
        "Postcode": "27200",
        "Location": "Taman Lknp",
        "Post_Office": "Kuala Lipis",
        "State": "Pahang"
    },
    {
        "Postcode": "27200",
        "Location": "Taman Penjom Jaya",
        "Post_Office": "Kuala Lipis",
        "State": "Pahang"
    },
    {
        "Postcode": "27200",
        "Location": "Taman Permai",
        "Post_Office": "Kuala Lipis",
        "State": "Pahang"
    },
    {
        "Postcode": "27200",
        "Location": "Taman Permai Sejahtera",
        "Post_Office": "Kuala Lipis",
        "State": "Pahang"
    },
    {
        "Postcode": "27200",
        "Location": "Taman Setia Jaya",
        "Post_Office": "Kuala Lipis",
        "State": "Pahang"
    },
    {
        "Postcode": "27200",
        "Location": "Taman Sppk",
        "Post_Office": "Kuala Lipis",
        "State": "Pahang"
    },
    {
        "Postcode": "27200",
        "Location": "Taman Sri Tempoyang",
        "Post_Office": "Kuala Lipis",
        "State": "Pahang"
    },
    {
        "Postcode": "27200",
        "Location": "Tanjung Jati",
        "Post_Office": "Kuala Lipis",
        "State": "Pahang"
    },
    {
        "Postcode": "27200",
        "Location": "Kampung Batu 3",
        "Post_Office": "Kuala Lipis",
        "State": "Pahang"
    },
    {
        "Postcode": "27200",
        "Location": "Kampung Binjai",
        "Post_Office": "Kuala Lipis",
        "State": "Pahang"
    },
    {
        "Postcode": "27200",
        "Location": "Kampung Lanar",
        "Post_Office": "Kuala Lipis",
        "State": "Pahang"
    },
    {
        "Postcode": "27200",
        "Location": "Kampung Sentang",
        "Post_Office": "Kuala Lipis",
        "State": "Pahang"
    },
    {
        "Postcode": "27200",
        "Location": "Taman Ksm",
        "Post_Office": "Kuala Lipis",
        "State": "Pahang"
    },
    {
        "Postcode": "27200",
        "Location": "Taman Muhibbah",
        "Post_Office": "Kuala Lipis",
        "State": "Pahang"
    }
]
