[
    {
        "Postcode": "27210",
        "Location": "Kampung Gua Kalong",
        "Post_Office": "Kuala Lipis",
        "State": "Pahang"
    },
    {
        "Postcode": "27210",
        "Location": "Kampung Gua Layang",
        "Post_Office": "Kuala Lipis",
        "State": "Pahang"
    },
    {
        "Postcode": "27210",
        "Location": "Kampung Kuala Salak",
        "Post_Office": "Kuala Lipis",
        "State": "Pahang"
    },
    {
        "Postcode": "27210",
        "Location": "Kampung Kumbang Hilir",
        "Post_Office": "Kuala Lipis",
        "State": "Pahang"
    },
    {
        "Postcode": "27210",
        "Location": "Kampung Kumbang Hulu",
        "Post_Office": "Kuala Lipis",
        "State": "Pahang"
    },
    {
        "Postcode": "27210",
        "Location": "Kampung Kumbang Tengah",
        "Post_Office": "Kuala Lipis",
        "State": "Pahang"
    },
    {
        "Postcode": "27210",
        "Location": "Kampung Merapoh",
        "Post_Office": "Kuala Lipis",
        "State": "Pahang"
    },
    {
        "Postcode": "27210",
        "Location": "Kampung Merhamah",
        "Post_Office": "Kuala Lipis",
        "State": "Pahang"
    },
    {
        "Postcode": "27210",
        "Location": "Kampung Persit",
        "Post_Office": "Kuala Lipis",
        "State": "Pahang"
    },
    {
        "Postcode": "27210",
        "Location": "Kampung Tanggang",
        "Post_Office": "Kuala Lipis",
        "State": "Pahang"
    }
]
