[
    {
        "Postcode": "27300",
        "Location": "Benta",
        "Post_Office": "Benta",
        "State": "Pahang"
    },
    {
        "Postcode": "27300",
        "Location": "Jpj Batu 11 Jalan Kuala Lipis",
        "Post_Office": "Benta",
        "State": "Pahang"
    },
    {
        "Postcode": "27300",
        "Location": "Kampung Atong",
        "Post_Office": "Benta",
        "State": "Pahang"
    },
    {
        "Postcode": "27300",
        "Location": "Kampung Batu Buaya",
        "Post_Office": "Benta",
        "State": "Pahang"
    },
    {
        "Postcode": "27300",
        "Location": "Kampung Kadok",
        "Post_Office": "Benta",
        "State": "Pahang"
    },
    {
        "Postcode": "27300",
        "Location": "Kampung Kemahang",
        "Post_Office": "Benta",
        "State": "Pahang"
    },
    {
        "Postcode": "27300",
        "Location": "Kampung Melayu",
        "Post_Office": "Benta",
        "State": "Pahang"
    },
    {
        "Postcode": "27300",
        "Location": "Kampung Peruang",
        "Post_Office": "Benta",
        "State": "Pahang"
    },
    {
        "Postcode": "27300",
        "Location": "Kampung Sama",
        "Post_Office": "Benta",
        "State": "Pahang"
    },
    {
        "Postcode": "27300",
        "Location": "Kampung Terap",
        "Post_Office": "Benta",
        "State": "Pahang"
    },
    {
        "Postcode": "27300",
        "Location": "Ladang Benta",
        "Post_Office": "Benta",
        "State": "Pahang"
    },
    {
        "Postcode": "27300",
        "Location": "Ladang Budu",
        "Post_Office": "Benta",
        "State": "Pahang"
    },
    {
        "Postcode": "27300",
        "Location": "Perhentian Benta",
        "Post_Office": "Benta",
        "State": "Pahang"
    },
    {
        "Postcode": "27300",
        "Location": "Persit",
        "Post_Office": "Benta",
        "State": "Pahang"
    },
    {
        "Postcode": "27300",
        "Location": "Taman Dato Lam Kam Sang",
        "Post_Office": "Benta",
        "State": "Pahang"
    },
    {
        "Postcode": "27300",
        "Location": "Ulu Nabun",
        "Post_Office": "Benta",
        "State": "Pahang"
    },
    {
        "Postcode": "27300",
        "Location": "Kampung Tanjung Besar",
        "Post_Office": "Benta",
        "State": "Pahang"
    },
    {
        "Postcode": "27300",
        "Location": "Taman Teratai",
        "Post_Office": "Benta",
        "State": "Pahang"
    }
]
