[
    {
        "Postcode": "27310",
        "Location": "Kampung Baru",
        "Post_Office": "Benta",
        "State": "Pahang"
    },
    {
        "Postcode": "27310",
        "Location": "Kampung Jerangsang",
        "Post_Office": "Benta",
        "State": "Pahang"
    },
    {
        "Postcode": "27310",
        "Location": "Kampung Masjid",
        "Post_Office": "Benta",
        "State": "Pahang"
    },
    {
        "Postcode": "27310",
        "Location": "Kampung Badong",
        "Post_Office": "Benta",
        "State": "Pahang"
    },
    {
        "Postcode": "27310",
        "Location": "Kampung Tanjong Lalang",
        "Post_Office": "Benta",
        "State": "Pahang"
    },
    {
        "Postcode": "27310",
        "Location": "Batu 22 Kemahang",
        "Post_Office": "Benta",
        "State": "Pahang"
    },
    {
        "Postcode": "27310",
        "Location": "Jeransang",
        "Post_Office": "Benta",
        "State": "Pahang"
    },
    {
        "Postcode": "27310",
        "Location": "Kampung Batu 30",
        "Post_Office": "Benta",
        "State": "Pahang"
    },
    {
        "Postcode": "27310",
        "Location": "Kampung Batu 31",
        "Post_Office": "Benta",
        "State": "Pahang"
    },
    {
        "Postcode": "27310",
        "Location": "Kampung Beluan",
        "Post_Office": "Benta",
        "State": "Pahang"
    },
    {
        "Postcode": "27310",
        "Location": "Kampung Bsol",
        "Post_Office": "Benta",
        "State": "Pahang"
    },
    {
        "Postcode": "27310",
        "Location": "Kampung Budu",
        "Post_Office": "Benta",
        "State": "Pahang"
    },
    {
        "Postcode": "27310",
        "Location": "Kampung Bukit Belau",
        "Post_Office": "Benta",
        "State": "Pahang"
    },
    {
        "Postcode": "27310",
        "Location": "Kampung Bukit Kolam",
        "Post_Office": "Benta",
        "State": "Pahang"
    },
    {
        "Postcode": "27310",
        "Location": "Kampung Bukit Machang",
        "Post_Office": "Benta",
        "State": "Pahang"
    },
    {
        "Postcode": "27310",
        "Location": "Kampung Bukit Perangkap",
        "Post_Office": "Benta",
        "State": "Pahang"
    },
    {
        "Postcode": "27310",
        "Location": "Kampung Bukit Tuba",
        "Post_Office": "Benta",
        "State": "Pahang"
    },
    {
        "Postcode": "27310",
        "Location": "Kampung Chat",
        "Post_Office": "Benta",
        "State": "Pahang"
    },
    {
        "Postcode": "27310",
        "Location": "Kampung Chat Bawah",
        "Post_Office": "Benta",
        "State": "Pahang"
    },
    {
        "Postcode": "27310",
        "Location": "Kampung Cherang",
        "Post_Office": "Benta",
        "State": "Pahang"
    },
    {
        "Postcode": "27310",
        "Location": "Kampung Durian Rendang",
        "Post_Office": "Benta",
        "State": "Pahang"
    },
    {
        "Postcode": "27310",
        "Location": "Kampung Empau",
        "Post_Office": "Benta",
        "State": "Pahang"
    },
    {
        "Postcode": "27310",
        "Location": "Kampung Gong",
        "Post_Office": "Benta",
        "State": "Pahang"
    },
    {
        "Postcode": "27310",
        "Location": "Kampung Jemeru",
        "Post_Office": "Benta",
        "State": "Pahang"
    },
    {
        "Postcode": "27310",
        "Location": "Kampung Jerangsang Hilir",
        "Post_Office": "Benta",
        "State": "Pahang"
    },
    {
        "Postcode": "27310",
        "Location": "Kampung Jerangsang Hulu",
        "Post_Office": "Benta",
        "State": "Pahang"
    },
    {
        "Postcode": "27310",
        "Location": "Kampung Jerning",
        "Post_Office": "Benta",
        "State": "Pahang"
    },
    {
        "Postcode": "27310",
        "Location": "Kampung Kemahang Hilir",
        "Post_Office": "Benta",
        "State": "Pahang"
    },
    {
        "Postcode": "27310",
        "Location": "Kampung Kemensar",
        "Post_Office": "Benta",
        "State": "Pahang"
    },
    {
        "Postcode": "27310",
        "Location": "Kampung Lechir",
        "Post_Office": "Benta",
        "State": "Pahang"
    },
    {
        "Postcode": "27310",
        "Location": "Kampung Lechor",
        "Post_Office": "Benta",
        "State": "Pahang"
    },
    {
        "Postcode": "27310",
        "Location": "Kampung Lonjong",
        "Post_Office": "Benta",
        "State": "Pahang"
    },
    {
        "Postcode": "27310",
        "Location": "Kampung Lubuk Gayung",
        "Post_Office": "Benta",
        "State": "Pahang"
    },
    {
        "Postcode": "27310",
        "Location": "Kampung Napal",
        "Post_Office": "Benta",
        "State": "Pahang"
    },
    {
        "Postcode": "27310",
        "Location": "Kampung Pekan Sahari",
        "Post_Office": "Benta",
        "State": "Pahang"
    },
    {
        "Postcode": "27310",
        "Location": "Kampung Perlong",
        "Post_Office": "Benta",
        "State": "Pahang"
    },
    {
        "Postcode": "27310",
        "Location": "Kampung Peruang Lama",
        "Post_Office": "Benta",
        "State": "Pahang"
    },
    {
        "Postcode": "27310",
        "Location": "Kampung Pjoh",
        "Post_Office": "Benta",
        "State": "Pahang"
    },
    {
        "Postcode": "27310",
        "Location": "Kampung Puchuk",
        "Post_Office": "Benta",
        "State": "Pahang"
    },
    {
        "Postcode": "27310",
        "Location": "Kampung Pulau Kabong",
        "Post_Office": "Benta",
        "State": "Pahang"
    },
    {
        "Postcode": "27310",
        "Location": "Kampung Rachap",
        "Post_Office": "Benta",
        "State": "Pahang"
    },
    {
        "Postcode": "27310",
        "Location": "Kampung Rengai Tanjung Besar",
        "Post_Office": "Benta",
        "State": "Pahang"
    },
    {
        "Postcode": "27310",
        "Location": "Kampung Seberang Paya",
        "Post_Office": "Benta",
        "State": "Pahang"
    },
    {
        "Postcode": "27310",
        "Location": "Kampung Seberang Teka",
        "Post_Office": "Benta",
        "State": "Pahang"
    },
    {
        "Postcode": "27310",
        "Location": "Kampung Sungai Damak",
        "Post_Office": "Benta",
        "State": "Pahang"
    },
    {
        "Postcode": "27310",
        "Location": "Kampung Tampin Chat",
        "Post_Office": "Benta",
        "State": "Pahang"
    },
    {
        "Postcode": "27310",
        "Location": "Kampung Tampin Tanjung Besar",
        "Post_Office": "Benta",
        "State": "Pahang"
    },
    {
        "Postcode": "27310",
        "Location": "Kampung Tekeong",
        "Post_Office": "Benta",
        "State": "Pahang"
    },
    {
        "Postcode": "27310",
        "Location": "Kampung Terap Budu",
        "Post_Office": "Benta",
        "State": "Pahang"
    },
    {
        "Postcode": "27310",
        "Location": "Kampung Tua Batu 21",
        "Post_Office": "Benta",
        "State": "Pahang"
    },
    {
        "Postcode": "27310",
        "Location": "Kampung Tulang Padang",
        "Post_Office": "Benta",
        "State": "Pahang"
    },
    {
        "Postcode": "27310",
        "Location": "Km 43 Kampung Terap",
        "Post_Office": "Benta",
        "State": "Pahang"
    },
    {
        "Postcode": "27310",
        "Location": "Mini Estate Kampung Terap",
        "Post_Office": "Benta",
        "State": "Pahang"
    },
    {
        "Postcode": "27310",
        "Location": "Ppms Peruang",
        "Post_Office": "Benta",
        "State": "Pahang"
    },
    {
        "Postcode": "27310",
        "Location": "Pprt Peruang",
        "Post_Office": "Benta",
        "State": "Pahang"
    },
    {
        "Postcode": "27310",
        "Location": "Rps Peruang",
        "Post_Office": "Benta",
        "State": "Pahang"
    },
    {
        "Postcode": "27310",
        "Location": "Taman Benta Jaya",
        "Post_Office": "Benta",
        "State": "Pahang"
    },
    {
        "Postcode": "27310",
        "Location": "Kampung Belimbing",
        "Post_Office": "Benta",
        "State": "Pahang"
    }
]
