[
    {
        "Postcode": "27400",
        "Location": "Bukit Kemuning Dong",
        "Post_Office": "Dong",
        "State": "Pahang"
    },
    {
        "Postcode": "27400",
        "Location": "Dong",
        "Post_Office": "Dong",
        "State": "Pahang"
    },
    {
        "Postcode": "27400",
        "Location": "Dong Jaya",
        "Post_Office": "Dong",
        "State": "Pahang"
    },
    {
        "Postcode": "27400",
        "Location": "Kampung Ajai",
        "Post_Office": "Dong",
        "State": "Pahang"
    },
    {
        "Postcode": "27400",
        "Location": "Kampung Ajai Baru",
        "Post_Office": "Dong",
        "State": "Pahang"
    },
    {
        "Postcode": "27400",
        "Location": "Kampung Bedu",
        "Post_Office": "Dong",
        "State": "Pahang"
    },
    {
        "Postcode": "27400",
        "Location": "Kampung Bukit Pampon",
        "Post_Office": "Dong",
        "State": "Pahang"
    },
    {
        "Postcode": "27400",
        "Location": "Kampung Chendera",
        "Post_Office": "Dong",
        "State": "Pahang"
    },
    {
        "Postcode": "27400",
        "Location": "Kampung Chincin",
        "Post_Office": "Dong",
        "State": "Pahang"
    },
    {
        "Postcode": "27400",
        "Location": "Kampung Gali",
        "Post_Office": "Dong",
        "State": "Pahang"
    },
    {
        "Postcode": "27400",
        "Location": "Kampung Gali Hilir",
        "Post_Office": "Dong",
        "State": "Pahang"
    },
    {
        "Postcode": "27400",
        "Location": "Kampung Gali Tengah",
        "Post_Office": "Dong",
        "State": "Pahang"
    },
    {
        "Postcode": "27400",
        "Location": "Kampung Gersing",
        "Post_Office": "Dong",
        "State": "Pahang"
    },
    {
        "Postcode": "27400",
        "Location": "Kampung Jalan Jelu",
        "Post_Office": "Dong",
        "State": "Pahang"
    },
    {
        "Postcode": "27400",
        "Location": "Kampung Jelu",
        "Post_Office": "Dong",
        "State": "Pahang"
    },
    {
        "Postcode": "27400",
        "Location": "Kampung Kuala Dong",
        "Post_Office": "Dong",
        "State": "Pahang"
    },
    {
        "Postcode": "27400",
        "Location": "Kampung Kuala Gali",
        "Post_Office": "Dong",
        "State": "Pahang"
    },
    {
        "Postcode": "27400",
        "Location": "Kampung Kuala Jelu",
        "Post_Office": "Dong",
        "State": "Pahang"
    },
    {
        "Postcode": "27400",
        "Location": "Kampung Kuala Keloi",
        "Post_Office": "Dong",
        "State": "Pahang"
    },
    {
        "Postcode": "27400",
        "Location": "Kampung Lechar",
        "Post_Office": "Dong",
        "State": "Pahang"
    },
    {
        "Postcode": "27400",
        "Location": "Kampung Lepar",
        "Post_Office": "Dong",
        "State": "Pahang"
    },
    {
        "Postcode": "27400",
        "Location": "Kampung Padang Pree",
        "Post_Office": "Dong",
        "State": "Pahang"
    },
    {
        "Postcode": "27400",
        "Location": "Kampung Pamah Kulat",
        "Post_Office": "Dong",
        "State": "Pahang"
    },
    {
        "Postcode": "27400",
        "Location": "Kampung Pamah Rawas",
        "Post_Office": "Dong",
        "State": "Pahang"
    },
    {
        "Postcode": "27400",
        "Location": "Kampung Panchur",
        "Post_Office": "Dong",
        "State": "Pahang"
    },
    {
        "Postcode": "27400",
        "Location": "Kampung Pasir Bayam",
        "Post_Office": "Dong",
        "State": "Pahang"
    },
    {
        "Postcode": "27400",
        "Location": "Kampung Peruas",
        "Post_Office": "Dong",
        "State": "Pahang"
    },
    {
        "Postcode": "27400",
        "Location": "Kampung Sengkala",
        "Post_Office": "Dong",
        "State": "Pahang"
    },
    {
        "Postcode": "27400",
        "Location": "Kampung Sol",
        "Post_Office": "Dong",
        "State": "Pahang"
    },
    {
        "Postcode": "27400",
        "Location": "Kampung Sungai Jahit",
        "Post_Office": "Dong",
        "State": "Pahang"
    },
    {
        "Postcode": "27400",
        "Location": "Kampung Sungai Lar",
        "Post_Office": "Dong",
        "State": "Pahang"
    },
    {
        "Postcode": "27400",
        "Location": "Kampung Sungai Pasu",
        "Post_Office": "Dong",
        "State": "Pahang"
    },
    {
        "Postcode": "27400",
        "Location": "Kampung Tamaliang",
        "Post_Office": "Dong",
        "State": "Pahang"
    },
    {
        "Postcode": "27400",
        "Location": "Kampung Tanah Bercangkul",
        "Post_Office": "Dong",
        "State": "Pahang"
    },
    {
        "Postcode": "27400",
        "Location": "Kampung Tanjong Manggis",
        "Post_Office": "Dong",
        "State": "Pahang"
    },
    {
        "Postcode": "27400",
        "Location": "Kampung Tanjong Raja",
        "Post_Office": "Dong",
        "State": "Pahang"
    },
    {
        "Postcode": "27400",
        "Location": "Kampung Tanjung Putus",
        "Post_Office": "Dong",
        "State": "Pahang"
    },
    {
        "Postcode": "27400",
        "Location": "Kampung Temau",
        "Post_Office": "Dong",
        "State": "Pahang"
    },
    {
        "Postcode": "27400",
        "Location": "Kampung Temau Ulu",
        "Post_Office": "Dong",
        "State": "Pahang"
    },
    {
        "Postcode": "27400",
        "Location": "Kampung Ulu Jelu",
        "Post_Office": "Dong",
        "State": "Pahang"
    },
    {
        "Postcode": "27400",
        "Location": "Pekan Dong",
        "Post_Office": "Dong",
        "State": "Pahang"
    },
    {
        "Postcode": "27400",
        "Location": "Rumah Murah Dong",
        "Post_Office": "Dong",
        "State": "Pahang"
    },
    {
        "Postcode": "27400",
        "Location": "Rumah Murah Dong Jaya",
        "Post_Office": "Dong",
        "State": "Pahang"
    },
    {
        "Postcode": "27400",
        "Location": "Tanjung Besar",
        "Post_Office": "Dong",
        "State": "Pahang"
    },
    {
        "Postcode": "27400",
        "Location": "Ulu Dong",
        "Post_Office": "Dong",
        "State": "Pahang"
    },
    {
        "Postcode": "27400",
        "Location": "Kampung Bukit Kemuning",
        "Post_Office": "Dong",
        "State": "Pahang"
    },
    {
        "Postcode": "27400",
        "Location": "Kampung Durian Sebatang",
        "Post_Office": "Dong",
        "State": "Pahang"
    }
]
