[
    {
        "Postcode": "27500",
        "Location": "Kampung Baru Sungai Ruan",
        "Post_Office": "Raub",
        "State": "Pahang"
    },
    {
        "Postcode": "27500",
        "Location": "Kampung Ela",
        "Post_Office": "Raub",
        "State": "Pahang"
    },
    {
        "Postcode": "27500",
        "Location": "Kampung Pintu Padang",
        "Post_Office": "Raub",
        "State": "Pahang"
    },
    {
        "Postcode": "27500",
        "Location": "Kampung Sic",
        "Post_Office": "Raub",
        "State": "Pahang"
    },
    {
        "Postcode": "27500",
        "Location": "Taman Anggerik",
        "Post_Office": "Raub",
        "State": "Pahang"
    },
    {
        "Postcode": "27500",
        "Location": "Taman Angsana",
        "Post_Office": "Raub",
        "State": "Pahang"
    },
    {
        "Postcode": "27500",
        "Location": "Taman Bunga Matahari",
        "Post_Office": "Raub",
        "State": "Pahang"
    },
    {
        "Postcode": "27500",
        "Location": "Taman Bunga Tanjung",
        "Post_Office": "Raub",
        "State": "Pahang"
    },
    {
        "Postcode": "27500",
        "Location": "Taman Cempaka",
        "Post_Office": "Raub",
        "State": "Pahang"
    },
    {
        "Postcode": "27500",
        "Location": "Taman Dahlia",
        "Post_Office": "Raub",
        "State": "Pahang"
    },
    {
        "Postcode": "27500",
        "Location": "Taman Harmoni",
        "Post_Office": "Raub",
        "State": "Pahang"
    },
    {
        "Postcode": "27500",
        "Location": "Taman Ksm Sungai Ruan",
        "Post_Office": "Raub",
        "State": "Pahang"
    },
    {
        "Postcode": "27500",
        "Location": "Taman Mawar 2",
        "Post_Office": "Raub",
        "State": "Pahang"
    },
    {
        "Postcode": "27500",
        "Location": "Taman Orkid",
        "Post_Office": "Raub",
        "State": "Pahang"
    },
    {
        "Postcode": "27500",
        "Location": "Taman Sungai Ruan",
        "Post_Office": "Raub",
        "State": "Pahang"
    },
    {
        "Postcode": "27500",
        "Location": "Taman Melur",
        "Post_Office": "Raub ",
        "State": "Pahang"
    },
    {
        "Postcode": "27500",
        "Location": "Taman Bunga Raya",
        "Post_Office": "Raub",
        "State": "Pahang"
    },
    {
        "Postcode": "27500",
        "Location": "Taman Mawar",
        "Post_Office": "Raub",
        "State": "Pahang"
    },
    {
        "Postcode": "27500",
        "Location": "Sungai Ruan",
        "Post_Office": "Raub",
        "State": "Pahang"
    }
]
