[
    {
        "Postcode": "27600",
        "Location": "Kampung Benggali",
        "Post_Office": "Raub",
        "State": "Pahang"
    },
    {
        "Postcode": "27600",
        "Location": "Kampung Sungai Miang",
        "Post_Office": "Raub",
        "State": "Pahang"
    },
    {
        "Postcode": "27600",
        "Location": "Taman Bahagia",
        "Post_Office": "Raub",
        "State": "Pahang"
    },
    {
        "Postcode": "27600",
        "Location": "Taman Bukit Indah",
        "Post_Office": "Raub",
        "State": "Pahang"
    },
    {
        "Postcode": "27600",
        "Location": "Taman Melewar",
        "Post_Office": "Raub",
        "State": "Pahang"
    },
    {
        "Postcode": "27600",
        "Location": "Taman Seroja",
        "Post_Office": "Raub",
        "State": "Pahang"
    },
    {
        "Postcode": "27600",
        "Location": "Bandar Tras",
        "Post_Office": "Raub",
        "State": "Pahang"
    },
    {
        "Postcode": "27600",
        "Location": "Felda Krau 1",
        "Post_Office": "Raub",
        "State": "Pahang"
    },
    {
        "Postcode": "27600",
        "Location": "Happy Valley",
        "Post_Office": "Raub",
        "State": "Pahang"
    },
    {
        "Postcode": "27600",
        "Location": "Kampung Bacap",
        "Post_Office": "Raub",
        "State": "Pahang"
    },
    {
        "Postcode": "27600",
        "Location": "Kampung Baharu",
        "Post_Office": "Raub",
        "State": "Pahang"
    },
    {
        "Postcode": "27600",
        "Location": "Kampung Baru Bukit Koman",
        "Post_Office": "Raub",
        "State": "Pahang"
    },
    {
        "Postcode": "27600",
        "Location": "Kampung Baru Sempalit",
        "Post_Office": "Raub",
        "State": "Pahang"
    },
    {
        "Postcode": "27600",
        "Location": "Kampung Baru Tras",
        "Post_Office": "Raub",
        "State": "Pahang"
    },
    {
        "Postcode": "27600",
        "Location": "Kampung Batu Talam",
        "Post_Office": "Raub",
        "State": "Pahang"
    },
    {
        "Postcode": "27600",
        "Location": "Kampung Bukit Koman",
        "Post_Office": "Raub",
        "State": "Pahang"
    },
    {
        "Postcode": "27600",
        "Location": "Kampung Hajjah Esah",
        "Post_Office": "Raub",
        "State": "Pahang"
    },
    {
        "Postcode": "27600",
        "Location": "Kampung Kc",
        "Post_Office": "Raub",
        "State": "Pahang"
    },
    {
        "Postcode": "27600",
        "Location": "Kampung Kelek",
        "Post_Office": "Raub",
        "State": "Pahang"
    },
    {
        "Postcode": "27600",
        "Location": "Kampung Lenggeng",
        "Post_Office": "Raub",
        "State": "Pahang"
    },
    {
        "Postcode": "27600",
        "Location": "Kampung Melayu Sempalit",
        "Post_Office": "Raub",
        "State": "Pahang"
    },
    {
        "Postcode": "27600",
        "Location": "Kampung Pecah Batu",
        "Post_Office": "Raub",
        "State": "Pahang"
    },
    {
        "Postcode": "27600",
        "Location": "Kampung Rela",
        "Post_Office": "Raub",
        "State": "Pahang"
    },
    {
        "Postcode": "27600",
        "Location": "Kampung Sempalit",
        "Post_Office": "Raub",
        "State": "Pahang"
    },
    {
        "Postcode": "27600",
        "Location": "Kampung Simpan Baru",
        "Post_Office": "Raub",
        "State": "Pahang"
    },
    {
        "Postcode": "27600",
        "Location": "Kampung Simpan Kalang",
        "Post_Office": "Raub",
        "State": "Pahang"
    },
    {
        "Postcode": "27600",
        "Location": "Kampung Simpang Badang",
        "Post_Office": "Raub",
        "State": "Pahang"
    },
    {
        "Postcode": "27600",
        "Location": "Kampung Siri Jaya",
        "Post_Office": "Raub",
        "State": "Pahang"
    },
    {
        "Postcode": "27600",
        "Location": "Kampung Sungai Chetang",
        "Post_Office": "Raub",
        "State": "Pahang"
    },
    {
        "Postcode": "27600",
        "Location": "Kampung Sungai Kelau",
        "Post_Office": "Raub",
        "State": "Pahang"
    },
    {
        "Postcode": "27600",
        "Location": "Kampung Sungai Kening",
        "Post_Office": "Raub",
        "State": "Pahang"
    },
    {
        "Postcode": "27600",
        "Location": "Kampung Sungai Lui",
        "Post_Office": "Raub",
        "State": "Pahang"
    },
    {
        "Postcode": "27600",
        "Location": "Kampung Todi",
        "Post_Office": "Raub",
        "State": "Pahang"
    },
    {
        "Postcode": "27600",
        "Location": "Kampung Ulu Sempalit",
        "Post_Office": "Raub",
        "State": "Pahang"
    },
    {
        "Postcode": "27600",
        "Location": "Ladang Hue Om",
        "Post_Office": "Raub",
        "State": "Pahang"
    },
    {
        "Postcode": "27600",
        "Location": "Pam Air Sungai Bilut",
        "Post_Office": "Raub",
        "State": "Pahang"
    },
    {
        "Postcode": "27600",
        "Location": "Paya Baru",
        "Post_Office": "Raub",
        "State": "Pahang"
    },
    {
        "Postcode": "27600",
        "Location": "Perumahan Jeram Busu",
        "Post_Office": "Raub",
        "State": "Pahang"
    },
    {
        "Postcode": "27600",
        "Location": "Pos Satak",
        "Post_Office": "Raub",
        "State": "Pahang"
    },
    {
        "Postcode": "27600",
        "Location": "Raub",
        "Post_Office": "Raub",
        "State": "Pahang"
    },
    {
        "Postcode": "27600",
        "Location": "Rumah Murah Bukit Koman",
        "Post_Office": "Raub",
        "State": "Pahang"
    },
    {
        "Postcode": "27600",
        "Location": "Sang Lee",
        "Post_Office": "Raub",
        "State": "Pahang"
    },
    {
        "Postcode": "27600",
        "Location": "Semantan Ulu",
        "Post_Office": "Raub",
        "State": "Pahang"
    },
    {
        "Postcode": "27600",
        "Location": "Sempalit Hilir",
        "Post_Office": "Raub",
        "State": "Pahang"
    },
    {
        "Postcode": "27600",
        "Location": "Sempalit Ulu",
        "Post_Office": "Raub",
        "State": "Pahang"
    },
    {
        "Postcode": "27600",
        "Location": "Simpang Kallang India",
        "Post_Office": "Raub",
        "State": "Pahang"
    },
    {
        "Postcode": "27600",
        "Location": "Sungai Bilut Estate",
        "Post_Office": "Raub",
        "State": "Pahang"
    },
    {
        "Postcode": "27600",
        "Location": "Sungai Lui",
        "Post_Office": "Raub",
        "State": "Pahang"
    },
    {
        "Postcode": "27600",
        "Location": "Taman Abu Bakar",
        "Post_Office": "Raub",
        "State": "Pahang"
    },
    {
        "Postcode": "27600",
        "Location": "Taman Amalina",
        "Post_Office": "Raub",
        "State": "Pahang"
    },
    {
        "Postcode": "27600",
        "Location": "Taman Bistari",
        "Post_Office": "Raub",
        "State": "Pahang"
    },
    {
        "Postcode": "27600",
        "Location": "Taman Bukit Koman",
        "Post_Office": "Raub",
        "State": "Pahang"
    },
    {
        "Postcode": "27600",
        "Location": "Taman Charoh Maju 1",
        "Post_Office": "Raub",
        "State": "Pahang"
    },
    {
        "Postcode": "27600",
        "Location": "Taman Emas",
        "Post_Office": "Raub",
        "State": "Pahang"
    },
    {
        "Postcode": "27600",
        "Location": "Taman Gunong Emas",
        "Post_Office": "Raub",
        "State": "Pahang"
    },
    {
        "Postcode": "27600",
        "Location": "Taman Hutan Emas",
        "Post_Office": "Raub",
        "State": "Pahang"
    },
    {
        "Postcode": "27600",
        "Location": "Taman Imigresen",
        "Post_Office": "Raub",
        "State": "Pahang"
    },
    {
        "Postcode": "27600",
        "Location": "Taman Indraputra",
        "Post_Office": "Raub",
        "State": "Pahang"
    },
    {
        "Postcode": "27600",
        "Location": "Taman Juntai",
        "Post_Office": "Raub",
        "State": "Pahang"
    },
    {
        "Postcode": "27600",
        "Location": "Taman Kemajuan",
        "Post_Office": "Raub",
        "State": "Pahang"
    },
    {
        "Postcode": "27600",
        "Location": "Taman Lee Mau",
        "Post_Office": "Raub",
        "State": "Pahang"
    },
    {
        "Postcode": "27600",
        "Location": "Taman Medan Indah",
        "Post_Office": "Raub",
        "State": "Pahang"
    },
    {
        "Postcode": "27600",
        "Location": "Taman Muhibbah Tranum",
        "Post_Office": "Raub",
        "State": "Pahang"
    },
    {
        "Postcode": "27600",
        "Location": "Taman Mutiara 2",
        "Post_Office": "Raub",
        "State": "Pahang"
    },
    {
        "Postcode": "27600",
        "Location": "Taman Ralib Utama",
        "Post_Office": "Raub",
        "State": "Pahang"
    },
    {
        "Postcode": "27600",
        "Location": "Taman Raub Jaya",
        "Post_Office": "Raub",
        "State": "Pahang"
    },
    {
        "Postcode": "27600",
        "Location": "Taman Raub Perdana",
        "Post_Office": "Raub",
        "State": "Pahang"
    },
    {
        "Postcode": "27600",
        "Location": "Taman Raub Utama",
        "Post_Office": "Raub",
        "State": "Pahang"
    },
    {
        "Postcode": "27600",
        "Location": "Taman Rotan Tunggal",
        "Post_Office": "Raub",
        "State": "Pahang"
    },
    {
        "Postcode": "27600",
        "Location": "Taman Sempalit Aman",
        "Post_Office": "Raub",
        "State": "Pahang"
    },
    {
        "Postcode": "27600",
        "Location": "Taman Sempalit Baru",
        "Post_Office": "Raub",
        "State": "Pahang"
    },
    {
        "Postcode": "27600",
        "Location": "Taman Seri Aman (Sempalit)",
        "Post_Office": "Raub",
        "State": "Pahang"
    },
    {
        "Postcode": "27600",
        "Location": "Taman Seri Sempalit",
        "Post_Office": "Raub",
        "State": "Pahang"
    },
    {
        "Postcode": "27600",
        "Location": "Taman Shahbandar Hussin",
        "Post_Office": "Raub",
        "State": "Pahang"
    },
    {
        "Postcode": "27600",
        "Location": "Taman Yerl",
        "Post_Office": "Raub",
        "State": "Pahang"
    },
    {
        "Postcode": "27600",
        "Location": "Kampung Lanar",
        "Post_Office": "Raub",
        "State": "Pahang"
    },
    {
        "Postcode": "27600",
        "Location": "Kampung Sc",
        "Post_Office": "Raub",
        "State": "Pahang"
    },
    {
        "Postcode": "27600",
        "Location": "Taman Intan",
        "Post_Office": "Raub",
        "State": "Pahang"
    },
    {
        "Postcode": "27600",
        "Location": "Taman Kenanga",
        "Post_Office": "Raub",
        "State": "Pahang"
    },
    {
        "Postcode": "27600",
        "Location": "Taman Kurnia Jaya",
        "Post_Office": "Raub",
        "State": "Pahang"
    },
    {
        "Postcode": "27600",
        "Location": "Taman Melati",
        "Post_Office": "Raub",
        "State": "Pahang"
    },
    {
        "Postcode": "27600",
        "Location": "Taman Mutiara",
        "Post_Office": "Raub",
        "State": "Pahang"
    },
    {
        "Postcode": "27600",
        "Location": "Taman Sentosa",
        "Post_Office": "Raub",
        "State": "Pahang"
    },
    {
        "Postcode": "27600",
        "Location": "Kampung Baharu Sungai Chetang",
        "Post_Office": "Raub",
        "State": "Pahang"
    },
    {
        "Postcode": "27600",
        "Location": "Kampung Baharu Teras",
        "Post_Office": "Raub",
        "State": "Pahang"
    },
    {
        "Postcode": "27600",
        "Location": "Kampung Chendarawi",
        "Post_Office": "Raub",
        "State": "Pahang"
    },
    {
        "Postcode": "27600",
        "Location": "Kampung Sungai Delam",
        "Post_Office": "Raub",
        "State": "Pahang"
    },
    {
        "Postcode": "27600",
        "Location": "Sungai Chetang",
        "Post_Office": "Raub",
        "State": "Pahang"
    },
    {
        "Postcode": "27600",
        "Location": "Teras",
        "Post_Office": "Raub",
        "State": "Pahang"
    },
    {
        "Postcode": "27600",
        "Location": "Tranum",
        "Post_Office": "Raub",
        "State": "Pahang"
    },
    {
        "Postcode": "27600",
        "Location": "Ulu Teridi",
        "Post_Office": "Raub",
        "State": "Pahang"
    },
    {
        "Postcode": "27600",
        "Location": "Taman Muhibbah 1",
        "Post_Office": "Raub",
        "State": "Pahang"
    },
    {
        "Postcode": "27600",
        "Location": "Taman Muhibbah 2",
        "Post_Office": "Raub",
        "State": "Pahang"
    },
    {
        "Postcode": "27600",
        "Location": "Taman Muhibbah 3",
        "Post_Office": "Raub",
        "State": "Pahang"
    },
    {
        "Postcode": "27600",
        "Location": "Taman Muhibbah 4",
        "Post_Office": "Raub",
        "State": "Pahang"
    },
    {
        "Postcode": "27600",
        "Location": "Taman Raub 1",
        "Post_Office": "Raub",
        "State": "Pahang"
    },
    {
        "Postcode": "27600",
        "Location": "Taman Raub 2",
        "Post_Office": "Raub",
        "State": "Pahang"
    },
    {
        "Postcode": "27600",
        "Location": "Taman Raub 3",
        "Post_Office": "Raub",
        "State": "Pahang"
    },
    {
        "Postcode": "27600",
        "Location": "Taman Raub 4",
        "Post_Office": "Raub",
        "State": "Pahang"
    },
    {
        "Postcode": "27600",
        "Location": "Taman Raub 5",
        "Post_Office": "Raub",
        "State": "Pahang"
    }
]
