[
    {
        "Postcode": "27610",
        "Location": "Batu Malim",
        "Post_Office": "Raub",
        "State": "Pahang"
    },
    {
        "Postcode": "27610",
        "Location": "Batu Talam",
        "Post_Office": "Raub",
        "State": "Pahang"
    },
    {
        "Postcode": "27610",
        "Location": "Bukit Jawa",
        "Post_Office": "Raub",
        "State": "Pahang"
    },
    {
        "Postcode": "27610",
        "Location": "Kampung Badang",
        "Post_Office": "Raub",
        "State": "Pahang"
    },
    {
        "Postcode": "27610",
        "Location": "Kampung Batu 18",
        "Post_Office": "Raub",
        "State": "Pahang"
    },
    {
        "Postcode": "27610",
        "Location": "Kampung Bukit Jawa",
        "Post_Office": "Raub",
        "State": "Pahang"
    },
    {
        "Postcode": "27610",
        "Location": "Kampung India (Batu 12)",
        "Post_Office": "Raub",
        "State": "Pahang"
    },
    {
        "Postcode": "27610",
        "Location": "Kampung Jasu",
        "Post_Office": "Raub",
        "State": "Pahang"
    },
    {
        "Postcode": "27610",
        "Location": "Kampung Jerus",
        "Post_Office": "Raub",
        "State": "Pahang"
    },
    {
        "Postcode": "27610",
        "Location": "Kampung Kela",
        "Post_Office": "Raub",
        "State": "Pahang"
    },
    {
        "Postcode": "27610",
        "Location": "Kampung Kundang",
        "Post_Office": "Raub",
        "State": "Pahang"
    },
    {
        "Postcode": "27610",
        "Location": "Kampung Pulai",
        "Post_Office": "Raub",
        "State": "Pahang"
    },
    {
        "Postcode": "27610",
        "Location": "Kampung Tersang",
        "Post_Office": "Raub",
        "State": "Pahang"
    },
    {
        "Postcode": "27610",
        "Location": "Kampung Ulu Sungai",
        "Post_Office": "Raub",
        "State": "Pahang"
    },
    {
        "Postcode": "27610",
        "Location": "Rumah Murah Batu Talam",
        "Post_Office": "Raub",
        "State": "Pahang"
    },
    {
        "Postcode": "27610",
        "Location": "Kampung Paya Baru",
        "Post_Office": "Raub",
        "State": "Pahang"
    },
    {
        "Postcode": "27610",
        "Location": "Kampung Songsang",
        "Post_Office": "Raub",
        "State": "Pahang"
    }
]
