[
    {
        "Postcode": "27620",
        "Location": "Taman Bintang",
        "Post_Office": "Raub",
        "State": "Pahang"
    },
    {
        "Postcode": "27620",
        "Location": "Cheroh",
        "Post_Office": "Raub",
        "State": "Pahang"
    },
    {
        "Postcode": "27620",
        "Location": "Kampung Baru Cheroh",
        "Post_Office": "Raub",
        "State": "Pahang"
    },
    {
        "Postcode": "27620",
        "Location": "Kampung Kuala Semantan",
        "Post_Office": "Raub",
        "State": "Pahang"
    },
    {
        "Postcode": "27620",
        "Location": "Kampung Kundang Patah",
        "Post_Office": "Raub",
        "State": "Pahang"
    },
    {
        "Postcode": "27620",
        "Location": "Kampung Melayu Cheroh",
        "Post_Office": "Raub",
        "State": "Pahang"
    },
    {
        "Postcode": "27620",
        "Location": "Kampung Ria",
        "Post_Office": "Raub",
        "State": "Pahang"
    },
    {
        "Postcode": "27620",
        "Location": "Kampung Sungai Panggong",
        "Post_Office": "Raub",
        "State": "Pahang"
    },
    {
        "Postcode": "27620",
        "Location": "Ladang Cheroh",
        "Post_Office": "Raub",
        "State": "Pahang"
    },
    {
        "Postcode": "27620",
        "Location": "Rumah Lknp Maju 3",
        "Post_Office": "Raub",
        "State": "Pahang"
    },
    {
        "Postcode": "27620",
        "Location": "Rumah Murah Cheroh",
        "Post_Office": "Raub",
        "State": "Pahang"
    },
    {
        "Postcode": "27620",
        "Location": "Sungai",
        "Post_Office": "Raub",
        "State": "Pahang"
    }
]
