[
    {
        "Postcode": "27630",
        "Location": "Taman Melewar",
        "Post_Office": "Raub",
        "State": "Pahang"
    },
    {
        "Postcode": "27630",
        "Location": "Taman Wawasan",
        "Post_Office": "Raub",
        "State": "Pahang"
    },
    {
        "Postcode": "27630",
        "Location": "Felda Lembah Klau",
        "Post_Office": "Raub",
        "State": "Pahang"
    },
    {
        "Postcode": "27630",
        "Location": "Kampung Klau Kechil",
        "Post_Office": "Raub",
        "State": "Pahang"
    },
    {
        "Postcode": "27630",
        "Location": "Kampung Sri Jaya",
        "Post_Office": "Raub",
        "State": "Pahang"
    },
    {
        "Postcode": "27630",
        "Location": "Kampung Sungai Klau",
        "Post_Office": "Raub",
        "State": "Pahang"
    },
    {
        "Postcode": "27630",
        "Location": "Kampung Sungai Ruan",
        "Post_Office": "Raub",
        "State": "Pahang"
    },
    {
        "Postcode": "27630",
        "Location": "Kampung Ulu Gali",
        "Post_Office": "Raub",
        "State": "Pahang"
    },
    {
        "Postcode": "27630",
        "Location": "Ladang Sang Foo",
        "Post_Office": "Raub",
        "State": "Pahang"
    },
    {
        "Postcode": "27630",
        "Location": "Lembah Klau",
        "Post_Office": "Raub",
        "State": "Pahang"
    },
    {
        "Postcode": "27630",
        "Location": "Lkpp Sungai Chalit",
        "Post_Office": "Raub",
        "State": "Pahang"
    },
    {
        "Postcode": "27630",
        "Location": "Rrm Sungai Ruan",
        "Post_Office": "Raub",
        "State": "Pahang"
    },
    {
        "Postcode": "27630",
        "Location": "Sungai Klau",
        "Post_Office": "Raub",
        "State": "Pahang"
    },
    {
        "Postcode": "27630",
        "Location": "Sungai Ruan",
        "Post_Office": "Raub",
        "State": "Pahang"
    },
    {
        "Postcode": "27630",
        "Location": "Ulu Cheroh",
        "Post_Office": "Raub",
        "State": "Pahang"
    },
    {
        "Postcode": "27630",
        "Location": "Kampung Tok Machang",
        "Post_Office": "Raub",
        "State": "Pahang"
    },
    {
        "Postcode": "27630",
        "Location": "Taman Maju",
        "Post_Office": "Raub",
        "State": "Pahang"
    }
]
