[
    {
        "Postcode": "27650",
        "Location": "Felcra Kuala Medang",
        "Post_Office": "Sungai Koyan",
        "State": "Pahang"
    },
    {
        "Postcode": "27650",
        "Location": "Kampung Belida",
        "Post_Office": "Sungai Koyan",
        "State": "Pahang"
    },
    {
        "Postcode": "27650",
        "Location": "Kampung Jelapang",
        "Post_Office": "Sungai Koyan",
        "State": "Pahang"
    },
    {
        "Postcode": "27650",
        "Location": "Kampung Jelaping",
        "Post_Office": "Sungai Koyan",
        "State": "Pahang"
    },
    {
        "Postcode": "27650",
        "Location": "Kampung Kermoi",
        "Post_Office": "Sungai Koyan",
        "State": "Pahang"
    },
    {
        "Postcode": "27650",
        "Location": "Kampung Ketoyong",
        "Post_Office": "Sungai Koyan",
        "State": "Pahang"
    },
    {
        "Postcode": "27650",
        "Location": "Kampung Kuala Koyan",
        "Post_Office": "Sungai Koyan",
        "State": "Pahang"
    },
    {
        "Postcode": "27650",
        "Location": "Kampung Kuala Medang",
        "Post_Office": "Sungai Koyan",
        "State": "Pahang"
    },
    {
        "Postcode": "27650",
        "Location": "Kampung Kuala Serau",
        "Post_Office": "Sungai Koyan",
        "State": "Pahang"
    },
    {
        "Postcode": "27650",
        "Location": "Kampung Lanas",
        "Post_Office": "Sungai Koyan",
        "State": "Pahang"
    },
    {
        "Postcode": "27650",
        "Location": "Kampung Lubok Kasah",
        "Post_Office": "Sungai Koyan",
        "State": "Pahang"
    },
    {
        "Postcode": "27650",
        "Location": "Kampung Naga Umbang",
        "Post_Office": "Sungai Koyan",
        "State": "Pahang"
    },
    {
        "Postcode": "27650",
        "Location": "Kampung Pantos",
        "Post_Office": "Sungai Koyan",
        "State": "Pahang"
    },
    {
        "Postcode": "27650",
        "Location": "Kampung Pulau Badak",
        "Post_Office": "Sungai Koyan",
        "State": "Pahang"
    },
    {
        "Postcode": "27650",
        "Location": "Kampung Sri Murni",
        "Post_Office": "Sungai Koyan",
        "State": "Pahang"
    },
    {
        "Postcode": "27650",
        "Location": "Kampung Tanjong Gahai",
        "Post_Office": "Sungai Koyan",
        "State": "Pahang"
    },
    {
        "Postcode": "27650",
        "Location": "Kampung Tanjung Rambai",
        "Post_Office": "Sungai Koyan",
        "State": "Pahang"
    },
    {
        "Postcode": "27650",
        "Location": "Kampung Telom",
        "Post_Office": "Sungai Koyan",
        "State": "Pahang"
    },
    {
        "Postcode": "27650",
        "Location": "Ladang Bukit Puteri",
        "Post_Office": "Sungai Koyan",
        "State": "Pahang"
    },
    {
        "Postcode": "27650",
        "Location": "Rps Betau",
        "Post_Office": "Sungai Koyan",
        "State": "Pahang"
    },
    {
        "Postcode": "27650",
        "Location": "Rpsb Kuala Medang",
        "Post_Office": "Sungai Koyan",
        "State": "Pahang"
    },
    {
        "Postcode": "27650",
        "Location": "Sungai Chalit",
        "Post_Office": "Sungai Koyan",
        "State": "Pahang"
    },
    {
        "Postcode": "27650",
        "Location": "Sungai Koyan",
        "Post_Office": "Sungai Koyan",
        "State": "Pahang"
    },
    {
        "Postcode": "27650",
        "Location": "Taman Sri Medang",
        "Post_Office": "Sungai Koyan",
        "State": "Pahang"
    },
    {
        "Postcode": "27650",
        "Location": "Felda Sungai Koyan 1",
        "Post_Office": "Sungai Koyan",
        "State": "Pahang"
    },
    {
        "Postcode": "27650",
        "Location": "Felda Sungai Koyan 2",
        "Post_Office": "Sungai Koyan",
        "State": "Pahang"
    },
    {
        "Postcode": "27650",
        "Location": "Felda Sungai Koyan 3",
        "Post_Office": "Sungai Koyan",
        "State": "Pahang"
    },
    {
        "Postcode": "27650",
        "Location": "Felda Tersang 1",
        "Post_Office": "Sungai Koyan",
        "State": "Pahang"
    },
    {
        "Postcode": "27650",
        "Location": "Felda Tersang 2",
        "Post_Office": "Sungai Koyan",
        "State": "Pahang"
    },
    {
        "Postcode": "27650",
        "Location": "Felda Tersang 3",
        "Post_Office": "Sungai Koyan",
        "State": "Pahang"
    }
]
