[
    {
        "Postcode": "27660",
        "Location": "Kampung Arang",
        "Post_Office": "Sega",
        "State": "Pahang"
    },
    {
        "Postcode": "27660",
        "Location": "Kampung Bukit Palong",
        "Post_Office": "Sega",
        "State": "Pahang"
    },
    {
        "Postcode": "27660",
        "Location": "Kampung Chenua",
        "Post_Office": "Sega",
        "State": "Pahang"
    },
    {
        "Postcode": "27660",
        "Location": "Kampung Jeruas",
        "Post_Office": "Sega",
        "State": "Pahang"
    },
    {
        "Postcode": "27660",
        "Location": "Kampung Pak Senam",
        "Post_Office": "Sega",
        "State": "Pahang"
    },
    {
        "Postcode": "27660",
        "Location": "Kampung Paya Lalang",
        "Post_Office": "Sega",
        "State": "Pahang"
    },
    {
        "Postcode": "27660",
        "Location": "Kampung Paya Terap",
        "Post_Office": "Sega",
        "State": "Pahang"
    },
    {
        "Postcode": "27660",
        "Location": "Kampung Retai",
        "Post_Office": "Sega",
        "State": "Pahang"
    },
    {
        "Postcode": "27660",
        "Location": "Kampung Rokan",
        "Post_Office": "Sega",
        "State": "Pahang"
    },
    {
        "Postcode": "27660",
        "Location": "Kampung Sain",
        "Post_Office": "Sega",
        "State": "Pahang"
    },
    {
        "Postcode": "27660",
        "Location": "Kampung Sega Tat",
        "Post_Office": "Sega",
        "State": "Pahang"
    },
    {
        "Postcode": "27660",
        "Location": "Kampung Tanjong Aur",
        "Post_Office": "Sega",
        "State": "Pahang"
    },
    {
        "Postcode": "27660",
        "Location": "Kampung Teridi",
        "Post_Office": "Sega",
        "State": "Pahang"
    },
    {
        "Postcode": "27660",
        "Location": "Sega",
        "Post_Office": "Sega",
        "State": "Pahang"
    },
    {
        "Postcode": "27660",
        "Location": "Ulu Atok",
        "Post_Office": "Sega",
        "State": "Pahang"
    },
    {
        "Postcode": "27660",
        "Location": "Kampung Bahagia",
        "Post_Office": "Sega",
        "State": "Pahang"
    }
]
