[
    {
        "Postcode": "87000",
        "Location": "Kampung Batu Arang",
        "Post_Office": "Labuan",
        "State": "WP Labuan"
    },
    {
        "Postcode": "87000",
        "Location": "Kampung Cina",
        "Post_Office": "Labuan",
        "State": "WP Labuan"
    },
    {
        "Postcode": "87000",
        "Location": "Kampung Lajau",
        "Post_Office": "Labuan",
        "State": "WP Labuan"
    },
    {
        "Postcode": "87000",
        "Location": "Kampung Membijal",
        "Post_Office": "Labuan",
        "State": "WP Labuan"
    },
    {
        "Postcode": "87000",
        "Location": "Kampung Parit",
        "Post_Office": "Labuan",
        "State": "WP Labuan"
    },
    {
        "Postcode": "87000",
        "Location": "Kampung Pohon Batu",
        "Post_Office": "Labuan",
        "State": "WP Labuan"
    },
    {
        "Postcode": "87000",
        "Location": "Kampung Sawagan",
        "Post_Office": "Labuan",
        "State": "WP Labuan"
    },
    {
        "Postcode": "87000",
        "Location": "Labuan",
        "Post_Office": "Labuan",
        "State": "WP Labuan"
    },
    {
        "Postcode": "87000",
        "Location": "Ranca-Ranca",
        "Post_Office": "Labuan",
        "State": "WP Labuan"
    },
    {
        "Postcode": "87000",
        "Location": "Sungai Miri",
        "Post_Office": "Labuan",
        "State": "WP Labuan"
    },
    {
        "Postcode": "87000",
        "Location": "Kampung Gersik",
        "Post_Office": "Labuan",
        "State": "WP Labuan"
    },
    {
        "Postcode": "87000",
        "Location": "Kampung Saguking",
        "Post_Office": "Labuan",
        "State": "WP Labuan"
    },
    {
        "Postcode": "87000",
        "Location": "Taman Layang-Layangan",
        "Post_Office": "Labuan",
        "State": "WP Labuan"
    }
]
