[
    {
        "Postcode": "88100",
        "Location": "Harbour City",
        "Post_Office": "Kota Kinabalu",
        "State": "Sabah"
    },
    {
        "Postcode": "88100",
        "Location": "Taman Sungai Wang 2",
        "Post_Office": "Kota Kinabalu",
        "State": "Sabah"
    },
    {
        "Postcode": "88100",
        "Location": "Anjung Perdana",
        "Post_Office": "Kota Kinabalu",
        "State": "Sabah"
    },
    {
        "Postcode": "88100",
        "Location": "Apartment Murni",
        "Post_Office": "Kota Kinabalu",
        "State": "Sabah"
    },
    {
        "Postcode": "88100",
        "Location": "Balai Bomba Negeri",
        "Post_Office": "Kota Kinabalu",
        "State": "Sabah"
    },
    {
        "Postcode": "88100",
        "Location": "Balai Polis Karamunsing",
        "Post_Office": "Kota Kinabalu",
        "State": "Sabah"
    },
    {
        "Postcode": "88100",
        "Location": "Balai Polis Tanjung Aru",
        "Post_Office": "Kota Kinabalu",
        "State": "Sabah"
    },
    {
        "Postcode": "88100",
        "Location": "Bangunan Bsn",
        "Post_Office": "Kota Kinabalu",
        "State": "Sabah"
    },
    {
        "Postcode": "88100",
        "Location": "Bangunan Indonesia",
        "Post_Office": "Kota Kinabalu",
        "State": "Sabah"
    },
    {
        "Postcode": "88100",
        "Location": "Bangunan Jabatan Tanah Dan Ukur",
        "Post_Office": "Kota Kinabalu",
        "State": "Sabah"
    },
    {
        "Postcode": "88100",
        "Location": "Bangunan Lhdn",
        "Post_Office": "Kota Kinabalu",
        "State": "Sabah"
    },
    {
        "Postcode": "88100",
        "Location": "Bangunan Luth",
        "Post_Office": "Kota Kinabalu",
        "State": "Sabah"
    },
    {
        "Postcode": "88100",
        "Location": "Bangunan Maybank",
        "Post_Office": "Kota Kinabalu",
        "State": "Sabah"
    },
    {
        "Postcode": "88100",
        "Location": "Bangunan Umno",
        "Post_Office": "Kota Kinabalu",
        "State": "Sabah"
    },
    {
        "Postcode": "88100",
        "Location": "Bangunan Usia",
        "Post_Office": "Kota Kinabalu",
        "State": "Sabah"
    },
    {
        "Postcode": "88100",
        "Location": "Casurina Hotel",
        "Post_Office": "Kota Kinabalu",
        "State": "Sabah"
    },
    {
        "Postcode": "88100",
        "Location": "Grace Court",
        "Post_Office": "Kota Kinabalu",
        "State": "Sabah"
    },
    {
        "Postcode": "88100",
        "Location": "Grace Square",
        "Post_Office": "Kota Kinabalu",
        "State": "Sabah"
    },
    {
        "Postcode": "88100",
        "Location": "Grace Villa",
        "Post_Office": "Kota Kinabalu",
        "State": "Sabah"
    },
    {
        "Postcode": "88100",
        "Location": "Hotel Karamunsing",
        "Post_Office": "Kota Kinabalu",
        "State": "Sabah"
    },
    {
        "Postcode": "88100",
        "Location": "Hotel Tang Dynasty Park",
        "Post_Office": "Kota Kinabalu",
        "State": "Sabah"
    },
    {
        "Postcode": "88100",
        "Location": "Jalan Aru",
        "Post_Office": "Kota Kinabalu",
        "State": "Sabah"
    },
    {
        "Postcode": "88100",
        "Location": "Jalan Belia",
        "Post_Office": "Kota Kinabalu",
        "State": "Sabah"
    },
    {
        "Postcode": "88100",
        "Location": "Jalan Bukit Nenas",
        "Post_Office": "Kota Kinabalu",
        "State": "Sabah"
    },
    {
        "Postcode": "88100",
        "Location": "Jalan Datuk Osman Yusof",
        "Post_Office": "Kota Kinabalu",
        "State": "Sabah"
    },
    {
        "Postcode": "88100",
        "Location": "Jalan Edwina",
        "Post_Office": "Kota Kinabalu",
        "State": "Sabah"
    },
    {
        "Postcode": "88100",
        "Location": "Jalan Ikan Juara",
        "Post_Office": "Kota Kinabalu",
        "State": "Sabah"
    },
    {
        "Postcode": "88100",
        "Location": "Jalan Johor",
        "Post_Office": "Kota Kinabalu",
        "State": "Sabah"
    },
    {
        "Postcode": "88100",
        "Location": "Jalan Kampung Tanjong Aru",
        "Post_Office": "Kota Kinabalu",
        "State": "Sabah"
    },
    {
        "Postcode": "88100",
        "Location": "Jalan Karamunsing",
        "Post_Office": "Kota Kinabalu",
        "State": "Sabah"
    },
    {
        "Postcode": "88100",
        "Location": "Jalan Kedah",
        "Post_Office": "Kota Kinabalu",
        "State": "Sabah"
    },
    {
        "Postcode": "88100",
        "Location": "Jalan Kemajuan",
        "Post_Office": "Kota Kinabalu",
        "State": "Sabah"
    },
    {
        "Postcode": "88100",
        "Location": "Jalan Kepayan",
        "Post_Office": "Kota Kinabalu",
        "State": "Sabah"
    },
    {
        "Postcode": "88100",
        "Location": "Jalan Lapangan Terbang Lama",
        "Post_Office": "Kota Kinabalu",
        "State": "Sabah"
    },
    {
        "Postcode": "88100",
        "Location": "Jalan Lingkar",
        "Post_Office": "Kota Kinabalu",
        "State": "Sabah"
    },
    {
        "Postcode": "88100",
        "Location": "Jalan Maktab Sabah",
        "Post_Office": "Kota Kinabalu",
        "State": "Sabah"
    },
    {
        "Postcode": "88100",
        "Location": "Jalan Markisa",
        "Post_Office": "Kota Kinabalu",
        "State": "Sabah"
    },
    {
        "Postcode": "88100",
        "Location": "Jalan Masjid Negeri",
        "Post_Office": "Kota Kinabalu",
        "State": "Sabah"
    },
    {
        "Postcode": "88100",
        "Location": "Jalan Mat Salleh",
        "Post_Office": "Kota Kinabalu",
        "State": "Sabah"
    },
    {
        "Postcode": "88100",
        "Location": "Jalan Melati",
        "Post_Office": "Kota Kinabalu",
        "State": "Sabah"
    },
    {
        "Postcode": "88100",
        "Location": "Jalan Mesra",
        "Post_Office": "Kota Kinabalu",
        "State": "Sabah"
    },
    {
        "Postcode": "88100",
        "Location": "Jalan Murai",
        "Post_Office": "Kota Kinabalu",
        "State": "Sabah"
    },
    {
        "Postcode": "88100",
        "Location": "Jalan Murni",
        "Post_Office": "Kota Kinabalu",
        "State": "Sabah"
    },
    {
        "Postcode": "88100",
        "Location": "Jalan Nilam",
        "Post_Office": "Kota Kinabalu",
        "State": "Sabah"
    },
    {
        "Postcode": "88100",
        "Location": "Jalan Padang Tembok",
        "Post_Office": "Kota Kinabalu",
        "State": "Sabah"
    },
    {
        "Postcode": "88100",
        "Location": "Jalan Pantai Sembulan",
        "Post_Office": "Kota Kinabalu",
        "State": "Sabah"
    },
    {
        "Postcode": "88100",
        "Location": "Jalan Parit",
        "Post_Office": "Kota Kinabalu",
        "State": "Sabah"
    },
    {
        "Postcode": "88100",
        "Location": "Jalan Pusat Pembangunan Masyarakat",
        "Post_Office": "Kota Kinabalu",
        "State": "Sabah"
    },
    {
        "Postcode": "88100",
        "Location": "Jalan Selangor",
        "Post_Office": "Kota Kinabalu",
        "State": "Sabah"
    },
    {
        "Postcode": "88100",
        "Location": "Jalan Sembulan",
        "Post_Office": "Kota Kinabalu",
        "State": "Sabah"
    },
    {
        "Postcode": "88100",
        "Location": "Jalan Sembulan Lama",
        "Post_Office": "Kota Kinabalu",
        "State": "Sabah"
    },
    {
        "Postcode": "88100",
        "Location": "Jalan Sembulan Tengah",
        "Post_Office": "Kota Kinabalu",
        "State": "Sabah"
    },
    {
        "Postcode": "88100",
        "Location": "Jalan Setia",
        "Post_Office": "Kota Kinabalu",
        "State": "Sabah"
    },
    {
        "Postcode": "88100",
        "Location": "Jalan Sireh",
        "Post_Office": "Kota Kinabalu",
        "State": "Sabah"
    },
    {
        "Postcode": "88100",
        "Location": "Jalan Tangki",
        "Post_Office": "Kota Kinabalu",
        "State": "Sabah"
    },
    {
        "Postcode": "88100",
        "Location": "Jalan Tanjung Aru",
        "Post_Office": "Kota Kinabalu",
        "State": "Sabah"
    },
    {
        "Postcode": "88100",
        "Location": "Jalan Tas",
        "Post_Office": "Kota Kinabalu",
        "State": "Sabah"
    },
    {
        "Postcode": "88100",
        "Location": "Jalan Tengku Abdul Rahman",
        "Post_Office": "Kota Kinabalu",
        "State": "Sabah"
    },
    {
        "Postcode": "88100",
        "Location": "Jalan Tun Mustafa",
        "Post_Office": "Kota Kinabalu",
        "State": "Sabah"
    },
    {
        "Postcode": "88100",
        "Location": "Kampung Sembulan",
        "Post_Office": "Kota Kinabalu",
        "State": "Sabah"
    },
    {
        "Postcode": "88100",
        "Location": "Kampung Sembulan(Lorong 1 - 16)",
        "Post_Office": "Kota Kinabalu",
        "State": "Sabah"
    },
    {
        "Postcode": "88100",
        "Location": "Kampung Tanjong Aru",
        "Post_Office": "Kota Kinabalu",
        "State": "Sabah"
    },
    {
        "Postcode": "88100",
        "Location": "Kampung Tanjung Aru Baru",
        "Post_Office": "Kota Kinabalu",
        "State": "Sabah"
    },
    {
        "Postcode": "88100",
        "Location": "Kampung Tanjung Aru Lama",
        "Post_Office": "Kota Kinabalu",
        "State": "Sabah"
    },
    {
        "Postcode": "88100",
        "Location": "Karamunsing",
        "Post_Office": "Kota Kinabalu",
        "State": "Sabah"
    },
    {
        "Postcode": "88100",
        "Location": "Karamunsing Capital",
        "Post_Office": "Kota Kinabalu",
        "State": "Sabah"
    },
    {
        "Postcode": "88100",
        "Location": "Karamunsing Warehouse",
        "Post_Office": "Kota Kinabalu",
        "State": "Sabah"
    },
    {
        "Postcode": "88100",
        "Location": "Kem Bukit Perwira (507)",
        "Post_Office": "Kota Kinabalu",
        "State": "Sabah"
    },
    {
        "Postcode": "88100",
        "Location": "Kem Tudm (571)",
        "Post_Office": "Kota Kinabalu",
        "State": "Sabah"
    },
    {
        "Postcode": "88100",
        "Location": "Kinabalu Golf Cub",
        "Post_Office": "Kota Kinabalu",
        "State": "Sabah"
    },
    {
        "Postcode": "88100",
        "Location": "Kk Time Square",
        "Post_Office": "Kota Kinabalu",
        "State": "Sabah"
    },
    {
        "Postcode": "88100",
        "Location": "Kompleks Karamunsing",
        "Post_Office": "Kota Kinabalu",
        "State": "Sabah"
    },
    {
        "Postcode": "88100",
        "Location": "Kompleks Kwsp",
        "Post_Office": "Kota Kinabalu",
        "State": "Sabah"
    },
    {
        "Postcode": "88100",
        "Location": "Lapangan Terbang Kota Kinabalu Lama",
        "Post_Office": "Kota Kinabalu",
        "State": "Sabah"
    },
    {
        "Postcode": "88100",
        "Location": "Lorong Aru",
        "Post_Office": "Kota Kinabalu",
        "State": "Sabah"
    },
    {
        "Postcode": "88100",
        "Location": "Lorong Balai",
        "Post_Office": "Kota Kinabalu",
        "State": "Sabah"
    },
    {
        "Postcode": "88100",
        "Location": "Lorong Bandaran Tanjong Aru",
        "Post_Office": "Kota Kinabalu",
        "State": "Sabah"
    },
    {
        "Postcode": "88100",
        "Location": "Lorong Belia",
        "Post_Office": "Kota Kinabalu",
        "State": "Sabah"
    },
    {
        "Postcode": "88100",
        "Location": "Lorong Belidah",
        "Post_Office": "Kota Kinabalu",
        "State": "Sabah"
    },
    {
        "Postcode": "88100",
        "Location": "Lorong Bunga Kacang Wangi",
        "Post_Office": "Kota Kinabalu",
        "State": "Sabah"
    },
    {
        "Postcode": "88100",
        "Location": "Lorong Bunga Kemunting",
        "Post_Office": "Kota Kinabalu",
        "State": "Sabah"
    },
    {
        "Postcode": "88100",
        "Location": "Lorong Bunga Telipoh",
        "Post_Office": "Kota Kinabalu",
        "State": "Sabah"
    },
    {
        "Postcode": "88100",
        "Location": "Lorong Bunga Telor",
        "Post_Office": "Kota Kinabalu",
        "State": "Sabah"
    },
    {
        "Postcode": "88100",
        "Location": "Lorong Cacaru",
        "Post_Office": "Kota Kinabalu",
        "State": "Sabah"
    },
    {
        "Postcode": "88100",
        "Location": "Lorong Cermin",
        "Post_Office": "Kota Kinabalu",
        "State": "Sabah"
    },
    {
        "Postcode": "88100",
        "Location": "Lorong Gerunggong",
        "Post_Office": "Kota Kinabalu",
        "State": "Sabah"
    },
    {
        "Postcode": "88100",
        "Location": "Lorong Gunung Perlis",
        "Post_Office": "Kota Kinabalu",
        "State": "Sabah"
    },
    {
        "Postcode": "88100",
        "Location": "Lorong Ikan Badus",
        "Post_Office": "Kota Kinabalu",
        "State": "Sabah"
    },
    {
        "Postcode": "88100",
        "Location": "Lorong Ikan Emas",
        "Post_Office": "Kota Kinabalu",
        "State": "Sabah"
    },
    {
        "Postcode": "88100",
        "Location": "Lorong Ikan Krisi",
        "Post_Office": "Kota Kinabalu",
        "State": "Sabah"
    },
    {
        "Postcode": "88100",
        "Location": "Lorong Ikan Lais",
        "Post_Office": "Kota Kinabalu",
        "State": "Sabah"
    },
    {
        "Postcode": "88100",
        "Location": "Lorong Ikan Panggol",
        "Post_Office": "Kota Kinabalu",
        "State": "Sabah"
    },
    {
        "Postcode": "88100",
        "Location": "Lorong Ikan Pepuyu",
        "Post_Office": "Kota Kinabalu",
        "State": "Sabah"
    },
    {
        "Postcode": "88100",
        "Location": "Lorong Ikan Tongkol",
        "Post_Office": "Kota Kinabalu",
        "State": "Sabah"
    },
    {
        "Postcode": "88100",
        "Location": "Lorong Ikan Yu",
        "Post_Office": "Kota Kinabalu",
        "State": "Sabah"
    },
    {
        "Postcode": "88100",
        "Location": "Lorong Jelawat",
        "Post_Office": "Kota Kinabalu",
        "State": "Sabah"
    },
    {
        "Postcode": "88100",
        "Location": "Lorong Johor",
        "Post_Office": "Kota Kinabalu",
        "State": "Sabah"
    },
    {
        "Postcode": "88100",
        "Location": "Lorong Kampung Sembulan",
        "Post_Office": "Kota Kinabalu",
        "State": "Sabah"
    },
    {
        "Postcode": "88100",
        "Location": "Lorong Karamunsing",
        "Post_Office": "Kota Kinabalu",
        "State": "Sabah"
    },
    {
        "Postcode": "88100",
        "Location": "Lorong Kedah",
        "Post_Office": "Kota Kinabalu",
        "State": "Sabah"
    },
    {
        "Postcode": "88100",
        "Location": "Lorong Kepar",
        "Post_Office": "Kota Kinabalu",
        "State": "Sabah"
    },
    {
        "Postcode": "88100",
        "Location": "Lorong Kerai",
        "Post_Office": "Kota Kinabalu",
        "State": "Sabah"
    },
    {
        "Postcode": "88100",
        "Location": "Lorong Kima",
        "Post_Office": "Kota Kinabalu",
        "State": "Sabah"
    },
    {
        "Postcode": "88100",
        "Location": "Lorong Kompleks Kebudayaan",
        "Post_Office": "Kota Kinabalu",
        "State": "Sabah"
    },
    {
        "Postcode": "88100",
        "Location": "Lorong Kopi",
        "Post_Office": "Kota Kinabalu",
        "State": "Sabah"
    },
    {
        "Postcode": "88100",
        "Location": "Lorong Kurau",
        "Post_Office": "Kota Kinabalu",
        "State": "Sabah"
    },
    {
        "Postcode": "88100",
        "Location": "Lorong Lee Thau Sang",
        "Post_Office": "Kota Kinabalu",
        "State": "Sabah"
    },
    {
        "Postcode": "88100",
        "Location": "Lorong Nilam",
        "Post_Office": "Kota Kinabalu",
        "State": "Sabah"
    },
    {
        "Postcode": "88100",
        "Location": "Lorong Pantai Aru",
        "Post_Office": "Kota Kinabalu",
        "State": "Sabah"
    },
    {
        "Postcode": "88100",
        "Location": "Lorong Pantai Aru Laut",
        "Post_Office": "Kota Kinabalu",
        "State": "Sabah"
    },
    {
        "Postcode": "88100",
        "Location": "Lorong Pasar",
        "Post_Office": "Kota Kinabalu",
        "State": "Sabah"
    },
    {
        "Postcode": "88100",
        "Location": "Lorong Perlis",
        "Post_Office": "Kota Kinabalu",
        "State": "Sabah"
    },
    {
        "Postcode": "88100",
        "Location": "Lorong Pinang",
        "Post_Office": "Kota Kinabalu",
        "State": "Sabah"
    },
    {
        "Postcode": "88100",
        "Location": "Lorong Puru",
        "Post_Office": "Kota Kinabalu",
        "State": "Sabah"
    },
    {
        "Postcode": "88100",
        "Location": "Lorong Putian",
        "Post_Office": "Kota Kinabalu",
        "State": "Sabah"
    },
    {
        "Postcode": "88100",
        "Location": "Lorong Rumah Pangsa",
        "Post_Office": "Kota Kinabalu",
        "State": "Sabah"
    },
    {
        "Postcode": "88100",
        "Location": "Lorong Selidai",
        "Post_Office": "Kota Kinabalu",
        "State": "Sabah"
    },
    {
        "Postcode": "88100",
        "Location": "Lorong Selunsung",
        "Post_Office": "Kota Kinabalu",
        "State": "Sabah"
    },
    {
        "Postcode": "88100",
        "Location": "Lorong Sembulan Lama",
        "Post_Office": "Kota Kinabalu",
        "State": "Sabah"
    },
    {
        "Postcode": "88100",
        "Location": "Lorong Sempelang",
        "Post_Office": "Kota Kinabalu",
        "State": "Sabah"
    },
    {
        "Postcode": "88100",
        "Location": "Lorong Surui",
        "Post_Office": "Kota Kinabalu",
        "State": "Sabah"
    },
    {
        "Postcode": "88100",
        "Location": "Lorong Taman Prince Philip",
        "Post_Office": "Kota Kinabalu",
        "State": "Sabah"
    },
    {
        "Postcode": "88100",
        "Location": "Lorong Tamban",
        "Post_Office": "Kota Kinabalu",
        "State": "Sabah"
    },
    {
        "Postcode": "88100",
        "Location": "Lorong Teraut",
        "Post_Office": "Kota Kinabalu",
        "State": "Sabah"
    },
    {
        "Postcode": "88100",
        "Location": "Low Cost Housing (Lppb)",
        "Post_Office": "Kota Kinabalu",
        "State": "Sabah"
    },
    {
        "Postcode": "88100",
        "Location": "Mahkamah Anak Negeri",
        "Post_Office": "Kota Kinabalu",
        "State": "Sabah"
    },
    {
        "Postcode": "88100",
        "Location": "Masjid Negeri",
        "Post_Office": "Kota Kinabalu",
        "State": "Sabah"
    },
    {
        "Postcode": "88100",
        "Location": "Menara Khidmat",
        "Post_Office": "Kota Kinabalu",
        "State": "Sabah"
    },
    {
        "Postcode": "88100",
        "Location": "Menara Petronas",
        "Post_Office": "Kota Kinabalu",
        "State": "Sabah"
    },
    {
        "Postcode": "88100",
        "Location": "Palace Hotel",
        "Post_Office": "Kota Kinabalu",
        "State": "Sabah"
    },
    {
        "Postcode": "88100",
        "Location": "Pengkalan Polis Unit Udara",
        "Post_Office": "Kota Kinabalu",
        "State": "Sabah"
    },
    {
        "Postcode": "88100",
        "Location": "Putatan",
        "Post_Office": "Kota Kinabalu",
        "State": "Sabah"
    },
    {
        "Postcode": "88100",
        "Location": "Sadong Jaya",
        "Post_Office": "Kota Kinabalu",
        "State": "Sabah"
    },
    {
        "Postcode": "88100",
        "Location": "Secred Heart Church",
        "Post_Office": "Kota Kinabalu",
        "State": "Sabah"
    },
    {
        "Postcode": "88100",
        "Location": "Sk Stella Maris",
        "Post_Office": "Kota Kinabalu",
        "State": "Sabah"
    },
    {
        "Postcode": "88100",
        "Location": "Sk Tanjung Aru 1",
        "Post_Office": "Kota Kinabalu",
        "State": "Sabah"
    },
    {
        "Postcode": "88100",
        "Location": "Sk Tanjung Aru 2",
        "Post_Office": "Kota Kinabalu",
        "State": "Sabah"
    },
    {
        "Postcode": "88100",
        "Location": "Sm Maktab Sabah",
        "Post_Office": "Kota Kinabalu",
        "State": "Sabah"
    },
    {
        "Postcode": "88100",
        "Location": "Srjk (C) Chung Hwa",
        "Post_Office": "Kota Kinabalu",
        "State": "Sabah"
    },
    {
        "Postcode": "88100",
        "Location": "Srk Secred Heart",
        "Post_Office": "Kota Kinabalu",
        "State": "Sabah"
    },
    {
        "Postcode": "88100",
        "Location": "Sutera Harbour Resort",
        "Post_Office": "Kota Kinabalu",
        "State": "Sabah"
    },
    {
        "Postcode": "88100",
        "Location": "Taman Elok",
        "Post_Office": "Kota Kinabalu",
        "State": "Sabah"
    },
    {
        "Postcode": "88100",
        "Location": "Taman Grace",
        "Post_Office": "Kota Kinabalu",
        "State": "Sabah"
    },
    {
        "Postcode": "88100",
        "Location": "Taman Sempelang (Mpkk)",
        "Post_Office": "Kota Kinabalu",
        "State": "Sabah"
    },
    {
        "Postcode": "88100",
        "Location": "Tanjung Aru",
        "Post_Office": "Kota Kinabalu",
        "State": "Sabah"
    },
    {
        "Postcode": "88100",
        "Location": "Tanjung Aru Beach Hotel",
        "Post_Office": "Kota Kinabalu",
        "State": "Sabah"
    },
    {
        "Postcode": "88100",
        "Location": "Tanjung Aru Plaza",
        "Post_Office": "Kota Kinabalu",
        "State": "Sabah"
    },
    {
        "Postcode": "88100",
        "Location": "Terminal Air Asia",
        "Post_Office": "Kota Kinabalu",
        "State": "Sabah"
    },
    {
        "Postcode": "88100",
        "Location": "Urusetia",
        "Post_Office": "Kota Kinabalu",
        "State": "Sabah"
    },
    {
        "Postcode": "88100",
        "Location": "Wakiki Condominium",
        "Post_Office": "Kota Kinabalu",
        "State": "Sabah"
    },
    {
        "Postcode": "88100",
        "Location": "Wisma 2020",
        "Post_Office": "Kota Kinabalu",
        "State": "Sabah"
    },
    {
        "Postcode": "88100",
        "Location": "Wisma Anglican",
        "Post_Office": "Kota Kinabalu",
        "State": "Sabah"
    },
    {
        "Postcode": "88100",
        "Location": "Wisma Kewangan",
        "Post_Office": "Kota Kinabalu",
        "State": "Sabah"
    },
    {
        "Postcode": "88100",
        "Location": "Wisma Khidmat",
        "Post_Office": "Kota Kinabalu",
        "State": "Sabah"
    },
    {
        "Postcode": "88100",
        "Location": "Wisma Muis",
        "Post_Office": "Kota Kinabalu",
        "State": "Sabah"
    },
    {
        "Postcode": "88100",
        "Location": "Wisma Tun Fuad Stephen",
        "Post_Office": "Kota Kinabalu",
        "State": "Sabah"
    },
    {
        "Postcode": "88100",
        "Location": "Lorong Bunga Kacang Wangi 1",
        "Post_Office": "Kota Kinabalu",
        "State": "Sabah"
    },
    {
        "Postcode": "88100",
        "Location": "Lorong Bunga Kacang Wangi 2",
        "Post_Office": "Kota Kinabalu",
        "State": "Sabah"
    },
    {
        "Postcode": "88100",
        "Location": "Lorong Bunga Telipoh 1",
        "Post_Office": "Kota Kinabalu",
        "State": "Sabah"
    },
    {
        "Postcode": "88100",
        "Location": "Lorong Bunga Telipoh 2",
        "Post_Office": "Kota Kinabalu",
        "State": "Sabah"
    },
    {
        "Postcode": "88100",
        "Location": "Lorong Bunga Telipoh 3",
        "Post_Office": "Kota Kinabalu",
        "State": "Sabah"
    },
    {
        "Postcode": "88100",
        "Location": "Lorong Gerunggong A",
        "Post_Office": "Kota Kinabalu",
        "State": "Sabah"
    },
    {
        "Postcode": "88100",
        "Location": "Lorong Gerunggong B",
        "Post_Office": "Kota Kinabalu",
        "State": "Sabah"
    },
    {
        "Postcode": "88100",
        "Location": "Lorong Karamunsing A ",
        "Post_Office": "Kota Kinabalu",
        "State": "Sabah"
    },
    {
        "Postcode": "88100",
        "Location": "Lorong Karamunsing B",
        "Post_Office": "Kota Kinabalu",
        "State": "Sabah"
    },
    {
        "Postcode": "88100",
        "Location": "Lorong Karamunsing C",
        "Post_Office": "Kota Kinabalu",
        "State": "Sabah"
    },
    {
        "Postcode": "88100",
        "Location": "Lorong Selunsung A",
        "Post_Office": "Kota Kinabalu",
        "State": "Sabah"
    },
    {
        "Postcode": "88100",
        "Location": "Lorong Selunsung B",
        "Post_Office": "Kota Kinabalu",
        "State": "Sabah"
    },
    {
        "Postcode": "88100",
        "Location": "Lorong Selunsung C",
        "Post_Office": "Kota Kinabalu",
        "State": "Sabah"
    },
    {
        "Postcode": "88100",
        "Location": "Lorong Selunsung D",
        "Post_Office": "Kota Kinabalu",
        "State": "Sabah"
    },
    {
        "Postcode": "88100",
        "Location": "Lorong Selunsung E",
        "Post_Office": "Kota Kinabalu",
        "State": "Sabah"
    },
    {
        "Postcode": "88100",
        "Location": "Lorong Selunsung F",
        "Post_Office": "Kota Kinabalu",
        "State": "Sabah"
    },
    {
        "Postcode": "88100",
        "Location": "Lorong Selunsung G",
        "Post_Office": "Kota Kinabalu",
        "State": "Sabah"
    },
    {
        "Postcode": "88100",
        "Location": "Lorong Sempelang 1",
        "Post_Office": "Kota Kinabalu",
        "State": "Sabah"
    },
    {
        "Postcode": "88100",
        "Location": "Lorong Sempelang 2",
        "Post_Office": "Kota Kinabalu",
        "State": "Sabah"
    },
    {
        "Postcode": "88100",
        "Location": "Lorong Sempelang 3",
        "Post_Office": "Kota Kinabalu",
        "State": "Sabah"
    },
    {
        "Postcode": "88100",
        "Location": "Rumah Persekutuan",
        "Post_Office": "Kota Kinabalu",
        "State": "Sabah"
    }
]
