[
    {
        "Postcode": "88200",
        "Location": "Airport View Hotel",
        "Post_Office": "Kota Kinabalu",
        "State": "Sabah"
    },
    {
        "Postcode": "88200",
        "Location": "Apartment Pasir Putih Phase 3B",
        "Post_Office": "Kota Kinabalu",
        "State": "Sabah"
    },
    {
        "Postcode": "88200",
        "Location": "Apartment Union",
        "Post_Office": "Kota Kinabalu",
        "State": "Sabah"
    },
    {
        "Postcode": "88200",
        "Location": "Balai Cerap Al Birumi",
        "Post_Office": "Kota Kinabalu",
        "State": "Sabah"
    },
    {
        "Postcode": "88200",
        "Location": "Borneo Paradise",
        "Post_Office": "Kota Kinabalu",
        "State": "Sabah"
    },
    {
        "Postcode": "88200",
        "Location": "Bukit Vor Apartment",
        "Post_Office": "Kota Kinabalu",
        "State": "Sabah"
    },
    {
        "Postcode": "88200",
        "Location": "Cyber City Apartment",
        "Post_Office": "Kota Kinabalu",
        "State": "Sabah"
    },
    {
        "Postcode": "88200",
        "Location": "Deluxe Court",
        "Post_Office": "Kota Kinabalu",
        "State": "Sabah"
    },
    {
        "Postcode": "88200",
        "Location": "Dewan Petagas",
        "Post_Office": "Kota Kinabalu",
        "State": "Sabah"
    },
    {
        "Postcode": "88200",
        "Location": "Flat Pasir Putih Phase 2",
        "Post_Office": "Kota Kinabalu",
        "State": "Sabah"
    },
    {
        "Postcode": "88200",
        "Location": "Friendship Villa",
        "Post_Office": "Kota Kinabalu",
        "State": "Sabah"
    },
    {
        "Postcode": "88200",
        "Location": "Ganang Apartment",
        "Post_Office": "Kota Kinabalu",
        "State": "Sabah"
    },
    {
        "Postcode": "88200",
        "Location": "Golden Center",
        "Post_Office": "Kota Kinabalu",
        "State": "Sabah"
    },
    {
        "Postcode": "88200",
        "Location": "Golden Vale",
        "Post_Office": "Kota Kinabalu",
        "State": "Sabah"
    },
    {
        "Postcode": "88200",
        "Location": "Ibu Pejabat Polis",
        "Post_Office": "Kota Kinabalu",
        "State": "Sabah"
    },
    {
        "Postcode": "88200",
        "Location": "Institut Kemahiran Belia Negara",
        "Post_Office": "Kota Kinabalu",
        "State": "Sabah"
    },
    {
        "Postcode": "88200",
        "Location": "Jabatan Haiwan Kepayan",
        "Post_Office": "Kota Kinabalu",
        "State": "Sabah"
    },
    {
        "Postcode": "88200",
        "Location": "Jabatan Keretapi",
        "Post_Office": "Kota Kinabalu",
        "State": "Sabah"
    },
    {
        "Postcode": "88200",
        "Location": "Jalan Bersatu Lama",
        "Post_Office": "Kota Kinabalu",
        "State": "Sabah"
    },
    {
        "Postcode": "88200",
        "Location": "Jalan Bukit Vor",
        "Post_Office": "Kota Kinabalu",
        "State": "Sabah"
    },
    {
        "Postcode": "88200",
        "Location": "Jalan Bunga Raya",
        "Post_Office": "Kota Kinabalu",
        "State": "Sabah"
    },
    {
        "Postcode": "88200",
        "Location": "Jalan Chempaka",
        "Post_Office": "Kota Kinabalu",
        "State": "Sabah"
    },
    {
        "Postcode": "88200",
        "Location": "Jalan Deluxe",
        "Post_Office": "Kota Kinabalu",
        "State": "Sabah"
    },
    {
        "Postcode": "88200",
        "Location": "Jalan Ganang",
        "Post_Office": "Kota Kinabalu",
        "State": "Sabah"
    },
    {
        "Postcode": "88200",
        "Location": "Jalan Ganang Villa",
        "Post_Office": "Kota Kinabalu",
        "State": "Sabah"
    },
    {
        "Postcode": "88200",
        "Location": "Jalan Hussien 2",
        "Post_Office": "Kota Kinabalu",
        "State": "Sabah"
    },
    {
        "Postcode": "88200",
        "Location": "Jalan Hussien 3A",
        "Post_Office": "Kota Kinabalu",
        "State": "Sabah"
    },
    {
        "Postcode": "88200",
        "Location": "Jalan Hussien 6",
        "Post_Office": "Kota Kinabalu",
        "State": "Sabah"
    },
    {
        "Postcode": "88200",
        "Location": "Jalan Indah",
        "Post_Office": "Kota Kinabalu",
        "State": "Sabah"
    },
    {
        "Postcode": "88200",
        "Location": "Jalan Jagus",
        "Post_Office": "Kota Kinabalu",
        "State": "Sabah"
    },
    {
        "Postcode": "88200",
        "Location": "Jalan Kampung Ganang",
        "Post_Office": "Kota Kinabalu",
        "State": "Sabah"
    },
    {
        "Postcode": "88200",
        "Location": "Jalan Kampung Peringatan",
        "Post_Office": "Kota Kinabalu",
        "State": "Sabah"
    },
    {
        "Postcode": "88200",
        "Location": "Jalan Kampung Petagas",
        "Post_Office": "Kota Kinabalu",
        "State": "Sabah"
    },
    {
        "Postcode": "88200",
        "Location": "Jalan Ketiau",
        "Post_Office": "Kota Kinabalu",
        "State": "Sabah"
    },
    {
        "Postcode": "88200",
        "Location": "Jalan Kivouvang",
        "Post_Office": "Kota Kinabalu",
        "State": "Sabah"
    },
    {
        "Postcode": "88200",
        "Location": "Jalan Kosan",
        "Post_Office": "Kota Kinabalu",
        "State": "Sabah"
    },
    {
        "Postcode": "88200",
        "Location": "Jalan Lakati Mojunggal",
        "Post_Office": "Kota Kinabalu",
        "State": "Sabah"
    },
    {
        "Postcode": "88200",
        "Location": "Jalan Lama",
        "Post_Office": "Kota Kinabalu",
        "State": "Sabah"
    },
    {
        "Postcode": "88200",
        "Location": "Jalan Lapangan Terbang Baru",
        "Post_Office": "Kota Kinabalu",
        "State": "Sabah"
    },
    {
        "Postcode": "88200",
        "Location": "Jalan Linsuk Bersatu",
        "Post_Office": "Kota Kinabalu",
        "State": "Sabah"
    },
    {
        "Postcode": "88200",
        "Location": "Jalan Lintas By Pass Petagas",
        "Post_Office": "Kota Kinabalu",
        "State": "Sabah"
    },
    {
        "Postcode": "88200",
        "Location": "Jalan Masabun",
        "Post_Office": "Kota Kinabalu",
        "State": "Sabah"
    },
    {
        "Postcode": "88200",
        "Location": "Jalan Mongkopun",
        "Post_Office": "Kota Kinabalu",
        "State": "Sabah"
    },
    {
        "Postcode": "88200",
        "Location": "Jalan Nabizan",
        "Post_Office": "Kota Kinabalu",
        "State": "Sabah"
    },
    {
        "Postcode": "88200",
        "Location": "Jalan Ot Sandakat",
        "Post_Office": "Kota Kinabalu",
        "State": "Sabah"
    },
    {
        "Postcode": "88200",
        "Location": "Jalan Pahlawan",
        "Post_Office": "Kota Kinabalu",
        "State": "Sabah"
    },
    {
        "Postcode": "88200",
        "Location": "Jalan Pandan",
        "Post_Office": "Kota Kinabalu",
        "State": "Sabah"
    },
    {
        "Postcode": "88200",
        "Location": "Jalan Pantai Barahi",
        "Post_Office": "Kota Kinabalu",
        "State": "Sabah"
    },
    {
        "Postcode": "88200",
        "Location": "Jalan Pedada 1",
        "Post_Office": "Kota Kinabalu",
        "State": "Sabah"
    },
    {
        "Postcode": "88200",
        "Location": "Jalan Penjara",
        "Post_Office": "Kota Kinabalu",
        "State": "Sabah"
    },
    {
        "Postcode": "88200",
        "Location": "Jalan Perwira",
        "Post_Office": "Kota Kinabalu",
        "State": "Sabah"
    },
    {
        "Postcode": "88200",
        "Location": "Jalan Petagas",
        "Post_Office": "Kota Kinabalu",
        "State": "Sabah"
    },
    {
        "Postcode": "88200",
        "Location": "Jalan Putatan",
        "Post_Office": "Kota Kinabalu",
        "State": "Sabah"
    },
    {
        "Postcode": "88200",
        "Location": "Jalan Rumah Sakit",
        "Post_Office": "Kota Kinabalu",
        "State": "Sabah"
    },
    {
        "Postcode": "88200",
        "Location": "Jalan Sepanggil 2",
        "Post_Office": "Kota Kinabalu",
        "State": "Sabah"
    },
    {
        "Postcode": "88200",
        "Location": "Jalan Simpur",
        "Post_Office": "Kota Kinabalu",
        "State": "Sabah"
    },
    {
        "Postcode": "88200",
        "Location": "Jalan Tema 1",
        "Post_Office": "Kota Kinabalu",
        "State": "Sabah"
    },
    {
        "Postcode": "88200",
        "Location": "Jalan Tombovo",
        "Post_Office": "Kota Kinabalu",
        "State": "Sabah"
    },
    {
        "Postcode": "88200",
        "Location": "Jandan Pandan",
        "Post_Office": "Kota Kinabalu",
        "State": "Sabah"
    },
    {
        "Postcode": "88200",
        "Location": "Kampung Deluxe",
        "Post_Office": "Kota Kinabalu",
        "State": "Sabah"
    },
    {
        "Postcode": "88200",
        "Location": "Kampung Ganang",
        "Post_Office": "Kota Kinabalu",
        "State": "Sabah"
    },
    {
        "Postcode": "88200",
        "Location": "Kampung Kepayan",
        "Post_Office": "Kota Kinabalu",
        "State": "Sabah"
    },
    {
        "Postcode": "88200",
        "Location": "Kampung Ketiau",
        "Post_Office": "Kota Kinabalu",
        "State": "Sabah"
    },
    {
        "Postcode": "88200",
        "Location": "Kampung Kuala Putatan",
        "Post_Office": "Kota Kinabalu",
        "State": "Sabah"
    },
    {
        "Postcode": "88200",
        "Location": "Kampung Muhibbah Baru",
        "Post_Office": "Kota Kinabalu",
        "State": "Sabah"
    },
    {
        "Postcode": "88200",
        "Location": "Kampung Muhibbah Lama",
        "Post_Office": "Kota Kinabalu",
        "State": "Sabah"
    },
    {
        "Postcode": "88200",
        "Location": "Kampung Pasir Puteh",
        "Post_Office": "Kota Kinabalu",
        "State": "Sabah"
    },
    {
        "Postcode": "88200",
        "Location": "Kampung Peringkatan",
        "Post_Office": "Kota Kinabalu",
        "State": "Sabah"
    },
    {
        "Postcode": "88200",
        "Location": "Kampung Petagas",
        "Post_Office": "Kota Kinabalu",
        "State": "Sabah"
    },
    {
        "Postcode": "88200",
        "Location": "Kampung Sailan",
        "Post_Office": "Kota Kinabalu",
        "State": "Sabah"
    },
    {
        "Postcode": "88200",
        "Location": "Kampung Sepanggil",
        "Post_Office": "Kota Kinabalu",
        "State": "Sabah"
    },
    {
        "Postcode": "88200",
        "Location": "Kampung Sodomon",
        "Post_Office": "Kota Kinabalu",
        "State": "Sabah"
    },
    {
        "Postcode": "88200",
        "Location": "Kampung Sri Pandan",
        "Post_Office": "Kota Kinabalu",
        "State": "Sabah"
    },
    {
        "Postcode": "88200",
        "Location": "Kepayan Perdana Commercial Center",
        "Post_Office": "Kota Kinabalu",
        "State": "Sabah"
    },
    {
        "Postcode": "88200",
        "Location": "Kepayang Rumah Murah Phase 1",
        "Post_Office": "Kota Kinabalu",
        "State": "Sabah"
    },
    {
        "Postcode": "88200",
        "Location": "Kepayang Rumah Murah Phase 2",
        "Post_Office": "Kota Kinabalu",
        "State": "Sabah"
    },
    {
        "Postcode": "88200",
        "Location": "Klinik Kesihatan Putatan",
        "Post_Office": "Kota Kinabalu",
        "State": "Sabah"
    },
    {
        "Postcode": "88200",
        "Location": "Kompleks Jkr",
        "Post_Office": "Kota Kinabalu",
        "State": "Sabah"
    },
    {
        "Postcode": "88200",
        "Location": "Kompleks Kilang Bpimb",
        "Post_Office": "Kota Kinabalu",
        "State": "Sabah"
    },
    {
        "Postcode": "88200",
        "Location": "Kompleks Veterinar",
        "Post_Office": "Kota Kinabalu",
        "State": "Sabah"
    },
    {
        "Postcode": "88200",
        "Location": "Kristal Condominium",
        "Post_Office": "Kota Kinabalu",
        "State": "Sabah"
    },
    {
        "Postcode": "88200",
        "Location": "Lok Kawi",
        "Post_Office": "Kota Kinabalu",
        "State": "Sabah"
    },
    {
        "Postcode": "88200",
        "Location": "Lokkawi Height Apartment",
        "Post_Office": "Kota Kinabalu",
        "State": "Sabah"
    },
    {
        "Postcode": "88200",
        "Location": "Lokkawi Industrial Estate Phase 1",
        "Post_Office": "Kota Kinabalu",
        "State": "Sabah"
    },
    {
        "Postcode": "88200",
        "Location": "Lorong Berhwemin",
        "Post_Office": "Kota Kinabalu",
        "State": "Sabah"
    },
    {
        "Postcode": "88200",
        "Location": "Lorong Bersatu 1",
        "Post_Office": "Kota Kinabalu",
        "State": "Sabah"
    },
    {
        "Postcode": "88200",
        "Location": "Lorong Bersatu 4",
        "Post_Office": "Kota Kinabalu",
        "State": "Sabah"
    },
    {
        "Postcode": "88200",
        "Location": "Lorong Bersatu 3A",
        "Post_Office": "Kota Kinabalu",
        "State": "Sabah"
    },
    {
        "Postcode": "88200",
        "Location": "Lorong Bersatu 3B",
        "Post_Office": "Kota Kinabalu",
        "State": "Sabah"
    },
    {
        "Postcode": "88200",
        "Location": "Lorong Bersatu 3C",
        "Post_Office": "Kota Kinabalu",
        "State": "Sabah"
    },
    {
        "Postcode": "88200",
        "Location": "Lorong Bunga Patuma A",
        "Post_Office": "Kota Kinabalu",
        "State": "Sabah"
    },
    {
        "Postcode": "88200",
        "Location": "Lorong Bunga Patuma B",
        "Post_Office": "Kota Kinabalu",
        "State": "Sabah"
    },
    {
        "Postcode": "88200",
        "Location": "Lorong Bunga Patuma C",
        "Post_Office": "Kota Kinabalu",
        "State": "Sabah"
    },
    {
        "Postcode": "88200",
        "Location": "Lorong Bunga Patuma D",
        "Post_Office": "Kota Kinabalu",
        "State": "Sabah"
    },
    {
        "Postcode": "88200",
        "Location": "Lorong Bunga Patuma E",
        "Post_Office": "Kota Kinabalu",
        "State": "Sabah"
    },
    {
        "Postcode": "88200",
        "Location": "Lorong Bunga Patuma F",
        "Post_Office": "Kota Kinabalu",
        "State": "Sabah"
    },
    {
        "Postcode": "88200",
        "Location": "Lorong Bunga Patuma G",
        "Post_Office": "Kota Kinabalu",
        "State": "Sabah"
    },
    {
        "Postcode": "88200",
        "Location": "Lorong Bunga Petuma 1",
        "Post_Office": "Kota Kinabalu",
        "State": "Sabah"
    },
    {
        "Postcode": "88200",
        "Location": "Lorong Bunga Petuma 10",
        "Post_Office": "Kota Kinabalu",
        "State": "Sabah"
    },
    {
        "Postcode": "88200",
        "Location": "Lorong Bunga Petuma 2",
        "Post_Office": "Kota Kinabalu",
        "State": "Sabah"
    },
    {
        "Postcode": "88200",
        "Location": "Lorong Bunga Petuma 3",
        "Post_Office": "Kota Kinabalu",
        "State": "Sabah"
    },
    {
        "Postcode": "88200",
        "Location": "Lorong Bunga Petuma 4",
        "Post_Office": "Kota Kinabalu",
        "State": "Sabah"
    },
    {
        "Postcode": "88200",
        "Location": "Lorong Bunga Petuma 5",
        "Post_Office": "Kota Kinabalu",
        "State": "Sabah"
    },
    {
        "Postcode": "88200",
        "Location": "Lorong Bunga Petuma 6",
        "Post_Office": "Kota Kinabalu",
        "State": "Sabah"
    },
    {
        "Postcode": "88200",
        "Location": "Lorong Bunga Petuma 7",
        "Post_Office": "Kota Kinabalu",
        "State": "Sabah"
    },
    {
        "Postcode": "88200",
        "Location": "Lorong Bunga Petuma 8",
        "Post_Office": "Kota Kinabalu",
        "State": "Sabah"
    },
    {
        "Postcode": "88200",
        "Location": "Lorong Bunga Petuma 9",
        "Post_Office": "Kota Kinabalu",
        "State": "Sabah"
    },
    {
        "Postcode": "88200",
        "Location": "Lorong Bunga Raya 1",
        "Post_Office": "Kota Kinabalu",
        "State": "Sabah"
    },
    {
        "Postcode": "88200",
        "Location": "Lorong Bunga Raya 2",
        "Post_Office": "Kota Kinabalu",
        "State": "Sabah"
    },
    {
        "Postcode": "88200",
        "Location": "Lorong Bunga Tasbeh 1",
        "Post_Office": "Kota Kinabalu",
        "State": "Sabah"
    },
    {
        "Postcode": "88200",
        "Location": "Lorong Bunga Tasbeh 2",
        "Post_Office": "Kota Kinabalu",
        "State": "Sabah"
    },
    {
        "Postcode": "88200",
        "Location": "Lorong Bunga Tasbeh 3",
        "Post_Office": "Kota Kinabalu",
        "State": "Sabah"
    },
    {
        "Postcode": "88200",
        "Location": "Lorong Dinawan 1",
        "Post_Office": "Kota Kinabalu",
        "State": "Sabah"
    },
    {
        "Postcode": "88200",
        "Location": "Lorong Dinawan 2",
        "Post_Office": "Kota Kinabalu",
        "State": "Sabah"
    },
    {
        "Postcode": "88200",
        "Location": "Lorong Dinawan 3",
        "Post_Office": "Kota Kinabalu",
        "State": "Sabah"
    },
    {
        "Postcode": "88200",
        "Location": "Lorong Dinawan 4",
        "Post_Office": "Kota Kinabalu",
        "State": "Sabah"
    },
    {
        "Postcode": "88200",
        "Location": "Lorong Friendship 3B",
        "Post_Office": "Kota Kinabalu",
        "State": "Sabah"
    },
    {
        "Postcode": "88200",
        "Location": "Lorong Friendship 3C",
        "Post_Office": "Kota Kinabalu",
        "State": "Sabah"
    },
    {
        "Postcode": "88200",
        "Location": "Lorong Friendship 3D",
        "Post_Office": "Kota Kinabalu",
        "State": "Sabah"
    },
    {
        "Postcode": "88200",
        "Location": "Lorong Friendship 3E",
        "Post_Office": "Kota Kinabalu",
        "State": "Sabah"
    },
    {
        "Postcode": "88200",
        "Location": "Lorong Friendship 3F",
        "Post_Office": "Kota Kinabalu",
        "State": "Sabah"
    },
    {
        "Postcode": "88200",
        "Location": "Lorong Friendship 3G",
        "Post_Office": "Kota Kinabalu",
        "State": "Sabah"
    },
    {
        "Postcode": "88200",
        "Location": "Lorong Ganang Villa 1",
        "Post_Office": "Kota Kinabalu",
        "State": "Sabah"
    },
    {
        "Postcode": "88200",
        "Location": "Lorong Ganang Villa 2",
        "Post_Office": "Kota Kinabalu",
        "State": "Sabah"
    },
    {
        "Postcode": "88200",
        "Location": "Lorong Ganang Villa 3",
        "Post_Office": "Kota Kinabalu",
        "State": "Sabah"
    },
    {
        "Postcode": "88200",
        "Location": "Lorong Ganang Villa 4",
        "Post_Office": "Kota Kinabalu",
        "State": "Sabah"
    },
    {
        "Postcode": "88200",
        "Location": "Lorong Ganang Villa 5",
        "Post_Office": "Kota Kinabalu",
        "State": "Sabah"
    },
    {
        "Postcode": "88200",
        "Location": "Lorong Ganang Villa 6",
        "Post_Office": "Kota Kinabalu",
        "State": "Sabah"
    },
    {
        "Postcode": "88200",
        "Location": "Lorong Ganang Villa 7",
        "Post_Office": "Kota Kinabalu",
        "State": "Sabah"
    },
    {
        "Postcode": "88200",
        "Location": "Lorong Ganang Villa 8",
        "Post_Office": "Kota Kinabalu",
        "State": "Sabah"
    },
    {
        "Postcode": "88200",
        "Location": "Lorong Jumbo 1",
        "Post_Office": "Kota Kinabalu",
        "State": "Sabah"
    },
    {
        "Postcode": "88200",
        "Location": "Lorong Jumbo 10",
        "Post_Office": "Kota Kinabalu",
        "State": "Sabah"
    },
    {
        "Postcode": "88200",
        "Location": "Lorong Jumbo 11",
        "Post_Office": "Kota Kinabalu",
        "State": "Sabah"
    },
    {
        "Postcode": "88200",
        "Location": "Lorong Jumbo 12",
        "Post_Office": "Kota Kinabalu",
        "State": "Sabah"
    },
    {
        "Postcode": "88200",
        "Location": "Lorong Jumbo 2",
        "Post_Office": "Kota Kinabalu",
        "State": "Sabah"
    },
    {
        "Postcode": "88200",
        "Location": "Lorong Jumbo 3",
        "Post_Office": "Kota Kinabalu",
        "State": "Sabah"
    },
    {
        "Postcode": "88200",
        "Location": "Lorong Jumbo 4",
        "Post_Office": "Kota Kinabalu",
        "State": "Sabah"
    },
    {
        "Postcode": "88200",
        "Location": "Lorong Jumbo 5",
        "Post_Office": "Kota Kinabalu",
        "State": "Sabah"
    },
    {
        "Postcode": "88200",
        "Location": "Lorong Jumbo 6",
        "Post_Office": "Kota Kinabalu",
        "State": "Sabah"
    },
    {
        "Postcode": "88200",
        "Location": "Lorong Jumbo 7",
        "Post_Office": "Kota Kinabalu",
        "State": "Sabah"
    },
    {
        "Postcode": "88200",
        "Location": "Lorong Jumbo 8",
        "Post_Office": "Kota Kinabalu",
        "State": "Sabah"
    },
    {
        "Postcode": "88200",
        "Location": "Lorong Jumbo 9",
        "Post_Office": "Kota Kinabalu",
        "State": "Sabah"
    },
    {
        "Postcode": "88200",
        "Location": "Lorong Layang-Layang 1",
        "Post_Office": "Kota Kinabalu",
        "State": "Sabah"
    },
    {
        "Postcode": "88200",
        "Location": "Lorong Layang-Layang 2",
        "Post_Office": "Kota Kinabalu",
        "State": "Sabah"
    },
    {
        "Postcode": "88200",
        "Location": "Lorong Meruntum 1",
        "Post_Office": "Kota Kinabalu",
        "State": "Sabah"
    },
    {
        "Postcode": "88200",
        "Location": "Lorong Meruntum 2",
        "Post_Office": "Kota Kinabalu",
        "State": "Sabah"
    },
    {
        "Postcode": "88200",
        "Location": "Lorong Meruntum 3",
        "Post_Office": "Kota Kinabalu",
        "State": "Sabah"
    },
    {
        "Postcode": "88200",
        "Location": "Lorong Meruntum G",
        "Post_Office": "Kota Kinabalu",
        "State": "Sabah"
    },
    {
        "Postcode": "88200",
        "Location": "Lorong Meruntum H",
        "Post_Office": "Kota Kinabalu",
        "State": "Sabah"
    },
    {
        "Postcode": "88200",
        "Location": "Lorong Meruntum I",
        "Post_Office": "Kota Kinabalu",
        "State": "Sabah"
    },
    {
        "Postcode": "88200",
        "Location": "Lorong Meruntum J",
        "Post_Office": "Kota Kinabalu",
        "State": "Sabah"
    },
    {
        "Postcode": "88200",
        "Location": "Lorong Milinneum 1",
        "Post_Office": "Kota Kinabalu",
        "State": "Sabah"
    },
    {
        "Postcode": "88200",
        "Location": "Lorong Milinneum 2",
        "Post_Office": "Kota Kinabalu",
        "State": "Sabah"
    },
    {
        "Postcode": "88200",
        "Location": "Lorong Pandan 1",
        "Post_Office": "Kota Kinabalu",
        "State": "Sabah"
    },
    {
        "Postcode": "88200",
        "Location": "Lorong Pandan 2",
        "Post_Office": "Kota Kinabalu",
        "State": "Sabah"
    },
    {
        "Postcode": "88200",
        "Location": "Lorong Pandan 3",
        "Post_Office": "Kota Kinabalu",
        "State": "Sabah"
    },
    {
        "Postcode": "88200",
        "Location": "Lorong Pandan 4",
        "Post_Office": "Kota Kinabalu",
        "State": "Sabah"
    },
    {
        "Postcode": "88200",
        "Location": "Lorong Park 1",
        "Post_Office": "Kota Kinabalu",
        "State": "Sabah"
    },
    {
        "Postcode": "88200",
        "Location": "Lorong Park 2",
        "Post_Office": "Kota Kinabalu",
        "State": "Sabah"
    },
    {
        "Postcode": "88200",
        "Location": "Lorong Pasir Putih 1",
        "Post_Office": "Kota Kinabalu",
        "State": "Sabah"
    },
    {
        "Postcode": "88200",
        "Location": "Lorong Pasir Putih 2",
        "Post_Office": "Kota Kinabalu",
        "State": "Sabah"
    },
    {
        "Postcode": "88200",
        "Location": "Lorong Pasir Putih 3",
        "Post_Office": "Kota Kinabalu",
        "State": "Sabah"
    },
    {
        "Postcode": "88200",
        "Location": "Lorong Pasir Putih 4",
        "Post_Office": "Kota Kinabalu",
        "State": "Sabah"
    },
    {
        "Postcode": "88200",
        "Location": "Lorong Pasir Putih 5",
        "Post_Office": "Kota Kinabalu",
        "State": "Sabah"
    },
    {
        "Postcode": "88200",
        "Location": "Lorong Petagas 1",
        "Post_Office": "Kota Kinabalu",
        "State": "Sabah"
    },
    {
        "Postcode": "88200",
        "Location": "Lorong Petagas 2",
        "Post_Office": "Kota Kinabalu",
        "State": "Sabah"
    },
    {
        "Postcode": "88200",
        "Location": "Lorong Ridge 2/A",
        "Post_Office": "Kota Kinabalu",
        "State": "Sabah"
    },
    {
        "Postcode": "88200",
        "Location": "Lorong Ridge 2/B",
        "Post_Office": "Kota Kinabalu",
        "State": "Sabah"
    },
    {
        "Postcode": "88200",
        "Location": "Lorong Ridge 2/C",
        "Post_Office": "Kota Kinabalu",
        "State": "Sabah"
    },
    {
        "Postcode": "88200",
        "Location": "Lorong Ridge 2/D",
        "Post_Office": "Kota Kinabalu",
        "State": "Sabah"
    },
    {
        "Postcode": "88200",
        "Location": "Lorong Ridge 2/E",
        "Post_Office": "Kota Kinabalu",
        "State": "Sabah"
    },
    {
        "Postcode": "88200",
        "Location": "Lorong Ridge 3/A",
        "Post_Office": "Kota Kinabalu",
        "State": "Sabah"
    },
    {
        "Postcode": "88200",
        "Location": "Lorong Ridge 3/B",
        "Post_Office": "Kota Kinabalu",
        "State": "Sabah"
    },
    {
        "Postcode": "88200",
        "Location": "Lorong Ridge 3/C",
        "Post_Office": "Kota Kinabalu",
        "State": "Sabah"
    },
    {
        "Postcode": "88200",
        "Location": "Lorong Ridge 3/D",
        "Post_Office": "Kota Kinabalu",
        "State": "Sabah"
    },
    {
        "Postcode": "88200",
        "Location": "Lorong Ridge 3/E",
        "Post_Office": "Kota Kinabalu",
        "State": "Sabah"
    },
    {
        "Postcode": "88200",
        "Location": "Lorong Ridge 3/F",
        "Post_Office": "Kota Kinabalu",
        "State": "Sabah"
    },
    {
        "Postcode": "88200",
        "Location": "Lorong Ridge 3/G",
        "Post_Office": "Kota Kinabalu",
        "State": "Sabah"
    },
    {
        "Postcode": "88200",
        "Location": "Lorong Ridge 3/H",
        "Post_Office": "Kota Kinabalu",
        "State": "Sabah"
    },
    {
        "Postcode": "88200",
        "Location": "Lorong Ridge 3/I",
        "Post_Office": "Kota Kinabalu",
        "State": "Sabah"
    },
    {
        "Postcode": "88200",
        "Location": "Lorong Ridge 3/J",
        "Post_Office": "Kota Kinabalu",
        "State": "Sabah"
    },
    {
        "Postcode": "88200",
        "Location": "Lorong Ridge 3/K",
        "Post_Office": "Kota Kinabalu",
        "State": "Sabah"
    },
    {
        "Postcode": "88200",
        "Location": "Lorong Ridge 3/L",
        "Post_Office": "Kota Kinabalu",
        "State": "Sabah"
    },
    {
        "Postcode": "88200",
        "Location": "Lorong Union 1",
        "Post_Office": "Kota Kinabalu",
        "State": "Sabah"
    },
    {
        "Postcode": "88200",
        "Location": "Lorong Union 2",
        "Post_Office": "Kota Kinabalu",
        "State": "Sabah"
    },
    {
        "Postcode": "88200",
        "Location": "Lorong Union 3",
        "Post_Office": "Kota Kinabalu",
        "State": "Sabah"
    },
    {
        "Postcode": "88200",
        "Location": "Putra Square 1",
        "Post_Office": "Kota Kinabalu",
        "State": "Sabah"
    },
    {
        "Postcode": "88200",
        "Location": "Putra Square 2",
        "Post_Office": "Kota Kinabalu",
        "State": "Sabah"
    },
    {
        "Postcode": "88200",
        "Location": "Taman Bersatu 1",
        "Post_Office": "Kota Kinabalu",
        "State": "Sabah"
    },
    {
        "Postcode": "88200",
        "Location": "Taman Bersatu 2",
        "Post_Office": "Kota Kinabalu",
        "State": "Sabah"
    },
    {
        "Postcode": "88200",
        "Location": "Taman Bersatu 3",
        "Post_Office": "Kota Kinabalu",
        "State": "Sabah"
    },
    {
        "Postcode": "88200",
        "Location": "Taman Bersatu 4",
        "Post_Office": "Kota Kinabalu",
        "State": "Sabah"
    },
    {
        "Postcode": "88200",
        "Location": "Taman Friendship 1",
        "Post_Office": "Kota Kinabalu",
        "State": "Sabah"
    },
    {
        "Postcode": "88200",
        "Location": "Taman Friendship 2",
        "Post_Office": "Kota Kinabalu",
        "State": "Sabah"
    },
    {
        "Postcode": "88200",
        "Location": "Taman Friendship 3",
        "Post_Office": "Kota Kinabalu",
        "State": "Sabah"
    },
    {
        "Postcode": "88200",
        "Location": "Taman Kepayan Ridge 3",
        "Post_Office": "Kota Kinabalu",
        "State": "Sabah"
    },
    {
        "Postcode": "88200",
        "Location": "Taman Kepayan Ridge 4",
        "Post_Office": "Kota Kinabalu",
        "State": "Sabah"
    },
    {
        "Postcode": "88200",
        "Location": "Taman Kinarut Jaya 1",
        "Post_Office": "Kota Kinabalu",
        "State": "Sabah"
    },
    {
        "Postcode": "88200",
        "Location": "Taman Kinarut Jaya 2",
        "Post_Office": "Kota Kinabalu",
        "State": "Sabah"
    },
    {
        "Postcode": "88200",
        "Location": "Taman Kinarut Jaya 3",
        "Post_Office": "Kota Kinabalu",
        "State": "Sabah"
    },
    {
        "Postcode": "88200",
        "Location": "Taman Pasir Putih 1",
        "Post_Office": "Kota Kinabalu",
        "State": "Sabah"
    },
    {
        "Postcode": "88200",
        "Location": "Taman Pasir Putih 2",
        "Post_Office": "Kota Kinabalu",
        "State": "Sabah"
    },
    {
        "Postcode": "88200",
        "Location": "Taman Pasir Putih 3",
        "Post_Office": "Kota Kinabalu",
        "State": "Sabah"
    },
    {
        "Postcode": "88200",
        "Location": "Taman Sri Kinarut Selatan",
        "Post_Office": "Kota Kinabalu",
        "State": "Sabah"
    },
    {
        "Postcode": "88200",
        "Location": "Taman Sri Pagi",
        "Post_Office": "Kota Kinabalu",
        "State": "Sabah"
    },
    {
        "Postcode": "88200",
        "Location": "Taman Sri Utama",
        "Post_Office": "Kota Kinabalu",
        "State": "Sabah"
    },
    {
        "Postcode": "88200",
        "Location": "Taman Teluk Meruntum",
        "Post_Office": "Kota Kinabalu",
        "State": "Sabah"
    },
    {
        "Postcode": "88200",
        "Location": "Taman Teluk Villa",
        "Post_Office": "Kota Kinabalu",
        "State": "Sabah"
    },
    {
        "Postcode": "88200",
        "Location": "Taman Tema",
        "Post_Office": "Kota Kinabalu",
        "State": "Sabah"
    },
    {
        "Postcode": "88200",
        "Location": "Taman Tj \u0026 R",
        "Post_Office": "Kota Kinabalu",
        "State": "Sabah"
    },
    {
        "Postcode": "88200",
        "Location": "Taman Union",
        "Post_Office": "Kota Kinabalu",
        "State": "Sabah"
    },
    {
        "Postcode": "88200",
        "Location": "Taman Wajar",
        "Post_Office": "Kota Kinabalu",
        "State": "Sabah"
    },
    {
        "Postcode": "88200",
        "Location": "Taman Wenley Dua",
        "Post_Office": "Kota Kinabalu",
        "State": "Sabah"
    },
    {
        "Postcode": "88200",
        "Location": "Wisma Shin Yin",
        "Post_Office": "Kota Kinabalu",
        "State": "Sabah"
    },
    {
        "Postcode": "88200",
        "Location": "Taman Bunga Raya",
        "Post_Office": "Kota Kinabalu",
        "State": "Sabah"
    },
    {
        "Postcode": "88200",
        "Location": "Taman Sentosa",
        "Post_Office": "Kota Kinabalu",
        "State": "Sabah"
    },
    {
        "Postcode": "88200",
        "Location": "Lorong Bunga Patuma",
        "Post_Office": "Kota Kinabalu",
        "State": "Sabah"
    },
    {
        "Postcode": "88200",
        "Location": "Lorong Bunga Tanjung 2",
        "Post_Office": "Kota Kinabalu",
        "State": "Sabah"
    },
    {
        "Postcode": "88200",
        "Location": "Lorong Bunga Tasbeh",
        "Post_Office": "Kota Kinabalu",
        "State": "Sabah"
    },
    {
        "Postcode": "88200",
        "Location": "Lorong Dembela Kera",
        "Post_Office": "Kota Kinabalu",
        "State": "Sabah"
    },
    {
        "Postcode": "88200",
        "Location": "Lorong Friendship 3",
        "Post_Office": "Kota Kinabalu",
        "State": "Sabah"
    },
    {
        "Postcode": "88200",
        "Location": "Lorong Friendship 3A",
        "Post_Office": "Kota Kinabalu",
        "State": "Sabah"
    },
    {
        "Postcode": "88200",
        "Location": "Lorong Ganang",
        "Post_Office": "Kota Kinabalu",
        "State": "Sabah"
    },
    {
        "Postcode": "88200",
        "Location": "Lorong Ganang 1A",
        "Post_Office": "Kota Kinabalu",
        "State": "Sabah"
    },
    {
        "Postcode": "88200",
        "Location": "Lorong Ketiau 1",
        "Post_Office": "Kota Kinabalu",
        "State": "Sabah"
    },
    {
        "Postcode": "88200",
        "Location": "Lorong Ketiau 2/1",
        "Post_Office": "Kota Kinabalu",
        "State": "Sabah"
    },
    {
        "Postcode": "88200",
        "Location": "Lorong Ketiau 3/1",
        "Post_Office": "Kota Kinabalu",
        "State": "Sabah"
    },
    {
        "Postcode": "88200",
        "Location": "Lorong Ketiau 3/2",
        "Post_Office": "Kota Kinabalu",
        "State": "Sabah"
    },
    {
        "Postcode": "88200",
        "Location": "Lorong Ko-Pelajaran",
        "Post_Office": "Kota Kinabalu",
        "State": "Sabah"
    },
    {
        "Postcode": "88200",
        "Location": "Lorong Lok Saga",
        "Post_Office": "Kota Kinabalu",
        "State": "Sabah"
    },
    {
        "Postcode": "88200",
        "Location": "Lorong Melati",
        "Post_Office": "Kota Kinabalu",
        "State": "Sabah"
    },
    {
        "Postcode": "88200",
        "Location": "Lorong Olivia 1B",
        "Post_Office": "Kota Kinabalu",
        "State": "Sabah"
    },
    {
        "Postcode": "88200",
        "Location": "Lorong Olivia 1C",
        "Post_Office": "Kota Kinabalu",
        "State": "Sabah"
    },
    {
        "Postcode": "88200",
        "Location": "Lorong Perdana",
        "Post_Office": "Kota Kinabalu",
        "State": "Sabah"
    },
    {
        "Postcode": "88200",
        "Location": "Lorong Petagas",
        "Post_Office": "Kota Kinabalu",
        "State": "Sabah"
    },
    {
        "Postcode": "88200",
        "Location": "Lorong Purun",
        "Post_Office": "Kota Kinabalu",
        "State": "Sabah"
    },
    {
        "Postcode": "88200",
        "Location": "Lorong Ridge 1",
        "Post_Office": "Kota Kinabalu",
        "State": "Sabah"
    },
    {
        "Postcode": "88200",
        "Location": "Lorong Ridge 1/A",
        "Post_Office": "Kota Kinabalu",
        "State": "Sabah"
    },
    {
        "Postcode": "88200",
        "Location": "Lorong Ridge 1/B",
        "Post_Office": "Kota Kinabalu",
        "State": "Sabah"
    },
    {
        "Postcode": "88200",
        "Location": "Lorong Ridge 2",
        "Post_Office": "Kota Kinabalu",
        "State": "Sabah"
    },
    {
        "Postcode": "88200",
        "Location": "Lorong Sri Pandan",
        "Post_Office": "Kota Kinabalu",
        "State": "Sabah"
    },
    {
        "Postcode": "88200",
        "Location": "Lorong Surau",
        "Post_Office": "Kota Kinabalu",
        "State": "Sabah"
    },
    {
        "Postcode": "88200",
        "Location": "Lorong Tanamas",
        "Post_Office": "Kota Kinabalu",
        "State": "Sabah"
    },
    {
        "Postcode": "88200",
        "Location": "Lorong Tanamas 1",
        "Post_Office": "Kota Kinabalu",
        "State": "Sabah"
    },
    {
        "Postcode": "88200",
        "Location": "Lorong Tema 1",
        "Post_Office": "Kota Kinabalu",
        "State": "Sabah"
    },
    {
        "Postcode": "88200",
        "Location": "Lorong Teratai",
        "Post_Office": "Kota Kinabalu",
        "State": "Sabah"
    },
    {
        "Postcode": "88200",
        "Location": "Lorong Tok Saga",
        "Post_Office": "Kota Kinabalu",
        "State": "Sabah"
    },
    {
        "Postcode": "88200",
        "Location": "Maktab Rendah Sains Mara",
        "Post_Office": "Kota Kinabalu",
        "State": "Sabah"
    },
    {
        "Postcode": "88200",
        "Location": "Malaysia Airline System",
        "Post_Office": "Kota Kinabalu",
        "State": "Sabah"
    },
    {
        "Postcode": "88200",
        "Location": "Melinneum Center",
        "Post_Office": "Kota Kinabalu",
        "State": "Sabah"
    },
    {
        "Postcode": "88200",
        "Location": "Melinneum Court",
        "Post_Office": "Kota Kinabalu",
        "State": "Sabah"
    },
    {
        "Postcode": "88200",
        "Location": "Palm Beach Villa",
        "Post_Office": "Kota Kinabalu",
        "State": "Sabah"
    },
    {
        "Postcode": "88200",
        "Location": "Pasukan Gerak Am Batalion 16",
        "Post_Office": "Kota Kinabalu",
        "State": "Sabah"
    },
    {
        "Postcode": "88200",
        "Location": "Pejabat Belia Dan Sukan (P) Sabah",
        "Post_Office": "Kota Kinabalu",
        "State": "Sabah"
    },
    {
        "Postcode": "88200",
        "Location": "Pejabat Daerah Kecil Putatan",
        "Post_Office": "Kota Kinabalu",
        "State": "Sabah"
    },
    {
        "Postcode": "88200",
        "Location": "Persiaran Lady Mountbatten",
        "Post_Office": "Kota Kinabalu",
        "State": "Sabah"
    },
    {
        "Postcode": "88200",
        "Location": "Petagas",
        "Post_Office": "Kota Kinabalu",
        "State": "Sabah"
    },
    {
        "Postcode": "88200",
        "Location": "Petagas Light Industry",
        "Post_Office": "Kota Kinabalu",
        "State": "Sabah"
    },
    {
        "Postcode": "88200",
        "Location": "Pusat Latihan Jabatan Kerja Raya",
        "Post_Office": "Kota Kinabalu",
        "State": "Sabah"
    },
    {
        "Postcode": "88200",
        "Location": "Pusat Latihan Koperasi",
        "Post_Office": "Kota Kinabalu",
        "State": "Sabah"
    },
    {
        "Postcode": "88200",
        "Location": "Pusat Perniagaan Putatan",
        "Post_Office": "Kota Kinabalu",
        "State": "Sabah"
    },
    {
        "Postcode": "88200",
        "Location": "Putatan Court/Putatan Square",
        "Post_Office": "Kota Kinabalu",
        "State": "Sabah"
    },
    {
        "Postcode": "88200",
        "Location": "Putatan Grand Plaza",
        "Post_Office": "Kota Kinabalu",
        "State": "Sabah"
    },
    {
        "Postcode": "88200",
        "Location": "Putatan New Township",
        "Post_Office": "Kota Kinabalu",
        "State": "Sabah"
    },
    {
        "Postcode": "88200",
        "Location": "Putatan Platinum Plaza",
        "Post_Office": "Kota Kinabalu",
        "State": "Sabah"
    },
    {
        "Postcode": "88200",
        "Location": "Putatan Plaza",
        "Post_Office": "Kota Kinabalu",
        "State": "Sabah"
    },
    {
        "Postcode": "88200",
        "Location": "Putatan Point",
        "Post_Office": "Kota Kinabalu",
        "State": "Sabah"
    },
    {
        "Postcode": "88200",
        "Location": "Rumah Pangsa Limauan",
        "Post_Office": "Kota Kinabalu",
        "State": "Sabah"
    },
    {
        "Postcode": "88200",
        "Location": "Sekolah Agama Tun Mustapha",
        "Post_Office": "Kota Kinabalu",
        "State": "Sabah"
    },
    {
        "Postcode": "88200",
        "Location": "Sesb Zon Tengah",
        "Post_Office": "Kota Kinabalu",
        "State": "Sabah"
    },
    {
        "Postcode": "88200",
        "Location": "Shangrila Estate",
        "Post_Office": "Kota Kinabalu",
        "State": "Sabah"
    },
    {
        "Postcode": "88200",
        "Location": "Sk Kampung Contoh",
        "Post_Office": "Kota Kinabalu",
        "State": "Sabah"
    },
    {
        "Postcode": "88200",
        "Location": "Sk Petagas",
        "Post_Office": "Kota Kinabalu",
        "State": "Sabah"
    },
    {
        "Postcode": "88200",
        "Location": "Sk Putatan",
        "Post_Office": "Kota Kinabalu",
        "State": "Sabah"
    },
    {
        "Postcode": "88200",
        "Location": "Smk Putatan",
        "Post_Office": "Kota Kinabalu",
        "State": "Sabah"
    },
    {
        "Postcode": "88200",
        "Location": "Taman Berhwemim",
        "Post_Office": "Kota Kinabalu",
        "State": "Sabah"
    },
    {
        "Postcode": "88200",
        "Location": "Taman Bersatu",
        "Post_Office": "Kota Kinabalu",
        "State": "Sabah"
    },
    {
        "Postcode": "88200",
        "Location": "Taman Bukit Vor Villa",
        "Post_Office": "Kota Kinabalu",
        "State": "Sabah"
    },
    {
        "Postcode": "88200",
        "Location": "Taman Darius",
        "Post_Office": "Kota Kinabalu",
        "State": "Sabah"
    },
    {
        "Postcode": "88200",
        "Location": "Taman Deluxe",
        "Post_Office": "Kota Kinabalu",
        "State": "Sabah"
    },
    {
        "Postcode": "88200",
        "Location": "Taman Friendship",
        "Post_Office": "Kota Kinabalu",
        "State": "Sabah"
    },
    {
        "Postcode": "88200",
        "Location": "Taman Ganang",
        "Post_Office": "Kota Kinabalu",
        "State": "Sabah"
    },
    {
        "Postcode": "88200",
        "Location": "Taman Ganang Villa",
        "Post_Office": "Kota Kinabalu",
        "State": "Sabah"
    },
    {
        "Postcode": "88200",
        "Location": "Taman Jumbo",
        "Post_Office": "Kota Kinabalu",
        "State": "Sabah"
    },
    {
        "Postcode": "88200",
        "Location": "Taman Kepayan Ridge",
        "Post_Office": "Kota Kinabalu",
        "State": "Sabah"
    },
    {
        "Postcode": "88200",
        "Location": "Taman Kinalee",
        "Post_Office": "Kota Kinabalu",
        "State": "Sabah"
    },
    {
        "Postcode": "88200",
        "Location": "Taman Kinarut",
        "Post_Office": "Kota Kinabalu",
        "State": "Sabah"
    },
    {
        "Postcode": "88200",
        "Location": "Taman Kinarut Jaya",
        "Post_Office": "Kota Kinabalu",
        "State": "Sabah"
    },
    {
        "Postcode": "88200",
        "Location": "Taman Kinarut Spur",
        "Post_Office": "Kota Kinabalu",
        "State": "Sabah"
    },
    {
        "Postcode": "88200",
        "Location": "Taman Kingland",
        "Post_Office": "Kota Kinabalu",
        "State": "Sabah"
    },
    {
        "Postcode": "88200",
        "Location": "Taman Ko-Pelajaran",
        "Post_Office": "Kota Kinabalu",
        "State": "Sabah"
    },
    {
        "Postcode": "88200",
        "Location": "Taman Lily",
        "Post_Office": "Kota Kinabalu",
        "State": "Sabah"
    },
    {
        "Postcode": "88200",
        "Location": "Taman Limauan",
        "Post_Office": "Kota Kinabalu",
        "State": "Sabah"
    },
    {
        "Postcode": "88200",
        "Location": "Taman Lokkawi",
        "Post_Office": "Kota Kinabalu",
        "State": "Sabah"
    },
    {
        "Postcode": "88200",
        "Location": "Taman Lokkawi Perdana",
        "Post_Office": "Kota Kinabalu",
        "State": "Sabah"
    },
    {
        "Postcode": "88200",
        "Location": "Taman Milinneum",
        "Post_Office": "Kota Kinabalu",
        "State": "Sabah"
    },
    {
        "Postcode": "88200",
        "Location": "Taman Mulia",
        "Post_Office": "Kota Kinabalu",
        "State": "Sabah"
    },
    {
        "Postcode": "88200",
        "Location": "Taman Olivia",
        "Post_Office": "Kota Kinabalu",
        "State": "Sabah"
    },
    {
        "Postcode": "88200",
        "Location": "Taman Pantai",
        "Post_Office": "Kota Kinabalu",
        "State": "Sabah"
    },
    {
        "Postcode": "88200",
        "Location": "Taman Pantai Lokkawi",
        "Post_Office": "Kota Kinabalu",
        "State": "Sabah"
    },
    {
        "Postcode": "88200",
        "Location": "Taman Park",
        "Post_Office": "Kota Kinabalu",
        "State": "Sabah"
    },
    {
        "Postcode": "88200",
        "Location": "Taman Perdana Emas",
        "Post_Office": "Kota Kinabalu",
        "State": "Sabah"
    },
    {
        "Postcode": "88200",
        "Location": "Taman Petagas",
        "Post_Office": "Kota Kinabalu",
        "State": "Sabah"
    },
    {
        "Postcode": "88200",
        "Location": "Taman Putatan Baru",
        "Post_Office": "Kota Kinabalu",
        "State": "Sabah"
    },
    {
        "Postcode": "88200",
        "Location": "Taman Regal",
        "Post_Office": "Kota Kinabalu",
        "State": "Sabah"
    },
    {
        "Postcode": "88200",
        "Location": "Taman Sabindo",
        "Post_Office": "Kota Kinabalu",
        "State": "Sabah"
    },
    {
        "Postcode": "88200",
        "Location": "Taman Seri Kepayan",
        "Post_Office": "Kota Kinabalu",
        "State": "Sabah"
    },
    {
        "Postcode": "88200",
        "Location": "Taman Sin Haw",
        "Post_Office": "Kota Kinabalu",
        "State": "Sabah"
    },
    {
        "Postcode": "88200",
        "Location": "Taman Sri Angkasa",
        "Post_Office": "Kota Kinabalu",
        "State": "Sabah"
    },
    {
        "Postcode": "88200",
        "Location": "Jalan Penampang",
        "Post_Office": "Kota Kinabalu",
        "State": "Sabah"
    }
]
