[
    {
        "Postcode": "88300",
        "Location": "Apartment Puteri Bahang",
        "Post_Office": "Kota Kinabalu",
        "State": "Sabah"
    },
    {
        "Postcode": "88300",
        "Location": "Bangunan Mega Long",
        "Post_Office": "Kota Kinabalu",
        "State": "Sabah"
    },
    {
        "Postcode": "88300",
        "Location": "Flat Sri Vista Kiranau",
        "Post_Office": "Kota Kinabalu",
        "State": "Sabah"
    },
    {
        "Postcode": "88300",
        "Location": "Flat Vista Minintod",
        "Post_Office": "Kota Kinabalu",
        "State": "Sabah"
    },
    {
        "Postcode": "88300",
        "Location": "Golf Villa",
        "Post_Office": "Kota Kinabalu",
        "State": "Sabah"
    },
    {
        "Postcode": "88300",
        "Location": "Hilltop Perdana",
        "Post_Office": "Kota Kinabalu",
        "State": "Sabah"
    },
    {
        "Postcode": "88300",
        "Location": "Taman Country Shangri-La",
        "Post_Office": "Kota Kinabalu",
        "State": "Sabah"
    },
    {
        "Postcode": "88300",
        "Location": "Taman Digot Phase 3",
        "Post_Office": "Kota Kinabalu",
        "State": "Sabah"
    },
    {
        "Postcode": "88300",
        "Location": "Taman Imperial Villa",
        "Post_Office": "Kota Kinabalu",
        "State": "Sabah"
    },
    {
        "Postcode": "88300",
        "Location": "Taman Kasigui 3",
        "Post_Office": "Kota Kinabalu",
        "State": "Sabah"
    },
    {
        "Postcode": "88300",
        "Location": "Taman Keluarga",
        "Post_Office": "Kota Kinabalu",
        "State": "Sabah"
    },
    {
        "Postcode": "88300",
        "Location": "Taman Kepayan Phase 3A",
        "Post_Office": "Kota Kinabalu",
        "State": "Sabah"
    },
    {
        "Postcode": "88300",
        "Location": "Taman Limbanak 2",
        "Post_Office": "Kota Kinabalu",
        "State": "Sabah"
    },
    {
        "Postcode": "88300",
        "Location": "Taman Malukun",
        "Post_Office": "Kota Kinabalu",
        "State": "Sabah"
    },
    {
        "Postcode": "88300",
        "Location": "Taman Padi View Villa Phase 3",
        "Post_Office": "Kota Kinabalu",
        "State": "Sabah"
    },
    {
        "Postcode": "88300",
        "Location": "Taman Prima Jaya Phase 2",
        "Post_Office": "Kota Kinabalu",
        "State": "Sabah"
    },
    {
        "Postcode": "88300",
        "Location": "Taman Seri Juta Phase 3A",
        "Post_Office": "Kota Kinabalu",
        "State": "Sabah"
    },
    {
        "Postcode": "88300",
        "Location": "Taman Villa Imbaan",
        "Post_Office": "Kota Kinabalu",
        "State": "Sabah"
    },
    {
        "Postcode": "88300",
        "Location": "Jalan Nosoob B",
        "Post_Office": "Kota Kinabalu",
        "State": "Sabah"
    },
    {
        "Postcode": "88300",
        "Location": "Jalan Nosoob C",
        "Post_Office": "Kota Kinabalu",
        "State": "Sabah"
    },
    {
        "Postcode": "88300",
        "Location": "Lorong Anggsa 1",
        "Post_Office": "Kota Kinabalu",
        "State": "Sabah"
    },
    {
        "Postcode": "88300",
        "Location": "Lorong Anggsa 10",
        "Post_Office": "Kota Kinabalu",
        "State": "Sabah"
    },
    {
        "Postcode": "88300",
        "Location": "Lorong Anggsa 11",
        "Post_Office": "Kota Kinabalu",
        "State": "Sabah"
    },
    {
        "Postcode": "88300",
        "Location": "Lorong Anggsa 12",
        "Post_Office": "Kota Kinabalu",
        "State": "Sabah"
    },
    {
        "Postcode": "88300",
        "Location": "Lorong Anggsa 13",
        "Post_Office": "Kota Kinabalu",
        "State": "Sabah"
    },
    {
        "Postcode": "88300",
        "Location": "Lorong Anggsa 14",
        "Post_Office": "Kota Kinabalu",
        "State": "Sabah"
    },
    {
        "Postcode": "88300",
        "Location": "Lorong Anggsa 2",
        "Post_Office": "Kota Kinabalu",
        "State": "Sabah"
    },
    {
        "Postcode": "88300",
        "Location": "Lorong Anggsa 3",
        "Post_Office": "Kota Kinabalu",
        "State": "Sabah"
    },
    {
        "Postcode": "88300",
        "Location": "Lorong Anggsa 4",
        "Post_Office": "Kota Kinabalu",
        "State": "Sabah"
    },
    {
        "Postcode": "88300",
        "Location": "Lorong Anggsa 5",
        "Post_Office": "Kota Kinabalu",
        "State": "Sabah"
    },
    {
        "Postcode": "88300",
        "Location": "Lorong Anggsa 6",
        "Post_Office": "Kota Kinabalu",
        "State": "Sabah"
    },
    {
        "Postcode": "88300",
        "Location": "Lorong Anggsa 7",
        "Post_Office": "Kota Kinabalu",
        "State": "Sabah"
    },
    {
        "Postcode": "88300",
        "Location": "Lorong Anggsa 8",
        "Post_Office": "Kota Kinabalu",
        "State": "Sabah"
    },
    {
        "Postcode": "88300",
        "Location": "Lorong Anggsa 9",
        "Post_Office": "Kota Kinabalu",
        "State": "Sabah"
    },
    {
        "Postcode": "88300",
        "Location": "Lorong Austral 1 ",
        "Post_Office": "Kota Kinabalu",
        "State": "Sabah"
    },
    {
        "Postcode": "88300",
        "Location": "Lorong Austral 10",
        "Post_Office": "Kota Kinabalu",
        "State": "Sabah"
    },
    {
        "Postcode": "88300",
        "Location": "Lorong Austral 11",
        "Post_Office": "Kota Kinabalu",
        "State": "Sabah"
    },
    {
        "Postcode": "88300",
        "Location": "Lorong Austral 2",
        "Post_Office": "Kota Kinabalu",
        "State": "Sabah"
    },
    {
        "Postcode": "88300",
        "Location": "Lorong Austral 3",
        "Post_Office": "Kota Kinabalu",
        "State": "Sabah"
    },
    {
        "Postcode": "88300",
        "Location": "Lorong Austral 4",
        "Post_Office": "Kota Kinabalu",
        "State": "Sabah"
    },
    {
        "Postcode": "88300",
        "Location": "Lorong Austral 5",
        "Post_Office": "Kota Kinabalu",
        "State": "Sabah"
    },
    {
        "Postcode": "88300",
        "Location": "Lorong Austral 6",
        "Post_Office": "Kota Kinabalu",
        "State": "Sabah"
    },
    {
        "Postcode": "88300",
        "Location": "Lorong Austral 7",
        "Post_Office": "Kota Kinabalu",
        "State": "Sabah"
    },
    {
        "Postcode": "88300",
        "Location": "Lorong Austral 8",
        "Post_Office": "Kota Kinabalu",
        "State": "Sabah"
    },
    {
        "Postcode": "88300",
        "Location": "Lorong Austral 9",
        "Post_Office": "Kota Kinabalu",
        "State": "Sabah"
    },
    {
        "Postcode": "88300",
        "Location": "Lorong Bakawali 1",
        "Post_Office": "Kota Kinabalu",
        "State": "Sabah"
    },
    {
        "Postcode": "88300",
        "Location": "Lorong Bakawali 2",
        "Post_Office": "Kota Kinabalu",
        "State": "Sabah"
    },
    {
        "Postcode": "88300",
        "Location": "Lorong Berembun 1",
        "Post_Office": "Kota Kinabalu",
        "State": "Sabah"
    },
    {
        "Postcode": "88300",
        "Location": "Lorong Berembun 2",
        "Post_Office": "Kota Kinabalu",
        "State": "Sabah"
    },
    {
        "Postcode": "88300",
        "Location": "Lorong Berembun 3",
        "Post_Office": "Kota Kinabalu",
        "State": "Sabah"
    },
    {
        "Postcode": "88300",
        "Location": "Lorong Berembun 4",
        "Post_Office": "Kota Kinabalu",
        "State": "Sabah"
    },
    {
        "Postcode": "88300",
        "Location": "Lorong Berembun 5",
        "Post_Office": "Kota Kinabalu",
        "State": "Sabah"
    },
    {
        "Postcode": "88300",
        "Location": "Lorong Bernam 1",
        "Post_Office": "Kota Kinabalu",
        "State": "Sabah"
    },
    {
        "Postcode": "88300",
        "Location": "Lorong Bernam 2",
        "Post_Office": "Kota Kinabalu",
        "State": "Sabah"
    },
    {
        "Postcode": "88300",
        "Location": "Lorong Beruang 1",
        "Post_Office": "Kota Kinabalu",
        "State": "Sabah"
    },
    {
        "Postcode": "88300",
        "Location": "Lorong Beruang 2",
        "Post_Office": "Kota Kinabalu",
        "State": "Sabah"
    },
    {
        "Postcode": "88300",
        "Location": "Lorong Bunga Bulan 1",
        "Post_Office": "Kota Kinabalu",
        "State": "Sabah"
    },
    {
        "Postcode": "88300",
        "Location": "Lorong Bunga Bulan 2",
        "Post_Office": "Kota Kinabalu",
        "State": "Sabah"
    },
    {
        "Postcode": "88300",
        "Location": "Lorong Bunga Dedap 1",
        "Post_Office": "Kota Kinabalu",
        "State": "Sabah"
    },
    {
        "Postcode": "88300",
        "Location": "Lorong Bunga Dedap 2",
        "Post_Office": "Kota Kinabalu",
        "State": "Sabah"
    },
    {
        "Postcode": "88300",
        "Location": "Lorong Bunga Kekewa A ",
        "Post_Office": "Kota Kinabalu",
        "State": "Sabah"
    },
    {
        "Postcode": "88300",
        "Location": "Lorong Bunga Kekewa B",
        "Post_Office": "Kota Kinabalu",
        "State": "Sabah"
    },
    {
        "Postcode": "88300",
        "Location": "Lorong Bunga Kekewa C",
        "Post_Office": "Kota Kinabalu",
        "State": "Sabah"
    },
    {
        "Postcode": "88300",
        "Location": "Lorong Bunga Kekwa 1",
        "Post_Office": "Kota Kinabalu",
        "State": "Sabah"
    },
    {
        "Postcode": "88300",
        "Location": "Lorong Bunga Kekwa 2",
        "Post_Office": "Kota Kinabalu",
        "State": "Sabah"
    },
    {
        "Postcode": "88300",
        "Location": "Lorong Bunga Kekwa 3",
        "Post_Office": "Kota Kinabalu",
        "State": "Sabah"
    },
    {
        "Postcode": "88300",
        "Location": "Lorong Bunga Kenanga 1",
        "Post_Office": "Kota Kinabalu",
        "State": "Sabah"
    },
    {
        "Postcode": "88300",
        "Location": "Lorong Bunga Kenanga 2",
        "Post_Office": "Kota Kinabalu",
        "State": "Sabah"
    },
    {
        "Postcode": "88300",
        "Location": "Lorong Bunga Kuasia A",
        "Post_Office": "Kota Kinabalu",
        "State": "Sabah"
    },
    {
        "Postcode": "88300",
        "Location": "Lorong Bunga Kuasia B",
        "Post_Office": "Kota Kinabalu",
        "State": "Sabah"
    },
    {
        "Postcode": "88300",
        "Location": "Lorong Bunga Kuasia C",
        "Post_Office": "Kota Kinabalu",
        "State": "Sabah"
    },
    {
        "Postcode": "88300",
        "Location": "Lorong Bunga Kursia 1",
        "Post_Office": "Kota Kinabalu",
        "State": "Sabah"
    },
    {
        "Postcode": "88300",
        "Location": "Lorong Bunga Kursia 2",
        "Post_Office": "Kota Kinabalu",
        "State": "Sabah"
    },
    {
        "Postcode": "88300",
        "Location": "Lorong Bunga Kursia 3",
        "Post_Office": "Kota Kinabalu",
        "State": "Sabah"
    },
    {
        "Postcode": "88300",
        "Location": "Lorong Bunga Tulip 1",
        "Post_Office": "Kota Kinabalu",
        "State": "Sabah"
    },
    {
        "Postcode": "88300",
        "Location": "Lorong Bunga Tulip 2",
        "Post_Office": "Kota Kinabalu",
        "State": "Sabah"
    },
    {
        "Postcode": "88300",
        "Location": "Lorong Bunga Tulip 3",
        "Post_Office": "Kota Kinabalu",
        "State": "Sabah"
    },
    {
        "Postcode": "88300",
        "Location": "Lorong Cindul 1",
        "Post_Office": "Kota Kinabalu",
        "State": "Sabah"
    },
    {
        "Postcode": "88300",
        "Location": "Lorong Cindul 2",
        "Post_Office": "Kota Kinabalu",
        "State": "Sabah"
    },
    {
        "Postcode": "88300",
        "Location": "Lorong Cindul 3",
        "Post_Office": "Kota Kinabalu",
        "State": "Sabah"
    },
    {
        "Postcode": "88300",
        "Location": "Lorong Cindul A ",
        "Post_Office": "Kota Kinabalu",
        "State": "Sabah"
    },
    {
        "Postcode": "88300",
        "Location": "Lorong Cindul B",
        "Post_Office": "Kota Kinabalu",
        "State": "Sabah"
    },
    {
        "Postcode": "88300",
        "Location": "Lorong Cindul C",
        "Post_Office": "Kota Kinabalu",
        "State": "Sabah"
    },
    {
        "Postcode": "88300",
        "Location": "Lorong Gunung Bintang A",
        "Post_Office": "Kota Kinabalu",
        "State": "Sabah"
    },
    {
        "Postcode": "88300",
        "Location": "Lorong Gunung Bintang B",
        "Post_Office": "Kota Kinabalu",
        "State": "Sabah"
    },
    {
        "Postcode": "88300",
        "Location": "Lorong Gunung Bintang C",
        "Post_Office": "Kota Kinabalu",
        "State": "Sabah"
    },
    {
        "Postcode": "88300",
        "Location": "Lorong Jaring 1",
        "Post_Office": "Kota Kinabalu",
        "State": "Sabah"
    },
    {
        "Postcode": "88300",
        "Location": "Lorong Jaring 2",
        "Post_Office": "Kota Kinabalu",
        "State": "Sabah"
    },
    {
        "Postcode": "88300",
        "Location": "Lorong Jaring 3",
        "Post_Office": "Kota Kinabalu",
        "State": "Sabah"
    },
    {
        "Postcode": "88300",
        "Location": "Lorong Jaring 4",
        "Post_Office": "Kota Kinabalu",
        "State": "Sabah"
    },
    {
        "Postcode": "88300",
        "Location": "Lorong Jaring 5",
        "Post_Office": "Kota Kinabalu",
        "State": "Sabah"
    },
    {
        "Postcode": "88300",
        "Location": "Lorong Kanggaru 1",
        "Post_Office": "Kota Kinabalu",
        "State": "Sabah"
    },
    {
        "Postcode": "88300",
        "Location": "Lorong Kanggaru 2",
        "Post_Office": "Kota Kinabalu",
        "State": "Sabah"
    },
    {
        "Postcode": "88300",
        "Location": "Lorong Kanggaru 3",
        "Post_Office": "Kota Kinabalu",
        "State": "Sabah"
    },
    {
        "Postcode": "88300",
        "Location": "Lorong Kanggaru 4",
        "Post_Office": "Kota Kinabalu",
        "State": "Sabah"
    },
    {
        "Postcode": "88300",
        "Location": "Lorong Kanggaru 5",
        "Post_Office": "Kota Kinabalu",
        "State": "Sabah"
    },
    {
        "Postcode": "88300",
        "Location": "Lorong Kck 1",
        "Post_Office": "Kota Kinabalu",
        "State": "Sabah"
    },
    {
        "Postcode": "88300",
        "Location": "Lorong Kck 3",
        "Post_Office": "Kota Kinabalu",
        "State": "Sabah"
    },
    {
        "Postcode": "88300",
        "Location": "Lorong Kck 4",
        "Post_Office": "Kota Kinabalu",
        "State": "Sabah"
    },
    {
        "Postcode": "88300",
        "Location": "Lorong Keladi 1",
        "Post_Office": "Kota Kinabalu",
        "State": "Sabah"
    },
    {
        "Postcode": "88300",
        "Location": "Lorong Keladi 2",
        "Post_Office": "Kota Kinabalu",
        "State": "Sabah"
    },
    {
        "Postcode": "88300",
        "Location": "Lorong Kijang 1",
        "Post_Office": "Kota Kinabalu",
        "State": "Sabah"
    },
    {
        "Postcode": "88300",
        "Location": "Lorong Kijang 2",
        "Post_Office": "Kota Kinabalu",
        "State": "Sabah"
    },
    {
        "Postcode": "88300",
        "Location": "Lorong Kijang 3",
        "Post_Office": "Kota Kinabalu",
        "State": "Sabah"
    },
    {
        "Postcode": "88300",
        "Location": "Lorong Kijang 4",
        "Post_Office": "Kota Kinabalu",
        "State": "Sabah"
    },
    {
        "Postcode": "88300",
        "Location": "Lorong Kijang 5",
        "Post_Office": "Kota Kinabalu",
        "State": "Sabah"
    },
    {
        "Postcode": "88300",
        "Location": "Lorong Kijang 6",
        "Post_Office": "Kota Kinabalu",
        "State": "Sabah"
    },
    {
        "Postcode": "88300",
        "Location": "Lorong Kijang 7",
        "Post_Office": "Kota Kinabalu",
        "State": "Sabah"
    },
    {
        "Postcode": "88300",
        "Location": "Lorong Kijang 8",
        "Post_Office": "Kota Kinabalu",
        "State": "Sabah"
    },
    {
        "Postcode": "88300",
        "Location": "Lorong Kijang 9",
        "Post_Office": "Kota Kinabalu",
        "State": "Sabah"
    },
    {
        "Postcode": "88300",
        "Location": "Lorong Kinabalu 1",
        "Post_Office": "Kota Kinabalu",
        "State": "Sabah"
    },
    {
        "Postcode": "88300",
        "Location": "Lorong Kinabalu 2",
        "Post_Office": "Kota Kinabalu",
        "State": "Sabah"
    },
    {
        "Postcode": "88300",
        "Location": "Lorong Kinabalu 3",
        "Post_Office": "Kota Kinabalu",
        "State": "Sabah"
    },
    {
        "Postcode": "88300",
        "Location": "Lorong Kirana 1",
        "Post_Office": "Kota Kinabalu",
        "State": "Sabah"
    },
    {
        "Postcode": "88300",
        "Location": "Lorong Kirana 2",
        "Post_Office": "Kota Kinabalu",
        "State": "Sabah"
    },
    {
        "Postcode": "88300",
        "Location": "Lorong Lokus 1",
        "Post_Office": "Kota Kinabalu",
        "State": "Sabah"
    },
    {
        "Postcode": "88300",
        "Location": "Lorong Lokus 2",
        "Post_Office": "Kota Kinabalu",
        "State": "Sabah"
    },
    {
        "Postcode": "88300",
        "Location": "Lorong Lokus 3",
        "Post_Office": "Kota Kinabalu",
        "State": "Sabah"
    },
    {
        "Postcode": "88300",
        "Location": "Lorong Maktab Gaya 1",
        "Post_Office": "Kota Kinabalu",
        "State": "Sabah"
    },
    {
        "Postcode": "88300",
        "Location": "Lorong Maktab Gaya 2",
        "Post_Office": "Kota Kinabalu",
        "State": "Sabah"
    },
    {
        "Postcode": "88300",
        "Location": "Lorong Maktab Gaya 3",
        "Post_Office": "Kota Kinabalu",
        "State": "Sabah"
    },
    {
        "Postcode": "88300",
        "Location": "Lorong Maktab Gaya 4",
        "Post_Office": "Kota Kinabalu",
        "State": "Sabah"
    },
    {
        "Postcode": "88300",
        "Location": "Lorong Maktab Gaya 5",
        "Post_Office": "Kota Kinabalu",
        "State": "Sabah"
    },
    {
        "Postcode": "88300",
        "Location": "Lorong Maktab Gaya 6",
        "Post_Office": "Kota Kinabalu",
        "State": "Sabah"
    },
    {
        "Postcode": "88300",
        "Location": "Lorong Margosa 1",
        "Post_Office": "Kota Kinabalu",
        "State": "Sabah"
    },
    {
        "Postcode": "88300",
        "Location": "Lorong Margosa 2",
        "Post_Office": "Kota Kinabalu",
        "State": "Sabah"
    },
    {
        "Postcode": "88300",
        "Location": "Lorong Margosa 3",
        "Post_Office": "Kota Kinabalu",
        "State": "Sabah"
    },
    {
        "Postcode": "88300",
        "Location": "Lorong Margosa 4",
        "Post_Office": "Kota Kinabalu",
        "State": "Sabah"
    },
    {
        "Postcode": "88300",
        "Location": "Lorong Margosa 5",
        "Post_Office": "Kota Kinabalu",
        "State": "Sabah"
    },
    {
        "Postcode": "88300",
        "Location": "Lorong Mawas 1",
        "Post_Office": "Kota Kinabalu",
        "State": "Sabah"
    },
    {
        "Postcode": "88300",
        "Location": "Lorong Mawas 10",
        "Post_Office": "Kota Kinabalu",
        "State": "Sabah"
    },
    {
        "Postcode": "88300",
        "Location": "Lorong Mawas 2",
        "Post_Office": "Kota Kinabalu",
        "State": "Sabah"
    },
    {
        "Postcode": "88300",
        "Location": "Lorong Mawas 3",
        "Post_Office": "Kota Kinabalu",
        "State": "Sabah"
    },
    {
        "Postcode": "88300",
        "Location": "Lorong Mawas 4",
        "Post_Office": "Kota Kinabalu",
        "State": "Sabah"
    },
    {
        "Postcode": "88300",
        "Location": "Lorong Mawas 5",
        "Post_Office": "Kota Kinabalu",
        "State": "Sabah"
    },
    {
        "Postcode": "88300",
        "Location": "Lorong Mawas 6",
        "Post_Office": "Kota Kinabalu",
        "State": "Sabah"
    },
    {
        "Postcode": "88300",
        "Location": "Lorong Mawas 7",
        "Post_Office": "Kota Kinabalu",
        "State": "Sabah"
    },
    {
        "Postcode": "88300",
        "Location": "Lorong Mawas 8",
        "Post_Office": "Kota Kinabalu",
        "State": "Sabah"
    },
    {
        "Postcode": "88300",
        "Location": "Lorong Mawas 9",
        "Post_Office": "Kota Kinabalu",
        "State": "Sabah"
    },
    {
        "Postcode": "88300",
        "Location": "Lorong Mei Lok 1",
        "Post_Office": "Kota Kinabalu",
        "State": "Sabah"
    },
    {
        "Postcode": "88300",
        "Location": "Lorong Mei Lok 2",
        "Post_Office": "Kota Kinabalu",
        "State": "Sabah"
    },
    {
        "Postcode": "88300",
        "Location": "Lorong Mei Lok 3",
        "Post_Office": "Kota Kinabalu",
        "State": "Sabah"
    },
    {
        "Postcode": "88300",
        "Location": "Lorong Mei Lok 4",
        "Post_Office": "Kota Kinabalu",
        "State": "Sabah"
    },
    {
        "Postcode": "88300",
        "Location": "Lorong Muntahah 1",
        "Post_Office": "Kota Kinabalu",
        "State": "Sabah"
    },
    {
        "Postcode": "88300",
        "Location": "Lorong Muntahah 3C",
        "Post_Office": "Kota Kinabalu",
        "State": "Sabah"
    },
    {
        "Postcode": "88300",
        "Location": "Lorong Nibung 1",
        "Post_Office": "Kota Kinabalu",
        "State": "Sabah"
    },
    {
        "Postcode": "88300",
        "Location": "Lorong Nibung 2",
        "Post_Office": "Kota Kinabalu",
        "State": "Sabah"
    },
    {
        "Postcode": "88300",
        "Location": "Lorong Nibung 3",
        "Post_Office": "Kota Kinabalu",
        "State": "Sabah"
    },
    {
        "Postcode": "88300",
        "Location": "Lorong Nibung 4",
        "Post_Office": "Kota Kinabalu",
        "State": "Sabah"
    },
    {
        "Postcode": "88300",
        "Location": "Lorong Nibung 5",
        "Post_Office": "Kota Kinabalu",
        "State": "Sabah"
    },
    {
        "Postcode": "88300",
        "Location": "Lorong Orkid 1",
        "Post_Office": "Kota Kinabalu",
        "State": "Sabah"
    },
    {
        "Postcode": "88300",
        "Location": "Lorong Orkid 2",
        "Post_Office": "Kota Kinabalu",
        "State": "Sabah"
    },
    {
        "Postcode": "88300",
        "Location": "Lorong Palas 1",
        "Post_Office": "Kota Kinabalu",
        "State": "Sabah"
    },
    {
        "Postcode": "88300",
        "Location": "Lorong Palas 2",
        "Post_Office": "Kota Kinabalu",
        "State": "Sabah"
    },
    {
        "Postcode": "88300",
        "Location": "Lorong Palas 3",
        "Post_Office": "Kota Kinabalu",
        "State": "Sabah"
    },
    {
        "Postcode": "88300",
        "Location": "Lorong Palas 4",
        "Post_Office": "Kota Kinabalu",
        "State": "Sabah"
    },
    {
        "Postcode": "88300",
        "Location": "Lorong Pelanduk 1",
        "Post_Office": "Kota Kinabalu",
        "State": "Sabah"
    },
    {
        "Postcode": "88300",
        "Location": "Lorong Pelanduk 2",
        "Post_Office": "Kota Kinabalu",
        "State": "Sabah"
    },
    {
        "Postcode": "88300",
        "Location": "Lorong Pelanduk 3",
        "Post_Office": "Kota Kinabalu",
        "State": "Sabah"
    },
    {
        "Postcode": "88300",
        "Location": "Lorong Pelanduk 4",
        "Post_Office": "Kota Kinabalu",
        "State": "Sabah"
    },
    {
        "Postcode": "88300",
        "Location": "Lorong Pokok Johar 1",
        "Post_Office": "Kota Kinabalu",
        "State": "Sabah"
    },
    {
        "Postcode": "88300",
        "Location": "Lorong Pokok Johar 2",
        "Post_Office": "Kota Kinabalu",
        "State": "Sabah"
    },
    {
        "Postcode": "88300",
        "Location": "Lorong Rainfield Court 1",
        "Post_Office": "Kota Kinabalu",
        "State": "Sabah"
    },
    {
        "Postcode": "88300",
        "Location": "Lorong Rainfield Court 2",
        "Post_Office": "Kota Kinabalu",
        "State": "Sabah"
    },
    {
        "Postcode": "88300",
        "Location": "Lorong Rainfield Court 3",
        "Post_Office": "Kota Kinabalu",
        "State": "Sabah"
    },
    {
        "Postcode": "88300",
        "Location": "Lorong Rampai 1",
        "Post_Office": "Kota Kinabalu",
        "State": "Sabah"
    },
    {
        "Postcode": "88300",
        "Location": "Lorong Rampai 2",
        "Post_Office": "Kota Kinabalu",
        "State": "Sabah"
    },
    {
        "Postcode": "88300",
        "Location": "Lorong Rampai 3",
        "Post_Office": "Kota Kinabalu",
        "State": "Sabah"
    },
    {
        "Postcode": "88300",
        "Location": "Lorong Rampai 4",
        "Post_Office": "Kota Kinabalu",
        "State": "Sabah"
    },
    {
        "Postcode": "88300",
        "Location": "Lorong Rampai 5",
        "Post_Office": "Kota Kinabalu",
        "State": "Sabah"
    },
    {
        "Postcode": "88300",
        "Location": "Lorong Rampai A",
        "Post_Office": "Kota Kinabalu",
        "State": "Sabah"
    },
    {
        "Postcode": "88300",
        "Location": "Lorong Rampai B",
        "Post_Office": "Kota Kinabalu",
        "State": "Sabah"
    },
    {
        "Postcode": "88300",
        "Location": "Lorong Rampai C",
        "Post_Office": "Kota Kinabalu",
        "State": "Sabah"
    },
    {
        "Postcode": "88300",
        "Location": "Lorong Rampai D",
        "Post_Office": "Kota Kinabalu",
        "State": "Sabah"
    },
    {
        "Postcode": "88300",
        "Location": "Lorong Rampai E",
        "Post_Office": "Kota Kinabalu",
        "State": "Sabah"
    },
    {
        "Postcode": "88300",
        "Location": "Lorong Rembia 1",
        "Post_Office": "Kota Kinabalu",
        "State": "Sabah"
    },
    {
        "Postcode": "88300",
        "Location": "Lorong Rembia 2",
        "Post_Office": "Kota Kinabalu",
        "State": "Sabah"
    },
    {
        "Postcode": "88300",
        "Location": "Lorong Rembia 3",
        "Post_Office": "Kota Kinabalu",
        "State": "Sabah"
    },
    {
        "Postcode": "88300",
        "Location": "Lorong Reservior 1",
        "Post_Office": "Kota Kinabalu",
        "State": "Sabah"
    },
    {
        "Postcode": "88300",
        "Location": "Lorong Reservior 1A",
        "Post_Office": "Kota Kinabalu",
        "State": "Sabah"
    },
    {
        "Postcode": "88300",
        "Location": "Lorong Reservior 1B",
        "Post_Office": "Kota Kinabalu",
        "State": "Sabah"
    },
    {
        "Postcode": "88300",
        "Location": "Lorong Reservior 2",
        "Post_Office": "Kota Kinabalu",
        "State": "Sabah"
    },
    {
        "Postcode": "88300",
        "Location": "Lorong Reservior 2A",
        "Post_Office": "Kota Kinabalu",
        "State": "Sabah"
    },
    {
        "Postcode": "88300",
        "Location": "Lorong Reservior 2B",
        "Post_Office": "Kota Kinabalu",
        "State": "Sabah"
    },
    {
        "Postcode": "88300",
        "Location": "Lorong Ridgeview 1 ",
        "Post_Office": "Kota Kinabalu",
        "State": "Sabah"
    },
    {
        "Postcode": "88300",
        "Location": "Lorong Ridgeview 2",
        "Post_Office": "Kota Kinabalu",
        "State": "Sabah"
    },
    {
        "Postcode": "88300",
        "Location": "Lorong Ridgeview 3",
        "Post_Office": "Kota Kinabalu",
        "State": "Sabah"
    },
    {
        "Postcode": "88300",
        "Location": "Lorong Ridgeview 4",
        "Post_Office": "Kota Kinabalu",
        "State": "Sabah"
    },
    {
        "Postcode": "88300",
        "Location": "Lorong Ridgeview 5",
        "Post_Office": "Kota Kinabalu",
        "State": "Sabah"
    },
    {
        "Postcode": "88300",
        "Location": "Lorong Ridgeview 6",
        "Post_Office": "Kota Kinabalu",
        "State": "Sabah"
    },
    {
        "Postcode": "88300",
        "Location": "Lorong Ridgeview 7",
        "Post_Office": "Kota Kinabalu",
        "State": "Sabah"
    },
    {
        "Postcode": "88300",
        "Location": "Lorong Sang Kanchil 1",
        "Post_Office": "Kota Kinabalu",
        "State": "Sabah"
    },
    {
        "Postcode": "88300",
        "Location": "Lorong Sang Kanchil 2",
        "Post_Office": "Kota Kinabalu",
        "State": "Sabah"
    },
    {
        "Postcode": "88300",
        "Location": "Lorong Sang Kanchil 3",
        "Post_Office": "Kota Kinabalu",
        "State": "Sabah"
    },
    {
        "Postcode": "88300",
        "Location": "Lorong Seladang A",
        "Post_Office": "Kota Kinabalu",
        "State": "Sabah"
    },
    {
        "Postcode": "88300",
        "Location": "Lorong Seladang B",
        "Post_Office": "Kota Kinabalu",
        "State": "Sabah"
    },
    {
        "Postcode": "88300",
        "Location": "Lorong Seladang C",
        "Post_Office": "Kota Kinabalu",
        "State": "Sabah"
    },
    {
        "Postcode": "88300",
        "Location": "Lorong Seladang D",
        "Post_Office": "Kota Kinabalu",
        "State": "Sabah"
    },
    {
        "Postcode": "88300",
        "Location": "Lorong Seladang E",
        "Post_Office": "Kota Kinabalu",
        "State": "Sabah"
    },
    {
        "Postcode": "88300",
        "Location": "Lorong Semangkok A",
        "Post_Office": "Kota Kinabalu",
        "State": "Sabah"
    },
    {
        "Postcode": "88300",
        "Location": "Lorong Semangkok B",
        "Post_Office": "Kota Kinabalu",
        "State": "Sabah"
    },
    {
        "Postcode": "88300",
        "Location": "Lorong Semangkok C",
        "Post_Office": "Kota Kinabalu",
        "State": "Sabah"
    },
    {
        "Postcode": "88300",
        "Location": "Lorong Semangkok D",
        "Post_Office": "Kota Kinabalu",
        "State": "Sabah"
    },
    {
        "Postcode": "88300",
        "Location": "Lorong Semangkok E",
        "Post_Office": "Kota Kinabalu",
        "State": "Sabah"
    },
    {
        "Postcode": "88300",
        "Location": "Lorong Semangkok F",
        "Post_Office": "Kota Kinabalu",
        "State": "Sabah"
    },
    {
        "Postcode": "88300",
        "Location": "Lorong Semangkok G",
        "Post_Office": "Kota Kinabalu",
        "State": "Sabah"
    },
    {
        "Postcode": "88300",
        "Location": "Lorong Sena 1",
        "Post_Office": "Kota Kinabalu",
        "State": "Sabah"
    },
    {
        "Postcode": "88300",
        "Location": "Lorong Sena 2",
        "Post_Office": "Kota Kinabalu",
        "State": "Sabah"
    },
    {
        "Postcode": "88300",
        "Location": "Lorong Sena 3",
        "Post_Office": "Kota Kinabalu",
        "State": "Sabah"
    },
    {
        "Postcode": "88300",
        "Location": "Lorong Sena 4",
        "Post_Office": "Kota Kinabalu",
        "State": "Sabah"
    },
    {
        "Postcode": "88300",
        "Location": "Lorong Sena 5",
        "Post_Office": "Kota Kinabalu",
        "State": "Sabah"
    },
    {
        "Postcode": "88300",
        "Location": "Lorong Sena 6",
        "Post_Office": "Kota Kinabalu",
        "State": "Sabah"
    },
    {
        "Postcode": "88300",
        "Location": "Lorong Seroja 1",
        "Post_Office": "Kota Kinabalu",
        "State": "Sabah"
    },
    {
        "Postcode": "88300",
        "Location": "Lorong Seroja 2",
        "Post_Office": "Kota Kinabalu",
        "State": "Sabah"
    },
    {
        "Postcode": "88300",
        "Location": "Lorong Seroja 2E",
        "Post_Office": "Kota Kinabalu",
        "State": "Sabah"
    },
    {
        "Postcode": "88300",
        "Location": "Lorong Seroja 3",
        "Post_Office": "Kota Kinabalu",
        "State": "Sabah"
    },
    {
        "Postcode": "88300",
        "Location": "Lorong Seroja 4",
        "Post_Office": "Kota Kinabalu",
        "State": "Sabah"
    },
    {
        "Postcode": "88300",
        "Location": "Lorong Seroja 5",
        "Post_Office": "Kota Kinabalu",
        "State": "Sabah"
    },
    {
        "Postcode": "88300",
        "Location": "Lorong Seroja 6",
        "Post_Office": "Kota Kinabalu",
        "State": "Sabah"
    },
    {
        "Postcode": "88300",
        "Location": "Lorong Seroja 7",
        "Post_Office": "Kota Kinabalu",
        "State": "Sabah"
    },
    {
        "Postcode": "88300",
        "Location": "Lorong Summerset 1",
        "Post_Office": "Kota Kinabalu",
        "State": "Sabah"
    },
    {
        "Postcode": "88300",
        "Location": "Lorong Summerset 2",
        "Post_Office": "Kota Kinabalu",
        "State": "Sabah"
    },
    {
        "Postcode": "88300",
        "Location": "Lorong Summerset 3",
        "Post_Office": "Kota Kinabalu",
        "State": "Sabah"
    },
    {
        "Postcode": "88300",
        "Location": "Lorong Summerset 4",
        "Post_Office": "Kota Kinabalu",
        "State": "Sabah"
    },
    {
        "Postcode": "88300",
        "Location": "Lorong Sutera 1",
        "Post_Office": "Kota Kinabalu",
        "State": "Sabah"
    },
    {
        "Postcode": "88300",
        "Location": "Lorong Sutera 2",
        "Post_Office": "Kota Kinabalu",
        "State": "Sabah"
    },
    {
        "Postcode": "88300",
        "Location": "Lorong Sutera 3",
        "Post_Office": "Kota Kinabalu",
        "State": "Sabah"
    },
    {
        "Postcode": "88300",
        "Location": "Lorong Sutera 4",
        "Post_Office": "Kota Kinabalu",
        "State": "Sabah"
    },
    {
        "Postcode": "88300",
        "Location": "Lorong Sutera 5",
        "Post_Office": "Kota Kinabalu",
        "State": "Sabah"
    },
    {
        "Postcode": "88300",
        "Location": "Lorong Tahan 1",
        "Post_Office": "Kota Kinabalu",
        "State": "Sabah"
    },
    {
        "Postcode": "88300",
        "Location": "Lorong Tahan 2",
        "Post_Office": "Kota Kinabalu",
        "State": "Sabah"
    },
    {
        "Postcode": "88300",
        "Location": "Lorong Tahan 3",
        "Post_Office": "Kota Kinabalu",
        "State": "Sabah"
    },
    {
        "Postcode": "88300",
        "Location": "Lorong Tenggiling 1",
        "Post_Office": "Kota Kinabalu",
        "State": "Sabah"
    },
    {
        "Postcode": "88300",
        "Location": "Lorong Tenggiling 2",
        "Post_Office": "Kota Kinabalu",
        "State": "Sabah"
    },
    {
        "Postcode": "88300",
        "Location": "Lorong Teratai 1",
        "Post_Office": "Kota Kinabalu",
        "State": "Sabah"
    },
    {
        "Postcode": "88300",
        "Location": "Lorong Teratai 2",
        "Post_Office": "Kota Kinabalu",
        "State": "Sabah"
    },
    {
        "Postcode": "88300",
        "Location": "Lorong Tosa Raya 1",
        "Post_Office": "Kota Kinabalu",
        "State": "Sabah"
    },
    {
        "Postcode": "88300",
        "Location": "Lorong Tosa Raya 2",
        "Post_Office": "Kota Kinabalu",
        "State": "Sabah"
    },
    {
        "Postcode": "88300",
        "Location": "Lorong Tosa Raya 3",
        "Post_Office": "Kota Kinabalu",
        "State": "Sabah"
    },
    {
        "Postcode": "88300",
        "Location": "Lorong Tulip 1",
        "Post_Office": "Kota Kinabalu",
        "State": "Sabah"
    },
    {
        "Postcode": "88300",
        "Location": "Lorong Tulip 2",
        "Post_Office": "Kota Kinabalu",
        "State": "Sabah"
    },
    {
        "Postcode": "88300",
        "Location": "Lorong Tupai 1",
        "Post_Office": "Kota Kinabalu",
        "State": "Sabah"
    },
    {
        "Postcode": "88300",
        "Location": "Lorong Tupai 2",
        "Post_Office": "Kota Kinabalu",
        "State": "Sabah"
    },
    {
        "Postcode": "88300",
        "Location": "Lorong Tupai 3",
        "Post_Office": "Kota Kinabalu",
        "State": "Sabah"
    },
    {
        "Postcode": "88300",
        "Location": "Lorong Unta 1",
        "Post_Office": "Kota Kinabalu",
        "State": "Sabah"
    },
    {
        "Postcode": "88300",
        "Location": "Lorong Unta 10",
        "Post_Office": "Kota Kinabalu",
        "State": "Sabah"
    },
    {
        "Postcode": "88300",
        "Location": "Lorong Unta 11",
        "Post_Office": "Kota Kinabalu",
        "State": "Sabah"
    },
    {
        "Postcode": "88300",
        "Location": "Lorong Unta 2",
        "Post_Office": "Kota Kinabalu",
        "State": "Sabah"
    },
    {
        "Postcode": "88300",
        "Location": "Lorong Unta 3",
        "Post_Office": "Kota Kinabalu",
        "State": "Sabah"
    },
    {
        "Postcode": "88300",
        "Location": "Lorong Unta 4",
        "Post_Office": "Kota Kinabalu",
        "State": "Sabah"
    },
    {
        "Postcode": "88300",
        "Location": "Lorong Unta 5",
        "Post_Office": "Kota Kinabalu",
        "State": "Sabah"
    },
    {
        "Postcode": "88300",
        "Location": "Lorong Unta 6",
        "Post_Office": "Kota Kinabalu",
        "State": "Sabah"
    },
    {
        "Postcode": "88300",
        "Location": "Lorong Unta 7",
        "Post_Office": "Kota Kinabalu",
        "State": "Sabah"
    },
    {
        "Postcode": "88300",
        "Location": "Lorong Unta 8",
        "Post_Office": "Kota Kinabalu",
        "State": "Sabah"
    },
    {
        "Postcode": "88300",
        "Location": "Lorong Unta 9",
        "Post_Office": "Kota Kinabalu",
        "State": "Sabah"
    },
    {
        "Postcode": "88300",
        "Location": "Lorong Zirafah 1",
        "Post_Office": "Kota Kinabalu",
        "State": "Sabah"
    },
    {
        "Postcode": "88300",
        "Location": "Lorong Zirafah 10",
        "Post_Office": "Kota Kinabalu",
        "State": "Sabah"
    },
    {
        "Postcode": "88300",
        "Location": "Lorong Zirafah 11",
        "Post_Office": "Kota Kinabalu",
        "State": "Sabah"
    },
    {
        "Postcode": "88300",
        "Location": "Lorong Zirafah 12",
        "Post_Office": "Kota Kinabalu",
        "State": "Sabah"
    },
    {
        "Postcode": "88300",
        "Location": "Lorong Zirafah 2",
        "Post_Office": "Kota Kinabalu",
        "State": "Sabah"
    },
    {
        "Postcode": "88300",
        "Location": "Lorong Zirafah 3",
        "Post_Office": "Kota Kinabalu",
        "State": "Sabah"
    },
    {
        "Postcode": "88300",
        "Location": "Lorong Zirafah 4",
        "Post_Office": "Kota Kinabalu",
        "State": "Sabah"
    },
    {
        "Postcode": "88300",
        "Location": "Lorong Zirafah 5",
        "Post_Office": "Kota Kinabalu",
        "State": "Sabah"
    },
    {
        "Postcode": "88300",
        "Location": "Lorong Zirafah 6",
        "Post_Office": "Kota Kinabalu",
        "State": "Sabah"
    },
    {
        "Postcode": "88300",
        "Location": "Lorong Zirafah 7",
        "Post_Office": "Kota Kinabalu",
        "State": "Sabah"
    },
    {
        "Postcode": "88300",
        "Location": "Lorong Zirafah 8",
        "Post_Office": "Kota Kinabalu",
        "State": "Sabah"
    },
    {
        "Postcode": "88300",
        "Location": "Lorong Zirafah 9",
        "Post_Office": "Kota Kinabalu",
        "State": "Sabah"
    },
    {
        "Postcode": "88300",
        "Location": "Taman Fortuna 1",
        "Post_Office": "Kota Kinabalu",
        "State": "Sabah"
    },
    {
        "Postcode": "88300",
        "Location": "Taman Fortuna 2",
        "Post_Office": "Kota Kinabalu",
        "State": "Sabah"
    },
    {
        "Postcode": "88300",
        "Location": "Taman Friendly 1",
        "Post_Office": "Kota Kinabalu",
        "State": "Sabah"
    },
    {
        "Postcode": "88300",
        "Location": "Taman Friendly 2",
        "Post_Office": "Kota Kinabalu",
        "State": "Sabah"
    },
    {
        "Postcode": "88300",
        "Location": "Taman Friendly 3",
        "Post_Office": "Kota Kinabalu",
        "State": "Sabah"
    },
    {
        "Postcode": "88300",
        "Location": "Taman Friendly 4",
        "Post_Office": "Kota Kinabalu",
        "State": "Sabah"
    },
    {
        "Postcode": "88300",
        "Location": "Taman Fu Yen 3",
        "Post_Office": "Kota Kinabalu",
        "State": "Sabah"
    },
    {
        "Postcode": "88300",
        "Location": "Taman Fu Yen 4",
        "Post_Office": "Kota Kinabalu",
        "State": "Sabah"
    },
    {
        "Postcode": "88300",
        "Location": "Taman Fu Yen 5",
        "Post_Office": "Kota Kinabalu",
        "State": "Sabah"
    },
    {
        "Postcode": "88300",
        "Location": "Taman Hospital",
        "Post_Office": "Kota Kinabalu",
        "State": "Sabah"
    },
    {
        "Postcode": "88300",
        "Location": "Taman Kinanty 1",
        "Post_Office": "Kota Kinabalu",
        "State": "Sabah"
    },
    {
        "Postcode": "88300",
        "Location": "Taman Kinanty 2",
        "Post_Office": "Kota Kinabalu",
        "State": "Sabah"
    },
    {
        "Postcode": "88300",
        "Location": "Taman Luyang 1",
        "Post_Office": "Kota Kinabalu",
        "State": "Sabah"
    },
    {
        "Postcode": "88300",
        "Location": "Taman Luyang 10",
        "Post_Office": "Kota Kinabalu",
        "State": "Sabah"
    },
    {
        "Postcode": "88300",
        "Location": "Taman Luyang 11",
        "Post_Office": "Kota Kinabalu",
        "State": "Sabah"
    },
    {
        "Postcode": "88300",
        "Location": "Taman Luyang 2",
        "Post_Office": "Kota Kinabalu",
        "State": "Sabah"
    },
    {
        "Postcode": "88300",
        "Location": "Taman Luyang 3",
        "Post_Office": "Kota Kinabalu",
        "State": "Sabah"
    },
    {
        "Postcode": "88300",
        "Location": "Taman Luyang 4",
        "Post_Office": "Kota Kinabalu",
        "State": "Sabah"
    },
    {
        "Postcode": "88300",
        "Location": "Taman Luyang 5",
        "Post_Office": "Kota Kinabalu",
        "State": "Sabah"
    },
    {
        "Postcode": "88300",
        "Location": "Taman Luyang 6",
        "Post_Office": "Kota Kinabalu",
        "State": "Sabah"
    },
    {
        "Postcode": "88300",
        "Location": "Taman Luyang 7",
        "Post_Office": "Kota Kinabalu",
        "State": "Sabah"
    },
    {
        "Postcode": "88300",
        "Location": "Taman Luyang 8",
        "Post_Office": "Kota Kinabalu",
        "State": "Sabah"
    },
    {
        "Postcode": "88300",
        "Location": "Taman Luyang 9",
        "Post_Office": "Kota Kinabalu",
        "State": "Sabah"
    },
    {
        "Postcode": "88300",
        "Location": "Taman Penampang 1",
        "Post_Office": "Kota Kinabalu",
        "State": "Sabah"
    },
    {
        "Postcode": "88300",
        "Location": "Taman Penampang 2",
        "Post_Office": "Kota Kinabalu",
        "State": "Sabah"
    },
    {
        "Postcode": "88300",
        "Location": "Taman Ridge View 10A",
        "Post_Office": "Kota Kinabalu",
        "State": "Sabah"
    },
    {
        "Postcode": "88300",
        "Location": "Taman Ridge View 12A",
        "Post_Office": "Kota Kinabalu",
        "State": "Sabah"
    },
    {
        "Postcode": "88300",
        "Location": "Taman Ridge View 9",
        "Post_Office": "Kota Kinabalu",
        "State": "Sabah"
    },
    {
        "Postcode": "88300",
        "Location": "Taman Senibena 1",
        "Post_Office": "Kota Kinabalu",
        "State": "Sabah"
    },
    {
        "Postcode": "88300",
        "Location": "Taman Senibena 2",
        "Post_Office": "Kota Kinabalu",
        "State": "Sabah"
    },
    {
        "Postcode": "88300",
        "Location": "Taman Summerset 1",
        "Post_Office": "Kota Kinabalu",
        "State": "Sabah"
    },
    {
        "Postcode": "88300",
        "Location": "Taman Summerset 2",
        "Post_Office": "Kota Kinabalu",
        "State": "Sabah"
    },
    {
        "Postcode": "88300",
        "Location": "Taman Viewland 3B",
        "Post_Office": "Kota Kinabalu",
        "State": "Sabah"
    },
    {
        "Postcode": "88300",
        "Location": "Taman Viewland 3C",
        "Post_Office": "Kota Kinabalu",
        "State": "Sabah"
    },
    {
        "Postcode": "88300",
        "Location": "Taman Ridge View 12B",
        "Post_Office": "Kota Kinabalu",
        "State": "Sabah"
    },
    {
        "Postcode": "88300",
        "Location": "Taman Ridge View 12C",
        "Post_Office": "Kota Kinabalu",
        "State": "Sabah"
    },
    {
        "Postcode": "88300",
        "Location": "Ahzam Villa",
        "Post_Office": "Kota Kinabalu",
        "State": "Sabah"
    },
    {
        "Postcode": "88300",
        "Location": "Apartment Viewland Ph3",
        "Post_Office": "Kota Kinabalu",
        "State": "Sabah"
    },
    {
        "Postcode": "88300",
        "Location": "Arkib Negeri",
        "Post_Office": "Kota Kinabalu",
        "State": "Sabah"
    },
    {
        "Postcode": "88300",
        "Location": "Bangunan Daya",
        "Post_Office": "Kota Kinabalu",
        "State": "Sabah"
    },
    {
        "Postcode": "88300",
        "Location": "Bangunan Perpustakaan",
        "Post_Office": "Kota Kinabalu",
        "State": "Sabah"
    },
    {
        "Postcode": "88300",
        "Location": "Beauty Garden",
        "Post_Office": "Kota Kinabalu",
        "State": "Sabah"
    },
    {
        "Postcode": "88300",
        "Location": "Central Plaza ",
        "Post_Office": "Kota Kinabalu",
        "State": "Sabah"
    },
    {
        "Postcode": "88300",
        "Location": "Cerson Heights",
        "Post_Office": "Kota Kinabalu",
        "State": "Sabah"
    },
    {
        "Postcode": "88300",
        "Location": "Colenaddes Condominium",
        "Post_Office": "Kota Kinabalu",
        "State": "Sabah"
    },
    {
        "Postcode": "88300",
        "Location": "Elopura Apartment",
        "Post_Office": "Kota Kinabalu",
        "State": "Sabah"
    },
    {
        "Postcode": "88300",
        "Location": "Fairway Mansion Condominium",
        "Post_Office": "Kota Kinabalu",
        "State": "Sabah"
    },
    {
        "Postcode": "88300",
        "Location": "Flat Kepayan Ridge (Ph 18 \u0026 19)",
        "Post_Office": "Kota Kinabalu",
        "State": "Sabah"
    },
    {
        "Postcode": "88300",
        "Location": "Gaya Court Apartment",
        "Post_Office": "Kota Kinabalu",
        "State": "Sabah"
    },
    {
        "Postcode": "88300",
        "Location": "Golf View",
        "Post_Office": "Kota Kinabalu",
        "State": "Sabah"
    },
    {
        "Postcode": "88300",
        "Location": "Hing Apartment",
        "Post_Office": "Kota Kinabalu",
        "State": "Sabah"
    },
    {
        "Postcode": "88300",
        "Location": "Hing Tower",
        "Post_Office": "Kota Kinabalu",
        "State": "Sabah"
    },
    {
        "Postcode": "88300",
        "Location": "Jabatan Kajibumi",
        "Post_Office": "Kota Kinabalu",
        "State": "Sabah"
    },
    {
        "Postcode": "88300",
        "Location": "Jalan Angsa",
        "Post_Office": "Kota Kinabalu",
        "State": "Sabah"
    },
    {
        "Postcode": "88300",
        "Location": "Jalan Budaya",
        "Post_Office": "Kota Kinabalu",
        "State": "Sabah"
    },
    {
        "Postcode": "88300",
        "Location": "Jalan Bukit Padang",
        "Post_Office": "Kota Kinabalu",
        "State": "Sabah"
    },
    {
        "Postcode": "88300",
        "Location": "Jalan Bukit Temesu",
        "Post_Office": "Kota Kinabalu",
        "State": "Sabah"
    },
    {
        "Postcode": "88300",
        "Location": "Jalan Bundusan",
        "Post_Office": "Kota Kinabalu",
        "State": "Sabah"
    },
    {
        "Postcode": "88300",
        "Location": "Jalan Bunga Bawang",
        "Post_Office": "Kota Kinabalu",
        "State": "Sabah"
    },
    {
        "Postcode": "88300",
        "Location": "Jalan Bunga Raja Kayu",
        "Post_Office": "Kota Kinabalu",
        "State": "Sabah"
    },
    {
        "Postcode": "88300",
        "Location": "Jalan Bunga Rose",
        "Post_Office": "Kota Kinabalu",
        "State": "Sabah"
    },
    {
        "Postcode": "88300",
        "Location": "Jalan Bunga Ulam Raja",
        "Post_Office": "Kota Kinabalu",
        "State": "Sabah"
    },
    {
        "Postcode": "88300",
        "Location": "Jalan Dontozidon",
        "Post_Office": "Kota Kinabalu",
        "State": "Sabah"
    },
    {
        "Postcode": "88300",
        "Location": "Jalan Harington",
        "Post_Office": "Kota Kinabalu",
        "State": "Sabah"
    },
    {
        "Postcode": "88300",
        "Location": "Jalan Hing",
        "Post_Office": "Kota Kinabalu",
        "State": "Sabah"
    },
    {
        "Postcode": "88300",
        "Location": "Jalan Kaidupan",
        "Post_Office": "Kota Kinabalu",
        "State": "Sabah"
    },
    {
        "Postcode": "88300",
        "Location": "Jalan Kebajikan",
        "Post_Office": "Kota Kinabalu",
        "State": "Sabah"
    },
    {
        "Postcode": "88300",
        "Location": "Jalan Kepayan- Kobusak",
        "Post_Office": "Kota Kinabalu",
        "State": "Sabah"
    },
    {
        "Postcode": "88300",
        "Location": "Jalan Kesihatan",
        "Post_Office": "Kota Kinabalu",
        "State": "Sabah"
    },
    {
        "Postcode": "88300",
        "Location": "Jalan Kijang",
        "Post_Office": "Kota Kinabalu",
        "State": "Sabah"
    },
    {
        "Postcode": "88300",
        "Location": "Jalan Kimia",
        "Post_Office": "Kota Kinabalu",
        "State": "Sabah"
    },
    {
        "Postcode": "88300",
        "Location": "Jalan Kk Mojilis",
        "Post_Office": "Kota Kinabalu",
        "State": "Sabah"
    },
    {
        "Postcode": "88300",
        "Location": "Jalan Kobusak",
        "Post_Office": "Kota Kinabalu",
        "State": "Sabah"
    },
    {
        "Postcode": "88300",
        "Location": "Jalan Kohizan",
        "Post_Office": "Kota Kinabalu",
        "State": "Sabah"
    },
    {
        "Postcode": "88300",
        "Location": "Jalan Kolam",
        "Post_Office": "Kota Kinabalu",
        "State": "Sabah"
    },
    {
        "Postcode": "88300",
        "Location": "Jalan Koposizon",
        "Post_Office": "Kota Kinabalu",
        "State": "Sabah"
    },
    {
        "Postcode": "88300",
        "Location": "Jalan Maktab Gaya",
        "Post_Office": "Kota Kinabalu",
        "State": "Sabah"
    },
    {
        "Postcode": "88300",
        "Location": "Jalan Mawar",
        "Post_Office": "Kota Kinabalu",
        "State": "Sabah"
    },
    {
        "Postcode": "88300",
        "Location": "Jalan Mawas",
        "Post_Office": "Kota Kinabalu",
        "State": "Sabah"
    },
    {
        "Postcode": "88300",
        "Location": "Jalan Menteri",
        "Post_Office": "Kota Kinabalu",
        "State": "Sabah"
    },
    {
        "Postcode": "88300",
        "Location": "Jalan Muzium",
        "Post_Office": "Kota Kinabalu",
        "State": "Sabah"
    },
    {
        "Postcode": "88300",
        "Location": "Jalan Nosoob - Hungab",
        "Post_Office": "Kota Kinabalu",
        "State": "Sabah"
    },
    {
        "Postcode": "88300",
        "Location": "Jalan Pelanduk",
        "Post_Office": "Kota Kinabalu",
        "State": "Sabah"
    },
    {
        "Postcode": "88300",
        "Location": "Jalan Pemeliharaan",
        "Post_Office": "Kota Kinabalu",
        "State": "Sabah"
    },
    {
        "Postcode": "88300",
        "Location": "Jalan Penampang Lama",
        "Post_Office": "Kota Kinabalu",
        "State": "Sabah"
    },
    {
        "Postcode": "88300",
        "Location": "Jalan Penenmpatan",
        "Post_Office": "Kota Kinabalu",
        "State": "Sabah"
    },
    {
        "Postcode": "88300",
        "Location": "Jalan Sena",
        "Post_Office": "Kota Kinabalu",
        "State": "Sabah"
    },
    {
        "Postcode": "88300",
        "Location": "Jalan Shantung",
        "Post_Office": "Kota Kinabalu",
        "State": "Sabah"
    },
    {
        "Postcode": "88300",
        "Location": "Jalan Summerset 1",
        "Post_Office": "Kota Kinabalu",
        "State": "Sabah"
    },
    {
        "Postcode": "88300",
        "Location": "Jalan Tasik",
        "Post_Office": "Kota Kinabalu",
        "State": "Sabah"
    },
    {
        "Postcode": "88300",
        "Location": "Jalan Universiti Kebangsaan",
        "Post_Office": "Kota Kinabalu",
        "State": "Sabah"
    },
    {
        "Postcode": "88300",
        "Location": "Kem 507  Jln Harrington",
        "Post_Office": "Kota Kinabalu",
        "State": "Sabah"
    },
    {
        "Postcode": "88300",
        "Location": "Kk High School",
        "Post_Office": "Kota Kinabalu",
        "State": "Sabah"
    },
    {
        "Postcode": "88300",
        "Location": "Kompleks Rose",
        "Post_Office": "Kota Kinabalu",
        "State": "Sabah"
    },
    {
        "Postcode": "88300",
        "Location": "Lorong Amab",
        "Post_Office": "Kota Kinabalu",
        "State": "Sabah"
    },
    {
        "Postcode": "88300",
        "Location": "Lorong Anggsa Kecil",
        "Post_Office": "Kota Kinabalu",
        "State": "Sabah"
    },
    {
        "Postcode": "88300",
        "Location": "Lorong Angsana",
        "Post_Office": "Kota Kinabalu",
        "State": "Sabah"
    },
    {
        "Postcode": "88300",
        "Location": "Lorong Badak",
        "Post_Office": "Kota Kinabalu",
        "State": "Sabah"
    },
    {
        "Postcode": "88300",
        "Location": "Lorong Bemban",
        "Post_Office": "Kota Kinabalu",
        "State": "Sabah"
    },
    {
        "Postcode": "88300",
        "Location": "Lorong Berembun",
        "Post_Office": "Kota Kinabalu",
        "State": "Sabah"
    },
    {
        "Postcode": "88300",
        "Location": "Lorong Berjasa",
        "Post_Office": "Kota Kinabalu",
        "State": "Sabah"
    },
    {
        "Postcode": "88300",
        "Location": "Lorong Bernam",
        "Post_Office": "Kota Kinabalu",
        "State": "Sabah"
    },
    {
        "Postcode": "88300",
        "Location": "Lorong Beruang",
        "Post_Office": "Kota Kinabalu",
        "State": "Sabah"
    },
    {
        "Postcode": "88300",
        "Location": "Lorong Biri-Biri",
        "Post_Office": "Kota Kinabalu",
        "State": "Sabah"
    },
    {
        "Postcode": "88300",
        "Location": "Lorong Budaya",
        "Post_Office": "Kota Kinabalu",
        "State": "Sabah"
    },
    {
        "Postcode": "88300",
        "Location": "Lorong Bukit Punai",
        "Post_Office": "Kota Kinabalu",
        "State": "Sabah"
    },
    {
        "Postcode": "88300",
        "Location": "Lorong Bunga Daun Kecil",
        "Post_Office": "Kota Kinabalu",
        "State": "Sabah"
    },
    {
        "Postcode": "88300",
        "Location": "Lorong Bunga Dedap",
        "Post_Office": "Kota Kinabalu",
        "State": "Sabah"
    },
    {
        "Postcode": "88300",
        "Location": "Lorong Bunga Derdap",
        "Post_Office": "Kota Kinabalu",
        "State": "Sabah"
    },
    {
        "Postcode": "88300",
        "Location": "Lorong Bunga Duan",
        "Post_Office": "Kota Kinabalu",
        "State": "Sabah"
    },
    {
        "Postcode": "88300",
        "Location": "Lorong Bunga Inai",
        "Post_Office": "Kota Kinabalu",
        "State": "Sabah"
    },
    {
        "Postcode": "88300",
        "Location": "Lorong Bunga Kekewa",
        "Post_Office": "Kota Kinabalu",
        "State": "Sabah"
    },
    {
        "Postcode": "88300",
        "Location": "Lorong Bunga Kekwa",
        "Post_Office": "Kota Kinabalu",
        "State": "Sabah"
    },
    {
        "Postcode": "88300",
        "Location": "Lorong Bunga Kenanga",
        "Post_Office": "Kota Kinabalu",
        "State": "Sabah"
    },
    {
        "Postcode": "88300",
        "Location": "Lorong Bunga Kenanga Kecil",
        "Post_Office": "Kota Kinabalu",
        "State": "Sabah"
    },
    {
        "Postcode": "88300",
        "Location": "Lorong Bunga Kertas",
        "Post_Office": "Kota Kinabalu",
        "State": "Sabah"
    },
    {
        "Postcode": "88300",
        "Location": "Lorong Bunga Kiambang",
        "Post_Office": "Kota Kinabalu",
        "State": "Sabah"
    },
    {
        "Postcode": "88300",
        "Location": "Lorong Bunga Kuasia",
        "Post_Office": "Kota Kinabalu",
        "State": "Sabah"
    },
    {
        "Postcode": "88300",
        "Location": "Lorong Bunga Kursia",
        "Post_Office": "Kota Kinabalu",
        "State": "Sabah"
    },
    {
        "Postcode": "88300",
        "Location": "Lorong Bunga Mawar",
        "Post_Office": "Kota Kinabalu",
        "State": "Sabah"
    },
    {
        "Postcode": "88300",
        "Location": "Lorong Bunga Melor",
        "Post_Office": "Kota Kinabalu",
        "State": "Sabah"
    },
    {
        "Postcode": "88300",
        "Location": "Lorong Bunga Payong",
        "Post_Office": "Kota Kinabalu",
        "State": "Sabah"
    },
    {
        "Postcode": "88300",
        "Location": "Lorong Bunga Puding",
        "Post_Office": "Kota Kinabalu",
        "State": "Sabah"
    },
    {
        "Postcode": "88300",
        "Location": "Lorong Bunga Tiga Bulan",
        "Post_Office": "Kota Kinabalu",
        "State": "Sabah"
    },
    {
        "Postcode": "88300",
        "Location": "Lorong Bunga Tulip",
        "Post_Office": "Kota Kinabalu",
        "State": "Sabah"
    },
    {
        "Postcode": "88300",
        "Location": "Lorong Cemaru",
        "Post_Office": "Kota Kinabalu",
        "State": "Sabah"
    },
    {
        "Postcode": "88300",
        "Location": "Lorong Cina",
        "Post_Office": "Kota Kinabalu",
        "State": "Sabah"
    },
    {
        "Postcode": "88300",
        "Location": "Lorong Cindul",
        "Post_Office": "Kota Kinabalu",
        "State": "Sabah"
    },
    {
        "Postcode": "88300",
        "Location": "Lorong Dahlia",
        "Post_Office": "Kota Kinabalu",
        "State": "Sabah"
    },
    {
        "Postcode": "88300",
        "Location": "Lorong Gajah",
        "Post_Office": "Kota Kinabalu",
        "State": "Sabah"
    },
    {
        "Postcode": "88300",
        "Location": "Lorong Golfview",
        "Post_Office": "Kota Kinabalu",
        "State": "Sabah"
    },
    {
        "Postcode": "88300",
        "Location": "Lorong Gunung Besar",
        "Post_Office": "Kota Kinabalu",
        "State": "Sabah"
    },
    {
        "Postcode": "88300",
        "Location": "Lorong Gunung Bintang",
        "Post_Office": "Kota Kinabalu",
        "State": "Sabah"
    },
    {
        "Postcode": "88300",
        "Location": "Lorong Indah",
        "Post_Office": "Kota Kinabalu",
        "State": "Sabah"
    },
    {
        "Postcode": "88300",
        "Location": "Lorong Indah 1",
        "Post_Office": "Kota Kinabalu",
        "State": "Sabah"
    },
    {
        "Postcode": "88300",
        "Location": "Lorong Itik",
        "Post_Office": "Kota Kinabalu",
        "State": "Sabah"
    },
    {
        "Postcode": "88300",
        "Location": "Lorong Kajibumi",
        "Post_Office": "Kota Kinabalu",
        "State": "Sabah"
    },
    {
        "Postcode": "88300",
        "Location": "Lorong Kangkong",
        "Post_Office": "Kota Kinabalu",
        "State": "Sabah"
    },
    {
        "Postcode": "88300",
        "Location": "Lorong Kangkong 1",
        "Post_Office": "Kota Kinabalu",
        "State": "Sabah"
    },
    {
        "Postcode": "88300",
        "Location": "Lorong Kapas",
        "Post_Office": "Kota Kinabalu",
        "State": "Sabah"
    },
    {
        "Postcode": "88300",
        "Location": "Lorong Keladi",
        "Post_Office": "Kota Kinabalu",
        "State": "Sabah"
    },
    {
        "Postcode": "88300",
        "Location": "Lorong Kesihatan",
        "Post_Office": "Kota Kinabalu",
        "State": "Sabah"
    },
    {
        "Postcode": "88300",
        "Location": "Lorong Kimia",
        "Post_Office": "Kota Kinabalu",
        "State": "Sabah"
    },
    {
        "Postcode": "88300",
        "Location": "Lorong Kinabalu",
        "Post_Office": "Kota Kinabalu",
        "State": "Sabah"
    },
    {
        "Postcode": "88300",
        "Location": "Lorong Kuburan",
        "Post_Office": "Kota Kinabalu",
        "State": "Sabah"
    },
    {
        "Postcode": "88300",
        "Location": "Lorong Kuda",
        "Post_Office": "Kota Kinabalu",
        "State": "Sabah"
    },
    {
        "Postcode": "88300",
        "Location": "Lorong Kukang",
        "Post_Office": "Kota Kinabalu",
        "State": "Sabah"
    },
    {
        "Postcode": "88300",
        "Location": "Lorong L.T. Jaya ",
        "Post_Office": "Kota Kinabalu",
        "State": "Sabah"
    },
    {
        "Postcode": "88300",
        "Location": "Lorong L.T. Jaya 1",
        "Post_Office": "Kota Kinabalu",
        "State": "Sabah"
    },
    {
        "Postcode": "88300",
        "Location": "Lorong Landak",
        "Post_Office": "Kota Kinabalu",
        "State": "Sabah"
    },
    {
        "Postcode": "88300",
        "Location": "Lorong Lembeding",
        "Post_Office": "Kota Kinabalu",
        "State": "Sabah"
    },
    {
        "Postcode": "88300",
        "Location": "Lorong Lokus",
        "Post_Office": "Kota Kinabalu",
        "State": "Sabah"
    },
    {
        "Postcode": "88300",
        "Location": "Lorong Maktab Gaya",
        "Post_Office": "Kota Kinabalu",
        "State": "Sabah"
    },
    {
        "Postcode": "88300",
        "Location": "Lorong Margosa",
        "Post_Office": "Kota Kinabalu",
        "State": "Sabah"
    },
    {
        "Postcode": "88300",
        "Location": "Lorong Mawas",
        "Post_Office": "Kota Kinabalu",
        "State": "Sabah"
    },
    {
        "Postcode": "88300",
        "Location": "Lorong Memberang",
        "Post_Office": "Kota Kinabalu",
        "State": "Sabah"
    },
    {
        "Postcode": "88300",
        "Location": "Lorong Merpati",
        "Post_Office": "Kota Kinabalu",
        "State": "Sabah"
    },
    {
        "Postcode": "88300",
        "Location": "Lorong Muntahah",
        "Post_Office": "Kota Kinabalu",
        "State": "Sabah"
    },
    {
        "Postcode": "88300",
        "Location": "Lorong Muntahah Kecil",
        "Post_Office": "Kota Kinabalu",
        "State": "Sabah"
    },
    {
        "Postcode": "88300",
        "Location": "Lorong Nibung",
        "Post_Office": "Kota Kinabalu",
        "State": "Sabah"
    },
    {
        "Postcode": "88300",
        "Location": "Lorong Nosoob Baru",
        "Post_Office": "Kota Kinabalu",
        "State": "Sabah"
    },
    {
        "Postcode": "88300",
        "Location": "Lorong Orkid",
        "Post_Office": "Kota Kinabalu",
        "State": "Sabah"
    },
    {
        "Postcode": "88300",
        "Location": "Lorong Palas",
        "Post_Office": "Kota Kinabalu",
        "State": "Sabah"
    },
    {
        "Postcode": "88300",
        "Location": "Lorong Plam Villa",
        "Post_Office": "Kota Kinabalu",
        "State": "Sabah"
    },
    {
        "Postcode": "88300",
        "Location": "Lorong Pokok Johar",
        "Post_Office": "Kota Kinabalu",
        "State": "Sabah"
    },
    {
        "Postcode": "88300",
        "Location": "Lorong Pokok Palma",
        "Post_Office": "Kota Kinabalu",
        "State": "Sabah"
    },
    {
        "Postcode": "88300",
        "Location": "Lorong Pulai",
        "Post_Office": "Kota Kinabalu",
        "State": "Sabah"
    },
    {
        "Postcode": "88300",
        "Location": "Lorong Rampai",
        "Post_Office": "Kota Kinabalu",
        "State": "Sabah"
    },
    {
        "Postcode": "88300",
        "Location": "Lorong Rembia",
        "Post_Office": "Kota Kinabalu",
        "State": "Sabah"
    },
    {
        "Postcode": "88300",
        "Location": "Lorong Rotan",
        "Post_Office": "Kota Kinabalu",
        "State": "Sabah"
    },
    {
        "Postcode": "88300",
        "Location": "Lorong Ru",
        "Post_Office": "Kota Kinabalu",
        "State": "Sabah"
    },
    {
        "Postcode": "88300",
        "Location": "Lorong Ruang Ridge View",
        "Post_Office": "Kota Kinabalu",
        "State": "Sabah"
    },
    {
        "Postcode": "88300",
        "Location": "Lorong Sang Kanchil",
        "Post_Office": "Kota Kinabalu",
        "State": "Sabah"
    },
    {
        "Postcode": "88300",
        "Location": "Lorong Sedudok",
        "Post_Office": "Kota Kinabalu",
        "State": "Sabah"
    },
    {
        "Postcode": "88300",
        "Location": "Lorong Seladang",
        "Post_Office": "Kota Kinabalu",
        "State": "Sabah"
    },
    {
        "Postcode": "88300",
        "Location": "Lorong Seladang 1",
        "Post_Office": "Kota Kinabalu",
        "State": "Sabah"
    },
    {
        "Postcode": "88300",
        "Location": "Lorong Selesa",
        "Post_Office": "Kota Kinabalu",
        "State": "Sabah"
    },
    {
        "Postcode": "88300",
        "Location": "Lorong Semarak Api",
        "Post_Office": "Kota Kinabalu",
        "State": "Sabah"
    },
    {
        "Postcode": "88300",
        "Location": "Lorong Sepat",
        "Post_Office": "Kota Kinabalu",
        "State": "Sabah"
    },
    {
        "Postcode": "88300",
        "Location": "Lorong Seroja",
        "Post_Office": "Kota Kinabalu",
        "State": "Sabah"
    },
    {
        "Postcode": "88300",
        "Location": "Lorong Setia",
        "Post_Office": "Kota Kinabalu",
        "State": "Sabah"
    },
    {
        "Postcode": "88300",
        "Location": "Lorong Siamang",
        "Post_Office": "Kota Kinabalu",
        "State": "Sabah"
    },
    {
        "Postcode": "88300",
        "Location": "Lorong Sri Juta 1",
        "Post_Office": "Kota Kinabalu",
        "State": "Sabah"
    },
    {
        "Postcode": "88300",
        "Location": "Lorong Sutera",
        "Post_Office": "Kota Kinabalu",
        "State": "Sabah"
    },
    {
        "Postcode": "88300",
        "Location": "Lorong Syarif Osman",
        "Post_Office": "Kota Kinabalu",
        "State": "Sabah"
    },
    {
        "Postcode": "88300",
        "Location": "Lorong Tahan",
        "Post_Office": "Kota Kinabalu",
        "State": "Sabah"
    },
    {
        "Postcode": "88300",
        "Location": "Lorong Teberau",
        "Post_Office": "Kota Kinabalu",
        "State": "Sabah"
    },
    {
        "Postcode": "88300",
        "Location": "Lorong Tenggiling",
        "Post_Office": "Kota Kinabalu",
        "State": "Sabah"
    },
    {
        "Postcode": "88300",
        "Location": "Lorong Tepus",
        "Post_Office": "Kota Kinabalu",
        "State": "Sabah"
    },
    {
        "Postcode": "88300",
        "Location": "Lorong Terus",
        "Post_Office": "Kota Kinabalu",
        "State": "Sabah"
    },
    {
        "Postcode": "88300",
        "Location": "Lorong Tosa Raya",
        "Post_Office": "Kota Kinabalu",
        "State": "Sabah"
    },
    {
        "Postcode": "88300",
        "Location": "Lorong Tulip",
        "Post_Office": "Kota Kinabalu",
        "State": "Sabah"
    },
    {
        "Postcode": "88300",
        "Location": "Lorong Tupai",
        "Post_Office": "Kota Kinabalu",
        "State": "Sabah"
    },
    {
        "Postcode": "88300",
        "Location": "Lorong Unta",
        "Post_Office": "Kota Kinabalu",
        "State": "Sabah"
    },
    {
        "Postcode": "88300",
        "Location": "Lorong Wallace",
        "Post_Office": "Kota Kinabalu",
        "State": "Sabah"
    },
    {
        "Postcode": "88300",
        "Location": "Lorong Zirafah",
        "Post_Office": "Kota Kinabalu",
        "State": "Sabah"
    },
    {
        "Postcode": "88300",
        "Location": "Luyang",
        "Post_Office": "Kota Kinabalu",
        "State": "Sabah"
    },
    {
        "Postcode": "88300",
        "Location": "Maktab Perguruan Gaya",
        "Post_Office": "Kota Kinabalu",
        "State": "Sabah"
    },
    {
        "Postcode": "88300",
        "Location": "Maziun Tamadun Islam",
        "Post_Office": "Kota Kinabalu",
        "State": "Sabah"
    },
    {
        "Postcode": "88300",
        "Location": "Mesra Apartment",
        "Post_Office": "Kota Kinabalu",
        "State": "Sabah"
    },
    {
        "Postcode": "88300",
        "Location": "Moyog",
        "Post_Office": "Kota Kinabalu",
        "State": "Sabah"
    },
    {
        "Postcode": "88300",
        "Location": "Muzium Negeri",
        "Post_Office": "Kota Kinabalu",
        "State": "Sabah"
    },
    {
        "Postcode": "88300",
        "Location": "Noble Court",
        "Post_Office": "Kota Kinabalu",
        "State": "Sabah"
    },
    {
        "Postcode": "88300",
        "Location": "Person Heights",
        "Post_Office": "Kota Kinabalu",
        "State": "Sabah"
    },
    {
        "Postcode": "88300",
        "Location": "Plam Villa Ph2",
        "Post_Office": "Kota Kinabalu",
        "State": "Sabah"
    },
    {
        "Postcode": "88300",
        "Location": "Plaza Grand Milineum Blk A - F",
        "Post_Office": "Kota Kinabalu",
        "State": "Sabah"
    },
    {
        "Postcode": "88300",
        "Location": "Plaza Utama Blok  A - C",
        "Post_Office": "Kota Kinabalu",
        "State": "Sabah"
    },
    {
        "Postcode": "88300",
        "Location": "Rainfeild Court Apartment Blok B - K",
        "Post_Office": "Kota Kinabalu",
        "State": "Sabah"
    },
    {
        "Postcode": "88300",
        "Location": "Ramin Court Apartment Blok A - B",
        "Post_Office": "Kota Kinabalu",
        "State": "Sabah"
    },
    {
        "Postcode": "88300",
        "Location": "Raya Court Apartment",
        "Post_Office": "Kota Kinabalu",
        "State": "Sabah"
    },
    {
        "Postcode": "88300",
        "Location": "Regent Park",
        "Post_Office": "Kota Kinabalu",
        "State": "Sabah"
    },
    {
        "Postcode": "88300",
        "Location": "Reservoir Garden Phase 2",
        "Post_Office": "Kota Kinabalu",
        "State": "Sabah"
    },
    {
        "Postcode": "88300",
        "Location": "Selesa Court Apartment Blok  A - D",
        "Post_Office": "Kota Kinabalu",
        "State": "Sabah"
    },
    {
        "Postcode": "88300",
        "Location": "Sk Sri Gaya",
        "Post_Office": "Kota Kinabalu",
        "State": "Sabah"
    },
    {
        "Postcode": "88300",
        "Location": "Sk St Francis Convent",
        "Post_Office": "Kota Kinabalu",
        "State": "Sabah"
    },
    {
        "Postcode": "88300",
        "Location": "Srjk (C) Shan Tao",
        "Post_Office": "Kota Kinabalu",
        "State": "Sabah"
    },
    {
        "Postcode": "88300",
        "Location": "Taman Alpha",
        "Post_Office": "Kota Kinabalu",
        "State": "Sabah"
    },
    {
        "Postcode": "88300",
        "Location": "Taman Alpine",
        "Post_Office": "Kota Kinabalu",
        "State": "Sabah"
    },
    {
        "Postcode": "88300",
        "Location": "Taman Asli",
        "Post_Office": "Kota Kinabalu",
        "State": "Sabah"
    },
    {
        "Postcode": "88300",
        "Location": "Taman Atlandy",
        "Post_Office": "Kota Kinabalu",
        "State": "Sabah"
    },
    {
        "Postcode": "88300",
        "Location": "Taman Austral",
        "Post_Office": "Kota Kinabalu",
        "State": "Sabah"
    },
    {
        "Postcode": "88300",
        "Location": "Taman Azam Villa",
        "Post_Office": "Kota Kinabalu",
        "State": "Sabah"
    },
    {
        "Postcode": "88300",
        "Location": "Taman B.P.L Ph 2",
        "Post_Office": "Kota Kinabalu",
        "State": "Sabah"
    },
    {
        "Postcode": "88300",
        "Location": "Taman Baginda",
        "Post_Office": "Kota Kinabalu",
        "State": "Sabah"
    },
    {
        "Postcode": "88300",
        "Location": "Taman Bahagia",
        "Post_Office": "Kota Kinabalu",
        "State": "Sabah"
    },
    {
        "Postcode": "88300",
        "Location": "Taman Bdc",
        "Post_Office": "Kota Kinabalu",
        "State": "Sabah"
    },
    {
        "Postcode": "88300",
        "Location": "Taman Bintang",
        "Post_Office": "Kota Kinabalu",
        "State": "Sabah"
    },
    {
        "Postcode": "88300",
        "Location": "Taman Bistari",
        "Post_Office": "Kota Kinabalu",
        "State": "Sabah"
    },
    {
        "Postcode": "88300",
        "Location": "Taman Bornion",
        "Post_Office": "Kota Kinabalu",
        "State": "Sabah"
    },
    {
        "Postcode": "88300",
        "Location": "Taman Bpl",
        "Post_Office": "Kota Kinabalu",
        "State": "Sabah"
    },
    {
        "Postcode": "88300",
        "Location": "Taman Bpl  Jln Budaya",
        "Post_Office": "Kota Kinabalu",
        "State": "Sabah"
    },
    {
        "Postcode": "88300",
        "Location": "Taman Bpl Ph 1",
        "Post_Office": "Kota Kinabalu",
        "State": "Sabah"
    },
    {
        "Postcode": "88300",
        "Location": "Taman Bulan",
        "Post_Office": "Kota Kinabalu",
        "State": "Sabah"
    },
    {
        "Postcode": "88300",
        "Location": "Taman Bumi",
        "Post_Office": "Kota Kinabalu",
        "State": "Sabah"
    },
    {
        "Postcode": "88300",
        "Location": "Taman Cameron",
        "Post_Office": "Kota Kinabalu",
        "State": "Sabah"
    },
    {
        "Postcode": "88300",
        "Location": "Taman Cantek",
        "Post_Office": "Kota Kinabalu",
        "State": "Sabah"
    },
    {
        "Postcode": "88300",
        "Location": "Taman Casa Fabulosa",
        "Post_Office": "Kota Kinabalu",
        "State": "Sabah"
    },
    {
        "Postcode": "88300",
        "Location": "Taman Cendawan",
        "Post_Office": "Kota Kinabalu",
        "State": "Sabah"
    },
    {
        "Postcode": "88300",
        "Location": "Taman Century",
        "Post_Office": "Kota Kinabalu",
        "State": "Sabah"
    },
    {
        "Postcode": "88300",
        "Location": "Taman Che Mei",
        "Post_Office": "Kota Kinabalu",
        "State": "Sabah"
    },
    {
        "Postcode": "88300",
        "Location": "Taman Citizen",
        "Post_Office": "Kota Kinabalu",
        "State": "Sabah"
    },
    {
        "Postcode": "88300",
        "Location": "Taman Dai Ming",
        "Post_Office": "Kota Kinabalu",
        "State": "Sabah"
    },
    {
        "Postcode": "88300",
        "Location": "Taman Delima",
        "Post_Office": "Kota Kinabalu",
        "State": "Sabah"
    },
    {
        "Postcode": "88300",
        "Location": "Taman Dixon",
        "Post_Office": "Kota Kinabalu",
        "State": "Sabah"
    },
    {
        "Postcode": "88300",
        "Location": "Taman Emas",
        "Post_Office": "Kota Kinabalu",
        "State": "Sabah"
    },
    {
        "Postcode": "88300",
        "Location": "Taman Everlick",
        "Post_Office": "Kota Kinabalu",
        "State": "Sabah"
    },
    {
        "Postcode": "88300",
        "Location": "Taman Fabar",
        "Post_Office": "Kota Kinabalu",
        "State": "Sabah"
    },
    {
        "Postcode": "88300",
        "Location": "Taman Far East",
        "Post_Office": "Kota Kinabalu",
        "State": "Sabah"
    },
    {
        "Postcode": "88300",
        "Location": "Taman Foh Sang",
        "Post_Office": "Kota Kinabalu",
        "State": "Sabah"
    },
    {
        "Postcode": "88300",
        "Location": "Taman Foo Long",
        "Post_Office": "Kota Kinabalu",
        "State": "Sabah"
    },
    {
        "Postcode": "88300",
        "Location": "Taman Foo Loong Ph 2",
        "Post_Office": "Kota Kinabalu",
        "State": "Sabah"
    },
    {
        "Postcode": "88300",
        "Location": "Taman Fook Tin",
        "Post_Office": "Kota Kinabalu",
        "State": "Sabah"
    },
    {
        "Postcode": "88300",
        "Location": "Taman Forget Me Not",
        "Post_Office": "Kota Kinabalu",
        "State": "Sabah"
    },
    {
        "Postcode": "88300",
        "Location": "Taman Fortuna Baru",
        "Post_Office": "Kota Kinabalu",
        "State": "Sabah"
    },
    {
        "Postcode": "88300",
        "Location": "Taman Frazer",
        "Post_Office": "Kota Kinabalu",
        "State": "Sabah"
    },
    {
        "Postcode": "88300",
        "Location": "Taman Gemilang",
        "Post_Office": "Kota Kinabalu",
        "State": "Sabah"
    },
    {
        "Postcode": "88300",
        "Location": "Taman Golden City",
        "Post_Office": "Kota Kinabalu",
        "State": "Sabah"
    },
    {
        "Postcode": "88300",
        "Location": "Taman Golf",
        "Post_Office": "Kota Kinabalu",
        "State": "Sabah"
    },
    {
        "Postcode": "88300",
        "Location": "Taman Golf Garden ",
        "Post_Office": "Kota Kinabalu",
        "State": "Sabah"
    },
    {
        "Postcode": "88300",
        "Location": "Taman Golfview Ph 1",
        "Post_Office": "Kota Kinabalu",
        "State": "Sabah"
    },
    {
        "Postcode": "88300",
        "Location": "Taman Good View",
        "Post_Office": "Kota Kinabalu",
        "State": "Sabah"
    },
    {
        "Postcode": "88300",
        "Location": "Taman Grand Milineum Ph 1",
        "Post_Office": "Kota Kinabalu",
        "State": "Sabah"
    },
    {
        "Postcode": "88300",
        "Location": "Taman Green View",
        "Post_Office": "Kota Kinabalu",
        "State": "Sabah"
    },
    {
        "Postcode": "88300",
        "Location": "Taman Harapan",
        "Post_Office": "Kota Kinabalu",
        "State": "Sabah"
    },
    {
        "Postcode": "88300",
        "Location": "Taman Harington",
        "Post_Office": "Kota Kinabalu",
        "State": "Sabah"
    },
    {
        "Postcode": "88300",
        "Location": "Taman Harta Mas",
        "Post_Office": "Kota Kinabalu",
        "State": "Sabah"
    },
    {
        "Postcode": "88300",
        "Location": "Taman Hiburan",
        "Post_Office": "Kota Kinabalu",
        "State": "Sabah"
    },
    {
        "Postcode": "88300",
        "Location": "Taman Hilltop",
        "Post_Office": "Kota Kinabalu",
        "State": "Sabah"
    },
    {
        "Postcode": "88300",
        "Location": "Taman Hing",
        "Post_Office": "Kota Kinabalu",
        "State": "Sabah"
    },
    {
        "Postcode": "88300",
        "Location": "Taman Hong Kee",
        "Post_Office": "Kota Kinabalu",
        "State": "Sabah"
    },
    {
        "Postcode": "88300",
        "Location": "Taman Impian",
        "Post_Office": "Kota Kinabalu",
        "State": "Sabah"
    },
    {
        "Postcode": "88300",
        "Location": "Taman Indah",
        "Post_Office": "Kota Kinabalu",
        "State": "Sabah"
    },
    {
        "Postcode": "88300",
        "Location": "Taman Irama",
        "Post_Office": "Kota Kinabalu",
        "State": "Sabah"
    },
    {
        "Postcode": "88300",
        "Location": "Taman Istimewa",
        "Post_Office": "Kota Kinabalu",
        "State": "Sabah"
    },
    {
        "Postcode": "88300",
        "Location": "Taman Jindo",
        "Post_Office": "Kota Kinabalu",
        "State": "Sabah"
    },
    {
        "Postcode": "88300",
        "Location": "Taman Kck Type A",
        "Post_Office": "Kota Kinabalu",
        "State": "Sabah"
    },
    {
        "Postcode": "88300",
        "Location": "Taman Kendara",
        "Post_Office": "Kota Kinabalu",
        "State": "Sabah"
    },
    {
        "Postcode": "88300",
        "Location": "Taman Khidmat",
        "Post_Office": "Kota Kinabalu",
        "State": "Sabah"
    },
    {
        "Postcode": "88300",
        "Location": "Taman Kim Leng",
        "Post_Office": "Kota Kinabalu",
        "State": "Sabah"
    },
    {
        "Postcode": "88300",
        "Location": "Taman Kinabalu",
        "Post_Office": "Kota Kinabalu",
        "State": "Sabah"
    },
    {
        "Postcode": "88300",
        "Location": "Taman Kinamount",
        "Post_Office": "Kota Kinabalu",
        "State": "Sabah"
    },
    {
        "Postcode": "88300",
        "Location": "Taman King Lam",
        "Post_Office": "Kota Kinabalu",
        "State": "Sabah"
    },
    {
        "Postcode": "88300",
        "Location": "Taman Kirana",
        "Post_Office": "Kota Kinabalu",
        "State": "Sabah"
    },
    {
        "Postcode": "88300",
        "Location": "Taman Kobusak Villa",
        "Post_Office": "Kota Kinabalu",
        "State": "Sabah"
    },
    {
        "Postcode": "88300",
        "Location": "Taman Kohizan",
        "Post_Office": "Kota Kinabalu",
        "State": "Sabah"
    },
    {
        "Postcode": "88300",
        "Location": "Taman Kolam Air",
        "Post_Office": "Kota Kinabalu",
        "State": "Sabah"
    },
    {
        "Postcode": "88300",
        "Location": "Taman L.T. Jaya",
        "Post_Office": "Kota Kinabalu",
        "State": "Sabah"
    },
    {
        "Postcode": "88300",
        "Location": "Taman Land Brezee",
        "Post_Office": "Kota Kinabalu",
        "State": "Sabah"
    },
    {
        "Postcode": "88300",
        "Location": "Taman Land Mark",
        "Post_Office": "Kota Kinabalu",
        "State": "Sabah"
    },
    {
        "Postcode": "88300",
        "Location": "Taman Layang-Layang",
        "Post_Office": "Kota Kinabalu",
        "State": "Sabah"
    },
    {
        "Postcode": "88300",
        "Location": "Taman Lido",
        "Post_Office": "Kota Kinabalu",
        "State": "Sabah"
    },
    {
        "Postcode": "88300",
        "Location": "Taman Lumaku",
        "Post_Office": "Kota Kinabalu",
        "State": "Sabah"
    },
    {
        "Postcode": "88300",
        "Location": "Taman Makmur",
        "Post_Office": "Kota Kinabalu",
        "State": "Sabah"
    },
    {
        "Postcode": "88300",
        "Location": "Taman Mandarin",
        "Post_Office": "Kota Kinabalu",
        "State": "Sabah"
    },
    {
        "Postcode": "88300",
        "Location": "Taman Maya",
        "Post_Office": "Kota Kinabalu",
        "State": "Sabah"
    },
    {
        "Postcode": "88300",
        "Location": "Taman Maya / Mabo",
        "Post_Office": "Kota Kinabalu",
        "State": "Sabah"
    },
    {
        "Postcode": "88300",
        "Location": "Taman Mei Lok",
        "Post_Office": "Kota Kinabalu",
        "State": "Sabah"
    },
    {
        "Postcode": "88300",
        "Location": "Taman Mesra",
        "Post_Office": "Kota Kinabalu",
        "State": "Sabah"
    },
    {
        "Postcode": "88300",
        "Location": "Taman Mesra Ph 1",
        "Post_Office": "Kota Kinabalu",
        "State": "Sabah"
    },
    {
        "Postcode": "88300",
        "Location": "Taman Mesra Ph 2",
        "Post_Office": "Kota Kinabalu",
        "State": "Sabah"
    },
    {
        "Postcode": "88300",
        "Location": "Taman Milik",
        "Post_Office": "Kota Kinabalu",
        "State": "Sabah"
    },
    {
        "Postcode": "88300",
        "Location": "Taman Mount Zion",
        "Post_Office": "Kota Kinabalu",
        "State": "Sabah"
    },
    {
        "Postcode": "88300",
        "Location": "Taman Mutiara",
        "Post_Office": "Kota Kinabalu",
        "State": "Sabah"
    },
    {
        "Postcode": "88300",
        "Location": "Taman New Far East",
        "Post_Office": "Kota Kinabalu",
        "State": "Sabah"
    },
    {
        "Postcode": "88300",
        "Location": "Taman Nosoob Ph 3",
        "Post_Office": "Kota Kinabalu",
        "State": "Sabah"
    },
    {
        "Postcode": "88300",
        "Location": "Taman Nossob",
        "Post_Office": "Kota Kinabalu",
        "State": "Sabah"
    },
    {
        "Postcode": "88300",
        "Location": "Taman Orchid",
        "Post_Office": "Kota Kinabalu",
        "State": "Sabah"
    },
    {
        "Postcode": "88300",
        "Location": "Taman Oriental",
        "Post_Office": "Kota Kinabalu",
        "State": "Sabah"
    },
    {
        "Postcode": "88300",
        "Location": "Taman Palm Villa",
        "Post_Office": "Kota Kinabalu",
        "State": "Sabah"
    },
    {
        "Postcode": "88300",
        "Location": "Taman Parkway",
        "Post_Office": "Kota Kinabalu",
        "State": "Sabah"
    },
    {
        "Postcode": "88300",
        "Location": "Taman Pelangi",
        "Post_Office": "Kota Kinabalu",
        "State": "Sabah"
    },
    {
        "Postcode": "88300",
        "Location": "Taman Rafflesia",
        "Post_Office": "Kota Kinabalu",
        "State": "Sabah"
    },
    {
        "Postcode": "88300",
        "Location": "Taman Rainfield",
        "Post_Office": "Kota Kinabalu",
        "State": "Sabah"
    },
    {
        "Postcode": "88300",
        "Location": "Taman Ramai",
        "Post_Office": "Kota Kinabalu",
        "State": "Sabah"
    },
    {
        "Postcode": "88300",
        "Location": "Taman Regent",
        "Post_Office": "Kota Kinabalu",
        "State": "Sabah"
    },
    {
        "Postcode": "88300",
        "Location": "Taman Ria",
        "Post_Office": "Kota Kinabalu",
        "State": "Sabah"
    },
    {
        "Postcode": "88300",
        "Location": "Taman Richfield",
        "Post_Office": "Kota Kinabalu",
        "State": "Sabah"
    },
    {
        "Postcode": "88300",
        "Location": "Taman Ridge View",
        "Post_Office": "Kota Kinabalu",
        "State": "Sabah"
    },
    {
        "Postcode": "88300",
        "Location": "Taman Rindu",
        "Post_Office": "Kota Kinabalu",
        "State": "Sabah"
    },
    {
        "Postcode": "88300",
        "Location": "Taman Rodmas",
        "Post_Office": "Kota Kinabalu",
        "State": "Sabah"
    },
    {
        "Postcode": "88300",
        "Location": "Taman Rose",
        "Post_Office": "Kota Kinabalu",
        "State": "Sabah"
    },
    {
        "Postcode": "88300",
        "Location": "Taman Selesa",
        "Post_Office": "Kota Kinabalu",
        "State": "Sabah"
    },
    {
        "Postcode": "88300",
        "Location": "Taman Semporna",
        "Post_Office": "Kota Kinabalu",
        "State": "Sabah"
    },
    {
        "Postcode": "88300",
        "Location": "Taman Seni Bina",
        "Post_Office": "Kota Kinabalu",
        "State": "Sabah"
    },
    {
        "Postcode": "88300",
        "Location": "Taman Seputeh",
        "Post_Office": "Kota Kinabalu",
        "State": "Sabah"
    },
    {
        "Postcode": "88300",
        "Location": "Taman Seri Gaya",
        "Post_Office": "Kota Kinabalu",
        "State": "Sabah"
    },
    {
        "Postcode": "88300",
        "Location": "Taman Seri Menanti",
        "Post_Office": "Kota Kinabalu",
        "State": "Sabah"
    },
    {
        "Postcode": "88300",
        "Location": "Taman Seri Rasa",
        "Post_Office": "Kota Kinabalu",
        "State": "Sabah"
    },
    {
        "Postcode": "88300",
        "Location": "Taman Sheraton",
        "Post_Office": "Kota Kinabalu",
        "State": "Sabah"
    },
    {
        "Postcode": "88300",
        "Location": "Taman Siamang",
        "Post_Office": "Kota Kinabalu",
        "State": "Sabah"
    },
    {
        "Postcode": "88300",
        "Location": "Taman Sinar",
        "Post_Office": "Kota Kinabalu",
        "State": "Sabah"
    },
    {
        "Postcode": "88300",
        "Location": "Taman Sinar Emas",
        "Post_Office": "Kota Kinabalu",
        "State": "Sabah"
    },
    {
        "Postcode": "88300",
        "Location": "Taman Sindo",
        "Post_Office": "Kota Kinabalu",
        "State": "Sabah"
    },
    {
        "Postcode": "88300",
        "Location": "Taman Soon Kiong",
        "Post_Office": "Kota Kinabalu",
        "State": "Sabah"
    },
    {
        "Postcode": "88300",
        "Location": "Taman Southern",
        "Post_Office": "Kota Kinabalu",
        "State": "Sabah"
    },
    {
        "Postcode": "88300",
        "Location": "Taman Sri Juta Ph 1",
        "Post_Office": "Kota Kinabalu",
        "State": "Sabah"
    },
    {
        "Postcode": "88300",
        "Location": "Taman Stephens",
        "Post_Office": "Kota Kinabalu",
        "State": "Sabah"
    },
    {
        "Postcode": "88300",
        "Location": "Taman Sun Kiong",
        "Post_Office": "Kota Kinabalu",
        "State": "Sabah"
    },
    {
        "Postcode": "88300",
        "Location": "Taman Sunny",
        "Post_Office": "Kota Kinabalu",
        "State": "Sabah"
    },
    {
        "Postcode": "88300",
        "Location": "Taman Suria",
        "Post_Office": "Kota Kinabalu",
        "State": "Sabah"
    },
    {
        "Postcode": "88300",
        "Location": "Taman Sutera",
        "Post_Office": "Kota Kinabalu",
        "State": "Sabah"
    },
    {
        "Postcode": "88300",
        "Location": "Taman Tanah Emas",
        "Post_Office": "Kota Kinabalu",
        "State": "Sabah"
    },
    {
        "Postcode": "88300",
        "Location": "Taman Tasik",
        "Post_Office": "Kota Kinabalu",
        "State": "Sabah"
    },
    {
        "Postcode": "88300",
        "Location": "Taman Teck Guan",
        "Post_Office": "Kota Kinabalu",
        "State": "Sabah"
    },
    {
        "Postcode": "88300",
        "Location": "Taman Tosaraya",
        "Post_Office": "Kota Kinabalu",
        "State": "Sabah"
    },
    {
        "Postcode": "88300",
        "Location": "Taman Towering",
        "Post_Office": "Kota Kinabalu",
        "State": "Sabah"
    },
    {
        "Postcode": "88300",
        "Location": "Taman Tuan Huat",
        "Post_Office": "Kota Kinabalu",
        "State": "Sabah"
    },
    {
        "Postcode": "88300",
        "Location": "Taman Utama",
        "Post_Office": "Kota Kinabalu",
        "State": "Sabah"
    },
    {
        "Postcode": "88300",
        "Location": "Taman Victory",
        "Post_Office": "Kota Kinabalu",
        "State": "Sabah"
    },
    {
        "Postcode": "88300",
        "Location": "Taman Viewland Ph 4",
        "Post_Office": "Kota Kinabalu",
        "State": "Sabah"
    },
    {
        "Postcode": "88300",
        "Location": "Taman Wendy",
        "Post_Office": "Kota Kinabalu",
        "State": "Sabah"
    },
    {
        "Postcode": "88300",
        "Location": "Taman Winner",
        "Post_Office": "Kota Kinabalu",
        "State": "Sabah"
    },
    {
        "Postcode": "88300",
        "Location": "Taman Yun Kiong",
        "Post_Office": "Kota Kinabalu",
        "State": "Sabah"
    },
    {
        "Postcode": "88300",
        "Location": "Taman Ziont",
        "Post_Office": "Kota Kinabalu",
        "State": "Sabah"
    },
    {
        "Postcode": "88300",
        "Location": "Tanah Emas",
        "Post_Office": "Kota Kinabalu",
        "State": "Sabah"
    },
    {
        "Postcode": "88300",
        "Location": "Teck Guan Villa",
        "Post_Office": "Kota Kinabalu",
        "State": "Sabah"
    },
    {
        "Postcode": "88300",
        "Location": "Towering",
        "Post_Office": "Kota Kinabalu",
        "State": "Sabah"
    },
    {
        "Postcode": "88300",
        "Location": "Town House",
        "Post_Office": "Kota Kinabalu",
        "State": "Sabah"
    },
    {
        "Postcode": "88300",
        "Location": "Wisma Aman",
        "Post_Office": "Kota Kinabalu",
        "State": "Sabah"
    },
    {
        "Postcode": "88300",
        "Location": "Wisma Fres",
        "Post_Office": "Kota Kinabalu",
        "State": "Sabah"
    },
    {
        "Postcode": "88300",
        "Location": "Wisma Pertanian \u0026 Indistrian Makanan",
        "Post_Office": "Kota Kinabalu",
        "State": "Sabah"
    },
    {
        "Postcode": "88300",
        "Location": "Taman Bunga Raya",
        "Post_Office": "Kota Kinabalu",
        "State": "Sabah"
    },
    {
        "Postcode": "88300",
        "Location": "Taman Damai",
        "Post_Office": "Kota Kinabalu",
        "State": "Sabah"
    },
    {
        "Postcode": "88300",
        "Location": "Taman Sentosa",
        "Post_Office": "Kota Kinabalu",
        "State": "Sabah"
    },
    {
        "Postcode": "88300",
        "Location": "Beverly Hill Plaza",
        "Post_Office": "Kota Kinabalu",
        "State": "Sabah"
    },
    {
        "Postcode": "88300",
        "Location": "Bukit Warisan",
        "Post_Office": "Kota Kinabalu",
        "State": "Sabah"
    },
    {
        "Postcode": "88300",
        "Location": "Bundusan Commercial",
        "Post_Office": "Kota Kinabalu",
        "State": "Sabah"
    },
    {
        "Postcode": "88300",
        "Location": "Bundusan Villa",
        "Post_Office": "Kota Kinabalu",
        "State": "Sabah"
    },
    {
        "Postcode": "88300",
        "Location": "Hotel Bundusan",
        "Post_Office": "Kota Kinabalu",
        "State": "Sabah"
    },
    {
        "Postcode": "88300",
        "Location": "Kampung Baru Luyang",
        "Post_Office": "Kota Kinabalu",
        "State": "Sabah"
    },
    {
        "Postcode": "88300",
        "Location": "Lorong Cemerlang",
        "Post_Office": "Kota Kinabalu",
        "State": "Sabah"
    },
    {
        "Postcode": "88300",
        "Location": "Lorong Cemerlang 1",
        "Post_Office": "Kota Kinabalu",
        "State": "Sabah"
    },
    {
        "Postcode": "88300",
        "Location": "Lorong Gunung Murut",
        "Post_Office": "Kota Kinabalu",
        "State": "Sabah"
    },
    {
        "Postcode": "88300",
        "Location": "Lorong Intan 1",
        "Post_Office": "Kota Kinabalu",
        "State": "Sabah"
    },
    {
        "Postcode": "88300",
        "Location": "Lorong Jelitana Utama",
        "Post_Office": "Kota Kinabalu",
        "State": "Sabah"
    },
    {
        "Postcode": "88300",
        "Location": "Lorong Jelitana Utama 1",
        "Post_Office": "Kota Kinabalu",
        "State": "Sabah"
    },
    {
        "Postcode": "88300",
        "Location": "Lorong Rafflesia",
        "Post_Office": "Kota Kinabalu",
        "State": "Sabah"
    },
    {
        "Postcode": "88300",
        "Location": "Sekolah Kebangsaan Luyang",
        "Post_Office": "Kota Kinabalu",
        "State": "Sabah"
    },
    {
        "Postcode": "88300",
        "Location": "Sekolah Menengah Taman Tun Fuad",
        "Post_Office": "Kota Kinabalu",
        "State": "Sabah"
    },
    {
        "Postcode": "88300",
        "Location": "Taman Formosa",
        "Post_Office": "Kota Kinabalu",
        "State": "Sabah"
    },
    {
        "Postcode": "88300",
        "Location": "Taman Golf View Ph.2",
        "Post_Office": "Kota Kinabalu",
        "State": "Sabah"
    },
    {
        "Postcode": "88300",
        "Location": "Taman Intan",
        "Post_Office": "Kota Kinabalu",
        "State": "Sabah"
    },
    {
        "Postcode": "88300",
        "Location": "Taman Jelitana Utama",
        "Post_Office": "Kota Kinabalu",
        "State": "Sabah"
    },
    {
        "Postcode": "88300",
        "Location": "Taman Kck  Type B",
        "Post_Office": "Kota Kinabalu",
        "State": "Sabah"
    },
    {
        "Postcode": "88300",
        "Location": "Taman Perdana",
        "Post_Office": "Kota Kinabalu",
        "State": "Sabah"
    },
    {
        "Postcode": "88300",
        "Location": "Wisma Lau",
        "Post_Office": "Kota Kinabalu",
        "State": "Sabah"
    },
    {
        "Postcode": "88300",
        "Location": "Hospital Queen Elizabeth",
        "Post_Office": "Kota Kinabalu",
        "State": "Sabah"
    },
    {
        "Postcode": "88300",
        "Location": "Jalan Damai",
        "Post_Office": "Kota Kinabalu",
        "State": "Sabah"
    }
]
