[
    {
        "Postcode": "88400",
        "Location": "Lorong Bunga Matahari 1",
        "Post_Office": "Kota Kinabalu",
        "State": "Sabah"
    },
    {
        "Postcode": "88400",
        "Location": "Lorong Bunga Matahari 2",
        "Post_Office": "Kota Kinabalu",
        "State": "Sabah"
    },
    {
        "Postcode": "88400",
        "Location": "Lorong Burung Han Paya 1",
        "Post_Office": "Kota Kinabalu",
        "State": "Sabah"
    },
    {
        "Postcode": "88400",
        "Location": "Lorong Burung Han Paya 2",
        "Post_Office": "Kota Kinabalu",
        "State": "Sabah"
    },
    {
        "Postcode": "88400",
        "Location": "Lorong Burung Han Paya 3",
        "Post_Office": "Kota Kinabalu",
        "State": "Sabah"
    },
    {
        "Postcode": "88400",
        "Location": "Lorong Burung Nasar 1",
        "Post_Office": "Kota Kinabalu",
        "State": "Sabah"
    },
    {
        "Postcode": "88400",
        "Location": "Lorong Burung Nasar 2",
        "Post_Office": "Kota Kinabalu",
        "State": "Sabah"
    },
    {
        "Postcode": "88400",
        "Location": "Lorong Burung Nasar 3",
        "Post_Office": "Kota Kinabalu",
        "State": "Sabah"
    },
    {
        "Postcode": "88400",
        "Location": "Lorong Burung Nasar 4",
        "Post_Office": "Kota Kinabalu",
        "State": "Sabah"
    },
    {
        "Postcode": "88400",
        "Location": "Lorong Burung Rui 1",
        "Post_Office": "Kota Kinabalu",
        "State": "Sabah"
    },
    {
        "Postcode": "88400",
        "Location": "Lorong Burung Rui 2",
        "Post_Office": "Kota Kinabalu",
        "State": "Sabah"
    },
    {
        "Postcode": "88400",
        "Location": "Lorong Fantasi 1",
        "Post_Office": "Kota Kinabalu",
        "State": "Sabah"
    },
    {
        "Postcode": "88400",
        "Location": "Lorong Fantasi 2",
        "Post_Office": "Kota Kinabalu",
        "State": "Sabah"
    },
    {
        "Postcode": "88400",
        "Location": "Lorong Kelabu 1",
        "Post_Office": "Kota Kinabalu",
        "State": "Sabah"
    },
    {
        "Postcode": "88400",
        "Location": "Lorong Kelabu 2",
        "Post_Office": "Kota Kinabalu",
        "State": "Sabah"
    },
    {
        "Postcode": "88400",
        "Location": "Lorong Kelengkeng 1",
        "Post_Office": "Kota Kinabalu",
        "State": "Sabah"
    },
    {
        "Postcode": "88400",
        "Location": "Lorong Kelengkeng 2",
        "Post_Office": "Kota Kinabalu",
        "State": "Sabah"
    },
    {
        "Postcode": "88400",
        "Location": "Lorong Kelengkeng 3",
        "Post_Office": "Kota Kinabalu",
        "State": "Sabah"
    },
    {
        "Postcode": "88400",
        "Location": "Lorong Kelengkeng 4",
        "Post_Office": "Kota Kinabalu",
        "State": "Sabah"
    },
    {
        "Postcode": "88400",
        "Location": "Lorong Kelengkeng 5",
        "Post_Office": "Kota Kinabalu",
        "State": "Sabah"
    },
    {
        "Postcode": "88400",
        "Location": "Lorong Kelengkeng 6",
        "Post_Office": "Kota Kinabalu",
        "State": "Sabah"
    },
    {
        "Postcode": "88400",
        "Location": "Lorong Kelengkeng 7",
        "Post_Office": "Kota Kinabalu",
        "State": "Sabah"
    },
    {
        "Postcode": "88400",
        "Location": "Lorong Kembura 1",
        "Post_Office": "Kota Kinabalu",
        "State": "Sabah"
    },
    {
        "Postcode": "88400",
        "Location": "Lorong Kembura 2",
        "Post_Office": "Kota Kinabalu",
        "State": "Sabah"
    },
    {
        "Postcode": "88400",
        "Location": "Lorong Kenari 1",
        "Post_Office": "Kota Kinabalu",
        "State": "Sabah"
    },
    {
        "Postcode": "88400",
        "Location": "Lorong Kenari 2",
        "Post_Office": "Kota Kinabalu",
        "State": "Sabah"
    },
    {
        "Postcode": "88400",
        "Location": "Lorong Kenari 3",
        "Post_Office": "Kota Kinabalu",
        "State": "Sabah"
    },
    {
        "Postcode": "88400",
        "Location": "Lorong Kenari 4",
        "Post_Office": "Kota Kinabalu",
        "State": "Sabah"
    },
    {
        "Postcode": "88400",
        "Location": "Lorong Kenari 5",
        "Post_Office": "Kota Kinabalu",
        "State": "Sabah"
    },
    {
        "Postcode": "88400",
        "Location": "Lorong Kenari 6",
        "Post_Office": "Kota Kinabalu",
        "State": "Sabah"
    },
    {
        "Postcode": "88400",
        "Location": "Lorong Kenawai 1",
        "Post_Office": "Kota Kinabalu",
        "State": "Sabah"
    },
    {
        "Postcode": "88400",
        "Location": "Lorong Kenawai 2",
        "Post_Office": "Kota Kinabalu",
        "State": "Sabah"
    },
    {
        "Postcode": "88400",
        "Location": "Lorong Kenawai 3",
        "Post_Office": "Kota Kinabalu",
        "State": "Sabah"
    },
    {
        "Postcode": "88400",
        "Location": "Lorong Kenawai 4",
        "Post_Office": "Kota Kinabalu",
        "State": "Sabah"
    },
    {
        "Postcode": "88400",
        "Location": "Lorong Kenawai 5",
        "Post_Office": "Kota Kinabalu",
        "State": "Sabah"
    },
    {
        "Postcode": "88400",
        "Location": "Lorong Kenawai 6",
        "Post_Office": "Kota Kinabalu",
        "State": "Sabah"
    },
    {
        "Postcode": "88400",
        "Location": "Lorong Kenawai 7",
        "Post_Office": "Kota Kinabalu",
        "State": "Sabah"
    },
    {
        "Postcode": "88400",
        "Location": "Lorong Kenawai 8",
        "Post_Office": "Kota Kinabalu",
        "State": "Sabah"
    },
    {
        "Postcode": "88400",
        "Location": "Lorong Kuala Laut 1",
        "Post_Office": "Kota Kinabalu",
        "State": "Sabah"
    },
    {
        "Postcode": "88400",
        "Location": "Lorong Kuala Laut 2",
        "Post_Office": "Kota Kinabalu",
        "State": "Sabah"
    },
    {
        "Postcode": "88400",
        "Location": "Lorong Lindah 1",
        "Post_Office": "Kota Kinabalu",
        "State": "Sabah"
    },
    {
        "Postcode": "88400",
        "Location": "Lorong Lindah 2",
        "Post_Office": "Kota Kinabalu",
        "State": "Sabah"
    },
    {
        "Postcode": "88400",
        "Location": "Lorong Lindah 3",
        "Post_Office": "Kota Kinabalu",
        "State": "Sabah"
    },
    {
        "Postcode": "88400",
        "Location": "Lorong Paku Pakis 1",
        "Post_Office": "Kota Kinabalu",
        "State": "Sabah"
    },
    {
        "Postcode": "88400",
        "Location": "Lorong Paku Pakis 2",
        "Post_Office": "Kota Kinabalu",
        "State": "Sabah"
    },
    {
        "Postcode": "88400",
        "Location": "Lorong Paku Pakis 3",
        "Post_Office": "Kota Kinabalu",
        "State": "Sabah"
    },
    {
        "Postcode": "88400",
        "Location": "Lorong Pungguk 1",
        "Post_Office": "Kota Kinabalu",
        "State": "Sabah"
    },
    {
        "Postcode": "88400",
        "Location": "Lorong Pungguk 2",
        "Post_Office": "Kota Kinabalu",
        "State": "Sabah"
    },
    {
        "Postcode": "88400",
        "Location": "Lorong Ruai 3",
        "Post_Office": "Kota Kinabalu",
        "State": "Sabah"
    },
    {
        "Postcode": "88400",
        "Location": "Lorong Ruai 4",
        "Post_Office": "Kota Kinabalu",
        "State": "Sabah"
    },
    {
        "Postcode": "88400",
        "Location": "Lorong Saujana 1",
        "Post_Office": "Kota Kinabalu",
        "State": "Sabah"
    },
    {
        "Postcode": "88400",
        "Location": "Lorong Saujana 2",
        "Post_Office": "Kota Kinabalu",
        "State": "Sabah"
    },
    {
        "Postcode": "88400",
        "Location": "Lorong Saujana 3",
        "Post_Office": "Kota Kinabalu",
        "State": "Sabah"
    },
    {
        "Postcode": "88400",
        "Location": "Lorong Signal Hill 1",
        "Post_Office": "Kota Kinabalu",
        "State": "Sabah"
    },
    {
        "Postcode": "88400",
        "Location": "Lorong Signal Hill 2",
        "Post_Office": "Kota Kinabalu",
        "State": "Sabah"
    },
    {
        "Postcode": "88400",
        "Location": "Apartment Bay Shore",
        "Post_Office": "Kota Kinabalu",
        "State": "Sabah"
    },
    {
        "Postcode": "88400",
        "Location": "Bay View Court",
        "Post_Office": "Kota Kinabalu",
        "State": "Sabah"
    },
    {
        "Postcode": "88400",
        "Location": "Bay View Height",
        "Post_Office": "Kota Kinabalu",
        "State": "Sabah"
    },
    {
        "Postcode": "88400",
        "Location": "Beverly Hill",
        "Post_Office": "Kota Kinabalu",
        "State": "Sabah"
    },
    {
        "Postcode": "88400",
        "Location": "Bukit Bendera",
        "Post_Office": "Kota Kinabalu",
        "State": "Sabah"
    },
    {
        "Postcode": "88400",
        "Location": "Bukit Keramat",
        "Post_Office": "Kota Kinabalu",
        "State": "Sabah"
    },
    {
        "Postcode": "88400",
        "Location": "City Bird Santuary",
        "Post_Office": "Kota Kinabalu",
        "State": "Sabah"
    },
    {
        "Postcode": "88400",
        "Location": "Dah Yeh Court Apartment",
        "Post_Office": "Kota Kinabalu",
        "State": "Sabah"
    },
    {
        "Postcode": "88400",
        "Location": "Flat Persekutuan",
        "Post_Office": "Kota Kinabalu",
        "State": "Sabah"
    },
    {
        "Postcode": "88400",
        "Location": "Happy Garden",
        "Post_Office": "Kota Kinabalu",
        "State": "Sabah"
    },
    {
        "Postcode": "88400",
        "Location": "Jabatan Kastam Dan Eksais Diraja (Pelabuhan)",
        "Post_Office": "Kota Kinabalu",
        "State": "Sabah"
    },
    {
        "Postcode": "88400",
        "Location": "Jalan Asmara",
        "Post_Office": "Kota Kinabalu",
        "State": "Sabah"
    },
    {
        "Postcode": "88400",
        "Location": "Jalan Asrama",
        "Post_Office": "Kota Kinabalu",
        "State": "Sabah"
    },
    {
        "Postcode": "88400",
        "Location": "Jalan Bukit Bendera",
        "Post_Office": "Kota Kinabalu",
        "State": "Sabah"
    },
    {
        "Postcode": "88400",
        "Location": "Jalan Bukit Bendera Lower",
        "Post_Office": "Kota Kinabalu",
        "State": "Sabah"
    },
    {
        "Postcode": "88400",
        "Location": "Jalan Bukit Bendera Upper",
        "Post_Office": "Kota Kinabalu",
        "State": "Sabah"
    },
    {
        "Postcode": "88400",
        "Location": "Jalan Bukit Keramat",
        "Post_Office": "Kota Kinabalu",
        "State": "Sabah"
    },
    {
        "Postcode": "88400",
        "Location": "Jalan Bukit Nanas",
        "Post_Office": "Kota Kinabalu",
        "State": "Sabah"
    },
    {
        "Postcode": "88400",
        "Location": "Jalan Bukut",
        "Post_Office": "Kota Kinabalu",
        "State": "Sabah"
    },
    {
        "Postcode": "88400",
        "Location": "Jalan Burung Puin",
        "Post_Office": "Kota Kinabalu",
        "State": "Sabah"
    },
    {
        "Postcode": "88400",
        "Location": "Jalan Burung Upih",
        "Post_Office": "Kota Kinabalu",
        "State": "Sabah"
    },
    {
        "Postcode": "88400",
        "Location": "Jalan Donald",
        "Post_Office": "Kota Kinabalu",
        "State": "Sabah"
    },
    {
        "Postcode": "88400",
        "Location": "Jalan Fung Yet Ting",
        "Post_Office": "Kota Kinabalu",
        "State": "Sabah"
    },
    {
        "Postcode": "88400",
        "Location": "Jalan Haiwan",
        "Post_Office": "Kota Kinabalu",
        "State": "Sabah"
    },
    {
        "Postcode": "88400",
        "Location": "Jalan Istana",
        "Post_Office": "Kota Kinabalu",
        "State": "Sabah"
    },
    {
        "Postcode": "88400",
        "Location": "Jalan Istiadat",
        "Post_Office": "Kota Kinabalu",
        "State": "Sabah"
    },
    {
        "Postcode": "88400",
        "Location": "Jalan Kampung Likas",
        "Post_Office": "Kota Kinabalu",
        "State": "Sabah"
    },
    {
        "Postcode": "88400",
        "Location": "Jalan Karuk",
        "Post_Office": "Kota Kinabalu",
        "State": "Sabah"
    },
    {
        "Postcode": "88400",
        "Location": "Jalan Kelicap",
        "Post_Office": "Kota Kinabalu",
        "State": "Sabah"
    },
    {
        "Postcode": "88400",
        "Location": "Jalan Kompleks Sukan",
        "Post_Office": "Kota Kinabalu",
        "State": "Sabah"
    },
    {
        "Postcode": "88400",
        "Location": "Jalan Kuala Laut",
        "Post_Office": "Kota Kinabalu",
        "State": "Sabah"
    },
    {
        "Postcode": "88400",
        "Location": "Jalan Kurol Melangi",
        "Post_Office": "Kota Kinabalu",
        "State": "Sabah"
    },
    {
        "Postcode": "88400",
        "Location": "Jalan Lower",
        "Post_Office": "Kota Kinabalu",
        "State": "Sabah"
    },
    {
        "Postcode": "88400",
        "Location": "Jalan Mergastua",
        "Post_Office": "Kota Kinabalu",
        "State": "Sabah"
    },
    {
        "Postcode": "88400",
        "Location": "Jalan Pameran",
        "Post_Office": "Kota Kinabalu",
        "State": "Sabah"
    },
    {
        "Postcode": "88400",
        "Location": "Jalan Pasir",
        "Post_Office": "Kota Kinabalu",
        "State": "Sabah"
    },
    {
        "Postcode": "88400",
        "Location": "Jalan Percetakan Baru",
        "Post_Office": "Kota Kinabalu",
        "State": "Sabah"
    },
    {
        "Postcode": "88400",
        "Location": "Jalan Pinggir",
        "Post_Office": "Kota Kinabalu",
        "State": "Sabah"
    },
    {
        "Postcode": "88400",
        "Location": "Jalan Punai Dekut",
        "Post_Office": "Kota Kinabalu",
        "State": "Sabah"
    },
    {
        "Postcode": "88400",
        "Location": "Jalan Punai Tanah",
        "Post_Office": "Kota Kinabalu",
        "State": "Sabah"
    },
    {
        "Postcode": "88400",
        "Location": "Jalan Seraya",
        "Post_Office": "Kota Kinabalu",
        "State": "Sabah"
    },
    {
        "Postcode": "88400",
        "Location": "Jalan Syn Fah Villa",
        "Post_Office": "Kota Kinabalu",
        "State": "Sabah"
    },
    {
        "Postcode": "88400",
        "Location": "Jalan Teluk Likas",
        "Post_Office": "Kota Kinabalu",
        "State": "Sabah"
    },
    {
        "Postcode": "88400",
        "Location": "Jalan Tenegal",
        "Post_Office": "Kota Kinabalu",
        "State": "Sabah"
    },
    {
        "Postcode": "88400",
        "Location": "Jalan Tuaran",
        "Post_Office": "Kota Kinabalu",
        "State": "Sabah"
    },
    {
        "Postcode": "88400",
        "Location": "Jalan Tun Fuad Stephens",
        "Post_Office": "Kota Kinabalu",
        "State": "Sabah"
    },
    {
        "Postcode": "88400",
        "Location": "Jalan Villa",
        "Post_Office": "Kota Kinabalu",
        "State": "Sabah"
    },
    {
        "Postcode": "88400",
        "Location": "Jalan Vokesional",
        "Post_Office": "Kota Kinabalu",
        "State": "Sabah"
    },
    {
        "Postcode": "88400",
        "Location": "Jalan Wong Yun Tiong",
        "Post_Office": "Kota Kinabalu",
        "State": "Sabah"
    },
    {
        "Postcode": "88400",
        "Location": "Juta Plaza",
        "Post_Office": "Kota Kinabalu",
        "State": "Sabah"
    },
    {
        "Postcode": "88400",
        "Location": "Kampung Likas",
        "Post_Office": "Kota Kinabalu",
        "State": "Sabah"
    },
    {
        "Postcode": "88400",
        "Location": "Kurnia Perdana",
        "Post_Office": "Kota Kinabalu",
        "State": "Sabah"
    },
    {
        "Postcode": "88400",
        "Location": "Leang Court",
        "Post_Office": "Kota Kinabalu",
        "State": "Sabah"
    },
    {
        "Postcode": "88400",
        "Location": "Likas",
        "Post_Office": "Kota Kinabalu",
        "State": "Sabah"
    },
    {
        "Postcode": "88400",
        "Location": "Likas Apartment",
        "Post_Office": "Kota Kinabalu",
        "State": "Sabah"
    },
    {
        "Postcode": "88400",
        "Location": "Likas Garden",
        "Post_Office": "Kota Kinabalu",
        "State": "Sabah"
    },
    {
        "Postcode": "88400",
        "Location": "Likas Park",
        "Post_Office": "Kota Kinabalu",
        "State": "Sabah"
    },
    {
        "Postcode": "88400",
        "Location": "Likas Plaza",
        "Post_Office": "Kota Kinabalu",
        "State": "Sabah"
    },
    {
        "Postcode": "88400",
        "Location": "Likas Square",
        "Post_Office": "Kota Kinabalu",
        "State": "Sabah"
    },
    {
        "Postcode": "88400",
        "Location": "Liwen Court",
        "Post_Office": "Kota Kinabalu",
        "State": "Sabah"
    },
    {
        "Postcode": "88400",
        "Location": "Lorong Banbasang",
        "Post_Office": "Kota Kinabalu",
        "State": "Sabah"
    },
    {
        "Postcode": "88400",
        "Location": "Lorong Bulud",
        "Post_Office": "Kota Kinabalu",
        "State": "Sabah"
    },
    {
        "Postcode": "88400",
        "Location": "Lorong Bunga Matahari",
        "Post_Office": "Kota Kinabalu",
        "State": "Sabah"
    },
    {
        "Postcode": "88400",
        "Location": "Lorong Bunga Pasu",
        "Post_Office": "Kota Kinabalu",
        "State": "Sabah"
    },
    {
        "Postcode": "88400",
        "Location": "Lorong Burung Ejek",
        "Post_Office": "Kota Kinabalu",
        "State": "Sabah"
    },
    {
        "Postcode": "88400",
        "Location": "Lorong Burung Gian",
        "Post_Office": "Kota Kinabalu",
        "State": "Sabah"
    },
    {
        "Postcode": "88400",
        "Location": "Lorong Burung Han Paya",
        "Post_Office": "Kota Kinabalu",
        "State": "Sabah"
    },
    {
        "Postcode": "88400",
        "Location": "Lorong Burung Kalapuin",
        "Post_Office": "Kota Kinabalu",
        "State": "Sabah"
    },
    {
        "Postcode": "88400",
        "Location": "Lorong Burung Kiking",
        "Post_Office": "Kota Kinabalu",
        "State": "Sabah"
    },
    {
        "Postcode": "88400",
        "Location": "Lorong Burung Langsuir",
        "Post_Office": "Kota Kinabalu",
        "State": "Sabah"
    },
    {
        "Postcode": "88400",
        "Location": "Lorong Burung Nasar",
        "Post_Office": "Kota Kinabalu",
        "State": "Sabah"
    },
    {
        "Postcode": "88400",
        "Location": "Lorong Burung Pekaka",
        "Post_Office": "Kota Kinabalu",
        "State": "Sabah"
    },
    {
        "Postcode": "88400",
        "Location": "Lorong Burung Puju",
        "Post_Office": "Kota Kinabalu",
        "State": "Sabah"
    },
    {
        "Postcode": "88400",
        "Location": "Lorong Burung Pungguk",
        "Post_Office": "Kota Kinabalu",
        "State": "Sabah"
    },
    {
        "Postcode": "88400",
        "Location": "Lorong Burung Ruai",
        "Post_Office": "Kota Kinabalu",
        "State": "Sabah"
    },
    {
        "Postcode": "88400",
        "Location": "Lorong Burung Segan",
        "Post_Office": "Kota Kinabalu",
        "State": "Sabah"
    },
    {
        "Postcode": "88400",
        "Location": "Lorong Burung Tukang",
        "Post_Office": "Kota Kinabalu",
        "State": "Sabah"
    },
    {
        "Postcode": "88400",
        "Location": "Lorong Chanyai 2",
        "Post_Office": "Kota Kinabalu",
        "State": "Sabah"
    },
    {
        "Postcode": "88400",
        "Location": "Lorong Duai",
        "Post_Office": "Kota Kinabalu",
        "State": "Sabah"
    },
    {
        "Postcode": "88400",
        "Location": "Lorong Fantasi",
        "Post_Office": "Kota Kinabalu",
        "State": "Sabah"
    },
    {
        "Postcode": "88400",
        "Location": "Lorong Hen Paya 4",
        "Post_Office": "Kota Kinabalu",
        "State": "Sabah"
    },
    {
        "Postcode": "88400",
        "Location": "Lorong Ikan Mayung",
        "Post_Office": "Kota Kinabalu",
        "State": "Sabah"
    },
    {
        "Postcode": "88400",
        "Location": "Lorong Jawa",
        "Post_Office": "Kota Kinabalu",
        "State": "Sabah"
    },
    {
        "Postcode": "88400",
        "Location": "Lorong Jelatik",
        "Post_Office": "Kota Kinabalu",
        "State": "Sabah"
    },
    {
        "Postcode": "88400",
        "Location": "Lorong Kali",
        "Post_Office": "Kota Kinabalu",
        "State": "Sabah"
    },
    {
        "Postcode": "88400",
        "Location": "Lorong Kampung Likas",
        "Post_Office": "Kota Kinabalu",
        "State": "Sabah"
    },
    {
        "Postcode": "88400",
        "Location": "Lorong Karuk",
        "Post_Office": "Kota Kinabalu",
        "State": "Sabah"
    },
    {
        "Postcode": "88400",
        "Location": "Lorong Kelabu",
        "Post_Office": "Kota Kinabalu",
        "State": "Sabah"
    },
    {
        "Postcode": "88400",
        "Location": "Lorong Kelicap Kuning",
        "Post_Office": "Kota Kinabalu",
        "State": "Sabah"
    },
    {
        "Postcode": "88400",
        "Location": "Lorong Kelinking",
        "Post_Office": "Kota Kinabalu",
        "State": "Sabah"
    },
    {
        "Postcode": "88400",
        "Location": "Lorong Kembura",
        "Post_Office": "Kota Kinabalu",
        "State": "Sabah"
    },
    {
        "Postcode": "88400",
        "Location": "Lorong Kenari",
        "Post_Office": "Kota Kinabalu",
        "State": "Sabah"
    },
    {
        "Postcode": "88400",
        "Location": "Lorong Kenari Kecil",
        "Post_Office": "Kota Kinabalu",
        "State": "Sabah"
    },
    {
        "Postcode": "88400",
        "Location": "Lorong Kenawai",
        "Post_Office": "Kota Kinabalu",
        "State": "Sabah"
    },
    {
        "Postcode": "88400",
        "Location": "Lorong Kerapu",
        "Post_Office": "Kota Kinabalu",
        "State": "Sabah"
    },
    {
        "Postcode": "88400",
        "Location": "Lorong Ketiti",
        "Post_Office": "Kota Kinabalu",
        "State": "Sabah"
    },
    {
        "Postcode": "88400",
        "Location": "Lorong Ketiting",
        "Post_Office": "Kota Kinabalu",
        "State": "Sabah"
    },
    {
        "Postcode": "88400",
        "Location": "Lorong Kiju",
        "Post_Office": "Kota Kinabalu",
        "State": "Sabah"
    },
    {
        "Postcode": "88400",
        "Location": "Lorong Kuala Laut",
        "Post_Office": "Kota Kinabalu",
        "State": "Sabah"
    },
    {
        "Postcode": "88400",
        "Location": "Lorong Kuil",
        "Post_Office": "Kota Kinabalu",
        "State": "Sabah"
    },
    {
        "Postcode": "88400",
        "Location": "Lorong Langsuir",
        "Post_Office": "Kota Kinabalu",
        "State": "Sabah"
    },
    {
        "Postcode": "88400",
        "Location": "Lorong Lengkok",
        "Post_Office": "Kota Kinabalu",
        "State": "Sabah"
    },
    {
        "Postcode": "88400",
        "Location": "Lorong Lindah",
        "Post_Office": "Kota Kinabalu",
        "State": "Sabah"
    },
    {
        "Postcode": "88400",
        "Location": "Lorong Likap",
        "Post_Office": "Kota Kinabalu",
        "State": "Sabah"
    },
    {
        "Postcode": "88400",
        "Location": "Lorong Likas",
        "Post_Office": "Kota Kinabalu",
        "State": "Sabah"
    },
    {
        "Postcode": "88400",
        "Location": "Lorong Lomntas",
        "Post_Office": "Kota Kinabalu",
        "State": "Sabah"
    },
    {
        "Postcode": "88400",
        "Location": "Lorong Merak",
        "Post_Office": "Kota Kinabalu",
        "State": "Sabah"
    },
    {
        "Postcode": "88400",
        "Location": "Lorong Merbok",
        "Post_Office": "Kota Kinabalu",
        "State": "Sabah"
    },
    {
        "Postcode": "88400",
        "Location": "Lorong Murai",
        "Post_Office": "Kota Kinabalu",
        "State": "Sabah"
    },
    {
        "Postcode": "88400",
        "Location": "Lorong Nuri",
        "Post_Office": "Kota Kinabalu",
        "State": "Sabah"
    },
    {
        "Postcode": "88400",
        "Location": "Lorong Paku Pakis",
        "Post_Office": "Kota Kinabalu",
        "State": "Sabah"
    },
    {
        "Postcode": "88400",
        "Location": "Lorong Parak",
        "Post_Office": "Kota Kinabalu",
        "State": "Sabah"
    },
    {
        "Postcode": "88400",
        "Location": "Lorong Pari",
        "Post_Office": "Kota Kinabalu",
        "State": "Sabah"
    },
    {
        "Postcode": "88400",
        "Location": "Lorong Pasir",
        "Post_Office": "Kota Kinabalu",
        "State": "Sabah"
    },
    {
        "Postcode": "88400",
        "Location": "Lorong Pasir Kecil",
        "Post_Office": "Kota Kinabalu",
        "State": "Sabah"
    },
    {
        "Postcode": "88400",
        "Location": "Lorong Patin",
        "Post_Office": "Kota Kinabalu",
        "State": "Sabah"
    },
    {
        "Postcode": "88400",
        "Location": "Lorong Patin Kecil",
        "Post_Office": "Kota Kinabalu",
        "State": "Sabah"
    },
    {
        "Postcode": "88400",
        "Location": "Lorong Perang",
        "Post_Office": "Kota Kinabalu",
        "State": "Sabah"
    },
    {
        "Postcode": "88400",
        "Location": "Lorong Pipit Merah",
        "Post_Office": "Kota Kinabalu",
        "State": "Sabah"
    },
    {
        "Postcode": "88400",
        "Location": "Lorong Pipit Uban",
        "Post_Office": "Kota Kinabalu",
        "State": "Sabah"
    },
    {
        "Postcode": "88400",
        "Location": "Lorong Pokok Saka",
        "Post_Office": "Kota Kinabalu",
        "State": "Sabah"
    },
    {
        "Postcode": "88400",
        "Location": "Lorong Puak",
        "Post_Office": "Kota Kinabalu",
        "State": "Sabah"
    },
    {
        "Postcode": "88400",
        "Location": "Lorong Pucung",
        "Post_Office": "Kota Kinabalu",
        "State": "Sabah"
    },
    {
        "Postcode": "88400",
        "Location": "Lorong Punai Kedut",
        "Post_Office": "Kota Kinabalu",
        "State": "Sabah"
    },
    {
        "Postcode": "88400",
        "Location": "Lorong Puncak",
        "Post_Office": "Kota Kinabalu",
        "State": "Sabah"
    },
    {
        "Postcode": "88400",
        "Location": "Lorong Pungguk",
        "Post_Office": "Kota Kinabalu",
        "State": "Sabah"
    },
    {
        "Postcode": "88400",
        "Location": "Lorong Putin",
        "Post_Office": "Kota Kinabalu",
        "State": "Sabah"
    },
    {
        "Postcode": "88400",
        "Location": "Lorong Putin Satu",
        "Post_Office": "Kota Kinabalu",
        "State": "Sabah"
    },
    {
        "Postcode": "88400",
        "Location": "Lorong Ranggung Batek",
        "Post_Office": "Kota Kinabalu",
        "State": "Sabah"
    },
    {
        "Postcode": "88400",
        "Location": "Lorong Saga",
        "Post_Office": "Kota Kinabalu",
        "State": "Sabah"
    },
    {
        "Postcode": "88400",
        "Location": "Lorong Sampit",
        "Post_Office": "Kota Kinabalu",
        "State": "Sabah"
    },
    {
        "Postcode": "88400",
        "Location": "Lorong Sapat",
        "Post_Office": "Kota Kinabalu",
        "State": "Sabah"
    },
    {
        "Postcode": "88400",
        "Location": "Lorong Saujana ",
        "Post_Office": "Kota Kinabalu",
        "State": "Sabah"
    },
    {
        "Postcode": "88400",
        "Location": "Lorong Signal Hill",
        "Post_Office": "Kota Kinabalu",
        "State": "Sabah"
    },
    {
        "Postcode": "88400",
        "Location": "Lorong Tabib",
        "Post_Office": "Kota Kinabalu",
        "State": "Sabah"
    },
    {
        "Postcode": "88400",
        "Location": "Lorong Talang",
        "Post_Office": "Kota Kinabalu",
        "State": "Sabah"
    },
    {
        "Postcode": "88400",
        "Location": "Lorong Tempua",
        "Post_Office": "Kota Kinabalu",
        "State": "Sabah"
    },
    {
        "Postcode": "88400",
        "Location": "Lorong Tenaga",
        "Post_Office": "Kota Kinabalu",
        "State": "Sabah"
    },
    {
        "Postcode": "88400",
        "Location": "Lorong Tenejal",
        "Post_Office": "Kota Kinabalu",
        "State": "Sabah"
    },
    {
        "Postcode": "88400",
        "Location": "Low Cost Housing (Mpkk)",
        "Post_Office": "Kota Kinabalu",
        "State": "Sabah"
    },
    {
        "Postcode": "88400",
        "Location": "Lucky Height Condominium",
        "Post_Office": "Kota Kinabalu",
        "State": "Sabah"
    },
    {
        "Postcode": "88400",
        "Location": "Persatuan Pendidik Akhlak Chee Sui Khor",
        "Post_Office": "Kota Kinabalu",
        "State": "Sabah"
    },
    {
        "Postcode": "88400",
        "Location": "Public Flat",
        "Post_Office": "Kota Kinabalu",
        "State": "Sabah"
    },
    {
        "Postcode": "88400",
        "Location": "Radiant Court",
        "Post_Office": "Kota Kinabalu",
        "State": "Sabah"
    },
    {
        "Postcode": "88400",
        "Location": "Radiant Mainsonet",
        "Post_Office": "Kota Kinabalu",
        "State": "Sabah"
    },
    {
        "Postcode": "88400",
        "Location": "Radiant Point",
        "Post_Office": "Kota Kinabalu",
        "State": "Sabah"
    },
    {
        "Postcode": "88400",
        "Location": "Radiant Tower",
        "Post_Office": "Kota Kinabalu",
        "State": "Sabah"
    },
    {
        "Postcode": "88400",
        "Location": "Sabah Port Berhad",
        "Post_Office": "Kota Kinabalu",
        "State": "Sabah"
    },
    {
        "Postcode": "88400",
        "Location": "Sabah Trade Center",
        "Post_Office": "Kota Kinabalu",
        "State": "Sabah"
    },
    {
        "Postcode": "88400",
        "Location": "Signal Hill Condominium ",
        "Post_Office": "Kota Kinabalu",
        "State": "Sabah"
    },
    {
        "Postcode": "88400",
        "Location": "Sm Likas",
        "Post_Office": "Kota Kinabalu",
        "State": "Sabah"
    },
    {
        "Postcode": "88400",
        "Location": "Sm Perempuan",
        "Post_Office": "Kota Kinabalu",
        "State": "Sabah"
    },
    {
        "Postcode": "88400",
        "Location": "Sm Shan Tao",
        "Post_Office": "Kota Kinabalu",
        "State": "Sabah"
    },
    {
        "Postcode": "88400",
        "Location": "Sm Teknik",
        "Post_Office": "Kota Kinabalu",
        "State": "Sabah"
    },
    {
        "Postcode": "88400",
        "Location": "Smk All Saints",
        "Post_Office": "Kota Kinabalu",
        "State": "Sabah"
    },
    {
        "Postcode": "88400",
        "Location": "Smk Lok Yuk",
        "Post_Office": "Kota Kinabalu",
        "State": "Sabah"
    },
    {
        "Postcode": "88400",
        "Location": "Sri Gaya",
        "Post_Office": "Kota Kinabalu",
        "State": "Sabah"
    },
    {
        "Postcode": "88400",
        "Location": "Srjk ( C ) Chung Hwa",
        "Post_Office": "Kota Kinabalu",
        "State": "Sabah"
    },
    {
        "Postcode": "88400",
        "Location": "Srjk ( C ) Lok Yuk",
        "Post_Office": "Kota Kinabalu",
        "State": "Sabah"
    },
    {
        "Postcode": "88400",
        "Location": "Srjk St James",
        "Post_Office": "Kota Kinabalu",
        "State": "Sabah"
    },
    {
        "Postcode": "88400",
        "Location": "Srk Lok Yuk",
        "Post_Office": "Kota Kinabalu",
        "State": "Sabah"
    },
    {
        "Postcode": "88400",
        "Location": "Srk St Agnes",
        "Post_Office": "Kota Kinabalu",
        "State": "Sabah"
    },
    {
        "Postcode": "88400",
        "Location": "Tai Yap Villa",
        "Post_Office": "Kota Kinabalu",
        "State": "Sabah"
    },
    {
        "Postcode": "88400",
        "Location": "Taman Antarabangsa",
        "Post_Office": "Kota Kinabalu",
        "State": "Sabah"
    },
    {
        "Postcode": "88400",
        "Location": "Taman Bay View",
        "Post_Office": "Kota Kinabalu",
        "State": "Sabah"
    },
    {
        "Postcode": "88400",
        "Location": "Taman Bukit Saujana",
        "Post_Office": "Kota Kinabalu",
        "State": "Sabah"
    },
    {
        "Postcode": "88400",
        "Location": "Taman Cempaka",
        "Post_Office": "Kota Kinabalu",
        "State": "Sabah"
    },
    {
        "Postcode": "88400",
        "Location": "Taman Ching Sang",
        "Post_Office": "Kota Kinabalu",
        "State": "Sabah"
    },
    {
        "Postcode": "88400",
        "Location": "Taman Fantasi",
        "Post_Office": "Kota Kinabalu",
        "State": "Sabah"
    },
    {
        "Postcode": "88400",
        "Location": "Taman Happy",
        "Post_Office": "Kota Kinabalu",
        "State": "Sabah"
    },
    {
        "Postcode": "88400",
        "Location": "Taman Hong Kong",
        "Post_Office": "Kota Kinabalu",
        "State": "Sabah"
    },
    {
        "Postcode": "88400",
        "Location": "Taman Iramanis",
        "Post_Office": "Kota Kinabalu",
        "State": "Sabah"
    },
    {
        "Postcode": "88400",
        "Location": "Taman Jaya",
        "Post_Office": "Kota Kinabalu",
        "State": "Sabah"
    },
    {
        "Postcode": "88400",
        "Location": "Taman Kemajuan",
        "Post_Office": "Kota Kinabalu",
        "State": "Sabah"
    },
    {
        "Postcode": "88400",
        "Location": "Taman Keramat",
        "Post_Office": "Kota Kinabalu",
        "State": "Sabah"
    },
    {
        "Postcode": "88400",
        "Location": "Taman Kwan Loke",
        "Post_Office": "Kota Kinabalu",
        "State": "Sabah"
    },
    {
        "Postcode": "88400",
        "Location": "Taman Lee Fah",
        "Post_Office": "Kota Kinabalu",
        "State": "Sabah"
    },
    {
        "Postcode": "88400",
        "Location": "Taman Likas",
        "Post_Office": "Kota Kinabalu",
        "State": "Sabah"
    },
    {
        "Postcode": "88400",
        "Location": "Taman Likas Jaya",
        "Post_Office": "Kota Kinabalu",
        "State": "Sabah"
    },
    {
        "Postcode": "88400",
        "Location": "Taman Lucky",
        "Post_Office": "Kota Kinabalu",
        "State": "Sabah"
    },
    {
        "Postcode": "88400",
        "Location": "Taman Maju Kota",
        "Post_Office": "Kota Kinabalu",
        "State": "Sabah"
    },
    {
        "Postcode": "88400",
        "Location": "Taman Melor",
        "Post_Office": "Kota Kinabalu",
        "State": "Sabah"
    },
    {
        "Postcode": "88400",
        "Location": "Taman Monne",
        "Post_Office": "Kota Kinabalu",
        "State": "Sabah"
    },
    {
        "Postcode": "88400",
        "Location": "Taman Orchid Villa",
        "Post_Office": "Kota Kinabalu",
        "State": "Sabah"
    },
    {
        "Postcode": "88400",
        "Location": "Taman Permai Valley",
        "Post_Office": "Kota Kinabalu",
        "State": "Sabah"
    },
    {
        "Postcode": "88400",
        "Location": "Taman Prestij",
        "Post_Office": "Kota Kinabalu",
        "State": "Sabah"
    },
    {
        "Postcode": "88400",
        "Location": "Taman Public",
        "Post_Office": "Kota Kinabalu",
        "State": "Sabah"
    },
    {
        "Postcode": "88400",
        "Location": "Taman Public Deluxe",
        "Post_Office": "Kota Kinabalu",
        "State": "Sabah"
    },
    {
        "Postcode": "88400",
        "Location": "Taman Public Jaya",
        "Post_Office": "Kota Kinabalu",
        "State": "Sabah"
    },
    {
        "Postcode": "88400",
        "Location": "Taman S. Baru",
        "Post_Office": "Kota Kinabalu",
        "State": "Sabah"
    },
    {
        "Postcode": "88400",
        "Location": "Taman Sea View",
        "Post_Office": "Kota Kinabalu",
        "State": "Sabah"
    },
    {
        "Postcode": "88400",
        "Location": "Taman Setia",
        "Post_Office": "Kota Kinabalu",
        "State": "Sabah"
    },
    {
        "Postcode": "88400",
        "Location": "Taman Signal Hill",
        "Post_Office": "Kota Kinabalu",
        "State": "Sabah"
    },
    {
        "Postcode": "88400",
        "Location": "Taman Signal Hill Park",
        "Post_Office": "Kota Kinabalu",
        "State": "Sabah"
    },
    {
        "Postcode": "88400",
        "Location": "Taman Sinar Baru",
        "Post_Office": "Kota Kinabalu",
        "State": "Sabah"
    },
    {
        "Postcode": "88400",
        "Location": "Taman Sinar Bukit",
        "Post_Office": "Kota Kinabalu",
        "State": "Sabah"
    },
    {
        "Postcode": "88400",
        "Location": "Taman Syn Fah Villa",
        "Post_Office": "Kota Kinabalu",
        "State": "Sabah"
    },
    {
        "Postcode": "88400",
        "Location": "Taman Tai Tet",
        "Post_Office": "Kota Kinabalu",
        "State": "Sabah"
    },
    {
        "Postcode": "88400",
        "Location": "Taman Teluk Likas",
        "Post_Office": "Kota Kinabalu",
        "State": "Sabah"
    },
    {
        "Postcode": "88400",
        "Location": "Taman Tuaran",
        "Post_Office": "Kota Kinabalu",
        "State": "Sabah"
    },
    {
        "Postcode": "88400",
        "Location": "Taman Ujanan Dah Yeh Villa",
        "Post_Office": "Kota Kinabalu",
        "State": "Sabah"
    },
    {
        "Postcode": "88400",
        "Location": "Taman Winley",
        "Post_Office": "Kota Kinabalu",
        "State": "Sabah"
    },
    {
        "Postcode": "88400",
        "Location": "Taman Yakim Jaya",
        "Post_Office": "Kota Kinabalu",
        "State": "Sabah"
    },
    {
        "Postcode": "88400",
        "Location": "Tanjung Lipat",
        "Post_Office": "Kota Kinabalu",
        "State": "Sabah"
    },
    {
        "Postcode": "88400",
        "Location": "The Peak Condominium",
        "Post_Office": "Kota Kinabalu",
        "State": "Sabah"
    },
    {
        "Postcode": "88400",
        "Location": "View Hotel",
        "Post_Office": "Kota Kinabalu",
        "State": "Sabah"
    },
    {
        "Postcode": "88400",
        "Location": "Winley Estate",
        "Post_Office": "Kota Kinabalu",
        "State": "Sabah"
    },
    {
        "Postcode": "88400",
        "Location": "Wisma Berjaya",
        "Post_Office": "Kota Kinabalu",
        "State": "Sabah"
    },
    {
        "Postcode": "88400",
        "Location": "Wisma Dixon",
        "Post_Office": "Kota Kinabalu",
        "State": "Sabah"
    },
    {
        "Postcode": "88400",
        "Location": "Wisma Kkm",
        "Post_Office": "Kota Kinabalu",
        "State": "Sabah"
    },
    {
        "Postcode": "88400",
        "Location": "Wisma Kosan",
        "Post_Office": "Kota Kinabalu",
        "State": "Sabah"
    },
    {
        "Postcode": "88400",
        "Location": "Wisma Likas",
        "Post_Office": "Kota Kinabalu",
        "State": "Sabah"
    },
    {
        "Postcode": "88400",
        "Location": "Wisma Perindustrian",
        "Post_Office": "Kota Kinabalu",
        "State": "Sabah"
    },
    {
        "Postcode": "88400",
        "Location": "Wisma Pertubuhan Wanita",
        "Post_Office": "Kota Kinabalu",
        "State": "Sabah"
    },
    {
        "Postcode": "88400",
        "Location": "Taman Damai",
        "Post_Office": "Kota Kinabalu",
        "State": "Sabah"
    },
    {
        "Postcode": "88400",
        "Location": "Jalan Bantayan",
        "Post_Office": "Kota Kinabalu",
        "State": "Sabah"
    },
    {
        "Postcode": "88400",
        "Location": "Jalan Damai",
        "Post_Office": "Kota Kinabalu",
        "State": "Sabah"
    },
    {
        "Postcode": "88400",
        "Location": "Jalan Pelabuhan",
        "Post_Office": "Kota Kinabalu",
        "State": "Sabah"
    },
    {
        "Postcode": "88400",
        "Location": "Lorong Madu",
        "Post_Office": "Kota Kinabalu",
        "State": "Sabah"
    }
]
