[
    {
        "Postcode": "88450",
        "Location": "Lorong Puncak Desa",
        "Post_Office": "Kota Kinabalu",
        "State": "Sabah"
    },
    {
        "Postcode": "88450",
        "Location": "Lorong Synergy Square",
        "Post_Office": "Kota Kinabalu",
        "State": "Sabah"
    },
    {
        "Postcode": "88450",
        "Location": "Metro Town",
        "Post_Office": "Kota Kinabalu",
        "State": "Sabah"
    },
    {
        "Postcode": "88450",
        "Location": "Taman Kingfisher Phase 4",
        "Post_Office": "Kota Kinabalu",
        "State": "Sabah"
    },
    {
        "Postcode": "88450",
        "Location": "Inanam Jaya 1",
        "Post_Office": "Kota Kinabalu",
        "State": "Sabah"
    },
    {
        "Postcode": "88450",
        "Location": "Inanam Jaya 2",
        "Post_Office": "Kota Kinabalu",
        "State": "Sabah"
    },
    {
        "Postcode": "88450",
        "Location": "Jalan Maakat 1",
        "Post_Office": "Kota Kinabalu",
        "State": "Sabah"
    },
    {
        "Postcode": "88450",
        "Location": "Jalan Maakat 2",
        "Post_Office": "Kota Kinabalu",
        "State": "Sabah"
    },
    {
        "Postcode": "88450",
        "Location": "Jalan Maakat 3",
        "Post_Office": "Kota Kinabalu",
        "State": "Sabah"
    },
    {
        "Postcode": "88450",
        "Location": "Lorong Angsana 1",
        "Post_Office": "Kota Kinabalu",
        "State": "Sabah"
    },
    {
        "Postcode": "88450",
        "Location": "Lorong Angsana 2",
        "Post_Office": "Kota Kinabalu",
        "State": "Sabah"
    },
    {
        "Postcode": "88450",
        "Location": "Lorong Angsana 3",
        "Post_Office": "Kota Kinabalu",
        "State": "Sabah"
    },
    {
        "Postcode": "88450",
        "Location": "Lorong Bandar Putera 1C",
        "Post_Office": "Kota Kinabalu",
        "State": "Sabah"
    },
    {
        "Postcode": "88450",
        "Location": "Lorong Bandar Putera 1D",
        "Post_Office": "Kota Kinabalu",
        "State": "Sabah"
    },
    {
        "Postcode": "88450",
        "Location": "Lorong Buah Duku 1",
        "Post_Office": "Kota Kinabalu",
        "State": "Sabah"
    },
    {
        "Postcode": "88450",
        "Location": "Lorong Buah Duku 1A",
        "Post_Office": "Kota Kinabalu",
        "State": "Sabah"
    },
    {
        "Postcode": "88450",
        "Location": "Lorong Buah Duku 3",
        "Post_Office": "Kota Kinabalu",
        "State": "Sabah"
    },
    {
        "Postcode": "88450",
        "Location": "Lorong Buah Duku 3A",
        "Post_Office": "Kota Kinabalu",
        "State": "Sabah"
    },
    {
        "Postcode": "88450",
        "Location": "Lorong Buah Duku 3C",
        "Post_Office": "Kota Kinabalu",
        "State": "Sabah"
    },
    {
        "Postcode": "88450",
        "Location": "Lorong Buah Salak 1",
        "Post_Office": "Kota Kinabalu",
        "State": "Sabah"
    },
    {
        "Postcode": "88450",
        "Location": "Lorong Buah Salak 2",
        "Post_Office": "Kota Kinabalu",
        "State": "Sabah"
    },
    {
        "Postcode": "88450",
        "Location": "Lorong Buah Salak 3",
        "Post_Office": "Kota Kinabalu",
        "State": "Sabah"
    },
    {
        "Postcode": "88450",
        "Location": "Lorong Buah Salak 4",
        "Post_Office": "Kota Kinabalu",
        "State": "Sabah"
    },
    {
        "Postcode": "88450",
        "Location": "Lorong Buah Salak 5",
        "Post_Office": "Kota Kinabalu",
        "State": "Sabah"
    },
    {
        "Postcode": "88450",
        "Location": "Lorong Cempedak 1",
        "Post_Office": "Kota Kinabalu",
        "State": "Sabah"
    },
    {
        "Postcode": "88450",
        "Location": "Lorong Cempedak 2",
        "Post_Office": "Kota Kinabalu",
        "State": "Sabah"
    },
    {
        "Postcode": "88450",
        "Location": "Lorong Cempedak 3",
        "Post_Office": "Kota Kinabalu",
        "State": "Sabah"
    },
    {
        "Postcode": "88450",
        "Location": "Lorong Cempedak 4",
        "Post_Office": "Kota Kinabalu",
        "State": "Sabah"
    },
    {
        "Postcode": "88450",
        "Location": "Lorong Desa Permai 1",
        "Post_Office": "Kota Kinabalu",
        "State": "Sabah"
    },
    {
        "Postcode": "88450",
        "Location": "Lorong Desa Permai 2",
        "Post_Office": "Kota Kinabalu",
        "State": "Sabah"
    },
    {
        "Postcode": "88450",
        "Location": "Lorong Desa Permai 3",
        "Post_Office": "Kota Kinabalu",
        "State": "Sabah"
    },
    {
        "Postcode": "88450",
        "Location": "Lorong Desa Permai 4",
        "Post_Office": "Kota Kinabalu",
        "State": "Sabah"
    },
    {
        "Postcode": "88450",
        "Location": "Lorong Desa Permai 5",
        "Post_Office": "Kota Kinabalu",
        "State": "Sabah"
    },
    {
        "Postcode": "88450",
        "Location": "Lorong Durian 1",
        "Post_Office": "Kota Kinabalu",
        "State": "Sabah"
    },
    {
        "Postcode": "88450",
        "Location": "Lorong Durian 3",
        "Post_Office": "Kota Kinabalu",
        "State": "Sabah"
    },
    {
        "Postcode": "88450",
        "Location": "Lorong Durian 7",
        "Post_Office": "Kota Kinabalu",
        "State": "Sabah"
    },
    {
        "Postcode": "88450",
        "Location": "Lorong Inanam Baru 1",
        "Post_Office": "Kota Kinabalu",
        "State": "Sabah"
    },
    {
        "Postcode": "88450",
        "Location": "Lorong Inanam Baru 10",
        "Post_Office": "Kota Kinabalu",
        "State": "Sabah"
    },
    {
        "Postcode": "88450",
        "Location": "Lorong Inanam Baru 2",
        "Post_Office": "Kota Kinabalu",
        "State": "Sabah"
    },
    {
        "Postcode": "88450",
        "Location": "Lorong Inanam Baru 3",
        "Post_Office": "Kota Kinabalu",
        "State": "Sabah"
    },
    {
        "Postcode": "88450",
        "Location": "Lorong Inanam Baru 4",
        "Post_Office": "Kota Kinabalu",
        "State": "Sabah"
    },
    {
        "Postcode": "88450",
        "Location": "Lorong Inanam Baru 5",
        "Post_Office": "Kota Kinabalu",
        "State": "Sabah"
    },
    {
        "Postcode": "88450",
        "Location": "Lorong Inanam Baru 6",
        "Post_Office": "Kota Kinabalu",
        "State": "Sabah"
    },
    {
        "Postcode": "88450",
        "Location": "Lorong Inanam Baru 7",
        "Post_Office": "Kota Kinabalu",
        "State": "Sabah"
    },
    {
        "Postcode": "88450",
        "Location": "Lorong Inanam Baru 8",
        "Post_Office": "Kota Kinabalu",
        "State": "Sabah"
    },
    {
        "Postcode": "88450",
        "Location": "Lorong Inanam Baru 9",
        "Post_Office": "Kota Kinabalu",
        "State": "Sabah"
    },
    {
        "Postcode": "88450",
        "Location": "Lorong Indah Permai 10",
        "Post_Office": "Kota Kinabalu",
        "State": "Sabah"
    },
    {
        "Postcode": "88450",
        "Location": "Lorong Indah Permai 11",
        "Post_Office": "Kota Kinabalu",
        "State": "Sabah"
    },
    {
        "Postcode": "88450",
        "Location": "Lorong Indah Permai 12",
        "Post_Office": "Kota Kinabalu",
        "State": "Sabah"
    },
    {
        "Postcode": "88450",
        "Location": "Lorong Indah Permai 13",
        "Post_Office": "Kota Kinabalu",
        "State": "Sabah"
    },
    {
        "Postcode": "88450",
        "Location": "Lorong Indah Permai 14",
        "Post_Office": "Kota Kinabalu",
        "State": "Sabah"
    },
    {
        "Postcode": "88450",
        "Location": "Lorong Indah Permai 15",
        "Post_Office": "Kota Kinabalu",
        "State": "Sabah"
    },
    {
        "Postcode": "88450",
        "Location": "Lorong Indah Permai 16",
        "Post_Office": "Kota Kinabalu",
        "State": "Sabah"
    },
    {
        "Postcode": "88450",
        "Location": "Lorong Indah Permai 17",
        "Post_Office": "Kota Kinabalu",
        "State": "Sabah"
    },
    {
        "Postcode": "88450",
        "Location": "Lorong Indah Permai 18",
        "Post_Office": "Kota Kinabalu",
        "State": "Sabah"
    },
    {
        "Postcode": "88450",
        "Location": "Lorong Indah Permai 19",
        "Post_Office": "Kota Kinabalu",
        "State": "Sabah"
    },
    {
        "Postcode": "88450",
        "Location": "Lorong Indah Permai 20",
        "Post_Office": "Kota Kinabalu",
        "State": "Sabah"
    },
    {
        "Postcode": "88450",
        "Location": "Lorong Indah Permai 21",
        "Post_Office": "Kota Kinabalu",
        "State": "Sabah"
    },
    {
        "Postcode": "88450",
        "Location": "Lorong Indah Permai 22",
        "Post_Office": "Kota Kinabalu",
        "State": "Sabah"
    },
    {
        "Postcode": "88450",
        "Location": "Lorong Indah Permai 23",
        "Post_Office": "Kota Kinabalu",
        "State": "Sabah"
    },
    {
        "Postcode": "88450",
        "Location": "Lorong Indah Permai 7",
        "Post_Office": "Kota Kinabalu",
        "State": "Sabah"
    },
    {
        "Postcode": "88450",
        "Location": "Lorong Indah Permai 8",
        "Post_Office": "Kota Kinabalu",
        "State": "Sabah"
    },
    {
        "Postcode": "88450",
        "Location": "Lorong Indah Permai 9",
        "Post_Office": "Kota Kinabalu",
        "State": "Sabah"
    },
    {
        "Postcode": "88450",
        "Location": "Lorong Industri Warisan 1",
        "Post_Office": "Kota Kinabalu",
        "State": "Sabah"
    },
    {
        "Postcode": "88450",
        "Location": "Lorong Industri Warisan 2",
        "Post_Office": "Kota Kinabalu",
        "State": "Sabah"
    },
    {
        "Postcode": "88450",
        "Location": "Lorong Industri Warisan 3",
        "Post_Office": "Kota Kinabalu",
        "State": "Sabah"
    },
    {
        "Postcode": "88450",
        "Location": "Lorong Kilang A",
        "Post_Office": "Kota Kinabalu",
        "State": "Sabah"
    },
    {
        "Postcode": "88450",
        "Location": "Lorong Kilang B",
        "Post_Office": "Kota Kinabalu",
        "State": "Sabah"
    },
    {
        "Postcode": "88450",
        "Location": "Lorong Kilang C",
        "Post_Office": "Kota Kinabalu",
        "State": "Sabah"
    },
    {
        "Postcode": "88450",
        "Location": "Lorong Kilang D",
        "Post_Office": "Kota Kinabalu",
        "State": "Sabah"
    },
    {
        "Postcode": "88450",
        "Location": "Lorong Kilang E",
        "Post_Office": "Kota Kinabalu",
        "State": "Sabah"
    },
    {
        "Postcode": "88450",
        "Location": "Lorong Kuala Menggatal 1",
        "Post_Office": "Kota Kinabalu",
        "State": "Sabah"
    },
    {
        "Postcode": "88450",
        "Location": "Lorong Kuala Menggatal 10",
        "Post_Office": "Kota Kinabalu",
        "State": "Sabah"
    },
    {
        "Postcode": "88450",
        "Location": "Lorong Kuala Menggatal 11",
        "Post_Office": "Kota Kinabalu",
        "State": "Sabah"
    },
    {
        "Postcode": "88450",
        "Location": "Lorong Kuala Menggatal 12",
        "Post_Office": "Kota Kinabalu",
        "State": "Sabah"
    },
    {
        "Postcode": "88450",
        "Location": "Lorong Kuala Menggatal 13",
        "Post_Office": "Kota Kinabalu",
        "State": "Sabah"
    },
    {
        "Postcode": "88450",
        "Location": "Lorong Kuala Menggatal 14",
        "Post_Office": "Kota Kinabalu",
        "State": "Sabah"
    },
    {
        "Postcode": "88450",
        "Location": "Lorong Kuala Menggatal 15",
        "Post_Office": "Kota Kinabalu",
        "State": "Sabah"
    },
    {
        "Postcode": "88450",
        "Location": "Lorong Kuala Menggatal 16",
        "Post_Office": "Kota Kinabalu",
        "State": "Sabah"
    },
    {
        "Postcode": "88450",
        "Location": "Lorong Kuala Menggatal 17",
        "Post_Office": "Kota Kinabalu",
        "State": "Sabah"
    },
    {
        "Postcode": "88450",
        "Location": "Lorong Kuala Menggatal 18",
        "Post_Office": "Kota Kinabalu",
        "State": "Sabah"
    },
    {
        "Postcode": "88450",
        "Location": "Lorong Kuala Menggatal 19",
        "Post_Office": "Kota Kinabalu",
        "State": "Sabah"
    },
    {
        "Postcode": "88450",
        "Location": "Lorong Kuala Menggatal 2",
        "Post_Office": "Kota Kinabalu",
        "State": "Sabah"
    },
    {
        "Postcode": "88450",
        "Location": "Lorong Kuala Menggatal 20",
        "Post_Office": "Kota Kinabalu",
        "State": "Sabah"
    },
    {
        "Postcode": "88450",
        "Location": "Lorong Kuala Menggatal 21",
        "Post_Office": "Kota Kinabalu",
        "State": "Sabah"
    },
    {
        "Postcode": "88450",
        "Location": "Lorong Kuala Menggatal 22",
        "Post_Office": "Kota Kinabalu",
        "State": "Sabah"
    },
    {
        "Postcode": "88450",
        "Location": "Lorong Kuala Menggatal 23",
        "Post_Office": "Kota Kinabalu",
        "State": "Sabah"
    },
    {
        "Postcode": "88450",
        "Location": "Lorong Kuala Menggatal 3",
        "Post_Office": "Kota Kinabalu",
        "State": "Sabah"
    },
    {
        "Postcode": "88450",
        "Location": "Lorong Kuala Menggatal 4",
        "Post_Office": "Kota Kinabalu",
        "State": "Sabah"
    },
    {
        "Postcode": "88450",
        "Location": "Lorong Kuala Menggatal 5",
        "Post_Office": "Kota Kinabalu",
        "State": "Sabah"
    },
    {
        "Postcode": "88450",
        "Location": "Lorong Kuala Menggatal 6",
        "Post_Office": "Kota Kinabalu",
        "State": "Sabah"
    },
    {
        "Postcode": "88450",
        "Location": "Lorong Kuala Menggatal 7",
        "Post_Office": "Kota Kinabalu",
        "State": "Sabah"
    },
    {
        "Postcode": "88450",
        "Location": "Lorong Kuala Menggatal 8",
        "Post_Office": "Kota Kinabalu",
        "State": "Sabah"
    },
    {
        "Postcode": "88450",
        "Location": "Lorong Kuala Menggatal 9",
        "Post_Office": "Kota Kinabalu",
        "State": "Sabah"
    },
    {
        "Postcode": "88450",
        "Location": "Lorong Limau Manis 1",
        "Post_Office": "Kota Kinabalu",
        "State": "Sabah"
    },
    {
        "Postcode": "88450",
        "Location": "Lorong Limau Manis 2",
        "Post_Office": "Kota Kinabalu",
        "State": "Sabah"
    },
    {
        "Postcode": "88450",
        "Location": "Lorong Limau Manis 3",
        "Post_Office": "Kota Kinabalu",
        "State": "Sabah"
    },
    {
        "Postcode": "88450",
        "Location": "Lorong Mangga 1",
        "Post_Office": "Kota Kinabalu",
        "State": "Sabah"
    },
    {
        "Postcode": "88450",
        "Location": "Lorong Mangga 2",
        "Post_Office": "Kota Kinabalu",
        "State": "Sabah"
    },
    {
        "Postcode": "88450",
        "Location": "Lorong Mangga 3",
        "Post_Office": "Kota Kinabalu",
        "State": "Sabah"
    },
    {
        "Postcode": "88450",
        "Location": "Lorong Medan 1",
        "Post_Office": "Kota Kinabalu",
        "State": "Sabah"
    },
    {
        "Postcode": "88450",
        "Location": "Lorong Medan 2",
        "Post_Office": "Kota Kinabalu",
        "State": "Sabah"
    },
    {
        "Postcode": "88450",
        "Location": "Lorong Medan 3",
        "Post_Office": "Kota Kinabalu",
        "State": "Sabah"
    },
    {
        "Postcode": "88450",
        "Location": "Lorong Melawa 1",
        "Post_Office": "Kota Kinabalu",
        "State": "Sabah"
    },
    {
        "Postcode": "88450",
        "Location": "Lorong Melawa 2",
        "Post_Office": "Kota Kinabalu",
        "State": "Sabah"
    },
    {
        "Postcode": "88450",
        "Location": "Lorong Nelly 9/1",
        "Post_Office": "Kota Kinabalu",
        "State": "Sabah"
    },
    {
        "Postcode": "88450",
        "Location": "Lorong Nelly 9/2",
        "Post_Office": "Kota Kinabalu",
        "State": "Sabah"
    },
    {
        "Postcode": "88450",
        "Location": "Lorong Nelly 9/3",
        "Post_Office": "Kota Kinabalu",
        "State": "Sabah"
    },
    {
        "Postcode": "88450",
        "Location": "Lorong Nelly 9/4",
        "Post_Office": "Kota Kinabalu",
        "State": "Sabah"
    },
    {
        "Postcode": "88450",
        "Location": "Lorong Nelly 9/5",
        "Post_Office": "Kota Kinabalu",
        "State": "Sabah"
    },
    {
        "Postcode": "88450",
        "Location": "Lorong Palma 1",
        "Post_Office": "Kota Kinabalu",
        "State": "Sabah"
    },
    {
        "Postcode": "88450",
        "Location": "Lorong Palma 2",
        "Post_Office": "Kota Kinabalu",
        "State": "Sabah"
    },
    {
        "Postcode": "88450",
        "Location": "Lorong Palma 3",
        "Post_Office": "Kota Kinabalu",
        "State": "Sabah"
    },
    {
        "Postcode": "88450",
        "Location": "Lorong Pelam 2",
        "Post_Office": "Kota Kinabalu",
        "State": "Sabah"
    },
    {
        "Postcode": "88450",
        "Location": "Lorong Pelam 3",
        "Post_Office": "Kota Kinabalu",
        "State": "Sabah"
    },
    {
        "Postcode": "88450",
        "Location": "Lorong Pelam 4",
        "Post_Office": "Kota Kinabalu",
        "State": "Sabah"
    },
    {
        "Postcode": "88450",
        "Location": "Lorong Pelam 5",
        "Post_Office": "Kota Kinabalu",
        "State": "Sabah"
    },
    {
        "Postcode": "88450",
        "Location": "Lorong Pelam 6",
        "Post_Office": "Kota Kinabalu",
        "State": "Sabah"
    },
    {
        "Postcode": "88450",
        "Location": "Lorong Permai 2",
        "Post_Office": "Kota Kinabalu",
        "State": "Sabah"
    },
    {
        "Postcode": "88450",
        "Location": "Lorong Permai 3",
        "Post_Office": "Kota Kinabalu",
        "State": "Sabah"
    },
    {
        "Postcode": "88450",
        "Location": "Lorong Pic 1",
        "Post_Office": "Kota Kinabalu",
        "State": "Sabah"
    },
    {
        "Postcode": "88450",
        "Location": "Lorong Pic 2",
        "Post_Office": "Kota Kinabalu",
        "State": "Sabah"
    },
    {
        "Postcode": "88450",
        "Location": "Lorong Pic 3",
        "Post_Office": "Kota Kinabalu",
        "State": "Sabah"
    },
    {
        "Postcode": "88450",
        "Location": "Lorong Pic 4",
        "Post_Office": "Kota Kinabalu",
        "State": "Sabah"
    },
    {
        "Postcode": "88450",
        "Location": "Lorong Pic 5",
        "Post_Office": "Kota Kinabalu",
        "State": "Sabah"
    },
    {
        "Postcode": "88450",
        "Location": "Lorong Plaza Utama 1",
        "Post_Office": "Kota Kinabalu",
        "State": "Sabah"
    },
    {
        "Postcode": "88450",
        "Location": "Lorong Plaza Utama 2",
        "Post_Office": "Kota Kinabalu",
        "State": "Sabah"
    },
    {
        "Postcode": "88450",
        "Location": "Lorong Plaza Utama 3",
        "Post_Office": "Kota Kinabalu",
        "State": "Sabah"
    },
    {
        "Postcode": "88450",
        "Location": "Lorong Plaza Utama 4",
        "Post_Office": "Kota Kinabalu",
        "State": "Sabah"
    },
    {
        "Postcode": "88450",
        "Location": "Lorong Plaza Utama 4A",
        "Post_Office": "Kota Kinabalu",
        "State": "Sabah"
    },
    {
        "Postcode": "88450",
        "Location": "Lorong Plaza Utama 4B",
        "Post_Office": "Kota Kinabalu",
        "State": "Sabah"
    },
    {
        "Postcode": "88450",
        "Location": "Lorong Plaza Utama 5",
        "Post_Office": "Kota Kinabalu",
        "State": "Sabah"
    },
    {
        "Postcode": "88450",
        "Location": "Lorong Puncak Desa 1",
        "Post_Office": "Kota Kinabalu",
        "State": "Sabah"
    },
    {
        "Postcode": "88450",
        "Location": "Lorong Puncak Desa 2",
        "Post_Office": "Kota Kinabalu",
        "State": "Sabah"
    },
    {
        "Postcode": "88450",
        "Location": "Lorong Putra Jaya 13",
        "Post_Office": "Kota Kinabalu",
        "State": "Sabah"
    },
    {
        "Postcode": "88450",
        "Location": "Lorong Putra Jaya 14",
        "Post_Office": "Kota Kinabalu",
        "State": "Sabah"
    },
    {
        "Postcode": "88450",
        "Location": "Lorong Putra Jaya 15",
        "Post_Office": "Kota Kinabalu",
        "State": "Sabah"
    },
    {
        "Postcode": "88450",
        "Location": "Lorong Putra Jaya 16",
        "Post_Office": "Kota Kinabalu",
        "State": "Sabah"
    },
    {
        "Postcode": "88450",
        "Location": "Lorong Putra Jaya 17",
        "Post_Office": "Kota Kinabalu",
        "State": "Sabah"
    },
    {
        "Postcode": "88450",
        "Location": "Lorong Putra Jaya 18",
        "Post_Office": "Kota Kinabalu",
        "State": "Sabah"
    },
    {
        "Postcode": "88450",
        "Location": "Lorong Putra Jaya 20",
        "Post_Office": "Kota Kinabalu",
        "State": "Sabah"
    },
    {
        "Postcode": "88450",
        "Location": "Lorong Putra Jaya 21",
        "Post_Office": "Kota Kinabalu",
        "State": "Sabah"
    },
    {
        "Postcode": "88450",
        "Location": "Lorong Putra Jaya 22",
        "Post_Office": "Kota Kinabalu",
        "State": "Sabah"
    },
    {
        "Postcode": "88450",
        "Location": "Lorong Putra Jaya 23",
        "Post_Office": "Kota Kinabalu",
        "State": "Sabah"
    },
    {
        "Postcode": "88450",
        "Location": "Lorong Putra Jaya 24",
        "Post_Office": "Kota Kinabalu",
        "State": "Sabah"
    },
    {
        "Postcode": "88450",
        "Location": "Lorong Putra Jaya 26",
        "Post_Office": "Kota Kinabalu",
        "State": "Sabah"
    },
    {
        "Postcode": "88450",
        "Location": "Lorong Putra Jaya 3",
        "Post_Office": "Kota Kinabalu",
        "State": "Sabah"
    },
    {
        "Postcode": "88450",
        "Location": "Lorong Putra Jaya 3A",
        "Post_Office": "Kota Kinabalu",
        "State": "Sabah"
    },
    {
        "Postcode": "88450",
        "Location": "Lorong Putra Jaya 4",
        "Post_Office": "Kota Kinabalu",
        "State": "Sabah"
    },
    {
        "Postcode": "88450",
        "Location": "Lorong Putra Jaya 5",
        "Post_Office": "Kota Kinabalu",
        "State": "Sabah"
    },
    {
        "Postcode": "88450",
        "Location": "Lorong Putra Jaya 6",
        "Post_Office": "Kota Kinabalu",
        "State": "Sabah"
    },
    {
        "Postcode": "88450",
        "Location": "Lorong Putra Jaya 7",
        "Post_Office": "Kota Kinabalu",
        "State": "Sabah"
    },
    {
        "Postcode": "88450",
        "Location": "Lorong Putra Jaya 8",
        "Post_Office": "Kota Kinabalu",
        "State": "Sabah"
    },
    {
        "Postcode": "88450",
        "Location": "Lorong Putra Jaya 9",
        "Post_Office": "Kota Kinabalu",
        "State": "Sabah"
    },
    {
        "Postcode": "88450",
        "Location": "Lorong Putra Jaya 9B",
        "Post_Office": "Kota Kinabalu",
        "State": "Sabah"
    },
    {
        "Postcode": "88450",
        "Location": "Lorong Putra Perdana 2B",
        "Post_Office": "Kota Kinabalu",
        "State": "Sabah"
    },
    {
        "Postcode": "88450",
        "Location": "Lorong Putra Perdana 2C",
        "Post_Office": "Kota Kinabalu",
        "State": "Sabah"
    },
    {
        "Postcode": "88450",
        "Location": "Lorong Putra Perdana 2D",
        "Post_Office": "Kota Kinabalu",
        "State": "Sabah"
    },
    {
        "Postcode": "88450",
        "Location": "Lorong Putra Perdana 2E",
        "Post_Office": "Kota Kinabalu",
        "State": "Sabah"
    },
    {
        "Postcode": "88450",
        "Location": "Lorong Putra Perdana 2F",
        "Post_Office": "Kota Kinabalu",
        "State": "Sabah"
    },
    {
        "Postcode": "88450",
        "Location": "Lorong Seri Indah 1",
        "Post_Office": "Kota Kinabalu",
        "State": "Sabah"
    },
    {
        "Postcode": "88450",
        "Location": "Lorong Seri Indah 2",
        "Post_Office": "Kota Kinabalu",
        "State": "Sabah"
    },
    {
        "Postcode": "88450",
        "Location": "Lorong Seri Indah 3",
        "Post_Office": "Kota Kinabalu",
        "State": "Sabah"
    },
    {
        "Postcode": "88450",
        "Location": "Lorong Seri Indah 4",
        "Post_Office": "Kota Kinabalu",
        "State": "Sabah"
    },
    {
        "Postcode": "88450",
        "Location": "Lorong Seri Indah 5",
        "Post_Office": "Kota Kinabalu",
        "State": "Sabah"
    },
    {
        "Postcode": "88450",
        "Location": "Lorong Seri Indah 6",
        "Post_Office": "Kota Kinabalu",
        "State": "Sabah"
    },
    {
        "Postcode": "88450",
        "Location": "Lorong Sri Baru 1",
        "Post_Office": "Kota Kinabalu",
        "State": "Sabah"
    },
    {
        "Postcode": "88450",
        "Location": "Lorong Sri Baru 2",
        "Post_Office": "Kota Kinabalu",
        "State": "Sabah"
    },
    {
        "Postcode": "88450",
        "Location": "Lorong Sri Baru 3",
        "Post_Office": "Kota Kinabalu",
        "State": "Sabah"
    },
    {
        "Postcode": "88450",
        "Location": "Lorong Sri Pulutan 1",
        "Post_Office": "Kota Kinabalu",
        "State": "Sabah"
    },
    {
        "Postcode": "88450",
        "Location": "Lorong Sri Pulutan 2",
        "Post_Office": "Kota Kinabalu",
        "State": "Sabah"
    },
    {
        "Postcode": "88450",
        "Location": "Lorong Sri Pulutan 3",
        "Post_Office": "Kota Kinabalu",
        "State": "Sabah"
    },
    {
        "Postcode": "88450",
        "Location": "Lorong Sulaman 1",
        "Post_Office": "Kota Kinabalu",
        "State": "Sabah"
    },
    {
        "Postcode": "88450",
        "Location": "Lorong Sulaman 2",
        "Post_Office": "Kota Kinabalu",
        "State": "Sabah"
    },
    {
        "Postcode": "88450",
        "Location": "Lorong Sulaman 2A",
        "Post_Office": "Kota Kinabalu",
        "State": "Sabah"
    },
    {
        "Postcode": "88450",
        "Location": "Lorong Sulaman 3",
        "Post_Office": "Kota Kinabalu",
        "State": "Sabah"
    },
    {
        "Postcode": "88450",
        "Location": "Lorong Sulaman 3A",
        "Post_Office": "Kota Kinabalu",
        "State": "Sabah"
    },
    {
        "Postcode": "88450",
        "Location": "Lorong Sulaman 5",
        "Post_Office": "Kota Kinabalu",
        "State": "Sabah"
    },
    {
        "Postcode": "88450",
        "Location": "Lorong Telipok Jaya 1A",
        "Post_Office": "Kota Kinabalu",
        "State": "Sabah"
    },
    {
        "Postcode": "88450",
        "Location": "Lorong Telipok Jaya 2",
        "Post_Office": "Kota Kinabalu",
        "State": "Sabah"
    },
    {
        "Postcode": "88450",
        "Location": "Lorong Telipok Jaya 3",
        "Post_Office": "Kota Kinabalu",
        "State": "Sabah"
    },
    {
        "Postcode": "88450",
        "Location": "Lorong Telipok Jaya 3A",
        "Post_Office": "Kota Kinabalu",
        "State": "Sabah"
    },
    {
        "Postcode": "88450",
        "Location": "Lorong Wijaya Park 1",
        "Post_Office": "Kota Kinabalu",
        "State": "Sabah"
    },
    {
        "Postcode": "88450",
        "Location": "Lorong Wijaya Park 2",
        "Post_Office": "Kota Kinabalu",
        "State": "Sabah"
    },
    {
        "Postcode": "88450",
        "Location": "Lorong Wijaya Park 3",
        "Post_Office": "Kota Kinabalu",
        "State": "Sabah"
    },
    {
        "Postcode": "88450",
        "Location": "Lorong Wijaya Park 4",
        "Post_Office": "Kota Kinabalu",
        "State": "Sabah"
    },
    {
        "Postcode": "88450",
        "Location": "Lorong Wijaya Park 5",
        "Post_Office": "Kota Kinabalu",
        "State": "Sabah"
    },
    {
        "Postcode": "88450",
        "Location": "Lorong Wijaya Park 6",
        "Post_Office": "Kota Kinabalu",
        "State": "Sabah"
    },
    {
        "Postcode": "88450",
        "Location": "Perkampungan Baru Inanam 1",
        "Post_Office": "Kota Kinabalu",
        "State": "Sabah"
    },
    {
        "Postcode": "88450",
        "Location": "Perkampungan Baru Inanam 2",
        "Post_Office": "Kota Kinabalu",
        "State": "Sabah"
    },
    {
        "Postcode": "88450",
        "Location": "Perkampungan Baru Inanam 3",
        "Post_Office": "Kota Kinabalu",
        "State": "Sabah"
    },
    {
        "Postcode": "88450",
        "Location": "Perkampungan Baru Inanam 4",
        "Post_Office": "Kota Kinabalu",
        "State": "Sabah"
    },
    {
        "Postcode": "88450",
        "Location": "Perkampungan Baru Inanam 5",
        "Post_Office": "Kota Kinabalu",
        "State": "Sabah"
    },
    {
        "Postcode": "88450",
        "Location": "Taman Kuala Menggatal 1",
        "Post_Office": "Kota Kinabalu",
        "State": "Sabah"
    },
    {
        "Postcode": "88450",
        "Location": "Taman Kuala Menggatal 2",
        "Post_Office": "Kota Kinabalu",
        "State": "Sabah"
    },
    {
        "Postcode": "88450",
        "Location": "1 Borneo",
        "Post_Office": "Kota Kinabalu",
        "State": "Sabah"
    },
    {
        "Postcode": "88450",
        "Location": "Bandar  Sieera Ph 1A",
        "Post_Office": "Kota Kinabalu",
        "State": "Sabah"
    },
    {
        "Postcode": "88450",
        "Location": "Bandar  Sieera Ph 1B",
        "Post_Office": "Kota Kinabalu",
        "State": "Sabah"
    },
    {
        "Postcode": "88450",
        "Location": "Bandar  Sieera Ph 1A",
        "Post_Office": "Kota Kinabalu",
        "State": "Sabah"
    },
    {
        "Postcode": "88450",
        "Location": "Bandar  Sieera Ph 1B",
        "Post_Office": "Kota Kinabalu",
        "State": "Sabah"
    },
    {
        "Postcode": "88450",
        "Location": "Chi Chi Industri Estate",
        "Post_Office": "Kota Kinabalu",
        "State": "Sabah"
    },
    {
        "Postcode": "88450",
        "Location": "Daita Industri",
        "Post_Office": "Kota Kinabalu",
        "State": "Sabah"
    },
    {
        "Postcode": "88450",
        "Location": "Delta Industrian Centre",
        "Post_Office": "Kota Kinabalu",
        "State": "Sabah"
    },
    {
        "Postcode": "88450",
        "Location": "Hai Oh Industrial Estate",
        "Post_Office": "Kota Kinabalu",
        "State": "Sabah"
    },
    {
        "Postcode": "88450",
        "Location": "Harmony Industri Estate",
        "Post_Office": "Kota Kinabalu",
        "State": "Sabah"
    },
    {
        "Postcode": "88450",
        "Location": "Hing Industri Estate",
        "Post_Office": "Kota Kinabalu",
        "State": "Sabah"
    },
    {
        "Postcode": "88450",
        "Location": "Hiong Tiong Industri",
        "Post_Office": "Kota Kinabalu",
        "State": "Sabah"
    },
    {
        "Postcode": "88450",
        "Location": "Hjm Industrial Estate",
        "Post_Office": "Kota Kinabalu",
        "State": "Sabah"
    },
    {
        "Postcode": "88450",
        "Location": "Hsk Industri Estate",
        "Post_Office": "Kota Kinabalu",
        "State": "Sabah"
    },
    {
        "Postcode": "88450",
        "Location": "Hsk Industrial Estate",
        "Post_Office": "Kota Kinabalu",
        "State": "Sabah"
    },
    {
        "Postcode": "88450",
        "Location": "Inanam",
        "Post_Office": "Kota Kinabalu",
        "State": "Sabah"
    },
    {
        "Postcode": "88450",
        "Location": "Inanam Baru Industrial (0094)",
        "Post_Office": "Kota Kinabalu",
        "State": "Sabah"
    },
    {
        "Postcode": "88450",
        "Location": "Inanam Business Centre",
        "Post_Office": "Kota Kinabalu",
        "State": "Sabah"
    },
    {
        "Postcode": "88450",
        "Location": "Inanam Commercial Center",
        "Post_Office": "Kota Kinabalu",
        "State": "Sabah"
    },
    {
        "Postcode": "88450",
        "Location": "Inanam Jaya",
        "Post_Office": "Kota Kinabalu",
        "State": "Sabah"
    },
    {
        "Postcode": "88450",
        "Location": "Interstate Center",
        "Post_Office": "Kota Kinabalu",
        "State": "Sabah"
    },
    {
        "Postcode": "88450",
        "Location": "Jabatan Pengairan Dan Saliran Sabah",
        "Post_Office": "Kota Kinabalu",
        "State": "Sabah"
    },
    {
        "Postcode": "88450",
        "Location": "Jabatan Pertanian Sabah",
        "Post_Office": "Kota Kinabalu",
        "State": "Sabah"
    },
    {
        "Postcode": "88450",
        "Location": "Jalan Bambangan",
        "Post_Office": "Kota Kinabalu",
        "State": "Sabah"
    },
    {
        "Postcode": "88450",
        "Location": "Jalan Bolukun",
        "Post_Office": "Kota Kinabalu",
        "State": "Sabah"
    },
    {
        "Postcode": "88450",
        "Location": "Jalan Buah Duku",
        "Post_Office": "Kota Kinabalu",
        "State": "Sabah"
    },
    {
        "Postcode": "88450",
        "Location": "Jalan Cenderawasi",
        "Post_Office": "Kota Kinabalu",
        "State": "Sabah"
    },
    {
        "Postcode": "88450",
        "Location": "Jalan Gudon",
        "Post_Office": "Kota Kinabalu",
        "State": "Sabah"
    },
    {
        "Postcode": "88450",
        "Location": "Jalan Kampung Inanam Laut",
        "Post_Office": "Kota Kinabalu",
        "State": "Sabah"
    },
    {
        "Postcode": "88450",
        "Location": "Jalan Kampung Sukang",
        "Post_Office": "Kota Kinabalu",
        "State": "Sabah"
    },
    {
        "Postcode": "88450",
        "Location": "Jalan Keluang Bantayan",
        "Post_Office": "Kota Kinabalu",
        "State": "Sabah"
    },
    {
        "Postcode": "88450",
        "Location": "Jalan Kilang",
        "Post_Office": "Kota Kinabalu",
        "State": "Sabah"
    },
    {
        "Postcode": "88450",
        "Location": "Jalan Kionsom",
        "Post_Office": "Kota Kinabalu",
        "State": "Sabah"
    },
    {
        "Postcode": "88450",
        "Location": "Jalan Kolombong",
        "Post_Office": "Kota Kinabalu",
        "State": "Sabah"
    },
    {
        "Postcode": "88450",
        "Location": "Jalan Limau Manis",
        "Post_Office": "Kota Kinabalu",
        "State": "Sabah"
    },
    {
        "Postcode": "88450",
        "Location": "Jalan Lintas Inanam",
        "Post_Office": "Kota Kinabalu",
        "State": "Sabah"
    },
    {
        "Postcode": "88450",
        "Location": "Jalan Maakat",
        "Post_Office": "Kota Kinabalu",
        "State": "Sabah"
    },
    {
        "Postcode": "88450",
        "Location": "Jalan Mangga",
        "Post_Office": "Kota Kinabalu",
        "State": "Sabah"
    },
    {
        "Postcode": "88450",
        "Location": "Jalan Nounton",
        "Post_Office": "Kota Kinabalu",
        "State": "Sabah"
    },
    {
        "Postcode": "88450",
        "Location": "Jalan Pekan Baru Inanam",
        "Post_Office": "Kota Kinabalu",
        "State": "Sabah"
    },
    {
        "Postcode": "88450",
        "Location": "Jalan Rama-Rama",
        "Post_Office": "Kota Kinabalu",
        "State": "Sabah"
    },
    {
        "Postcode": "88450",
        "Location": "Jalan Rampayan",
        "Post_Office": "Kota Kinabalu",
        "State": "Sabah"
    },
    {
        "Postcode": "88450",
        "Location": "Jalan Sepagar",
        "Post_Office": "Kota Kinabalu",
        "State": "Sabah"
    },
    {
        "Postcode": "88450",
        "Location": "Jalan Sibu-Sibu",
        "Post_Office": "Kota Kinabalu",
        "State": "Sabah"
    },
    {
        "Postcode": "88450",
        "Location": "Jalan Sinulihan",
        "Post_Office": "Kota Kinabalu",
        "State": "Sabah"
    },
    {
        "Postcode": "88450",
        "Location": "Jalan Sk Lok Yuk",
        "Post_Office": "Kota Kinabalu",
        "State": "Sabah"
    },
    {
        "Postcode": "88450",
        "Location": "Jalan Sulaman",
        "Post_Office": "Kota Kinabalu",
        "State": "Sabah"
    },
    {
        "Postcode": "88450",
        "Location": "Taman Kuala Menggatal 3",
        "Post_Office": "Kota Kinabalu",
        "State": "Sabah"
    },
    {
        "Postcode": "88450",
        "Location": "Taman Puri Saujana 1",
        "Post_Office": "Kota Kinabalu",
        "State": "Sabah"
    },
    {
        "Postcode": "88450",
        "Location": "Taman Puri Saujana 2",
        "Post_Office": "Kota Kinabalu",
        "State": "Sabah"
    },
    {
        "Postcode": "88450",
        "Location": "Jalan Bakau",
        "Post_Office": "Kota Kinabalu",
        "State": "Sabah"
    },
    {
        "Postcode": "88450",
        "Location": "Jalan Banjaran",
        "Post_Office": "Kota Kinabalu",
        "State": "Sabah"
    },
    {
        "Postcode": "88450",
        "Location": "Wisma Gaya",
        "Post_Office": "Kota Kinabalu",
        "State": "Sabah"
    },
    {
        "Postcode": "88450",
        "Location": "Jalan Taman Inanam",
        "Post_Office": "Kota Kinabalu",
        "State": "Sabah"
    },
    {
        "Postcode": "88450",
        "Location": "Jalan Telipok - Tuaran",
        "Post_Office": "Kota Kinabalu",
        "State": "Sabah"
    },
    {
        "Postcode": "88450",
        "Location": "Jalan Teluk Sepagar",
        "Post_Office": "Kota Kinabalu",
        "State": "Sabah"
    },
    {
        "Postcode": "88450",
        "Location": "Jalan Tiong Bantayan",
        "Post_Office": "Kota Kinabalu",
        "State": "Sabah"
    },
    {
        "Postcode": "88450",
        "Location": "Jalan Tongkuzu",
        "Post_Office": "Kota Kinabalu",
        "State": "Sabah"
    },
    {
        "Postcode": "88450",
        "Location": "Jalan Tuaran By Pass",
        "Post_Office": "Kota Kinabalu",
        "State": "Sabah"
    },
    {
        "Postcode": "88450",
        "Location": "Jalan Undan",
        "Post_Office": "Kota Kinabalu",
        "State": "Sabah"
    },
    {
        "Postcode": "88450",
        "Location": "Jalan Wijaya Park",
        "Post_Office": "Kota Kinabalu",
        "State": "Sabah"
    },
    {
        "Postcode": "88450",
        "Location": "Kampung Darau",
        "Post_Office": "Kota Kinabalu",
        "State": "Sabah"
    },
    {
        "Postcode": "88450",
        "Location": "Kampung Gudon",
        "Post_Office": "Kota Kinabalu",
        "State": "Sabah"
    },
    {
        "Postcode": "88450",
        "Location": "Kampung Labau",
        "Post_Office": "Kota Kinabalu",
        "State": "Sabah"
    },
    {
        "Postcode": "88450",
        "Location": "Kampung Lokub",
        "Post_Office": "Kota Kinabalu",
        "State": "Sabah"
    },
    {
        "Postcode": "88450",
        "Location": "Kampung Menggorok",
        "Post_Office": "Kota Kinabalu",
        "State": "Sabah"
    },
    {
        "Postcode": "88450",
        "Location": "Kampung Nunton",
        "Post_Office": "Kota Kinabalu",
        "State": "Sabah"
    },
    {
        "Postcode": "88450",
        "Location": "Kampung Rampayan",
        "Post_Office": "Kota Kinabalu",
        "State": "Sabah"
    },
    {
        "Postcode": "88450",
        "Location": "Kampung Ratau",
        "Post_Office": "Kota Kinabalu",
        "State": "Sabah"
    },
    {
        "Postcode": "88450",
        "Location": "Kampung Tobobon",
        "Post_Office": "Kota Kinabalu",
        "State": "Sabah"
    },
    {
        "Postcode": "88450",
        "Location": "Kampung Unggun Jaya",
        "Post_Office": "Kota Kinabalu",
        "State": "Sabah"
    },
    {
        "Postcode": "88450",
        "Location": "Kampung Warisan (Lorong 1-12)",
        "Post_Office": "Kota Kinabalu",
        "State": "Sabah"
    },
    {
        "Postcode": "88450",
        "Location": "Kelombong Industrial Estate",
        "Post_Office": "Kota Kinabalu",
        "State": "Sabah"
    },
    {
        "Postcode": "88450",
        "Location": "Kian Yap Industri",
        "Post_Office": "Kota Kinabalu",
        "State": "Sabah"
    },
    {
        "Postcode": "88450",
        "Location": "Kinapalas Industri",
        "Post_Office": "Kota Kinabalu",
        "State": "Sabah"
    },
    {
        "Postcode": "88450",
        "Location": "Kinapar Industrial Estate",
        "Post_Office": "Kota Kinabalu",
        "State": "Sabah"
    },
    {
        "Postcode": "88450",
        "Location": "Kingfisher Plan Home",
        "Post_Office": "Kota Kinabalu",
        "State": "Sabah"
    },
    {
        "Postcode": "88450",
        "Location": "Kionsom Country Height",
        "Post_Office": "Kota Kinabalu",
        "State": "Sabah"
    },
    {
        "Postcode": "88450",
        "Location": "Lembaga Pelabuhan Teluk Sepagar",
        "Post_Office": "Kota Kinabalu",
        "State": "Sabah"
    },
    {
        "Postcode": "88450",
        "Location": "Lian Seng Industri",
        "Post_Office": "Kota Kinabalu",
        "State": "Sabah"
    },
    {
        "Postcode": "88450",
        "Location": "Light Industri",
        "Post_Office": "Kota Kinabalu",
        "State": "Sabah"
    },
    {
        "Postcode": "88450",
        "Location": "Likas Industrial Estate",
        "Post_Office": "Kota Kinabalu",
        "State": "Sabah"
    },
    {
        "Postcode": "88450",
        "Location": "Lorong Anggur",
        "Post_Office": "Kota Kinabalu",
        "State": "Sabah"
    },
    {
        "Postcode": "88450",
        "Location": "Lorong Bambak Bantayan",
        "Post_Office": "Kota Kinabalu",
        "State": "Sabah"
    },
    {
        "Postcode": "88450",
        "Location": "Lorong Bandaran Kionsom",
        "Post_Office": "Kota Kinabalu",
        "State": "Sabah"
    },
    {
        "Postcode": "88450",
        "Location": "Lorong Bangau Bantayan",
        "Post_Office": "Kota Kinabalu",
        "State": "Sabah"
    },
    {
        "Postcode": "88450",
        "Location": "Lorong Bayan",
        "Post_Office": "Kota Kinabalu",
        "State": "Sabah"
    },
    {
        "Postcode": "88450",
        "Location": "Lorong Belimbing",
        "Post_Office": "Kota Kinabalu",
        "State": "Sabah"
    },
    {
        "Postcode": "88450",
        "Location": "Lorong Belimbing Delima",
        "Post_Office": "Kota Kinabalu",
        "State": "Sabah"
    },
    {
        "Postcode": "88450",
        "Location": "Lorong Binjai",
        "Post_Office": "Kota Kinabalu",
        "State": "Sabah"
    },
    {
        "Postcode": "88450",
        "Location": "Lorong Buah Betik",
        "Post_Office": "Kota Kinabalu",
        "State": "Sabah"
    },
    {
        "Postcode": "88450",
        "Location": "Lorong Buah Keras",
        "Post_Office": "Kota Kinabalu",
        "State": "Sabah"
    },
    {
        "Postcode": "88450",
        "Location": "Lorong Buah Pala",
        "Post_Office": "Kota Kinabalu",
        "State": "Sabah"
    },
    {
        "Postcode": "88450",
        "Location": "Lorong Buah Pinang",
        "Post_Office": "Kota Kinabalu",
        "State": "Sabah"
    },
    {
        "Postcode": "88450",
        "Location": "Lorong Buah Sukun",
        "Post_Office": "Kota Kinabalu",
        "State": "Sabah"
    },
    {
        "Postcode": "88450",
        "Location": "Lorong Buah Tamanic",
        "Post_Office": "Kota Kinabalu",
        "State": "Sabah"
    },
    {
        "Postcode": "88450",
        "Location": "Lorong Bukit Sepagar",
        "Post_Office": "Kota Kinabalu",
        "State": "Sabah"
    },
    {
        "Postcode": "88450",
        "Location": "Lorong Burung Keleto",
        "Post_Office": "Kota Kinabalu",
        "State": "Sabah"
    },
    {
        "Postcode": "88450",
        "Location": "Lorong Burung Pimping",
        "Post_Office": "Kota Kinabalu",
        "State": "Sabah"
    },
    {
        "Postcode": "88450",
        "Location": "Lorong Ceri",
        "Post_Office": "Kota Kinabalu",
        "State": "Sabah"
    },
    {
        "Postcode": "88450",
        "Location": "Lorong Cermai",
        "Post_Office": "Kota Kinabalu",
        "State": "Sabah"
    },
    {
        "Postcode": "88450",
        "Location": "Lorong Durian",
        "Post_Office": "Kota Kinabalu",
        "State": "Sabah"
    },
    {
        "Postcode": "88450",
        "Location": "Lorong Geganti",
        "Post_Office": "Kota Kinabalu",
        "State": "Sabah"
    },
    {
        "Postcode": "88450",
        "Location": "Lorong Gipan",
        "Post_Office": "Kota Kinabalu",
        "State": "Sabah"
    },
    {
        "Postcode": "88450",
        "Location": "Lorong Inanam Baru",
        "Post_Office": "Kota Kinabalu",
        "State": "Sabah"
    },
    {
        "Postcode": "88450",
        "Location": "Lorong Inanam Laut",
        "Post_Office": "Kota Kinabalu",
        "State": "Sabah"
    },
    {
        "Postcode": "88450",
        "Location": "Lorong Indah Permai",
        "Post_Office": "Kota Kinabalu",
        "State": "Sabah"
    },
    {
        "Postcode": "88450",
        "Location": "Lorong Industri Ringan",
        "Post_Office": "Kota Kinabalu",
        "State": "Sabah"
    },
    {
        "Postcode": "88450",
        "Location": "Lorong Industri Warisan",
        "Post_Office": "Kota Kinabalu",
        "State": "Sabah"
    },
    {
        "Postcode": "88450",
        "Location": "Lorong Jambu Susu",
        "Post_Office": "Kota Kinabalu",
        "State": "Sabah"
    },
    {
        "Postcode": "88450",
        "Location": "Lorong Janjang",
        "Post_Office": "Kota Kinabalu",
        "State": "Sabah"
    },
    {
        "Postcode": "88450",
        "Location": "Lorong Kacang Tanah",
        "Post_Office": "Kota Kinabalu",
        "State": "Sabah"
    },
    {
        "Postcode": "88450",
        "Location": "Lorong Kelapa",
        "Post_Office": "Kota Kinabalu",
        "State": "Sabah"
    },
    {
        "Postcode": "88450",
        "Location": "Lorong Kelip-Kelip",
        "Post_Office": "Kota Kinabalu",
        "State": "Sabah"
    },
    {
        "Postcode": "88450",
        "Location": "Lorong Kengkuit",
        "Post_Office": "Kota Kinabalu",
        "State": "Sabah"
    },
    {
        "Postcode": "88450",
        "Location": "Lorong Kma",
        "Post_Office": "Kota Kinabalu",
        "State": "Sabah"
    },
    {
        "Postcode": "88450",
        "Location": "Lorong Kumbang",
        "Post_Office": "Kota Kinabalu",
        "State": "Sabah"
    },
    {
        "Postcode": "88450",
        "Location": "Lorong Kupu-Kupu",
        "Post_Office": "Kota Kinabalu",
        "State": "Sabah"
    },
    {
        "Postcode": "88450",
        "Location": "Lorong Kurma",
        "Post_Office": "Kota Kinabalu",
        "State": "Sabah"
    },
    {
        "Postcode": "88450",
        "Location": "Lorong Lama",
        "Post_Office": "Kota Kinabalu",
        "State": "Sabah"
    },
    {
        "Postcode": "88450",
        "Location": "Lorong Landing",
        "Post_Office": "Kota Kinabalu",
        "State": "Sabah"
    },
    {
        "Postcode": "88450",
        "Location": "Lorong Langgat",
        "Post_Office": "Kota Kinabalu",
        "State": "Sabah"
    },
    {
        "Postcode": "88450",
        "Location": "Lorong Laut Bantayan",
        "Post_Office": "Kota Kinabalu",
        "State": "Sabah"
    },
    {
        "Postcode": "88450",
        "Location": "Lorong Layang-Layang",
        "Post_Office": "Kota Kinabalu",
        "State": "Sabah"
    },
    {
        "Postcode": "88450",
        "Location": "Lorong Lebah",
        "Post_Office": "Kota Kinabalu",
        "State": "Sabah"
    },
    {
        "Postcode": "88450",
        "Location": "Lorong Limau",
        "Post_Office": "Kota Kinabalu",
        "State": "Sabah"
    },
    {
        "Postcode": "88450",
        "Location": "Lorong Limau Manis",
        "Post_Office": "Kota Kinabalu",
        "State": "Sabah"
    },
    {
        "Postcode": "88450",
        "Location": "Lorong Manggis",
        "Post_Office": "Kota Kinabalu",
        "State": "Sabah"
    },
    {
        "Postcode": "88450",
        "Location": "Lorong Mansiang",
        "Post_Office": "Kota Kinabalu",
        "State": "Sabah"
    },
    {
        "Postcode": "88450",
        "Location": "Lorong Mansing 1",
        "Post_Office": "Kota Kinabalu",
        "State": "Sabah"
    },
    {
        "Postcode": "88450",
        "Location": "Lorong Medan",
        "Post_Office": "Kota Kinabalu",
        "State": "Sabah"
    },
    {
        "Postcode": "88450",
        "Location": "Lorong Mega",
        "Post_Office": "Kota Kinabalu",
        "State": "Sabah"
    },
    {
        "Postcode": "88450",
        "Location": "Lorong Mega 1",
        "Post_Office": "Kota Kinabalu",
        "State": "Sabah"
    },
    {
        "Postcode": "88450",
        "Location": "Lorong Mega 2",
        "Post_Office": "Kota Kinabalu",
        "State": "Sabah"
    },
    {
        "Postcode": "88450",
        "Location": "Lorong Mempalam",
        "Post_Office": "Kota Kinabalu",
        "State": "Sabah"
    },
    {
        "Postcode": "88450",
        "Location": "Lorong Minyak",
        "Post_Office": "Kota Kinabalu",
        "State": "Sabah"
    },
    {
        "Postcode": "88450",
        "Location": "Lorong Murni",
        "Post_Office": "Kota Kinabalu",
        "State": "Sabah"
    },
    {
        "Postcode": "88450",
        "Location": "Lorong Nounton",
        "Post_Office": "Kota Kinabalu",
        "State": "Sabah"
    },
    {
        "Postcode": "88450",
        "Location": "Lorong Palma",
        "Post_Office": "Kota Kinabalu",
        "State": "Sabah"
    },
    {
        "Postcode": "88450",
        "Location": "Lorong Pekan Baru Inanam",
        "Post_Office": "Kota Kinabalu",
        "State": "Sabah"
    },
    {
        "Postcode": "88450",
        "Location": "Lorong Pelam",
        "Post_Office": "Kota Kinabalu",
        "State": "Sabah"
    },
    {
        "Postcode": "88450",
        "Location": "Lorong Pelam 1",
        "Post_Office": "Kota Kinabalu",
        "State": "Sabah"
    },
    {
        "Postcode": "88450",
        "Location": "Lorong Permai",
        "Post_Office": "Kota Kinabalu",
        "State": "Sabah"
    },
    {
        "Postcode": "88450",
        "Location": "Lorong Pic",
        "Post_Office": "Kota Kinabalu",
        "State": "Sabah"
    },
    {
        "Postcode": "88450",
        "Location": "Lorong Pisang",
        "Post_Office": "Kota Kinabalu",
        "State": "Sabah"
    },
    {
        "Postcode": "88450",
        "Location": "Lorong Raja Udang",
        "Post_Office": "Kota Kinabalu",
        "State": "Sabah"
    },
    {
        "Postcode": "88450",
        "Location": "Lorong Rambutan",
        "Post_Office": "Kota Kinabalu",
        "State": "Sabah"
    },
    {
        "Postcode": "88450",
        "Location": "Lorong Sampah",
        "Post_Office": "Kota Kinabalu",
        "State": "Sabah"
    },
    {
        "Postcode": "88450",
        "Location": "Lorong Sang Suria",
        "Post_Office": "Kota Kinabalu",
        "State": "Sabah"
    },
    {
        "Postcode": "88450",
        "Location": "Lorong Seri Indah",
        "Post_Office": "Kota Kinabalu",
        "State": "Sabah"
    },
    {
        "Postcode": "88450",
        "Location": "Lorong Seri Maju",
        "Post_Office": "Kota Kinabalu",
        "State": "Sabah"
    },
    {
        "Postcode": "88450",
        "Location": "Lorong Sibu",
        "Post_Office": "Kota Kinabalu",
        "State": "Sabah"
    },
    {
        "Postcode": "88450",
        "Location": "Lorong Sri Baru",
        "Post_Office": "Kota Kinabalu",
        "State": "Sabah"
    },
    {
        "Postcode": "88450",
        "Location": "Lorong Sri Kelombong",
        "Post_Office": "Kota Kinabalu",
        "State": "Sabah"
    },
    {
        "Postcode": "88450",
        "Location": "Lorong Sungai Inanam",
        "Post_Office": "Kota Kinabalu",
        "State": "Sabah"
    },
    {
        "Postcode": "88450",
        "Location": "Lorong Suria",
        "Post_Office": "Kota Kinabalu",
        "State": "Sabah"
    },
    {
        "Postcode": "88450",
        "Location": "Lorong Telipok Jaya",
        "Post_Office": "Kota Kinabalu",
        "State": "Sabah"
    },
    {
        "Postcode": "88450",
        "Location": "Lorong Tembikai",
        "Post_Office": "Kota Kinabalu",
        "State": "Sabah"
    },
    {
        "Postcode": "88450",
        "Location": "Lorong Terap 2",
        "Post_Office": "Kota Kinabalu",
        "State": "Sabah"
    },
    {
        "Postcode": "88450",
        "Location": "Lorong Tomato",
        "Post_Office": "Kota Kinabalu",
        "State": "Sabah"
    },
    {
        "Postcode": "88450",
        "Location": "Lorong Tongkuzu",
        "Post_Office": "Kota Kinabalu",
        "State": "Sabah"
    },
    {
        "Postcode": "88450",
        "Location": "Mardi",
        "Post_Office": "Kota Kinabalu",
        "State": "Sabah"
    },
    {
        "Postcode": "88450",
        "Location": "Melawa Count",
        "Post_Office": "Kota Kinabalu",
        "State": "Sabah"
    },
    {
        "Postcode": "88450",
        "Location": "Menara Tun Mustapha",
        "Post_Office": "Kota Kinabalu",
        "State": "Sabah"
    },
    {
        "Postcode": "88450",
        "Location": "Menggatal",
        "Post_Office": "Kota Kinabalu",
        "State": "Sabah"
    },
    {
        "Postcode": "88450",
        "Location": "Ngee Lim Industri",
        "Post_Office": "Kota Kinabalu",
        "State": "Sabah"
    },
    {
        "Postcode": "88450",
        "Location": "Paramount Industri",
        "Post_Office": "Kota Kinabalu",
        "State": "Sabah"
    },
    {
        "Postcode": "88450",
        "Location": "Perindustrian Sri Inanam 13",
        "Post_Office": "Kota Kinabalu",
        "State": "Sabah"
    },
    {
        "Postcode": "88450",
        "Location": "Perumahan Sesb Melawa",
        "Post_Office": "Kota Kinabalu",
        "State": "Sabah"
    },
    {
        "Postcode": "88450",
        "Location": "Pusat Perindustrian Jaya",
        "Post_Office": "Kota Kinabalu",
        "State": "Sabah"
    },
    {
        "Postcode": "88450",
        "Location": "Pusat Perindustrian Suria",
        "Post_Office": "Kota Kinabalu",
        "State": "Sabah"
    },
    {
        "Postcode": "88450",
        "Location": "S.L. Industri Estate",
        "Post_Office": "Kota Kinabalu",
        "State": "Sabah"
    },
    {
        "Postcode": "88450",
        "Location": "Seludang Industri Estate",
        "Post_Office": "Kota Kinabalu",
        "State": "Sabah"
    },
    {
        "Postcode": "88450",
        "Location": "Si Khiong Industri",
        "Post_Office": "Kota Kinabalu",
        "State": "Sabah"
    },
    {
        "Postcode": "88450",
        "Location": "Sinar Industrial Estate",
        "Post_Office": "Kota Kinabalu",
        "State": "Sabah"
    },
    {
        "Postcode": "88450",
        "Location": "Skim Penempatan Telipok",
        "Post_Office": "Kota Kinabalu",
        "State": "Sabah"
    },
    {
        "Postcode": "88450",
        "Location": "Sri Kemajuan Industri Estate",
        "Post_Office": "Kota Kinabalu",
        "State": "Sabah"
    },
    {
        "Postcode": "88450",
        "Location": "Sri Warisan Light Industri",
        "Post_Office": "Kota Kinabalu",
        "State": "Sabah"
    },
    {
        "Postcode": "88450",
        "Location": "Sulaman Central",
        "Post_Office": "Kota Kinabalu",
        "State": "Sabah"
    },
    {
        "Postcode": "88450",
        "Location": "Suria Industri Park",
        "Post_Office": "Kota Kinabalu",
        "State": "Sabah"
    },
    {
        "Postcode": "88450",
        "Location": "Taman Angsana",
        "Post_Office": "Kota Kinabalu",
        "State": "Sabah"
    },
    {
        "Postcode": "88450",
        "Location": "Taman Bakti Ikhlas",
        "Post_Office": "Kota Kinabalu",
        "State": "Sabah"
    },
    {
        "Postcode": "88450",
        "Location": "Taman Bukit Sepagar",
        "Post_Office": "Kota Kinabalu",
        "State": "Sabah"
    },
    {
        "Postcode": "88450",
        "Location": "Taman Bukit Setia",
        "Post_Office": "Kota Kinabalu",
        "State": "Sabah"
    },
    {
        "Postcode": "88450",
        "Location": "Taman Canggih",
        "Post_Office": "Kota Kinabalu",
        "State": "Sabah"
    },
    {
        "Postcode": "88450",
        "Location": "Taman Cerah",
        "Post_Office": "Kota Kinabalu",
        "State": "Sabah"
    },
    {
        "Postcode": "88450",
        "Location": "Taman Dai Ming Baru",
        "Post_Office": "Kota Kinabalu",
        "State": "Sabah"
    },
    {
        "Postcode": "88450",
        "Location": "Taman Fajar",
        "Post_Office": "Kota Kinabalu",
        "State": "Sabah"
    },
    {
        "Postcode": "88450",
        "Location": "Taman Flamingo",
        "Post_Office": "Kota Kinabalu",
        "State": "Sabah"
    },
    {
        "Postcode": "88450",
        "Location": "Taman Fulliwa",
        "Post_Office": "Kota Kinabalu",
        "State": "Sabah"
    },
    {
        "Postcode": "88450",
        "Location": "Taman Harmoni",
        "Post_Office": "Kota Kinabalu",
        "State": "Sabah"
    },
    {
        "Postcode": "88450",
        "Location": "Taman Hartamas",
        "Post_Office": "Kota Kinabalu",
        "State": "Sabah"
    },
    {
        "Postcode": "88450",
        "Location": "Taman Inanam",
        "Post_Office": "Kota Kinabalu",
        "State": "Sabah"
    },
    {
        "Postcode": "88450",
        "Location": "Taman Inanam Baru",
        "Post_Office": "Kota Kinabalu",
        "State": "Sabah"
    },
    {
        "Postcode": "88450",
        "Location": "Taman Inanam Laut Phase 1",
        "Post_Office": "Kota Kinabalu",
        "State": "Sabah"
    },
    {
        "Postcode": "88450",
        "Location": "Taman Inanam Villa",
        "Post_Office": "Kota Kinabalu",
        "State": "Sabah"
    },
    {
        "Postcode": "88450",
        "Location": "Taman Indah Permai",
        "Post_Office": "Kota Kinabalu",
        "State": "Sabah"
    },
    {
        "Postcode": "88450",
        "Location": "Taman Jaya Diri",
        "Post_Office": "Kota Kinabalu",
        "State": "Sabah"
    },
    {
        "Postcode": "88450",
        "Location": "Taman Jaya Usaha",
        "Post_Office": "Kota Kinabalu",
        "State": "Sabah"
    },
    {
        "Postcode": "88450",
        "Location": "Taman Judy",
        "Post_Office": "Kota Kinabalu",
        "State": "Sabah"
    },
    {
        "Postcode": "88450",
        "Location": "Taman K. Menggatal",
        "Post_Office": "Kota Kinabalu",
        "State": "Sabah"
    },
    {
        "Postcode": "88450",
        "Location": "Taman Kemas",
        "Post_Office": "Kota Kinabalu",
        "State": "Sabah"
    },
    {
        "Postcode": "88450",
        "Location": "Taman King Fisher",
        "Post_Office": "Kota Kinabalu",
        "State": "Sabah"
    },
    {
        "Postcode": "88450",
        "Location": "Taman Kingfisher Sulaman Ph 1",
        "Post_Office": "Kota Kinabalu",
        "State": "Sabah"
    },
    {
        "Postcode": "88450",
        "Location": "Taman Kionsom Jaya",
        "Post_Office": "Kota Kinabalu",
        "State": "Sabah"
    },
    {
        "Postcode": "88450",
        "Location": "Taman Kolombung",
        "Post_Office": "Kota Kinabalu",
        "State": "Sabah"
    },
    {
        "Postcode": "88450",
        "Location": "Taman Kopek",
        "Post_Office": "Kota Kinabalu",
        "State": "Sabah"
    },
    {
        "Postcode": "88450",
        "Location": "Taman Langkah",
        "Post_Office": "Kota Kinabalu",
        "State": "Sabah"
    },
    {
        "Postcode": "88450",
        "Location": "Taman Lifo",
        "Post_Office": "Kota Kinabalu",
        "State": "Sabah"
    },
    {
        "Postcode": "88450",
        "Location": "Taman Mansiang",
        "Post_Office": "Kota Kinabalu",
        "State": "Sabah"
    },
    {
        "Postcode": "88450",
        "Location": "Taman May May",
        "Post_Office": "Kota Kinabalu",
        "State": "Sabah"
    },
    {
        "Postcode": "88450",
        "Location": "Taman Mega",
        "Post_Office": "Kota Kinabalu",
        "State": "Sabah"
    },
    {
        "Postcode": "88450",
        "Location": "Taman Melawa Jaya",
        "Post_Office": "Kota Kinabalu",
        "State": "Sabah"
    },
    {
        "Postcode": "88450",
        "Location": "Taman Menggatal",
        "Post_Office": "Kota Kinabalu",
        "State": "Sabah"
    },
    {
        "Postcode": "88450",
        "Location": "Taman Menggatal Villa",
        "Post_Office": "Kota Kinabalu",
        "State": "Sabah"
    },
    {
        "Postcode": "88450",
        "Location": "Taman Mewah",
        "Post_Office": "Kota Kinabalu",
        "State": "Sabah"
    },
    {
        "Postcode": "88450",
        "Location": "Taman Murni",
        "Post_Office": "Kota Kinabalu",
        "State": "Sabah"
    },
    {
        "Postcode": "88450",
        "Location": "Taman Nelly",
        "Post_Office": "Kota Kinabalu",
        "State": "Sabah"
    },
    {
        "Postcode": "88450",
        "Location": "Taman Nelly Ph. 9",
        "Post_Office": "Kota Kinabalu",
        "State": "Sabah"
    },
    {
        "Postcode": "88450",
        "Location": "Taman Nounton",
        "Post_Office": "Kota Kinabalu",
        "State": "Sabah"
    },
    {
        "Postcode": "88450",
        "Location": "Taman Palma",
        "Post_Office": "Kota Kinabalu",
        "State": "Sabah"
    },
    {
        "Postcode": "88450",
        "Location": "Taman Palma Rasa",
        "Post_Office": "Kota Kinabalu",
        "State": "Sabah"
    },
    {
        "Postcode": "88450",
        "Location": "Taman Perindustrian Moden",
        "Post_Office": "Kota Kinabalu",
        "State": "Sabah"
    },
    {
        "Postcode": "88450",
        "Location": "Taman Permai",
        "Post_Office": "Kota Kinabalu",
        "State": "Sabah"
    },
    {
        "Postcode": "88450",
        "Location": "Taman Permata",
        "Post_Office": "Kota Kinabalu",
        "State": "Sabah"
    },
    {
        "Postcode": "88450",
        "Location": "Taman Puri Saujana 3",
        "Post_Office": "Kota Kinabalu",
        "State": "Sabah"
    },
    {
        "Postcode": "88450",
        "Location": "Taman Putera Perdana",
        "Post_Office": "Kota Kinabalu",
        "State": "Sabah"
    },
    {
        "Postcode": "88450",
        "Location": "Taman Putra Jaya",
        "Post_Office": "Kota Kinabalu",
        "State": "Sabah"
    },
    {
        "Postcode": "88450",
        "Location": "Taman Riang",
        "Post_Office": "Kota Kinabalu",
        "State": "Sabah"
    },
    {
        "Postcode": "88450",
        "Location": "Taman Richdar",
        "Post_Office": "Kota Kinabalu",
        "State": "Sabah"
    },
    {
        "Postcode": "88450",
        "Location": "Taman Saga",
        "Post_Office": "Kota Kinabalu",
        "State": "Sabah"
    },
    {
        "Postcode": "88450",
        "Location": "Taman Satria Phase 2",
        "Post_Office": "Kota Kinabalu",
        "State": "Sabah"
    },
    {
        "Postcode": "88450",
        "Location": "Taman Segar",
        "Post_Office": "Kota Kinabalu",
        "State": "Sabah"
    },
    {
        "Postcode": "88450",
        "Location": "Taman Selayang Kedai",
        "Post_Office": "Kota Kinabalu",
        "State": "Sabah"
    },
    {
        "Postcode": "88450",
        "Location": "Taman Sepangar",
        "Post_Office": "Kota Kinabalu",
        "State": "Sabah"
    },
    {
        "Postcode": "88450",
        "Location": "Taman Seri Kasturi",
        "Post_Office": "Kota Kinabalu",
        "State": "Sabah"
    },
    {
        "Postcode": "88450",
        "Location": "Taman Seri Kionsom",
        "Post_Office": "Kota Kinabalu",
        "State": "Sabah"
    },
    {
        "Postcode": "88450",
        "Location": "Taman Sri Baru",
        "Post_Office": "Kota Kinabalu",
        "State": "Sabah"
    },
    {
        "Postcode": "88450",
        "Location": "Taman Sri Chimera",
        "Post_Office": "Kota Kinabalu",
        "State": "Sabah"
    },
    {
        "Postcode": "88450",
        "Location": "Taman Sri Indah",
        "Post_Office": "Kota Kinabalu",
        "State": "Sabah"
    },
    {
        "Postcode": "88450",
        "Location": "Taman Sri Maju (Blok 201 -205, 211, 212)",
        "Post_Office": "Kota Kinabalu",
        "State": "Sabah"
    },
    {
        "Postcode": "88450",
        "Location": "Taman Sri Maju Jaya (Blok 208 -210)",
        "Post_Office": "Kota Kinabalu",
        "State": "Sabah"
    },
    {
        "Postcode": "88450",
        "Location": "Taman Sri Pulutan",
        "Post_Office": "Kota Kinabalu",
        "State": "Sabah"
    },
    {
        "Postcode": "88450",
        "Location": "Taman Sri Puteri",
        "Post_Office": "Kota Kinabalu",
        "State": "Sabah"
    },
    {
        "Postcode": "88450",
        "Location": "Taman Sri Rugading",
        "Post_Office": "Kota Kinabalu",
        "State": "Sabah"
    },
    {
        "Postcode": "88450",
        "Location": "Taman Syn Fah",
        "Post_Office": "Kota Kinabalu",
        "State": "Sabah"
    },
    {
        "Postcode": "88450",
        "Location": "Taman Tebobon",
        "Post_Office": "Kota Kinabalu",
        "State": "Sabah"
    },
    {
        "Postcode": "88450",
        "Location": "Taman Teck Lee",
        "Post_Office": "Kota Kinabalu",
        "State": "Sabah"
    },
    {
        "Postcode": "88450",
        "Location": "Taman Telipok Jaya",
        "Post_Office": "Kota Kinabalu",
        "State": "Sabah"
    },
    {
        "Postcode": "88450",
        "Location": "Taman Telipok Ria",
        "Post_Office": "Kota Kinabalu",
        "State": "Sabah"
    },
    {
        "Postcode": "88450",
        "Location": "Taman Telipok Ria Ph. 2",
        "Post_Office": "Kota Kinabalu",
        "State": "Sabah"
    },
    {
        "Postcode": "88450",
        "Location": "Taman Utara Gudon",
        "Post_Office": "Kota Kinabalu",
        "State": "Sabah"
    },
    {
        "Postcode": "88450",
        "Location": "Taman View Point",
        "Post_Office": "Kota Kinabalu",
        "State": "Sabah"
    },
    {
        "Postcode": "88450",
        "Location": "Taman Wangsa",
        "Post_Office": "Kota Kinabalu",
        "State": "Sabah"
    },
    {
        "Postcode": "88450",
        "Location": "Taman Wijayah Park",
        "Post_Office": "Kota Kinabalu",
        "State": "Sabah"
    },
    {
        "Postcode": "88450",
        "Location": "Telipok",
        "Post_Office": "Kota Kinabalu",
        "State": "Sabah"
    },
    {
        "Postcode": "88450",
        "Location": "Telipok Commercial Centre - Blok A",
        "Post_Office": "Kota Kinabalu",
        "State": "Sabah"
    },
    {
        "Postcode": "88450",
        "Location": "Tman Mepo",
        "Post_Office": "Kota Kinabalu",
        "State": "Sabah"
    },
    {
        "Postcode": "88450",
        "Location": "Tropical Industri  Estate",
        "Post_Office": "Kota Kinabalu",
        "State": "Sabah"
    },
    {
        "Postcode": "88450",
        "Location": "Tropical Industri  Estate",
        "Post_Office": "Kota Kinabalu",
        "State": "Sabah"
    },
    {
        "Postcode": "88450",
        "Location": "Visa Industrial Estate",
        "Post_Office": "Kota Kinabalu",
        "State": "Sabah"
    },
    {
        "Postcode": "88450",
        "Location": "Visa L.I.E",
        "Post_Office": "Kota Kinabalu",
        "State": "Sabah"
    },
    {
        "Postcode": "88450",
        "Location": "Wei Hing Industri",
        "Post_Office": "Kota Kinabalu",
        "State": "Sabah"
    },
    {
        "Postcode": "88450",
        "Location": "Wisma Everight",
        "Post_Office": "Kota Kinabalu",
        "State": "Sabah"
    },
    {
        "Postcode": "88450",
        "Location": "Wisma Kolombong",
        "Post_Office": "Kota Kinabalu",
        "State": "Sabah"
    },
    {
        "Postcode": "88450",
        "Location": "Wisma Ytl",
        "Post_Office": "Kota Kinabalu",
        "State": "Sabah"
    },
    {
        "Postcode": "88450",
        "Location": "Yisu Industrial Estate",
        "Post_Office": "Kota Kinabalu",
        "State": "Sabah"
    }
]
