[
    {
        "Postcode": "10000",
        "Location": "Bangunan Komtar",
        "Post_Office": "Pulau Pinang",
        "State": "Pulau Pinang"
    },
    {
        "Postcode": "10000",
        "Location": "Jalan Gladstone",
        "Post_Office": "Pulau Pinang",
        "State": "Pulau Pinang"
    },
    {
        "Postcode": "10000",
        "Location": "Jalan Magazine (No Genap)",
        "Post_Office": "Pulau Pinang",
        "State": "Pulau Pinang"
    },
    {
        "Postcode": "10000",
        "Location": "Jalan Maxwell",
        "Post_Office": "Pulau Pinang",
        "State": "Pulau Pinang"
    },
    {
        "Postcode": "10000",
        "Location": "Jalan Penang",
        "Post_Office": "Pulau Pinang",
        "State": "Pulau Pinang"
    },
    {
        "Postcode": "10000",
        "Location": "Jalan Ria",
        "Post_Office": "Pulau Pinang",
        "State": "Pulau Pinang"
    },
    {
        "Postcode": "10000",
        "Location": "Kompleks Tun Abdul Razak",
        "Post_Office": "Pulau Pinang",
        "State": "Pulau Pinang"
    },
    {
        "Postcode": "10000",
        "Location": "Lebuh Tek Soon",
        "Post_Office": "Pulau Pinang",
        "State": "Pulau Pinang"
    },
    {
        "Postcode": "10000",
        "Location": "Prangin Mall",
        "Post_Office": "Pulau Pinang",
        "State": "Pulau Pinang"
    }
]
