[
    {
        "Postcode": "10050",
        "Location": "Jalan Kedah",
        "Post_Office": "Pulau Pinang",
        "State": "Pulau Pinang"
    },
    {
        "Postcode": "10050",
        "Location": "Jalan Argyll",
        "Post_Office": "Pulau Pinang",
        "State": "Pulau Pinang"
    },
    {
        "Postcode": "10050",
        "Location": "Jalan Ariffin",
        "Post_Office": "Pulau Pinang",
        "State": "Pulau Pinang"
    },
    {
        "Postcode": "10050",
        "Location": "Jalan Arratoon",
        "Post_Office": "Pulau Pinang",
        "State": "Pulau Pinang"
    },
    {
        "Postcode": "10050",
        "Location": "Jalan Bawasah",
        "Post_Office": "Pulau Pinang",
        "State": "Pulau Pinang"
    },
    {
        "Postcode": "10050",
        "Location": "Jalan Burma (1 - 237 \u0026 2 - 184)",
        "Post_Office": "Pulau Pinang",
        "State": "Pulau Pinang"
    },
    {
        "Postcode": "10050",
        "Location": "Jalan Chow Thye",
        "Post_Office": "Pulau Pinang",
        "State": "Pulau Pinang"
    },
    {
        "Postcode": "10050",
        "Location": "Jalan Clove Hall",
        "Post_Office": "Pulau Pinang",
        "State": "Pulau Pinang"
    },
    {
        "Postcode": "10050",
        "Location": "Jalan Dato Koyah",
        "Post_Office": "Pulau Pinang",
        "State": "Pulau Pinang"
    },
    {
        "Postcode": "10050",
        "Location": "Jalan Dinding",
        "Post_Office": "Pulau Pinang",
        "State": "Pulau Pinang"
    },
    {
        "Postcode": "10050",
        "Location": "Jalan Gudwara",
        "Post_Office": "Pulau Pinang",
        "State": "Pulau Pinang"
    },
    {
        "Postcode": "10050",
        "Location": "Jalan Hutton",
        "Post_Office": "Pulau Pinang",
        "State": "Pulau Pinang"
    },
    {
        "Postcode": "10050",
        "Location": "Jalan Irawadi",
        "Post_Office": "Pulau Pinang",
        "State": "Pulau Pinang"
    },
    {
        "Postcode": "10050",
        "Location": "Jalan Kelantan",
        "Post_Office": "Pulau Pinang",
        "State": "Pulau Pinang"
    },
    {
        "Postcode": "10050",
        "Location": "Jalan Khoo Sian Ewe",
        "Post_Office": "Pulau Pinang",
        "State": "Pulau Pinang"
    },
    {
        "Postcode": "10050",
        "Location": "Jalan Larut",
        "Post_Office": "Pulau Pinang",
        "State": "Pulau Pinang"
    },
    {
        "Postcode": "10050",
        "Location": "Jalan Nagore",
        "Post_Office": "Pulau Pinang",
        "State": "Pulau Pinang"
    },
    {
        "Postcode": "10050",
        "Location": "Jalan Pangkor",
        "Post_Office": "Pulau Pinang",
        "State": "Pulau Pinang"
    },
    {
        "Postcode": "10050",
        "Location": "Jalan Phee Choon",
        "Post_Office": "Pulau Pinang",
        "State": "Pulau Pinang"
    },
    {
        "Postcode": "10050",
        "Location": "Jalan Phuah Hin Leong",
        "Post_Office": "Pulau Pinang",
        "State": "Pulau Pinang"
    },
    {
        "Postcode": "10050",
        "Location": "Jalan Salween",
        "Post_Office": "Pulau Pinang",
        "State": "Pulau Pinang"
    },
    {
        "Postcode": "10050",
        "Location": "Jalan Sekerat",
        "Post_Office": "Pulau Pinang",
        "State": "Pulau Pinang"
    },
    {
        "Postcode": "10050",
        "Location": "Jalan Service",
        "Post_Office": "Pulau Pinang",
        "State": "Pulau Pinang"
    },
    {
        "Postcode": "10050",
        "Location": "Jalan Sp Cheeliah",
        "Post_Office": "Pulau Pinang",
        "State": "Pulau Pinang"
    },
    {
        "Postcode": "10050",
        "Location": "Jalan Sri Bahari",
        "Post_Office": "Pulau Pinang",
        "State": "Pulau Pinang"
    },
    {
        "Postcode": "10050",
        "Location": "Jalan Sultan Ahmad Shah",
        "Post_Office": "Pulau Pinang",
        "State": "Pulau Pinang"
    },
    {
        "Postcode": "10050",
        "Location": "Jalan Tavoy",
        "Post_Office": "Pulau Pinang",
        "State": "Pulau Pinang"
    },
    {
        "Postcode": "10050",
        "Location": "Jalan Transfer",
        "Post_Office": "Pulau Pinang",
        "State": "Pulau Pinang"
    },
    {
        "Postcode": "10050",
        "Location": "Lebuh Clarke",
        "Post_Office": "Pulau Pinang",
        "State": "Pulau Pinang"
    },
    {
        "Postcode": "10050",
        "Location": "Lebuh Dickens",
        "Post_Office": "Pulau Pinang",
        "State": "Pulau Pinang"
    },
    {
        "Postcode": "10050",
        "Location": "Lorong Amoy",
        "Post_Office": "Pulau Pinang",
        "State": "Pulau Pinang"
    },
    {
        "Postcode": "10050",
        "Location": "Lorong Ceylon",
        "Post_Office": "Pulau Pinang",
        "State": "Pulau Pinang"
    },
    {
        "Postcode": "10050",
        "Location": "Lorong Hutton",
        "Post_Office": "Pulau Pinang",
        "State": "Pulau Pinang"
    },
    {
        "Postcode": "10050",
        "Location": "Lorong Popus",
        "Post_Office": "Pulau Pinang",
        "State": "Pulau Pinang"
    },
    {
        "Postcode": "10050",
        "Location": "Lorong Swatow",
        "Post_Office": "Pulau Pinang",
        "State": "Pulau Pinang"
    },
    {
        "Postcode": "10050",
        "Location": "Menara Bhlb",
        "Post_Office": "Pulau Pinang",
        "State": "Pulau Pinang"
    },
    {
        "Postcode": "10050",
        "Location": "Menara Kwsp",
        "Post_Office": "Pulau Pinang",
        "State": "Pulau Pinang"
    },
    {
        "Postcode": "10050",
        "Location": "Menara Liang Court",
        "Post_Office": "Pulau Pinang",
        "State": "Pulau Pinang"
    },
    {
        "Postcode": "10050",
        "Location": "Menara Mbf",
        "Post_Office": "Pulau Pinang",
        "State": "Pulau Pinang"
    },
    {
        "Postcode": "10050",
        "Location": "Menara Northem",
        "Post_Office": "Pulau Pinang",
        "State": "Pulau Pinang"
    },
    {
        "Postcode": "10050",
        "Location": "Menara Penang Garden",
        "Post_Office": "Pulau Pinang",
        "State": "Pulau Pinang"
    },
    {
        "Postcode": "10050",
        "Location": "Menara Psci",
        "Post_Office": "Pulau Pinang",
        "State": "Pulau Pinang"
    },
    {
        "Postcode": "10050",
        "Location": "Mesbol Tower",
        "Post_Office": "Pulau Pinang",
        "State": "Pulau Pinang"
    },
    {
        "Postcode": "10050",
        "Location": "Pragin Mall",
        "Post_Office": "Pulau Pinang",
        "State": "Pulau Pinang"
    },
    {
        "Postcode": "10050",
        "Location": "Solok Tavoy",
        "Post_Office": "Pulau Pinang",
        "State": "Pulau Pinang"
    }
]
