[
    {
        "Postcode": "10100",
        "Location": "Halaman Khoo Cheow Teong",
        "Post_Office": "Pulau Pinang",
        "State": "Pulau Pinang"
    },
    {
        "Postcode": "10100",
        "Location": "Jalan Cheong Fatt Tze",
        "Post_Office": "Pulau Pinang",
        "State": "Pulau Pinang"
    },
    {
        "Postcode": "10100",
        "Location": "Jalan Chowrasta",
        "Post_Office": "Pulau Pinang",
        "State": "Pulau Pinang"
    },
    {
        "Postcode": "10100",
        "Location": "Jalan Dr Lim Chwee Leong",
        "Post_Office": "Pulau Pinang",
        "State": "Pulau Pinang"
    },
    {
        "Postcode": "10100",
        "Location": "Jalan Kuala Kangsar",
        "Post_Office": "Pulau Pinang",
        "State": "Pulau Pinang"
    },
    {
        "Postcode": "10100",
        "Location": "Jalan Pintal Tali",
        "Post_Office": "Pulau Pinang",
        "State": "Pulau Pinang"
    },
    {
        "Postcode": "10100",
        "Location": "Jalan Sungai Ujong",
        "Post_Office": "Pulau Pinang",
        "State": "Pulau Pinang"
    },
    {
        "Postcode": "10100",
        "Location": "Kampung Malabar",
        "Post_Office": "Pulau Pinang",
        "State": "Pulau Pinang"
    },
    {
        "Postcode": "10100",
        "Location": "Lebuh Campbell",
        "Post_Office": "Pulau Pinang",
        "State": "Pulau Pinang"
    },
    {
        "Postcode": "10100",
        "Location": "Lebuh Carnarvon",
        "Post_Office": "Pulau Pinang",
        "State": "Pulau Pinang"
    },
    {
        "Postcode": "10100",
        "Location": "Lebuh Cintra",
        "Post_Office": "Pulau Pinang",
        "State": "Pulau Pinang"
    },
    {
        "Postcode": "10100",
        "Location": "Lebuh Hong Kong",
        "Post_Office": "Pulau Pinang",
        "State": "Pulau Pinang"
    },
    {
        "Postcode": "10100",
        "Location": "Lebuh Keng Kwee",
        "Post_Office": "Pulau Pinang",
        "State": "Pulau Pinang"
    },
    {
        "Postcode": "10100",
        "Location": "Lebuh Kimberley",
        "Post_Office": "Pulau Pinang",
        "State": "Pulau Pinang"
    },
    {
        "Postcode": "10100",
        "Location": "Lebuh Melayu",
        "Post_Office": "Pulau Pinang",
        "State": "Pulau Pinang"
    },
    {
        "Postcode": "10100",
        "Location": "Lebuh Tamil",
        "Post_Office": "Pulau Pinang",
        "State": "Pulau Pinang"
    },
    {
        "Postcode": "10100",
        "Location": "Lorong Carnarvon",
        "Post_Office": "Pulau Pinang",
        "State": "Pulau Pinang"
    },
    {
        "Postcode": "10100",
        "Location": "Lorong Dury",
        "Post_Office": "Pulau Pinang",
        "State": "Pulau Pinang"
    },
    {
        "Postcode": "10100",
        "Location": "Lorong Ikan",
        "Post_Office": "Pulau Pinang",
        "State": "Pulau Pinang"
    },
    {
        "Postcode": "10100",
        "Location": "Lorong Ngah Aboo",
        "Post_Office": "Pulau Pinang",
        "State": "Pulau Pinang"
    },
    {
        "Postcode": "10100",
        "Location": "Lorong Prangin",
        "Post_Office": "Pulau Pinang",
        "State": "Pulau Pinang"
    },
    {
        "Postcode": "10100",
        "Location": "Lorong Tok Aka",
        "Post_Office": "Pulau Pinang",
        "State": "Pulau Pinang"
    },
    {
        "Postcode": "10100",
        "Location": "Pesara Claimant",
        "Post_Office": "Pulau Pinang",
        "State": "Pulau Pinang"
    },
    {
        "Postcode": "10100",
        "Location": "Wisma Hutton",
        "Post_Office": "Pulau Pinang",
        "State": "Pulau Pinang"
    }
]
