[
    {
        "Postcode": "10150",
        "Location": "Kampung Jalan Perak",
        "Post_Office": "Pulau Pinang",
        "State": "Pulau Pinang"
    },
    {
        "Postcode": "10150",
        "Location": "Taman Pinang",
        "Post_Office": "Pulau Pinang",
        "State": "Pulau Pinang"
    },
    {
        "Postcode": "10150",
        "Location": "Taman Sin Chor Cit",
        "Post_Office": "Pulau Pinang",
        "State": "Pulau Pinang"
    },
    {
        "Postcode": "10150",
        "Location": "Taman Singgora",
        "Post_Office": "Pulau Pinang",
        "State": "Pulau Pinang"
    },
    {
        "Postcode": "10150",
        "Location": "Taman Sri Petani",
        "Post_Office": "Pulau Pinang",
        "State": "Pulau Pinang"
    },
    {
        "Postcode": "10150",
        "Location": "Jalan Sungai Pinang",
        "Post_Office": "Pulau Pinang",
        "State": "Pulau Pinang"
    },
    {
        "Postcode": "10150",
        "Location": "Flat Baharol Alam",
        "Post_Office": "Pulau Pinang",
        "State": "Pulau Pinang"
    },
    {
        "Postcode": "10150",
        "Location": "Halaman Damai",
        "Post_Office": "Pulau Pinang",
        "State": "Pulau Pinang"
    },
    {
        "Postcode": "10150",
        "Location": "Jalan Brani",
        "Post_Office": "Pulau Pinang",
        "State": "Pulau Pinang"
    },
    {
        "Postcode": "10150",
        "Location": "Jalan Bukom",
        "Post_Office": "Pulau Pinang",
        "State": "Pulau Pinang"
    },
    {
        "Postcode": "10150",
        "Location": "Jalan Che Rose",
        "Post_Office": "Pulau Pinang",
        "State": "Pulau Pinang"
    },
    {
        "Postcode": "10150",
        "Location": "Jalan Cheah Choo You",
        "Post_Office": "Pulau Pinang",
        "State": "Pulau Pinang"
    },
    {
        "Postcode": "10150",
        "Location": "Jalan Dato Keramat (1 - 493)",
        "Post_Office": "Pulau Pinang",
        "State": "Pulau Pinang"
    },
    {
        "Postcode": "10150",
        "Location": "Jalan Dato Keramat (2 - 414)",
        "Post_Office": "Pulau Pinang",
        "State": "Pulau Pinang"
    },
    {
        "Postcode": "10150",
        "Location": "Jalan Haji Hashim Imam",
        "Post_Office": "Pulau Pinang",
        "State": "Pulau Pinang"
    },
    {
        "Postcode": "10150",
        "Location": "Jalan Kajang",
        "Post_Office": "Pulau Pinang",
        "State": "Pulau Pinang"
    },
    {
        "Postcode": "10150",
        "Location": "Jalan Kampung Dodol",
        "Post_Office": "Pulau Pinang",
        "State": "Pulau Pinang"
    },
    {
        "Postcode": "10150",
        "Location": "Jalan Kampung Jawa Baru",
        "Post_Office": "Pulau Pinang",
        "State": "Pulau Pinang"
    },
    {
        "Postcode": "10150",
        "Location": "Jalan Kampung Jawa Lama",
        "Post_Office": "Pulau Pinang",
        "State": "Pulau Pinang"
    },
    {
        "Postcode": "10150",
        "Location": "Jalan Kuantan",
        "Post_Office": "Pulau Pinang",
        "State": "Pulau Pinang"
    },
    {
        "Postcode": "10150",
        "Location": "Jalan Makloom",
        "Post_Office": "Pulau Pinang",
        "State": "Pulau Pinang"
    },
    {
        "Postcode": "10150",
        "Location": "Jalan Maqbul",
        "Post_Office": "Pulau Pinang",
        "State": "Pulau Pinang"
    },
    {
        "Postcode": "10150",
        "Location": "Jalan Osman Kadir Lit",
        "Post_Office": "Pulau Pinang",
        "State": "Pulau Pinang"
    },
    {
        "Postcode": "10150",
        "Location": "Jalan Patani",
        "Post_Office": "Pulau Pinang",
        "State": "Pulau Pinang"
    },
    {
        "Postcode": "10150",
        "Location": "Jalan Perak (1 - 309) ",
        "Post_Office": "Pulau Pinang",
        "State": "Pulau Pinang"
    },
    {
        "Postcode": "10150",
        "Location": "Jalan S.P. Cheeliah",
        "Post_Office": "Pulau Pinang",
        "State": "Pulau Pinang"
    },
    {
        "Postcode": "10150",
        "Location": "Jalan Samak",
        "Post_Office": "Pulau Pinang",
        "State": "Pulau Pinang"
    },
    {
        "Postcode": "10150",
        "Location": "Jalan Singapura",
        "Post_Office": "Pulau Pinang",
        "State": "Pulau Pinang"
    },
    {
        "Postcode": "10150",
        "Location": "Jalan Sungai",
        "Post_Office": "Pulau Pinang",
        "State": "Pulau Pinang"
    },
    {
        "Postcode": "10150",
        "Location": "Jalan Tekong",
        "Post_Office": "Pulau Pinang",
        "State": "Pulau Pinang"
    },
    {
        "Postcode": "10150",
        "Location": "Jalan Timah",
        "Post_Office": "Pulau Pinang",
        "State": "Pulau Pinang"
    },
    {
        "Postcode": "10150",
        "Location": "Jalan Tongkah",
        "Post_Office": "Pulau Pinang",
        "State": "Pulau Pinang"
    },
    {
        "Postcode": "10150",
        "Location": "Jalan Trang",
        "Post_Office": "Pulau Pinang",
        "State": "Pulau Pinang"
    },
    {
        "Postcode": "10150",
        "Location": "Jalan Trusan",
        "Post_Office": "Pulau Pinang",
        "State": "Pulau Pinang"
    },
    {
        "Postcode": "10150",
        "Location": "Jalan Ubin",
        "Post_Office": "Pulau Pinang",
        "State": "Pulau Pinang"
    },
    {
        "Postcode": "10150",
        "Location": "Jalan Veterinari",
        "Post_Office": "Pulau Pinang",
        "State": "Pulau Pinang"
    },
    {
        "Postcode": "10150",
        "Location": "Jalan'Kampung Jawa Baru",
        "Post_Office": "Pulau Pinang",
        "State": "Pulau Pinang"
    },
    {
        "Postcode": "10150",
        "Location": "Jalan'Kampung Jawa Lama",
        "Post_Office": "Pulau Pinang",
        "State": "Pulau Pinang"
    },
    {
        "Postcode": "10150",
        "Location": "Kampung Dodol",
        "Post_Office": "Pulau Pinang",
        "State": "Pulau Pinang"
    },
    {
        "Postcode": "10150",
        "Location": "Kampung Makam",
        "Post_Office": "Pulau Pinang",
        "State": "Pulau Pinang"
    },
    {
        "Postcode": "10150",
        "Location": "Kampung Rawa",
        "Post_Office": "Pulau Pinang",
        "State": "Pulau Pinang"
    },
    {
        "Postcode": "10150",
        "Location": "Lengkok Sungai Pinang",
        "Post_Office": "Pulau Pinang",
        "State": "Pulau Pinang"
    },
    {
        "Postcode": "10150",
        "Location": "Lilitan Stadium",
        "Post_Office": "Pulau Pinang",
        "State": "Pulau Pinang"
    },
    {
        "Postcode": "10150",
        "Location": "Lintang Kampung Rawa 2",
        "Post_Office": "Pulau Pinang",
        "State": "Pulau Pinang"
    },
    {
        "Postcode": "10150",
        "Location": "Lintang Sungai Pinang",
        "Post_Office": "Pulau Pinang",
        "State": "Pulau Pinang"
    },
    {
        "Postcode": "10150",
        "Location": "Lorong Seremban",
        "Post_Office": "Pulau Pinang",
        "State": "Pulau Pinang"
    },
    {
        "Postcode": "10150",
        "Location": "Lorong Singgora",
        "Post_Office": "Pulau Pinang",
        "State": "Pulau Pinang"
    },
    {
        "Postcode": "10150",
        "Location": "Lorong Sungai Pinang",
        "Post_Office": "Pulau Pinang",
        "State": "Pulau Pinang"
    },
    {
        "Postcode": "10150",
        "Location": "Lorong Tampin",
        "Post_Office": "Pulau Pinang",
        "State": "Pulau Pinang"
    },
    {
        "Postcode": "10150",
        "Location": "Medan Chin Ho",
        "Post_Office": "Pulau Pinang",
        "State": "Pulau Pinang"
    },
    {
        "Postcode": "10150",
        "Location": "Persiaran Perak",
        "Post_Office": "Pulau Pinang",
        "State": "Pulau Pinang"
    },
    {
        "Postcode": "10150",
        "Location": "Pintasan Maklum",
        "Post_Office": "Pulau Pinang",
        "State": "Pulau Pinang"
    },
    {
        "Postcode": "10150",
        "Location": "Taman Abidin",
        "Post_Office": "Pulau Pinang",
        "State": "Pulau Pinang"
    },
    {
        "Postcode": "10150",
        "Location": "Taman Boon Kee",
        "Post_Office": "Pulau Pinang",
        "State": "Pulau Pinang"
    },
    {
        "Postcode": "10150",
        "Location": "Taman Cemerlang",
        "Post_Office": "Pulau Pinang",
        "State": "Pulau Pinang"
    },
    {
        "Postcode": "10150",
        "Location": "Taman Kilangin",
        "Post_Office": "Pulau Pinang",
        "State": "Pulau Pinang"
    },
    {
        "Postcode": "10150",
        "Location": "Taman Lembah Sungai",
        "Post_Office": "Pulau Pinang",
        "State": "Pulau Pinang"
    },
    {
        "Postcode": "10150",
        "Location": "Taman Nusantara",
        "Post_Office": "Pulau Pinang",
        "State": "Pulau Pinang"
    },
    {
        "Postcode": "10150",
        "Location": "Taman Perak",
        "Post_Office": "Pulau Pinang",
        "State": "Pulau Pinang"
    },
    {
        "Postcode": "10150",
        "Location": "Taman Sing Chor Chit",
        "Post_Office": "Pulau Pinang",
        "State": "Pulau Pinang"
    },
    {
        "Postcode": "10150",
        "Location": "Taman Soon Boon Kee",
        "Post_Office": "Pulau Pinang",
        "State": "Pulau Pinang"
    },
    {
        "Postcode": "10150",
        "Location": "Tingkat Nusantara",
        "Post_Office": "Pulau Pinang",
        "State": "Pulau Pinang"
    }
]
