[
    {
        "Postcode": "10470",
        "Location": "Denai Bayu 10",
        "Post_Office": "Pulau Pinang",
        "State": "Pulau Pinang"
    },
    {
        "Postcode": "10470",
        "Location": "Denai Bayu 12",
        "Post_Office": "Pulau Pinang",
        "State": "Pulau Pinang"
    },
    {
        "Postcode": "10470",
        "Location": "Denai Bayu 16",
        "Post_Office": "Pulau Pinang",
        "State": "Pulau Pinang"
    },
    {
        "Postcode": "10470",
        "Location": "Denai Bayu 18",
        "Post_Office": "Pulau Pinang",
        "State": "Pulau Pinang"
    },
    {
        "Postcode": "10470",
        "Location": "Denai Bayu 2",
        "Post_Office": "Pulau Pinang",
        "State": "Pulau Pinang"
    },
    {
        "Postcode": "10470",
        "Location": "Denai Bayu 20",
        "Post_Office": "Pulau Pinang",
        "State": "Pulau Pinang"
    },
    {
        "Postcode": "10470",
        "Location": "Denai Bayu 22",
        "Post_Office": "Pulau Pinang",
        "State": "Pulau Pinang"
    },
    {
        "Postcode": "10470",
        "Location": "Denai Bayu 26",
        "Post_Office": "Pulau Pinang",
        "State": "Pulau Pinang"
    },
    {
        "Postcode": "10470",
        "Location": "Denai Bayu 6",
        "Post_Office": "Pulau Pinang",
        "State": "Pulau Pinang"
    },
    {
        "Postcode": "10470",
        "Location": "Denai Bayu 8",
        "Post_Office": "Pulau Pinang",
        "State": "Pulau Pinang"
    },
    {
        "Postcode": "10470",
        "Location": "Denai Endau 1",
        "Post_Office": "Pulau Pinang",
        "State": "Pulau Pinang"
    },
    {
        "Postcode": "10470",
        "Location": "Denai Endau 10",
        "Post_Office": "Pulau Pinang",
        "State": "Pulau Pinang"
    },
    {
        "Postcode": "10470",
        "Location": "Denai Endau 11",
        "Post_Office": "Pulau Pinang",
        "State": "Pulau Pinang"
    },
    {
        "Postcode": "10470",
        "Location": "Denai Endau 12",
        "Post_Office": "Pulau Pinang",
        "State": "Pulau Pinang"
    },
    {
        "Postcode": "10470",
        "Location": "Denai Endau 18",
        "Post_Office": "Pulau Pinang",
        "State": "Pulau Pinang"
    },
    {
        "Postcode": "10470",
        "Location": "Denai Endau 2",
        "Post_Office": "Pulau Pinang",
        "State": "Pulau Pinang"
    },
    {
        "Postcode": "10470",
        "Location": "Denai Endau 20",
        "Post_Office": "Pulau Pinang",
        "State": "Pulau Pinang"
    },
    {
        "Postcode": "10470",
        "Location": "Denai Endau 22",
        "Post_Office": "Pulau Pinang",
        "State": "Pulau Pinang"
    },
    {
        "Postcode": "10470",
        "Location": "Denai Endau 3",
        "Post_Office": "Pulau Pinang",
        "State": "Pulau Pinang"
    },
    {
        "Postcode": "10470",
        "Location": "Denai Endau 5",
        "Post_Office": "Pulau Pinang",
        "State": "Pulau Pinang"
    },
    {
        "Postcode": "10470",
        "Location": "Denai Endau 6",
        "Post_Office": "Pulau Pinang",
        "State": "Pulau Pinang"
    },
    {
        "Postcode": "10470",
        "Location": "Denai Endau 7",
        "Post_Office": "Pulau Pinang",
        "State": "Pulau Pinang"
    },
    {
        "Postcode": "10470",
        "Location": "Denai Endau 8",
        "Post_Office": "Pulau Pinang",
        "State": "Pulau Pinang"
    },
    {
        "Postcode": "10470",
        "Location": "Denai Endau 9",
        "Post_Office": "Pulau Pinang",
        "State": "Pulau Pinang"
    },
    {
        "Postcode": "10470",
        "Location": "Jalan Bayu 1",
        "Post_Office": "Pulau Pinang",
        "State": "Pulau Pinang"
    },
    {
        "Postcode": "10470",
        "Location": "Jalan Bayu 2",
        "Post_Office": "Pulau Pinang",
        "State": "Pulau Pinang"
    },
    {
        "Postcode": "10470",
        "Location": "Jalan Evergreen 4",
        "Post_Office": "Pulau Pinang",
        "State": "Pulau Pinang"
    },
    {
        "Postcode": "10470",
        "Location": "Jalan Evergreen 5",
        "Post_Office": "Pulau Pinang",
        "State": "Pulau Pinang"
    },
    {
        "Postcode": "10470",
        "Location": "Jalan Evergreen 6",
        "Post_Office": "Pulau Pinang",
        "State": "Pulau Pinang"
    },
    {
        "Postcode": "10470",
        "Location": "Jalan Evergreen 7",
        "Post_Office": "Pulau Pinang",
        "State": "Pulau Pinang"
    },
    {
        "Postcode": "10470",
        "Location": "Jalan Seri Tanjung Pinang 1",
        "Post_Office": "Pulau Pinang",
        "State": "Pulau Pinang"
    },
    {
        "Postcode": "10470",
        "Location": "Jalan Seri Tanjung Pinang 2",
        "Post_Office": "Pulau Pinang",
        "State": "Pulau Pinang"
    },
    {
        "Postcode": "10470",
        "Location": "Jalan Seri Tanjung Pinang 6",
        "Post_Office": "Pulau Pinang",
        "State": "Pulau Pinang"
    },
    {
        "Postcode": "10470",
        "Location": "Jalan Seri Tanjung Pinang 8",
        "Post_Office": "Pulau Pinang",
        "State": "Pulau Pinang"
    },
    {
        "Postcode": "10470",
        "Location": "Persiaran Halia 1",
        "Post_Office": "Pulau Pinang",
        "State": "Pulau Pinang"
    },
    {
        "Postcode": "10470",
        "Location": "Persiaran Halia 2",
        "Post_Office": "Pulau Pinang",
        "State": "Pulau Pinang"
    },
    {
        "Postcode": "10470",
        "Location": "Solok Denai 10",
        "Post_Office": "Pulau Pinang",
        "State": "Pulau Pinang"
    },
    {
        "Postcode": "10470",
        "Location": "Solok Denai 11",
        "Post_Office": "Pulau Pinang",
        "State": "Pulau Pinang"
    },
    {
        "Postcode": "10470",
        "Location": "Solok Denai 12",
        "Post_Office": "Pulau Pinang",
        "State": "Pulau Pinang"
    },
    {
        "Postcode": "10470",
        "Location": "Solok Denai 13",
        "Post_Office": "Pulau Pinang",
        "State": "Pulau Pinang"
    },
    {
        "Postcode": "10470",
        "Location": "Solok Denai 14",
        "Post_Office": "Pulau Pinang",
        "State": "Pulau Pinang"
    },
    {
        "Postcode": "10470",
        "Location": "Solok Denai 15",
        "Post_Office": "Pulau Pinang",
        "State": "Pulau Pinang"
    },
    {
        "Postcode": "10470",
        "Location": "Solok Denai 16",
        "Post_Office": "Pulau Pinang",
        "State": "Pulau Pinang"
    },
    {
        "Postcode": "10470",
        "Location": "Solok Denai 17",
        "Post_Office": "Pulau Pinang",
        "State": "Pulau Pinang"
    },
    {
        "Postcode": "10470",
        "Location": "Solok Denai 18",
        "Post_Office": "Pulau Pinang",
        "State": "Pulau Pinang"
    },
    {
        "Postcode": "10470",
        "Location": "Solok Denai 19",
        "Post_Office": "Pulau Pinang",
        "State": "Pulau Pinang"
    },
    {
        "Postcode": "10470",
        "Location": "Solok Denai 2",
        "Post_Office": "Pulau Pinang",
        "State": "Pulau Pinang"
    },
    {
        "Postcode": "10470",
        "Location": "Solok Denai 20",
        "Post_Office": "Pulau Pinang",
        "State": "Pulau Pinang"
    },
    {
        "Postcode": "10470",
        "Location": "Solok Denai 21",
        "Post_Office": "Pulau Pinang",
        "State": "Pulau Pinang"
    },
    {
        "Postcode": "10470",
        "Location": "Solok Denai 22",
        "Post_Office": "Pulau Pinang",
        "State": "Pulau Pinang"
    },
    {
        "Postcode": "10470",
        "Location": "Solok Denai 23",
        "Post_Office": "Pulau Pinang",
        "State": "Pulau Pinang"
    },
    {
        "Postcode": "10470",
        "Location": "Solok Denai 24",
        "Post_Office": "Pulau Pinang",
        "State": "Pulau Pinang"
    },
    {
        "Postcode": "10470",
        "Location": "Solok Denai 25",
        "Post_Office": "Pulau Pinang",
        "State": "Pulau Pinang"
    },
    {
        "Postcode": "10470",
        "Location": "Solok Denai 26",
        "Post_Office": "Pulau Pinang",
        "State": "Pulau Pinang"
    },
    {
        "Postcode": "10470",
        "Location": "Solok Denai 27",
        "Post_Office": "Pulau Pinang",
        "State": "Pulau Pinang"
    },
    {
        "Postcode": "10470",
        "Location": "Solok Denai 28",
        "Post_Office": "Pulau Pinang",
        "State": "Pulau Pinang"
    },
    {
        "Postcode": "10470",
        "Location": "Solok Denai 29",
        "Post_Office": "Pulau Pinang",
        "State": "Pulau Pinang"
    },
    {
        "Postcode": "10470",
        "Location": "Solok Denai 3",
        "Post_Office": "Pulau Pinang",
        "State": "Pulau Pinang"
    },
    {
        "Postcode": "10470",
        "Location": "Solok Denai 30",
        "Post_Office": "Pulau Pinang",
        "State": "Pulau Pinang"
    },
    {
        "Postcode": "10470",
        "Location": "Solok Denai 31",
        "Post_Office": "Pulau Pinang",
        "State": "Pulau Pinang"
    },
    {
        "Postcode": "10470",
        "Location": "Solok Denai 32",
        "Post_Office": "Pulau Pinang",
        "State": "Pulau Pinang"
    },
    {
        "Postcode": "10470",
        "Location": "Solok Denai 33",
        "Post_Office": "Pulau Pinang",
        "State": "Pulau Pinang"
    },
    {
        "Postcode": "10470",
        "Location": "Solok Denai 34",
        "Post_Office": "Pulau Pinang",
        "State": "Pulau Pinang"
    },
    {
        "Postcode": "10470",
        "Location": "Solok Denai 35",
        "Post_Office": "Pulau Pinang",
        "State": "Pulau Pinang"
    },
    {
        "Postcode": "10470",
        "Location": "Solok Denai 36",
        "Post_Office": "Pulau Pinang",
        "State": "Pulau Pinang"
    },
    {
        "Postcode": "10470",
        "Location": "Solok Denai 4",
        "Post_Office": "Pulau Pinang",
        "State": "Pulau Pinang"
    },
    {
        "Postcode": "10470",
        "Location": "Solok Denai 5",
        "Post_Office": "Pulau Pinang",
        "State": "Pulau Pinang"
    },
    {
        "Postcode": "10470",
        "Location": "Solok Denai 6",
        "Post_Office": "Pulau Pinang",
        "State": "Pulau Pinang"
    },
    {
        "Postcode": "10470",
        "Location": "Solok Denai 7",
        "Post_Office": "Pulau Pinang",
        "State": "Pulau Pinang"
    },
    {
        "Postcode": "10470",
        "Location": "Solok Denai 8",
        "Post_Office": "Pulau Pinang",
        "State": "Pulau Pinang"
    },
    {
        "Postcode": "10470",
        "Location": "Solok Denai 9",
        "Post_Office": "Pulau Pinang",
        "State": "Pulau Pinang"
    },
    {
        "Postcode": "10470",
        "Location": "Jalan Bayu",
        "Post_Office": "Pulau Pinang",
        "State": "Pulau Pinang"
    },
    {
        "Postcode": "10470",
        "Location": "Kampung Masjid",
        "Post_Office": "Pulau Pinang",
        "State": "Pulau Pinang"
    },
    {
        "Postcode": "10470",
        "Location": "Jalan Halia",
        "Post_Office": "Pulau Pinang",
        "State": "Pulau Pinang"
    },
    {
        "Postcode": "10470",
        "Location": "Lebuhraya Halia",
        "Post_Office": "Pulau Pinang",
        "State": "Pulau Pinang"
    },
    {
        "Postcode": "10470",
        "Location": "Lengkok Halia",
        "Post_Office": "Pulau Pinang",
        "State": "Pulau Pinang"
    },
    {
        "Postcode": "10470",
        "Location": "Lorong Halia",
        "Post_Office": "Pulau Pinang",
        "State": "Pulau Pinang"
    },
    {
        "Postcode": "10470",
        "Location": "Tingkat Halia",
        "Post_Office": "Pulau Pinang",
        "State": "Pulau Pinang"
    },
    {
        "Postcode": "10470",
        "Location": "Denai Pinang 10",
        "Post_Office": "Pulau Pinang",
        "State": "Pulau Pinang"
    },
    {
        "Postcode": "10470",
        "Location": "Denai Pinang 12",
        "Post_Office": "Pulau Pinang",
        "State": "Pulau Pinang"
    },
    {
        "Postcode": "10470",
        "Location": "Denai Pinang 16",
        "Post_Office": "Pulau Pinang",
        "State": "Pulau Pinang"
    },
    {
        "Postcode": "10470",
        "Location": "Denai Pinang 18",
        "Post_Office": "Pulau Pinang",
        "State": "Pulau Pinang"
    },
    {
        "Postcode": "10470",
        "Location": "Denai Pinang 2",
        "Post_Office": "Pulau Pinang",
        "State": "Pulau Pinang"
    },
    {
        "Postcode": "10470",
        "Location": "Denai Pinang 20",
        "Post_Office": "Pulau Pinang",
        "State": "Pulau Pinang"
    },
    {
        "Postcode": "10470",
        "Location": "Denai Pinang 22",
        "Post_Office": "Pulau Pinang",
        "State": "Pulau Pinang"
    },
    {
        "Postcode": "10470",
        "Location": "Denai Pinang 26",
        "Post_Office": "Pulau Pinang",
        "State": "Pulau Pinang"
    },
    {
        "Postcode": "10470",
        "Location": "Denai Pinang 28",
        "Post_Office": "Pulau Pinang",
        "State": "Pulau Pinang"
    },
    {
        "Postcode": "10470",
        "Location": "Denai Pinang 30",
        "Post_Office": "Pulau Pinang",
        "State": "Pulau Pinang"
    },
    {
        "Postcode": "10470",
        "Location": "Denai Pinang 32",
        "Post_Office": "Pulau Pinang",
        "State": "Pulau Pinang"
    },
    {
        "Postcode": "10470",
        "Location": "Denai Pinang 36",
        "Post_Office": "Pulau Pinang",
        "State": "Pulau Pinang"
    },
    {
        "Postcode": "10470",
        "Location": "Denai Pinang 6",
        "Post_Office": "Pulau Pinang",
        "State": "Pulau Pinang"
    },
    {
        "Postcode": "10470",
        "Location": "Denai Pinang 8",
        "Post_Office": "Pulau Pinang",
        "State": "Pulau Pinang"
    },
    {
        "Postcode": "10470",
        "Location": "Kampung Bagan",
        "Post_Office": "Pulau Pinang",
        "State": "Pulau Pinang"
    },
    {
        "Postcode": "10470",
        "Location": "Kampung Haji Mahmood Batu Bukit",
        "Post_Office": "Pulau Pinang",
        "State": "Pulau Pinang"
    },
    {
        "Postcode": "10470",
        "Location": "Kampung Nelayan Tanjong Tokong",
        "Post_Office": "Pulau Pinang",
        "State": "Pulau Pinang"
    },
    {
        "Postcode": "10470",
        "Location": "Taman Batu Bukit",
        "Post_Office": "Pulau Pinang",
        "State": "Pulau Pinang"
    },
    {
        "Postcode": "10470",
        "Location": "Taman Desiran Tanjung",
        "Post_Office": "Pulau Pinang",
        "State": "Pulau Pinang"
    },
    {
        "Postcode": "10470",
        "Location": "Taman Erskine",
        "Post_Office": "Pulau Pinang",
        "State": "Pulau Pinang"
    },
    {
        "Postcode": "10470",
        "Location": "Taman Ong Bee Neoh",
        "Post_Office": "Pulau Pinang",
        "State": "Pulau Pinang"
    },
    {
        "Postcode": "10470",
        "Location": "Taman Seri Tanjung Pinang",
        "Post_Office": "Pulau Pinang",
        "State": "Pulau Pinang"
    },
    {
        "Postcode": "10470",
        "Location": "Taman Siput Remis",
        "Post_Office": "Pulau Pinang",
        "State": "Pulau Pinang"
    },
    {
        "Postcode": "10470",
        "Location": "Taman Teguh",
        "Post_Office": "Pulau Pinang",
        "State": "Pulau Pinang"
    },
    {
        "Postcode": "10470",
        "Location": "Jalan Batu Bukit",
        "Post_Office": "Pulau Pinang",
        "State": "Pulau Pinang"
    },
    {
        "Postcode": "10470",
        "Location": "Taman Kristal",
        "Post_Office": "Pulau Pinang",
        "State": "Pulau Pinang"
    },
    {
        "Postcode": "10470",
        "Location": "Jalan Tanjong Tokong",
        "Post_Office": "Pulau Pinang",
        "State": "Pulau Pinang"
    },
    {
        "Postcode": "10470",
        "Location": "Changkat Halia Satu",
        "Post_Office": "Pulau Pinang",
        "State": "Pulau Pinang"
    },
    {
        "Postcode": "10470",
        "Location": "Elseidale Estate",
        "Post_Office": "Pulau Pinang",
        "State": "Pulau Pinang"
    },
    {
        "Postcode": "10470",
        "Location": "Gerbang Erskine",
        "Post_Office": "Pulau Pinang",
        "State": "Pulau Pinang"
    },
    {
        "Postcode": "10470",
        "Location": "Hong Seng Estate",
        "Post_Office": "Pulau Pinang",
        "State": "Pulau Pinang"
    },
    {
        "Postcode": "10470",
        "Location": "Jalan Baru Tanjong Tokong",
        "Post_Office": "Pulau Pinang",
        "State": "Pulau Pinang"
    },
    {
        "Postcode": "10470",
        "Location": "Jalan Choong Lye Hin",
        "Post_Office": "Pulau Pinang",
        "State": "Pulau Pinang"
    },
    {
        "Postcode": "10470",
        "Location": "Jalan Choong Lye Hock",
        "Post_Office": "Pulau Pinang",
        "State": "Pulau Pinang"
    },
    {
        "Postcode": "10470",
        "Location": "Jalan Erskrine",
        "Post_Office": "Pulau Pinang",
        "State": "Pulau Pinang"
    },
    {
        "Postcode": "10470",
        "Location": "Jalan Haji Noor",
        "Post_Office": "Pulau Pinang",
        "State": "Pulau Pinang"
    },
    {
        "Postcode": "10470",
        "Location": "Jalan Lama (Tanjong Tokong)",
        "Post_Office": "Pulau Pinang",
        "State": "Pulau Pinang"
    },
    {
        "Postcode": "10470",
        "Location": "Jalan Lengkuas",
        "Post_Office": "Pulau Pinang",
        "State": "Pulau Pinang"
    },
    {
        "Postcode": "10470",
        "Location": "Jalan Mt Erskine",
        "Post_Office": "Pulau Pinang",
        "State": "Pulau Pinang"
    },
    {
        "Postcode": "10470",
        "Location": "Jalan Pantai Molek",
        "Post_Office": "Pulau Pinang",
        "State": "Pulau Pinang"
    },
    {
        "Postcode": "10470",
        "Location": "Jalan Satu Tanjong Tokong",
        "Post_Office": "Pulau Pinang",
        "State": "Pulau Pinang"
    },
    {
        "Postcode": "10470",
        "Location": "Jalan Seri Tanjung Pinang",
        "Post_Office": "Pulau Pinang",
        "State": "Pulau Pinang"
    },
    {
        "Postcode": "10470",
        "Location": "Jalan Shaik Ibrahim",
        "Post_Office": "Pulau Pinang",
        "State": "Pulau Pinang"
    },
    {
        "Postcode": "10470",
        "Location": "Jalan Siput Kepah",
        "Post_Office": "Pulau Pinang",
        "State": "Pulau Pinang"
    },
    {
        "Postcode": "10470",
        "Location": "Jalan Siput Lala",
        "Post_Office": "Pulau Pinang",
        "State": "Pulau Pinang"
    },
    {
        "Postcode": "10470",
        "Location": "Jalan Siput Remis",
        "Post_Office": "Pulau Pinang",
        "State": "Pulau Pinang"
    },
    {
        "Postcode": "10470",
        "Location": "Jalan Tua Peh Kong",
        "Post_Office": "Pulau Pinang",
        "State": "Pulau Pinang"
    },
    {
        "Postcode": "10470",
        "Location": "Kampung Belakang Bomba Tanjong Tokong",
        "Post_Office": "Pulau Pinang",
        "State": "Pulau Pinang"
    },
    {
        "Postcode": "10470",
        "Location": "Kampung Cina Tanjong Tokong",
        "Post_Office": "Pulau Pinang",
        "State": "Pulau Pinang"
    },
    {
        "Postcode": "10470",
        "Location": "Kampung Haji Hassim",
        "Post_Office": "Pulau Pinang",
        "State": "Pulau Pinang"
    },
    {
        "Postcode": "10470",
        "Location": "Kampung Kebun Sayur",
        "Post_Office": "Pulau Pinang",
        "State": "Pulau Pinang"
    },
    {
        "Postcode": "10470",
        "Location": "Kampung Lembu",
        "Post_Office": "Pulau Pinang",
        "State": "Pulau Pinang"
    },
    {
        "Postcode": "10470",
        "Location": "Kampung Tanjong Tokong",
        "Post_Office": "Pulau Pinang",
        "State": "Pulau Pinang"
    },
    {
        "Postcode": "10470",
        "Location": "Lengkok Endau",
        "Post_Office": "Pulau Pinang",
        "State": "Pulau Pinang"
    },
    {
        "Postcode": "10470",
        "Location": "Lengkok Erskine",
        "Post_Office": "Pulau Pinang",
        "State": "Pulau Pinang"
    },
    {
        "Postcode": "10470",
        "Location": "Lorong Bagan Jermal",
        "Post_Office": "Pulau Pinang",
        "State": "Pulau Pinang"
    },
    {
        "Postcode": "10470",
        "Location": "Lorong Erskine",
        "Post_Office": "Pulau Pinang",
        "State": "Pulau Pinang"
    },
    {
        "Postcode": "10470",
        "Location": "Lorong Lengkuas",
        "Post_Office": "Pulau Pinang",
        "State": "Pulau Pinang"
    },
    {
        "Postcode": "10470",
        "Location": "Lorong Seri Tanjung Pinang",
        "Post_Office": "Pulau Pinang",
        "State": "Pulau Pinang"
    },
    {
        "Postcode": "10470",
        "Location": "Medan Bayu",
        "Post_Office": "Pulau Pinang",
        "State": "Pulau Pinang"
    },
    {
        "Postcode": "10470",
        "Location": "Mount Erskine",
        "Post_Office": "Pulau Pinang",
        "State": "Pulau Pinang"
    },
    {
        "Postcode": "10470",
        "Location": "Persiaran Lengkuas",
        "Post_Office": "Pulau Pinang",
        "State": "Pulau Pinang"
    },
    {
        "Postcode": "10470",
        "Location": "Solok Batu Bukit",
        "Post_Office": "Pulau Pinang",
        "State": "Pulau Pinang"
    },
    {
        "Postcode": "10470",
        "Location": "Solok Choong Lye Hin",
        "Post_Office": "Pulau Pinang",
        "State": "Pulau Pinang"
    },
    {
        "Postcode": "10470",
        "Location": "Taman Hong Seng (Hong Seng Estate)",
        "Post_Office": "Pulau Pinang",
        "State": "Pulau Pinang"
    },
    {
        "Postcode": "10470",
        "Location": "Tanjong Tokong",
        "Post_Office": "Pulau Pinang",
        "State": "Pulau Pinang"
    },
    {
        "Postcode": "10470",
        "Location": "Tingkat Hock Hin",
        "Post_Office": "Pulau Pinang",
        "State": "Pulau Pinang"
    },
    {
        "Postcode": "10470",
        "Location": "Tingkat Lengkuas",
        "Post_Office": "Pulau Pinang",
        "State": "Pulau Pinang"
    }
]
