[
    {
        "Postcode": "91000",
        "Location": "Ambar Park",
        "Post_Office": "Tawau",
        "State": "Sabah"
    },
    {
        "Postcode": "91000",
        "Location": "Apas Balung",
        "Post_Office": "Tawau",
        "State": "Sabah"
    },
    {
        "Postcode": "91000",
        "Location": "Balung",
        "Post_Office": "Tawau",
        "State": "Sabah"
    },
    {
        "Postcode": "91000",
        "Location": "Bandar Sabindo",
        "Post_Office": "Tawau",
        "State": "Sabah"
    },
    {
        "Postcode": "91000",
        "Location": "Berumas",
        "Post_Office": "Tawau",
        "State": "Sabah"
    },
    {
        "Postcode": "91000",
        "Location": "Bommalai",
        "Post_Office": "Tawau",
        "State": "Sabah"
    },
    {
        "Postcode": "91000",
        "Location": "Brantian",
        "Post_Office": "Tawau",
        "State": "Sabah"
    },
    {
        "Postcode": "91000",
        "Location": "Check Point",
        "Post_Office": "Tawau",
        "State": "Sabah"
    },
    {
        "Postcode": "91000",
        "Location": "Jalan Apas (Batu 5 1/2)",
        "Post_Office": "Tawau",
        "State": "Sabah"
    },
    {
        "Postcode": "91000",
        "Location": "Kalabakan",
        "Post_Office": "Tawau",
        "State": "Sabah"
    },
    {
        "Postcode": "91000",
        "Location": "Kampung Jawa",
        "Post_Office": "Tawau",
        "State": "Sabah"
    },
    {
        "Postcode": "91000",
        "Location": "Kampung Tanjong Batu Darat",
        "Post_Office": "Tawau",
        "State": "Sabah"
    },
    {
        "Postcode": "91000",
        "Location": "Kampung Tanjong Batu Laut",
        "Post_Office": "Tawau",
        "State": "Sabah"
    },
    {
        "Postcode": "91000",
        "Location": "Kampung Titingan",
        "Post_Office": "Tawau",
        "State": "Sabah"
    },
    {
        "Postcode": "91000",
        "Location": "Kampung Ulu Tiku",
        "Post_Office": "Tawau",
        "State": "Sabah"
    },
    {
        "Postcode": "91000",
        "Location": "Merotai",
        "Post_Office": "Tawau",
        "State": "Sabah"
    },
    {
        "Postcode": "91000",
        "Location": "Merotai Estate",
        "Post_Office": "Tawau",
        "State": "Sabah"
    },
    {
        "Postcode": "91000",
        "Location": "Seri Tanjong",
        "Post_Office": "Tawau",
        "State": "Sabah"
    },
    {
        "Postcode": "91000",
        "Location": "Sin On (Batu 5 1/2)",
        "Post_Office": "Tawau",
        "State": "Sabah"
    },
    {
        "Postcode": "91000",
        "Location": "Tawau",
        "Post_Office": "Tawau",
        "State": "Sabah"
    }
]
