[
    {
        "Postcode": "82000",
        "Location": "Jalan Abdullah",
        "Post_Office": "Pontian",
        "State": "Johor"
    },
    {
        "Postcode": "82000",
        "Location": "Jalan Ibrahim",
        "Post_Office": "Pontian",
        "State": "Johor"
    },
    {
        "Postcode": "82000",
        "Location": "Jalan Ismail",
        "Post_Office": "Pontian",
        "State": "Johor"
    },
    {
        "Postcode": "82000",
        "Location": "Kampung Dalam",
        "Post_Office": "Pontian",
        "State": "Johor"
    },
    {
        "Postcode": "82000",
        "Location": "Kampung Parit Baru",
        "Post_Office": "Pontian",
        "State": "Johor"
    },
    {
        "Postcode": "82000",
        "Location": "Taman Permata",
        "Post_Office": "Pontian",
        "State": "Johor"
    },
    {
        "Postcode": "82000",
        "Location": "Jalan Kolam Air",
        "Post_Office": "Pontian",
        "State": "Johor"
    },
    {
        "Postcode": "82000",
        "Location": "Jalan Rahmat",
        "Post_Office": "Pontian",
        "State": "Johor"
    },
    {
        "Postcode": "82000",
        "Location": "Kampung Kubur",
        "Post_Office": "Pontian",
        "State": "Johor"
    },
    {
        "Postcode": "82000",
        "Location": "Kampung Sawah",
        "Post_Office": "Pontian",
        "State": "Johor"
    },
    {
        "Postcode": "82000",
        "Location": "Taman Palma",
        "Post_Office": "Pontian",
        "State": "Johor"
    },
    {
        "Postcode": "82000",
        "Location": "Taman Saujana",
        "Post_Office": "Pontian",
        "State": "Johor"
    },
    {
        "Postcode": "82000",
        "Location": "Taman Warisan",
        "Post_Office": "Pontian",
        "State": "Johor"
    },
    {
        "Postcode": "82000",
        "Location": "Jalan Pejabat",
        "Post_Office": "Pontian",
        "State": "Johor"
    },
    {
        "Postcode": "82000",
        "Location": "Jalan Sekolah Arab",
        "Post_Office": "Pontian",
        "State": "Johor"
    },
    {
        "Postcode": "82000",
        "Location": "Kampung Merdeka",
        "Post_Office": "Pontian",
        "State": "Johor"
    },
    {
        "Postcode": "82000",
        "Location": "Kampung Parit Kerinci",
        "Post_Office": "Pontian",
        "State": "Johor"
    },
    {
        "Postcode": "82000",
        "Location": "Kampung Parit Lintang",
        "Post_Office": "Pontian",
        "State": "Johor"
    },
    {
        "Postcode": "82000",
        "Location": "Parit Bilal",
        "Post_Office": "Pontian",
        "State": "Johor"
    },
    {
        "Postcode": "82000",
        "Location": "Parit Lapis",
        "Post_Office": "Pontian",
        "State": "Johor"
    },
    {
        "Postcode": "82000",
        "Location": "Taman Gembira",
        "Post_Office": "Pontian",
        "State": "Johor"
    },
    {
        "Postcode": "82000",
        "Location": "Taman Jasa",
        "Post_Office": "Pontian",
        "State": "Johor"
    },
    {
        "Postcode": "82000",
        "Location": "Taman Kenangan",
        "Post_Office": "Pontian",
        "State": "Johor"
    },
    {
        "Postcode": "82000",
        "Location": "Taman Kristal",
        "Post_Office": "Pontian",
        "State": "Johor"
    },
    {
        "Postcode": "82000",
        "Location": "Taman Rakyat",
        "Post_Office": "Pontian",
        "State": "Johor"
    },
    {
        "Postcode": "82000",
        "Location": "Taman Desa Juta",
        "Post_Office": "Pontian",
        "State": "Johor"
    },
    {
        "Postcode": "82000",
        "Location": "Taman Desa Sri Impian",
        "Post_Office": "Pontian",
        "State": "Johor"
    },
    {
        "Postcode": "82000",
        "Location": "Taman Impian Indah",
        "Post_Office": "Pontian",
        "State": "Johor"
    },
    {
        "Postcode": "82000",
        "Location": "Taman Rimba Jaya 2",
        "Post_Office": "Pontian",
        "State": "Johor"
    },
    {
        "Postcode": "82000",
        "Location": "Taman Semarak",
        "Post_Office": "Pontian",
        "State": "Johor"
    },
    {
        "Postcode": "82000",
        "Location": "Taman Semerah Indah",
        "Post_Office": "Pontian",
        "State": "Johor"
    },
    {
        "Postcode": "82000",
        "Location": "Taman Sri Semerah",
        "Post_Office": "Pontian",
        "State": "Johor"
    },
    {
        "Postcode": "82000",
        "Location": "Taman Jasa Indah",
        "Post_Office": "Pontian",
        "State": "Johor"
    },
    {
        "Postcode": "82000",
        "Location": "Kampung Tengah 1",
        "Post_Office": "Pontian",
        "State": "Johor"
    },
    {
        "Postcode": "82000",
        "Location": "Kampung Tengah 2",
        "Post_Office": "Pontian",
        "State": "Johor"
    },
    {
        "Postcode": "82000",
        "Location": "Kampung Parit Mesjid Dalam",
        "Post_Office": "Pontian",
        "State": "Johor"
    },
    {
        "Postcode": "82000",
        "Location": "Kampung Parit Tasrip",
        "Post_Office": "Pontian",
        "State": "Johor"
    },
    {
        "Postcode": "82000",
        "Location": "Kampung Parit Wer",
        "Post_Office": "Pontian",
        "State": "Johor"
    },
    {
        "Postcode": "82000",
        "Location": "Kampung Sungai Syam",
        "Post_Office": "Pontian",
        "State": "Johor"
    },
    {
        "Postcode": "82000",
        "Location": "Kampung Telok Kerang",
        "Post_Office": "Pontian",
        "State": "Johor"
    },
    {
        "Postcode": "82000",
        "Location": "Parit Serong Darat",
        "Post_Office": "Pontian",
        "State": "Johor"
    },
    {
        "Postcode": "82000",
        "Location": "Parit Suka Raja",
        "Post_Office": "Pontian",
        "State": "Johor"
    },
    {
        "Postcode": "82000",
        "Location": "Pekan Kayu Ara Pasong",
        "Post_Office": "Pontian",
        "State": "Johor"
    },
    {
        "Postcode": "82000",
        "Location": "Pekan Rambah",
        "Post_Office": "Pontian",
        "State": "Johor"
    },
    {
        "Postcode": "82000",
        "Location": "Taman Kota Emas",
        "Post_Office": "Pontian",
        "State": "Johor"
    },
    {
        "Postcode": "82000",
        "Location": "Jalan Taib",
        "Post_Office": "Pontian",
        "State": "Johor"
    },
    {
        "Postcode": "82000",
        "Location": "Lorong Berlian",
        "Post_Office": "Pontian",
        "State": "Johor"
    },
    {
        "Postcode": "82000",
        "Location": "Lorong Ibrahim",
        "Post_Office": "Pontian",
        "State": "Johor"
    },
    {
        "Postcode": "82000",
        "Location": "Lorong Jaya",
        "Post_Office": "Pontian",
        "State": "Johor"
    },
    {
        "Postcode": "82000",
        "Location": "Lorong Kassim",
        "Post_Office": "Pontian",
        "State": "Johor"
    },
    {
        "Postcode": "82000",
        "Location": "Lorong Nangka",
        "Post_Office": "Pontian",
        "State": "Johor"
    },
    {
        "Postcode": "82000",
        "Location": "Lorong Peria",
        "Post_Office": "Pontian",
        "State": "Johor"
    },
    {
        "Postcode": "82000",
        "Location": "Lorong Ria",
        "Post_Office": "Pontian",
        "State": "Johor"
    },
    {
        "Postcode": "82000",
        "Location": "Kampung Parit Abdul Rahman",
        "Post_Office": "Pontian",
        "State": "Johor"
    },
    {
        "Postcode": "82000",
        "Location": "Taman Cahaya",
        "Post_Office": "Pontian",
        "State": "Johor"
    },
    {
        "Postcode": "82000",
        "Location": "Taman Desa Impian",
        "Post_Office": "Pontian",
        "State": "Johor"
    },
    {
        "Postcode": "82000",
        "Location": "Taman Mekar",
        "Post_Office": "Pontian",
        "State": "Johor"
    },
    {
        "Postcode": "82000",
        "Location": "Taman Nong Chik",
        "Post_Office": "Pontian",
        "State": "Johor"
    },
    {
        "Postcode": "82000",
        "Location": "Taman Selesa Jaya",
        "Post_Office": "Pontian",
        "State": "Johor"
    },
    {
        "Postcode": "82000",
        "Location": "Taman Sri Mahkota",
        "Post_Office": "Pontian",
        "State": "Johor"
    },
    {
        "Postcode": "82000",
        "Location": "Taman Sri Sutera",
        "Post_Office": "Pontian",
        "State": "Johor"
    },
    {
        "Postcode": "82000",
        "Location": "Taman Suraya",
        "Post_Office": "Pontian",
        "State": "Johor"
    },
    {
        "Postcode": "82000",
        "Location": "Kampung Batu 6",
        "Post_Office": "Pontian",
        "State": "Johor"
    },
    {
        "Postcode": "82000",
        "Location": "Kampung Cina",
        "Post_Office": "Pontian",
        "State": "Johor"
    },
    {
        "Postcode": "82000",
        "Location": "Kampung Duku",
        "Post_Office": "Pontian",
        "State": "Johor"
    },
    {
        "Postcode": "82000",
        "Location": "Kampung Melayu",
        "Post_Office": "Pontian",
        "State": "Johor"
    },
    {
        "Postcode": "82000",
        "Location": "Kampung Orang Asli",
        "Post_Office": "Pontian",
        "State": "Johor"
    },
    {
        "Postcode": "82000",
        "Location": "Kampung Parit Bugis",
        "Post_Office": "Pontian",
        "State": "Johor"
    },
    {
        "Postcode": "82000",
        "Location": "Kampung Parit Jawa",
        "Post_Office": "Pontian",
        "State": "Johor"
    },
    {
        "Postcode": "82000",
        "Location": "Lorong Aman",
        "Post_Office": "Pontian",
        "State": "Johor"
    },
    {
        "Postcode": "82000",
        "Location": "Lorong Kenangan",
        "Post_Office": "Pontian",
        "State": "Johor"
    },
    {
        "Postcode": "82000",
        "Location": "Lorong Kurnia",
        "Post_Office": "Pontian",
        "State": "Johor"
    },
    {
        "Postcode": "82000",
        "Location": "Lorong Pendita",
        "Post_Office": "Pontian",
        "State": "Johor"
    },
    {
        "Postcode": "82000",
        "Location": "Lorong Perkasa",
        "Post_Office": "Pontian",
        "State": "Johor"
    },
    {
        "Postcode": "82000",
        "Location": "Parit Bengkok",
        "Post_Office": "Pontian",
        "State": "Johor"
    },
    {
        "Postcode": "82000",
        "Location": "Parit Haji Arif",
        "Post_Office": "Pontian",
        "State": "Johor"
    },
    {
        "Postcode": "82000",
        "Location": "Parit Haji Dahlan",
        "Post_Office": "Pontian",
        "State": "Johor"
    },
    {
        "Postcode": "82000",
        "Location": "Parit Haji Siraj",
        "Post_Office": "Pontian",
        "State": "Johor"
    },
    {
        "Postcode": "82000",
        "Location": "Parit Haji Zain",
        "Post_Office": "Pontian",
        "State": "Johor"
    },
    {
        "Postcode": "82000",
        "Location": "Parit Ibrahim",
        "Post_Office": "Pontian",
        "State": "Johor"
    },
    {
        "Postcode": "82000",
        "Location": "Parit Lama",
        "Post_Office": "Pontian",
        "State": "Johor"
    },
    {
        "Postcode": "82000",
        "Location": "Parit Masjid",
        "Post_Office": "Pontian",
        "State": "Johor"
    },
    {
        "Postcode": "82000",
        "Location": "Parit Raja",
        "Post_Office": "Pontian",
        "State": "Johor"
    },
    {
        "Postcode": "82000",
        "Location": "Parit Serong",
        "Post_Office": "Pontian",
        "State": "Johor"
    },
    {
        "Postcode": "82000",
        "Location": "Taman Anggerik",
        "Post_Office": "Pontian",
        "State": "Johor"
    },
    {
        "Postcode": "82000",
        "Location": "Taman Bahagia",
        "Post_Office": "Pontian",
        "State": "Johor"
    },
    {
        "Postcode": "82000",
        "Location": "Taman Bunga Raya",
        "Post_Office": "Pontian",
        "State": "Johor"
    },
    {
        "Postcode": "82000",
        "Location": "Taman Damai",
        "Post_Office": "Pontian",
        "State": "Johor"
    },
    {
        "Postcode": "82000",
        "Location": "Taman Harta",
        "Post_Office": "Pontian",
        "State": "Johor"
    },
    {
        "Postcode": "82000",
        "Location": "Taman Indah",
        "Post_Office": "Pontian",
        "State": "Johor"
    },
    {
        "Postcode": "82000",
        "Location": "Taman Jaya",
        "Post_Office": "Pontian",
        "State": "Johor"
    },
    {
        "Postcode": "82000",
        "Location": "Taman Kota Mas",
        "Post_Office": "Pontian",
        "State": "Johor"
    },
    {
        "Postcode": "82000",
        "Location": "Taman Mawar",
        "Post_Office": "Pontian",
        "State": "Johor"
    },
    {
        "Postcode": "82000",
        "Location": "Taman Megah",
        "Post_Office": "Pontian",
        "State": "Johor"
    },
    {
        "Postcode": "82000",
        "Location": "Taman Melati",
        "Post_Office": "Pontian",
        "State": "Johor"
    },
    {
        "Postcode": "82000",
        "Location": "Taman Merdeka",
        "Post_Office": "Pontian",
        "State": "Johor"
    },
    {
        "Postcode": "82000",
        "Location": "Taman Nilam",
        "Post_Office": "Pontian",
        "State": "Johor"
    },
    {
        "Postcode": "82000",
        "Location": "Taman Perpaduan",
        "Post_Office": "Pontian",
        "State": "Johor"
    },
    {
        "Postcode": "82000",
        "Location": "Taman Sutera",
        "Post_Office": "Pontian",
        "State": "Johor"
    },
    {
        "Postcode": "82000",
        "Location": "Parit Haji Omar",
        "Post_Office": "Pontian",
        "State": "Johor"
    },
    {
        "Postcode": "82000",
        "Location": "Taman Baiduri",
        "Post_Office": "Pontian",
        "State": "Johor"
    },
    {
        "Postcode": "82000",
        "Location": "Taman Maju",
        "Post_Office": "Pontian",
        "State": "Johor"
    },
    {
        "Postcode": "82000",
        "Location": "Taman Mutiara",
        "Post_Office": "Pontian",
        "State": "Johor"
    },
    {
        "Postcode": "82000",
        "Location": "Taman Sentosa",
        "Post_Office": "Pontian",
        "State": "Johor"
    },
    {
        "Postcode": "82000",
        "Location": "Taman Sri Pantai",
        "Post_Office": "Pontian",
        "State": "Johor"
    },
    {
        "Postcode": "82000",
        "Location": "Bandar Baru Pontian",
        "Post_Office": "Pontian",
        "State": "Johor"
    },
    {
        "Postcode": "82000",
        "Location": "Jalan Abas",
        "Post_Office": "Pontian",
        "State": "Johor"
    },
    {
        "Postcode": "82000",
        "Location": "Jalan Alsagoff",
        "Post_Office": "Pontian",
        "State": "Johor"
    },
    {
        "Postcode": "82000",
        "Location": "Jalan Bakek",
        "Post_Office": "Pontian",
        "State": "Johor"
    },
    {
        "Postcode": "82000",
        "Location": "Jalan Dato Ali",
        "Post_Office": "Pontian",
        "State": "Johor"
    },
    {
        "Postcode": "82000",
        "Location": "Jalan Dewan",
        "Post_Office": "Pontian",
        "State": "Johor"
    },
    {
        "Postcode": "82000",
        "Location": "Jalan Johor Batu 36",
        "Post_Office": "Pontian",
        "State": "Johor"
    },
    {
        "Postcode": "82000",
        "Location": "Jalan Johor Batu 38 1/4 - 40 1/4",
        "Post_Office": "Pontian",
        "State": "Johor"
    },
    {
        "Postcode": "82000",
        "Location": "Jalan Kukup Batu 38 - 38 1/2",
        "Post_Office": "Pontian",
        "State": "Johor"
    },
    {
        "Postcode": "82000",
        "Location": "Jalan Md. Salleh",
        "Post_Office": "Pontian",
        "State": "Johor"
    },
    {
        "Postcode": "82000",
        "Location": "Jalan Parit Masjid",
        "Post_Office": "Pontian",
        "State": "Johor"
    },
    {
        "Postcode": "82000",
        "Location": "Jalan Parit Patah",
        "Post_Office": "Pontian",
        "State": "Johor"
    },
    {
        "Postcode": "82000",
        "Location": "Jalan Persiaran 2",
        "Post_Office": "Pontian",
        "State": "Johor"
    },
    {
        "Postcode": "82000",
        "Location": "Jalan Pontian Besar",
        "Post_Office": "Pontian",
        "State": "Johor"
    },
    {
        "Postcode": "82000",
        "Location": "Jalan Shawal",
        "Post_Office": "Pontian",
        "State": "Johor"
    },
    {
        "Postcode": "82000",
        "Location": "Jalan Sungai Gurap",
        "Post_Office": "Pontian",
        "State": "Johor"
    },
    {
        "Postcode": "82000",
        "Location": "Jalan Tabung Haji",
        "Post_Office": "Pontian",
        "State": "Johor"
    },
    {
        "Postcode": "82000",
        "Location": "Jalan Teo Kang Sui",
        "Post_Office": "Pontian",
        "State": "Johor"
    },
    {
        "Postcode": "82000",
        "Location": "Jalan Umno",
        "Post_Office": "Pontian",
        "State": "Johor"
    },
    {
        "Postcode": "82000",
        "Location": "Kampung Api-Api",
        "Post_Office": "Pontian",
        "State": "Johor"
    },
    {
        "Postcode": "82000",
        "Location": "Kampung Banjar",
        "Post_Office": "Pontian",
        "State": "Johor"
    },
    {
        "Postcode": "82000",
        "Location": "Kampung Belokok",
        "Post_Office": "Pontian",
        "State": "Johor"
    },
    {
        "Postcode": "82000",
        "Location": "Kampung Bugis",
        "Post_Office": "Pontian",
        "State": "Johor"
    },
    {
        "Postcode": "82000",
        "Location": "Kampung Buluh Cina",
        "Post_Office": "Pontian",
        "State": "Johor"
    },
    {
        "Postcode": "82000",
        "Location": "Kampung Jekun",
        "Post_Office": "Pontian",
        "State": "Johor"
    },
    {
        "Postcode": "82000",
        "Location": "Kampung Kayu Ara Pasong",
        "Post_Office": "Pontian",
        "State": "Johor"
    },
    {
        "Postcode": "82000",
        "Location": "Kampung Kelapa",
        "Post_Office": "Pontian",
        "State": "Johor"
    },
    {
        "Postcode": "82000",
        "Location": "Kampung Medan Sari",
        "Post_Office": "Pontian",
        "State": "Johor"
    },
    {
        "Postcode": "82000",
        "Location": "Kampung Naga",
        "Post_Office": "Pontian",
        "State": "Johor"
    },
    {
        "Postcode": "82000",
        "Location": "Kampung Pak Intan",
        "Post_Office": "Pontian",
        "State": "Johor"
    },
    {
        "Postcode": "82000",
        "Location": "Kampung Paradin",
        "Post_Office": "Pontian",
        "State": "Johor"
    },
    {
        "Postcode": "82000",
        "Location": "Kampung Parit Jermin",
        "Post_Office": "Pontian",
        "State": "Johor"
    },
    {
        "Postcode": "82000",
        "Location": "Kampung Parit Kecil",
        "Post_Office": "Pontian",
        "State": "Johor"
    },
    {
        "Postcode": "82000",
        "Location": "Kampung Parit Osman",
        "Post_Office": "Pontian",
        "State": "Johor"
    },
    {
        "Postcode": "82000",
        "Location": "Kampung Parit Patah",
        "Post_Office": "Pontian",
        "State": "Johor"
    },
    {
        "Postcode": "82000",
        "Location": "Kampung Parit Rambai",
        "Post_Office": "Pontian",
        "State": "Johor"
    },
    {
        "Postcode": "82000",
        "Location": "Kampung Parit Sapran",
        "Post_Office": "Pontian",
        "State": "Johor"
    },
    {
        "Postcode": "82000",
        "Location": "Kampung Parit Semerah",
        "Post_Office": "Pontian",
        "State": "Johor"
    },
    {
        "Postcode": "82000",
        "Location": "Kampung Parit Tenggayon",
        "Post_Office": "Pontian",
        "State": "Johor"
    },
    {
        "Postcode": "82000",
        "Location": "Kampung Parit Wakaf",
        "Post_Office": "Pontian",
        "State": "Johor"
    },
    {
        "Postcode": "82000",
        "Location": "Kampung Penerok",
        "Post_Office": "Pontian",
        "State": "Johor"
    },
    {
        "Postcode": "82000",
        "Location": "Kampung Permata",
        "Post_Office": "Pontian",
        "State": "Johor"
    },
    {
        "Postcode": "82000",
        "Location": "Kampung Pesisir",
        "Post_Office": "Pontian",
        "State": "Johor"
    },
    {
        "Postcode": "82000",
        "Location": "Kampung Pesisir Dalam",
        "Post_Office": "Pontian",
        "State": "Johor"
    },
    {
        "Postcode": "82000",
        "Location": "Kampung Pontian Besar",
        "Post_Office": "Pontian",
        "State": "Johor"
    },
    {
        "Postcode": "82000",
        "Location": "Kampung Rambah",
        "Post_Office": "Pontian",
        "State": "Johor"
    },
    {
        "Postcode": "82000",
        "Location": "Kampung Rambai Ulu",
        "Post_Office": "Pontian",
        "State": "Johor"
    },
    {
        "Postcode": "82000",
        "Location": "Kampung Rimba Terjun",
        "Post_Office": "Pontian",
        "State": "Johor"
    },
    {
        "Postcode": "82000",
        "Location": "Kampung Seri Bunian",
        "Post_Office": "Pontian",
        "State": "Johor"
    },
    {
        "Postcode": "82000",
        "Location": "Kampung Seri Dungun",
        "Post_Office": "Pontian",
        "State": "Johor"
    },
    {
        "Postcode": "82000",
        "Location": "Kampung Sungai Buluh Kasap",
        "Post_Office": "Pontian",
        "State": "Johor"
    },
    {
        "Postcode": "82000",
        "Location": "Kampung Sungai Bunyi",
        "Post_Office": "Pontian",
        "State": "Johor"
    },
    {
        "Postcode": "82000",
        "Location": "Kampung Sungai Bunyi Hilir",
        "Post_Office": "Pontian",
        "State": "Johor"
    },
    {
        "Postcode": "82000",
        "Location": "Kampung Sungai Gurap",
        "Post_Office": "Pontian",
        "State": "Johor"
    },
    {
        "Postcode": "82000",
        "Location": "Kampung Sungai Naga",
        "Post_Office": "Pontian",
        "State": "Johor"
    },
    {
        "Postcode": "82000",
        "Location": "Kampung Sungai Punai",
        "Post_Office": "Pontian",
        "State": "Johor"
    },
    {
        "Postcode": "82000",
        "Location": "Kampung Sungai Senai",
        "Post_Office": "Pontian",
        "State": "Johor"
    },
    {
        "Postcode": "82000",
        "Location": "Kampung Tanjung Air Hitam",
        "Post_Office": "Pontian",
        "State": "Johor"
    },
    {
        "Postcode": "82000",
        "Location": "Kampung Teluk Kerang",
        "Post_Office": "Pontian",
        "State": "Johor"
    },
    {
        "Postcode": "82000",
        "Location": "Kampung Terenggayon",
        "Post_Office": "Pontian",
        "State": "Johor"
    },
    {
        "Postcode": "82000",
        "Location": "Kampung Timor Laut",
        "Post_Office": "Pontian",
        "State": "Johor"
    },
    {
        "Postcode": "82000",
        "Location": "Kampung Timor Raya",
        "Post_Office": "Pontian",
        "State": "Johor"
    },
    {
        "Postcode": "82000",
        "Location": "Kampungpesisir",
        "Post_Office": "Pontian",
        "State": "Johor"
    },
    {
        "Postcode": "82000",
        "Location": "Kawasan Perindustrian Pontian",
        "Post_Office": "Pontian",
        "State": "Johor"
    },
    {
        "Postcode": "82000",
        "Location": "Kayu Ara Pasong",
        "Post_Office": "Pontian",
        "State": "Johor"
    },
    {
        "Postcode": "82000",
        "Location": "Lorong Abadi",
        "Post_Office": "Pontian",
        "State": "Johor"
    },
    {
        "Postcode": "82000",
        "Location": "Lorong Abd. Majid",
        "Post_Office": "Pontian",
        "State": "Johor"
    },
    {
        "Postcode": "82000",
        "Location": "Lorong Achuan",
        "Post_Office": "Pontian",
        "State": "Johor"
    },
    {
        "Postcode": "82000",
        "Location": "Lorong Agong",
        "Post_Office": "Pontian",
        "State": "Johor"
    },
    {
        "Postcode": "82000",
        "Location": "Lorong Ajmil",
        "Post_Office": "Pontian",
        "State": "Johor"
    },
    {
        "Postcode": "82000",
        "Location": "Lorong Amil",
        "Post_Office": "Pontian",
        "State": "Johor"
    },
    {
        "Postcode": "82000",
        "Location": "Lorong Antarabangsa",
        "Post_Office": "Pontian",
        "State": "Johor"
    },
    {
        "Postcode": "82000",
        "Location": "Lorong Asraf",
        "Post_Office": "Pontian",
        "State": "Johor"
    },
    {
        "Postcode": "82000",
        "Location": "Lorong Bahagia",
        "Post_Office": "Pontian",
        "State": "Johor"
    },
    {
        "Postcode": "82000",
        "Location": "Lorong Bakti",
        "Post_Office": "Pontian",
        "State": "Johor"
    },
    {
        "Postcode": "82000",
        "Location": "Lorong Baru",
        "Post_Office": "Pontian",
        "State": "Johor"
    },
    {
        "Postcode": "82000",
        "Location": "Lorong Bayam",
        "Post_Office": "Pontian",
        "State": "Johor"
    },
    {
        "Postcode": "82000",
        "Location": "Lorong Bilal",
        "Post_Office": "Pontian",
        "State": "Johor"
    },
    {
        "Postcode": "82000",
        "Location": "Lorong Bugis",
        "Post_Office": "Pontian",
        "State": "Johor"
    },
    {
        "Postcode": "82000",
        "Location": "Lorong Bunga Tanjong",
        "Post_Office": "Pontian",
        "State": "Johor"
    },
    {
        "Postcode": "82000",
        "Location": "Lorong Cempaka",
        "Post_Office": "Pontian",
        "State": "Johor"
    },
    {
        "Postcode": "82000",
        "Location": "Lorong Ciku",
        "Post_Office": "Pontian",
        "State": "Johor"
    },
    {
        "Postcode": "82000",
        "Location": "Lorong Damai",
        "Post_Office": "Pontian",
        "State": "Johor"
    },
    {
        "Postcode": "82000",
        "Location": "Lorong Damansara",
        "Post_Office": "Pontian",
        "State": "Johor"
    },
    {
        "Postcode": "82000",
        "Location": "Lorong Dato Hitam",
        "Post_Office": "Pontian",
        "State": "Johor"
    },
    {
        "Postcode": "82000",
        "Location": "Lorong Duku",
        "Post_Office": "Pontian",
        "State": "Johor"
    },
    {
        "Postcode": "82000",
        "Location": "Lorong Gantung",
        "Post_Office": "Pontian",
        "State": "Johor"
    },
    {
        "Postcode": "82000",
        "Location": "Lorong Gudawara",
        "Post_Office": "Pontian",
        "State": "Johor"
    },
    {
        "Postcode": "82000",
        "Location": "Lorong Haji Abdullah",
        "Post_Office": "Pontian",
        "State": "Johor"
    },
    {
        "Postcode": "82000",
        "Location": "Lorong Haji Ahmad",
        "Post_Office": "Pontian",
        "State": "Johor"
    },
    {
        "Postcode": "82000",
        "Location": "Lorong Haji Besar",
        "Post_Office": "Pontian",
        "State": "Johor"
    },
    {
        "Postcode": "82000",
        "Location": "Lorong Haji Dolah",
        "Post_Office": "Pontian",
        "State": "Johor"
    },
    {
        "Postcode": "82000",
        "Location": "Lorong Haji Elias",
        "Post_Office": "Pontian",
        "State": "Johor"
    },
    {
        "Postcode": "82000",
        "Location": "Lorong Haji Idros",
        "Post_Office": "Pontian",
        "State": "Johor"
    },
    {
        "Postcode": "82000",
        "Location": "Lorong Haji Ismail",
        "Post_Office": "Pontian",
        "State": "Johor"
    },
    {
        "Postcode": "82000",
        "Location": "Lorong Haji Joned",
        "Post_Office": "Pontian",
        "State": "Johor"
    },
    {
        "Postcode": "82000",
        "Location": "Lorong Haji Kamsah",
        "Post_Office": "Pontian",
        "State": "Johor"
    },
    {
        "Postcode": "82000",
        "Location": "Lorong Haji Mahmod",
        "Post_Office": "Pontian",
        "State": "Johor"
    },
    {
        "Postcode": "82000",
        "Location": "Lorong Haji Markom",
        "Post_Office": "Pontian",
        "State": "Johor"
    },
    {
        "Postcode": "82000",
        "Location": "Lorong Haji Md. Yusof",
        "Post_Office": "Pontian",
        "State": "Johor"
    },
    {
        "Postcode": "82000",
        "Location": "Lorong Haji Saibon",
        "Post_Office": "Pontian",
        "State": "Johor"
    },
    {
        "Postcode": "82000",
        "Location": "Lorong Haji Sarif",
        "Post_Office": "Pontian",
        "State": "Johor"
    },
    {
        "Postcode": "82000",
        "Location": "Lorong Haji Selamat",
        "Post_Office": "Pontian",
        "State": "Johor"
    },
    {
        "Postcode": "82000",
        "Location": "Lorong Haji Shamsi",
        "Post_Office": "Pontian",
        "State": "Johor"
    },
    {
        "Postcode": "82000",
        "Location": "Lorong Haji Sulaiman",
        "Post_Office": "Pontian",
        "State": "Johor"
    },
    {
        "Postcode": "82000",
        "Location": "Lorong Haji Yusof",
        "Post_Office": "Pontian",
        "State": "Johor"
    },
    {
        "Postcode": "82000",
        "Location": "Lorong Harmoni",
        "Post_Office": "Pontian",
        "State": "Johor"
    },
    {
        "Postcode": "82000",
        "Location": "Lorong Hashim",
        "Post_Office": "Pontian",
        "State": "Johor"
    },
    {
        "Postcode": "82000",
        "Location": "Lorong Hijrah",
        "Post_Office": "Pontian",
        "State": "Johor"
    },
    {
        "Postcode": "82000",
        "Location": "Lorong Idrus",
        "Post_Office": "Pontian",
        "State": "Johor"
    },
    {
        "Postcode": "82000",
        "Location": "Lorong Imat",
        "Post_Office": "Pontian",
        "State": "Johor"
    },
    {
        "Postcode": "82000",
        "Location": "Lorong Jelatik",
        "Post_Office": "Pontian",
        "State": "Johor"
    },
    {
        "Postcode": "82000",
        "Location": "Lorong Kacang",
        "Post_Office": "Pontian",
        "State": "Johor"
    },
    {
        "Postcode": "82000",
        "Location": "Lorong Kalsom",
        "Post_Office": "Pontian",
        "State": "Johor"
    },
    {
        "Postcode": "82000",
        "Location": "Lorong Kangkong",
        "Post_Office": "Pontian",
        "State": "Johor"
    },
    {
        "Postcode": "82000",
        "Location": "Lorong Keadilan",
        "Post_Office": "Pontian",
        "State": "Johor"
    },
    {
        "Postcode": "82000",
        "Location": "Lorong Keluarga",
        "Post_Office": "Pontian",
        "State": "Johor"
    },
    {
        "Postcode": "82000",
        "Location": "Lorong Kemang",
        "Post_Office": "Pontian",
        "State": "Johor"
    },
    {
        "Postcode": "82000",
        "Location": "Lorong Kemboja",
        "Post_Office": "Pontian",
        "State": "Johor"
    },
    {
        "Postcode": "82000",
        "Location": "Lorong Kenanga",
        "Post_Office": "Pontian",
        "State": "Johor"
    },
    {
        "Postcode": "82000",
        "Location": "Lorong Langsat",
        "Post_Office": "Pontian",
        "State": "Johor"
    },
    {
        "Postcode": "82000",
        "Location": "Lorong Li Ling",
        "Post_Office": "Pontian",
        "State": "Johor"
    },
    {
        "Postcode": "82000",
        "Location": "Lorong Liang",
        "Post_Office": "Pontian",
        "State": "Johor"
    },
    {
        "Postcode": "82000",
        "Location": "Lorong Mahadi",
        "Post_Office": "Pontian",
        "State": "Johor"
    },
    {
        "Postcode": "82000",
        "Location": "Lorong Manggis",
        "Post_Office": "Pontian",
        "State": "Johor"
    },
    {
        "Postcode": "82000",
        "Location": "Lorong Mariam",
        "Post_Office": "Pontian",
        "State": "Johor"
    },
    {
        "Postcode": "82000",
        "Location": "Lorong Matap",
        "Post_Office": "Pontian",
        "State": "Johor"
    },
    {
        "Postcode": "82000",
        "Location": "Lorong Md. Nasir",
        "Post_Office": "Pontian",
        "State": "Johor"
    },
    {
        "Postcode": "82000",
        "Location": "Lorong Md. Nor",
        "Post_Office": "Pontian",
        "State": "Johor"
    },
    {
        "Postcode": "82000",
        "Location": "Lorong Mengkudu",
        "Post_Office": "Pontian",
        "State": "Johor"
    },
    {
        "Postcode": "82000",
        "Location": "Lorong Merbok",
        "Post_Office": "Pontian",
        "State": "Johor"
    },
    {
        "Postcode": "82000",
        "Location": "Lorong Muhibbah",
        "Post_Office": "Pontian",
        "State": "Johor"
    },
    {
        "Postcode": "82000",
        "Location": "Lorong Najip",
        "Post_Office": "Pontian",
        "State": "Johor"
    },
    {
        "Postcode": "82000",
        "Location": "Lorong Nipah",
        "Post_Office": "Pontian",
        "State": "Johor"
    },
    {
        "Postcode": "82000",
        "Location": "Lorong Osman",
        "Post_Office": "Pontian",
        "State": "Johor"
    },
    {
        "Postcode": "82000",
        "Location": "Lorong Pak Mat Yakin",
        "Post_Office": "Pontian",
        "State": "Johor"
    },
    {
        "Postcode": "82000",
        "Location": "Lorong Palil",
        "Post_Office": "Pontian",
        "State": "Johor"
    },
    {
        "Postcode": "82000",
        "Location": "Lorong Panjang",
        "Post_Office": "Pontian",
        "State": "Johor"
    },
    {
        "Postcode": "82000",
        "Location": "Lorong Parit Kecil",
        "Post_Office": "Pontian",
        "State": "Johor"
    },
    {
        "Postcode": "82000",
        "Location": "Lorong Parit Lapis",
        "Post_Office": "Pontian",
        "State": "Johor"
    },
    {
        "Postcode": "82000",
        "Location": "Lorong Peristiwa",
        "Post_Office": "Pontian",
        "State": "Johor"
    },
    {
        "Postcode": "82000",
        "Location": "Lorong Permai",
        "Post_Office": "Pontian",
        "State": "Johor"
    },
    {
        "Postcode": "82000",
        "Location": "Lorong Pewira",
        "Post_Office": "Pontian",
        "State": "Johor"
    },
    {
        "Postcode": "82000",
        "Location": "Lorong Pinang",
        "Post_Office": "Pontian",
        "State": "Johor"
    },
    {
        "Postcode": "82000",
        "Location": "Lorong Ponorogo",
        "Post_Office": "Pontian",
        "State": "Johor"
    },
    {
        "Postcode": "82000",
        "Location": "Lorong Rahim",
        "Post_Office": "Pontian",
        "State": "Johor"
    },
    {
        "Postcode": "82000",
        "Location": "Lorong Rasdin",
        "Post_Office": "Pontian",
        "State": "Johor"
    },
    {
        "Postcode": "82000",
        "Location": "Lorong Safar",
        "Post_Office": "Pontian",
        "State": "Johor"
    },
    {
        "Postcode": "82000",
        "Location": "Lorong Saksama",
        "Post_Office": "Pontian",
        "State": "Johor"
    },
    {
        "Postcode": "82000",
        "Location": "Lorong Salim",
        "Post_Office": "Pontian",
        "State": "Johor"
    },
    {
        "Postcode": "82000",
        "Location": "Lorong Salom",
        "Post_Office": "Pontian",
        "State": "Johor"
    },
    {
        "Postcode": "82000",
        "Location": "Lorong Sarbini",
        "Post_Office": "Pontian",
        "State": "Johor"
    },
    {
        "Postcode": "82000",
        "Location": "Lorong Sawi",
        "Post_Office": "Pontian",
        "State": "Johor"
    },
    {
        "Postcode": "82000",
        "Location": "Lorong Sayang",
        "Post_Office": "Pontian",
        "State": "Johor"
    },
    {
        "Postcode": "82000",
        "Location": "Lorong Sentosa",
        "Post_Office": "Pontian",
        "State": "Johor"
    },
    {
        "Postcode": "82000",
        "Location": "Lorong Sepakat",
        "Post_Office": "Pontian",
        "State": "Johor"
    },
    {
        "Postcode": "82000",
        "Location": "Lorong Seroja",
        "Post_Office": "Pontian",
        "State": "Johor"
    },
    {
        "Postcode": "82000",
        "Location": "Lorong Setia",
        "Post_Office": "Pontian",
        "State": "Johor"
    },
    {
        "Postcode": "82000",
        "Location": "Lorong Sri Permai",
        "Post_Office": "Pontian",
        "State": "Johor"
    },
    {
        "Postcode": "82000",
        "Location": "Lorong Sri Pinang",
        "Post_Office": "Pontian",
        "State": "Johor"
    },
    {
        "Postcode": "82000",
        "Location": "Lorong Sulaiman",
        "Post_Office": "Pontian",
        "State": "Johor"
    },
    {
        "Postcode": "82000",
        "Location": "Lorong Syed Hassan",
        "Post_Office": "Pontian",
        "State": "Johor"
    },
    {
        "Postcode": "82000",
        "Location": "Lorong Syukor",
        "Post_Office": "Pontian",
        "State": "Johor"
    },
    {
        "Postcode": "82000",
        "Location": "Lorong Taat",
        "Post_Office": "Pontian",
        "State": "Johor"
    },
    {
        "Postcode": "82000",
        "Location": "Lorong Talang",
        "Post_Office": "Pontian",
        "State": "Johor"
    },
    {
        "Postcode": "82000",
        "Location": "Lorong Tok Guru",
        "Post_Office": "Pontian",
        "State": "Johor"
    },
    {
        "Postcode": "82000",
        "Location": "Lorong Tokong",
        "Post_Office": "Pontian",
        "State": "Johor"
    },
    {
        "Postcode": "82000",
        "Location": "Lorong Wan Zainab",
        "Post_Office": "Pontian",
        "State": "Johor"
    },
    {
        "Postcode": "82000",
        "Location": "Lorong Wanita",
        "Post_Office": "Pontian",
        "State": "Johor"
    },
    {
        "Postcode": "82000",
        "Location": "Lorong Warisan",
        "Post_Office": "Pontian",
        "State": "Johor"
    },
    {
        "Postcode": "82000",
        "Location": "Lorong Yang Mohd",
        "Post_Office": "Pontian",
        "State": "Johor"
    },
    {
        "Postcode": "82000",
        "Location": "Lorong Yunos",
        "Post_Office": "Pontian",
        "State": "Johor"
    },
    {
        "Postcode": "82000",
        "Location": "Lorong Zawawi",
        "Post_Office": "Pontian",
        "State": "Johor"
    },
    {
        "Postcode": "82000",
        "Location": "Parit 1 Pontian",
        "Post_Office": "Pontian",
        "State": "Johor"
    },
    {
        "Postcode": "82000",
        "Location": "Parit 2 Pontian",
        "Post_Office": "Pontian",
        "State": "Johor"
    },
    {
        "Postcode": "82000",
        "Location": "Parit 3 Pontian",
        "Post_Office": "Pontian",
        "State": "Johor"
    },
    {
        "Postcode": "82000",
        "Location": "Parit 4 Pontian",
        "Post_Office": "Pontian",
        "State": "Johor"
    },
    {
        "Postcode": "82000",
        "Location": "Parit Ah Long",
        "Post_Office": "Pontian",
        "State": "Johor"
    },
    {
        "Postcode": "82000",
        "Location": "Parit Basilam",
        "Post_Office": "Pontian",
        "State": "Johor"
    },
    {
        "Postcode": "82000",
        "Location": "Parit Buloh Cina",
        "Post_Office": "Pontian",
        "State": "Johor"
    },
    {
        "Postcode": "82000",
        "Location": "Parit Eng Joon",
        "Post_Office": "Pontian",
        "State": "Johor"
    },
    {
        "Postcode": "82000",
        "Location": "Parit Haji Abd Rashid",
        "Post_Office": "Pontian",
        "State": "Johor"
    },
    {
        "Postcode": "82000",
        "Location": "Parit Haji Abd Wahab",
        "Post_Office": "Pontian",
        "State": "Johor"
    },
    {
        "Postcode": "82000",
        "Location": "Parit Haji Taburi",
        "Post_Office": "Pontian",
        "State": "Johor"
    },
    {
        "Postcode": "82000",
        "Location": "Parit Jerman",
        "Post_Office": "Pontian",
        "State": "Johor"
    },
    {
        "Postcode": "82000",
        "Location": "Parit Karto",
        "Post_Office": "Pontian",
        "State": "Johor"
    },
    {
        "Postcode": "82000",
        "Location": "Parit Koci",
        "Post_Office": "Pontian",
        "State": "Johor"
    },
    {
        "Postcode": "82000",
        "Location": "Parit Kudus",
        "Post_Office": "Pontian",
        "State": "Johor"
    },
    {
        "Postcode": "82000",
        "Location": "Parit Laji",
        "Post_Office": "Pontian",
        "State": "Johor"
    },
    {
        "Postcode": "82000",
        "Location": "Parit Lan",
        "Post_Office": "Pontian",
        "State": "Johor"
    },
    {
        "Postcode": "82000",
        "Location": "Parit Lau",
        "Post_Office": "Pontian",
        "State": "Johor"
    },
    {
        "Postcode": "82000",
        "Location": "Parit Mentol",
        "Post_Office": "Pontian",
        "State": "Johor"
    },
    {
        "Postcode": "82000",
        "Location": "Parit Peradin",
        "Post_Office": "Pontian",
        "State": "Johor"
    },
    {
        "Postcode": "82000",
        "Location": "Parit Rambai Dalam",
        "Post_Office": "Pontian",
        "State": "Johor"
    },
    {
        "Postcode": "82000",
        "Location": "Parit Rambai Luar",
        "Post_Office": "Pontian",
        "State": "Johor"
    },
    {
        "Postcode": "82000",
        "Location": "Parit Rimba Hilir",
        "Post_Office": "Pontian",
        "State": "Johor"
    },
    {
        "Postcode": "82000",
        "Location": "Parit Rimba Hulu",
        "Post_Office": "Pontian",
        "State": "Johor"
    },
    {
        "Postcode": "82000",
        "Location": "Parit Semerah",
        "Post_Office": "Pontian",
        "State": "Johor"
    },
    {
        "Postcode": "82000",
        "Location": "Parit Sikom",
        "Post_Office": "Pontian",
        "State": "Johor"
    },
    {
        "Postcode": "82000",
        "Location": "Parit Sikom Dalam",
        "Post_Office": "Pontian",
        "State": "Johor"
    },
    {
        "Postcode": "82000",
        "Location": "Parit Suka",
        "Post_Office": "Pontian",
        "State": "Johor"
    },
    {
        "Postcode": "82000",
        "Location": "Parit Sulaiman",
        "Post_Office": "Pontian",
        "State": "Johor"
    },
    {
        "Postcode": "82000",
        "Location": "Parit Sungai Terus",
        "Post_Office": "Pontian",
        "State": "Johor"
    },
    {
        "Postcode": "82000",
        "Location": "Parit Supian",
        "Post_Office": "Pontian",
        "State": "Johor"
    },
    {
        "Postcode": "82000",
        "Location": "Parit Tanjong Ayer Hitam",
        "Post_Office": "Pontian",
        "State": "Johor"
    },
    {
        "Postcode": "82000",
        "Location": "Parit Tasrif",
        "Post_Office": "Pontian",
        "State": "Johor"
    },
    {
        "Postcode": "82000",
        "Location": "Parit Tegong",
        "Post_Office": "Pontian",
        "State": "Johor"
    },
    {
        "Postcode": "82000",
        "Location": "Parit Tenggayun",
        "Post_Office": "Pontian",
        "State": "Johor"
    },
    {
        "Postcode": "82000",
        "Location": "Parit Wir",
        "Post_Office": "Pontian",
        "State": "Johor"
    },
    {
        "Postcode": "82000",
        "Location": "Parit Yunus",
        "Post_Office": "Pontian",
        "State": "Johor"
    },
    {
        "Postcode": "82000",
        "Location": "Pasar Awam",
        "Post_Office": "Pontian",
        "State": "Johor"
    },
    {
        "Postcode": "82000",
        "Location": "Peninsula Plantation",
        "Post_Office": "Pontian",
        "State": "Johor"
    },
    {
        "Postcode": "82000",
        "Location": "Pontian",
        "Post_Office": "Pontian",
        "State": "Johor"
    },
    {
        "Postcode": "82000",
        "Location": "Rimba Terjun Km 60",
        "Post_Office": "Pontian",
        "State": "Johor"
    },
    {
        "Postcode": "82000",
        "Location": "Sungai Punai",
        "Post_Office": "Pontian",
        "State": "Johor"
    },
    {
        "Postcode": "82000",
        "Location": "Sungai Senai",
        "Post_Office": "Pontian",
        "State": "Johor"
    },
    {
        "Postcode": "82000",
        "Location": "Taman Azizah",
        "Post_Office": "Pontian",
        "State": "Johor"
    },
    {
        "Postcode": "82000",
        "Location": "Taman Bakek Jaya",
        "Post_Office": "Pontian",
        "State": "Johor"
    },
    {
        "Postcode": "82000",
        "Location": "Taman Desa Harta Indah",
        "Post_Office": "Pontian",
        "State": "Johor"
    },
    {
        "Postcode": "82000",
        "Location": "Taman Desa Harta Ria",
        "Post_Office": "Pontian",
        "State": "Johor"
    },
    {
        "Postcode": "82000",
        "Location": "Taman Desa Molek",
        "Post_Office": "Pontian",
        "State": "Johor"
    },
    {
        "Postcode": "82000",
        "Location": "Taman Desa Sri Pontian",
        "Post_Office": "Pontian",
        "State": "Johor"
    },
    {
        "Postcode": "82000",
        "Location": "Taman Harta Indah",
        "Post_Office": "Pontian",
        "State": "Johor"
    },
    {
        "Postcode": "82000",
        "Location": "Taman Harta Permai",
        "Post_Office": "Pontian",
        "State": "Johor"
    },
    {
        "Postcode": "82000",
        "Location": "Taman Juta",
        "Post_Office": "Pontian",
        "State": "Johor"
    },
    {
        "Postcode": "82000",
        "Location": "Taman Kencana",
        "Post_Office": "Pontian",
        "State": "Johor"
    },
    {
        "Postcode": "82000",
        "Location": "Taman Medan Koop",
        "Post_Office": "Pontian",
        "State": "Johor"
    },
    {
        "Postcode": "82000",
        "Location": "Taman Pontian",
        "Post_Office": "Pontian",
        "State": "Johor"
    },
    {
        "Postcode": "82000",
        "Location": "Taman Pontian Jaya",
        "Post_Office": "Pontian",
        "State": "Johor"
    },
    {
        "Postcode": "82000",
        "Location": "Taman Pontian Maju",
        "Post_Office": "Pontian",
        "State": "Johor"
    },
    {
        "Postcode": "82000",
        "Location": "Taman Pontian Utama",
        "Post_Office": "Pontian",
        "State": "Johor"
    },
    {
        "Postcode": "82000",
        "Location": "Taman Rambah",
        "Post_Office": "Pontian",
        "State": "Johor"
    },
    {
        "Postcode": "82000",
        "Location": "Taman Rimba Jaya",
        "Post_Office": "Pontian",
        "State": "Johor"
    },
    {
        "Postcode": "82000",
        "Location": "Taman Seri Aman",
        "Post_Office": "Pontian",
        "State": "Johor"
    },
    {
        "Postcode": "82000",
        "Location": "Taman Seri Maju",
        "Post_Office": "Pontian",
        "State": "Johor"
    },
    {
        "Postcode": "82000",
        "Location": "Taman Seri Pinang",
        "Post_Office": "Pontian",
        "State": "Johor"
    },
    {
        "Postcode": "82000",
        "Location": "Taman Sri Api-Api",
        "Post_Office": "Pontian",
        "State": "Johor"
    },
    {
        "Postcode": "82000",
        "Location": "Taman Sri Maju",
        "Post_Office": "Pontian",
        "State": "Johor"
    },
    {
        "Postcode": "82000",
        "Location": "Taman Sri Makmor",
        "Post_Office": "Pontian",
        "State": "Johor"
    },
    {
        "Postcode": "82000",
        "Location": "Taman Sri Panti",
        "Post_Office": "Pontian",
        "State": "Johor"
    },
    {
        "Postcode": "82000",
        "Location": "Taman Ssp",
        "Post_Office": "Pontian",
        "State": "Johor"
    },
    {
        "Postcode": "82000",
        "Location": "Taman Sui",
        "Post_Office": "Pontian",
        "State": "Johor"
    },
    {
        "Postcode": "82000",
        "Location": "Taman Suraya Indah",
        "Post_Office": "Pontian",
        "State": "Johor"
    },
    {
        "Postcode": "82000",
        "Location": "Taman Tahiti",
        "Post_Office": "Pontian",
        "State": "Johor"
    },
    {
        "Postcode": "82000",
        "Location": "Taman Zalinah",
        "Post_Office": "Pontian",
        "State": "Johor"
    }
]
