[
    {
        "Postcode": "82100",
        "Location": "Kampung Dalam",
        "Post_Office": "Ayer Baloi",
        "State": "Johor"
    },
    {
        "Postcode": "82100",
        "Location": "Kampung Parit Baru",
        "Post_Office": "Ayer Baloi",
        "State": "Johor"
    },
    {
        "Postcode": "82100",
        "Location": "Parit Lanchang",
        "Post_Office": "Ayer Baloi",
        "State": "Johor"
    },
    {
        "Postcode": "82100",
        "Location": "Kampung Sanglang",
        "Post_Office": "Ayer Baloi",
        "State": "Johor"
    },
    {
        "Postcode": "82100",
        "Location": "Lorong Ibrahim",
        "Post_Office": "Ayer Baloi",
        "State": "Johor"
    },
    {
        "Postcode": "82100",
        "Location": "Taman Medan",
        "Post_Office": "Ayer Baloi",
        "State": "Johor"
    },
    {
        "Postcode": "82100",
        "Location": "Parit Puasa",
        "Post_Office": "Ayer Baloi",
        "State": "Johor"
    },
    {
        "Postcode": "82100",
        "Location": "Kampung Jawa",
        "Post_Office": "Ayer Baloi",
        "State": "Johor"
    },
    {
        "Postcode": "82100",
        "Location": "Kampung Tengah",
        "Post_Office": "Ayer Baloi",
        "State": "Johor"
    },
    {
        "Postcode": "82100",
        "Location": "Parit Gantong",
        "Post_Office": "Ayer Baloi",
        "State": "Johor"
    },
    {
        "Postcode": "82100",
        "Location": "Parit Haji Ahmad",
        "Post_Office": "Ayer Baloi",
        "State": "Johor"
    },
    {
        "Postcode": "82100",
        "Location": "Parit Haji Ali",
        "Post_Office": "Ayer Baloi",
        "State": "Johor"
    },
    {
        "Postcode": "82100",
        "Location": "Parit Haji Salleh",
        "Post_Office": "Ayer Baloi",
        "State": "Johor"
    },
    {
        "Postcode": "82100",
        "Location": "Parit Jawa",
        "Post_Office": "Ayer Baloi",
        "State": "Johor"
    },
    {
        "Postcode": "82100",
        "Location": "Parit Kadir",
        "Post_Office": "Ayer Baloi",
        "State": "Johor"
    },
    {
        "Postcode": "82100",
        "Location": "Parit Kasan",
        "Post_Office": "Ayer Baloi",
        "State": "Johor"
    },
    {
        "Postcode": "82100",
        "Location": "Parit Keroma",
        "Post_Office": "Ayer Baloi",
        "State": "Johor"
    },
    {
        "Postcode": "82100",
        "Location": "Parit Lama",
        "Post_Office": "Ayer Baloi",
        "State": "Johor"
    },
    {
        "Postcode": "82100",
        "Location": "Parit Lintang",
        "Post_Office": "Ayer Baloi",
        "State": "Johor"
    },
    {
        "Postcode": "82100",
        "Location": "Parit Rambai",
        "Post_Office": "Ayer Baloi",
        "State": "Johor"
    },
    {
        "Postcode": "82100",
        "Location": "Parit Satu",
        "Post_Office": "Ayer Baloi",
        "State": "Johor"
    },
    {
        "Postcode": "82100",
        "Location": "Parit Serong",
        "Post_Office": "Ayer Baloi",
        "State": "Johor"
    },
    {
        "Postcode": "82100",
        "Location": "Parit Terus",
        "Post_Office": "Ayer Baloi",
        "State": "Johor"
    },
    {
        "Postcode": "82100",
        "Location": "Ayer Baloi",
        "Post_Office": "Ayer Baloi",
        "State": "Johor"
    },
    {
        "Postcode": "82100",
        "Location": "Batu Hampar",
        "Post_Office": "Ayer Baloi",
        "State": "Johor"
    },
    {
        "Postcode": "82100",
        "Location": "Kampung Dalam Lapis",
        "Post_Office": "Ayer Baloi",
        "State": "Johor"
    },
    {
        "Postcode": "82100",
        "Location": "Kampung Jawa Lapis",
        "Post_Office": "Ayer Baloi",
        "State": "Johor"
    },
    {
        "Postcode": "82100",
        "Location": "Kampung Jawa Ulu",
        "Post_Office": "Ayer Baloi",
        "State": "Johor"
    },
    {
        "Postcode": "82100",
        "Location": "Kampung Jelutong",
        "Post_Office": "Ayer Baloi",
        "State": "Johor"
    },
    {
        "Postcode": "82100",
        "Location": "Kampung Jelutong Lama",
        "Post_Office": "Ayer Baloi",
        "State": "Johor"
    },
    {
        "Postcode": "82100",
        "Location": "Kampung Jelutong Laut",
        "Post_Office": "Ayer Baloi",
        "State": "Johor"
    },
    {
        "Postcode": "82100",
        "Location": "Kampung Pulai Sebatang",
        "Post_Office": "Ayer Baloi",
        "State": "Johor"
    },
    {
        "Postcode": "82100",
        "Location": "Kampung Pulai Sebatang Darat",
        "Post_Office": "Ayer Baloi",
        "State": "Johor"
    },
    {
        "Postcode": "82100",
        "Location": "Kampung Sungai Manggis",
        "Post_Office": "Ayer Baloi",
        "State": "Johor"
    },
    {
        "Postcode": "82100",
        "Location": "Kampung Sungai Nyior",
        "Post_Office": "Ayer Baloi",
        "State": "Johor"
    },
    {
        "Postcode": "82100",
        "Location": "Kampung Tengah 2 Kanan",
        "Post_Office": "Ayer Baloi",
        "State": "Johor"
    },
    {
        "Postcode": "82100",
        "Location": "Kampung Tengah 2 Kiri",
        "Post_Office": "Ayer Baloi",
        "State": "Johor"
    },
    {
        "Postcode": "82100",
        "Location": "Lorong Bistari",
        "Post_Office": "Ayer Baloi",
        "State": "Johor"
    },
    {
        "Postcode": "82100",
        "Location": "Lorong Keramat",
        "Post_Office": "Ayer Baloi",
        "State": "Johor"
    },
    {
        "Postcode": "82100",
        "Location": "Parit Baran",
        "Post_Office": "Ayer Baloi",
        "State": "Johor"
    },
    {
        "Postcode": "82100",
        "Location": "Parit Datuk Onn",
        "Post_Office": "Ayer Baloi",
        "State": "Johor"
    },
    {
        "Postcode": "82100",
        "Location": "Parit Dua",
        "Post_Office": "Ayer Baloi",
        "State": "Johor"
    },
    {
        "Postcode": "82100",
        "Location": "Parit Haji Elias",
        "Post_Office": "Ayer Baloi",
        "State": "Johor"
    },
    {
        "Postcode": "82100",
        "Location": "Parit Haji Karim",
        "Post_Office": "Ayer Baloi",
        "State": "Johor"
    },
    {
        "Postcode": "82100",
        "Location": "Parit Haji Mohamad",
        "Post_Office": "Ayer Baloi",
        "State": "Johor"
    },
    {
        "Postcode": "82100",
        "Location": "Parit Imam Embok",
        "Post_Office": "Ayer Baloi",
        "State": "Johor"
    },
    {
        "Postcode": "82100",
        "Location": "Parit Jelutong Darat",
        "Post_Office": "Ayer Baloi",
        "State": "Johor"
    },
    {
        "Postcode": "82100",
        "Location": "Parit Jelutong Tengah",
        "Post_Office": "Ayer Baloi",
        "State": "Johor"
    },
    {
        "Postcode": "82100",
        "Location": "Parit Kahar",
        "Post_Office": "Ayer Baloi",
        "State": "Johor"
    },
    {
        "Postcode": "82100",
        "Location": "Parit Kasan Lapis",
        "Post_Office": "Ayer Baloi",
        "State": "Johor"
    },
    {
        "Postcode": "82100",
        "Location": "Parit Lancang",
        "Post_Office": "Ayer Baloi",
        "State": "Johor"
    },
    {
        "Postcode": "82100",
        "Location": "Parit Lapis Embok",
        "Post_Office": "Ayer Baloi",
        "State": "Johor"
    },
    {
        "Postcode": "82100",
        "Location": "Parit Limin",
        "Post_Office": "Ayer Baloi",
        "State": "Johor"
    },
    {
        "Postcode": "82100",
        "Location": "Parit Maklumi",
        "Post_Office": "Ayer Baloi",
        "State": "Johor"
    },
    {
        "Postcode": "82100",
        "Location": "Parit Mohayat",
        "Post_Office": "Ayer Baloi",
        "State": "Johor"
    },
    {
        "Postcode": "82100",
        "Location": "Parit Panggong",
        "Post_Office": "Ayer Baloi",
        "State": "Johor"
    },
    {
        "Postcode": "82100",
        "Location": "Parit Panjang",
        "Post_Office": "Ayer Baloi",
        "State": "Johor"
    },
    {
        "Postcode": "82100",
        "Location": "Parit Sangka Dua Besar",
        "Post_Office": "Ayer Baloi",
        "State": "Johor"
    },
    {
        "Postcode": "82100",
        "Location": "Parit Sangka Dua Kecil",
        "Post_Office": "Ayer Baloi",
        "State": "Johor"
    },
    {
        "Postcode": "82100",
        "Location": "Parit Seniman",
        "Post_Office": "Ayer Baloi",
        "State": "Johor"
    },
    {
        "Postcode": "82100",
        "Location": "Parit Wak Jalal",
        "Post_Office": "Ayer Baloi",
        "State": "Johor"
    },
    {
        "Postcode": "82100",
        "Location": "Parit Wak Katek",
        "Post_Office": "Ayer Baloi",
        "State": "Johor"
    },
    {
        "Postcode": "82100",
        "Location": "Pulai Sebatang",
        "Post_Office": "Ayer Baloi",
        "State": "Johor"
    },
    {
        "Postcode": "82100",
        "Location": "Sanglang",
        "Post_Office": "Ayer Baloi",
        "State": "Johor"
    },
    {
        "Postcode": "82100",
        "Location": "Sungai Manggis",
        "Post_Office": "Ayer Baloi",
        "State": "Johor"
    },
    {
        "Postcode": "82100",
        "Location": "Taman Sanglang",
        "Post_Office": "Ayer Baloi",
        "State": "Johor"
    },
    {
        "Postcode": "82100",
        "Location": "Taman Sri Ayer Baloi",
        "Post_Office": "Ayer Baloi",
        "State": "Johor"
    }
]
