[
    {
        "Postcode": "82200",
        "Location": "Kampung Parit Ibrahim",
        "Post_Office": "Benut",
        "State": "Johor"
    },
    {
        "Postcode": "82200",
        "Location": "Taman Guru",
        "Post_Office": "Benut",
        "State": "Johor"
    },
    {
        "Postcode": "82200",
        "Location": "Kampung Parit Ismail",
        "Post_Office": "Benut",
        "State": "Johor"
    },
    {
        "Postcode": "82200",
        "Location": "Kampung Parit Tengah",
        "Post_Office": "Benut",
        "State": "Johor"
    },
    {
        "Postcode": "82200",
        "Location": "Taman Gaya",
        "Post_Office": "Benut",
        "State": "Johor"
    },
    {
        "Postcode": "82200",
        "Location": "Kampung Parit Othman",
        "Post_Office": "Benut",
        "State": "Johor"
    },
    {
        "Postcode": "82200",
        "Location": "Taman Benut Utama",
        "Post_Office": "Benut",
        "State": "Johor"
    },
    {
        "Postcode": "82200",
        "Location": "Taman Pinggir I",
        "Post_Office": "Benut",
        "State": "Johor"
    },
    {
        "Postcode": "82200",
        "Location": "Taman Pinggir Ii",
        "Post_Office": "Benut",
        "State": "Johor"
    },
    {
        "Postcode": "82200",
        "Location": "Taman Pinggir Iii",
        "Post_Office": "Benut",
        "State": "Johor"
    },
    {
        "Postcode": "82200",
        "Location": "Taman Pinggir Iv",
        "Post_Office": "Benut",
        "State": "Johor"
    },
    {
        "Postcode": "82200",
        "Location": "Kampung Parit Pinang",
        "Post_Office": "Benut",
        "State": "Johor"
    },
    {
        "Postcode": "82200",
        "Location": "Parit Getah",
        "Post_Office": "Benut",
        "State": "Johor"
    },
    {
        "Postcode": "82200",
        "Location": "Parit Wak Jabir",
        "Post_Office": "Benut",
        "State": "Johor"
    },
    {
        "Postcode": "82200",
        "Location": "Kampung Lama",
        "Post_Office": "Benut",
        "State": "Johor"
    },
    {
        "Postcode": "82200",
        "Location": "Parit Betak",
        "Post_Office": "Benut",
        "State": "Johor"
    },
    {
        "Postcode": "82200",
        "Location": "Parit Hassan",
        "Post_Office": "Benut",
        "State": "Johor"
    },
    {
        "Postcode": "82200",
        "Location": "Parit Talibek",
        "Post_Office": "Benut",
        "State": "Johor"
    },
    {
        "Postcode": "82200",
        "Location": "Kampung Parit Abdul Rahman",
        "Post_Office": "Benut",
        "State": "Johor"
    },
    {
        "Postcode": "82200",
        "Location": "Kampung Nelayan",
        "Post_Office": "Benut",
        "State": "Johor"
    },
    {
        "Postcode": "82200",
        "Location": "Kampung Parit Haji Yusof",
        "Post_Office": "Benut",
        "State": "Johor"
    },
    {
        "Postcode": "82200",
        "Location": "Lorong Haji Omar",
        "Post_Office": "Benut",
        "State": "Johor"
    },
    {
        "Postcode": "82200",
        "Location": "Parit Asam Kumbang",
        "Post_Office": "Benut",
        "State": "Johor"
    },
    {
        "Postcode": "82200",
        "Location": "Parit Haji Abd Rahman",
        "Post_Office": "Benut",
        "State": "Johor"
    },
    {
        "Postcode": "82200",
        "Location": "Parit Haji Arif",
        "Post_Office": "Benut",
        "State": "Johor"
    },
    {
        "Postcode": "82200",
        "Location": "Parit Haji Yusof",
        "Post_Office": "Benut",
        "State": "Johor"
    },
    {
        "Postcode": "82200",
        "Location": "Parit Serong",
        "Post_Office": "Benut",
        "State": "Johor"
    },
    {
        "Postcode": "82200",
        "Location": "Taman Harta",
        "Post_Office": "Benut",
        "State": "Johor"
    },
    {
        "Postcode": "82200",
        "Location": "Parit Seraya",
        "Post_Office": "Benut",
        "State": "Johor"
    },
    {
        "Postcode": "82200",
        "Location": "Bandar Baru Benut",
        "Post_Office": "Benut",
        "State": "Johor"
    },
    {
        "Postcode": "82200",
        "Location": "Benut",
        "Post_Office": "Benut",
        "State": "Johor"
    },
    {
        "Postcode": "82200",
        "Location": "Jalan Wak Suradi",
        "Post_Office": "Benut",
        "State": "Johor"
    },
    {
        "Postcode": "82200",
        "Location": "Kampung Baru Benut",
        "Post_Office": "Benut",
        "State": "Johor"
    },
    {
        "Postcode": "82200",
        "Location": "Kampung Baru Orang Asli",
        "Post_Office": "Benut",
        "State": "Johor"
    },
    {
        "Postcode": "82200",
        "Location": "Kampung Batang Duku",
        "Post_Office": "Benut",
        "State": "Johor"
    },
    {
        "Postcode": "82200",
        "Location": "Kampung Batang Sepan",
        "Post_Office": "Benut",
        "State": "Johor"
    },
    {
        "Postcode": "82200",
        "Location": "Kampung Kuala Benut",
        "Post_Office": "Benut",
        "State": "Johor"
    },
    {
        "Postcode": "82200",
        "Location": "Kampung Lapis Layang",
        "Post_Office": "Benut",
        "State": "Johor"
    },
    {
        "Postcode": "82200",
        "Location": "Kampung Lapis Sayang",
        "Post_Office": "Benut",
        "State": "Johor"
    },
    {
        "Postcode": "82200",
        "Location": "Kampung Lubok Sipat",
        "Post_Office": "Benut",
        "State": "Johor"
    },
    {
        "Postcode": "82200",
        "Location": "Kampung Parit Abas",
        "Post_Office": "Benut",
        "State": "Johor"
    },
    {
        "Postcode": "82200",
        "Location": "Kampung Parit Bachok",
        "Post_Office": "Benut",
        "State": "Johor"
    },
    {
        "Postcode": "82200",
        "Location": "Kampung Parit Bertak Darat",
        "Post_Office": "Benut",
        "State": "Johor"
    },
    {
        "Postcode": "82200",
        "Location": "Kampung Parit Betak",
        "Post_Office": "Benut",
        "State": "Johor"
    },
    {
        "Postcode": "82200",
        "Location": "Kampung Parit Daeng Masingah",
        "Post_Office": "Benut",
        "State": "Johor"
    },
    {
        "Postcode": "82200",
        "Location": "Kampung Parit Guntung",
        "Post_Office": "Benut",
        "State": "Johor"
    },
    {
        "Postcode": "82200",
        "Location": "Kampung Parit Haji Abd Rahman",
        "Post_Office": "Benut",
        "State": "Johor"
    },
    {
        "Postcode": "82200",
        "Location": "Kampung Parit Haji Arif Darat",
        "Post_Office": "Benut",
        "State": "Johor"
    },
    {
        "Postcode": "82200",
        "Location": "Kampung Parit Haji Hussin",
        "Post_Office": "Benut",
        "State": "Johor"
    },
    {
        "Postcode": "82200",
        "Location": "Kampung Parit Jabir Darat",
        "Post_Office": "Benut",
        "State": "Johor"
    },
    {
        "Postcode": "82200",
        "Location": "Kampung Parit Jabir Laut",
        "Post_Office": "Benut",
        "State": "Johor"
    },
    {
        "Postcode": "82200",
        "Location": "Kampung Parit Jambi",
        "Post_Office": "Benut",
        "State": "Johor"
    },
    {
        "Postcode": "82200",
        "Location": "Kampung Parit Mansor",
        "Post_Office": "Benut",
        "State": "Johor"
    },
    {
        "Postcode": "82200",
        "Location": "Kampung Parit Markasar",
        "Post_Office": "Benut",
        "State": "Johor"
    },
    {
        "Postcode": "82200",
        "Location": "Kampung Parit Markom",
        "Post_Office": "Benut",
        "State": "Johor"
    },
    {
        "Postcode": "82200",
        "Location": "Kampung Parit Mazelan",
        "Post_Office": "Benut",
        "State": "Johor"
    },
    {
        "Postcode": "82200",
        "Location": "Kampung Parit Pinang Tengah",
        "Post_Office": "Benut",
        "State": "Johor"
    },
    {
        "Postcode": "82200",
        "Location": "Kampung Parit Puteri Menangis",
        "Post_Office": "Benut",
        "State": "Johor"
    },
    {
        "Postcode": "82200",
        "Location": "Kampung Parit Ramunia",
        "Post_Office": "Benut",
        "State": "Johor"
    },
    {
        "Postcode": "82200",
        "Location": "Kampung Parit Selangor",
        "Post_Office": "Benut",
        "State": "Johor"
    },
    {
        "Postcode": "82200",
        "Location": "Kampung Parit Serom",
        "Post_Office": "Benut",
        "State": "Johor"
    },
    {
        "Postcode": "82200",
        "Location": "Kampung Parit Terampil",
        "Post_Office": "Benut",
        "State": "Johor"
    },
    {
        "Postcode": "82200",
        "Location": "Kampung Parit Terus",
        "Post_Office": "Benut",
        "State": "Johor"
    },
    {
        "Postcode": "82200",
        "Location": "Kampung Parit Wak Kawek",
        "Post_Office": "Benut",
        "State": "Johor"
    },
    {
        "Postcode": "82200",
        "Location": "Kampung Parit Yassin",
        "Post_Office": "Benut",
        "State": "Johor"
    },
    {
        "Postcode": "82200",
        "Location": "Kampung Pematang Duku Lapis",
        "Post_Office": "Benut",
        "State": "Johor"
    },
    {
        "Postcode": "82200",
        "Location": "Kampung Pematang Sepam Laut",
        "Post_Office": "Benut",
        "State": "Johor"
    },
    {
        "Postcode": "82200",
        "Location": "Kampung Permatang Duku",
        "Post_Office": "Benut",
        "State": "Johor"
    },
    {
        "Postcode": "82200",
        "Location": "Kampung Permatang Duku Laut",
        "Post_Office": "Benut",
        "State": "Johor"
    },
    {
        "Postcode": "82200",
        "Location": "Kampung Permatang Palas",
        "Post_Office": "Benut",
        "State": "Johor"
    },
    {
        "Postcode": "82200",
        "Location": "Kampung Permatang Palas Darat",
        "Post_Office": "Benut",
        "State": "Johor"
    },
    {
        "Postcode": "82200",
        "Location": "Kampung Permatang Palas Tengah",
        "Post_Office": "Benut",
        "State": "Johor"
    },
    {
        "Postcode": "82200",
        "Location": "Kampung Permatang Sepam Darat",
        "Post_Office": "Benut",
        "State": "Johor"
    },
    {
        "Postcode": "82200",
        "Location": "Kampung Permatang Sepam Tengah",
        "Post_Office": "Benut",
        "State": "Johor"
    },
    {
        "Postcode": "82200",
        "Location": "Kampung Sungai Besar",
        "Post_Office": "Benut",
        "State": "Johor"
    },
    {
        "Postcode": "82200",
        "Location": "Kampung Tampok Laut",
        "Post_Office": "Benut",
        "State": "Johor"
    },
    {
        "Postcode": "82200",
        "Location": "Parit Abas",
        "Post_Office": "Benut",
        "State": "Johor"
    },
    {
        "Postcode": "82200",
        "Location": "Parit Archong",
        "Post_Office": "Benut",
        "State": "Johor"
    },
    {
        "Postcode": "82200",
        "Location": "Parit Buntong",
        "Post_Office": "Benut",
        "State": "Johor"
    },
    {
        "Postcode": "82200",
        "Location": "Parit Daeng Masingah",
        "Post_Office": "Benut",
        "State": "Johor"
    },
    {
        "Postcode": "82200",
        "Location": "Parit Dahlan",
        "Post_Office": "Benut",
        "State": "Johor"
    },
    {
        "Postcode": "82200",
        "Location": "Parit Getak",
        "Post_Office": "Benut",
        "State": "Johor"
    },
    {
        "Postcode": "82200",
        "Location": "Parit Hussin",
        "Post_Office": "Benut",
        "State": "Johor"
    },
    {
        "Postcode": "82200",
        "Location": "Parit Jamal",
        "Post_Office": "Benut",
        "State": "Johor"
    },
    {
        "Postcode": "82200",
        "Location": "Parit Karimin",
        "Post_Office": "Benut",
        "State": "Johor"
    },
    {
        "Postcode": "82200",
        "Location": "Parit Kerimon",
        "Post_Office": "Benut",
        "State": "Johor"
    },
    {
        "Postcode": "82200",
        "Location": "Parit Lubok Sipat",
        "Post_Office": "Benut",
        "State": "Johor"
    },
    {
        "Postcode": "82200",
        "Location": "Parit Lubuk Sipat Lapis",
        "Post_Office": "Benut",
        "State": "Johor"
    },
    {
        "Postcode": "82200",
        "Location": "Parit Madirono",
        "Post_Office": "Benut",
        "State": "Johor"
    },
    {
        "Postcode": "82200",
        "Location": "Parit Manaf",
        "Post_Office": "Benut",
        "State": "Johor"
    },
    {
        "Postcode": "82200",
        "Location": "Parit Mansor",
        "Post_Office": "Benut",
        "State": "Johor"
    },
    {
        "Postcode": "82200",
        "Location": "Parit Marjonid Darat",
        "Post_Office": "Benut",
        "State": "Johor"
    },
    {
        "Postcode": "82200",
        "Location": "Parit Marjonid Laut",
        "Post_Office": "Benut",
        "State": "Johor"
    },
    {
        "Postcode": "82200",
        "Location": "Parit Markusang",
        "Post_Office": "Benut",
        "State": "Johor"
    },
    {
        "Postcode": "82200",
        "Location": "Parit Mastar",
        "Post_Office": "Benut",
        "State": "Johor"
    },
    {
        "Postcode": "82200",
        "Location": "Parit Md Arif",
        "Post_Office": "Benut",
        "State": "Johor"
    },
    {
        "Postcode": "82200",
        "Location": "Parit Pinang",
        "Post_Office": "Benut",
        "State": "Johor"
    },
    {
        "Postcode": "82200",
        "Location": "Parit Rambah",
        "Post_Office": "Benut",
        "State": "Johor"
    },
    {
        "Postcode": "82200",
        "Location": "Parit Ramunia",
        "Post_Office": "Benut",
        "State": "Johor"
    },
    {
        "Postcode": "82200",
        "Location": "Parit Salleh",
        "Post_Office": "Benut",
        "State": "Johor"
    },
    {
        "Postcode": "82200",
        "Location": "Parit Sayang",
        "Post_Office": "Benut",
        "State": "Johor"
    },
    {
        "Postcode": "82200",
        "Location": "Parit Seraya Darat",
        "Post_Office": "Benut",
        "State": "Johor"
    },
    {
        "Postcode": "82200",
        "Location": "Parit Seraya Laut",
        "Post_Office": "Benut",
        "State": "Johor"
    },
    {
        "Postcode": "82200",
        "Location": "Parit Seri Bugis",
        "Post_Office": "Benut",
        "State": "Johor"
    },
    {
        "Postcode": "82200",
        "Location": "Parit Stan",
        "Post_Office": "Benut",
        "State": "Johor"
    },
    {
        "Postcode": "82200",
        "Location": "Parit Sumarjo",
        "Post_Office": "Benut",
        "State": "Johor"
    },
    {
        "Postcode": "82200",
        "Location": "Parit Terampil",
        "Post_Office": "Benut",
        "State": "Johor"
    },
    {
        "Postcode": "82200",
        "Location": "Parit Wagiman",
        "Post_Office": "Benut",
        "State": "Johor"
    },
    {
        "Postcode": "82200",
        "Location": "Parit Wahab",
        "Post_Office": "Benut",
        "State": "Johor"
    },
    {
        "Postcode": "82200",
        "Location": "Parit Wak Kewek",
        "Post_Office": "Benut",
        "State": "Johor"
    },
    {
        "Postcode": "82200",
        "Location": "Pekan Tampok",
        "Post_Office": "Benut",
        "State": "Johor"
    },
    {
        "Postcode": "82200",
        "Location": "Sepah Beruang",
        "Post_Office": "Benut",
        "State": "Johor"
    },
    {
        "Postcode": "82200",
        "Location": "Seri Belahan Tampok",
        "Post_Office": "Benut",
        "State": "Johor"
    },
    {
        "Postcode": "82200",
        "Location": "Simpang Tiga Benut",
        "Post_Office": "Benut",
        "State": "Johor"
    },
    {
        "Postcode": "82200",
        "Location": "Sungai Pinggan",
        "Post_Office": "Benut",
        "State": "Johor"
    },
    {
        "Postcode": "82200",
        "Location": "Taman Dato Ali",
        "Post_Office": "Benut",
        "State": "Johor"
    },
    {
        "Postcode": "82200",
        "Location": "Taman Desa Indah",
        "Post_Office": "Benut",
        "State": "Johor"
    },
    {
        "Postcode": "82200",
        "Location": "Taman Seri Benut",
        "Post_Office": "Benut",
        "State": "Johor"
    },
    {
        "Postcode": "82200",
        "Location": "Taman Seri Mahkota",
        "Post_Office": "Benut",
        "State": "Johor"
    },
    {
        "Postcode": "82200",
        "Location": "Taman Seri Murni",
        "Post_Office": "Benut",
        "State": "Johor"
    },
    {
        "Postcode": "82200",
        "Location": "Taman Sri Pinggan",
        "Post_Office": "Benut",
        "State": "Johor"
    },
    {
        "Postcode": "82200",
        "Location": "Taman Sungai Murni",
        "Post_Office": "Benut",
        "State": "Johor"
    }
]
