[
    {
        "Postcode": "82300",
        "Location": "Taman Laksamana",
        "Post_Office": "Kukup",
        "State": "Johor"
    },
    {
        "Postcode": "82300",
        "Location": "Taman Mahkota",
        "Post_Office": "Kukup",
        "State": "Johor"
    },
    {
        "Postcode": "82300",
        "Location": "Jalan Muafakat",
        "Post_Office": "Kukup",
        "State": "Johor"
    },
    {
        "Postcode": "82300",
        "Location": "Kampung Parit Pengkalan",
        "Post_Office": "Kukup",
        "State": "Johor"
    },
    {
        "Postcode": "82300",
        "Location": "Kampung Sungai Kuali",
        "Post_Office": "Kukup",
        "State": "Johor"
    },
    {
        "Postcode": "82300",
        "Location": "Parit Maiden",
        "Post_Office": "Kukup",
        "State": "Johor"
    },
    {
        "Postcode": "82300",
        "Location": "Kampung Sungai Buntu",
        "Post_Office": "Kukup",
        "State": "Johor"
    },
    {
        "Postcode": "82300",
        "Location": "Kampung Sungai Karang",
        "Post_Office": "Kukup",
        "State": "Johor"
    },
    {
        "Postcode": "82300",
        "Location": "Kampung Melayu",
        "Post_Office": "Kukup",
        "State": "Johor"
    },
    {
        "Postcode": "82300",
        "Location": "Taman Satria",
        "Post_Office": "Kukup",
        "State": "Johor"
    },
    {
        "Postcode": "82300",
        "Location": "Jalan Alsagof Penerok",
        "Post_Office": "Kukup",
        "State": "Johor"
    },
    {
        "Postcode": "82300",
        "Location": "Jalan Fadzil Darat",
        "Post_Office": "Kukup",
        "State": "Johor"
    },
    {
        "Postcode": "82300",
        "Location": "Jalan Haji Salim",
        "Post_Office": "Kukup",
        "State": "Johor"
    },
    {
        "Postcode": "82300",
        "Location": "Jalan Iman Haji Ahmad",
        "Post_Office": "Kukup",
        "State": "Johor"
    },
    {
        "Postcode": "82300",
        "Location": "Jalan Klinik",
        "Post_Office": "Kukup",
        "State": "Johor"
    },
    {
        "Postcode": "82300",
        "Location": "Jalan Kukup",
        "Post_Office": "Kukup",
        "State": "Johor"
    },
    {
        "Postcode": "82300",
        "Location": "Jalan Makam Penerok",
        "Post_Office": "Kukup",
        "State": "Johor"
    },
    {
        "Postcode": "82300",
        "Location": "Jalan Panpat",
        "Post_Office": "Kukup",
        "State": "Johor"
    },
    {
        "Postcode": "82300",
        "Location": "Jalan Parit Jawa",
        "Post_Office": "Kukup",
        "State": "Johor"
    },
    {
        "Postcode": "82300",
        "Location": "Jalan Parit Pengkalan",
        "Post_Office": "Kukup",
        "State": "Johor"
    },
    {
        "Postcode": "82300",
        "Location": "Kampung Air Masin",
        "Post_Office": "Kukup",
        "State": "Johor"
    },
    {
        "Postcode": "82300",
        "Location": "Kampung Baru Penerok",
        "Post_Office": "Kukup",
        "State": "Johor"
    },
    {
        "Postcode": "82300",
        "Location": "Kampung Benteng Kanan",
        "Post_Office": "Kukup",
        "State": "Johor"
    },
    {
        "Postcode": "82300",
        "Location": "Kampung Benteng Kiri",
        "Post_Office": "Kukup",
        "State": "Johor"
    },
    {
        "Postcode": "82300",
        "Location": "Kampung Cho Koh",
        "Post_Office": "Kukup",
        "State": "Johor"
    },
    {
        "Postcode": "82300",
        "Location": "Kampung Kebun Baru",
        "Post_Office": "Kukup",
        "State": "Johor"
    },
    {
        "Postcode": "82300",
        "Location": "Kampung Kukup Laut",
        "Post_Office": "Kukup",
        "State": "Johor"
    },
    {
        "Postcode": "82300",
        "Location": "Kampung Parit Baru Penerok",
        "Post_Office": "Kukup",
        "State": "Johor"
    },
    {
        "Postcode": "82300",
        "Location": "Kampung Parit Bugis Batu 6",
        "Post_Office": "Kukup",
        "State": "Johor"
    },
    {
        "Postcode": "82300",
        "Location": "Kampung Permas Besar",
        "Post_Office": "Kukup",
        "State": "Johor"
    },
    {
        "Postcode": "82300",
        "Location": "Kampung Permas Kelapa",
        "Post_Office": "Kukup",
        "State": "Johor"
    },
    {
        "Postcode": "82300",
        "Location": "Kampung Permas Ulu Penerok",
        "Post_Office": "Kukup",
        "State": "Johor"
    },
    {
        "Postcode": "82300",
        "Location": "Kampung Serkam",
        "Post_Office": "Kukup",
        "State": "Johor"
    },
    {
        "Postcode": "82300",
        "Location": "Kampung Serkat Barat",
        "Post_Office": "Kukup",
        "State": "Johor"
    },
    {
        "Postcode": "82300",
        "Location": "Kampung Serkat Laut",
        "Post_Office": "Kukup",
        "State": "Johor"
    },
    {
        "Postcode": "82300",
        "Location": "Kampung Serkat Timur",
        "Post_Office": "Kukup",
        "State": "Johor"
    },
    {
        "Postcode": "82300",
        "Location": "Kampung Serong Darat",
        "Post_Office": "Kukup",
        "State": "Johor"
    },
    {
        "Postcode": "82300",
        "Location": "Kampung Simpang Kiri",
        "Post_Office": "Kukup",
        "State": "Johor"
    },
    {
        "Postcode": "82300",
        "Location": "Kampung Simpang Lima",
        "Post_Office": "Kukup",
        "State": "Johor"
    },
    {
        "Postcode": "82300",
        "Location": "Kampung Sungai Belukang",
        "Post_Office": "Kukup",
        "State": "Johor"
    },
    {
        "Postcode": "82300",
        "Location": "Kampung Sungai Boh",
        "Post_Office": "Kukup",
        "State": "Johor"
    },
    {
        "Postcode": "82300",
        "Location": "Kampung Sungai Buntu Penerok",
        "Post_Office": "Kukup",
        "State": "Johor"
    },
    {
        "Postcode": "82300",
        "Location": "Kampung Sungai Cengkeh",
        "Post_Office": "Kukup",
        "State": "Johor"
    },
    {
        "Postcode": "82300",
        "Location": "Kampung Sungai Dinar",
        "Post_Office": "Kukup",
        "State": "Johor"
    },
    {
        "Postcode": "82300",
        "Location": "Kampung Sungai Durian",
        "Post_Office": "Kukup",
        "State": "Johor"
    },
    {
        "Postcode": "82300",
        "Location": "Kampung Sungai Durian Kukup",
        "Post_Office": "Kukup",
        "State": "Johor"
    },
    {
        "Postcode": "82300",
        "Location": "Kampung Sungai Kulai",
        "Post_Office": "Kukup",
        "State": "Johor"
    },
    {
        "Postcode": "82300",
        "Location": "Kampung Sungai Sam",
        "Post_Office": "Kukup",
        "State": "Johor"
    },
    {
        "Postcode": "82300",
        "Location": "Kampung Tengah Sungai Kulai",
        "Post_Office": "Kukup",
        "State": "Johor"
    },
    {
        "Postcode": "82300",
        "Location": "Kampung Yakon Penerok",
        "Post_Office": "Kukup",
        "State": "Johor"
    },
    {
        "Postcode": "82300",
        "Location": "Kukup",
        "Post_Office": "Kukup",
        "State": "Johor"
    },
    {
        "Postcode": "82300",
        "Location": "Kukup Laut",
        "Post_Office": "Kukup",
        "State": "Johor"
    },
    {
        "Postcode": "82300",
        "Location": "Lorong Haji Kunuk",
        "Post_Office": "Kukup",
        "State": "Johor"
    },
    {
        "Postcode": "82300",
        "Location": "Lorong Haji Sayon",
        "Post_Office": "Kukup",
        "State": "Johor"
    },
    {
        "Postcode": "82300",
        "Location": "Lorong Yunus",
        "Post_Office": "Kukup",
        "State": "Johor"
    },
    {
        "Postcode": "82300",
        "Location": "Parit 1/51",
        "Post_Office": "Kukup",
        "State": "Johor"
    },
    {
        "Postcode": "82300",
        "Location": "Parit Haji Saayon",
        "Post_Office": "Kukup",
        "State": "Johor"
    },
    {
        "Postcode": "82300",
        "Location": "Parit Kongsi",
        "Post_Office": "Kukup",
        "State": "Johor"
    },
    {
        "Postcode": "82300",
        "Location": "Parit Yunos",
        "Post_Office": "Kukup",
        "State": "Johor"
    },
    {
        "Postcode": "82300",
        "Location": "Pekan Penerok",
        "Post_Office": "Kukup",
        "State": "Johor"
    },
    {
        "Postcode": "82300",
        "Location": "Pekan Permas",
        "Post_Office": "Kukup",
        "State": "Johor"
    },
    {
        "Postcode": "82300",
        "Location": "Pekan Serkat",
        "Post_Office": "Kukup",
        "State": "Johor"
    },
    {
        "Postcode": "82300",
        "Location": "Penerok",
        "Post_Office": "Kukup",
        "State": "Johor"
    },
    {
        "Postcode": "82300",
        "Location": "Penghulu Bakar Penerok",
        "Post_Office": "Kukup",
        "State": "Johor"
    },
    {
        "Postcode": "82300",
        "Location": "Permas Kecil",
        "Post_Office": "Kukup",
        "State": "Johor"
    },
    {
        "Postcode": "82300",
        "Location": "Perpat Timbul",
        "Post_Office": "Kukup",
        "State": "Johor"
    },
    {
        "Postcode": "82300",
        "Location": "Pusat Perniagaan Kukup",
        "Post_Office": "Kukup",
        "State": "Johor"
    },
    {
        "Postcode": "82300",
        "Location": "Pusat Perniagaan Terminal Pengangkutan",
        "Post_Office": "Kukup",
        "State": "Johor"
    },
    {
        "Postcode": "82300",
        "Location": "Serkat Darat",
        "Post_Office": "Kukup",
        "State": "Johor"
    },
    {
        "Postcode": "82300",
        "Location": "Serkat Laut",
        "Post_Office": "Kukup",
        "State": "Johor"
    },
    {
        "Postcode": "82300",
        "Location": "Serkat Timor",
        "Post_Office": "Kukup",
        "State": "Johor"
    },
    {
        "Postcode": "82300",
        "Location": "Sungai Belubang",
        "Post_Office": "Kukup",
        "State": "Johor"
    },
    {
        "Postcode": "82300",
        "Location": "Sungai Durian Laut",
        "Post_Office": "Kukup",
        "State": "Johor"
    },
    {
        "Postcode": "82300",
        "Location": "Sungai Kulai",
        "Post_Office": "Kukup",
        "State": "Johor"
    },
    {
        "Postcode": "82300",
        "Location": "Taman Barli",
        "Post_Office": "Kukup",
        "State": "Johor"
    },
    {
        "Postcode": "82300",
        "Location": "Tanjong Binn",
        "Post_Office": "Kukup",
        "State": "Johor"
    },
    {
        "Postcode": "82300",
        "Location": "Tanjong Piai",
        "Post_Office": "Kukup",
        "State": "Johor"
    },
    {
        "Postcode": "82300",
        "Location": "Tanjung Piai",
        "Post_Office": "Kukup",
        "State": "Johor"
    }
]
