[
    {
        "Postcode": "42000",
        "Location": "Taman Aur",
        "Post_Office": "Pelabuhan Klang",
        "State": "Selangor"
    },
    {
        "Postcode": "42000",
        "Location": "Jalan Jeti/KS5",
        "Post_Office": "Pelabuhan Klang",
        "State": "Selangor"
    },
    {
        "Postcode": "42000",
        "Location": "Jalan Parang",
        "Post_Office": "Pelabuhan Klang",
        "State": "Selangor"
    },
    {
        "Postcode": "42000",
        "Location": "Jalan Pelabuhan Selatan",
        "Post_Office": "Pelabuhan Klang",
        "State": "Selangor"
    },
    {
        "Postcode": "42000",
        "Location": "Jalan Pelabuhan Utara",
        "Post_Office": "Pelabuhan Klang",
        "State": "Selangor"
    },
    {
        "Postcode": "42000",
        "Location": "Jalan Perajurit",
        "Post_Office": "Pelabuhan Klang",
        "State": "Selangor"
    },
    {
        "Postcode": "42000",
        "Location": "Jalan Perajurit 2 ",
        "Post_Office": "Pelabuhan Klang",
        "State": "Selangor"
    },
    {
        "Postcode": "42000",
        "Location": "Jalan Petai",
        "Post_Office": "Pelabuhan Klang",
        "State": "Selangor"
    },
    {
        "Postcode": "42000",
        "Location": "Jalan Petola",
        "Post_Office": "Pelabuhan Klang",
        "State": "Selangor"
    },
    {
        "Postcode": "42000",
        "Location": "Jalan Pisang",
        "Post_Office": "Pelabuhan Klang",
        "State": "Selangor"
    },
    {
        "Postcode": "42000",
        "Location": "Jalan Proctor",
        "Post_Office": "Pelabuhan Klang",
        "State": "Selangor"
    },
    {
        "Postcode": "42000",
        "Location": "Jalan Raja Muda Musa",
        "Post_Office": "Pelabuhan Klang",
        "State": "Selangor"
    },
    {
        "Postcode": "42000",
        "Location": "Jalan Rasah",
        "Post_Office": "Pelabuhan Klang",
        "State": "Selangor"
    },
    {
        "Postcode": "42000",
        "Location": "Jalan Rasau",
        "Post_Office": "Pelabuhan Klang",
        "State": "Selangor"
    },
    {
        "Postcode": "42000",
        "Location": "Jalan Sabah",
        "Post_Office": "Pelabuhan Klang",
        "State": "Selangor"
    },
    {
        "Postcode": "42000",
        "Location": "Jalan Sekinchan",
        "Post_Office": "Pelabuhan Klang",
        "State": "Selangor"
    },
    {
        "Postcode": "42000",
        "Location": "Jalan Sentosa",
        "Post_Office": "Pelabuhan Klang",
        "State": "Selangor"
    },
    {
        "Postcode": "42000",
        "Location": "Jalan Sentul",
        "Post_Office": "Pelabuhan Klang",
        "State": "Selangor"
    },
    {
        "Postcode": "42000",
        "Location": "Jalan Seroja",
        "Post_Office": "Pelabuhan Klang",
        "State": "Selangor"
    },
    {
        "Postcode": "42000",
        "Location": "Jalan Siakap",
        "Post_Office": "Pelabuhan Klang",
        "State": "Selangor"
    },
    {
        "Postcode": "42000",
        "Location": "Jalan Singgah",
        "Post_Office": "Pelabuhan Klang",
        "State": "Selangor"
    },
    {
        "Postcode": "42000",
        "Location": "Jalan Sirih Pinang",
        "Post_Office": "Pelabuhan Klang",
        "State": "Selangor"
    },
    {
        "Postcode": "42000",
        "Location": "Jalan Sirih Tambahan",
        "Post_Office": "Pelabuhan Klang",
        "State": "Selangor"
    },
    {
        "Postcode": "42000",
        "Location": "Jalan Soon Huat",
        "Post_Office": "Pelabuhan Klang",
        "State": "Selangor"
    },
    {
        "Postcode": "42000",
        "Location": "Jalan Sukma",
        "Post_Office": "Pelabuhan Klang",
        "State": "Selangor"
    },
    {
        "Postcode": "42000",
        "Location": "Jalan Sukun",
        "Post_Office": "Pelabuhan Klang",
        "State": "Selangor"
    },
    {
        "Postcode": "42000",
        "Location": "Jalan Sultan Abd Samad",
        "Post_Office": "Pelabuhan Klang",
        "State": "Selangor"
    },
    {
        "Postcode": "42000",
        "Location": "Jalan Sungai Aur",
        "Post_Office": "Pelabuhan Klang",
        "State": "Selangor"
    },
    {
        "Postcode": "42000",
        "Location": "Jalan Telok Gong",
        "Post_Office": "Pelabuhan Klang",
        "State": "Selangor"
    },
    {
        "Postcode": "42000",
        "Location": "Jalan Tengku Badar",
        "Post_Office": "Pelabuhan Klang",
        "State": "Selangor"
    },
    {
        "Postcode": "42000",
        "Location": "Jalan Terong",
        "Post_Office": "Pelabuhan Klang",
        "State": "Selangor"
    },
    {
        "Postcode": "42000",
        "Location": "Jalan Udang Galah",
        "Post_Office": "Pelabuhan Klang",
        "State": "Selangor"
    },
    {
        "Postcode": "42000",
        "Location": "Jalan Udang Galah 1",
        "Post_Office": "Pelabuhan Klang",
        "State": "Selangor"
    },
    {
        "Postcode": "42000",
        "Location": "Jalan Udang Gantung",
        "Post_Office": "Pelabuhan Klang",
        "State": "Selangor"
    },
    {
        "Postcode": "42000",
        "Location": "Jalan Watson",
        "Post_Office": "Pelabuhan Klang",
        "State": "Selangor"
    },
    {
        "Postcode": "42000",
        "Location": "Jalan Wooten",
        "Post_Office": "Pelabuhan Klang",
        "State": "Selangor"
    },
    {
        "Postcode": "42000",
        "Location": "Jalan Young",
        "Post_Office": "Pelabuhan Klang",
        "State": "Selangor"
    },
    {
        "Postcode": "42000",
        "Location": "Jalan Zainal Abidin",
        "Post_Office": "Pelabuhan Klang",
        "State": "Selangor"
    },
    {
        "Postcode": "42000",
        "Location": "Kampung Hamid Tuah",
        "Post_Office": "Pelabuhan Klang",
        "State": "Selangor"
    },
    {
        "Postcode": "42000",
        "Location": "Kampung Kastam",
        "Post_Office": "Pelabuhan Klang",
        "State": "Selangor"
    },
    {
        "Postcode": "42000",
        "Location": "Kampung Keretapi",
        "Post_Office": "Pelabuhan Klang",
        "State": "Selangor"
    },
    {
        "Postcode": "42000",
        "Location": "Kampung Mohamad Zain",
        "Post_Office": "Pelabuhan Klang",
        "State": "Selangor"
    },
    {
        "Postcode": "42000",
        "Location": "Kampung Pandamar",
        "Post_Office": "Pelabuhan Klang",
        "State": "Selangor"
    },
    {
        "Postcode": "42000",
        "Location": "Kampung Pandamaran",
        "Post_Office": "Pelabuhan Klang",
        "State": "Selangor"
    },
    {
        "Postcode": "42000",
        "Location": "Kampung Pandamaran Jaya",
        "Post_Office": "Pelabuhan Klang",
        "State": "Selangor"
    },
    {
        "Postcode": "42000",
        "Location": "Kampung Raja Uda",
        "Post_Office": "Pelabuhan Klang",
        "State": "Selangor"
    },
    {
        "Postcode": "42000",
        "Location": "Kampung Sri Perantau",
        "Post_Office": "Pelabuhan Klang",
        "State": "Selangor"
    },
    {
        "Postcode": "42000",
        "Location": "Kampung Sungai Aur",
        "Post_Office": "Pelabuhan Klang",
        "State": "Selangor"
    },
    {
        "Postcode": "42000",
        "Location": "Kampung Sungai Keladi",
        "Post_Office": "Pelabuhan Klang",
        "State": "Selangor"
    },
    {
        "Postcode": "42000",
        "Location": "Kampung Tamil Padamaran",
        "Post_Office": "Pelabuhan Klang",
        "State": "Selangor"
    },
    {
        "Postcode": "42000",
        "Location": "Kampung Telok Gong",
        "Post_Office": "Pelabuhan Klang",
        "State": "Selangor"
    },
    {
        "Postcode": "42000",
        "Location": "Ladang Timur",
        "Post_Office": "Pelabuhan Klang",
        "State": "Selangor"
    },
    {
        "Postcode": "42000",
        "Location": "Lebuh Berangan",
        "Post_Office": "Pelabuhan Klang",
        "State": "Selangor"
    },
    {
        "Postcode": "42000",
        "Location": "Lebuh Beringin",
        "Post_Office": "Pelabuhan Klang",
        "State": "Selangor"
    },
    {
        "Postcode": "42000",
        "Location": "Lebuh Hishamudin",
        "Post_Office": "Pelabuhan Klang",
        "State": "Selangor"
    },
    {
        "Postcode": "42000",
        "Location": "Lebuh Raja Lumu",
        "Post_Office": "Pelabuhan Klang",
        "State": "Selangor"
    },
    {
        "Postcode": "42000",
        "Location": "Lengkongan Hishamudin",
        "Post_Office": "Pelabuhan Klang",
        "State": "Selangor"
    },
    {
        "Postcode": "42000",
        "Location": "Lengkongan Raja Lumu",
        "Post_Office": "Pelabuhan Klang",
        "State": "Selangor"
    },
    {
        "Postcode": "42000",
        "Location": "Lingkaran Hishamudin",
        "Post_Office": "Pelabuhan Klang",
        "State": "Selangor"
    },
    {
        "Postcode": "42000",
        "Location": "Lingkaran Sultan Abd Samad",
        "Post_Office": "Pelabuhan Klang",
        "State": "Selangor"
    },
    {
        "Postcode": "42000",
        "Location": "Lintang Bungor",
        "Post_Office": "Pelabuhan Klang",
        "State": "Selangor"
    },
    {
        "Postcode": "42000",
        "Location": "Lintang Derun",
        "Post_Office": "Pelabuhan Klang",
        "State": "Selangor"
    },
    {
        "Postcode": "42000",
        "Location": "Lintang Kulur",
        "Post_Office": "Pelabuhan Klang",
        "State": "Selangor"
    },
    {
        "Postcode": "42000",
        "Location": "Lintang Rasau",
        "Post_Office": "Pelabuhan Klang",
        "State": "Selangor"
    },
    {
        "Postcode": "42000",
        "Location": "Lintang Sultan Mohd",
        "Post_Office": "Pelabuhan Klang",
        "State": "Selangor"
    },
    {
        "Postcode": "42000",
        "Location": "Lorong Biru",
        "Post_Office": "Pelabuhan Klang",
        "State": "Selangor"
    },
    {
        "Postcode": "42000",
        "Location": "Lorong Bunga Anggerik",
        "Post_Office": "Pelabuhan Klang",
        "State": "Selangor"
    },
    {
        "Postcode": "42000",
        "Location": "Lorong Bunga Melati",
        "Post_Office": "Pelabuhan Klang",
        "State": "Selangor"
    },
    {
        "Postcode": "42000",
        "Location": "Lorong Bunga Orkid",
        "Post_Office": "Pelabuhan Klang",
        "State": "Selangor"
    },
    {
        "Postcode": "42000",
        "Location": "Lorong Bunga Raya",
        "Post_Office": "Pelabuhan Klang",
        "State": "Selangor"
    },
    {
        "Postcode": "42000",
        "Location": "Lorong Cempening",
        "Post_Office": "Pelabuhan Klang",
        "State": "Selangor"
    },
    {
        "Postcode": "42000",
        "Location": "Lorong Cunggah",
        "Post_Office": "Pelabuhan Klang",
        "State": "Selangor"
    },
    {
        "Postcode": "42000",
        "Location": "Lorong Masjid",
        "Post_Office": "Pelabuhan Klang",
        "State": "Selangor"
    },
    {
        "Postcode": "42000",
        "Location": "Lorong Melor",
        "Post_Office": "Pelabuhan Klang",
        "State": "Selangor"
    },
    {
        "Postcode": "42000",
        "Location": "Lorong Samy",
        "Post_Office": "Pelabuhan Klang",
        "State": "Selangor"
    },
    {
        "Postcode": "42000",
        "Location": "Lorong Seroja",
        "Post_Office": "Pelabuhan Klang",
        "State": "Selangor"
    },
    {
        "Postcode": "42000",
        "Location": "Lorong Siantan",
        "Post_Office": "Pelabuhan Klang",
        "State": "Selangor"
    },
    {
        "Postcode": "42000",
        "Location": "Lorong Sungai Tengkorak",
        "Post_Office": "Pelabuhan Klang",
        "State": "Selangor"
    },
    {
        "Postcode": "42000",
        "Location": "Pandamaran",
        "Post_Office": "Pelabuhan Klang",
        "State": "Selangor"
    },
    {
        "Postcode": "42000",
        "Location": "Pandamaran Jaya",
        "Post_Office": "Pelabuhan Klang",
        "State": "Selangor"
    },
    {
        "Postcode": "42000",
        "Location": "Pelabuhan Klang",
        "Post_Office": "Pelabuhan Klang",
        "State": "Selangor"
    },
    {
        "Postcode": "42000",
        "Location": "Pelabuhan Utara",
        "Post_Office": "Pelabuhan Klang",
        "State": "Selangor"
    },
    {
        "Postcode": "42000",
        "Location": "Pendamar",
        "Post_Office": "Pelabuhan Klang",
        "State": "Selangor"
    },
    {
        "Postcode": "42000",
        "Location": "Persiaran Hishamudin",
        "Post_Office": "Pelabuhan Klang",
        "State": "Selangor"
    },
    {
        "Postcode": "42000",
        "Location": "Persiaran Orkid",
        "Post_Office": "Pelabuhan Klang",
        "State": "Selangor"
    },
    {
        "Postcode": "42000",
        "Location": "Persiaran Raja Lumu",
        "Post_Office": "Pelabuhan Klang",
        "State": "Selangor"
    },
    {
        "Postcode": "42000",
        "Location": "Persiaran Sirih Tanjung",
        "Post_Office": "Pelabuhan Klang",
        "State": "Selangor"
    },
    {
        "Postcode": "42000",
        "Location": "Perumahan Pandamaran Jaya",
        "Post_Office": "Pelabuhan Klang",
        "State": "Selangor"
    },
    {
        "Postcode": "42000",
        "Location": "Perumahan Seri Perantau",
        "Post_Office": "Pelabuhan Klang",
        "State": "Selangor"
    },
    {
        "Postcode": "42000",
        "Location": "Selat Klang",
        "Post_Office": "Pelabuhan Klang",
        "State": "Selangor"
    },
    {
        "Postcode": "42000",
        "Location": "Solok Hishamudin",
        "Post_Office": "Pelabuhan Klang",
        "State": "Selangor"
    },
    {
        "Postcode": "42000",
        "Location": "Solok Raja Lumu",
        "Post_Office": "Pelabuhan Klang",
        "State": "Selangor"
    },
    {
        "Postcode": "42000",
        "Location": "Solok Sultan Mohd",
        "Post_Office": "Pelabuhan Klang",
        "State": "Selangor"
    },
    {
        "Postcode": "42000",
        "Location": "Taman Chi Liung",
        "Post_Office": "Pelabuhan Klang",
        "State": "Selangor"
    },
    {
        "Postcode": "42000",
        "Location": "Taman Kem",
        "Post_Office": "Pelabuhan Klang",
        "State": "Selangor"
    },
    {
        "Postcode": "42000",
        "Location": "Taman Kim Chuan",
        "Post_Office": "Pelabuhan Klang",
        "State": "Selangor"
    },
    {
        "Postcode": "42000",
        "Location": "Taman Kota Pendamar",
        "Post_Office": "Pelabuhan Klang",
        "State": "Selangor"
    },
    {
        "Postcode": "42000",
        "Location": "Taman Lucky",
        "Post_Office": "Pelabuhan Klang",
        "State": "Selangor"
    },
    {
        "Postcode": "42000",
        "Location": "Taman Melikai",
        "Post_Office": "Pelabuhan Klang",
        "State": "Selangor"
    },
    {
        "Postcode": "42000",
        "Location": "Taman Nau",
        "Post_Office": "Pelabuhan Klang",
        "State": "Selangor"
    },
    {
        "Postcode": "42000",
        "Location": "Taman Pelabuhan",
        "Post_Office": "Pelabuhan Klang",
        "State": "Selangor"
    },
    {
        "Postcode": "42000",
        "Location": "Taman Pendamar Indah",
        "Post_Office": "Pelabuhan Klang",
        "State": "Selangor"
    },
    {
        "Postcode": "42000",
        "Location": "Taman Petola",
        "Post_Office": "Pelabuhan Klang",
        "State": "Selangor"
    },
    {
        "Postcode": "42000",
        "Location": "Taman Prima Impian",
        "Post_Office": "Pelabuhan Klang",
        "State": "Selangor"
    },
    {
        "Postcode": "42000",
        "Location": "Taman Samudera",
        "Post_Office": "Pelabuhan Klang",
        "State": "Selangor"
    },
    {
        "Postcode": "42000",
        "Location": "Taman Samy",
        "Post_Office": "Pelabuhan Klang",
        "State": "Selangor"
    },
    {
        "Postcode": "42000",
        "Location": "Taman Selat Damai",
        "Post_Office": "Pelabuhan Klang",
        "State": "Selangor"
    },
    {
        "Postcode": "42000",
        "Location": "Taman Selat Selatan",
        "Post_Office": "Pelabuhan Klang",
        "State": "Selangor"
    },
    {
        "Postcode": "42000",
        "Location": "Taman Seri Berembang",
        "Post_Office": "Pelabuhan Klang",
        "State": "Selangor"
    },
    {
        "Postcode": "42000",
        "Location": "Taman Seroja",
        "Post_Office": "Pelabuhan Klang",
        "State": "Selangor"
    },
    {
        "Postcode": "42000",
        "Location": "Taman Tengku Bendahara Azman",
        "Post_Office": "Pelabuhan Klang",
        "State": "Selangor"
    },
    {
        "Postcode": "42000",
        "Location": "Jalan Perusahaan 27",
        "Post_Office": "Pelabuhan Klang",
        "State": "Selangor"
    },
    {
        "Postcode": "42000",
        "Location": "Kawasan Perindustrian Kampung Idaman",
        "Post_Office": "Pelabuhan Klang",
        "State": "Selangor"
    },
    {
        "Postcode": "42000",
        "Location": "Jalan Pengkalan 1E",
        "Post_Office": "Pelabuhan Klang",
        "State": "Selangor"
    },
    {
        "Postcode": "42000",
        "Location": "Jalan Tengah ",
        "Post_Office": "Pelabuhan Klang",
        "State": "Selangor"
    },
    {
        "Postcode": "42000",
        "Location": "Persiaran Permai 3",
        "Post_Office": "Pelabuhan Klang",
        "State": "Selangor"
    },
    {
        "Postcode": "42000",
        "Location": "Jalan Pengkalan 2D",
        "Post_Office": "Pelabuhan Klang",
        "State": "Selangor"
    },
    {
        "Postcode": "42000",
        "Location": "Jalan Perusahaan 20 ",
        "Post_Office": "Pelabuhan Klang",
        "State": "Selangor"
    },
    {
        "Postcode": "42000",
        "Location": "Jalan Perusahaan 21",
        "Post_Office": "Pelabuhan Klang",
        "State": "Selangor"
    },
    {
        "Postcode": "42000",
        "Location": "Jalan Perusahaan 24",
        "Post_Office": "Pelabuhan Klang",
        "State": "Selangor"
    },
    {
        "Postcode": "42000",
        "Location": "Jalan Acheh",
        "Post_Office": "Pelabuhan Klang",
        "State": "Selangor"
    },
    {
        "Postcode": "42000",
        "Location": "Jalan Air Mata Duyong",
        "Post_Office": "Pelabuhan Klang",
        "State": "Selangor"
    },
    {
        "Postcode": "42000",
        "Location": "Jalan Amarasegara",
        "Post_Office": "Pelabuhan Klang",
        "State": "Selangor"
    },
    {
        "Postcode": "42000",
        "Location": "Jalan Aur",
        "Post_Office": "Pelabuhan Klang",
        "State": "Selangor"
    },
    {
        "Postcode": "42000",
        "Location": "Jalan Berembang",
        "Post_Office": "Pelabuhan Klang",
        "State": "Selangor"
    },
    {
        "Postcode": "42000",
        "Location": "Jalan Betek",
        "Post_Office": "Pelabuhan Klang",
        "State": "Selangor"
    },
    {
        "Postcode": "42000",
        "Location": "Jalan Binjai",
        "Post_Office": "Pelabuhan Klang",
        "State": "Selangor"
    },
    {
        "Postcode": "42000",
        "Location": "Jalan Buah Bakong",
        "Post_Office": "Pelabuhan Klang",
        "State": "Selangor"
    },
    {
        "Postcode": "42000",
        "Location": "Jalan Buah Mentega",
        "Post_Office": "Pelabuhan Klang",
        "State": "Selangor"
    },
    {
        "Postcode": "42000",
        "Location": "Jalan Buah Susu",
        "Post_Office": "Pelabuhan Klang",
        "State": "Selangor"
    },
    {
        "Postcode": "42000",
        "Location": "Jalan Bukit Changgang",
        "Post_Office": "Pelabuhan Klang",
        "State": "Selangor"
    },
    {
        "Postcode": "42000",
        "Location": "Jalan Bukit Kerayong",
        "Post_Office": "Pelabuhan Klang",
        "State": "Selangor"
    },
    {
        "Postcode": "42000",
        "Location": "Jalan Canang Emas 7 ",
        "Post_Office": "Pelabuhan Klang",
        "State": "Selangor"
    },
    {
        "Postcode": "42000",
        "Location": "Jalan Cemerlang",
        "Post_Office": "Pelabuhan Klang",
        "State": "Selangor"
    },
    {
        "Postcode": "42000",
        "Location": "Jalan Cempaka Emas",
        "Post_Office": "Pelabuhan Klang",
        "State": "Selangor"
    },
    {
        "Postcode": "42000",
        "Location": "Jalan Cengkeh",
        "Post_Office": "Pelabuhan Klang",
        "State": "Selangor"
    },
    {
        "Postcode": "42000",
        "Location": "Jalan Chan Ah Choo",
        "Post_Office": "Pelabuhan Klang",
        "State": "Selangor"
    },
    {
        "Postcode": "42000",
        "Location": "Jalan Chinniah",
        "Post_Office": "Pelabuhan Klang",
        "State": "Selangor"
    },
    {
        "Postcode": "42000",
        "Location": "Jalan Cucur Atap",
        "Post_Office": "Pelabuhan Klang",
        "State": "Selangor"
    },
    {
        "Postcode": "42000",
        "Location": "Jalan Damar",
        "Post_Office": "Pelabuhan Klang",
        "State": "Selangor"
    },
    {
        "Postcode": "42000",
        "Location": "Jalan Damar Merah",
        "Post_Office": "Pelabuhan Klang",
        "State": "Selangor"
    },
    {
        "Postcode": "42000",
        "Location": "Jalan Damar Minyak",
        "Post_Office": "Pelabuhan Klang",
        "State": "Selangor"
    },
    {
        "Postcode": "42000",
        "Location": "Jalan Dengkil",
        "Post_Office": "Pelabuhan Klang",
        "State": "Selangor"
    },
    {
        "Postcode": "42000",
        "Location": "Jalan Depoh",
        "Post_Office": "Pelabuhan Klang",
        "State": "Selangor"
    },
    {
        "Postcode": "42000",
        "Location": "Jalan Derun",
        "Post_Office": "Pelabuhan Klang",
        "State": "Selangor"
    },
    {
        "Postcode": "42000",
        "Location": "Jalan Foreshore",
        "Post_Office": "Pelabuhan Klang",
        "State": "Selangor"
    },
    {
        "Postcode": "42000",
        "Location": "Jalan Halia",
        "Post_Office": "Pelabuhan Klang",
        "State": "Selangor"
    },
    {
        "Postcode": "42000",
        "Location": "Jalan Hishamudin",
        "Post_Office": "Pelabuhan Klang",
        "State": "Selangor"
    },
    {
        "Postcode": "42000",
        "Location": "Jalan Jagong",
        "Post_Office": "Pelabuhan Klang",
        "State": "Selangor"
    },
    {
        "Postcode": "42000",
        "Location": "Jalan Jambu",
        "Post_Office": "Pelabuhan Klang",
        "State": "Selangor"
    },
    {
        "Postcode": "42000",
        "Location": "Jalan Jati",
        "Post_Office": "Pelabuhan Klang",
        "State": "Selangor"
    },
    {
        "Postcode": "42000",
        "Location": "Jalan Jelai",
        "Post_Office": "Pelabuhan Klang",
        "State": "Selangor"
    },
    {
        "Postcode": "42000",
        "Location": "Jalan Kacang",
        "Post_Office": "Pelabuhan Klang",
        "State": "Selangor"
    },
    {
        "Postcode": "42000",
        "Location": "Jalan Kapor",
        "Post_Office": "Pelabuhan Klang",
        "State": "Selangor"
    },
    {
        "Postcode": "42000",
        "Location": "Jalan Kastam",
        "Post_Office": "Pelabuhan Klang",
        "State": "Selangor"
    },
    {
        "Postcode": "42000",
        "Location": "Jalan Kayu Arang",
        "Post_Office": "Pelabuhan Klang",
        "State": "Selangor"
    },
    {
        "Postcode": "42000",
        "Location": "Jalan Kelab",
        "Post_Office": "Pelabuhan Klang",
        "State": "Selangor"
    },
    {
        "Postcode": "42000",
        "Location": "Jalan Kem",
        "Post_Office": "Pelabuhan Klang",
        "State": "Selangor"
    },
    {
        "Postcode": "42000",
        "Location": "Jalan Kemanis",
        "Post_Office": "Pelabuhan Klang",
        "State": "Selangor"
    },
    {
        "Postcode": "42000",
        "Location": "Jalan Kenanga",
        "Post_Office": "Pelabuhan Klang",
        "State": "Selangor"
    },
    {
        "Postcode": "42000",
        "Location": "Jalan Keruing ",
        "Post_Office": "Pelabuhan Klang",
        "State": "Selangor"
    },
    {
        "Postcode": "42000",
        "Location": "Jalan Ketapang",
        "Post_Office": "Pelabuhan Klang",
        "State": "Selangor"
    },
    {
        "Postcode": "42000",
        "Location": "Jalan Kiambang",
        "Post_Office": "Pelabuhan Klang",
        "State": "Selangor"
    },
    {
        "Postcode": "42000",
        "Location": "Jalan Kopi",
        "Post_Office": "Pelabuhan Klang",
        "State": "Selangor"
    },
    {
        "Postcode": "42000",
        "Location": "Jalan Kulur",
        "Post_Office": "Pelabuhan Klang",
        "State": "Selangor"
    },
    {
        "Postcode": "42000",
        "Location": "Jalan Kundur",
        "Post_Office": "Pelabuhan Klang",
        "State": "Selangor"
    },
    {
        "Postcode": "42000",
        "Location": "Jalan Labu",
        "Post_Office": "Pelabuhan Klang",
        "State": "Selangor"
    },
    {
        "Postcode": "42000",
        "Location": "Jalan Langsat",
        "Post_Office": "Pelabuhan Klang",
        "State": "Selangor"
    },
    {
        "Postcode": "42000",
        "Location": "Jalan Lencongan",
        "Post_Office": "Pelabuhan Klang",
        "State": "Selangor"
    },
    {
        "Postcode": "42000",
        "Location": "Jalan Lengkongan",
        "Post_Office": "Pelabuhan Klang",
        "State": "Selangor"
    },
    {
        "Postcode": "42000",
        "Location": "Jalan Letchumanan",
        "Post_Office": "Pelabuhan Klang",
        "State": "Selangor"
    },
    {
        "Postcode": "42000",
        "Location": "Jalan Limbongan",
        "Post_Office": "Pelabuhan Klang",
        "State": "Selangor"
    },
    {
        "Postcode": "42000",
        "Location": "Jalan Melikai",
        "Post_Office": "Pelabuhan Klang",
        "State": "Selangor"
    },
    {
        "Postcode": "42000",
        "Location": "Jalan Mesra",
        "Post_Office": "Pelabuhan Klang",
        "State": "Selangor"
    },
    {
        "Postcode": "42000",
        "Location": "Jalan Nibong",
        "Post_Office": "Pelabuhan Klang",
        "State": "Selangor"
    },
    {
        "Postcode": "42000",
        "Location": "Jalan Nipah",
        "Post_Office": "Pelabuhan Klang",
        "State": "Selangor"
    },
    {
        "Postcode": "42000",
        "Location": "Jalan Pala",
        "Post_Office": "Pelabuhan Klang",
        "State": "Selangor"
    },
    {
        "Postcode": "42000",
        "Location": "Jalan Pandangan",
        "Post_Office": "Pelabuhan Klang",
        "State": "Selangor"
    },
    {
        "Postcode": "42000",
        "Location": "Jalan Papan",
        "Post_Office": "Pelabuhan Klang",
        "State": "Selangor"
    },
    {
        "Postcode": "42000",
        "Location": "Jalan Pandamaran Jaya",
        "Post_Office": "Pelabuhan Klang",
        "State": "Selangor"
    },
    {
        "Postcode": "42000",
        "Location": "Lorong Orkid 1A",
        "Post_Office": "Pelabuhan Klang",
        "State": "Selangor"
    },
    {
        "Postcode": "42000",
        "Location": "Persiaran Sultan Alauddin",
        "Post_Office": "Pelabuhan Klang",
        "State": "Selangor"
    },
    {
        "Postcode": "42000",
        "Location": "Lorong Selat Selatan 1/6 ",
        "Post_Office": "Pelabuhan Klang",
        "State": "Selangor"
    },
    {
        "Postcode": "42000",
        "Location": "Jalan Sungai Keladi 3/KS 4",
        "Post_Office": "Pelabuhan Klang",
        "State": "Selangor"
    },
    {
        "Postcode": "42000",
        "Location": "Jalan Pandamaran /KS 9",
        "Post_Office": "Pelabuhan Klang",
        "State": "Selangor"
    },
    {
        "Postcode": "42000",
        "Location": "Jalan Udang Galah 3/KS 10",
        "Post_Office": "Pelabuhan Klang",
        "State": "Selangor"
    },
    {
        "Postcode": "42000",
        "Location": "Jalan Perindustrian Samudera 1/KS 12",
        "Post_Office": "Pelabuhan Klang",
        "State": "Selangor"
    },
    {
        "Postcode": "42000",
        "Location": "Jalan Sultan Mohamed 2/KU17",
        "Post_Office": "Pelabuhan Klang",
        "State": "Selangor"
    },
    {
        "Postcode": "42000",
        "Location": "Jalan Tun Perak 1/KU16",
        "Post_Office": "Pelabuhan Klang",
        "State": "Selangor"
    },
    {
        "Postcode": "42000",
        "Location": "Jalan Telok Gong/KS10",
        "Post_Office": "Pelabuhan Klang",
        "State": "Selangor"
    },
    {
        "Postcode": "42000",
        "Location": "Kampung Perajurit",
        "Post_Office": "Pelabuhan Klang",
        "State": "Selangor"
    },
    {
        "Postcode": "42000",
        "Location": "Kampung Baru",
        "Post_Office": "Pelabuhan Klang",
        "State": "Selangor"
    },
    {
        "Postcode": "42000",
        "Location": "Kawasan Perindustrian Kuala",
        "Post_Office": "Pelabuhan Klang",
        "State": "Selangor"
    },
    {
        "Postcode": "42000",
        "Location": "Taman Canang Perkasa",
        "Post_Office": "Pelabuhan Klang",
        "State": "Selangor"
    },
    {
        "Postcode": "42000",
        "Location": "Telok Gong",
        "Post_Office": "Pelabuhan Klang",
        "State": "Selangor"
    },
    {
        "Postcode": "42000",
        "Location": "Jalan Kim Chuan",
        "Post_Office": "Pelabuhan Klang",
        "State": "Selangor"
    },
    {
        "Postcode": "42000",
        "Location": "Taman Perindustrian Sobena Jaya",
        "Post_Office": "Pelabuhan Klang",
        "State": "Selangor"
    },
    {
        "Postcode": "42000",
        "Location": "Taman Industri Perdana",
        "Post_Office": "Pelabuhan Klang",
        "State": "Selangor"
    },
    {
        "Postcode": "42000",
        "Location": "Bagan Hailam",
        "Post_Office": "Pelabuhan Klang",
        "State": "Selangor"
    },
    {
        "Postcode": "42000",
        "Location": "Kampung Bagan Hailam",
        "Post_Office": "Pelabuhan Klang",
        "State": "Selangor"
    },
    {
        "Postcode": "42000",
        "Location": "Kampung Melayu Bagan Hailam",
        "Post_Office": "Pelabuhan Klang",
        "State": "Selangor"
    },
    {
        "Postcode": "42000",
        "Location": "Kawasan Pelabuhan Selatan",
        "Post_Office": "Pelabuhan Klang",
        "State": "Selangor"
    },
    {
        "Postcode": "42000",
        "Location": "Kawasan Perindustrian Bandar Sultan Suleiman ",
        "Post_Office": "Pelabuhan Klang",
        "State": "Selangor"
    },
    {
        "Postcode": "42000",
        "Location": "Taman Perindustrian Pandamaran",
        "Post_Office": "Pelabuhan Klang",
        "State": "Selangor"
    },
    {
        "Postcode": "42000",
        "Location": "Jalan Kelapa",
        "Post_Office": "Pelabuhan Klang",
        "State": "Selangor"
    },
    {
        "Postcode": "42000",
        "Location": "Jalan Mawar",
        "Post_Office": "Pelabuhan Klang",
        "State": "Selangor"
    },
    {
        "Postcode": "42000",
        "Location": "Jalan Sekolah",
        "Post_Office": "Pelabuhan Klang",
        "State": "Selangor"
    },
    {
        "Postcode": "42000",
        "Location": "Jalan Bahagia ",
        "Post_Office": "Pelabuhan Klang",
        "State": "Selangor"
    },
    {
        "Postcode": "42000",
        "Location": "Jalan Merbau",
        "Post_Office": "Pelabuhan Klang",
        "State": "Selangor"
    },
    {
        "Postcode": "42000",
        "Location": "Jalan Belimbing",
        "Post_Office": "Pelabuhan Klang",
        "State": "Selangor"
    },
    {
        "Postcode": "42000",
        "Location": "Jalan Cempedak",
        "Post_Office": "Pelabuhan Klang",
        "State": "Selangor"
    },
    {
        "Postcode": "42000",
        "Location": "Jalan Kempas",
        "Post_Office": "Pelabuhan Klang",
        "State": "Selangor"
    },
    {
        "Postcode": "42000",
        "Location": "Kampung Nelayan",
        "Post_Office": "Pelabuhan Klang",
        "State": "Selangor"
    },
    {
        "Postcode": "42000",
        "Location": "Persiaran Raja Muda Musa",
        "Post_Office": "Pelabuhan Klang",
        "State": "Selangor"
    },
    {
        "Postcode": "42000",
        "Location": "Jalan Batu Arang ",
        "Post_Office": "Pelabuhan Klang",
        "State": "Selangor"
    },
    {
        "Postcode": "42000",
        "Location": "Jalan Batu Unjur",
        "Post_Office": "Pelabuhan Klang",
        "State": "Selangor"
    },
    {
        "Postcode": "42000",
        "Location": "Jalan Bungor",
        "Post_Office": "Pelabuhan Klang",
        "State": "Selangor"
    },
    {
        "Postcode": "42000",
        "Location": "Jalan Ipoh",
        "Post_Office": "Pelabuhan Klang",
        "State": "Selangor"
    },
    {
        "Postcode": "42000",
        "Location": "Solok Perusahaan 28 ",
        "Post_Office": "Pelabuhan Klang",
        "State": "Selangor"
    },
    {
        "Postcode": "42000",
        "Location": "Jalan Ehsan Perdana 7",
        "Post_Office": "Pelabuhan Klang",
        "State": "Selangor"
    },
    {
        "Postcode": "42000",
        "Location": "Teluk Glenmarie",
        "Post_Office": "Pelabuhan Klang",
        "State": "Selangor"
    },
    {
        "Postcode": "42000",
        "Location": "Lorong Sentul 1",
        "Post_Office": "Pelabuhan Klang",
        "State": "Selangor"
    },
    {
        "Postcode": "42000",
        "Location": "Kampung Tengah",
        "Post_Office": "Pelabuhan Klang",
        "State": "Selangor"
    },
    {
        "Postcode": "42000",
        "Location": "Taman Pandamaran Jaya",
        "Post_Office": "Pelabuhan Klang",
        "State": "Selangor"
    },
    {
        "Postcode": "42000",
        "Location": "Jalan Pekeliling",
        "Post_Office": "Pelabuhan Klang",
        "State": "Selangor"
    },
    {
        "Postcode": "42000",
        "Location": "Jalan Raja Lumu",
        "Post_Office": "Pelabuhan Klang",
        "State": "Selangor"
    },
    {
        "Postcode": "42000",
        "Location": "Kampung Idaman",
        "Post_Office": "Pelabuhan Klang",
        "State": "Selangor"
    },
    {
        "Postcode": "42000",
        "Location": "Kampung Sungai Sireh",
        "Post_Office": "Pelabuhan Klang",
        "State": "Selangor"
    },
    {
        "Postcode": "42000",
        "Location": "Jalan Sungai Keladi 2",
        "Post_Office": "Pelabuhan Klang",
        "State": "Selangor"
    },
    {
        "Postcode": "42000",
        "Location": "Taman Perindustrian Teluk Gedung Indah",
        "Post_Office": "Pelabuhan Klang",
        "State": "Selangor"
    },
    {
        "Postcode": "42000",
        "Location": "Jalan Tun Teja 3/KU16",
        "Post_Office": "Pelabuhan Klang",
        "State": "Selangor"
    },
    {
        "Postcode": "42000",
        "Location": "Taman Perindustrian Perdana",
        "Post_Office": "Pelabuhan Klang",
        "State": "Selangor"
    },
    {
        "Postcode": "42000",
        "Location": "Taman Perindustrian Samudera",
        "Post_Office": "Pelabuhan Klang",
        "State": "Selangor"
    },
    {
        "Postcode": "42000",
        "Location": "Taman Gong Emas",
        "Post_Office": "Pelabuhan Klang",
        "State": "Selangor"
    },
    {
        "Postcode": "42000",
        "Location": "Taman Pandamaran Permai",
        "Post_Office": "Pelabuhan Klang",
        "State": "Selangor"
    },
    {
        "Postcode": "42000",
        "Location": "Jalan Sultan Alauddin 6",
        "Post_Office": "Pelabuhan Klang",
        "State": "Selangor"
    },
    {
        "Postcode": "42000",
        "Location": "Taman Ehsan Jaya",
        "Post_Office": "Pelabuhan Klang",
        "State": "Selangor"
    },
    {
        "Postcode": "42000",
        "Location": "Taman Perindustrian Teluk Gedung Indah",
        "Post_Office": "Pelabuhan Klang",
        "State": "Selangor"
    },
    {
        "Postcode": "42000",
        "Location": "Jalan Tun Perak 3/KU16",
        "Post_Office": "Pelabuhan Klang",
        "State": "Selangor"
    },
    {
        "Postcode": "42000",
        "Location": "Bandar Sultan Suleiman",
        "Post_Office": "Pelabuhan Klang",
        "State": "Selangor"
    },
    {
        "Postcode": "42000",
        "Location": "Lorong Permai 3E",
        "Post_Office": "Pelabuhan Klang",
        "State": "Selangor"
    },
    {
        "Postcode": "42000",
        "Location": "Lorong Permai 5E",
        "Post_Office": "Pelabuhan Klang",
        "State": "Selangor"
    },
    {
        "Postcode": "42000",
        "Location": "Jalan Sultan Hishamuddin 1/KU18",
        "Post_Office": "Pelabuhan Klang",
        "State": "Selangor"
    },
    {
        "Postcode": "42000",
        "Location": "Jalan Keluli 2B/KU2",
        "Post_Office": "Pelabuhan Klang",
        "State": "Selangor"
    },
    {
        "Postcode": "42000",
        "Location": "Jalan Pandamaran / KS 5",
        "Post_Office": "Pelabuhan Klang",
        "State": "Selangor"
    },
    {
        "Postcode": "42000",
        "Location": "Jalan Ehsan Utama/ KS5",
        "Post_Office": "Pelabuhan Klang",
        "State": "Selangor"
    },
    {
        "Postcode": "42000",
        "Location": "Jalan Kim Chuan/KS5",
        "Post_Office": "Pelabuhan Klang",
        "State": "Selangor"
    },
    {
        "Postcode": "42000",
        "Location": "Jalan Perusahaan 27/KS05",
        "Post_Office": "Pelabuhan Klang",
        "State": "Selangor"
    },
    {
        "Postcode": "42000",
        "Location": "Jalan Young/KS05",
        "Post_Office": "Pelabuhan Klang",
        "State": "Selangor"
    },
    {
        "Postcode": "42000",
        "Location": "Cempaka Emas Industrial Park",
        "Post_Office": "Pelabuhan Klang",
        "State": "Selangor"
    },
    {
        "Postcode": "42000",
        "Location": "Kampung Air Hitam",
        "Post_Office": "Pelabuhan Klang",
        "State": "Selangor"
    },
    {
        "Postcode": "42000",
        "Location": "Kampung Masjid",
        "Post_Office": "Pelabuhan Klang",
        "State": "Selangor"
    },
    {
        "Postcode": "42000",
        "Location": "Kampung Pendamar",
        "Post_Office": "Pelabuhan Klang",
        "State": "Selangor"
    },
    {
        "Postcode": "42000",
        "Location": "Kampung Sireh Junjung",
        "Post_Office": "Pelabuhan Klang",
        "State": "Selangor"
    },
    {
        "Postcode": "42000",
        "Location": "Kampung Sungai Sireh Tambahan",
        "Post_Office": "Pelabuhan Klang",
        "State": "Selangor"
    },
    {
        "Postcode": "42000",
        "Location": "Kampung Sungai Sireh Tambahan 2",
        "Post_Office": "Pelabuhan Klang",
        "State": "Selangor"
    },
    {
        "Postcode": "42000",
        "Location": "Kawasan Perindustrian Landpac",
        "Post_Office": "Pelabuhan Klang",
        "State": "Selangor"
    },
    {
        "Postcode": "42000",
        "Location": "Kawasan Perindustrian Selat Klang Utara",
        "Post_Office": "Pelabuhan Klang",
        "State": "Selangor"
    },
    {
        "Postcode": "42000",
        "Location": "Pusat Perdagangan Bandar Sultan Suleiman",
        "Post_Office": "Pelabuhan Klang",
        "State": "Selangor"
    },
    {
        "Postcode": "42000",
        "Location": "Taman Bayu Impian",
        "Post_Office": "Pelabuhan Klang",
        "State": "Selangor"
    },
    {
        "Postcode": "42000",
        "Location": "Taman Pendamar Indah 2",
        "Post_Office": "Pelabuhan Klang",
        "State": "Selangor"
    },
    {
        "Postcode": "42000",
        "Location": "Taman Raja Uda",
        "Post_Office": "Pelabuhan Klang",
        "State": "Selangor"
    },
    {
        "Postcode": "42000",
        "Location": "Taman Sungai Sireh",
        "Post_Office": "Pelabuhan Klang",
        "State": "Selangor"
    },
    {
        "Postcode": "42000",
        "Location": "Taman Suria Pendamar",
        "Post_Office": "Pelabuhan Klang",
        "State": "Selangor"
    },
    {
        "Postcode": "42000",
        "Location": "Taman Teluk Gedung Indah",
        "Post_Office": "Pelabuhan Klang",
        "State": "Selangor"
    }
]
