[
    {
        "Postcode": "42100",
        "Location": "Taman Kelana",
        "Post_Office": "Klang",
        "State": "Selangor"
    },
    {
        "Postcode": "42100",
        "Location": "Taman Sri Mutiara",
        "Post_Office": "Klang",
        "State": "Selangor"
    },
    {
        "Postcode": "42100",
        "Location": "Taman Sri Rantau",
        "Post_Office": "Klang",
        "State": "Selangor"
    },
    {
        "Postcode": "42100",
        "Location": "Jalan Permai 27/KU16",
        "Post_Office": "Klang",
        "State": "Selangor"
    },
    {
        "Postcode": "42100",
        "Location": "Jalan Cempakasari",
        "Post_Office": "Klang",
        "State": "Selangor"
    },
    {
        "Postcode": "42100",
        "Location": "Jalan Haji Osman",
        "Post_Office": "Klang",
        "State": "Selangor"
    },
    {
        "Postcode": "42100",
        "Location": "Jalan Haji Sirat",
        "Post_Office": "Klang",
        "State": "Selangor"
    },
    {
        "Postcode": "42100",
        "Location": "Jalan Indah",
        "Post_Office": "Klang",
        "State": "Selangor"
    },
    {
        "Postcode": "42100",
        "Location": "Jalan Istimewa",
        "Post_Office": "Klang",
        "State": "Selangor"
    },
    {
        "Postcode": "42100",
        "Location": "Jalan Kapar (Hingga Km 8)",
        "Post_Office": "Klang",
        "State": "Selangor"
    },
    {
        "Postcode": "42100",
        "Location": "Jalan Musran",
        "Post_Office": "Klang",
        "State": "Selangor"
    },
    {
        "Postcode": "42100",
        "Location": "Jalan Pengasah",
        "Post_Office": "Klang",
        "State": "Selangor"
    },
    {
        "Postcode": "42100",
        "Location": "Jalan Sentosa (Rantau Panjang)",
        "Post_Office": "Klang",
        "State": "Selangor"
    },
    {
        "Postcode": "42100",
        "Location": "Jalan Seri Nibong",
        "Post_Office": "Klang",
        "State": "Selangor"
    },
    {
        "Postcode": "42100",
        "Location": "Jalan Sungai Beting",
        "Post_Office": "Klang",
        "State": "Selangor"
    },
    {
        "Postcode": "42100",
        "Location": "Jalan Sungai Chadong",
        "Post_Office": "Klang",
        "State": "Selangor"
    },
    {
        "Postcode": "42100",
        "Location": "Jalan Sungai Keramat",
        "Post_Office": "Klang",
        "State": "Selangor"
    },
    {
        "Postcode": "42100",
        "Location": "Jalan Sungai Puluh",
        "Post_Office": "Klang",
        "State": "Selangor"
    },
    {
        "Postcode": "42100",
        "Location": "Jalan Sungai Putus (Rantau Panjang)",
        "Post_Office": "Klang",
        "State": "Selangor"
    },
    {
        "Postcode": "42100",
        "Location": "Jalan Sungai Sain",
        "Post_Office": "Klang",
        "State": "Selangor"
    },
    {
        "Postcode": "42100",
        "Location": "Jalan Telok Kapas",
        "Post_Office": "Klang",
        "State": "Selangor"
    },
    {
        "Postcode": "42100",
        "Location": "Kampung Batu 3 Jalan Kapar",
        "Post_Office": "Klang",
        "State": "Selangor"
    },
    {
        "Postcode": "42100",
        "Location": "Kampung Batu 4 (Jalan Kapar)",
        "Post_Office": "Klang",
        "State": "Selangor"
    },
    {
        "Postcode": "42100",
        "Location": "Kampung Batu Belah",
        "Post_Office": "Klang",
        "State": "Selangor"
    },
    {
        "Postcode": "42100",
        "Location": "Kampung Sementa",
        "Post_Office": "Klang",
        "State": "Selangor"
    },
    {
        "Postcode": "42100",
        "Location": "Kampung Sungai Puloh",
        "Post_Office": "Klang",
        "State": "Selangor"
    },
    {
        "Postcode": "42100",
        "Location": "Kawasan Perindustrian Sungai Puloh",
        "Post_Office": "Klang",
        "State": "Selangor"
    },
    {
        "Postcode": "42100",
        "Location": "Kristal Klang Commercial Centre",
        "Post_Office": "Klang",
        "State": "Selangor"
    },
    {
        "Postcode": "42100",
        "Location": "Ladang Shelford",
        "Post_Office": "Klang",
        "State": "Selangor"
    },
    {
        "Postcode": "42100",
        "Location": "Ladang Sungai Buloh (Km 8 Jalan Kampar)",
        "Post_Office": "Klang",
        "State": "Selangor"
    },
    {
        "Postcode": "42100",
        "Location": "Rantau Panjang",
        "Post_Office": "Klang",
        "State": "Selangor"
    },
    {
        "Postcode": "42100",
        "Location": "Rumah Murah Pkns Baru 4 J",
        "Post_Office": "Klang",
        "State": "Selangor"
    },
    {
        "Postcode": "42100",
        "Location": "Sementa",
        "Post_Office": "Klang",
        "State": "Selangor"
    },
    {
        "Postcode": "42100",
        "Location": "Taman Bahagia",
        "Post_Office": "Klang",
        "State": "Selangor"
    },
    {
        "Postcode": "42100",
        "Location": "Taman Cempaka Sari",
        "Post_Office": "Klang",
        "State": "Selangor"
    },
    {
        "Postcode": "42100",
        "Location": "Taman Harapan",
        "Post_Office": "Klang",
        "State": "Selangor"
    },
    {
        "Postcode": "42100",
        "Location": "Taman Impian",
        "Post_Office": "Klang",
        "State": "Selangor"
    },
    {
        "Postcode": "42100",
        "Location": "Taman Kembara 3",
        "Post_Office": "Klang",
        "State": "Selangor"
    },
    {
        "Postcode": "42100",
        "Location": "Taman Klang Emas",
        "Post_Office": "Klang",
        "State": "Selangor"
    },
    {
        "Postcode": "42100",
        "Location": "Taman Klang Perdana",
        "Post_Office": "Klang",
        "State": "Selangor"
    },
    {
        "Postcode": "42100",
        "Location": "Taman Klang Utama",
        "Post_Office": "Klang",
        "State": "Selangor"
    },
    {
        "Postcode": "42100",
        "Location": "Taman Mewah (Rantau Panjang)",
        "Post_Office": "Klang",
        "State": "Selangor"
    },
    {
        "Postcode": "42100",
        "Location": "Taman Mewah Jaya",
        "Post_Office": "Klang",
        "State": "Selangor"
    },
    {
        "Postcode": "42100",
        "Location": "Taman Nazati",
        "Post_Office": "Klang",
        "State": "Selangor"
    },
    {
        "Postcode": "42100",
        "Location": "Taman Pengasah Baru",
        "Post_Office": "Klang",
        "State": "Selangor"
    },
    {
        "Postcode": "42100",
        "Location": "Taman Pinang Raja",
        "Post_Office": "Klang",
        "State": "Selangor"
    },
    {
        "Postcode": "42100",
        "Location": "Taman Rantau Panjang",
        "Post_Office": "Klang",
        "State": "Selangor"
    },
    {
        "Postcode": "42100",
        "Location": "Taman Seri Sementa",
        "Post_Office": "Klang",
        "State": "Selangor"
    },
    {
        "Postcode": "42100",
        "Location": "Taman Setia Baru",
        "Post_Office": "Klang",
        "State": "Selangor"
    },
    {
        "Postcode": "42100",
        "Location": "Taman Sungai Daun",
        "Post_Office": "Klang",
        "State": "Selangor"
    },
    {
        "Postcode": "42100",
        "Location": "Taman Tenaga Bakti",
        "Post_Office": "Klang",
        "State": "Selangor"
    },
    {
        "Postcode": "42100",
        "Location": "Teluk Kapas",
        "Post_Office": "Klang",
        "State": "Selangor"
    },
    {
        "Postcode": "42100",
        "Location": "Jalan Sungai Nibong 14A",
        "Post_Office": "Klang",
        "State": "Selangor"
    },
    {
        "Postcode": "42100",
        "Location": "Jalan 22B / Ku 04",
        "Post_Office": "Klang",
        "State": "Selangor"
    },
    {
        "Postcode": "42100",
        "Location": "Jalan 9D / Ks 13",
        "Post_Office": "Klang",
        "State": "Selangor"
    },
    {
        "Postcode": "42100",
        "Location": "Taman Kembara",
        "Post_Office": "Klang",
        "State": "Selangor"
    },
    {
        "Postcode": "42100",
        "Location": "Jalan 4L (Ku 4)",
        "Post_Office": "Klang",
        "State": "Selangor"
    },
    {
        "Postcode": "42100",
        "Location": "Jalan 9C (Ku 4)",
        "Post_Office": "Klang",
        "State": "Selangor"
    },
    {
        "Postcode": "42100",
        "Location": "Jalan Genting 10 (Ku 4)",
        "Post_Office": "Klang",
        "State": "Selangor"
    },
    {
        "Postcode": "42100",
        "Location": "Jalan Genting 7 (Ku 4)",
        "Post_Office": "Klang",
        "State": "Selangor"
    },
    {
        "Postcode": "42100",
        "Location": "Lebuhraya Selat Klang Utara (Ku 4)",
        "Post_Office": "Klang",
        "State": "Selangor"
    },
    {
        "Postcode": "42100",
        "Location": "Solok Sungai Keramat 10C (Ku 6)",
        "Post_Office": "Klang",
        "State": "Selangor"
    },
    {
        "Postcode": "42100",
        "Location": "Taman Dagang",
        "Post_Office": "Klang",
        "State": "Selangor"
    },
    {
        "Postcode": "42100",
        "Location": "Jalan 22F / Ku 04",
        "Post_Office": "Klang",
        "State": "Selangor"
    },
    {
        "Postcode": "42100",
        "Location": "Jalan Klang Perdana / Ku 15",
        "Post_Office": "Klang",
        "State": "Selangor"
    },
    {
        "Postcode": "42100",
        "Location": "Jalan Muhibbah / Ku 3",
        "Post_Office": "Klang",
        "State": "Selangor"
    },
    {
        "Postcode": "42100",
        "Location": "Pangsapuri Villamas, Jalan Muhibbah",
        "Post_Office": "Klang",
        "State": "Selangor"
    },
    {
        "Postcode": "42100",
        "Location": "Jalab 8A/ Ku4",
        "Post_Office": "Klang",
        "State": "Selangor"
    },
    {
        "Postcode": "42100",
        "Location": "Jalan 9A/ Ku4",
        "Post_Office": "Klang",
        "State": "Selangor"
    },
    {
        "Postcode": "42100",
        "Location": "Jalan Genting 11/ Ku4",
        "Post_Office": "Klang",
        "State": "Selangor"
    },
    {
        "Postcode": "42100",
        "Location": "Taman Perindustrian Klang Utama",
        "Post_Office": "Klang",
        "State": "Selangor"
    },
    {
        "Postcode": "42100",
        "Location": "Jalan 3 / Ku 4",
        "Post_Office": "Klang",
        "State": "Selangor"
    },
    {
        "Postcode": "42100",
        "Location": "Kawasan Industri Klang Utama",
        "Post_Office": "Klang",
        "State": "Selangor"
    },
    {
        "Postcode": "42100",
        "Location": "Taman Hijrah",
        "Post_Office": "Klang",
        "State": "Selangor"
    },
    {
        "Postcode": "42100",
        "Location": "Jalan 1B / Ku4",
        "Post_Office": "Klang",
        "State": "Selangor"
    },
    {
        "Postcode": "42100",
        "Location": "Lorong Haji Abdul Manan/KU6",
        "Post_Office": "Klang",
        "State": "Selangor"
    },
    {
        "Postcode": "42100",
        "Location": "Jalan Tiga/KU3",
        "Post_Office": "Klang",
        "State": "Selangor"
    },
    {
        "Postcode": "42100",
        "Location": "Jalan 12G/KU4",
        "Post_Office": "Klang",
        "State": "Selangor"
    },
    {
        "Postcode": "42100",
        "Location": "Jalan Harmoni 12/KU3",
        "Post_Office": "Klang",
        "State": "Selangor"
    },
    {
        "Postcode": "42100",
        "Location": "Jalan Tenteram",
        "Post_Office": "Klang",
        "State": "Selangor"
    },
    {
        "Postcode": "42100",
        "Location": "Sungai Pinang",
        "Post_Office": "Klang",
        "State": "Selangor"
    },
    {
        "Postcode": "42100",
        "Location": "Jalan Sungai Beting 5",
        "Post_Office": "Klang",
        "State": "Selangor"
    },
    {
        "Postcode": "42100",
        "Location": "Jalan Sekolah",
        "Post_Office": "Klang",
        "State": "Selangor"
    },
    {
        "Postcode": "42100",
        "Location": "Jalan Bahagia",
        "Post_Office": "Klang",
        "State": "Selangor"
    },
    {
        "Postcode": "42100",
        "Location": "Kampung Rantau Panjang",
        "Post_Office": "Klang",
        "State": "Selangor"
    },
    {
        "Postcode": "42100",
        "Location": "Lorong Aman",
        "Post_Office": "Klang",
        "State": "Selangor"
    },
    {
        "Postcode": "42100",
        "Location": "Taman Harmoni",
        "Post_Office": "Klang",
        "State": "Selangor"
    },
    {
        "Postcode": "42100",
        "Location": "Taman Baiduri",
        "Post_Office": "Klang",
        "State": "Selangor"
    },
    {
        "Postcode": "42100",
        "Location": "Jalan Harmoni",
        "Post_Office": "Klang",
        "State": "Selangor"
    },
    {
        "Postcode": "42100",
        "Location": "Jalan Sungai Batu 6 / Ku6",
        "Post_Office": "Klang",
        "State": "Selangor"
    },
    {
        "Postcode": "42100",
        "Location": "Lorong Perantau 3 / Ku4",
        "Post_Office": "Klang",
        "State": "Selangor"
    },
    {
        "Postcode": "42100",
        "Location": "Jalan Genting 13 / Ku 04",
        "Post_Office": "Klang",
        "State": "Selangor"
    },
    {
        "Postcode": "42100",
        "Location": "Jalan Sungai Daun 23C / Ku4",
        "Post_Office": "Klang",
        "State": "Selangor"
    },
    {
        "Postcode": "42100",
        "Location": "Kristal Klang Commercial Centre / Ku3",
        "Post_Office": "Klang",
        "State": "Selangor"
    },
    {
        "Postcode": "42100",
        "Location": "Menara Kristal Klang",
        "Post_Office": "Klang",
        "State": "Selangor"
    },
    {
        "Postcode": "42100",
        "Location": "Jalan 1L / Ku4",
        "Post_Office": "Klang",
        "State": "Selangor"
    },
    {
        "Postcode": "42100",
        "Location": "Taman Hijrah 2",
        "Post_Office": "Klang",
        "State": "Selangor"
    },
    {
        "Postcode": "42100",
        "Location": "Kawasan Industri Klang Utara",
        "Post_Office": "Klang",
        "State": "Selangor"
    },
    {
        "Postcode": "42100",
        "Location": "Jalan Permai 3",
        "Post_Office": "Klang",
        "State": "Selangor"
    },
    {
        "Postcode": "42100",
        "Location": "Jalan Sungai Bilah 6/Ku4",
        "Post_Office": "Klang",
        "State": "Selangor"
    },
    {
        "Postcode": "42100",
        "Location": "Jalan Sungai Puloh/Ku6",
        "Post_Office": "Klang",
        "State": "Selangor"
    },
    {
        "Postcode": "42100",
        "Location": "Jalan Sungai Putus 2/Ku3",
        "Post_Office": "Klang",
        "State": "Selangor"
    },
    {
        "Postcode": "42100",
        "Location": "Jalan Kunci Air",
        "Post_Office": "Klang",
        "State": "Selangor"
    },
    {
        "Postcode": "42100",
        "Location": "Jalan 13/KU4",
        "Post_Office": "Klang",
        "State": "Selangor"
    },
    {
        "Postcode": "42100",
        "Location": "Jalan Sementa Murni 2/KU16",
        "Post_Office": "Klang",
        "State": "Selangor"
    },
    {
        "Postcode": "42100",
        "Location": "Taman Seri Sementa Jaya ",
        "Post_Office": "Klang",
        "State": "Selangor"
    },
    {
        "Postcode": "42100",
        "Location": "Kawasan Perindustrian Klang Utama",
        "Post_Office": "Klang",
        "State": "Selangor"
    },
    {
        "Postcode": "42100",
        "Location": "Park Klang Central Industrial",
        "Post_Office": "Klang",
        "State": "Selangor"
    },
    {
        "Postcode": "42100",
        "Location": "Taman Jasaria",
        "Post_Office": "Klang",
        "State": "Selangor"
    },
    {
        "Postcode": "42100",
        "Location": "Taman Sementa Bestari",
        "Post_Office": "Klang",
        "State": "Selangor"
    },
    {
        "Postcode": "42100",
        "Location": "Taman Sementa Jaya",
        "Post_Office": "Klang",
        "State": "Selangor"
    },
    {
        "Postcode": "42100",
        "Location": "Taman Sementa Permai",
        "Post_Office": "Klang",
        "State": "Selangor"
    },
    {
        "Postcode": "42100",
        "Location": "Taman Sementa Utama",
        "Post_Office": "Klang",
        "State": "Selangor"
    },
    {
        "Postcode": "42100",
        "Location": "Taman Sri Arwana",
        "Post_Office": "Klang",
        "State": "Selangor"
    },
    {
        "Postcode": "42100",
        "Location": "Taman Teluk Kapas",
        "Post_Office": "Klang",
        "State": "Selangor"
    }
]
