[
    {
        "Postcode": "42200",
        "Location": "Taman Sri Wangi",
        "Post_Office": "Kapar",
        "State": "Selangor"
    },
    {
        "Postcode": "42200",
        "Location": "Jalan Meru Indah 22/KU8",
        "Post_Office": "Kapar",
        "State": "Selangor"
    },
    {
        "Postcode": "42200",
        "Location": "Bukit Kapar",
        "Post_Office": "Kapar",
        "State": "Selangor"
    },
    {
        "Postcode": "42200",
        "Location": "Jalan Benteng",
        "Post_Office": "Kapar",
        "State": "Selangor"
    },
    {
        "Postcode": "42200",
        "Location": "Jalan Haji Alias",
        "Post_Office": "Kapar",
        "State": "Selangor"
    },
    {
        "Postcode": "42200",
        "Location": "Jalan Jambu",
        "Post_Office": "Kapar",
        "State": "Selangor"
    },
    {
        "Postcode": "42200",
        "Location": "Jalan Kapar (Km 18)",
        "Post_Office": "Kapar",
        "State": "Selangor"
    },
    {
        "Postcode": "42200",
        "Location": "Jalan Kiyai Sujak",
        "Post_Office": "Kapar",
        "State": "Selangor"
    },
    {
        "Postcode": "42200",
        "Location": "Jalan Kopi",
        "Post_Office": "Kapar",
        "State": "Selangor"
    },
    {
        "Postcode": "42200",
        "Location": "Jalan Nenas",
        "Post_Office": "Kapar",
        "State": "Selangor"
    },
    {
        "Postcode": "42200",
        "Location": "Kampung Baru Bukit Kapar",
        "Post_Office": "Kapar",
        "State": "Selangor"
    },
    {
        "Postcode": "42200",
        "Location": "Kampung Benteng",
        "Post_Office": "Kapar",
        "State": "Selangor"
    },
    {
        "Postcode": "42200",
        "Location": "Kampung Berkat",
        "Post_Office": "Kapar",
        "State": "Selangor"
    },
    {
        "Postcode": "42200",
        "Location": "Kampung Bukit Kapar",
        "Post_Office": "Kapar",
        "State": "Selangor"
    },
    {
        "Postcode": "42200",
        "Location": "Kampung Chetti",
        "Post_Office": "Kapar",
        "State": "Selangor"
    },
    {
        "Postcode": "42200",
        "Location": "Kampung Getah Meru",
        "Post_Office": "Kapar",
        "State": "Selangor"
    },
    {
        "Postcode": "42200",
        "Location": "Kampung Kebun Baru Benteng",
        "Post_Office": "Kapar",
        "State": "Selangor"
    },
    {
        "Postcode": "42200",
        "Location": "Kampung Meru (Persiaran Hamzah Alang)",
        "Post_Office": "Kapar",
        "State": "Selangor"
    },
    {
        "Postcode": "42200",
        "Location": "Kampung Meru Barat",
        "Post_Office": "Kapar",
        "State": "Selangor"
    },
    {
        "Postcode": "42200",
        "Location": "Kampung Padang Gajah",
        "Post_Office": "Kapar",
        "State": "Selangor"
    },
    {
        "Postcode": "42200",
        "Location": "Kampung Perepat Dalam",
        "Post_Office": "Kapar",
        "State": "Selangor"
    },
    {
        "Postcode": "42200",
        "Location": "Kampung Perepat Luar",
        "Post_Office": "Kapar",
        "State": "Selangor"
    },
    {
        "Postcode": "42200",
        "Location": "Kampung Seri Sembilang",
        "Post_Office": "Kapar",
        "State": "Selangor"
    },
    {
        "Postcode": "42200",
        "Location": "Kampung Suara",
        "Post_Office": "Kapar",
        "State": "Selangor"
    },
    {
        "Postcode": "42200",
        "Location": "Kampung Sungai Janggut",
        "Post_Office": "Kapar",
        "State": "Selangor"
    },
    {
        "Postcode": "42200",
        "Location": "Kampung Sungai Serdang Dalam",
        "Post_Office": "Kapar",
        "State": "Selangor"
    },
    {
        "Postcode": "42200",
        "Location": "Kampung Sungai Serdang Luar",
        "Post_Office": "Kapar",
        "State": "Selangor"
    },
    {
        "Postcode": "42200",
        "Location": "Kampung Tok Muda Dalam",
        "Post_Office": "Kapar",
        "State": "Selangor"
    },
    {
        "Postcode": "42200",
        "Location": "Kampung Tok Muda Luar",
        "Post_Office": "Kapar",
        "State": "Selangor"
    },
    {
        "Postcode": "42200",
        "Location": "Kapar",
        "Post_Office": "Kapar",
        "State": "Selangor"
    },
    {
        "Postcode": "42200",
        "Location": "Klang (Km 14)",
        "Post_Office": "Kapar",
        "State": "Selangor"
    },
    {
        "Postcode": "42200",
        "Location": "Lorong Pusara",
        "Post_Office": "Kapar",
        "State": "Selangor"
    },
    {
        "Postcode": "42200",
        "Location": "Taman Abdul Samad",
        "Post_Office": "Kapar",
        "State": "Selangor"
    },
    {
        "Postcode": "42200",
        "Location": "Taman Bukit Kapar",
        "Post_Office": "Kapar",
        "State": "Selangor"
    },
    {
        "Postcode": "42200",
        "Location": "Taman Damai",
        "Post_Office": "Kapar",
        "State": "Selangor"
    },
    {
        "Postcode": "42200",
        "Location": "Taman Dato Sanad",
        "Post_Office": "Kapar",
        "State": "Selangor"
    },
    {
        "Postcode": "42200",
        "Location": "Taman Desa Kerayong Indah",
        "Post_Office": "Kapar",
        "State": "Selangor"
    },
    {
        "Postcode": "42200",
        "Location": "Taman Desa Permai",
        "Post_Office": "Kapar",
        "State": "Selangor"
    },
    {
        "Postcode": "42200",
        "Location": "Taman Haji Hamzah",
        "Post_Office": "Kapar",
        "State": "Selangor"
    },
    {
        "Postcode": "42200",
        "Location": "Taman Intan",
        "Post_Office": "Kapar",
        "State": "Selangor"
    },
    {
        "Postcode": "42200",
        "Location": "Taman Intan Jaya",
        "Post_Office": "Kapar",
        "State": "Selangor"
    },
    {
        "Postcode": "42200",
        "Location": "Taman Iskandar",
        "Post_Office": "Kapar",
        "State": "Selangor"
    },
    {
        "Postcode": "42200",
        "Location": "Taman Juta",
        "Post_Office": "Kapar",
        "State": "Selangor"
    },
    {
        "Postcode": "42200",
        "Location": "Taman Kapar",
        "Post_Office": "Kapar",
        "State": "Selangor"
    },
    {
        "Postcode": "42200",
        "Location": "Taman Kapar Bestari",
        "Post_Office": "Kapar",
        "State": "Selangor"
    },
    {
        "Postcode": "42200",
        "Location": "Taman Kapar Indah",
        "Post_Office": "Kapar",
        "State": "Selangor"
    },
    {
        "Postcode": "42200",
        "Location": "Taman Kapar Ria",
        "Post_Office": "Kapar",
        "State": "Selangor"
    },
    {
        "Postcode": "42200",
        "Location": "Taman Kencana",
        "Post_Office": "Kapar",
        "State": "Selangor"
    },
    {
        "Postcode": "42200",
        "Location": "Taman Khoo Kek Kheng",
        "Post_Office": "Kapar",
        "State": "Selangor"
    },
    {
        "Postcode": "42200",
        "Location": "Taman Lebar Daun",
        "Post_Office": "Kapar",
        "State": "Selangor"
    },
    {
        "Postcode": "42200",
        "Location": "Taman Mas",
        "Post_Office": "Kapar",
        "State": "Selangor"
    },
    {
        "Postcode": "42200",
        "Location": "Taman Meranti Putih",
        "Post_Office": "Kapar",
        "State": "Selangor"
    },
    {
        "Postcode": "42200",
        "Location": "Taman Meru 4",
        "Post_Office": "Kapar",
        "State": "Selangor"
    },
    {
        "Postcode": "42200",
        "Location": "Taman Meru Indah",
        "Post_Office": "Kapar",
        "State": "Selangor"
    },
    {
        "Postcode": "42200",
        "Location": "Taman Muhibbah",
        "Post_Office": "Kapar",
        "State": "Selangor"
    },
    {
        "Postcode": "42200",
        "Location": "Taman Pinkie",
        "Post_Office": "Kapar",
        "State": "Selangor"
    },
    {
        "Postcode": "42200",
        "Location": "Taman Saga",
        "Post_Office": "Kapar",
        "State": "Selangor"
    },
    {
        "Postcode": "42200",
        "Location": "Taman Sentosa",
        "Post_Office": "Kapar",
        "State": "Selangor"
    },
    {
        "Postcode": "42200",
        "Location": "Taman Seri Cerakah",
        "Post_Office": "Kapar",
        "State": "Selangor"
    },
    {
        "Postcode": "42200",
        "Location": "Taman Seri Dua Belas",
        "Post_Office": "Kapar",
        "State": "Selangor"
    },
    {
        "Postcode": "42200",
        "Location": "Taman Seri Janggut",
        "Post_Office": "Kapar",
        "State": "Selangor"
    },
    {
        "Postcode": "42200",
        "Location": "Taman Seri Kerayong",
        "Post_Office": "Kapar",
        "State": "Selangor"
    },
    {
        "Postcode": "42200",
        "Location": "Taman Seri Perepat",
        "Post_Office": "Kapar",
        "State": "Selangor"
    },
    {
        "Postcode": "42200",
        "Location": "Jalan Korporat 1A ",
        "Post_Office": "Kapar",
        "State": "Selangor"
    },
    {
        "Postcode": "42200",
        "Location": "Jalan Wawasan 4 ",
        "Post_Office": "Kapar",
        "State": "Selangor"
    },
    {
        "Postcode": "42200",
        "Location": "Sungai Kapar Indah",
        "Post_Office": "Kapar",
        "State": "Selangor"
    },
    {
        "Postcode": "42200",
        "Location": "Taman Perindustrian Meru",
        "Post_Office": "Kapar",
        "State": "Selangor"
    },
    {
        "Postcode": "42200",
        "Location": "Batu 13 1/2, Jalan Kapar ",
        "Post_Office": "Kapar",
        "State": "Selangor"
    },
    {
        "Postcode": "42200",
        "Location": "Desa Bukit Delima",
        "Post_Office": "Kapar",
        "State": "Selangor"
    },
    {
        "Postcode": "42200",
        "Location": "Jalan 3D",
        "Post_Office": "Kapar",
        "State": "Selangor"
    },
    {
        "Postcode": "42200",
        "Location": "Jalan Durian Tembaga 18 ",
        "Post_Office": "Kapar",
        "State": "Selangor"
    },
    {
        "Postcode": "42200",
        "Location": "Jalan Harapan 8A ",
        "Post_Office": "Kapar",
        "State": "Selangor"
    },
    {
        "Postcode": "42200",
        "Location": "Jalan Imam Zakaria 3 ",
        "Post_Office": "Kapar",
        "State": "Selangor"
    },
    {
        "Postcode": "42200",
        "Location": "Jalan Wawasan 3 ",
        "Post_Office": "Kapar",
        "State": "Selangor"
    },
    {
        "Postcode": "42200",
        "Location": "Taman Desa Kencana",
        "Post_Office": "Kapar",
        "State": "Selangor"
    },
    {
        "Postcode": "42200",
        "Location": "Taman Meru Harapan",
        "Post_Office": "Kapar",
        "State": "Selangor"
    },
    {
        "Postcode": "42200",
        "Location": "Taman Seri Kapar",
        "Post_Office": "Kapar",
        "State": "Selangor"
    },
    {
        "Postcode": "42200",
        "Location": "Jalan Meru Indah",
        "Post_Office": "Kapar",
        "State": "Selangor"
    },
    {
        "Postcode": "42200",
        "Location": "Kawasan Perindustrian Meru Barat",
        "Post_Office": "Kapar",
        "State": "Selangor"
    },
    {
        "Postcode": "42200",
        "Location": "Taman Sungai Kapar Indah",
        "Post_Office": "Kapar",
        "State": "Selangor"
    },
    {
        "Postcode": "42200",
        "Location": "Jalan Durian Belanda 18",
        "Post_Office": "Kapar",
        "State": "Selangor"
    },
    {
        "Postcode": "42200",
        "Location": "Jalan Durian Tembaga 6 ",
        "Post_Office": "Kapar",
        "State": "Selangor"
    },
    {
        "Postcode": "42200",
        "Location": "Jalan Meranti Putih 3",
        "Post_Office": "Kapar",
        "State": "Selangor"
    },
    {
        "Postcode": "42200",
        "Location": "Jalan Wawasan 1 ",
        "Post_Office": "Kapar",
        "State": "Selangor"
    },
    {
        "Postcode": "42200",
        "Location": "Jalan Jambu Batu 7",
        "Post_Office": "Kapar",
        "State": "Selangor"
    },
    {
        "Postcode": "42200",
        "Location": "Jalan Ruyung 5A ",
        "Post_Office": "Kapar",
        "State": "Selangor"
    },
    {
        "Postcode": "42200",
        "Location": "Kampung Tok Muda",
        "Post_Office": "Kapar",
        "State": "Selangor"
    },
    {
        "Postcode": "42200",
        "Location": "Taman Meru Permai",
        "Post_Office": "Kapar",
        "State": "Selangor"
    },
    {
        "Postcode": "42200",
        "Location": "Jalan Keruing 12/KU14",
        "Post_Office": "Kapar",
        "State": "Selangor"
    },
    {
        "Postcode": "42200",
        "Location": "Jalan Sungai Kapar Indah 2/KU7",
        "Post_Office": "Kapar",
        "State": "Selangor"
    },
    {
        "Postcode": "42200",
        "Location": "Jalan Rebung 14/KU 11",
        "Post_Office": "Kapar",
        "State": "Selangor"
    },
    {
        "Postcode": "42200",
        "Location": "Jalan 3E/KU 11",
        "Post_Office": "Kapar",
        "State": "Selangor"
    },
    {
        "Postcode": "42200",
        "Location": "Taman Desa Intan",
        "Post_Office": "Kapar",
        "State": "Selangor"
    },
    {
        "Postcode": "42200",
        "Location": "Jalan Haji Abdul Samad 4/KU14",
        "Post_Office": "Kapar",
        "State": "Selangor"
    },
    {
        "Postcode": "42200",
        "Location": "Jalan Belimbing Buloh 14/KU10",
        "Post_Office": "Kapar",
        "State": "Selangor"
    },
    {
        "Postcode": "42200",
        "Location": "Jalan Jambu Madu 11/KU10",
        "Post_Office": "Kapar",
        "State": "Selangor"
    },
    {
        "Postcode": "42200",
        "Location": "Taman Perindustrian Kapar Bestari",
        "Post_Office": "Kapar",
        "State": "Selangor"
    },
    {
        "Postcode": "42200",
        "Location": "Taman Harum Manis",
        "Post_Office": "Kapar",
        "State": "Selangor"
    },
    {
        "Postcode": "42200",
        "Location": "Taman Meru Impian",
        "Post_Office": "Kapar",
        "State": "Selangor"
    },
    {
        "Postcode": "42200",
        "Location": "Taman Meru Damai",
        "Post_Office": "Kapar",
        "State": "Selangor"
    },
    {
        "Postcode": "42200",
        "Location": "Taman Sungai Serdang Permai",
        "Post_Office": "Kapar",
        "State": "Selangor"
    },
    {
        "Postcode": "42200",
        "Location": "Taman Perindustrian Meru Utara",
        "Post_Office": "Kapar",
        "State": "Selangor"
    },
    {
        "Postcode": "42200",
        "Location": "Kawasan Industri Hi-Tech Sungai Kapar Indah",
        "Post_Office": "Kapar",
        "State": "Selangor"
    },
    {
        "Postcode": "42200",
        "Location": "Desa Bukit Nilam",
        "Post_Office": "Kapar",
        "State": "Selangor"
    },
    {
        "Postcode": "42200",
        "Location": "Lebuhraya Persisiran Pantai Barat",
        "Post_Office": "Kapar",
        "State": "Selangor"
    },
    {
        "Postcode": "42200",
        "Location": "Taman Serai Wangi",
        "Post_Office": "Kapar",
        "State": "Selangor"
    },
    {
        "Postcode": "42200",
        "Location": "Jalan Raja Abdullah Rahman",
        "Post_Office": "Kapar",
        "State": "Selangor"
    },
    {
        "Postcode": "42200",
        "Location": "Taman Aman",
        "Post_Office": "Kapar",
        "State": "Selangor"
    },
    {
        "Postcode": "42200",
        "Location": "Taman Indah",
        "Post_Office": "Kapar",
        "State": "Selangor"
    },
    {
        "Postcode": "42200",
        "Location": "Taman Mutiara ",
        "Post_Office": "Kapar",
        "State": "Selangor"
    },
    {
        "Postcode": "42200",
        "Location": "Jalan Belimbing",
        "Post_Office": "Kapar",
        "State": "Selangor"
    },
    {
        "Postcode": "42200",
        "Location": "Jalan Durian",
        "Post_Office": "Kapar",
        "State": "Selangor"
    },
    {
        "Postcode": "42200",
        "Location": "Kampung Kenangan",
        "Post_Office": "Kapar",
        "State": "Selangor"
    },
    {
        "Postcode": "42200",
        "Location": "Taman Ehsan",
        "Post_Office": "Kapar",
        "State": "Selangor"
    },
    {
        "Postcode": "42200",
        "Location": "Taman Melawati",
        "Post_Office": "Kapar",
        "State": "Selangor"
    },
    {
        "Postcode": "42200",
        "Location": "Jalan Dusun",
        "Post_Office": "Kapar",
        "State": "Selangor"
    },
    {
        "Postcode": "42200",
        "Location": "Jalan Jambu Batu 13",
        "Post_Office": "Kapar",
        "State": "Selangor"
    },
    {
        "Postcode": "42200",
        "Location": "Jalan Udang Galah 2C ",
        "Post_Office": "Kapar",
        "State": "Selangor"
    },
    {
        "Postcode": "42200",
        "Location": "Taman Perepat Indah",
        "Post_Office": "Kapar",
        "State": "Selangor"
    },
    {
        "Postcode": "42200",
        "Location": "Batu 12, Jalan Kapar",
        "Post_Office": "Kapar",
        "State": "Selangor"
    },
    {
        "Postcode": "42200",
        "Location": "Desa Intan",
        "Post_Office": "Kapar",
        "State": "Selangor"
    },
    {
        "Postcode": "42200",
        "Location": "Taman Desa Baiduri",
        "Post_Office": "Kapar",
        "State": "Selangor"
    },
    {
        "Postcode": "42200",
        "Location": "Taman Desa Bukit Permata",
        "Post_Office": "Kapar",
        "State": "Selangor"
    },
    {
        "Postcode": "42200",
        "Location": "Taman Desa Zamrud",
        "Post_Office": "Kapar",
        "State": "Selangor"
    },
    {
        "Postcode": "42200",
        "Location": "Taman Perepat Makmur",
        "Post_Office": "Kapar",
        "State": "Selangor"
    },
    {
        "Postcode": "42200",
        "Location": "Jalan Besar",
        "Post_Office": "Kapar",
        "State": "Selangor"
    },
    {
        "Postcode": "42200",
        "Location": "Kampung Bukit Kerayong",
        "Post_Office": "Kapar",
        "State": "Selangor"
    },
    {
        "Postcode": "42200",
        "Location": "Taman Tok Muda Gemilang",
        "Post_Office": "Kapar",
        "State": "Selangor"
    },
    {
        "Postcode": "42200",
        "Location": "Jalan Bidara 6/KU14",
        "Post_Office": "Kapar",
        "State": "Selangor"
    },
    {
        "Postcode": "42200",
        "Location": "Jalan Meru Indah 20/KU8",
        "Post_Office": "Kapar",
        "State": "Selangor"
    },
    {
        "Postcode": "42200",
        "Location": "Jalan SKI 3/KU7",
        "Post_Office": "Kapar",
        "State": "Selangor"
    },
    {
        "Postcode": "42200",
        "Location": "Jalan SD 1/KU11",
        "Post_Office": "Kapar",
        "State": "Selangor"
    },
    {
        "Postcode": "42200",
        "Location": "Jalan SD 2/KU11",
        "Post_Office": "Kapar",
        "State": "Selangor"
    },
    {
        "Postcode": "42200",
        "Location": "Jalan SD 3/KU11",
        "Post_Office": "Kapar",
        "State": "Selangor"
    },
    {
        "Postcode": "42200",
        "Location": "Jalan SD 4/KU11",
        "Post_Office": "Kapar",
        "State": "Selangor"
    },
    {
        "Postcode": "42200",
        "Location": "Taman Tok Muda Bahagia",
        "Post_Office": "Kapar",
        "State": "Selangor"
    },
    {
        "Postcode": "42200",
        "Location": "Taman Tok Muda Harmoni",
        "Post_Office": "Kapar",
        "State": "Selangor"
    },
    {
        "Postcode": "42200",
        "Location": "Taman Tok Muda Harmoni 1",
        "Post_Office": "Kapar",
        "State": "Selangor"
    },
    {
        "Postcode": "42200",
        "Location": "Taman Tok Muda Harmoni 2",
        "Post_Office": "Kapar",
        "State": "Selangor"
    },
    {
        "Postcode": "42200",
        "Location": "Taman Tok Muda Permai",
        "Post_Office": "Kapar",
        "State": "Selangor"
    },
    {
        "Postcode": "42200",
        "Location": "Taman Tok Muda Permai 1",
        "Post_Office": "Kapar",
        "State": "Selangor"
    },
    {
        "Postcode": "42200",
        "Location": "Taman Tok Muda Permai 2",
        "Post_Office": "Kapar",
        "State": "Selangor"
    },
    {
        "Postcode": "42200",
        "Location": "Taman Tok Muda Sejahtera",
        "Post_Office": "Kapar",
        "State": "Selangor"
    },
    {
        "Postcode": "42200",
        "Location": "Taman Tok Muda Sejahtera 1",
        "Post_Office": "Kapar",
        "State": "Selangor"
    },
    {
        "Postcode": "42200",
        "Location": "Kampung Sungai Serdang",
        "Post_Office": "Kapar",
        "State": "Selangor"
    },
    {
        "Postcode": "42200",
        "Location": "Taman Meru Mulia",
        "Post_Office": "Kapar",
        "State": "Selangor"
    },
    {
        "Postcode": "42200",
        "Location": "Taman Seri Serdang",
        "Post_Office": "Kapar",
        "State": "Selangor"
    },
    {
        "Postcode": "42200",
        "Location": "Taman Tok Muda Berjaya",
        "Post_Office": "Kapar",
        "State": "Selangor"
    },
    {
        "Postcode": "42200",
        "Location": "Lorong Sungai Puloh",
        "Post_Office": "Kapar",
        "State": "Selangor"
    },
    {
        "Postcode": "42200",
        "Location": "Taman Seri Idaman",
        "Post_Office": "Kapar",
        "State": "Selangor"
    },
    {
        "Postcode": "42200",
        "Location": "Taman Tok Muda Jaya",
        "Post_Office": "Kapar",
        "State": "Selangor"
    },
    {
        "Postcode": "42200",
        "Location": "Taman Tok Muda Sejahtera",
        "Post_Office": "Kapar",
        "State": "Selangor"
    },
    {
        "Postcode": "42200",
        "Location": "Taman Seri Idaman",
        "Post_Office": "Kapar",
        "State": "Selangor"
    },
    {
        "Postcode": "42200",
        "Location": "Jalan Bukit Kapar Kuari /KU11",
        "Post_Office": "Kapar",
        "State": "Selangor"
    },
    {
        "Postcode": "42200",
        "Location": "Jalan Pelaburan /KU6",
        "Post_Office": "Kapar",
        "State": "Selangor"
    },
    {
        "Postcode": "42200",
        "Location": "Jalan Kenangan",
        "Post_Office": "Kapar",
        "State": "Selangor"
    },
    {
        "Postcode": "42200",
        "Location": "Jalan Limau",
        "Post_Office": "Kapar",
        "State": "Selangor"
    },
    {
        "Postcode": "42200",
        "Location": "Jalan Harapan 6A",
        "Post_Office": "Kapar",
        "State": "Selangor"
    },
    {
        "Postcode": "42200",
        "Location": "Jalan Harapan 6B",
        "Post_Office": "Kapar",
        "State": "Selangor"
    },
    {
        "Postcode": "42200",
        "Location": "Jalan Harapan 6C",
        "Post_Office": "Kapar",
        "State": "Selangor"
    },
    {
        "Postcode": "42200",
        "Location": "Jalan Harapan 6D",
        "Post_Office": "Kapar",
        "State": "Selangor"
    },
    {
        "Postcode": "42200",
        "Location": "Jalan Harapan 6E",
        "Post_Office": "Kapar",
        "State": "Selangor"
    },
    {
        "Postcode": "42200",
        "Location": "Jalan Harapan 6F",
        "Post_Office": "Kapar",
        "State": "Selangor"
    },
    {
        "Postcode": "42200",
        "Location": "Jalan Harapan 6G",
        "Post_Office": "Kapar",
        "State": "Selangor"
    },
    {
        "Postcode": "42200",
        "Location": "Jalan Harapan 6H",
        "Post_Office": "Kapar",
        "State": "Selangor"
    },
    {
        "Postcode": "42200",
        "Location": "Jalan Bestari 2A/KU7",
        "Post_Office": "Kapar",
        "State": "Selangor"
    },
    {
        "Postcode": "42200",
        "Location": "Jalan Kiyai Sujak 22A/KU13",
        "Post_Office": "Kapar",
        "State": "Selangor"
    },
    {
        "Postcode": "42200",
        "Location": "Jalan 17C/KU11",
        "Post_Office": "Kapar",
        "State": "Selangor"
    },
    {
        "Postcode": "42200",
        "Location": "Jalan SKI 4/KU7",
        "Post_Office": "Kapar",
        "State": "Selangor"
    },
    {
        "Postcode": "42200",
        "Location": "Jalan Bestari 1/KU7",
        "Post_Office": "Kapar",
        "State": "Selangor"
    },
    {
        "Postcode": "42200",
        "Location": "Jalan SKI 1/KU7",
        "Post_Office": "Kapar",
        "State": "Selangor"
    },
    {
        "Postcode": "42200",
        "Location": "Jalan Haji Yaakob 8/KU13",
        "Post_Office": "Kapar",
        "State": "Selangor"
    },
    {
        "Postcode": "42200",
        "Location": "Jalan 23D/KU11",
        "Post_Office": "Kapar",
        "State": "Selangor"
    },
    {
        "Postcode": "42200",
        "Location": "Jalan Dukung Anak/KU11",
        "Post_Office": "Kapar",
        "State": "Selangor"
    },
    {
        "Postcode": "42200",
        "Location": "Jalan Dato Husin/KU14",
        "Post_Office": "Kapar",
        "State": "Selangor"
    },
    {
        "Postcode": "42200",
        "Location": "Jalan Bestari 2/KU7",
        "Post_Office": "Kapar",
        "State": "Selangor"
    },
    {
        "Postcode": "42200",
        "Location": "Jalan Wawasan 3/KU7",
        "Post_Office": "Kapar",
        "State": "Selangor"
    },
    {
        "Postcode": "42200",
        "Location": "Felda Bukit Cerakah",
        "Post_Office": "Kapar",
        "State": "Selangor"
    },
    {
        "Postcode": "42200",
        "Location": "Kawasan Perindustrian Sungai Kapar Indah",
        "Post_Office": "Kapar",
        "State": "Selangor"
    },
    {
        "Postcode": "42200",
        "Location": "Ladang Eng Soon",
        "Post_Office": "Kapar",
        "State": "Selangor"
    },
    {
        "Postcode": "42200",
        "Location": "Taman Berkat",
        "Post_Office": "Kapar",
        "State": "Selangor"
    },
    {
        "Postcode": "42200",
        "Location": "Taman Damai 2",
        "Post_Office": "Kapar",
        "State": "Selangor"
    },
    {
        "Postcode": "42200",
        "Location": "Taman Intan 5",
        "Post_Office": "Kapar",
        "State": "Selangor"
    },
    {
        "Postcode": "42200",
        "Location": "Taman Intan Jaya 6",
        "Post_Office": "Kapar",
        "State": "Selangor"
    },
    {
        "Postcode": "42200",
        "Location": "Taman Jaya ",
        "Post_Office": "Kapar",
        "State": "Selangor"
    },
    {
        "Postcode": "42200",
        "Location": "Taman Kapar Cerah",
        "Post_Office": "Kapar",
        "State": "Selangor"
    },
    {
        "Postcode": "42200",
        "Location": "Taman Kapar Mewah",
        "Post_Office": "Kapar",
        "State": "Selangor"
    },
    {
        "Postcode": "42200",
        "Location": "Taman Kapar Permai",
        "Post_Office": "Kapar",
        "State": "Selangor"
    },
    {
        "Postcode": "42200",
        "Location": "Taman Kapar Setia",
        "Post_Office": "Kapar",
        "State": "Selangor"
    },
    {
        "Postcode": "42200",
        "Location": "Taman Merak",
        "Post_Office": "Kapar",
        "State": "Selangor"
    },
    {
        "Postcode": "42200",
        "Location": "Taman Meru Ria",
        "Post_Office": "Kapar",
        "State": "Selangor"
    },
    {
        "Postcode": "42200",
        "Location": "Taman Perepat Permai",
        "Post_Office": "Kapar",
        "State": "Selangor"
    },
    {
        "Postcode": "42200",
        "Location": "Taman Putra ",
        "Post_Office": "Kapar",
        "State": "Selangor"
    },
    {
        "Postcode": "42200",
        "Location": "Taman Ruyung",
        "Post_Office": "Kapar",
        "State": "Selangor"
    },
    {
        "Postcode": "42200",
        "Location": "Taman Saga 2",
        "Post_Office": "Kapar",
        "State": "Selangor"
    },
    {
        "Postcode": "42200",
        "Location": "Taman Saujana",
        "Post_Office": "Kapar",
        "State": "Selangor"
    },
    {
        "Postcode": "42200",
        "Location": "Taman Sri Puteri",
        "Post_Office": "Kapar",
        "State": "Selangor"
    }
]
