[
    {
        "Postcode": "42300",
        "Location": "Bandar Puncak Alam",
        "Post_Office": "Bandar Puncak Alam",
        "State": "Selangor"
    },
    {
        "Postcode": "42300",
        "Location": "Persiaran Puncak Bestari 2",
        "Post_Office": "Bandar Puncak Alam",
        "State": "Selangor"
    },
    {
        "Postcode": "42300",
        "Location": "Bandar Alam Perdana",
        "Post_Office": "Bandar Puncak Alam",
        "State": "Selangor"
    },
    {
        "Postcode": "42300",
        "Location": "Jalan Pandai 3",
        "Post_Office": "Bandar Puncak Alam",
        "State": "Selangor"
    },
    {
        "Postcode": "42300",
        "Location": "Puncak Bestari",
        "Post_Office": "Bandar Puncak Alam",
        "State": "Selangor"
    },
    {
        "Postcode": "42300",
        "Location": "Universiti Teknologi Mara (Uitm) Kampus Puncak Alam",
        "Post_Office": "Bandar Puncak Alam",
        "State": "Selangor"
    },
    {
        "Postcode": "42300",
        "Location": "Jalan Myra Alam 1",
        "Post_Office": "Bandar Puncak Alam",
        "State": "Selangor"
    },
    {
        "Postcode": "42300",
        "Location": "Pangsapuri Alea Myra Alam",
        "Post_Office": "Bandar Puncak Alam",
        "State": "Selangor"
    },
    {
        "Postcode": "42300",
        "Location": "Eco Gardens",
        "Post_Office": "Bandar Puncak Alam",
        "State": "Selangor"
    },
    {
        "Postcode": "42300",
        "Location": "Hospital Uitm",
        "Post_Office": "Bandar Puncak Alam",
        "State": "Selangor"
    },
    {
        "Postcode": "42300",
        "Location": "Taman Myra Alam",
        "Post_Office": "Bandar Puncak Alam",
        "State": "Selangor"
    },
    {
        "Postcode": "42300",
        "Location": "Seksyen 10",
        "Post_Office": "Bandar Puncak Alam",
        "State": "Selangor"
    },
    {
        "Postcode": "42300",
        "Location": "Seksyen 12",
        "Post_Office": "Bandar Puncak Alam",
        "State": "Selangor"
    },
    {
        "Postcode": "42300",
        "Location": "Seksyen 2",
        "Post_Office": "Bandar Puncak Alam",
        "State": "Selangor"
    },
    {
        "Postcode": "42300",
        "Location": "Seksyen 7",
        "Post_Office": "Bandar Puncak Alam",
        "State": "Selangor"
    },
    {
        "Postcode": "42300",
        "Location": "Seksyen 8",
        "Post_Office": "Bandar Puncak Alam",
        "State": "Selangor"
    },
    {
        "Postcode": "42300",
        "Location": "Seksyen 9",
        "Post_Office": "Bandar Puncak Alam",
        "State": "Selangor"
    },
    {
        "Postcode": "42300",
        "Location": "Taman Alam Jaya",
        "Post_Office": "Bandar Puncak Alam",
        "State": "Selangor"
    },
    {
        "Postcode": "42300",
        "Location": "Eco Grandeur",
        "Post_Office": "Bandar Puncak Alam",
        "State": "Selangor"
    },
    {
        "Postcode": "42300",
        "Location": "Eco Perindustrian 5",
        "Post_Office": "Puncak Alam",
        "State": "Selangor"
    },
    {
        "Postcode": "42300",
        "Location": "Bandar Hillpark",
        "Post_Office": "Bandar Puncak Alam",
        "State": "Selangor"
    },
    {
        "Postcode": "42300",
        "Location": "Kampung Desa Pengasih",
        "Post_Office": "Bandar Puncak Alam",
        "State": "Selangor"
    },
    {
        "Postcode": "42300",
        "Location": "Kampung Serai Wangi",
        "Post_Office": "Bandar Puncak Alam",
        "State": "Selangor"
    },
    {
        "Postcode": "42300",
        "Location": "Pusat Perdagangan Alam Jaya",
        "Post_Office": "Bandar Puncak Alam",
        "State": "Selangor"
    },
    {
        "Postcode": "42300",
        "Location": "Seksyen 13",
        "Post_Office": "Bandar Puncak Alam",
        "State": "Selangor"
    },
    {
        "Postcode": "42300",
        "Location": "Taman Alam Perdana",
        "Post_Office": "Bandar Puncak Alam",
        "State": "Selangor"
    },
    {
        "Postcode": "42300",
        "Location": "Taman Alam Suria",
        "Post_Office": "Bandar Puncak Alam",
        "State": "Selangor"
    },
    {
        "Postcode": "42300",
        "Location": "Taman Alam Sutera",
        "Post_Office": "Bandar Puncak Alam",
        "State": "Selangor"
    },
    {
        "Postcode": "42300",
        "Location": "Taman Ambang Suria",
        "Post_Office": "Bandar Puncak Alam",
        "State": "Selangor"
    },
    {
        "Postcode": "42300",
        "Location": "Taman Industri Alam Jaya",
        "Post_Office": "Bandar Puncak Alam",
        "State": "Selangor"
    }
]
