[
    {
        "Postcode": "42500",
        "Location": "Jalan Merpati 9/22",
        "Post_Office": "Telok Panglima Garang",
        "State": "Selangor"
    },
    {
        "Postcode": "42500",
        "Location": "Kampung Simpang Bandar",
        "Post_Office": "Telok Panglima Garang",
        "State": "Selangor"
    },
    {
        "Postcode": "42500",
        "Location": "Taman Telok",
        "Post_Office": "Telok Panglima Garang",
        "State": "Selangor"
    },
    {
        "Postcode": "42500",
        "Location": "Jalan Pipit 6/37",
        "Post_Office": "Telok Panglima Garang",
        "State": "Selangor"
    },
    {
        "Postcode": "42500",
        "Location": "Jalan Punai 9/19",
        "Post_Office": "Telok Panglima Garang",
        "State": "Selangor"
    },
    {
        "Postcode": "42500",
        "Location": "Jalan Sukepi",
        "Post_Office": "Telok Panglima Garang",
        "State": "Selangor"
    },
    {
        "Postcode": "42500",
        "Location": "Kondominium Eco Santuari",
        "Post_Office": "Telok Panglima Garang",
        "State": "Selangor"
    },
    {
        "Postcode": "42500",
        "Location": "Jalan Eco Santuari 3/6",
        "Post_Office": "Telok Panglima Garang",
        "State": "Selangor"
    },
    {
        "Postcode": "42500",
        "Location": "Jalan Satria 49",
        "Post_Office": "Telok Panglima Garang",
        "State": "Selangor"
    },
    {
        "Postcode": "42500",
        "Location": "Jalan Rajawali 17",
        "Post_Office": "Telok Panglima Garang",
        "State": "Selangor"
    },
    {
        "Postcode": "42500",
        "Location": "Taman Rimba",
        "Post_Office": "Telok Panglima Garang",
        "State": "Selangor"
    },
    {
        "Postcode": "42500",
        "Location": "Jalan Rimba 1",
        "Post_Office": "Telok Panglima Garang",
        "State": "Selangor"
    },
    {
        "Postcode": "42500",
        "Location": "Jalan Rimba 2",
        "Post_Office": "Telok Panglima Garang",
        "State": "Selangor"
    },
    {
        "Postcode": "42500",
        "Location": "Jalan Rimba 3",
        "Post_Office": "Telok Panglima Garang",
        "State": "Selangor"
    },
    {
        "Postcode": "42500",
        "Location": "Jalan Rimba 4",
        "Post_Office": "Telok Panglima Garang",
        "State": "Selangor"
    },
    {
        "Postcode": "42500",
        "Location": "Jalan Rimba 5",
        "Post_Office": "Telok Panglima Garang",
        "State": "Selangor"
    },
    {
        "Postcode": "42500",
        "Location": "Jalan Rimba 6",
        "Post_Office": "Telok Panglima Garang",
        "State": "Selangor"
    },
    {
        "Postcode": "42500",
        "Location": "Jalan Rimba 7",
        "Post_Office": "Telok Panglima Garang",
        "State": "Selangor"
    },
    {
        "Postcode": "42500",
        "Location": "Jalan Rimba 8",
        "Post_Office": "Telok Panglima Garang",
        "State": "Selangor"
    },
    {
        "Postcode": "42500",
        "Location": "Jalan Rimba 9",
        "Post_Office": "Telok Panglima Garang",
        "State": "Selangor"
    },
    {
        "Postcode": "42500",
        "Location": "Jalan Rimba 10",
        "Post_Office": "Telok Panglima Garang",
        "State": "Selangor"
    },
    {
        "Postcode": "42500",
        "Location": "Jalan Rimba 11",
        "Post_Office": "Telok Panglima Garang",
        "State": "Selangor"
    },
    {
        "Postcode": "42500",
        "Location": "Jalan Rimba 12",
        "Post_Office": "Telok Panglima Garang",
        "State": "Selangor"
    },
    {
        "Postcode": "42500",
        "Location": "Jalan Rimba 13",
        "Post_Office": "Telok Panglima Garang",
        "State": "Selangor"
    },
    {
        "Postcode": "42500",
        "Location": "Jalan Rimba 14",
        "Post_Office": "Telok Panglima Garang",
        "State": "Selangor"
    },
    {
        "Postcode": "42500",
        "Location": "Jalan Rimba 15",
        "Post_Office": "Telok Panglima Garang",
        "State": "Selangor"
    },
    {
        "Postcode": "42500",
        "Location": "Jalan Dendang 72",
        "Post_Office": "Telok Panglima Garang",
        "State": "Selangor"
    },
    {
        "Postcode": "42500",
        "Location": "Jalan Sukepi 3/15",
        "Post_Office": "Telok Panglima Garang",
        "State": "Selangor"
    },
    {
        "Postcode": "42500",
        "Location": "Kampung Kebun Baru",
        "Post_Office": "Telok Panglima Garang",
        "State": "Selangor"
    },
    {
        "Postcode": "42500",
        "Location": "Kampung Sijangkang",
        "Post_Office": "Telok Panglima Garang",
        "State": "Selangor"
    },
    {
        "Postcode": "42500",
        "Location": "Sijangkang",
        "Post_Office": "Telok Panglima Garang",
        "State": "Selangor"
    },
    {
        "Postcode": "42500",
        "Location": "Taman Desa Anggerik",
        "Post_Office": "Telok Panglima Garang",
        "State": "Selangor"
    },
    {
        "Postcode": "42500",
        "Location": "Taman Desa Impian ",
        "Post_Office": "Telok Panglima Garang",
        "State": "Selangor"
    },
    {
        "Postcode": "42500",
        "Location": "Taman Desa Permai",
        "Post_Office": "Telok Panglima Garang",
        "State": "Selangor"
    },
    {
        "Postcode": "42500",
        "Location": "Taman Desa Utama",
        "Post_Office": "Telok Panglima Garang",
        "State": "Selangor"
    },
    {
        "Postcode": "42500",
        "Location": "Taman Desawira",
        "Post_Office": "Telok Panglima Garang",
        "State": "Selangor"
    },
    {
        "Postcode": "42500",
        "Location": "Taman Emas",
        "Post_Office": "Telok Panglima Garang",
        "State": "Selangor"
    },
    {
        "Postcode": "42500",
        "Location": "Taman Halijahton",
        "Post_Office": "Telok Panglima Garang",
        "State": "Selangor"
    },
    {
        "Postcode": "42500",
        "Location": "Taman Mas",
        "Post_Office": "Telok Panglima Garang",
        "State": "Selangor"
    },
    {
        "Postcode": "42500",
        "Location": "Taman Medan",
        "Post_Office": "Telok Panglima Garang",
        "State": "Selangor"
    },
    {
        "Postcode": "42500",
        "Location": "Taman Medan Indah",
        "Post_Office": "Telok Panglima Garang",
        "State": "Selangor"
    },
    {
        "Postcode": "42500",
        "Location": "Taman Pahlawan",
        "Post_Office": "Telok Panglima Garang",
        "State": "Selangor"
    },
    {
        "Postcode": "42500",
        "Location": "Taman Panglima",
        "Post_Office": "Telok Panglima Garang",
        "State": "Selangor"
    },
    {
        "Postcode": "42500",
        "Location": "Taman Perkasa",
        "Post_Office": "Telok Panglima Garang",
        "State": "Selangor"
    },
    {
        "Postcode": "42500",
        "Location": "Taman Permai",
        "Post_Office": "Telok Panglima Garang",
        "State": "Selangor"
    },
    {
        "Postcode": "42500",
        "Location": "Taman Perwira",
        "Post_Office": "Telok Panglima Garang",
        "State": "Selangor"
    },
    {
        "Postcode": "42500",
        "Location": "Taman Satria",
        "Post_Office": "Telok Panglima Garang",
        "State": "Selangor"
    },
    {
        "Postcode": "42500",
        "Location": "Taman Saujana",
        "Post_Office": "Telok Panglima Garang",
        "State": "Selangor"
    },
    {
        "Postcode": "42500",
        "Location": "Taman Sejangkang Jaya",
        "Post_Office": "Telok Panglima Garang",
        "State": "Selangor"
    },
    {
        "Postcode": "42500",
        "Location": "Taman Seri Medan",
        "Post_Office": "Telok Panglima Garang",
        "State": "Selangor"
    },
    {
        "Postcode": "42500",
        "Location": "Taman Seri Mena",
        "Post_Office": "Telok Panglima Garang",
        "State": "Selangor"
    },
    {
        "Postcode": "42500",
        "Location": "Taman Seri Sejangka Jaya",
        "Post_Office": "Telok Panglima Garang",
        "State": "Selangor"
    },
    {
        "Postcode": "42500",
        "Location": "Taman Setia Jaya",
        "Post_Office": "Telok Panglima Garang",
        "State": "Selangor"
    },
    {
        "Postcode": "42500",
        "Location": "Telok Panglima Garang",
        "Post_Office": "Telok Panglima Garang",
        "State": "Selangor"
    },
    {
        "Postcode": "42500",
        "Location": "Teluk Estate",
        "Post_Office": "Telok Panglima Garang",
        "State": "Selangor"
    },
    {
        "Postcode": "42500",
        "Location": "Jalan Pandan",
        "Post_Office": "Telok Panglima Garang",
        "State": "Selangor"
    },
    {
        "Postcode": "42500",
        "Location": "Jalan Bangau 3/28",
        "Post_Office": "Telok Panglima Garang",
        "State": "Selangor"
    },
    {
        "Postcode": "42500",
        "Location": "Jalan Bsj 1/1",
        "Post_Office": "Telok Panglima Garang",
        "State": "Selangor"
    },
    {
        "Postcode": "42500",
        "Location": "Jalan Nipah 18",
        "Post_Office": "Telok Panglima Garang",
        "State": "Selangor"
    },
    {
        "Postcode": "42500",
        "Location": "Taman Bayu Sijangkang",
        "Post_Office": "Telok Panglima Garang",
        "State": "Selangor"
    },
    {
        "Postcode": "42500",
        "Location": "Taman Bentara",
        "Post_Office": "Telok Panglima Garang",
        "State": "Selangor"
    },
    {
        "Postcode": "42500",
        "Location": "Jalan Bahtera 1/15",
        "Post_Office": "Telok Panglima Garang",
        "State": "Selangor"
    },
    {
        "Postcode": "42500",
        "Location": "Jalan Bahtera 1/2",
        "Post_Office": "Telok Panglima Garang",
        "State": "Selangor"
    },
    {
        "Postcode": "42500",
        "Location": "Jalan Helang 1/20",
        "Post_Office": "Telok Panglima Garang",
        "State": "Selangor"
    },
    {
        "Postcode": "42500",
        "Location": "Taman Nakhoda",
        "Post_Office": "Telok Panglima Garang",
        "State": "Selangor"
    },
    {
        "Postcode": "42500",
        "Location": "Jalan Sukepi 4/10",
        "Post_Office": "Telok Panglima Garang",
        "State": "Selangor"
    },
    {
        "Postcode": "42500",
        "Location": "Taman Laksamana",
        "Post_Office": "Telok Panglima Garang",
        "State": "Selangor"
    },
    {
        "Postcode": "42500",
        "Location": "Jalan Arsenik 1",
        "Post_Office": "Telok Panglima Garang",
        "State": "Selangor"
    },
    {
        "Postcode": "42500",
        "Location": "Jalan Merbuk 6/36",
        "Post_Office": "Telok Panglima Garang",
        "State": "Selangor"
    },
    {
        "Postcode": "42500",
        "Location": "Jalan Aman Hana ",
        "Post_Office": "Telok Panglima Garang",
        "State": "Selangor"
    },
    {
        "Postcode": "42500",
        "Location": "Jalan Aman Hana 1",
        "Post_Office": "Telok Panglima Garang",
        "State": "Selangor"
    },
    {
        "Postcode": "42500",
        "Location": "Jalan Aman Hana 2",
        "Post_Office": "Telok Panglima Garang",
        "State": "Selangor"
    },
    {
        "Postcode": "42500",
        "Location": "Jalan Aman Hana 3",
        "Post_Office": "Telok Panglima Garang",
        "State": "Selangor"
    },
    {
        "Postcode": "42500",
        "Location": "Jalan Aman Hana 3A",
        "Post_Office": "Telok Panglima Garang",
        "State": "Selangor"
    },
    {
        "Postcode": "42500",
        "Location": "Jalan Aman Hana 5",
        "Post_Office": "Telok Panglima Garang",
        "State": "Selangor"
    },
    {
        "Postcode": "42500",
        "Location": "Jalan Aman Hana 6",
        "Post_Office": "Telok Panglima Garang",
        "State": "Selangor"
    },
    {
        "Postcode": "42500",
        "Location": "Jalan Aman Hana 7",
        "Post_Office": "Telok Panglima Garang",
        "State": "Selangor"
    },
    {
        "Postcode": "42500",
        "Location": "Jalan Aman Hana 8",
        "Post_Office": "Telok Panglima Garang",
        "State": "Selangor"
    },
    {
        "Postcode": "42500",
        "Location": "Jalan Rumbia 31",
        "Post_Office": "Telok Panglima Garang",
        "State": "Selangor"
    },
    {
        "Postcode": "42500",
        "Location": "Jalan Rumbia 33",
        "Post_Office": "Telok Panglima Garang",
        "State": "Selangor"
    },
    {
        "Postcode": "42500",
        "Location": "Jalan Rumbia 35",
        "Post_Office": "Telok Panglima Garang",
        "State": "Selangor"
    },
    {
        "Postcode": "42500",
        "Location": "Jalan Sukepi 3/4",
        "Post_Office": "Telok Panglima Garang",
        "State": "Selangor"
    },
    {
        "Postcode": "42500",
        "Location": "Bandar Rimbayu",
        "Post_Office": "Telok Panglima Garang",
        "State": "Selangor"
    },
    {
        "Postcode": "42500",
        "Location": "Kawasan Perusahaan Sungai Rambai",
        "Post_Office": "Telok Panglima Garang",
        "State": "Selangor"
    },
    {
        "Postcode": "42500",
        "Location": "Taman Industri Sijangkang Utama",
        "Post_Office": "Telok Panglima Garang",
        "State": "Selangor"
    },
    {
        "Postcode": "42500",
        "Location": "Taman Iram Perdana",
        "Post_Office": "Telok Panglima Garang",
        "State": "Selangor"
    },
    {
        "Postcode": "42500",
        "Location": "Bandar Tropicana Aman",
        "Post_Office": "Telok Panglima Garang",
        "State": "Selangor"
    },
    {
        "Postcode": "42500",
        "Location": "Kawasan Perusahaan Telok Panglima Garang",
        "Post_Office": "Telok Panglima Garang",
        "State": "Selangor"
    },
    {
        "Postcode": "42500",
        "Location": "Taman Desa Sijangkang",
        "Post_Office": "Telok Panglima Garang",
        "State": "Selangor"
    },
    {
        "Postcode": "42500",
        "Location": "Kawasan Perusahaan Segenting",
        "Post_Office": "Telok Panglima Garang",
        "State": "Selangor"
    },
    {
        "Postcode": "42500",
        "Location": "Taman Medan Jaya",
        "Post_Office": "Telok Panglima Garang",
        "State": "Selangor"
    },
    {
        "Postcode": "42500",
        "Location": "Persiaran Eco Santuary",
        "Post_Office": "Telok Panglima Garang",
        "State": "Selangor"
    },
    {
        "Postcode": "42500",
        "Location": "Kawasan Perusahaan Telok Mengkuang",
        "Post_Office": "Telok Panglima Garang",
        "State": "Selangor"
    },
    {
        "Postcode": "42500",
        "Location": "Kawasan Perindustrian Kebun Baru",
        "Post_Office": "Telok Panglima Garang",
        "State": "Selangor"
    },
    {
        "Postcode": "42500",
        "Location": "Eco Santuari",
        "Post_Office": "Telok Panglima Garang",
        "State": "Selangor"
    },
    {
        "Postcode": "42500",
        "Location": "Kawasan Perusahaan Batu 10",
        "Post_Office": "Telok Panglima Garang",
        "State": "Selangor"
    },
    {
        "Postcode": "42500",
        "Location": "Jalan Rimba 16",
        "Post_Office": "Telok Panglima Garang",
        "State": "Selangor"
    },
    {
        "Postcode": "42500",
        "Location": "Taman Sijangkang Utama",
        "Post_Office": "Telok Panglima Garang",
        "State": "Selangor"
    },
    {
        "Postcode": "42500",
        "Location": "Jalan Utama 41",
        "Post_Office": "Telok Panglima Garang",
        "State": "Selangor"
    },
    {
        "Postcode": "42500",
        "Location": "Taman Jaya Utama",
        "Post_Office": "Telok Panglima Garang",
        "State": "Selangor"
    },
    {
        "Postcode": "42500",
        "Location": "Bandar Seri Aman",
        "Post_Office": "Telok Panglima Garang",
        "State": "Selangor"
    },
    {
        "Postcode": "42500",
        "Location": "Gamuda Kemuning Heights",
        "Post_Office": "Telok Panglima Garang",
        "State": "Selangor"
    },
    {
        "Postcode": "42500",
        "Location": "Taman Sijangkang Idaman",
        "Post_Office": "Telok Panglima Garang",
        "State": "Selangor"
    },
    {
        "Postcode": "42500",
        "Location": "Taman Aman",
        "Post_Office": "Telok Panglima Garang",
        "State": "Selangor"
    },
    {
        "Postcode": "42500",
        "Location": "Taman Indah Jaya",
        "Post_Office": "Telok Panglima Garang",
        "State": "Selangor"
    },
    {
        "Postcode": "42500",
        "Location": "Jalan Dendang 76",
        "Post_Office": "Telok Panglima Garang",
        "State": "Selangor"
    },
    {
        "Postcode": "42500",
        "Location": "Jalan Pipit 6/49",
        "Post_Office": "Telok Panglima Garang",
        "State": "Selangor"
    },
    {
        "Postcode": "42500",
        "Location": "Taman Kenangan",
        "Post_Office": "Telok Panglima Garang",
        "State": "Selangor"
    },
    {
        "Postcode": "42500",
        "Location": "Pusat Pengangkutan Lsm",
        "Post_Office": "Telok Panglima Garang",
        "State": "Selangor"
    },
    {
        "Postcode": "42500",
        "Location": "Taman Bahtera",
        "Post_Office": "Telok Panglima Garang",
        "State": "Selangor"
    },
    {
        "Postcode": "42500",
        "Location": "Kawasan Perusahaan Kebun Baru",
        "Post_Office": "Telok Panglima Garang",
        "State": "Selangor"
    },
    {
        "Postcode": "42500",
        "Location": "Jalan Klang-Banting",
        "Post_Office": "Telok Panglima Garang",
        "State": "Selangor"
    },
    {
        "Postcode": "42500",
        "Location": "Kampung Medan",
        "Post_Office": "Telok Panglima Garang",
        "State": "Selangor"
    },
    {
        "Postcode": "42500",
        "Location": "Kawasan Perumahan Segenting",
        "Post_Office": "Telok Panglima Garang",
        "State": "Selangor"
    },
    {
        "Postcode": "42500",
        "Location": "Taman Memanda",
        "Post_Office": "Telok Panglima Garang",
        "State": "Selangor"
    },
    {
        "Postcode": "42500",
        "Location": "Jalan Sukepi 4/17",
        "Post_Office": "Telok Panglima Garang",
        "State": "Selangor"
    },
    {
        "Postcode": "42500",
        "Location": "Eco Somerset",
        "Post_Office": "Telok Panglima Garang",
        "State": "Selangor"
    },
    {
        "Postcode": "42500",
        "Location": "Pusat Perniagaan Amber",
        "Post_Office": "Telok Panglima Garang",
        "State": "Selangor"
    },
    {
        "Postcode": "42500",
        "Location": "Taman Sijangkang Jaya",
        "Post_Office": "Telok Panglima Garang",
        "State": "Selangor"
    },
    {
        "Postcode": "42500",
        "Location": "Jalan Pandan 14",
        "Post_Office": "Telok Panglima Garang",
        "State": "Selangor"
    },
    {
        "Postcode": "42500",
        "Location": "Jalan Merbuk 6/14",
        "Post_Office": "Telok Panglima Garang",
        "State": "Selangor"
    },
    {
        "Postcode": "42500",
        "Location": "Jalan Merbuk 6/52",
        "Post_Office": "Telok Panglima Garang",
        "State": "Selangor"
    },
    {
        "Postcode": "42500",
        "Location": "Jalan Segenting",
        "Post_Office": "Telok Panglima Garang",
        "State": "Selangor"
    },
    {
        "Postcode": "42500",
        "Location": "Jalan Sukepi 3/30",
        "Post_Office": "Telok Panglima Garang",
        "State": "Selangor"
    },
    {
        "Postcode": "42500",
        "Location": "Gamuda Kemuning",
        "Post_Office": "Telok Panglima Garang",
        "State": "Selangor"
    },
    {
        "Postcode": "42500",
        "Location": "Jalan Eco Santuari 8/1E",
        "Post_Office": "Telok Panglima Garang ",
        "State": "Selangor"
    },
    {
        "Postcode": "42500",
        "Location": "Taman Srikandi",
        "Post_Office": "Telok Panglima Garang",
        "State": "Selangor"
    },
    {
        "Postcode": "42500",
        "Location": "Jalan Helium",
        "Post_Office": "Telok Panglima Garang",
        "State": "Selangor"
    },
    {
        "Postcode": "42500",
        "Location": "Persiaran Tropicana Aman 1",
        "Post_Office": "Telok Panglima Garang",
        "State": "Selangor"
    },
    {
        "Postcode": "42500",
        "Location": "Jalan Eco Santuari 6/1A",
        "Post_Office": "Telok Panglima Garang",
        "State": "Selangor"
    },
    {
        "Postcode": "42500",
        "Location": "Jalan Merpati ",
        "Post_Office": "Telok Panglima Garang",
        "State": "Selangor"
    },
    {
        "Postcode": "42500",
        "Location": "Jalan Bahtera 1/14",
        "Post_Office": "Telok Panglima Garang",
        "State": "Selangor"
    },
    {
        "Postcode": "42500",
        "Location": "Jalan Bahtera 1/16",
        "Post_Office": "Telok Panglima Garang",
        "State": "Selangor"
    },
    {
        "Postcode": "42500",
        "Location": "Jalan Bahtera 1/17",
        "Post_Office": "Telok Panglima Garang",
        "State": "Selangor"
    },
    {
        "Postcode": "42500",
        "Location": "Taman Dato Hormat 1",
        "Post_Office": "Telok Panglima Garang",
        "State": "Selangor"
    },
    {
        "Postcode": "42500",
        "Location": "Taman Dato Hormat 2",
        "Post_Office": "Telok Panglima Garang",
        "State": "Selangor"
    },
    {
        "Postcode": "42500",
        "Location": "Taman Megah",
        "Post_Office": "Telok Panglima Garang",
        "State": "Selangor"
    },
    {
        "Postcode": "42500",
        "Location": "Taman Seri Panglima 1",
        "Post_Office": "Telok Panglima Garang",
        "State": "Selangor"
    },
    {
        "Postcode": "42500",
        "Location": "Taman Seri Panglima 2",
        "Post_Office": "Telok Panglima Garang",
        "State": "Selangor"
    },
    {
        "Postcode": "42500",
        "Location": "Taman Teluk 1",
        "Post_Office": "Telok Panglima Garang",
        "State": "Selangor"
    },
    {
        "Postcode": "42500",
        "Location": "Taman Teluk 2",
        "Post_Office": "Telok Panglima Garang",
        "State": "Selangor"
    },
    {
        "Postcode": "42500",
        "Location": "Jalan Telok Mengkuang 9A",
        "Post_Office": "Telok Panglima Garang",
        "State": "Selangor"
    },
    {
        "Postcode": "42500",
        "Location": "Jalan Balam 4/7",
        "Post_Office": "Telok Panglima Garang",
        "State": "Selangor"
    },
    {
        "Postcode": "42500",
        "Location": "Jalan Tiung 7",
        "Post_Office": "Telok Panglima Garang",
        "State": "Selangor"
    },
    {
        "Postcode": "42500",
        "Location": "Taman Mamanda",
        "Post_Office": "Telok Panglima Garang",
        "State": "Selangor"
    },
    {
        "Postcode": "42500",
        "Location": "Jalan Telok Mengkuang",
        "Post_Office": "Telok Panglima Garang",
        "State": "Selangor"
    },
    {
        "Postcode": "42500",
        "Location": "Kawasan Perusahaan Batu 12 Sungai Rambai",
        "Post_Office": "Telok Panglima Garang",
        "State": "Selangor"
    },
    {
        "Postcode": "42500",
        "Location": "Jalan Sijangkang Utama 1",
        "Post_Office": "Telok Panglima Garang",
        "State": "Selangor"
    },
    {
        "Postcode": "42500",
        "Location": "Jalan Rimbayu 1/2",
        "Post_Office": "Telok Panglima Garang",
        "State": "Selangor"
    },
    {
        "Postcode": "42500",
        "Location": "Jalan Telok Mengkuang 11",
        "Post_Office": "Telok Panglima Garang",
        "State": "Selangor"
    },
    {
        "Postcode": "42500",
        "Location": "Jalan Eco Santuari 8/1",
        "Post_Office": "Telok Panglima Garang",
        "State": "Selangor"
    },
    {
        "Postcode": "42500",
        "Location": "Jalan Merbuk 6/16",
        "Post_Office": "Telok Panglima Garang",
        "State": "Selangor"
    },
    {
        "Postcode": "42500",
        "Location": "Jalan Pipit 5/36",
        "Post_Office": "Telok Panglima Garang",
        "State": "Selangor"
    },
    {
        "Postcode": "42500",
        "Location": "Jalan Eco Santuari 7/1A",
        "Post_Office": "Telok Panglima Garang",
        "State": "Selangor"
    },
    {
        "Postcode": "42500",
        "Location": "Jalan Fauna 3/23",
        "Post_Office": "Telok Panglima Garang",
        "State": "Selangor"
    },
    {
        "Postcode": "42500",
        "Location": "Bandar Lama",
        "Post_Office": "Telok Panglima Garang",
        "State": "Selangor"
    },
    {
        "Postcode": "42500",
        "Location": "Kampung Manggis Permai",
        "Post_Office": "Telok Panglima Garang",
        "State": "Selangor"
    },
    {
        "Postcode": "42500",
        "Location": "Kampung Mujahiddin",
        "Post_Office": "Telok Panglima Garang",
        "State": "Selangor"
    },
    {
        "Postcode": "42500",
        "Location": "Kawasan Perindustrian Telok Panglima Garang",
        "Post_Office": "Telok Panglima Garang",
        "State": "Selangor"
    },
    {
        "Postcode": "42500",
        "Location": "Taman Dato Hormat",
        "Post_Office": "Telok Panglima Garang",
        "State": "Selangor"
    },
    {
        "Postcode": "42500",
        "Location": "Taman Desa Wira",
        "Post_Office": "Telok Panglima Garang",
        "State": "Selangor"
    },
    {
        "Postcode": "42500",
        "Location": "Taman Gamelan",
        "Post_Office": "Telok Panglima Garang",
        "State": "Selangor"
    },
    {
        "Postcode": "42500",
        "Location": "Taman Kenari",
        "Post_Office": "Telok Panglima Garang",
        "State": "Selangor"
    },
    {
        "Postcode": "42500",
        "Location": "Taman Mawar",
        "Post_Office": "Telok Panglima Garang",
        "State": "Selangor"
    },
    {
        "Postcode": "42500",
        "Location": "Taman Pertiwi",
        "Post_Office": "Telok Panglima Garang",
        "State": "Selangor"
    },
    {
        "Postcode": "42500",
        "Location": "Taman Riveria",
        "Post_Office": "Telok Panglima Garang",
        "State": "Selangor"
    },
    {
        "Postcode": "42500",
        "Location": "Taman Riveria Perdana",
        "Post_Office": "Telok Panglima Garang",
        "State": "Selangor"
    },
    {
        "Postcode": "42500",
        "Location": "Taman Sijangkang Indah",
        "Post_Office": "Telok Panglima Garang",
        "State": "Selangor"
    },
    {
        "Postcode": "42500",
        "Location": "Taman Sijangkang Permai",
        "Post_Office": "Telok Panglima Garang",
        "State": "Selangor"
    },
    {
        "Postcode": "42500",
        "Location": "Taman Sri Kandi",
        "Post_Office": "Telok Panglima Garang",
        "State": "Selangor"
    },
    {
        "Postcode": "42500",
        "Location": "Taman Villa Perdana",
        "Post_Office": "Telok Panglima Garang",
        "State": "Selangor"
    }
]
