[
    {
        "Postcode": "42600",
        "Location": "Kampung Baru Jenjarom",
        "Post_Office": "Jenjarom",
        "State": "Selangor"
    },
    {
        "Postcode": "42600",
        "Location": "Jalan Bacang",
        "Post_Office": "Jenjarom",
        "State": "Selangor"
    },
    {
        "Postcode": "42600",
        "Location": "Jalan Batu 13 1/2 Bukit Gagak",
        "Post_Office": "Jenjarom",
        "State": "Selangor"
    },
    {
        "Postcode": "42600",
        "Location": "Jalan Bayam",
        "Post_Office": "Jenjarom",
        "State": "Selangor"
    },
    {
        "Postcode": "42600",
        "Location": "Jalan Berlian",
        "Post_Office": "Jenjarom",
        "State": "Selangor"
    },
    {
        "Postcode": "42600",
        "Location": "Jalan Cermai",
        "Post_Office": "Jenjarom",
        "State": "Selangor"
    },
    {
        "Postcode": "42600",
        "Location": "Jalan Galing",
        "Post_Office": "Jenjarom",
        "State": "Selangor"
    },
    {
        "Postcode": "42600",
        "Location": "Jalan Intan",
        "Post_Office": "Jenjarom",
        "State": "Selangor"
    },
    {
        "Postcode": "42600",
        "Location": "Jalan Intan 46",
        "Post_Office": "Jenjarom",
        "State": "Selangor"
    },
    {
        "Postcode": "42600",
        "Location": "Jalan Jambu Mawar",
        "Post_Office": "Jenjarom",
        "State": "Selangor"
    },
    {
        "Postcode": "42600",
        "Location": "Jalan Jambu Mawar 3",
        "Post_Office": "Jenjarom",
        "State": "Selangor"
    },
    {
        "Postcode": "42600",
        "Location": "Jalan Kuini",
        "Post_Office": "Jenjarom",
        "State": "Selangor"
    },
    {
        "Postcode": "42600",
        "Location": "Jalan Langsat",
        "Post_Office": "Jenjarom",
        "State": "Selangor"
    },
    {
        "Postcode": "42600",
        "Location": "Jalan Makmur",
        "Post_Office": "Jenjarom",
        "State": "Selangor"
    },
    {
        "Postcode": "42600",
        "Location": "Jalan Melati",
        "Post_Office": "Jenjarom",
        "State": "Selangor"
    },
    {
        "Postcode": "42600",
        "Location": "Jalan Permata",
        "Post_Office": "Jenjarom",
        "State": "Selangor"
    },
    {
        "Postcode": "42600",
        "Location": "Jalan Rambai",
        "Post_Office": "Jenjarom",
        "State": "Selangor"
    },
    {
        "Postcode": "42600",
        "Location": "Jalan Ria",
        "Post_Office": "Jenjarom",
        "State": "Selangor"
    },
    {
        "Postcode": "42600",
        "Location": "Jalan Sejahtera",
        "Post_Office": "Jenjarom",
        "State": "Selangor"
    },
    {
        "Postcode": "42600",
        "Location": "Jalan Sekolah China",
        "Post_Office": "Jenjarom",
        "State": "Selangor"
    },
    {
        "Postcode": "42600",
        "Location": "Jalan Sungai Buaya",
        "Post_Office": "Jenjarom",
        "State": "Selangor"
    },
    {
        "Postcode": "42600",
        "Location": "Jalan Susur",
        "Post_Office": "Jenjarom",
        "State": "Selangor"
    },
    {
        "Postcode": "42600",
        "Location": "Jalan Telok Ward",
        "Post_Office": "Jenjarom",
        "State": "Selangor"
    },
    {
        "Postcode": "42600",
        "Location": "Jenjarom",
        "Post_Office": "Jenjarom",
        "State": "Selangor"
    },
    {
        "Postcode": "42600",
        "Location": "Kampung Batu 14",
        "Post_Office": "Jenjarom",
        "State": "Selangor"
    },
    {
        "Postcode": "42600",
        "Location": "Kampung Sungai Jarom",
        "Post_Office": "Jenjarom",
        "State": "Selangor"
    },
    {
        "Postcode": "42600",
        "Location": "Kampung Sungai Rambai",
        "Post_Office": "Jenjarom",
        "State": "Selangor"
    },
    {
        "Postcode": "42600",
        "Location": "Rumah Pkns Jalan Sungai Buaya",
        "Post_Office": "Jenjarom",
        "State": "Selangor"
    },
    {
        "Postcode": "42600",
        "Location": "Taman Bayam",
        "Post_Office": "Jenjarom",
        "State": "Selangor"
    },
    {
        "Postcode": "42600",
        "Location": "Taman Berlian",
        "Post_Office": "Jenjarom",
        "State": "Selangor"
    },
    {
        "Postcode": "42600",
        "Location": "Taman Bersatu",
        "Post_Office": "Jenjarom",
        "State": "Selangor"
    },
    {
        "Postcode": "42600",
        "Location": "Taman Cermai",
        "Post_Office": "Jenjarom",
        "State": "Selangor"
    },
    {
        "Postcode": "42600",
        "Location": "Taman Galing",
        "Post_Office": "Jenjarom",
        "State": "Selangor"
    },
    {
        "Postcode": "42600",
        "Location": "Taman Gembira",
        "Post_Office": "Jenjarom",
        "State": "Selangor"
    },
    {
        "Postcode": "42600",
        "Location": "Taman Intan",
        "Post_Office": "Jenjarom",
        "State": "Selangor"
    },
    {
        "Postcode": "42600",
        "Location": "Taman Permata",
        "Post_Office": "Jenjarom",
        "State": "Selangor"
    },
    {
        "Postcode": "42600",
        "Location": "Taman Rambai Indah",
        "Post_Office": "Jenjarom",
        "State": "Selangor"
    },
    {
        "Postcode": "42600",
        "Location": "Taman Seri Jarom",
        "Post_Office": "Jenjarom",
        "State": "Selangor"
    },
    {
        "Postcode": "42600",
        "Location": "Taman Seri Rambai",
        "Post_Office": "Jenjarom",
        "State": "Selangor"
    },
    {
        "Postcode": "42600",
        "Location": "Taman Tanah Emas",
        "Post_Office": "Jenjarom",
        "State": "Selangor"
    },
    {
        "Postcode": "42600",
        "Location": "Jalan Kristal",
        "Post_Office": "Jenjarom",
        "State": "Selangor"
    },
    {
        "Postcode": "42600",
        "Location": "Taman Yayasan",
        "Post_Office": "Jenjarom",
        "State": "Selangor"
    },
    {
        "Postcode": "42600",
        "Location": "Jalan Melati 21",
        "Post_Office": "Jenjarom",
        "State": "Selangor"
    },
    {
        "Postcode": "42600",
        "Location": "Jalan Merpati 31",
        "Post_Office": "Jenjarom",
        "State": "Selangor"
    },
    {
        "Postcode": "42600",
        "Location": "Jalan Merpati 33",
        "Post_Office": "Jenjarom",
        "State": "Selangor"
    },
    {
        "Postcode": "42600",
        "Location": "Jalan Merpati 35",
        "Post_Office": "Jenjarom",
        "State": "Selangor"
    },
    {
        "Postcode": "42600",
        "Location": "Taman Merpati",
        "Post_Office": "Jenjarom",
        "State": "Selangor"
    },
    {
        "Postcode": "42600",
        "Location": "Jalan Luhur 40",
        "Post_Office": "Jenjarom",
        "State": "Selangor"
    },
    {
        "Postcode": "42600",
        "Location": "Taman Seri Jenjarom",
        "Post_Office": "Jenjarom",
        "State": "Selangor"
    },
    {
        "Postcode": "42600",
        "Location": "Kampung Baru Sungai Jarom",
        "Post_Office": "Jenjarom",
        "State": "Selangor"
    },
    {
        "Postcode": "42600",
        "Location": "Kawasan Perusahaan Jenjarom",
        "Post_Office": "Jenjarom",
        "State": "Selangor"
    },
    {
        "Postcode": "42600",
        "Location": "Taman Jenjarom Permai",
        "Post_Office": "Jenjarom",
        "State": "Selangor"
    },
    {
        "Postcode": "42600",
        "Location": "Taman Makmur",
        "Post_Office": "Jenjarom",
        "State": "Selangor"
    },
    {
        "Postcode": "42600",
        "Location": "Taman Melati",
        "Post_Office": "Jenjarom",
        "State": "Selangor"
    },
    {
        "Postcode": "42600",
        "Location": "Taman Ria",
        "Post_Office": "Jenjarom",
        "State": "Selangor"
    },
    {
        "Postcode": "42600",
        "Location": "Taman Kota",
        "Post_Office": "Jenjarom",
        "State": "Selangor"
    },
    {
        "Postcode": "42600",
        "Location": "Taman Sejahtera",
        "Post_Office": "Jenjarom",
        "State": "Selangor"
    },
    {
        "Postcode": "42600",
        "Location": "Jalan Klang Banting",
        "Post_Office": "Jenjarom",
        "State": "Selangor"
    },
    {
        "Postcode": "42600",
        "Location": "Kawasan Perindustrian Jenjarom",
        "Post_Office": "Jenjarom",
        "State": "Selangor"
    },
    {
        "Postcode": "42600",
        "Location": "Taman Bestari",
        "Post_Office": "Jenjarom",
        "State": "Selangor"
    },
    {
        "Postcode": "42600",
        "Location": "Taman Desa Jarom",
        "Post_Office": "Jenjarom",
        "State": "Selangor"
    },
    {
        "Postcode": "42600",
        "Location": "Taman Amanah",
        "Post_Office": "Jenjarom",
        "State": "Selangor"
    },
    {
        "Postcode": "42600",
        "Location": "Taman Seri Jaromas",
        "Post_Office": "Jenjarom",
        "State": "Selangor"
    },
    {
        "Postcode": "42600",
        "Location": "Jalan Zamrud",
        "Post_Office": "Jenjarom",
        "State": "Selangor"
    },
    {
        "Postcode": "42600",
        "Location": "Taman Ikhlas",
        "Post_Office": "Jenjarom",
        "State": "Selangor"
    },
    {
        "Postcode": "42600",
        "Location": "Kawasan Perusahaan Batu 15",
        "Post_Office": "Jenjarom",
        "State": "Selangor"
    },
    {
        "Postcode": "42600",
        "Location": "Jalan Mempelam",
        "Post_Office": "Jenjarom",
        "State": "Selangor"
    },
    {
        "Postcode": "42600",
        "Location": "Kampung Jenjarom",
        "Post_Office": "Jenjarom",
        "State": "Selangor"
    },
    {
        "Postcode": "42600",
        "Location": "Medan Penjaya",
        "Post_Office": "Jenjarom",
        "State": "Selangor"
    },
    {
        "Postcode": "42600",
        "Location": "Taman Bistari",
        "Post_Office": "Jenjarom",
        "State": "Selangor"
    }
]
