[
    {
        "Postcode": "42700",
        "Location": "Jalan Angkasa 1D/1",
        "Post_Office": "Banting",
        "State": "Selangor"
    },
    {
        "Postcode": "42700",
        "Location": "Jalan Angkasa 1D/2",
        "Post_Office": "Banting",
        "State": "Selangor"
    },
    {
        "Postcode": "42700",
        "Location": "Jalan Angkasa 1D/3",
        "Post_Office": "Banting",
        "State": "Selangor"
    },
    {
        "Postcode": "42700",
        "Location": "Jalan Angkasa 1D/4",
        "Post_Office": "Banting",
        "State": "Selangor"
    },
    {
        "Postcode": "42700",
        "Location": "Jalan Angkasa 1D/5",
        "Post_Office": "Banting",
        "State": "Selangor"
    },
    {
        "Postcode": "42700",
        "Location": "Jalan Angkasa 1D/6",
        "Post_Office": "Banting",
        "State": "Selangor"
    },
    {
        "Postcode": "42700",
        "Location": "Jalan Angkasa 1D/7",
        "Post_Office": "Banting",
        "State": "Selangor"
    },
    {
        "Postcode": "42700",
        "Location": "Jalan Angkasa 1D/8",
        "Post_Office": "Banting",
        "State": "Selangor"
    },
    {
        "Postcode": "42700",
        "Location": "Jalan Angkasa 1D/9",
        "Post_Office": "Banting",
        "State": "Selangor"
    },
    {
        "Postcode": "42700",
        "Location": "Jalan Angkasa 1D/10",
        "Post_Office": "Banting",
        "State": "Selangor"
    },
    {
        "Postcode": "42700",
        "Location": "Jalan Angkasa 1D/11",
        "Post_Office": "Banting",
        "State": "Selangor"
    },
    {
        "Postcode": "42700",
        "Location": "Jalan Angkasa 1D/12",
        "Post_Office": "Banting",
        "State": "Selangor"
    },
    {
        "Postcode": "42700",
        "Location": "Jalan Angkasa 1D/13",
        "Post_Office": "Banting",
        "State": "Selangor"
    },
    {
        "Postcode": "42700",
        "Location": "Bandar Peranginan Morib",
        "Post_Office": "Banting",
        "State": "Selangor"
    },
    {
        "Postcode": "42700",
        "Location": "Kampung Gelanggang Buaya",
        "Post_Office": "Banting",
        "State": "Selangor"
    },
    {
        "Postcode": "42700",
        "Location": "Kampung Sri Cheding",
        "Post_Office": "Banting",
        "State": "Selangor"
    },
    {
        "Postcode": "42700",
        "Location": "Kampung Tanjung Dua Belas",
        "Post_Office": "Banting",
        "State": "Selangor"
    },
    {
        "Postcode": "42700",
        "Location": "Kampung Teluk Pulai",
        "Post_Office": "Banting",
        "State": "Selangor"
    },
    {
        "Postcode": "42700",
        "Location": "Taman Beringin",
        "Post_Office": "Banting",
        "State": "Selangor"
    },
    {
        "Postcode": "42700",
        "Location": "Taman Sri Cheeding",
        "Post_Office": "Banting",
        "State": "Selangor"
    },
    {
        "Postcode": "42700",
        "Location": "Taman Sri Putra",
        "Post_Office": "Banting",
        "State": "Selangor"
    },
    {
        "Postcode": "42700",
        "Location": "Taman Sri Sawah",
        "Post_Office": "Banting",
        "State": "Selangor"
    },
    {
        "Postcode": "42700",
        "Location": "Taman Tulip",
        "Post_Office": "Banting",
        "State": "Selangor"
    },
    {
        "Postcode": "42700",
        "Location": "Jalan Halia 22",
        "Post_Office": "Banting",
        "State": "Selangor"
    },
    {
        "Postcode": "42700",
        "Location": "Laman Aspirasi",
        "Post_Office": "Banting",
        "State": "Selangor"
    },
    {
        "Postcode": "42700",
        "Location": "Taman Jugra Cemerlang",
        "Post_Office": "Banting",
        "State": "Selangor"
    },
    {
        "Postcode": "42700",
        "Location": "Taman Ilham",
        "Post_Office": "Banting",
        "State": "Selangor"
    },
    {
        "Postcode": "42700",
        "Location": "Jalan Serunai 1",
        "Post_Office": "Banting",
        "State": "Selangor"
    },
    {
        "Postcode": "42700",
        "Location": "Kawasan Perusahaan Seri Cheeding",
        "Post_Office": "Banting",
        "State": "Selangor"
    },
    {
        "Postcode": "42700",
        "Location": "Jalan Pinggiran Bukit Perah",
        "Post_Office": "Banting",
        "State": "Selangor"
    },
    {
        "Postcode": "42700",
        "Location": "Jalan Aloi 1",
        "Post_Office": "Banting",
        "State": "Selangor"
    },
    {
        "Postcode": "42700",
        "Location": "Jalan Aloi 3",
        "Post_Office": "Banting",
        "State": "Selangor"
    },
    {
        "Postcode": "42700",
        "Location": "Bandar Sri Ehsan",
        "Post_Office": "Banting",
        "State": "Selangor"
    },
    {
        "Postcode": "42700",
        "Location": "Banting",
        "Post_Office": "Banting",
        "State": "Selangor"
    },
    {
        "Postcode": "42700",
        "Location": "Banting Jaya",
        "Post_Office": "Banting",
        "State": "Selangor"
    },
    {
        "Postcode": "42700",
        "Location": "Bukit Changgang",
        "Post_Office": "Banting",
        "State": "Selangor"
    },
    {
        "Postcode": "42700",
        "Location": "Jalan Berjaya 16",
        "Post_Office": "Banting",
        "State": "Selangor"
    },
    {
        "Postcode": "42700",
        "Location": "Jalan Bersatu 7",
        "Post_Office": "Banting",
        "State": "Selangor"
    },
    {
        "Postcode": "42700",
        "Location": "Jalan Cempaka Kuning 6",
        "Post_Office": "Banting",
        "State": "Selangor"
    },
    {
        "Postcode": "42700",
        "Location": "Jalan Merbah Rimba 18",
        "Post_Office": "Banting",
        "State": "Selangor"
    },
    {
        "Postcode": "42700",
        "Location": "Jalan Mulia 7",
        "Post_Office": "Banting",
        "State": "Selangor"
    },
    {
        "Postcode": "42700",
        "Location": "Jalan Seri Pekan 2",
        "Post_Office": "Banting",
        "State": "Selangor"
    },
    {
        "Postcode": "42700",
        "Location": "Kampung Bandar",
        "Post_Office": "Banting",
        "State": "Selangor"
    },
    {
        "Postcode": "42700",
        "Location": "Kampung Batu 6",
        "Post_Office": "Banting",
        "State": "Selangor"
    },
    {
        "Postcode": "42700",
        "Location": "Kampung Bukit Changgang",
        "Post_Office": "Banting",
        "State": "Selangor"
    },
    {
        "Postcode": "42700",
        "Location": "Kampung Bukit Serdang",
        "Post_Office": "Banting",
        "State": "Selangor"
    },
    {
        "Postcode": "42700",
        "Location": "Kampung Bukit Tadum",
        "Post_Office": "Banting",
        "State": "Selangor"
    },
    {
        "Postcode": "42700",
        "Location": "Kampung Cantek",
        "Post_Office": "Banting",
        "State": "Selangor"
    },
    {
        "Postcode": "42700",
        "Location": "Kampung Endah",
        "Post_Office": "Banting",
        "State": "Selangor"
    },
    {
        "Postcode": "42700",
        "Location": "Kampung Kanchong Bengkok",
        "Post_Office": "Banting",
        "State": "Selangor"
    },
    {
        "Postcode": "42700",
        "Location": "Kampung Kanchong Darat",
        "Post_Office": "Banting",
        "State": "Selangor"
    },
    {
        "Postcode": "42700",
        "Location": "Kampung Kanchong Laut",
        "Post_Office": "Banting",
        "State": "Selangor"
    },
    {
        "Postcode": "42700",
        "Location": "Kampung Kanchong Tengah",
        "Post_Office": "Banting",
        "State": "Selangor"
    },
    {
        "Postcode": "42700",
        "Location": "Kampung Kandang Lembu",
        "Post_Office": "Banting",
        "State": "Selangor"
    },
    {
        "Postcode": "42700",
        "Location": "Kampung Katong",
        "Post_Office": "Banting",
        "State": "Selangor"
    },
    {
        "Postcode": "42700",
        "Location": "Kampung Kelanang",
        "Post_Office": "Banting",
        "State": "Selangor"
    },
    {
        "Postcode": "42700",
        "Location": "Kampung Keliang",
        "Post_Office": "Banting",
        "State": "Selangor"
    },
    {
        "Postcode": "42700",
        "Location": "Kampung Kelikir",
        "Post_Office": "Banting",
        "State": "Selangor"
    },
    {
        "Postcode": "42700",
        "Location": "Kampung Kurau",
        "Post_Office": "Banting",
        "State": "Selangor"
    },
    {
        "Postcode": "42700",
        "Location": "Kampung Labohan Dagang",
        "Post_Office": "Banting",
        "State": "Selangor"
    },
    {
        "Postcode": "42700",
        "Location": "Kampung Layang Labi",
        "Post_Office": "Banting",
        "State": "Selangor"
    },
    {
        "Postcode": "42700",
        "Location": "Kampung Morib",
        "Post_Office": "Banting",
        "State": "Selangor"
    },
    {
        "Postcode": "42700",
        "Location": "Kampung Olak Lempit",
        "Post_Office": "Banting",
        "State": "Selangor"
    },
    {
        "Postcode": "42700",
        "Location": "Kampung Permatang Pasir",
        "Post_Office": "Banting",
        "State": "Selangor"
    },
    {
        "Postcode": "42700",
        "Location": "Kampung Pulau",
        "Post_Office": "Banting",
        "State": "Selangor"
    },
    {
        "Postcode": "42700",
        "Location": "Kampung Sawah",
        "Post_Office": "Banting",
        "State": "Selangor"
    },
    {
        "Postcode": "42700",
        "Location": "Kampung Sempadan",
        "Post_Office": "Banting",
        "State": "Selangor"
    },
    {
        "Postcode": "42700",
        "Location": "Kampung Serdang Belah",
        "Post_Office": "Banting",
        "State": "Selangor"
    },
    {
        "Postcode": "42700",
        "Location": "Kampung Seri Jugra",
        "Post_Office": "Banting",
        "State": "Selangor"
    },
    {
        "Postcode": "42700",
        "Location": "Kampung Simpang Chodoi",
        "Post_Office": "Banting",
        "State": "Selangor"
    },
    {
        "Postcode": "42700",
        "Location": "Kampung Sungai Air Tawar",
        "Post_Office": "Banting",
        "State": "Selangor"
    },
    {
        "Postcode": "42700",
        "Location": "Kampung Sungai Arak",
        "Post_Office": "Banting",
        "State": "Selangor"
    },
    {
        "Postcode": "42700",
        "Location": "Kampung Sungai Buaya Tengah",
        "Post_Office": "Banting",
        "State": "Selangor"
    },
    {
        "Postcode": "42700",
        "Location": "Kampung Sungai Buaya Ujong",
        "Post_Office": "Banting",
        "State": "Selangor"
    },
    {
        "Postcode": "42700",
        "Location": "Kampung Sungai Ingat",
        "Post_Office": "Banting",
        "State": "Selangor"
    },
    {
        "Postcode": "42700",
        "Location": "Kampung Sungai Kelambu",
        "Post_Office": "Banting",
        "State": "Selangor"
    },
    {
        "Postcode": "42700",
        "Location": "Kampung Sungai Lang",
        "Post_Office": "Banting",
        "State": "Selangor"
    },
    {
        "Postcode": "42700",
        "Location": "Kampung Sungai Manggis",
        "Post_Office": "Banting",
        "State": "Selangor"
    },
    {
        "Postcode": "42700",
        "Location": "Kampung Sungai Raba",
        "Post_Office": "Banting",
        "State": "Selangor"
    },
    {
        "Postcode": "42700",
        "Location": "Kampung Sungai Sedu",
        "Post_Office": "Banting",
        "State": "Selangor"
    },
    {
        "Postcode": "42700",
        "Location": "Kampung Tali Ayer",
        "Post_Office": "Banting",
        "State": "Selangor"
    },
    {
        "Postcode": "42700",
        "Location": "Kampung Tampoi",
        "Post_Office": "Banting",
        "State": "Selangor"
    },
    {
        "Postcode": "42700",
        "Location": "Kampung Tongah",
        "Post_Office": "Banting",
        "State": "Selangor"
    },
    {
        "Postcode": "42700",
        "Location": "Kanchong Laut",
        "Post_Office": "Banting",
        "State": "Selangor"
    },
    {
        "Postcode": "42700",
        "Location": "Kelanang",
        "Post_Office": "Banting",
        "State": "Selangor"
    },
    {
        "Postcode": "42700",
        "Location": "Medan Seri Pekan",
        "Post_Office": "Banting",
        "State": "Selangor"
    },
    {
        "Postcode": "42700",
        "Location": "Morib",
        "Post_Office": "Banting",
        "State": "Selangor"
    },
    {
        "Postcode": "42700",
        "Location": "Olak Lampit (Batu 39)",
        "Post_Office": "Banting",
        "State": "Selangor"
    },
    {
        "Postcode": "42700",
        "Location": "Permatang Pasir",
        "Post_Office": "Banting",
        "State": "Selangor"
    },
    {
        "Postcode": "42700",
        "Location": "Seri Cheding",
        "Post_Office": "Banting",
        "State": "Selangor"
    },
    {
        "Postcode": "42700",
        "Location": "Seri Manggis",
        "Post_Office": "Banting",
        "State": "Selangor"
    },
    {
        "Postcode": "42700",
        "Location": "Seri Mas",
        "Post_Office": "Banting",
        "State": "Selangor"
    },
    {
        "Postcode": "42700",
        "Location": "Setia Jaya",
        "Post_Office": "Banting",
        "State": "Selangor"
    },
    {
        "Postcode": "42700",
        "Location": "Simpang Chodoi",
        "Post_Office": "Banting",
        "State": "Selangor"
    },
    {
        "Postcode": "42700",
        "Location": "Sungai Lang Baru",
        "Post_Office": "Banting",
        "State": "Selangor"
    },
    {
        "Postcode": "42700",
        "Location": "Sungai Lang Tengah",
        "Post_Office": "Banting",
        "State": "Selangor"
    },
    {
        "Postcode": "42700",
        "Location": "Taman Banting Jaya",
        "Post_Office": "Banting",
        "State": "Selangor"
    },
    {
        "Postcode": "42700",
        "Location": "Taman Bersatu",
        "Post_Office": "Banting",
        "State": "Selangor"
    },
    {
        "Postcode": "42700",
        "Location": "Taman Bidara",
        "Post_Office": "Banting",
        "State": "Selangor"
    },
    {
        "Postcode": "42700",
        "Location": "Taman Budiman",
        "Post_Office": "Banting",
        "State": "Selangor"
    },
    {
        "Postcode": "42700",
        "Location": "Taman Changgang Jaya",
        "Post_Office": "Banting",
        "State": "Selangor"
    },
    {
        "Postcode": "42700",
        "Location": "Taman Damai",
        "Post_Office": "Banting",
        "State": "Selangor"
    },
    {
        "Postcode": "42700",
        "Location": "Taman Desa Permatang Jaya",
        "Post_Office": "Banting",
        "State": "Selangor"
    },
    {
        "Postcode": "42700",
        "Location": "Taman Emas",
        "Post_Office": "Banting",
        "State": "Selangor"
    },
    {
        "Postcode": "42700",
        "Location": "Taman Gembira",
        "Post_Office": "Banting",
        "State": "Selangor"
    },
    {
        "Postcode": "42700",
        "Location": "Taman Kampung Chantek",
        "Post_Office": "Banting",
        "State": "Selangor"
    },
    {
        "Postcode": "42700",
        "Location": "Taman Kancong Laut",
        "Post_Office": "Banting",
        "State": "Selangor"
    },
    {
        "Postcode": "42700",
        "Location": "Taman Kemuning",
        "Post_Office": "Banting",
        "State": "Selangor"
    },
    {
        "Postcode": "42700",
        "Location": "Taman Kenanga",
        "Post_Office": "Banting",
        "State": "Selangor"
    },
    {
        "Postcode": "42700",
        "Location": "Taman Langat Jaya",
        "Post_Office": "Banting",
        "State": "Selangor"
    },
    {
        "Postcode": "42700",
        "Location": "Taman Langat Murni",
        "Post_Office": "Banting",
        "State": "Selangor"
    },
    {
        "Postcode": "42700",
        "Location": "Taman Langat Utama",
        "Post_Office": "Banting",
        "State": "Selangor"
    },
    {
        "Postcode": "42700",
        "Location": "Taman Merbah",
        "Post_Office": "Banting",
        "State": "Selangor"
    },
    {
        "Postcode": "42700",
        "Location": "Taman Morib",
        "Post_Office": "Banting",
        "State": "Selangor"
    },
    {
        "Postcode": "42700",
        "Location": "Taman Muhibbah",
        "Post_Office": "Banting",
        "State": "Selangor"
    },
    {
        "Postcode": "42700",
        "Location": "Taman Periang",
        "Post_Office": "Banting",
        "State": "Selangor"
    },
    {
        "Postcode": "42700",
        "Location": "Taman Permai",
        "Post_Office": "Banting",
        "State": "Selangor"
    },
    {
        "Postcode": "42700",
        "Location": "Taman Perumahan Kelanang",
        "Post_Office": "Banting",
        "State": "Selangor"
    },
    {
        "Postcode": "42700",
        "Location": "Taman Sari",
        "Post_Office": "Banting",
        "State": "Selangor"
    },
    {
        "Postcode": "42700",
        "Location": "Taman Sentosa",
        "Post_Office": "Banting",
        "State": "Selangor"
    },
    {
        "Postcode": "42700",
        "Location": "Taman Seri Banting",
        "Post_Office": "Banting",
        "State": "Selangor"
    },
    {
        "Postcode": "42700",
        "Location": "Taman Seri Bayu",
        "Post_Office": "Banting",
        "State": "Selangor"
    },
    {
        "Postcode": "42700",
        "Location": "Taman Seri Chiding",
        "Post_Office": "Banting",
        "State": "Selangor"
    },
    {
        "Postcode": "42700",
        "Location": "Taman Seri Desa",
        "Post_Office": "Banting",
        "State": "Selangor"
    },
    {
        "Postcode": "42700",
        "Location": "Taman Seri Jugra",
        "Post_Office": "Banting",
        "State": "Selangor"
    },
    {
        "Postcode": "42700",
        "Location": "Taman Seri Manggis",
        "Post_Office": "Banting",
        "State": "Selangor"
    },
    {
        "Postcode": "42700",
        "Location": "Taman Seri Putera",
        "Post_Office": "Banting",
        "State": "Selangor"
    },
    {
        "Postcode": "42700",
        "Location": "Taman Seri Teluk Datuk",
        "Post_Office": "Banting",
        "State": "Selangor"
    },
    {
        "Postcode": "42700",
        "Location": "Taman Setia Jaya",
        "Post_Office": "Banting",
        "State": "Selangor"
    },
    {
        "Postcode": "42700",
        "Location": "Teluk Benut",
        "Post_Office": "Banting",
        "State": "Selangor"
    },
    {
        "Postcode": "42700",
        "Location": "Teluk Datok",
        "Post_Office": "Banting",
        "State": "Selangor"
    },
    {
        "Postcode": "42700",
        "Location": "Taman Yayasan",
        "Post_Office": "Banting",
        "State": "Selangor"
    },
    {
        "Postcode": "42700",
        "Location": "Ibu Pejabat Polis Daerah Kuala Langat (Ipd Kuala Langat)",
        "Post_Office": "Banting",
        "State": "Selangor"
    },
    {
        "Postcode": "42700",
        "Location": "Jalan Sultan Alam Shah",
        "Post_Office": "Banting",
        "State": "Selangor"
    },
    {
        "Postcode": "42700",
        "Location": "Pangsapuri Orkid (Ipd Kuala Langat)",
        "Post_Office": "Banting",
        "State": "Selangor"
    },
    {
        "Postcode": "42700",
        "Location": "Pangsapuri Teratai (Ipd Kuala Langat)",
        "Post_Office": "Banting",
        "State": "Selangor"
    },
    {
        "Postcode": "42700",
        "Location": "Jalan Cemara 8",
        "Post_Office": "Banting",
        "State": "Selangor"
    },
    {
        "Postcode": "42700",
        "Location": "Taman Cemara Kelanang",
        "Post_Office": "Banting",
        "State": "Selangor"
    },
    {
        "Postcode": "42700",
        "Location": "Taman Cenderawasih",
        "Post_Office": "Banting",
        "State": "Selangor"
    },
    {
        "Postcode": "42700",
        "Location": "Jalan Jujur 1/2",
        "Post_Office": "Banting",
        "State": "Selangor"
    },
    {
        "Postcode": "42700",
        "Location": "Jalan Jujur 2/2",
        "Post_Office": "Banting",
        "State": "Selangor"
    },
    {
        "Postcode": "42700",
        "Location": "Jalan Lg3 1/16",
        "Post_Office": "Banting",
        "State": "Selangor"
    },
    {
        "Postcode": "42700",
        "Location": "Jalan Mawar Putih 1/1",
        "Post_Office": "Banting",
        "State": "Selangor"
    },
    {
        "Postcode": "42700",
        "Location": "Jalan Merbau Kelabu 15",
        "Post_Office": "Banting",
        "State": "Selangor"
    },
    {
        "Postcode": "42700",
        "Location": "Taman Manggis Jaya",
        "Post_Office": "Banting",
        "State": "Selangor"
    },
    {
        "Postcode": "42700",
        "Location": "Taman Mawar",
        "Post_Office": "Banting",
        "State": "Selangor"
    },
    {
        "Postcode": "42700",
        "Location": "Villa Andaman",
        "Post_Office": "Banting",
        "State": "Selangor"
    },
    {
        "Postcode": "42700",
        "Location": "Jalan Halia 22A",
        "Post_Office": "Banting",
        "State": "Selangor"
    },
    {
        "Postcode": "42700",
        "Location": "Taman Teratai ",
        "Post_Office": "Banting",
        "State": "Selangor"
    },
    {
        "Postcode": "42700",
        "Location": "Jalan Teratai 1",
        "Post_Office": "Banting",
        "State": "Selangor"
    },
    {
        "Postcode": "42700",
        "Location": "Jalan Teratai 1A",
        "Post_Office": "Banting",
        "State": "Selangor"
    },
    {
        "Postcode": "42700",
        "Location": "Jalan Teratai 2",
        "Post_Office": "Banting",
        "State": "Selangor"
    },
    {
        "Postcode": "42700",
        "Location": "Jalan Beringin 7",
        "Post_Office": "Banting",
        "State": "Selangor"
    },
    {
        "Postcode": "42700",
        "Location": "Jalan Beringin 5",
        "Post_Office": "Banting",
        "State": "Selangor"
    },
    {
        "Postcode": "42700",
        "Location": "Institut Kemahiran Belia Negara (Ikbn) Kuala Langat ",
        "Post_Office": "Banting",
        "State": "Selangor"
    },
    {
        "Postcode": "42700",
        "Location": "Jalan Banting-Dengkil",
        "Post_Office": "Banting",
        "State": "Selangor"
    },
    {
        "Postcode": "42700",
        "Location": "Jalan Sultan Abdul Samad",
        "Post_Office": "Banting",
        "State": "Selangor"
    },
    {
        "Postcode": "42700",
        "Location": "Kompleks Perabot Olak Lempit",
        "Post_Office": "Banting",
        "State": "Selangor"
    },
    {
        "Postcode": "42700",
        "Location": "Taman Banting Mewah",
        "Post_Office": "Banting",
        "State": "Selangor"
    },
    {
        "Postcode": "42700",
        "Location": "Taman Chodoi Bestari",
        "Post_Office": "Banting",
        "State": "Selangor"
    },
    {
        "Postcode": "42700",
        "Location": "Taman Seri Bunut",
        "Post_Office": "Banting",
        "State": "Selangor"
    },
    {
        "Postcode": "42700",
        "Location": "Taman Bayu Indah",
        "Post_Office": "Banting",
        "State": "Selangor"
    },
    {
        "Postcode": "42700",
        "Location": "Taman Merpati",
        "Post_Office": "Banting",
        "State": "Selangor"
    },
    {
        "Postcode": "42700",
        "Location": "Taman Seri Changgang 1",
        "Post_Office": "Banting",
        "State": "Selangor"
    },
    {
        "Postcode": "42700",
        "Location": "Taman Seri Changgang 2",
        "Post_Office": "Banting",
        "State": "Selangor"
    },
    {
        "Postcode": "42700",
        "Location": "Taman Banting Baru",
        "Post_Office": "Banting",
        "State": "Selangor"
    },
    {
        "Postcode": "42700",
        "Location": "Kawasan Perindustrian Bandar Mahkota Banting",
        "Post_Office": "Banting",
        "State": "Selangor"
    },
    {
        "Postcode": "42700",
        "Location": "Taman Perindustrian Sungai Sedu",
        "Post_Office": "Banting",
        "State": "Selangor"
    },
    {
        "Postcode": "42700",
        "Location": "Taman Langat Utama 2",
        "Post_Office": "Banting",
        "State": "Selangor"
    },
    {
        "Postcode": "42700",
        "Location": "Taman Jugra Unggul",
        "Post_Office": "Banting",
        "State": "Selangor"
    },
    {
        "Postcode": "42700",
        "Location": "Pusat Perdagangan Banting",
        "Post_Office": "Banting",
        "State": "Selangor"
    },
    {
        "Postcode": "42700",
        "Location": "Taman Orkid",
        "Post_Office": "Banting",
        "State": "Selangor"
    },
    {
        "Postcode": "42700",
        "Location": "Bandar Mahkota Banting",
        "Post_Office": "Banting",
        "State": "Selangor"
    },
    {
        "Postcode": "42700",
        "Location": "Kawasan Perusahaan Changgang Utama",
        "Post_Office": "Banting",
        "State": "Selangor"
    },
    {
        "Postcode": "42700",
        "Location": "Plaza Tol Bandar Gamuda Cove",
        "Post_Office": "Banting",
        "State": "Selangor"
    },
    {
        "Postcode": "42700",
        "Location": "Taman Sepakat",
        "Post_Office": "Banting",
        "State": "Selangor"
    },
    {
        "Postcode": "42700",
        "Location": "Bandar Gamuda Cove",
        "Post_Office": "Banting",
        "State": "Selangor"
    },
    {
        "Postcode": "42700",
        "Location": "Kampung Seri Desa",
        "Post_Office": "Banting",
        "State": "Selangor"
    },
    {
        "Postcode": "42700",
        "Location": "Taman Langat Murni Emas",
        "Post_Office": "Banting",
        "State": "Selangor"
    },
    {
        "Postcode": "42700",
        "Location": "Taman Seri Dagang ",
        "Post_Office": "Banting",
        "State": "Selangor"
    },
    {
        "Postcode": "42700",
        "Location": "Taman Seri Dagang 3",
        "Post_Office": "Banting",
        "State": "Selangor"
    },
    {
        "Postcode": "42700",
        "Location": "Jalan Tenaga Baru",
        "Post_Office": "Banting",
        "State": "Selangor"
    },
    {
        "Postcode": "42700",
        "Location": "Taman Seri Pelangi",
        "Post_Office": "Banting",
        "State": "Selangor"
    },
    {
        "Postcode": "42700",
        "Location": "Taman Aman",
        "Post_Office": "Banting",
        "State": "Selangor"
    },
    {
        "Postcode": "42700",
        "Location": "Taman Bakti",
        "Post_Office": "Banting",
        "State": "Selangor"
    },
    {
        "Postcode": "42700",
        "Location": "Taman Cempaka",
        "Post_Office": "Banting",
        "State": "Selangor"
    },
    {
        "Postcode": "42700",
        "Location": "Taman Delima",
        "Post_Office": "Banting",
        "State": "Selangor"
    },
    {
        "Postcode": "42700",
        "Location": "Taman Harmoni",
        "Post_Office": "Banting",
        "State": "Selangor"
    },
    {
        "Postcode": "42700",
        "Location": "Taman Mulia",
        "Post_Office": "Banting",
        "State": "Selangor"
    },
    {
        "Postcode": "42700",
        "Location": "Taman Baiduri",
        "Post_Office": "Banting",
        "State": "Selangor"
    },
    {
        "Postcode": "42700",
        "Location": "Taman Desa Jaya",
        "Post_Office": "Banting",
        "State": "Selangor"
    },
    {
        "Postcode": "42700",
        "Location": "Taman Nilam",
        "Post_Office": "Banting",
        "State": "Selangor"
    },
    {
        "Postcode": "42700",
        "Location": "Taman Pelangi",
        "Post_Office": "Banting",
        "State": "Selangor"
    },
    {
        "Postcode": "42700",
        "Location": "Jalan 3 F3",
        "Post_Office": "Banting",
        "State": "Selangor"
    },
    {
        "Postcode": "42700",
        "Location": "Jalan Bunga Pekan",
        "Post_Office": "Banting",
        "State": "Selangor"
    },
    {
        "Postcode": "42700",
        "Location": "Jalan Delima 25",
        "Post_Office": "Banting",
        "State": "Selangor"
    },
    {
        "Postcode": "42700",
        "Location": "Jalan Murni 6/16",
        "Post_Office": "Banting",
        "State": "Selangor"
    },
    {
        "Postcode": "42700",
        "Location": "Jalan Telok Bunut",
        "Post_Office": "Banting",
        "State": "Selangor"
    },
    {
        "Postcode": "42700",
        "Location": "Jalan Bunut 2",
        "Post_Office": "Banting",
        "State": "Selangor"
    },
    {
        "Postcode": "42700",
        "Location": "Taman Sri Bunut",
        "Post_Office": "Banting",
        "State": "Selangor"
    },
    {
        "Postcode": "42700",
        "Location": "Bandar Sungai Emas",
        "Post_Office": "Banting",
        "State": "Selangor"
    },
    {
        "Postcode": "42700",
        "Location": "Kota Seri Langat",
        "Post_Office": "Banting",
        "State": "Selangor"
    },
    {
        "Postcode": "42700",
        "Location": "Taman Desa Idaman",
        "Post_Office": "Banting",
        "State": "Selangor"
    },
    {
        "Postcode": "42700",
        "Location": "Taman Nuri",
        "Post_Office": "Banting",
        "State": "Selangor"
    },
    {
        "Postcode": "42700",
        "Location": "Taman Bajuri",
        "Post_Office": "Banting",
        "State": "Selangor"
    },
    {
        "Postcode": "42700",
        "Location": "Taman Seri Dagang 1",
        "Post_Office": "Banting",
        "State": "Selangor"
    },
    {
        "Postcode": "42700",
        "Location": "Kawasan Perusahaan Olak Lempit",
        "Post_Office": "Banting",
        "State": "Selangor"
    },
    {
        "Postcode": "42700",
        "Location": "Kampung Sungai Buaya",
        "Post_Office": "Banting",
        "State": "Selangor"
    },
    {
        "Postcode": "42700",
        "Location": "Kampung Tali Air",
        "Post_Office": "Banting",
        "State": "Selangor"
    },
    {
        "Postcode": "42700",
        "Location": "Taman Kristal",
        "Post_Office": "Banting",
        "State": "Selangor"
    },
    {
        "Postcode": "42700",
        "Location": "Taman Seri Maju",
        "Post_Office": "Banting",
        "State": "Selangor"
    },
    {
        "Postcode": "42700",
        "Location": "Taman Palma",
        "Post_Office": "Banting",
        "State": "Selangor"
    },
    {
        "Postcode": "42700",
        "Location": "Taman Langat Utama 3",
        "Post_Office": "Banting",
        "State": "Selangor"
    },
    {
        "Postcode": "42700",
        "Location": "Jalan Biduk 1/29",
        "Post_Office": "Banting",
        "State": "Selangor"
    },
    {
        "Postcode": "42700",
        "Location": "Jalan Kasia Kuning 1",
        "Post_Office": "Banting",
        "State": "Selangor"
    },
    {
        "Postcode": "42700",
        "Location": "Jalan Maju 3/1",
        "Post_Office": "Banting",
        "State": "Selangor"
    },
    {
        "Postcode": "42700",
        "Location": "Taman Langat Idaman",
        "Post_Office": "Banting",
        "State": "Selangor"
    },
    {
        "Postcode": "42700",
        "Location": "Taman Langat Utama 1",
        "Post_Office": "Banting",
        "State": "Selangor"
    },
    {
        "Postcode": "42700",
        "Location": "Taman Chodoi Jaya",
        "Post_Office": "Banting",
        "State": "Selangor"
    },
    {
        "Postcode": "42700",
        "Location": "Kawasan Perusahaan Olak Lempit 2",
        "Post_Office": "Banting",
        "State": "Selangor"
    },
    {
        "Postcode": "42700",
        "Location": "Taman Langat Idaman",
        "Post_Office": "Banting",
        "State": "Selangor"
    },
    {
        "Postcode": "42700",
        "Location": "Taman Chodoi Jaya",
        "Post_Office": "Banting",
        "State": "Selangor"
    },
    {
        "Postcode": "42700",
        "Location": "Jalan Camar 10",
        "Post_Office": "Banting",
        "State": "Selangor"
    },
    {
        "Postcode": "42700",
        "Location": "Jalan Camar 12",
        "Post_Office": "Banting",
        "State": "Selangor"
    },
    {
        "Postcode": "42700",
        "Location": "Jalan Camar 19",
        "Post_Office": "Banting",
        "State": "Selangor"
    },
    {
        "Postcode": "42700",
        "Location": "Jalan Camar 2",
        "Post_Office": "Banting",
        "State": "Selangor"
    },
    {
        "Postcode": "42700",
        "Location": "Jalan Camar 5",
        "Post_Office": "Banting",
        "State": "Selangor"
    },
    {
        "Postcode": "42700",
        "Location": "Jalan Camar 8",
        "Post_Office": "Banting",
        "State": "Selangor"
    },
    {
        "Postcode": "42700",
        "Location": "Jalan Lu 1/26",
        "Post_Office": "Banting",
        "State": "Selangor"
    },
    {
        "Postcode": "42700",
        "Location": "Jalan Lu 1/27",
        "Post_Office": "Banting",
        "State": "Selangor"
    },
    {
        "Postcode": "42700",
        "Location": "Jalan Lu 1/28",
        "Post_Office": "Banting",
        "State": "Selangor"
    },
    {
        "Postcode": "42700",
        "Location": "Jalan Lu 1/29",
        "Post_Office": "Banting",
        "State": "Selangor"
    },
    {
        "Postcode": "42700",
        "Location": "Jalan Rubi 19",
        "Post_Office": "Banting",
        "State": "Selangor"
    },
    {
        "Postcode": "42700",
        "Location": "Jalan Mawar Putih 2",
        "Post_Office": "Banting",
        "State": "Selangor"
    },
    {
        "Postcode": "42700",
        "Location": "Jalan Anjung 2/33",
        "Post_Office": "Banting",
        "State": "Selangor"
    },
    {
        "Postcode": "42700",
        "Location": "Taman Langat Impian",
        "Post_Office": "Banting",
        "State": "Selangor"
    },
    {
        "Postcode": "42700",
        "Location": "Taman Perindustrian Mahkota Utama",
        "Post_Office": "Banting",
        "State": "Selangor"
    },
    {
        "Postcode": "42700",
        "Location": "Jalan Spektrum 2",
        "Post_Office": "Banting",
        "State": "Selangor"
    },
    {
        "Postcode": "42700",
        "Location": "Jalan Zuhal 1",
        "Post_Office": "Banting",
        "State": "Selangor"
    },
    {
        "Postcode": "42700",
        "Location": "Jalan Neutron 1",
        "Post_Office": "Banting",
        "State": "Selangor"
    },
    {
        "Postcode": "42700",
        "Location": "Plaza Cove",
        "Post_Office": "Banting",
        "State": "Selangor"
    },
    {
        "Postcode": "42700",
        "Location": "Persiaran Cove Utama",
        "Post_Office": "Banting",
        "State": "Selangor"
    },
    {
        "Postcode": "42700",
        "Location": "Jalan Topaz 2/15",
        "Post_Office": "Banting",
        "State": "Selangor"
    },
    {
        "Postcode": "42700",
        "Location": "Jalan Samudera",
        "Post_Office": "Banting",
        "State": "Selangor"
    },
    {
        "Postcode": "42700",
        "Location": "Kampung Boundry",
        "Post_Office": "Banting",
        "State": "Selangor"
    },
    {
        "Postcode": "42700",
        "Location": "Kampung Bukit Cheding",
        "Post_Office": "Banting",
        "State": "Selangor"
    },
    {
        "Postcode": "42700",
        "Location": "Kampung Chodoi",
        "Post_Office": "Banting",
        "State": "Selangor"
    },
    {
        "Postcode": "42700",
        "Location": "Kampung Orang Asli Pulau Kampas",
        "Post_Office": "Banting",
        "State": "Selangor"
    },
    {
        "Postcode": "42700",
        "Location": "Kampung Ponniah",
        "Post_Office": "Banting",
        "State": "Selangor"
    },
    {
        "Postcode": "42700",
        "Location": "Kampung Rtb",
        "Post_Office": "Banting",
        "State": "Selangor"
    },
    {
        "Postcode": "42700",
        "Location": "Kampung Sungai Lang Baru",
        "Post_Office": "Banting",
        "State": "Selangor"
    },
    {
        "Postcode": "42700",
        "Location": "Kampung Sungai Lang Tengah",
        "Post_Office": "Banting",
        "State": "Selangor"
    },
    {
        "Postcode": "42700",
        "Location": "Kampung Sungai Nangka",
        "Post_Office": "Banting",
        "State": "Selangor"
    },
    {
        "Postcode": "42700",
        "Location": "Kampung Telok Bunut",
        "Post_Office": "Banting",
        "State": "Selangor"
    },
    {
        "Postcode": "42700",
        "Location": "Kampung Tongkah",
        "Post_Office": "Banting",
        "State": "Selangor"
    },
    {
        "Postcode": "42700",
        "Location": "Kampung Tongkah Dalam",
        "Post_Office": "Banting",
        "State": "Selangor"
    },
    {
        "Postcode": "42700",
        "Location": "Kawasan Perindustrian Banting",
        "Post_Office": "Banting",
        "State": "Selangor"
    },
    {
        "Postcode": "42700",
        "Location": "Kawasan Perindustrian Olak Lempit",
        "Post_Office": "Banting",
        "State": "Selangor"
    },
    {
        "Postcode": "42700",
        "Location": "Taman Bahagia ",
        "Post_Office": "Banting",
        "State": "Selangor"
    },
    {
        "Postcode": "42700",
        "Location": "Taman Cemara",
        "Post_Office": "Banting",
        "State": "Selangor"
    },
    {
        "Postcode": "42700",
        "Location": "Taman D Menara",
        "Post_Office": "Banting",
        "State": "Selangor"
    },
    {
        "Postcode": "42700",
        "Location": "Taman Damai Indah",
        "Post_Office": "Banting",
        "State": "Selangor"
    },
    {
        "Postcode": "42700",
        "Location": "Taman Desa Pinggiran",
        "Post_Office": "Banting",
        "State": "Selangor"
    },
    {
        "Postcode": "42700",
        "Location": "Taman Jugra Indah",
        "Post_Office": "Banting",
        "State": "Selangor"
    },
    {
        "Postcode": "42700",
        "Location": "Taman Jugra Jaya",
        "Post_Office": "Banting",
        "State": "Selangor"
    },
    {
        "Postcode": "42700",
        "Location": "Taman Kanchong Laut",
        "Post_Office": "Banting",
        "State": "Selangor"
    },
    {
        "Postcode": "42700",
        "Location": "Taman Kenangan",
        "Post_Office": "Banting",
        "State": "Selangor"
    },
    {
        "Postcode": "42700",
        "Location": "Taman Langat Indah",
        "Post_Office": "Banting",
        "State": "Selangor"
    },
    {
        "Postcode": "42700",
        "Location": "Taman Merpati Putih",
        "Post_Office": "Banting",
        "State": "Selangor"
    },
    {
        "Postcode": "42700",
        "Location": "Taman Nuri Indah",
        "Post_Office": "Banting",
        "State": "Selangor"
    },
    {
        "Postcode": "42700",
        "Location": "Taman Seri Changgang 3",
        "Post_Office": "Banting",
        "State": "Selangor"
    },
    {
        "Postcode": "42700",
        "Location": "Taman Seri Telok Datok",
        "Post_Office": "Banting",
        "State": "Selangor"
    },
    {
        "Postcode": "42700",
        "Location": "Taman Teluk Bunut",
        "Post_Office": "Banting",
        "State": "Selangor"
    }
]
