[
    {
        "Postcode": "42800",
        "Location": "Kampung Darat Batu",
        "Post_Office": "Tanjong Sepat",
        "State": "Selangor"
    },
    {
        "Postcode": "42800",
        "Location": "Taman Tanjung",
        "Post_Office": "Tanjong Sepat",
        "State": "Selangor"
    },
    {
        "Postcode": "42800",
        "Location": "Batu Laut",
        "Post_Office": "Tanjong Sepat",
        "State": "Selangor"
    },
    {
        "Postcode": "42800",
        "Location": "Dusun Durian Estate",
        "Post_Office": "Tanjong Sepat",
        "State": "Selangor"
    },
    {
        "Postcode": "42800",
        "Location": "Jalan Laut Membiru",
        "Post_Office": "Tanjong Sepat",
        "State": "Selangor"
    },
    {
        "Postcode": "42800",
        "Location": "Kampung Batu Laut",
        "Post_Office": "Tanjong Sepat",
        "State": "Selangor"
    },
    {
        "Postcode": "42800",
        "Location": "Kampung Kota Raja",
        "Post_Office": "Tanjong Sepat",
        "State": "Selangor"
    },
    {
        "Postcode": "42800",
        "Location": "Kampung Kundang",
        "Post_Office": "Tanjong Sepat",
        "State": "Selangor"
    },
    {
        "Postcode": "42800",
        "Location": "Kampung Orang Asli",
        "Post_Office": "Tanjong Sepat",
        "State": "Selangor"
    },
    {
        "Postcode": "42800",
        "Location": "Kampung Tanjong Layang",
        "Post_Office": "Tanjong Sepat",
        "State": "Selangor"
    },
    {
        "Postcode": "42800",
        "Location": "Kampung Tanjong Sepat Darat",
        "Post_Office": "Tanjong Sepat",
        "State": "Selangor"
    },
    {
        "Postcode": "42800",
        "Location": "Kampung Titip",
        "Post_Office": "Tanjong Sepat",
        "State": "Selangor"
    },
    {
        "Postcode": "42800",
        "Location": "Kampung Tumbuk Darat",
        "Post_Office": "Tanjong Sepat",
        "State": "Selangor"
    },
    {
        "Postcode": "42800",
        "Location": "Tanjung Sepat",
        "Post_Office": "Tanjong Sepat",
        "State": "Selangor"
    },
    {
        "Postcode": "42800",
        "Location": "Kampung Baru Tanjung Sepat",
        "Post_Office": "Tanjong Sepat",
        "State": "Selangor"
    },
    {
        "Postcode": "42800",
        "Location": "Taman Mutiara",
        "Post_Office": "Tanjong Sepat",
        "State": "Selangor"
    },
    {
        "Postcode": "42800",
        "Location": "Taman Pelangi",
        "Post_Office": "Tanjong Sepat",
        "State": "Selangor"
    },
    {
        "Postcode": "42800",
        "Location": "Jalan Banting-Port Dickson",
        "Post_Office": "Tanjong Sepat",
        "State": "Selangor"
    },
    {
        "Postcode": "42800",
        "Location": "Taman Desa Kundang",
        "Post_Office": "Tanjong Sepat",
        "State": "Selangor"
    },
    {
        "Postcode": "42800",
        "Location": "Jalan Pasar",
        "Post_Office": "Tanjong Sepat",
        "State": "Selangor"
    },
    {
        "Postcode": "42800",
        "Location": "Kampung Batu Untung",
        "Post_Office": "Tanjong Sepat",
        "State": "Selangor"
    },
    {
        "Postcode": "42800",
        "Location": "Kampung Kuala Langat",
        "Post_Office": "Tanjong Sepat",
        "State": "Selangor"
    },
    {
        "Postcode": "42800",
        "Location": "Kampung Kundang Pantai",
        "Post_Office": "Tanjong Sepat",
        "State": "Selangor"
    },
    {
        "Postcode": "42800",
        "Location": "Kampung Ladang Batu",
        "Post_Office": "Tanjong Sepat",
        "State": "Selangor"
    },
    {
        "Postcode": "42800",
        "Location": "Kampung Tanjong Sepat",
        "Post_Office": "Tanjong Sepat",
        "State": "Selangor"
    },
    {
        "Postcode": "42800",
        "Location": "Kampung Tumbok Pantai",
        "Post_Office": "Tanjong Sepat",
        "State": "Selangor"
    },
    {
        "Postcode": "42800",
        "Location": "Taman Gadong",
        "Post_Office": "Tanjong Sepat",
        "State": "Selangor"
    },
    {
        "Postcode": "42800",
        "Location": "Taman Seri Kundang",
        "Post_Office": "Tanjong Sepat",
        "State": "Selangor"
    }
]
