[
    {
        "Postcode": "42920",
        "Location": "Kampung Teluk Nipah",
        "Post_Office": "Pulau Indah",
        "State": "Selangor"
    },
    {
        "Postcode": "42920",
        "Location": "Jalan Sungai Chandong 29/KS11",
        "Post_Office": "Pulau Indah",
        "State": "Selangor"
    },
    {
        "Postcode": "42920",
        "Location": "Jalan Mawar",
        "Post_Office": "Pulau Indah",
        "State": "Selangor"
    },
    {
        "Postcode": "42920",
        "Location": "Jalan Teratai",
        "Post_Office": "Pulau Indah",
        "State": "Selangor"
    },
    {
        "Postcode": "42920",
        "Location": "Taman Dato Harun 1",
        "Post_Office": "Pulau Indah",
        "State": "Selangor"
    },
    {
        "Postcode": "42920",
        "Location": "Taman Dato Harun 6",
        "Post_Office": "Pulau Indah",
        "State": "Selangor"
    },
    {
        "Postcode": "42920",
        "Location": "Taman Haji Abdul Aziz 1",
        "Post_Office": "Pulau Indah",
        "State": "Selangor"
    },
    {
        "Postcode": "42920",
        "Location": "Taman Imam Yusof 5",
        "Post_Office": "Pulau Indah",
        "State": "Selangor"
    },
    {
        "Postcode": "42920",
        "Location": "Institut Pendidikan Negeri Selangor (Inspens)",
        "Post_Office": "Pulau Indah",
        "State": "Selangor"
    },
    {
        "Postcode": "42920",
        "Location": "Jalan Bistari",
        "Post_Office": "Pulau Indah",
        "State": "Selangor"
    },
    {
        "Postcode": "42920",
        "Location": "Jalan Dato' Ahmad Razali 23A",
        "Post_Office": "Pulau Indah",
        "State": "Selangor"
    },
    {
        "Postcode": "42920",
        "Location": "Jalan Perigi Nenas",
        "Post_Office": "Pulau Indah",
        "State": "Selangor"
    },
    {
        "Postcode": "42920",
        "Location": "Jalan Perigi Nenas 7/5, Seksyen 7",
        "Post_Office": "Pulau Indah",
        "State": "Selangor"
    },
    {
        "Postcode": "42920",
        "Location": "Jalan Sama Gagah",
        "Post_Office": "Pulau Indah",
        "State": "Selangor"
    },
    {
        "Postcode": "42920",
        "Location": "Jalan Samudera",
        "Post_Office": "Pulau Indah",
        "State": "Selangor"
    },
    {
        "Postcode": "42920",
        "Location": "Jalan Sungai Chandong",
        "Post_Office": "Pulau Indah",
        "State": "Selangor"
    },
    {
        "Postcode": "42920",
        "Location": "Jalan Sungai Pinang",
        "Post_Office": "Pulau Indah",
        "State": "Selangor"
    },
    {
        "Postcode": "42920",
        "Location": "Jalan Sungai Pinang 4/3",
        "Post_Office": "Pulau Indah",
        "State": "Selangor"
    },
    {
        "Postcode": "42920",
        "Location": "Jalan Sungai Pinang 5/1",
        "Post_Office": "Pulau Indah",
        "State": "Selangor"
    },
    {
        "Postcode": "42920",
        "Location": "Jalan Sungai Pinang 5/2",
        "Post_Office": "Pulau Indah",
        "State": "Selangor"
    },
    {
        "Postcode": "42920",
        "Location": "Jalan Sungai Pinang 5/7",
        "Post_Office": "Pulau Indah",
        "State": "Selangor"
    },
    {
        "Postcode": "42920",
        "Location": "Jalan Sungai Sama Gagah",
        "Post_Office": "Pulau Indah",
        "State": "Selangor"
    },
    {
        "Postcode": "42920",
        "Location": "Kampung Orang Asli",
        "Post_Office": "Pulau Indah",
        "State": "Selangor"
    },
    {
        "Postcode": "42920",
        "Location": "Kampung Perigi Nenas",
        "Post_Office": "Pulau Indah",
        "State": "Selangor"
    },
    {
        "Postcode": "42920",
        "Location": "Kampung Sungai Kembong",
        "Post_Office": "Pulau Indah",
        "State": "Selangor"
    },
    {
        "Postcode": "42920",
        "Location": "Lorong Sama Gagah",
        "Post_Office": "Pulau Indah",
        "State": "Selangor"
    },
    {
        "Postcode": "42920",
        "Location": "Lorong Sungai Chandong",
        "Post_Office": "Pulau Indah",
        "State": "Selangor"
    },
    {
        "Postcode": "42920",
        "Location": "Pelabuhan Barat (West Port)",
        "Post_Office": "Pulau Indah",
        "State": "Selangor"
    },
    {
        "Postcode": "42920",
        "Location": "Persiaran Masjid Sultan",
        "Post_Office": "Pulau Indah",
        "State": "Selangor"
    },
    {
        "Postcode": "42920",
        "Location": "Pulau Indah",
        "Post_Office": "Pulau Indah",
        "State": "Selangor"
    },
    {
        "Postcode": "42920",
        "Location": "Taman Permai Pulau Indah",
        "Post_Office": "Pulau Indah",
        "State": "Selangor"
    },
    {
        "Postcode": "42920",
        "Location": "Jalan Perigi Nenas 7/3 /Ks11",
        "Post_Office": "Pulau Indah",
        "State": "Selangor"
    },
    {
        "Postcode": "42920",
        "Location": "Jalan Sungai Pinang 5/3 /Ks 11",
        "Post_Office": "Pulau Indah",
        "State": "Selangor"
    },
    {
        "Postcode": "42920",
        "Location": "Jalan Dato' Ahmad Razali 7D / Ks 13",
        "Post_Office": "Pulau Indah",
        "State": "Selangor"
    },
    {
        "Postcode": "42920",
        "Location": "Jalan Dato' Hormat 2B (Ks 13)",
        "Post_Office": "Pulau Indah",
        "State": "Selangor"
    },
    {
        "Postcode": "42920",
        "Location": "Jalan Perigi Nenas 6/1 (Ks 11)",
        "Post_Office": "Pulau Indah",
        "State": "Selangor"
    },
    {
        "Postcode": "42920",
        "Location": "Jalan Sidang Hailani (Ks 13)",
        "Post_Office": "Pulau Indah",
        "State": "Selangor"
    },
    {
        "Postcode": "42920",
        "Location": "Jalan Sungai Pinang 4/2 (Ks 11)",
        "Post_Office": "Pulau Indah",
        "State": "Selangor"
    },
    {
        "Postcode": "42920",
        "Location": "Jalan Sungai Pinang 5/4 / Ks11",
        "Post_Office": "Pulau Indah",
        "State": "Selangor"
    },
    {
        "Postcode": "42920",
        "Location": "Jalan Sungai Pinang 4/6 / Ks11",
        "Post_Office": "Pulau Indah",
        "State": "Selangor"
    },
    {
        "Postcode": "42920",
        "Location": "Lorong Sungai Chandong 12A/KS 11",
        "Post_Office": "Pulau Indah",
        "State": "Selangor"
    },
    {
        "Postcode": "42920",
        "Location": "Jalan Sungai Chandong 26/KS11",
        "Post_Office": "Pulau Indah",
        "State": "Selangor"
    },
    {
        "Postcode": "42920",
        "Location": "Lorong Masjid Sultan 40L/KS13",
        "Post_Office": "Pulau Indah",
        "State": "Selangor"
    },
    {
        "Postcode": "42920",
        "Location": "Lorong Dato Ahmad Razali 14D/KS13",
        "Post_Office": "Pulau Indah",
        "State": "Selangor"
    },
    {
        "Postcode": "42920",
        "Location": "Taman Dato Ahmad Razali 2",
        "Post_Office": "Pulau Indah",
        "State": "Selangor"
    },
    {
        "Postcode": "42920",
        "Location": "Persiaran Pulau Lumut",
        "Post_Office": "Pulau Indah",
        "State": "Selangor"
    },
    {
        "Postcode": "42920",
        "Location": "Taman Dato Harun 9",
        "Post_Office": "Pulau Indah",
        "State": "Selangor"
    },
    {
        "Postcode": "42920",
        "Location": "Lorong Dato Harun 43/KS13",
        "Post_Office": "Pulau Indah",
        "State": "Selangor"
    },
    {
        "Postcode": "42920",
        "Location": "Jalan Sungai Chandong 32/KS11",
        "Post_Office": "Pulau Indah",
        "State": "Selangor"
    },
    {
        "Postcode": "42920",
        "Location": "Jalan CT 9",
        "Post_Office": "Pulau Indah",
        "State": "Selangor"
    },
    {
        "Postcode": "42920",
        "Location": "Lorong Imam Jaafar 5D/KS13",
        "Post_Office": "Pulau Indah",
        "State": "Selangor"
    },
    {
        "Postcode": "42920",
        "Location": "Taman Imam Jaafar 2",
        "Post_Office": "Pulau Indah",
        "State": "Selangor"
    },
    {
        "Postcode": "42920",
        "Location": "Jalan Perigi Nenas 8/1 (Ks 11)",
        "Post_Office": "Pulau Indah",
        "State": "Selangor"
    },
    {
        "Postcode": "42920",
        "Location": "Bandar Armada Putra",
        "Post_Office": "Pulau Indah",
        "State": "Selangor"
    },
    {
        "Postcode": "42920",
        "Location": "Jalan Perigi Nenas 7/2",
        "Post_Office": "Pulau Indah",
        "State": "Selangor"
    },
    {
        "Postcode": "42920",
        "Location": "Persiaran Pulau Indah 1",
        "Post_Office": "Pulau Indah",
        "State": "Selangor"
    },
    {
        "Postcode": "42920",
        "Location": "Taman Samudera",
        "Post_Office": "Pulau Indah",
        "State": "Selangor"
    },
    {
        "Postcode": "42920",
        "Location": "Taman Perindustrian Pulau Indah",
        "Post_Office": "Pulau Indah",
        "State": "Selangor"
    },
    {
        "Postcode": "42920",
        "Location": "Kampung Sungai Pinang",
        "Post_Office": "Pulau Indah",
        "State": "Selangor"
    },
    {
        "Postcode": "42920",
        "Location": "Taman Dato Harun 2",
        "Post_Office": "Pulau Indah",
        "State": "Selangor"
    },
    {
        "Postcode": "42920",
        "Location": "Jalan Tanjong",
        "Post_Office": "Pulau Indah",
        "State": "Selangor"
    },
    {
        "Postcode": "42920",
        "Location": "Jalan Sungai Pinang 4/1",
        "Post_Office": "Pulau Indah",
        "State": "Selangor"
    },
    {
        "Postcode": "42920",
        "Location": "Lorong Tan Sri Dato Mohammad Taib 10A/KS13",
        "Post_Office": "Pulau Indah",
        "State": "Selangor"
    },
    {
        "Postcode": "42920",
        "Location": "Taman Tan Sri Dato Mohammad Taib",
        "Post_Office": "Pulau Indah",
        "State": "Selangor"
    },
    {
        "Postcode": "42920",
        "Location": "Taman Teluk Nipah",
        "Post_Office": "Pulau Indah",
        "State": "Selangor"
    },
    {
        "Postcode": "42920",
        "Location": "Taman Perigi Nenas",
        "Post_Office": "Pulau Indah",
        "State": "Selangor"
    },
    {
        "Postcode": "42920",
        "Location": "Taman Sungai Kembong",
        "Post_Office": "Pulau Indah",
        "State": "Selangor"
    },
    {
        "Postcode": "42920",
        "Location": "Taman Sungai Pinang",
        "Post_Office": "Pulau Indah",
        "State": "Selangor"
    },
    {
        "Postcode": "42920",
        "Location": "Taman Dato Harun 2",
        "Post_Office": "Pulau Indah",
        "State": "Selangor"
    },
    {
        "Postcode": "42920",
        "Location": "Jalan Tanjong",
        "Post_Office": "Pulau Indah",
        "State": "Selangor"
    },
    {
        "Postcode": "42920",
        "Location": "Jalan Mawar",
        "Post_Office": "Pulau Indah",
        "State": "Selangor"
    },
    {
        "Postcode": "42920",
        "Location": "Jalan Teratai",
        "Post_Office": "Pulau Indah",
        "State": "Selangor"
    },
    {
        "Postcode": "42920",
        "Location": "Taman Dato Harun 6",
        "Post_Office": "Pulau Indah",
        "State": "Selangor"
    },
    {
        "Postcode": "42920",
        "Location": "Taman Dato Harun 1",
        "Post_Office": "Pulau Indah",
        "State": "Selangor"
    },
    {
        "Postcode": "42920",
        "Location": "Taman Haji Abdul Aziz 1",
        "Post_Office": "Pulau Indah",
        "State": "Selangor"
    },
    {
        "Postcode": "42920",
        "Location": "Taman Persiaran Masjid Sultan 8",
        "Post_Office": "Pulau Indah",
        "State": "Selangor"
    },
    {
        "Postcode": "42920",
        "Location": "Jalan Perigi Nenas 7/2/KS11",
        "Post_Office": "Pulau Indah",
        "State": "Selangor"
    },
    {
        "Postcode": "42920",
        "Location": "Jalan Imam Yusof 41B/KS13",
        "Post_Office": "Pulau Indah",
        "State": "Selangor"
    },
    {
        "Postcode": "42920",
        "Location": "Taman Imam Yusof 4",
        "Post_Office": "Pulau Indah",
        "State": "Selangor"
    },
    {
        "Postcode": "42920",
        "Location": "Taman Persiaran Masjid Sultan 4",
        "Post_Office": "Pulau Indah",
        "State": "Selangor"
    },
    {
        "Postcode": "42920",
        "Location": "Lorong Masjid Sultan 15D/KS13",
        "Post_Office": "Pulau Indah",
        "State": "Selangor"
    },
    {
        "Postcode": "42920",
        "Location": "Lorong Dato’ Hormat 40C/KS13",
        "Post_Office": "Pulau Indah",
        "State": "Selangor"
    },
    {
        "Postcode": "42920",
        "Location": "Taman Dato’ Hormat 6",
        "Post_Office": "Pulau Indah",
        "State": "Selangor"
    },
    {
        "Postcode": "42920",
        "Location": "Taman Dato Harun 7",
        "Post_Office": "Pulau Indah",
        "State": "Selangor"
    },
    {
        "Postcode": "42920",
        "Location": "Jalan Dato Harun 38C/KS13",
        "Post_Office": "Pulau Indah",
        "State": "Selangor"
    },
    {
        "Postcode": "42920",
        "Location": "Taman Persiaran Masjid Sultan 7",
        "Post_Office": "Pulau Indah",
        "State": "Selangor"
    },
    {
        "Postcode": "42920",
        "Location": "Lorong Masjid Sultan 31A/KS13",
        "Post_Office": "Pulau Indah",
        "State": "Selangor"
    },
    {
        "Postcode": "42920",
        "Location": "Dataran Kaktus",
        "Post_Office": "Pulau Indah",
        "State": "Selangor"
    },
    {
        "Postcode": "42920",
        "Location": "Laguna Park",
        "Post_Office": "Pulau Indah",
        "State": "Selangor"
    },
    {
        "Postcode": "42920",
        "Location": "Taman Sri Pinang",
        "Post_Office": "Pulau Indah",
        "State": "Selangor"
    }
]
