[
    {
        "Postcode": "42960",
        "Location": "Division (1, 2, 4 \u0026 6)",
        "Post_Office": "Pulau Carey",
        "State": "Selangor"
    },
    {
        "Postcode": "42960",
        "Location": "Division (6A - 7A \u0026 7B)",
        "Post_Office": "Pulau Carey",
        "State": "Selangor"
    },
    {
        "Postcode": "42960",
        "Location": "East Estate",
        "Post_Office": "Pulau Carey",
        "State": "Selangor"
    },
    {
        "Postcode": "42960",
        "Location": "Kampung Kepau Laut",
        "Post_Office": "Pulau Carey",
        "State": "Selangor"
    },
    {
        "Postcode": "42960",
        "Location": "Kampung Manikavasagam",
        "Post_Office": "Pulau Carey",
        "State": "Selangor"
    },
    {
        "Postcode": "42960",
        "Location": "Kampung Melayu",
        "Post_Office": "Pulau Carey",
        "State": "Selangor"
    },
    {
        "Postcode": "42960",
        "Location": "Kampung Sungai Bumbun",
        "Post_Office": "Pulau Carey",
        "State": "Selangor"
    },
    {
        "Postcode": "42960",
        "Location": "Kampung Sungai Judah",
        "Post_Office": "Pulau Carey",
        "State": "Selangor"
    },
    {
        "Postcode": "42960",
        "Location": "North Estate",
        "Post_Office": "Pulau Carey",
        "State": "Selangor"
    },
    {
        "Postcode": "42960",
        "Location": "Pulau Carey",
        "Post_Office": "Pulau Carey",
        "State": "Selangor"
    },
    {
        "Postcode": "42960",
        "Location": "South Estate",
        "Post_Office": "Pulau Carey",
        "State": "Selangor"
    },
    {
        "Postcode": "42960",
        "Location": "Sungai Kepan Laut",
        "Post_Office": "Pulau Carey",
        "State": "Selangor"
    },
    {
        "Postcode": "42960",
        "Location": "Sungai Kluang",
        "Post_Office": "Pulau Carey",
        "State": "Selangor"
    },
    {
        "Postcode": "42960",
        "Location": "Sungai Patha",
        "Post_Office": "Pulau Carey",
        "State": "Selangor"
    },
    {
        "Postcode": "42960",
        "Location": "Sungai Petani",
        "Post_Office": "Pulau Carey",
        "State": "Selangor"
    },
    {
        "Postcode": "42960",
        "Location": "Jalan Pulau Carey",
        "Post_Office": "Pulau Carey",
        "State": "Selangor"
    },
    {
        "Postcode": "42960",
        "Location": "Jalan Carey 1",
        "Post_Office": "Pulau Carey",
        "State": "Selangor"
    },
    {
        "Postcode": "42960",
        "Location": "Laman Averton",
        "Post_Office": "Pulau Carey",
        "State": "Selangor"
    },
    {
        "Postcode": "42960",
        "Location": "Kampung Orang Asli Sungai Bumbun",
        "Post_Office": "Pulau Carey",
        "State": "Selangor"
    },
    {
        "Postcode": "42960",
        "Location": "Kampung Orang Asli Sungai Judah",
        "Post_Office": "Pulau Carey",
        "State": "Selangor"
    },
    {
        "Postcode": "42960",
        "Location": "Kampung Orang Asli Sungai Rambai",
        "Post_Office": "Pulau Carey",
        "State": "Selangor"
    }
]
