[
    {
        "Postcode": "43000",
        "Location": "Kawasan Perniagaan Murni",
        "Post_Office": "Kajang",
        "State": "Selangor"
    },
    {
        "Postcode": "43000",
        "Location": "Kampung Bahagia ",
        "Post_Office": "Kajang",
        "State": "Selangor"
    },
    {
        "Postcode": "43000",
        "Location": "Pangsapuri Pearl Avenue",
        "Post_Office": "Kajang",
        "State": "Selangor"
    },
    {
        "Postcode": "43000",
        "Location": "Sutera Pines",
        "Post_Office": "Kajang",
        "State": "Selangor"
    },
    {
        "Postcode": "43000",
        "Location": "Taman Jenaris",
        "Post_Office": "Kajang",
        "State": "Selangor"
    },
    {
        "Postcode": "43000",
        "Location": "Taman Putra ",
        "Post_Office": "Kajang",
        "State": "Selangor"
    },
    {
        "Postcode": "43000",
        "Location": "Taman Sakap",
        "Post_Office": "Kajang",
        "State": "Selangor"
    },
    {
        "Postcode": "43000",
        "Location": "Taman Sri Kajang",
        "Post_Office": "Kajang",
        "State": "Selangor"
    },
    {
        "Postcode": "43000",
        "Location": "Taman Sri Langat",
        "Post_Office": "Kajang",
        "State": "Selangor"
    },
    {
        "Postcode": "43000",
        "Location": "Taman Sri Langat 2",
        "Post_Office": "Kajang",
        "State": "Selangor"
    },
    {
        "Postcode": "43000",
        "Location": "Taman Sri Ramal",
        "Post_Office": "Kajang",
        "State": "Selangor"
    },
    {
        "Postcode": "43000",
        "Location": "Taman Taming Setia",
        "Post_Office": "Kajang",
        "State": "Selangor"
    },
    {
        "Postcode": "43000",
        "Location": "Kajang 2",
        "Post_Office": "Kajang",
        "State": "Selangor"
    },
    {
        "Postcode": "43000",
        "Location": "Taman Ramal Klasik",
        "Post_Office": "Kajang",
        "State": "Selangor"
    },
    {
        "Postcode": "43000",
        "Location": "Jalan Serimbun 1",
        "Post_Office": "Kajang",
        "State": "Selangor"
    },
    {
        "Postcode": "43000",
        "Location": "Taman Serimbun",
        "Post_Office": "Kajang",
        "State": "Selangor"
    },
    {
        "Postcode": "43000",
        "Location": "Kawasan Perniagaan Nilam",
        "Post_Office": "Kajang",
        "State": "Selangor"
    },
    {
        "Postcode": "43000",
        "Location": "Ladang Bangi",
        "Post_Office": "Kajang",
        "State": "Selangor"
    },
    {
        "Postcode": "43000",
        "Location": "Ladang Breamer",
        "Post_Office": "Kajang",
        "State": "Selangor"
    },
    {
        "Postcode": "43000",
        "Location": "Puncak Pinggiran Putra",
        "Post_Office": "Kajang",
        "State": "Selangor"
    },
    {
        "Postcode": "43000",
        "Location": "Pusat Hentian Kajang",
        "Post_Office": "Kajang",
        "State": "Selangor"
    },
    {
        "Postcode": "43000",
        "Location": "Taman Angkasa Indah",
        "Post_Office": "Kajang",
        "State": "Selangor"
    },
    {
        "Postcode": "43000",
        "Location": "Taman Bangi Indah",
        "Post_Office": "Kajang",
        "State": "Selangor"
    },
    {
        "Postcode": "43000",
        "Location": "Taman Bangi Permai",
        "Post_Office": "Kajang",
        "State": "Selangor"
    },
    {
        "Postcode": "43000",
        "Location": "Taman Bangi Ria",
        "Post_Office": "Kajang",
        "State": "Selangor"
    },
    {
        "Postcode": "43000",
        "Location": "Taman Bangi Villa",
        "Post_Office": "Kajang",
        "State": "Selangor"
    },
    {
        "Postcode": "43000",
        "Location": "Taman Berlian",
        "Post_Office": "Kajang",
        "State": "Selangor"
    },
    {
        "Postcode": "43000",
        "Location": "Taman Bidara",
        "Post_Office": "Kajang",
        "State": "Selangor"
    },
    {
        "Postcode": "43000",
        "Location": "Taman Bukit Kenangan",
        "Post_Office": "Kajang",
        "State": "Selangor"
    },
    {
        "Postcode": "43000",
        "Location": "Taman Bukit Mutiara",
        "Post_Office": "Kajang",
        "State": "Selangor"
    },
    {
        "Postcode": "43000",
        "Location": "Taman Bukit Ria",
        "Post_Office": "Kajang",
        "State": "Selangor"
    },
    {
        "Postcode": "43000",
        "Location": "Taman Cahaya Suria",
        "Post_Office": "Kajang",
        "State": "Selangor"
    },
    {
        "Postcode": "43000",
        "Location": "Taman Cheras Prima",
        "Post_Office": "Kajang",
        "State": "Selangor"
    },
    {
        "Postcode": "43000",
        "Location": "Taman Damai Indah",
        "Post_Office": "Kajang",
        "State": "Selangor"
    },
    {
        "Postcode": "43000",
        "Location": "Taman Desa Baginda",
        "Post_Office": "Kajang",
        "State": "Selangor"
    },
    {
        "Postcode": "43000",
        "Location": "Taman Desa Dahlia",
        "Post_Office": "Kajang",
        "State": "Selangor"
    },
    {
        "Postcode": "43000",
        "Location": "Taman Desa Damai",
        "Post_Office": "Kajang",
        "State": "Selangor"
    },
    {
        "Postcode": "43000",
        "Location": "Taman Desa Impian",
        "Post_Office": "Kajang",
        "State": "Selangor"
    },
    {
        "Postcode": "43000",
        "Location": "Taman Desa Mekar",
        "Post_Office": "Kajang",
        "State": "Selangor"
    },
    {
        "Postcode": "43000",
        "Location": "Taman Desa Sentosa 2",
        "Post_Office": "Kajang",
        "State": "Selangor"
    },
    {
        "Postcode": "43000",
        "Location": "Taman Desa Sri Melor",
        "Post_Office": "Kajang",
        "State": "Selangor"
    },
    {
        "Postcode": "43000",
        "Location": "Taman Desa Utama",
        "Post_Office": "Kajang",
        "State": "Selangor"
    },
    {
        "Postcode": "43000",
        "Location": "Taman Ikhlas",
        "Post_Office": "Kajang",
        "State": "Selangor"
    },
    {
        "Postcode": "43000",
        "Location": "Taman Impian Mekar",
        "Post_Office": "Kajang",
        "State": "Selangor"
    },
    {
        "Postcode": "43000",
        "Location": "Taman Impian Putra",
        "Post_Office": "Kajang",
        "State": "Selangor"
    },
    {
        "Postcode": "43000",
        "Location": "Taman Impian Sejati",
        "Post_Office": "Kajang",
        "State": "Selangor"
    },
    {
        "Postcode": "43000",
        "Location": "Taman Jelita",
        "Post_Office": "Kajang",
        "State": "Selangor"
    },
    {
        "Postcode": "43000",
        "Location": "Taman Jelok Indah",
        "Post_Office": "Kajang",
        "State": "Selangor"
    },
    {
        "Postcode": "43000",
        "Location": "Taman Jernang Jaya",
        "Post_Office": "Kajang",
        "State": "Selangor"
    },
    {
        "Postcode": "43000",
        "Location": "Taman Kajang Mulia",
        "Post_Office": "Kajang",
        "State": "Selangor"
    },
    {
        "Postcode": "43000",
        "Location": "Taman Kajang Prima",
        "Post_Office": "Kajang",
        "State": "Selangor"
    },
    {
        "Postcode": "43000",
        "Location": "Taman Kajang Sentral",
        "Post_Office": "Kajang",
        "State": "Selangor"
    },
    {
        "Postcode": "43000",
        "Location": "Taman Kasih",
        "Post_Office": "Kajang",
        "State": "Selangor"
    },
    {
        "Postcode": "43000",
        "Location": "Taman Koperatif Lln",
        "Post_Office": "Kajang",
        "State": "Selangor"
    },
    {
        "Postcode": "43000",
        "Location": "Taman Kurnia Indah",
        "Post_Office": "Kajang",
        "State": "Selangor"
    },
    {
        "Postcode": "43000",
        "Location": "Taman Langat Jaya",
        "Post_Office": "Kajang",
        "State": "Selangor"
    },
    {
        "Postcode": "43000",
        "Location": "Taman Lingkaran Nur",
        "Post_Office": "Kajang",
        "State": "Selangor"
    },
    {
        "Postcode": "43000",
        "Location": "Taman Majlis Jaya",
        "Post_Office": "Kajang",
        "State": "Selangor"
    },
    {
        "Postcode": "43000",
        "Location": "Taman Mewah",
        "Post_Office": "Kajang",
        "State": "Selangor"
    },
    {
        "Postcode": "43000",
        "Location": "Taman Mewah Indah",
        "Post_Office": "Kajang",
        "State": "Selangor"
    },
    {
        "Postcode": "43000",
        "Location": "Taman Pasir Emas",
        "Post_Office": "Kajang",
        "State": "Selangor"
    },
    {
        "Postcode": "43000",
        "Location": "Taman Perindustrian Kajang",
        "Post_Office": "Kajang",
        "State": "Selangor"
    },
    {
        "Postcode": "43000",
        "Location": "Taman Pesona Mekar",
        "Post_Office": "Kajang",
        "State": "Selangor"
    },
    {
        "Postcode": "43000",
        "Location": "Taman Pinggiran Saujana",
        "Post_Office": "Kajang",
        "State": "Selangor"
    },
    {
        "Postcode": "43000",
        "Location": "Taman Pinggiran Sekamat",
        "Post_Office": "Kajang",
        "State": "Selangor"
    },
    {
        "Postcode": "43000",
        "Location": "Taman Ramal Desa",
        "Post_Office": "Kajang",
        "State": "Selangor"
    },
    {
        "Postcode": "43000",
        "Location": "Taman Ramal Indah",
        "Post_Office": "Kajang",
        "State": "Selangor"
    },
    {
        "Postcode": "43000",
        "Location": "Taman Ramal Ros",
        "Post_Office": "Kajang",
        "State": "Selangor"
    },
    {
        "Postcode": "43000",
        "Location": "Taman Sekamat Jaya",
        "Post_Office": "Kajang",
        "State": "Selangor"
    },
    {
        "Postcode": "43000",
        "Location": "Taman Selamat",
        "Post_Office": "Kajang",
        "State": "Selangor"
    },
    {
        "Postcode": "43000",
        "Location": "Taman Semarak",
        "Post_Office": "Kajang",
        "State": "Selangor"
    },
    {
        "Postcode": "43000",
        "Location": "Taman Sentosa",
        "Post_Office": "Kajang",
        "State": "Selangor"
    },
    {
        "Postcode": "43000",
        "Location": "Taman Sentosa Mekar",
        "Post_Office": "Kajang",
        "State": "Selangor"
    },
    {
        "Postcode": "43000",
        "Location": "Taman Sentosa Villa",
        "Post_Office": "Kajang",
        "State": "Selangor"
    },
    {
        "Postcode": "43000",
        "Location": "Taman Seri Bangi 2",
        "Post_Office": "Kajang",
        "State": "Selangor"
    },
    {
        "Postcode": "43000",
        "Location": "Taman Seri Damai",
        "Post_Office": "Kajang",
        "State": "Selangor"
    },
    {
        "Postcode": "43000",
        "Location": "Taman Seri Emas",
        "Post_Office": "Kajang",
        "State": "Selangor"
    },
    {
        "Postcode": "43000",
        "Location": "Taman Seri Mewah",
        "Post_Office": "Kajang",
        "State": "Selangor"
    },
    {
        "Postcode": "43000",
        "Location": "Taman Setia Impian",
        "Post_Office": "Kajang",
        "State": "Selangor"
    },
    {
        "Postcode": "43000",
        "Location": "Taman Sri Melor",
        "Post_Office": "Kajang",
        "State": "Selangor"
    },
    {
        "Postcode": "43000",
        "Location": "Taman Sri Sungai Chua",
        "Post_Office": "Kajang",
        "State": "Selangor"
    },
    {
        "Postcode": "43000",
        "Location": "Taman Sutera",
        "Post_Office": "Kajang",
        "State": "Selangor"
    },
    {
        "Postcode": "43000",
        "Location": "Taman Taming Impian",
        "Post_Office": "Kajang",
        "State": "Selangor"
    },
    {
        "Postcode": "43000",
        "Location": "Taman Teratai Idaman",
        "Post_Office": "Kajang",
        "State": "Selangor"
    },
    {
        "Postcode": "43000",
        "Location": "Taman Tropika",
        "Post_Office": "Kajang",
        "State": "Selangor"
    },
    {
        "Postcode": "43000",
        "Location": "Taman Ttdi Grove",
        "Post_Office": "Kajang",
        "State": "Selangor"
    },
    {
        "Postcode": "43000",
        "Location": "Taman Villa Height",
        "Post_Office": "Kajang",
        "State": "Selangor"
    },
    {
        "Postcode": "43000",
        "Location": "Taman Wira Jaya",
        "Post_Office": "Kajang",
        "State": "Selangor"
    },
    {
        "Postcode": "43000",
        "Location": "Taman Seri Merab",
        "Post_Office": "Kajang",
        "State": "Selangor"
    },
    {
        "Postcode": "43000",
        "Location": "Jalan Kayang Villa",
        "Post_Office": "Kajang",
        "State": "Selangor"
    },
    {
        "Postcode": "43000",
        "Location": "Residensi Armani Sungai Long",
        "Post_Office": "Kajang",
        "State": "Selangor"
    },
    {
        "Postcode": "43000",
        "Location": "5 Residency Ioi Resort",
        "Post_Office": "Kajang",
        "State": "Selangor"
    },
    {
        "Postcode": "43000",
        "Location": "Alam Sari",
        "Post_Office": "Kajang",
        "State": "Selangor"
    },
    {
        "Postcode": "43000",
        "Location": "Bandar Baru Saujana Impian",
        "Post_Office": "Kajang",
        "State": "Selangor"
    },
    {
        "Postcode": "43000",
        "Location": "Bandar Bukit Mahkota ",
        "Post_Office": "Kajang",
        "State": "Selangor"
    },
    {
        "Postcode": "43000",
        "Location": "Bandar Sungai Long",
        "Post_Office": "Kajang",
        "State": "Selangor"
    },
    {
        "Postcode": "43000",
        "Location": "Bangi (Pekan Asal)",
        "Post_Office": "Kajang",
        "State": "Selangor"
    },
    {
        "Postcode": "43000",
        "Location": "Bangi Lama",
        "Post_Office": "Kajang",
        "State": "Selangor"
    },
    {
        "Postcode": "43000",
        "Location": "Country Heights",
        "Post_Office": "Kajang",
        "State": "Selangor"
    },
    {
        "Postcode": "43000",
        "Location": "Desa Budiman",
        "Post_Office": "Kajang",
        "State": "Selangor"
    },
    {
        "Postcode": "43000",
        "Location": "Desa Bukit Sentosa",
        "Post_Office": "Kajang",
        "State": "Selangor"
    },
    {
        "Postcode": "43000",
        "Location": "Desa Saujana Putra",
        "Post_Office": "Kajang",
        "State": "Selangor"
    },
    {
        "Postcode": "43000",
        "Location": "Desa Villa Merab",
        "Post_Office": "Kajang",
        "State": "Selangor"
    },
    {
        "Postcode": "43000",
        "Location": "Jade Hills",
        "Post_Office": "Kajang",
        "State": "Selangor"
    },
    {
        "Postcode": "43000",
        "Location": "Jalan Cheras (Batu 11 - 11 1/2)",
        "Post_Office": "Kajang",
        "State": "Selangor"
    },
    {
        "Postcode": "43000",
        "Location": "Jalan Ilmiah",
        "Post_Office": "Kajang",
        "State": "Selangor"
    },
    {
        "Postcode": "43000",
        "Location": "Jalan Kajang - Semenyih ",
        "Post_Office": "Kajang",
        "State": "Selangor"
    },
    {
        "Postcode": "43000",
        "Location": "Jalan Reko",
        "Post_Office": "Kajang",
        "State": "Selangor"
    },
    {
        "Postcode": "43000",
        "Location": "Jalan Sungai Chua",
        "Post_Office": "Kajang",
        "State": "Selangor"
    },
    {
        "Postcode": "43000",
        "Location": "Jalan Villa Merab 1",
        "Post_Office": "Kajang",
        "State": "Selangor"
    },
    {
        "Postcode": "43000",
        "Location": "Kajang",
        "Post_Office": "Kajang",
        "State": "Selangor"
    },
    {
        "Postcode": "43000",
        "Location": "Kajang (Km 19 - 24)",
        "Post_Office": "Kajang",
        "State": "Selangor"
    },
    {
        "Postcode": "43000",
        "Location": "Kajang Perdana",
        "Post_Office": "Kajang",
        "State": "Selangor"
    },
    {
        "Postcode": "43000",
        "Location": "Kampung Asrah",
        "Post_Office": "Kajang",
        "State": "Selangor"
    },
    {
        "Postcode": "43000",
        "Location": "Kampung Ayer Itam",
        "Post_Office": "Kajang",
        "State": "Selangor"
    },
    {
        "Postcode": "43000",
        "Location": "Kampung Baru Cina",
        "Post_Office": "Kajang",
        "State": "Selangor"
    },
    {
        "Postcode": "43000",
        "Location": "Kampung Batu 5 (Bangi)",
        "Post_Office": "Kajang",
        "State": "Selangor"
    },
    {
        "Postcode": "43000",
        "Location": "Kampung Bukit Angkat",
        "Post_Office": "Kajang",
        "State": "Selangor"
    },
    {
        "Postcode": "43000",
        "Location": "Kampung Bukit Dukong",
        "Post_Office": "Kajang",
        "State": "Selangor"
    },
    {
        "Postcode": "43000",
        "Location": "Kampung Dato Abu Bakar",
        "Post_Office": "Kajang",
        "State": "Selangor"
    },
    {
        "Postcode": "43000",
        "Location": "Kampung Desa Mewah",
        "Post_Office": "Kajang",
        "State": "Selangor"
    },
    {
        "Postcode": "43000",
        "Location": "Kampung Jenang",
        "Post_Office": "Kajang",
        "State": "Selangor"
    },
    {
        "Postcode": "43000",
        "Location": "Kampung Manikam",
        "Post_Office": "Kajang",
        "State": "Selangor"
    },
    {
        "Postcode": "43000",
        "Location": "Kampung Masjid",
        "Post_Office": "Kajang",
        "State": "Selangor"
    },
    {
        "Postcode": "43000",
        "Location": "Kampung Paya",
        "Post_Office": "Kajang",
        "State": "Selangor"
    },
    {
        "Postcode": "43000",
        "Location": "Kampung Pindah",
        "Post_Office": "Kajang",
        "State": "Selangor"
    },
    {
        "Postcode": "43000",
        "Location": "Kampung Simpang Balak",
        "Post_Office": "Kajang",
        "State": "Selangor"
    },
    {
        "Postcode": "43000",
        "Location": "Kampung Sungai Ayer Jernih",
        "Post_Office": "Kajang",
        "State": "Selangor"
    },
    {
        "Postcode": "43000",
        "Location": "Kampung Sungai Chuah",
        "Post_Office": "Kajang",
        "State": "Selangor"
    },
    {
        "Postcode": "43000",
        "Location": "Kampung Sungai Jelok",
        "Post_Office": "Kajang",
        "State": "Selangor"
    },
    {
        "Postcode": "43000",
        "Location": "Kampung Sungai Kantan",
        "Post_Office": "Kajang",
        "State": "Selangor"
    },
    {
        "Postcode": "43000",
        "Location": "Kampung Sungai Kantan Dalam",
        "Post_Office": "Kajang",
        "State": "Selangor"
    },
    {
        "Postcode": "43000",
        "Location": "Kampung Sungai Merab",
        "Post_Office": "Kajang",
        "State": "Selangor"
    },
    {
        "Postcode": "43000",
        "Location": "Kampung Sungai Merab Hulu",
        "Post_Office": "Kajang",
        "State": "Selangor"
    },
    {
        "Postcode": "43000",
        "Location": "Kampung Sungai Ramal Baru",
        "Post_Office": "Kajang",
        "State": "Selangor"
    },
    {
        "Postcode": "43000",
        "Location": "Kampung Sungai Ramal Dalam",
        "Post_Office": "Kajang",
        "State": "Selangor"
    },
    {
        "Postcode": "43000",
        "Location": "Kampung Sungai Ramal Luar",
        "Post_Office": "Kajang",
        "State": "Selangor"
    },
    {
        "Postcode": "43000",
        "Location": "Kampung Sungai Sekamat",
        "Post_Office": "Kajang",
        "State": "Selangor"
    },
    {
        "Postcode": "43000",
        "Location": "Kampung Sungai Tangkas",
        "Post_Office": "Kajang",
        "State": "Selangor"
    },
    {
        "Postcode": "43000",
        "Location": "Kampung Teras Jernang",
        "Post_Office": "Kajang",
        "State": "Selangor"
    },
    {
        "Postcode": "43000",
        "Location": "Ladang Broom",
        "Post_Office": "Kajang",
        "State": "Selangor"
    },
    {
        "Postcode": "43000",
        "Location": "Ladang Bukit Tunggu",
        "Post_Office": "Kajang",
        "State": "Selangor"
    },
    {
        "Postcode": "43000",
        "Location": "Ladang Connomare",
        "Post_Office": "Kajang",
        "State": "Selangor"
    },
    {
        "Postcode": "43000",
        "Location": "Ladang Sungai Tangkas",
        "Post_Office": "Kajang",
        "State": "Selangor"
    },
    {
        "Postcode": "43000",
        "Location": "Pusat Perniagaan Sungai Jelok ",
        "Post_Office": "Kajang",
        "State": "Selangor"
    },
    {
        "Postcode": "43000",
        "Location": "Rkt Limau Manis",
        "Post_Office": "Kajang",
        "State": "Selangor"
    },
    {
        "Postcode": "43000",
        "Location": "Rkt Sungai Merab",
        "Post_Office": "Kajang",
        "State": "Selangor"
    },
    {
        "Postcode": "43000",
        "Location": "Saujana Impian",
        "Post_Office": "Kajang",
        "State": "Selangor"
    },
    {
        "Postcode": "43000",
        "Location": "Sungai Long",
        "Post_Office": "Kajang",
        "State": "Selangor"
    },
    {
        "Postcode": "43000",
        "Location": "Sungai Merab",
        "Post_Office": "Kajang",
        "State": "Selangor"
    },
    {
        "Postcode": "43000",
        "Location": "Taman Air Hitam Permai",
        "Post_Office": "Kajang",
        "State": "Selangor"
    },
    {
        "Postcode": "43000",
        "Location": "Taman Angsana",
        "Post_Office": "Kajang",
        "State": "Selangor"
    },
    {
        "Postcode": "43000",
        "Location": "Taman Asa Jaya",
        "Post_Office": "Kajang",
        "State": "Selangor"
    },
    {
        "Postcode": "43000",
        "Location": "Taman Bangi",
        "Post_Office": "Kajang",
        "State": "Selangor"
    },
    {
        "Postcode": "43000",
        "Location": "Taman Berjaya Baru ",
        "Post_Office": "Kajang",
        "State": "Selangor"
    },
    {
        "Postcode": "43000",
        "Location": "Taman Billion",
        "Post_Office": "Kajang",
        "State": "Selangor"
    },
    {
        "Postcode": "43000",
        "Location": "Taman Bukit",
        "Post_Office": "Kajang",
        "State": "Selangor"
    },
    {
        "Postcode": "43000",
        "Location": "Taman Bukit Cantik",
        "Post_Office": "Kajang",
        "State": "Selangor"
    },
    {
        "Postcode": "43000",
        "Location": "Taman Bukit Kajang Baru",
        "Post_Office": "Kajang",
        "State": "Selangor"
    },
    {
        "Postcode": "43000",
        "Location": "Taman Bukit Mewah",
        "Post_Office": "Kajang",
        "State": "Selangor"
    },
    {
        "Postcode": "43000",
        "Location": "Taman Bukit Palma",
        "Post_Office": "Kajang",
        "State": "Selangor"
    },
    {
        "Postcode": "43000",
        "Location": "Taman Bukit Ros",
        "Post_Office": "Kajang",
        "State": "Selangor"
    },
    {
        "Postcode": "43000",
        "Location": "Taman Cahaya",
        "Post_Office": "Kajang",
        "State": "Selangor"
    },
    {
        "Postcode": "43000",
        "Location": "Taman Cendana",
        "Post_Office": "Kajang",
        "State": "Selangor"
    },
    {
        "Postcode": "43000",
        "Location": "Taman Dahlia",
        "Post_Office": "Kajang",
        "State": "Selangor"
    },
    {
        "Postcode": "43000",
        "Location": "Taman Damai",
        "Post_Office": "Kajang",
        "State": "Selangor"
    },
    {
        "Postcode": "43000",
        "Location": "Taman Desa Anjung Putra",
        "Post_Office": "Kajang",
        "State": "Selangor"
    },
    {
        "Postcode": "43000",
        "Location": "Taman Desa Baru",
        "Post_Office": "Kajang",
        "State": "Selangor"
    },
    {
        "Postcode": "43000",
        "Location": "Taman Desa Baru 1",
        "Post_Office": "Kajang",
        "State": "Selangor"
    },
    {
        "Postcode": "43000",
        "Location": "Taman Desa Bunga Raya",
        "Post_Office": "Kajang",
        "State": "Selangor"
    },
    {
        "Postcode": "43000",
        "Location": "Taman Desa Kiambang",
        "Post_Office": "Kajang",
        "State": "Selangor"
    },
    {
        "Postcode": "43000",
        "Location": "Taman Desa Saujana",
        "Post_Office": "Kajang",
        "State": "Selangor"
    },
    {
        "Postcode": "43000",
        "Location": "Taman Desa Seroja",
        "Post_Office": "Kajang",
        "State": "Selangor"
    },
    {
        "Postcode": "43000",
        "Location": "Taman Impian Murni",
        "Post_Office": "Kajang",
        "State": "Selangor"
    },
    {
        "Postcode": "43000",
        "Location": "Taman Jasmin",
        "Post_Office": "Kajang",
        "State": "Selangor"
    },
    {
        "Postcode": "43000",
        "Location": "Taman Jelok Ria",
        "Post_Office": "Kajang",
        "State": "Selangor"
    },
    {
        "Postcode": "43000",
        "Location": "Taman Kajang",
        "Post_Office": "Kajang",
        "State": "Selangor"
    },
    {
        "Postcode": "43000",
        "Location": "Taman Kajang Baru",
        "Post_Office": "Kajang",
        "State": "Selangor"
    },
    {
        "Postcode": "43000",
        "Location": "Taman Kajang Indah",
        "Post_Office": "Kajang",
        "State": "Selangor"
    },
    {
        "Postcode": "43000",
        "Location": "Taman Kajang Jaya",
        "Post_Office": "Kajang",
        "State": "Selangor"
    },
    {
        "Postcode": "43000",
        "Location": "Taman Kajang Mewah",
        "Post_Office": "Kajang",
        "State": "Selangor"
    },
    {
        "Postcode": "43000",
        "Location": "Taman Kajang Raya",
        "Post_Office": "Kajang",
        "State": "Selangor"
    },
    {
        "Postcode": "43000",
        "Location": "Taman Kajang Ria",
        "Post_Office": "Kajang",
        "State": "Selangor"
    },
    {
        "Postcode": "43000",
        "Location": "Taman Kajang Utama",
        "Post_Office": "Kajang",
        "State": "Selangor"
    },
    {
        "Postcode": "43000",
        "Location": "Taman Kantan Permai",
        "Post_Office": "Kajang",
        "State": "Selangor"
    },
    {
        "Postcode": "43000",
        "Location": "Taman Kaya",
        "Post_Office": "Kajang",
        "State": "Selangor"
    },
    {
        "Postcode": "43000",
        "Location": "Taman Kekwa",
        "Post_Office": "Kajang",
        "State": "Selangor"
    },
    {
        "Postcode": "43000",
        "Location": "Taman Kenari",
        "Post_Office": "Kajang",
        "State": "Selangor"
    },
    {
        "Postcode": "43000",
        "Location": "Taman Koperasi Cuepacs",
        "Post_Office": "Kajang",
        "State": "Selangor"
    },
    {
        "Postcode": "43000",
        "Location": "Taman Koperatif (Klln)",
        "Post_Office": "Kajang",
        "State": "Selangor"
    },
    {
        "Postcode": "43000",
        "Location": "Taman Lam Soon Huat",
        "Post_Office": "Kajang",
        "State": "Selangor"
    },
    {
        "Postcode": "43000",
        "Location": "Taman Lee Yen Kee",
        "Post_Office": "Kajang",
        "State": "Selangor"
    },
    {
        "Postcode": "43000",
        "Location": "Taman Mahkota",
        "Post_Office": "Kajang",
        "State": "Selangor"
    },
    {
        "Postcode": "43000",
        "Location": "Taman Maju",
        "Post_Office": "Kajang",
        "State": "Selangor"
    },
    {
        "Postcode": "43000",
        "Location": "Taman Maju 1",
        "Post_Office": "Kajang",
        "State": "Selangor"
    },
    {
        "Postcode": "43000",
        "Location": "Taman Mega",
        "Post_Office": "Kajang",
        "State": "Selangor"
    },
    {
        "Postcode": "43000",
        "Location": "Taman Merab Pesona",
        "Post_Office": "Kajang",
        "State": "Selangor"
    },
    {
        "Postcode": "43000",
        "Location": "Taman Merlin",
        "Post_Office": "Kajang",
        "State": "Selangor"
    },
    {
        "Postcode": "43000",
        "Location": "Taman Mesra Tambahan",
        "Post_Office": "Kajang",
        "State": "Selangor"
    },
    {
        "Postcode": "43000",
        "Location": "Taman Muhibbah",
        "Post_Office": "Kajang",
        "State": "Selangor"
    },
    {
        "Postcode": "43000",
        "Location": "Taman Padang Tembak",
        "Post_Office": "Kajang",
        "State": "Selangor"
    },
    {
        "Postcode": "43000",
        "Location": "Taman Permai",
        "Post_Office": "Kajang",
        "State": "Selangor"
    },
    {
        "Postcode": "43000",
        "Location": "Taman Pinggiran",
        "Post_Office": "Kajang",
        "State": "Selangor"
    },
    {
        "Postcode": "43000",
        "Location": "Taman Prima Saujana",
        "Post_Office": "Kajang",
        "State": "Selangor"
    },
    {
        "Postcode": "43000",
        "Location": "Taman Puncak Saujana",
        "Post_Office": "Kajang",
        "State": "Selangor"
    },
    {
        "Postcode": "43000",
        "Location": "Taman Rakan",
        "Post_Office": "Kajang",
        "State": "Selangor"
    },
    {
        "Postcode": "43000",
        "Location": "Taman Ramal Suria",
        "Post_Office": "Kajang",
        "State": "Selangor"
    },
    {
        "Postcode": "43000",
        "Location": "Taman Raman Indah",
        "Post_Office": "Kajang",
        "State": "Selangor"
    },
    {
        "Postcode": "43000",
        "Location": "Taman Reko Jaya",
        "Post_Office": "Kajang",
        "State": "Selangor"
    },
    {
        "Postcode": "43000",
        "Location": "Taman Restu",
        "Post_Office": "Kajang",
        "State": "Selangor"
    },
    {
        "Postcode": "43000",
        "Location": "Taman Saga",
        "Post_Office": "Kajang",
        "State": "Selangor"
    },
    {
        "Postcode": "43000",
        "Location": "Taman Saga Emas",
        "Post_Office": "Kajang",
        "State": "Selangor"
    },
    {
        "Postcode": "43000",
        "Location": "Taman Saujana Damai",
        "Post_Office": "Kajang",
        "State": "Selangor"
    },
    {
        "Postcode": "43000",
        "Location": "Taman Sekamat",
        "Post_Office": "Kajang",
        "State": "Selangor"
    },
    {
        "Postcode": "43000",
        "Location": "Taman Sekamat Indah",
        "Post_Office": "Kajang",
        "State": "Selangor"
    },
    {
        "Postcode": "43000",
        "Location": "Taman Sepakat Indah 2",
        "Post_Office": "Kajang",
        "State": "Selangor"
    },
    {
        "Postcode": "43000",
        "Location": "Taman Seri Bukit",
        "Post_Office": "Kajang",
        "State": "Selangor"
    },
    {
        "Postcode": "43000",
        "Location": "Taman Seri Jambu",
        "Post_Office": "Kajang",
        "State": "Selangor"
    },
    {
        "Postcode": "43000",
        "Location": "Taman Seri Kantan",
        "Post_Office": "Kajang",
        "State": "Selangor"
    },
    {
        "Postcode": "43000",
        "Location": "Taman Seri Kota",
        "Post_Office": "Kajang",
        "State": "Selangor"
    },
    {
        "Postcode": "43000",
        "Location": "Taman Seri Reko",
        "Post_Office": "Kajang",
        "State": "Selangor"
    },
    {
        "Postcode": "43000",
        "Location": "Taman Seri Saga",
        "Post_Office": "Kajang",
        "State": "Selangor"
    },
    {
        "Postcode": "43000",
        "Location": "Taman Seri Sungai Long",
        "Post_Office": "Kajang",
        "State": "Selangor"
    },
    {
        "Postcode": "43000",
        "Location": "Taman Seroja",
        "Post_Office": "Kajang",
        "State": "Selangor"
    },
    {
        "Postcode": "43000",
        "Location": "Taman Setia",
        "Post_Office": "Kajang",
        "State": "Selangor"
    },
    {
        "Postcode": "43000",
        "Location": "Taman Sri Intan",
        "Post_Office": "Kajang",
        "State": "Selangor"
    },
    {
        "Postcode": "43000",
        "Location": "Taman Sungai Chua",
        "Post_Office": "Kajang",
        "State": "Selangor"
    },
    {
        "Postcode": "43000",
        "Location": "Taman Sungai Jelok",
        "Post_Office": "Kajang",
        "State": "Selangor"
    },
    {
        "Postcode": "43000",
        "Location": "Taman Sungai Mas",
        "Post_Office": "Kajang",
        "State": "Selangor"
    },
    {
        "Postcode": "43000",
        "Location": "Taman Taming Indah",
        "Post_Office": "Kajang",
        "State": "Selangor"
    },
    {
        "Postcode": "43000",
        "Location": "Taman Tenaga",
        "Post_Office": "Kajang",
        "State": "Selangor"
    },
    {
        "Postcode": "43000",
        "Location": "Taman Universiti",
        "Post_Office": "Kajang",
        "State": "Selangor"
    },
    {
        "Postcode": "43000",
        "Location": "Taman Vista Emas",
        "Post_Office": "Kajang",
        "State": "Selangor"
    },
    {
        "Postcode": "43000",
        "Location": "Taman West Country",
        "Post_Office": "Kajang",
        "State": "Selangor"
    },
    {
        "Postcode": "43000",
        "Location": "Taman Zamrud",
        "Post_Office": "Kajang",
        "State": "Selangor"
    },
    {
        "Postcode": "43000",
        "Location": "West Estate",
        "Post_Office": "Kajang",
        "State": "Selangor"
    },
    {
        "Postcode": "43000",
        "Location": "Putri Palma Condominium",
        "Post_Office": "Kajang",
        "State": "Selangor"
    },
    {
        "Postcode": "43000",
        "Location": "Intitut Kumpulan Wang Simpanan Pekerja (Kwsp)",
        "Post_Office": "Kajang",
        "State": "Selangor"
    },
    {
        "Postcode": "43000",
        "Location": "Jalan Bukit Impiana 2",
        "Post_Office": "Kajang",
        "State": "Selangor"
    },
    {
        "Postcode": "43000",
        "Location": "Jalan Damai Mewah 1A",
        "Post_Office": "Kajang",
        "State": "Selangor"
    },
    {
        "Postcode": "43000",
        "Location": "Persiaran Kwsp",
        "Post_Office": "Kajang",
        "State": "Selangor"
    },
    {
        "Postcode": "43000",
        "Location": "Taman Bukit Impiana",
        "Post_Office": "Kajang",
        "State": "Selangor"
    },
    {
        "Postcode": "43000",
        "Location": "Taman Damai Mewah",
        "Post_Office": "Kajang",
        "State": "Selangor"
    },
    {
        "Postcode": "43000",
        "Location": "Jalan Ba/3",
        "Post_Office": "Kajang",
        "State": "Selangor"
    },
    {
        "Postcode": "43000",
        "Location": "Jalan Bukit Permai 1",
        "Post_Office": "Kajang",
        "State": "Selangor"
    },
    {
        "Postcode": "43000",
        "Location": "Jalan Impian Sejati 1",
        "Post_Office": "Kajang",
        "State": "Selangor"
    },
    {
        "Postcode": "43000",
        "Location": "Jalan Jelok Impian 2",
        "Post_Office": "Kajang",
        "State": "Selangor"
    },
    {
        "Postcode": "43000",
        "Location": "Jalan Wira Heights 2",
        "Post_Office": "Kajang",
        "State": "Selangor"
    },
    {
        "Postcode": "43000",
        "Location": "Kawasan Perindustrian Bukit Angkat",
        "Post_Office": "Kajang",
        "State": "Selangor"
    },
    {
        "Postcode": "43000",
        "Location": "Pangsapuri Camelia, Taman Jelok Impian",
        "Post_Office": "Kajang",
        "State": "Selangor"
    },
    {
        "Postcode": "43000",
        "Location": "Pangsapuri Jelok Impian, Taman Jelok Impian",
        "Post_Office": "Kajang",
        "State": "Selangor"
    },
    {
        "Postcode": "43000",
        "Location": "Persiaran Jelok Impian 2",
        "Post_Office": "Kajang",
        "State": "Selangor"
    },
    {
        "Postcode": "43000",
        "Location": "Taman Bukit Permai",
        "Post_Office": "Kajang",
        "State": "Selangor"
    },
    {
        "Postcode": "43000",
        "Location": "Taman Jelok Impian",
        "Post_Office": "Kajang",
        "State": "Selangor"
    },
    {
        "Postcode": "43000",
        "Location": "Taman Reko Mutiara",
        "Post_Office": "Kajang",
        "State": "Selangor"
    },
    {
        "Postcode": "43000",
        "Location": "Taman Wira Heights",
        "Post_Office": "Kajang",
        "State": "Selangor"
    },
    {
        "Postcode": "43000",
        "Location": "Apartment Mutiara (1, 2)",
        "Post_Office": "Kajang",
        "State": "Selangor"
    },
    {
        "Postcode": "43000",
        "Location": "Jalan Impian Makmur 2",
        "Post_Office": "Kajang",
        "State": "Selangor"
    },
    {
        "Postcode": "43000",
        "Location": "Jalan Mutiara Jaya Utama",
        "Post_Office": "Kajang",
        "State": "Selangor"
    },
    {
        "Postcode": "43000",
        "Location": "Jalan Sl 9A",
        "Post_Office": "Kajang",
        "State": "Selangor"
    },
    {
        "Postcode": "43000",
        "Location": "Jalan Sl 9B",
        "Post_Office": "Kajang",
        "State": "Selangor"
    },
    {
        "Postcode": "43000",
        "Location": "Jalan T.S.J 11",
        "Post_Office": "Kajang",
        "State": "Selangor"
    },
    {
        "Postcode": "43000",
        "Location": "Jalan Tamin Mutiara 1",
        "Post_Office": "Kajang",
        "State": "Selangor"
    },
    {
        "Postcode": "43000",
        "Location": "Pangsapuri Adalia, Taman Bukit Sungai Long",
        "Post_Office": "Kajang",
        "State": "Selangor"
    },
    {
        "Postcode": "43000",
        "Location": "Persiaran Sungai Long 1",
        "Post_Office": "Kajang",
        "State": "Selangor"
    },
    {
        "Postcode": "43000",
        "Location": "Taman Bukit Sungai Long",
        "Post_Office": "Kajang",
        "State": "Selangor"
    },
    {
        "Postcode": "43000",
        "Location": "Taman Seri Jelok",
        "Post_Office": "Kajang",
        "State": "Selangor"
    },
    {
        "Postcode": "43000",
        "Location": "Taman Taming Mutiara",
        "Post_Office": "Kajang",
        "State": "Selangor"
    },
    {
        "Postcode": "43000",
        "Location": "Jalan Fimas 1",
        "Post_Office": "Kajang",
        "State": "Selangor"
    },
    {
        "Postcode": "43000",
        "Location": "Jalan Kajang Perdana 2/18A",
        "Post_Office": "Kajang",
        "State": "Selangor"
    },
    {
        "Postcode": "43000",
        "Location": "Jalan Saga Emas 6",
        "Post_Office": "Kajang",
        "State": "Selangor"
    },
    {
        "Postcode": "43000",
        "Location": "Jalan Saga Emas 8A",
        "Post_Office": "Kajang",
        "State": "Selangor"
    },
    {
        "Postcode": "43000",
        "Location": "Jalan Sungai Chua 1",
        "Post_Office": "Kajang",
        "State": "Selangor"
    },
    {
        "Postcode": "43000",
        "Location": "Jalan Vista Emas 3",
        "Post_Office": "Kajang",
        "State": "Selangor"
    },
    {
        "Postcode": "43000",
        "Location": "Jalan Wira Cheras 2",
        "Post_Office": "Kajang",
        "State": "Selangor"
    },
    {
        "Postcode": "43000",
        "Location": "Kawasan Industri Sungai Chua",
        "Post_Office": "Kajang",
        "State": "Selangor"
    },
    {
        "Postcode": "43000",
        "Location": "Taman Perindustrian Fimas",
        "Post_Office": "Kajang",
        "State": "Selangor"
    },
    {
        "Postcode": "43000",
        "Location": "Taman Puncak Wira Cheras",
        "Post_Office": "Kajang",
        "State": "Selangor"
    },
    {
        "Postcode": "43000",
        "Location": "Taman Saujana Palma",
        "Post_Office": "Kajang",
        "State": "Selangor"
    },
    {
        "Postcode": "43000",
        "Location": "Jalan Desa Rahima",
        "Post_Office": "Kajang",
        "State": "Selangor"
    },
    {
        "Postcode": "43000",
        "Location": "Jalan Persiaran Impian Perdana",
        "Post_Office": "Kajang",
        "State": "Selangor"
    },
    {
        "Postcode": "43000",
        "Location": "Taman Desa Rahima",
        "Post_Office": "Kajang",
        "State": "Selangor"
    },
    {
        "Postcode": "43000",
        "Location": "Jalan Kajang Impian 1/11",
        "Post_Office": "Kajang",
        "State": "Selangor"
    },
    {
        "Postcode": "43000",
        "Location": "Jalan Kajang Impian 1/8",
        "Post_Office": "Kajang",
        "State": "Selangor"
    },
    {
        "Postcode": "43000",
        "Location": "Jalan Pba1",
        "Post_Office": "Kajang",
        "State": "Selangor"
    },
    {
        "Postcode": "43000",
        "Location": "Pangsapuri Green Villa, Persiaran Cemerlang",
        "Post_Office": "Kajang",
        "State": "Selangor"
    },
    {
        "Postcode": "43000",
        "Location": "Persiaran Cemerlang",
        "Post_Office": "Kajang",
        "State": "Selangor"
    },
    {
        "Postcode": "43000",
        "Location": "Desa Mas",
        "Post_Office": "Kajang",
        "State": "Selangor"
    },
    {
        "Postcode": "43000",
        "Location": "Jalan Bukit Suria 2/3A",
        "Post_Office": "Kajang",
        "State": "Selangor"
    },
    {
        "Postcode": "43000",
        "Location": "Jalan Desa Mas",
        "Post_Office": "Kajang",
        "State": "Selangor"
    },
    {
        "Postcode": "43000",
        "Location": "Taman Bukit Suria 2",
        "Post_Office": "Kajang",
        "State": "Selangor"
    },
    {
        "Postcode": "43000",
        "Location": "Taman Desa Budiman",
        "Post_Office": "Kajang",
        "State": "Selangor"
    },
    {
        "Postcode": "43000",
        "Location": "Jalan 2 Bukit Angkat",
        "Post_Office": "Kajang",
        "State": "Selangor"
    },
    {
        "Postcode": "43000",
        "Location": "Jalan Besar Bukit Angkat",
        "Post_Office": "Kajang",
        "State": "Selangor"
    },
    {
        "Postcode": "43000",
        "Location": "Jalan Reko Sentral 1",
        "Post_Office": "Kajang",
        "State": "Selangor"
    },
    {
        "Postcode": "43000",
        "Location": "Jalan Saujana Emas 1",
        "Post_Office": "Kajang",
        "State": "Selangor"
    },
    {
        "Postcode": "43000",
        "Location": "Reko Sentral",
        "Post_Office": "Kajang",
        "State": "Selangor"
    },
    {
        "Postcode": "43000",
        "Location": "Taman Saujana Emas",
        "Post_Office": "Kajang",
        "State": "Selangor"
    },
    {
        "Postcode": "43000",
        "Location": "R\u0026R Sungai Merab",
        "Post_Office": "Kajang",
        "State": "Selangor"
    },
    {
        "Postcode": "43000",
        "Location": "Taman Perindustrian Kidamai 2",
        "Post_Office": "Kajang",
        "State": "Selangor"
    },
    {
        "Postcode": "43000",
        "Location": "Residensi Meriah ",
        "Post_Office": "Kajang",
        "State": "Selangor"
    },
    {
        "Postcode": "43000",
        "Location": "Taman Kirana",
        "Post_Office": "Kajang",
        "State": "Selangor"
    },
    {
        "Postcode": "43000",
        "Location": "Jalan TK 1",
        "Post_Office": "Kajang",
        "State": "Selangor"
    },
    {
        "Postcode": "43000",
        "Location": "Jalan TK 2",
        "Post_Office": "Kajang",
        "State": "Selangor"
    },
    {
        "Postcode": "43000",
        "Location": "Jalan TK 3",
        "Post_Office": "Kajang",
        "State": "Selangor"
    },
    {
        "Postcode": "43000",
        "Location": "Residensi Parkland",
        "Post_Office": "Kajang",
        "State": "Selangor"
    },
    {
        "Postcode": "43000",
        "Location": "Residensi Tiara Vista",
        "Post_Office": "Kajang",
        "State": "Selangor"
    },
    {
        "Postcode": "43000",
        "Location": "Jalan Tiara Vista 1",
        "Post_Office": "Kajang",
        "State": "Selangor"
    },
    {
        "Postcode": "43000",
        "Location": "Jalan Sari Ilmu 1/4",
        "Post_Office": "Kajang",
        "State": "Selangor"
    },
    {
        "Postcode": "43000",
        "Location": "Jalan Sari Ilmu 1/6",
        "Post_Office": "Kajang",
        "State": "Selangor"
    },
    {
        "Postcode": "43000",
        "Location": "Jalan Sari Ilmu 1/7",
        "Post_Office": "Kajang",
        "State": "Selangor"
    },
    {
        "Postcode": "43000",
        "Location": "Jalan Sari Ilmu 1/8",
        "Post_Office": "Kajang",
        "State": "Selangor"
    },
    {
        "Postcode": "43000",
        "Location": "Jalan Sari Ilmu 1/9",
        "Post_Office": "Kajang",
        "State": "Selangor"
    },
    {
        "Postcode": "43000",
        "Location": "Jalan Sari Ilmu 1/10",
        "Post_Office": "Kajang",
        "State": "Selangor"
    },
    {
        "Postcode": "43000",
        "Location": "Jalan Sari Ilmu 1/11",
        "Post_Office": "Kajang",
        "State": "Selangor"
    },
    {
        "Postcode": "43000",
        "Location": "Jalan Setia Emporia",
        "Post_Office": "Kajang",
        "State": "Selangor"
    },
    {
        "Postcode": "43000",
        "Location": "Residensi Jernih",
        "Post_Office": "Kajang",
        "State": "Selangor"
    },
    {
        "Postcode": "43000",
        "Location": "Taman Perindustrian Kidamai",
        "Post_Office": "Kajang",
        "State": "Selangor"
    },
    {
        "Postcode": "43000",
        "Location": "Villa Astana",
        "Post_Office": "Kajang",
        "State": "Selangor"
    },
    {
        "Postcode": "43000",
        "Location": "Bandar Seri Putra",
        "Post_Office": "Kajang",
        "State": "Selangor"
    },
    {
        "Postcode": "43000",
        "Location": "Taman Sri Kenari",
        "Post_Office": "Kajang",
        "State": "Selangor"
    },
    {
        "Postcode": "43000",
        "Location": "Persiaran Jade Hills",
        "Post_Office": "Kajang",
        "State": "Selangor"
    },
    {
        "Postcode": "43000",
        "Location": "Taman 13 Budiman Residensi",
        "Post_Office": "Kajang",
        "State": "Selangor"
    },
    {
        "Postcode": "43000",
        "Location": "Taman Sri Bangi",
        "Post_Office": "Kajang",
        "State": "Selangor"
    },
    {
        "Postcode": "43000",
        "Location": "Taman Sri Jelok",
        "Post_Office": "Kajang",
        "State": "Selangor"
    },
    {
        "Postcode": "43000",
        "Location": "Taman Sri Kantan",
        "Post_Office": "Kajang",
        "State": "Selangor"
    },
    {
        "Postcode": "43000",
        "Location": "Taman Sri Kejora",
        "Post_Office": "Kajang",
        "State": "Selangor"
    },
    {
        "Postcode": "43000",
        "Location": "Taman Sri Minang",
        "Post_Office": "Kajang",
        "State": "Selangor"
    },
    {
        "Postcode": "43000",
        "Location": "Taman Sri Saga",
        "Post_Office": "Kajang",
        "State": "Selangor"
    },
    {
        "Postcode": "43000",
        "Location": "Taman Taming Emas",
        "Post_Office": "Kajang",
        "State": "Selangor"
    },
    {
        "Postcode": "43000",
        "Location": "Goodview Heights",
        "Post_Office": "Kajang",
        "State": "Selangor"
    },
    {
        "Postcode": "43000",
        "Location": "Taman Desa Mas",
        "Post_Office": "Kajang",
        "State": "Selangor"
    },
    {
        "Postcode": "43000",
        "Location": "Taman Nusa Idaman",
        "Post_Office": "Kajang",
        "State": "Selangor"
    },
    {
        "Postcode": "43000",
        "Location": "Kawasan Perindustrian Bukit Angkat 3",
        "Post_Office": "Kajang",
        "State": "Selangor"
    },
    {
        "Postcode": "43000",
        "Location": "Taman Alam Sentosa",
        "Post_Office": "Kajang",
        "State": "Selangor"
    },
    {
        "Postcode": "43000",
        "Location": "Taman Sabha Impian",
        "Post_Office": "Kajang",
        "State": "Selangor"
    },
    {
        "Postcode": "43000",
        "Location": "Taman Saujana Mutiara",
        "Post_Office": "Kajang",
        "State": "Selangor"
    },
    {
        "Postcode": "43000",
        "Location": "Quas Residence",
        "Post_Office": "Kajang",
        "State": "Selangor"
    },
    {
        "Postcode": "43000",
        "Location": "Taman Aman Permai",
        "Post_Office": "Kajang",
        "State": "Selangor"
    },
    {
        "Postcode": "43000",
        "Location": "Taman Kajang Impian",
        "Post_Office": "Kajang",
        "State": "Selangor"
    },
    {
        "Postcode": "43000",
        "Location": "Tropicana Heights",
        "Post_Office": "Kajang",
        "State": "Selangor"
    },
    {
        "Postcode": "43000",
        "Location": "Taman Seri Melor 13",
        "Post_Office": "Kajang",
        "State": "Selangor"
    },
    {
        "Postcode": "43000",
        "Location": "Taman 1080 Residence",
        "Post_Office": "Kajang",
        "State": "Selangor"
    },
    {
        "Postcode": "43000",
        "Location": "Taman Pinggiran Mahkota 1",
        "Post_Office": "Kajang",
        "State": "Selangor"
    },
    {
        "Postcode": "43000",
        "Location": "Wira Height",
        "Post_Office": "Kajang",
        "State": "Selangor"
    },
    {
        "Postcode": "43000",
        "Location": "Bandar Puteri Bangi",
        "Post_Office": "Kajang",
        "State": "Selangor"
    },
    {
        "Postcode": "43000",
        "Location": "Mkh Avenue",
        "Post_Office": "Kajang",
        "State": "Selangor"
    },
    {
        "Postcode": "43000",
        "Location": "Mkh Boulevard",
        "Post_Office": "Kajang",
        "State": "Selangor"
    },
    {
        "Postcode": "43000",
        "Location": "Tiara Imperio Residences",
        "Post_Office": "Kajang",
        "State": "Selangor"
    },
    {
        "Postcode": "43000",
        "Location": "The Ridgeview Residences",
        "Post_Office": "Kajang",
        "State": "Selangor "
    },
    {
        "Postcode": "43000",
        "Location": "Taman Permata",
        "Post_Office": "Kajang",
        "State": "Selangor"
    },
    {
        "Postcode": "43000",
        "Location": "Taman Bukit Meringin",
        "Post_Office": "Kajang",
        "State": "Selangor"
    },
    {
        "Postcode": "43000",
        "Location": "Taman Kajang Perdana",
        "Post_Office": "Kajang",
        "State": "Selangor"
    },
    {
        "Postcode": "43000",
        "Location": "Keruing Residen",
        "Post_Office": "Kajang",
        "State": "Selangor"
    },
    {
        "Postcode": "43000",
        "Location": "Kawasan Perindustrian Asta",
        "Post_Office": "Kajang",
        "State": "Selangor"
    },
    {
        "Postcode": "43000",
        "Location": "Landmark Residence 2",
        "Post_Office": "Kajang",
        "State": "Selangor"
    },
    {
        "Postcode": "43000",
        "Location": "Jalan Kelisa 1",
        "Post_Office": "Kajang",
        "State": "Selangor"
    },
    {
        "Postcode": "43000",
        "Location": "Kuarter Kakitangan Kerajaan Negeri",
        "Post_Office": "Kajang",
        "State": "Selangor"
    },
    {
        "Postcode": "43000",
        "Location": "Landmark Residence 1",
        "Post_Office": "Kajang",
        "State": "Selangor"
    },
    {
        "Postcode": "43000",
        "Location": "Taman Desa Meringin",
        "Post_Office": "Kajang",
        "State": "Selangor"
    },
    {
        "Postcode": "43000",
        "Location": "Tamarind Hill",
        "Post_Office": "Kajang",
        "State": "Selangor"
    },
    {
        "Postcode": "43000",
        "Location": "Taman Sentosa Damai",
        "Post_Office": "Kajang",
        "State": "Selangor"
    },
    {
        "Postcode": "43000",
        "Location": "Jalan Stadium",
        "Post_Office": "Kajang",
        "State": "Selangor"
    },
    {
        "Postcode": "43000",
        "Location": "Taman Mutiara Keruing",
        "Post_Office": "Kajang",
        "State": "Selangor"
    },
    {
        "Postcode": "43000",
        "Location": "Jalan Bukit Kiara",
        "Post_Office": "Kajang",
        "State": "Selangor"
    },
    {
        "Postcode": "43000",
        "Location": "Taman Awani Bangi",
        "Post_Office": "Kajang",
        "State": "Selangor"
    },
    {
        "Postcode": "43000",
        "Location": "Persiaran Hamidiah",
        "Post_Office": "Kajang",
        "State": "Selangor"
    },
    {
        "Postcode": "43000",
        "Location": "Taman Saujana Permai",
        "Post_Office": "Kajang",
        "State": "Selangor"
    },
    {
        "Postcode": "43000",
        "Location": "Persiaran Puncak Utama",
        "Post_Office": "Kajang",
        "State": "Selangor"
    },
    {
        "Postcode": "43000",
        "Location": "Jalan Palma Sutera",
        "Post_Office": "Kajang",
        "State": "Selangor"
    },
    {
        "Postcode": "43000",
        "Location": "Taman Reflesia",
        "Post_Office": "Kajang",
        "State": "Selangor"
    },
    {
        "Postcode": "43000",
        "Location": "Residensi Sutera 7",
        "Post_Office": "Kajang",
        "State": "Selangor"
    },
    {
        "Postcode": "43000",
        "Location": "Taman Vista Mutiara",
        "Post_Office": "Kajang",
        "State": "Selangor"
    },
    {
        "Postcode": "43000",
        "Location": "Taman Idaman Bangi",
        "Post_Office": "Kajang",
        "State": "Selangor"
    },
    {
        "Postcode": "43000",
        "Location": "Taman Ramal Harmoni",
        "Post_Office": "Kajang",
        "State": "Selangor"
    },
    {
        "Postcode": "43000",
        "Location": "Persiaran Bukit Sungai Long",
        "Post_Office": "Kajang",
        "State": "Selangor"
    },
    {
        "Postcode": "43000",
        "Location": "Jalan Ba 4/1",
        "Post_Office": "Kajang",
        "State": "Selangor"
    },
    {
        "Postcode": "43000",
        "Location": "Taman Pinggiran Impian",
        "Post_Office": "Kajang",
        "State": "Selangor"
    },
    {
        "Postcode": "43000",
        "Location": "Villa Sungai Long",
        "Post_Office": "Kajang",
        "State": "Selangor"
    },
    {
        "Postcode": "43000",
        "Location": "Pusat Perniagaan Bangi Avenue",
        "Post_Office": "Kajang",
        "State": "Selangor"
    },
    {
        "Postcode": "43000",
        "Location": "Taman Semanja",
        "Post_Office": "Kajang",
        "State": "Selangor"
    },
    {
        "Postcode": "43000",
        "Location": "Bangi Avenue",
        "Post_Office": "Kajang",
        "State": "Selangor"
    },
    {
        "Postcode": "43000",
        "Location": "Jalan Bukit Palma 2",
        "Post_Office": "Kajang",
        "State": "Selangor"
    },
    {
        "Postcode": "43000",
        "Location": "Taman Perindustrian C-Ampty",
        "Post_Office": "Kajang",
        "State": "Selangor"
    },
    {
        "Postcode": "43000",
        "Location": "Jalan Puncak Utama 2/7",
        "Post_Office": "Kajang",
        "State": "Selangor"
    },
    {
        "Postcode": "43000",
        "Location": "Taman Teratai",
        "Post_Office": "Kajang",
        "State": "Selangor"
    },
    {
        "Postcode": "43000",
        "Location": "Jalan Kampung Sekamat",
        "Post_Office": "Kajang",
        "State": "Selangor"
    },
    {
        "Postcode": "43000",
        "Location": "Kawasan Perindustrian Sinaran",
        "Post_Office": "Kajang",
        "State": "Selangor"
    },
    {
        "Postcode": "43000",
        "Location": "Taman Impian Sentosa\r\n",
        "Post_Office": "Kajang",
        "State": "Selangor"
    },
    {
        "Postcode": "43000",
        "Location": "Taman Casa Mekar",
        "Post_Office": "Kajang",
        "State": "Selangor"
    },
    {
        "Postcode": "43000",
        "Location": "Taman Mutiara Putra",
        "Post_Office": "Kajang",
        "State": "Selangor"
    },
    {
        "Postcode": "43000",
        "Location": "Pusat Perindustrian Sungai Chua",
        "Post_Office": "Kajang",
        "State": "Selangor"
    },
    {
        "Postcode": "43000",
        "Location": "Taman Desa Makmur",
        "Post_Office": "Kajang",
        "State": "Selangor"
    },
    {
        "Postcode": "43000",
        "Location": "Taman Desa Permai",
        "Post_Office": "Kajang",
        "State": "Selangor"
    },
    {
        "Postcode": "43000",
        "Location": "Taman Nova Anggerik",
        "Post_Office": "Kajang",
        "State": "Selangor"
    },
    {
        "Postcode": "43000",
        "Location": "Desa D'Firdaus",
        "Post_Office": "Kajang",
        "State": "Selangor"
    },
    {
        "Postcode": "43000",
        "Location": "Kawasan Perniagaan Bukit Angkat",
        "Post_Office": "Kajang",
        "State": "Selangor"
    },
    {
        "Postcode": "43000",
        "Location": "Taman Putra Impian",
        "Post_Office": "Kajang",
        "State": "Selangor"
    },
    {
        "Postcode": "43000",
        "Location": "Seksyen 5",
        "Post_Office": "Kajang",
        "State": "Selangor"
    },
    {
        "Postcode": "43000",
        "Location": "Taman Berjaya",
        "Post_Office": "Kajang",
        "State": "Selangor"
    },
    {
        "Postcode": "43000",
        "Location": "Taman Delima",
        "Post_Office": "Kajang",
        "State": "Selangor"
    },
    {
        "Postcode": "43000",
        "Location": "Taman Indah",
        "Post_Office": "Kajang",
        "State": "Selangor"
    },
    {
        "Postcode": "43000",
        "Location": "Taman Makmur",
        "Post_Office": "Kajang",
        "State": "Selangor"
    },
    {
        "Postcode": "43000",
        "Location": "Taman Melati",
        "Post_Office": "Kajang",
        "State": "Selangor"
    },
    {
        "Postcode": "43000",
        "Location": "Taman Mesra",
        "Post_Office": "Kajang",
        "State": "Selangor"
    },
    {
        "Postcode": "43000",
        "Location": "Taman Suria",
        "Post_Office": "Kajang",
        "State": "Selangor"
    },
    {
        "Postcode": "43000",
        "Location": "Taman Bukit Indah",
        "Post_Office": "Kajang",
        "State": "Selangor"
    },
    {
        "Postcode": "43000",
        "Location": "Taman Hijau",
        "Post_Office": "Kajang",
        "State": "Selangor"
    },
    {
        "Postcode": "43000",
        "Location": "Taman Kota",
        "Post_Office": "Kajang",
        "State": "Selangor"
    },
    {
        "Postcode": "43000",
        "Location": "Taman Sahabat",
        "Post_Office": "Kajang",
        "State": "Selangor"
    },
    {
        "Postcode": "43000",
        "Location": "Jalan Baru",
        "Post_Office": "Kajang",
        "State": "Selangor"
    },
    {
        "Postcode": "43000",
        "Location": "Jalan Gereja",
        "Post_Office": "Kajang",
        "State": "Selangor"
    },
    {
        "Postcode": "43000",
        "Location": "Jalan Seri Putra 2/2",
        "Post_Office": "Kajang",
        "State": "Selangor"
    },
    {
        "Postcode": "43000",
        "Location": "Desa Villa Idaman",
        "Post_Office": "Kajang",
        "State": "Selangor"
    },
    {
        "Postcode": "43000",
        "Location": "Jalan Bukit Mewah 9/16",
        "Post_Office": "Kajang",
        "State": "Selangor"
    },
    {
        "Postcode": "43000",
        "Location": "Jalan Meringin Indah",
        "Post_Office": "Kajang",
        "State": "Selangor"
    },
    {
        "Postcode": "43000",
        "Location": "Taman Meringin Indah",
        "Post_Office": "Kajang",
        "State": "Selangor"
    },
    {
        "Postcode": "43000",
        "Location": "Jalan Impiana Mekar",
        "Post_Office": "Kajang",
        "State": "Selangor"
    },
    {
        "Postcode": "43000",
        "Location": "Jalan Maktab Perguruan Islam",
        "Post_Office": "Kajang",
        "State": "Selangor"
    },
    {
        "Postcode": "43000",
        "Location": "Taman Impiana Mekar",
        "Post_Office": "Kajang",
        "State": "Selangor"
    },
    {
        "Postcode": "43000",
        "Location": "Taman Bukit Suria",
        "Post_Office": "Kajang",
        "State": "Selangor"
    },
    {
        "Postcode": "43000",
        "Location": "Taman Sepakat Indah",
        "Post_Office": "Kajang",
        "State": "Selangor"
    },
    {
        "Postcode": "43000",
        "Location": "Desa Pinggiran Putra",
        "Post_Office": "Kajang",
        "State": "Selangor"
    },
    {
        "Postcode": "43000",
        "Location": "Taman Sri Jambu",
        "Post_Office": "Kajang",
        "State": "Selangor"
    },
    {
        "Postcode": "43000",
        "Location": "Taman Taming Indah 2",
        "Post_Office": "Kajang",
        "State": "Selangor"
    },
    {
        "Postcode": "43000",
        "Location": "Institut Penilaian Negara (Inspen) Kampus 2",
        "Post_Office": "Kajang",
        "State": "Selangor"
    },
    {
        "Postcode": "43000",
        "Location": "Taman Taming Mutiara 3",
        "Post_Office": "Kajang",
        "State": "Selangor"
    },
    {
        "Postcode": "43000",
        "Location": "Taman Tropica Cheras",
        "Post_Office": "Kajang",
        "State": "Selangor"
    },
    {
        "Postcode": "43000",
        "Location": "Mutiara Heights",
        "Post_Office": "Kajang",
        "State": "Selangor"
    },
    {
        "Postcode": "43000",
        "Location": "Mutiara Villa",
        "Post_Office": "Kajang",
        "State": "Selangor"
    },
    {
        "Postcode": "43000",
        "Location": "Taman Desa Ros",
        "Post_Office": "Kajang",
        "State": "Selangor"
    },
    {
        "Postcode": "43000",
        "Location": "Taman Taming Mutiara 2",
        "Post_Office": "Kajang",
        "State": "Selangor"
    },
    {
        "Postcode": "43000",
        "Location": "Desa Putra",
        "Post_Office": "Kajang",
        "State": "Selangor"
    },
    {
        "Postcode": "43000",
        "Location": "Taman Sunville",
        "Post_Office": "Kajang",
        "State": "Selangor"
    },
    {
        "Postcode": "43000",
        "Location": "Kawasan Perusahaan Bukit Angkat",
        "Post_Office": "Kajang",
        "State": "Selangor"
    },
    {
        "Postcode": "43000",
        "Location": "Taman Saujana Suria",
        "Post_Office": "Kajang",
        "State": "Selangor"
    },
    {
        "Postcode": "43000",
        "Location": "Taman Tropicana Cheras",
        "Post_Office": "Kajang",
        "State": "Selangor"
    },
    {
        "Postcode": "43000",
        "Location": "Budiman Business Park",
        "Post_Office": "Kajang",
        "State": "Selangor"
    },
    {
        "Postcode": "43000",
        "Location": "Taman Desa Budiman 6",
        "Post_Office": "Kajang",
        "State": "Selangor"
    },
    {
        "Postcode": "43000",
        "Location": "Taman Saujana Emas 2",
        "Post_Office": "Kajang",
        "State": "Selangor"
    },
    {
        "Postcode": "43000",
        "Location": "Kampung Dato Abu Bakar Baginda",
        "Post_Office": "Kajang",
        "State": "Selangor"
    },
    {
        "Postcode": "43000",
        "Location": "Emerald Heights",
        "Post_Office": "Kajang",
        "State": "Selangor"
    },
    {
        "Postcode": "43000",
        "Location": "Commence Village",
        "Post_Office": "Kajang",
        "State": "Selangor"
    },
    {
        "Postcode": "43000",
        "Location": "Kayumanis Garden Villa",
        "Post_Office": "Kajang",
        "State": "Selangor"
    },
    {
        "Postcode": "43000",
        "Location": "Taman Alam Sari",
        "Post_Office": "Kajang",
        "State": "Selangor"
    },
    {
        "Postcode": "43000",
        "Location": "Taman Ramal Villa",
        "Post_Office": "Kajang",
        "State": "Selangor"
    },
    {
        "Postcode": "43000",
        "Location": "Taman Suria Villa",
        "Post_Office": "Kajang",
        "State": "Selangor"
    },
    {
        "Postcode": "43000",
        "Location": "Taman Teras Jenang",
        "Post_Office": "Kajang",
        "State": "Selangor"
    },
    {
        "Postcode": "43000",
        "Location": "Jalan Sakap 5/1",
        "Post_Office": "Kajang",
        "State": "Selangor"
    },
    {
        "Postcode": "43000",
        "Location": "Taman Bangi Avenue",
        "Post_Office": "Kajang",
        "State": "Selangor"
    },
    {
        "Postcode": "43000",
        "Location": "Taman Villa Safira",
        "Post_Office": "Kajang",
        "State": "Selangor"
    },
    {
        "Postcode": "43000",
        "Location": "Taman Bunga Kantan",
        "Post_Office": "Kajang",
        "State": "Selangor"
    },
    {
        "Postcode": "43000",
        "Location": "Taman Cheras Idaman",
        "Post_Office": "Kajang",
        "State": "Selangor"
    },
    {
        "Postcode": "43000",
        "Location": "Taman Nadayu 92",
        "Post_Office": "Kajang",
        "State": "Selangor"
    },
    {
        "Postcode": "43000",
        "Location": "Taman Res Trees",
        "Post_Office": "Kajang",
        "State": "Selangor"
    },
    {
        "Postcode": "43000",
        "Location": "Kuarters Pekerja Mrt Corp",
        "Post_Office": "Kajang",
        "State": "Selangor"
    },
    {
        "Postcode": "43000",
        "Location": "Taman Saujana Impian",
        "Post_Office": "Kajang",
        "State": "Selangor"
    },
    {
        "Postcode": "43000",
        "Location": "Taman Villa Height 2",
        "Post_Office": "Kajang",
        "State": "Selangor"
    },
    {
        "Postcode": "43000",
        "Location": "Taman Villa Perdana",
        "Post_Office": "Kajang",
        "State": "Selangor"
    },
    {
        "Postcode": "43000",
        "Location": "Taman Vista Suria",
        "Post_Office": "Kajang",
        "State": "Selangor"
    },
    {
        "Postcode": "43000",
        "Location": "Ramal Residence",
        "Post_Office": "Kajang",
        "State": "Selangor"
    },
    {
        "Postcode": "43000",
        "Location": "Taman Kantan Permata",
        "Post_Office": "Kajang",
        "State": "Selangor"
    },
    {
        "Postcode": "43000",
        "Location": "Taman Bluconstellation",
        "Post_Office": "Kajang",
        "State": "Selangor"
    },
    {
        "Postcode": "43000",
        "Location": "Tiara Parkhomes",
        "Post_Office": "Kajang",
        "State": "Selangor"
    },
    {
        "Postcode": "43000",
        "Location": "Taman Unipark Suria",
        "Post_Office": "Kajang",
        "State": "Selangor"
    },
    {
        "Postcode": "43000",
        "Location": "Kayumanis Townvillas",
        "Post_Office": "Kajang",
        "State": "Selangor"
    },
    {
        "Postcode": "43000",
        "Location": "Taman Wira Mutiara",
        "Post_Office": "Kajang",
        "State": "Selangor"
    },
    {
        "Postcode": "43000",
        "Location": "Jalan Bukit",
        "Post_Office": "Kajang",
        "State": "Selangor"
    },
    {
        "Postcode": "43000",
        "Location": "Taman D'Ramal Prima",
        "Post_Office": "Kajang",
        "State": "Selangor"
    },
    {
        "Postcode": "43000",
        "Location": "Jalan Sutera",
        "Post_Office": "Kajang",
        "State": "Selangor"
    },
    {
        "Postcode": "43000",
        "Location": "Kampung Jambu ",
        "Post_Office": "Kajang",
        "State": "Selangor"
    },
    {
        "Postcode": "43000",
        "Location": "Taman Puncak Indah",
        "Post_Office": "Kajang",
        "State": "Selangor"
    },
    {
        "Postcode": "43000",
        "Location": "Jalan Kiara Sungai Long",
        "Post_Office": "Kajang",
        "State": "Selangor"
    },
    {
        "Postcode": "43000",
        "Location": "Taman Universiti 2",
        "Post_Office": "Kajang",
        "State": "Selangor"
    },
    {
        "Postcode": "43000",
        "Location": "Jalan Setia Impian 1",
        "Post_Office": "Kajang",
        "State": "Selangor"
    },
    {
        "Postcode": "43000",
        "Location": "Jalan Sungai Long",
        "Post_Office": "Kajang",
        "State": "Selangor"
    },
    {
        "Postcode": "43000",
        "Location": "Dataran Jade",
        "Post_Office": "Kajang",
        "State": "Selangor"
    },
    {
        "Postcode": "43000",
        "Location": "Pusat Perniagaan Permata",
        "Post_Office": "Kajang",
        "State": "Selangor"
    },
    {
        "Postcode": "43000",
        "Location": "Jalan Palma 3",
        "Post_Office": "Kajang",
        "State": "Selangor"
    },
    {
        "Postcode": "43000",
        "Location": "Sungai Tangkas",
        "Post_Office": "Kajang",
        "State": "Selangor"
    },
    {
        "Postcode": "43000",
        "Location": "Taman Pesona Idaman",
        "Post_Office": "Kajang",
        "State": "Selangor"
    },
    {
        "Postcode": "43000",
        "Location": "Taman Saujana Sekata",
        "Post_Office": "Kajang",
        "State": "Selangor"
    },
    {
        "Postcode": "43000",
        "Location": "Jalan Sungai Kantan",
        "Post_Office": "Kajang",
        "State": "Selangor"
    },
    {
        "Postcode": "43000",
        "Location": "Jalan Zamrud 1",
        "Post_Office": "Kajang",
        "State": "Selangor"
    },
    {
        "Postcode": "43000",
        "Location": "Jalan Zamrud Utama",
        "Post_Office": "Kajang",
        "State": "Selangor"
    },
    {
        "Postcode": "43000",
        "Location": "Laman Tasik",
        "Post_Office": "Kajang",
        "State": "Selangor"
    },
    {
        "Postcode": "43000",
        "Location": "Persiaran Zamrud",
        "Post_Office": "Kajang",
        "State": "Selangor"
    },
    {
        "Postcode": "43000",
        "Location": "Dataran Jade 2",
        "Post_Office": "Kajang",
        "State": "Selangor"
    },
    {
        "Postcode": "43000",
        "Location": "Jalan Pintar",
        "Post_Office": "Kajang",
        "State": "Selangor"
    },
    {
        "Postcode": "43000",
        "Location": "Lorong Kuarters Rtm",
        "Post_Office": "Kajang ",
        "State": "Selangor"
    },
    {
        "Postcode": "43000",
        "Location": "Jalan Bukit Mewah",
        "Post_Office": "Kajang",
        "State": "Selangor"
    },
    {
        "Postcode": "43000",
        "Location": "Residensi Lambaian Dua",
        "Post_Office": "Kajang",
        "State": "Selangor"
    },
    {
        "Postcode": "43000",
        "Location": "Taman Puncak Indah",
        "Post_Office": "Kajang",
        "State": "Selangor"
    },
    {
        "Postcode": "43000",
        "Location": "Jalan Db 4/1",
        "Post_Office": "Kajang",
        "State": "Selangor"
    },
    {
        "Postcode": "43000",
        "Location": "Jalan Db 4/2",
        "Post_Office": "Kajang",
        "State": "Selangor"
    },
    {
        "Postcode": "43000",
        "Location": "Jalan Db 4/3",
        "Post_Office": "Kajang",
        "State": "Selangor"
    },
    {
        "Postcode": "43000",
        "Location": "Jalan Db 4/4",
        "Post_Office": "Kajang",
        "State": "Selangor"
    },
    {
        "Postcode": "43000",
        "Location": "Jalan Db 4/5",
        "Post_Office": "Kajang",
        "State": "Selangor"
    },
    {
        "Postcode": "43000",
        "Location": "Jalan Impian Makmur 2/1",
        "Post_Office": "Kajang",
        "State": "Selangor"
    },
    {
        "Postcode": "43000",
        "Location": "Jalan Impian Makmur 2/2",
        "Post_Office": "Kajang",
        "State": "Selangor"
    },
    {
        "Postcode": "43000",
        "Location": "Jalan Impian Makmur 2/3",
        "Post_Office": "Kajang",
        "State": "Selangor"
    },
    {
        "Postcode": "43000",
        "Location": "Jalan Impian Makmur 2/4",
        "Post_Office": "Kajang",
        "State": "Selangor"
    },
    {
        "Postcode": "43000",
        "Location": "Jalan Melati 1",
        "Post_Office": "Kajang",
        "State": "Selangor"
    },
    {
        "Postcode": "43000",
        "Location": "Jalan Melati 2",
        "Post_Office": "Kajang",
        "State": "Selangor"
    },
    {
        "Postcode": "43000",
        "Location": "Jalan Melati 3",
        "Post_Office": "Kajang",
        "State": "Selangor"
    },
    {
        "Postcode": "43000",
        "Location": "Jalan Rahima 1",
        "Post_Office": "Kajang",
        "State": "Selangor"
    },
    {
        "Postcode": "43000",
        "Location": "Jalan Rahima 2",
        "Post_Office": "Kajang",
        "State": "Selangor"
    },
    {
        "Postcode": "43000",
        "Location": "Jalan Rahima 3",
        "Post_Office": "Kajang",
        "State": "Selangor"
    },
    {
        "Postcode": "43000",
        "Location": "Jalan Rahima 4",
        "Post_Office": "Kajang",
        "State": "Selangor"
    },
    {
        "Postcode": "43000",
        "Location": "Jalan Reko Mutiara 1/1",
        "Post_Office": "Kajang",
        "State": "Selangor"
    },
    {
        "Postcode": "43000",
        "Location": "Jalan Reko Mutiara 1/2",
        "Post_Office": "Kajang",
        "State": "Selangor"
    },
    {
        "Postcode": "43000",
        "Location": "Jalan Reko Mutiara 1/3",
        "Post_Office": "Kajang",
        "State": "Selangor"
    },
    {
        "Postcode": "43000",
        "Location": "Jalan Reko Mutiara 1/4",
        "Post_Office": "Kajang",
        "State": "Selangor"
    },
    {
        "Postcode": "43000",
        "Location": "Jalan Reko Mutiara 1/5",
        "Post_Office": "Kajang",
        "State": "Selangor"
    },
    {
        "Postcode": "43000",
        "Location": "Jalan Reko Mutiara 1/6",
        "Post_Office": "Kajang",
        "State": "Selangor"
    },
    {
        "Postcode": "43000",
        "Location": "Jalan Reko Mutiara 1/6A ",
        "Post_Office": "Kajang",
        "State": "Selangor"
    },
    {
        "Postcode": "43000",
        "Location": "Jalan Reko Mutiara 1/6B",
        "Post_Office": "Kajang",
        "State": "Selangor"
    },
    {
        "Postcode": "43000",
        "Location": "Jalan Reko Mutiara 1/7",
        "Post_Office": "Kajang",
        "State": "Selangor"
    },
    {
        "Postcode": "43000",
        "Location": "Jalan Reko Mutiara 1/7A",
        "Post_Office": "Kajang",
        "State": "Selangor"
    },
    {
        "Postcode": "43000",
        "Location": "Jalan Reko Mutiara 1/7B",
        "Post_Office": "Kajang",
        "State": "Selangor"
    },
    {
        "Postcode": "43000",
        "Location": "Jalan Reko Mutiara 1/7C",
        "Post_Office": "Kajang",
        "State": "Selangor"
    },
    {
        "Postcode": "43000",
        "Location": "Jalan Reko Mutiara 1/7D",
        "Post_Office": "Kajang",
        "State": "Selangor"
    },
    {
        "Postcode": "43000",
        "Location": "Jalan Ridgeview 1",
        "Post_Office": "Kajang",
        "State": "Selangor"
    },
    {
        "Postcode": "43000",
        "Location": "Jalan Ridgeview 2",
        "Post_Office": "Kajang",
        "State": "Selangor"
    },
    {
        "Postcode": "43000",
        "Location": "Jalan Ridgeview 3",
        "Post_Office": "Kajang",
        "State": "Selangor"
    },
    {
        "Postcode": "43000",
        "Location": "Jalan Ridgeview 4",
        "Post_Office": "Kajang",
        "State": "Selangor"
    },
    {
        "Postcode": "43000",
        "Location": "Jalan Ridgeview 5",
        "Post_Office": "Kajang",
        "State": "Selangor"
    },
    {
        "Postcode": "43000",
        "Location": "Jalan Ridgeview 6",
        "Post_Office": "Kajang",
        "State": "Selangor"
    },
    {
        "Postcode": "43000",
        "Location": "Jalan Ridgeview 7",
        "Post_Office": "Kajang",
        "State": "Selangor"
    },
    {
        "Postcode": "43000",
        "Location": "Jalan Seri Sungai Long 1",
        "Post_Office": "Kajang",
        "State": "Selangor"
    },
    {
        "Postcode": "43000",
        "Location": "Jalan Seri Sungai Long 10",
        "Post_Office": "Kajang",
        "State": "Selangor"
    },
    {
        "Postcode": "43000",
        "Location": "Jalan Seri Sungai Long 11",
        "Post_Office": "Kajang",
        "State": "Selangor"
    },
    {
        "Postcode": "43000",
        "Location": "Jalan Seri Sungai Long 12",
        "Post_Office": "Kajang",
        "State": "Selangor"
    },
    {
        "Postcode": "43000",
        "Location": "Jalan Seri Sungai Long 13",
        "Post_Office": "Kajang",
        "State": "Selangor"
    },
    {
        "Postcode": "43000",
        "Location": "Jalan Seri Sungai Long 14",
        "Post_Office": "Kajang",
        "State": "Selangor"
    },
    {
        "Postcode": "43000",
        "Location": "Jalan Seri Sungai Long 15",
        "Post_Office": "Kajang",
        "State": "Selangor"
    },
    {
        "Postcode": "43000",
        "Location": "Jalan Seri Sungai Long 16",
        "Post_Office": "Kajang",
        "State": "Selangor"
    },
    {
        "Postcode": "43000",
        "Location": "Jalan Seri Sungai Long 17",
        "Post_Office": "Kajang",
        "State": "Selangor"
    },
    {
        "Postcode": "43000",
        "Location": "Jalan Seri Sungai Long 18",
        "Post_Office": "Kajang",
        "State": "Selangor"
    },
    {
        "Postcode": "43000",
        "Location": "Jalan Seri Sungai Long 2",
        "Post_Office": "Kajang",
        "State": "Selangor"
    },
    {
        "Postcode": "43000",
        "Location": "Jalan Seri Sungai Long 3",
        "Post_Office": "Kajang",
        "State": "Selangor"
    },
    {
        "Postcode": "43000",
        "Location": "Jalan Seri Sungai Long 4",
        "Post_Office": "Kajang",
        "State": "Selangor"
    },
    {
        "Postcode": "43000",
        "Location": "Jalan Seri Sungai Long 5",
        "Post_Office": "Kajang",
        "State": "Selangor"
    },
    {
        "Postcode": "43000",
        "Location": "Jalan Seri Sungai Long 6",
        "Post_Office": "Kajang",
        "State": "Selangor"
    },
    {
        "Postcode": "43000",
        "Location": "Jalan Seri Sungai Long 7",
        "Post_Office": "Kajang",
        "State": "Selangor"
    },
    {
        "Postcode": "43000",
        "Location": "Jalan Seri Sungai Long 8",
        "Post_Office": "Kajang",
        "State": "Selangor"
    },
    {
        "Postcode": "43000",
        "Location": "Jalan Seri Sungai Long 9",
        "Post_Office": "Kajang",
        "State": "Selangor"
    },
    {
        "Postcode": "43000",
        "Location": "Jalan Sl 9/10",
        "Post_Office": "Kajang",
        "State": "Selangor"
    },
    {
        "Postcode": "43000",
        "Location": "Jalan Sl 9/11",
        "Post_Office": "Kajang",
        "State": "Selangor"
    },
    {
        "Postcode": "43000",
        "Location": "Jalan Sl 9/12",
        "Post_Office": "Kajang",
        "State": "Selangor"
    },
    {
        "Postcode": "43000",
        "Location": "Jalan Sl 9/13",
        "Post_Office": "Kajang",
        "State": "Selangor"
    },
    {
        "Postcode": "43000",
        "Location": "Jalan Sl 9/14",
        "Post_Office": "Kajang",
        "State": "Selangor"
    },
    {
        "Postcode": "43000",
        "Location": "Jalan Sl 9/15",
        "Post_Office": "Kajang",
        "State": "Selangor"
    },
    {
        "Postcode": "43000",
        "Location": "Jalan Sl 9/16",
        "Post_Office": "Kajang",
        "State": "Selangor"
    },
    {
        "Postcode": "43000",
        "Location": "Jalan Sl 9/17",
        "Post_Office": "Kajang",
        "State": "Selangor"
    },
    {
        "Postcode": "43000",
        "Location": "Jalan Sl 9/18",
        "Post_Office": "Kajang",
        "State": "Selangor"
    },
    {
        "Postcode": "43000",
        "Location": "Jalan Sl 9/19",
        "Post_Office": "Kajang",
        "State": "Selangor"
    },
    {
        "Postcode": "43000",
        "Location": "Jalan Sl 9/20",
        "Post_Office": "Kajang",
        "State": "Selangor"
    },
    {
        "Postcode": "43000",
        "Location": "Jalan Sl 9/9",
        "Post_Office": "Kajang",
        "State": "Selangor"
    },
    {
        "Postcode": "43000",
        "Location": "Jalan Sp 1",
        "Post_Office": "Kajang",
        "State": "Selangor"
    },
    {
        "Postcode": "43000",
        "Location": "Jalan Sp 2",
        "Post_Office": "Kajang",
        "State": "Selangor"
    },
    {
        "Postcode": "43000",
        "Location": "Jalan Sp 3",
        "Post_Office": "Kajang",
        "State": "Selangor"
    },
    {
        "Postcode": "43000",
        "Location": "Jalan Sp 4",
        "Post_Office": "Kajang",
        "State": "Selangor"
    },
    {
        "Postcode": "43000",
        "Location": "Jalan Sp 5",
        "Post_Office": "Kajang",
        "State": "Selangor"
    },
    {
        "Postcode": "43000",
        "Location": "Jalan Sp 6",
        "Post_Office": "Kajang",
        "State": "Selangor"
    },
    {
        "Postcode": "43000",
        "Location": "Lorong Ba 1",
        "Post_Office": "Kajang",
        "State": "Selangor"
    },
    {
        "Postcode": "43000",
        "Location": "Lorong Ba 2",
        "Post_Office": "Kajang",
        "State": "Selangor"
    },
    {
        "Postcode": "43000",
        "Location": "Lorong Ba 3",
        "Post_Office": "Kajang",
        "State": "Selangor"
    },
    {
        "Postcode": "43000",
        "Location": "Lorong Ba 4",
        "Post_Office": "Kajang",
        "State": "Selangor"
    },
    {
        "Postcode": "43000",
        "Location": "Lorong Ba 5",
        "Post_Office": "Kajang",
        "State": "Selangor"
    },
    {
        "Postcode": "43000",
        "Location": "Lorong Ba 6",
        "Post_Office": "Kajang",
        "State": "Selangor"
    },
    {
        "Postcode": "43000",
        "Location": "Lorong Ba 7",
        "Post_Office": "Kajang",
        "State": "Selangor"
    },
    {
        "Postcode": "43000",
        "Location": "Desa Al-Amin",
        "Post_Office": "Kajang",
        "State": "Selangor"
    },
    {
        "Postcode": "43000",
        "Location": "Desa Fitri",
        "Post_Office": "Kajang",
        "State": "Selangor"
    },
    {
        "Postcode": "43000",
        "Location": "Desa Kekwa",
        "Post_Office": "Kajang",
        "State": "Selangor"
    },
    {
        "Postcode": "43000",
        "Location": "Desa Sri Jenaris",
        "Post_Office": "Kajang",
        "State": "Selangor"
    },
    {
        "Postcode": "43000",
        "Location": "Desa Sri Saujana",
        "Post_Office": "Kajang",
        "State": "Selangor"
    },
    {
        "Postcode": "43000",
        "Location": "Heights Putera",
        "Post_Office": "Kajang",
        "State": "Selangor"
    },
    {
        "Postcode": "43000",
        "Location": "Kampung Baru Sungai Chua",
        "Post_Office": "Kajang",
        "State": "Selangor"
    },
    {
        "Postcode": "43000",
        "Location": "Kampung Bukit Dukung",
        "Post_Office": "Kajang",
        "State": "Selangor"
    },
    {
        "Postcode": "43000",
        "Location": "Kampung Kwan Tung",
        "Post_Office": "Kajang",
        "State": "Selangor"
    },
    {
        "Postcode": "43000",
        "Location": "Kampung Limau Manis",
        "Post_Office": "Kajang",
        "State": "Selangor"
    },
    {
        "Postcode": "43000",
        "Location": "Kampung Sungai Balak",
        "Post_Office": "Kajang",
        "State": "Selangor"
    }
]
