[
    {
        "Postcode": "43100",
        "Location": "Taman Desa Sentosa",
        "Post_Office": "Hulu Langat",
        "State": "Selangor"
    },
    {
        "Postcode": "43100",
        "Location": "Jalan 10/1B",
        "Post_Office": "Hulu Langat\r\n",
        "State": "Selangor"
    },
    {
        "Postcode": "43100",
        "Location": "Desa Kerinchi",
        "Post_Office": "Hulu Langat",
        "State": "Selangor"
    },
    {
        "Postcode": "43100",
        "Location": "Felcra Semungkis",
        "Post_Office": "Hulu Langat",
        "State": "Selangor"
    },
    {
        "Postcode": "43100",
        "Location": "Kampung Baru Sungai Lui",
        "Post_Office": "Hulu Langat",
        "State": "Selangor"
    },
    {
        "Postcode": "43100",
        "Location": "Kampung Darul Hidayah",
        "Post_Office": "Hulu Langat",
        "State": "Selangor"
    },
    {
        "Postcode": "43100",
        "Location": "Kampung Gabai",
        "Post_Office": "Hulu Langat",
        "State": "Selangor"
    },
    {
        "Postcode": "43100",
        "Location": "Kampung Haji Palil",
        "Post_Office": "Hulu Langat",
        "State": "Selangor"
    },
    {
        "Postcode": "43100",
        "Location": "Kampung Kenangan 18",
        "Post_Office": "Hulu Langat",
        "State": "Selangor"
    },
    {
        "Postcode": "43100",
        "Location": "Kampung Kuala Pansoon",
        "Post_Office": "Hulu Langat",
        "State": "Selangor"
    },
    {
        "Postcode": "43100",
        "Location": "Kampung Kuala Perdik",
        "Post_Office": "Hulu Langat",
        "State": "Selangor"
    },
    {
        "Postcode": "43100",
        "Location": "Kampung Padang Batu 20",
        "Post_Office": "Hulu Langat",
        "State": "Selangor"
    },
    {
        "Postcode": "43100",
        "Location": "Kampung Pak Chat",
        "Post_Office": "Hulu Langat",
        "State": "Selangor"
    },
    {
        "Postcode": "43100",
        "Location": "Kampung Paya Lebar",
        "Post_Office": "Hulu Langat",
        "State": "Selangor"
    },
    {
        "Postcode": "43100",
        "Location": "Kampung Paya Seberang",
        "Post_Office": "Hulu Langat",
        "State": "Selangor"
    },
    {
        "Postcode": "43100",
        "Location": "Kampung Sungai Gahal",
        "Post_Office": "Hulu Langat",
        "State": "Selangor"
    },
    {
        "Postcode": "43100",
        "Location": "Kampung Sungai Jernih",
        "Post_Office": "Hulu Langat",
        "State": "Selangor"
    },
    {
        "Postcode": "43100",
        "Location": "Kampung Sungai Makau",
        "Post_Office": "Hulu Langat",
        "State": "Selangor"
    },
    {
        "Postcode": "43100",
        "Location": "Taman Bukit Raya",
        "Post_Office": "Hulu Langat",
        "State": "Selangor"
    },
    {
        "Postcode": "43100",
        "Location": "Taman Bukit Sekawan",
        "Post_Office": "Hulu Langat",
        "State": "Selangor"
    },
    {
        "Postcode": "43100",
        "Location": "Taman Damai ",
        "Post_Office": "Hulu Langat",
        "State": "Selangor"
    },
    {
        "Postcode": "43100",
        "Location": "Taman Impian Langat",
        "Post_Office": "Hulu Langat",
        "State": "Selangor"
    },
    {
        "Postcode": "43100",
        "Location": "Taman Impian Warisan",
        "Post_Office": "Hulu Langat",
        "State": "Selangor"
    },
    {
        "Postcode": "43100",
        "Location": "Taman Koperasi Uda",
        "Post_Office": "Hulu Langat",
        "State": "Selangor"
    },
    {
        "Postcode": "43100",
        "Location": "Taman Perkasa Indah",
        "Post_Office": "Hulu Langat",
        "State": "Selangor"
    },
    {
        "Postcode": "43100",
        "Location": "Taman Pinggiran Delima",
        "Post_Office": "Hulu Langat",
        "State": "Selangor"
    },
    {
        "Postcode": "43100",
        "Location": "Taman Seri Masjid",
        "Post_Office": "Hulu Langat",
        "State": "Selangor"
    },
    {
        "Postcode": "43100",
        "Location": "Taman Sri Kundang",
        "Post_Office": "Hulu Langat",
        "State": "Selangor"
    },
    {
        "Postcode": "43100",
        "Location": "Taman Sri Nanding",
        "Post_Office": "Hulu Langat",
        "State": "Selangor"
    },
    {
        "Postcode": "43100",
        "Location": "Taman Titiwangsa",
        "Post_Office": "Hulu Langat",
        "State": "Selangor"
    },
    {
        "Postcode": "43100",
        "Location": "Taman Wawasan",
        "Post_Office": "Hulu Langat",
        "State": "Selangor"
    },
    {
        "Postcode": "43100",
        "Location": "Hulu Langat",
        "Post_Office": "Hulu Langat",
        "State": "Selangor"
    },
    {
        "Postcode": "43100",
        "Location": "Hulu Langat (Km 16 - 22)",
        "Post_Office": "Hulu Langat",
        "State": "Selangor"
    },
    {
        "Postcode": "43100",
        "Location": "Kampung Bukit Kudang",
        "Post_Office": "Hulu Langat",
        "State": "Selangor"
    },
    {
        "Postcode": "43100",
        "Location": "Kampung Bukit Raya",
        "Post_Office": "Hulu Langat",
        "State": "Selangor"
    },
    {
        "Postcode": "43100",
        "Location": "Kampung Dusun Nanding",
        "Post_Office": "Hulu Langat",
        "State": "Selangor"
    },
    {
        "Postcode": "43100",
        "Location": "Kampung Dusun Tua",
        "Post_Office": "Hulu Langat",
        "State": "Selangor"
    },
    {
        "Postcode": "43100",
        "Location": "Kampung Kuala Pangsoon",
        "Post_Office": "Hulu Langat",
        "State": "Selangor"
    },
    {
        "Postcode": "43100",
        "Location": "Kampung Kuala Perdek",
        "Post_Office": "Hulu Langat",
        "State": "Selangor"
    },
    {
        "Postcode": "43100",
        "Location": "Kampung Lubuk Kelubi",
        "Post_Office": "Hulu Langat",
        "State": "Selangor"
    },
    {
        "Postcode": "43100",
        "Location": "Kampung Masjid",
        "Post_Office": "Hulu Langat",
        "State": "Selangor"
    },
    {
        "Postcode": "43100",
        "Location": "Kampung Sungai Ghahal",
        "Post_Office": "Hulu Langat",
        "State": "Selangor"
    },
    {
        "Postcode": "43100",
        "Location": "Kampung Sungai Lui",
        "Post_Office": "Hulu Langat",
        "State": "Selangor"
    },
    {
        "Postcode": "43100",
        "Location": "Kampung Sungai Michu",
        "Post_Office": "Hulu Langat",
        "State": "Selangor"
    },
    {
        "Postcode": "43100",
        "Location": "Kampung Sungai Semungkis",
        "Post_Office": "Hulu Langat",
        "State": "Selangor"
    },
    {
        "Postcode": "43100",
        "Location": "Kampung Sungai Tekali",
        "Post_Office": "Hulu Langat",
        "State": "Selangor"
    },
    {
        "Postcode": "43100",
        "Location": "Pekan Batu 18",
        "Post_Office": "Hulu Langat",
        "State": "Selangor"
    },
    {
        "Postcode": "43100",
        "Location": "Taman Desa Pelangi",
        "Post_Office": "Hulu Langat",
        "State": "Selangor"
    },
    {
        "Postcode": "43100",
        "Location": "Taman Desa Raya",
        "Post_Office": "Hulu Langat",
        "State": "Selangor"
    },
    {
        "Postcode": "43100",
        "Location": "Taman Lagenda Suria",
        "Post_Office": "Hulu Langat",
        "State": "Selangor"
    },
    {
        "Postcode": "43100",
        "Location": "Taman Langat Ceria",
        "Post_Office": "Hulu Langat",
        "State": "Selangor"
    },
    {
        "Postcode": "43100",
        "Location": "Taman Perkasa",
        "Post_Office": "Hulu Langat",
        "State": "Selangor"
    },
    {
        "Postcode": "43100",
        "Location": "Taman Udaco (Batu 12 )",
        "Post_Office": "Hulu Langat",
        "State": "Selangor"
    },
    {
        "Postcode": "43100",
        "Location": "Jalan Lestari Indah 1",
        "Post_Office": "Hulu Langat",
        "State": "Selangor"
    },
    {
        "Postcode": "43100",
        "Location": "Jalan 10/1",
        "Post_Office": "Hulu Langat",
        "State": "Selangor"
    },
    {
        "Postcode": "43100",
        "Location": "Jalan Lagenda Suria 1",
        "Post_Office": "Hulu Langat",
        "State": "Selangor"
    },
    {
        "Postcode": "43100",
        "Location": "Taman Mitchu Heights",
        "Post_Office": "Hulu Langat",
        "State": "Selangor"
    },
    {
        "Postcode": "43100",
        "Location": "Taman Cempaka Lui",
        "Post_Office": "Hulu Langat",
        "State": "Selangor"
    },
    {
        "Postcode": "43100",
        "Location": "Taman Langat Idaman",
        "Post_Office": "Hulu Langat",
        "State": "Selangor"
    },
    {
        "Postcode": "43100",
        "Location": "Taman Desa Saujana Langat",
        "Post_Office": "Hulu Langat",
        "State": "Selangor"
    },
    {
        "Postcode": "43100",
        "Location": "Jalan Sungai Tekali",
        "Post_Office": "Hulu Langat",
        "State": "Selangor"
    },
    {
        "Postcode": "43100",
        "Location": "Taman Lestari Indah ",
        "Post_Office": "Hulu Langat",
        "State": "Selangor"
    },
    {
        "Postcode": "43100",
        "Location": "Kampung Rantau Panjang",
        "Post_Office": "Hulu Langat",
        "State": "Selangor"
    },
    {
        "Postcode": "43100",
        "Location": "Taman Indah Jaya",
        "Post_Office": "Hulu Langat",
        "State": "Selangor"
    },
    {
        "Postcode": "43100",
        "Location": "Kampung Jawa",
        "Post_Office": "Hulu Langat",
        "State": "Selangor"
    },
    {
        "Postcode": "43100",
        "Location": "Taman Lestari Mewah",
        "Post_Office": "Hulu Langat",
        "State": "Selangor"
    },
    {
        "Postcode": "43100",
        "Location": "Taman Seri Mas",
        "Post_Office": "Hulu Langat",
        "State": "Selangor"
    },
    {
        "Postcode": "43100",
        "Location": "Taman Casa Lagenda",
        "Post_Office": "Hulu Langat",
        "State": "Selangor"
    },
    {
        "Postcode": "43100",
        "Location": "Kampung Padang",
        "Post_Office": "Hulu Langat",
        "State": "Selangor"
    },
    {
        "Postcode": "43100",
        "Location": "Kampung Sungai Serai",
        "Post_Office": "Hulu Langat",
        "State": "Selangor"
    },
    {
        "Postcode": "43100",
        "Location": "Jalan 10/1A",
        "Post_Office": "Hulu Langat",
        "State": "Selangor"
    },
    {
        "Postcode": "43100",
        "Location": "Jalan 10/1C",
        "Post_Office": "Hulu Langat",
        "State": "Selangor"
    }
]
