[
    {
        "Postcode": "43200",
        "Location": "Taman Puteri ",
        "Post_Office": "Cheras",
        "State": "Selangor"
    },
    {
        "Postcode": "43200",
        "Location": "Taman Sri Aman",
        "Post_Office": "Cheras",
        "State": "Selangor"
    },
    {
        "Postcode": "43200",
        "Location": "Avenue Two",
        "Post_Office": "Cheras",
        "State": "Selangor"
    },
    {
        "Postcode": "43200",
        "Location": "Bandar Tun Hussien Onn",
        "Post_Office": "Cheras",
        "State": "Selangor"
    },
    {
        "Postcode": "43200",
        "Location": "Dataran C180",
        "Post_Office": "Cheras",
        "State": "Selangor"
    },
    {
        "Postcode": "43200",
        "Location": "Kawasan Perniagaan Cheras Raya",
        "Post_Office": "Cheras",
        "State": "Selangor"
    },
    {
        "Postcode": "43200",
        "Location": "Kawasan Perusahaan Cheras Jaya",
        "Post_Office": "Cheras",
        "State": "Selangor"
    },
    {
        "Postcode": "43200",
        "Location": "Park Bersatu Industrial",
        "Post_Office": "Cheras",
        "State": "Selangor"
    },
    {
        "Postcode": "43200",
        "Location": "Pusat Perniagaan Cheras Maju",
        "Post_Office": "Cheras",
        "State": "Selangor"
    },
    {
        "Postcode": "43200",
        "Location": "Seksyen 4",
        "Post_Office": "Cheras",
        "State": "Selangor"
    },
    {
        "Postcode": "43200",
        "Location": "Taman Bukit Segar Emas",
        "Post_Office": "Cheras",
        "State": "Selangor"
    },
    {
        "Postcode": "43200",
        "Location": "Taman Cheras Hartamas",
        "Post_Office": "Cheras",
        "State": "Selangor"
    },
    {
        "Postcode": "43200",
        "Location": "Taman Cheras Intan",
        "Post_Office": "Cheras",
        "State": "Selangor"
    },
    {
        "Postcode": "43200",
        "Location": "Taman Cheras Lagenda",
        "Post_Office": "Cheras",
        "State": "Selangor"
    },
    {
        "Postcode": "43200",
        "Location": "Taman Cheras Perdana",
        "Post_Office": "Cheras",
        "State": "Selangor"
    },
    {
        "Postcode": "43200",
        "Location": "Taman Cheras Perdana Ria",
        "Post_Office": "Cheras",
        "State": "Selangor"
    },
    {
        "Postcode": "43200",
        "Location": "Taman Cheras Permai",
        "Post_Office": "Cheras",
        "State": "Selangor"
    },
    {
        "Postcode": "43200",
        "Location": "Taman Desa Baiduri",
        "Post_Office": "Cheras",
        "State": "Selangor"
    },
    {
        "Postcode": "43200",
        "Location": "Taman Desa Wangsa",
        "Post_Office": "Cheras",
        "State": "Selangor"
    },
    {
        "Postcode": "43200",
        "Location": "Taman Fern Grove",
        "Post_Office": "Cheras",
        "State": "Selangor"
    },
    {
        "Postcode": "43200",
        "Location": "Taman Hulu Langat Jaya",
        "Post_Office": "Cheras",
        "State": "Selangor"
    },
    {
        "Postcode": "43200",
        "Location": "Taman Kasturi",
        "Post_Office": "Cheras",
        "State": "Selangor"
    },
    {
        "Postcode": "43200",
        "Location": "Taman Kemacahaya",
        "Post_Office": "Cheras",
        "State": "Selangor"
    },
    {
        "Postcode": "43200",
        "Location": "Taman Koperasi Maju Jaya",
        "Post_Office": "Cheras",
        "State": "Selangor"
    },
    {
        "Postcode": "43200",
        "Location": "Taman Lagenda Mas",
        "Post_Office": "Cheras",
        "State": "Selangor"
    },
    {
        "Postcode": "43200",
        "Location": "Taman Mas 3",
        "Post_Office": "Cheras",
        "State": "Selangor"
    },
    {
        "Postcode": "43200",
        "Location": "Taman Minang",
        "Post_Office": "Cheras",
        "State": "Selangor"
    },
    {
        "Postcode": "43200",
        "Location": "Taman Permai Mas",
        "Post_Office": "Cheras",
        "State": "Selangor"
    },
    {
        "Postcode": "43200",
        "Location": "Taman Pinggiran Mahkota",
        "Post_Office": "Cheras",
        "State": "Selangor"
    },
    {
        "Postcode": "43200",
        "Location": "Taman Prima Sayang",
        "Post_Office": "Cheras",
        "State": "Selangor"
    },
    {
        "Postcode": "43200",
        "Location": "Taman Seri Taming",
        "Post_Office": "Cheras",
        "State": "Selangor"
    },
    {
        "Postcode": "43200",
        "Location": "Taman Sri Mujur",
        "Post_Office": "Cheras",
        "State": "Selangor"
    },
    {
        "Postcode": "43200",
        "Location": "Taman Taming Maju",
        "Post_Office": "Cheras",
        "State": "Selangor"
    },
    {
        "Postcode": "43200",
        "Location": "Bandar Mahkota Cheras",
        "Post_Office": "Cheras",
        "State": "Selangor"
    },
    {
        "Postcode": "43200",
        "Location": "Bandar Tun Hussein Onn",
        "Post_Office": "Cheras",
        "State": "Selangor"
    },
    {
        "Postcode": "43200",
        "Location": "Batu 9 Cheras",
        "Post_Office": "Cheras",
        "State": "Selangor"
    },
    {
        "Postcode": "43200",
        "Location": "Cheras (Km 11 - 18)",
        "Post_Office": "Cheras",
        "State": "Selangor"
    },
    {
        "Postcode": "43200",
        "Location": "Flat Cheras Perdana",
        "Post_Office": "Cheras",
        "State": "Selangor"
    },
    {
        "Postcode": "43200",
        "Location": "Kampung Baru Cina",
        "Post_Office": "Cheras",
        "State": "Selangor"
    },
    {
        "Postcode": "43200",
        "Location": "Kampung Baru Cina (Batu 11)",
        "Post_Office": "Cheras",
        "State": "Selangor"
    },
    {
        "Postcode": "43200",
        "Location": "Kampung Batu 9 1/2 (Cheras)",
        "Post_Office": "Cheras",
        "State": "Selangor"
    },
    {
        "Postcode": "43200",
        "Location": "Kampung Batu 9 Cheras",
        "Post_Office": "Cheras",
        "State": "Selangor"
    },
    {
        "Postcode": "43200",
        "Location": "Kampung Datok Tambi Nazir",
        "Post_Office": "Cheras",
        "State": "Selangor"
    },
    {
        "Postcode": "43200",
        "Location": "Kampung Jalan Balakong",
        "Post_Office": "Cheras",
        "State": "Selangor"
    },
    {
        "Postcode": "43200",
        "Location": "Kampung Sungai Raya",
        "Post_Office": "Cheras",
        "State": "Selangor"
    },
    {
        "Postcode": "43200",
        "Location": "Kem Pph",
        "Post_Office": "Cheras",
        "State": "Selangor"
    },
    {
        "Postcode": "43200",
        "Location": "Kompleks Membeli Belah Aeon Cheras Selatan",
        "Post_Office": "Cheras",
        "State": "Selangor"
    },
    {
        "Postcode": "43200",
        "Location": "Lebuh Tun Hussien Onn",
        "Post_Office": "Cheras",
        "State": "Selangor"
    },
    {
        "Postcode": "43200",
        "Location": "Pangsapuri Sering Akasia",
        "Post_Office": "Cheras",
        "State": "Selangor"
    },
    {
        "Postcode": "43200",
        "Location": "Pangsapuri Sering Casuarina",
        "Post_Office": "Cheras",
        "State": "Selangor"
    },
    {
        "Postcode": "43200",
        "Location": "Rumah Pkns Cheras Jaya",
        "Post_Office": "Cheras",
        "State": "Selangor"
    },
    {
        "Postcode": "43200",
        "Location": "Taman Balakong",
        "Post_Office": "Cheras",
        "State": "Selangor"
    },
    {
        "Postcode": "43200",
        "Location": "Taman Belimbing",
        "Post_Office": "Cheras",
        "State": "Selangor"
    },
    {
        "Postcode": "43200",
        "Location": "Taman Cheras Awana",
        "Post_Office": "Cheras",
        "State": "Selangor"
    },
    {
        "Postcode": "43200",
        "Location": "Taman Cheras Emas",
        "Post_Office": "Cheras",
        "State": "Selangor"
    },
    {
        "Postcode": "43200",
        "Location": "Taman Cheras Indah",
        "Post_Office": "Cheras",
        "State": "Selangor"
    },
    {
        "Postcode": "43200",
        "Location": "Taman Cheras Jaya",
        "Post_Office": "Cheras",
        "State": "Selangor"
    },
    {
        "Postcode": "43200",
        "Location": "Taman Cheras Mas",
        "Post_Office": "Cheras",
        "State": "Selangor"
    },
    {
        "Postcode": "43200",
        "Location": "Taman Cheras Permata",
        "Post_Office": "Cheras",
        "State": "Selangor"
    },
    {
        "Postcode": "43200",
        "Location": "Taman Cheras Vista",
        "Post_Office": "Cheras",
        "State": "Selangor"
    },
    {
        "Postcode": "43200",
        "Location": "Taman Cheras Zen",
        "Post_Office": "Cheras",
        "State": "Selangor"
    },
    {
        "Postcode": "43200",
        "Location": "Taman Cuepacs",
        "Post_Office": "Cheras",
        "State": "Selangor"
    },
    {
        "Postcode": "43200",
        "Location": "Taman Damai Jaya",
        "Post_Office": "Cheras",
        "State": "Selangor"
    },
    {
        "Postcode": "43200",
        "Location": "Taman Emas",
        "Post_Office": "Cheras",
        "State": "Selangor"
    },
    {
        "Postcode": "43200",
        "Location": "Taman Fern Groove",
        "Post_Office": "Cheras",
        "State": "Selangor"
    },
    {
        "Postcode": "43200",
        "Location": "Taman Good Earth",
        "Post_Office": "Cheras",
        "State": "Selangor"
    },
    {
        "Postcode": "43200",
        "Location": "Taman Hussin Onn",
        "Post_Office": "Cheras",
        "State": "Selangor"
    },
    {
        "Postcode": "43200",
        "Location": "Taman Kemanchaya",
        "Post_Office": "Cheras",
        "State": "Selangor"
    },
    {
        "Postcode": "43200",
        "Location": "Taman Kota Cheras",
        "Post_Office": "Cheras",
        "State": "Selangor"
    },
    {
        "Postcode": "43200",
        "Location": "Taman Lavender",
        "Post_Office": "Cheras",
        "State": "Selangor"
    },
    {
        "Postcode": "43200",
        "Location": "Taman Mahkota Mutiara",
        "Post_Office": "Cheras",
        "State": "Selangor"
    },
    {
        "Postcode": "43200",
        "Location": "Taman Mas",
        "Post_Office": "Cheras",
        "State": "Selangor"
    },
    {
        "Postcode": "43200",
        "Location": "Taman Mas Jaya",
        "Post_Office": "Cheras",
        "State": "Selangor"
    },
    {
        "Postcode": "43200",
        "Location": "Taman Masria",
        "Post_Office": "Cheras",
        "State": "Selangor"
    },
    {
        "Postcode": "43200",
        "Location": "Taman Minang Ria",
        "Post_Office": "Cheras",
        "State": "Selangor"
    },
    {
        "Postcode": "43200",
        "Location": "Taman Mudun",
        "Post_Office": "Cheras",
        "State": "Selangor"
    },
    {
        "Postcode": "43200",
        "Location": "Taman Murai",
        "Post_Office": "Cheras",
        "State": "Selangor"
    },
    {
        "Postcode": "43200",
        "Location": "Taman Naga",
        "Post_Office": "Cheras",
        "State": "Selangor"
    },
    {
        "Postcode": "43200",
        "Location": "Taman Prima Suria",
        "Post_Office": "Cheras",
        "State": "Selangor"
    },
    {
        "Postcode": "43200",
        "Location": "Taman Putri Jaya",
        "Post_Office": "Cheras",
        "State": "Selangor"
    },
    {
        "Postcode": "43200",
        "Location": "Taman Rasa Sayang",
        "Post_Office": "Cheras",
        "State": "Selangor"
    },
    {
        "Postcode": "43200",
        "Location": "Taman Seri Cheras",
        "Post_Office": "Cheras",
        "State": "Selangor"
    },
    {
        "Postcode": "43200",
        "Location": "Taman Seri Cheras Jaya",
        "Post_Office": "Cheras",
        "State": "Selangor"
    },
    {
        "Postcode": "43200",
        "Location": "Taman Seri Melaka",
        "Post_Office": "Cheras",
        "State": "Selangor"
    },
    {
        "Postcode": "43200",
        "Location": "Taman Seri Minang",
        "Post_Office": "Cheras",
        "State": "Selangor"
    },
    {
        "Postcode": "43200",
        "Location": "Taman Seri Rasa",
        "Post_Office": "Cheras",
        "State": "Selangor"
    },
    {
        "Postcode": "43200",
        "Location": "Taman Shah Jaya",
        "Post_Office": "Cheras",
        "State": "Selangor"
    },
    {
        "Postcode": "43200",
        "Location": "Taman Sungai Sering",
        "Post_Office": "Cheras",
        "State": "Selangor"
    },
    {
        "Postcode": "43200",
        "Location": "Taman Suntex",
        "Post_Office": "Cheras",
        "State": "Selangor"
    },
    {
        "Postcode": "43200",
        "Location": "Taman Sunway Cheras",
        "Post_Office": "Cheras",
        "State": "Selangor"
    },
    {
        "Postcode": "43200",
        "Location": "Taman Tun Perak",
        "Post_Office": "Cheras",
        "State": "Selangor"
    },
    {
        "Postcode": "43200",
        "Location": "Taman Wangsa Cheras",
        "Post_Office": "Cheras",
        "State": "Selangor"
    },
    {
        "Postcode": "43200",
        "Location": "Jalan Hijauan Residen 2A",
        "Post_Office": "Cheras",
        "State": "Selangor"
    },
    {
        "Postcode": "43200",
        "Location": "Jalan Sering 3",
        "Post_Office": "Cheras",
        "State": "Selangor"
    },
    {
        "Postcode": "43200",
        "Location": "Jalan Sering 3A",
        "Post_Office": "Cheras",
        "State": "Selangor"
    },
    {
        "Postcode": "43200",
        "Location": "Jalan Sering 5",
        "Post_Office": "Cheras",
        "State": "Selangor"
    },
    {
        "Postcode": "43200",
        "Location": "Pangsapuri Sering Akasia, Jln. Sering 3",
        "Post_Office": "Cheras",
        "State": "Selangor"
    },
    {
        "Postcode": "43200",
        "Location": "Pangsapuri Sering Angsana, Jln. Sering 3A",
        "Post_Office": "Cheras",
        "State": "Selangor"
    },
    {
        "Postcode": "43200",
        "Location": "Pangsapuri Sering Casuarina, Jln. Sering 3",
        "Post_Office": "Cheras",
        "State": "Selangor"
    },
    {
        "Postcode": "43200",
        "Location": "Taman Hijauan Residen",
        "Post_Office": "Cheras",
        "State": "Selangor"
    },
    {
        "Postcode": "43200",
        "Location": "Carrefour Bandar Tun Hussien Onn",
        "Post_Office": "Cheras",
        "State": "Selangor"
    },
    {
        "Postcode": "43200",
        "Location": "Jalan Suarasa 1",
        "Post_Office": "Cheras",
        "State": "Selangor"
    },
    {
        "Postcode": "43200",
        "Location": "Persiaran Puteri 1",
        "Post_Office": "Cheras",
        "State": "Selangor"
    },
    {
        "Postcode": "43200",
        "Location": "Apartment Puncak Baiduri",
        "Post_Office": "Cheras",
        "State": "Selangor"
    },
    {
        "Postcode": "43200",
        "Location": "Jalan Puncak Baiduri",
        "Post_Office": "Cheras",
        "State": "Selangor"
    },
    {
        "Postcode": "43200",
        "Location": "Jalan Seri Budiman 1/1",
        "Post_Office": "Cheras",
        "State": "Selangor"
    },
    {
        "Postcode": "43200",
        "Location": "Jalan Awana 5",
        "Post_Office": "Cheras",
        "State": "Selangor"
    },
    {
        "Postcode": "43200",
        "Location": "Jalan Kemacahaya 11",
        "Post_Office": "Cheras",
        "State": "Selangor"
    },
    {
        "Postcode": "43200",
        "Location": "Jalan Penghulu 42/3",
        "Post_Office": "Cheras",
        "State": "Selangor"
    },
    {
        "Postcode": "43200",
        "Location": "Jalan Penghulu 42/3A",
        "Post_Office": "Cheras",
        "State": "Selangor"
    },
    {
        "Postcode": "43200",
        "Location": "Jalan Penghulu 44/3",
        "Post_Office": "Cheras",
        "State": "Selangor"
    },
    {
        "Postcode": "43200",
        "Location": "Jalan Penghulu 44/3A",
        "Post_Office": "Cheras",
        "State": "Selangor"
    },
    {
        "Postcode": "43200",
        "Location": "Jalan Seri Budiman 3/1",
        "Post_Office": "Cheras",
        "State": "Selangor"
    },
    {
        "Postcode": "43200",
        "Location": "Pangsapuri Casa Suria",
        "Post_Office": "Cheras",
        "State": "Selangor"
    },
    {
        "Postcode": "43200",
        "Location": "Taman Seri Budiman",
        "Post_Office": "Cheras",
        "State": "Selangor"
    },
    {
        "Postcode": "43200",
        "Location": "Jalan Penghulu",
        "Post_Office": "Cheras",
        "State": "Selangor"
    },
    {
        "Postcode": "43200",
        "Location": "Jalan Shahbandar 12/6A",
        "Post_Office": "Cheras",
        "State": "Selangor"
    },
    {
        "Postcode": "43200",
        "Location": "Jalan Temenggung 21/9",
        "Post_Office": "Cheras",
        "State": "Selangor"
    },
    {
        "Postcode": "43200",
        "Location": "Jalan Kpb 2",
        "Post_Office": "Cheras",
        "State": "Selangor"
    },
    {
        "Postcode": "43200",
        "Location": "Kawasan Perindustrian Budiman",
        "Post_Office": "Cheras",
        "State": "Selangor"
    },
    {
        "Postcode": "43200",
        "Location": "Persiaran Suarasa 3",
        "Post_Office": "Cheras",
        "State": "Selangor"
    },
    {
        "Postcode": "43200",
        "Location": "Taman Sutera Residensi",
        "Post_Office": "Cheras",
        "State": "Selangor"
    },
    {
        "Postcode": "43200",
        "Location": "Green Residence",
        "Post_Office": "Cheras",
        "State": "Selangor"
    },
    {
        "Postcode": "43200",
        "Location": "Taman Bukit Segar Jaya",
        "Post_Office": "Cheras",
        "State": "Selangor"
    },
    {
        "Postcode": "43200",
        "Location": "The Mark@Cheras",
        "Post_Office": "Cheras",
        "State": "Selangor"
    },
    {
        "Postcode": "43200",
        "Location": "Emerald Residence",
        "Post_Office": "Cheras",
        "State": "Selangor"
    },
    {
        "Postcode": "43200",
        "Location": "Imperial Residence",
        "Post_Office": "Cheras",
        "State": "Selangor"
    },
    {
        "Postcode": "43200",
        "Location": "Cheras Selatan 118 Business Park",
        "Post_Office": "Cheras",
        "State": "Selangor"
    },
    {
        "Postcode": "43200",
        "Location": "Taman Beringin",
        "Post_Office": "Cheras",
        "State": "Selangor"
    },
    {
        "Postcode": "43200",
        "Location": "Tasik Vista Residen",
        "Post_Office": "Cheras",
        "State": "Selangor"
    },
    {
        "Postcode": "43200",
        "Location": "Platinium Cheras Business Centre",
        "Post_Office": "Cheras",
        "State": "Selangor"
    },
    {
        "Postcode": "43200",
        "Location": "Cheras Vista Heights",
        "Post_Office": "Cheras",
        "State": "Selangor"
    },
    {
        "Postcode": "43200",
        "Location": "Jalan Kpb 18",
        "Post_Office": "Cheras",
        "State": "Selangor"
    },
    {
        "Postcode": "43200",
        "Location": "Taman Sri Raya",
        "Post_Office": "Cheras",
        "State": "Selangor"
    },
    {
        "Postcode": "43200",
        "Location": "Taman Bukit Segar",
        "Post_Office": "Cheras",
        "State": "Selangor"
    },
    {
        "Postcode": "43200",
        "Location": "Bandar Damai Perdana",
        "Post_Office": "Cheras",
        "State": "Selangor"
    },
    {
        "Postcode": "43200",
        "Location": "Pusat Komersial Cheras Selatan 118",
        "Post_Office": "Cheras",
        "State": "Selangor"
    },
    {
        "Postcode": "43200",
        "Location": "Batu 11 Cheras",
        "Post_Office": "Cheras",
        "State": "Selangor"
    },
    {
        "Postcode": "43200",
        "Location": "Dataran Perniagaan Cheras",
        "Post_Office": "Cheras",
        "State": "Selangor"
    },
    {
        "Postcode": "43200",
        "Location": "Persiaran Sri Raya",
        "Post_Office": "Cheras",
        "State": "Selangor"
    },
    {
        "Postcode": "43200",
        "Location": "Jalan Persiaran You City",
        "Post_Office": "Cheras",
        "State": "Selangor"
    },
    {
        "Postcode": "43200",
        "Location": "Jalan Suria Residen",
        "Post_Office": "Cheras",
        "State": "Selangor"
    },
    {
        "Postcode": "43200",
        "Location": "Jalan Juara",
        "Post_Office": "Cheras",
        "State": "Selangor"
    },
    {
        "Postcode": "43200",
        "Location": "Jalan Juara 1/5",
        "Post_Office": "Cheras",
        "State": "Selangor"
    },
    {
        "Postcode": "43200",
        "Location": "Persiaran Metro",
        "Post_Office": "Cheras",
        "State": "Selangor"
    },
    {
        "Postcode": "43200",
        "Location": "Taman Orkid",
        "Post_Office": "Cheras",
        "State": "Selangor"
    },
    {
        "Postcode": "43200",
        "Location": "Taman Bukit Hatamas",
        "Post_Office": "Cheras",
        "State": "Selangor"
    },
    {
        "Postcode": "43200",
        "Location": "Kampung Bahru Cheras",
        "Post_Office": "Cheras",
        "State": "Selangor"
    },
    {
        "Postcode": "43200",
        "Location": "Taman Indah",
        "Post_Office": "Cheras",
        "State": "Selangor"
    },
    {
        "Postcode": "43200",
        "Location": "Taman Sri Indah",
        "Post_Office": "Cheras",
        "State": "Selangor"
    },
    {
        "Postcode": "43200",
        "Location": "Taman Murni",
        "Post_Office": "Cheras",
        "State": "Selangor"
    },
    {
        "Postcode": "43200",
        "Location": "Columbia Asia Hospital",
        "Post_Office": "Cheras",
        "State": "Selangor"
    },
    {
        "Postcode": "43200",
        "Location": "Jalan Suakasih",
        "Post_Office": "Cheras",
        "State": "Selangor"
    },
    {
        "Postcode": "43200",
        "Location": "Jalan Bentara 18/5",
        "Post_Office": "Cheras",
        "State": "Selangor"
    },
    {
        "Postcode": "43200",
        "Location": "Jalan Maharaja",
        "Post_Office": "Cheras",
        "State": "Selangor"
    },
    {
        "Postcode": "43200",
        "Location": "Jalan Mahkota Heights 1",
        "Post_Office": "Cheras",
        "State": "Selangor"
    },
    {
        "Postcode": "43200",
        "Location": "Jalan Penggawa 9/2",
        "Post_Office": "Cheras",
        "State": "Selangor"
    },
    {
        "Postcode": "43200",
        "Location": "Jalan Tun Perak 1",
        "Post_Office": "Cheras",
        "State": "Selangor"
    },
    {
        "Postcode": "43200",
        "Location": "Taman Segar Perdana",
        "Post_Office": "Cheras",
        "State": "Selangor"
    },
    {
        "Postcode": "43200",
        "Location": "Jalan Hulu Langat",
        "Post_Office": "Cheras",
        "State": "Selangor"
    },
    {
        "Postcode": "43200",
        "Location": "Pangsapuri Prima Villa",
        "Post_Office": "Cheras",
        "State": "Selangor"
    },
    {
        "Postcode": "43200",
        "Location": "Jalan Kinabalu",
        "Post_Office": "Cheras",
        "State": "Selangor"
    },
    {
        "Postcode": "43200",
        "Location": "Mahkota Residence",
        "Post_Office": "Cheras",
        "State": "Selangor"
    },
    {
        "Postcode": "43200",
        "Location": "Maktab Polis Diraja Malaysia",
        "Post_Office": "Cheras",
        "State": "Selangor"
    },
    {
        "Postcode": "43200",
        "Location": "Suria Residence",
        "Post_Office": "Cheras",
        "State": "Selangor"
    },
    {
        "Postcode": "43200",
        "Location": "Taman Sinar Mahkota 2",
        "Post_Office": "Cheras",
        "State": "Selangor"
    },
    {
        "Postcode": "43200",
        "Location": "The I-Residence",
        "Post_Office": "Cheras",
        "State": "Selangor"
    },
    {
        "Postcode": "43200",
        "Location": "You Residences",
        "Post_Office": "Cheras",
        "State": "Selangor"
    },
    {
        "Postcode": "43200",
        "Location": "The Mark Avenue",
        "Post_Office": "Cheras",
        "State": "Selangor"
    },
    {
        "Postcode": "43200",
        "Location": "Jalan Casa Green",
        "Post_Office": "Cheras",
        "State": "Selangor"
    },
    {
        "Postcode": "43200",
        "Location": "Taman Bandar Mahkota Cheras",
        "Post_Office": "Cheras",
        "State": "Selangor"
    },
    {
        "Postcode": "43200",
        "Location": "Taman Vista Hill",
        "Post_Office": "Cheras",
        "State": "Selangor"
    },
    {
        "Postcode": "43200",
        "Location": "Jalan Seri Taming",
        "Post_Office": "Cheras",
        "State": "Selangor"
    },
    {
        "Postcode": "43200",
        "Location": "Taman Mahkota Hill",
        "Post_Office": "Cheras",
        "State": "Selangor"
    },
    {
        "Postcode": "43200",
        "Location": "Kampung Melaka",
        "Post_Office": "Cheras",
        "State": "Selangor"
    },
    {
        "Postcode": "43200",
        "Location": "Taman Alam Jaya",
        "Post_Office": "Cheras",
        "State": "Selangor"
    },
    {
        "Postcode": "43200",
        "Location": "Emerald 9",
        "Post_Office": "Cheras",
        "State": "Selangor"
    },
    {
        "Postcode": "43200",
        "Location": "Residensi Bukit Orkid",
        "Post_Office": "Cheras",
        "State": "Selangor"
    },
    {
        "Postcode": "43200",
        "Location": "Taman Puncak Perdana",
        "Post_Office": "Cheras",
        "State": "Selangor"
    },
    {
        "Postcode": "43200",
        "Location": "Taman Dutamas",
        "Post_Office": "Cheras",
        "State": "Selangor"
    },
    {
        "Postcode": "43200",
        "Location": "Kawasan Perindustrian Cheras Jaya",
        "Post_Office": "Cheras",
        "State": "Selangor"
    },
    {
        "Postcode": "43200",
        "Location": "Jalan Awana 10",
        "Post_Office": "Cheras",
        "State": "Selangor"
    },
    {
        "Postcode": "43200",
        "Location": "Jalan Awana 11",
        "Post_Office": "Cheras",
        "State": "Selangor"
    },
    {
        "Postcode": "43200",
        "Location": "Jalan Awana 12",
        "Post_Office": "Cheras",
        "State": "Selangor"
    },
    {
        "Postcode": "43200",
        "Location": "Jalan Awana 13",
        "Post_Office": "Cheras",
        "State": "Selangor"
    },
    {
        "Postcode": "43200",
        "Location": "Jalan Awana 14",
        "Post_Office": "Cheras",
        "State": "Selangor"
    },
    {
        "Postcode": "43200",
        "Location": "Jalan Awana 15",
        "Post_Office": "Cheras",
        "State": "Selangor"
    },
    {
        "Postcode": "43200",
        "Location": "Jalan Awana 16",
        "Post_Office": "Cheras",
        "State": "Selangor"
    },
    {
        "Postcode": "43200",
        "Location": "Jalan Awana 17",
        "Post_Office": "Cheras",
        "State": "Selangor"
    },
    {
        "Postcode": "43200",
        "Location": "Jalan Awana 18",
        "Post_Office": "Cheras",
        "State": "Selangor"
    },
    {
        "Postcode": "43200",
        "Location": "Jalan Awana 19",
        "Post_Office": "Cheras",
        "State": "Selangor"
    },
    {
        "Postcode": "43200",
        "Location": "Jalan Awana 20",
        "Post_Office": "Cheras",
        "State": "Selangor"
    },
    {
        "Postcode": "43200",
        "Location": "Jalan Awana 21",
        "Post_Office": "Cheras",
        "State": "Selangor"
    },
    {
        "Postcode": "43200",
        "Location": "Jalan Dutamas 1",
        "Post_Office": "Cheras",
        "State": "Selangor"
    },
    {
        "Postcode": "43200",
        "Location": "Jalan Dutamas 2",
        "Post_Office": "Cheras",
        "State": "Selangor"
    },
    {
        "Postcode": "43200",
        "Location": "Jalan Dutamas 3",
        "Post_Office": "Cheras",
        "State": "Selangor"
    },
    {
        "Postcode": "43200",
        "Location": "Jalan Dutamas 4",
        "Post_Office": "Cheras",
        "State": "Selangor"
    },
    {
        "Postcode": "43200",
        "Location": "Jalan Dutamas 5",
        "Post_Office": "Cheras",
        "State": "Selangor"
    },
    {
        "Postcode": "43200",
        "Location": "Jalan Dutamas 6",
        "Post_Office": "Cheras",
        "State": "Selangor"
    },
    {
        "Postcode": "43200",
        "Location": "Jalan Dutamas 7",
        "Post_Office": "Cheras",
        "State": "Selangor"
    },
    {
        "Postcode": "43200",
        "Location": "Jalan Dutamas 8",
        "Post_Office": "Cheras",
        "State": "Selangor"
    },
    {
        "Postcode": "43200",
        "Location": "Jalan Dutamas 9",
        "Post_Office": "Cheras",
        "State": "Selangor"
    },
    {
        "Postcode": "43200",
        "Location": "Taman Megah",
        "Post_Office": "Cheras",
        "State": "Selangor"
    }
]
