[
    {
        "Postcode": "43300",
        "Location": "Serdang Heights",
        "Post_Office": "Seri Kembangan",
        "State": "Selangor"
    },
    {
        "Postcode": "43300",
        "Location": "Taman Kembangsari",
        "Post_Office": "Seri Kembangan",
        "State": "Selangor"
    },
    {
        "Postcode": "43300",
        "Location": "Taman Bukit Serdang ",
        "Post_Office": "Seri Kembangan",
        "State": "Selangor"
    },
    {
        "Postcode": "43300",
        "Location": "Bukit Bayu Indah",
        "Post_Office": "Seri Kembangan",
        "State": "Selangor"
    },
    {
        "Postcode": "43300",
        "Location": "Kampung Kenangan Indah",
        "Post_Office": "Seri Kembangan",
        "State": "Selangor"
    },
    {
        "Postcode": "43300",
        "Location": "Kawasan Perindustrian Sg Ramal Balakong",
        "Post_Office": "Seri Kembangan",
        "State": "Selangor"
    },
    {
        "Postcode": "43300",
        "Location": "Kawasan Perniagaan Desa Ria",
        "Post_Office": "Seri Kembangan",
        "State": "Selangor"
    },
    {
        "Postcode": "43300",
        "Location": "Kota Perdana",
        "Post_Office": "Seri Kembangan",
        "State": "Selangor"
    },
    {
        "Postcode": "43300",
        "Location": "Taman Belimbing Indah",
        "Post_Office": "Seri Kembangan",
        "State": "Selangor"
    },
    {
        "Postcode": "43300",
        "Location": "Taman Bukit Emas",
        "Post_Office": "Seri Kembangan",
        "State": "Selangor"
    },
    {
        "Postcode": "43300",
        "Location": "Taman Desa Karunmas",
        "Post_Office": "Seri Kembangan",
        "State": "Selangor"
    },
    {
        "Postcode": "43300",
        "Location": "Taman Harmoni Indah",
        "Post_Office": "Seri Kembangan",
        "State": "Selangor"
    },
    {
        "Postcode": "43300",
        "Location": "Taman Lestari Permai",
        "Post_Office": "Seri Kembangan",
        "State": "Selangor"
    },
    {
        "Postcode": "43300",
        "Location": "Taman Perindustrian Sri Serdang",
        "Post_Office": "Seri Kembangan",
        "State": "Selangor"
    },
    {
        "Postcode": "43300",
        "Location": "Taman Prima Tropika",
        "Post_Office": "Seri Kembangan",
        "State": "Selangor"
    },
    {
        "Postcode": "43300",
        "Location": "Taman Puncak Utama",
        "Post_Office": "Seri Kembangan",
        "State": "Selangor"
    },
    {
        "Postcode": "43300",
        "Location": "Taman Putra Budiman",
        "Post_Office": "Seri Kembangan",
        "State": "Selangor"
    },
    {
        "Postcode": "43300",
        "Location": "Taman Seri Belimbing",
        "Post_Office": "Seri Kembangan",
        "State": "Selangor"
    },
    {
        "Postcode": "43300",
        "Location": "Taman Setia Balakong",
        "Post_Office": "Seri Kembangan",
        "State": "Selangor"
    },
    {
        "Postcode": "43300",
        "Location": "Taman Sri Andalas",
        "Post_Office": "Seri Kembangan",
        "State": "Selangor"
    },
    {
        "Postcode": "43300",
        "Location": "Taman Taming Ria",
        "Post_Office": "Seri Kembangan",
        "State": "Selangor"
    },
    {
        "Postcode": "43300",
        "Location": "Jalan KB 2/15",
        "Post_Office": "Seri Kembangan",
        "State": "Selangor"
    },
    {
        "Postcode": "43300",
        "Location": "Taman Industri Balakong Impian",
        "Post_Office": "Seri Kembangan",
        "State": "Selangor"
    },
    {
        "Postcode": "43300",
        "Location": "Industri Balakong Impian",
        "Post_Office": "Seri Kembangan",
        "State": "Selangor"
    },
    {
        "Postcode": "43300",
        "Location": "Bandar Putra Permai ",
        "Post_Office": "Seri Kembangan",
        "State": "Selangor"
    },
    {
        "Postcode": "43300",
        "Location": "East Lake",
        "Post_Office": "Seri Kembangan",
        "State": "Selangor"
    },
    {
        "Postcode": "43300",
        "Location": "Jalan Bersatu",
        "Post_Office": "Seri Kembangan",
        "State": "Selangor"
    },
    {
        "Postcode": "43300",
        "Location": "Jalan Bs 7/20",
        "Post_Office": "Seri Kembangan",
        "State": "Selangor"
    },
    {
        "Postcode": "43300",
        "Location": "Jalan Cemara",
        "Post_Office": "Seri Kembangan",
        "State": "Selangor"
    },
    {
        "Postcode": "43300",
        "Location": "Jalan Persiaran Impian",
        "Post_Office": "Seri Kembangan",
        "State": "Selangor"
    },
    {
        "Postcode": "43300",
        "Location": "Jalan Sb Dagang",
        "Post_Office": "Seri Kembangan",
        "State": "Selangor"
    },
    {
        "Postcode": "43300",
        "Location": "Kampung Aman (Serdang)",
        "Post_Office": "Seri Kembangan",
        "State": "Selangor"
    },
    {
        "Postcode": "43300",
        "Location": "Kampung Baru Balakong",
        "Post_Office": "Seri Kembangan",
        "State": "Selangor"
    },
    {
        "Postcode": "43300",
        "Location": "Kampung Melindo / Melati",
        "Post_Office": "Seri Kembangan",
        "State": "Selangor"
    },
    {
        "Postcode": "43300",
        "Location": "Kampung Muhibah",
        "Post_Office": "Seri Kembangan",
        "State": "Selangor"
    },
    {
        "Postcode": "43300",
        "Location": "Kampung Sungai Kuyow",
        "Post_Office": "Seri Kembangan",
        "State": "Selangor"
    },
    {
        "Postcode": "43300",
        "Location": "Kondominium Villa Park",
        "Post_Office": "Seri Kembangan",
        "State": "Selangor"
    },
    {
        "Postcode": "43300",
        "Location": "Pangsapuri Aman Heights",
        "Post_Office": "Seri Kembangan",
        "State": "Selangor"
    },
    {
        "Postcode": "43300",
        "Location": "Pangsapuri Desa Ria",
        "Post_Office": "Seri Kembangan",
        "State": "Selangor"
    },
    {
        "Postcode": "43300",
        "Location": "Persiaran Akademi Perdana",
        "Post_Office": "Seri Kembangan",
        "State": "Selangor"
    },
    {
        "Postcode": "43300",
        "Location": "Rumah Panjang Ktm Balakong",
        "Post_Office": "Seri Kembangan",
        "State": "Selangor"
    },
    {
        "Postcode": "43300",
        "Location": "Serdang Baru",
        "Post_Office": "Seri Kembangan",
        "State": "Selangor"
    },
    {
        "Postcode": "43300",
        "Location": "Serdang Heights, Seksyen 5",
        "Post_Office": "Seri Kembangan",
        "State": "Selangor"
    },
    {
        "Postcode": "43300",
        "Location": "Serdang Jaya",
        "Post_Office": "Seri Kembangan",
        "State": "Selangor"
    },
    {
        "Postcode": "43300",
        "Location": "Serdang Lama",
        "Post_Office": "Seri Kembangan",
        "State": "Selangor"
    },
    {
        "Postcode": "43300",
        "Location": "Serdang Utama",
        "Post_Office": "Seri Kembangan",
        "State": "Selangor"
    },
    {
        "Postcode": "43300",
        "Location": "Seri Kembangan",
        "Post_Office": "Seri Kembangan",
        "State": "Selangor"
    },
    {
        "Postcode": "43300",
        "Location": "Taman Alam Putra",
        "Post_Office": "Seri Kembangan",
        "State": "Selangor"
    },
    {
        "Postcode": "43300",
        "Location": "Taman Balakong Jaya",
        "Post_Office": "Seri Kembangan",
        "State": "Selangor"
    },
    {
        "Postcode": "43300",
        "Location": "Taman Bukit Cahaya",
        "Post_Office": "Seri Kembangan",
        "State": "Selangor"
    },
    {
        "Postcode": "43300",
        "Location": "Taman Bukit Serdang Seksyen 7",
        "Post_Office": "Seri Kembangan",
        "State": "Selangor"
    },
    {
        "Postcode": "43300",
        "Location": "Taman Bukit Serdang, Seksyen 2",
        "Post_Office": "Seri Kembangan",
        "State": "Selangor"
    },
    {
        "Postcode": "43300",
        "Location": "Taman Bukit Serdang, Seksyen 4 ",
        "Post_Office": "Seri Kembangan",
        "State": "Selangor"
    },
    {
        "Postcode": "43300",
        "Location": "Taman Bunga Raya",
        "Post_Office": "Seri Kembangan",
        "State": "Selangor"
    },
    {
        "Postcode": "43300",
        "Location": "Taman Dagang Sungai Besi Indah",
        "Post_Office": "Seri Kembangan",
        "State": "Selangor"
    },
    {
        "Postcode": "43300",
        "Location": "Taman Desa Rose",
        "Post_Office": "Seri Kembangan",
        "State": "Selangor"
    },
    {
        "Postcode": "43300",
        "Location": "Taman Desaminium",
        "Post_Office": "Seri Kembangan",
        "State": "Selangor"
    },
    {
        "Postcode": "43300",
        "Location": "Taman Equine",
        "Post_Office": "Seri Kembangan",
        "State": "Selangor"
    },
    {
        "Postcode": "43300",
        "Location": "Taman Impian Ehsan",
        "Post_Office": "Seri Kembangan",
        "State": "Selangor"
    },
    {
        "Postcode": "43300",
        "Location": "Taman Impian Indah",
        "Post_Office": "Seri Kembangan",
        "State": "Selangor"
    },
    {
        "Postcode": "43300",
        "Location": "Taman Industri Selesa Jaya",
        "Post_Office": "Seri Kembangan",
        "State": "Selangor"
    },
    {
        "Postcode": "43300",
        "Location": "Taman Jinma",
        "Post_Office": "Seri Kembangan",
        "State": "Selangor"
    },
    {
        "Postcode": "43300",
        "Location": "Taman Muhibbah",
        "Post_Office": "Seri Kembangan",
        "State": "Selangor"
    },
    {
        "Postcode": "43300",
        "Location": "Taman Perindustrian Balakong Jaya 2",
        "Post_Office": "Seri Kembangan",
        "State": "Selangor"
    },
    {
        "Postcode": "43300",
        "Location": "Taman Perindustrian Bukit Serdang",
        "Post_Office": "Seri Kembangan",
        "State": "Selangor"
    },
    {
        "Postcode": "43300",
        "Location": "Taman Puncak Jalil",
        "Post_Office": "Seri Kembangan",
        "State": "Selangor"
    },
    {
        "Postcode": "43300",
        "Location": "Taman Putra Indah",
        "Post_Office": "Seri Kembangan",
        "State": "Selangor"
    },
    {
        "Postcode": "43300",
        "Location": "Taman Putra Jaya (Serdang Raya)",
        "Post_Office": "Seri Kembangan",
        "State": "Selangor"
    },
    {
        "Postcode": "43300",
        "Location": "Taman Selesa Jaya",
        "Post_Office": "Seri Kembangan",
        "State": "Selangor"
    },
    {
        "Postcode": "43300",
        "Location": "Taman Serdang Jaya",
        "Post_Office": "Seri Kembangan",
        "State": "Selangor"
    },
    {
        "Postcode": "43300",
        "Location": "Taman Serdang Perdana",
        "Post_Office": "Seri Kembangan",
        "State": "Selangor"
    },
    {
        "Postcode": "43300",
        "Location": "Taman Serdang Perdana Seksyen 3",
        "Post_Office": "Seri Kembangan",
        "State": "Selangor"
    },
    {
        "Postcode": "43300",
        "Location": "Taman Serdang Perdana Seksyen 4",
        "Post_Office": "Seri Kembangan",
        "State": "Selangor"
    },
    {
        "Postcode": "43300",
        "Location": "Taman Serdang Perdana Seksyen 5",
        "Post_Office": "Seri Kembangan",
        "State": "Selangor"
    },
    {
        "Postcode": "43300",
        "Location": "Taman Serdang Permata",
        "Post_Office": "Seri Kembangan",
        "State": "Selangor"
    },
    {
        "Postcode": "43300",
        "Location": "Taman Serdang Raya",
        "Post_Office": "Seri Kembangan",
        "State": "Selangor"
    },
    {
        "Postcode": "43300",
        "Location": "Taman Serdang Utama",
        "Post_Office": "Seri Kembangan",
        "State": "Selangor"
    },
    {
        "Postcode": "43300",
        "Location": "Taman Seri Jasa",
        "Post_Office": "Seri Kembangan",
        "State": "Selangor"
    },
    {
        "Postcode": "43300",
        "Location": "Taman Seri Timah",
        "Post_Office": "Seri Kembangan",
        "State": "Selangor"
    },
    {
        "Postcode": "43300",
        "Location": "Taman Sungai Besi Indah",
        "Post_Office": "Seri Kembangan",
        "State": "Selangor"
    },
    {
        "Postcode": "43300",
        "Location": "Taman Taming Jaya",
        "Post_Office": "Seri Kembangan",
        "State": "Selangor"
    },
    {
        "Postcode": "43300",
        "Location": "Taman Tanming Permai",
        "Post_Office": "Seri Kembangan",
        "State": "Selangor"
    },
    {
        "Postcode": "43300",
        "Location": "Taman Teras Oak",
        "Post_Office": "Seri Kembangan",
        "State": "Selangor"
    },
    {
        "Postcode": "43300",
        "Location": "Taman Universiti Indah",
        "Post_Office": "Seri Kembangan",
        "State": "Selangor"
    },
    {
        "Postcode": "43300",
        "Location": "The Mines Resort City",
        "Post_Office": "Seri Kembangan",
        "State": "Selangor"
    },
    {
        "Postcode": "43300",
        "Location": "The Mines Waterfront Bussiness Park",
        "Post_Office": "Seri Kembangan",
        "State": "Selangor"
    },
    {
        "Postcode": "43300",
        "Location": "The Mines Wonderland",
        "Post_Office": "Seri Kembangan",
        "State": "Selangor"
    },
    {
        "Postcode": "43300",
        "Location": "Bukit Gita Bayu",
        "Post_Office": "Seri Kembangan",
        "State": "Selangor"
    },
    {
        "Postcode": "43300",
        "Location": "Jalan Aman Sk 13/5A",
        "Post_Office": "Seri Kembangan",
        "State": "Selangor"
    },
    {
        "Postcode": "43300",
        "Location": "Kampung Baru Seri Kembangan",
        "Post_Office": "Seri Kembangan",
        "State": "Selangor"
    },
    {
        "Postcode": "43300",
        "Location": "Pangsapuri Cahaya Permai",
        "Post_Office": "Seri Kembangan",
        "State": "Selangor"
    },
    {
        "Postcode": "43300",
        "Location": "Persiaran Permai Sentosa",
        "Post_Office": "Seri Kembangan",
        "State": "Selangor"
    },
    {
        "Postcode": "43300",
        "Location": "Pusat Bandar Putra Permai",
        "Post_Office": "Seri Kembangan",
        "State": "Selangor"
    },
    {
        "Postcode": "43300",
        "Location": "Jalan D'Impian 1",
        "Post_Office": "Seri Kembangan",
        "State": "Selangor"
    },
    {
        "Postcode": "43300",
        "Location": "Taman D'Impian Tropika",
        "Post_Office": "Seri Kembangan",
        "State": "Selangor"
    },
    {
        "Postcode": "43300",
        "Location": "Jalan Balakong Jaya 5",
        "Post_Office": "Seri Kembangan",
        "State": "Selangor"
    },
    {
        "Postcode": "43300",
        "Location": "Jalan Bs 3/1A",
        "Post_Office": "Seri Kembangan",
        "State": "Selangor"
    },
    {
        "Postcode": "43300",
        "Location": "Jalan Equine 6F",
        "Post_Office": "Seri Kembangan",
        "State": "Selangor"
    },
    {
        "Postcode": "43300",
        "Location": "Residensi Bukit Tiara",
        "Post_Office": "Seri Kembangan",
        "State": "Selangor"
    },
    {
        "Postcode": "43300",
        "Location": "Jalan Makmur 3/1",
        "Post_Office": "Seri Kembangan",
        "State": "Selangor"
    },
    {
        "Postcode": "43300",
        "Location": "Jalan Pinggiran 1/1",
        "Post_Office": "Seri Kembangan",
        "State": "Selangor"
    },
    {
        "Postcode": "43300",
        "Location": "Dataran Mutiara",
        "Post_Office": "Seri Kembangan",
        "State": "Selangor"
    },
    {
        "Postcode": "43300",
        "Location": "Mutiara Residence ",
        "Post_Office": "Seri Kembangan",
        "State": "Selangor"
    },
    {
        "Postcode": "43300",
        "Location": "Pusat Perniagaan Olive Hill",
        "Post_Office": "Seri Kembangan",
        "State": "Selangor"
    },
    {
        "Postcode": "43300",
        "Location": "Kawasan Perindustrian Kampung Baru Balakong",
        "Post_Office": "Seri Kembangan",
        "State": "Selangor"
    },
    {
        "Postcode": "43300",
        "Location": "Kompleks Rapidbus Cheras Selatan",
        "Post_Office": "Seri Kembangan",
        "State": "Selangor"
    },
    {
        "Postcode": "43300",
        "Location": "Com Industrial Park 2",
        "Post_Office": "Seri Kembangan",
        "State": "Selangor"
    },
    {
        "Postcode": "43300",
        "Location": "Sulk Sky Residence",
        "Post_Office": "Seri Kembangan",
        "State": "Selangor"
    },
    {
        "Postcode": "43300",
        "Location": "Pusat Perniagaan The Atmosphere 8",
        "Post_Office": "Seri Kembangan",
        "State": "Selangor"
    },
    {
        "Postcode": "43300",
        "Location": "Cahaya Villa",
        "Post_Office": "Seri Kembangan",
        "State": "Selangor"
    },
    {
        "Postcode": "43300",
        "Location": "Mines Wellness City",
        "Post_Office": "Seri Kembangan",
        "State": "Selangor"
    },
    {
        "Postcode": "43300",
        "Location": "Nouvelle Industrial Park",
        "Post_Office": "Seri Kembangan",
        "State": "Selangor"
    },
    {
        "Postcode": "43300",
        "Location": "One Industrial Park",
        "Post_Office": "Seri Kembangan",
        "State": "Selangor"
    },
    {
        "Postcode": "43300",
        "Location": "Persiaran Taman Impian Indah",
        "Post_Office": "Seri Kembangan",
        "State": "Selangor"
    },
    {
        "Postcode": "43300",
        "Location": "Jalan Simfoni Baulevard 1",
        "Post_Office": "Seri Kembangan",
        "State": "Selangor"
    },
    {
        "Postcode": "43300",
        "Location": "Jalan Simfoni Baulevard 2",
        "Post_Office": "Seri Kembangan",
        "State": "Selangor"
    },
    {
        "Postcode": "43300",
        "Location": "Menara Simfoni",
        "Post_Office": "Seri Kembangan",
        "State": "Selangor"
    },
    {
        "Postcode": "43300",
        "Location": "Taman Suria Tropika",
        "Post_Office": "Seri Kembangan",
        "State": "Selangor"
    },
    {
        "Postcode": "43300",
        "Location": "Jalan Rimbunan Hijau 2",
        "Post_Office": "Seri Kembangan",
        "State": "Selangor"
    },
    {
        "Postcode": "43300",
        "Location": "Taman Perindustrian Alfa Impian",
        "Post_Office": "Seri Kembangan",
        "State": "Selangor"
    },
    {
        "Postcode": "43300",
        "Location": "Pusat Perniagaan Taming Jaya 1",
        "Post_Office": "Seri Kembangan",
        "State": "Selangor"
    },
    {
        "Postcode": "43300",
        "Location": "Pusat Perniagaan Taming Jaya 2",
        "Post_Office": "Seri Kembangan",
        "State": "Selangor"
    },
    {
        "Postcode": "43300",
        "Location": "Taman Lestari Perdana",
        "Post_Office": "Seri Kembangan",
        "State": "Selangor"
    },
    {
        "Postcode": "43300",
        "Location": "Jalan Juara",
        "Post_Office": "Seri Kembangan",
        "State": "Selangor"
    },
    {
        "Postcode": "43300",
        "Location": "Pusat Perdagangan Seri Kembangan",
        "Post_Office": "Seri Kembangan",
        "State": "Selangor"
    },
    {
        "Postcode": "43300",
        "Location": "Akasa Cheras Selatan",
        "Post_Office": "Seri Kembangan",
        "State": "Selangor"
    },
    {
        "Postcode": "43300",
        "Location": "Taman Bayu Heights 2",
        "Post_Office": "Seri Kembangan",
        "State": "Selangor"
    },
    {
        "Postcode": "43300",
        "Location": "Taman Simfoni",
        "Post_Office": "Seri Kembangan",
        "State": "Selangor"
    },
    {
        "Postcode": "43300",
        "Location": "Laman Seri Cahaya",
        "Post_Office": "Seri Kembangan",
        "State": "Selangor"
    },
    {
        "Postcode": "43300",
        "Location": "Kawasan Perindustrian Balakong",
        "Post_Office": "Sri Kembangan",
        "State": "Selangor"
    },
    {
        "Postcode": "43300",
        "Location": "Jalan Suria Park 1",
        "Post_Office": "Seri Kembangan",
        "State": "Selangor"
    },
    {
        "Postcode": "43300",
        "Location": "Persiaran Seri Timah",
        "Post_Office": "Seri Kembangan",
        "State": "Selangor"
    },
    {
        "Postcode": "43300",
        "Location": "Jalan Mesra Utama 1",
        "Post_Office": "Seri Kembangan",
        "State": "Selangor"
    },
    {
        "Postcode": "43300",
        "Location": "Jalan Mesra Utama 2",
        "Post_Office": "Seri Kembangan",
        "State": "Selangor"
    },
    {
        "Postcode": "43300",
        "Location": "Jalan Mesra Utama 3",
        "Post_Office": "Seri Kembangan",
        "State": "Selangor"
    },
    {
        "Postcode": "43300",
        "Location": "Jalan Mesra Utama 4",
        "Post_Office": "Seri Kembangan",
        "State": "Selangor"
    },
    {
        "Postcode": "43300",
        "Location": "Jalan Mesra Utama 5",
        "Post_Office": "Seri Kembangan",
        "State": "Selangor"
    },
    {
        "Postcode": "43300",
        "Location": "Jalan Mesra Utama 6",
        "Post_Office": "Seri Kembangan",
        "State": "Selangor"
    },
    {
        "Postcode": "43300",
        "Location": "Jalan Mesra Utama 7",
        "Post_Office": "Seri Kembangan",
        "State": "Selangor"
    },
    {
        "Postcode": "43300",
        "Location": "Taman Bukit Belimbing",
        "Post_Office": "Seri Kembangan",
        "State": "Selangor"
    },
    {
        "Postcode": "43300",
        "Location": "Taman Desa Serdang",
        "Post_Office": "Seri Kembangan",
        "State": "Selangor"
    },
    {
        "Postcode": "43300",
        "Location": "Taman Industri Balakong Jaya",
        "Post_Office": "Seri Kembangan",
        "State": "Selangor"
    },
    {
        "Postcode": "43300",
        "Location": "Taman Juara Jaya",
        "Post_Office": "Seri Kembangan",
        "State": "Selangor"
    },
    {
        "Postcode": "43300",
        "Location": "Taman Mesra Utama",
        "Post_Office": "Seri Kembangan",
        "State": "Selangor"
    },
    {
        "Postcode": "43300",
        "Location": "Taman Perindustrian Taming Jaya",
        "Post_Office": "Seri Kembangan",
        "State": "Selangor"
    },
    {
        "Postcode": "43300",
        "Location": "Taman Sri Serdang",
        "Post_Office": "Seri Kembangan",
        "State": "Selangor"
    },
    {
        "Postcode": "43300",
        "Location": "Persiaran Pinggiran Putra 2",
        "Post_Office": "Seri Kembangan",
        "State": "Selangor"
    },
    {
        "Postcode": "43300",
        "Location": "Taman Harmoni",
        "Post_Office": "Seri Kembangan",
        "State": "Selangor"
    },
    {
        "Postcode": "43300",
        "Location": "Kampung Kenangan",
        "Post_Office": "Seri Kembangan",
        "State": "Selangor"
    },
    {
        "Postcode": "43300",
        "Location": "Taman Sinaran",
        "Post_Office": "Seri Kembangan",
        "State": "Selangor"
    },
    {
        "Postcode": "43300",
        "Location": "Jalan 6/2B",
        "Post_Office": "Seri Kembangan",
        "State": "Selangor"
    },
    {
        "Postcode": "43300",
        "Location": "Taman Industri Talent Jaya",
        "Post_Office": "Seri Kembangan",
        "State": "Selangor"
    },
    {
        "Postcode": "43300",
        "Location": "Jalan Besar Susur 1",
        "Post_Office": "Seri Kembangan",
        "State": "Selangor"
    },
    {
        "Postcode": "43300",
        "Location": "Jalan Putra Permai",
        "Post_Office": "Seri Kembangan",
        "State": "Selangor"
    },
    {
        "Postcode": "43300",
        "Location": "Jalan Alam Putra 3A/1",
        "Post_Office": "Seri Kembangan",
        "State": "Selangor"
    },
    {
        "Postcode": "43300",
        "Location": "Ml 16 Industrial Park",
        "Post_Office": "Seri Kembangan",
        "State": "Selangor"
    },
    {
        "Postcode": "43300",
        "Location": "Perdana 8 Industrial Park",
        "Post_Office": "Seri Kembangan",
        "State": "Selangor"
    },
    {
        "Postcode": "43300",
        "Location": "Pusat Industri Taming Mas",
        "Post_Office": "Seri Kembangan",
        "State": "Selangor"
    },
    {
        "Postcode": "43300",
        "Location": "Taman Industri Selesa Jaya 2",
        "Post_Office": "Seri Kembangan",
        "State": "Selangor"
    },
    {
        "Postcode": "43300",
        "Location": "Kyk Heights",
        "Post_Office": "Seri Kembangan",
        "State": "Selangor"
    },
    {
        "Postcode": "43300",
        "Location": "Serdang Heights, Seksyen 1",
        "Post_Office": "Seri Kembangan",
        "State": "Selangor"
    },
    {
        "Postcode": "43300",
        "Location": "South City Apartment",
        "Post_Office": "Seri Kembangan",
        "State": "Selangor"
    },
    {
        "Postcode": "43300",
        "Location": "Taman Perindustrian Putra Permai",
        "Post_Office": "Seri Kembangan",
        "State": "Selangor"
    },
    {
        "Postcode": "43300",
        "Location": "Balakong Industrial Park",
        "Post_Office": "Seri Kembangan",
        "State": "Selangor"
    },
    {
        "Postcode": "43300",
        "Location": "Bayu Heights",
        "Post_Office": "Seri Kembangan",
        "State": "Selangor"
    },
    {
        "Postcode": "43300",
        "Location": "Green Suria Apartment",
        "Post_Office": "Seri Kembangan",
        "State": "Selangor"
    },
    {
        "Postcode": "43300",
        "Location": "Lebuhraya Sungai Besi (Besraya)",
        "Post_Office": "Seri Kembangan",
        "State": "Selangor"
    },
    {
        "Postcode": "43300",
        "Location": "Lebuhraya Utara-Selatan (Km 305)",
        "Post_Office": "Seri Kembangan",
        "State": "Selangor"
    },
    {
        "Postcode": "43300",
        "Location": "Com Industrial Park",
        "Post_Office": "Seri Kembangan",
        "State": "Selangor"
    },
    {
        "Postcode": "43300",
        "Location": "One South Park",
        "Post_Office": "Seri Kembangan",
        "State": "Selangor"
    },
    {
        "Postcode": "43300",
        "Location": "Taman Lestari Putra",
        "Post_Office": "Seri Kembangan",
        "State": "Selangor"
    },
    {
        "Postcode": "43300",
        "Location": "Taman Dato Demang",
        "Post_Office": "Seri Kembangan",
        "State": "Selangor"
    },
    {
        "Postcode": "43300",
        "Location": "Jalan Balakong",
        "Post_Office": "Seri Kembangan",
        "State": "Selangor"
    },
    {
        "Postcode": "43300",
        "Location": "Kawasan Perindustrian Balakong Jaya 2 Tambahan",
        "Post_Office": "Seri Kembangan",
        "State": "Selangor"
    },
    {
        "Postcode": "43300",
        "Location": "Persiaran Dr George Lim Ah Soo",
        "Post_Office": "Seri Kembangan",
        "State": "Selangor"
    },
    {
        "Postcode": "43300",
        "Location": "Affinity Residences",
        "Post_Office": "Seri Kembangan",
        "State": "Selangor"
    },
    {
        "Postcode": "43300",
        "Location": "Pusat Komersial Equine",
        "Post_Office": "Seri Kembangan",
        "State": "Selangor"
    },
    {
        "Postcode": "43300",
        "Location": "Jalan Sri Serdang 3",
        "Post_Office": "Seri Kembangan",
        "State": "Selangor"
    },
    {
        "Postcode": "43300",
        "Location": "Jalan Balakong Jaya 23",
        "Post_Office": "Seri Kembangan",
        "State": "Selangor"
    },
    {
        "Postcode": "43300",
        "Location": "Jalan Balakong Jaya 23A",
        "Post_Office": "Seri Kembangan",
        "State": "Selangor"
    },
    {
        "Postcode": "43300",
        "Location": "Jalan Balakong Jaya 23B",
        "Post_Office": "Seri Kembangan",
        "State": "Selangor"
    },
    {
        "Postcode": "43300",
        "Location": "Jalan Balakong Jaya 24",
        "Post_Office": "Seri Kembangan",
        "State": "Selangor"
    },
    {
        "Postcode": "43300",
        "Location": "Jalan Bayu 1",
        "Post_Office": "Seri Kembangan",
        "State": "Selangor"
    },
    {
        "Postcode": "43300",
        "Location": "Jalan Bayu 2",
        "Post_Office": "Seri Kembangan",
        "State": "Selangor"
    },
    {
        "Postcode": "43300",
        "Location": "Jalan Bayu 2A",
        "Post_Office": "Seri Kembangan",
        "State": "Selangor"
    },
    {
        "Postcode": "43300",
        "Location": "Jalan Bayu 5",
        "Post_Office": "Seri Kembangan",
        "State": "Selangor"
    },
    {
        "Postcode": "43300",
        "Location": "Jalan Bayu 6",
        "Post_Office": "Seri Kembangan",
        "State": "Selangor"
    },
    {
        "Postcode": "43300",
        "Location": "Jalan Bayu 7",
        "Post_Office": "Seri Kembangan",
        "State": "Selangor"
    },
    {
        "Postcode": "43300",
        "Location": "Jalan Bayu 8",
        "Post_Office": "Seri Kembangan",
        "State": "Selangor"
    },
    {
        "Postcode": "43300",
        "Location": "Jalan Makmur 3/2",
        "Post_Office": "Seri Kembangan",
        "State": "Selangor"
    },
    {
        "Postcode": "43300",
        "Location": "Jalan Makmur 3/3",
        "Post_Office": "Seri Kembangan",
        "State": "Selangor"
    },
    {
        "Postcode": "43300",
        "Location": "Taman Bukit Belimbing 1",
        "Post_Office": "Seri Kembangan",
        "State": "Selangor"
    },
    {
        "Postcode": "43300",
        "Location": "Taman Bukit Belimbing 2",
        "Post_Office": "Seri Kembangan",
        "State": "Selangor"
    },
    {
        "Postcode": "43300",
        "Location": "Taman Pinggiran Putra 1",
        "Post_Office": "Seri Kembangan",
        "State": "Selangor"
    },
    {
        "Postcode": "43300",
        "Location": "Taman Pinggiran Putra 2",
        "Post_Office": "Seri Kembangan",
        "State": "Selangor"
    },
    {
        "Postcode": "43300",
        "Location": "Taman Seri Serdang 1",
        "Post_Office": "Seri Kembangan",
        "State": "Selangor"
    },
    {
        "Postcode": "43300",
        "Location": "Taman Seri Serdang 2",
        "Post_Office": "Seri Kembangan",
        "State": "Selangor"
    },
    {
        "Postcode": "43300",
        "Location": "Jalan Perindustrian Balakong",
        "Post_Office": "Seri Kembangan",
        "State": "Selangor"
    },
    {
        "Postcode": "43300",
        "Location": "Kawasan Perindustrian Balakong Jaya",
        "Post_Office": "Seri Kembangan",
        "State": "Selangor"
    }
]
