[
    {
        "Postcode": "43500",
        "Location": "Taman Semenyih Indah",
        "Post_Office": "Semenyih",
        "State": "Selangor"
    },
    {
        "Postcode": "43500",
        "Location": "Desa Mahkota",
        "Post_Office": "Semenyih",
        "State": "Selangor"
    },
    {
        "Postcode": "43500",
        "Location": "Desa Semenyih",
        "Post_Office": "Semenyih",
        "State": "Selangor"
    },
    {
        "Postcode": "43500",
        "Location": "Kampung Baru Semenyih",
        "Post_Office": "Semenyih",
        "State": "Selangor"
    },
    {
        "Postcode": "43500",
        "Location": "Kampung Pasir Parit Kedua",
        "Post_Office": "Semenyih",
        "State": "Selangor"
    },
    {
        "Postcode": "43500",
        "Location": "Kampung Pasir Parit Pertama",
        "Post_Office": "Semenyih",
        "State": "Selangor"
    },
    {
        "Postcode": "43500",
        "Location": "Kawasan Perindustrian Lekas 18",
        "Post_Office": "Semenyih",
        "State": "Selangor"
    },
    {
        "Postcode": "43500",
        "Location": "Kawasan Perindustrian Ria",
        "Post_Office": "Semenyih",
        "State": "Selangor"
    },
    {
        "Postcode": "43500",
        "Location": "Kawasan Perniagaan Kiara",
        "Post_Office": "Semenyih",
        "State": "Selangor"
    },
    {
        "Postcode": "43500",
        "Location": "Park Semtec",
        "Post_Office": "Semenyih",
        "State": "Selangor"
    },
    {
        "Postcode": "43500",
        "Location": "Taman Baiduri Jaya",
        "Post_Office": "Semenyih",
        "State": "Selangor"
    },
    {
        "Postcode": "43500",
        "Location": "Taman Bunga Raya",
        "Post_Office": "Semenyih",
        "State": "Selangor"
    },
    {
        "Postcode": "43500",
        "Location": "Taman Dalma",
        "Post_Office": "Semenyih",
        "State": "Selangor"
    },
    {
        "Postcode": "43500",
        "Location": "Taman Desa Mewah",
        "Post_Office": "Semenyih",
        "State": "Selangor"
    },
    {
        "Postcode": "43500",
        "Location": "Taman Hew Thai",
        "Post_Office": "Semenyih",
        "State": "Selangor"
    },
    {
        "Postcode": "43500",
        "Location": "Taman Jaya ",
        "Post_Office": "Semenyih",
        "State": "Selangor"
    },
    {
        "Postcode": "43500",
        "Location": "Taman Perindustrian Sri Haneco",
        "Post_Office": "Semenyih",
        "State": "Selangor"
    },
    {
        "Postcode": "43500",
        "Location": "Taman Semenyih Impiana",
        "Post_Office": "Semenyih",
        "State": "Selangor"
    },
    {
        "Postcode": "43500",
        "Location": "Taman Semenyih Jaya",
        "Post_Office": "Semenyih",
        "State": "Selangor"
    },
    {
        "Postcode": "43500",
        "Location": "Taman Semenyih Ria",
        "Post_Office": "Semenyih",
        "State": "Selangor"
    },
    {
        "Postcode": "43500",
        "Location": "Taman Semenyih Sentral",
        "Post_Office": "Semenyih",
        "State": "Selangor"
    },
    {
        "Postcode": "43500",
        "Location": "Taman Seri Baiduri",
        "Post_Office": "Semenyih",
        "State": "Selangor"
    },
    {
        "Postcode": "43500",
        "Location": "Taman Seri Mawar",
        "Post_Office": "Semenyih",
        "State": "Selangor"
    },
    {
        "Postcode": "43500",
        "Location": "Taman Sri Haneko",
        "Post_Office": "Semenyih",
        "State": "Selangor"
    },
    {
        "Postcode": "43500",
        "Location": "Villaraya Industrial Park",
        "Post_Office": "Semenyih",
        "State": "Selangor"
    },
    {
        "Postcode": "43500",
        "Location": "Kajang East",
        "Post_Office": "Semenyih",
        "State": "Selangor"
    },
    {
        "Postcode": "43500",
        "Location": "Jalan Kiara 1",
        "Post_Office": "Semenyih",
        "State": "Selangor"
    },
    {
        "Postcode": "43500",
        "Location": "Bandar Sunway Semenyih",
        "Post_Office": "Semenyih",
        "State": "Selangor"
    },
    {
        "Postcode": "43500",
        "Location": "Bandar Teknologi Kajang",
        "Post_Office": "Semenyih",
        "State": "Selangor"
    },
    {
        "Postcode": "43500",
        "Location": "Jalan Semenyih - Beranang",
        "Post_Office": "Semenyih",
        "State": "Selangor"
    },
    {
        "Postcode": "43500",
        "Location": "Kampung Baru Cina",
        "Post_Office": "Semenyih",
        "State": "Selangor"
    },
    {
        "Postcode": "43500",
        "Location": "Kampung Batu 3",
        "Post_Office": "Semenyih",
        "State": "Selangor"
    },
    {
        "Postcode": "43500",
        "Location": "Kampung Kachau",
        "Post_Office": "Semenyih",
        "State": "Selangor"
    },
    {
        "Postcode": "43500",
        "Location": "Kampung Masjid",
        "Post_Office": "Semenyih",
        "State": "Selangor"
    },
    {
        "Postcode": "43500",
        "Location": "Kampung Rinching Hilir",
        "Post_Office": "Semenyih",
        "State": "Selangor"
    },
    {
        "Postcode": "43500",
        "Location": "Kampung Rinching Hulu",
        "Post_Office": "Semenyih",
        "State": "Selangor"
    },
    {
        "Postcode": "43500",
        "Location": "Kampung Sentosa",
        "Post_Office": "Semenyih",
        "State": "Selangor"
    },
    {
        "Postcode": "43500",
        "Location": "Kampung Sungai Buloh",
        "Post_Office": "Semenyih",
        "State": "Selangor"
    },
    {
        "Postcode": "43500",
        "Location": "Kampung Sungai Lalang",
        "Post_Office": "Semenyih",
        "State": "Selangor"
    },
    {
        "Postcode": "43500",
        "Location": "Kampung Sungai Machang",
        "Post_Office": "Semenyih",
        "State": "Selangor"
    },
    {
        "Postcode": "43500",
        "Location": "Kampung Sungai Pening",
        "Post_Office": "Semenyih",
        "State": "Selangor"
    },
    {
        "Postcode": "43500",
        "Location": "Kampung Sungai Purun",
        "Post_Office": "Semenyih",
        "State": "Selangor"
    },
    {
        "Postcode": "43500",
        "Location": "Kampung Tanjong Semenyih",
        "Post_Office": "Semenyih",
        "State": "Selangor"
    },
    {
        "Postcode": "43500",
        "Location": "Kampung Tarun",
        "Post_Office": "Semenyih",
        "State": "Selangor"
    },
    {
        "Postcode": "43500",
        "Location": "Ladang Abaco",
        "Post_Office": "Semenyih",
        "State": "Selangor"
    },
    {
        "Postcode": "43500",
        "Location": "Ladang Balau",
        "Post_Office": "Semenyih",
        "State": "Selangor"
    },
    {
        "Postcode": "43500",
        "Location": "Ladang Dominion",
        "Post_Office": "Semenyih",
        "State": "Selangor"
    },
    {
        "Postcode": "43500",
        "Location": "Ladang Dune Din",
        "Post_Office": "Semenyih",
        "State": "Selangor"
    },
    {
        "Postcode": "43500",
        "Location": "Ladang New Semenyih",
        "Post_Office": "Semenyih",
        "State": "Selangor"
    },
    {
        "Postcode": "43500",
        "Location": "Ladang Rinching",
        "Post_Office": "Semenyih",
        "State": "Selangor"
    },
    {
        "Postcode": "43500",
        "Location": "Ladang Semenyih",
        "Post_Office": "Semenyih",
        "State": "Selangor"
    },
    {
        "Postcode": "43500",
        "Location": "Ladang Sungai Rinching",
        "Post_Office": "Semenyih",
        "State": "Selangor"
    },
    {
        "Postcode": "43500",
        "Location": "Ladang Sydney",
        "Post_Office": "Semenyih",
        "State": "Selangor"
    },
    {
        "Postcode": "43500",
        "Location": "Ladang Western Gate",
        "Post_Office": "Semenyih",
        "State": "Selangor"
    },
    {
        "Postcode": "43500",
        "Location": "Ladang Wika (Km 45)",
        "Post_Office": "Semenyih",
        "State": "Selangor"
    },
    {
        "Postcode": "43500",
        "Location": "Semenyih",
        "Post_Office": "Semenyih",
        "State": "Selangor"
    },
    {
        "Postcode": "43500",
        "Location": "Taman Aik Ann",
        "Post_Office": "Semenyih",
        "State": "Selangor"
    },
    {
        "Postcode": "43500",
        "Location": "Taman Anggerik Villa",
        "Post_Office": "Semenyih",
        "State": "Selangor"
    },
    {
        "Postcode": "43500",
        "Location": "Taman Angsana",
        "Post_Office": "Semenyih",
        "State": "Selangor"
    },
    {
        "Postcode": "43500",
        "Location": "Taman Bangi Jaya",
        "Post_Office": "Semenyih",
        "State": "Selangor"
    },
    {
        "Postcode": "43500",
        "Location": "Taman Besta",
        "Post_Office": "Semenyih",
        "State": "Selangor"
    },
    {
        "Postcode": "43500",
        "Location": "Taman Bukit Jaya",
        "Post_Office": "Semenyih",
        "State": "Selangor"
    },
    {
        "Postcode": "43500",
        "Location": "Taman Bukit Rincing",
        "Post_Office": "Semenyih",
        "State": "Selangor"
    },
    {
        "Postcode": "43500",
        "Location": "Taman Bukit Semenyih",
        "Post_Office": "Semenyih",
        "State": "Selangor"
    },
    {
        "Postcode": "43500",
        "Location": "Taman Desa Anggerik",
        "Post_Office": "Semenyih",
        "State": "Selangor"
    },
    {
        "Postcode": "43500",
        "Location": "Taman Desa Kenanga",
        "Post_Office": "Semenyih",
        "State": "Selangor"
    },
    {
        "Postcode": "43500",
        "Location": "Taman Dusun Jaya",
        "Post_Office": "Semenyih",
        "State": "Selangor"
    },
    {
        "Postcode": "43500",
        "Location": "Taman Gembira",
        "Post_Office": "Semenyih",
        "State": "Selangor"
    },
    {
        "Postcode": "43500",
        "Location": "Taman Hiew Piow",
        "Post_Office": "Semenyih",
        "State": "Selangor"
    },
    {
        "Postcode": "43500",
        "Location": "Taman Paling Jaya",
        "Post_Office": "Semenyih",
        "State": "Selangor"
    },
    {
        "Postcode": "43500",
        "Location": "Taman Permai",
        "Post_Office": "Semenyih",
        "State": "Selangor"
    },
    {
        "Postcode": "43500",
        "Location": "Taman Semenyih",
        "Post_Office": "Semenyih",
        "State": "Selangor"
    },
    {
        "Postcode": "43500",
        "Location": "Taman Seri Impian",
        "Post_Office": "Semenyih",
        "State": "Selangor"
    },
    {
        "Postcode": "43500",
        "Location": "Taman Seri Semenyih",
        "Post_Office": "Semenyih",
        "State": "Selangor"
    },
    {
        "Postcode": "43500",
        "Location": "Taman Sri Tanjung",
        "Post_Office": "Semenyih",
        "State": "Selangor"
    },
    {
        "Postcode": "43500",
        "Location": "Taman Tan Sri Manickavasagam",
        "Post_Office": "Semenyih",
        "State": "Selangor"
    },
    {
        "Postcode": "43500",
        "Location": "Taman Tasik Semenyih",
        "Post_Office": "Semenyih",
        "State": "Selangor"
    },
    {
        "Postcode": "43500",
        "Location": "Taman Tee Tan Seong",
        "Post_Office": "Semenyih",
        "State": "Selangor"
    },
    {
        "Postcode": "43500",
        "Location": "Jalan Hi-Tech 2",
        "Post_Office": "Semenyih",
        "State": "Selangor"
    },
    {
        "Postcode": "43500",
        "Location": "Jalan Sungai Lalang",
        "Post_Office": "Semenyih",
        "State": "Selangor"
    },
    {
        "Postcode": "43500",
        "Location": "Kawasan Perindustrian Hi-Tech",
        "Post_Office": "Semenyih",
        "State": "Selangor"
    },
    {
        "Postcode": "43500",
        "Location": "Jalan Anggerik Perdana 3/1",
        "Post_Office": "Semenyih",
        "State": "Selangor"
    },
    {
        "Postcode": "43500",
        "Location": "Jalan Semenyih Mewah 10",
        "Post_Office": "Semenyih",
        "State": "Selangor"
    },
    {
        "Postcode": "43500",
        "Location": "Jalan Sri Tanjung 21",
        "Post_Office": "Semenyih",
        "State": "Selangor"
    },
    {
        "Postcode": "43500",
        "Location": "Taman Anggerik Perdana",
        "Post_Office": "Semenyih",
        "State": "Selangor"
    },
    {
        "Postcode": "43500",
        "Location": "Taman Semenyih Mewah 3",
        "Post_Office": "Semenyih",
        "State": "Selangor"
    },
    {
        "Postcode": "43500",
        "Location": "Balai Polis Semenyih",
        "Post_Office": "Semenyih",
        "State": "Selangor"
    },
    {
        "Postcode": "43500",
        "Location": "Kem Batalion 4 (Pga) Semenyih",
        "Post_Office": "Semenyih",
        "State": "Selangor"
    },
    {
        "Postcode": "43500",
        "Location": "Jalan P4/8A, Bandar Teknologi Kajang",
        "Post_Office": "Semenyih",
        "State": "Selangor"
    },
    {
        "Postcode": "43500",
        "Location": "Jalan Semenyih Permata 2",
        "Post_Office": "Semenyih",
        "State": "Selangor"
    },
    {
        "Postcode": "43500",
        "Location": "Taman Semenyih Permata",
        "Post_Office": "Semenyih",
        "State": "Selangor"
    },
    {
        "Postcode": "43500",
        "Location": "Jalan Bangi",
        "Post_Office": "Semenyih",
        "State": "Selangor"
    },
    {
        "Postcode": "43500",
        "Location": "Kawasan Perindustrian Bandar Rinching",
        "Post_Office": "Semenyih",
        "State": "Selangor"
    },
    {
        "Postcode": "43500",
        "Location": "Taman Melur",
        "Post_Office": "Semenyih",
        "State": "Selangor"
    },
    {
        "Postcode": "43500",
        "Location": "Diamond Residence",
        "Post_Office": "Semenyih",
        "State": "Selangor"
    },
    {
        "Postcode": "43500",
        "Location": "Kawasan Perindustrian Kajang Jaya",
        "Post_Office": "Semenyih",
        "State": "Selangor"
    },
    {
        "Postcode": "43500",
        "Location": "Taman Sri Semenyih",
        "Post_Office": "Semenyih",
        "State": "Selangor"
    },
    {
        "Postcode": "43500",
        "Location": "Taman Utama",
        "Post_Office": "Semenyih",
        "State": "Selangor"
    },
    {
        "Postcode": "43500",
        "Location": "Laman Semanggi",
        "Post_Office": "Semenyih",
        "State": "Selangor"
    },
    {
        "Postcode": "43500",
        "Location": "Eco Majestic",
        "Post_Office": "Semenyih",
        "State": "Selangor"
    },
    {
        "Postcode": "43500",
        "Location": "Jalan Univillage",
        "Post_Office": "Semenyih",
        "State": "Selangor"
    },
    {
        "Postcode": "43500",
        "Location": "Taman Industri Sungai Purun",
        "Post_Office": "Semenyih",
        "State": "Selangor"
    },
    {
        "Postcode": "43500",
        "Location": "Taman Semenyih Mewah 5",
        "Post_Office": "Semenyih",
        "State": "Selangor"
    },
    {
        "Postcode": "43500",
        "Location": "Bandar Rinching",
        "Post_Office": "Semenyih",
        "State": "Selangor"
    },
    {
        "Postcode": "43500",
        "Location": "Hillpark 3",
        "Post_Office": "Semenyih",
        "State": "Selangor"
    },
    {
        "Postcode": "43500",
        "Location": "Taman Seri Segar",
        "Post_Office": "Semenyih",
        "State": "Selangor"
    },
    {
        "Postcode": "43500",
        "Location": "Serena Heights",
        "Post_Office": "Semenyih",
        "State": "Selangor"
    },
    {
        "Postcode": "43500",
        "Location": "Setia Ecohill",
        "Post_Office": "Semenyih",
        "State": "Selangor"
    },
    {
        "Postcode": "43500",
        "Location": "Bandar Setia Ecohill 2",
        "Post_Office": "Semenyih",
        "State": "Selangor"
    },
    {
        "Postcode": "43500",
        "Location": "Jalan Semenyih",
        "Post_Office": "Semenyih",
        "State": "Selangor"
    },
    {
        "Postcode": "43500",
        "Location": "Crest Hill Industrial Park 2",
        "Post_Office": "Semenyih",
        "State": "Selangor"
    },
    {
        "Postcode": "43500",
        "Location": "Kawasan Perindustrian Hi-Tech 7",
        "Post_Office": "Semenyih",
        "State": "Selangor"
    },
    {
        "Postcode": "43500",
        "Location": "Jalan Perindustrian Sri Haneco",
        "Post_Office": "Semenyih",
        "State": "Selangor"
    },
    {
        "Postcode": "43500",
        "Location": "Taman Desa Haneco",
        "Post_Office": "Semenyih",
        "State": "Selangor"
    },
    {
        "Postcode": "43500",
        "Location": "Taman Semenyih Idaman",
        "Post_Office": "Semenyih",
        "State": "Selangor"
    },
    {
        "Postcode": "43500",
        "Location": "Ridgefield Residences",
        "Post_Office": "Semenyih",
        "State": "Selangor"
    },
    {
        "Postcode": "43500",
        "Location": "Jalan Tiara South 6",
        "Post_Office": "Semenyih",
        "State": "Selangor"
    },
    {
        "Postcode": "43500",
        "Location": "Eco Forest",
        "Post_Office": "Semenyih",
        "State": "Selangor"
    },
    {
        "Postcode": "43500",
        "Location": "Jalan Zahra",
        "Post_Office": "Semenyih",
        "State": "Selangor"
    },
    {
        "Postcode": "43500",
        "Location": "Taman Mutiara Hills",
        "Post_Office": "Semenyih",
        "State": "Selangor"
    },
    {
        "Postcode": "43500",
        "Location": "Kampung Sireh",
        "Post_Office": "Semenyih",
        "State": "Selangor"
    },
    {
        "Postcode": "43500",
        "Location": "Kampung Sungai Kembong Hilir",
        "Post_Office": "Semenyih",
        "State": "Selangor"
    },
    {
        "Postcode": "43500",
        "Location": "Kampung Sungai Kembong Hulu",
        "Post_Office": "Semenyih",
        "State": "Selangor"
    },
    {
        "Postcode": "43500",
        "Location": "Taman Anggerik Emas",
        "Post_Office": "Semenyih",
        "State": "Selangor"
    },
    {
        "Postcode": "43500",
        "Location": "Dataran Ecohill",
        "Post_Office": "Semenyih",
        "State": "Selangor"
    },
    {
        "Postcode": "43500",
        "Location": "Persiaran Hillpark",
        "Post_Office": "Semenyih",
        "State": "Selangor"
    },
    {
        "Postcode": "43500",
        "Location": "Persiaran Tropicana Heights",
        "Post_Office": "Semenyih",
        "State": "Selangor"
    },
    {
        "Postcode": "43500",
        "Location": "Taman Sempurna Damai",
        "Post_Office": "Semenyih",
        "State": "Selangor"
    },
    {
        "Postcode": "43500",
        "Location": "Jalan Era Emas",
        "Post_Office": "Semenyih",
        "State": "Selangor"
    },
    {
        "Postcode": "43500",
        "Location": "Pusat Perniagaan Era Emas",
        "Post_Office": "Semenyih",
        "State": "Selangor"
    },
    {
        "Postcode": "43500",
        "Location": "Taman Tenera Semenyih",
        "Post_Office": "Semenyih",
        "State": "Selangor"
    },
    {
        "Postcode": "43500",
        "Location": "Jalan Sekolah",
        "Post_Office": "Semenyih",
        "State": "Selangor"
    },
    {
        "Postcode": "43500",
        "Location": "Taman Harmoni",
        "Post_Office": "Semenyih",
        "State": "Selangor"
    },
    {
        "Postcode": "43500",
        "Location": "Kampung Pasir",
        "Post_Office": "Semenyih",
        "State": "Selangor"
    },
    {
        "Postcode": "43500",
        "Location": "Taman Lestari Mewah",
        "Post_Office": "Semenyih",
        "State": "Selangor"
    },
    {
        "Postcode": "43500",
        "Location": "Taman Sahabat",
        "Post_Office": "Semenyih",
        "State": "Selangor"
    },
    {
        "Postcode": "43500",
        "Location": "Jalan Broga",
        "Post_Office": "Semenyih",
        "State": "Selangor"
    },
    {
        "Postcode": "43500",
        "Location": "Jalan Dusun",
        "Post_Office": "Semenyih",
        "State": "Selangor"
    },
    {
        "Postcode": "43500",
        "Location": "Jalan Tps 1/5",
        "Post_Office": "Semenyih",
        "State": "Selangor"
    },
    {
        "Postcode": "43500",
        "Location": "Kawasan Perindustrian Hi-Tech 2",
        "Post_Office": "Semenyih",
        "State": "Selangor"
    },
    {
        "Postcode": "43500",
        "Location": "Taman Pelangi Semenyih",
        "Post_Office": "Semenyih",
        "State": "Selangor"
    },
    {
        "Postcode": "43500",
        "Location": "Jalan Raja Tun Uda 1",
        "Post_Office": "Semenyih",
        "State": "Selangor"
    },
    {
        "Postcode": "43500",
        "Location": "Taman Raja Tun Uda",
        "Post_Office": "Semenyih",
        "State": "Selangor"
    },
    {
        "Postcode": "43500",
        "Location": "Tiara Industrial Park",
        "Post_Office": "Semenyih",
        "State": "Selangor"
    },
    {
        "Postcode": "43500",
        "Location": "Seksyen 3 Tambahan",
        "Post_Office": "Semenyih",
        "State": "Selangor"
    },
    {
        "Postcode": "43500",
        "Location": "Taman Pelangi Semenyih 2",
        "Post_Office": "Semenyih",
        "State": "Selangor"
    },
    {
        "Postcode": "43500",
        "Location": "Kawasan Perindustrian Hi-Tech 6",
        "Post_Office": "Semenyih",
        "State": "Selangor"
    },
    {
        "Postcode": "43500",
        "Location": "Kawasan Perindustrian Hi-Tech 5",
        "Post_Office": "Semenyih",
        "State": "Selangor"
    },
    {
        "Postcode": "43500",
        "Location": "Taman Semenyih Impian",
        "Post_Office": "Semenyih",
        "State": "Selangor"
    },
    {
        "Postcode": "43500",
        "Location": "Jalan Mutiara 2/7",
        "Post_Office": "Semenyih",
        "State": "Selangor"
    },
    {
        "Postcode": "43500",
        "Location": "Lingkaran Homestead",
        "Post_Office": "Semenyih",
        "State": "Selangor"
    },
    {
        "Postcode": "43500",
        "Location": "Kawasan Industri Sp Jaya",
        "Post_Office": "Semenyih",
        "State": "Selangor"
    },
    {
        "Postcode": "43500",
        "Location": "Taman Desa Kenanga 2",
        "Post_Office": "Semenyih",
        "State": "Selangor"
    },
    {
        "Postcode": "43500",
        "Location": "Kawasan Perindustrian Hi-Tech 3",
        "Post_Office": "Semenyih",
        "State": "Selangor"
    },
    {
        "Postcode": "43500",
        "Location": "Taman Tiara South",
        "Post_Office": "Semenyih",
        "State": "Selangor"
    },
    {
        "Postcode": "43500",
        "Location": "Taman Tiara East",
        "Post_Office": "Semenyih",
        "State": "Selangor"
    },
    {
        "Postcode": "43500",
        "Location": "The Residence 1",
        "Post_Office": "Semenyih",
        "State": "Selangor"
    },
    {
        "Postcode": "43500",
        "Location": "Taman Semenyih Permai",
        "Post_Office": "Semenyih",
        "State": "Selangor"
    },
    {
        "Postcode": "43500",
        "Location": "Taman Bukit Mewah",
        "Post_Office": "Semenyih",
        "State": "Selangor"
    },
    {
        "Postcode": "43500",
        "Location": "Taman Semenyih Mewah",
        "Post_Office": "Semenyih",
        "State": "Selangor"
    },
    {
        "Postcode": "43500",
        "Location": "Taman Setia Ecohill",
        "Post_Office": "Semenyih",
        "State": "Selangor"
    },
    {
        "Postcode": "43500",
        "Location": "Semenyih Vista Valley",
        "Post_Office": "Semenyih",
        "State": "Selangor"
    },
    {
        "Postcode": "43500",
        "Location": "Signature Industrial Park",
        "Post_Office": "Semenyih",
        "State": "Selangor"
    },
    {
        "Postcode": "43500",
        "Location": "Taman Industri Mega",
        "Post_Office": "Semenyih",
        "State": "Selangor"
    },
    {
        "Postcode": "43500",
        "Location": "Taman Mentari",
        "Post_Office": "Semenyih",
        "State": "Selangor"
    },
    {
        "Postcode": "43500",
        "Location": "Kawasan Perindustrian Sungai Purun",
        "Post_Office": "Semenyih",
        "State": "Selangor"
    },
    {
        "Postcode": "43500",
        "Location": "Taman Diamond City",
        "Post_Office": "Semenyih",
        "State": "Selangor"
    },
    {
        "Postcode": "43500",
        "Location": "Taman Mutiara Rinching",
        "Post_Office": "Semenyih",
        "State": "Selangor"
    },
    {
        "Postcode": "43500",
        "Location": "Villa Istana",
        "Post_Office": "Semenyih",
        "State": "Selangor"
    },
    {
        "Postcode": "43500",
        "Location": "Kampung Tanjung",
        "Post_Office": "Semenyih",
        "State": "Selangor"
    },
    {
        "Postcode": "43500",
        "Location": "Taman Batu Tiga Bangi",
        "Post_Office": "Semenyih",
        "State": "Selangor"
    },
    {
        "Postcode": "43500",
        "Location": "Jalan Kajang East Avenue",
        "Post_Office": "Semenyih",
        "State": "Selangor"
    },
    {
        "Postcode": "43500",
        "Location": "Taman Sempurna Jaya",
        "Post_Office": "Semenyih",
        "State": "Selangor"
    },
    {
        "Postcode": "43500",
        "Location": "Persiaran Midlandscity",
        "Post_Office": "Semenyih",
        "State": "Selangor"
    },
    {
        "Postcode": "43500",
        "Location": "Taman Akasia",
        "Post_Office": "Semenyih",
        "State": "Selangor"
    },
    {
        "Postcode": "43500",
        "Location": "Residensi Sungai Purun",
        "Post_Office": "Semenyih",
        "State": "Selangor"
    },
    {
        "Postcode": "43500",
        "Location": "Setia Mayuri",
        "Post_Office": "Semenyih",
        "State": "Selangor"
    },
    {
        "Postcode": "43500",
        "Location": "Jalan Baiduri Jaya",
        "Post_Office": "Semenyih",
        "State": "Selangor"
    },
    {
        "Postcode": "43500",
        "Location": "Jalan Sri Haneco",
        "Post_Office": "Semenyih",
        "State": "Selangor"
    },
    {
        "Postcode": "43500",
        "Location": "Taman Eco Mutiara",
        "Post_Office": "Semenyih",
        "State": "Selangor"
    },
    {
        "Postcode": "43500",
        "Location": "Kawasan Perindustrian Villaraya 3",
        "Post_Office": "Semenyih",
        "State": "Selangor"
    },
    {
        "Postcode": "43500",
        "Location": "Residensi Selangorku Sri Tanjung",
        "Post_Office": "Semenyih",
        "State": "Selangor"
    },
    {
        "Postcode": "43500",
        "Location": "Kawasan Perindustrian Villaraya 3",
        "Post_Office": "Semenyih",
        "State": "Selangor"
    },
    {
        "Postcode": "43500",
        "Location": "Taman Residensi Sungai Purun",
        "Post_Office": "Semenyih",
        "State": "Selangor"
    }
]
