[
    {
        "Postcode": "43650",
        "Location": "Jalan 15/5A",
        "Post_Office": "Bandar Baru Bangi",
        "State": "Selangor"
    },
    {
        "Postcode": "43650",
        "Location": "Institut Latihan Bangi",
        "Post_Office": "Bandar Baru Bangi",
        "State": "Selangor"
    },
    {
        "Postcode": "43650",
        "Location": "Kawasan Perindustrian Bangi",
        "Post_Office": "Bandar Baru Bangi",
        "State": "Selangor"
    },
    {
        "Postcode": "43650",
        "Location": "Kawasan Perindustrian Miel",
        "Post_Office": "Bandar Baru Bangi",
        "State": "Selangor"
    },
    {
        "Postcode": "43650",
        "Location": "Puncak Bangi",
        "Post_Office": "Bandar Baru Bangi",
        "State": "Selangor"
    },
    {
        "Postcode": "43650",
        "Location": "Seksyen 4",
        "Post_Office": "Bandar Baru Bangi",
        "State": "Selangor"
    },
    {
        "Postcode": "43650",
        "Location": "Taman Astana Indah",
        "Post_Office": "Bandar Baru Bangi",
        "State": "Selangor"
    },
    {
        "Postcode": "43650",
        "Location": "Taman Bangi Perdana",
        "Post_Office": "Bandar Baru Bangi",
        "State": "Selangor"
    },
    {
        "Postcode": "43650",
        "Location": "Taman Desa Surada",
        "Post_Office": "Bandar Baru Bangi",
        "State": "Selangor"
    },
    {
        "Postcode": "43650",
        "Location": "Taman Iks",
        "Post_Office": "Bandar Baru Bangi",
        "State": "Selangor"
    },
    {
        "Postcode": "43650",
        "Location": "Bandar Baru Bangi",
        "Post_Office": "Bandar Baru Bangi",
        "State": "Selangor"
    },
    {
        "Postcode": "43650",
        "Location": "Jalan Pusat Bandar Seksyen 6",
        "Post_Office": "Bandar Baru Bangi",
        "State": "Selangor"
    },
    {
        "Postcode": "43650",
        "Location": "Taman Indera Indah ",
        "Post_Office": "Bandar Baru Bangi",
        "State": "Selangor"
    },
    {
        "Postcode": "43650",
        "Location": "Taman Kajang Impian",
        "Post_Office": "Bandar Baru Bangi",
        "State": "Selangor"
    },
    {
        "Postcode": "43650",
        "Location": "Jalan 8/35A",
        "Post_Office": "Bandar Baru Bangi",
        "State": "Selangor"
    },
    {
        "Postcode": "43650",
        "Location": "Jalan 8/35",
        "Post_Office": "Bandar Baru Bangi",
        "State": "Selangor"
    },
    {
        "Postcode": "43650",
        "Location": "Jalan Kajang Impian 1/2",
        "Post_Office": "Bandar Baru Bangi",
        "State": "Selangor"
    },
    {
        "Postcode": "43650",
        "Location": "Jalan Kajang Impian 2/16",
        "Post_Office": "Bandar Baru Bangi",
        "State": "Selangor"
    },
    {
        "Postcode": "43650",
        "Location": "Pangsapuri Kajang Impian 1",
        "Post_Office": "Bandar Baru Bangi",
        "State": "Selangor"
    },
    {
        "Postcode": "43650",
        "Location": "Pangsapuri Intanaria",
        "Post_Office": "Bandar Baru Bangi",
        "State": "Selangor"
    },
    {
        "Postcode": "43650",
        "Location": "Jalan 7/1F",
        "Post_Office": "Bandar Baru Bangi",
        "State": "Selangor"
    },
    {
        "Postcode": "43650",
        "Location": "Bangi Sentral",
        "Post_Office": "Bandar Baru Bangi",
        "State": "Selangor"
    },
    {
        "Postcode": "43650",
        "Location": "Bangi Golf Resort",
        "Post_Office": "Bandar Baru Bangi",
        "State": "Selangor"
    },
    {
        "Postcode": "43650",
        "Location": "Bangi Gateway 3B",
        "Post_Office": "Bandar Baru Bangi",
        "State": "Selangor"
    },
    {
        "Postcode": "43650",
        "Location": "Taman Bangi Avenue",
        "Post_Office": "Bandar Baru Bangi",
        "State": "Selangor"
    },
    {
        "Postcode": "43650",
        "Location": "Taman Ostia Bangi",
        "Post_Office": "Bandar Baru Bangi",
        "State": "Selangor"
    },
    {
        "Postcode": "43650",
        "Location": "Jalan Gerbang Wawasan 1",
        "Post_Office": "Bandar Baru Bangi",
        "State": "Selangor"
    },
    {
        "Postcode": "43650",
        "Location": "Jalan Pusat Bandar 2",
        "Post_Office": "Bandar Baru Bangi",
        "State": "Selangor"
    },
    {
        "Postcode": "43650",
        "Location": "Taman Perindustrian Selaman",
        "Post_Office": "Bandar Baru Bangi",
        "State": "Selangor"
    },
    {
        "Postcode": "43650",
        "Location": "Seksyen 1",
        "Post_Office": "Bandar Baru Bangi",
        "State": "Selangor"
    },
    {
        "Postcode": "43650",
        "Location": "Seksyen 10",
        "Post_Office": "Bandar Baru Bangi",
        "State": "Selangor"
    },
    {
        "Postcode": "43650",
        "Location": "Seksyen 12",
        "Post_Office": "Bandar Baru Bangi",
        "State": "Selangor"
    },
    {
        "Postcode": "43650",
        "Location": "Seksyen 2",
        "Post_Office": "Bandar Baru Bangi",
        "State": "Selangor"
    },
    {
        "Postcode": "43650",
        "Location": "Seksyen 3",
        "Post_Office": "Bandar Baru Bangi",
        "State": "Selangor"
    },
    {
        "Postcode": "43650",
        "Location": "Seksyen 5",
        "Post_Office": "Bandar Baru Bangi",
        "State": "Selangor"
    },
    {
        "Postcode": "43650",
        "Location": "Seksyen 6",
        "Post_Office": "Bandar Baru Bangi",
        "State": "Selangor"
    },
    {
        "Postcode": "43650",
        "Location": "Seksyen 7",
        "Post_Office": "Bandar Baru Bangi",
        "State": "Selangor"
    },
    {
        "Postcode": "43650",
        "Location": "Seksyen 8",
        "Post_Office": "Bandar Baru Bangi",
        "State": "Selangor"
    },
    {
        "Postcode": "43650",
        "Location": "Seksyen 9",
        "Post_Office": "Bandar Baru Bangi",
        "State": "Selangor"
    },
    {
        "Postcode": "43650",
        "Location": "Seksyen 14",
        "Post_Office": "Bandar Baru Bangi",
        "State": "Selangor"
    },
    {
        "Postcode": "43650",
        "Location": "Seksyen 16",
        "Post_Office": "Bandar Baru Bangi",
        "State": "Selangor"
    },
    {
        "Postcode": "43650",
        "Location": "Jalan Medan Pusat Bandar 5",
        "Post_Office": "Bandar Baru Bangi",
        "State": "Selangor"
    },
    {
        "Postcode": "43650",
        "Location": "Jalan 4/9R",
        "Post_Office": "Bandar Baru Bangi",
        "State": "Selangor"
    },
    {
        "Postcode": "43650",
        "Location": "Seksyen 4 Tambahan",
        "Post_Office": "Bandar Baru Bangi",
        "State": "Selangor"
    },
    {
        "Postcode": "43650",
        "Location": "Bangi Gateway Business Park",
        "Post_Office": "Bandar Baru Bangi",
        "State": "Selangor"
    },
    {
        "Postcode": "43650",
        "Location": "Pangsapuri Anggun",
        "Post_Office": "Bandar Baru Bangi",
        "State": "Selangor"
    },
    {
        "Postcode": "43650",
        "Location": "Pangsapuri Melor",
        "Post_Office": "Bandar Baru Bangi",
        "State": "Selangor"
    },
    {
        "Postcode": "43650",
        "Location": "Pangsapuri Damairesidensi Bangi",
        "Post_Office": "Bandar Baru Bangi",
        "State": "Selangor"
    },
    {
        "Postcode": "43650",
        "Location": "Jalan 6C/12",
        "Post_Office": "Bandar Baru Bangi",
        "State": "Selangor"
    },
    {
        "Postcode": "43650",
        "Location": "Kompleks Kilang Sme Bank",
        "Post_Office": "Bandar Baru Bangi",
        "State": "Selangor"
    },
    {
        "Postcode": "43650",
        "Location": "Seksyen 15",
        "Post_Office": "Bandar Baru Bangi",
        "State": "Selangor"
    },
    {
        "Postcode": "43650",
        "Location": "Jalan Gerbang Wawasan 2",
        "Post_Office": "Bandar Baru Bangi",
        "State": "Selangor"
    },
    {
        "Postcode": "43650",
        "Location": "Jalan 8/35B",
        "Post_Office": "Bandar Baru Bangi",
        "State": "Selangor"
    },
    {
        "Postcode": "43650",
        "Location": "Jalan 8/35C",
        "Post_Office": "Bandar Baru Bangi",
        "State": "Selangor"
    },
    {
        "Postcode": "43650",
        "Location": "Jalan 8/35D",
        "Post_Office": "Bandar Baru Bangi",
        "State": "Selangor"
    },
    {
        "Postcode": "43650",
        "Location": "Jalan 8/35E",
        "Post_Office": "Bandar Baru Bangi",
        "State": "Selangor"
    },
    {
        "Postcode": "43650",
        "Location": "Jalan 8/35F",
        "Post_Office": "Bandar Baru Bangi",
        "State": "Selangor"
    },
    {
        "Postcode": "43650",
        "Location": "Jalan 8/35G",
        "Post_Office": "Bandar Baru Bangi",
        "State": "Selangor"
    },
    {
        "Postcode": "43650",
        "Location": "Jalan 8/35H",
        "Post_Office": "Bandar Baru Bangi",
        "State": "Selangor"
    },
    {
        "Postcode": "43650",
        "Location": "Seksyen 13",
        "Post_Office": "Bandar Baru Bangi",
        "State": "Selangor"
    }
]
