[
    {
        "Postcode": "43700",
        "Location": "Kampung Sungai Sematar",
        "Post_Office": "Beranang",
        "State": "Selangor"
    },
    {
        "Postcode": "43700",
        "Location": "Kawasan Perusahaan Beranang",
        "Post_Office": "Beranang",
        "State": "Selangor"
    },
    {
        "Postcode": "43700",
        "Location": "Taman Rinching Indah",
        "Post_Office": "Beranang",
        "State": "Selangor"
    },
    {
        "Postcode": "43700",
        "Location": "Beranang",
        "Post_Office": "Beranang",
        "State": "Selangor"
    },
    {
        "Postcode": "43700",
        "Location": "Kampung Abaco",
        "Post_Office": "Beranang",
        "State": "Selangor"
    },
    {
        "Postcode": "43700",
        "Location": "Kampung Air Jernih",
        "Post_Office": "Beranang",
        "State": "Selangor"
    },
    {
        "Postcode": "43700",
        "Location": "Kampung Batu 26",
        "Post_Office": "Beranang",
        "State": "Selangor"
    },
    {
        "Postcode": "43700",
        "Location": "Kampung Bukit Batu",
        "Post_Office": "Beranang",
        "State": "Selangor"
    },
    {
        "Postcode": "43700",
        "Location": "Kampung Bukit Kepong",
        "Post_Office": "Beranang",
        "State": "Selangor"
    },
    {
        "Postcode": "43700",
        "Location": "Kampung Jalan Enam Kaki",
        "Post_Office": "Beranang",
        "State": "Selangor"
    },
    {
        "Postcode": "43700",
        "Location": "Kampung Kuala Pajam",
        "Post_Office": "Beranang",
        "State": "Selangor"
    },
    {
        "Postcode": "43700",
        "Location": "Kampung Paya",
        "Post_Office": "Beranang",
        "State": "Selangor"
    },
    {
        "Postcode": "43700",
        "Location": "Kampung Rinching Tengah",
        "Post_Office": "Beranang",
        "State": "Selangor"
    },
    {
        "Postcode": "43700",
        "Location": "Kampung Sesapan Batu Minangkabau",
        "Post_Office": "Beranang",
        "State": "Selangor"
    },
    {
        "Postcode": "43700",
        "Location": "Kampung Sesapan Batu Rembau",
        "Post_Office": "Beranang",
        "State": "Selangor"
    },
    {
        "Postcode": "43700",
        "Location": "Kampung Sesapan Kelubi",
        "Post_Office": "Beranang",
        "State": "Selangor"
    },
    {
        "Postcode": "43700",
        "Location": "Kampung Sungai Jai",
        "Post_Office": "Beranang",
        "State": "Selangor"
    },
    {
        "Postcode": "43700",
        "Location": "Kampung Sungai Jerneh",
        "Post_Office": "Beranang",
        "State": "Selangor"
    },
    {
        "Postcode": "43700",
        "Location": "Kampung Sungai Rinching Hilir",
        "Post_Office": "Beranang",
        "State": "Selangor"
    },
    {
        "Postcode": "43700",
        "Location": "Kampung Sungai Semantar",
        "Post_Office": "Beranang",
        "State": "Selangor"
    },
    {
        "Postcode": "43700",
        "Location": "Kampung Tanjong Beranang",
        "Post_Office": "Beranang",
        "State": "Selangor"
    },
    {
        "Postcode": "43700",
        "Location": "Taman Desa Saujana",
        "Post_Office": "Beranang",
        "State": "Selangor"
    },
    {
        "Postcode": "43700",
        "Location": "Jalan Kesuma 1/19",
        "Post_Office": "Beranang",
        "State": "Selangor"
    },
    {
        "Postcode": "43700",
        "Location": "Jalan Kesuma 1/20",
        "Post_Office": "Beranang",
        "State": "Selangor"
    },
    {
        "Postcode": "43700",
        "Location": "Jalan Kesuma 1/21",
        "Post_Office": "Beranang",
        "State": "Selangor"
    },
    {
        "Postcode": "43700",
        "Location": "Jalan Parklands 10",
        "Post_Office": "Beranang",
        "State": "Selangor"
    },
    {
        "Postcode": "43700",
        "Location": "Jalan Parklands 10A",
        "Post_Office": "Beranang",
        "State": "Selangor"
    },
    {
        "Postcode": "43700",
        "Location": "Jalan Parklands 10B",
        "Post_Office": "Beranang",
        "State": "Selangor"
    },
    {
        "Postcode": "43700",
        "Location": "Jalan Parklands 10C",
        "Post_Office": "Beranang",
        "State": "Selangor"
    },
    {
        "Postcode": "43700",
        "Location": "Jalan Parklands 10D",
        "Post_Office": "Beranang",
        "State": "Selangor"
    },
    {
        "Postcode": "43700",
        "Location": "Jalan Parklands 10E",
        "Post_Office": "Beranang",
        "State": "Selangor"
    },
    {
        "Postcode": "43700",
        "Location": "Kawasan Rehat Beranang (R\u0026R)",
        "Post_Office": "Beranang",
        "State": "Selangor"
    },
    {
        "Postcode": "43700",
        "Location": "Bandar Tasik Kesuma",
        "Post_Office": "Beranang",
        "State": "Selangor"
    },
    {
        "Postcode": "43700",
        "Location": "Taman Vila Kesuma",
        "Post_Office": "Beranang",
        "State": "Selangor"
    },
    {
        "Postcode": "43700",
        "Location": "Laman Kelubi",
        "Post_Office": "Beranang",
        "State": "Selangor"
    },
    {
        "Postcode": "43700",
        "Location": "Jalan Peridustrian Mahkota Utama",
        "Post_Office": "Beranang",
        "State": "Selangor"
    },
    {
        "Postcode": "43700",
        "Location": "Taman Perindustrian Mahkota",
        "Post_Office": "Beranang",
        "State": "Selangor"
    },
    {
        "Postcode": "43700",
        "Location": "Jalan Desa Warisan 1",
        "Post_Office": "Beranang",
        "State": "Selangor"
    },
    {
        "Postcode": "43700",
        "Location": "Taman Desa Warisan",
        "Post_Office": "Beranang",
        "State": "Selangor"
    },
    {
        "Postcode": "43700",
        "Location": "Taman Semenyih Parkland",
        "Post_Office": "Beranang",
        "State": "Selangor"
    },
    {
        "Postcode": "43700",
        "Location": "Taman Perindustrian Sis 228",
        "Post_Office": "Beranang",
        "State": "Selangor"
    },
    {
        "Postcode": "43700",
        "Location": "Taman Anggerik Kesuma",
        "Post_Office": "Beranang",
        "State": "Selangor"
    }
]
