[
    {
        "Postcode": "43800",
        "Location": "Jalan Banting-Dengkil (Km 4)",
        "Post_Office": "Dengkil",
        "State": "Selangor"
    },
    {
        "Postcode": "43800",
        "Location": "Taman Kita Mekar",
        "Post_Office": "Dengkil",
        "State": "Selangor"
    },
    {
        "Postcode": "43800",
        "Location": "Kampung Hajah Fatimah",
        "Post_Office": "Dengkil",
        "State": "Selangor"
    },
    {
        "Postcode": "43800",
        "Location": "Taman Dato Maniam",
        "Post_Office": "Dengkil",
        "State": "Selangor"
    },
    {
        "Postcode": "43800",
        "Location": "Cybersouth",
        "Post_Office": "Dengkil",
        "State": "Selangor"
    },
    {
        "Postcode": "43800",
        "Location": "Pangsapuri Idaman Melur",
        "Post_Office": "Dengkil",
        "State": "Selangor"
    },
    {
        "Postcode": "43800",
        "Location": "Jalan Cybersouth 10",
        "Post_Office": "Dengkil",
        "State": "Selangor"
    },
    {
        "Postcode": "43800",
        "Location": "Taman Jenderam Sutera",
        "Post_Office": "Dengkil",
        "State": "Selangor"
    },
    {
        "Postcode": "43800",
        "Location": "Jalan JS 1",
        "Post_Office": "Dengkil",
        "State": "Selangor"
    },
    {
        "Postcode": "43800",
        "Location": "Jalan JS2",
        "Post_Office": "Dengkil",
        "State": "Selangor"
    },
    {
        "Postcode": "43800",
        "Location": "Jalan JS 3",
        "Post_Office": "Dengkil",
        "State": "Selangor"
    },
    {
        "Postcode": "43800",
        "Location": "Jalan JS 4",
        "Post_Office": "Dengkil",
        "State": "Selangor"
    },
    {
        "Postcode": "43800",
        "Location": "Cyber Valley Commercial Centre",
        "Post_Office": "Dengkil",
        "State": "Selangor"
    },
    {
        "Postcode": "43800",
        "Location": "Desa Kurnia",
        "Post_Office": "Dengkil",
        "State": "Selangor"
    },
    {
        "Postcode": "43800",
        "Location": "Desa Timah Langat",
        "Post_Office": "Dengkil",
        "State": "Selangor"
    },
    {
        "Postcode": "43800",
        "Location": "Kampung Ampar Tenang",
        "Post_Office": "Dengkil",
        "State": "Selangor"
    },
    {
        "Postcode": "43800",
        "Location": "Kampung Baru Jenderam Hilir Yayasan Al Jenderami",
        "Post_Office": "Dengkil",
        "State": "Selangor"
    },
    {
        "Postcode": "43800",
        "Location": "Kampung Orang Asli Air Terentang",
        "Post_Office": "Dengkil",
        "State": "Selangor"
    },
    {
        "Postcode": "43800",
        "Location": "Kampung Orang Asli Bukit Baja",
        "Post_Office": "Dengkil",
        "State": "Selangor"
    },
    {
        "Postcode": "43800",
        "Location": "Kampung Orang Asli Bukit Tampoi",
        "Post_Office": "Dengkil",
        "State": "Selangor"
    },
    {
        "Postcode": "43800",
        "Location": "Kampung Orang Asli Dugang",
        "Post_Office": "Dengkil",
        "State": "Selangor"
    },
    {
        "Postcode": "43800",
        "Location": "Kampung Orang Asli Jenuk",
        "Post_Office": "Dengkil",
        "State": "Selangor"
    },
    {
        "Postcode": "43800",
        "Location": "Kampung Orang Asli Kolam Air Bangkong",
        "Post_Office": "Dengkil",
        "State": "Selangor"
    },
    {
        "Postcode": "43800",
        "Location": "Kampung Orang Asli Sungai Buah",
        "Post_Office": "Dengkil",
        "State": "Selangor"
    },
    {
        "Postcode": "43800",
        "Location": "Kampung Sri Tanjung",
        "Post_Office": "Dengkil",
        "State": "Selangor"
    },
    {
        "Postcode": "43800",
        "Location": "Kampung Sungai Buah Dalam",
        "Post_Office": "Dengkil",
        "State": "Selangor"
    },
    {
        "Postcode": "43800",
        "Location": "Kampung Sungai Buah Luar",
        "Post_Office": "Dengkil",
        "State": "Selangor"
    },
    {
        "Postcode": "43800",
        "Location": "Kampung Tok Aminuddin",
        "Post_Office": "Dengkil",
        "State": "Selangor"
    },
    {
        "Postcode": "43800",
        "Location": "Pusat Perdagangan Deluxe",
        "Post_Office": "Dengkil",
        "State": "Selangor"
    },
    {
        "Postcode": "43800",
        "Location": "Taman Ambar",
        "Post_Office": "Dengkil",
        "State": "Selangor"
    },
    {
        "Postcode": "43800",
        "Location": "Taman Ametis",
        "Post_Office": "Dengkil",
        "State": "Selangor"
    },
    {
        "Postcode": "43800",
        "Location": "Taman Arked",
        "Post_Office": "Dengkil",
        "State": "Selangor"
    },
    {
        "Postcode": "43800",
        "Location": "Taman Bundar",
        "Post_Office": "Dengkil",
        "State": "Selangor"
    },
    {
        "Postcode": "43800",
        "Location": "Taman Dengkil Centre Point",
        "Post_Office": "Dengkil",
        "State": "Selangor"
    },
    {
        "Postcode": "43800",
        "Location": "Taman Desa Dengkil",
        "Post_Office": "Dengkil",
        "State": "Selangor"
    },
    {
        "Postcode": "43800",
        "Location": "Taman Desa Jenderam Hilir",
        "Post_Office": "Dengkil",
        "State": "Selangor"
    },
    {
        "Postcode": "43800",
        "Location": "Taman Desa Sinaran",
        "Post_Office": "Dengkil",
        "State": "Selangor"
    },
    {
        "Postcode": "43800",
        "Location": "Taman Kristal 2",
        "Post_Office": "Dengkil",
        "State": "Selangor"
    },
    {
        "Postcode": "43800",
        "Location": "Bukit Tampoi",
        "Post_Office": "Dengkil",
        "State": "Selangor"
    },
    {
        "Postcode": "43800",
        "Location": "Dengkil",
        "Post_Office": "Dengkil",
        "State": "Selangor"
    },
    {
        "Postcode": "43800",
        "Location": "Dengkil - Peti Surat",
        "Post_Office": "Dengkil",
        "State": "Selangor"
    },
    {
        "Postcode": "43800",
        "Location": "Jalan Aman",
        "Post_Office": "Dengkil",
        "State": "Selangor"
    },
    {
        "Postcode": "43800",
        "Location": "Jalan Anggerik",
        "Post_Office": "Dengkil",
        "State": "Selangor"
    },
    {
        "Postcode": "43800",
        "Location": "Jalan Beringin 3/13",
        "Post_Office": "Dengkil",
        "State": "Selangor"
    },
    {
        "Postcode": "43800",
        "Location": "Jalan Bidara",
        "Post_Office": "Dengkil",
        "State": "Selangor"
    },
    {
        "Postcode": "43800",
        "Location": "Jalan Dedap",
        "Post_Office": "Dengkil",
        "State": "Selangor"
    },
    {
        "Postcode": "43800",
        "Location": "Jalan Kenanga",
        "Post_Office": "Dengkil",
        "State": "Selangor"
    },
    {
        "Postcode": "43800",
        "Location": "Jalan Khusairi",
        "Post_Office": "Dengkil",
        "State": "Selangor"
    },
    {
        "Postcode": "43800",
        "Location": "Jalan Melor",
        "Post_Office": "Dengkil",
        "State": "Selangor"
    },
    {
        "Postcode": "43800",
        "Location": "Kampung Bukit Damar",
        "Post_Office": "Dengkil",
        "State": "Selangor"
    },
    {
        "Postcode": "43800",
        "Location": "Kampung Cemperai",
        "Post_Office": "Dengkil",
        "State": "Selangor"
    },
    {
        "Postcode": "43800",
        "Location": "Kampung Dato' Ahmad Razali",
        "Post_Office": "Dengkil",
        "State": "Selangor"
    },
    {
        "Postcode": "43800",
        "Location": "Kampung Haji Aminudin",
        "Post_Office": "Dengkil",
        "State": "Selangor"
    },
    {
        "Postcode": "43800",
        "Location": "Kampung Jenderam Hilir",
        "Post_Office": "Dengkil",
        "State": "Selangor"
    },
    {
        "Postcode": "43800",
        "Location": "Kampung Jenderam Hulu",
        "Post_Office": "Dengkil",
        "State": "Selangor"
    },
    {
        "Postcode": "43800",
        "Location": "Kampung Orang Asli",
        "Post_Office": "Dengkil",
        "State": "Selangor"
    },
    {
        "Postcode": "43800",
        "Location": "Kampung Orang Asli Melut",
        "Post_Office": "Dengkil",
        "State": "Selangor"
    },
    {
        "Postcode": "43800",
        "Location": "Kampung Selangor Dredging",
        "Post_Office": "Dengkil",
        "State": "Selangor"
    },
    {
        "Postcode": "43800",
        "Location": "Kampung Semarang",
        "Post_Office": "Dengkil",
        "State": "Selangor"
    },
    {
        "Postcode": "43800",
        "Location": "Kampung Sri Tanjong",
        "Post_Office": "Dengkil",
        "State": "Selangor"
    },
    {
        "Postcode": "43800",
        "Location": "Kampung Sungai Buah",
        "Post_Office": "Dengkil",
        "State": "Selangor"
    },
    {
        "Postcode": "43800",
        "Location": "Kampung Tailong",
        "Post_Office": "Dengkil",
        "State": "Selangor"
    },
    {
        "Postcode": "43800",
        "Location": "Kampung Tengah",
        "Post_Office": "Dengkil",
        "State": "Selangor"
    },
    {
        "Postcode": "43800",
        "Location": "Ladang Ampar Tenang",
        "Post_Office": "Dengkil",
        "State": "Selangor"
    },
    {
        "Postcode": "43800",
        "Location": "Ladang Galloway",
        "Post_Office": "Dengkil",
        "State": "Selangor"
    },
    {
        "Postcode": "43800",
        "Location": "Rancangan Tanah Belia Terunton",
        "Post_Office": "Dengkil",
        "State": "Selangor"
    },
    {
        "Postcode": "43800",
        "Location": "Selangor Dredging",
        "Post_Office": "Dengkil",
        "State": "Selangor"
    },
    {
        "Postcode": "43800",
        "Location": "Taman Bandar Jaya",
        "Post_Office": "Dengkil",
        "State": "Selangor"
    },
    {
        "Postcode": "43800",
        "Location": "Taman Berlian",
        "Post_Office": "Dengkil",
        "State": "Selangor"
    },
    {
        "Postcode": "43800",
        "Location": "Taman Dengkil Jaya",
        "Post_Office": "Dengkil",
        "State": "Selangor"
    },
    {
        "Postcode": "43800",
        "Location": "Taman Desa",
        "Post_Office": "Dengkil",
        "State": "Selangor"
    },
    {
        "Postcode": "43800",
        "Location": "Taman Desa Kayangan",
        "Post_Office": "Dengkil",
        "State": "Selangor"
    },
    {
        "Postcode": "43800",
        "Location": "Taman Intan",
        "Post_Office": "Dengkil",
        "State": "Selangor"
    },
    {
        "Postcode": "43800",
        "Location": "Taman Jed",
        "Post_Office": "Dengkil",
        "State": "Selangor"
    },
    {
        "Postcode": "43800",
        "Location": "Taman Kristal",
        "Post_Office": "Dengkil",
        "State": "Selangor"
    },
    {
        "Postcode": "43800",
        "Location": "Taman Permata",
        "Post_Office": "Dengkil",
        "State": "Selangor"
    },
    {
        "Postcode": "43800",
        "Location": "Taman Putra",
        "Post_Office": "Dengkil",
        "State": "Selangor"
    },
    {
        "Postcode": "43800",
        "Location": "Taman Semarang",
        "Post_Office": "Dengkil",
        "State": "Selangor"
    },
    {
        "Postcode": "43800",
        "Location": "Taman Seri",
        "Post_Office": "Dengkil",
        "State": "Selangor"
    },
    {
        "Postcode": "43800",
        "Location": "Taman Seri Delima ",
        "Post_Office": "Dengkil",
        "State": "Selangor"
    },
    {
        "Postcode": "43800",
        "Location": "Taman Timah",
        "Post_Office": "Dengkil",
        "State": "Selangor"
    },
    {
        "Postcode": "43800",
        "Location": "Dengkil Business Point",
        "Post_Office": "Dengkil",
        "State": "Selangor"
    },
    {
        "Postcode": "43800",
        "Location": "Pusat Dagangan Deluxe",
        "Post_Office": "Dengkil",
        "State": "Selangor"
    },
    {
        "Postcode": "43800",
        "Location": "Jalan Bintang Mas 8",
        "Post_Office": "Dengkil",
        "State": "Selangor"
    },
    {
        "Postcode": "43800",
        "Location": "Taman Bintang Mas",
        "Post_Office": "Dengkil",
        "State": "Selangor"
    },
    {
        "Postcode": "43800",
        "Location": "Jalan Intan 4",
        "Post_Office": "Dengkil",
        "State": "Selangor"
    },
    {
        "Postcode": "43800",
        "Location": "Jalan Air Hitam",
        "Post_Office": "Dengkil",
        "State": "Selangor"
    },
    {
        "Postcode": "43800",
        "Location": "Taman Irma Vista",
        "Post_Office": "Dengkil",
        "State": "Selangor"
    },
    {
        "Postcode": "43800",
        "Location": "Jalan IV 3",
        "Post_Office": "Dengkil",
        "State": "Selangor"
    },
    {
        "Postcode": "43800",
        "Location": "Jalan Topaz 1/2",
        "Post_Office": "Dengkil",
        "State": "Selangor"
    },
    {
        "Postcode": "43800",
        "Location": "Jalan Topaz 1/3",
        "Post_Office": "Dengkil",
        "State": "Selangor"
    },
    {
        "Postcode": "43800",
        "Location": "Jalan Topaz 1/7",
        "Post_Office": "Dengkil",
        "State": "Selangor"
    },
    {
        "Postcode": "43800",
        "Location": "Jalan Topaz 1/8",
        "Post_Office": "Dengkil",
        "State": "Selangor"
    },
    {
        "Postcode": "43800",
        "Location": "Jalan Topaz 1/10",
        "Post_Office": "Dengkil",
        "State": "Selangor"
    },
    {
        "Postcode": "43800",
        "Location": "Jalan Topaz 2/3",
        "Post_Office": "Dengkil",
        "State": "Selangor"
    },
    {
        "Postcode": "43800",
        "Location": "Jalan Topaz 2/4",
        "Post_Office": "Dengkil",
        "State": "Selangor"
    },
    {
        "Postcode": "43800",
        "Location": "Jalan Topaz 2/4",
        "Post_Office": "Dengkil",
        "State": "Selangor"
    },
    {
        "Postcode": "43800",
        "Location": "Taman Platinum",
        "Post_Office": "Dengkil",
        "State": "Selangor"
    },
    {
        "Postcode": "43800",
        "Location": "Jalan Platinum ",
        "Post_Office": "Dengkil",
        "State": "Selangor"
    },
    {
        "Postcode": "43800",
        "Location": "Jalan Platinum 1/2",
        "Post_Office": "Dengkil",
        "State": "Selangor"
    },
    {
        "Postcode": "43800",
        "Location": "Jalan Platinum 1/3",
        "Post_Office": "Dengkil",
        "State": "Selangor"
    },
    {
        "Postcode": "43800",
        "Location": "Jalan Platinum 1/4",
        "Post_Office": "Dengkil",
        "State": "Selangor"
    },
    {
        "Postcode": "43800",
        "Location": "Jalan Platinum 1/5",
        "Post_Office": "Dengkil",
        "State": "Selangor"
    },
    {
        "Postcode": "43800",
        "Location": "Jalan Platinum 2/1",
        "Post_Office": "Dengkil",
        "State": "Selangor"
    },
    {
        "Postcode": "43800",
        "Location": "Lorong Platinum 2/1",
        "Post_Office": "Dengkil",
        "State": "Selangor"
    },
    {
        "Postcode": "43800",
        "Location": "Taman Jenderam Damai",
        "Post_Office": "Dengkil",
        "State": "Selangor"
    },
    {
        "Postcode": "43800",
        "Location": "Taman Topaz ",
        "Post_Office": "Dengkil",
        "State": "Selangor"
    },
    {
        "Postcode": "43800",
        "Location": "Brahma Kumaris Institute",
        "Post_Office": "Dengkil",
        "State": "Selangor"
    },
    {
        "Postcode": "43800",
        "Location": "Taman Delima Jaya",
        "Post_Office": "Dengkil",
        "State": "Selangor"
    },
    {
        "Postcode": "43800",
        "Location": "Taman Kristal 3",
        "Post_Office": "Dengkil",
        "State": "Selangor"
    },
    {
        "Postcode": "43800",
        "Location": "Taman Jenderam Permai",
        "Post_Office": "Dengkil",
        "State": "Selangor"
    },
    {
        "Postcode": "43800",
        "Location": "Persiaran Cybersouth",
        "Post_Office": "Dengkil",
        "State": "Selangor"
    },
    {
        "Postcode": "43800",
        "Location": "Taman Jenderam Idaman ",
        "Post_Office": "Dengkil",
        "State": "Selangor"
    },
    {
        "Postcode": "43800",
        "Location": "Taman Orkid",
        "Post_Office": "Dengkil",
        "State": "Selangor"
    },
    {
        "Postcode": "43800",
        "Location": "Taman Ametis Utama",
        "Post_Office": "Dengkil",
        "State": "Selangor"
    },
    {
        "Postcode": "43800",
        "Location": "Taman Semarang Intan",
        "Post_Office": "Dengkil",
        "State": "Selangor"
    },
    {
        "Postcode": "43800",
        "Location": "Avens Residence",
        "Post_Office": "Dengkil",
        "State": "Selangor"
    },
    {
        "Postcode": "43800",
        "Location": "Harmoni Park",
        "Post_Office": "Dengkil",
        "State": "Selangor"
    },
    {
        "Postcode": "43800",
        "Location": "Taman Semarang Sinar",
        "Post_Office": "Dengkil",
        "State": "Selangor"
    },
    {
        "Postcode": "43800",
        "Location": "Bandar Baru Lembah Selatan",
        "Post_Office": "Dengkil",
        "State": "Selangor"
    },
    {
        "Postcode": "43800",
        "Location": "Taman Jenderam Impian",
        "Post_Office": "Dengkil",
        "State": "Selangor"
    },
    {
        "Postcode": "43800",
        "Location": "Taman Jenderam Prima",
        "Post_Office": "Dengkil",
        "State": "Selangor"
    },
    {
        "Postcode": "43800",
        "Location": "Taman Warisan Putra",
        "Post_Office": "Dengkil",
        "State": "Selangor"
    },
    {
        "Postcode": "43800",
        "Location": "Taman Semarang Indah",
        "Post_Office": "Dengkil",
        "State": "Selangor"
    },
    {
        "Postcode": "43800",
        "Location": "Taman Kelisa",
        "Post_Office": "Dengkil",
        "State": "Selangor"
    },
    {
        "Postcode": "43800",
        "Location": "Taman Jenderam Anggun",
        "Post_Office": "Dengkil",
        "State": "Selangor"
    },
    {
        "Postcode": "43800",
        "Location": "Taman Emas",
        "Post_Office": "Dengkil",
        "State": "Selangor"
    },
    {
        "Postcode": "43800",
        "Location": "Jalan Mawar",
        "Post_Office": "Dengkil",
        "State": "Selangor"
    },
    {
        "Postcode": "43800",
        "Location": "Jalan Merbau",
        "Post_Office": "Dengkil",
        "State": "Selangor"
    },
    {
        "Postcode": "43800",
        "Location": "Jalan Teratai",
        "Post_Office": "Dengkil",
        "State": "Selangor"
    },
    {
        "Postcode": "43800",
        "Location": "Taman Delima",
        "Post_Office": "Dengkil",
        "State": "Selangor"
    },
    {
        "Postcode": "43800",
        "Location": "Taman Mesra",
        "Post_Office": "Dengkil",
        "State": "Selangor"
    },
    {
        "Postcode": "43800",
        "Location": "Taman Mutiara",
        "Post_Office": "Dengkil",
        "State": "Selangor"
    },
    {
        "Postcode": "43800",
        "Location": "Taman Baiduri",
        "Post_Office": "Dengkil",
        "State": "Selangor"
    },
    {
        "Postcode": "43800",
        "Location": "Taman Gemilang",
        "Post_Office": "Dengkil",
        "State": "Selangor"
    },
    {
        "Postcode": "43800",
        "Location": "Taman Lestari Mewah",
        "Post_Office": "Dengkil",
        "State": "Selangor"
    },
    {
        "Postcode": "43800",
        "Location": "Taman Nilam",
        "Post_Office": "Dengkil",
        "State": "Selangor"
    },
    {
        "Postcode": "43800",
        "Location": "Kondominium Putra Intan",
        "Post_Office": "Dengkil",
        "State": "Selangor"
    },
    {
        "Postcode": "43800",
        "Location": "Pangsapuri Cyber Intan",
        "Post_Office": "Dengkil",
        "State": "Selangor"
    },
    {
        "Postcode": "43800",
        "Location": "Jalan Dengkil Centre Point",
        "Post_Office": "Dengkil",
        "State": "Selangor"
    },
    {
        "Postcode": "43800",
        "Location": "Taman Jenderam Harmoni",
        "Post_Office": "Dengkil",
        "State": "Selangor"
    },
    {
        "Postcode": "43800",
        "Location": "Taman Jenderam Murni",
        "Post_Office": "Dengkil",
        "State": "Selangor"
    },
    {
        "Postcode": "43800",
        "Location": "Taman Ametis Jaya",
        "Post_Office": "Dengkil",
        "State": "Selangor"
    },
    {
        "Postcode": "43800",
        "Location": "Taman Jenderam Aman",
        "Post_Office": "Dengkil",
        "State": "Selangor"
    },
    {
        "Postcode": "43800",
        "Location": "Taman Baiduri 2",
        "Post_Office": "Dengkil",
        "State": "Selangor"
    },
    {
        "Postcode": "43800",
        "Location": "Taman Lagenda Mas",
        "Post_Office": "Dengkil",
        "State": "Selangor"
    },
    {
        "Postcode": "43800",
        "Location": "Kampung Dato Ahmad Razali",
        "Post_Office": "Dengkil",
        "State": "Selangor"
    },
    {
        "Postcode": "43800",
        "Location": "Kampung Lalang",
        "Post_Office": "Dengkil",
        "State": "Selangor"
    },
    {
        "Postcode": "43800",
        "Location": "Taman Jenderam Mutiara",
        "Post_Office": "Dengkil",
        "State": "Selangor"
    },
    {
        "Postcode": "43800",
        "Location": "Taman Jenderam Budiman",
        "Post_Office": "Dengkil",
        "State": "Selangor"
    },
    {
        "Postcode": "43800",
        "Location": "Taman Ruby",
        "Post_Office": "Dengkil",
        "State": "Selangor"
    },
    {
        "Postcode": "43800",
        "Location": "Casa Green",
        "Post_Office": "Dengkil",
        "State": "Selangor"
    },
    {
        "Postcode": "43800",
        "Location": "Park Place 1",
        "Post_Office": "Dengkil",
        "State": "Selangor"
    },
    {
        "Postcode": "43800",
        "Location": "Park Place Ii",
        "Post_Office": "Dengkil",
        "State": "Selangor"
    },
    {
        "Postcode": "43800",
        "Location": "Sapphire Residency",
        "Post_Office": "Dengkil",
        "State": "Selangor"
    },
    {
        "Postcode": "43800",
        "Location": "Southville City",
        "Post_Office": "Dengkil",
        "State": "Selangor"
    },
    {
        "Postcode": "43800",
        "Location": "Taman Jenderam Suria",
        "Post_Office": "Dengkil",
        "State": "Selangor"
    },
    {
        "Postcode": "43800",
        "Location": "Jalan Southville 2",
        "Post_Office": "Dengkil",
        "State": "Selangor"
    },
    {
        "Postcode": "43800",
        "Location": "Jalan Pintasan Dengkil-Putrajaya",
        "Post_Office": "Dengkil",
        "State": "Selangor"
    },
    {
        "Postcode": "43800",
        "Location": "Jalan Kita Bestari",
        "Post_Office": "Dengkil",
        "State": "Selangor"
    },
    {
        "Postcode": "43800",
        "Location": "Jalan Kita Mesra",
        "Post_Office": "Dengkil",
        "State": "Selangor"
    },
    {
        "Postcode": "43800",
        "Location": "Jalan Deluxe 1",
        "Post_Office": "Dengkil",
        "State": "Selangor"
    },
    {
        "Postcode": "43800",
        "Location": "Jalan Deluxe 2",
        "Post_Office": "Dengkil",
        "State": "Selangor"
    },
    {
        "Postcode": "43800",
        "Location": "Jalan Deluxe 3",
        "Post_Office": "Dengkil",
        "State": "Selangor"
    },
    {
        "Postcode": "43800",
        "Location": "Jalan Deluxe 4",
        "Post_Office": "Dengkil",
        "State": "Selangor"
    },
    {
        "Postcode": "43800",
        "Location": "Jalan Putra 1",
        "Post_Office": "Dengkil",
        "State": "Selangor"
    },
    {
        "Postcode": "43800",
        "Location": "Jalan Putra 2",
        "Post_Office": "Dengkil",
        "State": "Selangor"
    },
    {
        "Postcode": "43800",
        "Location": "Jalan Warisan Bistari 1",
        "Post_Office": "Dengkil",
        "State": "Selangor"
    },
    {
        "Postcode": "43800",
        "Location": "Jalan Warisan Bistari 10",
        "Post_Office": "Dengkil",
        "State": "Selangor"
    },
    {
        "Postcode": "43800",
        "Location": "Jalan Warisan Bistari 11",
        "Post_Office": "Dengkil",
        "State": "Selangor"
    },
    {
        "Postcode": "43800",
        "Location": "Jalan Warisan Bistari 2",
        "Post_Office": "Dengkil",
        "State": "Selangor"
    },
    {
        "Postcode": "43800",
        "Location": "Jalan Warisan Bistari 3",
        "Post_Office": "Dengkil",
        "State": "Selangor"
    },
    {
        "Postcode": "43800",
        "Location": "Jalan Warisan Bistari 4",
        "Post_Office": "Dengkil",
        "State": "Selangor"
    },
    {
        "Postcode": "43800",
        "Location": "Jalan Warisan Bistari 5",
        "Post_Office": "Dengkil",
        "State": "Selangor"
    },
    {
        "Postcode": "43800",
        "Location": "Jalan Warisan Bistari 6",
        "Post_Office": "Dengkil",
        "State": "Selangor"
    },
    {
        "Postcode": "43800",
        "Location": "Jalan Warisan Bistari 7",
        "Post_Office": "Dengkil",
        "State": "Selangor"
    },
    {
        "Postcode": "43800",
        "Location": "Jalan Warisan Bistari 8",
        "Post_Office": "Dengkil",
        "State": "Selangor"
    },
    {
        "Postcode": "43800",
        "Location": "Jalan Warisan Bistari 9",
        "Post_Office": "Dengkil",
        "State": "Selangor"
    },
    {
        "Postcode": "43800",
        "Location": "Jalan PP 1/1",
        "Post_Office": "Dengkil",
        "State": "Selangor"
    }
]
