[
    {
        "Postcode": "43900",
        "Location": "Taman Myra Vista",
        "Post_Office": "Sepang",
        "State": "Selangor"
    },
    {
        "Postcode": "43900",
        "Location": "Jalan Emas 7 ",
        "Post_Office": "Sepang",
        "State": "Selangor"
    },
    {
        "Postcode": "43900",
        "Location": "Kampung Tanjung Mas",
        "Post_Office": "Sepang",
        "State": "Selangor"
    },
    {
        "Postcode": "43900",
        "Location": "Taman Anggerik ",
        "Post_Office": "Sepang",
        "State": "Selangor"
    },
    {
        "Postcode": "43900",
        "Location": "Taman Sri Sepang",
        "Post_Office": "Sepang",
        "State": "Selangor"
    },
    {
        "Postcode": "43900",
        "Location": "Desa Mutiara Salak",
        "Post_Office": "Sepang",
        "State": "Selangor"
    },
    {
        "Postcode": "43900",
        "Location": "Desa Salak Harmoni",
        "Post_Office": "Sepang",
        "State": "Selangor"
    },
    {
        "Postcode": "43900",
        "Location": "Desa Salak Maju",
        "Post_Office": "Sepang",
        "State": "Selangor"
    },
    {
        "Postcode": "43900",
        "Location": "Desa Salak Mentari",
        "Post_Office": "Sepang",
        "State": "Selangor"
    },
    {
        "Postcode": "43900",
        "Location": "Desa Salak Permai",
        "Post_Office": "Sepang",
        "State": "Selangor"
    },
    {
        "Postcode": "43900",
        "Location": "Desa Sinar Salak",
        "Post_Office": "Sepang",
        "State": "Selangor"
    },
    {
        "Postcode": "43900",
        "Location": "Kampung Baru Lanjut",
        "Post_Office": "Sepang",
        "State": "Selangor"
    },
    {
        "Postcode": "43900",
        "Location": "Kampung Labu Lanjut",
        "Post_Office": "Sepang",
        "State": "Selangor"
    },
    {
        "Postcode": "43900",
        "Location": "Kampung Salak",
        "Post_Office": "Sepang",
        "State": "Selangor"
    },
    {
        "Postcode": "43900",
        "Location": "Medan 120",
        "Post_Office": "Sepang",
        "State": "Selangor"
    },
    {
        "Postcode": "43900",
        "Location": "Medan 20",
        "Post_Office": "Sepang",
        "State": "Selangor"
    },
    {
        "Postcode": "43900",
        "Location": "Medan 23",
        "Post_Office": "Sepang",
        "State": "Selangor"
    },
    {
        "Postcode": "43900",
        "Location": "Medan 88",
        "Post_Office": "Sepang",
        "State": "Selangor"
    },
    {
        "Postcode": "43900",
        "Location": "Taman Bunga Raya",
        "Post_Office": "Sepang",
        "State": "Selangor"
    },
    {
        "Postcode": "43900",
        "Location": "Taman Desa Merpati",
        "Post_Office": "Sepang",
        "State": "Selangor"
    },
    {
        "Postcode": "43900",
        "Location": "Taman Desa Restu",
        "Post_Office": "Sepang",
        "State": "Selangor"
    },
    {
        "Postcode": "43900",
        "Location": "Taman Desa Salak Jaya",
        "Post_Office": "Sepang",
        "State": "Selangor"
    },
    {
        "Postcode": "43900",
        "Location": "Taman Desa Seri Vista",
        "Post_Office": "Sepang",
        "State": "Selangor"
    },
    {
        "Postcode": "43900",
        "Location": "Taman Jimah Indah",
        "Post_Office": "Sepang",
        "State": "Selangor"
    },
    {
        "Postcode": "43900",
        "Location": "Taman Jimah Jaya",
        "Post_Office": "Sepang",
        "State": "Selangor"
    },
    {
        "Postcode": "43900",
        "Location": "Taman Kenanga",
        "Post_Office": "Sepang",
        "State": "Selangor"
    },
    {
        "Postcode": "43900",
        "Location": "Taman Salak Baiduri",
        "Post_Office": "Sepang",
        "State": "Selangor"
    },
    {
        "Postcode": "43900",
        "Location": "Taman Salak Jaya",
        "Post_Office": "Sepang",
        "State": "Selangor"
    },
    {
        "Postcode": "43900",
        "Location": "Taman Salak Murni",
        "Post_Office": "Sepang",
        "State": "Selangor"
    },
    {
        "Postcode": "43900",
        "Location": "Taman Sri Tanjung Mas",
        "Post_Office": "Sepang",
        "State": "Selangor"
    },
    {
        "Postcode": "43900",
        "Location": "Taman Teratai",
        "Post_Office": "Sepang",
        "State": "Selangor"
    },
    {
        "Postcode": "43900",
        "Location": "Taman Warisan Cemerlang",
        "Post_Office": "Sepang",
        "State": "Selangor"
    },
    {
        "Postcode": "43900",
        "Location": "Bandar Baru Salak Tinggi",
        "Post_Office": "Sepang",
        "State": "Selangor"
    },
    {
        "Postcode": "43900",
        "Location": "Desa Baiduri Aman",
        "Post_Office": "Sepang",
        "State": "Selangor"
    },
    {
        "Postcode": "43900",
        "Location": "Desa Baiduri Harmoni",
        "Post_Office": "Sepang",
        "State": "Selangor"
    },
    {
        "Postcode": "43900",
        "Location": "Desa Baiduri Murni",
        "Post_Office": "Sepang",
        "State": "Selangor"
    },
    {
        "Postcode": "43900",
        "Location": "Desa Gembira",
        "Post_Office": "Sepang",
        "State": "Selangor"
    },
    {
        "Postcode": "43900",
        "Location": "Desa Ikatan Harmoni",
        "Post_Office": "Sepang",
        "State": "Selangor"
    },
    {
        "Postcode": "43900",
        "Location": "Desa Ikatan Murni",
        "Post_Office": "Sepang",
        "State": "Selangor"
    },
    {
        "Postcode": "43900",
        "Location": "Desa Salak Villa",
        "Post_Office": "Sepang",
        "State": "Selangor"
    },
    {
        "Postcode": "43900",
        "Location": "Desa Vista",
        "Post_Office": "Sepang",
        "State": "Selangor"
    },
    {
        "Postcode": "43900",
        "Location": "Helang Siput",
        "Post_Office": "Sepang",
        "State": "Selangor"
    },
    {
        "Postcode": "43900",
        "Location": "Jalan Desa Baijuri 1",
        "Post_Office": "Sepang",
        "State": "Selangor"
    },
    {
        "Postcode": "43900",
        "Location": "Kampung Busut",
        "Post_Office": "Sepang",
        "State": "Selangor"
    },
    {
        "Postcode": "43900",
        "Location": "Kampung Giching",
        "Post_Office": "Sepang",
        "State": "Selangor"
    },
    {
        "Postcode": "43900",
        "Location": "Kampung Lembah Paya",
        "Post_Office": "Sepang",
        "State": "Selangor"
    },
    {
        "Postcode": "43900",
        "Location": "Kampung Salak Tengah",
        "Post_Office": "Sepang",
        "State": "Selangor"
    },
    {
        "Postcode": "43900",
        "Location": "Kampung Salak Tinggi",
        "Post_Office": "Sepang",
        "State": "Selangor"
    },
    {
        "Postcode": "43900",
        "Location": "Kota Warisan",
        "Post_Office": "Sepang",
        "State": "Selangor"
    },
    {
        "Postcode": "43900",
        "Location": "Ladang Ainsdale",
        "Post_Office": "Sepang",
        "State": "Selangor"
    },
    {
        "Postcode": "43900",
        "Location": "Ladang Bhutan",
        "Post_Office": "Sepang",
        "State": "Selangor"
    },
    {
        "Postcode": "43900",
        "Location": "Ladang Bhutr",
        "Post_Office": "Sepang",
        "State": "Selangor"
    },
    {
        "Postcode": "43900",
        "Location": "Ladang Lembah Sepang",
        "Post_Office": "Sepang",
        "State": "Selangor"
    },
    {
        "Postcode": "43900",
        "Location": "Ladang Lothian",
        "Post_Office": "Sepang",
        "State": "Selangor"
    },
    {
        "Postcode": "43900",
        "Location": "Pekan Salak",
        "Post_Office": "Sepang",
        "State": "Selangor"
    },
    {
        "Postcode": "43900",
        "Location": "Rktb Lanjut",
        "Post_Office": "Sepang",
        "State": "Selangor"
    },
    {
        "Postcode": "43900",
        "Location": "Sepang",
        "Post_Office": "Sepang",
        "State": "Selangor"
    },
    {
        "Postcode": "43900",
        "Location": "Sopic",
        "Post_Office": "Sepang",
        "State": "Selangor"
    },
    {
        "Postcode": "43900",
        "Location": "Taman Aman Pesona",
        "Post_Office": "Sepang",
        "State": "Selangor"
    },
    {
        "Postcode": "43900",
        "Location": "Taman Indah Klia",
        "Post_Office": "Sepang",
        "State": "Selangor"
    },
    {
        "Postcode": "43900",
        "Location": "Taman Ixora",
        "Post_Office": "Sepang",
        "State": "Selangor"
    },
    {
        "Postcode": "43900",
        "Location": "Taman Manar",
        "Post_Office": "Sepang",
        "State": "Selangor"
    },
    {
        "Postcode": "43900",
        "Location": "Taman Perindustrian Tanjung",
        "Post_Office": "Sepang",
        "State": "Selangor"
    },
    {
        "Postcode": "43900",
        "Location": "Taman Salak",
        "Post_Office": "Sepang",
        "State": "Selangor"
    },
    {
        "Postcode": "43900",
        "Location": "Taman Salak Indah",
        "Post_Office": "Sepang",
        "State": "Selangor"
    },
    {
        "Postcode": "43900",
        "Location": "Taman Salak Putra",
        "Post_Office": "Sepang",
        "State": "Selangor"
    },
    {
        "Postcode": "43900",
        "Location": "Taman Selasih",
        "Post_Office": "Sepang",
        "State": "Selangor"
    },
    {
        "Postcode": "43900",
        "Location": "Taman Seroja",
        "Post_Office": "Sepang",
        "State": "Selangor"
    },
    {
        "Postcode": "43900",
        "Location": "Taman Stb (Bandar Salak Tinggi)",
        "Post_Office": "Sepang",
        "State": "Selangor"
    },
    {
        "Postcode": "43900",
        "Location": "Taman Stc (Bandar Salak Tinggi)",
        "Post_Office": "Sepang",
        "State": "Selangor"
    },
    {
        "Postcode": "43900",
        "Location": "Taman Std (Bandar Salak Tinggi)",
        "Post_Office": "Sepang",
        "State": "Selangor"
    },
    {
        "Postcode": "43900",
        "Location": "Taman Tanjong Mas",
        "Post_Office": "Sepang",
        "State": "Selangor"
    },
    {
        "Postcode": "43900",
        "Location": "Tanah Merah Site A",
        "Post_Office": "Sepang",
        "State": "Selangor"
    },
    {
        "Postcode": "43900",
        "Location": "Taman Intan Baiduri",
        "Post_Office": "Sepang",
        "State": "Selangor"
    },
    {
        "Postcode": "43900",
        "Location": "Desa Sri Qaseh",
        "Post_Office": "Sepang",
        "State": "Selangor"
    },
    {
        "Postcode": "43900",
        "Location": "Jalan Mp 3A",
        "Post_Office": "Sepang",
        "State": "Selangor"
    },
    {
        "Postcode": "43900",
        "Location": "Taman Mawar Perdana",
        "Post_Office": "Sepang",
        "State": "Selangor"
    },
    {
        "Postcode": "43900",
        "Location": "Taman Salak Idaman",
        "Post_Office": "Sepang",
        "State": "Selangor"
    },
    {
        "Postcode": "43900",
        "Location": "Jalan Dataran Abadi 1/1",
        "Post_Office": "Sepang",
        "State": "Selangor"
    },
    {
        "Postcode": "43900",
        "Location": "Jalan Gemilang 1",
        "Post_Office": "Sepang",
        "State": "Selangor"
    },
    {
        "Postcode": "43900",
        "Location": "Pusat Perniagaan Gemilang",
        "Post_Office": "Sepang",
        "State": "Selangor"
    },
    {
        "Postcode": "43900",
        "Location": "Taman Dataran Abadi",
        "Post_Office": "Sepang",
        "State": "Selangor"
    },
    {
        "Postcode": "43900",
        "Location": "Desa Salak Permata",
        "Post_Office": "Sepang",
        "State": "Selangor"
    },
    {
        "Postcode": "43900",
        "Location": "Jalan Permata 5",
        "Post_Office": "Sepang",
        "State": "Selangor"
    },
    {
        "Postcode": "43900",
        "Location": "Lorong Indah Puteri",
        "Post_Office": "Sepang",
        "State": "Selangor"
    },
    {
        "Postcode": "43900",
        "Location": "Taman Indah Puteri",
        "Post_Office": "Sepang",
        "State": "Selangor"
    },
    {
        "Postcode": "43900",
        "Location": "Lorong Idaman Murni 1/2",
        "Post_Office": "Sepang",
        "State": "Selangor"
    },
    {
        "Postcode": "43900",
        "Location": "Taman Salak Megah",
        "Post_Office": "Sepang",
        "State": "Selangor"
    },
    {
        "Postcode": "43900",
        "Location": "Residensi Arena 1",
        "Post_Office": "Sepang",
        "State": "Selangor"
    },
    {
        "Postcode": "43900",
        "Location": "Jalan Arena 1",
        "Post_Office": "Sepang",
        "State": "Selangor"
    },
    {
        "Postcode": "43900",
        "Location": "Taman Setia Tropika",
        "Post_Office": "Sepang",
        "State": "Selangor"
    },
    {
        "Postcode": "43900",
        "Location": "Jalan ST 1",
        "Post_Office": "Sepang",
        "State": "Selangor"
    },
    {
        "Postcode": "43900",
        "Location": "Jalan ST 1/1",
        "Post_Office": "Sepang",
        "State": "Selangor"
    },
    {
        "Postcode": "43900",
        "Location": "Jalan ST 1/2",
        "Post_Office": "Sepang",
        "State": "Selangor"
    },
    {
        "Postcode": "43900",
        "Location": "Jalan ST 1/3",
        "Post_Office": "Sepang",
        "State": "Selangor"
    },
    {
        "Postcode": "43900",
        "Location": "Jalan ST 1/4",
        "Post_Office": "Sepang",
        "State": "Selangor"
    },
    {
        "Postcode": "43900",
        "Location": "Jalan ST 2",
        "Post_Office": "Sepang",
        "State": "Selangor"
    },
    {
        "Postcode": "43900",
        "Location": "Jalan ST 2/1",
        "Post_Office": "Sepang",
        "State": "Selangor"
    },
    {
        "Postcode": "43900",
        "Location": "Jalan ST 2/2",
        "Post_Office": "Sepang",
        "State": "Selangor"
    },
    {
        "Postcode": "43900",
        "Location": "Jalan ST 2/3",
        "Post_Office": "Sepang",
        "State": "Selangor"
    },
    {
        "Postcode": "43900",
        "Location": "Jalan ST 2/4",
        "Post_Office": "Sepang",
        "State": "Selangor"
    },
    {
        "Postcode": "43900",
        "Location": "Jalan ST 2/5",
        "Post_Office": "Sepang",
        "State": "Selangor"
    },
    {
        "Postcode": "43900",
        "Location": "Jalan SS 4",
        "Post_Office": "Sepang",
        "State": "Selangor"
    },
    {
        "Postcode": "43900",
        "Location": "Jalan IP 1",
        "Post_Office": "Sepang",
        "State": "Selangor"
    },
    {
        "Postcode": "43900",
        "Location": "Jalan IP 1/1",
        "Post_Office": "Sepang",
        "State": "Selangor"
    },
    {
        "Postcode": "43900",
        "Location": "Taman Warisan Bayu",
        "Post_Office": "Sepang",
        "State": "Selangor"
    },
    {
        "Postcode": "43900",
        "Location": "Desa Salak Damai",
        "Post_Office": "Sepang",
        "State": "Selangor"
    },
    {
        "Postcode": "43900",
        "Location": "Desa Salak Ikhlas",
        "Post_Office": "Sepang",
        "State": "Selangor"
    },
    {
        "Postcode": "43900",
        "Location": "Taman Idaman Murni",
        "Post_Office": "Sepang",
        "State": "Selangor"
    },
    {
        "Postcode": "43900",
        "Location": "Taman Salak Mulia",
        "Post_Office": "Sepang",
        "State": "Selangor"
    },
    {
        "Postcode": "43900",
        "Location": "Taman Desa Bestari",
        "Post_Office": "Sepang",
        "State": "Selangor"
    },
    {
        "Postcode": "43900",
        "Location": "Taman Salak Sejati",
        "Post_Office": "Sepang",
        "State": "Selangor"
    },
    {
        "Postcode": "43900",
        "Location": "Taman Sekata Vista",
        "Post_Office": "Sepang",
        "State": "Selangor"
    },
    {
        "Postcode": "43900",
        "Location": "Desa Salak Impian",
        "Post_Office": "Sepang",
        "State": "Selangor"
    },
    {
        "Postcode": "43900",
        "Location": "Desa Salak Pekerti",
        "Post_Office": "Sepang",
        "State": "Selangor"
    },
    {
        "Postcode": "43900",
        "Location": "Kip Sentral",
        "Post_Office": "Sepang",
        "State": "Selangor"
    },
    {
        "Postcode": "43900",
        "Location": "Taman Dahlia",
        "Post_Office": "Sepang",
        "State": "Selangor"
    },
    {
        "Postcode": "43900",
        "Location": "Sepang Industrial Park",
        "Post_Office": "Sepang",
        "State": "Selangor"
    },
    {
        "Postcode": "43900",
        "Location": "Taman Salak Kasih",
        "Post_Office": "Sepang",
        "State": "Selangor"
    },
    {
        "Postcode": "43900",
        "Location": "Taman Saujana Klia",
        "Post_Office": "Sepang",
        "State": "Selangor"
    },
    {
        "Postcode": "43900",
        "Location": "Taman Suria Warisan",
        "Post_Office": "Sepang",
        "State": "Selangor"
    },
    {
        "Postcode": "43900",
        "Location": "Taman Orkid",
        "Post_Office": "Sepang",
        "State": "Selangor"
    },
    {
        "Postcode": "43900",
        "Location": "Jalan Sepang-Sungai Pelek",
        "Post_Office": "Sepang",
        "State": "Selangor"
    },
    {
        "Postcode": "43900",
        "Location": "Desa Anugerah",
        "Post_Office": "Sepang",
        "State": "Selangor"
    },
    {
        "Postcode": "43900",
        "Location": "Bandar Sunsuria",
        "Post_Office": "Sepang",
        "State": "Selangor"
    },
    {
        "Postcode": "43900",
        "Location": "Ioi Resort City",
        "Post_Office": "Sepang",
        "State": "Selangor"
    },
    {
        "Postcode": "43900",
        "Location": "Taman Salak Lestari",
        "Post_Office": "Sepang",
        "State": "Selangor"
    },
    {
        "Postcode": "43900",
        "Location": "Taman Warisan Hijauan",
        "Post_Office": "Sepang",
        "State": "Selangor"
    },
    {
        "Postcode": "43900",
        "Location": "Pusat Perdagangan Klia Avenue",
        "Post_Office": "Sepang",
        "State": "Selangor"
    },
    {
        "Postcode": "43900",
        "Location": "Taman Salak Suria",
        "Post_Office": "Sepang",
        "State": "Selangor"
    },
    {
        "Postcode": "43900",
        "Location": "Pusat Peerindustrian Cipta Selatan",
        "Post_Office": "Sepang",
        "State": "Selangor"
    },
    {
        "Postcode": "43900",
        "Location": "Taman Warisan Bestari",
        "Post_Office": "Sepang",
        "State": "Selangor"
    },
    {
        "Postcode": "43900",
        "Location": "Taman Baiduri Indah",
        "Post_Office": "Sepang",
        "State": "Selangor"
    },
    {
        "Postcode": "43900",
        "Location": "Taman Desa Seri Setia",
        "Post_Office": "Sepang",
        "State": "Selangor"
    },
    {
        "Postcode": "43900",
        "Location": "Taman Setia Warisan Tropika\r\n",
        "Post_Office": "Sepang",
        "State": "Selangor"
    },
    {
        "Postcode": "43900",
        "Location": "Desa Salak Setia",
        "Post_Office": "Sepang",
        "State": "Selangor"
    },
    {
        "Postcode": "43900",
        "Location": "Desa Baiduri Indah",
        "Post_Office": "Sepang",
        "State": "Selangor"
    },
    {
        "Postcode": "43900",
        "Location": "Taman Desa Salak Bakti",
        "Post_Office": "Sepang",
        "State": "Selangor"
    },
    {
        "Postcode": "43900",
        "Location": "Pusat Perindustrian Cipta Selatan",
        "Post_Office": "Sepang",
        "State": "Selangor"
    },
    {
        "Postcode": "43900",
        "Location": "Taman Semarak Warisan",
        "Post_Office": "Sepang",
        "State": "Selangor"
    },
    {
        "Postcode": "43900",
        "Location": "Bandar Serenia ",
        "Post_Office": "Sepang",
        "State": "Selangor"
    },
    {
        "Postcode": "43900",
        "Location": "Taman Murni 2",
        "Post_Office": "Sepang",
        "State": "Selangor"
    },
    {
        "Postcode": "43900",
        "Location": "Taman Salak Unggul",
        "Post_Office": "Sepang",
        "State": "Selangor"
    },
    {
        "Postcode": "43900",
        "Location": "Horizon Square Business Park",
        "Post_Office": "Sepang",
        "State": "Selangor"
    },
    {
        "Postcode": "43900",
        "Location": "Perdagangan Warisan Sutera",
        "Post_Office": "Sepang",
        "State": "Selangor"
    },
    {
        "Postcode": "43900",
        "Location": "Taman Cempaka",
        "Post_Office": "Sepang",
        "State": "Selangor"
    },
    {
        "Postcode": "43900",
        "Location": "Taman Desa Indah",
        "Post_Office": "Sepang",
        "State": "Selangor"
    },
    {
        "Postcode": "43900",
        "Location": "Taman Murni",
        "Post_Office": "Sepang",
        "State": "Selangor"
    },
    {
        "Postcode": "43900",
        "Location": "Desa Indah Putera",
        "Post_Office": "Sepang",
        "State": "Selangor"
    },
    {
        "Postcode": "43900",
        "Location": "Pangsapuri Mutiara Warisan",
        "Post_Office": "Sepang",
        "State": "Selangor"
    },
    {
        "Postcode": "43900",
        "Location": "Kampung Giching Hilir",
        "Post_Office": "Sepang",
        "State": "Selangor"
    },
    {
        "Postcode": "43900",
        "Location": "Kampung Lembah Jaya",
        "Post_Office": "Sepang",
        "State": "Selangor"
    },
    {
        "Postcode": "43900",
        "Location": "Taman Salak Maju",
        "Post_Office": "Sepang",
        "State": "Selangor"
    },
    {
        "Postcode": "43900",
        "Location": "Pusat Perniagaan Salak",
        "Post_Office": "Sepang",
        "State": "Selangor"
    },
    {
        "Postcode": "43900",
        "Location": "Tiara Heights",
        "Post_Office": "Sepang",
        "State": "Selangor"
    },
    {
        "Postcode": "43900",
        "Location": "Taman Mawar",
        "Post_Office": "Sepang",
        "State": "Selangor"
    },
    {
        "Postcode": "43900",
        "Location": "Taman Salak Impian",
        "Post_Office": "Sepang",
        "State": "Selangor"
    },
    {
        "Postcode": "43900",
        "Location": "Kip Commercial Centre",
        "Post_Office": "Sepang",
        "State": "Selangor"
    },
    {
        "Postcode": "43900",
        "Location": "Pusat Perdagangan Salak 2",
        "Post_Office": "Sepang",
        "State": "Selangor"
    },
    {
        "Postcode": "43900",
        "Location": "Taman Indah Putera",
        "Post_Office": "Sepang",
        "State": "Selangor"
    },
    {
        "Postcode": "43900",
        "Location": "Taman Salak Budi",
        "Post_Office": "Sepang",
        "State": "Selangor"
    },
    {
        "Postcode": "43900",
        "Location": "Taman Salak Damai",
        "Post_Office": "Sepang",
        "State": "Selangor"
    },
    {
        "Postcode": "43900",
        "Location": "Taman Salak Perdana",
        "Post_Office": "Sepang",
        "State": "Selangor"
    },
    {
        "Postcode": "43900",
        "Location": "Taman Monet Garden",
        "Post_Office": "Sepang",
        "State": "Selangor"
    },
    {
        "Postcode": "43900",
        "Location": "Taman Monet Lily",
        "Post_Office": "Sepang",
        "State": "Selangor"
    },
    {
        "Postcode": "43900",
        "Location": "Taman Monet Springtime",
        "Post_Office": "Sepang",
        "State": "Selangor"
    },
    {
        "Postcode": "43900",
        "Location": "Taman Salak Kasturi",
        "Post_Office": "Sepang",
        "State": "Selangor"
    },
    {
        "Postcode": "43900",
        "Location": "Desa Salak Akasia",
        "Post_Office": "Sepang",
        "State": "Selangor"
    },
    {
        "Postcode": "43900",
        "Location": "Taman Warisan Puteri",
        "Post_Office": "Sepang",
        "State": "Selangor"
    },
    {
        "Postcode": "43900",
        "Location": "Desa Seri Setia",
        "Post_Office": "Sepang",
        "State": "Selangor"
    },
    {
        "Postcode": "43900",
        "Location": "Taman Salak Sejahtera",
        "Post_Office": "Sepang",
        "State": "Selangor"
    },
    {
        "Postcode": "43900",
        "Location": "Jalan Anugerah 9/2",
        "Post_Office": "Sepang",
        "State": "Selangor"
    },
    {
        "Postcode": "43900",
        "Location": "Taman Seri Bestari",
        "Post_Office": "Sepang",
        "State": "Selangor"
    },
    {
        "Postcode": "43900",
        "Location": "Taman Salak Cemara",
        "Post_Office": "Sepang",
        "State": "Selangor"
    },
    {
        "Postcode": "43900",
        "Location": "Taman Vista Impian",
        "Post_Office": "Sepang",
        "State": "Selangor"
    },
    {
        "Postcode": "43900",
        "Location": "Taman Vista Impian",
        "Post_Office": "Sepang",
        "State": "Selangor"
    },
    {
        "Postcode": "43900",
        "Location": "Jalan Desa Sri Qaseh 1",
        "Post_Office": "Sepang",
        "State": "Selangor"
    },
    {
        "Postcode": "43900",
        "Location": "Jalan Desa Sri Qaseh 2",
        "Post_Office": "Sepang",
        "State": "Selangor"
    },
    {
        "Postcode": "43900",
        "Location": "Jalan Desa Sri Qaseh 3",
        "Post_Office": "Sepang",
        "State": "Selangor"
    },
    {
        "Postcode": "43900",
        "Location": "Jalan Desa Sri Qaseh 4",
        "Post_Office": "Sepang",
        "State": "Selangor"
    },
    {
        "Postcode": "43900",
        "Location": "Jalan Intan Baiduri 1",
        "Post_Office": "Sepang",
        "State": "Selangor"
    },
    {
        "Postcode": "43900",
        "Location": "Jalan Intan Baiduri 2",
        "Post_Office": "Sepang",
        "State": "Selangor"
    },
    {
        "Postcode": "43900",
        "Location": "Jalan Intan Baiduri 3",
        "Post_Office": "Sepang",
        "State": "Selangor"
    },
    {
        "Postcode": "43900",
        "Location": "Jalan Intan Baiduri 4",
        "Post_Office": "Sepang",
        "State": "Selangor"
    },
    {
        "Postcode": "43900",
        "Location": "Jalan Salak Idaman 1",
        "Post_Office": "Sepang",
        "State": "Selangor"
    },
    {
        "Postcode": "43900",
        "Location": "Jalan Salak Idaman 2",
        "Post_Office": "Sepang",
        "State": "Selangor"
    },
    {
        "Postcode": "43900",
        "Location": "Jalan Salak Idaman 3",
        "Post_Office": "Sepang",
        "State": "Selangor"
    },
    {
        "Postcode": "43900",
        "Location": "Jalan Salak Idaman 4",
        "Post_Office": "Sepang",
        "State": "Selangor"
    },
    {
        "Postcode": "43900",
        "Location": "Desa Karisma",
        "Post_Office": "Sepang",
        "State": "Selangor"
    },
    {
        "Postcode": "43900",
        "Location": "Jalan TSC 11",
        "Post_Office": "Sepang",
        "State": "Selangor"
    }
]
