[
    {
        "Postcode": "43950",
        "Location": "Ladang Teluk Merbau",
        "Post_Office": "Sungai Pelek",
        "State": "Selangor"
    },
    {
        "Postcode": "43950",
        "Location": "Taman Bahagia",
        "Post_Office": "Sungai Pelek",
        "State": "Selangor"
    },
    {
        "Postcode": "43950",
        "Location": "Taman Sri Merbau 1",
        "Post_Office": "Sungai Pelek",
        "State": "Selangor"
    },
    {
        "Postcode": "43950",
        "Location": "Taman Sri Merbau 2",
        "Post_Office": "Sungai Pelek",
        "State": "Selangor"
    },
    {
        "Postcode": "43950",
        "Location": "Taman Sri Siantan",
        "Post_Office": "Sungai Pelek",
        "State": "Selangor"
    },
    {
        "Postcode": "43950",
        "Location": "Kampung Baru Sungai Pelek",
        "Post_Office": "Sungai Pelek",
        "State": "Selangor"
    },
    {
        "Postcode": "43950",
        "Location": "Kampung Jelutong Indah",
        "Post_Office": "Sungai Pelek",
        "State": "Selangor"
    },
    {
        "Postcode": "43950",
        "Location": "Kampung Tanjung Rhu",
        "Post_Office": "Sungai Pelek",
        "State": "Selangor"
    },
    {
        "Postcode": "43950",
        "Location": "Taman Damai ",
        "Post_Office": "Sungai Pelek",
        "State": "Selangor"
    },
    {
        "Postcode": "43950",
        "Location": "Taman Ria 1",
        "Post_Office": "Sungai Pelek",
        "State": "Selangor"
    },
    {
        "Postcode": "43950",
        "Location": "Taman Sri Sungai Pelek",
        "Post_Office": "Sungai Pelek",
        "State": "Selangor"
    },
    {
        "Postcode": "43950",
        "Location": "Taman Tasik Cempaka",
        "Post_Office": "Sungai Pelek",
        "State": "Selangor"
    },
    {
        "Postcode": "43950",
        "Location": "Helang Tiram",
        "Post_Office": "Sungai Pelek",
        "State": "Selangor"
    },
    {
        "Postcode": "43950",
        "Location": "Jalan Abd Hamid",
        "Post_Office": "Sungai Pelek",
        "State": "Selangor"
    },
    {
        "Postcode": "43950",
        "Location": "Jalan Angsana",
        "Post_Office": "Sungai Pelek",
        "State": "Selangor"
    },
    {
        "Postcode": "43950",
        "Location": "Jalan Ara",
        "Post_Office": "Sungai Pelek",
        "State": "Selangor"
    },
    {
        "Postcode": "43950",
        "Location": "Jalan Bukit Bangkong",
        "Post_Office": "Sungai Pelek",
        "State": "Selangor"
    },
    {
        "Postcode": "43950",
        "Location": "Jalan Lapis",
        "Post_Office": "Sungai Pelek",
        "State": "Selangor"
    },
    {
        "Postcode": "43950",
        "Location": "Jalan Pasar",
        "Post_Office": "Sungai Pelek",
        "State": "Selangor"
    },
    {
        "Postcode": "43950",
        "Location": "Jalan Raja Udang",
        "Post_Office": "Sungai Pelek",
        "State": "Selangor"
    },
    {
        "Postcode": "43950",
        "Location": "Kampung Bagan Lalang",
        "Post_Office": "Sungai Pelek",
        "State": "Selangor"
    },
    {
        "Postcode": "43950",
        "Location": "Kampung Bonon",
        "Post_Office": "Sungai Pelek",
        "State": "Selangor"
    },
    {
        "Postcode": "43950",
        "Location": "Kampung Bukit Bangkong",
        "Post_Office": "Sungai Pelek",
        "State": "Selangor"
    },
    {
        "Postcode": "43950",
        "Location": "Kampung Hulu Teris",
        "Post_Office": "Sungai Pelek",
        "State": "Selangor"
    },
    {
        "Postcode": "43950",
        "Location": "Kampung Ulu Chuchoh",
        "Post_Office": "Sungai Pelek",
        "State": "Selangor"
    },
    {
        "Postcode": "43950",
        "Location": "Ladang Fermanagh",
        "Post_Office": "Sungai Pelek",
        "State": "Selangor"
    },
    {
        "Postcode": "43950",
        "Location": "Ladang Sungai Rawang",
        "Post_Office": "Sungai Pelek",
        "State": "Selangor"
    },
    {
        "Postcode": "43950",
        "Location": "Pantai Sepang Putra",
        "Post_Office": "Sungai Pelek",
        "State": "Selangor"
    },
    {
        "Postcode": "43950",
        "Location": "Sungai Pelek",
        "Post_Office": "Sungai Pelek",
        "State": "Selangor"
    },
    {
        "Postcode": "43950",
        "Location": "Taman Alam Nyata",
        "Post_Office": "Sungai Pelek",
        "State": "Selangor"
    },
    {
        "Postcode": "43950",
        "Location": "Taman Gembira",
        "Post_Office": "Sungai Pelek",
        "State": "Selangor"
    },
    {
        "Postcode": "43950",
        "Location": "Taman Harmoni Indah",
        "Post_Office": "Sungai Pelek",
        "State": "Selangor"
    },
    {
        "Postcode": "43950",
        "Location": "Taman Ksm",
        "Post_Office": "Sungai Pelek",
        "State": "Selangor"
    },
    {
        "Postcode": "43950",
        "Location": "Taman Muhibbah",
        "Post_Office": "Sungai Pelek",
        "State": "Selangor"
    },
    {
        "Postcode": "43950",
        "Location": "Taman Perdana Indah",
        "Post_Office": "Sungai Pelek",
        "State": "Selangor"
    },
    {
        "Postcode": "43950",
        "Location": "Taman Perling",
        "Post_Office": "Sungai Pelek",
        "State": "Selangor"
    },
    {
        "Postcode": "43950",
        "Location": "Taman Permai",
        "Post_Office": "Sungai Pelek",
        "State": "Selangor"
    },
    {
        "Postcode": "43950",
        "Location": "Taman Sepang",
        "Post_Office": "Sungai Pelek",
        "State": "Selangor"
    },
    {
        "Postcode": "43950",
        "Location": "Taman Sinar Terang",
        "Post_Office": "Sungai Pelek",
        "State": "Selangor"
    },
    {
        "Postcode": "43950",
        "Location": "Taman Sri Jaya",
        "Post_Office": "Sungai Pelek",
        "State": "Selangor"
    },
    {
        "Postcode": "43950",
        "Location": "Taman Sungai Pelek",
        "Post_Office": "Sungai Pelek",
        "State": "Selangor"
    },
    {
        "Postcode": "43950",
        "Location": "Taman Teluk Merbau",
        "Post_Office": "Sungai Pelek",
        "State": "Selangor"
    },
    {
        "Postcode": "43950",
        "Location": "Tasek Beringin",
        "Post_Office": "Sungai Pelek",
        "State": "Selangor"
    },
    {
        "Postcode": "43950",
        "Location": "Tasek Cempaka",
        "Post_Office": "Sungai Pelek",
        "State": "Selangor"
    },
    {
        "Postcode": "43950",
        "Location": "Tasek Dedap",
        "Post_Office": "Sungai Pelek",
        "State": "Selangor"
    },
    {
        "Postcode": "43950",
        "Location": "Taman Ria 2",
        "Post_Office": "Sungai Pelek",
        "State": "Selangor"
    },
    {
        "Postcode": "43950",
        "Location": "Taman Tenteram",
        "Post_Office": "Sungai Pelek",
        "State": "Selangor"
    },
    {
        "Postcode": "43950",
        "Location": "Taman Perdana",
        "Post_Office": "Sungai Pelek",
        "State": "Selangor"
    },
    {
        "Postcode": "43950",
        "Location": "Taman Sentosa",
        "Post_Office": "Sungai Pelek",
        "State": "Selangor"
    },
    {
        "Postcode": "43950",
        "Location": "Pusat Perdagangan Sungai Pelek",
        "Post_Office": "Sungai Pelek",
        "State": "Selangor"
    },
    {
        "Postcode": "43950",
        "Location": "Taman Lestari Indah",
        "Post_Office": "Sungai Pelek",
        "State": "Selangor"
    },
    {
        "Postcode": "43950",
        "Location": "Taman Aman",
        "Post_Office": "Sungai Pelek",
        "State": "Selangor"
    },
    {
        "Postcode": "43950",
        "Location": "Taman Berjaya",
        "Post_Office": "Sungai Pelek",
        "State": "Selangor"
    },
    {
        "Postcode": "43950",
        "Location": "Taman Harmoni ",
        "Post_Office": "Sungai Pelek",
        "State": "Selangor"
    },
    {
        "Postcode": "43950",
        "Location": "Taman Sri Bayu ",
        "Post_Office": "Sungai Pelek",
        "State": "Selangor"
    },
    {
        "Postcode": "43950",
        "Location": "Persiaran Sri Bayu (Bagan Lalang)",
        "Post_Office": "Sungai Pelek",
        "State": "Selangor"
    },
    {
        "Postcode": "43950",
        "Location": "Sri Bayu Resort (Bagan Lalang)",
        "Post_Office": "Sungai Pelek",
        "State": "Selangor"
    },
    {
        "Postcode": "43950",
        "Location": "Jalan Harmoni Indah 2/1",
        "Post_Office": "Sungai Pelek",
        "State": "Selangor"
    },
    {
        "Postcode": "43950",
        "Location": "Taman Bistari",
        "Post_Office": "Sungai Pelek",
        "State": "Selangor"
    },
    {
        "Postcode": "43950",
        "Location": "Taman Harmoni Impian",
        "Post_Office": "Sungai Pelek",
        "State": "Selangor"
    },
    {
        "Postcode": "43950",
        "Location": "Kampung Bukit Kerayong",
        "Post_Office": "Sungai Pelek",
        "State": "Selangor"
    },
    {
        "Postcode": "43950",
        "Location": "Taman Bayu Harmoni",
        "Post_Office": "Sungai Pelek",
        "State": "Selangor"
    },
    {
        "Postcode": "43950",
        "Location": "Taman Pantai Sepang Putra",
        "Post_Office": "Sungai Pelek",
        "State": "Selangor"
    },
    {
        "Postcode": "43950",
        "Location": "Pusat Perdagangan Harmoni",
        "Post_Office": "Sungai Pelek",
        "State": "Selangor"
    },
    {
        "Postcode": "43950",
        "Location": "Taman Attalea ",
        "Post_Office": "Sungai Pelek",
        "State": "Selangor"
    },
    {
        "Postcode": "43950",
        "Location": "Pusat Perdagangan Emerald Sepang",
        "Post_Office": "Sungai Pelek",
        "State": "Selangor"
    },
    {
        "Postcode": "43950",
        "Location": "Jalan Murai",
        "Post_Office": "Sungai Pelek",
        "State": "Selangor"
    },
    {
        "Postcode": "43950",
        "Location": "Jalan Ria 1",
        "Post_Office": "Sungai Pelek",
        "State": "Selangor"
    },
    {
        "Postcode": "43950",
        "Location": "Jalan Ria 2",
        "Post_Office": "Sungai Pelek",
        "State": "Selangor"
    },
    {
        "Postcode": "43950",
        "Location": "Jalan Ria 3",
        "Post_Office": "Sungai Pelek",
        "State": "Selangor"
    },
    {
        "Postcode": "43950",
        "Location": "Jalan Ria 4",
        "Post_Office": "Sungai Pelek",
        "State": "Selangor"
    },
    {
        "Postcode": "43950",
        "Location": "Jalan Ria 5",
        "Post_Office": "Sungai Pelek",
        "State": "Selangor"
    },
    {
        "Postcode": "43950",
        "Location": "Jalan Ria 6",
        "Post_Office": "Sungai Pelek",
        "State": "Selangor"
    },
    {
        "Postcode": "43950",
        "Location": "Jalan Ria 7",
        "Post_Office": "Sungai Pelek",
        "State": "Selangor"
    },
    {
        "Postcode": "43950",
        "Location": "Jalan Tenteram 1",
        "Post_Office": "Sungai Pelek",
        "State": "Selangor"
    },
    {
        "Postcode": "43950",
        "Location": "Jalan Tenteram 2",
        "Post_Office": "Sungai Pelek",
        "State": "Selangor"
    },
    {
        "Postcode": "43950",
        "Location": "Jalan Tenteram 3",
        "Post_Office": "Sungai Pelek",
        "State": "Selangor"
    },
    {
        "Postcode": "43950",
        "Location": "Jalan Tenteram 4",
        "Post_Office": "Sungai Pelek",
        "State": "Selangor"
    }
]
