[
    {
        "Postcode": "94000",
        "Location": "Krian",
        "Post_Office": "Bau",
        "State": "Sarawak"
    },
    {
        "Postcode": "94000",
        "Location": "Kampung Melayu",
        "Post_Office": "Bau",
        "State": "Sarawak"
    },
    {
        "Postcode": "94000",
        "Location": "Jalan Krian",
        "Post_Office": "Bau",
        "State": "Sarawak"
    },
    {
        "Postcode": "94000",
        "Location": "Kampung Masjid",
        "Post_Office": "Bau",
        "State": "Sarawak"
    },
    {
        "Postcode": "94000",
        "Location": "Kampung Sibuluh",
        "Post_Office": "Bau",
        "State": "Sarawak"
    },
    {
        "Postcode": "94000",
        "Location": "Kampung Sungai Pinang",
        "Post_Office": "Bau",
        "State": "Sarawak"
    },
    {
        "Postcode": "94000",
        "Location": "Taman Mutiara",
        "Post_Office": "Bau",
        "State": "Sarawak"
    },
    {
        "Postcode": "94000",
        "Location": "Bau",
        "Post_Office": "Bau",
        "State": "Sarawak"
    },
    {
        "Postcode": "94000",
        "Location": "Bau Lama",
        "Post_Office": "Bau",
        "State": "Sarawak"
    },
    {
        "Postcode": "94000",
        "Location": "Buso",
        "Post_Office": "Bau",
        "State": "Sarawak"
    },
    {
        "Postcode": "94000",
        "Location": "Jalan Black Smith",
        "Post_Office": "Bau",
        "State": "Sarawak"
    },
    {
        "Postcode": "94000",
        "Location": "Jalan Bungalow",
        "Post_Office": "Bau",
        "State": "Sarawak"
    },
    {
        "Postcode": "94000",
        "Location": "Jalan Datuk Temenggong Salau",
        "Post_Office": "Bau",
        "State": "Sarawak"
    },
    {
        "Postcode": "94000",
        "Location": "Jalan Emas",
        "Post_Office": "Bau",
        "State": "Sarawak"
    },
    {
        "Postcode": "94000",
        "Location": "Jalan Johari Sunchar",
        "Post_Office": "Bau",
        "State": "Sarawak"
    },
    {
        "Postcode": "94000",
        "Location": "Jalan Lee Khoi Choon",
        "Post_Office": "Bau",
        "State": "Sarawak"
    },
    {
        "Postcode": "94000",
        "Location": "Jalan Lee Nyan Foo",
        "Post_Office": "Bau",
        "State": "Sarawak"
    },
    {
        "Postcode": "94000",
        "Location": "Jalan Ong Guan Cheng",
        "Post_Office": "Bau",
        "State": "Sarawak"
    },
    {
        "Postcode": "94000",
        "Location": "Jalan Penghulu Durin",
        "Post_Office": "Bau",
        "State": "Sarawak"
    },
    {
        "Postcode": "94000",
        "Location": "Jalan Selamat",
        "Post_Office": "Bau",
        "State": "Sarawak"
    },
    {
        "Postcode": "94000",
        "Location": "Jambusan",
        "Post_Office": "Bau",
        "State": "Sarawak"
    },
    {
        "Postcode": "94000",
        "Location": "Kampung Batu Spit",
        "Post_Office": "Bau",
        "State": "Sarawak"
    },
    {
        "Postcode": "94000",
        "Location": "Kampung Bidi",
        "Post_Office": "Bau",
        "State": "Sarawak"
    },
    {
        "Postcode": "94000",
        "Location": "Kampung Bogag",
        "Post_Office": "Bau",
        "State": "Sarawak"
    },
    {
        "Postcode": "94000",
        "Location": "Kampung Boring",
        "Post_Office": "Bau",
        "State": "Sarawak"
    },
    {
        "Postcode": "94000",
        "Location": "Kampung Buan",
        "Post_Office": "Bau",
        "State": "Sarawak"
    },
    {
        "Postcode": "94000",
        "Location": "Kampung Duyoh",
        "Post_Office": "Bau",
        "State": "Sarawak"
    },
    {
        "Postcode": "94000",
        "Location": "Kampung Grogo",
        "Post_Office": "Bau",
        "State": "Sarawak"
    },
    {
        "Postcode": "94000",
        "Location": "Kampung Jugan",
        "Post_Office": "Bau",
        "State": "Sarawak"
    },
    {
        "Postcode": "94000",
        "Location": "Kampung Kandis Baru",
        "Post_Office": "Bau",
        "State": "Sarawak"
    },
    {
        "Postcode": "94000",
        "Location": "Kampung Kandis Lama",
        "Post_Office": "Bau",
        "State": "Sarawak"
    },
    {
        "Postcode": "94000",
        "Location": "Kampung Keranji",
        "Post_Office": "Bau",
        "State": "Sarawak"
    },
    {
        "Postcode": "94000",
        "Location": "Kampung Kopit",
        "Post_Office": "Bau",
        "State": "Sarawak"
    },
    {
        "Postcode": "94000",
        "Location": "Kampung Lidah Tanah",
        "Post_Office": "Bau",
        "State": "Sarawak"
    },
    {
        "Postcode": "94000",
        "Location": "Kampung Merembeh",
        "Post_Office": "Bau",
        "State": "Sarawak"
    },
    {
        "Postcode": "94000",
        "Location": "Kampung Opar",
        "Post_Office": "Bau",
        "State": "Sarawak"
    },
    {
        "Postcode": "94000",
        "Location": "Kampung Pangkalan",
        "Post_Office": "Bau",
        "State": "Sarawak"
    },
    {
        "Postcode": "94000",
        "Location": "Kampung Pejiru",
        "Post_Office": "Bau",
        "State": "Sarawak"
    },
    {
        "Postcode": "94000",
        "Location": "Kampung Pengkalan Tebang",
        "Post_Office": "Bau",
        "State": "Sarawak"
    },
    {
        "Postcode": "94000",
        "Location": "Kampung Peninjau Baru",
        "Post_Office": "Bau",
        "State": "Sarawak"
    },
    {
        "Postcode": "94000",
        "Location": "Kampung Peninjau Lama",
        "Post_Office": "Bau",
        "State": "Sarawak"
    },
    {
        "Postcode": "94000",
        "Location": "Kampung Pinet",
        "Post_Office": "Bau",
        "State": "Sarawak"
    },
    {
        "Postcode": "94000",
        "Location": "Kampung Podam",
        "Post_Office": "Bau",
        "State": "Sarawak"
    },
    {
        "Postcode": "94000",
        "Location": "Kampung Puak",
        "Post_Office": "Bau",
        "State": "Sarawak"
    },
    {
        "Postcode": "94000",
        "Location": "Kampung Rabak Rotan",
        "Post_Office": "Bau",
        "State": "Sarawak"
    },
    {
        "Postcode": "94000",
        "Location": "Kampung Rumih",
        "Post_Office": "Bau",
        "State": "Sarawak"
    },
    {
        "Postcode": "94000",
        "Location": "Kampung Sebobok",
        "Post_Office": "Bau",
        "State": "Sarawak"
    },
    {
        "Postcode": "94000",
        "Location": "Kampung Sega",
        "Post_Office": "Bau",
        "State": "Sarawak"
    },
    {
        "Postcode": "94000",
        "Location": "Kampung Segubang",
        "Post_Office": "Bau",
        "State": "Sarawak"
    },
    {
        "Postcode": "94000",
        "Location": "Kampung Serasot",
        "Post_Office": "Bau",
        "State": "Sarawak"
    },
    {
        "Postcode": "94000",
        "Location": "Kampung Serikin",
        "Post_Office": "Bau",
        "State": "Sarawak"
    },
    {
        "Postcode": "94000",
        "Location": "Kampung Seromah",
        "Post_Office": "Bau",
        "State": "Sarawak"
    },
    {
        "Postcode": "94000",
        "Location": "Kampung Seropak",
        "Post_Office": "Bau",
        "State": "Sarawak"
    },
    {
        "Postcode": "94000",
        "Location": "Kampung Skiat Baru",
        "Post_Office": "Bau",
        "State": "Sarawak"
    },
    {
        "Postcode": "94000",
        "Location": "Kampung Skiat Lama",
        "Post_Office": "Bau",
        "State": "Sarawak"
    },
    {
        "Postcode": "94000",
        "Location": "Kampung Skibang",
        "Post_Office": "Bau",
        "State": "Sarawak"
    },
    {
        "Postcode": "94000",
        "Location": "Kampung Skio",
        "Post_Office": "Bau",
        "State": "Sarawak"
    },
    {
        "Postcode": "94000",
        "Location": "Kampung Sogoh",
        "Post_Office": "Bau",
        "State": "Sarawak"
    },
    {
        "Postcode": "94000",
        "Location": "Kampung Stass",
        "Post_Office": "Bau",
        "State": "Sarawak"
    },
    {
        "Postcode": "94000",
        "Location": "Kampung Stenggang",
        "Post_Office": "Bau",
        "State": "Sarawak"
    },
    {
        "Postcode": "94000",
        "Location": "Kampung Suba Bandar",
        "Post_Office": "Bau",
        "State": "Sarawak"
    },
    {
        "Postcode": "94000",
        "Location": "Kampung Suba Bau",
        "Post_Office": "Bau",
        "State": "Sarawak"
    },
    {
        "Postcode": "94000",
        "Location": "Kampung Suba Buan",
        "Post_Office": "Bau",
        "State": "Sarawak"
    },
    {
        "Postcode": "94000",
        "Location": "Kampung Tembawang",
        "Post_Office": "Bau",
        "State": "Sarawak"
    },
    {
        "Postcode": "94000",
        "Location": "Kampung Tringgus",
        "Post_Office": "Bau",
        "State": "Sarawak"
    },
    {
        "Postcode": "94000",
        "Location": "Krokong",
        "Post_Office": "Bau",
        "State": "Sarawak"
    },
    {
        "Postcode": "94000",
        "Location": "Paku",
        "Post_Office": "Bau",
        "State": "Sarawak"
    },
    {
        "Postcode": "94000",
        "Location": "Samchien",
        "Post_Office": "Bau",
        "State": "Sarawak"
    },
    {
        "Postcode": "94000",
        "Location": "Sebuku",
        "Post_Office": "Bau",
        "State": "Sarawak"
    },
    {
        "Postcode": "94000",
        "Location": "Seringgok",
        "Post_Office": "Bau",
        "State": "Sarawak"
    },
    {
        "Postcode": "94000",
        "Location": "Siniawan",
        "Post_Office": "Bau",
        "State": "Sarawak"
    },
    {
        "Postcode": "94000",
        "Location": "Taiton",
        "Post_Office": "Bau",
        "State": "Sarawak"
    },
    {
        "Postcode": "94000",
        "Location": "Taman Dayu",
        "Post_Office": "Bau",
        "State": "Sarawak"
    },
    {
        "Postcode": "94000",
        "Location": "Taman Limbang",
        "Post_Office": "Bau",
        "State": "Sarawak"
    },
    {
        "Postcode": "94000",
        "Location": "Tanjong Batu",
        "Post_Office": "Bau",
        "State": "Sarawak"
    },
    {
        "Postcode": "94000",
        "Location": "Tanjong Durian",
        "Post_Office": "Bau",
        "State": "Sarawak"
    },
    {
        "Postcode": "94000",
        "Location": "Tasik Biru",
        "Post_Office": "Bau",
        "State": "Sarawak"
    },
    {
        "Postcode": "94000",
        "Location": "Tondong",
        "Post_Office": "Bau",
        "State": "Sarawak"
    }
]
