[
    {
        "Postcode": "94300",
        "Location": "Kampung Melayu",
        "Post_Office": "Kota Samarahan",
        "State": "Sarawak"
    },
    {
        "Postcode": "94300",
        "Location": "Kampung Pinang",
        "Post_Office": "Kota Samarahan",
        "State": "Sarawak"
    },
    {
        "Postcode": "94300",
        "Location": "Kampung Baru Samarahan",
        "Post_Office": "Kota Samarahan",
        "State": "Sarawak"
    },
    {
        "Postcode": "94300",
        "Location": "Jalan Muara Tuang (Hingga Km 3)",
        "Post_Office": "Kota Samarahan",
        "State": "Sarawak"
    },
    {
        "Postcode": "94300",
        "Location": "Kampung Ampila",
        "Post_Office": "Kota Samarahan",
        "State": "Sarawak"
    },
    {
        "Postcode": "94300",
        "Location": "Kampung Bajo",
        "Post_Office": "Kota Samarahan",
        "State": "Sarawak"
    },
    {
        "Postcode": "94300",
        "Location": "Kampung Lubok Mata",
        "Post_Office": "Kota Samarahan",
        "State": "Sarawak"
    },
    {
        "Postcode": "94300",
        "Location": "Kampung Mangka",
        "Post_Office": "Kota Samarahan",
        "State": "Sarawak"
    },
    {
        "Postcode": "94300",
        "Location": "Kampung Mata Parang",
        "Post_Office": "Kota Samarahan",
        "State": "Sarawak"
    },
    {
        "Postcode": "94300",
        "Location": "Kampung Meranik",
        "Post_Office": "Kota Samarahan",
        "State": "Sarawak"
    },
    {
        "Postcode": "94300",
        "Location": "Kampung Merdang Lumut",
        "Post_Office": "Kota Samarahan",
        "State": "Sarawak"
    },
    {
        "Postcode": "94300",
        "Location": "Kampung Merdang Lumut Jalan Datuk Mohd Musa",
        "Post_Office": "Kota Samarahan",
        "State": "Sarawak"
    },
    {
        "Postcode": "94300",
        "Location": "Kampung Muara Tuang",
        "Post_Office": "Kota Samarahan",
        "State": "Sarawak"
    },
    {
        "Postcode": "94300",
        "Location": "Kampung Niup",
        "Post_Office": "Kota Samarahan",
        "State": "Sarawak"
    },
    {
        "Postcode": "94300",
        "Location": "Kampung Pengkalan Kuap Jalan Datuk Mohd Musa",
        "Post_Office": "Kota Samarahan",
        "State": "Sarawak"
    },
    {
        "Postcode": "94300",
        "Location": "Kampung Plaie",
        "Post_Office": "Kota Samarahan",
        "State": "Sarawak"
    },
    {
        "Postcode": "94300",
        "Location": "Kampung Rambus",
        "Post_Office": "Kota Samarahan",
        "State": "Sarawak"
    },
    {
        "Postcode": "94300",
        "Location": "Kampung Semawang",
        "Post_Office": "Kota Samarahan",
        "State": "Sarawak"
    },
    {
        "Postcode": "94300",
        "Location": "Kampung Sindang",
        "Post_Office": "Kota Samarahan",
        "State": "Sarawak"
    },
    {
        "Postcode": "94300",
        "Location": "Kampung Sungai Mata",
        "Post_Office": "Kota Samarahan",
        "State": "Sarawak"
    },
    {
        "Postcode": "94300",
        "Location": "Kampung Tanjung Bundung",
        "Post_Office": "Kota Samarahan",
        "State": "Sarawak"
    },
    {
        "Postcode": "94300",
        "Location": "Kampung Tanjung Parang",
        "Post_Office": "Kota Samarahan",
        "State": "Sarawak"
    },
    {
        "Postcode": "94300",
        "Location": "Kampung Tanjung Tuang",
        "Post_Office": "Kota Samarahan",
        "State": "Sarawak"
    },
    {
        "Postcode": "94300",
        "Location": "Kota Samarahan",
        "Post_Office": "Kota Samarahan",
        "State": "Sarawak"
    },
    {
        "Postcode": "94300",
        "Location": "Taman Mustafa Jalan Datok Mohd Musa",
        "Post_Office": "Kota Samarahan",
        "State": "Sarawak"
    },
    {
        "Postcode": "94300",
        "Location": "Uitm Cawangan Sarawak Jalan Meranek",
        "Post_Office": "Kota Samarahan",
        "State": "Sarawak"
    }
]
