[
    {
        "Postcode": "94500",
        "Location": "Kampung Belungei ",
        "Post_Office": "Lundu",
        "State": "Sarawak"
    },
    {
        "Postcode": "94500",
        "Location": "Kampung Bengang ",
        "Post_Office": "Lundu",
        "State": "Sarawak"
    },
    {
        "Postcode": "94500",
        "Location": "Kampung Biawak ",
        "Post_Office": "Lundu",
        "State": "Sarawak"
    },
    {
        "Postcode": "94500",
        "Location": "Kampung Bitokan  ",
        "Post_Office": "Lundu",
        "State": "Sarawak"
    },
    {
        "Postcode": "94500",
        "Location": "Kampung Bokah ",
        "Post_Office": "Lundu",
        "State": "Sarawak"
    },
    {
        "Postcode": "94500",
        "Location": "Kampung Bukit Batu ",
        "Post_Office": "Lundu",
        "State": "Sarawak"
    },
    {
        "Postcode": "94500",
        "Location": "Kampung Bukit Papan ",
        "Post_Office": "Lundu",
        "State": "Sarawak"
    },
    {
        "Postcode": "94500",
        "Location": "Kampung Gerunggang ",
        "Post_Office": "Lundu",
        "State": "Sarawak"
    },
    {
        "Postcode": "94500",
        "Location": "Kampung Jampari ",
        "Post_Office": "Lundu",
        "State": "Sarawak"
    },
    {
        "Postcode": "94500",
        "Location": "Kampung Jangkar ",
        "Post_Office": "Lundu",
        "State": "Sarawak"
    },
    {
        "Postcode": "94500",
        "Location": "Kampung Jantan ",
        "Post_Office": "Lundu",
        "State": "Sarawak"
    },
    {
        "Postcode": "94500",
        "Location": "Kampung Judin ",
        "Post_Office": "Lundu",
        "State": "Sarawak"
    },
    {
        "Postcode": "94500",
        "Location": "Kampung Kangka",
        "Post_Office": "Lundu",
        "State": "Sarawak"
    },
    {
        "Postcode": "94500",
        "Location": "Kampung Kelaoh",
        "Post_Office": "Lundu",
        "State": "Sarawak"
    },
    {
        "Postcode": "94500",
        "Location": "Kampung Kendaie ",
        "Post_Office": "Lundu",
        "State": "Sarawak"
    },
    {
        "Postcode": "94500",
        "Location": "Kampung Opek",
        "Post_Office": "Lundu",
        "State": "Sarawak"
    },
    {
        "Postcode": "94500",
        "Location": "Kampung Pandan ",
        "Post_Office": "Lundu",
        "State": "Sarawak"
    },
    {
        "Postcode": "94500",
        "Location": "Kampung Paon ",
        "Post_Office": "Lundu",
        "State": "Sarawak"
    },
    {
        "Postcode": "94500",
        "Location": "Kampung Pasir Ilir ",
        "Post_Office": "Lundu",
        "State": "Sarawak"
    },
    {
        "Postcode": "94500",
        "Location": "Kampung Pasir Tengah  ",
        "Post_Office": "Lundu",
        "State": "Sarawak"
    },
    {
        "Postcode": "94500",
        "Location": "Kampung Pasir Ulu ",
        "Post_Office": "Lundu",
        "State": "Sarawak"
    },
    {
        "Postcode": "94500",
        "Location": "Kampung Perian  ",
        "Post_Office": "Lundu",
        "State": "Sarawak"
    },
    {
        "Postcode": "94500",
        "Location": "Kampung Perigi",
        "Post_Office": "Lundu",
        "State": "Sarawak"
    },
    {
        "Postcode": "94500",
        "Location": "Kampung Perundang ",
        "Post_Office": "Lundu",
        "State": "Sarawak"
    },
    {
        "Postcode": "94500",
        "Location": "Kampung Pueh ",
        "Post_Office": "Lundu",
        "State": "Sarawak"
    },
    {
        "Postcode": "94500",
        "Location": "Kampung Pugu ",
        "Post_Office": "Lundu",
        "State": "Sarawak"
    },
    {
        "Postcode": "94500",
        "Location": "Kampung Raso I",
        "Post_Office": "Lundu",
        "State": "Sarawak"
    },
    {
        "Postcode": "94500",
        "Location": "Kampung Raso Ii",
        "Post_Office": "Lundu",
        "State": "Sarawak"
    },
    {
        "Postcode": "94500",
        "Location": "Kampung Rayu Iban",
        "Post_Office": "Lundu",
        "State": "Sarawak"
    },
    {
        "Postcode": "94500",
        "Location": "Kampung Rayu Melayu",
        "Post_Office": "Lundu",
        "State": "Sarawak"
    },
    {
        "Postcode": "94500",
        "Location": "Kampung Rukam",
        "Post_Office": "Lundu",
        "State": "Sarawak"
    },
    {
        "Postcode": "94500",
        "Location": "Kampung Sampadi",
        "Post_Office": "Lundu",
        "State": "Sarawak"
    },
    {
        "Postcode": "94500",
        "Location": "Kampung Sampadi Cina",
        "Post_Office": "Lundu",
        "State": "Sarawak"
    },
    {
        "Postcode": "94500",
        "Location": "Kampung Sebako ",
        "Post_Office": "Lundu",
        "State": "Sarawak"
    },
    {
        "Postcode": "94500",
        "Location": "Kampung Sebandi Ilir ",
        "Post_Office": "Lundu",
        "State": "Sarawak"
    },
    {
        "Postcode": "94500",
        "Location": "Kampung Sebat Dayak ",
        "Post_Office": "Lundu",
        "State": "Sarawak"
    },
    {
        "Postcode": "94500",
        "Location": "Kampung Sebat Melayu Baru ",
        "Post_Office": "Lundu",
        "State": "Sarawak"
    },
    {
        "Postcode": "94500",
        "Location": "Kampung Sebat Melayu Lama",
        "Post_Office": "Lundu",
        "State": "Sarawak"
    },
    {
        "Postcode": "94500",
        "Location": "Kampung Sebigo ",
        "Post_Office": "Lundu",
        "State": "Sarawak"
    },
    {
        "Postcode": "94500",
        "Location": "Kampung Sebiris ",
        "Post_Office": "Lundu",
        "State": "Sarawak"
    },
    {
        "Postcode": "94500",
        "Location": "Kampung Sedaing",
        "Post_Office": "Lundu",
        "State": "Sarawak"
    },
    {
        "Postcode": "94500",
        "Location": "Kampung Sedemak ",
        "Post_Office": "Lundu",
        "State": "Sarawak"
    },
    {
        "Postcode": "94500",
        "Location": "Kampung Sekambal Cina ",
        "Post_Office": "Lundu",
        "State": "Sarawak"
    },
    {
        "Postcode": "94500",
        "Location": "Kampung Sekambal Melayu ",
        "Post_Office": "Lundu",
        "State": "Sarawak"
    },
    {
        "Postcode": "94500",
        "Location": "Kampung Selampit",
        "Post_Office": "Lundu",
        "State": "Sarawak"
    },
    {
        "Postcode": "94500",
        "Location": "Kampung Selarat",
        "Post_Office": "Lundu",
        "State": "Sarawak"
    },
    {
        "Postcode": "94500",
        "Location": "Kampung Selenggok",
        "Post_Office": "Lundu",
        "State": "Sarawak"
    },
    {
        "Postcode": "94500",
        "Location": "Kampung Semapu",
        "Post_Office": "Lundu",
        "State": "Sarawak"
    },
    {
        "Postcode": "94500",
        "Location": "Kampung Sembawang ",
        "Post_Office": "Lundu",
        "State": "Sarawak"
    },
    {
        "Postcode": "94500",
        "Location": "Kampung Semunin ",
        "Post_Office": "Lundu",
        "State": "Sarawak"
    },
    {
        "Postcode": "94500",
        "Location": "Kampung Senibong ",
        "Post_Office": "Lundu",
        "State": "Sarawak"
    },
    {
        "Postcode": "94500",
        "Location": "Kampung Serayan Cina ",
        "Post_Office": "Lundu",
        "State": "Sarawak"
    },
    {
        "Postcode": "94500",
        "Location": "Kampung Serayan Hilir ",
        "Post_Office": "Lundu",
        "State": "Sarawak"
    },
    {
        "Postcode": "94500",
        "Location": "Kampung Serayan Ulu ",
        "Post_Office": "Lundu",
        "State": "Sarawak"
    },
    {
        "Postcode": "94500",
        "Location": "Kampung Siluk ",
        "Post_Office": "Lundu",
        "State": "Sarawak"
    },
    {
        "Postcode": "94500",
        "Location": "Kampung Simpang Bokah ",
        "Post_Office": "Lundu",
        "State": "Sarawak"
    },
    {
        "Postcode": "94500",
        "Location": "Kampung Siru Dayak ",
        "Post_Office": "Lundu",
        "State": "Sarawak"
    },
    {
        "Postcode": "94500",
        "Location": "Kampung Siru Melayu",
        "Post_Office": "Lundu",
        "State": "Sarawak"
    },
    {
        "Postcode": "94500",
        "Location": "Kampung Stum Muda ",
        "Post_Office": "Lundu",
        "State": "Sarawak"
    },
    {
        "Postcode": "94500",
        "Location": "Kampung Stunggang Dayak ",
        "Post_Office": "Lundu",
        "State": "Sarawak"
    },
    {
        "Postcode": "94500",
        "Location": "Kampung Stunggang Ulu ",
        "Post_Office": "Lundu",
        "State": "Sarawak"
    },
    {
        "Postcode": "94500",
        "Location": "Kampung Stungkor Baru ",
        "Post_Office": "Lundu",
        "State": "Sarawak"
    },
    {
        "Postcode": "94500",
        "Location": "Kampung Stungkor Lama ",
        "Post_Office": "Lundu",
        "State": "Sarawak"
    },
    {
        "Postcode": "94500",
        "Location": "Kampung Sungai Belian",
        "Post_Office": "Lundu",
        "State": "Sarawak"
    },
    {
        "Postcode": "94500",
        "Location": "Kampung Sungai Cina",
        "Post_Office": "Lundu",
        "State": "Sarawak"
    },
    {
        "Postcode": "94500",
        "Location": "Kampung Sungai Kilong  ",
        "Post_Office": "Lundu",
        "State": "Sarawak"
    },
    {
        "Postcode": "94500",
        "Location": "Kampung Sungai Langgir",
        "Post_Office": "Lundu",
        "State": "Sarawak"
    },
    {
        "Postcode": "94500",
        "Location": "Kampung Sungai Limo Sampadi",
        "Post_Office": "Lundu",
        "State": "Sarawak"
    },
    {
        "Postcode": "94500",
        "Location": "Kampung Sungai Merah",
        "Post_Office": "Lundu",
        "State": "Sarawak"
    },
    {
        "Postcode": "94500",
        "Location": "Kampung Tabuan Cina ",
        "Post_Office": "Lundu",
        "State": "Sarawak"
    },
    {
        "Postcode": "94500",
        "Location": "Kampung Tanah Hitam ",
        "Post_Office": "Lundu",
        "State": "Sarawak"
    },
    {
        "Postcode": "94500",
        "Location": "Kampung Tanjam",
        "Post_Office": "Lundu",
        "State": "Sarawak"
    },
    {
        "Postcode": "94500",
        "Location": "Kampung Tebaro ",
        "Post_Office": "Lundu",
        "State": "Sarawak"
    },
    {
        "Postcode": "94500",
        "Location": "Kampung Temaga Cina ",
        "Post_Office": "Lundu",
        "State": "Sarawak"
    },
    {
        "Postcode": "94500",
        "Location": "Kampung Temaga Dayak ",
        "Post_Office": "Lundu",
        "State": "Sarawak"
    },
    {
        "Postcode": "94500",
        "Location": "Kampung Temaga Melayu ",
        "Post_Office": "Lundu",
        "State": "Sarawak"
    },
    {
        "Postcode": "94500",
        "Location": "Kampung Temelan Dayak  ",
        "Post_Office": "Lundu",
        "State": "Sarawak"
    },
    {
        "Postcode": "94500",
        "Location": "Kampung Temelan Melayu ",
        "Post_Office": "Lundu",
        "State": "Sarawak"
    },
    {
        "Postcode": "94500",
        "Location": "Kampung Titiakar ",
        "Post_Office": "Lundu",
        "State": "Sarawak"
    },
    {
        "Postcode": "94500",
        "Location": "Kampung Trusan Jaya ",
        "Post_Office": "Lundu",
        "State": "Sarawak"
    },
    {
        "Postcode": "94500",
        "Location": "Pekan Sematan ",
        "Post_Office": "Lundu",
        "State": "Sarawak"
    },
    {
        "Postcode": "94500",
        "Location": "Jalan Blacksmith",
        "Post_Office": "Lundu",
        "State": "Sarawak"
    },
    {
        "Postcode": "94500",
        "Location": "Kampung Keranji ",
        "Post_Office": "Lundu",
        "State": "Sarawak"
    },
    {
        "Postcode": "94500",
        "Location": "Kampung Rambungan",
        "Post_Office": "Lundu",
        "State": "Sarawak"
    },
    {
        "Postcode": "94500",
        "Location": "Kampung Sebandi Ulu",
        "Post_Office": "Lundu",
        "State": "Sarawak"
    },
    {
        "Postcode": "94500",
        "Location": "Kampung Tabuan Dayak ",
        "Post_Office": "Lundu",
        "State": "Sarawak"
    },
    {
        "Postcode": "94500",
        "Location": "Kampung Batang Embang ",
        "Post_Office": "Lundu",
        "State": "Sarawak"
    },
    {
        "Postcode": "94500",
        "Location": "Kampung Dagang",
        "Post_Office": "Lundu",
        "State": "Sarawak"
    },
    {
        "Postcode": "94500",
        "Location": "Kampung Sebuluh",
        "Post_Office": "Lundu",
        "State": "Sarawak"
    },
    {
        "Postcode": "94500",
        "Location": "Kampung Stoh",
        "Post_Office": "Lundu",
        "State": "Sarawak"
    },
    {
        "Postcode": "94500",
        "Location": "Kampung Begak",
        "Post_Office": "Lundu",
        "State": "Sarawak"
    },
    {
        "Postcode": "94500",
        "Location": "Kampung Klaoh",
        "Post_Office": "Lundu",
        "State": "Sarawak"
    },
    {
        "Postcode": "94500",
        "Location": "Kampung Prian",
        "Post_Office": "Lundu",
        "State": "Sarawak"
    },
    {
        "Postcode": "94500",
        "Location": "Kampung Sebemban",
        "Post_Office": "Lundu",
        "State": "Sarawak"
    },
    {
        "Postcode": "94500",
        "Location": "Kampung Sekambal",
        "Post_Office": "Lundu",
        "State": "Sarawak"
    },
    {
        "Postcode": "94500",
        "Location": "Kampung Seketi",
        "Post_Office": "Lundu",
        "State": "Sarawak"
    },
    {
        "Postcode": "94500",
        "Location": "Kampung Seling Dayak",
        "Post_Office": "Lundu",
        "State": "Sarawak"
    },
    {
        "Postcode": "94500",
        "Location": "Kampung Seling Melayu",
        "Post_Office": "Lundu",
        "State": "Sarawak"
    },
    {
        "Postcode": "94500",
        "Location": "Kampung Sempadi",
        "Post_Office": "Lundu",
        "State": "Sarawak"
    },
    {
        "Postcode": "94500",
        "Location": "Kampung Serayan",
        "Post_Office": "Lundu",
        "State": "Sarawak"
    },
    {
        "Postcode": "94500",
        "Location": "Kampung Siar",
        "Post_Office": "Lundu",
        "State": "Sarawak"
    },
    {
        "Postcode": "94500",
        "Location": "Kampung Sileng Dayak",
        "Post_Office": "Lundu",
        "State": "Sarawak"
    },
    {
        "Postcode": "94500",
        "Location": "Kampung Sileng Melayu",
        "Post_Office": "Lundu",
        "State": "Sarawak"
    },
    {
        "Postcode": "94500",
        "Location": "Kampung Stunggang Melayu",
        "Post_Office": "Lundu",
        "State": "Sarawak"
    },
    {
        "Postcode": "94500",
        "Location": "Kampung Sungai Lundu",
        "Post_Office": "Lundu",
        "State": "Sarawak"
    },
    {
        "Postcode": "94500",
        "Location": "Kampung Temelan",
        "Post_Office": "Lundu",
        "State": "Sarawak"
    },
    {
        "Postcode": "94500",
        "Location": "Lundu",
        "Post_Office": "Lundu",
        "State": "Sarawak"
    },
    {
        "Postcode": "94500",
        "Location": "Sematan",
        "Post_Office": "Lundu",
        "State": "Sarawak"
    }
]
