[
    {
        "Postcode": "94600",
        "Location": "Kampung Sebandi Ulu",
        "Post_Office": "Asajaya",
        "State": "Sarawak"
    },
    {
        "Postcode": "94600",
        "Location": "Kampung Sebandi Matang",
        "Post_Office": "Asajaya",
        "State": "Sarawak"
    },
    {
        "Postcode": "94600",
        "Location": "Asajaya",
        "Post_Office": "Asajaya",
        "State": "Sarawak"
    },
    {
        "Postcode": "94600",
        "Location": "Asajaya Bakong",
        "Post_Office": "Asajaya",
        "State": "Sarawak"
    },
    {
        "Postcode": "94600",
        "Location": "Asajaya Laut",
        "Post_Office": "Asajaya",
        "State": "Sarawak"
    },
    {
        "Postcode": "94600",
        "Location": "Asajaya Ulu",
        "Post_Office": "Asajaya",
        "State": "Sarawak"
    },
    {
        "Postcode": "94600",
        "Location": "Kampung Iboi",
        "Post_Office": "Asajaya",
        "State": "Sarawak"
    },
    {
        "Postcode": "94600",
        "Location": "Kampung Jaie",
        "Post_Office": "Asajaya",
        "State": "Sarawak"
    },
    {
        "Postcode": "94600",
        "Location": "Kampung Jemukan",
        "Post_Office": "Asajaya",
        "State": "Sarawak"
    },
    {
        "Postcode": "94600",
        "Location": "Kampung Moyan",
        "Post_Office": "Asajaya",
        "State": "Sarawak"
    },
    {
        "Postcode": "94600",
        "Location": "Kampung Pelandok",
        "Post_Office": "Asajaya",
        "State": "Sarawak"
    },
    {
        "Postcode": "94600",
        "Location": "Kampung Rangawan",
        "Post_Office": "Asajaya",
        "State": "Sarawak"
    },
    {
        "Postcode": "94600",
        "Location": "Kampung Rebak",
        "Post_Office": "Asajaya",
        "State": "Sarawak"
    },
    {
        "Postcode": "94600",
        "Location": "Kampung Sambir",
        "Post_Office": "Asajaya",
        "State": "Sarawak"
    },
    {
        "Postcode": "94600",
        "Location": "Kampung Sampun Gerunggang",
        "Post_Office": "Asajaya",
        "State": "Sarawak"
    },
    {
        "Postcode": "94600",
        "Location": "Kampung Sebandi Hilir",
        "Post_Office": "Asajaya",
        "State": "Sarawak"
    },
    {
        "Postcode": "94600",
        "Location": "Kampung Semera",
        "Post_Office": "Asajaya",
        "State": "Sarawak"
    },
    {
        "Postcode": "94600",
        "Location": "Kampung Senangeh",
        "Post_Office": "Asajaya",
        "State": "Sarawak"
    },
    {
        "Postcode": "94600",
        "Location": "Kampung Serpan Laut",
        "Post_Office": "Asajaya",
        "State": "Sarawak"
    },
    {
        "Postcode": "94600",
        "Location": "Kampung Serpan Parit Ulu",
        "Post_Office": "Asajaya",
        "State": "Sarawak"
    },
    {
        "Postcode": "94600",
        "Location": "Kampung Sungai Buluh",
        "Post_Office": "Asajaya",
        "State": "Sarawak"
    },
    {
        "Postcode": "94600",
        "Location": "Kampung Sungai Putin",
        "Post_Office": "Asajaya",
        "State": "Sarawak"
    },
    {
        "Postcode": "94600",
        "Location": "Kampung Tambirat",
        "Post_Office": "Asajaya",
        "State": "Sarawak"
    },
    {
        "Postcode": "94600",
        "Location": "Kampung Tanjung Apong",
        "Post_Office": "Asajaya",
        "State": "Sarawak"
    },
    {
        "Postcode": "94600",
        "Location": "Kampung Tanjung Kelaso",
        "Post_Office": "Asajaya",
        "State": "Sarawak"
    },
    {
        "Postcode": "94600",
        "Location": "Kampung Tembirat",
        "Post_Office": "Asajaya",
        "State": "Sarawak"
    },
    {
        "Postcode": "94600",
        "Location": "Kampung Terasi",
        "Post_Office": "Asajaya",
        "State": "Sarawak"
    },
    {
        "Postcode": "94600",
        "Location": "Pendam",
        "Post_Office": "Asajaya",
        "State": "Sarawak"
    },
    {
        "Postcode": "94600",
        "Location": "Sadong Jaya",
        "Post_Office": "Asajaya",
        "State": "Sarawak"
    }
]
