[
    {
        "Postcode": "94700",
        "Location": "Kampung Cina",
        "Post_Office": "Serian",
        "State": "Sarawak"
    },
    {
        "Postcode": "94700",
        "Location": "Kampung Sungai Pinang",
        "Post_Office": "Serian",
        "State": "Sarawak"
    },
    {
        "Postcode": "94700",
        "Location": "Jalan Serian - Sri Aman (Batu 68)",
        "Post_Office": "Serian",
        "State": "Sarawak"
    },
    {
        "Postcode": "94700",
        "Location": "Jalan Serian - Sri Aman (Km 109)",
        "Post_Office": "Serian",
        "State": "Sarawak"
    },
    {
        "Postcode": "94700",
        "Location": "Kampung Benat",
        "Post_Office": "Serian",
        "State": "Sarawak"
    },
    {
        "Postcode": "94700",
        "Location": "Kampung Bintawa",
        "Post_Office": "Serian",
        "State": "Sarawak"
    },
    {
        "Postcode": "94700",
        "Location": "Kampung Gedong",
        "Post_Office": "Serian",
        "State": "Sarawak"
    },
    {
        "Postcode": "94700",
        "Location": "Kampung Gumpey Gedong",
        "Post_Office": "Serian",
        "State": "Sarawak"
    },
    {
        "Postcode": "94700",
        "Location": "Kampung Jerok",
        "Post_Office": "Serian",
        "State": "Sarawak"
    },
    {
        "Postcode": "94700",
        "Location": "Kampung Kakai",
        "Post_Office": "Serian",
        "State": "Sarawak"
    },
    {
        "Postcode": "94700",
        "Location": "Kampung Lalang Gedong",
        "Post_Office": "Serian",
        "State": "Sarawak"
    },
    {
        "Postcode": "94700",
        "Location": "Kampung Munggu Limo",
        "Post_Office": "Serian",
        "State": "Sarawak"
    },
    {
        "Postcode": "94700",
        "Location": "Kampung Nyelitak",
        "Post_Office": "Serian",
        "State": "Sarawak"
    },
    {
        "Postcode": "94700",
        "Location": "Kampung Pancur",
        "Post_Office": "Serian",
        "State": "Sarawak"
    },
    {
        "Postcode": "94700",
        "Location": "Kampung Rasau",
        "Post_Office": "Serian",
        "State": "Sarawak"
    },
    {
        "Postcode": "94700",
        "Location": "Kampung Sambal Apeng",
        "Post_Office": "Serian",
        "State": "Sarawak"
    },
    {
        "Postcode": "94700",
        "Location": "Kampung Sambal Kruin",
        "Post_Office": "Serian",
        "State": "Sarawak"
    },
    {
        "Postcode": "94700",
        "Location": "Kampung Serian Hilir \u0026 Hulu",
        "Post_Office": "Serian",
        "State": "Sarawak"
    },
    {
        "Postcode": "94700",
        "Location": "Kampung Simpang Simunjan",
        "Post_Office": "Serian",
        "State": "Sarawak"
    },
    {
        "Postcode": "94700",
        "Location": "Kampung Slabi",
        "Post_Office": "Serian",
        "State": "Sarawak"
    },
    {
        "Postcode": "94700",
        "Location": "Kampung Spaoh Gedong",
        "Post_Office": "Serian",
        "State": "Sarawak"
    },
    {
        "Postcode": "94700",
        "Location": "Kampung Sungai Rawa",
        "Post_Office": "Serian",
        "State": "Sarawak"
    },
    {
        "Postcode": "94700",
        "Location": "Kampung Tanah Putih",
        "Post_Office": "Serian",
        "State": "Sarawak"
    },
    {
        "Postcode": "94700",
        "Location": "Kampung Tangga",
        "Post_Office": "Serian",
        "State": "Sarawak"
    },
    {
        "Postcode": "94700",
        "Location": "Kampung Telagus",
        "Post_Office": "Serian",
        "State": "Sarawak"
    },
    {
        "Postcode": "94700",
        "Location": "Kampung Terbat",
        "Post_Office": "Serian",
        "State": "Sarawak"
    },
    {
        "Postcode": "94700",
        "Location": "Kedup",
        "Post_Office": "Serian",
        "State": "Sarawak"
    },
    {
        "Postcode": "94700",
        "Location": "Serian",
        "Post_Office": "Serian",
        "State": "Sarawak"
    },
    {
        "Postcode": "94700",
        "Location": "Tarat",
        "Post_Office": "Serian",
        "State": "Sarawak"
    }
]
