[
    {
        "Postcode": "94800",
        "Location": "Kampung Lintang",
        "Post_Office": "Simunjan",
        "State": "Sarawak"
    },
    {
        "Postcode": "94800",
        "Location": "Gunung Ngeli",
        "Post_Office": "Simunjan",
        "State": "Sarawak"
    },
    {
        "Postcode": "94800",
        "Location": "Kampung Kelaka",
        "Post_Office": "Simunjan",
        "State": "Sarawak"
    },
    {
        "Postcode": "94800",
        "Location": "Kampung Lubuk Punggor",
        "Post_Office": "Simunjan",
        "State": "Sarawak"
    },
    {
        "Postcode": "94800",
        "Location": "Kampung Munggu Air",
        "Post_Office": "Simunjan",
        "State": "Sarawak"
    },
    {
        "Postcode": "94800",
        "Location": "Kampung Munggu Bejit",
        "Post_Office": "Simunjan",
        "State": "Sarawak"
    },
    {
        "Postcode": "94800",
        "Location": "Kampung Nanas",
        "Post_Office": "Simunjan",
        "State": "Sarawak"
    },
    {
        "Postcode": "94800",
        "Location": "Kampung Regelam",
        "Post_Office": "Simunjan",
        "State": "Sarawak"
    },
    {
        "Postcode": "94800",
        "Location": "Kampung Sageng",
        "Post_Office": "Simunjan",
        "State": "Sarawak"
    },
    {
        "Postcode": "94800",
        "Location": "Kampung Sedilo",
        "Post_Office": "Simunjan",
        "State": "Sarawak"
    },
    {
        "Postcode": "94800",
        "Location": "Kampung Tenggelam",
        "Post_Office": "Simunjan",
        "State": "Sarawak"
    },
    {
        "Postcode": "94800",
        "Location": "Munggu Bejit",
        "Post_Office": "Simunjan",
        "State": "Sarawak"
    },
    {
        "Postcode": "94800",
        "Location": "Sebangan",
        "Post_Office": "Simunjan",
        "State": "Sarawak"
    },
    {
        "Postcode": "94800",
        "Location": "Simunjan",
        "Post_Office": "Simunjan",
        "State": "Sarawak"
    }
]
