[
    {
        "Postcode": "94850",
        "Location": "Kampung Baru",
        "Post_Office": "Sebuyau",
        "State": "Sarawak"
    },
    {
        "Postcode": "94850",
        "Location": "Kampung Hulu",
        "Post_Office": "Sebuyau",
        "State": "Sarawak"
    },
    {
        "Postcode": "94850",
        "Location": "Kampung Masjid",
        "Post_Office": "Sebuyau",
        "State": "Sarawak"
    },
    {
        "Postcode": "94850",
        "Location": "Jalan Sawmill",
        "Post_Office": "Sebuyau",
        "State": "Sarawak"
    },
    {
        "Postcode": "94850",
        "Location": "Kampung Jeragan",
        "Post_Office": "Sebuyau",
        "State": "Sarawak"
    },
    {
        "Postcode": "94850",
        "Location": "Kampung Kelait",
        "Post_Office": "Sebuyau",
        "State": "Sarawak"
    },
    {
        "Postcode": "94850",
        "Location": "Kampung Lunying",
        "Post_Office": "Sebuyau",
        "State": "Sarawak"
    },
    {
        "Postcode": "94850",
        "Location": "Kampung Mamba",
        "Post_Office": "Sebuyau",
        "State": "Sarawak"
    },
    {
        "Postcode": "94850",
        "Location": "Kampung Raba",
        "Post_Office": "Sebuyau",
        "State": "Sarawak"
    },
    {
        "Postcode": "94850",
        "Location": "Kampung Tebelu",
        "Post_Office": "Sebuyau",
        "State": "Sarawak"
    },
    {
        "Postcode": "94850",
        "Location": "Kampung Tuba",
        "Post_Office": "Sebuyau",
        "State": "Sarawak"
    },
    {
        "Postcode": "94850",
        "Location": "Sebuyau",
        "Post_Office": "Sebuyau",
        "State": "Sarawak"
    }
]
