[
    {
        "Postcode": "26050",
        "Location": "Bukit Goh",
        "Post_Office": "Bukit Goh",
        "State": "Pahang"
    },
    {
        "Postcode": "26050",
        "Location": "Bukit Sagu 1",
        "Post_Office": "Bukit Goh",
        "State": "Pahang"
    },
    {
        "Postcode": "26050",
        "Location": "Jalan Cempaka",
        "Post_Office": "Bukit Goh",
        "State": "Pahang"
    },
    {
        "Postcode": "26050",
        "Location": "Jalan Cengal",
        "Post_Office": "Bukit Goh",
        "State": "Pahang"
    },
    {
        "Postcode": "26050",
        "Location": "Jalan Kektus",
        "Post_Office": "Bukit Goh",
        "State": "Pahang"
    },
    {
        "Postcode": "26050",
        "Location": "Jalan Kekwa",
        "Post_Office": "Bukit Goh",
        "State": "Pahang"
    },
    {
        "Postcode": "26050",
        "Location": "Jalan Kubur",
        "Post_Office": "Bukit Goh",
        "State": "Pahang"
    },
    {
        "Postcode": "26050",
        "Location": "Jalan Mawar",
        "Post_Office": "Bukit Goh",
        "State": "Pahang"
    },
    {
        "Postcode": "26050",
        "Location": "Jalan Melor",
        "Post_Office": "Bukit Goh",
        "State": "Pahang"
    },
    {
        "Postcode": "26050",
        "Location": "Jalan Ros",
        "Post_Office": "Bukit Goh",
        "State": "Pahang"
    },
    {
        "Postcode": "26050",
        "Location": "Jalan Sega",
        "Post_Office": "Bukit Goh",
        "State": "Pahang"
    },
    {
        "Postcode": "26050",
        "Location": "Jalan Seroja",
        "Post_Office": "Bukit Goh",
        "State": "Pahang"
    },
    {
        "Postcode": "26050",
        "Location": "Jalan Teratai",
        "Post_Office": "Bukit Goh",
        "State": "Pahang"
    },
    {
        "Postcode": "26050",
        "Location": "Jalan Tok Janggut",
        "Post_Office": "Bukit Goh",
        "State": "Pahang"
    },
    {
        "Postcode": "26050",
        "Location": "Lorong Muhamad",
        "Post_Office": "Bukit Goh",
        "State": "Pahang"
    },
    {
        "Postcode": "26050",
        "Location": "Perkampungan Rtp Bukit Goh",
        "Post_Office": "Bukit Goh",
        "State": "Pahang"
    },
    {
        "Postcode": "26050",
        "Location": "Perkampungan Tanah Pemuda",
        "Post_Office": "Bukit Goh",
        "State": "Pahang"
    },
    {
        "Postcode": "26050",
        "Location": "Pertanian Komuniti",
        "Post_Office": "Bukit Goh",
        "State": "Pahang"
    },
    {
        "Postcode": "26050",
        "Location": "Perumahan Bukit Goh Perdana",
        "Post_Office": "Bukit Goh",
        "State": "Pahang"
    },
    {
        "Postcode": "26050",
        "Location": "Simpang 3 Rtp",
        "Post_Office": "Bukit Goh",
        "State": "Pahang"
    },
    {
        "Postcode": "26050",
        "Location": "Jalan Aman",
        "Post_Office": "Bukit Goh",
        "State": "Pahang"
    },
    {
        "Postcode": "26050",
        "Location": "Jalan Damai",
        "Post_Office": "Bukit Goh",
        "State": "Pahang"
    },
    {
        "Postcode": "26050",
        "Location": "Jalan Kenanga",
        "Post_Office": "Bukit Goh",
        "State": "Pahang"
    },
    {
        "Postcode": "26050",
        "Location": "Jalan Masjid",
        "Post_Office": "Bukit Goh",
        "State": "Pahang"
    },
    {
        "Postcode": "26050",
        "Location": "Jalan Murai",
        "Post_Office": "Bukit Goh",
        "State": "Pahang"
    },
    {
        "Postcode": "26050",
        "Location": "Jalan Serai",
        "Post_Office": "Bukit Goh",
        "State": "Pahang"
    },
    {
        "Postcode": "26050",
        "Location": "Perkampungan Dato Haji Abdul Aziz",
        "Post_Office": "Bukit Goh",
        "State": "Pahang"
    },
    {
        "Postcode": "26050",
        "Location": "Bukit Goh Perdana 1",
        "Post_Office": "Bukit Goh",
        "State": "Pahang"
    },
    {
        "Postcode": "26050",
        "Location": "Bukit Goh Perdana 10",
        "Post_Office": "Bukit Goh",
        "State": "Pahang"
    },
    {
        "Postcode": "26050",
        "Location": "Bukit Goh Perdana 11",
        "Post_Office": "Bukit Goh",
        "State": "Pahang"
    },
    {
        "Postcode": "26050",
        "Location": "Bukit Goh Perdana 12",
        "Post_Office": "Bukit Goh",
        "State": "Pahang"
    },
    {
        "Postcode": "26050",
        "Location": "Bukit Goh Perdana 2",
        "Post_Office": "Bukit Goh",
        "State": "Pahang"
    },
    {
        "Postcode": "26050",
        "Location": "Bukit Goh Perdana 3",
        "Post_Office": "Bukit Goh",
        "State": "Pahang"
    },
    {
        "Postcode": "26050",
        "Location": "Bukit Goh Perdana 4",
        "Post_Office": "Bukit Goh",
        "State": "Pahang"
    },
    {
        "Postcode": "26050",
        "Location": "Bukit Goh Perdana 5",
        "Post_Office": "Bukit Goh",
        "State": "Pahang"
    },
    {
        "Postcode": "26050",
        "Location": "Bukit Goh Perdana 6",
        "Post_Office": "Bukit Goh",
        "State": "Pahang"
    },
    {
        "Postcode": "26050",
        "Location": "Bukit Goh Perdana 7",
        "Post_Office": "Bukit Goh",
        "State": "Pahang"
    },
    {
        "Postcode": "26050",
        "Location": "Bukit Goh Perdana 8",
        "Post_Office": "Bukit Goh",
        "State": "Pahang"
    },
    {
        "Postcode": "26050",
        "Location": "Bukit Goh Perdana 9",
        "Post_Office": "Bukit Goh",
        "State": "Pahang"
    }
]
