[
    {
        "Postcode": "26060",
        "Location": "Perumahan Kempadang Maju 1",
        "Post_Office": "Kuantan",
        "State": "Pahang"
    },
    {
        "Postcode": "26060",
        "Location": "Perumahan Kempadang Perdana",
        "Post_Office": "Kuantan",
        "State": "Pahang"
    },
    {
        "Postcode": "26060",
        "Location": "Perumahan Sungai Soi Jaya 1",
        "Post_Office": "Kuantan",
        "State": "Pahang"
    },
    {
        "Postcode": "26060",
        "Location": "Astaka Village",
        "Post_Office": "Kuantan",
        "State": "Pahang"
    },
    {
        "Postcode": "26060",
        "Location": "Bandar Putra Peramu",
        "Post_Office": "Kuantan",
        "State": "Pahang"
    },
    {
        "Postcode": "26060",
        "Location": "Jalan Haji Wok (Tanjung Lumpur)",
        "Post_Office": "Kuantan",
        "State": "Pahang"
    },
    {
        "Postcode": "26060",
        "Location": "Jalan Kempadang - Soi",
        "Post_Office": "Kuantan",
        "State": "Pahang"
    },
    {
        "Postcode": "26060",
        "Location": "Jalan Masjid (Tanjung Lumpur)",
        "Post_Office": "Kuantan",
        "State": "Pahang"
    },
    {
        "Postcode": "26060",
        "Location": "Jalan Razali (Tanjung Lumpur)",
        "Post_Office": "Kuantan",
        "State": "Pahang"
    },
    {
        "Postcode": "26060",
        "Location": "Jalan Tanjong Lumpur",
        "Post_Office": "Kuantan",
        "State": "Pahang"
    },
    {
        "Postcode": "26060",
        "Location": "Jalan Teluk Baharu 2",
        "Post_Office": "Kuantan",
        "State": "Pahang"
    },
    {
        "Postcode": "26060",
        "Location": "Jalan Tok Guru (Tanjung Lumpur)",
        "Post_Office": "Kuantan",
        "State": "Pahang"
    },
    {
        "Postcode": "26060",
        "Location": "Kampung Anak Air",
        "Post_Office": "Kuantan",
        "State": "Pahang"
    },
    {
        "Postcode": "26060",
        "Location": "Kampung Baharu Tanjung Lumpur",
        "Post_Office": "Kuantan",
        "State": "Pahang"
    },
    {
        "Postcode": "26060",
        "Location": "Kampung Banjir",
        "Post_Office": "Kuantan",
        "State": "Pahang"
    },
    {
        "Postcode": "26060",
        "Location": "Kampung Chempaka (Kuala Penor)",
        "Post_Office": "Kuantan",
        "State": "Pahang"
    },
    {
        "Postcode": "26060",
        "Location": "Kampung Kempadang",
        "Post_Office": "Kuantan",
        "State": "Pahang"
    },
    {
        "Postcode": "26060",
        "Location": "Kampung Kuala Penor",
        "Post_Office": "Kuantan",
        "State": "Pahang"
    },
    {
        "Postcode": "26060",
        "Location": "Kampung Nelayan",
        "Post_Office": "Kuantan",
        "State": "Pahang"
    },
    {
        "Postcode": "26060",
        "Location": "Kampung Orang Asli (Batu 9 Jalan Pekan)",
        "Post_Office": "Kuantan",
        "State": "Pahang"
    },
    {
        "Postcode": "26060",
        "Location": "Kampung Pahang",
        "Post_Office": "Kuantan",
        "State": "Pahang"
    },
    {
        "Postcode": "26060",
        "Location": "Kampung Pahang Sol",
        "Post_Office": "Kuantan",
        "State": "Pahang"
    },
    {
        "Postcode": "26060",
        "Location": "Kampung Pak Mahat",
        "Post_Office": "Kuantan",
        "State": "Pahang"
    },
    {
        "Postcode": "26060",
        "Location": "Kampung Penor",
        "Post_Office": "Kuantan",
        "State": "Pahang"
    },
    {
        "Postcode": "26060",
        "Location": "Kampung Peramu Hilir",
        "Post_Office": "Kuantan",
        "State": "Pahang"
    },
    {
        "Postcode": "26060",
        "Location": "Kampung Peramu Hulu",
        "Post_Office": "Kuantan",
        "State": "Pahang"
    },
    {
        "Postcode": "26060",
        "Location": "Kampung Sepat",
        "Post_Office": "Kuantan",
        "State": "Pahang"
    },
    {
        "Postcode": "26060",
        "Location": "Kampung Seri Melati",
        "Post_Office": "Kuantan",
        "State": "Pahang"
    },
    {
        "Postcode": "26060",
        "Location": "Kampung Sri Melati",
        "Post_Office": "Kuantan",
        "State": "Pahang"
    },
    {
        "Postcode": "26060",
        "Location": "Kampung Sungai Derhaka",
        "Post_Office": "Kuantan",
        "State": "Pahang"
    },
    {
        "Postcode": "26060",
        "Location": "Kampung Sungai Dua",
        "Post_Office": "Kuantan",
        "State": "Pahang"
    },
    {
        "Postcode": "26060",
        "Location": "Kampung Sungai Soi",
        "Post_Office": "Kuantan",
        "State": "Pahang"
    },
    {
        "Postcode": "26060",
        "Location": "Kampung Tanjong Lumpor",
        "Post_Office": "Kuantan",
        "State": "Pahang"
    },
    {
        "Postcode": "26060",
        "Location": "Kampung Telok Baharu",
        "Post_Office": "Kuantan",
        "State": "Pahang"
    },
    {
        "Postcode": "26060",
        "Location": "Lorong Alor Kangkong",
        "Post_Office": "Kuantan",
        "State": "Pahang"
    },
    {
        "Postcode": "26060",
        "Location": "Lorong Berjaya Permai 1",
        "Post_Office": "Kuantan",
        "State": "Pahang"
    },
    {
        "Postcode": "26060",
        "Location": "Lorong Haji Ariffin",
        "Post_Office": "Kuantan",
        "State": "Pahang"
    },
    {
        "Postcode": "26060",
        "Location": "Lorong I S 44",
        "Post_Office": "Kuantan",
        "State": "Pahang"
    },
    {
        "Postcode": "26060",
        "Location": "Lorong Kempadang Jaya 3",
        "Post_Office": "Kuantan",
        "State": "Pahang"
    },
    {
        "Postcode": "26060",
        "Location": "Lorong Kempadang Maju 11",
        "Post_Office": "Kuantan",
        "State": "Pahang"
    },
    {
        "Postcode": "26060",
        "Location": "Lorong Kempadang Maju 3",
        "Post_Office": "Kuantan",
        "State": "Pahang"
    },
    {
        "Postcode": "26060",
        "Location": "Lorong Kempadang Makmur 1/17",
        "Post_Office": "Kuantan",
        "State": "Pahang"
    },
    {
        "Postcode": "26060",
        "Location": "Lorong Kempadang Makmur 62",
        "Post_Office": "Kuantan",
        "State": "Pahang"
    },
    {
        "Postcode": "26060",
        "Location": "Lorong Kempadang Perdana 3/1",
        "Post_Office": "Kuantan",
        "State": "Pahang"
    },
    {
        "Postcode": "26060",
        "Location": "Lorong Kempadang Setia 4",
        "Post_Office": "Kuantan",
        "State": "Pahang"
    },
    {
        "Postcode": "26060",
        "Location": "Lorong Melor (Kampung Kempadang)",
        "Post_Office": "Kuantan",
        "State": "Pahang"
    },
    {
        "Postcode": "26060",
        "Location": "Lorong Meranti",
        "Post_Office": "Kuantan",
        "State": "Pahang"
    },
    {
        "Postcode": "26060",
        "Location": "Lorong Pak Mahat",
        "Post_Office": "Kuantan",
        "State": "Pahang"
    },
    {
        "Postcode": "26060",
        "Location": "Lorong Penor Aman",
        "Post_Office": "Kuantan",
        "State": "Pahang"
    },
    {
        "Postcode": "26060",
        "Location": "Lorong Peramu Baru",
        "Post_Office": "Kuantan",
        "State": "Pahang"
    },
    {
        "Postcode": "26060",
        "Location": "Lorong Permai 1",
        "Post_Office": "Kuantan",
        "State": "Pahang"
    },
    {
        "Postcode": "26060",
        "Location": "Lorong Permatang Cengal (Sungai Soi)",
        "Post_Office": "Kuantan",
        "State": "Pahang"
    },
    {
        "Postcode": "26060",
        "Location": "Lorong Permatang Gaharu Baru 1",
        "Post_Office": "Kuantan",
        "State": "Pahang"
    },
    {
        "Postcode": "26060",
        "Location": "Lorong Permatang Gharu (Kampung Kem)",
        "Post_Office": "Kuantan",
        "State": "Pahang"
    },
    {
        "Postcode": "26060",
        "Location": "Lorong Permatang Limau (Sungai Soi)",
        "Post_Office": "Kuantan",
        "State": "Pahang"
    },
    {
        "Postcode": "26060",
        "Location": "Lorong Permatang Peria (Sungai Soi)",
        "Post_Office": "Kuantan",
        "State": "Pahang"
    },
    {
        "Postcode": "26060",
        "Location": "Lorong Permatang Ubi (Sungai Soi)",
        "Post_Office": "Kuantan",
        "State": "Pahang"
    },
    {
        "Postcode": "26060",
        "Location": "Lorong Rusa (Kampung Kempadang)",
        "Post_Office": "Kuantan",
        "State": "Pahang"
    },
    {
        "Postcode": "26060",
        "Location": "Lorong Sri Inderapura 60",
        "Post_Office": "Kuantan",
        "State": "Pahang"
    },
    {
        "Postcode": "26060",
        "Location": "Lorong Sungai Soi Baru 6",
        "Post_Office": "Kuantan",
        "State": "Pahang"
    },
    {
        "Postcode": "26060",
        "Location": "Lorong Sungai Soi Jaya 10",
        "Post_Office": "Kuantan",
        "State": "Pahang"
    },
    {
        "Postcode": "26060",
        "Location": "Lorong Sungai Soi Jaya 2",
        "Post_Office": "Kuantan",
        "State": "Pahang"
    },
    {
        "Postcode": "26060",
        "Location": "Peramu Hilir",
        "Post_Office": "Kuantan",
        "State": "Pahang"
    },
    {
        "Postcode": "26060",
        "Location": "Peramu Maju",
        "Post_Office": "Kuantan",
        "State": "Pahang"
    },
    {
        "Postcode": "26060",
        "Location": "Perkampungan Kempadang Maju",
        "Post_Office": "Kuantan",
        "State": "Pahang"
    },
    {
        "Postcode": "26060",
        "Location": "Perkampungan Kempadang Makmur",
        "Post_Office": "Kuantan",
        "State": "Pahang"
    },
    {
        "Postcode": "26060",
        "Location": "Perkampungan Kempadang Utama 1",
        "Post_Office": "Kuantan",
        "State": "Pahang"
    },
    {
        "Postcode": "26060",
        "Location": "Perkampungan Orang Asli",
        "Post_Office": "Kuantan",
        "State": "Pahang"
    },
    {
        "Postcode": "26060",
        "Location": "Perkampungan Penor Aman",
        "Post_Office": "Kuantan",
        "State": "Pahang"
    },
    {
        "Postcode": "26060",
        "Location": "Perkampungan Sungai Deraka",
        "Post_Office": "Kuantan",
        "State": "Pahang"
    },
    {
        "Postcode": "26060",
        "Location": "Perkampungan Sungai Soi Jaya",
        "Post_Office": "Kuantan",
        "State": "Pahang"
    },
    {
        "Postcode": "26060",
        "Location": "Permatang Gaharu",
        "Post_Office": "Kuantan",
        "State": "Pahang"
    },
    {
        "Postcode": "26060",
        "Location": "Taman Ashikan Bayu",
        "Post_Office": "Kuantan",
        "State": "Pahang"
    },
    {
        "Postcode": "26060",
        "Location": "Taman Astaka Village",
        "Post_Office": "Kuantan",
        "State": "Pahang"
    },
    {
        "Postcode": "26060",
        "Location": "Taman Bandar Putri",
        "Post_Office": "Kuantan",
        "State": "Pahang"
    },
    {
        "Postcode": "26060",
        "Location": "Taman Berjaya Permai",
        "Post_Office": "Kuantan",
        "State": "Pahang"
    },
    {
        "Postcode": "26060",
        "Location": "Taman Desa Bistari",
        "Post_Office": "Kuantan",
        "State": "Pahang"
    },
    {
        "Postcode": "26060",
        "Location": "Taman Kempadang Jaya",
        "Post_Office": "Kuantan",
        "State": "Pahang"
    },
    {
        "Postcode": "26060",
        "Location": "Taman Padang Sungai Soi",
        "Post_Office": "Kuantan",
        "State": "Pahang"
    },
    {
        "Postcode": "26060",
        "Location": "Taman Penor Jaya",
        "Post_Office": "Kuantan",
        "State": "Pahang"
    },
    {
        "Postcode": "26060",
        "Location": "Taman Prima Bayu",
        "Post_Office": "Kuantan",
        "State": "Pahang"
    },
    {
        "Postcode": "26060",
        "Location": "Taman Prima Jaya",
        "Post_Office": "Kuantan",
        "State": "Pahang"
    },
    {
        "Postcode": "26060",
        "Location": "Taman Rrm Kempadang Perdana",
        "Post_Office": "Kuantan",
        "State": "Pahang"
    },
    {
        "Postcode": "26060",
        "Location": "Taman Rrm Peramu",
        "Post_Office": "Kuantan",
        "State": "Pahang"
    },
    {
        "Postcode": "26060",
        "Location": "Tanjung Lumpor",
        "Post_Office": "Kuantan",
        "State": "Pahang"
    },
    {
        "Postcode": "26060",
        "Location": "Yayasan Pahang",
        "Post_Office": "Kuantan",
        "State": "Pahang"
    },
    {
        "Postcode": "26060",
        "Location": "Lorong Kampung Sungai Deraka 4",
        "Post_Office": "Kuantan",
        "State": "Pahang"
    },
    {
        "Postcode": "26060",
        "Location": "Perkampungan Soi Baru",
        "Post_Office": "Kuantan",
        "State": "Pahang"
    },
    {
        "Postcode": "26060",
        "Location": "Lorong Cempaka 4/9",
        "Post_Office": "Kuantan",
        "State": "Pahang"
    },
    {
        "Postcode": "26060",
        "Location": "Perkampungan Cempaka",
        "Post_Office": "Kuantan",
        "State": "Pahang"
    },
    {
        "Postcode": "26060",
        "Location": "Lorong Sungai Soi Baru 21",
        "Post_Office": "Kuantan",
        "State": "Pahang"
    },
    {
        "Postcode": "26060",
        "Location": "Lorong Kempadang Jaya 1/2",
        "Post_Office": "Kuantan",
        "State": "Pahang"
    },
    {
        "Postcode": "26060",
        "Location": "Perumahan Kempadang Jaya",
        "Post_Office": "Kuantan",
        "State": "Pahang"
    },
    {
        "Postcode": "26060",
        "Location": "Bandar Kuantan Putri",
        "Post_Office": "Kuantan",
        "State": "Pahang"
    },
    {
        "Postcode": "26060",
        "Location": "Lorong Bkp 26",
        "Post_Office": "Kuantan",
        "State": "Pahang"
    },
    {
        "Postcode": "26060",
        "Location": "Perkampungan Kempadang Aman",
        "Post_Office": "Kuantan",
        "State": "Pahang"
    },
    {
        "Postcode": "26060",
        "Location": "Kampung Peramu",
        "Post_Office": "Kuantan",
        "State": "Pahang"
    },
    {
        "Postcode": "26060",
        "Location": "Jalan Pinggiran Putra 1",
        "Post_Office": "Kuantan",
        "State": "Pahang"
    },
    {
        "Postcode": "26060",
        "Location": "Jalan Pinggiran Putra 1/1",
        "Post_Office": "Kuantan",
        "State": "Pahang"
    },
    {
        "Postcode": "26060",
        "Location": "Jalan Pinggiran Putra 1/2",
        "Post_Office": "Kuantan",
        "State": "Pahang"
    },
    {
        "Postcode": "26060",
        "Location": "Lorong Pinggiran Putra 1/1",
        "Post_Office": "Kuantan",
        "State": "Pahang"
    },
    {
        "Postcode": "26060",
        "Location": "Lorong Pinggiran Putra 1/2",
        "Post_Office": "Kuantan",
        "State": "Pahang"
    },
    {
        "Postcode": "26060",
        "Location": "Lorong Pinggiran Putra 1/3",
        "Post_Office": "Kuantan",
        "State": "Pahang"
    },
    {
        "Postcode": "26060",
        "Location": "Lorong Pinggiran Putra 1/4",
        "Post_Office": "Kuantan",
        "State": "Pahang"
    },
    {
        "Postcode": "26060",
        "Location": "Lorong Pinggiran Putra 1/5",
        "Post_Office": "Kuantan",
        "State": "Pahang"
    },
    {
        "Postcode": "26060",
        "Location": "Lorong Pinggiran Putra 1/6",
        "Post_Office": "Kuantan",
        "State": "Pahang"
    },
    {
        "Postcode": "26060",
        "Location": "Lorong Pinggiran Putra 1/19",
        "Post_Office": "Kuantan",
        "State": "Pahang"
    },
    {
        "Postcode": "26060",
        "Location": "Lorong Pinggiran Putra 1/20",
        "Post_Office": "Kuantan",
        "State": "Pahang"
    },
    {
        "Postcode": "26060",
        "Location": "Lorong Pinggiran Putra 1/21",
        "Post_Office": "Kuantan",
        "State": "Pahang"
    },
    {
        "Postcode": "26060",
        "Location": "Lorong Pinggiran Putra 1/22",
        "Post_Office": "Kuantan",
        "State": "Pahang"
    },
    {
        "Postcode": "26060",
        "Location": "Lorong Pinggiran Putra 1/23",
        "Post_Office": "Kuantan",
        "State": "Pahang"
    },
    {
        "Postcode": "26060",
        "Location": "Lorong Pinggiran Putra 1/50",
        "Post_Office": "Kuantan",
        "State": "Pahang"
    },
    {
        "Postcode": "26060",
        "Location": "Lorong Pinggiran Putra 1/51",
        "Post_Office": "Kuantan",
        "State": "Pahang"
    },
    {
        "Postcode": "26060",
        "Location": "Lorong Pinggiran Putra 1/52",
        "Post_Office": "Kuantan",
        "State": "Pahang"
    },
    {
        "Postcode": "26060",
        "Location": "Lorong Pinggiran Putra 1/53",
        "Post_Office": "Kuantan",
        "State": "Pahang"
    },
    {
        "Postcode": "26060",
        "Location": "Lorong Pinggiran Putra 1/59",
        "Post_Office": "Kuantan",
        "State": "Pahang"
    },
    {
        "Postcode": "26060",
        "Location": "Lorong Pinggiran Putra 1/60",
        "Post_Office": "Kuantan",
        "State": "Pahang"
    },
    {
        "Postcode": "26060",
        "Location": "Lorong Pinggiran Putra 1/61",
        "Post_Office": "Kuantan",
        "State": "Pahang"
    },
    {
        "Postcode": "26060",
        "Location": "Lorong Pinggiran Putra 1/62",
        "Post_Office": "Kuantan",
        "State": "Pahang"
    },
    {
        "Postcode": "26060",
        "Location": "Lorong Pinggiran Putra 1/63",
        "Post_Office": "Kuantan",
        "State": "Pahang"
    },
    {
        "Postcode": "26060",
        "Location": "Lorong Pinggiran Putra 1/75",
        "Post_Office": "Kuantan",
        "State": "Pahang"
    },
    {
        "Postcode": "26060",
        "Location": "Lorong Pinggiran Putra 1/76",
        "Post_Office": "Kuantan",
        "State": "Pahang"
    },
    {
        "Postcode": "26060",
        "Location": "Lorong Pinggiran Putra 1/100",
        "Post_Office": "Kuantan",
        "State": "Pahang"
    },
    {
        "Postcode": "26060",
        "Location": "Lorong Pinggiran Putra 1/101",
        "Post_Office": "Kuantan",
        "State": "Pahang"
    },
    {
        "Postcode": "26060",
        "Location": "Lorong Pinggiran Putra 1/102",
        "Post_Office": "Kuantan",
        "State": "Pahang"
    },
    {
        "Postcode": "26060",
        "Location": "Lorong Pinggiran Putra 1/103",
        "Post_Office": "Kuantan",
        "State": "Pahang"
    },
    {
        "Postcode": "26060",
        "Location": "Lorong Pinggiran Putra 1/104",
        "Post_Office": "Kuantan",
        "State": "Pahang"
    },
    {
        "Postcode": "26060",
        "Location": "Lorong Pinggiran Putra 1/105",
        "Post_Office": "Kuantan",
        "State": "Pahang"
    },
    {
        "Postcode": "26060",
        "Location": "Lorong Pinggiran Putra 1/111",
        "Post_Office": "Kuantan",
        "State": "Pahang"
    },
    {
        "Postcode": "26060",
        "Location": "Lorong Pinggiran Putra 1/113",
        "Post_Office": "Kuantan",
        "State": "Pahang"
    },
    {
        "Postcode": "26060",
        "Location": "Lorong Pinggiran Putra 1/114",
        "Post_Office": "Kuantan",
        "State": "Pahang"
    },
    {
        "Postcode": "26060",
        "Location": "Lorong Pinggiran Putra 1/116",
        "Post_Office": "Kuantan",
        "State": "Pahang"
    },
    {
        "Postcode": "26060",
        "Location": "Lorong Pinggiran Putra 1/120",
        "Post_Office": "Kuantan",
        "State": "Pahang"
    },
    {
        "Postcode": "26060",
        "Location": "Lorong Pinggiran Putra 1/121",
        "Post_Office": "Kuantan",
        "State": "Pahang"
    },
    {
        "Postcode": "26060",
        "Location": "Lorong Pinggiran Putra 1/122",
        "Post_Office": "Kuantan",
        "State": "Pahang"
    },
    {
        "Postcode": "26060",
        "Location": "Lorong Pinggiran Putra 1/123",
        "Post_Office": "Kuantan",
        "State": "Pahang"
    },
    {
        "Postcode": "26060",
        "Location": "Lorong Pinggiran Putra 1/124",
        "Post_Office": "Kuantan",
        "State": "Pahang"
    },
    {
        "Postcode": "26060",
        "Location": "Lorong Pinggiran Putra 1/125",
        "Post_Office": "Kuantan",
        "State": "Pahang"
    },
    {
        "Postcode": "26060",
        "Location": "Lorong Pinggiran Putra 1/126",
        "Post_Office": "Kuantan",
        "State": "Pahang"
    },
    {
        "Postcode": "26060",
        "Location": "Lorong Pinggiran Putra 1/129",
        "Post_Office": "Kuantan",
        "State": "Pahang"
    },
    {
        "Postcode": "26060",
        "Location": "Jalan Pinggiran Putra 2",
        "Post_Office": "Kuantan",
        "State": "Pahang"
    },
    {
        "Postcode": "26060",
        "Location": "Jalan Pinggiran Putra 2/2",
        "Post_Office": "Kuantan",
        "State": "Pahang"
    },
    {
        "Postcode": "26060",
        "Location": "Lorong Pinggiran Putra 2/2",
        "Post_Office": "Kuantan",
        "State": "Pahang"
    },
    {
        "Postcode": "26060",
        "Location": "Lorong Pinggiran Putra 2/27",
        "Post_Office": "Kuantan",
        "State": "Pahang"
    },
    {
        "Postcode": "26060",
        "Location": "Lorong Pinggiran Putra 2/28",
        "Post_Office": "Kuantan",
        "State": "Pahang"
    },
    {
        "Postcode": "26060",
        "Location": "Lorong Pinggiran Putra 2/45",
        "Post_Office": "Kuantan",
        "State": "Pahang"
    },
    {
        "Postcode": "26060",
        "Location": "Lorong Pinggiran Putra 2/49",
        "Post_Office": "Kuantan",
        "State": "Pahang"
    },
    {
        "Postcode": "26060",
        "Location": "Lorong Pinggiran Putra 2/59",
        "Post_Office": "Kuantan",
        "State": "Pahang"
    },
    {
        "Postcode": "26060",
        "Location": "Lorong Pinggiran Putra 2/60",
        "Post_Office": "Kuantan",
        "State": "Pahang"
    },
    {
        "Postcode": "26060",
        "Location": "Lorong Pinggiran Putra 2/61",
        "Post_Office": "Kuantan",
        "State": "Pahang"
    },
    {
        "Postcode": "26060",
        "Location": "Lorong Pinggiran Putra 2/62",
        "Post_Office": "Kuantan",
        "State": "Pahang"
    },
    {
        "Postcode": "26060",
        "Location": "Lorong Pinggiran Putra 2/80",
        "Post_Office": "Kuantan",
        "State": "Pahang"
    },
    {
        "Postcode": "26060",
        "Location": "Lorong Pinggiran Putra 2/81",
        "Post_Office": "Kuantan",
        "State": "Pahang"
    },
    {
        "Postcode": "26060",
        "Location": "Lorong Pinggiran Putra 2/82",
        "Post_Office": "Kuantan",
        "State": "Pahang"
    },
    {
        "Postcode": "26060",
        "Location": "Lorong Pinggiran Putra 2/83",
        "Post_Office": "Kuantan",
        "State": "Pahang"
    },
    {
        "Postcode": "26060",
        "Location": "Lorong Pinggiran Putra 2/84",
        "Post_Office": "Kuantan",
        "State": "Pahang"
    },
    {
        "Postcode": "26060",
        "Location": "Lorong Pinggiran Putra 2/85",
        "Post_Office": "Kuantan",
        "State": "Pahang"
    },
    {
        "Postcode": "26060",
        "Location": "Lorong Pinggiran Putra 2/90",
        "Post_Office": "Kuantan",
        "State": "Pahang"
    },
    {
        "Postcode": "26060",
        "Location": "Lorong Pinggiran Putra 2/91",
        "Post_Office": "Kuantan",
        "State": "Pahang"
    },
    {
        "Postcode": "26060",
        "Location": "Lorong Pinggiran Putra 2/92",
        "Post_Office": "Kuantan",
        "State": "Pahang"
    },
    {
        "Postcode": "26060",
        "Location": "Jalan Pinggiran Putra 3",
        "Post_Office": "Kuantan",
        "State": "Pahang"
    },
    {
        "Postcode": "26060",
        "Location": "Jalan Pinggiran Putra 3/2",
        "Post_Office": "Kuantan",
        "State": "Pahang"
    },
    {
        "Postcode": "26060",
        "Location": "Jalan Pinggiran Putra 3/3",
        "Post_Office": "Kuantan",
        "State": "Pahang"
    },
    {
        "Postcode": "26060",
        "Location": "Jalan Pinggiran Putra 3/4",
        "Post_Office": "Kuantan",
        "State": "Pahang"
    },
    {
        "Postcode": "26060",
        "Location": "Jalan Pinggiran Putra 3/5",
        "Post_Office": "Kuantan",
        "State": "Pahang"
    },
    {
        "Postcode": "26060",
        "Location": "Jalan Pinggiran Putra 3/6",
        "Post_Office": "Kuantan",
        "State": "Pahang"
    },
    {
        "Postcode": "26060",
        "Location": "Jalan Pinggiran Putra 3/7",
        "Post_Office": "Kuantan",
        "State": "Pahang"
    },
    {
        "Postcode": "26060",
        "Location": "Lorong Pinggiran Putra 3/1",
        "Post_Office": "Kuantan",
        "State": "Pahang"
    },
    {
        "Postcode": "26060",
        "Location": "Lorong Pinggiran Putra 3/2",
        "Post_Office": "Kuantan",
        "State": "Pahang"
    },
    {
        "Postcode": "26060",
        "Location": "Lorong Pinggiran Putra 3/3",
        "Post_Office": "Kuantan",
        "State": "Pahang"
    },
    {
        "Postcode": "26060",
        "Location": "Lorong Pinggiran Putra 3/4",
        "Post_Office": "Kuantan",
        "State": "Pahang"
    },
    {
        "Postcode": "26060",
        "Location": "Lorong Pinggiran Putra 3/5",
        "Post_Office": "Kuantan",
        "State": "Pahang"
    },
    {
        "Postcode": "26060",
        "Location": "Lorong Pinggiran Putra 3/6",
        "Post_Office": "Kuantan",
        "State": "Pahang"
    },
    {
        "Postcode": "26060",
        "Location": "Lorong Pinggiran Putra 3/7",
        "Post_Office": "Kuantan",
        "State": "Pahang"
    },
    {
        "Postcode": "26060",
        "Location": "Lorong Pinggiran Putra 3/8",
        "Post_Office": "Kuantan",
        "State": "Pahang"
    },
    {
        "Postcode": "26060",
        "Location": "Lorong Pinggiran Putra 3/9",
        "Post_Office": "Kuantan",
        "State": "Pahang"
    },
    {
        "Postcode": "26060",
        "Location": "Lorong Pinggiran Putra 3/10",
        "Post_Office": "Kuantan",
        "State": "Pahang"
    },
    {
        "Postcode": "26060",
        "Location": "Lorong Pinggiran Putra 3/11",
        "Post_Office": "Kuantan",
        "State": "Pahang"
    },
    {
        "Postcode": "26060",
        "Location": "Lorong Pinggiran Putra 3/12",
        "Post_Office": "Kuantan",
        "State": "Pahang"
    },
    {
        "Postcode": "26060",
        "Location": "Lorong Pinggiran Putra 3/13",
        "Post_Office": "Kuantan",
        "State": "Pahang"
    },
    {
        "Postcode": "26060",
        "Location": "Lorong Pinggiran Putra 3/14",
        "Post_Office": "Kuantan",
        "State": "Pahang"
    },
    {
        "Postcode": "26060",
        "Location": "Lorong Pinggiran Putra 3/15",
        "Post_Office": "Kuantan",
        "State": "Pahang"
    },
    {
        "Postcode": "26060",
        "Location": "Lorong Pinggiran Putra 3/16",
        "Post_Office": "Kuantan",
        "State": "Pahang"
    },
    {
        "Postcode": "26060",
        "Location": "Lorong Pinggiran Putra 3/17",
        "Post_Office": "Kuantan",
        "State": "Pahang"
    },
    {
        "Postcode": "26060",
        "Location": "Lorong Pinggiran Putra 3/18",
        "Post_Office": "Kuantan",
        "State": "Pahang"
    },
    {
        "Postcode": "26060",
        "Location": "Lorong Pinggiran Putra 3/19",
        "Post_Office": "Kuantan",
        "State": "Pahang"
    },
    {
        "Postcode": "26060",
        "Location": "Lorong Pinggiran Putra 3/20",
        "Post_Office": "Kuantan",
        "State": "Pahang"
    },
    {
        "Postcode": "26060",
        "Location": "Lorong Pinggiran Putra 3/21",
        "Post_Office": "Kuantan",
        "State": "Pahang"
    },
    {
        "Postcode": "26060",
        "Location": "Lorong Pinggiran Putra 3/22",
        "Post_Office": "Kuantan",
        "State": "Pahang"
    },
    {
        "Postcode": "26060",
        "Location": "Lorong Pinggiran Putra 3/23",
        "Post_Office": "Kuantan",
        "State": "Pahang"
    },
    {
        "Postcode": "26060",
        "Location": "Lorong Pinggiran Putra 3/24",
        "Post_Office": "Kuantan",
        "State": "Pahang"
    },
    {
        "Postcode": "26060",
        "Location": "Lorong Pinggiran Putra 3/40",
        "Post_Office": "Kuantan",
        "State": "Pahang"
    },
    {
        "Postcode": "26060",
        "Location": "Lorong Pinggiran Putra 3/41",
        "Post_Office": "Kuantan",
        "State": "Pahang"
    },
    {
        "Postcode": "26060",
        "Location": "Lorong Pinggiran Putra 3/42",
        "Post_Office": "Kuantan",
        "State": "Pahang"
    },
    {
        "Postcode": "26060",
        "Location": "Lorong Pinggiran Putra 3/49",
        "Post_Office": "Kuantan",
        "State": "Pahang"
    },
    {
        "Postcode": "26060",
        "Location": "Lorong Pinggiran Putra 3/51",
        "Post_Office": "Kuantan",
        "State": "Pahang"
    },
    {
        "Postcode": "26060",
        "Location": "Lorong Pinggiran Putra 3/55",
        "Post_Office": "Kuantan",
        "State": "Pahang"
    },
    {
        "Postcode": "26060",
        "Location": "Lorong Pinggiran Putra 3/56",
        "Post_Office": "Kuantan",
        "State": "Pahang"
    },
    {
        "Postcode": "26060",
        "Location": "Lorong Pinggiran Putra 3/57",
        "Post_Office": "Kuantan",
        "State": "Pahang"
    },
    {
        "Postcode": "26060",
        "Location": "Lorong Pinggiran Putra 3/58",
        "Post_Office": "Kuantan",
        "State": "Pahang"
    },
    {
        "Postcode": "26060",
        "Location": "Lorong Pinggiran Putra 3/59",
        "Post_Office": "Kuantan",
        "State": "Pahang"
    },
    {
        "Postcode": "26060",
        "Location": "Lorong Pinggiran Putra 3/60",
        "Post_Office": "Kuantan",
        "State": "Pahang"
    },
    {
        "Postcode": "26060",
        "Location": "Lorong Pinggiran Putra 3/61",
        "Post_Office": "Kuantan",
        "State": "Pahang"
    },
    {
        "Postcode": "26060",
        "Location": "Lorong Pinggiran Putra 3/62",
        "Post_Office": "Kuantan",
        "State": "Pahang"
    },
    {
        "Postcode": "26060",
        "Location": "Lorong Pinggiran Putra 3/63",
        "Post_Office": "Kuantan",
        "State": "Pahang"
    },
    {
        "Postcode": "26060",
        "Location": "Lorong Pinggiran Putra 3/75",
        "Post_Office": "Kuantan",
        "State": "Pahang"
    },
    {
        "Postcode": "26060",
        "Location": "Lorong Pinggiran Putra 3/76",
        "Post_Office": "Kuantan",
        "State": "Pahang"
    },
    {
        "Postcode": "26060",
        "Location": "Lorong Pinggiran Putra 3/77",
        "Post_Office": "Kuantan",
        "State": "Pahang"
    },
    {
        "Postcode": "26060",
        "Location": "Lorong Pinggiran Putra 3/78",
        "Post_Office": "Kuantan",
        "State": "Pahang"
    },
    {
        "Postcode": "26060",
        "Location": "Lorong Pinggiran Putra 3/79",
        "Post_Office": "Kuantan",
        "State": "Pahang"
    },
    {
        "Postcode": "26060",
        "Location": "Lorong Pinggiran Putra 3/80",
        "Post_Office": "Kuantan",
        "State": "Pahang"
    },
    {
        "Postcode": "26060",
        "Location": "Lorong Pinggiran Putra 3/81",
        "Post_Office": "Kuantan",
        "State": "Pahang"
    },
    {
        "Postcode": "26060",
        "Location": "Lorong Pinggiran Putra 3/82",
        "Post_Office": "Kuantan",
        "State": "Pahang"
    },
    {
        "Postcode": "26060",
        "Location": "Lorong Pinggiran Putra 3/83",
        "Post_Office": "Kuantan",
        "State": "Pahang"
    },
    {
        "Postcode": "26060",
        "Location": "Lorong Pinggiran Putra 3/84",
        "Post_Office": "Kuantan",
        "State": "Pahang"
    },
    {
        "Postcode": "26060",
        "Location": "Lorong Pinggiran Putra 3/90",
        "Post_Office": "Kuantan",
        "State": "Pahang"
    },
    {
        "Postcode": "26060",
        "Location": "Lorong Pinggiran Putra 3/91",
        "Post_Office": "Kuantan",
        "State": "Pahang"
    },
    {
        "Postcode": "26060",
        "Location": "Lorong Pinggiran Putra 3/96",
        "Post_Office": "Kuantan",
        "State": "Pahang"
    },
    {
        "Postcode": "26060",
        "Location": "Lorong Pinggiran Putra 3/97",
        "Post_Office": "Kuantan",
        "State": "Pahang"
    },
    {
        "Postcode": "26060",
        "Location": "Lorong Pinggiran Putra 3/98",
        "Post_Office": "Kuantan",
        "State": "Pahang"
    },
    {
        "Postcode": "26060",
        "Location": "Lorong Pinggiran Putra 3/99",
        "Post_Office": "Kuantan",
        "State": "Pahang"
    },
    {
        "Postcode": "26060",
        "Location": "Lorong Pinggiran Putra 3/100",
        "Post_Office": "Kuantan",
        "State": "Pahang"
    },
    {
        "Postcode": "26060",
        "Location": "Lorong Pinggiran Putra 3/101",
        "Post_Office": "Kuantan",
        "State": "Pahang"
    },
    {
        "Postcode": "26060",
        "Location": "Lorong Pinggiran Putra 3/102",
        "Post_Office": "Kuantan",
        "State": "Pahang"
    },
    {
        "Postcode": "26060",
        "Location": "Lorong Pinggiran Putra 3/103",
        "Post_Office": "Kuantan",
        "State": "Pahang"
    },
    {
        "Postcode": "26060",
        "Location": "Lorong Pinggiran Putra 3/104",
        "Post_Office": "Kuantan",
        "State": "Pahang"
    },
    {
        "Postcode": "26060",
        "Location": "Lorong Pinggiran Putra 3/105",
        "Post_Office": "Kuantan",
        "State": "Pahang"
    },
    {
        "Postcode": "26060",
        "Location": "Lorong Pinggiran Putra 3/106",
        "Post_Office": "Kuantan",
        "State": "Pahang"
    },
    {
        "Postcode": "26060",
        "Location": "Lorong Pinggiran Putra 3/107",
        "Post_Office": "Kuantan",
        "State": "Pahang"
    },
    {
        "Postcode": "26060",
        "Location": "Lorong Pinggiran Putra 3/108",
        "Post_Office": "Kuantan",
        "State": "Pahang"
    },
    {
        "Postcode": "26060",
        "Location": "Lorong Pinggiran Putra 3/109",
        "Post_Office": "Kuantan",
        "State": "Pahang"
    },
    {
        "Postcode": "26060",
        "Location": "Lorong Pinggiran Putra 3/110",
        "Post_Office": "Kuantan",
        "State": "Pahang"
    },
    {
        "Postcode": "26060",
        "Location": "Lorong Pinggiran Putra 3/111",
        "Post_Office": "Kuantan",
        "State": "Pahang"
    },
    {
        "Postcode": "26060",
        "Location": "Lorong Pinggiran Putra 3/112",
        "Post_Office": "Kuantan",
        "State": "Pahang"
    },
    {
        "Postcode": "26060",
        "Location": "Lorong Pinggiran Putra 3/113",
        "Post_Office": "Kuantan",
        "State": "Pahang"
    },
    {
        "Postcode": "26060",
        "Location": "Lorong Pinggiran Putra 3/114",
        "Post_Office": "Kuantan",
        "State": "Pahang"
    },
    {
        "Postcode": "26060",
        "Location": "Lorong Pinggiran Putra 3/115",
        "Post_Office": "Kuantan",
        "State": "Pahang"
    },
    {
        "Postcode": "26060",
        "Location": "Lorong Pinggiran Putra 3/116",
        "Post_Office": "Kuantan",
        "State": "Pahang"
    },
    {
        "Postcode": "26060",
        "Location": "Lorong Pinggiran Putra 3/117",
        "Post_Office": "Kuantan",
        "State": "Pahang"
    },
    {
        "Postcode": "26060",
        "Location": "Lorong Pinggiran Putra 3/118",
        "Post_Office": "Kuantan",
        "State": "Pahang"
    },
    {
        "Postcode": "26060",
        "Location": "Lorong Pinggiran Putra 3/119",
        "Post_Office": "Kuantan",
        "State": "Pahang"
    },
    {
        "Postcode": "26060",
        "Location": "Lorong Pinggiran Putra 3/120",
        "Post_Office": "Kuantan",
        "State": "Pahang"
    },
    {
        "Postcode": "26060",
        "Location": "Lorong Pinggiran Putra 3/121",
        "Post_Office": "Kuantan",
        "State": "Pahang"
    },
    {
        "Postcode": "26060",
        "Location": "Lorong Pinggiran Putra 3/122",
        "Post_Office": "Kuantan",
        "State": "Pahang"
    },
    {
        "Postcode": "26060",
        "Location": "Lorong Pinggiran Putra 3/123",
        "Post_Office": "Kuantan",
        "State": "Pahang"
    },
    {
        "Postcode": "26060",
        "Location": "Jalan Pinggiran Putra 4",
        "Post_Office": "Kuantan",
        "State": "Pahang"
    },
    {
        "Postcode": "26060",
        "Location": "Jalan Pinggiran Putra 4/1",
        "Post_Office": "Kuantan",
        "State": "Pahang"
    },
    {
        "Postcode": "26060",
        "Location": "Jalan Pinggiran Putra 4/2",
        "Post_Office": "Kuantan",
        "State": "Pahang"
    },
    {
        "Postcode": "26060",
        "Location": "Jalan Pinggiran Putra 4/3",
        "Post_Office": "Kuantan",
        "State": "Pahang"
    },
    {
        "Postcode": "26060",
        "Location": "Jalan Pinggiran Putra 4/4",
        "Post_Office": "Kuantan",
        "State": "Pahang"
    },
    {
        "Postcode": "26060",
        "Location": "Jalan Pinggiran Putra 4/5",
        "Post_Office": "Kuantan",
        "State": "Pahang"
    },
    {
        "Postcode": "26060",
        "Location": "Jalan Pinggiran Putra 4/6",
        "Post_Office": "Kuantan",
        "State": "Pahang"
    },
    {
        "Postcode": "26060",
        "Location": "Lorong Pinggiran Putra 4/2",
        "Post_Office": "Kuantan",
        "State": "Pahang"
    },
    {
        "Postcode": "26060",
        "Location": "Lorong Pinggiran Putra 4/3",
        "Post_Office": "Kuantan",
        "State": "Pahang"
    },
    {
        "Postcode": "26060",
        "Location": "Lorong Pinggiran Putra 4/4",
        "Post_Office": "Kuantan",
        "State": "Pahang"
    },
    {
        "Postcode": "26060",
        "Location": "Lorong Pinggiran Putra 4/9",
        "Post_Office": "Kuantan",
        "State": "Pahang"
    },
    {
        "Postcode": "26060",
        "Location": "Lorong Pinggiran Putra 4/10",
        "Post_Office": "Kuantan",
        "State": "Pahang"
    },
    {
        "Postcode": "26060",
        "Location": "Lorong Pinggiran Putra 4/11",
        "Post_Office": "Kuantan",
        "State": "Pahang"
    },
    {
        "Postcode": "26060",
        "Location": "Lorong Pinggiran Putra 4/14",
        "Post_Office": "Kuantan",
        "State": "Pahang"
    },
    {
        "Postcode": "26060",
        "Location": "Lorong Pinggiran Putra 4/32",
        "Post_Office": "Kuantan",
        "State": "Pahang"
    },
    {
        "Postcode": "26060",
        "Location": "Lorong Pinggiran Putra 4/38",
        "Post_Office": "Kuantan",
        "State": "Pahang"
    },
    {
        "Postcode": "26060",
        "Location": "Lorong Pinggiran Putra 4/39",
        "Post_Office": "Kuantan",
        "State": "Pahang"
    },
    {
        "Postcode": "26060",
        "Location": "Lorong Pinggiran Putra 4/40",
        "Post_Office": "Kuantan",
        "State": "Pahang"
    },
    {
        "Postcode": "26060",
        "Location": "Lorong Pinggiran Putra 4/41",
        "Post_Office": "Kuantan",
        "State": "Pahang"
    },
    {
        "Postcode": "26060",
        "Location": "Lorong Pinggiran Putra 4/42",
        "Post_Office": "Kuantan",
        "State": "Pahang"
    },
    {
        "Postcode": "26060",
        "Location": "Lorong Pinggiran Putra 4/43",
        "Post_Office": "Kuantan",
        "State": "Pahang"
    },
    {
        "Postcode": "26060",
        "Location": "Lorong Pinggiran Putra 4/44",
        "Post_Office": "Kuantan",
        "State": "Pahang"
    },
    {
        "Postcode": "26060",
        "Location": "Lorong Pinggiran Putra 4/45",
        "Post_Office": "Kuantan",
        "State": "Pahang"
    },
    {
        "Postcode": "26060",
        "Location": "Lorong Pinggiran Putra 4/46",
        "Post_Office": "Kuantan",
        "State": "Pahang"
    },
    {
        "Postcode": "26060",
        "Location": "Lorong Pinggiran Putra 4/50",
        "Post_Office": "Kuantan",
        "State": "Pahang"
    },
    {
        "Postcode": "26060",
        "Location": "Lorong Pinggiran Putra 4/51",
        "Post_Office": "Kuantan",
        "State": "Pahang"
    },
    {
        "Postcode": "26060",
        "Location": "Lorong Pinggiran Putra 4/52",
        "Post_Office": "Kuantan",
        "State": "Pahang"
    },
    {
        "Postcode": "26060",
        "Location": "Lorong Pinggiran Putra 4/53",
        "Post_Office": "Kuantan",
        "State": "Pahang"
    },
    {
        "Postcode": "26060",
        "Location": "Lorong Pinggiran Putra 4/54",
        "Post_Office": "Kuantan",
        "State": "Pahang"
    },
    {
        "Postcode": "26060",
        "Location": "Lorong Pinggiran Putra 4/55",
        "Post_Office": "Kuantan",
        "State": "Pahang"
    },
    {
        "Postcode": "26060",
        "Location": "Lorong Pinggiran Putra 4/56",
        "Post_Office": "Kuantan",
        "State": "Pahang"
    },
    {
        "Postcode": "26060",
        "Location": "Lorong Pinggiran Putra 4/57",
        "Post_Office": "Kuantan",
        "State": "Pahang"
    },
    {
        "Postcode": "26060",
        "Location": "Lorong Pinggiran Putra 4/58",
        "Post_Office": "Kuantan",
        "State": "Pahang"
    },
    {
        "Postcode": "26060",
        "Location": "Lorong Pinggiran Putra 4/59",
        "Post_Office": "Kuantan",
        "State": "Pahang"
    },
    {
        "Postcode": "26060",
        "Location": "Lorong Pinggiran Putra 4/60",
        "Post_Office": "Kuantan",
        "State": "Pahang"
    },
    {
        "Postcode": "26060",
        "Location": "Lorong Pinggiran Putra 4/61",
        "Post_Office": "Kuantan",
        "State": "Pahang"
    },
    {
        "Postcode": "26060",
        "Location": "Lorong Pinggiran Putra 4/62",
        "Post_Office": "Kuantan",
        "State": "Pahang"
    },
    {
        "Postcode": "26060",
        "Location": "Lorong Pinggiran Putra 4/63",
        "Post_Office": "Kuantan",
        "State": "Pahang"
    },
    {
        "Postcode": "26060",
        "Location": "Lorong Pinggiran Putra 4/64",
        "Post_Office": "Kuantan",
        "State": "Pahang"
    },
    {
        "Postcode": "26060",
        "Location": "Lorong Pinggiran Putra 4/66",
        "Post_Office": "Kuantan",
        "State": "Pahang"
    },
    {
        "Postcode": "26060",
        "Location": "Lorong Pinggiran Putra 4/67",
        "Post_Office": "Kuantan",
        "State": "Pahang"
    },
    {
        "Postcode": "26060",
        "Location": "Lorong Pinggiran Putra 4/71",
        "Post_Office": "Kuantan",
        "State": "Pahang"
    },
    {
        "Postcode": "26060",
        "Location": "Lorong Pinggiran Putra 4/76",
        "Post_Office": "Kuantan",
        "State": "Pahang"
    },
    {
        "Postcode": "26060",
        "Location": "Lorong Pinggiran Putra 4/82",
        "Post_Office": "Kuantan",
        "State": "Pahang"
    },
    {
        "Postcode": "26060",
        "Location": "Lorong Pinggiran Putra 4/83",
        "Post_Office": "Kuantan",
        "State": "Pahang"
    },
    {
        "Postcode": "26060",
        "Location": "Lorong Pinggiran Putra 4/85",
        "Post_Office": "Kuantan",
        "State": "Pahang"
    },
    {
        "Postcode": "26060",
        "Location": "Lorong Pinggiran Putra 4/86",
        "Post_Office": "Kuantan",
        "State": "Pahang"
    },
    {
        "Postcode": "26060",
        "Location": "Lorong Pinggiran Putra 4/88",
        "Post_Office": "Kuantan",
        "State": "Pahang"
    },
    {
        "Postcode": "26060",
        "Location": "Lorong Pinggiran Putra 4/90",
        "Post_Office": "Kuantan",
        "State": "Pahang"
    },
    {
        "Postcode": "26060",
        "Location": "Lorong Pinggiran Putra 4/96",
        "Post_Office": "Kuantan",
        "State": "Pahang"
    },
    {
        "Postcode": "26060",
        "Location": "Lorong Pinggiran Putra 4/97",
        "Post_Office": "Kuantan",
        "State": "Pahang"
    },
    {
        "Postcode": "26060",
        "Location": "Lorong Pinggiran Putra 4/98",
        "Post_Office": "Kuantan",
        "State": "Pahang"
    },
    {
        "Postcode": "26060",
        "Location": "Lorong Pinggiran Putra 4/99",
        "Post_Office": "Kuantan",
        "State": "Pahang"
    },
    {
        "Postcode": "26060",
        "Location": "Lorong Pinggiran Putra 4/100",
        "Post_Office": "Kuantan",
        "State": "Pahang"
    },
    {
        "Postcode": "26060",
        "Location": "Lorong Pinggiran Putra 4/101",
        "Post_Office": "Kuantan",
        "State": "Pahang"
    },
    {
        "Postcode": "26060",
        "Location": "Lorong Pinggiran Putra 4/102",
        "Post_Office": "Kuantan",
        "State": "Pahang"
    },
    {
        "Postcode": "26060",
        "Location": "Lorong Pinggiran Putra 4/103",
        "Post_Office": "Kuantan",
        "State": "Pahang"
    },
    {
        "Postcode": "26060",
        "Location": "Lorong Pinggiran Putra 4/104",
        "Post_Office": "Kuantan",
        "State": "Pahang"
    },
    {
        "Postcode": "26060",
        "Location": "Lorong Pinggiran Putra 4/105",
        "Post_Office": "Kuantan",
        "State": "Pahang"
    },
    {
        "Postcode": "26060",
        "Location": "Lorong Pinggiran Putra 4/106",
        "Post_Office": "Kuantan",
        "State": "Pahang"
    },
    {
        "Postcode": "26060",
        "Location": "Lorong Pinggiran Putra 4/140",
        "Post_Office": "Kuantan",
        "State": "Pahang"
    },
    {
        "Postcode": "26060",
        "Location": "Lorong Pinggiran Putra 4/141",
        "Post_Office": "Kuantan",
        "State": "Pahang"
    },
    {
        "Postcode": "26060",
        "Location": "Lorong Pinggiran Putra 4/142",
        "Post_Office": "Kuantan",
        "State": "Pahang"
    },
    {
        "Postcode": "26060",
        "Location": "Lorong Pinggiran Putra 4/143",
        "Post_Office": "Kuantan",
        "State": "Pahang"
    },
    {
        "Postcode": "26060",
        "Location": "Lorong Pinggiran Putra 4/144",
        "Post_Office": "Kuantan",
        "State": "Pahang"
    },
    {
        "Postcode": "26060",
        "Location": "Lorong Pinggiran Putra 4/145",
        "Post_Office": "Kuantan",
        "State": "Pahang"
    },
    {
        "Postcode": "26060",
        "Location": "Lorong Pinggiran Putra 4/146",
        "Post_Office": "Kuantan",
        "State": "Pahang"
    },
    {
        "Postcode": "26060",
        "Location": "Lorong Pinggiran Putra 4/147",
        "Post_Office": "Kuantan",
        "State": "Pahang"
    },
    {
        "Postcode": "26060",
        "Location": "Lorong Pinggiran Putra 4/148",
        "Post_Office": "Kuantan",
        "State": "Pahang"
    },
    {
        "Postcode": "26060",
        "Location": "Lorong Pinggiran Putra 4/149",
        "Post_Office": "Kuantan",
        "State": "Pahang"
    },
    {
        "Postcode": "26060",
        "Location": "Lorong Pinggiran Putra 4/150",
        "Post_Office": "Kuantan",
        "State": "Pahang"
    },
    {
        "Postcode": "26060",
        "Location": "Perumahan Peramu Baru",
        "Post_Office": "Kuantan",
        "State": "Pahang"
    },
    {
        "Postcode": "26060",
        "Location": "Perumahan Sungai Soi",
        "Post_Office": "Kuantan",
        "State": "Pahang"
    },
    {
        "Postcode": "26060",
        "Location": "Perumahan Sungai Soi Baru",
        "Post_Office": "Kuantan",
        "State": "Pahang"
    },
    {
        "Postcode": "26060",
        "Location": "Perumahan Cempaka 2",
        "Post_Office": "Kuantan",
        "State": "Pahang"
    },
    {
        "Postcode": "26060",
        "Location": "Perumahan Cempaka 6",
        "Post_Office": "Kuantan",
        "State": "Pahang"
    },
    {
        "Postcode": "26060",
        "Location": "Perumahan Kempadang Utama",
        "Post_Office": "Kuantan",
        "State": "Pahang"
    },
    {
        "Postcode": "26060",
        "Location": "Perumahan Sungai Soi Jaya",
        "Post_Office": "Kuantan",
        "State": "Pahang"
    },
    {
        "Postcode": "26060",
        "Location": "Perumahan Bandar Putra",
        "Post_Office": "Kuantan",
        "State": "Pahang"
    },
    {
        "Postcode": "26060",
        "Location": "Perumahan Kempadang Damai",
        "Post_Office": "Kuantan",
        "State": "Pahang"
    },
    {
        "Postcode": "26060",
        "Location": "Perumahan Kempadang Jaya 2",
        "Post_Office": "Kuantan",
        "State": "Pahang"
    },
    {
        "Postcode": "26060",
        "Location": "Perumahan Kempadang Makmur 1",
        "Post_Office": "Kuantan",
        "State": "Pahang"
    },
    {
        "Postcode": "26060",
        "Location": "Perumahan Makmur Penor Jaya",
        "Post_Office": "Kuantan",
        "State": "Pahang"
    },
    {
        "Postcode": "26060",
        "Location": "Perumahan Sungai Soi Damai 1",
        "Post_Office": "Kuantan",
        "State": "Pahang"
    },
    {
        "Postcode": "26060",
        "Location": "Lorong Peramu Aman 30",
        "Post_Office": "Kuantan",
        "State": "Pahang"
    },
    {
        "Postcode": "26060",
        "Location": "Perumahan Indera Sempurna 2",
        "Post_Office": "Kuantan",
        "State": "Pahang"
    },
    {
        "Postcode": "26060",
        "Location": "Lorong Kempadang Perdana 23",
        "Post_Office": "Kuantan",
        "State": "Pahang"
    },
    {
        "Postcode": "26060",
        "Location": "Lorong Sungai Soi Baru 17",
        "Post_Office": "Kuantan",
        "State": "Pahang"
    },
    {
        "Postcode": "26060",
        "Location": "Perkampungan Kempadang Perdana",
        "Post_Office": "Kuantan",
        "State": "Pahang"
    },
    {
        "Postcode": "26060",
        "Location": "Perkampungan Sungai Soi Baru",
        "Post_Office": "Kuantan",
        "State": "Pahang"
    },
    {
        "Postcode": "26060",
        "Location": "Lorong Sungai Soi Jaya 18",
        "Post_Office": "Kuantan",
        "State": "Pahang"
    },
    {
        "Postcode": "26060",
        "Location": "Bandar Putra",
        "Post_Office": "Kuantan",
        "State": "Pahang"
    },
    {
        "Postcode": "26060",
        "Location": "Perumahan Berjaya Permai",
        "Post_Office": "Kuantan",
        "State": "Pahang"
    },
    {
        "Postcode": "26060",
        "Location": "Perumahan Kempadang Makmur",
        "Post_Office": "Kuantan",
        "State": "Pahang"
    },
    {
        "Postcode": "26060",
        "Location": "Perkampungan Peramu Maju",
        "Post_Office": "Kuantan",
        "State": "Pahang"
    },
    {
        "Postcode": "26060",
        "Location": "Perumahan Sepat Aman",
        "Post_Office": "Kuantan",
        "State": "Pahang"
    },
    {
        "Postcode": "26060",
        "Location": "Lorong Kempadang Sejahtera 2",
        "Post_Office": "Kuantan",
        "State": "Pahang"
    },
    {
        "Postcode": "26060",
        "Location": "Perkampungan Peramu Baru",
        "Post_Office": "Kuantan",
        "State": "Pahang"
    },
    {
        "Postcode": "26060",
        "Location": "Perumahan Anak Air",
        "Post_Office": "Kuantan",
        "State": "Pahang"
    },
    {
        "Postcode": "26060",
        "Location": "Jalan Tanjung Lumpur 7",
        "Post_Office": "Kuantan",
        "State": "Pahang"
    },
    {
        "Postcode": "26060",
        "Location": "Perumahan Anak Air Jaya",
        "Post_Office": "Kuantan",
        "State": "Pahang"
    },
    {
        "Postcode": "26060",
        "Location": "Perumahan Sungai Deraka",
        "Post_Office": "Kuantan",
        "State": "Pahang"
    },
    {
        "Postcode": "26060",
        "Location": "Perumahan Cempaka Aman",
        "Post_Office": "Kuantan",
        "State": "Pahang"
    },
    {
        "Postcode": "26060",
        "Location": "Perumahan Kempadang Baru",
        "Post_Office": "Kuantan",
        "State": "Pahang"
    },
    {
        "Postcode": "26060",
        "Location": "Perumahan Kempadang Aman",
        "Post_Office": "Kuantan",
        "State": "Pahang"
    },
    {
        "Postcode": "26060",
        "Location": "Perumahan Kempadang Perdana",
        "Post_Office": "Kuantan",
        "State": "Pahang"
    },
    {
        "Postcode": "26060",
        "Location": "Perumahan Sungai Soi Damai",
        "Post_Office": "Kuantan",
        "State": "Pahang"
    },
    {
        "Postcode": "26060",
        "Location": "Perumahan Kempadang 4",
        "Post_Office": "Kuantan",
        "State": "Pahang"
    },
    {
        "Postcode": "26060",
        "Location": "Perumahan Kempadang Makmur 3",
        "Post_Office": "Kuantan",
        "State": "Pahang"
    },
    {
        "Postcode": "26060",
        "Location": "Perumahan Sungai Soi Jaya 3",
        "Post_Office": "Kuantan",
        "State": "Pahang"
    },
    {
        "Postcode": "26060",
        "Location": "Residensi Pr1Ma@Kempadang Murni",
        "Post_Office": "Kuantan",
        "State": "Pahang"
    },
    {
        "Postcode": "26060",
        "Location": "Lorong Alor Gajah 1",
        "Post_Office": "Kuantan",
        "State": "Pahang"
    },
    {
        "Postcode": "26060",
        "Location": "Lorong Alor Gajah 2",
        "Post_Office": "Kuantan",
        "State": "Pahang"
    },
    {
        "Postcode": "26060",
        "Location": "Lorong Cempaka 1",
        "Post_Office": "Kuantan",
        "State": "Pahang"
    },
    {
        "Postcode": "26060",
        "Location": "Lorong Cempaka 2",
        "Post_Office": "Kuantan",
        "State": "Pahang"
    },
    {
        "Postcode": "26060",
        "Location": "Lorong Cempaka 3",
        "Post_Office": "Kuantan",
        "State": "Pahang"
    },
    {
        "Postcode": "26060",
        "Location": "Lorong Cempaka 4",
        "Post_Office": "Kuantan",
        "State": "Pahang"
    },
    {
        "Postcode": "26060",
        "Location": "Lorong Cempaka 5",
        "Post_Office": "Kuantan",
        "State": "Pahang"
    },
    {
        "Postcode": "26060",
        "Location": "Lorong Cempaka 6",
        "Post_Office": "Kuantan",
        "State": "Pahang"
    },
    {
        "Postcode": "26060",
        "Location": "Lorong Kempadang Aman 83",
        "Post_Office": "Kuantan",
        "State": "Pahang"
    },
    {
        "Postcode": "26060",
        "Location": "Lorong Kempadang Aman 84",
        "Post_Office": "Kuantan",
        "State": "Pahang"
    },
    {
        "Postcode": "26060",
        "Location": "Lorong Kempadang Aman 85",
        "Post_Office": "Kuantan",
        "State": "Pahang"
    },
    {
        "Postcode": "26060",
        "Location": "Lorong Peramu Maju 1",
        "Post_Office": "Kuantan",
        "State": "Pahang"
    },
    {
        "Postcode": "26060",
        "Location": "Lorong Peramu Maju 10",
        "Post_Office": "Kuantan",
        "State": "Pahang"
    },
    {
        "Postcode": "26060",
        "Location": "Lorong Peramu Maju 11",
        "Post_Office": "Kuantan",
        "State": "Pahang"
    },
    {
        "Postcode": "26060",
        "Location": "Lorong Peramu Maju 12",
        "Post_Office": "Kuantan",
        "State": "Pahang"
    },
    {
        "Postcode": "26060",
        "Location": "Lorong Peramu Maju 2",
        "Post_Office": "Kuantan",
        "State": "Pahang"
    },
    {
        "Postcode": "26060",
        "Location": "Lorong Peramu Maju 3",
        "Post_Office": "Kuantan",
        "State": "Pahang"
    },
    {
        "Postcode": "26060",
        "Location": "Lorong Peramu Maju 4",
        "Post_Office": "Kuantan",
        "State": "Pahang"
    },
    {
        "Postcode": "26060",
        "Location": "Lorong Peramu Maju 5",
        "Post_Office": "Kuantan",
        "State": "Pahang"
    },
    {
        "Postcode": "26060",
        "Location": "Lorong Peramu Maju 6",
        "Post_Office": "Kuantan",
        "State": "Pahang"
    },
    {
        "Postcode": "26060",
        "Location": "Lorong Peramu Maju 7",
        "Post_Office": "Kuantan",
        "State": "Pahang"
    },
    {
        "Postcode": "26060",
        "Location": "Lorong Peramu Maju 8",
        "Post_Office": "Kuantan",
        "State": "Pahang"
    },
    {
        "Postcode": "26060",
        "Location": "Lorong Peramu Maju 9",
        "Post_Office": "Kuantan",
        "State": "Pahang"
    }
]
