[
    {
        "Postcode": "26070",
        "Location": "Taman Pandan Damai",
        "Post_Office": "Kuantan",
        "State": "Pahang"
    },
    {
        "Postcode": "26070",
        "Location": "Perumahan Pandan Makmur",
        "Post_Office": "Kuantan ",
        "State": "Pahang"
    },
    {
        "Postcode": "26070",
        "Location": "Jaya Gading",
        "Post_Office": "Kuantan",
        "State": "Pahang"
    },
    {
        "Postcode": "26070",
        "Location": "Kampung Batu 11",
        "Post_Office": "Kuantan",
        "State": "Pahang"
    },
    {
        "Postcode": "26070",
        "Location": "Kampung Cina (Kuantan)",
        "Post_Office": "Kuantan",
        "State": "Pahang"
    },
    {
        "Postcode": "26070",
        "Location": "Kampung Jaya Gading",
        "Post_Office": "Kuantan",
        "State": "Pahang"
    },
    {
        "Postcode": "26070",
        "Location": "Kampung Mahkota",
        "Post_Office": "Kuantan",
        "State": "Pahang"
    },
    {
        "Postcode": "26070",
        "Location": "Kampung Pandan Dua",
        "Post_Office": "Kuantan",
        "State": "Pahang"
    },
    {
        "Postcode": "26070",
        "Location": "Kampung Pandan Satu",
        "Post_Office": "Kuantan",
        "State": "Pahang"
    },
    {
        "Postcode": "26070",
        "Location": "Kampung Seri Damai",
        "Post_Office": "Kuantan",
        "State": "Pahang"
    },
    {
        "Postcode": "26070",
        "Location": "Kampung Sri Damai",
        "Post_Office": "Kuantan",
        "State": "Pahang"
    },
    {
        "Postcode": "26070",
        "Location": "Lorong Pandan Perdana 1",
        "Post_Office": "Kuantan",
        "State": "Pahang"
    },
    {
        "Postcode": "26070",
        "Location": "Lorong Pandan Perdana 4",
        "Post_Office": "Kuantan",
        "State": "Pahang"
    },
    {
        "Postcode": "26070",
        "Location": "Lorong Seri Mahkota Aman 32",
        "Post_Office": "Kuantan",
        "State": "Pahang"
    },
    {
        "Postcode": "26070",
        "Location": "Lorong Seri Mahkota Permai",
        "Post_Office": "Kuantan",
        "State": "Pahang"
    },
    {
        "Postcode": "26070",
        "Location": "Lorong Seri Mahkota Ria 1",
        "Post_Office": "Kuantan",
        "State": "Pahang"
    },
    {
        "Postcode": "26070",
        "Location": "Perkampungan Pandan Indah",
        "Post_Office": "Kuantan",
        "State": "Pahang"
    },
    {
        "Postcode": "26070",
        "Location": "Perkampungan Pandan Jaya",
        "Post_Office": "Kuantan",
        "State": "Pahang"
    },
    {
        "Postcode": "26070",
        "Location": "Perkampungan Pandan Perdana",
        "Post_Office": "Kuantan",
        "State": "Pahang"
    },
    {
        "Postcode": "26070",
        "Location": "Perkampungan Seri Mahkota Aman",
        "Post_Office": "Kuantan",
        "State": "Pahang"
    },
    {
        "Postcode": "26070",
        "Location": "Perkampungan Seri Mahkota Permai",
        "Post_Office": "Kuantan",
        "State": "Pahang"
    },
    {
        "Postcode": "26070",
        "Location": "Perumahan Pandan Aman",
        "Post_Office": "Kuantan",
        "State": "Pahang"
    },
    {
        "Postcode": "26070",
        "Location": "Taman Mahkota Aman",
        "Post_Office": "Kuantan",
        "State": "Pahang"
    },
    {
        "Postcode": "26070",
        "Location": "Taman Mahkota Jaya",
        "Post_Office": "Kuantan",
        "State": "Pahang"
    },
    {
        "Postcode": "26070",
        "Location": "Taman Mahkota Makmur",
        "Post_Office": "Kuantan",
        "State": "Pahang"
    },
    {
        "Postcode": "26070",
        "Location": "Taman Mahkota Permai",
        "Post_Office": "Kuantan",
        "State": "Pahang"
    },
    {
        "Postcode": "26070",
        "Location": "Taman Pandan Damai 1",
        "Post_Office": "Kuantan",
        "State": "Pahang"
    },
    {
        "Postcode": "26070",
        "Location": "Taman Pandan Perdana 2",
        "Post_Office": "Kuantan",
        "State": "Pahang"
    },
    {
        "Postcode": "26070",
        "Location": "Taman Pandan Sejahtera 1",
        "Post_Office": "Kuantan",
        "State": "Pahang"
    },
    {
        "Postcode": "26070",
        "Location": "Taman Sri Gading",
        "Post_Office": "Kuantan",
        "State": "Pahang"
    },
    {
        "Postcode": "26070",
        "Location": "Taman Sri Ku",
        "Post_Office": "Kuantan",
        "State": "Pahang"
    },
    {
        "Postcode": "26070",
        "Location": "Taman Sri Mahkota",
        "Post_Office": "Kuantan",
        "State": "Pahang"
    },
    {
        "Postcode": "26070",
        "Location": "Telok Baru",
        "Post_Office": "Kuantan",
        "State": "Pahang"
    },
    {
        "Postcode": "26070",
        "Location": "Perumahan Seri Damai Baru",
        "Post_Office": "Kuantan",
        "State": "Pahang"
    },
    {
        "Postcode": "26070",
        "Location": "Lorong Pandan Perdana 6/3",
        "Post_Office": "Kuantan",
        "State": "Pahang"
    },
    {
        "Postcode": "26070",
        "Location": "Kampung Pandan Perdana 1",
        "Post_Office": "Kuantan",
        "State": "Pahang"
    },
    {
        "Postcode": "26070",
        "Location": "Lorong Pandan Perdana 1/10",
        "Post_Office": "Kuantan",
        "State": "Pahang"
    },
    {
        "Postcode": "26070",
        "Location": "Lorong Pandan Perdana 1/23",
        "Post_Office": "Kuantan",
        "State": "Pahang"
    },
    {
        "Postcode": "26070",
        "Location": "Lorong Melor",
        "Post_Office": "Kuantan",
        "State": "Pahang"
    },
    {
        "Postcode": "26070",
        "Location": "Perumahan Pandan Perdana",
        "Post_Office": "Kuantan",
        "State": "Pahang"
    },
    {
        "Postcode": "26070",
        "Location": "Taman Aneka Jaya",
        "Post_Office": "Kuantan",
        "State": "Pahang"
    },
    {
        "Postcode": "26070",
        "Location": "Taman Perdana",
        "Post_Office": "Kuantan",
        "State": "Pahang"
    },
    {
        "Postcode": "26070",
        "Location": "Perumahan Jaya Gading 2",
        "Post_Office": "Kuantan",
        "State": "Pahang"
    },
    {
        "Postcode": "26070",
        "Location": "Perumahan Makmur Mahkota Jaya",
        "Post_Office": "Kuantan",
        "State": "Pahang"
    },
    {
        "Postcode": "26070",
        "Location": "Perumahan Pandan Sejahtera",
        "Post_Office": "Kuantan",
        "State": "Pahang"
    },
    {
        "Postcode": "26070",
        "Location": "Perumahan Seri Mahkota Jaya 1",
        "Post_Office": "Kuantan",
        "State": "Pahang"
    },
    {
        "Postcode": "26070",
        "Location": "Perumahan Kampung Pandan Sejahtera",
        "Post_Office": "Kuantan",
        "State": "Pahang"
    },
    {
        "Postcode": "26070",
        "Location": "Lorong Seri Damai Perdana 57",
        "Post_Office": "Kuantan",
        "State": "Pahang"
    },
    {
        "Postcode": "26070",
        "Location": "Lorong Pandan Sejahtera 2/1",
        "Post_Office": "Kuantan",
        "State": "Pahang"
    },
    {
        "Postcode": "26070",
        "Location": "Lorong Pandan Sejahtera 2/4",
        "Post_Office": "Kuantan",
        "State": "Pahang"
    },
    {
        "Postcode": "26070",
        "Location": "Lorong Pandan Aman 16",
        "Post_Office": "Kuantan",
        "State": "Pahang"
    },
    {
        "Postcode": "26070",
        "Location": "Lorong Jaya Gading 30",
        "Post_Office": "Kuantan",
        "State": "Pahang"
    },
    {
        "Postcode": "26070",
        "Location": "Perkampungan Pandan Sejahtera",
        "Post_Office": "Kuantan",
        "State": "Pahang"
    },
    {
        "Postcode": "26070",
        "Location": "Perumahan Seri Damai Indah",
        "Post_Office": "Kuantan",
        "State": "Pahang"
    },
    {
        "Postcode": "26070",
        "Location": "Perumahan Pandan Aman 1",
        "Post_Office": "Kuantan",
        "State": "Pahang"
    },
    {
        "Postcode": "26070",
        "Location": "Perumahan Pandan Sejahtera 2",
        "Post_Office": "Kuantan",
        "State": "Pahang"
    },
    {
        "Postcode": "26070",
        "Location": "Lorong Jaya Gading 28",
        "Post_Office": "Kuantan",
        "State": "Pahang"
    },
    {
        "Postcode": "26070",
        "Location": "Perumahan Pandan Sejahtera 1",
        "Post_Office": "Kuantan",
        "State": "Pahang"
    },
    {
        "Postcode": "26070",
        "Location": "Perumahan Seri Damai Aman",
        "Post_Office": "Kuantan",
        "State": "Pahang"
    },
    {
        "Postcode": "26070",
        "Location": "Perumahan Seri Mahkota Maju",
        "Post_Office": "Kuantan",
        "State": "Pahang"
    },
    {
        "Postcode": "26070",
        "Location": "Perumahan Pandan Perdana 2",
        "Post_Office": "Kuantan",
        "State": "Pahang"
    },
    {
        "Postcode": "26070",
        "Location": "Lorong Jaya Gading 32",
        "Post_Office": "Kuantan",
        "State": "Pahang"
    }
]
