[
    {
        "Postcode": "26080",
        "Location": "Balok",
        "Post_Office": "Kuantan",
        "State": "Pahang"
    },
    {
        "Postcode": "26080",
        "Location": "Balok Perdana",
        "Post_Office": "Kuantan",
        "State": "Pahang"
    },
    {
        "Postcode": "26080",
        "Location": "Bandar Baru Gebeng",
        "Post_Office": "Kuantan",
        "State": "Pahang"
    },
    {
        "Postcode": "26080",
        "Location": "Jalan Aspa",
        "Post_Office": "Kuantan",
        "State": "Pahang"
    },
    {
        "Postcode": "26080",
        "Location": "Jalan Balok Baru",
        "Post_Office": "Kuantan",
        "State": "Pahang"
    },
    {
        "Postcode": "26080",
        "Location": "Jalan Gebeng 1/24",
        "Post_Office": "Kuantan",
        "State": "Pahang"
    },
    {
        "Postcode": "26080",
        "Location": "Jalan Kuantan By Pass",
        "Post_Office": "Kuantan",
        "State": "Pahang"
    },
    {
        "Postcode": "26080",
        "Location": "Kampung Baging",
        "Post_Office": "Kuantan",
        "State": "Pahang"
    },
    {
        "Postcode": "26080",
        "Location": "Kampung Baharu Sungai Ular",
        "Post_Office": "Kuantan",
        "State": "Pahang"
    },
    {
        "Postcode": "26080",
        "Location": "Kampung Baru Cherating",
        "Post_Office": "Kuantan",
        "State": "Pahang"
    },
    {
        "Postcode": "26080",
        "Location": "Kampung Batu 20",
        "Post_Office": "Kuantan",
        "State": "Pahang"
    },
    {
        "Postcode": "26080",
        "Location": "Kampung Batu Palas",
        "Post_Office": "Kuantan",
        "State": "Pahang"
    },
    {
        "Postcode": "26080",
        "Location": "Kampung Chengal Lempong",
        "Post_Office": "Kuantan",
        "State": "Pahang"
    },
    {
        "Postcode": "26080",
        "Location": "Kampung Cherating",
        "Post_Office": "Kuantan",
        "State": "Pahang"
    },
    {
        "Postcode": "26080",
        "Location": "Kampung Darat Sungai Ular",
        "Post_Office": "Kuantan",
        "State": "Pahang"
    },
    {
        "Postcode": "26080",
        "Location": "Kampung Kubang Ikan",
        "Post_Office": "Kuantan",
        "State": "Pahang"
    },
    {
        "Postcode": "26080",
        "Location": "Kampung Melayu (Jabor)",
        "Post_Office": "Kuantan",
        "State": "Pahang"
    },
    {
        "Postcode": "26080",
        "Location": "Kampung Seberang Sungai Ular",
        "Post_Office": "Kuantan",
        "State": "Pahang"
    },
    {
        "Postcode": "26080",
        "Location": "Kampung Sungai Baging",
        "Post_Office": "Kuantan",
        "State": "Pahang"
    },
    {
        "Postcode": "26080",
        "Location": "Kampung Sungai Ular",
        "Post_Office": "Kuantan",
        "State": "Pahang"
    },
    {
        "Postcode": "26080",
        "Location": "Lorong Balok Baru",
        "Post_Office": "Kuantan",
        "State": "Pahang"
    },
    {
        "Postcode": "26080",
        "Location": "Lorong Balok Makmur",
        "Post_Office": "Kuantan",
        "State": "Pahang"
    },
    {
        "Postcode": "26080",
        "Location": "Lorong Balok Perdana 3/4",
        "Post_Office": "Kuantan",
        "State": "Pahang"
    },
    {
        "Postcode": "26080",
        "Location": "Lorong Chendur Baru 4",
        "Post_Office": "Kuantan",
        "State": "Pahang"
    },
    {
        "Postcode": "26080",
        "Location": "Lorong Chendur Makmur",
        "Post_Office": "Kuantan",
        "State": "Pahang"
    },
    {
        "Postcode": "26080",
        "Location": "Pelabuhan Kuantan",
        "Post_Office": "Kuantan",
        "State": "Pahang"
    },
    {
        "Postcode": "26080",
        "Location": "Perkampungan Balok Makmur",
        "Post_Office": "Kuantan",
        "State": "Pahang"
    },
    {
        "Postcode": "26080",
        "Location": "Perkampungan Balok Samudera",
        "Post_Office": "Kuantan",
        "State": "Pahang"
    },
    {
        "Postcode": "26080",
        "Location": "Perkampungan Chendor Aman",
        "Post_Office": "Kuantan",
        "State": "Pahang"
    },
    {
        "Postcode": "26080",
        "Location": "Perkampungan Seberang Balok",
        "Post_Office": "Kuantan",
        "State": "Pahang"
    },
    {
        "Postcode": "26080",
        "Location": "Perkampungan Sungai Ular Damai",
        "Post_Office": "Kuantan",
        "State": "Pahang"
    },
    {
        "Postcode": "26080",
        "Location": "Perkampungan Sungai Ular Jaya",
        "Post_Office": "Kuantan",
        "State": "Pahang"
    },
    {
        "Postcode": "26080",
        "Location": "Perkampungan Sungai Ular Perdana",
        "Post_Office": "Kuantan",
        "State": "Pahang"
    },
    {
        "Postcode": "26080",
        "Location": "Sungai Ular",
        "Post_Office": "Kuantan",
        "State": "Pahang"
    },
    {
        "Postcode": "26080",
        "Location": "Taman Balok Aman",
        "Post_Office": "Kuantan",
        "State": "Pahang"
    },
    {
        "Postcode": "26080",
        "Location": "Taman Balok Baru",
        "Post_Office": "Kuantan",
        "State": "Pahang"
    },
    {
        "Postcode": "26080",
        "Location": "Taman Balok Makmur",
        "Post_Office": "Kuantan",
        "State": "Pahang"
    },
    {
        "Postcode": "26080",
        "Location": "Taman Balok Ria",
        "Post_Office": "Kuantan",
        "State": "Pahang"
    },
    {
        "Postcode": "26080",
        "Location": "Taman Chendor Baru",
        "Post_Office": "Kuantan",
        "State": "Pahang"
    },
    {
        "Postcode": "26080",
        "Location": "Taman Desa Aspa",
        "Post_Office": "Kuantan",
        "State": "Pahang"
    },
    {
        "Postcode": "26080",
        "Location": "Taman Samudera",
        "Post_Office": "Kuantan",
        "State": "Pahang"
    },
    {
        "Postcode": "26080",
        "Location": "Cherating",
        "Post_Office": "Kuantan",
        "State": "Pahang"
    },
    {
        "Postcode": "26080",
        "Location": "Perumahan Sungai Ular Jaya",
        "Post_Office": "Kuantan",
        "State": "Pahang"
    },
    {
        "Postcode": "26080",
        "Location": "Lorong Seberang Balok 3/2",
        "Post_Office": "Kuantan",
        "State": "Pahang"
    },
    {
        "Postcode": "26080",
        "Location": "Taman Seberang Balok",
        "Post_Office": "Kuantan",
        "State": "Pahang"
    },
    {
        "Postcode": "26080",
        "Location": "Jalan Kuantan - Kemaman",
        "Post_Office": "Kuantan",
        "State": "Pahang"
    },
    {
        "Postcode": "26080",
        "Location": "Kampung Selamat",
        "Post_Office": "Kuantan",
        "State": "Pahang"
    },
    {
        "Postcode": "26080",
        "Location": "Kawasan Perindustrian Gebeng",
        "Post_Office": "Kuantan",
        "State": "Pahang"
    },
    {
        "Postcode": "26080",
        "Location": "Perumahan Sungai Ular Damai",
        "Post_Office": "Kuantan",
        "State": "Pahang"
    },
    {
        "Postcode": "26080",
        "Location": "Lorong Balok Perdana 4/1",
        "Post_Office": "Kuantan",
        "State": "Pahang"
    },
    {
        "Postcode": "26080",
        "Location": "Perkampungan Balok Perdana 4",
        "Post_Office": "Kuantan",
        "State": "Pahang"
    },
    {
        "Postcode": "26080",
        "Location": "Perumahan Sungai Baging 1",
        "Post_Office": "Kuantan",
        "State": "Pahang"
    },
    {
        "Postcode": "26080",
        "Location": "Kawasan Industri Malaysia-China Kuantan (Mcip)",
        "Post_Office": "Kuantan",
        "State": "Pahang"
    }
]
