[
    {
        "Postcode": "26090",
        "Location": "Kampung Baru Ah Tong",
        "Post_Office": "Bukit Goh",
        "State": "Pahang"
    },
    {
        "Postcode": "26090",
        "Location": "Kampung Bukit Danau",
        "Post_Office": "Bukit Goh",
        "State": "Pahang"
    },
    {
        "Postcode": "26090",
        "Location": "Kampung Charas",
        "Post_Office": "Bukit Goh",
        "State": "Pahang"
    },
    {
        "Postcode": "26090",
        "Location": "Kampung Danang",
        "Post_Office": "Bukit Goh",
        "State": "Pahang"
    },
    {
        "Postcode": "26090",
        "Location": "Kampung Kolek",
        "Post_Office": "Bukit Goh",
        "State": "Pahang"
    },
    {
        "Postcode": "26090",
        "Location": "Kampung Kuala Reman",
        "Post_Office": "Bukit Goh",
        "State": "Pahang"
    },
    {
        "Postcode": "26090",
        "Location": "Kampung Machang",
        "Post_Office": "Bukit Goh",
        "State": "Pahang"
    },
    {
        "Postcode": "26090",
        "Location": "Kampung Panching",
        "Post_Office": "Bukit Goh",
        "State": "Pahang"
    },
    {
        "Postcode": "26090",
        "Location": "Kampung Pasir Kemudi",
        "Post_Office": "Bukit Goh",
        "State": "Pahang"
    },
    {
        "Postcode": "26090",
        "Location": "Kampung Sungai Batu",
        "Post_Office": "Bukit Goh",
        "State": "Pahang"
    },
    {
        "Postcode": "26090",
        "Location": "Kampung Sungai Durian",
        "Post_Office": "Bukit Goh",
        "State": "Pahang"
    },
    {
        "Postcode": "26090",
        "Location": "Kampung Tanjung Pasir",
        "Post_Office": "Bukit Goh",
        "State": "Pahang"
    },
    {
        "Postcode": "26090",
        "Location": "Lorong Belida",
        "Post_Office": "Bukit Goh",
        "State": "Pahang"
    },
    {
        "Postcode": "26090",
        "Location": "Lorong Jelawat",
        "Post_Office": "Bukit Goh",
        "State": "Pahang"
    },
    {
        "Postcode": "26090",
        "Location": "Lorong Kelah",
        "Post_Office": "Bukit Goh",
        "State": "Pahang"
    },
    {
        "Postcode": "26090",
        "Location": "Lorong Kelisa",
        "Post_Office": "Bukit Goh",
        "State": "Pahang"
    },
    {
        "Postcode": "26090",
        "Location": "Lorong Sebarau",
        "Post_Office": "Bukit Goh",
        "State": "Pahang"
    },
    {
        "Postcode": "26090",
        "Location": "Panching",
        "Post_Office": "Bukit Goh",
        "State": "Pahang"
    },
    {
        "Postcode": "26090",
        "Location": "Pasir Kemudi",
        "Post_Office": "Bukit Goh",
        "State": "Pahang"
    },
    {
        "Postcode": "26090",
        "Location": "R.R.M Panching",
        "Post_Office": "Bukit Goh",
        "State": "Pahang"
    },
    {
        "Postcode": "26090",
        "Location": "R.T.P Bukit Mabuk",
        "Post_Office": "Bukit Goh",
        "State": "Pahang"
    },
    {
        "Postcode": "26090",
        "Location": "Simpang Koran Panching",
        "Post_Office": "Bukit Goh",
        "State": "Pahang"
    },
    {
        "Postcode": "26090",
        "Location": "Simpang Tiga Bukit Goh",
        "Post_Office": "Bukit Goh",
        "State": "Pahang"
    },
    {
        "Postcode": "26090",
        "Location": "Taman Tldm",
        "Post_Office": "Bukit Goh",
        "State": "Pahang"
    },
    {
        "Postcode": "26090",
        "Location": "Kampung Gajah Mati",
        "Post_Office": "Bukit Goh",
        "State": "Pahang"
    },
    {
        "Postcode": "26090",
        "Location": "Kampung Bukit Batu",
        "Post_Office": "Bukit Goh",
        "State": "Pahang"
    }
]
