[
    {
        "Postcode": "26100",
        "Location": "Perumahan Balok Permai 3",
        "Post_Office": "Kuantan",
        "State": "Pahang"
    },
    {
        "Postcode": "26100",
        "Location": "Perumahan Kampung Darat Sekolah",
        "Post_Office": "Kuantan",
        "State": "Pahang"
    },
    {
        "Postcode": "26100",
        "Location": "Perumahan Seberang Balok 2",
        "Post_Office": "Kuantan",
        "State": "Pahang"
    },
    {
        "Postcode": "26100",
        "Location": "Perumahan Seberang Balok Aman",
        "Post_Office": "Kuantan",
        "State": "Pahang"
    },
    {
        "Postcode": "26100",
        "Location": "Perumahan Sungai Karang Jaya",
        "Post_Office": "Kuantan",
        "State": "Pahang"
    },
    {
        "Postcode": "26100",
        "Location": "Perumahan Sungai Karang Jaya 3",
        "Post_Office": "Kuantan",
        "State": "Pahang"
    },
    {
        "Postcode": "26100",
        "Location": "Batu Hitam Beserah",
        "Post_Office": "Kuantan",
        "State": "Pahang"
    },
    {
        "Postcode": "26100",
        "Location": "Beserah",
        "Post_Office": "Kuantan",
        "State": "Pahang"
    },
    {
        "Postcode": "26100",
        "Location": "Bukit Kuin Dua",
        "Post_Office": "Kuantan",
        "State": "Pahang"
    },
    {
        "Postcode": "26100",
        "Location": "Jalan Balok Jaya",
        "Post_Office": "Kuantan",
        "State": "Pahang"
    },
    {
        "Postcode": "26100",
        "Location": "Jalan Bandar Damansara",
        "Post_Office": "Kuantan",
        "State": "Pahang"
    },
    {
        "Postcode": "26100",
        "Location": "Jalan Kampung Alor Ladang",
        "Post_Office": "Kuantan",
        "State": "Pahang"
    },
    {
        "Postcode": "26100",
        "Location": "Jalan Pantai Batu Hitam",
        "Post_Office": "Kuantan",
        "State": "Pahang"
    },
    {
        "Postcode": "26100",
        "Location": "Jalan Pelindung Bayu",
        "Post_Office": "Kuantan",
        "State": "Pahang"
    },
    {
        "Postcode": "26100",
        "Location": "Jalan Pelindung Maju 1",
        "Post_Office": "Kuantan",
        "State": "Pahang"
    },
    {
        "Postcode": "26100",
        "Location": "Kampung Alor Ladang",
        "Post_Office": "Kuantan",
        "State": "Pahang"
    },
    {
        "Postcode": "26100",
        "Location": "Kampung Alor Tuan Haji",
        "Post_Office": "Kuantan",
        "State": "Pahang"
    },
    {
        "Postcode": "26100",
        "Location": "Kampung Balok",
        "Post_Office": "Kuantan",
        "State": "Pahang"
    },
    {
        "Postcode": "26100",
        "Location": "Kampung Baru, Beserah",
        "Post_Office": "Kuantan",
        "State": "Pahang"
    },
    {
        "Postcode": "26100",
        "Location": "Kampung Batu Hitam",
        "Post_Office": "Kuantan",
        "State": "Pahang"
    },
    {
        "Postcode": "26100",
        "Location": "Kampung Bugis",
        "Post_Office": "Kuantan",
        "State": "Pahang"
    },
    {
        "Postcode": "26100",
        "Location": "Kampung Bukit Gelugur",
        "Post_Office": "Kuantan",
        "State": "Pahang"
    },
    {
        "Postcode": "26100",
        "Location": "Kampung Chendor",
        "Post_Office": "Kuantan",
        "State": "Pahang"
    },
    {
        "Postcode": "26100",
        "Location": "Kampung Chetty",
        "Post_Office": "Kuantan",
        "State": "Pahang"
    },
    {
        "Postcode": "26100",
        "Location": "Kampung Darat",
        "Post_Office": "Kuantan",
        "State": "Pahang"
    },
    {
        "Postcode": "26100",
        "Location": "Kampung Darat Sekolah",
        "Post_Office": "Kuantan",
        "State": "Pahang"
    },
    {
        "Postcode": "26100",
        "Location": "Kampung Jeram",
        "Post_Office": "Kuantan",
        "State": "Pahang"
    },
    {
        "Postcode": "26100",
        "Location": "Kampung Kubor",
        "Post_Office": "Kuantan",
        "State": "Pahang"
    },
    {
        "Postcode": "26100",
        "Location": "Kampung Pantai Sungai Karang",
        "Post_Office": "Kuantan",
        "State": "Pahang"
    },
    {
        "Postcode": "26100",
        "Location": "Kampung Pasir Garam",
        "Post_Office": "Kuantan",
        "State": "Pahang"
    },
    {
        "Postcode": "26100",
        "Location": "Kampung Pelindong",
        "Post_Office": "Kuantan",
        "State": "Pahang"
    },
    {
        "Postcode": "26100",
        "Location": "Kampung Pelindong Tasik",
        "Post_Office": "Kuantan",
        "State": "Pahang"
    },
    {
        "Postcode": "26100",
        "Location": "Kampung Rumbia",
        "Post_Office": "Kuantan",
        "State": "Pahang"
    },
    {
        "Postcode": "26100",
        "Location": "Kampung Simpang Kemaman",
        "Post_Office": "Kuantan",
        "State": "Pahang"
    },
    {
        "Postcode": "26100",
        "Location": "Kampung Tuan",
        "Post_Office": "Kuantan",
        "State": "Pahang"
    },
    {
        "Postcode": "26100",
        "Location": "Lorong Alor Ladang 41",
        "Post_Office": "Kuantan",
        "State": "Pahang"
    },
    {
        "Postcode": "26100",
        "Location": "Lorong Balok Jaya",
        "Post_Office": "Kuantan",
        "State": "Pahang"
    },
    {
        "Postcode": "26100",
        "Location": "Lorong Balok Sejahtera",
        "Post_Office": "Kuantan",
        "State": "Pahang"
    },
    {
        "Postcode": "26100",
        "Location": "Lorong Bandar Damansara",
        "Post_Office": "Kuantan",
        "State": "Pahang"
    },
    {
        "Postcode": "26100",
        "Location": "Lorong Bukit Gelugor 9",
        "Post_Office": "Kuantan",
        "State": "Pahang"
    },
    {
        "Postcode": "26100",
        "Location": "Lorong Chengal Lempong",
        "Post_Office": "Kuantan",
        "State": "Pahang"
    },
    {
        "Postcode": "26100",
        "Location": "Lorong Chengal Lempong Baru 28",
        "Post_Office": "Kuantan",
        "State": "Pahang"
    },
    {
        "Postcode": "26100",
        "Location": "Lorong Kampung Bugis",
        "Post_Office": "Kuantan",
        "State": "Pahang"
    },
    {
        "Postcode": "26100",
        "Location": "Lorong Kampung Jeram 3",
        "Post_Office": "Kuantan",
        "State": "Pahang"
    },
    {
        "Postcode": "26100",
        "Location": "Lorong Pelindung Damai 30",
        "Post_Office": "Kuantan",
        "State": "Pahang"
    },
    {
        "Postcode": "26100",
        "Location": "Lorong Pelindung Maju",
        "Post_Office": "Kuantan",
        "State": "Pahang"
    },
    {
        "Postcode": "26100",
        "Location": "Lorong Sungai Karang Darat",
        "Post_Office": "Kuantan",
        "State": "Pahang"
    },
    {
        "Postcode": "26100",
        "Location": "Lorong Sungai Karang Jaya 7",
        "Post_Office": "Kuantan",
        "State": "Pahang"
    },
    {
        "Postcode": "26100",
        "Location": "Lorong Sungai Karang Jaya 8",
        "Post_Office": "Kuantan",
        "State": "Pahang"
    },
    {
        "Postcode": "26100",
        "Location": "Lorong Sungai Karang Maju 6",
        "Post_Office": "Kuantan",
        "State": "Pahang"
    },
    {
        "Postcode": "26100",
        "Location": "Perkampungan Batu Hitam",
        "Post_Office": "Kuantan",
        "State": "Pahang"
    },
    {
        "Postcode": "26100",
        "Location": "Perkampungan Cengal Lempong",
        "Post_Office": "Kuantan",
        "State": "Pahang"
    },
    {
        "Postcode": "26100",
        "Location": "Perkampungan Cengal Lempong Baru",
        "Post_Office": "Kuantan",
        "State": "Pahang"
    },
    {
        "Postcode": "26100",
        "Location": "Perkampungan Pelindung Damai",
        "Post_Office": "Kuantan",
        "State": "Pahang"
    },
    {
        "Postcode": "26100",
        "Location": "Perkampungan Pelindung Maju",
        "Post_Office": "Kuantan",
        "State": "Pahang"
    },
    {
        "Postcode": "26100",
        "Location": "Perkampungan Sungai Karang Damai",
        "Post_Office": "Kuantan",
        "State": "Pahang"
    },
    {
        "Postcode": "26100",
        "Location": "Perkampungan Sungai Karang Darat",
        "Post_Office": "Kuantan",
        "State": "Pahang"
    },
    {
        "Postcode": "26100",
        "Location": "Perkampungan Sungai Karang Jaya",
        "Post_Office": "Kuantan",
        "State": "Pahang"
    },
    {
        "Postcode": "26100",
        "Location": "Perkampungan Sungai Karang Mesra",
        "Post_Office": "Kuantan",
        "State": "Pahang"
    },
    {
        "Postcode": "26100",
        "Location": "Rrm Batu Hitam (Beserah)",
        "Post_Office": "Kuantan",
        "State": "Pahang"
    },
    {
        "Postcode": "26100",
        "Location": "Sungai Karang Batu 9",
        "Post_Office": "Kuantan",
        "State": "Pahang"
    },
    {
        "Postcode": "26100",
        "Location": "Sungai Karang Darat",
        "Post_Office": "Kuantan",
        "State": "Pahang"
    },
    {
        "Postcode": "26100",
        "Location": "Sungai Karang Pantai",
        "Post_Office": "Kuantan",
        "State": "Pahang"
    },
    {
        "Postcode": "26100",
        "Location": "Taman Balok Cahaya",
        "Post_Office": "Kuantan",
        "State": "Pahang"
    },
    {
        "Postcode": "26100",
        "Location": "Taman Balok Darat",
        "Post_Office": "Kuantan",
        "State": "Pahang"
    },
    {
        "Postcode": "26100",
        "Location": "Taman Balok Fajar",
        "Post_Office": "Kuantan",
        "State": "Pahang"
    },
    {
        "Postcode": "26100",
        "Location": "Taman Balok Maju",
        "Post_Office": "Kuantan",
        "State": "Pahang"
    },
    {
        "Postcode": "26100",
        "Location": "Taman Balok Permai",
        "Post_Office": "Kuantan",
        "State": "Pahang"
    },
    {
        "Postcode": "26100",
        "Location": "Taman Balok Sejahtera",
        "Post_Office": "Kuantan",
        "State": "Pahang"
    },
    {
        "Postcode": "26100",
        "Location": "Taman Batu Hitam",
        "Post_Office": "Kuantan",
        "State": "Pahang"
    },
    {
        "Postcode": "26100",
        "Location": "Taman Beserah Permai",
        "Post_Office": "Kuantan",
        "State": "Pahang"
    },
    {
        "Postcode": "26100",
        "Location": "Taman Chendor Perdana",
        "Post_Office": "Kuantan",
        "State": "Pahang"
    },
    {
        "Postcode": "26100",
        "Location": "Taman Chengal Lempong Damai",
        "Post_Office": "Kuantan",
        "State": "Pahang"
    },
    {
        "Postcode": "26100",
        "Location": "Taman Gelugor 10",
        "Post_Office": "Kuantan",
        "State": "Pahang"
    },
    {
        "Postcode": "26100",
        "Location": "Taman Jariah",
        "Post_Office": "Kuantan",
        "State": "Pahang"
    },
    {
        "Postcode": "26100",
        "Location": "Taman Mutiara Perdana",
        "Post_Office": "Kuantan",
        "State": "Pahang"
    },
    {
        "Postcode": "26100",
        "Location": "Taman Pelindong Bayu",
        "Post_Office": "Kuantan",
        "State": "Pahang"
    },
    {
        "Postcode": "26100",
        "Location": "Taman Pelindong Damai",
        "Post_Office": "Kuantan",
        "State": "Pahang"
    },
    {
        "Postcode": "26100",
        "Location": "Taman Pelindong Indah",
        "Post_Office": "Kuantan",
        "State": "Pahang"
    },
    {
        "Postcode": "26100",
        "Location": "Taman Sungai Ular Jaya",
        "Post_Office": "Kuantan",
        "State": "Pahang"
    },
    {
        "Postcode": "26100",
        "Location": "Cherating",
        "Post_Office": "Kuantan",
        "State": "Pahang"
    },
    {
        "Postcode": "26100",
        "Location": "Kampung Masjid",
        "Post_Office": "Kuantan",
        "State": "Pahang"
    },
    {
        "Postcode": "26100",
        "Location": "Kampung Pantai",
        "Post_Office": "Kuantan",
        "State": "Pahang"
    },
    {
        "Postcode": "26100",
        "Location": "Perumahan Sungai Ular Jaya",
        "Post_Office": "Kuantan",
        "State": "Pahang"
    },
    {
        "Postcode": "26100",
        "Location": "Lorong Beserah Ria 43",
        "Post_Office": "Kuantan",
        "State": "Pahang"
    },
    {
        "Postcode": "26100",
        "Location": "Lorong Pelindung Perdana 7",
        "Post_Office": "Kuantan",
        "State": "Pahang"
    },
    {
        "Postcode": "26100",
        "Location": "Lorong Sungai Karang Damai 34",
        "Post_Office": "Kuantan",
        "State": "Pahang"
    },
    {
        "Postcode": "26100",
        "Location": "Lorong Sungai Karang Darat 51",
        "Post_Office": "Kuantan",
        "State": "Pahang"
    },
    {
        "Postcode": "26100",
        "Location": "Perkampungan Beserah Ria",
        "Post_Office": "Kuantan",
        "State": "Pahang"
    },
    {
        "Postcode": "26100",
        "Location": "Lorong Balok Permai 6",
        "Post_Office": "Kuantan",
        "State": "Pahang"
    },
    {
        "Postcode": "26100",
        "Location": "Lorong Sungai Karang Darat 105",
        "Post_Office": "Kuantan",
        "State": "Pahang"
    },
    {
        "Postcode": "26100",
        "Location": "Perkampungan Balok Permai",
        "Post_Office": "Kuantan",
        "State": "Pahang"
    },
    {
        "Postcode": "26100",
        "Location": "Lorong Sungai Karang Darat Jaya 9",
        "Post_Office": "Kuantan",
        "State": "Pahang"
    },
    {
        "Postcode": "26100",
        "Location": "Perkampungan Sungai Karang Darat Jaya",
        "Post_Office": "Kuantan",
        "State": "Pahang"
    },
    {
        "Postcode": "26100",
        "Location": "Jalan Kuantan - Kemaman",
        "Post_Office": "Kuantan",
        "State": "Pahang"
    },
    {
        "Postcode": "26100",
        "Location": "Kampung Jambu",
        "Post_Office": "Kuantan",
        "State": "Pahang"
    },
    {
        "Postcode": "26100",
        "Location": "Taman Beserah",
        "Post_Office": "Kuantan",
        "State": "Pahang"
    },
    {
        "Postcode": "26100",
        "Location": "Kampung Bahagia",
        "Post_Office": "Kuantan",
        "State": "Pahang"
    },
    {
        "Postcode": "26100",
        "Location": "Jalan Alur Ladang 1",
        "Post_Office": "Kuantan",
        "State": "Pahang"
    },
    {
        "Postcode": "26100",
        "Location": "Perumahan Balok Maju",
        "Post_Office": "Kuantan",
        "State": "Pahang"
    },
    {
        "Postcode": "26100",
        "Location": "Perumahan Balok Makmur",
        "Post_Office": "Kuantan",
        "State": "Pahang"
    },
    {
        "Postcode": "26100",
        "Location": "Perumahan Cengal Lempung",
        "Post_Office": "Kuantan",
        "State": "Pahang"
    },
    {
        "Postcode": "26100",
        "Location": "Perumahan Sungai Karang ",
        "Post_Office": "Kuantan",
        "State": "Pahang"
    },
    {
        "Postcode": "26100",
        "Location": "Perumahan Sungai Karang 1",
        "Post_Office": "Kuantan",
        "State": "Pahang"
    },
    {
        "Postcode": "26100",
        "Location": "Perumahan Chendor Perdana 3",
        "Post_Office": "Kuantan",
        "State": "Pahang"
    },
    {
        "Postcode": "26100",
        "Location": "Perumahan Balok Baru",
        "Post_Office": "Kuantan",
        "State": "Pahang"
    },
    {
        "Postcode": "26100",
        "Location": "Perumahan Kampung Baru Sungai Karang",
        "Post_Office": "Kuantan",
        "State": "Pahang"
    },
    {
        "Postcode": "26100",
        "Location": "Perumahan Beserah Makmur",
        "Post_Office": "Kuantan",
        "State": "Pahang"
    },
    {
        "Postcode": "26100",
        "Location": "Perumahan Cengal Lempung Aman",
        "Post_Office": "Kuantan",
        "State": "Pahang"
    },
    {
        "Postcode": "26100",
        "Location": "Perumahan Cerating Makmur",
        "Post_Office": "Kuantan",
        "State": "Pahang"
    },
    {
        "Postcode": "26100",
        "Location": "Perumahan Sungai Karang Mesra",
        "Post_Office": "Kuantan",
        "State": "Pahang"
    },
    {
        "Postcode": "26100",
        "Location": "Lorong Batu Hitam 58",
        "Post_Office": "Kuantan",
        "State": "Pahang"
    },
    {
        "Postcode": "26100",
        "Location": "Lorong Bukit Gelugur 13",
        "Post_Office": "Kuantan",
        "State": "Pahang"
    },
    {
        "Postcode": "26100",
        "Location": "Taman Sungai Karang Maju",
        "Post_Office": "Kuantan",
        "State": "Pahang"
    },
    {
        "Postcode": "26100",
        "Location": "Perumahan Pelindung Perdana ",
        "Post_Office": "Kuantan",
        "State": "Pahang"
    },
    {
        "Postcode": "26100",
        "Location": "Perumahan Taman Beserah",
        "Post_Office": "Kuantan",
        "State": "Pahang"
    },
    {
        "Postcode": "26100",
        "Location": "Perumahan Pelindung Pantai",
        "Post_Office": "Kuantan",
        "State": "Pahang"
    },
    {
        "Postcode": "26100",
        "Location": "Perumahan Balok Pantai",
        "Post_Office": "Kuantan",
        "State": "Pahang"
    },
    {
        "Postcode": "26100",
        "Location": "Perkampungan Jeram",
        "Post_Office": "Kuantan",
        "State": "Pahang"
    },
    {
        "Postcode": "26100",
        "Location": "Bandar Damansara Kuantan",
        "Post_Office": "Kuantan",
        "State": "Pahang"
    },
    {
        "Postcode": "26100",
        "Location": "Perumahan Beserah Ria",
        "Post_Office": "Kuantan",
        "State": "Pahang"
    },
    {
        "Postcode": "26100",
        "Location": "Pusat Komersil Chendor",
        "Post_Office": "Kuantan",
        "State": "Pahang"
    },
    {
        "Postcode": "26100",
        "Location": "Perumahan Pelindung Maju",
        "Post_Office": "Kuantan",
        "State": "Pahang"
    },
    {
        "Postcode": "26100",
        "Location": "Lorong Pelindung 24",
        "Post_Office": "Kuantan",
        "State": "Pahang"
    },
    {
        "Postcode": "26100",
        "Location": "Perumahan Pelindung Jaya",
        "Post_Office": "Kuantan",
        "State": "Pahang"
    },
    {
        "Postcode": "26100",
        "Location": "Perumahan Sungai Karang Darat",
        "Post_Office": "Kuantan",
        "State": "Pahang"
    },
    {
        "Postcode": "26100",
        "Location": "Perumahan Balok Perdana",
        "Post_Office": "Kuantan",
        "State": "Pahang"
    },
    {
        "Postcode": "26100",
        "Location": "Perumahan Seberang Balok Jaya",
        "Post_Office": "Kuantan",
        "State": "Pahang"
    },
    {
        "Postcode": "26100",
        "Location": "Perumahan Sungai Karang Damai",
        "Post_Office": "Kuantan",
        "State": "Pahang"
    },
    {
        "Postcode": "26100",
        "Location": "Bandar Baru Gambang",
        "Post_Office": "Kuantan",
        "State": "Pahang"
    },
    {
        "Postcode": "26100",
        "Location": "Perumahan Cengal Lempung Perdana",
        "Post_Office": "Kuantan",
        "State": "Pahang"
    },
    {
        "Postcode": "26100",
        "Location": "Perumahan Chendor Makmur",
        "Post_Office": "Kuantan",
        "State": "Pahang"
    },
    {
        "Postcode": "26100",
        "Location": "Perumahan Chendor Perdana 1 ",
        "Post_Office": "Kuantan",
        "State": "Pahang"
    },
    {
        "Postcode": "26100",
        "Location": "Perkampungan Pelindung Perdana",
        "Post_Office": "Kuantan",
        "State": "Pahang"
    },
    {
        "Postcode": "26100",
        "Location": "Perumahan Seberang Balok",
        "Post_Office": "Kuantan",
        "State": "Pahang"
    },
    {
        "Postcode": "26100",
        "Location": "Lorong Balok Darat 13",
        "Post_Office": "Kuantan",
        "State": "Pahang"
    },
    {
        "Postcode": "26100",
        "Location": "Perumahan Bukit Beserah",
        "Post_Office": "Kuantan",
        "State": "Pahang"
    },
    {
        "Postcode": "26100",
        "Location": "Lorong Sungai Karang Damai 90",
        "Post_Office": "Kuantan",
        "State": "Pahang"
    },
    {
        "Postcode": "26100",
        "Location": "Lorong Sungai Karang Damai 91",
        "Post_Office": "Kuantan",
        "State": "Pahang"
    },
    {
        "Postcode": "26100",
        "Location": "Lorong Sungai Karang Damai 92",
        "Post_Office": "Kuantan",
        "State": "Pahang"
    },
    {
        "Postcode": "26100",
        "Location": "Lorong Sungai Karang Damai 93",
        "Post_Office": "Kuantan",
        "State": "Pahang"
    },
    {
        "Postcode": "26100",
        "Location": "Lorong Sungai Karang Darat 10",
        "Post_Office": "Kuantan",
        "State": "Pahang"
    },
    {
        "Postcode": "26100",
        "Location": "Lorong Sungai Karang Darat 9",
        "Post_Office": "Kuantan",
        "State": "Pahang"
    },
    {
        "Postcode": "26100",
        "Location": "Taman Balok Jaya 1",
        "Post_Office": "Kuantan",
        "State": "Pahang"
    },
    {
        "Postcode": "26100",
        "Location": "Taman Balok Jaya 2",
        "Post_Office": "Kuantan",
        "State": "Pahang"
    }
]
