[
    {
        "Postcode": "26200",
        "Location": "Batu Enam",
        "Post_Office": "Sungai Lembing",
        "State": "Pahang"
    },
    {
        "Postcode": "26200",
        "Location": "Bukit Pos",
        "Post_Office": "Sungai Lembing",
        "State": "Pahang"
    },
    {
        "Postcode": "26200",
        "Location": "Jelihang",
        "Post_Office": "Sungai Lembing",
        "State": "Pahang"
    },
    {
        "Postcode": "26200",
        "Location": "Jeram Batang",
        "Post_Office": "Sungai Lembing",
        "State": "Pahang"
    },
    {
        "Postcode": "26200",
        "Location": "Jeram Tekar",
        "Post_Office": "Sungai Lembing",
        "State": "Pahang"
    },
    {
        "Postcode": "26200",
        "Location": "Kampung Batu 4 1/2",
        "Post_Office": "Sungai Lembing",
        "State": "Pahang"
    },
    {
        "Postcode": "26200",
        "Location": "Kampung Batu 6",
        "Post_Office": "Sungai Lembing",
        "State": "Pahang"
    },
    {
        "Postcode": "26200",
        "Location": "Kampung Kawah",
        "Post_Office": "Sungai Lembing",
        "State": "Pahang"
    },
    {
        "Postcode": "26200",
        "Location": "Kampung Kolong Pahat",
        "Post_Office": "Sungai Lembing",
        "State": "Pahang"
    },
    {
        "Postcode": "26200",
        "Location": "Kampung Kuala Nadak",
        "Post_Office": "Sungai Lembing",
        "State": "Pahang"
    },
    {
        "Postcode": "26200",
        "Location": "Kampung Kuala Perong",
        "Post_Office": "Sungai Lembing",
        "State": "Pahang"
    },
    {
        "Postcode": "26200",
        "Location": "Kampung Melayu",
        "Post_Office": "Sungai Lembing",
        "State": "Pahang"
    },
    {
        "Postcode": "26200",
        "Location": "Kampung 'Nyah",
        "Post_Office": "Sungai Lembing",
        "State": "Pahang"
    },
    {
        "Postcode": "26200",
        "Location": "Kolek",
        "Post_Office": "Sungai Lembing",
        "State": "Pahang"
    },
    {
        "Postcode": "26200",
        "Location": "Kuala Kenau",
        "Post_Office": "Sungai Lembing",
        "State": "Pahang"
    },
    {
        "Postcode": "26200",
        "Location": "Ladang Enam",
        "Post_Office": "Sungai Lembing",
        "State": "Pahang"
    },
    {
        "Postcode": "26200",
        "Location": "Paddock Creek",
        "Post_Office": "Sungai Lembing",
        "State": "Pahang"
    },
    {
        "Postcode": "26200",
        "Location": "Samaliang",
        "Post_Office": "Sungai Lembing",
        "State": "Pahang"
    },
    {
        "Postcode": "26200",
        "Location": "Seberang",
        "Post_Office": "Sungai Lembing",
        "State": "Pahang"
    },
    {
        "Postcode": "26200",
        "Location": "Sungai Arang",
        "Post_Office": "Sungai Lembing",
        "State": "Pahang"
    },
    {
        "Postcode": "26200",
        "Location": "Sungai Blat",
        "Post_Office": "Sungai Lembing",
        "State": "Pahang"
    },
    {
        "Postcode": "26200",
        "Location": "Sungai Lembing",
        "Post_Office": "Sungai Lembing",
        "State": "Pahang"
    },
    {
        "Postcode": "26200",
        "Location": "Sungai Rimau",
        "Post_Office": "Sungai Lembing",
        "State": "Pahang"
    },
    {
        "Postcode": "26200",
        "Location": "Kampung Sungai Mas",
        "Post_Office": "Sungai Lembing",
        "State": "Pahang"
    },
    {
        "Postcode": "26200",
        "Location": "Kampung Tengah",
        "Post_Office": "Sungai Lembing",
        "State": "Pahang"
    }
]
