[
    {
        "Postcode": "26400",
        "Location": "Bandar Pusat Jengka",
        "Post_Office": "Bandar Pusat  Jengka",
        "State": "Pahang"
    },
    {
        "Postcode": "26400",
        "Location": "Felda Kesidang Jengka 8",
        "Post_Office": "Bandar Pusat  Jengka",
        "State": "Pahang"
    },
    {
        "Postcode": "26400",
        "Location": "Felda Lepar Hilir 7",
        "Post_Office": "Bandar Pusat  Jengka",
        "State": "Pahang"
    },
    {
        "Postcode": "26400",
        "Location": "Felda Mawar Jengka 10",
        "Post_Office": "Bandar Pusat  Jengka",
        "State": "Pahang"
    },
    {
        "Postcode": "26400",
        "Location": "Felda Melati Jengka 11",
        "Post_Office": "Bandar Pusat  Jengka",
        "State": "Pahang"
    },
    {
        "Postcode": "26400",
        "Location": "Felda Raya Jengka 14",
        "Post_Office": "Bandar Pusat  Jengka",
        "State": "Pahang"
    },
    {
        "Postcode": "26400",
        "Location": "Felda Semarak Jengka 15",
        "Post_Office": "Bandar Pusat  Jengka",
        "State": "Pahang"
    },
    {
        "Postcode": "26400",
        "Location": "Felda Sena Jengka 16",
        "Post_Office": "Bandar Pusat  Jengka",
        "State": "Pahang"
    },
    {
        "Postcode": "26400",
        "Location": "Felda Seri Pagi Jengka 17",
        "Post_Office": "Bandar Pusat  Jengka",
        "State": "Pahang"
    },
    {
        "Postcode": "26400",
        "Location": "Felda Seroja Jengka 18",
        "Post_Office": "Bandar Pusat  Jengka",
        "State": "Pahang"
    },
    {
        "Postcode": "26400",
        "Location": "Felda Siantan Jengka 19",
        "Post_Office": "Bandar Pusat  Jengka",
        "State": "Pahang"
    },
    {
        "Postcode": "26400",
        "Location": "Felda Tanjung Jengka 20",
        "Post_Office": "Bandar Pusat  Jengka",
        "State": "Pahang"
    },
    {
        "Postcode": "26400",
        "Location": "Felda Teratai Jengka 21",
        "Post_Office": "Bandar Pusat  Jengka",
        "State": "Pahang"
    },
    {
        "Postcode": "26400",
        "Location": "Jalan Besar (Matau)",
        "Post_Office": "Bandar Pusat  Jengka",
        "State": "Pahang"
    },
    {
        "Postcode": "26400",
        "Location": "Kampung Paya Pamun",
        "Post_Office": "Bandar Pusat  Jengka",
        "State": "Pahang"
    },
    {
        "Postcode": "26400",
        "Location": "Kawasan Perindustrian",
        "Post_Office": "Bandar Pusat  Jengka",
        "State": "Pahang"
    },
    {
        "Postcode": "26400",
        "Location": "Ladang Chenor",
        "Post_Office": "Bandar Pusat  Jengka",
        "State": "Pahang"
    },
    {
        "Postcode": "26400",
        "Location": "Lintasan Semarak",
        "Post_Office": "Bandar Pusat  Jengka",
        "State": "Pahang"
    },
    {
        "Postcode": "26400",
        "Location": "Nadi Kota (Bandar)",
        "Post_Office": "Bandar Pusat  Jengka",
        "State": "Pahang"
    },
    {
        "Postcode": "26400",
        "Location": "Perumahan Guru Jalan Ketengah",
        "Post_Office": "Bandar Pusat  Jengka",
        "State": "Pahang"
    },
    {
        "Postcode": "26400",
        "Location": "Pptr Sungai Tekam",
        "Post_Office": "Bandar Pusat  Jengka",
        "State": "Pahang"
    },
    {
        "Postcode": "26400",
        "Location": "Pusat  Penyelidikan Sungai Tekam",
        "Post_Office": "Bandar Pusat  Jengka",
        "State": "Pahang"
    },
    {
        "Postcode": "26400",
        "Location": "Rantau Perintis",
        "Post_Office": "Bandar Pusat  Jengka",
        "State": "Pahang"
    },
    {
        "Postcode": "26400",
        "Location": "Sungai Tekam",
        "Post_Office": "Bandar Pusat  Jengka",
        "State": "Pahang"
    },
    {
        "Postcode": "26400",
        "Location": "Taman Desa Jaya 1",
        "Post_Office": "Bandar Pusat  Jengka",
        "State": "Pahang"
    },
    {
        "Postcode": "26400",
        "Location": "Taman Desa Jaya 2",
        "Post_Office": "Bandar Pusat  Jengka",
        "State": "Pahang"
    },
    {
        "Postcode": "26400",
        "Location": "Taman Impian Jalan Kilang",
        "Post_Office": "Bandar Pusat  Jengka",
        "State": "Pahang"
    },
    {
        "Postcode": "26400",
        "Location": "Uitm Cawangan Pahang",
        "Post_Office": "Bandar Pusat  Jengka",
        "State": "Pahang"
    },
    {
        "Postcode": "26400",
        "Location": "Felda Dahlia Jengka 3",
        "Post_Office": "Bandar Pusat  Jengka",
        "State": "Pahang"
    },
    {
        "Postcode": "26400",
        "Location": "Felda Kenanga Jengka 7",
        "Post_Office": "Bandar Pusat  Jengka",
        "State": "Pahang"
    },
    {
        "Postcode": "26400",
        "Location": "Felda Melor Jengka 12",
        "Post_Office": "Bandar Pusat  Jengka",
        "State": "Pahang"
    }
]
