[
    {
        "Postcode": "26430",
        "Location": "Felda Anggerik Jengka 1",
        "Post_Office": "Bandar Pusat  Jengka",
        "State": "Pahang"
    },
    {
        "Postcode": "26430",
        "Location": "Felda Chempaka Jengka 2",
        "Post_Office": "Bandar Pusat  Jengka",
        "State": "Pahang"
    },
    {
        "Postcode": "26430",
        "Location": "Felda Puteri Malu Jengka 13",
        "Post_Office": "Bandar Pusat  Jengka",
        "State": "Pahang"
    },
    {
        "Postcode": "26430",
        "Location": "Felda Ulu Jempol",
        "Post_Office": "Bandar Pusat  Jengka",
        "State": "Pahang"
    },
    {
        "Postcode": "26430",
        "Location": "Kampung Sungai Jerik",
        "Post_Office": "Bandar Pusat  Jengka",
        "State": "Pahang"
    },
    {
        "Postcode": "26430",
        "Location": "Sungai Jerik",
        "Post_Office": "Bandar Pusat  Jengka",
        "State": "Pahang"
    },
    {
        "Postcode": "26430",
        "Location": "Felda Lepar Utara 4",
        "Post_Office": "Bandar Pusat  Jengka",
        "State": "Pahang"
    },
    {
        "Postcode": "26430",
        "Location": "Felda Lepar Utara 5",
        "Post_Office": "Bandar Pusat  Jengka",
        "State": "Pahang"
    }
]
