[
    {
        "Postcode": "26500",
        "Location": "Aur Gading",
        "Post_Office": "Maran",
        "State": "Pahang"
    },
    {
        "Postcode": "26500",
        "Location": "Belimbing",
        "Post_Office": "Maran",
        "State": "Pahang"
    },
    {
        "Postcode": "26500",
        "Location": "Bukit Tajau",
        "Post_Office": "Maran",
        "State": "Pahang"
    },
    {
        "Postcode": "26500",
        "Location": "Jengka 4",
        "Post_Office": "Maran",
        "State": "Pahang"
    },
    {
        "Postcode": "26500",
        "Location": "Jengka 5",
        "Post_Office": "Maran",
        "State": "Pahang"
    },
    {
        "Postcode": "26500",
        "Location": "Kampung Aur Gading",
        "Post_Office": "Maran",
        "State": "Pahang"
    },
    {
        "Postcode": "26500",
        "Location": "Kampung Bakapor",
        "Post_Office": "Maran",
        "State": "Pahang"
    },
    {
        "Postcode": "26500",
        "Location": "Kampung Baru Jara",
        "Post_Office": "Maran",
        "State": "Pahang"
    },
    {
        "Postcode": "26500",
        "Location": "Kampung Berkat",
        "Post_Office": "Maran",
        "State": "Pahang"
    },
    {
        "Postcode": "26500",
        "Location": "Kampung Gelugor",
        "Post_Office": "Maran",
        "State": "Pahang"
    },
    {
        "Postcode": "26500",
        "Location": "Kampung Kuala Sentul",
        "Post_Office": "Maran",
        "State": "Pahang"
    },
    {
        "Postcode": "26500",
        "Location": "Kampung Lembing",
        "Post_Office": "Maran",
        "State": "Pahang"
    },
    {
        "Postcode": "26500",
        "Location": "Kampung Lubok Paku",
        "Post_Office": "Maran",
        "State": "Pahang"
    },
    {
        "Postcode": "26500",
        "Location": "Kampung Megat",
        "Post_Office": "Maran",
        "State": "Pahang"
    },
    {
        "Postcode": "26500",
        "Location": "Kampung New Zealand",
        "Post_Office": "Maran",
        "State": "Pahang"
    },
    {
        "Postcode": "26500",
        "Location": "Kampung Paya Bungor",
        "Post_Office": "Maran",
        "State": "Pahang"
    },
    {
        "Postcode": "26500",
        "Location": "Kampung Paya Merbau",
        "Post_Office": "Maran",
        "State": "Pahang"
    },
    {
        "Postcode": "26500",
        "Location": "Kampung Paya Pasir",
        "Post_Office": "Maran",
        "State": "Pahang"
    },
    {
        "Postcode": "26500",
        "Location": "Kampung Paya Rambutan",
        "Post_Office": "Maran",
        "State": "Pahang"
    },
    {
        "Postcode": "26500",
        "Location": "Kampung Semangat",
        "Post_Office": "Maran",
        "State": "Pahang"
    },
    {
        "Postcode": "26500",
        "Location": "Kampung Senggora",
        "Post_Office": "Maran",
        "State": "Pahang"
    },
    {
        "Postcode": "26500",
        "Location": "Kampung Serangkam",
        "Post_Office": "Maran",
        "State": "Pahang"
    },
    {
        "Postcode": "26500",
        "Location": "Kampung Seri Jaya",
        "Post_Office": "Maran",
        "State": "Pahang"
    },
    {
        "Postcode": "26500",
        "Location": "Kampung Seri Makmur",
        "Post_Office": "Maran",
        "State": "Pahang"
    },
    {
        "Postcode": "26500",
        "Location": "Kampung Sungai Bekelah",
        "Post_Office": "Maran",
        "State": "Pahang"
    },
    {
        "Postcode": "26500",
        "Location": "Kampung Sungai Kertam",
        "Post_Office": "Maran",
        "State": "Pahang"
    },
    {
        "Postcode": "26500",
        "Location": "Kampung Sungai Lepar",
        "Post_Office": "Maran",
        "State": "Pahang"
    },
    {
        "Postcode": "26500",
        "Location": "Kampung Teras",
        "Post_Office": "Maran",
        "State": "Pahang"
    },
    {
        "Postcode": "26500",
        "Location": "Kampung Ulu Luit",
        "Post_Office": "Maran",
        "State": "Pahang"
    },
    {
        "Postcode": "26500",
        "Location": "Karung Berkunci",
        "Post_Office": "Maran",
        "State": "Pahang"
    },
    {
        "Postcode": "26500",
        "Location": "Lengkor",
        "Post_Office": "Maran",
        "State": "Pahang"
    },
    {
        "Postcode": "26500",
        "Location": "Maran",
        "Post_Office": "Maran",
        "State": "Pahang"
    },
    {
        "Postcode": "26500",
        "Location": "Paya Bungor",
        "Post_Office": "Maran",
        "State": "Pahang"
    },
    {
        "Postcode": "26500",
        "Location": "Paya Rambutan",
        "Post_Office": "Maran",
        "State": "Pahang"
    },
    {
        "Postcode": "26500",
        "Location": "Perumahan Guru Berkat",
        "Post_Office": "Maran",
        "State": "Pahang"
    },
    {
        "Postcode": "26500",
        "Location": "Perumahan Guru Sri Cendong",
        "Post_Office": "Maran",
        "State": "Pahang"
    },
    {
        "Postcode": "26500",
        "Location": "Rkt Bukit Tajau",
        "Post_Office": "Maran",
        "State": "Pahang"
    },
    {
        "Postcode": "26500",
        "Location": "Seri Jaya",
        "Post_Office": "Maran",
        "State": "Pahang"
    },
    {
        "Postcode": "26500",
        "Location": "Seri Makmur",
        "Post_Office": "Maran",
        "State": "Pahang"
    },
    {
        "Postcode": "26500",
        "Location": "Sungai Kertam",
        "Post_Office": "Maran",
        "State": "Pahang"
    },
    {
        "Postcode": "26500",
        "Location": "Taman Emas Sri Jaya",
        "Post_Office": "Maran",
        "State": "Pahang"
    },
    {
        "Postcode": "26500",
        "Location": "Taman Hock Chu Sri Jaya",
        "Post_Office": "Maran",
        "State": "Pahang"
    },
    {
        "Postcode": "26500",
        "Location": "Taman Maran Damai",
        "Post_Office": "Maran",
        "State": "Pahang"
    },
    {
        "Postcode": "26500",
        "Location": "Taman Maran Impian",
        "Post_Office": "Maran",
        "State": "Pahang"
    },
    {
        "Postcode": "26500",
        "Location": "Taman Maran Jaya",
        "Post_Office": "Maran",
        "State": "Pahang"
    },
    {
        "Postcode": "26500",
        "Location": "Taman Sri Desa",
        "Post_Office": "Maran",
        "State": "Pahang"
    },
    {
        "Postcode": "26500",
        "Location": "Taman Sri Jaya Indah",
        "Post_Office": "Maran",
        "State": "Pahang"
    },
    {
        "Postcode": "26500",
        "Location": "Kampung Paya Mengkuang",
        "Post_Office": "Maran",
        "State": "Pahang"
    },
    {
        "Postcode": "26500",
        "Location": "Kampung Sentosa",
        "Post_Office": "Maran",
        "State": "Pahang"
    }
]
