[
    {
        "Postcode": "26600",
        "Location": "Bandar Baru Peramu",
        "Post_Office": "Pekan",
        "State": "Pahang"
    },
    {
        "Postcode": "26600",
        "Location": "Jalan Ahmad",
        "Post_Office": "Pekan",
        "State": "Pahang"
    },
    {
        "Postcode": "26600",
        "Location": "Jalan Engku Muda Mansor",
        "Post_Office": "Pekan",
        "State": "Pahang"
    },
    {
        "Postcode": "26600",
        "Location": "Jalan Haji Arshah",
        "Post_Office": "Pekan",
        "State": "Pahang"
    },
    {
        "Postcode": "26600",
        "Location": "Jalan Haji Mandak",
        "Post_Office": "Pekan",
        "State": "Pahang"
    },
    {
        "Postcode": "26600",
        "Location": "Jalan Halimi",
        "Post_Office": "Pekan",
        "State": "Pahang"
    },
    {
        "Postcode": "26600",
        "Location": "Jalan Istana Abu Bakar",
        "Post_Office": "Pekan",
        "State": "Pahang"
    },
    {
        "Postcode": "26600",
        "Location": "Jalan Istana Permai",
        "Post_Office": "Pekan",
        "State": "Pahang"
    },
    {
        "Postcode": "26600",
        "Location": "Jalan Jambatan Padang Tembak",
        "Post_Office": "Pekan",
        "State": "Pahang"
    },
    {
        "Postcode": "26600",
        "Location": "Jalan Mahmud",
        "Post_Office": "Pekan",
        "State": "Pahang"
    },
    {
        "Postcode": "26600",
        "Location": "Jalan Padang Tembak",
        "Post_Office": "Pekan",
        "State": "Pahang"
    },
    {
        "Postcode": "26600",
        "Location": "Jalan Sultan Abu Bakar",
        "Post_Office": "Pekan",
        "State": "Pahang"
    },
    {
        "Postcode": "26600",
        "Location": "Jalan Teng Que",
        "Post_Office": "Pekan",
        "State": "Pahang"
    },
    {
        "Postcode": "26600",
        "Location": "Jalan Tengku Arif Bendahara",
        "Post_Office": "Pekan",
        "State": "Pahang"
    },
    {
        "Postcode": "26600",
        "Location": "Jalan Tengku Besar Sulaiman",
        "Post_Office": "Pekan",
        "State": "Pahang"
    },
    {
        "Postcode": "26600",
        "Location": "Jalan Tok Tuan",
        "Post_Office": "Pekan",
        "State": "Pahang"
    },
    {
        "Postcode": "26600",
        "Location": "Kampung Alor Ara",
        "Post_Office": "Pekan",
        "State": "Pahang"
    },
    {
        "Postcode": "26600",
        "Location": "Kampung Baru Permatang Pauh",
        "Post_Office": "Pekan",
        "State": "Pahang"
    },
    {
        "Postcode": "26600",
        "Location": "Kampung Baru Tanah Puteh",
        "Post_Office": "Pekan",
        "State": "Pahang"
    },
    {
        "Postcode": "26600",
        "Location": "Kampung Batu 1 (Pekan Kuantan)",
        "Post_Office": "Pekan",
        "State": "Pahang"
    },
    {
        "Postcode": "26600",
        "Location": "Kampung Batu 9 (Pekan Nenasi)",
        "Post_Office": "Pekan",
        "State": "Pahang"
    },
    {
        "Postcode": "26600",
        "Location": "Kampung Geylang",
        "Post_Office": "Pekan",
        "State": "Pahang"
    },
    {
        "Postcode": "26600",
        "Location": "Kampung Jalan Rompin  Lama",
        "Post_Office": "Pekan",
        "State": "Pahang"
    },
    {
        "Postcode": "26600",
        "Location": "Kampung Kelat Rendang",
        "Post_Office": "Pekan",
        "State": "Pahang"
    },
    {
        "Postcode": "26600",
        "Location": "Kampung Ketapang Hilir",
        "Post_Office": "Pekan",
        "State": "Pahang"
    },
    {
        "Postcode": "26600",
        "Location": "Kampung Ketapang Tengah",
        "Post_Office": "Pekan",
        "State": "Pahang"
    },
    {
        "Postcode": "26600",
        "Location": "Kampung Kolam Puteri",
        "Post_Office": "Pekan",
        "State": "Pahang"
    },
    {
        "Postcode": "26600",
        "Location": "Kampung Lepar Baru Tanah Puteh",
        "Post_Office": "Pekan",
        "State": "Pahang"
    },
    {
        "Postcode": "26600",
        "Location": "Kampung Maulana",
        "Post_Office": "Pekan",
        "State": "Pahang"
    },
    {
        "Postcode": "26600",
        "Location": "Kampung Mengkasar",
        "Post_Office": "Pekan",
        "State": "Pahang"
    },
    {
        "Postcode": "26600",
        "Location": "Kampung Padang Buloh",
        "Post_Office": "Pekan",
        "State": "Pahang"
    },
    {
        "Postcode": "26600",
        "Location": "Kampung Padang Manggis",
        "Post_Office": "Pekan",
        "State": "Pahang"
    },
    {
        "Postcode": "26600",
        "Location": "Kampung Padang Polo",
        "Post_Office": "Pekan",
        "State": "Pahang"
    },
    {
        "Postcode": "26600",
        "Location": "Kampung Parit Tengah",
        "Post_Office": "Pekan",
        "State": "Pahang"
    },
    {
        "Postcode": "26600",
        "Location": "Kampung Pasir Panjang",
        "Post_Office": "Pekan",
        "State": "Pahang"
    },
    {
        "Postcode": "26600",
        "Location": "Kampung Pelangkah",
        "Post_Office": "Pekan",
        "State": "Pahang"
    },
    {
        "Postcode": "26600",
        "Location": "Kampung Penadah",
        "Post_Office": "Pekan",
        "State": "Pahang"
    },
    {
        "Postcode": "26600",
        "Location": "Kampung Peramu Jaya",
        "Post_Office": "Pekan",
        "State": "Pahang"
    },
    {
        "Postcode": "26600",
        "Location": "Kampung Permatang Berangan",
        "Post_Office": "Pekan",
        "State": "Pahang"
    },
    {
        "Postcode": "26600",
        "Location": "Kampung Permatang Kledang",
        "Post_Office": "Pekan",
        "State": "Pahang"
    },
    {
        "Postcode": "26600",
        "Location": "Kampung Permatang Lembing",
        "Post_Office": "Pekan",
        "State": "Pahang"
    },
    {
        "Postcode": "26600",
        "Location": "Kampung Permatang Pauh",
        "Post_Office": "Pekan",
        "State": "Pahang"
    },
    {
        "Postcode": "26600",
        "Location": "Kampung Permatang Perawan",
        "Post_Office": "Pekan",
        "State": "Pahang"
    },
    {
        "Postcode": "26600",
        "Location": "Kampung Pulau Engku Muda",
        "Post_Office": "Pekan",
        "State": "Pahang"
    },
    {
        "Postcode": "26600",
        "Location": "Kampung Pulau Injin",
        "Post_Office": "Pekan",
        "State": "Pahang"
    },
    {
        "Postcode": "26600",
        "Location": "Kampung Pulau Jawa",
        "Post_Office": "Pekan",
        "State": "Pahang"
    },
    {
        "Postcode": "26600",
        "Location": "Kampung Pulau Keladi",
        "Post_Office": "Pekan",
        "State": "Pahang"
    },
    {
        "Postcode": "26600",
        "Location": "Kampung Pulau Serai",
        "Post_Office": "Pekan",
        "State": "Pahang"
    },
    {
        "Postcode": "26600",
        "Location": "Kampung Pulau Tambun",
        "Post_Office": "Pekan",
        "State": "Pahang"
    },
    {
        "Postcode": "26600",
        "Location": "Kampung Sekor",
        "Post_Office": "Pekan",
        "State": "Pahang"
    },
    {
        "Postcode": "26600",
        "Location": "Kampung Sekukoh",
        "Post_Office": "Pekan",
        "State": "Pahang"
    },
    {
        "Postcode": "26600",
        "Location": "Kampung Semantan Ulu",
        "Post_Office": "Pekan",
        "State": "Pahang"
    },
    {
        "Postcode": "26600",
        "Location": "Kampung Sungai Kalong",
        "Post_Office": "Pekan",
        "State": "Pahang"
    },
    {
        "Postcode": "26600",
        "Location": "Kampung Sungai Mat Dulang",
        "Post_Office": "Pekan",
        "State": "Pahang"
    },
    {
        "Postcode": "26600",
        "Location": "Kampung Tanjong Agas",
        "Post_Office": "Pekan",
        "State": "Pahang"
    },
    {
        "Postcode": "26600",
        "Location": "Kampung Tanjong Medang",
        "Post_Office": "Pekan",
        "State": "Pahang"
    },
    {
        "Postcode": "26600",
        "Location": "Kampung Tanjung Agas",
        "Post_Office": "Pekan",
        "State": "Pahang"
    },
    {
        "Postcode": "26600",
        "Location": "Ketapang Hilir",
        "Post_Office": "Pekan",
        "State": "Pahang"
    },
    {
        "Postcode": "26600",
        "Location": "Majlis Agama Islam  Pahang",
        "Post_Office": "Pekan",
        "State": "Pahang"
    },
    {
        "Postcode": "26600",
        "Location": "Pasir Panjang",
        "Post_Office": "Pekan",
        "State": "Pahang"
    },
    {
        "Postcode": "26600",
        "Location": "Pekan",
        "Post_Office": "Pekan",
        "State": "Pahang"
    },
    {
        "Postcode": "26600",
        "Location": "Pekan Lama",
        "Post_Office": "Pekan",
        "State": "Pahang"
    },
    {
        "Postcode": "26600",
        "Location": "Peramu",
        "Post_Office": "Pekan",
        "State": "Pahang"
    },
    {
        "Postcode": "26600",
        "Location": "Peramu Jaya",
        "Post_Office": "Pekan",
        "State": "Pahang"
    },
    {
        "Postcode": "26600",
        "Location": "Permatang Pasir",
        "Post_Office": "Pekan",
        "State": "Pahang"
    },
    {
        "Postcode": "26600",
        "Location": "Perumahan Shahbandar",
        "Post_Office": "Pekan",
        "State": "Pahang"
    },
    {
        "Postcode": "26600",
        "Location": "Pulau Jawa",
        "Post_Office": "Pekan",
        "State": "Pahang"
    },
    {
        "Postcode": "26600",
        "Location": "Pulau Keladi",
        "Post_Office": "Pekan",
        "State": "Pahang"
    },
    {
        "Postcode": "26600",
        "Location": "Pulau Tambun",
        "Post_Office": "Pekan",
        "State": "Pahang"
    },
    {
        "Postcode": "26600",
        "Location": "Taman Lknp Peramu",
        "Post_Office": "Pekan",
        "State": "Pahang"
    },
    {
        "Postcode": "26600",
        "Location": "Taman Maulana",
        "Post_Office": "Pekan",
        "State": "Pahang"
    },
    {
        "Postcode": "26600",
        "Location": "Taman Mentiga Jaya",
        "Post_Office": "Pekan",
        "State": "Pahang"
    },
    {
        "Postcode": "26600",
        "Location": "Taman Perdana Jaya",
        "Post_Office": "Pekan",
        "State": "Pahang"
    },
    {
        "Postcode": "26600",
        "Location": "Taman Seri Aman",
        "Post_Office": "Pekan",
        "State": "Pahang"
    },
    {
        "Postcode": "26600",
        "Location": "Taman Seri Maulana",
        "Post_Office": "Pekan",
        "State": "Pahang"
    },
    {
        "Postcode": "26600",
        "Location": "Taman Seri Pekan",
        "Post_Office": "Pekan",
        "State": "Pahang"
    },
    {
        "Postcode": "26600",
        "Location": "Tanjong Medang",
        "Post_Office": "Pekan",
        "State": "Pahang"
    },
    {
        "Postcode": "26600",
        "Location": "Kampung Masjid",
        "Post_Office": "Pekan",
        "State": "Pahang"
    },
    {
        "Postcode": "26600",
        "Location": "Kampung Panchor",
        "Post_Office": "Pekan",
        "State": "Pahang"
    },
    {
        "Postcode": "26600",
        "Location": "Kampung Sungai Miang",
        "Post_Office": "Pekan",
        "State": "Pahang"
    },
    {
        "Postcode": "26600",
        "Location": "Taman Pertama",
        "Post_Office": "Pekan",
        "State": "Pahang"
    },
    {
        "Postcode": "26600",
        "Location": "Tanah Puteh",
        "Post_Office": "Pekan",
        "State": "Pahang"
    },
    {
        "Postcode": "26600",
        "Location": "Kampung Durian Sebatang",
        "Post_Office": "Pekan",
        "State": "Pahang"
    },
    {
        "Postcode": "26600",
        "Location": "Kampung Peramu",
        "Post_Office": "Pekan",
        "State": "Pahang"
    },
    {
        "Postcode": "26600",
        "Location": "Kampung Tanah Putih",
        "Post_Office": "Pekan",
        "State": "Pahang"
    },
    {
        "Postcode": "26600",
        "Location": "Kampung Spook",
        "Post_Office": "Pekan",
        "State": "Pahang"
    }
]
