[
    {
        "Postcode": "26610",
        "Location": "Kampung Baharu Ubai",
        "Post_Office": "Pekan",
        "State": "Pahang"
    },
    {
        "Postcode": "26610",
        "Location": "Kampung Cherok Paloh",
        "Post_Office": "Pekan",
        "State": "Pahang"
    },
    {
        "Postcode": "26610",
        "Location": "Kampung Hijrah",
        "Post_Office": "Pekan",
        "State": "Pahang"
    },
    {
        "Postcode": "26610",
        "Location": "Kampung Permatang Che Hamid",
        "Post_Office": "Pekan",
        "State": "Pahang"
    },
    {
        "Postcode": "26610",
        "Location": "Kampung Permatang Gelugor",
        "Post_Office": "Pekan",
        "State": "Pahang"
    },
    {
        "Postcode": "26610",
        "Location": "Kampung Permatang Merbau",
        "Post_Office": "Pekan",
        "State": "Pahang"
    },
    {
        "Postcode": "26610",
        "Location": "Kampung Permatang Setongkol",
        "Post_Office": "Pekan",
        "State": "Pahang"
    },
    {
        "Postcode": "26610",
        "Location": "Kampung Ubai",
        "Post_Office": "Pekan",
        "State": "Pahang"
    },
    {
        "Postcode": "26610",
        "Location": "Merbau",
        "Post_Office": "Pekan",
        "State": "Pahang"
    },
    {
        "Postcode": "26610",
        "Location": "Permatang Merbau",
        "Post_Office": "Pekan",
        "State": "Pahang"
    },
    {
        "Postcode": "26610",
        "Location": "Permatang Redan",
        "Post_Office": "Pekan",
        "State": "Pahang"
    },
    {
        "Postcode": "26610",
        "Location": "Tebing Tinggi",
        "Post_Office": "Pekan",
        "State": "Pahang"
    },
    {
        "Postcode": "26610",
        "Location": "Kampung Tebing Tinggi",
        "Post_Office": "Pekan",
        "State": "Pahang"
    }
]
