[
    {
        "Postcode": "26620",
        "Location": "Kampung Jambu Langgar",
        "Post_Office": "Pekan",
        "State": "Pahang"
    },
    {
        "Postcode": "26620",
        "Location": "Kampung Lamir",
        "Post_Office": "Pekan",
        "State": "Pahang"
    },
    {
        "Postcode": "26620",
        "Location": "Kampung Langgar",
        "Post_Office": "Pekan",
        "State": "Pahang"
    },
    {
        "Postcode": "26620",
        "Location": "Kampung Pahang Tua",
        "Post_Office": "Pekan",
        "State": "Pahang"
    },
    {
        "Postcode": "26620",
        "Location": "Taman Seri Jambu",
        "Post_Office": "Pekan",
        "State": "Pahang"
    },
    {
        "Postcode": "26620",
        "Location": "Ubai Baru",
        "Post_Office": "Pekan",
        "State": "Pahang"
    },
    {
        "Postcode": "26620",
        "Location": "Kampung Kerayong",
        "Post_Office": "Pekan",
        "State": "Pahang"
    },
    {
        "Postcode": "26620",
        "Location": "Kampung Benta",
        "Post_Office": "Pekan",
        "State": "Pahang"
    }
]
