[
    {
        "Postcode": "26630",
        "Location": "Kampung Ayer Lian",
        "Post_Office": "Pekan",
        "State": "Pahang"
    },
    {
        "Postcode": "26630",
        "Location": "Kampung Dato Keramat (Gancong)",
        "Post_Office": "Pekan",
        "State": "Pahang"
    },
    {
        "Postcode": "26630",
        "Location": "Kampung Ganchong",
        "Post_Office": "Pekan",
        "State": "Pahang"
    },
    {
        "Postcode": "26630",
        "Location": "Kampung Ganchong Tengah",
        "Post_Office": "Pekan",
        "State": "Pahang"
    },
    {
        "Postcode": "26630",
        "Location": "Kampung Ganchong Ulu",
        "Post_Office": "Pekan",
        "State": "Pahang"
    },
    {
        "Postcode": "26630",
        "Location": "Kampung Gancong Tengah",
        "Post_Office": "Pekan",
        "State": "Pahang"
    },
    {
        "Postcode": "26630",
        "Location": "Kampung Kiambang",
        "Post_Office": "Pekan",
        "State": "Pahang"
    },
    {
        "Postcode": "26630",
        "Location": "Kampung Kiambang Gancong",
        "Post_Office": "Pekan",
        "State": "Pahang"
    },
    {
        "Postcode": "26630",
        "Location": "Kampung Permatang Sileh",
        "Post_Office": "Pekan",
        "State": "Pahang"
    },
    {
        "Postcode": "26630",
        "Location": "Kampung Pulau Rusa",
        "Post_Office": "Pekan",
        "State": "Pahang"
    },
    {
        "Postcode": "26630",
        "Location": "Kampung Sawah",
        "Post_Office": "Pekan",
        "State": "Pahang"
    },
    {
        "Postcode": "26630",
        "Location": "Kampung Tanjong Rengas",
        "Post_Office": "Pekan",
        "State": "Pahang"
    },
    {
        "Postcode": "26630",
        "Location": "Kampung Telok Hilir",
        "Post_Office": "Pekan",
        "State": "Pahang"
    },
    {
        "Postcode": "26630",
        "Location": "Permatang Lanjut",
        "Post_Office": "Pekan",
        "State": "Pahang"
    },
    {
        "Postcode": "26630",
        "Location": "Pulau Manis",
        "Post_Office": "Pekan",
        "State": "Pahang"
    },
    {
        "Postcode": "26630",
        "Location": "Pulau Rusa",
        "Post_Office": "Pekan",
        "State": "Pahang"
    },
    {
        "Postcode": "26630",
        "Location": "Tanjong Batu Gancong",
        "Post_Office": "Pekan",
        "State": "Pahang"
    },
    {
        "Postcode": "26630",
        "Location": "Kampung Tanjong Batu",
        "Post_Office": "Pekan",
        "State": "Pahang"
    },
    {
        "Postcode": "26630",
        "Location": "Kampung Telok",
        "Post_Office": "Pekan",
        "State": "Pahang"
    }
]
