[
    {
        "Postcode": "26640",
        "Location": "Ganchong (Temai)",
        "Post_Office": "Pekan",
        "State": "Pahang"
    },
    {
        "Postcode": "26640",
        "Location": "Kampung Acheh",
        "Post_Office": "Pekan",
        "State": "Pahang"
    },
    {
        "Postcode": "26640",
        "Location": "Kampung Jarau",
        "Post_Office": "Pekan",
        "State": "Pahang"
    },
    {
        "Postcode": "26640",
        "Location": "Kampung Padang Rumbia",
        "Post_Office": "Pekan",
        "State": "Pahang"
    },
    {
        "Postcode": "26640",
        "Location": "Kampung Permatang Siput",
        "Post_Office": "Pekan",
        "State": "Pahang"
    },
    {
        "Postcode": "26640",
        "Location": "Kampung Pulau Manis",
        "Post_Office": "Pekan",
        "State": "Pahang"
    },
    {
        "Postcode": "26640",
        "Location": "Kampung Pulau Rumput",
        "Post_Office": "Pekan",
        "State": "Pahang"
    },
    {
        "Postcode": "26640",
        "Location": "Kampung Riti",
        "Post_Office": "Pekan",
        "State": "Pahang"
    },
    {
        "Postcode": "26640",
        "Location": "Kampung Tanjong Penyengat",
        "Post_Office": "Pekan",
        "State": "Pahang"
    },
    {
        "Postcode": "26640",
        "Location": "Kampung Temai",
        "Post_Office": "Pekan",
        "State": "Pahang"
    },
    {
        "Postcode": "26640",
        "Location": "Kampung Temai Hilir",
        "Post_Office": "Pekan",
        "State": "Pahang"
    },
    {
        "Postcode": "26640",
        "Location": "Kampung Temai Hulu",
        "Post_Office": "Pekan",
        "State": "Pahang"
    },
    {
        "Postcode": "26640",
        "Location": "Kampung Temai Tengah",
        "Post_Office": "Pekan",
        "State": "Pahang"
    },
    {
        "Postcode": "26640",
        "Location": "Sungai Ganchong (Batu 10)",
        "Post_Office": "Pekan",
        "State": "Pahang"
    }
]
