[
    {
        "Postcode": "26650",
        "Location": "Ayer Hitam",
        "Post_Office": "Pekan",
        "State": "Pahang"
    },
    {
        "Postcode": "26650",
        "Location": "Benut",
        "Post_Office": "Pekan",
        "State": "Pahang"
    },
    {
        "Postcode": "26650",
        "Location": "Kampung Batu Balik",
        "Post_Office": "Pekan",
        "State": "Pahang"
    },
    {
        "Postcode": "26650",
        "Location": "Kampung Bunut",
        "Post_Office": "Pekan",
        "State": "Pahang"
    },
    {
        "Postcode": "26650",
        "Location": "Kampung Kuala Lepar",
        "Post_Office": "Pekan",
        "State": "Pahang"
    },
    {
        "Postcode": "26650",
        "Location": "Kampung Mambang",
        "Post_Office": "Pekan",
        "State": "Pahang"
    },
    {
        "Postcode": "26650",
        "Location": "Kampung Melayu Sungai Duri",
        "Post_Office": "Pekan",
        "State": "Pahang"
    },
    {
        "Postcode": "26650",
        "Location": "Kampung Serambi",
        "Post_Office": "Pekan",
        "State": "Pahang"
    },
    {
        "Postcode": "26650",
        "Location": "Kampung Sungai Duri",
        "Post_Office": "Pekan",
        "State": "Pahang"
    },
    {
        "Postcode": "26650",
        "Location": "Kampung Tanjong Paloh Hinai",
        "Post_Office": "Pekan",
        "State": "Pahang"
    },
    {
        "Postcode": "26650",
        "Location": "Kampung Tebat",
        "Post_Office": "Pekan",
        "State": "Pahang"
    },
    {
        "Postcode": "26650",
        "Location": "Kuala Lepar",
        "Post_Office": "Pekan",
        "State": "Pahang"
    },
    {
        "Postcode": "26650",
        "Location": "Kuala Mentega",
        "Post_Office": "Pekan",
        "State": "Pahang"
    },
    {
        "Postcode": "26650",
        "Location": "Mencapu",
        "Post_Office": "Pekan",
        "State": "Pahang"
    },
    {
        "Postcode": "26650",
        "Location": "Paloh Hinai",
        "Post_Office": "Pekan",
        "State": "Pahang"
    },
    {
        "Postcode": "26650",
        "Location": "Paloh Hinai Bandar 2",
        "Post_Office": "Pekan",
        "State": "Pahang"
    },
    {
        "Postcode": "26650",
        "Location": "Pelak",
        "Post_Office": "Pekan",
        "State": "Pahang"
    },
    {
        "Postcode": "26650",
        "Location": "Batu Sawar",
        "Post_Office": "Pekan",
        "State": "Pahang"
    },
    {
        "Postcode": "26650",
        "Location": "Kampung Terlang",
        "Post_Office": "Pekan",
        "State": "Pahang"
    },
    {
        "Postcode": "26650",
        "Location": "Kampung Tanjong Pulai",
        "Post_Office": "Pekan",
        "State": "Pahang"
    }
]
