[
    {
        "Postcode": "26660",
        "Location": "Jalan Masjid Abdullah",
        "Post_Office": "Pekan",
        "State": "Pahang"
    },
    {
        "Postcode": "26660",
        "Location": "Kampung Pantai",
        "Post_Office": "Pekan",
        "State": "Pahang"
    },
    {
        "Postcode": "26660",
        "Location": "Kampung Air Leleh",
        "Post_Office": "Pekan",
        "State": "Pahang"
    },
    {
        "Postcode": "26660",
        "Location": "Kampung Baru Kuala Pahang",
        "Post_Office": "Pekan",
        "State": "Pahang"
    },
    {
        "Postcode": "26660",
        "Location": "Kampung Bentam",
        "Post_Office": "Pekan",
        "State": "Pahang"
    },
    {
        "Postcode": "26660",
        "Location": "Kampung Bentan",
        "Post_Office": "Pekan",
        "State": "Pahang"
    },
    {
        "Postcode": "26660",
        "Location": "Kampung Beruas",
        "Post_Office": "Pekan",
        "State": "Pahang"
    },
    {
        "Postcode": "26660",
        "Location": "Kampung Beruas Darat Sam",
        "Post_Office": "Pekan",
        "State": "Pahang"
    },
    {
        "Postcode": "26660",
        "Location": "Kampung Contoh Kuala Pahang",
        "Post_Office": "Pekan",
        "State": "Pahang"
    },
    {
        "Postcode": "26660",
        "Location": "Kampung Darat Serandu",
        "Post_Office": "Pekan",
        "State": "Pahang"
    },
    {
        "Postcode": "26660",
        "Location": "Kampung Jalan Tegak",
        "Post_Office": "Pekan",
        "State": "Pahang"
    },
    {
        "Postcode": "26660",
        "Location": "Kampung Makam",
        "Post_Office": "Pekan",
        "State": "Pahang"
    },
    {
        "Postcode": "26660",
        "Location": "Kampung Marhum",
        "Post_Office": "Pekan",
        "State": "Pahang"
    },
    {
        "Postcode": "26660",
        "Location": "Kampung Nyor Manis",
        "Post_Office": "Pekan",
        "State": "Pahang"
    },
    {
        "Postcode": "26660",
        "Location": "Kampung Permatang Nangka",
        "Post_Office": "Pekan",
        "State": "Pahang"
    },
    {
        "Postcode": "26660",
        "Location": "Kampung Serandu",
        "Post_Office": "Pekan",
        "State": "Pahang"
    },
    {
        "Postcode": "26660",
        "Location": "Kampung Serandu Pantai",
        "Post_Office": "Pekan",
        "State": "Pahang"
    },
    {
        "Postcode": "26660",
        "Location": "Kampung Siong",
        "Post_Office": "Pekan",
        "State": "Pahang"
    },
    {
        "Postcode": "26660",
        "Location": "Kampung Tanjong Selangor",
        "Post_Office": "Pekan",
        "State": "Pahang"
    },
    {
        "Postcode": "26660",
        "Location": "Kuala Pahang",
        "Post_Office": "Pekan",
        "State": "Pahang"
    },
    {
        "Postcode": "26660",
        "Location": "Permatang Arang",
        "Post_Office": "Pekan",
        "State": "Pahang"
    },
    {
        "Postcode": "26660",
        "Location": "Serambi",
        "Post_Office": "Pekan",
        "State": "Pahang"
    },
    {
        "Postcode": "26660",
        "Location": "Taman Perumahan Mawar",
        "Post_Office": "Pekan",
        "State": "Pahang"
    },
    {
        "Postcode": "26660",
        "Location": "Taman Rrm (Kuala Pahang)",
        "Post_Office": "Pekan",
        "State": "Pahang"
    }
]
