[
    {
        "Postcode": "26680",
        "Location": "Kampung Beluru",
        "Post_Office": "Pekan",
        "State": "Pahang"
    },
    {
        "Postcode": "26680",
        "Location": "Kampung Block",
        "Post_Office": "Pekan",
        "State": "Pahang"
    },
    {
        "Postcode": "26680",
        "Location": "Kampung Bok Udang",
        "Post_Office": "Pekan",
        "State": "Pahang"
    },
    {
        "Postcode": "26680",
        "Location": "Kampung Che Limah",
        "Post_Office": "Pekan",
        "State": "Pahang"
    },
    {
        "Postcode": "26680",
        "Location": "Kampung Kajang",
        "Post_Office": "Pekan",
        "State": "Pahang"
    },
    {
        "Postcode": "26680",
        "Location": "Kampung Melanda",
        "Post_Office": "Pekan",
        "State": "Pahang"
    },
    {
        "Postcode": "26680",
        "Location": "Kampung Merchong",
        "Post_Office": "Pekan",
        "State": "Pahang"
    },
    {
        "Postcode": "26680",
        "Location": "Kampung Nenasi",
        "Post_Office": "Pekan",
        "State": "Pahang"
    },
    {
        "Postcode": "26680",
        "Location": "Kampung Pa'At",
        "Post_Office": "Pekan",
        "State": "Pahang"
    },
    {
        "Postcode": "26680",
        "Location": "Kampung Palas",
        "Post_Office": "Pekan",
        "State": "Pahang"
    },
    {
        "Postcode": "26680",
        "Location": "Kampung Permatang Tengeling",
        "Post_Office": "Pekan",
        "State": "Pahang"
    },
    {
        "Postcode": "26680",
        "Location": "Kampung Riong",
        "Post_Office": "Pekan",
        "State": "Pahang"
    },
    {
        "Postcode": "26680",
        "Location": "Kampung Sepour",
        "Post_Office": "Pekan",
        "State": "Pahang"
    },
    {
        "Postcode": "26680",
        "Location": "Kampung Serun",
        "Post_Office": "Pekan",
        "State": "Pahang"
    },
    {
        "Postcode": "26680",
        "Location": "Kampung Singir",
        "Post_Office": "Pekan",
        "State": "Pahang"
    },
    {
        "Postcode": "26680",
        "Location": "Kampung Tanjong Nenasi",
        "Post_Office": "Pekan",
        "State": "Pahang"
    },
    {
        "Postcode": "26680",
        "Location": "Kampung Tanjung Batu Nenasi",
        "Post_Office": "Pekan",
        "State": "Pahang"
    },
    {
        "Postcode": "26680",
        "Location": "Kampung Tepong",
        "Post_Office": "Pekan",
        "State": "Pahang"
    },
    {
        "Postcode": "26680",
        "Location": "Kampung Teriang",
        "Post_Office": "Pekan",
        "State": "Pahang"
    },
    {
        "Postcode": "26680",
        "Location": "Kubang Sega",
        "Post_Office": "Pekan",
        "State": "Pahang"
    },
    {
        "Postcode": "26680",
        "Location": "Nenasi",
        "Post_Office": "Pekan",
        "State": "Pahang"
    },
    {
        "Postcode": "26680",
        "Location": "Permatang Kelempang",
        "Post_Office": "Pekan",
        "State": "Pahang"
    },
    {
        "Postcode": "26680",
        "Location": "Permatang Tebing Tinggi",
        "Post_Office": "Pekan",
        "State": "Pahang"
    },
    {
        "Postcode": "26680",
        "Location": "Kampung Badong",
        "Post_Office": "Pekan",
        "State": "Pahang"
    },
    {
        "Postcode": "26680",
        "Location": "Kampung Jambu",
        "Post_Office": "Pekan",
        "State": "Pahang"
    },
    {
        "Postcode": "26680",
        "Location": "Kampung Pandan",
        "Post_Office": "Pekan",
        "State": "Pahang"
    },
    {
        "Postcode": "26680",
        "Location": "Kampung Tengah",
        "Post_Office": "Pekan",
        "State": "Pahang"
    }
]
