[
    {
        "Postcode": "26690",
        "Location": "Bandar 1",
        "Post_Office": "Chini",
        "State": "Pahang"
    },
    {
        "Postcode": "26690",
        "Location": "Bandar Chini",
        "Post_Office": "Chini",
        "State": "Pahang"
    },
    {
        "Postcode": "26690",
        "Location": "Chini",
        "Post_Office": "Chini",
        "State": "Pahang"
    },
    {
        "Postcode": "26690",
        "Location": "Tanjung Batu",
        "Post_Office": "Chini",
        "State": "Pahang"
    },
    {
        "Postcode": "26690",
        "Location": "Felda Chini 2",
        "Post_Office": "Chini",
        "State": "Pahang"
    },
    {
        "Postcode": "26690",
        "Location": "Felda Chini 3",
        "Post_Office": "Chini",
        "State": "Pahang"
    },
    {
        "Postcode": "26690",
        "Location": "Felda Chini 5",
        "Post_Office": "Chini",
        "State": "Pahang"
    },
    {
        "Postcode": "26690",
        "Location": "Felda Chini Timor 2",
        "Post_Office": "Chini",
        "State": "Pahang"
    },
    {
        "Postcode": "26690",
        "Location": "Felda Chini Timor 3",
        "Post_Office": "Chini",
        "State": "Pahang"
    }
]
