[
    {
        "Postcode": "26700",
        "Location": "Bandar 14 Kota Bahagia",
        "Post_Office": "Muadzam Shah",
        "State": "Pahang"
    },
    {
        "Postcode": "26700",
        "Location": "Bandar 19",
        "Post_Office": "Muadzam Shah",
        "State": "Pahang"
    },
    {
        "Postcode": "26700",
        "Location": "Bandar 22",
        "Post_Office": "Muadzam Shah",
        "State": "Pahang"
    },
    {
        "Postcode": "26700",
        "Location": "Bandar 8 (Kota Perdana)",
        "Post_Office": "Muadzam Shah",
        "State": "Pahang"
    },
    {
        "Postcode": "26700",
        "Location": "Bandar Muadzam Shah",
        "Post_Office": "Muadzam Shah",
        "State": "Pahang"
    },
    {
        "Postcode": "26700",
        "Location": "Bukit Ibam",
        "Post_Office": "Muadzam Shah",
        "State": "Pahang"
    },
    {
        "Postcode": "26700",
        "Location": "Chenderawaseh",
        "Post_Office": "Muadzam Shah",
        "State": "Pahang"
    },
    {
        "Postcode": "26700",
        "Location": "Chini Timur",
        "Post_Office": "Muadzam Shah",
        "State": "Pahang"
    },
    {
        "Postcode": "26700",
        "Location": "Desa Anggerik",
        "Post_Office": "Muadzam Shah",
        "State": "Pahang"
    },
    {
        "Postcode": "26700",
        "Location": "Desa Bidara",
        "Post_Office": "Muadzam Shah",
        "State": "Pahang"
    },
    {
        "Postcode": "26700",
        "Location": "Desa Chempaka",
        "Post_Office": "Muadzam Shah",
        "State": "Pahang"
    },
    {
        "Postcode": "26700",
        "Location": "Desa Dahlia",
        "Post_Office": "Muadzam Shah",
        "State": "Pahang"
    },
    {
        "Postcode": "26700",
        "Location": "Desa Keranji",
        "Post_Office": "Muadzam Shah",
        "State": "Pahang"
    },
    {
        "Postcode": "26700",
        "Location": "Desa Mawar",
        "Post_Office": "Muadzam Shah",
        "State": "Pahang"
    },
    {
        "Postcode": "26700",
        "Location": "Desa Mawar 2",
        "Post_Office": "Muadzam Shah",
        "State": "Pahang"
    },
    {
        "Postcode": "26700",
        "Location": "Desa Melor",
        "Post_Office": "Muadzam Shah",
        "State": "Pahang"
    },
    {
        "Postcode": "26700",
        "Location": "Desa Tanjung",
        "Post_Office": "Muadzam Shah",
        "State": "Pahang"
    },
    {
        "Postcode": "26700",
        "Location": "Kampung Aur",
        "Post_Office": "Muadzam Shah",
        "State": "Pahang"
    },
    {
        "Postcode": "26700",
        "Location": "Kampung Meripoh",
        "Post_Office": "Muadzam Shah",
        "State": "Pahang"
    },
    {
        "Postcode": "26700",
        "Location": "Kawasan Industri Bms",
        "Post_Office": "Muadzam Shah",
        "State": "Pahang"
    },
    {
        "Postcode": "26700",
        "Location": "Kawasan Kilang Bukit Ibam",
        "Post_Office": "Muadzam Shah",
        "State": "Pahang"
    },
    {
        "Postcode": "26700",
        "Location": "Kota Perdana",
        "Post_Office": "Muadzam Shah",
        "State": "Pahang"
    },
    {
        "Postcode": "26700",
        "Location": "Muadzam Shah",
        "Post_Office": "Muadzam Shah",
        "State": "Pahang"
    },
    {
        "Postcode": "26700",
        "Location": "Pinggir Gelanggi",
        "Post_Office": "Muadzam Shah",
        "State": "Pahang"
    },
    {
        "Postcode": "26700",
        "Location": "Sekolah Kebangsaan Muadzam Jaya",
        "Post_Office": "Muadzam Shah",
        "State": "Pahang"
    },
    {
        "Postcode": "26700",
        "Location": "Sekolah Kebangsaan Muadzam Shah",
        "Post_Office": "Muadzam Shah",
        "State": "Pahang"
    },
    {
        "Postcode": "26700",
        "Location": "Sekolah Menengah Muadzam Jaya",
        "Post_Office": "Muadzam Shah",
        "State": "Pahang"
    },
    {
        "Postcode": "26700",
        "Location": "Sekolah Menengah Muadzam Shah",
        "Post_Office": "Muadzam Shah",
        "State": "Pahang"
    },
    {
        "Postcode": "26700",
        "Location": "Selancar Dua",
        "Post_Office": "Muadzam Shah",
        "State": "Pahang"
    },
    {
        "Postcode": "26700",
        "Location": "Taman Uniten",
        "Post_Office": "Muadzam Shah",
        "State": "Pahang"
    },
    {
        "Postcode": "26700",
        "Location": "Kampung Bukit Serok",
        "Post_Office": "Muadzam Shah",
        "State": "Pahang"
    },
    {
        "Postcode": "26700",
        "Location": "Kampung Lubok Batu",
        "Post_Office": "Muadzam Shah",
        "State": "Pahang"
    },
    {
        "Postcode": "26700",
        "Location": "Kampung Alai",
        "Post_Office": "Muadzam Shah",
        "State": "Pahang"
    },
    {
        "Postcode": "26700",
        "Location": "Desa Teratai",
        "Post_Office": "Muadzam Shah",
        "State": "Pahang"
    },
    {
        "Postcode": "26700",
        "Location": "Desa Jati 1",
        "Post_Office": "Muadzam Shah",
        "State": "Pahang"
    },
    {
        "Postcode": "26700",
        "Location": "Desa Jati 2",
        "Post_Office": "Muadzam Shah",
        "State": "Pahang"
    },
    {
        "Postcode": "26700",
        "Location": "Felda Selancar 1",
        "Post_Office": "Muadzam Shah",
        "State": "Pahang"
    },
    {
        "Postcode": "26700",
        "Location": "Felda Selancar 2",
        "Post_Office": "Muadzam Shah",
        "State": "Pahang"
    },
    {
        "Postcode": "26700",
        "Location": "Felda Selancar 3",
        "Post_Office": "Muadzam Shah",
        "State": "Pahang"
    },
    {
        "Postcode": "26700",
        "Location": "Felda Selancar 4",
        "Post_Office": "Muadzam Shah",
        "State": "Pahang"
    },
    {
        "Postcode": "26700",
        "Location": "Felda Selancar 5",
        "Post_Office": "Muadzam Shah",
        "State": "Pahang"
    },
    {
        "Postcode": "26700",
        "Location": "Felda Keratong 10",
        "Post_Office": "Bandar Tun Abdul Razak",
        "State": "Pahang"
    },
    {
        "Postcode": "26700",
        "Location": "Felda Keratong 6",
        "Post_Office": "Bandar Tun Abdul Razak",
        "State": "Pahang"
    },
    {
        "Postcode": "26700",
        "Location": "Felda Keratong 7",
        "Post_Office": "Bandar Tun Abdul Razak",
        "State": "Pahang"
    },
    {
        "Postcode": "26700",
        "Location": "Felda Keratong 8",
        "Post_Office": "Bandar Tun Abdul Razak",
        "State": "Pahang"
    },
    {
        "Postcode": "26700",
        "Location": "Felda Keratong 9",
        "Post_Office": "Bandar Tun Abdul Razak",
        "State": "Pahang"
    }
]
