[
    {
        "Postcode": "26800",
        "Location": "Bandar Baru",
        "Post_Office": "Kuala Rompin",
        "State": "Pahang"
    },
    {
        "Postcode": "26800",
        "Location": "Kampung Pantai Bruas",
        "Post_Office": "Kuala Rompin",
        "State": "Pahang"
    },
    {
        "Postcode": "26800",
        "Location": "Kampung Pantai Hiburan",
        "Post_Office": "Kuala Rompin",
        "State": "Pahang"
    },
    {
        "Postcode": "26800",
        "Location": "Kampung Parit",
        "Post_Office": "Kuala Rompin",
        "State": "Pahang"
    },
    {
        "Postcode": "26800",
        "Location": "Kampung Parit Raja",
        "Post_Office": "Kuala Rompin",
        "State": "Pahang"
    },
    {
        "Postcode": "26800",
        "Location": "Kampung Pulau Lang",
        "Post_Office": "Kuala Rompin",
        "State": "Pahang"
    },
    {
        "Postcode": "26800",
        "Location": "Kampung Sempayang",
        "Post_Office": "Kuala Rompin",
        "State": "Pahang"
    },
    {
        "Postcode": "26800",
        "Location": "Kampung Sepakat",
        "Post_Office": "Kuala Rompin",
        "State": "Pahang"
    },
    {
        "Postcode": "26800",
        "Location": "Kampung Sungai Putri",
        "Post_Office": "Kuala Rompin",
        "State": "Pahang"
    },
    {
        "Postcode": "26800",
        "Location": "Kampung Tanjong Tengku",
        "Post_Office": "Kuala Rompin",
        "State": "Pahang"
    },
    {
        "Postcode": "26800",
        "Location": "Kuala Pontian",
        "Post_Office": "Kuala Rompin",
        "State": "Pahang"
    },
    {
        "Postcode": "26800",
        "Location": "Kuala Rompin",
        "Post_Office": "Kuala Rompin",
        "State": "Pahang"
    },
    {
        "Postcode": "26800",
        "Location": "Pulau Lang Kanan",
        "Post_Office": "Kuala Rompin",
        "State": "Pahang"
    },
    {
        "Postcode": "26800",
        "Location": "Pulau Lang Kiri",
        "Post_Office": "Kuala Rompin",
        "State": "Pahang"
    },
    {
        "Postcode": "26800",
        "Location": "Kampung Pantai",
        "Post_Office": "Kuala Rompin",
        "State": "Pahang"
    },
    {
        "Postcode": "26800",
        "Location": "Kampung Bahagia",
        "Post_Office": "Kuala Rompin",
        "State": "Pahang"
    },
    {
        "Postcode": "26800",
        "Location": "Kampung Tengah",
        "Post_Office": "Kuala Rompin",
        "State": "Pahang"
    }
]
