[
    {
        "Postcode": "26810",
        "Location": "Kampung Api Larat",
        "Post_Office": "Kuala Rompin",
        "State": "Pahang"
    },
    {
        "Postcode": "26810",
        "Location": "Kampung Ayau",
        "Post_Office": "Kuala Rompin",
        "State": "Pahang"
    },
    {
        "Postcode": "26810",
        "Location": "Kampung Bangkang",
        "Post_Office": "Kuala Rompin",
        "State": "Pahang"
    },
    {
        "Postcode": "26810",
        "Location": "Kampung Bukit Payong",
        "Post_Office": "Kuala Rompin",
        "State": "Pahang"
    },
    {
        "Postcode": "26810",
        "Location": "Kampung Feri",
        "Post_Office": "Kuala Rompin",
        "State": "Pahang"
    },
    {
        "Postcode": "26810",
        "Location": "Kampung Feri Sabak",
        "Post_Office": "Kuala Rompin",
        "State": "Pahang"
    },
    {
        "Postcode": "26810",
        "Location": "Kampung Lanjut",
        "Post_Office": "Kuala Rompin",
        "State": "Pahang"
    },
    {
        "Postcode": "26810",
        "Location": "Kampung Leban Chondong",
        "Post_Office": "Kuala Rompin",
        "State": "Pahang"
    },
    {
        "Postcode": "26810",
        "Location": "Kampung Pantai Bernas",
        "Post_Office": "Kuala Rompin",
        "State": "Pahang"
    },
    {
        "Postcode": "26810",
        "Location": "Simpang Sepayang",
        "Post_Office": "Kuala Rompin",
        "State": "Pahang"
    },
    {
        "Postcode": "26810",
        "Location": "Kampung Gading",
        "Post_Office": "Kuala Rompin",
        "State": "Pahang"
    },
    {
        "Postcode": "26810",
        "Location": "Kampung Rantau Panjang",
        "Post_Office": "Kuala Rompin",
        "State": "Pahang"
    }
]
