[
    {
        "Postcode": "26820",
        "Location": "Kampung Batu 7 (Tanjung Gemok)",
        "Post_Office": "Kuala Rompin",
        "State": "Pahang"
    },
    {
        "Postcode": "26820",
        "Location": "Kampung Janglau",
        "Post_Office": "Kuala Rompin",
        "State": "Pahang"
    },
    {
        "Postcode": "26820",
        "Location": "Kampung Jawa",
        "Post_Office": "Kuala Rompin",
        "State": "Pahang"
    },
    {
        "Postcode": "26820",
        "Location": "Kampung Kasing",
        "Post_Office": "Kuala Rompin",
        "State": "Pahang"
    },
    {
        "Postcode": "26820",
        "Location": "Kampung Lantang",
        "Post_Office": "Kuala Rompin",
        "State": "Pahang"
    },
    {
        "Postcode": "26820",
        "Location": "Kampung Lubok Gumbang",
        "Post_Office": "Kuala Rompin",
        "State": "Pahang"
    },
    {
        "Postcode": "26820",
        "Location": "Kampung Menchali",
        "Post_Office": "Kuala Rompin",
        "State": "Pahang"
    },
    {
        "Postcode": "26820",
        "Location": "Kampung Mentara",
        "Post_Office": "Kuala Rompin",
        "State": "Pahang"
    },
    {
        "Postcode": "26820",
        "Location": "Kampung Permatang Gorek",
        "Post_Office": "Kuala Rompin",
        "State": "Pahang"
    },
    {
        "Postcode": "26820",
        "Location": "Kampung Pianggu",
        "Post_Office": "Kuala Rompin",
        "State": "Pahang"
    },
    {
        "Postcode": "26820",
        "Location": "Kampung Sarang Tiong",
        "Post_Office": "Kuala Rompin",
        "State": "Pahang"
    },
    {
        "Postcode": "26820",
        "Location": "Kampung Serinkin",
        "Post_Office": "Kuala Rompin",
        "State": "Pahang"
    },
    {
        "Postcode": "26820",
        "Location": "Kampung Setajam",
        "Post_Office": "Kuala Rompin",
        "State": "Pahang"
    },
    {
        "Postcode": "26820",
        "Location": "Kampung Setambang",
        "Post_Office": "Kuala Rompin",
        "State": "Pahang"
    },
    {
        "Postcode": "26820",
        "Location": "Kampung Tambang",
        "Post_Office": "Kuala Rompin",
        "State": "Pahang"
    },
    {
        "Postcode": "26820",
        "Location": "Kampung Tanjong Gemok",
        "Post_Office": "Kuala Rompin",
        "State": "Pahang"
    },
    {
        "Postcode": "26820",
        "Location": "Kampung Tanjong Pahang",
        "Post_Office": "Kuala Rompin",
        "State": "Pahang"
    },
    {
        "Postcode": "26820",
        "Location": "Kampung Tengah (Tanjung Gemok)",
        "Post_Office": "Kuala Rompin",
        "State": "Pahang"
    },
    {
        "Postcode": "26820",
        "Location": "Leban Chondong",
        "Post_Office": "Kuala Rompin",
        "State": "Pahang"
    },
    {
        "Postcode": "26820",
        "Location": "Selanchar Darat",
        "Post_Office": "Kuala Rompin",
        "State": "Pahang"
    },
    {
        "Postcode": "26820",
        "Location": "Selanchar Laut",
        "Post_Office": "Kuala Rompin",
        "State": "Pahang"
    },
    {
        "Postcode": "26820",
        "Location": "Tanjung Gemok",
        "Post_Office": "Kuala Rompin",
        "State": "Pahang"
    },
    {
        "Postcode": "26820",
        "Location": "Kampung Orang Asli",
        "Post_Office": "Kuala Rompin",
        "State": "Pahang"
    }
]
