[
    {
        "Postcode": "26900",
        "Location": "Bandar 14 (Kota Bahagia)",
        "Post_Office": "Bandar Tun Abdul Razak",
        "State": "Pahang"
    },
    {
        "Postcode": "26900",
        "Location": "Bandar Tun Abdul Razak",
        "Post_Office": "Bandar Tun Abdul Razak",
        "State": "Pahang"
    },
    {
        "Postcode": "26900",
        "Location": "Kampung Maripoh",
        "Post_Office": "Bandar Tun Abdul Razak",
        "State": "Pahang"
    },
    {
        "Postcode": "26900",
        "Location": "Kampung Bukit Serok",
        "Post_Office": "Bandar Tun Abdul Razak",
        "State": "Pahang"
    },
    {
        "Postcode": "26900",
        "Location": "Kampung Lubok Batu",
        "Post_Office": "Bandar Tun Abdul Razak",
        "State": "Pahang"
    },
    {
        "Postcode": "26900",
        "Location": "Kampung Alai",
        "Post_Office": "Bandar Tun Abdul Razak",
        "State": "Pahang"
    },
    {
        "Postcode": "26900",
        "Location": "Felda Keratong 1",
        "Post_Office": "Bandar Tun Abdul Razak",
        "State": "Pahang"
    },
    {
        "Postcode": "26900",
        "Location": "Felda Keratong 2",
        "Post_Office": "Bandar Tun Abdul Razak",
        "State": "Pahang"
    },
    {
        "Postcode": "26900",
        "Location": "Felda Keratong 3",
        "Post_Office": "Bandar Tun Abdul Razak",
        "State": "Pahang"
    },
    {
        "Postcode": "26900",
        "Location": "Felda Keratong 4",
        "Post_Office": "Bandar Tun Abdul Razak",
        "State": "Pahang"
    },
    {
        "Postcode": "26900",
        "Location": "Felda Keratong 5",
        "Post_Office": "Bandar Tun Abdul Razak",
        "State": "Pahang"
    }
]
