[
    {
        "Postcode": "18000",
        "Location": "Banggol Yek",
        "Post_Office": "Kuala Krai",
        "State": "Kelantan"
    },
    {
        "Postcode": "18000",
        "Location": "Batu Jong",
        "Post_Office": "Kuala Krai",
        "State": "Kelantan"
    },
    {
        "Postcode": "18000",
        "Location": "Batu Mengkebang",
        "Post_Office": "Kuala Krai",
        "State": "Kelantan"
    },
    {
        "Postcode": "18000",
        "Location": "Cabang 3 Manik Urai Lama",
        "Post_Office": "Kuala Krai",
        "State": "Kelantan"
    },
    {
        "Postcode": "18000",
        "Location": "Cucuh Puteri `B'",
        "Post_Office": "Kuala Krai",
        "State": "Kelantan"
    },
    {
        "Postcode": "18000",
        "Location": "Guchil",
        "Post_Office": "Kuala Krai",
        "State": "Kelantan"
    },
    {
        "Postcode": "18000",
        "Location": "Kampomg Bukit Langsat",
        "Post_Office": "Kuala Krai",
        "State": "Kelantan"
    },
    {
        "Postcode": "18000",
        "Location": "Kampung Baru Pahi",
        "Post_Office": "Kuala Krai",
        "State": "Kelantan"
    },
    {
        "Postcode": "18000",
        "Location": "Kampung Baru Sungai Durian",
        "Post_Office": "Kuala Krai",
        "State": "Kelantan"
    },
    {
        "Postcode": "18000",
        "Location": "Kampung Batu Balai",
        "Post_Office": "Kuala Krai",
        "State": "Kelantan"
    },
    {
        "Postcode": "18000",
        "Location": "Kampung Batu Jong",
        "Post_Office": "Kuala Krai",
        "State": "Kelantan"
    },
    {
        "Postcode": "18000",
        "Location": "Kampung Batu Lada",
        "Post_Office": "Kuala Krai",
        "State": "Kelantan"
    },
    {
        "Postcode": "18000",
        "Location": "Kampung Batuan",
        "Post_Office": "Kuala Krai",
        "State": "Kelantan"
    },
    {
        "Postcode": "18000",
        "Location": "Kampung Becah Pulau",
        "Post_Office": "Kuala Krai",
        "State": "Kelantan"
    },
    {
        "Postcode": "18000",
        "Location": "Kampung Bechah Salak",
        "Post_Office": "Kuala Krai",
        "State": "Kelantan"
    },
    {
        "Postcode": "18000",
        "Location": "Kampung Bedal",
        "Post_Office": "Kuala Krai",
        "State": "Kelantan"
    },
    {
        "Postcode": "18000",
        "Location": "Kampung Bekok",
        "Post_Office": "Kuala Krai",
        "State": "Kelantan"
    },
    {
        "Postcode": "18000",
        "Location": "Kampung Belanga",
        "Post_Office": "Kuala Krai",
        "State": "Kelantan"
    },
    {
        "Postcode": "18000",
        "Location": "Kampung Belukar Tebu",
        "Post_Office": "Kuala Krai",
        "State": "Kelantan"
    },
    {
        "Postcode": "18000",
        "Location": "Kampung Bukit Bintang",
        "Post_Office": "Kuala Krai",
        "State": "Kelantan"
    },
    {
        "Postcode": "18000",
        "Location": "Kampung Bukit Che Si",
        "Post_Office": "Kuala Krai",
        "State": "Kelantan"
    },
    {
        "Postcode": "18000",
        "Location": "Kampung Bukit Chengal",
        "Post_Office": "Kuala Krai",
        "State": "Kelantan"
    },
    {
        "Postcode": "18000",
        "Location": "Kampung Bukit Garam",
        "Post_Office": "Kuala Krai",
        "State": "Kelantan"
    },
    {
        "Postcode": "18000",
        "Location": "Kampung Bukit Pagar",
        "Post_Office": "Kuala Krai",
        "State": "Kelantan"
    },
    {
        "Postcode": "18000",
        "Location": "Kampung Bukit Sabah",
        "Post_Office": "Kuala Krai",
        "State": "Kelantan"
    },
    {
        "Postcode": "18000",
        "Location": "Kampung Bukit Sireh",
        "Post_Office": "Kuala Krai",
        "State": "Kelantan"
    },
    {
        "Postcode": "18000",
        "Location": "Kampung Buyung",
        "Post_Office": "Kuala Krai",
        "State": "Kelantan"
    },
    {
        "Postcode": "18000",
        "Location": "Kampung Cenis",
        "Post_Office": "Kuala Krai",
        "State": "Kelantan"
    },
    {
        "Postcode": "18000",
        "Location": "Kampung Chabang Empat Manjor",
        "Post_Office": "Kuala Krai",
        "State": "Kelantan"
    },
    {
        "Postcode": "18000",
        "Location": "Kampung Chabang Tiga Batu Jong",
        "Post_Office": "Kuala Krai",
        "State": "Kelantan"
    },
    {
        "Postcode": "18000",
        "Location": "Kampung Chabang Tiga Bukit Sireh",
        "Post_Office": "Kuala Krai",
        "State": "Kelantan"
    },
    {
        "Postcode": "18000",
        "Location": "Kampung Chabang Tiga Sungai So",
        "Post_Office": "Kuala Krai",
        "State": "Kelantan"
    },
    {
        "Postcode": "18000",
        "Location": "Kampung Dusun Damai",
        "Post_Office": "Kuala Krai",
        "State": "Kelantan"
    },
    {
        "Postcode": "18000",
        "Location": "Kampung Dusun Nyiur",
        "Post_Office": "Kuala Krai",
        "State": "Kelantan"
    },
    {
        "Postcode": "18000",
        "Location": "Kampung Gajah",
        "Post_Office": "Kuala Krai",
        "State": "Kelantan"
    },
    {
        "Postcode": "18000",
        "Location": "Kampung Gatal",
        "Post_Office": "Kuala Krai",
        "State": "Kelantan"
    },
    {
        "Postcode": "18000",
        "Location": "Kampung Gatal Lama",
        "Post_Office": "Kuala Krai",
        "State": "Kelantan"
    },
    {
        "Postcode": "18000",
        "Location": "Kampung Gilat",
        "Post_Office": "Kuala Krai",
        "State": "Kelantan"
    },
    {
        "Postcode": "18000",
        "Location": "Kampung Hamzah",
        "Post_Office": "Kuala Krai",
        "State": "Kelantan"
    },
    {
        "Postcode": "18000",
        "Location": "Kampung Jelator",
        "Post_Office": "Kuala Krai",
        "State": "Kelantan"
    },
    {
        "Postcode": "18000",
        "Location": "Kampung Jeram Batu",
        "Post_Office": "Kuala Krai",
        "State": "Kelantan"
    },
    {
        "Postcode": "18000",
        "Location": "Kampung Juhar",
        "Post_Office": "Kuala Krai",
        "State": "Kelantan"
    },
    {
        "Postcode": "18000",
        "Location": "Kampung Karangan",
        "Post_Office": "Kuala Krai",
        "State": "Kelantan"
    },
    {
        "Postcode": "18000",
        "Location": "Kampung Kebun Pisang",
        "Post_Office": "Kuala Krai",
        "State": "Kelantan"
    },
    {
        "Postcode": "18000",
        "Location": "Kampung Keroh",
        "Post_Office": "Kuala Krai",
        "State": "Kelantan"
    },
    {
        "Postcode": "18000",
        "Location": "Kampung Kesedar Mengkebang",
        "Post_Office": "Kuala Krai",
        "State": "Kelantan"
    },
    {
        "Postcode": "18000",
        "Location": "Kampung Kongsi Baru Estate",
        "Post_Office": "Kuala Krai",
        "State": "Kelantan"
    },
    {
        "Postcode": "18000",
        "Location": "Kampung Kuala Hidong",
        "Post_Office": "Kuala Krai",
        "State": "Kelantan"
    },
    {
        "Postcode": "18000",
        "Location": "Kampung Kuala Mahligai",
        "Post_Office": "Kuala Krai",
        "State": "Kelantan"
    },
    {
        "Postcode": "18000",
        "Location": "Kampung Kuala Nal",
        "Post_Office": "Kuala Krai",
        "State": "Kelantan"
    },
    {
        "Postcode": "18000",
        "Location": "Kampung Kuala Pertang",
        "Post_Office": "Kuala Krai",
        "State": "Kelantan"
    },
    {
        "Postcode": "18000",
        "Location": "Kampung Kuala Teku",
        "Post_Office": "Kuala Krai",
        "State": "Kelantan"
    },
    {
        "Postcode": "18000",
        "Location": "Kampung Kuala Temiang",
        "Post_Office": "Kuala Krai",
        "State": "Kelantan"
    },
    {
        "Postcode": "18000",
        "Location": "Kampung Kubang Lebur",
        "Post_Office": "Kuala Krai",
        "State": "Kelantan"
    },
    {
        "Postcode": "18000",
        "Location": "Kampung Ladang Caning",
        "Post_Office": "Kuala Krai",
        "State": "Kelantan"
    },
    {
        "Postcode": "18000",
        "Location": "Kampung Ladang Kenneth",
        "Post_Office": "Kuala Krai",
        "State": "Kelantan"
    },
    {
        "Postcode": "18000",
        "Location": "Kampung Ladang Kuala Pahi",
        "Post_Office": "Kuala Krai",
        "State": "Kelantan"
    },
    {
        "Postcode": "18000",
        "Location": "Kampung Ladang Lepan Kabu",
        "Post_Office": "Kuala Krai",
        "State": "Kelantan"
    },
    {
        "Postcode": "18000",
        "Location": "Kampung Ladang Pasir Linggi",
        "Post_Office": "Kuala Krai",
        "State": "Kelantan"
    },
    {
        "Postcode": "18000",
        "Location": "Kampung Ladang Sungai Durian",
        "Post_Office": "Kuala Krai",
        "State": "Kelantan"
    },
    {
        "Postcode": "18000",
        "Location": "Kampung Ladang Taku",
        "Post_Office": "Kuala Krai",
        "State": "Kelantan"
    },
    {
        "Postcode": "18000",
        "Location": "Kampung Ladang Teluk Nal",
        "Post_Office": "Kuala Krai",
        "State": "Kelantan"
    },
    {
        "Postcode": "18000",
        "Location": "Kampung Laloh",
        "Post_Office": "Kuala Krai",
        "State": "Kelantan"
    },
    {
        "Postcode": "18000",
        "Location": "Kampung Lata",
        "Post_Office": "Kuala Krai",
        "State": "Kelantan"
    },
    {
        "Postcode": "18000",
        "Location": "Kampung Lata Pauh",
        "Post_Office": "Kuala Krai",
        "State": "Kelantan"
    },
    {
        "Postcode": "18000",
        "Location": "Kampung Lata Rek",
        "Post_Office": "Kuala Krai",
        "State": "Kelantan"
    },
    {
        "Postcode": "18000",
        "Location": "Kampung Lepan Jenub",
        "Post_Office": "Kuala Krai",
        "State": "Kelantan"
    },
    {
        "Postcode": "18000",
        "Location": "Kampung Lepan Kala",
        "Post_Office": "Kuala Krai",
        "State": "Kelantan"
    },
    {
        "Postcode": "18000",
        "Location": "Kampung Lepan Pauh",
        "Post_Office": "Kuala Krai",
        "State": "Kelantan"
    },
    {
        "Postcode": "18000",
        "Location": "Kampung Lubok Kawah",
        "Post_Office": "Kuala Krai",
        "State": "Kelantan"
    },
    {
        "Postcode": "18000",
        "Location": "Kampung Lubok Simpul",
        "Post_Office": "Kuala Krai",
        "State": "Kelantan"
    },
    {
        "Postcode": "18000",
        "Location": "Kampung Mambong",
        "Post_Office": "Kuala Krai",
        "State": "Kelantan"
    },
    {
        "Postcode": "18000",
        "Location": "Kampung Manek Urai",
        "Post_Office": "Kuala Krai",
        "State": "Kelantan"
    },
    {
        "Postcode": "18000",
        "Location": "Kampung Manik Urai Baru",
        "Post_Office": "Kuala Krai",
        "State": "Kelantan"
    },
    {
        "Postcode": "18000",
        "Location": "Kampung Manik Urai Lama",
        "Post_Office": "Kuala Krai",
        "State": "Kelantan"
    },
    {
        "Postcode": "18000",
        "Location": "Kampung Manjor",
        "Post_Office": "Kuala Krai",
        "State": "Kelantan"
    },
    {
        "Postcode": "18000",
        "Location": "Kampung Mengkebang",
        "Post_Office": "Kuala Krai",
        "State": "Kelantan"
    },
    {
        "Postcode": "18000",
        "Location": "Kampung Mesek",
        "Post_Office": "Kuala Krai",
        "State": "Kelantan"
    },
    {
        "Postcode": "18000",
        "Location": "Kampung Mial",
        "Post_Office": "Kuala Krai",
        "State": "Kelantan"
    },
    {
        "Postcode": "18000",
        "Location": "Kampung Miar",
        "Post_Office": "Kuala Krai",
        "State": "Kelantan"
    },
    {
        "Postcode": "18000",
        "Location": "Kampung Ngangoh",
        "Post_Office": "Kuala Krai",
        "State": "Kelantan"
    },
    {
        "Postcode": "18000",
        "Location": "Kampung Padang Dua",
        "Post_Office": "Kuala Krai",
        "State": "Kelantan"
    },
    {
        "Postcode": "18000",
        "Location": "Kampung Padang Lanas",
        "Post_Office": "Kuala Krai",
        "State": "Kelantan"
    },
    {
        "Postcode": "18000",
        "Location": "Kampung Pahi",
        "Post_Office": "Kuala Krai",
        "State": "Kelantan"
    },
    {
        "Postcode": "18000",
        "Location": "Kampung Pahi Lama",
        "Post_Office": "Kuala Krai",
        "State": "Kelantan"
    },
    {
        "Postcode": "18000",
        "Location": "Kampung Pak Jelak",
        "Post_Office": "Kuala Krai",
        "State": "Kelantan"
    },
    {
        "Postcode": "18000",
        "Location": "Kampung Paloh",
        "Post_Office": "Kuala Krai",
        "State": "Kelantan"
    },
    {
        "Postcode": "18000",
        "Location": "Kampung Pasir Era",
        "Post_Office": "Kuala Krai",
        "State": "Kelantan"
    },
    {
        "Postcode": "18000",
        "Location": "Kampung Pasir Jering",
        "Post_Office": "Kuala Krai",
        "State": "Kelantan"
    },
    {
        "Postcode": "18000",
        "Location": "Kampung Pasir Kelang Lama",
        "Post_Office": "Kuala Krai",
        "State": "Kelantan"
    },
    {
        "Postcode": "18000",
        "Location": "Kampung Pasir Layang",
        "Post_Office": "Kuala Krai",
        "State": "Kelantan"
    },
    {
        "Postcode": "18000",
        "Location": "Kampung Pemberian",
        "Post_Office": "Kuala Krai",
        "State": "Kelantan"
    },
    {
        "Postcode": "18000",
        "Location": "Kampung Peria Lama",
        "Post_Office": "Kuala Krai",
        "State": "Kelantan"
    },
    {
        "Postcode": "18000",
        "Location": "Kampung Petaling",
        "Post_Office": "Kuala Krai",
        "State": "Kelantan"
    },
    {
        "Postcode": "18000",
        "Location": "Kampung Pulai Layat",
        "Post_Office": "Kuala Krai",
        "State": "Kelantan"
    },
    {
        "Postcode": "18000",
        "Location": "Kampung Raba",
        "Post_Office": "Kuala Krai",
        "State": "Kelantan"
    },
    {
        "Postcode": "18000",
        "Location": "Kampung Ragu",
        "Post_Office": "Kuala Krai",
        "State": "Kelantan"
    },
    {
        "Postcode": "18000",
        "Location": "Kampung Rahmat",
        "Post_Office": "Kuala Krai",
        "State": "Kelantan"
    },
    {
        "Postcode": "18000",
        "Location": "Kampung Sedek",
        "Post_Office": "Kuala Krai",
        "State": "Kelantan"
    },
    {
        "Postcode": "18000",
        "Location": "Kampung Serasa",
        "Post_Office": "Kuala Krai",
        "State": "Kelantan"
    },
    {
        "Postcode": "18000",
        "Location": "Kampung Seri Jaya",
        "Post_Office": "Kuala Krai",
        "State": "Kelantan"
    },
    {
        "Postcode": "18000",
        "Location": "Kampung Seri Kenagan",
        "Post_Office": "Kuala Krai",
        "State": "Kelantan"
    },
    {
        "Postcode": "18000",
        "Location": "Kampung Seri Mahligai",
        "Post_Office": "Kuala Krai",
        "State": "Kelantan"
    },
    {
        "Postcode": "18000",
        "Location": "Kampung Seri Pinang",
        "Post_Office": "Kuala Krai",
        "State": "Kelantan"
    },
    {
        "Postcode": "18000",
        "Location": "Kampung Slor Machang (Sungai Sok)",
        "Post_Office": "Kuala Krai",
        "State": "Kelantan"
    },
    {
        "Postcode": "18000",
        "Location": "Kampung Slow Mengkuang",
        "Post_Office": "Kuala Krai",
        "State": "Kelantan"
    },
    {
        "Postcode": "18000",
        "Location": "Kampung Slow Pak Long",
        "Post_Office": "Kuala Krai",
        "State": "Kelantan"
    },
    {
        "Postcode": "18000",
        "Location": "Kampung Sri Panji",
        "Post_Office": "Kuala Krai",
        "State": "Kelantan"
    },
    {
        "Postcode": "18000",
        "Location": "Kampung Stong",
        "Post_Office": "Kuala Krai",
        "State": "Kelantan"
    },
    {
        "Postcode": "18000",
        "Location": "Kampung Sungai Chong",
        "Post_Office": "Kuala Krai",
        "State": "Kelantan"
    },
    {
        "Postcode": "18000",
        "Location": "Kampung Sungai Embak",
        "Post_Office": "Kuala Krai",
        "State": "Kelantan"
    },
    {
        "Postcode": "18000",
        "Location": "Kampung Sungai Mengkuang",
        "Post_Office": "Kuala Krai",
        "State": "Kelantan"
    },
    {
        "Postcode": "18000",
        "Location": "Kampung Sungai Peria",
        "Post_Office": "Kuala Krai",
        "State": "Kelantan"
    },
    {
        "Postcode": "18000",
        "Location": "Kampung Sungai Pichong",
        "Post_Office": "Kuala Krai",
        "State": "Kelantan"
    },
    {
        "Postcode": "18000",
        "Location": "Kampung Sungai Tias",
        "Post_Office": "Kuala Krai",
        "State": "Kelantan"
    },
    {
        "Postcode": "18000",
        "Location": "Kampung Tanjung Kala",
        "Post_Office": "Kuala Krai",
        "State": "Kelantan"
    },
    {
        "Postcode": "18000",
        "Location": "Kampung Telekong",
        "Post_Office": "Kuala Krai",
        "State": "Kelantan"
    },
    {
        "Postcode": "18000",
        "Location": "Kampung Telok Jalan Batu Lada",
        "Post_Office": "Kuala Krai",
        "State": "Kelantan"
    },
    {
        "Postcode": "18000",
        "Location": "Kampung Temalir",
        "Post_Office": "Kuala Krai",
        "State": "Kelantan"
    },
    {
        "Postcode": "18000",
        "Location": "Kampung Temiang",
        "Post_Office": "Kuala Krai",
        "State": "Kelantan"
    },
    {
        "Postcode": "18000",
        "Location": "Kampung Tok Bak",
        "Post_Office": "Kuala Krai",
        "State": "Kelantan"
    },
    {
        "Postcode": "18000",
        "Location": "Kampung Tualang",
        "Post_Office": "Kuala Krai",
        "State": "Kelantan"
    },
    {
        "Postcode": "18000",
        "Location": "Kampung Ulu Manah",
        "Post_Office": "Kuala Krai",
        "State": "Kelantan"
    },
    {
        "Postcode": "18000",
        "Location": "Kemubu",
        "Post_Office": "Kuala Krai",
        "State": "Kelantan"
    },
    {
        "Postcode": "18000",
        "Location": "Kuala Kerai",
        "Post_Office": "Kuala Krai",
        "State": "Kelantan"
    },
    {
        "Postcode": "18000",
        "Location": "Ladang Becah Taku",
        "Post_Office": "Kuala Krai",
        "State": "Kelantan"
    },
    {
        "Postcode": "18000",
        "Location": "Ladang Gan Fui Heng",
        "Post_Office": "Kuala Krai",
        "State": "Kelantan"
    },
    {
        "Postcode": "18000",
        "Location": "Ladang Haji Murad",
        "Post_Office": "Kuala Krai",
        "State": "Kelantan"
    },
    {
        "Postcode": "18000",
        "Location": "Ladang Kuala Geh Langgar",
        "Post_Office": "Kuala Krai",
        "State": "Kelantan"
    },
    {
        "Postcode": "18000",
        "Location": "Ladang Kuala Geh Stapuna",
        "Post_Office": "Kuala Krai",
        "State": "Kelantan"
    },
    {
        "Postcode": "18000",
        "Location": "Ladang Kuala Hidong",
        "Post_Office": "Kuala Krai",
        "State": "Kelantan"
    },
    {
        "Postcode": "18000",
        "Location": "Ladang Mengkebang",
        "Post_Office": "Kuala Krai",
        "State": "Kelantan"
    },
    {
        "Postcode": "18000",
        "Location": "Ladang Sungai Durian",
        "Post_Office": "Kuala Krai",
        "State": "Kelantan"
    },
    {
        "Postcode": "18000",
        "Location": "Ladang Sungai Rakit",
        "Post_Office": "Kuala Krai",
        "State": "Kelantan"
    },
    {
        "Postcode": "18000",
        "Location": "Ladang Tiong Loke",
        "Post_Office": "Kuala Krai",
        "State": "Kelantan"
    },
    {
        "Postcode": "18000",
        "Location": "Langgar",
        "Post_Office": "Kuala Krai",
        "State": "Kelantan"
    },
    {
        "Postcode": "18000",
        "Location": "Limau Kasturi",
        "Post_Office": "Kuala Krai",
        "State": "Kelantan"
    },
    {
        "Postcode": "18000",
        "Location": "Majlis Daerah Kuala Krai Utara 2",
        "Post_Office": "Kuala Krai",
        "State": "Kelantan"
    },
    {
        "Postcode": "18000",
        "Location": "Manek Urai",
        "Post_Office": "Kuala Krai",
        "State": "Kelantan"
    },
    {
        "Postcode": "18000",
        "Location": "Pahi",
        "Post_Office": "Kuala Krai",
        "State": "Kelantan"
    },
    {
        "Postcode": "18000",
        "Location": "Rkt Sri Kenangan",
        "Post_Office": "Kuala Krai",
        "State": "Kelantan"
    },
    {
        "Postcode": "18000",
        "Location": "Rpt Bahagia",
        "Post_Office": "Kuala Krai",
        "State": "Kelantan"
    },
    {
        "Postcode": "18000",
        "Location": "Rpt Cucuh Puteri A - B",
        "Post_Office": "Kuala Krai",
        "State": "Kelantan"
    },
    {
        "Postcode": "18000",
        "Location": "Rpt Pasir Kelang",
        "Post_Office": "Kuala Krai",
        "State": "Kelantan"
    },
    {
        "Postcode": "18000",
        "Location": "Rpt Peria Baru",
        "Post_Office": "Kuala Krai",
        "State": "Kelantan"
    },
    {
        "Postcode": "18000",
        "Location": "Rpt Sungai Peria",
        "Post_Office": "Kuala Krai",
        "State": "Kelantan"
    },
    {
        "Postcode": "18000",
        "Location": "Rpt Sungai Sok",
        "Post_Office": "Kuala Krai",
        "State": "Kelantan"
    },
    {
        "Postcode": "18000",
        "Location": "Rpt Sungai Taku",
        "Post_Office": "Kuala Krai",
        "State": "Kelantan"
    },
    {
        "Postcode": "18000",
        "Location": "Takdir Chenulang",
        "Post_Office": "Kuala Krai",
        "State": "Kelantan"
    },
    {
        "Postcode": "18000",
        "Location": "Takdir Sungai Peria",
        "Post_Office": "Kuala Krai",
        "State": "Kelantan"
    },
    {
        "Postcode": "18000",
        "Location": "Takdir Sungai Sok",
        "Post_Office": "Kuala Krai",
        "State": "Kelantan"
    },
    {
        "Postcode": "18000",
        "Location": "Takdir Temalir",
        "Post_Office": "Kuala Krai",
        "State": "Kelantan"
    },
    {
        "Postcode": "18000",
        "Location": "Taman Bahagia",
        "Post_Office": "Kuala Krai",
        "State": "Kelantan"
    },
    {
        "Postcode": "18000",
        "Location": "Taman Batu Balai",
        "Post_Office": "Kuala Krai",
        "State": "Kelantan"
    },
    {
        "Postcode": "18000",
        "Location": "Taman Batu Lada",
        "Post_Office": "Kuala Krai",
        "State": "Kelantan"
    },
    {
        "Postcode": "18000",
        "Location": "Taman Berkat Jaya",
        "Post_Office": "Kuala Krai",
        "State": "Kelantan"
    },
    {
        "Postcode": "18000",
        "Location": "Taman Bukit Sireh",
        "Post_Office": "Kuala Krai",
        "State": "Kelantan"
    },
    {
        "Postcode": "18000",
        "Location": "Taman Gimbee",
        "Post_Office": "Kuala Krai",
        "State": "Kelantan"
    },
    {
        "Postcode": "18000",
        "Location": "Taman Guchil Bayam",
        "Post_Office": "Kuala Krai",
        "State": "Kelantan"
    },
    {
        "Postcode": "18000",
        "Location": "Taman Hajah Halimah",
        "Post_Office": "Kuala Krai",
        "State": "Kelantan"
    },
    {
        "Postcode": "18000",
        "Location": "Taman Idaman",
        "Post_Office": "Kuala Krai",
        "State": "Kelantan"
    },
    {
        "Postcode": "18000",
        "Location": "Taman Kim Bee",
        "Post_Office": "Kuala Krai",
        "State": "Kelantan"
    },
    {
        "Postcode": "18000",
        "Location": "Taman Kuala Krai",
        "Post_Office": "Kuala Krai",
        "State": "Kelantan"
    },
    {
        "Postcode": "18000",
        "Location": "Taman Majlis Daerah Kuala Krai Utara 2",
        "Post_Office": "Kuala Krai",
        "State": "Kelantan"
    },
    {
        "Postcode": "18000",
        "Location": "Taman Orchid",
        "Post_Office": "Kuala Krai",
        "State": "Kelantan"
    },
    {
        "Postcode": "18000",
        "Location": "Taman Perkeso",
        "Post_Office": "Kuala Krai",
        "State": "Kelantan"
    },
    {
        "Postcode": "18000",
        "Location": "Taman Seri Rahmat",
        "Post_Office": "Kuala Krai",
        "State": "Kelantan"
    },
    {
        "Postcode": "18000",
        "Location": "Taman Sri Bahagia 2",
        "Post_Office": "Kuala Krai",
        "State": "Kelantan"
    },
    {
        "Postcode": "18000",
        "Location": "Taman Sri Damai",
        "Post_Office": "Kuala Krai",
        "State": "Kelantan"
    },
    {
        "Postcode": "18000",
        "Location": "Taman Sri Guchil",
        "Post_Office": "Kuala Krai",
        "State": "Kelantan"
    },
    {
        "Postcode": "18000",
        "Location": "Taman Sri Nal",
        "Post_Office": "Kuala Krai",
        "State": "Kelantan"
    },
    {
        "Postcode": "18000",
        "Location": "Taman Sri Rahmat",
        "Post_Office": "Kuala Krai",
        "State": "Kelantan"
    },
    {
        "Postcode": "18000",
        "Location": "Taman Sri Wali",
        "Post_Office": "Kuala Krai",
        "State": "Kelantan"
    },
    {
        "Postcode": "18000",
        "Location": "Taman Teknik",
        "Post_Office": "Kuala Krai",
        "State": "Kelantan"
    },
    {
        "Postcode": "18000",
        "Location": "Taman Warisan",
        "Post_Office": "Kuala Krai",
        "State": "Kelantan"
    },
    {
        "Postcode": "18000",
        "Location": "Kampung Aur Duri",
        "Post_Office": "Kuala Krai",
        "State": "Kelantan"
    },
    {
        "Postcode": "18000",
        "Location": "Kampung Budi",
        "Post_Office": "Kuala Krai",
        "State": "Kelantan"
    },
    {
        "Postcode": "18000",
        "Location": "Kampung Gong Genor",
        "Post_Office": "Kuala Krai",
        "State": "Kelantan"
    },
    {
        "Postcode": "18000",
        "Location": "Kampung Keluat",
        "Post_Office": "Kuala Krai",
        "State": "Kelantan"
    },
    {
        "Postcode": "18000",
        "Location": "Kampung Landak",
        "Post_Office": "Kuala Krai",
        "State": "Kelantan"
    },
    {
        "Postcode": "18000",
        "Location": "Kampung Sungai Durian",
        "Post_Office": "Kuala Krai",
        "State": "Kelantan"
    },
    {
        "Postcode": "18000",
        "Location": "Taman Melati",
        "Post_Office": "Kuala Krai",
        "State": "Kelantan"
    },
    {
        "Postcode": "18000",
        "Location": "Kampung Berhala",
        "Post_Office": "Kuala Krai",
        "State": "Kelantan"
    },
    {
        "Postcode": "18000",
        "Location": "Kampung Bukit",
        "Post_Office": "Kuala Krai",
        "State": "Kelantan"
    },
    {
        "Postcode": "18000",
        "Location": "Kampung Bukit Batu",
        "Post_Office": "Kuala Krai",
        "State": "Kelantan"
    },
    {
        "Postcode": "18000",
        "Location": "Kampung Guchil",
        "Post_Office": "Kuala Krai",
        "State": "Kelantan"
    },
    {
        "Postcode": "18000",
        "Location": "Kampung Hujung Tanjung",
        "Post_Office": "Kuala Krai",
        "State": "Kelantan"
    },
    {
        "Postcode": "18000",
        "Location": "Kampung Kenor",
        "Post_Office": "Kuala Krai",
        "State": "Kelantan"
    },
    {
        "Postcode": "18000",
        "Location": "Kampung Surau",
        "Post_Office": "Kuala Krai",
        "State": "Kelantan"
    },
    {
        "Postcode": "18000",
        "Location": "Kampung Tengah",
        "Post_Office": "Kuala Krai",
        "State": "Kelantan"
    }
]
