[
    {
        "Postcode": "18200",
        "Location": "Dabong",
        "Post_Office": "Dabong",
        "State": "Kelantan"
    },
    {
        "Postcode": "18200",
        "Location": "Dabong Hilir",
        "Post_Office": "Dabong",
        "State": "Kelantan"
    },
    {
        "Postcode": "18200",
        "Location": "Dabong Hulu",
        "Post_Office": "Dabong",
        "State": "Kelantan"
    },
    {
        "Postcode": "18200",
        "Location": "Jalan Anggerik",
        "Post_Office": "Dabong",
        "State": "Kelantan"
    },
    {
        "Postcode": "18200",
        "Location": "Jalan Hilir  Dewan",
        "Post_Office": "Dabong",
        "State": "Kelantan"
    },
    {
        "Postcode": "18200",
        "Location": "Jalan Hulu Dewan",
        "Post_Office": "Dabong",
        "State": "Kelantan"
    },
    {
        "Postcode": "18200",
        "Location": "Jalan Mawar",
        "Post_Office": "Dabong",
        "State": "Kelantan"
    },
    {
        "Postcode": "18200",
        "Location": "Jalan Pejabat",
        "Post_Office": "Dabong",
        "State": "Kelantan"
    },
    {
        "Postcode": "18200",
        "Location": "Jalan Pusara",
        "Post_Office": "Dabong",
        "State": "Kelantan"
    },
    {
        "Postcode": "18200",
        "Location": "Jalan Stesyen",
        "Post_Office": "Dabong",
        "State": "Kelantan"
    },
    {
        "Postcode": "18200",
        "Location": "Kampung Apik",
        "Post_Office": "Dabong",
        "State": "Kelantan"
    },
    {
        "Postcode": "18200",
        "Location": "Kampung Batu Lesong",
        "Post_Office": "Dabong",
        "State": "Kelantan"
    },
    {
        "Postcode": "18200",
        "Location": "Kampung Belut",
        "Post_Office": "Dabong",
        "State": "Kelantan"
    },
    {
        "Postcode": "18200",
        "Location": "Kampung Biak",
        "Post_Office": "Dabong",
        "State": "Kelantan"
    },
    {
        "Postcode": "18200",
        "Location": "Kampung Cegal Lapan",
        "Post_Office": "Dabong",
        "State": "Kelantan"
    },
    {
        "Postcode": "18200",
        "Location": "Kampung Dabong",
        "Post_Office": "Dabong",
        "State": "Kelantan"
    },
    {
        "Postcode": "18200",
        "Location": "Kampung Jelawang",
        "Post_Office": "Dabong",
        "State": "Kelantan"
    },
    {
        "Postcode": "18200",
        "Location": "Kampung Jenal",
        "Post_Office": "Dabong",
        "State": "Kelantan"
    },
    {
        "Postcode": "18200",
        "Location": "Kampung Jeram Rambai",
        "Post_Office": "Dabong",
        "State": "Kelantan"
    },
    {
        "Postcode": "18200",
        "Location": "Kampung Kandek",
        "Post_Office": "Dabong",
        "State": "Kelantan"
    },
    {
        "Postcode": "18200",
        "Location": "Kampung Kuala Geris",
        "Post_Office": "Dabong",
        "State": "Kelantan"
    },
    {
        "Postcode": "18200",
        "Location": "Kampung Ladang Kuala Pergau",
        "Post_Office": "Dabong",
        "State": "Kelantan"
    },
    {
        "Postcode": "18200",
        "Location": "Kampung Mempelam",
        "Post_Office": "Dabong",
        "State": "Kelantan"
    },
    {
        "Postcode": "18200",
        "Location": "Kampung Padang Enam",
        "Post_Office": "Dabong",
        "State": "Kelantan"
    },
    {
        "Postcode": "18200",
        "Location": "Jalan Padang",
        "Post_Office": "Dabong",
        "State": "Kelantan"
    },
    {
        "Postcode": "18200",
        "Location": "Jalan Cempaka",
        "Post_Office": "Dabong",
        "State": "Kelantan"
    },
    {
        "Postcode": "18200",
        "Location": "Jalan Masjid",
        "Post_Office": "Dabong",
        "State": "Kelantan"
    },
    {
        "Postcode": "18200",
        "Location": "Jalan Melor",
        "Post_Office": "Dabong",
        "State": "Kelantan"
    },
    {
        "Postcode": "18200",
        "Location": "Jalan Sekolah",
        "Post_Office": "Dabong",
        "State": "Kelantan"
    },
    {
        "Postcode": "18200",
        "Location": "Jalan Tanjung",
        "Post_Office": "Dabong",
        "State": "Kelantan"
    },
    {
        "Postcode": "18200",
        "Location": "Kampung Betong",
        "Post_Office": "Dabong",
        "State": "Kelantan"
    },
    {
        "Postcode": "18200",
        "Location": "Kampung Lancang",
        "Post_Office": "Dabong",
        "State": "Kelantan"
    }
]
