[
    {
        "Postcode": "18300",
        "Location": "Bangunan Yakin",
        "Post_Office": "Gua Musang",
        "State": "Kelantan"
    },
    {
        "Postcode": "18300",
        "Location": "Bazar Kesedar",
        "Post_Office": "Gua Musang",
        "State": "Kelantan"
    },
    {
        "Postcode": "18300",
        "Location": "Bazar Mara",
        "Post_Office": "Gua Musang",
        "State": "Kelantan"
    },
    {
        "Postcode": "18300",
        "Location": "Dalam Pasar Gua Musang",
        "Post_Office": "Gua Musang",
        "State": "Kelantan"
    },
    {
        "Postcode": "18300",
        "Location": "Econ Jaya Super Market",
        "Post_Office": "Gua Musang",
        "State": "Kelantan"
    },
    {
        "Postcode": "18300",
        "Location": "Felcra Panggung Lalat",
        "Post_Office": "Gua Musang",
        "State": "Kelantan"
    },
    {
        "Postcode": "18300",
        "Location": "Felda Lebir 1",
        "Post_Office": "Gua Musang",
        "State": "Kelantan"
    },
    {
        "Postcode": "18300",
        "Location": "Felda Perasu",
        "Post_Office": "Gua Musang",
        "State": "Kelantan"
    },
    {
        "Postcode": "18300",
        "Location": "Gua Musang",
        "Post_Office": "Gua Musang",
        "State": "Kelantan"
    },
    {
        "Postcode": "18300",
        "Location": "Hentian R\u0026R",
        "Post_Office": "Gua Musang",
        "State": "Kelantan"
    },
    {
        "Postcode": "18300",
        "Location": "Hospital Besar Gua Musang",
        "Post_Office": "Gua Musang",
        "State": "Kelantan"
    },
    {
        "Postcode": "18300",
        "Location": "Hotel Full Inn",
        "Post_Office": "Gua Musang",
        "State": "Kelantan"
    },
    {
        "Postcode": "18300",
        "Location": "Jalan Besar Gua Musang",
        "Post_Office": "Gua Musang",
        "State": "Kelantan"
    },
    {
        "Postcode": "18300",
        "Location": "Jalan Bunga Raya",
        "Post_Office": "Gua Musang",
        "State": "Kelantan"
    },
    {
        "Postcode": "18300",
        "Location": "Jalan Dahlia",
        "Post_Office": "Gua Musang",
        "State": "Kelantan"
    },
    {
        "Postcode": "18300",
        "Location": "Jalan Kemboja",
        "Post_Office": "Gua Musang",
        "State": "Kelantan"
    },
    {
        "Postcode": "18300",
        "Location": "Jalan Kenerak",
        "Post_Office": "Gua Musang",
        "State": "Kelantan"
    },
    {
        "Postcode": "18300",
        "Location": "Jalan Kesedar",
        "Post_Office": "Gua Musang",
        "State": "Kelantan"
    },
    {
        "Postcode": "18300",
        "Location": "Jalan Kompleks Bandar Baru",
        "Post_Office": "Gua Musang",
        "State": "Kelantan"
    },
    {
        "Postcode": "18300",
        "Location": "Jalan Kuala Lipis",
        "Post_Office": "Gua Musang",
        "State": "Kelantan"
    },
    {
        "Postcode": "18300",
        "Location": "Jalan Padang Bola",
        "Post_Office": "Gua Musang",
        "State": "Kelantan"
    },
    {
        "Postcode": "18300",
        "Location": "Jalan Persiaran Raya",
        "Post_Office": "Gua Musang",
        "State": "Kelantan"
    },
    {
        "Postcode": "18300",
        "Location": "Jalan Pulai",
        "Post_Office": "Gua Musang",
        "State": "Kelantan"
    },
    {
        "Postcode": "18300",
        "Location": "Jalan Pulai Lama",
        "Post_Office": "Gua Musang",
        "State": "Kelantan"
    },
    {
        "Postcode": "18300",
        "Location": "Jalan Seroja",
        "Post_Office": "Gua Musang",
        "State": "Kelantan"
    },
    {
        "Postcode": "18300",
        "Location": "Jalan Sungai Chindai",
        "Post_Office": "Gua Musang",
        "State": "Kelantan"
    },
    {
        "Postcode": "18300",
        "Location": "Jalan Teratai",
        "Post_Office": "Gua Musang",
        "State": "Kelantan"
    },
    {
        "Postcode": "18300",
        "Location": "Jkr",
        "Post_Office": "Gua Musang",
        "State": "Kelantan"
    },
    {
        "Postcode": "18300",
        "Location": "Jpj",
        "Post_Office": "Gua Musang",
        "State": "Kelantan"
    },
    {
        "Postcode": "18300",
        "Location": "Kampung Baru Gua Musang",
        "Post_Office": "Gua Musang",
        "State": "Kelantan"
    },
    {
        "Postcode": "18300",
        "Location": "Kampung Baru Kundor",
        "Post_Office": "Gua Musang",
        "State": "Kelantan"
    },
    {
        "Postcode": "18300",
        "Location": "Kampung Baru Tanah Puteh",
        "Post_Office": "Gua Musang",
        "State": "Kelantan"
    },
    {
        "Postcode": "18300",
        "Location": "Kampung Batu 2 Gua Musang",
        "Post_Office": "Gua Musang",
        "State": "Kelantan"
    },
    {
        "Postcode": "18300",
        "Location": "Kampung Batu 4",
        "Post_Office": "Gua Musang",
        "State": "Kelantan"
    },
    {
        "Postcode": "18300",
        "Location": "Kampung Batu 5",
        "Post_Office": "Gua Musang",
        "State": "Kelantan"
    },
    {
        "Postcode": "18300",
        "Location": "Kampung Batu Itek",
        "Post_Office": "Gua Musang",
        "State": "Kelantan"
    },
    {
        "Postcode": "18300",
        "Location": "Kampung Batu Papan",
        "Post_Office": "Gua Musang",
        "State": "Kelantan"
    },
    {
        "Postcode": "18300",
        "Location": "Kampung Batu Tongkat",
        "Post_Office": "Gua Musang",
        "State": "Kelantan"
    },
    {
        "Postcode": "18300",
        "Location": "Kampung Cegar Bongor",
        "Post_Office": "Gua Musang",
        "State": "Kelantan"
    },
    {
        "Postcode": "18300",
        "Location": "Kampung Chegar Panjang",
        "Post_Office": "Gua Musang",
        "State": "Kelantan"
    },
    {
        "Postcode": "18300",
        "Location": "Kampung Gua Gagak",
        "Post_Office": "Gua Musang",
        "State": "Kelantan"
    },
    {
        "Postcode": "18300",
        "Location": "Kampung Kerinting",
        "Post_Office": "Gua Musang",
        "State": "Kelantan"
    },
    {
        "Postcode": "18300",
        "Location": "Kampung Kuala Nerus",
        "Post_Office": "Gua Musang",
        "State": "Kelantan"
    },
    {
        "Postcode": "18300",
        "Location": "Kampung Kuala Semur",
        "Post_Office": "Gua Musang",
        "State": "Kelantan"
    },
    {
        "Postcode": "18300",
        "Location": "Kampung Kuala Tuang",
        "Post_Office": "Gua Musang",
        "State": "Kelantan"
    },
    {
        "Postcode": "18300",
        "Location": "Kampung Kundur",
        "Post_Office": "Gua Musang",
        "State": "Kelantan"
    },
    {
        "Postcode": "18300",
        "Location": "Kampung Kurnia Nabila",
        "Post_Office": "Gua Musang",
        "State": "Kelantan"
    },
    {
        "Postcode": "18300",
        "Location": "Kampung Lepan Jaya",
        "Post_Office": "Gua Musang",
        "State": "Kelantan"
    },
    {
        "Postcode": "18300",
        "Location": "Kampung Lepan Tupai",
        "Post_Office": "Gua Musang",
        "State": "Kelantan"
    },
    {
        "Postcode": "18300",
        "Location": "Kampung Mentara",
        "Post_Office": "Gua Musang",
        "State": "Kelantan"
    },
    {
        "Postcode": "18300",
        "Location": "Kampung Padang Malim",
        "Post_Office": "Gua Musang",
        "State": "Kelantan"
    },
    {
        "Postcode": "18300",
        "Location": "Kampung Pasir Tar",
        "Post_Office": "Gua Musang",
        "State": "Kelantan"
    },
    {
        "Postcode": "18300",
        "Location": "Kampung Star",
        "Post_Office": "Gua Musang",
        "State": "Kelantan"
    },
    {
        "Postcode": "18300",
        "Location": "Kampung Tuala Tuang",
        "Post_Office": "Gua Musang",
        "State": "Kelantan"
    },
    {
        "Postcode": "18300",
        "Location": "Kawasan Industri Sungai Kepa",
        "Post_Office": "Gua Musang",
        "State": "Kelantan"
    },
    {
        "Postcode": "18300",
        "Location": "Kedai Paloh 1",
        "Post_Office": "Gua Musang",
        "State": "Kelantan"
    },
    {
        "Postcode": "18300",
        "Location": "Kesedar Chalil",
        "Post_Office": "Gua Musang",
        "State": "Kelantan"
    },
    {
        "Postcode": "18300",
        "Location": "Kesedar Inn",
        "Post_Office": "Gua Musang",
        "State": "Kelantan"
    },
    {
        "Postcode": "18300",
        "Location": "Kesedar Jeram Tekoh",
        "Post_Office": "Gua Musang",
        "State": "Kelantan"
    },
    {
        "Postcode": "18300",
        "Location": "Kesedar Lebir",
        "Post_Office": "Gua Musang",
        "State": "Kelantan"
    },
    {
        "Postcode": "18300",
        "Location": "Kesedar Renok Baru",
        "Post_Office": "Gua Musang",
        "State": "Kelantan"
    },
    {
        "Postcode": "18300",
        "Location": "Kesedar Sungai  Asap",
        "Post_Office": "Gua Musang",
        "State": "Kelantan"
    },
    {
        "Postcode": "18300",
        "Location": "Kesedar Sungai Terap",
        "Post_Office": "Gua Musang",
        "State": "Kelantan"
    },
    {
        "Postcode": "18300",
        "Location": "Kuanters Jkr",
        "Post_Office": "Gua Musang",
        "State": "Kelantan"
    },
    {
        "Postcode": "18300",
        "Location": "Kuanters Pejabat Tanah",
        "Post_Office": "Gua Musang",
        "State": "Kelantan"
    },
    {
        "Postcode": "18300",
        "Location": "Ladang Ang Lin Lee",
        "Post_Office": "Gua Musang",
        "State": "Kelantan"
    },
    {
        "Postcode": "18300",
        "Location": "Ladang Chin Teck",
        "Post_Office": "Gua Musang",
        "State": "Kelantan"
    },
    {
        "Postcode": "18300",
        "Location": "Ladang Chua Rubber",
        "Post_Office": "Gua Musang",
        "State": "Kelantan"
    },
    {
        "Postcode": "18300",
        "Location": "Ladang Getah Chua",
        "Post_Office": "Gua Musang",
        "State": "Kelantan"
    },
    {
        "Postcode": "18300",
        "Location": "Ladang Sedc Sungai Terah",
        "Post_Office": "Gua Musang",
        "State": "Kelantan"
    },
    {
        "Postcode": "18300",
        "Location": "Lojing",
        "Post_Office": "Gua Musang",
        "State": "Kelantan"
    },
    {
        "Postcode": "18300",
        "Location": "Luth",
        "Post_Office": "Gua Musang",
        "State": "Kelantan"
    },
    {
        "Postcode": "18300",
        "Location": "Pajabat Qadhi",
        "Post_Office": "Gua Musang",
        "State": "Kelantan"
    },
    {
        "Postcode": "18300",
        "Location": "Pejabat Air Kelantan",
        "Post_Office": "Gua Musang",
        "State": "Kelantan"
    },
    {
        "Postcode": "18300",
        "Location": "Pejabat Felda",
        "Post_Office": "Gua Musang",
        "State": "Kelantan"
    },
    {
        "Postcode": "18300",
        "Location": "Pejabat Haiwan",
        "Post_Office": "Gua Musang",
        "State": "Kelantan"
    },
    {
        "Postcode": "18300",
        "Location": "Pejabat Hutan",
        "Post_Office": "Gua Musang",
        "State": "Kelantan"
    },
    {
        "Postcode": "18300",
        "Location": "Pejabat Jps",
        "Post_Office": "Gua Musang",
        "State": "Kelantan"
    },
    {
        "Postcode": "18300",
        "Location": "Pejabat Kesedar",
        "Post_Office": "Gua Musang",
        "State": "Kelantan"
    },
    {
        "Postcode": "18300",
        "Location": "Pejabat Peladang",
        "Post_Office": "Gua Musang",
        "State": "Kelantan"
    },
    {
        "Postcode": "18300",
        "Location": "Pejabat Pertanian",
        "Post_Office": "Gua Musang",
        "State": "Kelantan"
    },
    {
        "Postcode": "18300",
        "Location": "Pejabat Tanah",
        "Post_Office": "Gua Musang",
        "State": "Kelantan"
    },
    {
        "Postcode": "18300",
        "Location": "Pejabat Telekom",
        "Post_Office": "Gua Musang",
        "State": "Kelantan"
    },
    {
        "Postcode": "18300",
        "Location": "Perumahan Jpn 2",
        "Post_Office": "Gua Musang",
        "State": "Kelantan"
    },
    {
        "Postcode": "18300",
        "Location": "Pusat Kesihatan",
        "Post_Office": "Gua Musang",
        "State": "Kelantan"
    },
    {
        "Postcode": "18300",
        "Location": "Renjer",
        "Post_Office": "Gua Musang",
        "State": "Kelantan"
    },
    {
        "Postcode": "18300",
        "Location": "Risda",
        "Post_Office": "Gua Musang",
        "State": "Kelantan"
    },
    {
        "Postcode": "18300",
        "Location": "Rps Kuala Betis",
        "Post_Office": "Gua Musang",
        "State": "Kelantan"
    },
    {
        "Postcode": "18300",
        "Location": "Sekolah Arab Lemban",
        "Post_Office": "Gua Musang",
        "State": "Kelantan"
    },
    {
        "Postcode": "18300",
        "Location": "Sekolah Kebangsaan Sri Wangi",
        "Post_Office": "Gua Musang",
        "State": "Kelantan"
    },
    {
        "Postcode": "18300",
        "Location": "Sekolah Menengah Gua Musang",
        "Post_Office": "Gua Musang",
        "State": "Kelantan"
    },
    {
        "Postcode": "18300",
        "Location": "Taman Damar",
        "Post_Office": "Gua Musang",
        "State": "Kelantan"
    },
    {
        "Postcode": "18300",
        "Location": "Taman Gua Musang",
        "Post_Office": "Gua Musang",
        "State": "Kelantan"
    },
    {
        "Postcode": "18300",
        "Location": "Taman Kesedar Petra",
        "Post_Office": "Gua Musang",
        "State": "Kelantan"
    },
    {
        "Postcode": "18300",
        "Location": "Taman Wangi",
        "Post_Office": "Gua Musang",
        "State": "Kelantan"
    },
    {
        "Postcode": "18300",
        "Location": "Tenaga Nasional Berhad",
        "Post_Office": "Gua Musang",
        "State": "Kelantan"
    },
    {
        "Postcode": "18300",
        "Location": "Jalan Balai Polis",
        "Post_Office": "Gua Musang",
        "State": "Kelantan"
    },
    {
        "Postcode": "18300",
        "Location": "Kampung Pulai",
        "Post_Office": "Gua Musang",
        "State": "Kelantan"
    },
    {
        "Postcode": "18300",
        "Location": "Felda Aring 1",
        "Post_Office": "Gua Musang",
        "State": "Kelantan"
    },
    {
        "Postcode": "18300",
        "Location": "Felda Aring 2",
        "Post_Office": "Gua Musang",
        "State": "Kelantan"
    },
    {
        "Postcode": "18300",
        "Location": "Felda Aring 3",
        "Post_Office": "Gua Musang",
        "State": "Kelantan"
    },
    {
        "Postcode": "18300",
        "Location": "Felda Chiku 1",
        "Post_Office": "Gua Musang",
        "State": "Kelantan"
    },
    {
        "Postcode": "18300",
        "Location": "Felda Chiku 2",
        "Post_Office": "Gua Musang",
        "State": "Kelantan"
    },
    {
        "Postcode": "18300",
        "Location": "Felda Chiku 3",
        "Post_Office": "Gua Musang",
        "State": "Kelantan"
    },
    {
        "Postcode": "18300",
        "Location": "Felda Chiku 4",
        "Post_Office": "Gua Musang",
        "State": "Kelantan"
    },
    {
        "Postcode": "18300",
        "Location": "Felda Chiku 5",
        "Post_Office": "Gua Musang",
        "State": "Kelantan"
    },
    {
        "Postcode": "18300",
        "Location": "Kesedar Paloh 1",
        "Post_Office": "Gua Musang",
        "State": "Kelantan"
    },
    {
        "Postcode": "18300",
        "Location": "Kesedar Paloh 2",
        "Post_Office": "Gua Musang",
        "State": "Kelantan"
    },
    {
        "Postcode": "18300",
        "Location": "Kesedar Paloh 3",
        "Post_Office": "Gua Musang",
        "State": "Kelantan"
    },
    {
        "Postcode": "18300",
        "Location": "Sekolah Menengah Tengku Indera Petra 1",
        "Post_Office": "Gua Musang",
        "State": "Kelantan"
    },
    {
        "Postcode": "18300",
        "Location": "Sekolah Menengah Tengku Indera Petra 2",
        "Post_Office": "Gua Musang",
        "State": "Kelantan"
    },
    {
        "Postcode": "18300",
        "Location": "Taman Tropika 1",
        "Post_Office": "Gua Musang",
        "State": "Kelantan"
    },
    {
        "Postcode": "18300",
        "Location": "Taman Tropika 2",
        "Post_Office": "Gua Musang",
        "State": "Kelantan"
    },
    {
        "Postcode": "18300",
        "Location": "Bertam",
        "Post_Office": "Gua Musang",
        "State": "Kelantan"
    },
    {
        "Postcode": "18300",
        "Location": "Jalan Cempaka",
        "Post_Office": "Gua Musang",
        "State": "Kelantan"
    },
    {
        "Postcode": "18300",
        "Location": "Jalan Klinik",
        "Post_Office": "Gua Musang",
        "State": "Kelantan"
    },
    {
        "Postcode": "18300",
        "Location": "Jalan Melor",
        "Post_Office": "Gua Musang",
        "State": "Kelantan"
    },
    {
        "Postcode": "18300",
        "Location": "Jalan Tanjung",
        "Post_Office": "Gua Musang",
        "State": "Kelantan"
    },
    {
        "Postcode": "18300",
        "Location": "Kampung Tiong",
        "Post_Office": "Gua Musang",
        "State": "Kelantan"
    }
]
