[
    {
        "Postcode": "18400",
        "Location": "Bandar Temangan",
        "Post_Office": "Temangan",
        "State": "Kelantan"
    },
    {
        "Postcode": "18400",
        "Location": "Jalan Pengkalan Jerneh",
        "Post_Office": "Temangan",
        "State": "Kelantan"
    },
    {
        "Postcode": "18400",
        "Location": "Kampung Becah Pertok",
        "Post_Office": "Temangan",
        "State": "Kelantan"
    },
    {
        "Postcode": "18400",
        "Location": "Kampung Belukar Panjang",
        "Post_Office": "Temangan",
        "State": "Kelantan"
    },
    {
        "Postcode": "18400",
        "Location": "Kampung Bendang Buncit",
        "Post_Office": "Temangan",
        "State": "Kelantan"
    },
    {
        "Postcode": "18400",
        "Location": "Kampung Bendang Pertok Simpul",
        "Post_Office": "Temangan",
        "State": "Kelantan"
    },
    {
        "Postcode": "18400",
        "Location": "Kampung Bukit Besi",
        "Post_Office": "Temangan",
        "State": "Kelantan"
    },
    {
        "Postcode": "18400",
        "Location": "Kampung Bunchit",
        "Post_Office": "Temangan",
        "State": "Kelantan"
    },
    {
        "Postcode": "18400",
        "Location": "Kampung Jakar (Temangan)",
        "Post_Office": "Temangan",
        "State": "Kelantan"
    },
    {
        "Postcode": "18400",
        "Location": "Kampung Kemuchup",
        "Post_Office": "Temangan",
        "State": "Kelantan"
    },
    {
        "Postcode": "18400",
        "Location": "Kampung Kerilla",
        "Post_Office": "Temangan",
        "State": "Kelantan"
    },
    {
        "Postcode": "18400",
        "Location": "Kampung Kuala Abal",
        "Post_Office": "Temangan",
        "State": "Kelantan"
    },
    {
        "Postcode": "18400",
        "Location": "Kampung Kuala Hau",
        "Post_Office": "Temangan",
        "State": "Kelantan"
    },
    {
        "Postcode": "18400",
        "Location": "Kampung Merbau Labi",
        "Post_Office": "Temangan",
        "State": "Kelantan"
    },
    {
        "Postcode": "18400",
        "Location": "Kampung Pangkal Chuit",
        "Post_Office": "Temangan",
        "State": "Kelantan"
    },
    {
        "Postcode": "18400",
        "Location": "Kampung Pangkal Jenereh",
        "Post_Office": "Temangan",
        "State": "Kelantan"
    },
    {
        "Postcode": "18400",
        "Location": "Kampung Pangkal Pulai",
        "Post_Office": "Temangan",
        "State": "Kelantan"
    },
    {
        "Postcode": "18400",
        "Location": "Kampung Pasir Sena",
        "Post_Office": "Temangan",
        "State": "Kelantan"
    },
    {
        "Postcode": "18400",
        "Location": "Kampung Pasir Senor",
        "Post_Office": "Temangan",
        "State": "Kelantan"
    },
    {
        "Postcode": "18400",
        "Location": "Kampung Pertak",
        "Post_Office": "Temangan",
        "State": "Kelantan"
    },
    {
        "Postcode": "18400",
        "Location": "Kampung Sungai Bedal",
        "Post_Office": "Temangan",
        "State": "Kelantan"
    },
    {
        "Postcode": "18400",
        "Location": "Kampung Teluk Choh",
        "Post_Office": "Temangan",
        "State": "Kelantan"
    },
    {
        "Postcode": "18400",
        "Location": "Kampung Temangan",
        "Post_Office": "Temangan",
        "State": "Kelantan"
    },
    {
        "Postcode": "18400",
        "Location": "Kampung Temangan Baru",
        "Post_Office": "Temangan",
        "State": "Kelantan"
    },
    {
        "Postcode": "18400",
        "Location": "Klinik Desa Kerilla",
        "Post_Office": "Temangan",
        "State": "Kelantan"
    },
    {
        "Postcode": "18400",
        "Location": "Pusat Kesihatan Temangan",
        "Post_Office": "Temangan",
        "State": "Kelantan"
    },
    {
        "Postcode": "18400",
        "Location": "Taman Kerak",
        "Post_Office": "Temangan",
        "State": "Kelantan"
    },
    {
        "Postcode": "18400",
        "Location": "Taman Sri Pauh",
        "Post_Office": "Temangan",
        "State": "Kelantan"
    },
    {
        "Postcode": "18400",
        "Location": "Kampung Padang",
        "Post_Office": "Temangan",
        "State": "Kelantan"
    },
    {
        "Postcode": "18400",
        "Location": "Kampung Pauh",
        "Post_Office": "Temangan",
        "State": "Kelantan"
    },
    {
        "Postcode": "18400",
        "Location": "Sekolah Kebangsaan Temangan",
        "Post_Office": "Temangan",
        "State": "Kelantan"
    },
    {
        "Postcode": "18400",
        "Location": "Klinik Kesihatan Jakar",
        "Post_Office": "Temangan",
        "State": "Kelantan"
    },
    {
        "Postcode": "18400",
        "Location": "Sekolah Kebangsaan Kerella",
        "Post_Office": "Temangan",
        "State": "Kelantan"
    },
    {
        "Postcode": "18400",
        "Location": "Sekolah Kebangsaan Pangkal Jenereh",
        "Post_Office": "Temangan",
        "State": "Kelantan"
    },
    {
        "Postcode": "18400",
        "Location": "Sekolah Menengah Agama Aldiniah",
        "Post_Office": "Temangan",
        "State": "Kelantan"
    },
    {
        "Postcode": "18400",
        "Location": "Sekolah Menengah Kebangsaan Temangan",
        "Post_Office": "Temangan",
        "State": "Kelantan"
    }
]
