[
    {
        "Postcode": "18500",
        "Location": "Alia",
        "Post_Office": "Machang",
        "State": "Kelantan"
    },
    {
        "Postcode": "18500",
        "Location": "Bangunan Bbmb Jalan Pasir Puteh",
        "Post_Office": "Machang",
        "State": "Kelantan"
    },
    {
        "Postcode": "18500",
        "Location": "Bangunan Mara",
        "Post_Office": "Machang",
        "State": "Kelantan"
    },
    {
        "Postcode": "18500",
        "Location": "Bangunan Pkink Jalan Pasir Puteh",
        "Post_Office": "Machang",
        "State": "Kelantan"
    },
    {
        "Postcode": "18500",
        "Location": "Bangunan Tabung Haji",
        "Post_Office": "Machang",
        "State": "Kelantan"
    },
    {
        "Postcode": "18500",
        "Location": "Batu 22 1/2 - Batu 23 Labok Jalan Kuala Krai",
        "Post_Office": "Machang",
        "State": "Kelantan"
    },
    {
        "Postcode": "18500",
        "Location": "Batu 25 1/2  Jalan Kuala Krai",
        "Post_Office": "Machang",
        "State": "Kelantan"
    },
    {
        "Postcode": "18500",
        "Location": "Batu 25 Kampung Banggol Petai",
        "Post_Office": "Machang",
        "State": "Kelantan"
    },
    {
        "Postcode": "18500",
        "Location": "Batu 27 1/2 Jalan Kuala Krai",
        "Post_Office": "Machang",
        "State": "Kelantan"
    },
    {
        "Postcode": "18500",
        "Location": "Belakang Klinik",
        "Post_Office": "Machang",
        "State": "Kelantan"
    },
    {
        "Postcode": "18500",
        "Location": "Chabang 4 Kampung Wek",
        "Post_Office": "Machang",
        "State": "Kelantan"
    },
    {
        "Postcode": "18500",
        "Location": "Chabang Sekolah Kebangsaan Pek",
        "Post_Office": "Machang",
        "State": "Kelantan"
    },
    {
        "Postcode": "18500",
        "Location": "Chabang Tiga Che Well",
        "Post_Office": "Machang",
        "State": "Kelantan"
    },
    {
        "Postcode": "18500",
        "Location": "Chabang Tiga Kelaweh",
        "Post_Office": "Machang",
        "State": "Kelantan"
    },
    {
        "Postcode": "18500",
        "Location": "Chabang Tiga Kwen Hitam",
        "Post_Office": "Machang",
        "State": "Kelantan"
    },
    {
        "Postcode": "18500",
        "Location": "Depan Sekolah Arab Wataniah",
        "Post_Office": "Machang",
        "State": "Kelantan"
    },
    {
        "Postcode": "18500",
        "Location": "Jalan Bahagia",
        "Post_Office": "Machang",
        "State": "Kelantan"
    },
    {
        "Postcode": "18500",
        "Location": "Jalan Bandar Lama Machang",
        "Post_Office": "Machang",
        "State": "Kelantan"
    },
    {
        "Postcode": "18500",
        "Location": "Jalan Bandar Machang",
        "Post_Office": "Machang",
        "State": "Kelantan"
    },
    {
        "Postcode": "18500",
        "Location": "Jalan Bechah Kemuning",
        "Post_Office": "Machang",
        "State": "Kelantan"
    },
    {
        "Postcode": "18500",
        "Location": "Jalan Berangan Mek Nab",
        "Post_Office": "Machang",
        "State": "Kelantan"
    },
    {
        "Postcode": "18500",
        "Location": "Jalan Besar Kuin Hitam",
        "Post_Office": "Machang",
        "State": "Kelantan"
    },
    {
        "Postcode": "18500",
        "Location": "Jalan Besar Machang",
        "Post_Office": "Machang",
        "State": "Kelantan"
    },
    {
        "Postcode": "18500",
        "Location": "Jalan Bukit Besi",
        "Post_Office": "Machang",
        "State": "Kelantan"
    },
    {
        "Postcode": "18500",
        "Location": "Jalan Che Well",
        "Post_Office": "Machang",
        "State": "Kelantan"
    },
    {
        "Postcode": "18500",
        "Location": "Jalan Datok Hashim",
        "Post_Office": "Machang",
        "State": "Kelantan"
    },
    {
        "Postcode": "18500",
        "Location": "Jalan Dewan",
        "Post_Office": "Machang",
        "State": "Kelantan"
    },
    {
        "Postcode": "18500",
        "Location": "Jalan Gosong Pengkalan Amin",
        "Post_Office": "Machang",
        "State": "Kelantan"
    },
    {
        "Postcode": "18500",
        "Location": "Jalan Imam Haji Ismail",
        "Post_Office": "Machang",
        "State": "Kelantan"
    },
    {
        "Postcode": "18500",
        "Location": "Jalan Jaya/Jalan Haji Noh",
        "Post_Office": "Machang",
        "State": "Kelantan"
    },
    {
        "Postcode": "18500",
        "Location": "Jalan Joh",
        "Post_Office": "Machang",
        "State": "Kelantan"
    },
    {
        "Postcode": "18500",
        "Location": "Jalan Kampung Burok",
        "Post_Office": "Machang",
        "State": "Kelantan"
    },
    {
        "Postcode": "18500",
        "Location": "Jalan Kampung Lakloh",
        "Post_Office": "Machang",
        "State": "Kelantan"
    },
    {
        "Postcode": "18500",
        "Location": "Jalan Kampung Pauh",
        "Post_Office": "Machang",
        "State": "Kelantan"
    },
    {
        "Postcode": "18500",
        "Location": "Jalan Kampung Raja",
        "Post_Office": "Machang",
        "State": "Kelantan"
    },
    {
        "Postcode": "18500",
        "Location": "Jalan Kemahkotaan",
        "Post_Office": "Machang",
        "State": "Kelantan"
    },
    {
        "Postcode": "18500",
        "Location": "Jalan Kuala Krai Batu 30 \u0026 31",
        "Post_Office": "Machang",
        "State": "Kelantan"
    },
    {
        "Postcode": "18500",
        "Location": "Jalan Kubang Putat",
        "Post_Office": "Machang",
        "State": "Kelantan"
    },
    {
        "Postcode": "18500",
        "Location": "Jalan Kweng Umat",
        "Post_Office": "Machang",
        "State": "Kelantan"
    },
    {
        "Postcode": "18500",
        "Location": "Jalan Market Lama",
        "Post_Office": "Machang",
        "State": "Kelantan"
    },
    {
        "Postcode": "18500",
        "Location": "Jalan Melati",
        "Post_Office": "Machang",
        "State": "Kelantan"
    },
    {
        "Postcode": "18500",
        "Location": "Jalan Nakhoda",
        "Post_Office": "Machang",
        "State": "Kelantan"
    },
    {
        "Postcode": "18500",
        "Location": "Jalan Pangkal Mempelam",
        "Post_Office": "Machang",
        "State": "Kelantan"
    },
    {
        "Postcode": "18500",
        "Location": "Jalan Pasir Puteh Machang",
        "Post_Office": "Machang",
        "State": "Kelantan"
    },
    {
        "Postcode": "18500",
        "Location": "Jalan Pejabat",
        "Post_Office": "Machang",
        "State": "Kelantan"
    },
    {
        "Postcode": "18500",
        "Location": "Jalan Pek Panggong",
        "Post_Office": "Machang",
        "State": "Kelantan"
    },
    {
        "Postcode": "18500",
        "Location": "Jalan Pek Timur",
        "Post_Office": "Machang",
        "State": "Kelantan"
    },
    {
        "Postcode": "18500",
        "Location": "Jalan Pengkalan Petai Luar",
        "Post_Office": "Machang",
        "State": "Kelantan"
    },
    {
        "Postcode": "18500",
        "Location": "Jalan Pengkalan Petai Luar ",
        "Post_Office": "Machang",
        "State": "Kelantan"
    },
    {
        "Postcode": "18500",
        "Location": "Jalan Pondok Hidayah 2",
        "Post_Office": "Machang",
        "State": "Kelantan"
    },
    {
        "Postcode": "18500",
        "Location": "Jalan Semangat",
        "Post_Office": "Machang",
        "State": "Kelantan"
    },
    {
        "Postcode": "18500",
        "Location": "Jalan Setol 5",
        "Post_Office": "Machang",
        "State": "Kelantan"
    },
    {
        "Postcode": "18500",
        "Location": "Jalan Temangan Kampung Tengah",
        "Post_Office": "Machang",
        "State": "Kelantan"
    },
    {
        "Postcode": "18500",
        "Location": "Jalan Tengku Chik Bengkeng",
        "Post_Office": "Machang",
        "State": "Kelantan"
    },
    {
        "Postcode": "18500",
        "Location": "Jalan Tok Bilal",
        "Post_Office": "Machang",
        "State": "Kelantan"
    },
    {
        "Postcode": "18500",
        "Location": "Jalan Tualang Kelikir",
        "Post_Office": "Machang",
        "State": "Kelantan"
    },
    {
        "Postcode": "18500",
        "Location": "Jalan Wataniah",
        "Post_Office": "Machang",
        "State": "Kelantan"
    },
    {
        "Postcode": "18500",
        "Location": "Jalan Wira 1 \u0026 2 Batu 24 1/2",
        "Post_Office": "Machang",
        "State": "Kelantan"
    },
    {
        "Postcode": "18500",
        "Location": "Jambu Lawar",
        "Post_Office": "Machang",
        "State": "Kelantan"
    },
    {
        "Postcode": "18500",
        "Location": "Kampung Air Belaga",
        "Post_Office": "Machang",
        "State": "Kelantan"
    },
    {
        "Postcode": "18500",
        "Location": "Kampung Air Hijau",
        "Post_Office": "Machang",
        "State": "Kelantan"
    },
    {
        "Postcode": "18500",
        "Location": "Kampung Awah",
        "Post_Office": "Machang",
        "State": "Kelantan"
    },
    {
        "Postcode": "18500",
        "Location": "Kampung Ayer Hijau",
        "Post_Office": "Machang",
        "State": "Kelantan"
    },
    {
        "Postcode": "18500",
        "Location": "Kampung Bakat Belakang Hospital",
        "Post_Office": "Machang",
        "State": "Kelantan"
    },
    {
        "Postcode": "18500",
        "Location": "Kampung Balas Hulu",
        "Post_Office": "Machang",
        "State": "Kelantan"
    },
    {
        "Postcode": "18500",
        "Location": "Kampung Banggol Cantik",
        "Post_Office": "Machang",
        "State": "Kelantan"
    },
    {
        "Postcode": "18500",
        "Location": "Kampung Banggol Judah",
        "Post_Office": "Machang",
        "State": "Kelantan"
    },
    {
        "Postcode": "18500",
        "Location": "Kampung Banggol Pak Awang / Joh",
        "Post_Office": "Machang",
        "State": "Kelantan"
    },
    {
        "Postcode": "18500",
        "Location": "Kampung Banggol Pemanak",
        "Post_Office": "Machang",
        "State": "Kelantan"
    },
    {
        "Postcode": "18500",
        "Location": "Kampung Banggol Sering",
        "Post_Office": "Machang",
        "State": "Kelantan"
    },
    {
        "Postcode": "18500",
        "Location": "Kampung Banggol Sungai Mas",
        "Post_Office": "Machang",
        "State": "Kelantan"
    },
    {
        "Postcode": "18500",
        "Location": "Kampung Banggul",
        "Post_Office": "Machang",
        "State": "Kelantan"
    },
    {
        "Postcode": "18500",
        "Location": "Kampung Banggul Kuin",
        "Post_Office": "Machang",
        "State": "Kelantan"
    },
    {
        "Postcode": "18500",
        "Location": "Kampung Baruh Nibung",
        "Post_Office": "Machang",
        "State": "Kelantan"
    },
    {
        "Postcode": "18500",
        "Location": "Kampung Baruh Serdang",
        "Post_Office": "Machang",
        "State": "Kelantan"
    },
    {
        "Postcode": "18500",
        "Location": "Kampung Batu 31",
        "Post_Office": "Machang",
        "State": "Kelantan"
    },
    {
        "Postcode": "18500",
        "Location": "Kampung Batu 31 Dalam",
        "Post_Office": "Machang",
        "State": "Kelantan"
    },
    {
        "Postcode": "18500",
        "Location": "Kampung Batu 31 Luar",
        "Post_Office": "Machang",
        "State": "Kelantan"
    },
    {
        "Postcode": "18500",
        "Location": "Kampung Batu Berdiri",
        "Post_Office": "Machang",
        "State": "Kelantan"
    },
    {
        "Postcode": "18500",
        "Location": "Kampung Batu Mentara",
        "Post_Office": "Machang",
        "State": "Kelantan"
    },
    {
        "Postcode": "18500",
        "Location": "Kampung Becah Berok",
        "Post_Office": "Machang",
        "State": "Kelantan"
    },
    {
        "Postcode": "18500",
        "Location": "Kampung Bechah Besar",
        "Post_Office": "Machang",
        "State": "Kelantan"
    },
    {
        "Postcode": "18500",
        "Location": "Kampung Bechah Changgong",
        "Post_Office": "Machang",
        "State": "Kelantan"
    },
    {
        "Postcode": "18500",
        "Location": "Kampung Bechah Lara",
        "Post_Office": "Machang",
        "State": "Kelantan"
    },
    {
        "Postcode": "18500",
        "Location": "Kampung Bechah Nibung",
        "Post_Office": "Machang",
        "State": "Kelantan"
    },
    {
        "Postcode": "18500",
        "Location": "Kampung Bechah Raja",
        "Post_Office": "Machang",
        "State": "Kelantan"
    },
    {
        "Postcode": "18500",
        "Location": "Kampung Belukar Desa Harapan",
        "Post_Office": "Machang",
        "State": "Kelantan"
    },
    {
        "Postcode": "18500",
        "Location": "Kampung Belukar Kubor",
        "Post_Office": "Machang",
        "State": "Kelantan"
    },
    {
        "Postcode": "18500",
        "Location": "Kampung Bendang Cherang Hangus",
        "Post_Office": "Machang",
        "State": "Kelantan"
    },
    {
        "Postcode": "18500",
        "Location": "Kampung Bendang Pok Musa",
        "Post_Office": "Machang",
        "State": "Kelantan"
    },
    {
        "Postcode": "18500",
        "Location": "Kampung Berangan Mek Nab",
        "Post_Office": "Machang",
        "State": "Kelantan"
    },
    {
        "Postcode": "18500",
        "Location": "Kampung Binjal",
        "Post_Office": "Machang",
        "State": "Kelantan"
    },
    {
        "Postcode": "18500",
        "Location": "Kampung Bukit Baka",
        "Post_Office": "Machang",
        "State": "Kelantan"
    },
    {
        "Postcode": "18500",
        "Location": "Kampung Bukit Sawa",
        "Post_Office": "Machang",
        "State": "Kelantan"
    },
    {
        "Postcode": "18500",
        "Location": "Kampung Bukit Tiu",
        "Post_Office": "Machang",
        "State": "Kelantan"
    },
    {
        "Postcode": "18500",
        "Location": "Kampung Bunut Tok Mek Teh",
        "Post_Office": "Machang",
        "State": "Kelantan"
    },
    {
        "Postcode": "18500",
        "Location": "Kampung Chanor",
        "Post_Office": "Machang",
        "State": "Kelantan"
    },
    {
        "Postcode": "18500",
        "Location": "Kampung Che Wa",
        "Post_Office": "Machang",
        "State": "Kelantan"
    },
    {
        "Postcode": "18500",
        "Location": "Kampung Chekok Mengkudu",
        "Post_Office": "Machang",
        "State": "Kelantan"
    },
    {
        "Postcode": "18500",
        "Location": "Kampung Chekok Tok Cuba",
        "Post_Office": "Machang",
        "State": "Kelantan"
    },
    {
        "Postcode": "18500",
        "Location": "Kampung Cherodok",
        "Post_Office": "Machang",
        "State": "Kelantan"
    },
    {
        "Postcode": "18500",
        "Location": "Kampung Cina Tok Cuba",
        "Post_Office": "Machang",
        "State": "Kelantan"
    },
    {
        "Postcode": "18500",
        "Location": "Kampung Dalam Baka Kok Kiak",
        "Post_Office": "Machang",
        "State": "Kelantan"
    },
    {
        "Postcode": "18500",
        "Location": "Kampung Dewan Besar",
        "Post_Office": "Machang",
        "State": "Kelantan"
    },
    {
        "Postcode": "18500",
        "Location": "Kampung Dewan Kecil",
        "Post_Office": "Machang",
        "State": "Kelantan"
    },
    {
        "Postcode": "18500",
        "Location": "Kampung Durian Teluk",
        "Post_Office": "Machang",
        "State": "Kelantan"
    },
    {
        "Postcode": "18500",
        "Location": "Kampung Dusun Baru",
        "Post_Office": "Machang",
        "State": "Kelantan"
    },
    {
        "Postcode": "18500",
        "Location": "Kampung Dusun Baru Kuala Bakat",
        "Post_Office": "Machang",
        "State": "Kelantan"
    },
    {
        "Postcode": "18500",
        "Location": "Kampung Dusun Buruk",
        "Post_Office": "Machang",
        "State": "Kelantan"
    },
    {
        "Postcode": "18500",
        "Location": "Kampung Gaung",
        "Post_Office": "Machang",
        "State": "Kelantan"
    },
    {
        "Postcode": "18500",
        "Location": "Kampung Gaung Mengketil",
        "Post_Office": "Machang",
        "State": "Kelantan"
    },
    {
        "Postcode": "18500",
        "Location": "Kampung Gelung Gajah",
        "Post_Office": "Machang",
        "State": "Kelantan"
    },
    {
        "Postcode": "18500",
        "Location": "Kampung Gendang Lima",
        "Post_Office": "Machang",
        "State": "Kelantan"
    },
    {
        "Postcode": "18500",
        "Location": "Kampung Guntung",
        "Post_Office": "Machang",
        "State": "Kelantan"
    },
    {
        "Postcode": "18500",
        "Location": "Kampung Hulu Sat",
        "Post_Office": "Machang",
        "State": "Kelantan"
    },
    {
        "Postcode": "18500",
        "Location": "Kampung Hutan Kuin",
        "Post_Office": "Machang",
        "State": "Kelantan"
    },
    {
        "Postcode": "18500",
        "Location": "Kampung Hutan Putih",
        "Post_Office": "Machang",
        "State": "Kelantan"
    },
    {
        "Postcode": "18500",
        "Location": "Kampung Hutan Rebana",
        "Post_Office": "Machang",
        "State": "Kelantan"
    },
    {
        "Postcode": "18500",
        "Location": "Kampung Jelutong",
        "Post_Office": "Machang",
        "State": "Kelantan"
    },
    {
        "Postcode": "18500",
        "Location": "Kampung Joh Tepi Sungai",
        "Post_Office": "Machang",
        "State": "Kelantan"
    },
    {
        "Postcode": "18500",
        "Location": "Kampung Kakbah",
        "Post_Office": "Machang",
        "State": "Kelantan"
    },
    {
        "Postcode": "18500",
        "Location": "Kampung Kelaweh",
        "Post_Office": "Machang",
        "State": "Kelantan"
    },
    {
        "Postcode": "18500",
        "Location": "Kampung Kemahang",
        "Post_Office": "Machang",
        "State": "Kelantan"
    },
    {
        "Postcode": "18500",
        "Location": "Kampung Kemuning",
        "Post_Office": "Machang",
        "State": "Kelantan"
    },
    {
        "Postcode": "18500",
        "Location": "Kampung Kemuning Jalan Bukit Bakar",
        "Post_Office": "Machang",
        "State": "Kelantan"
    },
    {
        "Postcode": "18500",
        "Location": "Kampung Kenanga",
        "Post_Office": "Machang",
        "State": "Kelantan"
    },
    {
        "Postcode": "18500",
        "Location": "Kampung Kepong",
        "Post_Office": "Machang",
        "State": "Kelantan"
    },
    {
        "Postcode": "18500",
        "Location": "Kampung Kijal",
        "Post_Office": "Machang",
        "State": "Kelantan"
    },
    {
        "Postcode": "18500",
        "Location": "Kampung Kok Kiak",
        "Post_Office": "Machang",
        "State": "Kelantan"
    },
    {
        "Postcode": "18500",
        "Location": "Kampung Kolam Abu",
        "Post_Office": "Machang",
        "State": "Kelantan"
    },
    {
        "Postcode": "18500",
        "Location": "Kampung Kuala Ayer Merah",
        "Post_Office": "Machang",
        "State": "Kelantan"
    },
    {
        "Postcode": "18500",
        "Location": "Kampung Kuala Baka",
        "Post_Office": "Machang",
        "State": "Kelantan"
    },
    {
        "Postcode": "18500",
        "Location": "Kampung Kuala Baka Padang Raja",
        "Post_Office": "Machang",
        "State": "Kelantan"
    },
    {
        "Postcode": "18500",
        "Location": "Kampung Kuala Sat",
        "Post_Office": "Machang",
        "State": "Kelantan"
    },
    {
        "Postcode": "18500",
        "Location": "Kampung Kubang Katak",
        "Post_Office": "Machang",
        "State": "Kelantan"
    },
    {
        "Postcode": "18500",
        "Location": "Kampung Kweng Hitam",
        "Post_Office": "Machang",
        "State": "Kelantan"
    },
    {
        "Postcode": "18500",
        "Location": "Kampung Labok",
        "Post_Office": "Machang",
        "State": "Kelantan"
    },
    {
        "Postcode": "18500",
        "Location": "Kampung Laklok",
        "Post_Office": "Machang",
        "State": "Kelantan"
    },
    {
        "Postcode": "18500",
        "Location": "Kampung Lalang Luas",
        "Post_Office": "Machang",
        "State": "Kelantan"
    },
    {
        "Postcode": "18500",
        "Location": "Kampung Lepam Rambutan",
        "Post_Office": "Machang",
        "State": "Kelantan"
    },
    {
        "Postcode": "18500",
        "Location": "Kampung Lepan Peringat",
        "Post_Office": "Machang",
        "State": "Kelantan"
    },
    {
        "Postcode": "18500",
        "Location": "Kampung Lepan Setar",
        "Post_Office": "Machang",
        "State": "Kelantan"
    },
    {
        "Postcode": "18500",
        "Location": "Kampung Lepas",
        "Post_Office": "Machang",
        "State": "Kelantan"
    },
    {
        "Postcode": "18500",
        "Location": "Kampung Limau Hantu",
        "Post_Office": "Machang",
        "State": "Kelantan"
    },
    {
        "Postcode": "18500",
        "Location": "Kampung Lubok Benut",
        "Post_Office": "Machang",
        "State": "Kelantan"
    },
    {
        "Postcode": "18500",
        "Location": "Kampung Macang",
        "Post_Office": "Machang",
        "State": "Kelantan"
    },
    {
        "Postcode": "18500",
        "Location": "Kampung Machang Gedeber",
        "Post_Office": "Machang",
        "State": "Kelantan"
    },
    {
        "Postcode": "18500",
        "Location": "Kampung Maka",
        "Post_Office": "Machang",
        "State": "Kelantan"
    },
    {
        "Postcode": "18500",
        "Location": "Kampung Masjid Bunut",
        "Post_Office": "Machang",
        "State": "Kelantan"
    },
    {
        "Postcode": "18500",
        "Location": "Kampung Membunga",
        "Post_Office": "Machang",
        "State": "Kelantan"
    },
    {
        "Postcode": "18500",
        "Location": "Kampung Mengketil",
        "Post_Office": "Machang",
        "State": "Kelantan"
    },
    {
        "Postcode": "18500",
        "Location": "Kampung Mengkundur",
        "Post_Office": "Machang",
        "State": "Kelantan"
    },
    {
        "Postcode": "18500",
        "Location": "Kampung Merbau Kolah",
        "Post_Office": "Machang",
        "State": "Kelantan"
    },
    {
        "Postcode": "18500",
        "Location": "Kampung Merbau Salam",
        "Post_Office": "Machang",
        "State": "Kelantan"
    },
    {
        "Postcode": "18500",
        "Location": "Kampung Muka Bukit",
        "Post_Office": "Machang",
        "State": "Kelantan"
    },
    {
        "Postcode": "18500",
        "Location": "Kampung Padang Gorek",
        "Post_Office": "Machang",
        "State": "Kelantan"
    },
    {
        "Postcode": "18500",
        "Location": "Kampung Padang Kakbah",
        "Post_Office": "Machang",
        "State": "Kelantan"
    },
    {
        "Postcode": "18500",
        "Location": "Kampung Padang Luas",
        "Post_Office": "Machang",
        "State": "Kelantan"
    },
    {
        "Postcode": "18500",
        "Location": "Kampung Padang Mala",
        "Post_Office": "Machang",
        "State": "Kelantan"
    },
    {
        "Postcode": "18500",
        "Location": "Kampung Padang Raja Machang",
        "Post_Office": "Machang",
        "State": "Kelantan"
    },
    {
        "Postcode": "18500",
        "Location": "Kampung Padang Selising",
        "Post_Office": "Machang",
        "State": "Kelantan"
    },
    {
        "Postcode": "18500",
        "Location": "Kampung Pak Gombak",
        "Post_Office": "Machang",
        "State": "Kelantan"
    },
    {
        "Postcode": "18500",
        "Location": "Kampung Pak Kundur",
        "Post_Office": "Machang",
        "State": "Kelantan"
    },
    {
        "Postcode": "18500",
        "Location": "Kampung Pak Roman",
        "Post_Office": "Machang",
        "State": "Kelantan"
    },
    {
        "Postcode": "18500",
        "Location": "Kampung Paloh Rawa",
        "Post_Office": "Machang",
        "State": "Kelantan"
    },
    {
        "Postcode": "18500",
        "Location": "Kampung Pangkal Changgong",
        "Post_Office": "Machang",
        "State": "Kelantan"
    },
    {
        "Postcode": "18500",
        "Location": "Kampung Pangkal Changgung",
        "Post_Office": "Machang",
        "State": "Kelantan"
    },
    {
        "Postcode": "18500",
        "Location": "Kampung Pangkal Chendok",
        "Post_Office": "Machang",
        "State": "Kelantan"
    },
    {
        "Postcode": "18500",
        "Location": "Kampung Pangkal Gena",
        "Post_Office": "Machang",
        "State": "Kelantan"
    },
    {
        "Postcode": "18500",
        "Location": "Kampung Pangkal Jentas",
        "Post_Office": "Machang",
        "State": "Kelantan"
    },
    {
        "Postcode": "18500",
        "Location": "Kampung Pangkal Jentik",
        "Post_Office": "Machang",
        "State": "Kelantan"
    },
    {
        "Postcode": "18500",
        "Location": "Kampung Pangkal Jeti",
        "Post_Office": "Machang",
        "State": "Kelantan"
    },
    {
        "Postcode": "18500",
        "Location": "Kampung Pangkal Kepas",
        "Post_Office": "Machang",
        "State": "Kelantan"
    },
    {
        "Postcode": "18500",
        "Location": "Kampung Pangkal Kuang",
        "Post_Office": "Machang",
        "State": "Kelantan"
    },
    {
        "Postcode": "18500",
        "Location": "Kampung Pangkal Lubuk Bunut",
        "Post_Office": "Machang",
        "State": "Kelantan"
    },
    {
        "Postcode": "18500",
        "Location": "Kampung Pangkal Mak Wan",
        "Post_Office": "Machang",
        "State": "Kelantan"
    },
    {
        "Postcode": "18500",
        "Location": "Kampung Pangkal Meleret",
        "Post_Office": "Machang",
        "State": "Kelantan"
    },
    {
        "Postcode": "18500",
        "Location": "Kampung Pangkal Meluat",
        "Post_Office": "Machang",
        "State": "Kelantan"
    },
    {
        "Postcode": "18500",
        "Location": "Kampung Pangkal Petai",
        "Post_Office": "Machang",
        "State": "Kelantan"
    },
    {
        "Postcode": "18500",
        "Location": "Kampung Panyit",
        "Post_Office": "Machang",
        "State": "Kelantan"
    },
    {
        "Postcode": "18500",
        "Location": "Kampung Pek",
        "Post_Office": "Machang",
        "State": "Kelantan"
    },
    {
        "Postcode": "18500",
        "Location": "Kampung Peltah",
        "Post_Office": "Machang",
        "State": "Kelantan"
    },
    {
        "Postcode": "18500",
        "Location": "Kampung Pemanok",
        "Post_Office": "Machang",
        "State": "Kelantan"
    },
    {
        "Postcode": "18500",
        "Location": "Kampung Penakah",
        "Post_Office": "Machang",
        "State": "Kelantan"
    },
    {
        "Postcode": "18500",
        "Location": "Kampung Peneguh",
        "Post_Office": "Machang",
        "State": "Kelantan"
    },
    {
        "Postcode": "18500",
        "Location": "Kampung Pengkalan Berangan Kaabah",
        "Post_Office": "Machang",
        "State": "Kelantan"
    },
    {
        "Postcode": "18500",
        "Location": "Kampung Pengkalan Durian Dalam",
        "Post_Office": "Machang",
        "State": "Kelantan"
    },
    {
        "Postcode": "18500",
        "Location": "Kampung Pengkalan Durian Luar",
        "Post_Office": "Machang",
        "State": "Kelantan"
    },
    {
        "Postcode": "18500",
        "Location": "Kampung Pengkalan Jetas",
        "Post_Office": "Machang",
        "State": "Kelantan"
    },
    {
        "Postcode": "18500",
        "Location": "Kampung Pengkalan Kerdas Rengas",
        "Post_Office": "Machang",
        "State": "Kelantan"
    },
    {
        "Postcode": "18500",
        "Location": "Kampung Pengkalan Ketereh",
        "Post_Office": "Machang",
        "State": "Kelantan"
    },
    {
        "Postcode": "18500",
        "Location": "Kampung Pengkalan Kuang",
        "Post_Office": "Machang",
        "State": "Kelantan"
    },
    {
        "Postcode": "18500",
        "Location": "Kampung Pengkalan Merabang",
        "Post_Office": "Machang",
        "State": "Kelantan"
    },
    {
        "Postcode": "18500",
        "Location": "Kampung Pengkalan Pak Wan",
        "Post_Office": "Machang",
        "State": "Kelantan"
    },
    {
        "Postcode": "18500",
        "Location": "Kampung Pengkalan Petai Dalam",
        "Post_Office": "Machang",
        "State": "Kelantan"
    },
    {
        "Postcode": "18500",
        "Location": "Kampung Pengkalan Petai Luar",
        "Post_Office": "Machang",
        "State": "Kelantan"
    },
    {
        "Postcode": "18500",
        "Location": "Kampung Pengkalan Pisang",
        "Post_Office": "Machang",
        "State": "Kelantan"
    },
    {
        "Postcode": "18500",
        "Location": "Kampung Pertuk Baru",
        "Post_Office": "Machang",
        "State": "Kelantan"
    },
    {
        "Postcode": "18500",
        "Location": "Kampung Pertuk Lama",
        "Post_Office": "Machang",
        "State": "Kelantan"
    },
    {
        "Postcode": "18500",
        "Location": "Kampung Sega",
        "Post_Office": "Machang",
        "State": "Kelantan"
    },
    {
        "Postcode": "18500",
        "Location": "Kampung Selimbar",
        "Post_Office": "Machang",
        "State": "Kelantan"
    },
    {
        "Postcode": "18500",
        "Location": "Kampung Simpol",
        "Post_Office": "Machang",
        "State": "Kelantan"
    },
    {
        "Postcode": "18500",
        "Location": "Kampung Simpol Belubang",
        "Post_Office": "Machang",
        "State": "Kelantan"
    },
    {
        "Postcode": "18500",
        "Location": "Kampung Singer Kampung Baru",
        "Post_Office": "Machang",
        "State": "Kelantan"
    },
    {
        "Postcode": "18500",
        "Location": "Kampung Takir",
        "Post_Office": "Machang",
        "State": "Kelantan"
    },
    {
        "Postcode": "18500",
        "Location": "Kampung Takir Dalam",
        "Post_Office": "Machang",
        "State": "Kelantan"
    },
    {
        "Postcode": "18500",
        "Location": "Kampung Takir Luar",
        "Post_Office": "Machang",
        "State": "Kelantan"
    },
    {
        "Postcode": "18500",
        "Location": "Kampung Tanah Merah",
        "Post_Office": "Machang",
        "State": "Kelantan"
    },
    {
        "Postcode": "18500",
        "Location": "Kampung Telaga Tujuh",
        "Post_Office": "Machang",
        "State": "Kelantan"
    },
    {
        "Postcode": "18500",
        "Location": "Kampung Tualang Kudung",
        "Post_Office": "Machang",
        "State": "Kelantan"
    },
    {
        "Postcode": "18500",
        "Location": "Kampung Wakaf Bata",
        "Post_Office": "Machang",
        "State": "Kelantan"
    },
    {
        "Postcode": "18500",
        "Location": "Kampung Wakaf Che Omar",
        "Post_Office": "Machang",
        "State": "Kelantan"
    },
    {
        "Postcode": "18500",
        "Location": "Kampung Wek",
        "Post_Office": "Machang",
        "State": "Kelantan"
    },
    {
        "Postcode": "18500",
        "Location": "Kedai Labok",
        "Post_Office": "Machang",
        "State": "Kelantan"
    },
    {
        "Postcode": "18500",
        "Location": "Kemuning",
        "Post_Office": "Machang",
        "State": "Kelantan"
    },
    {
        "Postcode": "18500",
        "Location": "Lenden Estate",
        "Post_Office": "Machang",
        "State": "Kelantan"
    },
    {
        "Postcode": "18500",
        "Location": "Lorong Ab. Rahman",
        "Post_Office": "Machang",
        "State": "Kelantan"
    },
    {
        "Postcode": "18500",
        "Location": "Lorong Budi",
        "Post_Office": "Machang",
        "State": "Kelantan"
    },
    {
        "Postcode": "18500",
        "Location": "Lorong Delima 1",
        "Post_Office": "Machang",
        "State": "Kelantan"
    },
    {
        "Postcode": "18500",
        "Location": "Lorong Denai Muda",
        "Post_Office": "Machang",
        "State": "Kelantan"
    },
    {
        "Postcode": "18500",
        "Location": "Lorong Esso",
        "Post_Office": "Machang",
        "State": "Kelantan"
    },
    {
        "Postcode": "18500",
        "Location": "Lorong Haji Ahmad",
        "Post_Office": "Machang",
        "State": "Kelantan"
    },
    {
        "Postcode": "18500",
        "Location": "Lorong Haji Hashim",
        "Post_Office": "Machang",
        "State": "Kelantan"
    },
    {
        "Postcode": "18500",
        "Location": "Lorong Haji Salleh",
        "Post_Office": "Machang",
        "State": "Kelantan"
    },
    {
        "Postcode": "18500",
        "Location": "Lorong Hutan Awang",
        "Post_Office": "Machang",
        "State": "Kelantan"
    },
    {
        "Postcode": "18500",
        "Location": "Lorong Masjid",
        "Post_Office": "Machang",
        "State": "Kelantan"
    },
    {
        "Postcode": "18500",
        "Location": "Lorong Masjid Lama",
        "Post_Office": "Machang",
        "State": "Kelantan"
    },
    {
        "Postcode": "18500",
        "Location": "Lorong Mentara",
        "Post_Office": "Machang",
        "State": "Kelantan"
    },
    {
        "Postcode": "18500",
        "Location": "Lorong Pak Cik Him",
        "Post_Office": "Machang",
        "State": "Kelantan"
    },
    {
        "Postcode": "18500",
        "Location": "Lorong Risda",
        "Post_Office": "Machang",
        "State": "Kelantan"
    },
    {
        "Postcode": "18500",
        "Location": "Lorong Sunyi",
        "Post_Office": "Machang",
        "State": "Kelantan"
    },
    {
        "Postcode": "18500",
        "Location": "Lorong Surau Lama",
        "Post_Office": "Machang",
        "State": "Kelantan"
    },
    {
        "Postcode": "18500",
        "Location": "Lorong Tengku Yaakub",
        "Post_Office": "Machang",
        "State": "Kelantan"
    },
    {
        "Postcode": "18500",
        "Location": "Lorong Wan Ahmad",
        "Post_Office": "Machang",
        "State": "Kelantan"
    },
    {
        "Postcode": "18500",
        "Location": "Lorong Yamud",
        "Post_Office": "Machang",
        "State": "Kelantan"
    },
    {
        "Postcode": "18500",
        "Location": "Lrong Kubur",
        "Post_Office": "Machang",
        "State": "Kelantan"
    },
    {
        "Postcode": "18500",
        "Location": "Machang",
        "Post_Office": "Machang",
        "State": "Kelantan"
    },
    {
        "Postcode": "18500",
        "Location": "Pasar Besar Machang",
        "Post_Office": "Machang",
        "State": "Kelantan"
    },
    {
        "Postcode": "18500",
        "Location": "Penakah",
        "Post_Office": "Machang",
        "State": "Kelantan"
    },
    {
        "Postcode": "18500",
        "Location": "Persiaran Rahmat",
        "Post_Office": "Machang",
        "State": "Kelantan"
    },
    {
        "Postcode": "18500",
        "Location": "Perumahan Banggol Judah",
        "Post_Office": "Machang",
        "State": "Kelantan"
    },
    {
        "Postcode": "18500",
        "Location": "Perumahan Belukar Bukit Sawa",
        "Post_Office": "Machang",
        "State": "Kelantan"
    },
    {
        "Postcode": "18500",
        "Location": "Perumahan Jpn Joh",
        "Post_Office": "Machang",
        "State": "Kelantan"
    },
    {
        "Postcode": "18500",
        "Location": "Perumahan Kampung Cherang",
        "Post_Office": "Machang",
        "State": "Kelantan"
    },
    {
        "Postcode": "18500",
        "Location": "Perumahan Taman Jaya",
        "Post_Office": "Machang",
        "State": "Kelantan"
    },
    {
        "Postcode": "18500",
        "Location": "Sekolah Kebangsaan Dewan Besar",
        "Post_Office": "Machang",
        "State": "Kelantan"
    },
    {
        "Postcode": "18500",
        "Location": "Sekolah Kebangsaan Hamzah 2",
        "Post_Office": "Machang",
        "State": "Kelantan"
    },
    {
        "Postcode": "18500",
        "Location": "Sekolah Kebangsaan Kelaweh",
        "Post_Office": "Machang",
        "State": "Kelantan"
    },
    {
        "Postcode": "18500",
        "Location": "Sekolah Kebangsaan Labok",
        "Post_Office": "Machang",
        "State": "Kelantan"
    },
    {
        "Postcode": "18500",
        "Location": "Sekolah Kebangsaan Lawar",
        "Post_Office": "Machang",
        "State": "Kelantan"
    },
    {
        "Postcode": "18500",
        "Location": "Sekolah Kebangsaan Paloh Rawa",
        "Post_Office": "Machang",
        "State": "Kelantan"
    },
    {
        "Postcode": "18500",
        "Location": "Sekolah Kebangsaan Pangkal Jenerih",
        "Post_Office": "Machang",
        "State": "Kelantan"
    },
    {
        "Postcode": "18500",
        "Location": "Sekolah Kebangsaan Pengkal Jernih",
        "Post_Office": "Machang",
        "State": "Kelantan"
    },
    {
        "Postcode": "18500",
        "Location": "Sekolah Kebangsaan Pengkalan Meleret",
        "Post_Office": "Machang",
        "State": "Kelantan"
    },
    {
        "Postcode": "18500",
        "Location": "Sekolah Kebangsaan Ugama Al-Diniah",
        "Post_Office": "Machang",
        "State": "Kelantan"
    },
    {
        "Postcode": "18500",
        "Location": "Sekolah Menegah Sains Machang",
        "Post_Office": "Machang",
        "State": "Kelantan"
    },
    {
        "Postcode": "18500",
        "Location": "Sekolah Menengah Arab Saniah",
        "Post_Office": "Machang",
        "State": "Kelantan"
    },
    {
        "Postcode": "18500",
        "Location": "Sekolah Menengah Hamzah",
        "Post_Office": "Machang",
        "State": "Kelantan"
    },
    {
        "Postcode": "18500",
        "Location": "Sekolah Menengah Pengkalan Meleret",
        "Post_Office": "Machang",
        "State": "Kelantan"
    },
    {
        "Postcode": "18500",
        "Location": "Sekolah Menengah Shamsul Maarif (L)",
        "Post_Office": "Machang",
        "State": "Kelantan"
    },
    {
        "Postcode": "18500",
        "Location": "Sekolah Menengah Sri Intan",
        "Post_Office": "Machang",
        "State": "Kelantan"
    },
    {
        "Postcode": "18500",
        "Location": "Selimbar Guntong",
        "Post_Office": "Machang",
        "State": "Kelantan"
    },
    {
        "Postcode": "18500",
        "Location": "Simpang Tiga Pengkalan Durian",
        "Post_Office": "Machang",
        "State": "Kelantan"
    },
    {
        "Postcode": "18500",
        "Location": "Sungai Hala",
        "Post_Office": "Machang",
        "State": "Kelantan"
    },
    {
        "Postcode": "18500",
        "Location": "Sungai Mas",
        "Post_Office": "Machang",
        "State": "Kelantan"
    },
    {
        "Postcode": "18500",
        "Location": "Takil Luar",
        "Post_Office": "Machang",
        "State": "Kelantan"
    },
    {
        "Postcode": "18500",
        "Location": "Taman  Nuri",
        "Post_Office": "Machang",
        "State": "Kelantan"
    },
    {
        "Postcode": "18500",
        "Location": "Taman Air Hijau",
        "Post_Office": "Machang",
        "State": "Kelantan"
    },
    {
        "Postcode": "18500",
        "Location": "Taman Alia",
        "Post_Office": "Machang",
        "State": "Kelantan"
    },
    {
        "Postcode": "18500",
        "Location": "Taman Bahari",
        "Post_Office": "Machang",
        "State": "Kelantan"
    },
    {
        "Postcode": "18500",
        "Location": "Taman Bakti Batu 23 1/2",
        "Post_Office": "Machang",
        "State": "Kelantan"
    },
    {
        "Postcode": "18500",
        "Location": "Taman Bina Alam Cherodak",
        "Post_Office": "Machang",
        "State": "Kelantan"
    },
    {
        "Postcode": "18500",
        "Location": "Taman Bukit Ilmu Belukar",
        "Post_Office": "Machang",
        "State": "Kelantan"
    },
    {
        "Postcode": "18500",
        "Location": "Taman Damai",
        "Post_Office": "Machang",
        "State": "Kelantan"
    },
    {
        "Postcode": "18500",
        "Location": "Taman Dataran Fajar",
        "Post_Office": "Machang",
        "State": "Kelantan"
    },
    {
        "Postcode": "18500",
        "Location": "Taman Desa Al Hassan",
        "Post_Office": "Machang",
        "State": "Kelantan"
    },
    {
        "Postcode": "18500",
        "Location": "Taman Desa Azam",
        "Post_Office": "Machang",
        "State": "Kelantan"
    },
    {
        "Postcode": "18500",
        "Location": "Taman Desa Permai Labok",
        "Post_Office": "Machang",
        "State": "Kelantan"
    },
    {
        "Postcode": "18500",
        "Location": "Taman Desa Rakyat Labok",
        "Post_Office": "Machang",
        "State": "Kelantan"
    },
    {
        "Postcode": "18500",
        "Location": "Taman Desa Rebana",
        "Post_Office": "Machang",
        "State": "Kelantan"
    },
    {
        "Postcode": "18500",
        "Location": "Taman Edora",
        "Post_Office": "Machang",
        "State": "Kelantan"
    },
    {
        "Postcode": "18500",
        "Location": "Taman Eiia",
        "Post_Office": "Machang",
        "State": "Kelantan"
    },
    {
        "Postcode": "18500",
        "Location": "Taman Fajar Jaya",
        "Post_Office": "Machang",
        "State": "Kelantan"
    },
    {
        "Postcode": "18500",
        "Location": "Taman Hidayat",
        "Post_Office": "Machang",
        "State": "Kelantan"
    },
    {
        "Postcode": "18500",
        "Location": "Taman Hutan Kuin",
        "Post_Office": "Machang",
        "State": "Kelantan"
    },
    {
        "Postcode": "18500",
        "Location": "Taman Indah Kisana",
        "Post_Office": "Machang",
        "State": "Kelantan"
    },
    {
        "Postcode": "18500",
        "Location": "Taman Jambu Lawar",
        "Post_Office": "Machang",
        "State": "Kelantan"
    },
    {
        "Postcode": "18500",
        "Location": "Taman Kepas",
        "Post_Office": "Machang",
        "State": "Kelantan"
    },
    {
        "Postcode": "18500",
        "Location": "Taman Kuin Indah",
        "Post_Office": "Machang",
        "State": "Kelantan"
    },
    {
        "Postcode": "18500",
        "Location": "Taman Labok Jaya",
        "Post_Office": "Machang",
        "State": "Kelantan"
    },
    {
        "Postcode": "18500",
        "Location": "Taman Machang Indah",
        "Post_Office": "Machang",
        "State": "Kelantan"
    },
    {
        "Postcode": "18500",
        "Location": "Taman Madani",
        "Post_Office": "Machang",
        "State": "Kelantan"
    },
    {
        "Postcode": "18500",
        "Location": "Taman Nafas Baru",
        "Post_Office": "Machang",
        "State": "Kelantan"
    },
    {
        "Postcode": "18500",
        "Location": "Taman Noor",
        "Post_Office": "Machang",
        "State": "Kelantan"
    },
    {
        "Postcode": "18500",
        "Location": "Taman Padang Selising",
        "Post_Office": "Machang",
        "State": "Kelantan"
    },
    {
        "Postcode": "18500",
        "Location": "Taman Pinggiran Zaharah",
        "Post_Office": "Machang",
        "State": "Kelantan"
    },
    {
        "Postcode": "18500",
        "Location": "Taman Pkink",
        "Post_Office": "Machang",
        "State": "Kelantan"
    },
    {
        "Postcode": "18500",
        "Location": "Taman Raudah",
        "Post_Office": "Machang",
        "State": "Kelantan"
    },
    {
        "Postcode": "18500",
        "Location": "Taman Rimbunan",
        "Post_Office": "Machang",
        "State": "Kelantan"
    },
    {
        "Postcode": "18500",
        "Location": "Taman Riong",
        "Post_Office": "Machang",
        "State": "Kelantan"
    },
    {
        "Postcode": "18500",
        "Location": "Taman Seri Makmur",
        "Post_Office": "Machang",
        "State": "Kelantan"
    },
    {
        "Postcode": "18500",
        "Location": "Taman Setia Kasih",
        "Post_Office": "Machang",
        "State": "Kelantan"
    },
    {
        "Postcode": "18500",
        "Location": "Taman Siti Esah",
        "Post_Office": "Machang",
        "State": "Kelantan"
    },
    {
        "Postcode": "18500",
        "Location": "Taman Sri Indah",
        "Post_Office": "Machang",
        "State": "Kelantan"
    },
    {
        "Postcode": "18500",
        "Location": "Taman Sri Intan",
        "Post_Office": "Machang",
        "State": "Kelantan"
    },
    {
        "Postcode": "18500",
        "Location": "Taman Sri Kenak",
        "Post_Office": "Machang",
        "State": "Kelantan"
    },
    {
        "Postcode": "18500",
        "Location": "Taman Sri Kuin",
        "Post_Office": "Machang",
        "State": "Kelantan"
    },
    {
        "Postcode": "18500",
        "Location": "Taman Sri Machang",
        "Post_Office": "Machang",
        "State": "Kelantan"
    },
    {
        "Postcode": "18500",
        "Location": "Taman Zarah",
        "Post_Office": "Machang",
        "State": "Kelantan"
    },
    {
        "Postcode": "18500",
        "Location": "Tandak",
        "Post_Office": "Machang",
        "State": "Kelantan"
    },
    {
        "Postcode": "18500",
        "Location": "Temangan Lama",
        "Post_Office": "Machang",
        "State": "Kelantan"
    },
    {
        "Postcode": "18500",
        "Location": "To Chanor",
        "Post_Office": "Machang",
        "State": "Kelantan"
    },
    {
        "Postcode": "18500",
        "Location": "Tok Bok",
        "Post_Office": "Machang",
        "State": "Kelantan"
    },
    {
        "Postcode": "18500",
        "Location": "Wakaf Bata Gelong Gajah",
        "Post_Office": "Machang",
        "State": "Kelantan"
    },
    {
        "Postcode": "18500",
        "Location": "Jalan Bakti",
        "Post_Office": "Machang",
        "State": "Kelantan"
    },
    {
        "Postcode": "18500",
        "Location": "Jalan Padang",
        "Post_Office": "Machang",
        "State": "Kelantan"
    },
    {
        "Postcode": "18500",
        "Location": "Jalan Sawmill",
        "Post_Office": "Machang",
        "State": "Kelantan"
    },
    {
        "Postcode": "18500",
        "Location": "Kampung Bakat",
        "Post_Office": "Machang",
        "State": "Kelantan"
    },
    {
        "Postcode": "18500",
        "Location": "Kampung Banggol Kemian",
        "Post_Office": "Machang",
        "State": "Kelantan"
    },
    {
        "Postcode": "18500",
        "Location": "Kampung Banggol Ketereh",
        "Post_Office": "Machang",
        "State": "Kelantan"
    },
    {
        "Postcode": "18500",
        "Location": "Kampung Banggol Kulim",
        "Post_Office": "Machang",
        "State": "Kelantan"
    },
    {
        "Postcode": "18500",
        "Location": "Kampung Banggol Petani",
        "Post_Office": "Machang",
        "State": "Kelantan"
    },
    {
        "Postcode": "18500",
        "Location": "Kampung Bechah Pulai",
        "Post_Office": "Machang",
        "State": "Kelantan"
    },
    {
        "Postcode": "18500",
        "Location": "Kampung Limau Nipis",
        "Post_Office": "Machang",
        "State": "Kelantan"
    },
    {
        "Postcode": "18500",
        "Location": "Kampung Rengas",
        "Post_Office": "Machang",
        "State": "Kelantan"
    },
    {
        "Postcode": "18500",
        "Location": "Kampung Tok Kaya",
        "Post_Office": "Machang",
        "State": "Kelantan"
    },
    {
        "Postcode": "18500",
        "Location": "Taman Desa Melati",
        "Post_Office": "Machang",
        "State": "Kelantan"
    },
    {
        "Postcode": "18500",
        "Location": "Taman Desa Permai",
        "Post_Office": "Machang",
        "State": "Kelantan"
    },
    {
        "Postcode": "18500",
        "Location": "Taman Guru",
        "Post_Office": "Machang",
        "State": "Kelantan"
    },
    {
        "Postcode": "18500",
        "Location": "Taman Indah",
        "Post_Office": "Machang",
        "State": "Kelantan"
    },
    {
        "Postcode": "18500",
        "Location": "Taman Kota Sri Aman",
        "Post_Office": "Machang",
        "State": "Kelantan"
    },
    {
        "Postcode": "18500",
        "Location": "Taman Ilmu 1",
        "Post_Office": "Machang",
        "State": "Kelantan"
    },
    {
        "Postcode": "18500",
        "Location": "Taman Ilmu 2",
        "Post_Office": "Machang",
        "State": "Kelantan"
    },
    {
        "Postcode": "18500",
        "Location": "Jalan Tanjung",
        "Post_Office": "Machang",
        "State": "Kelantan"
    },
    {
        "Postcode": "18500",
        "Location": "Kampung Air Merah",
        "Post_Office": "Machang",
        "State": "Kelantan"
    },
    {
        "Postcode": "18500",
        "Location": "Kampung Banggol",
        "Post_Office": "Machang",
        "State": "Kelantan"
    },
    {
        "Postcode": "18500",
        "Location": "Kampung Bechah Kelubi",
        "Post_Office": "Machang",
        "State": "Kelantan"
    },
    {
        "Postcode": "18500",
        "Location": "Kampung Belukar",
        "Post_Office": "Machang",
        "State": "Kelantan"
    },
    {
        "Postcode": "18500",
        "Location": "Kampung Bukit",
        "Post_Office": "Machang",
        "State": "Kelantan"
    },
    {
        "Postcode": "18500",
        "Location": "Kampung Bukit Belah",
        "Post_Office": "Machang",
        "State": "Kelantan"
    },
    {
        "Postcode": "18500",
        "Location": "Kampung Bukit Kechik",
        "Post_Office": "Machang",
        "State": "Kelantan"
    },
    {
        "Postcode": "18500",
        "Location": "Kampung Bunut",
        "Post_Office": "Machang",
        "State": "Kelantan"
    },
    {
        "Postcode": "18500",
        "Location": "Kampung Chekok",
        "Post_Office": "Machang",
        "State": "Kelantan"
    },
    {
        "Postcode": "18500",
        "Location": "Kampung Cherang",
        "Post_Office": "Machang",
        "State": "Kelantan"
    },
    {
        "Postcode": "18500",
        "Location": "Kampung Cina",
        "Post_Office": "Machang",
        "State": "Kelantan"
    },
    {
        "Postcode": "18500",
        "Location": "Kampung Gutong",
        "Post_Office": "Machang",
        "State": "Kelantan"
    },
    {
        "Postcode": "18500",
        "Location": "Kampung Kepas",
        "Post_Office": "Machang",
        "State": "Kelantan"
    },
    {
        "Postcode": "18500",
        "Location": "Kampung Mata Ayer",
        "Post_Office": "Machang",
        "State": "Kelantan"
    },
    {
        "Postcode": "18500",
        "Location": "Kampung Pangkal Berangan",
        "Post_Office": "Machang",
        "State": "Kelantan"
    },
    {
        "Postcode": "18500",
        "Location": "Kampung Raja",
        "Post_Office": "Machang",
        "State": "Kelantan"
    },
    {
        "Postcode": "18500",
        "Location": "Kampung Tok Bilal",
        "Post_Office": "Machang",
        "State": "Kelantan"
    },
    {
        "Postcode": "18500",
        "Location": "Sekolah Jenis Kebangsaan Chung Hwa",
        "Post_Office": "Machang",
        "State": "Kelantan"
    },
    {
        "Postcode": "18500",
        "Location": "Sekolah Kebangsaan Temangan",
        "Post_Office": "Machang",
        "State": "Kelantan"
    },
    {
        "Postcode": "18500",
        "Location": "Taman Hidayah",
        "Post_Office": "Machang",
        "State": "Kelantan"
    },
    {
        "Postcode": "18500",
        "Location": "Taman Sentosa",
        "Post_Office": "Machang",
        "State": "Kelantan"
    },
    {
        "Postcode": "18500",
        "Location": "Taman Sri Permata",
        "Post_Office": "Machang",
        "State": "Kelantan"
    }
]
