[
    {
        "Postcode": "86000",
        "Location": "Jalan Abdullah",
        "Post_Office": "Kluang",
        "State": "Johor"
    },
    {
        "Postcode": "86000",
        "Location": "Jalan Besar",
        "Post_Office": "Kluang",
        "State": "Johor"
    },
    {
        "Postcode": "86000",
        "Location": "Jalan Bunga Raya",
        "Post_Office": "Kluang",
        "State": "Johor"
    },
    {
        "Postcode": "86000",
        "Location": "Jalan Ibrahim",
        "Post_Office": "Kluang",
        "State": "Johor"
    },
    {
        "Postcode": "86000",
        "Location": "Jalan Ismail",
        "Post_Office": "Kluang",
        "State": "Johor"
    },
    {
        "Postcode": "86000",
        "Location": "Jalan Masjid",
        "Post_Office": "Kluang",
        "State": "Johor"
    },
    {
        "Postcode": "86000",
        "Location": "Jalan Sekolah",
        "Post_Office": "Kluang",
        "State": "Johor"
    },
    {
        "Postcode": "86000",
        "Location": "Taman Aman",
        "Post_Office": "Kluang",
        "State": "Johor"
    },
    {
        "Postcode": "86000",
        "Location": "Taman Emas",
        "Post_Office": "Kluang",
        "State": "Johor"
    },
    {
        "Postcode": "86000",
        "Location": "Taman Orkid",
        "Post_Office": "Kluang",
        "State": "Johor"
    },
    {
        "Postcode": "86000",
        "Location": "Taman Permata",
        "Post_Office": "Kluang",
        "State": "Johor"
    },
    {
        "Postcode": "86000",
        "Location": "Taman Puteri",
        "Post_Office": "Kluang",
        "State": "Johor"
    },
    {
        "Postcode": "86000",
        "Location": "Taman Sri Indah",
        "Post_Office": "Kluang",
        "State": "Johor"
    },
    {
        "Postcode": "86000",
        "Location": "Taman Sri Jaya",
        "Post_Office": "Kluang",
        "State": "Johor"
    },
    {
        "Postcode": "86000",
        "Location": "Jalan Abu Bakar",
        "Post_Office": "Kluang",
        "State": "Johor"
    },
    {
        "Postcode": "86000",
        "Location": "Jalan Kolam Air",
        "Post_Office": "Kluang",
        "State": "Johor"
    },
    {
        "Postcode": "86000",
        "Location": "Jalan Rahmat",
        "Post_Office": "Kluang",
        "State": "Johor"
    },
    {
        "Postcode": "86000",
        "Location": "Taman Delima",
        "Post_Office": "Kluang",
        "State": "Johor"
    },
    {
        "Postcode": "86000",
        "Location": "Taman Kurnia",
        "Post_Office": "Kluang",
        "State": "Johor"
    },
    {
        "Postcode": "86000",
        "Location": "Taman Maju Jaya",
        "Post_Office": "Kluang",
        "State": "Johor"
    },
    {
        "Postcode": "86000",
        "Location": "Taman Makmur",
        "Post_Office": "Kluang",
        "State": "Johor"
    },
    {
        "Postcode": "86000",
        "Location": "Taman Palma",
        "Post_Office": "Kluang",
        "State": "Johor"
    },
    {
        "Postcode": "86000",
        "Location": "Taman Purnama",
        "Post_Office": "Kluang",
        "State": "Johor"
    },
    {
        "Postcode": "86000",
        "Location": "Taman Saujana",
        "Post_Office": "Kluang",
        "State": "Johor"
    },
    {
        "Postcode": "86000",
        "Location": "Jalan Cempaka",
        "Post_Office": "Kluang",
        "State": "Johor"
    },
    {
        "Postcode": "86000",
        "Location": "Jalan Durian",
        "Post_Office": "Kluang",
        "State": "Johor"
    },
    {
        "Postcode": "86000",
        "Location": "Jalan Kekwa",
        "Post_Office": "Kluang",
        "State": "Johor"
    },
    {
        "Postcode": "86000",
        "Location": "Jalan Kiambang",
        "Post_Office": "Kluang",
        "State": "Johor"
    },
    {
        "Postcode": "86000",
        "Location": "Jalan Maju",
        "Post_Office": "Kluang",
        "State": "Johor"
    },
    {
        "Postcode": "86000",
        "Location": "Jalan Manggis",
        "Post_Office": "Kluang",
        "State": "Johor"
    },
    {
        "Postcode": "86000",
        "Location": "Jalan Melati",
        "Post_Office": "Kluang",
        "State": "Johor"
    },
    {
        "Postcode": "86000",
        "Location": "Jalan Melor",
        "Post_Office": "Kluang",
        "State": "Johor"
    },
    {
        "Postcode": "86000",
        "Location": "Jalan Ampuan",
        "Post_Office": "Kluang",
        "State": "Johor"
    },
    {
        "Postcode": "86000",
        "Location": "Jalan Ara",
        "Post_Office": "Kluang",
        "State": "Johor"
    },
    {
        "Postcode": "86000",
        "Location": "Jalan Asrama",
        "Post_Office": "Kluang",
        "State": "Johor"
    },
    {
        "Postcode": "86000",
        "Location": "Jalan Balau",
        "Post_Office": "Kluang",
        "State": "Johor"
    },
    {
        "Postcode": "86000",
        "Location": "Jalan Berkat",
        "Post_Office": "Kluang",
        "State": "Johor"
    },
    {
        "Postcode": "86000",
        "Location": "Jalan Bermi",
        "Post_Office": "Kluang",
        "State": "Johor"
    },
    {
        "Postcode": "86000",
        "Location": "Jalan Cempedak",
        "Post_Office": "Kluang",
        "State": "Johor"
    },
    {
        "Postcode": "86000",
        "Location": "Jalan Dato Musa",
        "Post_Office": "Kluang",
        "State": "Johor"
    },
    {
        "Postcode": "86000",
        "Location": "Jalan Delima",
        "Post_Office": "Kluang",
        "State": "Johor"
    },
    {
        "Postcode": "86000",
        "Location": "Jalan Duku",
        "Post_Office": "Kluang",
        "State": "Johor"
    },
    {
        "Postcode": "86000",
        "Location": "Jalan Fajar",
        "Post_Office": "Kluang",
        "State": "Johor"
    },
    {
        "Postcode": "86000",
        "Location": "Jalan Gajus",
        "Post_Office": "Kluang",
        "State": "Johor"
    },
    {
        "Postcode": "86000",
        "Location": "Jalan Hassan",
        "Post_Office": "Kluang",
        "State": "Johor"
    },
    {
        "Postcode": "86000",
        "Location": "Jalan Hospital",
        "Post_Office": "Kluang",
        "State": "Johor"
    },
    {
        "Postcode": "86000",
        "Location": "Jalan Jati",
        "Post_Office": "Kluang",
        "State": "Johor"
    },
    {
        "Postcode": "86000",
        "Location": "Jalan Jelutong",
        "Post_Office": "Kluang",
        "State": "Johor"
    },
    {
        "Postcode": "86000",
        "Location": "Jalan Kemuning",
        "Post_Office": "Kluang",
        "State": "Johor"
    },
    {
        "Postcode": "86000",
        "Location": "Jalan Kemunting",
        "Post_Office": "Kluang",
        "State": "Johor"
    },
    {
        "Postcode": "86000",
        "Location": "Jalan Keranji",
        "Post_Office": "Kluang",
        "State": "Johor"
    },
    {
        "Postcode": "86000",
        "Location": "Jalan Keruing",
        "Post_Office": "Kluang",
        "State": "Johor"
    },
    {
        "Postcode": "86000",
        "Location": "Jalan Meranti",
        "Post_Office": "Kluang",
        "State": "Johor"
    },
    {
        "Postcode": "86000",
        "Location": "Jalan Omar",
        "Post_Office": "Kluang",
        "State": "Johor"
    },
    {
        "Postcode": "86000",
        "Location": "Jalan Rambutan",
        "Post_Office": "Kluang",
        "State": "Johor"
    },
    {
        "Postcode": "86000",
        "Location": "Jalan Sentosa",
        "Post_Office": "Kluang",
        "State": "Johor"
    },
    {
        "Postcode": "86000",
        "Location": "Jalan Station",
        "Post_Office": "Kluang",
        "State": "Johor"
    },
    {
        "Postcode": "86000",
        "Location": "Jalan Tembusu",
        "Post_Office": "Kluang",
        "State": "Johor"
    },
    {
        "Postcode": "86000",
        "Location": "Jalan Teratai",
        "Post_Office": "Kluang",
        "State": "Johor"
    },
    {
        "Postcode": "86000",
        "Location": "Kampung Kurnia",
        "Post_Office": "Kluang",
        "State": "Johor"
    },
    {
        "Postcode": "86000",
        "Location": "Taman Berlian",
        "Post_Office": "Kluang",
        "State": "Johor"
    },
    {
        "Postcode": "86000",
        "Location": "Taman Impian",
        "Post_Office": "Kluang",
        "State": "Johor"
    },
    {
        "Postcode": "86000",
        "Location": "Taman Indah Jaya",
        "Post_Office": "Kluang",
        "State": "Johor"
    },
    {
        "Postcode": "86000",
        "Location": "Taman Setia Indah",
        "Post_Office": "Kluang",
        "State": "Johor"
    },
    {
        "Postcode": "86000",
        "Location": "Taman Tasik",
        "Post_Office": "Kluang",
        "State": "Johor"
    },
    {
        "Postcode": "86000",
        "Location": "Taman Seri Impian 2",
        "Post_Office": "Kluang",
        "State": "Johor"
    },
    {
        "Postcode": "86000",
        "Location": "Taman Suria Indah",
        "Post_Office": "Kluang",
        "State": "Johor"
    },
    {
        "Postcode": "86000",
        "Location": "Taman Suria Mas",
        "Post_Office": "Kluang",
        "State": "Johor"
    },
    {
        "Postcode": "86000",
        "Location": "Bandar Baru",
        "Post_Office": "Kluang",
        "State": "Johor"
    },
    {
        "Postcode": "86000",
        "Location": "Bangunan Serbaguna",
        "Post_Office": "Kluang",
        "State": "Johor"
    },
    {
        "Postcode": "86000",
        "Location": "Desa Tenggara",
        "Post_Office": "Kluang",
        "State": "Johor"
    },
    {
        "Postcode": "86000",
        "Location": "Felda Air Hitam",
        "Post_Office": "Kluang",
        "State": "Johor"
    },
    {
        "Postcode": "86000",
        "Location": "Felda Bukit Tongkat",
        "Post_Office": "Kluang",
        "State": "Johor"
    },
    {
        "Postcode": "86000",
        "Location": "Felda Kahang Barat",
        "Post_Office": "Kluang",
        "State": "Johor"
    },
    {
        "Postcode": "86000",
        "Location": "Felda Kahang Timor",
        "Post_Office": "Kluang",
        "State": "Johor"
    },
    {
        "Postcode": "86000",
        "Location": "Felda Ulu Belitong",
        "Post_Office": "Kluang",
        "State": "Johor"
    },
    {
        "Postcode": "86000",
        "Location": "Felda Ulu Dengar",
        "Post_Office": "Kluang",
        "State": "Johor"
    },
    {
        "Postcode": "86000",
        "Location": "Felda Ulu Pengeli",
        "Post_Office": "Kluang",
        "State": "Johor"
    },
    {
        "Postcode": "86000",
        "Location": "Gunung Lambak",
        "Post_Office": "Kluang",
        "State": "Johor"
    },
    {
        "Postcode": "86000",
        "Location": "Housing Trust",
        "Post_Office": "Kluang",
        "State": "Johor"
    },
    {
        "Postcode": "86000",
        "Location": "Jalan A. Hamid Sagaff",
        "Post_Office": "Kluang",
        "State": "Johor"
    },
    {
        "Postcode": "86000",
        "Location": "Jalan Abd. Rahman Marko",
        "Post_Office": "Kluang",
        "State": "Johor"
    },
    {
        "Postcode": "86000",
        "Location": "Jalan Ahmad Khan",
        "Post_Office": "Kluang",
        "State": "Johor"
    },
    {
        "Postcode": "86000",
        "Location": "Jalan Bakau",
        "Post_Office": "Kluang",
        "State": "Johor"
    },
    {
        "Postcode": "86000",
        "Location": "Jalan Bakawali",
        "Post_Office": "Kluang",
        "State": "Johor"
    },
    {
        "Postcode": "86000",
        "Location": "Jalan Basong",
        "Post_Office": "Kluang",
        "State": "Johor"
    },
    {
        "Postcode": "86000",
        "Location": "Jalan Batu Pahat (Bt 1 - 7)",
        "Post_Office": "Kluang",
        "State": "Johor"
    },
    {
        "Postcode": "86000",
        "Location": "Jalan Benar",
        "Post_Office": "Kluang",
        "State": "Johor"
    },
    {
        "Postcode": "86000",
        "Location": "Jalan Bentara",
        "Post_Office": "Kluang",
        "State": "Johor"
    },
    {
        "Postcode": "86000",
        "Location": "Jalan Berangan",
        "Post_Office": "Kluang",
        "State": "Johor"
    },
    {
        "Postcode": "86000",
        "Location": "Jalan Berek Bukit",
        "Post_Office": "Kluang",
        "State": "Johor"
    },
    {
        "Postcode": "86000",
        "Location": "Jalan Berembang",
        "Post_Office": "Kluang",
        "State": "Johor"
    },
    {
        "Postcode": "86000",
        "Location": "Jalan Berumun",
        "Post_Office": "Kluang",
        "State": "Johor"
    },
    {
        "Postcode": "86000",
        "Location": "Jalan Betok",
        "Post_Office": "Kluang",
        "State": "Johor"
    },
    {
        "Postcode": "86000",
        "Location": "Jalan Binjai",
        "Post_Office": "Kluang",
        "State": "Johor"
    },
    {
        "Postcode": "86000",
        "Location": "Jalan Bringin",
        "Post_Office": "Kluang",
        "State": "Johor"
    },
    {
        "Postcode": "86000",
        "Location": "Jalan Bruas",
        "Post_Office": "Kluang",
        "State": "Johor"
    },
    {
        "Postcode": "86000",
        "Location": "Jalan Bulan",
        "Post_Office": "Kluang",
        "State": "Johor"
    },
    {
        "Postcode": "86000",
        "Location": "Jalan Cantik",
        "Post_Office": "Kluang",
        "State": "Johor"
    },
    {
        "Postcode": "86000",
        "Location": "Jalan Capt. Ahmad",
        "Post_Office": "Kluang",
        "State": "Johor"
    },
    {
        "Postcode": "86000",
        "Location": "Jalan Chong Bong Seong",
        "Post_Office": "Kluang",
        "State": "Johor"
    },
    {
        "Postcode": "86000",
        "Location": "Jalan Comel",
        "Post_Office": "Kluang",
        "State": "Johor"
    },
    {
        "Postcode": "86000",
        "Location": "Jalan Dato A. Kadir Abdullah",
        "Post_Office": "Kluang",
        "State": "Johor"
    },
    {
        "Postcode": "86000",
        "Location": "Jalan Dato Ab. Rahman",
        "Post_Office": "Kluang",
        "State": "Johor"
    },
    {
        "Postcode": "86000",
        "Location": "Jalan Dato Foo Yen",
        "Post_Office": "Kluang",
        "State": "Johor"
    },
    {
        "Postcode": "86000",
        "Location": "Jalan Dato Ibrahim Majid",
        "Post_Office": "Kluang",
        "State": "Johor"
    },
    {
        "Postcode": "86000",
        "Location": "Jalan Dato Ismail Hassan",
        "Post_Office": "Kluang",
        "State": "Johor"
    },
    {
        "Postcode": "86000",
        "Location": "Jalan Dato Rauf",
        "Post_Office": "Kluang",
        "State": "Johor"
    },
    {
        "Postcode": "86000",
        "Location": "Jalan Dorest",
        "Post_Office": "Kluang",
        "State": "Johor"
    },
    {
        "Postcode": "86000",
        "Location": "Jalan Dt. A. Rahman Ahmad",
        "Post_Office": "Kluang",
        "State": "Johor"
    },
    {
        "Postcode": "86000",
        "Location": "Jalan Dungun",
        "Post_Office": "Kluang",
        "State": "Johor"
    },
    {
        "Postcode": "86000",
        "Location": "Jalan Fernando",
        "Post_Office": "Kluang",
        "State": "Johor"
    },
    {
        "Postcode": "86000",
        "Location": "Jalan Foo Kay Han",
        "Post_Office": "Kluang",
        "State": "Johor"
    },
    {
        "Postcode": "86000",
        "Location": "Jalan Haji Abd. Aziz Awab",
        "Post_Office": "Kluang",
        "State": "Johor"
    },
    {
        "Postcode": "86000",
        "Location": "Jalan Haji Dahlan Dikon",
        "Post_Office": "Kluang",
        "State": "Johor"
    },
    {
        "Postcode": "86000",
        "Location": "Jalan Haji Manan",
        "Post_Office": "Kluang",
        "State": "Johor"
    },
    {
        "Postcode": "86000",
        "Location": "Jalan Haji Manap Nordin",
        "Post_Office": "Kluang",
        "State": "Johor"
    },
    {
        "Postcode": "86000",
        "Location": "Jalan Haji Md. Zin",
        "Post_Office": "Kluang",
        "State": "Johor"
    },
    {
        "Postcode": "86000",
        "Location": "Jalan Haji Zakaria Dikon",
        "Post_Office": "Kluang",
        "State": "Johor"
    },
    {
        "Postcode": "86000",
        "Location": "Jalan Haruan",
        "Post_Office": "Kluang",
        "State": "Johor"
    },
    {
        "Postcode": "86000",
        "Location": "Jalan Imam Haji Ahmad",
        "Post_Office": "Kluang",
        "State": "Johor"
    },
    {
        "Postcode": "86000",
        "Location": "Jalan Isman Maarof",
        "Post_Office": "Kluang",
        "State": "Johor"
    },
    {
        "Postcode": "86000",
        "Location": "Jalan Jambu",
        "Post_Office": "Kluang",
        "State": "Johor"
    },
    {
        "Postcode": "86000",
        "Location": "Jalan Jaya",
        "Post_Office": "Kluang",
        "State": "Johor"
    },
    {
        "Postcode": "86000",
        "Location": "Jalan Kampung Melayu",
        "Post_Office": "Kluang",
        "State": "Johor"
    },
    {
        "Postcode": "86000",
        "Location": "Jalan Kasturi",
        "Post_Office": "Kluang",
        "State": "Johor"
    },
    {
        "Postcode": "86000",
        "Location": "Jalan Kenanga",
        "Post_Office": "Kluang",
        "State": "Johor"
    },
    {
        "Postcode": "86000",
        "Location": "Jalan Kerjasama",
        "Post_Office": "Kluang",
        "State": "Johor"
    },
    {
        "Postcode": "86000",
        "Location": "Jalan Koko",
        "Post_Office": "Kluang",
        "State": "Johor"
    },
    {
        "Postcode": "86000",
        "Location": "Jalan Kopi",
        "Post_Office": "Kluang",
        "State": "Johor"
    },
    {
        "Postcode": "86000",
        "Location": "Jalan Kulim",
        "Post_Office": "Kluang",
        "State": "Johor"
    },
    {
        "Postcode": "86000",
        "Location": "Jalan Lee Kok Wah",
        "Post_Office": "Kluang",
        "State": "Johor"
    },
    {
        "Postcode": "86000",
        "Location": "Jalan Lembat",
        "Post_Office": "Kluang",
        "State": "Johor"
    },
    {
        "Postcode": "86000",
        "Location": "Jalan Lim Swee Sim",
        "Post_Office": "Kluang",
        "State": "Johor"
    },
    {
        "Postcode": "86000",
        "Location": "Jalan Lintang",
        "Post_Office": "Kluang",
        "State": "Johor"
    },
    {
        "Postcode": "86000",
        "Location": "Jalan Makmor",
        "Post_Office": "Kluang",
        "State": "Johor"
    },
    {
        "Postcode": "86000",
        "Location": "Jalan Manis",
        "Post_Office": "Kluang",
        "State": "Johor"
    },
    {
        "Postcode": "86000",
        "Location": "Jalan Mansor Haji Salleh",
        "Post_Office": "Kluang",
        "State": "Johor"
    },
    {
        "Postcode": "86000",
        "Location": "Jalan Mata Kucing",
        "Post_Office": "Kluang",
        "State": "Johor"
    },
    {
        "Postcode": "86000",
        "Location": "Jalan Md. Lazim Saim",
        "Post_Office": "Kluang",
        "State": "Johor"
    },
    {
        "Postcode": "86000",
        "Location": "Jalan Mekasar",
        "Post_Office": "Kluang",
        "State": "Johor"
    },
    {
        "Postcode": "86000",
        "Location": "Jalan Mengkibol",
        "Post_Office": "Kluang",
        "State": "Johor"
    },
    {
        "Postcode": "86000",
        "Location": "Jalan Mohd. Ngalim",
        "Post_Office": "Kluang",
        "State": "Johor"
    },
    {
        "Postcode": "86000",
        "Location": "Jalan Mohd. Saim",
        "Post_Office": "Kluang",
        "State": "Johor"
    },
    {
        "Postcode": "86000",
        "Location": "Jalan Molek",
        "Post_Office": "Kluang",
        "State": "Johor"
    },
    {
        "Postcode": "86000",
        "Location": "Jalan Ng Pi Ton",
        "Post_Office": "Kluang",
        "State": "Johor"
    },
    {
        "Postcode": "86000",
        "Location": "Jalan Ooi Boon Keng",
        "Post_Office": "Kluang",
        "State": "Johor"
    },
    {
        "Postcode": "86000",
        "Location": "Jalan Othmanwahid",
        "Post_Office": "Kluang",
        "State": "Johor"
    },
    {
        "Postcode": "86000",
        "Location": "Jalan Panggung",
        "Post_Office": "Kluang",
        "State": "Johor"
    },
    {
        "Postcode": "86000",
        "Location": "Jalan Pari",
        "Post_Office": "Kluang",
        "State": "Johor"
    },
    {
        "Postcode": "86000",
        "Location": "Jalan Paus",
        "Post_Office": "Kluang",
        "State": "Johor"
    },
    {
        "Postcode": "86000",
        "Location": "Jalan Penghulu Kassim",
        "Post_Office": "Kluang",
        "State": "Johor"
    },
    {
        "Postcode": "86000",
        "Location": "Jalan Perajurit",
        "Post_Office": "Kluang",
        "State": "Johor"
    },
    {
        "Postcode": "86000",
        "Location": "Jalan Pimping",
        "Post_Office": "Kluang",
        "State": "Johor"
    },
    {
        "Postcode": "86000",
        "Location": "Jalan Raja Omar",
        "Post_Office": "Kluang",
        "State": "Johor"
    },
    {
        "Postcode": "86000",
        "Location": "Jalan Rhu",
        "Post_Office": "Kluang",
        "State": "Johor"
    },
    {
        "Postcode": "86000",
        "Location": "Jalan Sejahtera",
        "Post_Office": "Kluang",
        "State": "Johor"
    },
    {
        "Postcode": "86000",
        "Location": "Jalan Sekolah Chong Pew",
        "Post_Office": "Kluang",
        "State": "Johor"
    },
    {
        "Postcode": "86000",
        "Location": "Jalan Sekolah Chong Wah",
        "Post_Office": "Kluang",
        "State": "Johor"
    },
    {
        "Postcode": "86000",
        "Location": "Jalan Selar",
        "Post_Office": "Kluang",
        "State": "Johor"
    },
    {
        "Postcode": "86000",
        "Location": "Jalan Sembilang",
        "Post_Office": "Kluang",
        "State": "Johor"
    },
    {
        "Postcode": "86000",
        "Location": "Jalan Senohong",
        "Post_Office": "Kluang",
        "State": "Johor"
    },
    {
        "Postcode": "86000",
        "Location": "Jalan Sepetir",
        "Post_Office": "Kluang",
        "State": "Johor"
    },
    {
        "Postcode": "86000",
        "Location": "Jalan Siantan",
        "Post_Office": "Kluang",
        "State": "Johor"
    },
    {
        "Postcode": "86000",
        "Location": "Jalan Siew Theng Hoi",
        "Post_Office": "Kluang",
        "State": "Johor"
    },
    {
        "Postcode": "86000",
        "Location": "Jalan Sukiman Sahlan",
        "Post_Office": "Kluang",
        "State": "Johor"
    },
    {
        "Postcode": "86000",
        "Location": "Jalan Sukun",
        "Post_Office": "Kluang",
        "State": "Johor"
    },
    {
        "Postcode": "86000",
        "Location": "Jalan Sulaiman Mohd Noor",
        "Post_Office": "Kluang",
        "State": "Johor"
    },
    {
        "Postcode": "86000",
        "Location": "Jalan Sulit",
        "Post_Office": "Kluang",
        "State": "Johor"
    },
    {
        "Postcode": "86000",
        "Location": "Jalan Summerat Garden",
        "Post_Office": "Kluang",
        "State": "Johor"
    },
    {
        "Postcode": "86000",
        "Location": "Jalan Syed Zain",
        "Post_Office": "Kluang",
        "State": "Johor"
    },
    {
        "Postcode": "86000",
        "Location": "Jalan Tan Seng Leong",
        "Post_Office": "Kluang",
        "State": "Johor"
    },
    {
        "Postcode": "86000",
        "Location": "Jalan Tan Teo Kee",
        "Post_Office": "Kluang",
        "State": "Johor"
    },
    {
        "Postcode": "86000",
        "Location": "Jalan Tempinis",
        "Post_Office": "Kluang",
        "State": "Johor"
    },
    {
        "Postcode": "86000",
        "Location": "Jalan Tengku Mahkota Ismail",
        "Post_Office": "Kluang",
        "State": "Johor"
    },
    {
        "Postcode": "86000",
        "Location": "Jalan Teoh Siew Khor",
        "Post_Office": "Kluang",
        "State": "Johor"
    },
    {
        "Postcode": "86000",
        "Location": "Jalan Tham Kim Seck",
        "Post_Office": "Kluang",
        "State": "Johor"
    },
    {
        "Postcode": "86000",
        "Location": "Jalan Tien Men Wah",
        "Post_Office": "Kluang",
        "State": "Johor"
    },
    {
        "Postcode": "86000",
        "Location": "Jalan Tong Toe Kek",
        "Post_Office": "Kluang",
        "State": "Johor"
    },
    {
        "Postcode": "86000",
        "Location": "Jalan Ungku Mohd Salleh",
        "Post_Office": "Kluang",
        "State": "Johor"
    },
    {
        "Postcode": "86000",
        "Location": "Jalanlambak",
        "Post_Office": "Kluang",
        "State": "Johor"
    },
    {
        "Postcode": "86000",
        "Location": "Jalanoked (Semua)",
        "Post_Office": "Kluang",
        "State": "Johor"
    },
    {
        "Postcode": "86000",
        "Location": "Johor Base Park",
        "Post_Office": "Kluang",
        "State": "Johor"
    },
    {
        "Postcode": "86000",
        "Location": "Kampung Abdul Majid",
        "Post_Office": "Kluang",
        "State": "Johor"
    },
    {
        "Postcode": "86000",
        "Location": "Kampung Baru Lapis",
        "Post_Office": "Kluang",
        "State": "Johor"
    },
    {
        "Postcode": "86000",
        "Location": "Kampung Baru Nyior",
        "Post_Office": "Kluang",
        "State": "Johor"
    },
    {
        "Postcode": "86000",
        "Location": "Kampung Baru Sri Lalang",
        "Post_Office": "Kluang",
        "State": "Johor"
    },
    {
        "Postcode": "86000",
        "Location": "Kampung Batu 5 (Seri Lalang)",
        "Post_Office": "Kluang",
        "State": "Johor"
    },
    {
        "Postcode": "86000",
        "Location": "Kampung Bentong",
        "Post_Office": "Kluang",
        "State": "Johor"
    },
    {
        "Postcode": "86000",
        "Location": "Kampung Bentong Dalam",
        "Post_Office": "Kluang",
        "State": "Johor"
    },
    {
        "Postcode": "86000",
        "Location": "Kampung Bentong Luar",
        "Post_Office": "Kluang",
        "State": "Johor"
    },
    {
        "Postcode": "86000",
        "Location": "Kampung Bungsu",
        "Post_Office": "Kluang",
        "State": "Johor"
    },
    {
        "Postcode": "86000",
        "Location": "Kampung Dato Abd Rahman Yassin",
        "Post_Office": "Kluang",
        "State": "Johor"
    },
    {
        "Postcode": "86000",
        "Location": "Kampung Enam",
        "Post_Office": "Kluang",
        "State": "Johor"
    },
    {
        "Postcode": "86000",
        "Location": "Kampung Gunong Lambak 2",
        "Post_Office": "Kluang",
        "State": "Johor"
    },
    {
        "Postcode": "86000",
        "Location": "Kampung Haji Hamzah",
        "Post_Office": "Kluang",
        "State": "Johor"
    },
    {
        "Postcode": "86000",
        "Location": "Kampung Haji Jaafar",
        "Post_Office": "Kluang",
        "State": "Johor"
    },
    {
        "Postcode": "86000",
        "Location": "Kampung Haji Manan",
        "Post_Office": "Kluang",
        "State": "Johor"
    },
    {
        "Postcode": "86000",
        "Location": "Kampung Ilham",
        "Post_Office": "Kluang",
        "State": "Johor"
    },
    {
        "Postcode": "86000",
        "Location": "Kampung Lim",
        "Post_Office": "Kluang",
        "State": "Johor"
    },
    {
        "Postcode": "86000",
        "Location": "Kampung Majid",
        "Post_Office": "Kluang",
        "State": "Johor"
    },
    {
        "Postcode": "86000",
        "Location": "Kampung Majid Dalam",
        "Post_Office": "Kluang",
        "State": "Johor"
    },
    {
        "Postcode": "86000",
        "Location": "Kampung Melayu Batu 5",
        "Post_Office": "Kluang",
        "State": "Johor"
    },
    {
        "Postcode": "86000",
        "Location": "Kampung Melayu Batu 6",
        "Post_Office": "Kluang",
        "State": "Johor"
    },
    {
        "Postcode": "86000",
        "Location": "Kampung Mengkibol",
        "Post_Office": "Kluang",
        "State": "Johor"
    },
    {
        "Postcode": "86000",
        "Location": "Kampung Mic (Km 7)",
        "Post_Office": "Kluang",
        "State": "Johor"
    },
    {
        "Postcode": "86000",
        "Location": "Kampung Nyior",
        "Post_Office": "Kluang",
        "State": "Johor"
    },
    {
        "Postcode": "86000",
        "Location": "Kampung Orang Asli (Gunung Lambak)",
        "Post_Office": "Kluang",
        "State": "Johor"
    },
    {
        "Postcode": "86000",
        "Location": "Kampung Padang Tembak",
        "Post_Office": "Kluang",
        "State": "Johor"
    },
    {
        "Postcode": "86000",
        "Location": "Kampung Palembang Baru",
        "Post_Office": "Kluang",
        "State": "Johor"
    },
    {
        "Postcode": "86000",
        "Location": "Kampung Palembang Dalam",
        "Post_Office": "Kluang",
        "State": "Johor"
    },
    {
        "Postcode": "86000",
        "Location": "Kampung Palembang Lama",
        "Post_Office": "Kluang",
        "State": "Johor"
    },
    {
        "Postcode": "86000",
        "Location": "Kampung Palembang Luar",
        "Post_Office": "Kluang",
        "State": "Johor"
    },
    {
        "Postcode": "86000",
        "Location": "Kampung Paya Dua",
        "Post_Office": "Kluang",
        "State": "Johor"
    },
    {
        "Postcode": "86000",
        "Location": "Kampung Paya Kluang Baru",
        "Post_Office": "Kluang",
        "State": "Johor"
    },
    {
        "Postcode": "86000",
        "Location": "Kampung Paya Luar",
        "Post_Office": "Kluang",
        "State": "Johor"
    },
    {
        "Postcode": "86000",
        "Location": "Kampung Paya New Village",
        "Post_Office": "Kluang",
        "State": "Johor"
    },
    {
        "Postcode": "86000",
        "Location": "Kampung Semberong",
        "Post_Office": "Kluang",
        "State": "Johor"
    },
    {
        "Postcode": "86000",
        "Location": "Kampung Semberong Dalam",
        "Post_Office": "Kluang",
        "State": "Johor"
    },
    {
        "Postcode": "86000",
        "Location": "Kampung Semberong Lapis",
        "Post_Office": "Kluang",
        "State": "Johor"
    },
    {
        "Postcode": "86000",
        "Location": "Kampung Semberong Luar",
        "Post_Office": "Kluang",
        "State": "Johor"
    },
    {
        "Postcode": "86000",
        "Location": "Kampung Seri Tambak (Batu 8)",
        "Post_Office": "Kluang",
        "State": "Johor"
    },
    {
        "Postcode": "86000",
        "Location": "Kampung Sri Bunga",
        "Post_Office": "Kluang",
        "State": "Johor"
    },
    {
        "Postcode": "86000",
        "Location": "Kampung Sri Bungsu",
        "Post_Office": "Kluang",
        "State": "Johor"
    },
    {
        "Postcode": "86000",
        "Location": "Kampung Sri Cahaya",
        "Post_Office": "Kluang",
        "State": "Johor"
    },
    {
        "Postcode": "86000",
        "Location": "Kampung Sri Ilham",
        "Post_Office": "Kluang",
        "State": "Johor"
    },
    {
        "Postcode": "86000",
        "Location": "Kampung Sri Lambak",
        "Post_Office": "Kluang",
        "State": "Johor"
    },
    {
        "Postcode": "86000",
        "Location": "Kampung Sri Timur",
        "Post_Office": "Kluang",
        "State": "Johor"
    },
    {
        "Postcode": "86000",
        "Location": "Kampung Sri Wawasan",
        "Post_Office": "Kluang",
        "State": "Johor"
    },
    {
        "Postcode": "86000",
        "Location": "Kampung Suria",
        "Post_Office": "Kluang",
        "State": "Johor"
    },
    {
        "Postcode": "86000",
        "Location": "Kampung Wawasan",
        "Post_Office": "Kluang",
        "State": "Johor"
    },
    {
        "Postcode": "86000",
        "Location": "Kawasan Bandar",
        "Post_Office": "Kluang",
        "State": "Johor"
    },
    {
        "Postcode": "86000",
        "Location": "Kawasan Industri (Lau Kim Teck)",
        "Post_Office": "Kluang",
        "State": "Johor"
    },
    {
        "Postcode": "86000",
        "Location": "Kawasan Industri (Taman Kluang Barat)",
        "Post_Office": "Kluang",
        "State": "Johor"
    },
    {
        "Postcode": "86000",
        "Location": "Kawasan Industri Mahsuri",
        "Post_Office": "Kluang",
        "State": "Johor"
    },
    {
        "Postcode": "86000",
        "Location": "Kawasan Perindustrian Mengkibol",
        "Post_Office": "Kluang",
        "State": "Johor"
    },
    {
        "Postcode": "86000",
        "Location": "Kawasan Sri Lalang",
        "Post_Office": "Kluang",
        "State": "Johor"
    },
    {
        "Postcode": "86000",
        "Location": "Kem Mahkota",
        "Post_Office": "Kluang",
        "State": "Johor"
    },
    {
        "Postcode": "86000",
        "Location": "Kluang",
        "Post_Office": "Kluang",
        "State": "Johor"
    },
    {
        "Postcode": "86000",
        "Location": "Kluang Barat",
        "Post_Office": "Kluang",
        "State": "Johor"
    },
    {
        "Postcode": "86000",
        "Location": "Lem.Ayer Hitam",
        "Post_Office": "Kluang",
        "State": "Johor"
    },
    {
        "Postcode": "86000",
        "Location": "Parit Keranji",
        "Post_Office": "Kluang",
        "State": "Johor"
    },
    {
        "Postcode": "86000",
        "Location": "Penjara Kluang",
        "Post_Office": "Kluang",
        "State": "Johor"
    },
    {
        "Postcode": "86000",
        "Location": "Perindustrian Sri Kluang - Kilang",
        "Post_Office": "Kluang",
        "State": "Johor"
    },
    {
        "Postcode": "86000",
        "Location": "Pusat Perniagaan Jalan Lambak",
        "Post_Office": "Kluang",
        "State": "Johor"
    },
    {
        "Postcode": "86000",
        "Location": "Pusat Perniagaan Jalan Sultan",
        "Post_Office": "Kluang",
        "State": "Johor"
    },
    {
        "Postcode": "86000",
        "Location": "Pusat Perniagaan Tapan",
        "Post_Office": "Kluang",
        "State": "Johor"
    },
    {
        "Postcode": "86000",
        "Location": "Rancangan Tanah Gunung Lambak",
        "Post_Office": "Kluang",
        "State": "Johor"
    },
    {
        "Postcode": "86000",
        "Location": "Rancangan Tanah Kampung Majid",
        "Post_Office": "Kluang",
        "State": "Johor"
    },
    {
        "Postcode": "86000",
        "Location": "Rumah Rakyat Gunung Lambak",
        "Post_Office": "Kluang",
        "State": "Johor"
    },
    {
        "Postcode": "86000",
        "Location": "Seri Lalang",
        "Post_Office": "Kluang",
        "State": "Johor"
    },
    {
        "Postcode": "86000",
        "Location": "Taman Anggerik Merah",
        "Post_Office": "Kluang",
        "State": "Johor"
    },
    {
        "Postcode": "86000",
        "Location": "Taman Berlian Biru",
        "Post_Office": "Kluang",
        "State": "Johor"
    },
    {
        "Postcode": "86000",
        "Location": "Taman Bertuah",
        "Post_Office": "Kluang",
        "State": "Johor"
    },
    {
        "Postcode": "86000",
        "Location": "Taman Bukit Kurnia",
        "Post_Office": "Kluang",
        "State": "Johor"
    },
    {
        "Postcode": "86000",
        "Location": "Taman Dato Amar",
        "Post_Office": "Kluang",
        "State": "Johor"
    },
    {
        "Postcode": "86000",
        "Location": "Taman Emas 2",
        "Post_Office": "Kluang",
        "State": "Johor"
    },
    {
        "Postcode": "86000",
        "Location": "Taman Fajar Jaya",
        "Post_Office": "Kluang",
        "State": "Johor"
    },
    {
        "Postcode": "86000",
        "Location": "Taman Gunung Lambak",
        "Post_Office": "Kluang",
        "State": "Johor"
    },
    {
        "Postcode": "86000",
        "Location": "Taman Idaman",
        "Post_Office": "Kluang",
        "State": "Johor"
    },
    {
        "Postcode": "86000",
        "Location": "Taman Ilham",
        "Post_Office": "Kluang",
        "State": "Johor"
    },
    {
        "Postcode": "86000",
        "Location": "Taman Industri Matahari",
        "Post_Office": "Kluang",
        "State": "Johor"
    },
    {
        "Postcode": "86000",
        "Location": "Taman Industri Sinaran",
        "Post_Office": "Kluang",
        "State": "Johor"
    },
    {
        "Postcode": "86000",
        "Location": "Taman Kampung Majid",
        "Post_Office": "Kluang",
        "State": "Johor"
    },
    {
        "Postcode": "86000",
        "Location": "Taman Kampung Tengah",
        "Post_Office": "Kluang",
        "State": "Johor"
    },
    {
        "Postcode": "86000",
        "Location": "Taman Kendondong",
        "Post_Office": "Kluang",
        "State": "Johor"
    },
    {
        "Postcode": "86000",
        "Location": "Taman Kerjasama",
        "Post_Office": "Kluang",
        "State": "Johor"
    },
    {
        "Postcode": "86000",
        "Location": "Taman Kiara Emas",
        "Post_Office": "Kluang",
        "State": "Johor"
    },
    {
        "Postcode": "86000",
        "Location": "Taman Kluang Barat",
        "Post_Office": "Kluang",
        "State": "Johor"
    },
    {
        "Postcode": "86000",
        "Location": "Taman Kluang Jaya",
        "Post_Office": "Kluang",
        "State": "Johor"
    },
    {
        "Postcode": "86000",
        "Location": "Taman Korakyat",
        "Post_Office": "Kluang",
        "State": "Johor"
    },
    {
        "Postcode": "86000",
        "Location": "Taman Lam Seng",
        "Post_Office": "Kluang",
        "State": "Johor"
    },
    {
        "Postcode": "86000",
        "Location": "Taman Lambak",
        "Post_Office": "Kluang",
        "State": "Johor"
    },
    {
        "Postcode": "86000",
        "Location": "Taman Lido",
        "Post_Office": "Kluang",
        "State": "Johor"
    },
    {
        "Postcode": "86000",
        "Location": "Taman Lucky",
        "Post_Office": "Kluang",
        "State": "Johor"
    },
    {
        "Postcode": "86000",
        "Location": "Taman Majid",
        "Post_Office": "Kluang",
        "State": "Johor"
    },
    {
        "Postcode": "86000",
        "Location": "Taman Maju Padu",
        "Post_Office": "Kluang",
        "State": "Johor"
    },
    {
        "Postcode": "86000",
        "Location": "Taman Mengkibol",
        "Post_Office": "Kluang",
        "State": "Johor"
    },
    {
        "Postcode": "86000",
        "Location": "Taman Nasib",
        "Post_Office": "Kluang",
        "State": "Johor"
    },
    {
        "Postcode": "86000",
        "Location": "Taman Pelangi Jaya",
        "Post_Office": "Kluang",
        "State": "Johor"
    },
    {
        "Postcode": "86000",
        "Location": "Taman Perindustrian Wawasan",
        "Post_Office": "Kluang",
        "State": "Johor"
    },
    {
        "Postcode": "86000",
        "Location": "Taman Perumahan Polis",
        "Post_Office": "Kluang",
        "State": "Johor"
    },
    {
        "Postcode": "86000",
        "Location": "Taman Pewira Jaya",
        "Post_Office": "Kluang",
        "State": "Johor"
    },
    {
        "Postcode": "86000",
        "Location": "Taman Sam Hoe",
        "Post_Office": "Kluang",
        "State": "Johor"
    },
    {
        "Postcode": "86000",
        "Location": "Taman Saujana Gemilang Utama",
        "Post_Office": "Kluang",
        "State": "Johor"
    },
    {
        "Postcode": "86000",
        "Location": "Taman Saujana Utama",
        "Post_Office": "Kluang",
        "State": "Johor"
    },
    {
        "Postcode": "86000",
        "Location": "Taman Seri Suria",
        "Post_Office": "Kluang",
        "State": "Johor"
    },
    {
        "Postcode": "86000",
        "Location": "Taman Sri Andal",
        "Post_Office": "Kluang",
        "State": "Johor"
    },
    {
        "Postcode": "86000",
        "Location": "Taman Sri Desa",
        "Post_Office": "Kluang",
        "State": "Johor"
    },
    {
        "Postcode": "86000",
        "Location": "Taman Sri Kluang",
        "Post_Office": "Kluang",
        "State": "Johor"
    },
    {
        "Postcode": "86000",
        "Location": "Taman Sri Lambak",
        "Post_Office": "Kluang",
        "State": "Johor"
    },
    {
        "Postcode": "86000",
        "Location": "Taman Sri Menanti",
        "Post_Office": "Kluang",
        "State": "Johor"
    },
    {
        "Postcode": "86000",
        "Location": "Taman Sri Paya",
        "Post_Office": "Kluang",
        "State": "Johor"
    },
    {
        "Postcode": "86000",
        "Location": "Taman Sri Permai 2",
        "Post_Office": "Kluang",
        "State": "Johor"
    },
    {
        "Postcode": "86000",
        "Location": "Taman Sri Tengah",
        "Post_Office": "Kluang",
        "State": "Johor"
    },
    {
        "Postcode": "86000",
        "Location": "Taman Sunrise",
        "Post_Office": "Kluang",
        "State": "Johor"
    },
    {
        "Postcode": "86000",
        "Location": "Taman Titiwangsa",
        "Post_Office": "Kluang",
        "State": "Johor"
    },
    {
        "Postcode": "86000",
        "Location": "Yap Tau Sah",
        "Post_Office": "Kluang",
        "State": "Johor"
    },
    {
        "Postcode": "86000",
        "Location": "Jalan Langsat",
        "Post_Office": "Kluang",
        "State": "Johor"
    },
    {
        "Postcode": "86000",
        "Location": "Jalan Leban",
        "Post_Office": "Kluang",
        "State": "Johor"
    },
    {
        "Postcode": "86000",
        "Location": "Jalan Limau",
        "Post_Office": "Kluang",
        "State": "Johor"
    },
    {
        "Postcode": "86000",
        "Location": "Jalan Mangga",
        "Post_Office": "Kluang",
        "State": "Johor"
    },
    {
        "Postcode": "86000",
        "Location": "Jalan Manja",
        "Post_Office": "Kluang",
        "State": "Johor"
    },
    {
        "Postcode": "86000",
        "Location": "Jalan Merbau",
        "Post_Office": "Kluang",
        "State": "Johor"
    },
    {
        "Postcode": "86000",
        "Location": "Jalan Mersing",
        "Post_Office": "Kluang",
        "State": "Johor"
    },
    {
        "Postcode": "86000",
        "Location": "Jalan Mesra",
        "Post_Office": "Kluang",
        "State": "Johor"
    },
    {
        "Postcode": "86000",
        "Location": "Felda Ayer Hitam Kluang",
        "Post_Office": "Kluang",
        "State": "Johor"
    },
    {
        "Postcode": "86000",
        "Location": "Felda Kahang Timur",
        "Post_Office": "Kluang",
        "State": "Johor"
    },
    {
        "Postcode": "86000",
        "Location": "Felda Penggeli",
        "Post_Office": "Kluang",
        "State": "Johor"
    },
    {
        "Postcode": "86000",
        "Location": "Felda Ulu Penggeli",
        "Post_Office": "Kluang",
        "State": "Johor"
    },
    {
        "Postcode": "86000",
        "Location": "Kampung Asli Pengkalan Tereh",
        "Post_Office": "Kluang",
        "State": "Johor"
    },
    {
        "Postcode": "86000",
        "Location": "Kampung Dato Abdul Rahman Yassin",
        "Post_Office": "Kluang",
        "State": "Johor"
    },
    {
        "Postcode": "86000",
        "Location": "Kampung Gunung Lambak ",
        "Post_Office": "Kluang",
        "State": "Johor"
    },
    {
        "Postcode": "86000",
        "Location": "Kampung Lapis Semberong",
        "Post_Office": "Kluang",
        "State": "Johor"
    },
    {
        "Postcode": "86000",
        "Location": "Kampung Melayu Batu 6 1/2",
        "Post_Office": "Kluang",
        "State": "Johor"
    },
    {
        "Postcode": "86000",
        "Location": "Kampung Melayu Nyior",
        "Post_Office": "Kluang",
        "State": "Johor"
    },
    {
        "Postcode": "86000",
        "Location": "Kampung Mic Kluang",
        "Post_Office": "Kluang",
        "State": "Johor"
    },
    {
        "Postcode": "86000",
        "Location": "Kampung Niyor",
        "Post_Office": "Kluang",
        "State": "Johor"
    },
    {
        "Postcode": "86000",
        "Location": "Kampung Orang Asli Tebing Runtuh",
        "Post_Office": "Kluang",
        "State": "Johor"
    },
    {
        "Postcode": "86000",
        "Location": "Kampung Semberong Iman",
        "Post_Office": "Kluang",
        "State": "Johor"
    },
    {
        "Postcode": "86000",
        "Location": "Kampung Seri Tambak",
        "Post_Office": "Kluang",
        "State": "Johor"
    },
    {
        "Postcode": "86000",
        "Location": "Kampung Sri Bongsu",
        "Post_Office": "Kluang",
        "State": "Johor"
    },
    {
        "Postcode": "86000",
        "Location": "Kampung Sri Cahaya 1",
        "Post_Office": "Kluang",
        "State": "Johor"
    },
    {
        "Postcode": "86000",
        "Location": "Kampung Sri Cahaya Baru",
        "Post_Office": "Kluang",
        "State": "Johor"
    },
    {
        "Postcode": "86000",
        "Location": "Kampung Tengah Dalam",
        "Post_Office": "Kluang",
        "State": "Johor"
    },
    {
        "Postcode": "86000",
        "Location": "Kawasan Perindustrian Kluang",
        "Post_Office": "Kluang",
        "State": "Johor"
    },
    {
        "Postcode": "86000",
        "Location": "Kawasan Perindustrian Semberong",
        "Post_Office": "Kluang",
        "State": "Johor"
    },
    {
        "Postcode": "86000",
        "Location": "Kluang Baru",
        "Post_Office": "Kluang",
        "State": "Johor"
    },
    {
        "Postcode": "86000",
        "Location": "Ladang Sindora",
        "Post_Office": "Kluang",
        "State": "Johor"
    },
    {
        "Postcode": "86000",
        "Location": "Rancangan Tanah Pinggir",
        "Post_Office": "Kluang",
        "State": "Johor"
    },
    {
        "Postcode": "86000",
        "Location": "Taman Berlian Biru 2",
        "Post_Office": "Kluang",
        "State": "Johor"
    },
    {
        "Postcode": "86000",
        "Location": "Taman Bertuah 1",
        "Post_Office": "Kluang",
        "State": "Johor"
    },
    {
        "Postcode": "86000",
        "Location": "Taman Dato Amar Di Raja",
        "Post_Office": "Kluang",
        "State": "Johor"
    },
    {
        "Postcode": "86000",
        "Location": "Taman Dato Amar Diraja",
        "Post_Office": "Kluang",
        "State": "Johor"
    },
    {
        "Postcode": "86000",
        "Location": "Taman Dato Haji Manan",
        "Post_Office": "Kluang",
        "State": "Johor"
    },
    {
        "Postcode": "86000",
        "Location": "Taman Dato Kapt Ahmad",
        "Post_Office": "Kluang",
        "State": "Johor"
    },
    {
        "Postcode": "86000",
        "Location": "Taman Delima 3",
        "Post_Office": "Kluang",
        "State": "Johor"
    },
    {
        "Postcode": "86000",
        "Location": "Taman Gunung Selatan",
        "Post_Office": "Kluang",
        "State": "Johor"
    },
    {
        "Postcode": "86000",
        "Location": "Taman Indah Jaya 3",
        "Post_Office": "Kluang",
        "State": "Johor"
    },
    {
        "Postcode": "86000",
        "Location": "Taman Industri Wawasan",
        "Post_Office": "Kluang",
        "State": "Johor"
    },
    {
        "Postcode": "86000",
        "Location": "Taman Kiaramas",
        "Post_Office": "Kluang",
        "State": "Johor"
    },
    {
        "Postcode": "86000",
        "Location": "Taman Kluang ",
        "Post_Office": "Kluang",
        "State": "Johor"
    },
    {
        "Postcode": "86000",
        "Location": "Taman Kluang Baru",
        "Post_Office": "Kluang",
        "State": "Johor"
    },
    {
        "Postcode": "86000",
        "Location": "Taman Kluang Baru 2",
        "Post_Office": "Kluang",
        "State": "Johor"
    },
    {
        "Postcode": "86000",
        "Location": "Taman Kluang Indah",
        "Post_Office": "Kluang",
        "State": "Johor"
    },
    {
        "Postcode": "86000",
        "Location": "Taman Lian Seng",
        "Post_Office": "Kluang",
        "State": "Johor"
    },
    {
        "Postcode": "86000",
        "Location": "Taman Matahari 1",
        "Post_Office": "Kluang",
        "State": "Johor"
    },
    {
        "Postcode": "86000",
        "Location": "Taman Nyior",
        "Post_Office": "Kluang",
        "State": "Johor"
    },
    {
        "Postcode": "86000",
        "Location": "Taman Perwira Jaya",
        "Post_Office": "Kluang",
        "State": "Johor"
    },
    {
        "Postcode": "86000",
        "Location": "Taman Seri Damai",
        "Post_Office": "Kluang",
        "State": "Johor"
    },
    {
        "Postcode": "86000",
        "Location": "Taman Seri Impian",
        "Post_Office": "Kluang",
        "State": "Johor"
    },
    {
        "Postcode": "86000",
        "Location": "Jalan Padang Tembak 1",
        "Post_Office": "Kluang",
        "State": "Johor"
    },
    {
        "Postcode": "86000",
        "Location": "Jalan Padang Tembak 2",
        "Post_Office": "Kluang",
        "State": "Johor"
    },
    {
        "Postcode": "86000",
        "Location": "Jalan Padang Tembak 3",
        "Post_Office": "Kluang",
        "State": "Johor"
    },
    {
        "Postcode": "86000",
        "Location": "Taman Cahaya Pelangi",
        "Post_Office": "Kluang",
        "State": "Johor"
    },
    {
        "Postcode": "86000",
        "Location": "Peindustrian Semberong",
        "Post_Office": "Kluang",
        "State": "Johor"
    },
    {
        "Postcode": "86000",
        "Location": "Taman Kluang Setia",
        "Post_Office": "Kluang",
        "State": "Johor"
    },
    {
        "Postcode": "86000",
        "Location": "Taman Sri Lalang Indah",
        "Post_Office": "Kluang",
        "State": "Johor"
    },
    {
        "Postcode": "86000",
        "Location": "Taman Sri Lalang Jaya",
        "Post_Office": "Kluang",
        "State": "Johor"
    },
    {
        "Postcode": "86000",
        "Location": "Jalan Nenas",
        "Post_Office": "Kluang",
        "State": "Johor"
    },
    {
        "Postcode": "86000",
        "Location": "Jalan Pinang",
        "Post_Office": "Kluang",
        "State": "Johor"
    },
    {
        "Postcode": "86000",
        "Location": "Jalan Pulai",
        "Post_Office": "Kluang",
        "State": "Johor"
    },
    {
        "Postcode": "86000",
        "Location": "Jalan Puyu",
        "Post_Office": "Kluang",
        "State": "Johor"
    },
    {
        "Postcode": "86000",
        "Location": "Jalan Rengas",
        "Post_Office": "Kluang",
        "State": "Johor"
    },
    {
        "Postcode": "86000",
        "Location": "Jalan Resak",
        "Post_Office": "Kluang",
        "State": "Johor"
    },
    {
        "Postcode": "86000",
        "Location": "Jalan Sayang",
        "Post_Office": "Kluang",
        "State": "Johor"
    },
    {
        "Postcode": "86000",
        "Location": "Jalan Sehat",
        "Post_Office": "Kluang",
        "State": "Johor"
    },
    {
        "Postcode": "86000",
        "Location": "Jalan Sepat",
        "Post_Office": "Kluang",
        "State": "Johor"
    },
    {
        "Postcode": "86000",
        "Location": "Jalan Seraya",
        "Post_Office": "Kluang",
        "State": "Johor"
    },
    {
        "Postcode": "86000",
        "Location": "Jalan Setia",
        "Post_Office": "Kluang",
        "State": "Johor"
    },
    {
        "Postcode": "86000",
        "Location": "Jalan Suka",
        "Post_Office": "Kluang",
        "State": "Johor"
    },
    {
        "Postcode": "86000",
        "Location": "Jalan Sultanah",
        "Post_Office": "Kluang",
        "State": "Johor"
    },
    {
        "Postcode": "86000",
        "Location": "Jalan Tapah",
        "Post_Office": "Kluang",
        "State": "Johor"
    },
    {
        "Postcode": "86000",
        "Location": "Jalan Wakaf",
        "Post_Office": "Kluang",
        "State": "Johor"
    },
    {
        "Postcode": "86000",
        "Location": "Jalan Wayang",
        "Post_Office": "Kluang",
        "State": "Johor"
    },
    {
        "Postcode": "86000",
        "Location": "Kampung Gajah",
        "Post_Office": "Kluang",
        "State": "Johor"
    },
    {
        "Postcode": "86000",
        "Location": "Kampung Paya Baru",
        "Post_Office": "Kluang",
        "State": "Johor"
    },
    {
        "Postcode": "86000",
        "Location": "Taman Delima 2",
        "Post_Office": "Kluang",
        "State": "Johor"
    },
    {
        "Postcode": "86000",
        "Location": "Taman Desa Harmoni",
        "Post_Office": "Kluang",
        "State": "Johor"
    },
    {
        "Postcode": "86000",
        "Location": "Taman Perindustrian Gemilang",
        "Post_Office": "Kluang",
        "State": "Johor"
    },
    {
        "Postcode": "86000",
        "Location": "Taman Perkasa",
        "Post_Office": "Kluang",
        "State": "Johor"
    },
    {
        "Postcode": "86000",
        "Location": "Taman Rebana",
        "Post_Office": "Kluang",
        "State": "Johor"
    },
    {
        "Postcode": "86000",
        "Location": "Taman Sayang",
        "Post_Office": "Kluang",
        "State": "Johor"
    },
    {
        "Postcode": "86000",
        "Location": "Taman Sejahtera",
        "Post_Office": "Kluang",
        "State": "Johor"
    },
    {
        "Postcode": "86000",
        "Location": "Taman Sri Lalang",
        "Post_Office": "Kluang",
        "State": "Johor"
    },
    {
        "Postcode": "86000",
        "Location": "Taman Tropika",
        "Post_Office": "Kluang",
        "State": "Johor"
    },
    {
        "Postcode": "86000",
        "Location": "Jalan Adil",
        "Post_Office": "Kluang",
        "State": "Johor"
    },
    {
        "Postcode": "86000",
        "Location": "Jalan Chengai",
        "Post_Office": "Kluang",
        "State": "Johor"
    },
    {
        "Postcode": "86000",
        "Location": "Jalan Ciku",
        "Post_Office": "Kluang",
        "State": "Johor"
    },
    {
        "Postcode": "86000",
        "Location": "Jalan Dahlia",
        "Post_Office": "Kluang",
        "State": "Johor"
    },
    {
        "Postcode": "86000",
        "Location": "Jalan Dato Haji Hassan",
        "Post_Office": "Kluang",
        "State": "Johor"
    },
    {
        "Postcode": "86000",
        "Location": "Jalan Ikhlas",
        "Post_Office": "Kluang",
        "State": "Johor"
    },
    {
        "Postcode": "86000",
        "Location": "Jalan Keembong",
        "Post_Office": "Kluang",
        "State": "Johor"
    },
    {
        "Postcode": "86000",
        "Location": "Jalan Kelapa",
        "Post_Office": "Kluang",
        "State": "Johor"
    },
    {
        "Postcode": "86000",
        "Location": "Jalan Pasar",
        "Post_Office": "Kluang",
        "State": "Johor"
    },
    {
        "Postcode": "86000",
        "Location": "Jalan Pulasan",
        "Post_Office": "Kluang",
        "State": "Johor"
    },
    {
        "Postcode": "86000",
        "Location": "Jalan Putri",
        "Post_Office": "Kluang",
        "State": "Johor"
    },
    {
        "Postcode": "86000",
        "Location": "Jalan Rebana",
        "Post_Office": "Kluang",
        "State": "Johor"
    },
    {
        "Postcode": "86000",
        "Location": "Jalan Ria",
        "Post_Office": "Kluang",
        "State": "Johor"
    },
    {
        "Postcode": "86000",
        "Location": "Jalan Seluang",
        "Post_Office": "Kluang",
        "State": "Johor"
    },
    {
        "Postcode": "86000",
        "Location": "Jalan Sentol",
        "Post_Office": "Kluang",
        "State": "Johor"
    },
    {
        "Postcode": "86000",
        "Location": "Jalan Seroja",
        "Post_Office": "Kluang",
        "State": "Johor"
    },
    {
        "Postcode": "86000",
        "Location": "Jalan Tembikai",
        "Post_Office": "Kluang",
        "State": "Johor"
    },
    {
        "Postcode": "86000",
        "Location": "Jalan Tengku Bendahara",
        "Post_Office": "Kluang",
        "State": "Johor"
    },
    {
        "Postcode": "86000",
        "Location": "Kampung Baru",
        "Post_Office": "Kluang",
        "State": "Johor"
    },
    {
        "Postcode": "86000",
        "Location": "Kampung Cina",
        "Post_Office": "Kluang",
        "State": "Johor"
    },
    {
        "Postcode": "86000",
        "Location": "Kampung Kolam Air",
        "Post_Office": "Kluang",
        "State": "Johor"
    },
    {
        "Postcode": "86000",
        "Location": "Kampung Melayu",
        "Post_Office": "Kluang",
        "State": "Johor"
    },
    {
        "Postcode": "86000",
        "Location": "Kampung Orang Asli",
        "Post_Office": "Kluang",
        "State": "Johor"
    },
    {
        "Postcode": "86000",
        "Location": "Kampung Paya",
        "Post_Office": "Kluang",
        "State": "Johor"
    },
    {
        "Postcode": "86000",
        "Location": "Kampung Paya ",
        "Post_Office": "Kluang",
        "State": "Johor"
    },
    {
        "Postcode": "86000",
        "Location": "Kampung Paya Dalam",
        "Post_Office": "Kluang",
        "State": "Johor"
    },
    {
        "Postcode": "86000",
        "Location": "Kampung Rahmat",
        "Post_Office": "Kluang",
        "State": "Johor"
    },
    {
        "Postcode": "86000",
        "Location": "Kampung Sc",
        "Post_Office": "Kluang",
        "State": "Johor"
    },
    {
        "Postcode": "86000",
        "Location": "Kampung Tengah",
        "Post_Office": "Kluang",
        "State": "Johor"
    },
    {
        "Postcode": "86000",
        "Location": "Taman Anggerik",
        "Post_Office": "Kluang",
        "State": "Johor"
    },
    {
        "Postcode": "86000",
        "Location": "Taman Bahagia",
        "Post_Office": "Kluang",
        "State": "Johor"
    },
    {
        "Postcode": "86000",
        "Location": "Taman Bunga Raya",
        "Post_Office": "Kluang",
        "State": "Johor"
    },
    {
        "Postcode": "86000",
        "Location": "Taman Desa",
        "Post_Office": "Kluang",
        "State": "Johor"
    },
    {
        "Postcode": "86000",
        "Location": "Taman Fajar",
        "Post_Office": "Kluang",
        "State": "Johor"
    },
    {
        "Postcode": "86000",
        "Location": "Taman Intan",
        "Post_Office": "Kluang",
        "State": "Johor"
    },
    {
        "Postcode": "86000",
        "Location": "Taman Kasih",
        "Post_Office": "Kluang",
        "State": "Johor"
    },
    {
        "Postcode": "86000",
        "Location": "Taman Koperasi",
        "Post_Office": "Kluang",
        "State": "Johor"
    },
    {
        "Postcode": "86000",
        "Location": "Taman Matahari",
        "Post_Office": "Kluang",
        "State": "Johor"
    },
    {
        "Postcode": "86000",
        "Location": "Taman Mawar",
        "Post_Office": "Kluang",
        "State": "Johor"
    },
    {
        "Postcode": "86000",
        "Location": "Taman Megah",
        "Post_Office": "Kluang",
        "State": "Johor"
    },
    {
        "Postcode": "86000",
        "Location": "Taman Melodi",
        "Post_Office": "Kluang",
        "State": "Johor"
    },
    {
        "Postcode": "86000",
        "Location": "Taman Muhibbah",
        "Post_Office": "Kluang",
        "State": "Johor"
    },
    {
        "Postcode": "86000",
        "Location": "Taman Murni",
        "Post_Office": "Kluang",
        "State": "Johor"
    },
    {
        "Postcode": "86000",
        "Location": "Taman Nilam",
        "Post_Office": "Kluang",
        "State": "Johor"
    },
    {
        "Postcode": "86000",
        "Location": "Taman Pelangi",
        "Post_Office": "Kluang",
        "State": "Johor"
    },
    {
        "Postcode": "86000",
        "Location": "Taman Pelangi Indah",
        "Post_Office": "Kluang",
        "State": "Johor"
    },
    {
        "Postcode": "86000",
        "Location": "Taman Perdana",
        "Post_Office": "Kluang",
        "State": "Johor"
    },
    {
        "Postcode": "86000",
        "Location": "Taman Ria",
        "Post_Office": "Kluang",
        "State": "Johor"
    },
    {
        "Postcode": "86000",
        "Location": "Taman Satria",
        "Post_Office": "Kluang",
        "State": "Johor"
    },
    {
        "Postcode": "86000",
        "Location": "Taman Semberong",
        "Post_Office": "Kluang",
        "State": "Johor"
    },
    {
        "Postcode": "86000",
        "Location": "Taman Sri Permai",
        "Post_Office": "Kluang",
        "State": "Johor"
    },
    {
        "Postcode": "86000",
        "Location": "Taman Sutera Indah",
        "Post_Office": "Kluang",
        "State": "Johor"
    },
    {
        "Postcode": "86000",
        "Location": "Taman Bersatu",
        "Post_Office": "Kluang",
        "State": "Johor"
    },
    {
        "Postcode": "86000",
        "Location": "Taman Bintang",
        "Post_Office": "Kluang",
        "State": "Johor"
    },
    {
        "Postcode": "86000",
        "Location": "Taman Sentosa",
        "Post_Office": "Kluang",
        "State": "Johor"
    },
    {
        "Postcode": "86000",
        "Location": "Taman Suria",
        "Post_Office": "Kluang",
        "State": "Johor"
    },
    {
        "Postcode": "86000",
        "Location": "Taman Puncak Ceria",
        "Post_Office": "Kluang",
        "State": "Johor"
    }
]
