[
    {
        "Postcode": "86100",
        "Location": "Kampung Dalam",
        "Post_Office": "Ayer Hitam",
        "State": "Johor"
    },
    {
        "Postcode": "86100",
        "Location": "Kampung Parit Haji Siraj",
        "Post_Office": "Ayer Hitam",
        "State": "Johor"
    },
    {
        "Postcode": "86100",
        "Location": "Taman Bukit Indah",
        "Post_Office": "Ayer Hitam",
        "State": "Johor"
    },
    {
        "Postcode": "86100",
        "Location": "Bandar Baru Ayer Hitam",
        "Post_Office": "Ayer Hitam",
        "State": "Johor"
    },
    {
        "Postcode": "86100",
        "Location": "Gerai Tembusu Batu 3",
        "Post_Office": "Ayer Hitam",
        "State": "Johor"
    },
    {
        "Postcode": "86100",
        "Location": "Institut Pertanian Ayer Hitam",
        "Post_Office": "Ayer Hitam",
        "State": "Johor"
    },
    {
        "Postcode": "86100",
        "Location": "Kampung Asam Bubuk",
        "Post_Office": "Ayer Hitam",
        "State": "Johor"
    },
    {
        "Postcode": "86100",
        "Location": "Kampung Batu 1 (Jalan Kluang)",
        "Post_Office": "Ayer Hitam",
        "State": "Johor"
    },
    {
        "Postcode": "86100",
        "Location": "Kampung Batu 1 (Jalan Yong Peng)",
        "Post_Office": "Ayer Hitam",
        "State": "Johor"
    },
    {
        "Postcode": "86100",
        "Location": "Kampung Batu 3 (Jalan Johor)",
        "Post_Office": "Ayer Hitam",
        "State": "Johor"
    },
    {
        "Postcode": "86100",
        "Location": "Kampung Batu 3 (Jalan Yong Peng)",
        "Post_Office": "Ayer Hitam",
        "State": "Johor"
    },
    {
        "Postcode": "86100",
        "Location": "Kampung Kota Dalam",
        "Post_Office": "Ayer Hitam",
        "State": "Johor"
    },
    {
        "Postcode": "86100",
        "Location": "Kampung Manong Batu 9",
        "Post_Office": "Ayer Hitam",
        "State": "Johor"
    },
    {
        "Postcode": "86100",
        "Location": "Kampung Melayu Bukit Nyamuk",
        "Post_Office": "Ayer Hitam",
        "State": "Johor"
    },
    {
        "Postcode": "86100",
        "Location": "Kampung Parit Kangkar",
        "Post_Office": "Ayer Hitam",
        "State": "Johor"
    },
    {
        "Postcode": "86100",
        "Location": "Kampung Parit Kasan Jagol",
        "Post_Office": "Ayer Hitam",
        "State": "Johor"
    },
    {
        "Postcode": "86100",
        "Location": "Kampung Parit Khalil",
        "Post_Office": "Ayer Hitam",
        "State": "Johor"
    },
    {
        "Postcode": "86100",
        "Location": "Kampung Parit Sagil",
        "Post_Office": "Ayer Hitam",
        "State": "Johor"
    },
    {
        "Postcode": "86100",
        "Location": "Kampung Parit Samion",
        "Post_Office": "Ayer Hitam",
        "State": "Johor"
    },
    {
        "Postcode": "86100",
        "Location": "Kampung Parit Sonto",
        "Post_Office": "Ayer Hitam",
        "State": "Johor"
    },
    {
        "Postcode": "86100",
        "Location": "Kampung Seri Burong",
        "Post_Office": "Ayer Hitam",
        "State": "Johor"
    },
    {
        "Postcode": "86100",
        "Location": "Kampung Sri Desa",
        "Post_Office": "Ayer Hitam",
        "State": "Johor"
    },
    {
        "Postcode": "86100",
        "Location": "Kampung Sri Maju Jaya",
        "Post_Office": "Ayer Hitam",
        "State": "Johor"
    },
    {
        "Postcode": "86100",
        "Location": "Kawasan Rehat Machap",
        "Post_Office": "Ayer Hitam",
        "State": "Johor"
    },
    {
        "Postcode": "86100",
        "Location": "Kilang Kelapa Sawit",
        "Post_Office": "Ayer Hitam",
        "State": "Johor"
    },
    {
        "Postcode": "86100",
        "Location": "Ladang Asam Bubok",
        "Post_Office": "Ayer Hitam",
        "State": "Johor"
    },
    {
        "Postcode": "86100",
        "Location": "Medan Putra",
        "Post_Office": "Ayer Hitam",
        "State": "Johor"
    },
    {
        "Postcode": "86100",
        "Location": "Parit Haji Salleh Khairon",
        "Post_Office": "Ayer Hitam",
        "State": "Johor"
    },
    {
        "Postcode": "86100",
        "Location": "Parit Khalil",
        "Post_Office": "Ayer Hitam",
        "State": "Johor"
    },
    {
        "Postcode": "86100",
        "Location": "Parit Sagil",
        "Post_Office": "Ayer Hitam",
        "State": "Johor"
    },
    {
        "Postcode": "86100",
        "Location": "Parit Semo",
        "Post_Office": "Ayer Hitam",
        "State": "Johor"
    },
    {
        "Postcode": "86100",
        "Location": "Taman Ayer Hitam",
        "Post_Office": "Ayer Hitam",
        "State": "Johor"
    },
    {
        "Postcode": "86100",
        "Location": "Taman Cerah",
        "Post_Office": "Ayer Hitam",
        "State": "Johor"
    },
    {
        "Postcode": "86100",
        "Location": "Taman Perindustrian Ayer Hitam",
        "Post_Office": "Ayer Hitam",
        "State": "Johor"
    },
    {
        "Postcode": "86100",
        "Location": "Taman Serbanika",
        "Post_Office": "Ayer Hitam",
        "State": "Johor"
    },
    {
        "Postcode": "86100",
        "Location": "Taman Upc",
        "Post_Office": "Ayer Hitam",
        "State": "Johor"
    },
    {
        "Postcode": "86100",
        "Location": "Taman Medan Putra",
        "Post_Office": "Ayer Hitam",
        "State": "Johor"
    },
    {
        "Postcode": "86100",
        "Location": "Kampung Cahaya Baru",
        "Post_Office": "Ayer Hitam",
        "State": "Johor"
    },
    {
        "Postcode": "86100",
        "Location": "Taman Mekar",
        "Post_Office": "Ayer Hitam",
        "State": "Johor"
    },
    {
        "Postcode": "86100",
        "Location": "Ayer Hitam",
        "Post_Office": "Ayer Hitam",
        "State": "Johor"
    },
    {
        "Postcode": "86100",
        "Location": "Kampung Bahagia",
        "Post_Office": "Ayer Hitam",
        "State": "Johor"
    },
    {
        "Postcode": "86100",
        "Location": "Kampung Jawa",
        "Post_Office": "Ayer Hitam",
        "State": "Johor"
    },
    {
        "Postcode": "86100",
        "Location": "Parit Kasan",
        "Post_Office": "Ayer Hitam",
        "State": "Johor"
    },
    {
        "Postcode": "86100",
        "Location": "Taman Bahagia",
        "Post_Office": "Ayer Hitam",
        "State": "Johor"
    },
    {
        "Postcode": "86100",
        "Location": "Taman Perdana",
        "Post_Office": "Ayer Hitam",
        "State": "Johor"
    },
    {
        "Postcode": "86100",
        "Location": "Taman Desa Baru",
        "Post_Office": "Ayer Hitam",
        "State": "Johor"
    },
    {
        "Postcode": "86100",
        "Location": "Taman Ros",
        "Post_Office": "Ayer Hitam",
        "State": "Johor"
    },
    {
        "Postcode": "86100",
        "Location": "Taman Suria",
        "Post_Office": "Ayer Hitam",
        "State": "Johor"
    }
]
