[
    {
        "Postcode": "86200",
        "Location": "Taman Jaya 2",
        "Post_Office": "Simpang Rengam",
        "State": "Johor"
    },
    {
        "Postcode": "86200",
        "Location": "Taman Berjaya",
        "Post_Office": "Simpang Rengam",
        "State": "Johor"
    },
    {
        "Postcode": "86200",
        "Location": "Taman Orkid",
        "Post_Office": "Simpang Rengam",
        "State": "Johor"
    },
    {
        "Postcode": "86200",
        "Location": "Taman Sri Indah",
        "Post_Office": "Simpang Rengam",
        "State": "Johor"
    },
    {
        "Postcode": "86200",
        "Location": "Taman Makmur",
        "Post_Office": "Simpang Rengam",
        "State": "Johor"
    },
    {
        "Postcode": "86200",
        "Location": "Taman Purnama",
        "Post_Office": "Simpang Rengam",
        "State": "Johor"
    },
    {
        "Postcode": "86200",
        "Location": "Taman Sri Bayu",
        "Post_Office": "Simpang Rengam",
        "State": "Johor"
    },
    {
        "Postcode": "86200",
        "Location": "Kampung Kurnia ",
        "Post_Office": "Simpang Rengam",
        "State": "Johor"
    },
    {
        "Postcode": "86200",
        "Location": "Taman Gaya",
        "Post_Office": "Simpang Rengam",
        "State": "Johor"
    },
    {
        "Postcode": "86200",
        "Location": "Taman Kristal",
        "Post_Office": "Simpang Rengam",
        "State": "Johor"
    },
    {
        "Postcode": "86200",
        "Location": "Taman Perindustrian",
        "Post_Office": "Simpang Rengam",
        "State": "Johor"
    },
    {
        "Postcode": "86200",
        "Location": "Taman Setia Jaya",
        "Post_Office": "Simpang Rengam",
        "State": "Johor"
    },
    {
        "Postcode": "86200",
        "Location": "Taman Sri Mewah",
        "Post_Office": "Simpang Rengam",
        "State": "Johor"
    },
    {
        "Postcode": "86200",
        "Location": "Taman Sinar",
        "Post_Office": "Simpang Rengam",
        "State": "Johor"
    },
    {
        "Postcode": "86200",
        "Location": "Bandar Baru Parit Ibrahim Majid",
        "Post_Office": "Simpang Rengam",
        "State": "Johor"
    },
    {
        "Postcode": "86200",
        "Location": "Batu 53 Jalan Air Hitam",
        "Post_Office": "Simpang Rengam",
        "State": "Johor"
    },
    {
        "Postcode": "86200",
        "Location": "Bus Stand Gerai Mdks",
        "Post_Office": "Simpang Rengam",
        "State": "Johor"
    },
    {
        "Postcode": "86200",
        "Location": "Felcra Batu 42",
        "Post_Office": "Simpang Rengam",
        "State": "Johor"
    },
    {
        "Postcode": "86200",
        "Location": "Felcra Kampung Pinggir",
        "Post_Office": "Simpang Rengam",
        "State": "Johor"
    },
    {
        "Postcode": "86200",
        "Location": "Felda Layang-Layang",
        "Post_Office": "Simpang Rengam",
        "State": "Johor"
    },
    {
        "Postcode": "86200",
        "Location": "Hock Hai Plaza",
        "Post_Office": "Simpang Rengam",
        "State": "Johor"
    },
    {
        "Postcode": "86200",
        "Location": "Kampung Baru Machap",
        "Post_Office": "Simpang Rengam",
        "State": "Johor"
    },
    {
        "Postcode": "86200",
        "Location": "Kampung Batu 39",
        "Post_Office": "Simpang Rengam",
        "State": "Johor"
    },
    {
        "Postcode": "86200",
        "Location": "Kampung Batu 40 1/2",
        "Post_Office": "Simpang Rengam",
        "State": "Johor"
    },
    {
        "Postcode": "86200",
        "Location": "Kampung Batu 41",
        "Post_Office": "Simpang Rengam",
        "State": "Johor"
    },
    {
        "Postcode": "86200",
        "Location": "Kampung Batu 42",
        "Post_Office": "Simpang Rengam",
        "State": "Johor"
    },
    {
        "Postcode": "86200",
        "Location": "Kampung Batu 45",
        "Post_Office": "Simpang Rengam",
        "State": "Johor"
    },
    {
        "Postcode": "86200",
        "Location": "Kampung Batu 47",
        "Post_Office": "Simpang Rengam",
        "State": "Johor"
    },
    {
        "Postcode": "86200",
        "Location": "Kampung Batu 49",
        "Post_Office": "Simpang Rengam",
        "State": "Johor"
    },
    {
        "Postcode": "86200",
        "Location": "Kampung Bukit Durian",
        "Post_Office": "Simpang Rengam",
        "State": "Johor"
    },
    {
        "Postcode": "86200",
        "Location": "Kampung Bukit Kenangan",
        "Post_Office": "Simpang Rengam",
        "State": "Johor"
    },
    {
        "Postcode": "86200",
        "Location": "Kampung Chokro",
        "Post_Office": "Simpang Rengam",
        "State": "Johor"
    },
    {
        "Postcode": "86200",
        "Location": "Kampung Dol Salam Dato Abu",
        "Post_Office": "Simpang Rengam",
        "State": "Johor"
    },
    {
        "Postcode": "86200",
        "Location": "Kampung Empangan",
        "Post_Office": "Simpang Rengam",
        "State": "Johor"
    },
    {
        "Postcode": "86200",
        "Location": "Kampung Haji Amir",
        "Post_Office": "Simpang Rengam",
        "State": "Johor"
    },
    {
        "Postcode": "86200",
        "Location": "Kampung Haji Hashim",
        "Post_Office": "Simpang Rengam",
        "State": "Johor"
    },
    {
        "Postcode": "86200",
        "Location": "Kampung Haji Noor",
        "Post_Office": "Simpang Rengam",
        "State": "Johor"
    },
    {
        "Postcode": "86200",
        "Location": "Kampung Keluarga Bahagia",
        "Post_Office": "Simpang Rengam",
        "State": "Johor"
    },
    {
        "Postcode": "86200",
        "Location": "Kampung Md Amin",
        "Post_Office": "Simpang Rengam",
        "State": "Johor"
    },
    {
        "Postcode": "86200",
        "Location": "Kampung Melaka",
        "Post_Office": "Simpang Rengam",
        "State": "Johor"
    },
    {
        "Postcode": "86200",
        "Location": "Kampung Parit Kasmani",
        "Post_Office": "Simpang Rengam",
        "State": "Johor"
    },
    {
        "Postcode": "86200",
        "Location": "Kampung Paya Mas",
        "Post_Office": "Simpang Rengam",
        "State": "Johor"
    },
    {
        "Postcode": "86200",
        "Location": "Kampung Paya Palembang",
        "Post_Office": "Simpang Rengam",
        "State": "Johor"
    },
    {
        "Postcode": "86200",
        "Location": "Kampung Perak",
        "Post_Office": "Simpang Rengam",
        "State": "Johor"
    },
    {
        "Postcode": "86200",
        "Location": "Kampung Pinggir",
        "Post_Office": "Simpang Rengam",
        "State": "Johor"
    },
    {
        "Postcode": "86200",
        "Location": "Kampung Sahari",
        "Post_Office": "Simpang Rengam",
        "State": "Johor"
    },
    {
        "Postcode": "86200",
        "Location": "Kampung Setia Jaya",
        "Post_Office": "Simpang Rengam",
        "State": "Johor"
    },
    {
        "Postcode": "86200",
        "Location": "Kampung Sri Machap",
        "Post_Office": "Simpang Rengam",
        "State": "Johor"
    },
    {
        "Postcode": "86200",
        "Location": "Kampung Sumber Jaya",
        "Post_Office": "Simpang Rengam",
        "State": "Johor"
    },
    {
        "Postcode": "86200",
        "Location": "Kampung Ulu Benut",
        "Post_Office": "Simpang Rengam",
        "State": "Johor"
    },
    {
        "Postcode": "86200",
        "Location": "Kawasan Industri Iks",
        "Post_Office": "Simpang Rengam",
        "State": "Johor"
    },
    {
        "Postcode": "86200",
        "Location": "Kem Polis Hutan",
        "Post_Office": "Simpang Rengam",
        "State": "Johor"
    },
    {
        "Postcode": "86200",
        "Location": "Parit Haji Hashim",
        "Post_Office": "Simpang Rengam",
        "State": "Johor"
    },
    {
        "Postcode": "86200",
        "Location": "Parit Ibrahim Majid",
        "Post_Office": "Simpang Rengam",
        "State": "Johor"
    },
    {
        "Postcode": "86200",
        "Location": "Parit Isnin Maarof",
        "Post_Office": "Simpang Rengam",
        "State": "Johor"
    },
    {
        "Postcode": "86200",
        "Location": "Parit Isnin Maarof 1",
        "Post_Office": "Simpang Rengam",
        "State": "Johor"
    },
    {
        "Postcode": "86200",
        "Location": "Parit Mapoi",
        "Post_Office": "Simpang Rengam",
        "State": "Johor"
    },
    {
        "Postcode": "86200",
        "Location": "Parit Penghulu Salleh",
        "Post_Office": "Simpang Rengam",
        "State": "Johor"
    },
    {
        "Postcode": "86200",
        "Location": "Parit Sungai Linau",
        "Post_Office": "Simpang Rengam",
        "State": "Johor"
    },
    {
        "Postcode": "86200",
        "Location": "Penjara",
        "Post_Office": "Simpang Rengam",
        "State": "Johor"
    },
    {
        "Postcode": "86200",
        "Location": "Rumah Murah Macap",
        "Post_Office": "Simpang Rengam",
        "State": "Johor"
    },
    {
        "Postcode": "86200",
        "Location": "Simpang Rengam",
        "Post_Office": "Simpang Rengam",
        "State": "Johor"
    },
    {
        "Postcode": "86200",
        "Location": "Taman  Damai",
        "Post_Office": "Simpang Rengam",
        "State": "Johor"
    },
    {
        "Postcode": "86200",
        "Location": "Taman Berjaya Fasa 2",
        "Post_Office": "Simpang Rengam",
        "State": "Johor"
    },
    {
        "Postcode": "86200",
        "Location": "Taman Bukit Hijau",
        "Post_Office": "Simpang Rengam",
        "State": "Johor"
    },
    {
        "Postcode": "86200",
        "Location": "Taman Bukit Rengam",
        "Post_Office": "Simpang Rengam",
        "State": "Johor"
    },
    {
        "Postcode": "86200",
        "Location": "Taman Damai 2",
        "Post_Office": "Simpang Rengam",
        "State": "Johor"
    },
    {
        "Postcode": "86200",
        "Location": "Taman Machap Jaya",
        "Post_Office": "Simpang Rengam",
        "State": "Johor"
    },
    {
        "Postcode": "86200",
        "Location": "Taman Machap Jaya 1",
        "Post_Office": "Simpang Rengam",
        "State": "Johor"
    },
    {
        "Postcode": "86200",
        "Location": "Taman Midori",
        "Post_Office": "Simpang Rengam",
        "State": "Johor"
    },
    {
        "Postcode": "86200",
        "Location": "Taman Mohd Yassin",
        "Post_Office": "Simpang Rengam",
        "State": "Johor"
    },
    {
        "Postcode": "86200",
        "Location": "Taman Murni Jaya",
        "Post_Office": "Simpang Rengam",
        "State": "Johor"
    },
    {
        "Postcode": "86200",
        "Location": "Taman Naga Ria",
        "Post_Office": "Simpang Rengam",
        "State": "Johor"
    },
    {
        "Postcode": "86200",
        "Location": "Taman Perindustrian Rengland",
        "Post_Office": "Simpang Rengam",
        "State": "Johor"
    },
    {
        "Postcode": "86200",
        "Location": "Taman Perindustrian Simpang Rengam",
        "Post_Office": "Simpang Rengam",
        "State": "Johor"
    },
    {
        "Postcode": "86200",
        "Location": "Taman Pinggir",
        "Post_Office": "Simpang Rengam",
        "State": "Johor"
    },
    {
        "Postcode": "86200",
        "Location": "Taman Putri Mas",
        "Post_Office": "Simpang Rengam",
        "State": "Johor"
    },
    {
        "Postcode": "86200",
        "Location": "Taman Rekamas 1",
        "Post_Office": "Simpang Rengam",
        "State": "Johor"
    },
    {
        "Postcode": "86200",
        "Location": "Taman Rekamas 2",
        "Post_Office": "Simpang Rengam",
        "State": "Johor"
    },
    {
        "Postcode": "86200",
        "Location": "Taman Rekamas 3",
        "Post_Office": "Simpang Rengam",
        "State": "Johor"
    },
    {
        "Postcode": "86200",
        "Location": "Taman Rekamas 4",
        "Post_Office": "Simpang Rengam",
        "State": "Johor"
    },
    {
        "Postcode": "86200",
        "Location": "Taman Rengam Jaya",
        "Post_Office": "Simpang Rengam",
        "State": "Johor"
    },
    {
        "Postcode": "86200",
        "Location": "Taman Rengland",
        "Post_Office": "Simpang Rengam",
        "State": "Johor"
    },
    {
        "Postcode": "86200",
        "Location": "Taman Rumah",
        "Post_Office": "Simpang Rengam",
        "State": "Johor"
    },
    {
        "Postcode": "86200",
        "Location": "Taman Rumas",
        "Post_Office": "Simpang Rengam",
        "State": "Johor"
    },
    {
        "Postcode": "86200",
        "Location": "Taman Simpang Rengam",
        "Post_Office": "Simpang Rengam",
        "State": "Johor"
    },
    {
        "Postcode": "86200",
        "Location": "Taman Sri Macap",
        "Post_Office": "Simpang Rengam",
        "State": "Johor"
    },
    {
        "Postcode": "86200",
        "Location": "Taman Sri Mawar",
        "Post_Office": "Simpang Rengam",
        "State": "Johor"
    },
    {
        "Postcode": "86200",
        "Location": "Taman Sri Mewah 3",
        "Post_Office": "Simpang Rengam",
        "State": "Johor"
    },
    {
        "Postcode": "86200",
        "Location": "Taman Sri Orkid 2",
        "Post_Office": "Simpang Rengam",
        "State": "Johor"
    },
    {
        "Postcode": "86200",
        "Location": "Taman Sri Puteri",
        "Post_Office": "Simpang Rengam",
        "State": "Johor"
    },
    {
        "Postcode": "86200",
        "Location": "Taman Usaha Jaya",
        "Post_Office": "Simpang Rengam",
        "State": "Johor"
    },
    {
        "Postcode": "86200",
        "Location": "Taman Yani",
        "Post_Office": "Simpang Rengam",
        "State": "Johor"
    },
    {
        "Postcode": "86200",
        "Location": "TamanÂ Damai",
        "Post_Office": "Simpang Rengam",
        "State": "Johor"
    },
    {
        "Postcode": "86200",
        "Location": "Ampangan Batu 481/2",
        "Post_Office": "Simpang Rengam",
        "State": "Johor"
    },
    {
        "Postcode": "86200",
        "Location": "Bandar Baru Dato Ibrahim Majid",
        "Post_Office": "Simpang Rengam",
        "State": "Johor"
    },
    {
        "Postcode": "86200",
        "Location": "Bandar Baru Ibrahim Majid",
        "Post_Office": "Simpang Rengam",
        "State": "Johor"
    },
    {
        "Postcode": "86200",
        "Location": "Bandar Baru Parit Haji Ibrahim Majid",
        "Post_Office": "Simpang Rengam",
        "State": "Johor"
    },
    {
        "Postcode": "86200",
        "Location": "Blok 2 Kampung Chokro",
        "Post_Office": "Simpang Rengam",
        "State": "Johor"
    },
    {
        "Postcode": "86200",
        "Location": "Felcra Pinggir",
        "Post_Office": "Simpang Rengam",
        "State": "Johor"
    },
    {
        "Postcode": "86200",
        "Location": "Felda Layang Layang",
        "Post_Office": "Simpang Rengam",
        "State": "Johor"
    },
    {
        "Postcode": "86200",
        "Location": "Kampung Bahru",
        "Post_Office": "Simpang Rengam",
        "State": "Johor"
    },
    {
        "Postcode": "86200",
        "Location": "Kampung Baru Renggam",
        "Post_Office": "Simpang Rengam",
        "State": "Johor"
    },
    {
        "Postcode": "86200",
        "Location": "Kampung Batu 7  Blok 3",
        "Post_Office": "Simpang Rengam",
        "State": "Johor"
    },
    {
        "Postcode": "86200",
        "Location": "Kampung Batu 7 Blok 2",
        "Post_Office": "Simpang Rengam",
        "State": "Johor"
    },
    {
        "Postcode": "86200",
        "Location": "Kampung Batu 7 Blok 3",
        "Post_Office": "Simpang Rengam",
        "State": "Johor"
    },
    {
        "Postcode": "86200",
        "Location": "Kampung Chokro Blok 2",
        "Post_Office": "Simpang Rengam",
        "State": "Johor"
    },
    {
        "Postcode": "86200",
        "Location": "Kampung Haji Nor",
        "Post_Office": "Simpang Rengam",
        "State": "Johor"
    },
    {
        "Postcode": "86200",
        "Location": "Kampung Ibrahim Majid",
        "Post_Office": "Simpang Rengam",
        "State": "Johor"
    },
    {
        "Postcode": "86200",
        "Location": "Kampung Ibrahim Majid  2",
        "Post_Office": "Simpang Rengam",
        "State": "Johor"
    },
    {
        "Postcode": "86200",
        "Location": "Kampung Kuari Paya Mas Blok 2",
        "Post_Office": "Simpang Rengam",
        "State": "Johor"
    },
    {
        "Postcode": "86200",
        "Location": "Kampung Parit Dol Salam",
        "Post_Office": "Simpang Rengam",
        "State": "Johor"
    },
    {
        "Postcode": "86200",
        "Location": "Kampung Paya Mas Blok 1",
        "Post_Office": "Simpang Rengam",
        "State": "Johor"
    },
    {
        "Postcode": "86200",
        "Location": "Kampung Sahari  Block 2",
        "Post_Office": "Simpang Rengam",
        "State": "Johor"
    },
    {
        "Postcode": "86200",
        "Location": "Kampung Sahari  Block 3",
        "Post_Office": "Simpang Rengam",
        "State": "Johor"
    },
    {
        "Postcode": "86200",
        "Location": "Kampung Setia Jaya Batu 53",
        "Post_Office": "Simpang Rengam",
        "State": "Johor"
    },
    {
        "Postcode": "86200",
        "Location": "Kampung Shaari",
        "Post_Office": "Simpang Rengam",
        "State": "Johor"
    },
    {
        "Postcode": "86200",
        "Location": "Kampung Shari Block 4",
        "Post_Office": "Simpang Rengam",
        "State": "Johor"
    },
    {
        "Postcode": "86200",
        "Location": "Kampung Sri Mahap",
        "Post_Office": "Simpang Rengam",
        "State": "Johor"
    },
    {
        "Postcode": "86200",
        "Location": "Kampung Sungai Machap",
        "Post_Office": "Simpang Rengam",
        "State": "Johor"
    },
    {
        "Postcode": "86200",
        "Location": "Kawasan Perindustrian Rengland",
        "Post_Office": "Simpang Rengam",
        "State": "Johor"
    },
    {
        "Postcode": "86200",
        "Location": "Kawasan Perindustrian Ringan",
        "Post_Office": "Simpang Rengam",
        "State": "Johor"
    },
    {
        "Postcode": "86200",
        "Location": "Ladang Lee Pine Apple",
        "Post_Office": "Simpang Rengam",
        "State": "Johor"
    },
    {
        "Postcode": "86200",
        "Location": "Parit 3B Sungai Linau",
        "Post_Office": "Simpang Rengam",
        "State": "Johor"
    },
    {
        "Postcode": "86200",
        "Location": "Parit 3C Sungai Linau",
        "Post_Office": "Simpang Rengam",
        "State": "Johor"
    },
    {
        "Postcode": "86200",
        "Location": "Parit 4 Sungai Linau",
        "Post_Office": "Simpang Rengam",
        "State": "Johor"
    },
    {
        "Postcode": "86200",
        "Location": "Parit 5 Sungai Linau",
        "Post_Office": "Simpang Rengam",
        "State": "Johor"
    },
    {
        "Postcode": "86200",
        "Location": "Parit Mahpol",
        "Post_Office": "Simpang Rengam",
        "State": "Johor"
    },
    {
        "Postcode": "86200",
        "Location": "Pasar Awam Spg Rengam",
        "Post_Office": "Simpang Rengam",
        "State": "Johor"
    },
    {
        "Postcode": "86200",
        "Location": "Paya Palembang Batu 49",
        "Post_Office": "Simpang Rengam",
        "State": "Johor"
    },
    {
        "Postcode": "86200",
        "Location": "Penjara Simpang Rengam",
        "Post_Office": "Simpang Rengam",
        "State": "Johor"
    },
    {
        "Postcode": "86200",
        "Location": "Pusat Perniagaan Wawasan",
        "Post_Office": "Simpang Rengam",
        "State": "Johor"
    },
    {
        "Postcode": "86200",
        "Location": "Taman Kemakmuran",
        "Post_Office": "Simpang Rengam",
        "State": "Johor"
    },
    {
        "Postcode": "86200",
        "Location": "Taman Mohd Yasin",
        "Post_Office": "Simpang Rengam",
        "State": "Johor"
    },
    {
        "Postcode": "86200",
        "Location": "Taman Perindustrian Setia",
        "Post_Office": "Simpang Rengam",
        "State": "Johor"
    },
    {
        "Postcode": "86200",
        "Location": "Taman Reka Mas 3",
        "Post_Office": "Simpang Rengam",
        "State": "Johor"
    },
    {
        "Postcode": "86200",
        "Location": "Taman Simpang Renggam",
        "Post_Office": "Simpang Rengam",
        "State": "Johor"
    },
    {
        "Postcode": "86200",
        "Location": "Taman Sri Machap",
        "Post_Office": "Simpang Rengam",
        "State": "Johor"
    },
    {
        "Postcode": "86200",
        "Location": "Taman Sri Mewah 2",
        "Post_Office": "Simpang Rengam",
        "State": "Johor"
    },
    {
        "Postcode": "86200",
        "Location": "Taman Bintang Ria",
        "Post_Office": "Simpang Rengam",
        "State": "Johor"
    },
    {
        "Postcode": "86200",
        "Location": "Taman Machap Indah",
        "Post_Office": "Simpang Rengam",
        "State": "Johor"
    },
    {
        "Postcode": "86200",
        "Location": "Taman Perindustrian Pelangi",
        "Post_Office": "Simpang Rengam",
        "State": "Johor"
    },
    {
        "Postcode": "86200",
        "Location": "Taman Sri Impian",
        "Post_Office": "Simpang Rengam",
        "State": "Johor"
    },
    {
        "Postcode": "86200",
        "Location": "Taman Tiara Perdana",
        "Post_Office": "Simpang Rengam",
        "State": "Johor"
    },
    {
        "Postcode": "86200",
        "Location": "Kampung Batu 7",
        "Post_Office": "Simpang Rengam",
        "State": "Johor"
    },
    {
        "Postcode": "86200",
        "Location": "Kampung Bukit Batu",
        "Post_Office": "Simpang Rengam",
        "State": "Johor"
    },
    {
        "Postcode": "86200",
        "Location": "Kampung Parit Basri",
        "Post_Office": "Simpang Rengam",
        "State": "Johor"
    },
    {
        "Postcode": "86200",
        "Location": "Kampung Parit Talibek",
        "Post_Office": "Simpang Rengam",
        "State": "Johor"
    },
    {
        "Postcode": "86200",
        "Location": "Ladang Simpang Rengam",
        "Post_Office": "Simpang Rengam",
        "State": "Johor"
    },
    {
        "Postcode": "86200",
        "Location": "Ladang Southern Malay",
        "Post_Office": "Simpang Rengam",
        "State": "Johor"
    },
    {
        "Postcode": "86200",
        "Location": "Kampung Sungai Rambai",
        "Post_Office": "Simpang Rengam",
        "State": "Johor"
    },
    {
        "Postcode": "86200",
        "Location": "Taman Bahtera",
        "Post_Office": "Simpang Rengam",
        "State": "Johor"
    },
    {
        "Postcode": "86200",
        "Location": "Taman Cantik",
        "Post_Office": "Simpang Rengam",
        "State": "Johor"
    },
    {
        "Postcode": "86200",
        "Location": "Taman Sri Orkid",
        "Post_Office": "Simpang Rengam",
        "State": "Johor"
    },
    {
        "Postcode": "86200",
        "Location": "Kampung Parit Penghulu",
        "Post_Office": "Simpang Rengam",
        "State": "Johor"
    },
    {
        "Postcode": "86200",
        "Location": "Kampung Parit Salman",
        "Post_Office": "Simpang Rengam",
        "State": "Johor"
    },
    {
        "Postcode": "86200",
        "Location": "Kampung Baru",
        "Post_Office": "Simpang Rengam",
        "State": "Johor"
    },
    {
        "Postcode": "86200",
        "Location": "Kampung Batu 6",
        "Post_Office": "Simpang Rengam",
        "State": "Johor"
    },
    {
        "Postcode": "86200",
        "Location": "Kampung Cina",
        "Post_Office": "Simpang Rengam",
        "State": "Johor"
    },
    {
        "Postcode": "86200",
        "Location": "Kampung Kolam Air",
        "Post_Office": "Simpang Rengam",
        "State": "Johor"
    },
    {
        "Postcode": "86200",
        "Location": "Kampung Melayu",
        "Post_Office": "Simpang Rengam",
        "State": "Johor"
    },
    {
        "Postcode": "86200",
        "Location": "Kampung Parit Gantong",
        "Post_Office": "Simpang Rengam",
        "State": "Johor"
    },
    {
        "Postcode": "86200",
        "Location": "Kampung Parit Hassan",
        "Post_Office": "Simpang Rengam",
        "State": "Johor"
    },
    {
        "Postcode": "86200",
        "Location": "Kampung Paya",
        "Post_Office": "Simpang Rengam",
        "State": "Johor"
    },
    {
        "Postcode": "86200",
        "Location": "Kampung Pisang",
        "Post_Office": "Simpang Rengam",
        "State": "Johor"
    },
    {
        "Postcode": "86200",
        "Location": "Parit Ghani",
        "Post_Office": "Simpang Rengam",
        "State": "Johor"
    },
    {
        "Postcode": "86200",
        "Location": "Parit Jepun",
        "Post_Office": "Simpang Rengam",
        "State": "Johor"
    },
    {
        "Postcode": "86200",
        "Location": "Taman Cemara",
        "Post_Office": "Simpang Rengam",
        "State": "Johor"
    },
    {
        "Postcode": "86200",
        "Location": "Taman Damai",
        "Post_Office": "Simpang Rengam",
        "State": "Johor"
    },
    {
        "Postcode": "86200",
        "Location": "Taman Desa Sejahtera",
        "Post_Office": "Simpang Rengam",
        "State": "Johor"
    },
    {
        "Postcode": "86200",
        "Location": "Taman Harmoni",
        "Post_Office": "Simpang Rengam",
        "State": "Johor"
    },
    {
        "Postcode": "86200",
        "Location": "Taman Indah",
        "Post_Office": "Simpang Rengam",
        "State": "Johor"
    },
    {
        "Postcode": "86200",
        "Location": "Taman Intan",
        "Post_Office": "Simpang Rengam",
        "State": "Johor"
    },
    {
        "Postcode": "86200",
        "Location": "Taman Jaya",
        "Post_Office": "Simpang Rengam",
        "State": "Johor"
    },
    {
        "Postcode": "86200",
        "Location": "Taman Kaseh",
        "Post_Office": "Simpang Rengam",
        "State": "Johor"
    },
    {
        "Postcode": "86200",
        "Location": "Taman Mawar",
        "Post_Office": "Simpang Rengam",
        "State": "Johor"
    },
    {
        "Postcode": "86200",
        "Location": "Taman Muhibbah",
        "Post_Office": "Simpang Rengam",
        "State": "Johor"
    },
    {
        "Postcode": "86200",
        "Location": "Taman Nagaria",
        "Post_Office": "Simpang Rengam",
        "State": "Johor"
    },
    {
        "Postcode": "86200",
        "Location": "Taman Perling",
        "Post_Office": "Simpang Rengam",
        "State": "Johor"
    },
    {
        "Postcode": "86200",
        "Location": "Taman Ria",
        "Post_Office": "Simpang Rengam",
        "State": "Johor"
    },
    {
        "Postcode": "86200",
        "Location": "Taman Sutera",
        "Post_Office": "Simpang Rengam",
        "State": "Johor"
    },
    {
        "Postcode": "86200",
        "Location": "Taman Mega",
        "Post_Office": "Simpang Rengam",
        "State": "Johor"
    },
    {
        "Postcode": "86200",
        "Location": "Taman Samudera",
        "Post_Office": "Simpang Rengam",
        "State": "Johor"
    },
    {
        "Postcode": "86200",
        "Location": "Taman Sentosa",
        "Post_Office": "Simpang Rengam",
        "State": "Johor"
    },
    {
        "Postcode": "86200",
        "Location": "Taman Suria",
        "Post_Office": "Simpang Rengam",
        "State": "Johor"
    },
    {
        "Postcode": "86200",
        "Location": "Taman Wira",
        "Post_Office": "Simpang Rengam",
        "State": "Johor"
    }
]
