[
    {
        "Postcode": "86300",
        "Location": "Jalan Bunga Raya",
        "Post_Office": "Rengam",
        "State": "Johor"
    },
    {
        "Postcode": "86300",
        "Location": "Jalan Ibrahim",
        "Post_Office": "Rengam",
        "State": "Johor"
    },
    {
        "Postcode": "86300",
        "Location": "Taman Sri Jaya",
        "Post_Office": "Rengam",
        "State": "Johor"
    },
    {
        "Postcode": "86300",
        "Location": "Jalan Melor",
        "Post_Office": "Rengam",
        "State": "Johor"
    },
    {
        "Postcode": "86300",
        "Location": "Jalan Station",
        "Post_Office": "Rengam",
        "State": "Johor"
    },
    {
        "Postcode": "86300",
        "Location": "Bandar Rengam",
        "Post_Office": "Rengam",
        "State": "Johor"
    },
    {
        "Postcode": "86300",
        "Location": "Cep Rengam Palm Oil Mail",
        "Post_Office": "Rengam",
        "State": "Johor"
    },
    {
        "Postcode": "86300",
        "Location": "Jalan Haji Sirat",
        "Post_Office": "Rengam",
        "State": "Johor"
    },
    {
        "Postcode": "86300",
        "Location": "Jalan Kubor Cina",
        "Post_Office": "Rengam",
        "State": "Johor"
    },
    {
        "Postcode": "86300",
        "Location": "Jalan Perigi Raja",
        "Post_Office": "Rengam",
        "State": "Johor"
    },
    {
        "Postcode": "86300",
        "Location": "Jalan Senda",
        "Post_Office": "Rengam",
        "State": "Johor"
    },
    {
        "Postcode": "86300",
        "Location": "Kampung Baru Sungai Sayong",
        "Post_Office": "Rengam",
        "State": "Johor"
    },
    {
        "Postcode": "86300",
        "Location": "Kampung Sesak",
        "Post_Office": "Rengam",
        "State": "Johor"
    },
    {
        "Postcode": "86300",
        "Location": "Ladang Benut",
        "Post_Office": "Rengam",
        "State": "Johor"
    },
    {
        "Postcode": "86300",
        "Location": "Ladang Cep",
        "Post_Office": "Rengam",
        "State": "Johor"
    },
    {
        "Postcode": "86300",
        "Location": "Ladang Kebun Rengam",
        "Post_Office": "Rengam",
        "State": "Johor"
    },
    {
        "Postcode": "86300",
        "Location": "Ladang Rengam",
        "Post_Office": "Rengam",
        "State": "Johor"
    },
    {
        "Postcode": "86300",
        "Location": "Ladang See Sun",
        "Post_Office": "Rengam",
        "State": "Johor"
    },
    {
        "Postcode": "86300",
        "Location": "Ladang Song Lim",
        "Post_Office": "Rengam",
        "State": "Johor"
    },
    {
        "Postcode": "86300",
        "Location": "Rengam",
        "Post_Office": "Rengam",
        "State": "Johor"
    },
    {
        "Postcode": "86300",
        "Location": "Rumah Murah Rengam",
        "Post_Office": "Rengam",
        "State": "Johor"
    },
    {
        "Postcode": "86300",
        "Location": "See Heng Enterprise",
        "Post_Office": "Rengam",
        "State": "Johor"
    },
    {
        "Postcode": "86300",
        "Location": "Sungai Sayung",
        "Post_Office": "Rengam",
        "State": "Johor"
    },
    {
        "Postcode": "86300",
        "Location": "Kampung Senda",
        "Post_Office": "Rengam",
        "State": "Johor"
    },
    {
        "Postcode": "86300",
        "Location": "Rumah Murah Renggam",
        "Post_Office": "Rengam",
        "State": "Johor"
    },
    {
        "Postcode": "86300",
        "Location": "Kampung See Sun",
        "Post_Office": "Rengam",
        "State": "Johor"
    },
    {
        "Postcode": "86300",
        "Location": "Jalan Bukit",
        "Post_Office": "Rengam",
        "State": "Johor"
    },
    {
        "Postcode": "86300",
        "Location": "Jalan Panglima",
        "Post_Office": "Rengam",
        "State": "Johor"
    },
    {
        "Postcode": "86300",
        "Location": "Jalan Trus",
        "Post_Office": "Rengam",
        "State": "Johor"
    },
    {
        "Postcode": "86300",
        "Location": "Kampung Baru",
        "Post_Office": "Rengam",
        "State": "Johor"
    },
    {
        "Postcode": "86300",
        "Location": "Kampung Melayu",
        "Post_Office": "Rengam",
        "State": "Johor"
    },
    {
        "Postcode": "86300",
        "Location": "Kampung Sri Tanjung",
        "Post_Office": "Rengam",
        "State": "Johor"
    },
    {
        "Postcode": "86300",
        "Location": "Kampung Tengah",
        "Post_Office": "Rengam",
        "State": "Johor"
    }
]
