[
    {
        "Postcode": "86400",
        "Location": "Jalan Besar",
        "Post_Office": "Parit Raja",
        "State": "Johor"
    },
    {
        "Postcode": "86400",
        "Location": "Kampung Parit Baru",
        "Post_Office": "Parit Raja",
        "State": "Johor"
    },
    {
        "Postcode": "86400",
        "Location": "Taman Sri Indah",
        "Post_Office": "Parit Raja",
        "State": "Johor"
    },
    {
        "Postcode": "86400",
        "Location": "Kampung Parit Kassim",
        "Post_Office": "Parit Raja",
        "State": "Johor"
    },
    {
        "Postcode": "86400",
        "Location": "Kampung Parit Sempadan",
        "Post_Office": "Parit Raja",
        "State": "Johor"
    },
    {
        "Postcode": "86400",
        "Location": "Taman Gemilang",
        "Post_Office": "Parit Raja",
        "State": "Johor"
    },
    {
        "Postcode": "86400",
        "Location": "Jalan Sekolah Arab",
        "Post_Office": "Parit Raja",
        "State": "Johor"
    },
    {
        "Postcode": "86400",
        "Location": "Kampung Parit Bengkok",
        "Post_Office": "Parit Raja",
        "State": "Johor"
    },
    {
        "Postcode": "86400",
        "Location": "Kampung Parit Lintang",
        "Post_Office": "Parit Raja",
        "State": "Johor"
    },
    {
        "Postcode": "86400",
        "Location": "Kampung Parit Tengah",
        "Post_Office": "Parit Raja",
        "State": "Johor"
    },
    {
        "Postcode": "86400",
        "Location": "Taman Impian",
        "Post_Office": "Parit Raja",
        "State": "Johor"
    },
    {
        "Postcode": "86400",
        "Location": "Taman Kristal",
        "Post_Office": "Parit Raja",
        "State": "Johor"
    },
    {
        "Postcode": "86400",
        "Location": "Parit Taib",
        "Post_Office": "Parit Raja",
        "State": "Johor"
    },
    {
        "Postcode": "86400",
        "Location": "Kampung Parit Taib",
        "Post_Office": "Parit Raja",
        "State": "Johor"
    },
    {
        "Postcode": "86400",
        "Location": "Bandar Universiti",
        "Post_Office": "Parit Raja",
        "State": "Johor"
    },
    {
        "Postcode": "86400",
        "Location": "Jalan Baharu",
        "Post_Office": "Parit Raja",
        "State": "Johor"
    },
    {
        "Postcode": "86400",
        "Location": "Jalan Chan Pek Guan",
        "Post_Office": "Parit Raja",
        "State": "Johor"
    },
    {
        "Postcode": "86400",
        "Location": "Jalan Mohamed",
        "Post_Office": "Parit Raja",
        "State": "Johor"
    },
    {
        "Postcode": "86400",
        "Location": "Jalan Pasar Rzb 1",
        "Post_Office": "Parit Raja",
        "State": "Johor"
    },
    {
        "Postcode": "86400",
        "Location": "Kampung Bukit Kuary",
        "Post_Office": "Parit Raja",
        "State": "Johor"
    },
    {
        "Postcode": "86400",
        "Location": "Kampung Lapis Semarang",
        "Post_Office": "Parit Raja",
        "State": "Johor"
    },
    {
        "Postcode": "86400",
        "Location": "Kampung Olak Batu",
        "Post_Office": "Parit Raja",
        "State": "Johor"
    },
    {
        "Postcode": "86400",
        "Location": "Kampung Parit Haji Abd Hamid",
        "Post_Office": "Parit Raja",
        "State": "Johor"
    },
    {
        "Postcode": "86400",
        "Location": "Kampung Parit Haji Ali Laut",
        "Post_Office": "Parit Raja",
        "State": "Johor"
    },
    {
        "Postcode": "86400",
        "Location": "Kampung Parit Khalid",
        "Post_Office": "Parit Raja",
        "State": "Johor"
    },
    {
        "Postcode": "86400",
        "Location": "Kampung Parit Marion",
        "Post_Office": "Parit Raja",
        "State": "Johor"
    },
    {
        "Postcode": "86400",
        "Location": "Kampung Seri Benut Hilir",
        "Post_Office": "Parit Raja",
        "State": "Johor"
    },
    {
        "Postcode": "86400",
        "Location": "Kampung Seri Mendapat",
        "Post_Office": "Parit Raja",
        "State": "Johor"
    },
    {
        "Postcode": "86400",
        "Location": "Kampung Simpang Bekok",
        "Post_Office": "Parit Raja",
        "State": "Johor"
    },
    {
        "Postcode": "86400",
        "Location": "Kampung Sri Benut",
        "Post_Office": "Parit Raja",
        "State": "Johor"
    },
    {
        "Postcode": "86400",
        "Location": "Kampung Sri Gunong",
        "Post_Office": "Parit Raja",
        "State": "Johor"
    },
    {
        "Postcode": "86400",
        "Location": "Kampung Sri Paya Darat",
        "Post_Office": "Parit Raja",
        "State": "Johor"
    },
    {
        "Postcode": "86400",
        "Location": "Kampung Sri Paya Tengah",
        "Post_Office": "Parit Raja",
        "State": "Johor"
    },
    {
        "Postcode": "86400",
        "Location": "Kampung Sungai Bioh",
        "Post_Office": "Parit Raja",
        "State": "Johor"
    },
    {
        "Postcode": "86400",
        "Location": "Kampung Sungai Gajah",
        "Post_Office": "Parit Raja",
        "State": "Johor"
    },
    {
        "Postcode": "86400",
        "Location": "Kampung Sungai Rambut",
        "Post_Office": "Parit Raja",
        "State": "Johor"
    },
    {
        "Postcode": "86400",
        "Location": "Kampung Tanjung Semberong",
        "Post_Office": "Parit Raja",
        "State": "Johor"
    },
    {
        "Postcode": "86400",
        "Location": "Kampung Tunggol Hitam (Sapran)",
        "Post_Office": "Parit Raja",
        "State": "Johor"
    },
    {
        "Postcode": "86400",
        "Location": "Kampung Tunggul Hitam",
        "Post_Office": "Parit Raja",
        "State": "Johor"
    },
    {
        "Postcode": "86400",
        "Location": "Kawasan Perindustrian Parit Raja",
        "Post_Office": "Parit Raja",
        "State": "Johor"
    },
    {
        "Postcode": "86400",
        "Location": "Ladang Semberong",
        "Post_Office": "Parit Raja",
        "State": "Johor"
    },
    {
        "Postcode": "86400",
        "Location": "Lorong Haji Umar",
        "Post_Office": "Parit Raja",
        "State": "Johor"
    },
    {
        "Postcode": "86400",
        "Location": "Lorong Haji Yunus",
        "Post_Office": "Parit Raja",
        "State": "Johor"
    },
    {
        "Postcode": "86400",
        "Location": "Parit Bandan",
        "Post_Office": "Parit Raja",
        "State": "Johor"
    },
    {
        "Postcode": "86400",
        "Location": "Parit Baring",
        "Post_Office": "Parit Raja",
        "State": "Johor"
    },
    {
        "Postcode": "86400",
        "Location": "Parit Bengali",
        "Post_Office": "Parit Raja",
        "State": "Johor"
    },
    {
        "Postcode": "86400",
        "Location": "Parit Berayang",
        "Post_Office": "Parit Raja",
        "State": "Johor"
    },
    {
        "Postcode": "86400",
        "Location": "Kampung Bonangong",
        "Post_Office": "Parit Raja",
        "State": "Johor"
    },
    {
        "Postcode": "86400",
        "Location": "Kampung Kaspan",
        "Post_Office": "Parit Raja",
        "State": "Johor"
    },
    {
        "Postcode": "86400",
        "Location": "Kampung Lapis Sempadan",
        "Post_Office": "Parit Raja",
        "State": "Johor"
    },
    {
        "Postcode": "86400",
        "Location": "Kampung Paris Lapis Semarang Darat",
        "Post_Office": "Parit Raja",
        "State": "Johor"
    },
    {
        "Postcode": "86400",
        "Location": "Kampung Parit Baru Darat",
        "Post_Office": "Parit Raja",
        "State": "Johor"
    },
    {
        "Postcode": "86400",
        "Location": "Kampung Parit Baru Laut",
        "Post_Office": "Parit Raja",
        "State": "Johor"
    },
    {
        "Postcode": "86400",
        "Location": "Kampung Parit Benggali",
        "Post_Office": "Parit Raja",
        "State": "Johor"
    },
    {
        "Postcode": "86400",
        "Location": "Kampung Parit Betong",
        "Post_Office": "Parit Raja",
        "State": "Johor"
    },
    {
        "Postcode": "86400",
        "Location": "Kampung Parit Bingan Tengah",
        "Post_Office": "Parit Raja",
        "State": "Johor"
    },
    {
        "Postcode": "86400",
        "Location": "Kampung Parit Darat",
        "Post_Office": "Parit Raja",
        "State": "Johor"
    },
    {
        "Postcode": "86400",
        "Location": "Kampung Parit Daun Darat",
        "Post_Office": "Parit Raja",
        "State": "Johor"
    },
    {
        "Postcode": "86400",
        "Location": "Kampung Parit Haji Abdul Hamid",
        "Post_Office": "Parit Raja",
        "State": "Johor"
    },
    {
        "Postcode": "86400",
        "Location": "Kampung Parit Haji Ali",
        "Post_Office": "Parit Raja",
        "State": "Johor"
    },
    {
        "Postcode": "86400",
        "Location": "Kampung Parit Haji Ali Tengah",
        "Post_Office": "Parit Raja",
        "State": "Johor"
    },
    {
        "Postcode": "86400",
        "Location": "Kampung Parit Haji Bandan",
        "Post_Office": "Parit Raja",
        "State": "Johor"
    },
    {
        "Postcode": "86400",
        "Location": "Kampung Parit Jambul",
        "Post_Office": "Parit Raja",
        "State": "Johor"
    },
    {
        "Postcode": "86400",
        "Location": "Kampung Parit Jambul Laut",
        "Post_Office": "Parit Raja",
        "State": "Johor"
    },
    {
        "Postcode": "86400",
        "Location": "Kampung Parit Kuari Darat",
        "Post_Office": "Parit Raja",
        "State": "Johor"
    },
    {
        "Postcode": "86400",
        "Location": "Kampung Parit Lapis Baru Darat",
        "Post_Office": "Parit Raja",
        "State": "Johor"
    },
    {
        "Postcode": "86400",
        "Location": "Kampung Parit Lapis Baru Laut",
        "Post_Office": "Parit Raja",
        "State": "Johor"
    },
    {
        "Postcode": "86400",
        "Location": "Kampung Parit Lapis Surau",
        "Post_Office": "Parit Raja",
        "State": "Johor"
    },
    {
        "Postcode": "86400",
        "Location": "Kampung Parit Nipah Darat",
        "Post_Office": "Parit Raja",
        "State": "Johor"
    },
    {
        "Postcode": "86400",
        "Location": "Kampung Parit Seiring",
        "Post_Office": "Parit Raja",
        "State": "Johor"
    },
    {
        "Postcode": "86400",
        "Location": "Kampung Parit Sempadan Laut",
        "Post_Office": "Parit Raja",
        "State": "Johor"
    },
    {
        "Postcode": "86400",
        "Location": "Kampung Parit Surau Darat",
        "Post_Office": "Parit Raja",
        "State": "Johor"
    },
    {
        "Postcode": "86400",
        "Location": "Kampung Parit Surau Laut",
        "Post_Office": "Parit Raja",
        "State": "Johor"
    },
    {
        "Postcode": "86400",
        "Location": "Kampung Parit Tengah Laut",
        "Post_Office": "Parit Raja",
        "State": "Johor"
    },
    {
        "Postcode": "86400",
        "Location": "Kampung Sri Paya Laut",
        "Post_Office": "Parit Raja",
        "State": "Johor"
    },
    {
        "Postcode": "86400",
        "Location": "Kampung Surau Darat",
        "Post_Office": "Parit Raja",
        "State": "Johor"
    },
    {
        "Postcode": "86400",
        "Location": "Taman Melewar 3",
        "Post_Office": "Parit Raja",
        "State": "Johor"
    },
    {
        "Postcode": "86400",
        "Location": "Taman Ria Baru",
        "Post_Office": "Parit Raja",
        "State": "Johor"
    },
    {
        "Postcode": "86400",
        "Location": "Taman Semarang",
        "Post_Office": "Parit Raja",
        "State": "Johor"
    },
    {
        "Postcode": "86400",
        "Location": "Parit Bingan",
        "Post_Office": "Parit Raja",
        "State": "Johor"
    },
    {
        "Postcode": "86400",
        "Location": "Parit Bingan Darat",
        "Post_Office": "Parit Raja",
        "State": "Johor"
    },
    {
        "Postcode": "86400",
        "Location": "Parit Bingan Laut",
        "Post_Office": "Parit Raja",
        "State": "Johor"
    },
    {
        "Postcode": "86400",
        "Location": "Parit Bunaggong",
        "Post_Office": "Parit Raja",
        "State": "Johor"
    },
    {
        "Postcode": "86400",
        "Location": "Parit Daun",
        "Post_Office": "Parit Raja",
        "State": "Johor"
    },
    {
        "Postcode": "86400",
        "Location": "Parit Haji Abd Kadir",
        "Post_Office": "Parit Raja",
        "State": "Johor"
    },
    {
        "Postcode": "86400",
        "Location": "Parit Haji Hamid",
        "Post_Office": "Parit Raja",
        "State": "Johor"
    },
    {
        "Postcode": "86400",
        "Location": "Parit Haji Kadir",
        "Post_Office": "Parit Raja",
        "State": "Johor"
    },
    {
        "Postcode": "86400",
        "Location": "Parit Haji Rais",
        "Post_Office": "Parit Raja",
        "State": "Johor"
    },
    {
        "Postcode": "86400",
        "Location": "Parit Haji Salleh Ros",
        "Post_Office": "Parit Raja",
        "State": "Johor"
    },
    {
        "Postcode": "86400",
        "Location": "Parit Haji Talib",
        "Post_Office": "Parit Raja",
        "State": "Johor"
    },
    {
        "Postcode": "86400",
        "Location": "Parit Haji Talib Darat",
        "Post_Office": "Parit Raja",
        "State": "Johor"
    },
    {
        "Postcode": "86400",
        "Location": "Parit Jambol",
        "Post_Office": "Parit Raja",
        "State": "Johor"
    },
    {
        "Postcode": "86400",
        "Location": "Parit Jatuh",
        "Post_Office": "Parit Raja",
        "State": "Johor"
    },
    {
        "Postcode": "86400",
        "Location": "Parit Jelutong",
        "Post_Office": "Parit Raja",
        "State": "Johor"
    },
    {
        "Postcode": "86400",
        "Location": "Parit Karjo",
        "Post_Office": "Parit Raja",
        "State": "Johor"
    },
    {
        "Postcode": "86400",
        "Location": "Parit Kaspan",
        "Post_Office": "Parit Raja",
        "State": "Johor"
    },
    {
        "Postcode": "86400",
        "Location": "Parit Kerajaan",
        "Post_Office": "Parit Raja",
        "State": "Johor"
    },
    {
        "Postcode": "86400",
        "Location": "Parit Khalid",
        "Post_Office": "Parit Raja",
        "State": "Johor"
    },
    {
        "Postcode": "86400",
        "Location": "Parit Khalid Darat",
        "Post_Office": "Parit Raja",
        "State": "Johor"
    },
    {
        "Postcode": "86400",
        "Location": "Parit Khalid Laut",
        "Post_Office": "Parit Raja",
        "State": "Johor"
    },
    {
        "Postcode": "86400",
        "Location": "Parit Kuari",
        "Post_Office": "Parit Raja",
        "State": "Johor"
    },
    {
        "Postcode": "86400",
        "Location": "Parit Lapis Baru",
        "Post_Office": "Parit Raja",
        "State": "Johor"
    },
    {
        "Postcode": "86400",
        "Location": "Parit Lapis Daun",
        "Post_Office": "Parit Raja",
        "State": "Johor"
    },
    {
        "Postcode": "86400",
        "Location": "Parit Lapis Nipah",
        "Post_Office": "Parit Raja",
        "State": "Johor"
    },
    {
        "Postcode": "86400",
        "Location": "Parit Lapis Sempadan",
        "Post_Office": "Parit Raja",
        "State": "Johor"
    },
    {
        "Postcode": "86400",
        "Location": "Parit Lapis Talang Benut",
        "Post_Office": "Parit Raja",
        "State": "Johor"
    },
    {
        "Postcode": "86400",
        "Location": "Parit Lapis Talang Darat",
        "Post_Office": "Parit Raja",
        "State": "Johor"
    },
    {
        "Postcode": "86400",
        "Location": "Parit Lapis Tengah",
        "Post_Office": "Parit Raja",
        "State": "Johor"
    },
    {
        "Postcode": "86400",
        "Location": "Parit Londang",
        "Post_Office": "Parit Raja",
        "State": "Johor"
    },
    {
        "Postcode": "86400",
        "Location": "Parit Londang Darat",
        "Post_Office": "Parit Raja",
        "State": "Johor"
    },
    {
        "Postcode": "86400",
        "Location": "Parit Londang Laut",
        "Post_Office": "Parit Raja",
        "State": "Johor"
    },
    {
        "Postcode": "86400",
        "Location": "Parit Londang Tengah",
        "Post_Office": "Parit Raja",
        "State": "Johor"
    },
    {
        "Postcode": "86400",
        "Location": "Parit Marion",
        "Post_Office": "Parit Raja",
        "State": "Johor"
    },
    {
        "Postcode": "86400",
        "Location": "Parit Muhamad",
        "Post_Office": "Parit Raja",
        "State": "Johor"
    },
    {
        "Postcode": "86400",
        "Location": "Parit Nipah",
        "Post_Office": "Parit Raja",
        "State": "Johor"
    },
    {
        "Postcode": "86400",
        "Location": "Parit Nipah Tengah",
        "Post_Office": "Parit Raja",
        "State": "Johor"
    },
    {
        "Postcode": "86400",
        "Location": "Parit Pinggan",
        "Post_Office": "Parit Raja",
        "State": "Johor"
    },
    {
        "Postcode": "86400",
        "Location": "Parit Raja Darat",
        "Post_Office": "Parit Raja",
        "State": "Johor"
    },
    {
        "Postcode": "86400",
        "Location": "Parit Rasipan",
        "Post_Office": "Parit Raja",
        "State": "Johor"
    },
    {
        "Postcode": "86400",
        "Location": "Parit Saleh",
        "Post_Office": "Parit Raja",
        "State": "Johor"
    },
    {
        "Postcode": "86400",
        "Location": "Parit Samijan",
        "Post_Office": "Parit Raja",
        "State": "Johor"
    },
    {
        "Postcode": "86400",
        "Location": "Parit Samion",
        "Post_Office": "Parit Raja",
        "State": "Johor"
    },
    {
        "Postcode": "86400",
        "Location": "Parit Sapran",
        "Post_Office": "Parit Raja",
        "State": "Johor"
    },
    {
        "Postcode": "86400",
        "Location": "Parit Sapran Darat",
        "Post_Office": "Parit Raja",
        "State": "Johor"
    },
    {
        "Postcode": "86400",
        "Location": "Parit Sapran Laut",
        "Post_Office": "Parit Raja",
        "State": "Johor"
    },
    {
        "Postcode": "86400",
        "Location": "Parit Saring",
        "Post_Office": "Parit Raja",
        "State": "Johor"
    },
    {
        "Postcode": "86400",
        "Location": "Parit Semarang",
        "Post_Office": "Parit Raja",
        "State": "Johor"
    },
    {
        "Postcode": "86400",
        "Location": "Parit Semberong Darat",
        "Post_Office": "Parit Raja",
        "State": "Johor"
    },
    {
        "Postcode": "86400",
        "Location": "Parit Sempadan Laut",
        "Post_Office": "Parit Raja",
        "State": "Johor"
    },
    {
        "Postcode": "86400",
        "Location": "Parit Seri Muar",
        "Post_Office": "Parit Raja",
        "State": "Johor"
    },
    {
        "Postcode": "86400",
        "Location": "Parit Seri Paya",
        "Post_Office": "Parit Raja",
        "State": "Johor"
    },
    {
        "Postcode": "86400",
        "Location": "Parit Seri Pindah",
        "Post_Office": "Parit Raja",
        "State": "Johor"
    },
    {
        "Postcode": "86400",
        "Location": "Parit Serining",
        "Post_Office": "Parit Raja",
        "State": "Johor"
    },
    {
        "Postcode": "86400",
        "Location": "Parit Shukor",
        "Post_Office": "Parit Raja",
        "State": "Johor"
    },
    {
        "Postcode": "86400",
        "Location": "Parit Shukor Darat",
        "Post_Office": "Parit Raja",
        "State": "Johor"
    },
    {
        "Postcode": "86400",
        "Location": "Parit Shukor Laut",
        "Post_Office": "Parit Raja",
        "State": "Johor"
    },
    {
        "Postcode": "86400",
        "Location": "Parit Sikon",
        "Post_Office": "Parit Raja",
        "State": "Johor"
    },
    {
        "Postcode": "86400",
        "Location": "Parit Sikon Laut",
        "Post_Office": "Parit Raja",
        "State": "Johor"
    },
    {
        "Postcode": "86400",
        "Location": "Parit Simpang Sikon",
        "Post_Office": "Parit Raja",
        "State": "Johor"
    },
    {
        "Postcode": "86400",
        "Location": "Parit Simpang Sikum",
        "Post_Office": "Parit Raja",
        "State": "Johor"
    },
    {
        "Postcode": "86400",
        "Location": "Parit Sri Bandan",
        "Post_Office": "Parit Raja",
        "State": "Johor"
    },
    {
        "Postcode": "86400",
        "Location": "Parit Sri Gunung",
        "Post_Office": "Parit Raja",
        "State": "Johor"
    },
    {
        "Postcode": "86400",
        "Location": "Parit Sri Mendapat",
        "Post_Office": "Parit Raja",
        "State": "Johor"
    },
    {
        "Postcode": "86400",
        "Location": "Parit Sri Muar",
        "Post_Office": "Parit Raja",
        "State": "Johor"
    },
    {
        "Postcode": "86400",
        "Location": "Parit Sri Pandan",
        "Post_Office": "Parit Raja",
        "State": "Johor"
    },
    {
        "Postcode": "86400",
        "Location": "Parit Sri Paya",
        "Post_Office": "Parit Raja",
        "State": "Johor"
    },
    {
        "Postcode": "86400",
        "Location": "Parit Sri Paya Darat",
        "Post_Office": "Parit Raja",
        "State": "Johor"
    },
    {
        "Postcode": "86400",
        "Location": "Parit Sumarto",
        "Post_Office": "Parit Raja",
        "State": "Johor"
    },
    {
        "Postcode": "86400",
        "Location": "Parit Tabor",
        "Post_Office": "Parit Raja",
        "State": "Johor"
    },
    {
        "Postcode": "86400",
        "Location": "Pekan Parit Raja",
        "Post_Office": "Parit Raja",
        "State": "Johor"
    },
    {
        "Postcode": "86400",
        "Location": "Talang Benut",
        "Post_Office": "Parit Raja",
        "State": "Johor"
    },
    {
        "Postcode": "86400",
        "Location": "Taman Aked",
        "Post_Office": "Parit Raja",
        "State": "Johor"
    },
    {
        "Postcode": "86400",
        "Location": "Taman Budiman",
        "Post_Office": "Parit Raja",
        "State": "Johor"
    },
    {
        "Postcode": "86400",
        "Location": "Taman Cempaka Biru",
        "Post_Office": "Parit Raja",
        "State": "Johor"
    },
    {
        "Postcode": "86400",
        "Location": "Taman Kelisa Jaya",
        "Post_Office": "Parit Raja",
        "State": "Johor"
    },
    {
        "Postcode": "86400",
        "Location": "Taman Kenangan Indah",
        "Post_Office": "Parit Raja",
        "State": "Johor"
    },
    {
        "Postcode": "86400",
        "Location": "Taman Londang",
        "Post_Office": "Parit Raja",
        "State": "Johor"
    },
    {
        "Postcode": "86400",
        "Location": "Taman Manis Fasa 3",
        "Post_Office": "Parit Raja",
        "State": "Johor"
    },
    {
        "Postcode": "86400",
        "Location": "Taman Manis Fasa 4",
        "Post_Office": "Parit Raja",
        "State": "Johor"
    },
    {
        "Postcode": "86400",
        "Location": "Taman Melewar",
        "Post_Office": "Parit Raja",
        "State": "Johor"
    },
    {
        "Postcode": "86400",
        "Location": "Taman Melewar 2",
        "Post_Office": "Parit Raja",
        "State": "Johor"
    },
    {
        "Postcode": "86400",
        "Location": "Taman Parit Raja",
        "Post_Office": "Parit Raja",
        "State": "Johor"
    },
    {
        "Postcode": "86400",
        "Location": "Taman Parit Raja 2",
        "Post_Office": "Parit Raja",
        "State": "Johor"
    },
    {
        "Postcode": "86400",
        "Location": "Taman Pintas Jaya",
        "Post_Office": "Parit Raja",
        "State": "Johor"
    },
    {
        "Postcode": "86400",
        "Location": "Taman Robena",
        "Post_Office": "Parit Raja",
        "State": "Johor"
    },
    {
        "Postcode": "86400",
        "Location": "Taman Rona",
        "Post_Office": "Parit Raja",
        "State": "Johor"
    },
    {
        "Postcode": "86400",
        "Location": "Taman Sedap",
        "Post_Office": "Parit Raja",
        "State": "Johor"
    },
    {
        "Postcode": "86400",
        "Location": "Taman Siswa Jaya",
        "Post_Office": "Parit Raja",
        "State": "Johor"
    },
    {
        "Postcode": "86400",
        "Location": "Taman Sri Raja",
        "Post_Office": "Parit Raja",
        "State": "Johor"
    },
    {
        "Postcode": "86400",
        "Location": "Taman Teratai Jaya",
        "Post_Office": "Parit Raja",
        "State": "Johor"
    },
    {
        "Postcode": "86400",
        "Location": "Taman Wira Jaya",
        "Post_Office": "Parit Raja",
        "State": "Johor"
    },
    {
        "Postcode": "86400",
        "Location": "Kampung Parit Surau",
        "Post_Office": "Parit Raja",
        "State": "Johor"
    },
    {
        "Postcode": "86400",
        "Location": "Lorong 1",
        "Post_Office": "Parit Raja",
        "State": "Johor"
    },
    {
        "Postcode": "86400",
        "Location": "Taman Budiman 2",
        "Post_Office": "Parit Raja",
        "State": "Johor"
    },
    {
        "Postcode": "86400",
        "Location": "Taman Maju Baru",
        "Post_Office": "Parit Raja",
        "State": "Johor"
    },
    {
        "Postcode": "86400",
        "Location": "Taman Manis",
        "Post_Office": "Parit Raja",
        "State": "Johor"
    },
    {
        "Postcode": "86400",
        "Location": "Taman Universiti",
        "Post_Office": "Parit Raja",
        "State": "Johor"
    },
    {
        "Postcode": "86400",
        "Location": "Kampung Parit Nipah Laut",
        "Post_Office": "Parit Raja",
        "State": "Johor"
    },
    {
        "Postcode": "86400",
        "Location": "Jalan Muhamad",
        "Post_Office": "Parit Raja",
        "State": "Johor"
    },
    {
        "Postcode": "86400",
        "Location": "Kampung Parit Gantong",
        "Post_Office": "Parit Raja",
        "State": "Johor"
    },
    {
        "Postcode": "86400",
        "Location": "Kampung Parit Jawa",
        "Post_Office": "Parit Raja",
        "State": "Johor"
    },
    {
        "Postcode": "86400",
        "Location": "Parit Amat",
        "Post_Office": "Parit Raja",
        "State": "Johor"
    },
    {
        "Postcode": "86400",
        "Location": "Parit Betong",
        "Post_Office": "Parit Raja",
        "State": "Johor"
    },
    {
        "Postcode": "86400",
        "Location": "Parit Gantong",
        "Post_Office": "Parit Raja",
        "State": "Johor"
    },
    {
        "Postcode": "86400",
        "Location": "Parit Haji Idris",
        "Post_Office": "Parit Raja",
        "State": "Johor"
    },
    {
        "Postcode": "86400",
        "Location": "Parit Jawa",
        "Post_Office": "Parit Raja",
        "State": "Johor"
    },
    {
        "Postcode": "86400",
        "Location": "Parit Raja Laut",
        "Post_Office": "Parit Raja",
        "State": "Johor"
    },
    {
        "Postcode": "86400",
        "Location": "Taman Bunga Raya",
        "Post_Office": "Parit Raja",
        "State": "Johor"
    },
    {
        "Postcode": "86400",
        "Location": "Taman Indah",
        "Post_Office": "Parit Raja",
        "State": "Johor"
    },
    {
        "Postcode": "86400",
        "Location": "Taman Intan",
        "Post_Office": "Parit Raja",
        "State": "Johor"
    },
    {
        "Postcode": "86400",
        "Location": "Taman Jaya",
        "Post_Office": "Parit Raja",
        "State": "Johor"
    },
    {
        "Postcode": "86400",
        "Location": "Taman Ria",
        "Post_Office": "Parit Raja",
        "State": "Johor"
    },
    {
        "Postcode": "86400",
        "Location": "Taman Bintang",
        "Post_Office": "Parit Raja",
        "State": "Johor"
    },
    {
        "Postcode": "86400",
        "Location": "Taman Maju",
        "Post_Office": "Parit Raja",
        "State": "Johor"
    },
    {
        "Postcode": "86400",
        "Location": "Taman Waja",
        "Post_Office": "Parit Raja",
        "State": "Johor"
    },
    {
        "Postcode": "86400",
        "Location": "Taman Wira",
        "Post_Office": "Parit Raja",
        "State": "Johor"
    }
]
