[
    {
        "Postcode": "86500",
        "Location": "Taman Berjaya",
        "Post_Office": "Bekok",
        "State": "Johor"
    },
    {
        "Postcode": "86500",
        "Location": "Taman Rakyat",
        "Post_Office": "Bekok",
        "State": "Johor"
    },
    {
        "Postcode": "86500",
        "Location": "Kampung Orang Asli Lenek",
        "Post_Office": "Bekok",
        "State": "Johor"
    },
    {
        "Postcode": "86500",
        "Location": "Kampung Panca Jaya",
        "Post_Office": "Bekok",
        "State": "Johor"
    },
    {
        "Postcode": "86500",
        "Location": "Kampung Sungai Kudung",
        "Post_Office": "Bekok",
        "State": "Johor"
    },
    {
        "Postcode": "86500",
        "Location": "Taman Skim Fasa 2",
        "Post_Office": "Bekok",
        "State": "Johor"
    },
    {
        "Postcode": "86500",
        "Location": "Bekok",
        "Post_Office": "Bekok",
        "State": "Johor"
    },
    {
        "Postcode": "86500",
        "Location": "Kampung Kemidak",
        "Post_Office": "Bekok",
        "State": "Johor"
    },
    {
        "Postcode": "86500",
        "Location": "Kampung Kudung",
        "Post_Office": "Bekok",
        "State": "Johor"
    },
    {
        "Postcode": "86500",
        "Location": "Kampung Lenik",
        "Post_Office": "Bekok",
        "State": "Johor"
    },
    {
        "Postcode": "86500",
        "Location": "Kampung Pancha Jaya",
        "Post_Office": "Bekok",
        "State": "Johor"
    },
    {
        "Postcode": "86500",
        "Location": "Kampung Selai",
        "Post_Office": "Bekok",
        "State": "Johor"
    },
    {
        "Postcode": "86500",
        "Location": "Kampung Sri Tembayan",
        "Post_Office": "Bekok",
        "State": "Johor"
    },
    {
        "Postcode": "86500",
        "Location": "Kampung Tamok",
        "Post_Office": "Bekok",
        "State": "Johor"
    },
    {
        "Postcode": "86500",
        "Location": "Taman Negara",
        "Post_Office": "Bekok",
        "State": "Johor"
    },
    {
        "Postcode": "86500",
        "Location": "Taman Seng Lee",
        "Post_Office": "Bekok",
        "State": "Johor"
    },
    {
        "Postcode": "86500",
        "Location": "Taman Seri Bekok I",
        "Post_Office": "Bekok",
        "State": "Johor"
    },
    {
        "Postcode": "86500",
        "Location": "Taman Seri Bekok Ii",
        "Post_Office": "Bekok",
        "State": "Johor"
    },
    {
        "Postcode": "86500",
        "Location": "Taman Skim",
        "Post_Office": "Bekok",
        "State": "Johor"
    },
    {
        "Postcode": "86500",
        "Location": "Taman Skim Ii",
        "Post_Office": "Bekok",
        "State": "Johor"
    },
    {
        "Postcode": "86500",
        "Location": "Taman Skina",
        "Post_Office": "Bekok",
        "State": "Johor"
    },
    {
        "Postcode": "86500",
        "Location": "Kampung Melayu Baru",
        "Post_Office": "Bekok",
        "State": "Johor"
    },
    {
        "Postcode": "86500",
        "Location": "Taman Sri Mahkota",
        "Post_Office": "Bekok",
        "State": "Johor"
    },
    {
        "Postcode": "86500",
        "Location": "Kampung Baru",
        "Post_Office": "Bekok",
        "State": "Johor"
    },
    {
        "Postcode": "86500",
        "Location": "Kampung Melayu",
        "Post_Office": "Bekok",
        "State": "Johor"
    },
    {
        "Postcode": "86500",
        "Location": "Taman Satria",
        "Post_Office": "Bekok",
        "State": "Johor"
    },
    {
        "Postcode": "86500",
        "Location": "Taman Mutiara ",
        "Post_Office": "Bekok",
        "State": "Johor"
    }
]
