[
    {
        "Postcode": "86600",
        "Location": "Taman Sri Indah",
        "Post_Office": "Paloh",
        "State": "Johor"
    },
    {
        "Postcode": "86600",
        "Location": "Taman Sri Jaya",
        "Post_Office": "Paloh",
        "State": "Johor"
    },
    {
        "Postcode": "86600",
        "Location": "Taman Kota",
        "Post_Office": "Paloh",
        "State": "Johor"
    },
    {
        "Postcode": "86600",
        "Location": "Taman Wijaya",
        "Post_Office": "Paloh",
        "State": "Johor"
    },
    {
        "Postcode": "86600",
        "Location": "Kampung Merdeka",
        "Post_Office": "Paloh",
        "State": "Johor"
    },
    {
        "Postcode": "86600",
        "Location": "Taman Kirana",
        "Post_Office": "Paloh",
        "State": "Johor"
    },
    {
        "Postcode": "86600",
        "Location": "Kampung Central Paloh",
        "Post_Office": "Paloh",
        "State": "Johor"
    },
    {
        "Postcode": "86600",
        "Location": "Kampung Chamek",
        "Post_Office": "Paloh",
        "State": "Johor"
    },
    {
        "Postcode": "86600",
        "Location": "Kampung Gsa",
        "Post_Office": "Paloh",
        "State": "Johor"
    },
    {
        "Postcode": "86600",
        "Location": "Kampung India G.S.A.",
        "Post_Office": "Paloh",
        "State": "Johor"
    },
    {
        "Postcode": "86600",
        "Location": "Ladang Beradin",
        "Post_Office": "Paloh",
        "State": "Johor"
    },
    {
        "Postcode": "86600",
        "Location": "Ladang Kekayan",
        "Post_Office": "Paloh",
        "State": "Johor"
    },
    {
        "Postcode": "86600",
        "Location": "Ladang Kilang Sawit Kekayaan",
        "Post_Office": "Paloh",
        "State": "Johor"
    },
    {
        "Postcode": "86600",
        "Location": "Ladang Sepuloh",
        "Post_Office": "Paloh",
        "State": "Johor"
    },
    {
        "Postcode": "86600",
        "Location": "Taman Kiara",
        "Post_Office": "Paloh",
        "State": "Johor"
    },
    {
        "Postcode": "86600",
        "Location": "Taman Seri Palma",
        "Post_Office": "Paloh",
        "State": "Johor"
    },
    {
        "Postcode": "86600",
        "Location": "Batang Redan",
        "Post_Office": "Paloh",
        "State": "Johor"
    },
    {
        "Postcode": "86600",
        "Location": "Chamek",
        "Post_Office": "Paloh",
        "State": "Johor"
    },
    {
        "Postcode": "86600",
        "Location": "Felcra Batu 3 1/2 Paloh",
        "Post_Office": "Paloh",
        "State": "Johor"
    },
    {
        "Postcode": "86600",
        "Location": "Felcra Batu Empat",
        "Post_Office": "Paloh",
        "State": "Johor"
    },
    {
        "Postcode": "86600",
        "Location": "Felcra Sungai Sepuloh",
        "Post_Office": "Paloh",
        "State": "Johor"
    },
    {
        "Postcode": "86600",
        "Location": "Kampung Jaya",
        "Post_Office": "Paloh",
        "State": "Johor"
    },
    {
        "Postcode": "86600",
        "Location": "Kampung Maju",
        "Post_Office": "Paloh",
        "State": "Johor"
    },
    {
        "Postcode": "86600",
        "Location": "Kampung Melayu (Batu 4)",
        "Post_Office": "Paloh",
        "State": "Johor"
    },
    {
        "Postcode": "86600",
        "Location": "Kampung Melayu Chamek",
        "Post_Office": "Paloh",
        "State": "Johor"
    },
    {
        "Postcode": "86600",
        "Location": "Kampung Melayu G.S.A",
        "Post_Office": "Paloh",
        "State": "Johor"
    },
    {
        "Postcode": "86600",
        "Location": "Kampung Muhibbah Lama",
        "Post_Office": "Paloh",
        "State": "Johor"
    },
    {
        "Postcode": "86600",
        "Location": "Kampung Sentral Paloh",
        "Post_Office": "Paloh",
        "State": "Johor"
    },
    {
        "Postcode": "86600",
        "Location": "Kampung Temayon",
        "Post_Office": "Paloh",
        "State": "Johor"
    },
    {
        "Postcode": "86600",
        "Location": "Ladang Beredin",
        "Post_Office": "Paloh",
        "State": "Johor"
    },
    {
        "Postcode": "86600",
        "Location": "Ladang Bukit Paloh",
        "Post_Office": "Paloh",
        "State": "Johor"
    },
    {
        "Postcode": "86600",
        "Location": "Ladang Camek",
        "Post_Office": "Paloh",
        "State": "Johor"
    },
    {
        "Postcode": "86600",
        "Location": "Ladang Central",
        "Post_Office": "Paloh",
        "State": "Johor"
    },
    {
        "Postcode": "86600",
        "Location": "Ladang Gunung Emas",
        "Post_Office": "Paloh",
        "State": "Johor"
    },
    {
        "Postcode": "86600",
        "Location": "Ladang Kekayaan",
        "Post_Office": "Paloh",
        "State": "Johor"
    },
    {
        "Postcode": "86600",
        "Location": "Ladang Kempas",
        "Post_Office": "Paloh",
        "State": "Johor"
    },
    {
        "Postcode": "86600",
        "Location": "Ladang Landak",
        "Post_Office": "Paloh",
        "State": "Johor"
    },
    {
        "Postcode": "86600",
        "Location": "Ladang Mardos",
        "Post_Office": "Paloh",
        "State": "Johor"
    },
    {
        "Postcode": "86600",
        "Location": "Ladang New Paloh",
        "Post_Office": "Paloh",
        "State": "Johor"
    },
    {
        "Postcode": "86600",
        "Location": "Ladang Paloh",
        "Post_Office": "Paloh",
        "State": "Johor"
    },
    {
        "Postcode": "86600",
        "Location": "Ladang Sepaloh",
        "Post_Office": "Paloh",
        "State": "Johor"
    },
    {
        "Postcode": "86600",
        "Location": "Ladang Sungai Tamok",
        "Post_Office": "Paloh",
        "State": "Johor"
    },
    {
        "Postcode": "86600",
        "Location": "Ladang Timur",
        "Post_Office": "Paloh",
        "State": "Johor"
    },
    {
        "Postcode": "86600",
        "Location": "Ladang Tong Kiat",
        "Post_Office": "Paloh",
        "State": "Johor"
    },
    {
        "Postcode": "86600",
        "Location": "Paloh",
        "Post_Office": "Paloh",
        "State": "Johor"
    },
    {
        "Postcode": "86600",
        "Location": "Sentral Paloh",
        "Post_Office": "Paloh",
        "State": "Johor"
    },
    {
        "Postcode": "86600",
        "Location": "Taman Paloh",
        "Post_Office": "Paloh",
        "State": "Johor"
    },
    {
        "Postcode": "86600",
        "Location": "Taman Seri Paloh",
        "Post_Office": "Paloh",
        "State": "Johor"
    },
    {
        "Postcode": "86600",
        "Location": "Taman Setia",
        "Post_Office": "Paloh",
        "State": "Johor"
    },
    {
        "Postcode": "86600",
        "Location": "Kampung Aman",
        "Post_Office": "Paloh",
        "State": "Johor"
    },
    {
        "Postcode": "86600",
        "Location": "Kampung India",
        "Post_Office": "Paloh",
        "State": "Johor"
    },
    {
        "Postcode": "86600",
        "Location": "Kampung Baharu",
        "Post_Office": "Paloh",
        "State": "Johor"
    },
    {
        "Postcode": "86600",
        "Location": "Kampung Baru",
        "Post_Office": "Paloh",
        "State": "Johor"
    },
    {
        "Postcode": "86600",
        "Location": "Kampung Melayu",
        "Post_Office": "Paloh",
        "State": "Johor"
    },
    {
        "Postcode": "86600",
        "Location": "Kampung Muhibbah",
        "Post_Office": "Paloh",
        "State": "Johor"
    },
    {
        "Postcode": "86600",
        "Location": "Taman Indah",
        "Post_Office": "Paloh",
        "State": "Johor"
    },
    {
        "Postcode": "86600",
        "Location": "Taman Melati",
        "Post_Office": "Paloh",
        "State": "Johor"
    },
    {
        "Postcode": "86600",
        "Location": "Taman Murni",
        "Post_Office": "Paloh",
        "State": "Johor"
    }
]
