[
    {
        "Postcode": "86700",
        "Location": "Taman Emas",
        "Post_Office": "Kahang",
        "State": "Johor"
    },
    {
        "Postcode": "86700",
        "Location": "Felcra Batu 29",
        "Post_Office": "Kahang",
        "State": "Johor"
    },
    {
        "Postcode": "86700",
        "Location": "Kampung Baru Kahang",
        "Post_Office": "Kahang",
        "State": "Johor"
    },
    {
        "Postcode": "86700",
        "Location": "Kampung Beroh",
        "Post_Office": "Kahang",
        "State": "Johor"
    },
    {
        "Postcode": "86700",
        "Location": "Kampung Cina  Batu 24",
        "Post_Office": "Kahang",
        "State": "Johor"
    },
    {
        "Postcode": "86700",
        "Location": "Kampung Contoh Batu 2",
        "Post_Office": "Kahang",
        "State": "Johor"
    },
    {
        "Postcode": "86700",
        "Location": "Kampung India  Batu 24",
        "Post_Office": "Kahang",
        "State": "Johor"
    },
    {
        "Postcode": "86700",
        "Location": "Kampung Sri Tanjong",
        "Post_Office": "Kahang",
        "State": "Johor"
    },
    {
        "Postcode": "86700",
        "Location": "Ladang Pamol",
        "Post_Office": "Kahang",
        "State": "Johor"
    },
    {
        "Postcode": "86700",
        "Location": "Pekan Kahang Baru",
        "Post_Office": "Kahang",
        "State": "Johor"
    },
    {
        "Postcode": "86700",
        "Location": "Espek Sungai Chales",
        "Post_Office": "Kahang",
        "State": "Johor"
    },
    {
        "Postcode": "86700",
        "Location": "Felcra Batu 16",
        "Post_Office": "Kahang",
        "State": "Johor"
    },
    {
        "Postcode": "86700",
        "Location": "Felcra Batu 29 Kahang",
        "Post_Office": "Kahang",
        "State": "Johor"
    },
    {
        "Postcode": "86700",
        "Location": "Kahang",
        "Post_Office": "Kahang",
        "State": "Johor"
    },
    {
        "Postcode": "86700",
        "Location": "Kahang Batu 28",
        "Post_Office": "Kahang",
        "State": "Johor"
    },
    {
        "Postcode": "86700",
        "Location": "Kampung Air Pasir",
        "Post_Office": "Kahang",
        "State": "Johor"
    },
    {
        "Postcode": "86700",
        "Location": "Kampung Batu 17",
        "Post_Office": "Kahang",
        "State": "Johor"
    },
    {
        "Postcode": "86700",
        "Location": "Kampung Batu 24",
        "Post_Office": "Kahang",
        "State": "Johor"
    },
    {
        "Postcode": "86700",
        "Location": "Kampung Darasau",
        "Post_Office": "Kahang",
        "State": "Johor"
    },
    {
        "Postcode": "86700",
        "Location": "Kampung Kahang",
        "Post_Office": "Kahang",
        "State": "Johor"
    },
    {
        "Postcode": "86700",
        "Location": "Kampung Kahang Selatan",
        "Post_Office": "Kahang",
        "State": "Johor"
    },
    {
        "Postcode": "86700",
        "Location": "Kampung Pocoh",
        "Post_Office": "Kahang",
        "State": "Johor"
    },
    {
        "Postcode": "86700",
        "Location": "Kampung Punjut",
        "Post_Office": "Kahang",
        "State": "Johor"
    },
    {
        "Postcode": "86700",
        "Location": "Kampung Selatan",
        "Post_Office": "Kahang",
        "State": "Johor"
    },
    {
        "Postcode": "86700",
        "Location": "Kampung Sendohok",
        "Post_Office": "Kahang",
        "State": "Johor"
    },
    {
        "Postcode": "86700",
        "Location": "Kampung Sri Kenangan",
        "Post_Office": "Kahang",
        "State": "Johor"
    },
    {
        "Postcode": "86700",
        "Location": "Kampung Sri Lukut",
        "Post_Office": "Kahang",
        "State": "Johor"
    },
    {
        "Postcode": "86700",
        "Location": "Ladang Bukit Cantik",
        "Post_Office": "Kahang",
        "State": "Johor"
    },
    {
        "Postcode": "86700",
        "Location": "Ladang Kelompok",
        "Post_Office": "Kahang",
        "State": "Johor"
    },
    {
        "Postcode": "86700",
        "Location": "Ladang Seong Thye",
        "Post_Office": "Kahang",
        "State": "Johor"
    },
    {
        "Postcode": "86700",
        "Location": "Ladang Sungai Kahang",
        "Post_Office": "Kahang",
        "State": "Johor"
    },
    {
        "Postcode": "86700",
        "Location": "Ladang Sungai Sembrong",
        "Post_Office": "Kahang",
        "State": "Johor"
    },
    {
        "Postcode": "86700",
        "Location": "Rancangan Pinggir Kahang",
        "Post_Office": "Kahang",
        "State": "Johor"
    },
    {
        "Postcode": "86700",
        "Location": "Taman Kahang Baru",
        "Post_Office": "Kahang",
        "State": "Johor"
    },
    {
        "Postcode": "86700",
        "Location": "Taman Sri Kahang",
        "Post_Office": "Kahang",
        "State": "Johor"
    },
    {
        "Postcode": "86700",
        "Location": "Kampung Batu 26",
        "Post_Office": "Kahang",
        "State": "Johor"
    },
    {
        "Postcode": "86700",
        "Location": "Kampung Batu 28",
        "Post_Office": "Kahang",
        "State": "Johor"
    },
    {
        "Postcode": "86700",
        "Location": "Kampung Contoh",
        "Post_Office": "Kahang",
        "State": "Johor"
    },
    {
        "Postcode": "86700",
        "Location": "Kampung Melayu",
        "Post_Office": "Kahang",
        "State": "Johor"
    },
    {
        "Postcode": "86700",
        "Location": "Kampung Orang Asli",
        "Post_Office": "Kahang",
        "State": "Johor"
    },
    {
        "Postcode": "86700",
        "Location": "Kampung Sri Tanjung",
        "Post_Office": "Kahang",
        "State": "Johor"
    },
    {
        "Postcode": "86700",
        "Location": "Taman Perdana",
        "Post_Office": "Kahang",
        "State": "Johor"
    },
    {
        "Postcode": "86700",
        "Location": "Taman Ria",
        "Post_Office": "Kahang",
        "State": "Johor"
    },
    {
        "Postcode": "86700",
        "Location": "Taman Wawasan",
        "Post_Office": "Kahang",
        "State": "Johor"
    }
]
