[
    {
        "Postcode": "86800",
        "Location": "Jalan Abdullah",
        "Post_Office": "Mersing",
        "State": "Johor"
    },
    {
        "Postcode": "86800",
        "Location": "Jalan Besar",
        "Post_Office": "Mersing",
        "State": "Johor"
    },
    {
        "Postcode": "86800",
        "Location": "Jalan Ibrahim",
        "Post_Office": "Mersing",
        "State": "Johor"
    },
    {
        "Postcode": "86800",
        "Location": "Jalan Ismail",
        "Post_Office": "Mersing",
        "State": "Johor"
    },
    {
        "Postcode": "86800",
        "Location": "Jalan Masjid",
        "Post_Office": "Mersing",
        "State": "Johor"
    },
    {
        "Postcode": "86800",
        "Location": "Taman Emas",
        "Post_Office": "Mersing",
        "State": "Johor"
    },
    {
        "Postcode": "86800",
        "Location": "Jalan Abu Bakar",
        "Post_Office": "Mersing",
        "State": "Johor"
    },
    {
        "Postcode": "86800",
        "Location": "Jalan Merpati",
        "Post_Office": "Mersing",
        "State": "Johor"
    },
    {
        "Postcode": "86800",
        "Location": "Jalan Sulaiman",
        "Post_Office": "Mersing",
        "State": "Johor"
    },
    {
        "Postcode": "86800",
        "Location": "Taman Guru",
        "Post_Office": "Mersing",
        "State": "Johor"
    },
    {
        "Postcode": "86800",
        "Location": "Taman Mahkota",
        "Post_Office": "Mersing",
        "State": "Johor"
    },
    {
        "Postcode": "86800",
        "Location": "Taman Sri Bayu",
        "Post_Office": "Mersing",
        "State": "Johor"
    },
    {
        "Postcode": "86800",
        "Location": "Jalan Ahmad",
        "Post_Office": "Mersing",
        "State": "Johor"
    },
    {
        "Postcode": "86800",
        "Location": "Jalan Dato Onn",
        "Post_Office": "Mersing",
        "State": "Johor"
    },
    {
        "Postcode": "86800",
        "Location": "Felcra Sri Mersing",
        "Post_Office": "Mersing",
        "State": "Johor"
    },
    {
        "Postcode": "86800",
        "Location": "Felda Tenggaroh 4",
        "Post_Office": "Mersing",
        "State": "Johor"
    },
    {
        "Postcode": "86800",
        "Location": "Jalan Salleh",
        "Post_Office": "Mersing",
        "State": "Johor"
    },
    {
        "Postcode": "86800",
        "Location": "Kampung Makam",
        "Post_Office": "Mersing",
        "State": "Johor"
    },
    {
        "Postcode": "86800",
        "Location": "Jalan Abdul Manaf",
        "Post_Office": "Mersing",
        "State": "Johor"
    },
    {
        "Postcode": "86800",
        "Location": "Jalan Haji Mahmud",
        "Post_Office": "Mersing",
        "State": "Johor"
    },
    {
        "Postcode": "86800",
        "Location": "Jalan Haji Said",
        "Post_Office": "Mersing",
        "State": "Johor"
    },
    {
        "Postcode": "86800",
        "Location": "Jalan Soteri",
        "Post_Office": "Mersing",
        "State": "Johor"
    },
    {
        "Postcode": "86800",
        "Location": "Jalan Awang Daik",
        "Post_Office": "Mersing",
        "State": "Johor"
    },
    {
        "Postcode": "86800",
        "Location": "Jalan Azizah",
        "Post_Office": "Mersing",
        "State": "Johor"
    },
    {
        "Postcode": "86800",
        "Location": "Jalan Dato Luar",
        "Post_Office": "Mersing",
        "State": "Johor"
    },
    {
        "Postcode": "86800",
        "Location": "Jalan Dato Mohd Ali",
        "Post_Office": "Mersing",
        "State": "Johor"
    },
    {
        "Postcode": "86800",
        "Location": "Jalan Dato Timur",
        "Post_Office": "Mersing",
        "State": "Johor"
    },
    {
        "Postcode": "86800",
        "Location": "Jalan Endau Hingga Km11",
        "Post_Office": "Mersing",
        "State": "Johor"
    },
    {
        "Postcode": "86800",
        "Location": "Jalan Estet",
        "Post_Office": "Mersing",
        "State": "Johor"
    },
    {
        "Postcode": "86800",
        "Location": "Jalan Haji Musa",
        "Post_Office": "Mersing",
        "State": "Johor"
    },
    {
        "Postcode": "86800",
        "Location": "Jalan Husien",
        "Post_Office": "Mersing",
        "State": "Johor"
    },
    {
        "Postcode": "86800",
        "Location": "Jalan Jemaluang",
        "Post_Office": "Mersing",
        "State": "Johor"
    },
    {
        "Postcode": "86800",
        "Location": "Jalan Jetty",
        "Post_Office": "Mersing",
        "State": "Johor"
    },
    {
        "Postcode": "86800",
        "Location": "Jalan Kota Tinggi (Jpj)",
        "Post_Office": "Mersing",
        "State": "Johor"
    },
    {
        "Postcode": "86800",
        "Location": "Jalan Melayu Bahru",
        "Post_Office": "Mersing",
        "State": "Johor"
    },
    {
        "Postcode": "86800",
        "Location": "Jalan Mersing Batu 11 - 12",
        "Post_Office": "Mersing",
        "State": "Johor"
    },
    {
        "Postcode": "86800",
        "Location": "Jalan Pancor",
        "Post_Office": "Mersing",
        "State": "Johor"
    },
    {
        "Postcode": "86800",
        "Location": "Jalan Sheikh Awat",
        "Post_Office": "Mersing",
        "State": "Johor"
    },
    {
        "Postcode": "86800",
        "Location": "Jalan Ungku Salleh",
        "Post_Office": "Mersing",
        "State": "Johor"
    },
    {
        "Postcode": "86800",
        "Location": "Jemaluang",
        "Post_Office": "Mersing",
        "State": "Johor"
    },
    {
        "Postcode": "86800",
        "Location": "Kampung Air Putri",
        "Post_Office": "Mersing",
        "State": "Johor"
    },
    {
        "Postcode": "86800",
        "Location": "Kampung Ayer Merah",
        "Post_Office": "Mersing",
        "State": "Johor"
    },
    {
        "Postcode": "86800",
        "Location": "Kampung Ayer Papan",
        "Post_Office": "Mersing",
        "State": "Johor"
    },
    {
        "Postcode": "86800",
        "Location": "Kampung Benaong Tenglu Laut",
        "Post_Office": "Mersing",
        "State": "Johor"
    },
    {
        "Postcode": "86800",
        "Location": "Kampung Bukit Jaya",
        "Post_Office": "Mersing",
        "State": "Johor"
    },
    {
        "Postcode": "86800",
        "Location": "Kampung Che Wook",
        "Post_Office": "Mersing",
        "State": "Johor"
    },
    {
        "Postcode": "86800",
        "Location": "Kampung Gajah Mati",
        "Post_Office": "Mersing",
        "State": "Johor"
    },
    {
        "Postcode": "86800",
        "Location": "Kampung Juara",
        "Post_Office": "Mersing",
        "State": "Johor"
    },
    {
        "Postcode": "86800",
        "Location": "Kampung Lubok",
        "Post_Office": "Mersing",
        "State": "Johor"
    },
    {
        "Postcode": "86800",
        "Location": "Kampung Mukut",
        "Post_Office": "Mersing",
        "State": "Johor"
    },
    {
        "Postcode": "86800",
        "Location": "Kampung Paya Tunggal",
        "Post_Office": "Mersing",
        "State": "Johor"
    },
    {
        "Postcode": "86800",
        "Location": "Kampung Pengkalan Batu",
        "Post_Office": "Mersing",
        "State": "Johor"
    },
    {
        "Postcode": "86800",
        "Location": "Kampung Sawah Datok",
        "Post_Office": "Mersing",
        "State": "Johor"
    },
    {
        "Postcode": "86800",
        "Location": "Kampung Seri Lalang",
        "Post_Office": "Mersing",
        "State": "Johor"
    },
    {
        "Postcode": "86800",
        "Location": "Kampung Seri Pantai",
        "Post_Office": "Mersing",
        "State": "Johor"
    },
    {
        "Postcode": "86800",
        "Location": "Kampung Sri Lumpur",
        "Post_Office": "Mersing",
        "State": "Johor"
    },
    {
        "Postcode": "86800",
        "Location": "Kampung Sungai Muka Dua",
        "Post_Office": "Mersing",
        "State": "Johor"
    },
    {
        "Postcode": "86800",
        "Location": "Kampung Sungai Siapu",
        "Post_Office": "Mersing",
        "State": "Johor"
    },
    {
        "Postcode": "86800",
        "Location": "Kampung Tanjung Genting",
        "Post_Office": "Mersing",
        "State": "Johor"
    },
    {
        "Postcode": "86800",
        "Location": "Kampung Tekek",
        "Post_Office": "Mersing",
        "State": "Johor"
    },
    {
        "Postcode": "86800",
        "Location": "Kampung Telok Buih",
        "Post_Office": "Mersing",
        "State": "Johor"
    },
    {
        "Postcode": "86800",
        "Location": "Kampung Telok Iskandar",
        "Post_Office": "Mersing",
        "State": "Johor"
    },
    {
        "Postcode": "86800",
        "Location": "Kampung Tenglu",
        "Post_Office": "Mersing",
        "State": "Johor"
    },
    {
        "Postcode": "86800",
        "Location": "Kawasan Perindustrian Mersing",
        "Post_Office": "Mersing",
        "State": "Johor"
    },
    {
        "Postcode": "86800",
        "Location": "Kem Tentera Iskandar",
        "Post_Office": "Mersing",
        "State": "Johor"
    },
    {
        "Postcode": "86800",
        "Location": "Mersing",
        "Post_Office": "Mersing",
        "State": "Johor"
    },
    {
        "Postcode": "86800",
        "Location": "Mersing Kanan",
        "Post_Office": "Mersing",
        "State": "Johor"
    },
    {
        "Postcode": "86800",
        "Location": "Mersing Kechil",
        "Post_Office": "Mersing",
        "State": "Johor"
    },
    {
        "Postcode": "86800",
        "Location": "Pulau Tioman",
        "Post_Office": "Mersing",
        "State": "Johor"
    },
    {
        "Postcode": "86800",
        "Location": "Risda Sungai Ambat",
        "Post_Office": "Mersing",
        "State": "Johor"
    },
    {
        "Postcode": "86800",
        "Location": "Sungai Derhaka",
        "Post_Office": "Mersing",
        "State": "Johor"
    },
    {
        "Postcode": "86800",
        "Location": "Taman Air Merah",
        "Post_Office": "Mersing",
        "State": "Johor"
    },
    {
        "Postcode": "86800",
        "Location": "Taman Jemaluang",
        "Post_Office": "Mersing",
        "State": "Johor"
    },
    {
        "Postcode": "86800",
        "Location": "Taman Lautan Biru",
        "Post_Office": "Mersing",
        "State": "Johor"
    },
    {
        "Postcode": "86800",
        "Location": "Taman Mersing",
        "Post_Office": "Mersing",
        "State": "Johor"
    },
    {
        "Postcode": "86800",
        "Location": "Taman Mersing Jaya",
        "Post_Office": "Mersing",
        "State": "Johor"
    },
    {
        "Postcode": "86800",
        "Location": "Taman Nelayan",
        "Post_Office": "Mersing",
        "State": "Johor"
    },
    {
        "Postcode": "86800",
        "Location": "Taman Pantai Timur",
        "Post_Office": "Mersing",
        "State": "Johor"
    },
    {
        "Postcode": "86800",
        "Location": "Taman Seri Mersing",
        "Post_Office": "Mersing",
        "State": "Johor"
    },
    {
        "Postcode": "86800",
        "Location": "Taman Seri Pantai",
        "Post_Office": "Mersing",
        "State": "Johor"
    },
    {
        "Postcode": "86800",
        "Location": "Taman Sri Daik",
        "Post_Office": "Mersing",
        "State": "Johor"
    },
    {
        "Postcode": "86800",
        "Location": "Taman Tun Dr Ismail",
        "Post_Office": "Mersing",
        "State": "Johor"
    },
    {
        "Postcode": "86800",
        "Location": "Tanah Pinggir",
        "Post_Office": "Mersing",
        "State": "Johor"
    },
    {
        "Postcode": "86800",
        "Location": "Tanjong Leman",
        "Post_Office": "Mersing",
        "State": "Johor"
    },
    {
        "Postcode": "86800",
        "Location": "Jalan Lama",
        "Post_Office": "Mersing",
        "State": "Johor"
    },
    {
        "Postcode": "86800",
        "Location": "Jalan Mahkota",
        "Post_Office": "Mersing",
        "State": "Johor"
    },
    {
        "Postcode": "86800",
        "Location": "Jalan Merdeka",
        "Post_Office": "Mersing",
        "State": "Johor"
    },
    {
        "Postcode": "86800",
        "Location": "Felda Tenggaroh Timur 3",
        "Post_Office": "Mersing",
        "State": "Johor"
    },
    {
        "Postcode": "86800",
        "Location": "Kampung Air Papan Laut",
        "Post_Office": "Mersing",
        "State": "Johor"
    },
    {
        "Postcode": "86800",
        "Location": "Kampung Air Papan Tengah",
        "Post_Office": "Mersing",
        "State": "Johor"
    },
    {
        "Postcode": "86800",
        "Location": "Kampung Lubuk",
        "Post_Office": "Mersing",
        "State": "Johor"
    },
    {
        "Postcode": "86800",
        "Location": "Kampung Siapu",
        "Post_Office": "Mersing",
        "State": "Johor"
    },
    {
        "Postcode": "86800",
        "Location": "Kampung Sri   Pantai",
        "Post_Office": "Mersing",
        "State": "Johor"
    },
    {
        "Postcode": "86800",
        "Location": "Kampung Tanjung Tuan",
        "Post_Office": "Mersing",
        "State": "Johor"
    },
    {
        "Postcode": "86800",
        "Location": "Kampung Teluk Iskandar",
        "Post_Office": "Mersing",
        "State": "Johor"
    },
    {
        "Postcode": "86800",
        "Location": "Kampung Tenglu Batu 5",
        "Post_Office": "Mersing",
        "State": "Johor"
    },
    {
        "Postcode": "86800",
        "Location": "Perumahan Baitulrahmah",
        "Post_Office": "Mersing",
        "State": "Johor"
    },
    {
        "Postcode": "86800",
        "Location": "Taman Intan Jaya",
        "Post_Office": "Mersing",
        "State": "Johor"
    },
    {
        "Postcode": "86800",
        "Location": "Taman Pantai Timor 2",
        "Post_Office": "Mersing",
        "State": "Johor"
    },
    {
        "Postcode": "86800",
        "Location": "Taman Seri Nakhoda",
        "Post_Office": "Mersing",
        "State": "Johor"
    },
    {
        "Postcode": "86800",
        "Location": "Felcra Bukit Pedoman",
        "Post_Office": "Mersing",
        "State": "Johor"
    },
    {
        "Postcode": "86800",
        "Location": "Felcra Sri Melikai",
        "Post_Office": "Mersing",
        "State": "Johor"
    },
    {
        "Postcode": "86800",
        "Location": "Felcra Wak Salam",
        "Post_Office": "Mersing",
        "State": "Johor"
    },
    {
        "Postcode": "86800",
        "Location": "Felda Nitar 1",
        "Post_Office": "Mersing",
        "State": "Johor"
    },
    {
        "Postcode": "86800",
        "Location": "Felda Nitar 2",
        "Post_Office": "Mersing",
        "State": "Johor"
    },
    {
        "Postcode": "86800",
        "Location": "Felda Nitar Timur",
        "Post_Office": "Mersing",
        "State": "Johor"
    },
    {
        "Postcode": "86800",
        "Location": "Felda Tenggaroh",
        "Post_Office": "Mersing",
        "State": "Johor"
    },
    {
        "Postcode": "86800",
        "Location": "Felda Tenggaroh 7",
        "Post_Office": "Mersing",
        "State": "Johor"
    },
    {
        "Postcode": "86800",
        "Location": "Jalan Aminah",
        "Post_Office": "Mersing",
        "State": "Johor"
    },
    {
        "Postcode": "86800",
        "Location": "Jalan Padang",
        "Post_Office": "Mersing",
        "State": "Johor"
    },
    {
        "Postcode": "86800",
        "Location": "Jalan Sultanah",
        "Post_Office": "Mersing",
        "State": "Johor"
    },
    {
        "Postcode": "86800",
        "Location": "Jalan Tengah",
        "Post_Office": "Mersing",
        "State": "Johor"
    },
    {
        "Postcode": "86800",
        "Location": "Jalan Bukit",
        "Post_Office": "Mersing",
        "State": "Johor"
    },
    {
        "Postcode": "86800",
        "Location": "Jalan Pasar",
        "Post_Office": "Mersing",
        "State": "Johor"
    },
    {
        "Postcode": "86800",
        "Location": "Jalan Temenggong",
        "Post_Office": "Mersing",
        "State": "Johor"
    },
    {
        "Postcode": "86800",
        "Location": "Jalan Tun Dr Ismail",
        "Post_Office": "Mersing",
        "State": "Johor"
    },
    {
        "Postcode": "86800",
        "Location": "Kampung Bahagia",
        "Post_Office": "Mersing",
        "State": "Johor"
    },
    {
        "Postcode": "86800",
        "Location": "Taman Intan",
        "Post_Office": "Mersing",
        "State": "Johor"
    },
    {
        "Postcode": "86800",
        "Location": "Taman Sutera Indah",
        "Post_Office": "Mersing",
        "State": "Johor"
    },
    {
        "Postcode": "86800",
        "Location": "Taman Pantai",
        "Post_Office": "Mersing",
        "State": "Johor"
    },
    {
        "Postcode": "86800",
        "Location": "Taman Samudera",
        "Post_Office": "Mersing",
        "State": "Johor"
    },
    {
        "Postcode": "86800",
        "Location": "Taman Wawasan",
        "Post_Office": "Mersing",
        "State": "Johor"
    }
]
