[
    {
        "Postcode": "86810",
        "Location": "Felda Tenggaroh 1",
        "Post_Office": "Mersing",
        "State": "Johor"
    },
    {
        "Postcode": "86810",
        "Location": "Felda Tenggaroh 13",
        "Post_Office": "Mersing",
        "State": "Johor"
    },
    {
        "Postcode": "86810",
        "Location": "Felda Tenggaroh 2",
        "Post_Office": "Mersing",
        "State": "Johor"
    },
    {
        "Postcode": "86810",
        "Location": "Felda Tenggaroh 3",
        "Post_Office": "Mersing",
        "State": "Johor"
    },
    {
        "Postcode": "86810",
        "Location": "Felda Tenggaroh 5",
        "Post_Office": "Mersing",
        "State": "Johor"
    },
    {
        "Postcode": "86810",
        "Location": "Felda Tenggaroh 6",
        "Post_Office": "Mersing",
        "State": "Johor"
    },
    {
        "Postcode": "86810",
        "Location": "Felda Tenggaroh Selatan 1",
        "Post_Office": "Mersing",
        "State": "Johor"
    },
    {
        "Postcode": "86810",
        "Location": "Felda Tenggaroh Selatan 2",
        "Post_Office": "Mersing",
        "State": "Johor"
    },
    {
        "Postcode": "86810",
        "Location": "Felda Tenggaroh Timor 1",
        "Post_Office": "Mersing",
        "State": "Johor"
    },
    {
        "Postcode": "86810",
        "Location": "Felda Tenggaroh Timor 2",
        "Post_Office": "Mersing",
        "State": "Johor"
    },
    {
        "Postcode": "86810",
        "Location": "Felda Tenggaroh Timor 3",
        "Post_Office": "Mersing",
        "State": "Johor"
    },
    {
        "Postcode": "86810",
        "Location": "Ladang Tenggaroh 10",
        "Post_Office": "Mersing",
        "State": "Johor"
    },
    {
        "Postcode": "86810",
        "Location": "Ladang Tenggaroh 13",
        "Post_Office": "Mersing",
        "State": "Johor"
    },
    {
        "Postcode": "86810",
        "Location": "Ladang Tenggaroh 12",
        "Post_Office": "Mersing",
        "State": "Johor"
    },
    {
        "Postcode": "86810",
        "Location": "Kampung Wak Salam ",
        "Post_Office": "Mersing",
        "State": "Johor"
    },
    {
        "Postcode": "86810",
        "Location": "Taman Bahtera",
        "Post_Office": "Mersing",
        "State": "Johor"
    }
]
