[
    {
        "Postcode": "86888",
        "Location": "Kampung Atap Zing",
        "Post_Office": "Mersing",
        "State": "Johor"
    },
    {
        "Postcode": "86888",
        "Location": "Kampung Buau",
        "Post_Office": "Mersing",
        "State": "Johor"
    },
    {
        "Postcode": "86888",
        "Location": "Kampung Darat",
        "Post_Office": "Mersing",
        "State": "Johor"
    },
    {
        "Postcode": "86888",
        "Location": "Kampung Hujung Busung",
        "Post_Office": "Mersing",
        "State": "Johor"
    },
    {
        "Postcode": "86888",
        "Location": "Kampung Kambau Besar",
        "Post_Office": "Mersing",
        "State": "Johor"
    },
    {
        "Postcode": "86888",
        "Location": "Kampung Kambau Kecil",
        "Post_Office": "Mersing",
        "State": "Johor"
    },
    {
        "Postcode": "86888",
        "Location": "Kampung Lingka",
        "Post_Office": "Mersing",
        "State": "Johor"
    },
    {
        "Postcode": "86888",
        "Location": "Kampung Pak Kaleh",
        "Post_Office": "Mersing",
        "State": "Johor"
    },
    {
        "Postcode": "86888",
        "Location": "Kampung Pasir Belakang",
        "Post_Office": "Mersing",
        "State": "Johor"
    },
    {
        "Postcode": "86888",
        "Location": "Kampung Penaga",
        "Post_Office": "Mersing",
        "State": "Johor"
    },
    {
        "Postcode": "86888",
        "Location": "Kampung Pontianak",
        "Post_Office": "Mersing",
        "State": "Johor"
    },
    {
        "Postcode": "86888",
        "Location": "Kampung Semangar",
        "Post_Office": "Mersing",
        "State": "Johor"
    },
    {
        "Postcode": "86888",
        "Location": "Kampung Sulit",
        "Post_Office": "Mersing",
        "State": "Johor"
    },
    {
        "Postcode": "86888",
        "Location": "Kampung Sungai Musuh",
        "Post_Office": "Mersing",
        "State": "Johor"
    },
    {
        "Postcode": "86888",
        "Location": "Kampung Sungai Tanjong Kempa",
        "Post_Office": "Mersing",
        "State": "Johor"
    },
    {
        "Postcode": "86888",
        "Location": "Kampung Tagal",
        "Post_Office": "Mersing",
        "State": "Johor"
    },
    {
        "Postcode": "86888",
        "Location": "Kampung Tanjung Balang",
        "Post_Office": "Mersing",
        "State": "Johor"
    },
    {
        "Postcode": "86888",
        "Location": "Kampung Teluk Bakau",
        "Post_Office": "Mersing",
        "State": "Johor"
    },
    {
        "Postcode": "86888",
        "Location": "Kampung Teluk Batu Kembar",
        "Post_Office": "Mersing",
        "State": "Johor"
    },
    {
        "Postcode": "86888",
        "Location": "Kampung Teluk Meriam",
        "Post_Office": "Mersing",
        "State": "Johor"
    },
    {
        "Postcode": "86888",
        "Location": "Kampung Teluk Sakinah",
        "Post_Office": "Mersing",
        "State": "Johor"
    },
    {
        "Postcode": "86888",
        "Location": "Kampung Teluk Sebukang",
        "Post_Office": "Mersing",
        "State": "Johor"
    },
    {
        "Postcode": "86888",
        "Location": "Kampung Teluk Terigi",
        "Post_Office": "Mersing",
        "State": "Johor"
    },
    {
        "Postcode": "86888",
        "Location": "Pulau Besar",
        "Post_Office": "Mersing",
        "State": "Johor"
    },
    {
        "Postcode": "86888",
        "Location": "Kampung Busung",
        "Post_Office": "Mersing ",
        "State": "Johor"
    },
    {
        "Postcode": "86888",
        "Location": "Kampung Pasir Panjang",
        "Post_Office": "Mersing",
        "State": "Johor"
    },
    {
        "Postcode": "86888",
        "Location": "Pulau Aur",
        "Post_Office": "Mersing",
        "State": "Johor"
    },
    {
        "Postcode": "86888",
        "Location": "Pulau Pemanggil",
        "Post_Office": "Mersing",
        "State": "Johor"
    },
    {
        "Postcode": "86888",
        "Location": "Pulau Sibu",
        "Post_Office": "Mersing",
        "State": "Johor"
    },
    {
        "Postcode": "86888",
        "Location": "Pulau Tinggi",
        "Post_Office": "Mersing",
        "State": "Johor"
    },
    {
        "Postcode": "86888",
        "Location": "Kampung Duku",
        "Post_Office": "Mersing",
        "State": "Johor"
    }
]
