[
    {
        "Postcode": "75000",
        "Location": "Bandar Hilir",
        "Post_Office": "Melaka",
        "State": "Melaka"
    },
    {
        "Postcode": "75000",
        "Location": "Bangunan Tabung Haji",
        "Post_Office": "Melaka",
        "State": "Melaka"
    },
    {
        "Postcode": "75000",
        "Location": "Century Mahkota",
        "Post_Office": "Melaka",
        "State": "Melaka"
    },
    {
        "Postcode": "75000",
        "Location": "Dataran Pahlawan",
        "Post_Office": "Melaka",
        "State": "Melaka"
    },
    {
        "Postcode": "75000",
        "Location": "Dataran Pahlawan Melaka Megamall",
        "Post_Office": "Melaka",
        "State": "Melaka"
    },
    {
        "Postcode": "75000",
        "Location": "Flat Bakti Mutiara",
        "Post_Office": "Melaka",
        "State": "Melaka"
    },
    {
        "Postcode": "75000",
        "Location": "Flat Banda Kaba",
        "Post_Office": "Melaka",
        "State": "Melaka"
    },
    {
        "Postcode": "75000",
        "Location": "Flat Bandar Hilir",
        "Post_Office": "Melaka",
        "State": "Melaka"
    },
    {
        "Postcode": "75000",
        "Location": "Flat Garden City",
        "Post_Office": "Melaka",
        "State": "Melaka"
    },
    {
        "Postcode": "75000",
        "Location": "Flat Laksamana A/B",
        "Post_Office": "Melaka",
        "State": "Melaka"
    },
    {
        "Postcode": "75000",
        "Location": "Flat Polis Bandar Hilir",
        "Post_Office": "Melaka",
        "State": "Melaka"
    },
    {
        "Postcode": "75000",
        "Location": "Flat Temenggung",
        "Post_Office": "Melaka",
        "State": "Melaka"
    },
    {
        "Postcode": "75000",
        "Location": "Harbour Club",
        "Post_Office": "Melaka",
        "State": "Melaka"
    },
    {
        "Postcode": "75000",
        "Location": "Hotel Holiday Inn Melaka",
        "Post_Office": "Melaka",
        "State": "Melaka"
    },
    {
        "Postcode": "75000",
        "Location": "Jalan Banda Kaba",
        "Post_Office": "Melaka",
        "State": "Melaka"
    },
    {
        "Postcode": "75000",
        "Location": "Jalan Bandar Hilir",
        "Post_Office": "Melaka",
        "State": "Melaka"
    },
    {
        "Postcode": "75000",
        "Location": "Jalan Bukit Senjuang",
        "Post_Office": "Melaka",
        "State": "Melaka"
    },
    {
        "Postcode": "75000",
        "Location": "Jalan Chan Koon Cheng",
        "Post_Office": "Melaka",
        "State": "Melaka"
    },
    {
        "Postcode": "75000",
        "Location": "Jalan Gereja",
        "Post_Office": "Melaka",
        "State": "Melaka"
    },
    {
        "Postcode": "75000",
        "Location": "Jalan Kota",
        "Post_Office": "Melaka",
        "State": "Melaka"
    },
    {
        "Postcode": "75000",
        "Location": "Jalan Laksamana",
        "Post_Office": "Melaka",
        "State": "Melaka"
    },
    {
        "Postcode": "75000",
        "Location": "Jalan Laksamana Cheng Ho",
        "Post_Office": "Melaka",
        "State": "Melaka"
    },
    {
        "Postcode": "75000",
        "Location": "Jalan Leong Yew Koh",
        "Post_Office": "Melaka",
        "State": "Melaka"
    },
    {
        "Postcode": "75000",
        "Location": "Jalan Melaka Raya",
        "Post_Office": "Melaka",
        "State": "Melaka"
    },
    {
        "Postcode": "75000",
        "Location": "Jalan Panjang",
        "Post_Office": "Melaka",
        "State": "Melaka"
    },
    {
        "Postcode": "75000",
        "Location": "Jalan Parameswara",
        "Post_Office": "Melaka",
        "State": "Melaka"
    },
    {
        "Postcode": "75000",
        "Location": "Jalan Plaza Mahkota",
        "Post_Office": "Melaka",
        "State": "Melaka"
    },
    {
        "Postcode": "75000",
        "Location": "Jalan Quayside",
        "Post_Office": "Melaka",
        "State": "Melaka"
    },
    {
        "Postcode": "75000",
        "Location": "Jalan Temenggong",
        "Post_Office": "Melaka",
        "State": "Melaka"
    },
    {
        "Postcode": "75000",
        "Location": "Jalan Thamby Abdullah",
        "Post_Office": "Melaka",
        "State": "Melaka"
    },
    {
        "Postcode": "75000",
        "Location": "Jalan Tun Lew Koh",
        "Post_Office": "Melaka",
        "State": "Melaka"
    },
    {
        "Postcode": "75000",
        "Location": "Kampung Banda Kaba",
        "Post_Office": "Melaka",
        "State": "Melaka"
    },
    {
        "Postcode": "75000",
        "Location": "Kampung Bandar Hilir",
        "Post_Office": "Melaka",
        "State": "Melaka"
    },
    {
        "Postcode": "75000",
        "Location": "Kampung Jalan Panjang",
        "Post_Office": "Melaka",
        "State": "Melaka"
    },
    {
        "Postcode": "75000",
        "Location": "Kampung Praya",
        "Post_Office": "Melaka",
        "State": "Melaka"
    },
    {
        "Postcode": "75000",
        "Location": "Kampung Praya Lane",
        "Post_Office": "Melaka",
        "State": "Melaka"
    },
    {
        "Postcode": "75000",
        "Location": "Lorong Banda Kaba",
        "Post_Office": "Melaka",
        "State": "Melaka"
    },
    {
        "Postcode": "75000",
        "Location": "Lorong Bukit Cina (Banda Kaba)",
        "Post_Office": "Melaka",
        "State": "Melaka"
    },
    {
        "Postcode": "75000",
        "Location": "Lorong Gereja",
        "Post_Office": "Melaka",
        "State": "Melaka"
    },
    {
        "Postcode": "75000",
        "Location": "Lorong Pantai",
        "Post_Office": "Melaka",
        "State": "Melaka"
    },
    {
        "Postcode": "75000",
        "Location": "Mahkota Medical Center",
        "Post_Office": "Melaka",
        "State": "Melaka"
    },
    {
        "Postcode": "75000",
        "Location": "Mahkota Parade",
        "Post_Office": "Melaka",
        "State": "Melaka"
    },
    {
        "Postcode": "75000",
        "Location": "Malacca Club",
        "Post_Office": "Melaka",
        "State": "Melaka"
    },
    {
        "Postcode": "75000",
        "Location": "Medan Samudera",
        "Post_Office": "Melaka",
        "State": "Melaka"
    },
    {
        "Postcode": "75000",
        "Location": "Melaka Raya",
        "Post_Office": "Melaka",
        "State": "Melaka"
    },
    {
        "Postcode": "75000",
        "Location": "Pangsapuri Seri Bukit Senjuang",
        "Post_Office": "Melaka",
        "State": "Melaka"
    },
    {
        "Postcode": "75000",
        "Location": "Plaza Melaka Raya",
        "Post_Office": "Melaka",
        "State": "Melaka"
    },
    {
        "Postcode": "75000",
        "Location": "Pulau Melaka",
        "Post_Office": "Melaka",
        "State": "Melaka"
    },
    {
        "Postcode": "75000",
        "Location": "Pusat Seni",
        "Post_Office": "Melaka",
        "State": "Melaka"
    },
    {
        "Postcode": "75000",
        "Location": "Rumah Awam Bandar Hilir",
        "Post_Office": "Melaka",
        "State": "Melaka"
    },
    {
        "Postcode": "75000",
        "Location": "Rumah Pangsa Bandar Hilir",
        "Post_Office": "Melaka",
        "State": "Melaka"
    },
    {
        "Postcode": "75000",
        "Location": "Rumah Pangsa Iskandar Shah",
        "Post_Office": "Melaka",
        "State": "Melaka"
    },
    {
        "Postcode": "75000",
        "Location": "Taman Bakti",
        "Post_Office": "Melaka",
        "State": "Melaka"
    },
    {
        "Postcode": "75000",
        "Location": "Taman Bandar Hilir Indah",
        "Post_Office": "Melaka",
        "State": "Melaka"
    },
    {
        "Postcode": "75000",
        "Location": "Taman Hilir Kota",
        "Post_Office": "Melaka",
        "State": "Melaka"
    },
    {
        "Postcode": "75000",
        "Location": "Taman Hilir Kota 1",
        "Post_Office": "Melaka",
        "State": "Melaka"
    },
    {
        "Postcode": "75000",
        "Location": "Taman Melaka Raya",
        "Post_Office": "Melaka",
        "State": "Melaka"
    },
    {
        "Postcode": "75000",
        "Location": "Pahlawan De Hatten Square",
        "Post_Office": "Melaka",
        "State": "Melaka"
    },
    {
        "Postcode": "75000",
        "Location": "Plaza Bayu",
        "Post_Office": "Melaka",
        "State": "Melaka"
    },
    {
        "Postcode": "75000",
        "Location": "Kampung Hilir",
        "Post_Office": "Melaka",
        "State": "Melaka"
    },
    {
        "Postcode": "75000",
        "Location": "Lorong Bukit Senjuang",
        "Post_Office": "Melaka",
        "State": "Melaka"
    },
    {
        "Postcode": "75000",
        "Location": "Jalan Merdeka",
        "Post_Office": "Melaka",
        "State": "Melaka"
    },
    {
        "Postcode": "75000",
        "Location": "Kampung Bukit Gedong",
        "Post_Office": "Melaka",
        "State": "Melaka"
    },
    {
        "Postcode": "75000",
        "Location": "Taman Plaza Merdeka",
        "Post_Office": "Melaka",
        "State": "Melaka"
    },
    {
        "Postcode": "75000",
        "Location": "Taman Pulau Melaka",
        "Post_Office": "Melaka",
        "State": "Melaka"
    }
]
