[
    {
        "Postcode": "75050",
        "Location": "Kampung Ujong Pasir",
        "Post_Office": "Melaka",
        "State": "Melaka"
    },
    {
        "Postcode": "75050",
        "Location": "Ayer Leleh",
        "Post_Office": "Melaka",
        "State": "Melaka"
    },
    {
        "Postcode": "75050",
        "Location": "Ayer Leleh Kondominium",
        "Post_Office": "Melaka",
        "State": "Melaka"
    },
    {
        "Postcode": "75050",
        "Location": "Bukit Godek (Semabok)",
        "Post_Office": "Melaka",
        "State": "Melaka"
    },
    {
        "Postcode": "75050",
        "Location": "Flat Ayer Leleh",
        "Post_Office": "Melaka",
        "State": "Melaka"
    },
    {
        "Postcode": "75050",
        "Location": "Flat Mawar",
        "Post_Office": "Melaka",
        "State": "Melaka"
    },
    {
        "Postcode": "75050",
        "Location": "Flat Melati",
        "Post_Office": "Melaka",
        "State": "Melaka"
    },
    {
        "Postcode": "75050",
        "Location": "Flat Orkid",
        "Post_Office": "Melaka",
        "State": "Melaka"
    },
    {
        "Postcode": "75050",
        "Location": "Flat Teratai",
        "Post_Office": "Melaka",
        "State": "Melaka"
    },
    {
        "Postcode": "75050",
        "Location": "Jalan Ayer Leleh",
        "Post_Office": "Melaka",
        "State": "Melaka"
    },
    {
        "Postcode": "75050",
        "Location": "Jalan Banda",
        "Post_Office": "Melaka",
        "State": "Melaka"
    },
    {
        "Postcode": "75050",
        "Location": "Jalan Bukit Gedong",
        "Post_Office": "Melaka",
        "State": "Melaka"
    },
    {
        "Postcode": "75050",
        "Location": "Jalan Bukit Godek",
        "Post_Office": "Melaka",
        "State": "Melaka"
    },
    {
        "Postcode": "75050",
        "Location": "Jalan Bukit Katil (Semabok)",
        "Post_Office": "Melaka",
        "State": "Melaka"
    },
    {
        "Postcode": "75050",
        "Location": "Jalan Cryton",
        "Post_Office": "Melaka",
        "State": "Melaka"
    },
    {
        "Postcode": "75050",
        "Location": "Jalan D' Albuquerque",
        "Post_Office": "Melaka",
        "State": "Melaka"
    },
    {
        "Postcode": "75050",
        "Location": "Jalan D'Aranjo",
        "Post_Office": "Melaka",
        "State": "Melaka"
    },
    {
        "Postcode": "75050",
        "Location": "Jalan Day",
        "Post_Office": "Melaka",
        "State": "Melaka"
    },
    {
        "Postcode": "75050",
        "Location": "Jalan Eredia",
        "Post_Office": "Melaka",
        "State": "Melaka"
    },
    {
        "Postcode": "75050",
        "Location": "Jalan Johor",
        "Post_Office": "Melaka",
        "State": "Melaka"
    },
    {
        "Postcode": "75050",
        "Location": "Jalan Low Hee Kong",
        "Post_Office": "Melaka",
        "State": "Melaka"
    },
    {
        "Postcode": "75050",
        "Location": "Jalan Masjid Ujong Pasir",
        "Post_Office": "Melaka",
        "State": "Melaka"
    },
    {
        "Postcode": "75050",
        "Location": "Jalan Portugis",
        "Post_Office": "Melaka",
        "State": "Melaka"
    },
    {
        "Postcode": "75050",
        "Location": "Jalan Portugis Settlement",
        "Post_Office": "Melaka",
        "State": "Melaka"
    },
    {
        "Postcode": "75050",
        "Location": "Jalan Pulau",
        "Post_Office": "Melaka",
        "State": "Melaka"
    },
    {
        "Postcode": "75050",
        "Location": "Jalan Pulau, Ujong Pasir",
        "Post_Office": "Melaka",
        "State": "Melaka"
    },
    {
        "Postcode": "75050",
        "Location": "Jalan Semabok",
        "Post_Office": "Melaka",
        "State": "Melaka"
    },
    {
        "Postcode": "75050",
        "Location": "Jalan Semabok Dalam",
        "Post_Office": "Melaka",
        "State": "Melaka"
    },
    {
        "Postcode": "75050",
        "Location": "Jalan Seqveira",
        "Post_Office": "Melaka",
        "State": "Melaka"
    },
    {
        "Postcode": "75050",
        "Location": "Jalan Texerra",
        "Post_Office": "Melaka",
        "State": "Melaka"
    },
    {
        "Postcode": "75050",
        "Location": "Jalan Yong Pak Khiam",
        "Post_Office": "Melaka",
        "State": "Melaka"
    },
    {
        "Postcode": "75050",
        "Location": "Kampung Atap",
        "Post_Office": "Melaka",
        "State": "Melaka"
    },
    {
        "Postcode": "75050",
        "Location": "Kampung Atap (Ujong Pasir)",
        "Post_Office": "Melaka",
        "State": "Melaka"
    },
    {
        "Postcode": "75050",
        "Location": "Kampung Ayer Leleh",
        "Post_Office": "Melaka",
        "State": "Melaka"
    },
    {
        "Postcode": "75050",
        "Location": "Kampung Bukit Godek",
        "Post_Office": "Melaka",
        "State": "Melaka"
    },
    {
        "Postcode": "75050",
        "Location": "Kampung Ladang Semabok",
        "Post_Office": "Melaka",
        "State": "Melaka"
    },
    {
        "Postcode": "75050",
        "Location": "Kampung Padang Temu",
        "Post_Office": "Melaka",
        "State": "Melaka"
    },
    {
        "Postcode": "75050",
        "Location": "Kondominium Pasir Murni",
        "Post_Office": "Melaka",
        "State": "Melaka"
    },
    {
        "Postcode": "75050",
        "Location": "Lorong Empat",
        "Post_Office": "Melaka",
        "State": "Melaka"
    },
    {
        "Postcode": "75050",
        "Location": "Medan Portugis",
        "Post_Office": "Melaka",
        "State": "Melaka"
    },
    {
        "Postcode": "75050",
        "Location": "Padang Semabok",
        "Post_Office": "Melaka",
        "State": "Melaka"
    },
    {
        "Postcode": "75050",
        "Location": "Pangsapuri Harmoni/Aman",
        "Post_Office": "Melaka",
        "State": "Melaka"
    },
    {
        "Postcode": "75050",
        "Location": "Pangsapuri Kekwah",
        "Post_Office": "Melaka",
        "State": "Melaka"
    },
    {
        "Postcode": "75050",
        "Location": "Pangsapuri Laksamana Cheng Ho",
        "Post_Office": "Melaka",
        "State": "Melaka"
    },
    {
        "Postcode": "75050",
        "Location": "Pangsapuri Pasir Emas",
        "Post_Office": "Melaka",
        "State": "Melaka"
    },
    {
        "Postcode": "75050",
        "Location": "Pangsapuri Pasir Jaya",
        "Post_Office": "Melaka",
        "State": "Melaka"
    },
    {
        "Postcode": "75050",
        "Location": "Pangsapuri Pasir Mutiara",
        "Post_Office": "Melaka",
        "State": "Melaka"
    },
    {
        "Postcode": "75050",
        "Location": "Pangsapuri Pasir Permai",
        "Post_Office": "Melaka",
        "State": "Melaka"
    },
    {
        "Postcode": "75050",
        "Location": "Pangsapuri Pasir Puteri",
        "Post_Office": "Melaka",
        "State": "Melaka"
    },
    {
        "Postcode": "75050",
        "Location": "Pangsapuri Permai",
        "Post_Office": "Melaka",
        "State": "Melaka"
    },
    {
        "Postcode": "75050",
        "Location": "Pangsapuri Seri Johor",
        "Post_Office": "Melaka",
        "State": "Melaka"
    },
    {
        "Postcode": "75050",
        "Location": "Pangsapuri Straits Court",
        "Post_Office": "Melaka",
        "State": "Melaka"
    },
    {
        "Postcode": "75050",
        "Location": "Pangsapuri Suk A \u0026 B",
        "Post_Office": "Melaka",
        "State": "Melaka"
    },
    {
        "Postcode": "75050",
        "Location": "Pangsapuri Taman Kasturi",
        "Post_Office": "Melaka",
        "State": "Melaka"
    },
    {
        "Postcode": "75050",
        "Location": "Pangsapuri Teratai",
        "Post_Office": "Melaka",
        "State": "Melaka"
    },
    {
        "Postcode": "75050",
        "Location": "Straits Court Kondominium",
        "Post_Office": "Melaka",
        "State": "Melaka"
    },
    {
        "Postcode": "75050",
        "Location": "Strawberry",
        "Post_Office": "Melaka",
        "State": "Melaka"
    },
    {
        "Postcode": "75050",
        "Location": "Taman Abu Bakar",
        "Post_Office": "Melaka",
        "State": "Melaka"
    },
    {
        "Postcode": "75050",
        "Location": "Taman Arkad",
        "Post_Office": "Melaka",
        "State": "Melaka"
    },
    {
        "Postcode": "75050",
        "Location": "Taman Ayer Leleh Permai",
        "Post_Office": "Melaka",
        "State": "Melaka"
    },
    {
        "Postcode": "75050",
        "Location": "Taman Cosa Villa",
        "Post_Office": "Melaka",
        "State": "Melaka"
    },
    {
        "Postcode": "75050",
        "Location": "Taman Impian Padang Temu",
        "Post_Office": "Melaka",
        "State": "Melaka"
    },
    {
        "Postcode": "75050",
        "Location": "Taman Jaya Baru",
        "Post_Office": "Melaka",
        "State": "Melaka"
    },
    {
        "Postcode": "75050",
        "Location": "Taman Aman",
        "Post_Office": "Melaka",
        "State": "Melaka"
    },
    {
        "Postcode": "75050",
        "Location": "Bukit Gedong",
        "Post_Office": "Melaka",
        "State": "Melaka"
    },
    {
        "Postcode": "75050",
        "Location": "Pangsapuri Mutiara",
        "Post_Office": "Melaka",
        "State": "Melaka"
    },
    {
        "Postcode": "75050",
        "Location": "Taman Hilir",
        "Post_Office": "Melaka",
        "State": "Melaka"
    },
    {
        "Postcode": "75050",
        "Location": "Taman Jaya",
        "Post_Office": "Melaka",
        "State": "Melaka"
    },
    {
        "Postcode": "75050",
        "Location": "Taman Kasturi",
        "Post_Office": "Melaka",
        "State": "Melaka"
    },
    {
        "Postcode": "75050",
        "Location": "Taman Kampung Atap",
        "Post_Office": "Melaka",
        "State": "Melaka"
    },
    {
        "Postcode": "75050",
        "Location": "Taman Laksamana Cheng Ho",
        "Post_Office": "Melaka",
        "State": "Melaka"
    },
    {
        "Postcode": "75050",
        "Location": "Taman Macvilla",
        "Post_Office": "Melaka",
        "State": "Melaka"
    },
    {
        "Postcode": "75050",
        "Location": "Taman May Lian",
        "Post_Office": "Melaka",
        "State": "Melaka"
    },
    {
        "Postcode": "75050",
        "Location": "Taman Melayu",
        "Post_Office": "Melaka",
        "State": "Melaka"
    },
    {
        "Postcode": "75050",
        "Location": "Taman Nam Yang",
        "Post_Office": "Melaka",
        "State": "Melaka"
    },
    {
        "Postcode": "75050",
        "Location": "Taman Padang Temu",
        "Post_Office": "Melaka",
        "State": "Melaka"
    },
    {
        "Postcode": "75050",
        "Location": "Taman Padang Temu Bahagia",
        "Post_Office": "Melaka",
        "State": "Melaka"
    },
    {
        "Postcode": "75050",
        "Location": "Taman Padang Temu Indah",
        "Post_Office": "Melaka",
        "State": "Melaka"
    },
    {
        "Postcode": "75050",
        "Location": "Taman Padang Temu Jaya",
        "Post_Office": "Melaka",
        "State": "Melaka"
    },
    {
        "Postcode": "75050",
        "Location": "Taman Pantai Hilir",
        "Post_Office": "Melaka",
        "State": "Melaka"
    },
    {
        "Postcode": "75050",
        "Location": "Taman Pasir Jaya",
        "Post_Office": "Melaka",
        "State": "Melaka"
    },
    {
        "Postcode": "75050",
        "Location": "Taman Pasir Mas (Semabok)",
        "Post_Office": "Melaka",
        "State": "Melaka"
    },
    {
        "Postcode": "75050",
        "Location": "Taman Pertam Jaya",
        "Post_Office": "Melaka",
        "State": "Melaka"
    },
    {
        "Postcode": "75050",
        "Location": "Taman Salient",
        "Post_Office": "Melaka",
        "State": "Melaka"
    },
    {
        "Postcode": "75050",
        "Location": "Taman Sea View",
        "Post_Office": "Melaka",
        "State": "Melaka"
    },
    {
        "Postcode": "75050",
        "Location": "Taman Semabok Jaya",
        "Post_Office": "Melaka",
        "State": "Melaka"
    },
    {
        "Postcode": "75050",
        "Location": "Taman Semabok Perdana",
        "Post_Office": "Melaka",
        "State": "Melaka"
    },
    {
        "Postcode": "75050",
        "Location": "Taman Semabok Permai",
        "Post_Office": "Melaka",
        "State": "Melaka"
    },
    {
        "Postcode": "75050",
        "Location": "Taman Seri Bandar",
        "Post_Office": "Melaka",
        "State": "Melaka"
    },
    {
        "Postcode": "75050",
        "Location": "Taman Serindit Harmoni",
        "Post_Office": "Melaka",
        "State": "Melaka"
    },
    {
        "Postcode": "75050",
        "Location": "Taman Sinn",
        "Post_Office": "Melaka",
        "State": "Melaka"
    },
    {
        "Postcode": "75050",
        "Location": "Taman Tang Khor Ham",
        "Post_Office": "Melaka",
        "State": "Melaka"
    },
    {
        "Postcode": "75050",
        "Location": "Taman Temu Jaya",
        "Post_Office": "Melaka",
        "State": "Melaka"
    },
    {
        "Postcode": "75050",
        "Location": "Taman Teratai",
        "Post_Office": "Melaka",
        "State": "Melaka"
    },
    {
        "Postcode": "75050",
        "Location": "Ujong Pasir",
        "Post_Office": "Melaka",
        "State": "Melaka"
    },
    {
        "Postcode": "75050",
        "Location": "Taman Semabok Indah",
        "Post_Office": "Melaka",
        "State": "Melaka"
    },
    {
        "Postcode": "75050",
        "Location": "Taman Residen Lapan Padang Temu",
        "Post_Office": "Melaka",
        "State": "Melaka"
    },
    {
        "Postcode": "75050",
        "Location": "Taman Sinn Semabok",
        "Post_Office": "Melaka",
        "State": "Melaka"
    },
    {
        "Postcode": "75050",
        "Location": "Lorong 1 (Bandar Hilir)",
        "Post_Office": "Melaka",
        "State": "Melaka"
    },
    {
        "Postcode": "75050",
        "Location": "Lorong 2 (Bandar Hilir)",
        "Post_Office": "Melaka",
        "State": "Melaka"
    },
    {
        "Postcode": "75050",
        "Location": "Lorong 3 (Bandar Hilir)",
        "Post_Office": "Melaka",
        "State": "Melaka"
    },
    {
        "Postcode": "75050",
        "Location": "Lorong 4 (Bandar Hilir)",
        "Post_Office": "Melaka",
        "State": "Melaka"
    },
    {
        "Postcode": "75050",
        "Location": "Lorong 5 (Bandar Hilir)",
        "Post_Office": "Melaka",
        "State": "Melaka"
    },
    {
        "Postcode": "75050",
        "Location": "Lorong 6 (Bandar Hilir)",
        "Post_Office": "Melaka",
        "State": "Melaka"
    },
    {
        "Postcode": "75050",
        "Location": "Lorong 7 (Bandar Hilir)",
        "Post_Office": "Melaka",
        "State": "Melaka"
    },
    {
        "Postcode": "75050",
        "Location": "Jalan Ujong Pasir",
        "Post_Office": "Melaka",
        "State": "Melaka"
    },
    {
        "Postcode": "75050",
        "Location": "Kampung Portugis",
        "Post_Office": "Melaka",
        "State": "Melaka"
    },
    {
        "Postcode": "75050",
        "Location": "Kampung Semabok",
        "Post_Office": "Melaka",
        "State": "Melaka"
    },
    {
        "Postcode": "75050",
        "Location": "Lorong 1 (Ujong Pasir)",
        "Post_Office": "Melaka",
        "State": "Melaka"
    },
    {
        "Postcode": "75050",
        "Location": "Lorong 2 (Ujong Pasir)",
        "Post_Office": "Melaka",
        "State": "Melaka"
    },
    {
        "Postcode": "75050",
        "Location": "Lorong 3 (Ujong Pasir)",
        "Post_Office": "Melaka",
        "State": "Melaka"
    },
    {
        "Postcode": "75050",
        "Location": "Lorong 4 (Ujong Pasir)",
        "Post_Office": "Melaka",
        "State": "Melaka"
    },
    {
        "Postcode": "75050",
        "Location": "Taman Iks Padang Temu",
        "Post_Office": "Melaka",
        "State": "Melaka"
    },
    {
        "Postcode": "75050",
        "Location": "Taman Garden 1",
        "Post_Office": "Melaka",
        "State": "Melaka"
    },
    {
        "Postcode": "75050",
        "Location": "Taman Garden 2",
        "Post_Office": "Melaka",
        "State": "Melaka"
    },
    {
        "Postcode": "75050",
        "Location": "Taman Tang Kwor Ham",
        "Post_Office": "Melaka",
        "State": "Melaka"
    },
    {
        "Postcode": "75050",
        "Location": "Taman Plaza Semabok",
        "Post_Office": "Melaka",
        "State": "Melaka"
    },
    {
        "Postcode": "75050",
        "Location": "Taman Semabok Emas",
        "Post_Office": "Melaka",
        "State": "Melaka"
    },
    {
        "Postcode": "75050",
        "Location": "Taman Bukit Godek Bahagia",
        "Post_Office": "Melaka",
        "State": "Melaka"
    },
    {
        "Postcode": "75050",
        "Location": "Taman Semabok Setia",
        "Post_Office": "Melaka",
        "State": "Melaka"
    },
    {
        "Postcode": "75050",
        "Location": "Pangsapuri Pertam Jaya Idaman",
        "Post_Office": "Melaka",
        "State": "Melaka"
    },
    {
        "Postcode": "75050",
        "Location": "Jalan Pj 19A",
        "Post_Office": "Melaka",
        "State": "Melaka"
    }
]
