[
    {
        "Postcode": "75100",
        "Location": "Jalan Bukit Cina",
        "Post_Office": "Melaka",
        "State": "Melaka"
    },
    {
        "Postcode": "75100",
        "Location": "Kampung Bukit Cina",
        "Post_Office": "Melaka",
        "State": "Melaka"
    },
    {
        "Postcode": "75100",
        "Location": "Jalan Bunga Raya",
        "Post_Office": "Melaka",
        "State": "Melaka"
    },
    {
        "Postcode": "75100",
        "Location": "Kampung Jawa",
        "Post_Office": "Melaka",
        "State": "Melaka"
    },
    {
        "Postcode": "75100",
        "Location": "Lorong Bukit Cina",
        "Post_Office": "Melaka",
        "State": "Melaka"
    },
    {
        "Postcode": "75100",
        "Location": "Bunga Raya Pantai",
        "Post_Office": "Melaka",
        "State": "Melaka"
    },
    {
        "Postcode": "75100",
        "Location": "Center Point",
        "Post_Office": "Melaka",
        "State": "Melaka"
    },
    {
        "Postcode": "75100",
        "Location": "Flat Bendahara",
        "Post_Office": "Melaka",
        "State": "Melaka"
    },
    {
        "Postcode": "75100",
        "Location": "Flat Tun Sri Lanang",
        "Post_Office": "Melaka",
        "State": "Melaka"
    },
    {
        "Postcode": "75100",
        "Location": "Jalan Bendahara",
        "Post_Office": "Melaka",
        "State": "Melaka"
    },
    {
        "Postcode": "75100",
        "Location": "Jalan Bunga Raya Pantai",
        "Post_Office": "Melaka",
        "State": "Melaka"
    },
    {
        "Postcode": "75100",
        "Location": "Jalan Depoh",
        "Post_Office": "Melaka",
        "State": "Melaka"
    },
    {
        "Postcode": "75100",
        "Location": "Jalan Jawa",
        "Post_Office": "Melaka",
        "State": "Melaka"
    },
    {
        "Postcode": "75100",
        "Location": "Jalan Kampung Jawa",
        "Post_Office": "Melaka",
        "State": "Melaka"
    },
    {
        "Postcode": "75100",
        "Location": "Jalan Kee Ann",
        "Post_Office": "Melaka",
        "State": "Melaka"
    },
    {
        "Postcode": "75100",
        "Location": "Jalan Munshi Abdullah",
        "Post_Office": "Melaka",
        "State": "Melaka"
    },
    {
        "Postcode": "75100",
        "Location": "Jalan Pasar Baru",
        "Post_Office": "Melaka",
        "State": "Melaka"
    },
    {
        "Postcode": "75100",
        "Location": "Jalan Putri Hang Li Poh",
        "Post_Office": "Melaka",
        "State": "Melaka"
    },
    {
        "Postcode": "75100",
        "Location": "Jalan Tun Sri Lanang",
        "Post_Office": "Melaka",
        "State": "Melaka"
    },
    {
        "Postcode": "75100",
        "Location": "Kompleks Munshi Abdullah",
        "Post_Office": "Melaka",
        "State": "Melaka"
    },
    {
        "Postcode": "75100",
        "Location": "Lorong Bunga Raya",
        "Post_Office": "Melaka",
        "State": "Melaka"
    },
    {
        "Postcode": "75100",
        "Location": "Lorong Bunga Raya Pantai",
        "Post_Office": "Melaka",
        "State": "Melaka"
    },
    {
        "Postcode": "75100",
        "Location": "Lorong Pengkalan Rama",
        "Post_Office": "Melaka",
        "State": "Melaka"
    },
    {
        "Postcode": "75100",
        "Location": "Lorong Tun Sri Lanang",
        "Post_Office": "Melaka",
        "State": "Melaka"
    },
    {
        "Postcode": "75100",
        "Location": "Pangsapuri Sungai Naga",
        "Post_Office": "Melaka",
        "State": "Melaka"
    },
    {
        "Postcode": "75100",
        "Location": "Pasar Kampung Jawa",
        "Post_Office": "Melaka",
        "State": "Melaka"
    },
    {
        "Postcode": "75100",
        "Location": "Pengkalan Rama Pantai",
        "Post_Office": "Melaka",
        "State": "Melaka"
    },
    {
        "Postcode": "75100",
        "Location": "Pengkalan Rama Tengah",
        "Post_Office": "Melaka",
        "State": "Melaka"
    },
    {
        "Postcode": "75100",
        "Location": "Plaza Inn",
        "Post_Office": "Melaka",
        "State": "Melaka"
    },
    {
        "Postcode": "75100",
        "Location": "Rumah Pangsa Bendahara",
        "Post_Office": "Melaka",
        "State": "Melaka"
    },
    {
        "Postcode": "75100",
        "Location": "Taman Bendahara",
        "Post_Office": "Melaka",
        "State": "Melaka"
    },
    {
        "Postcode": "75100",
        "Location": "Taman Wan Show",
        "Post_Office": "Melaka",
        "State": "Melaka"
    },
    {
        "Postcode": "75100",
        "Location": "Wisma Bendahara",
        "Post_Office": "Melaka",
        "State": "Melaka"
    },
    {
        "Postcode": "75100",
        "Location": "Wisma Tan Cheng Tiong",
        "Post_Office": "Melaka",
        "State": "Melaka"
    },
    {
        "Postcode": "75100",
        "Location": "Kampung Bukit Cina Dalam",
        "Post_Office": "Melaka",
        "State": "Melaka"
    },
    {
        "Postcode": "75100",
        "Location": "Jalan Persisiran Bunga Raya",
        "Post_Office": "Melaka",
        "State": "Melaka"
    }
]
