[
    {
        "Postcode": "75150",
        "Location": "Taman Putra Heights, Hang Tuah Jaya",
        "Post_Office": "Melaka",
        "State": "Melaka"
    },
    {
        "Postcode": "75150",
        "Location": "Jalan Mawar",
        "Post_Office": "Melaka",
        "State": "Melaka"
    },
    {
        "Postcode": "75150",
        "Location": "Jalan Padang Jambu",
        "Post_Office": "Melaka",
        "State": "Melaka"
    },
    {
        "Postcode": "75150",
        "Location": "Jalan Paya Ikan",
        "Post_Office": "Melaka",
        "State": "Melaka"
    },
    {
        "Postcode": "75150",
        "Location": "Jalan Penghulu Abbas",
        "Post_Office": "Melaka",
        "State": "Melaka"
    },
    {
        "Postcode": "75150",
        "Location": "Jalan Rusa",
        "Post_Office": "Melaka",
        "State": "Melaka"
    },
    {
        "Postcode": "75150",
        "Location": "Jalan Tanjong",
        "Post_Office": "Melaka",
        "State": "Melaka"
    },
    {
        "Postcode": "75150",
        "Location": "Kampung Bukit Baru",
        "Post_Office": "Melaka",
        "State": "Melaka"
    },
    {
        "Postcode": "75150",
        "Location": "Kampung Bukit Baru Dalam",
        "Post_Office": "Melaka",
        "State": "Melaka"
    },
    {
        "Postcode": "75150",
        "Location": "Kampung Bukit Piatu",
        "Post_Office": "Melaka",
        "State": "Melaka"
    },
    {
        "Postcode": "75150",
        "Location": "Kampung Ku Sayang",
        "Post_Office": "Melaka",
        "State": "Melaka"
    },
    {
        "Postcode": "75150",
        "Location": "Kampung Musai",
        "Post_Office": "Melaka",
        "State": "Melaka"
    },
    {
        "Postcode": "75150",
        "Location": "Kampung Padang Jambu, Hang Tuah Jaya",
        "Post_Office": "Melaka",
        "State": "Melaka"
    },
    {
        "Postcode": "75150",
        "Location": "Kampung Paya Ikan",
        "Post_Office": "Melaka",
        "State": "Melaka"
    },
    {
        "Postcode": "75150",
        "Location": "Kampung Pengkalan Batu, Hang Tuah Jaya",
        "Post_Office": "Melaka",
        "State": "Melaka"
    },
    {
        "Postcode": "75150",
        "Location": "Kampung Solok Bukit Piatu",
        "Post_Office": "Melaka",
        "State": "Melaka"
    },
    {
        "Postcode": "75150",
        "Location": "Kampung Solok Bukit Pulau",
        "Post_Office": "Melaka",
        "State": "Melaka"
    },
    {
        "Postcode": "75150",
        "Location": "Kampung Solok Musai",
        "Post_Office": "Melaka",
        "State": "Melaka"
    },
    {
        "Postcode": "75150",
        "Location": "Kolej Yayasan Melaka",
        "Post_Office": "Melaka",
        "State": "Melaka"
    },
    {
        "Postcode": "75150",
        "Location": "Kondominium Bukit Baru Ria, Hang Tuah Jaya",
        "Post_Office": "Melaka",
        "State": "Melaka"
    },
    {
        "Postcode": "75150",
        "Location": "Lorong Mat Riau",
        "Post_Office": "Melaka",
        "State": "Melaka"
    },
    {
        "Postcode": "75150",
        "Location": "Lorong Mawar",
        "Post_Office": "Melaka",
        "State": "Melaka"
    },
    {
        "Postcode": "75150",
        "Location": "Lorong Penghulu Abbas",
        "Post_Office": "Melaka",
        "State": "Melaka"
    },
    {
        "Postcode": "75150",
        "Location": "Lorong Sidang Omar",
        "Post_Office": "Melaka",
        "State": "Melaka"
    },
    {
        "Postcode": "75150",
        "Location": "Pangsapuri Mahsuri",
        "Post_Office": "Melaka",
        "State": "Melaka"
    },
    {
        "Postcode": "75150",
        "Location": "Pangsapuri Pertama",
        "Post_Office": "Melaka",
        "State": "Melaka"
    },
    {
        "Postcode": "75150",
        "Location": "Pangsapuri Sri Siantan",
        "Post_Office": "Melaka",
        "State": "Melaka"
    },
    {
        "Postcode": "75150",
        "Location": "Pekan Bukit Baru",
        "Post_Office": "Melaka",
        "State": "Melaka"
    },
    {
        "Postcode": "75150",
        "Location": "Pengkalan Batu",
        "Post_Office": "Melaka",
        "State": "Melaka"
    },
    {
        "Postcode": "75150",
        "Location": "Rumah Pangsa Bukit Piatu",
        "Post_Office": "Melaka",
        "State": "Melaka"
    },
    {
        "Postcode": "75150",
        "Location": "Rumah Pangsa Permata",
        "Post_Office": "Melaka",
        "State": "Melaka"
    },
    {
        "Postcode": "75150",
        "Location": "Simpang Bukit Baru",
        "Post_Office": "Melaka",
        "State": "Melaka"
    },
    {
        "Postcode": "75150",
        "Location": "Simpang Bukit Sebukor",
        "Post_Office": "Melaka",
        "State": "Melaka"
    },
    {
        "Postcode": "75150",
        "Location": "Sin Hoe Garden",
        "Post_Office": "Melaka",
        "State": "Melaka"
    },
    {
        "Postcode": "75150",
        "Location": "Solok Balik Bukit Piatu",
        "Post_Office": "Melaka",
        "State": "Melaka"
    },
    {
        "Postcode": "75150",
        "Location": "Solok Bukit Baru Dalam",
        "Post_Office": "Melaka",
        "State": "Melaka"
    },
    {
        "Postcode": "75150",
        "Location": "Solok Bukit Piatu",
        "Post_Office": "Melaka",
        "State": "Melaka"
    },
    {
        "Postcode": "75150",
        "Location": "Solok Bukit Pulau",
        "Post_Office": "Melaka",
        "State": "Melaka"
    },
    {
        "Postcode": "75150",
        "Location": "Solok Bukit Sepam",
        "Post_Office": "Melaka",
        "State": "Melaka"
    },
    {
        "Postcode": "75150",
        "Location": "Taman Bahagia, Hang Tuah Jaya",
        "Post_Office": "Melaka",
        "State": "Melaka"
    },
    {
        "Postcode": "75150",
        "Location": "Taman Bukit Baru, Hang Tuah Jaya",
        "Post_Office": "Melaka",
        "State": "Melaka"
    },
    {
        "Postcode": "75150",
        "Location": "Taman Bukit Palembang, Hang Tuah Jaya",
        "Post_Office": "Melaka",
        "State": "Melaka"
    },
    {
        "Postcode": "75150",
        "Location": "Taman Bukit Piatu",
        "Post_Office": "Melaka",
        "State": "Melaka"
    },
    {
        "Postcode": "75150",
        "Location": "Taman Bukit Piatu Mutiara",
        "Post_Office": "Melaka",
        "State": "Melaka"
    },
    {
        "Postcode": "75150",
        "Location": "Taman Dato Palembang, Hang Tuah Jaya",
        "Post_Office": "Melaka",
        "State": "Melaka"
    },
    {
        "Postcode": "75150",
        "Location": "Taman Datuk Palembang",
        "Post_Office": "Melaka",
        "State": "Melaka"
    },
    {
        "Postcode": "75150",
        "Location": "Taman Delima",
        "Post_Office": "Melaka",
        "State": "Melaka"
    },
    {
        "Postcode": "75150",
        "Location": "Taman Delima Raya, Hang Tuah Jaya",
        "Post_Office": "Melaka",
        "State": "Melaka"
    },
    {
        "Postcode": "75150",
        "Location": "Taman Desa Indah",
        "Post_Office": "Melaka",
        "State": "Melaka"
    },
    {
        "Postcode": "75150",
        "Location": "Taman Desa Jaya",
        "Post_Office": "Melaka",
        "State": "Melaka"
    },
    {
        "Postcode": "75150",
        "Location": "Taman Goodwood",
        "Post_Office": "Melaka",
        "State": "Melaka"
    },
    {
        "Postcode": "75150",
        "Location": "Taman Harta Pertama",
        "Post_Office": "Melaka",
        "State": "Melaka"
    },
    {
        "Postcode": "75150",
        "Location": "Taman Indah 2, Hang Tuah Jaya",
        "Post_Office": "Melaka",
        "State": "Melaka"
    },
    {
        "Postcode": "75150",
        "Location": "Taman Indah Sek 3",
        "Post_Office": "Melaka",
        "State": "Melaka"
    },
    {
        "Postcode": "75150",
        "Location": "Taman Indah Seksyen 1, Hang Tuah Jaya",
        "Post_Office": "Melaka",
        "State": "Melaka"
    },
    {
        "Postcode": "75150",
        "Location": "Taman Indah Seksyen 2, Hang Tuah Jaya",
        "Post_Office": "Melaka",
        "State": "Melaka"
    },
    {
        "Postcode": "75150",
        "Location": "Taman Indah Seksyen 3",
        "Post_Office": "Melaka",
        "State": "Melaka"
    },
    {
        "Postcode": "75150",
        "Location": "Taman Indah, Hang Tuah Jaya",
        "Post_Office": "Melaka",
        "State": "Melaka"
    },
    {
        "Postcode": "75150",
        "Location": "Taman Kedua",
        "Post_Office": "Melaka",
        "State": "Melaka"
    },
    {
        "Postcode": "75150",
        "Location": "Taman Malinja",
        "Post_Office": "Melaka",
        "State": "Melaka"
    },
    {
        "Postcode": "75150",
        "Location": "Taman Penghulu Abas, Hang Tuah Jaya",
        "Post_Office": "Melaka",
        "State": "Melaka"
    },
    {
        "Postcode": "75150",
        "Location": "Taman Penglima",
        "Post_Office": "Melaka",
        "State": "Melaka"
    },
    {
        "Postcode": "75150",
        "Location": "Taman Perumahan Polis Seri Temenggong, Hang Tuah Jaya",
        "Post_Office": "Melaka",
        "State": "Melaka"
    },
    {
        "Postcode": "75150",
        "Location": "Taman Putra",
        "Post_Office": "Melaka",
        "State": "Melaka"
    },
    {
        "Postcode": "75150",
        "Location": "Taman Sentosa Besar",
        "Post_Office": "Melaka",
        "State": "Melaka"
    },
    {
        "Postcode": "75150",
        "Location": "Taman Sentosa Kecil",
        "Post_Office": "Melaka",
        "State": "Melaka"
    },
    {
        "Postcode": "75150",
        "Location": "Taman Sentosa, Hang Tuah Jaya",
        "Post_Office": "Melaka",
        "State": "Melaka"
    },
    {
        "Postcode": "75150",
        "Location": "Taman Setia Kawan",
        "Post_Office": "Melaka",
        "State": "Melaka"
    },
    {
        "Postcode": "75150",
        "Location": "Taman Siantan Seksyen 1",
        "Post_Office": "Melaka",
        "State": "Melaka"
    },
    {
        "Postcode": "75150",
        "Location": "Taman Sin Hoe",
        "Post_Office": "Melaka",
        "State": "Melaka"
    },
    {
        "Postcode": "75150",
        "Location": "Taman Temenggong, Hang Tuah Jaya",
        "Post_Office": "Melaka",
        "State": "Melaka"
    },
    {
        "Postcode": "75150",
        "Location": "Jalan Bakti",
        "Post_Office": "Melaka",
        "State": "Melaka"
    },
    {
        "Postcode": "75150",
        "Location": "Jalan Indah",
        "Post_Office": "Melaka",
        "State": "Melaka"
    },
    {
        "Postcode": "75150",
        "Location": "Kuarters Kastam",
        "Post_Office": "Melaka",
        "State": "Melaka"
    },
    {
        "Postcode": "75150",
        "Location": "Taman Setia Jaya",
        "Post_Office": "Melaka",
        "State": "Melaka"
    },
    {
        "Postcode": "75150",
        "Location": "Jalan Melor",
        "Post_Office": "Melaka",
        "State": "Melaka"
    },
    {
        "Postcode": "75150",
        "Location": "Jalan Sentosa",
        "Post_Office": "Melaka",
        "State": "Melaka"
    },
    {
        "Postcode": "75150",
        "Location": "Taman Indah",
        "Post_Office": "Melaka",
        "State": "Melaka"
    },
    {
        "Postcode": "75150",
        "Location": "Bukit Baru",
        "Post_Office": "Melaka",
        "State": "Melaka"
    },
    {
        "Postcode": "75150",
        "Location": "Bukit Piatu",
        "Post_Office": "Melaka",
        "State": "Melaka"
    },
    {
        "Postcode": "75150",
        "Location": "Flat Bukit Baru",
        "Post_Office": "Melaka",
        "State": "Melaka"
    },
    {
        "Postcode": "75150",
        "Location": "Flat Bukit Piatu",
        "Post_Office": "Melaka",
        "State": "Melaka"
    },
    {
        "Postcode": "75150",
        "Location": "Flat Malinja",
        "Post_Office": "Melaka",
        "State": "Melaka"
    },
    {
        "Postcode": "75150",
        "Location": "Flat Polis Pdrm Seri Temenggong",
        "Post_Office": "Melaka",
        "State": "Melaka"
    },
    {
        "Postcode": "75150",
        "Location": "Flat Sri Temenggong",
        "Post_Office": "Melaka",
        "State": "Melaka"
    },
    {
        "Postcode": "75150",
        "Location": "Jalan Bahagia",
        "Post_Office": "Melaka",
        "State": "Melaka"
    },
    {
        "Postcode": "75150",
        "Location": "Jalan Bukit Baru",
        "Post_Office": "Melaka",
        "State": "Melaka"
    },
    {
        "Postcode": "75150",
        "Location": "Jalan Bukit Piatu",
        "Post_Office": "Melaka",
        "State": "Melaka"
    },
    {
        "Postcode": "75150",
        "Location": "Jalan Bukit Sebukor",
        "Post_Office": "Melaka",
        "State": "Melaka"
    },
    {
        "Postcode": "75150",
        "Location": "Jalan Dato Palembang",
        "Post_Office": "Melaka",
        "State": "Melaka"
    },
    {
        "Postcode": "75150",
        "Location": "Jalan Hoe Choong",
        "Post_Office": "Melaka",
        "State": "Melaka"
    },
    {
        "Postcode": "75150",
        "Location": "Jalan Hoe Tong",
        "Post_Office": "Melaka",
        "State": "Melaka"
    },
    {
        "Postcode": "75150",
        "Location": "Jalan Indah 3/8",
        "Post_Office": "Melaka",
        "State": "Melaka"
    },
    {
        "Postcode": "75150",
        "Location": "Jalan Jaya",
        "Post_Office": "Melaka",
        "State": "Melaka"
    },
    {
        "Postcode": "75150",
        "Location": "Kawasan Perniagaan Musai Bestari",
        "Post_Office": "Melaka ",
        "State": "Melaka"
    },
    {
        "Postcode": "75150",
        "Location": "Pusat Niaga Bukit Baru Utama",
        "Post_Office": "Melaka",
        "State": "Melaka"
    },
    {
        "Postcode": "75150",
        "Location": "Pusat Perniagaan Putra Sentosa",
        "Post_Office": "Melaka",
        "State": "Melaka"
    },
    {
        "Postcode": "75150",
        "Location": "Taman Bukit Baru Murni",
        "Post_Office": "Melaka",
        "State": "Melaka"
    },
    {
        "Postcode": "75150",
        "Location": "Jalan Ceria 1",
        "Post_Office": "Melaka",
        "State": "Melaka"
    },
    {
        "Postcode": "75150",
        "Location": "Taman Bukit Baru Permata",
        "Post_Office": "Melaka",
        "State": "Melaka"
    },
    {
        "Postcode": "75150",
        "Location": "Kampung Bukit Pulau",
        "Post_Office": "Melaka",
        "State": "Melaka"
    },
    {
        "Postcode": "75150",
        "Location": "Kampung Bukit Sebukor",
        "Post_Office": "Melaka",
        "State": "Melaka"
    },
    {
        "Postcode": "75150",
        "Location": "Jalan Kekwa 1",
        "Post_Office": "Melaka",
        "State": "Melaka"
    },
    {
        "Postcode": "75150",
        "Location": "Jalan Kekwa 2",
        "Post_Office": "Melaka",
        "State": "Melaka"
    },
    {
        "Postcode": "75150",
        "Location": "Jalan Kekwa 3",
        "Post_Office": "Melaka",
        "State": "Melaka"
    },
    {
        "Postcode": "75150",
        "Location": "Jalan Kekwa 4",
        "Post_Office": "Melaka",
        "State": "Melaka"
    },
    {
        "Postcode": "75150",
        "Location": "Jalan Kekwa 5",
        "Post_Office": "Melaka",
        "State": "Melaka"
    },
    {
        "Postcode": "75150",
        "Location": "Jalan Kekwa 6",
        "Post_Office": "Melaka",
        "State": "Melaka"
    },
    {
        "Postcode": "75150",
        "Location": "Taman Tropicana",
        "Post_Office": "Melaka",
        "State": "Melaka"
    },
    {
        "Postcode": "75150",
        "Location": "Taman Bukit Baru Jaya",
        "Post_Office": "Melaka",
        "State": "Melaka"
    },
    {
        "Postcode": "75150",
        "Location": "Pangsapuri Padang Jambu",
        "Post_Office": "Melaka",
        "State": "Melaka"
    }
]
