[
    {
        "Postcode": "75200",
        "Location": "3Rd Cross Street",
        "Post_Office": "Melaka",
        "State": "Melaka"
    },
    {
        "Postcode": "75200",
        "Location": "Balik Buloh",
        "Post_Office": "Melaka",
        "State": "Melaka"
    },
    {
        "Postcode": "75200",
        "Location": "First Cross Street",
        "Post_Office": "Melaka",
        "State": "Melaka"
    },
    {
        "Postcode": "75200",
        "Location": "Flat Al Ehsan",
        "Post_Office": "Melaka",
        "State": "Melaka"
    },
    {
        "Postcode": "75200",
        "Location": "Flat Siantan",
        "Post_Office": "Melaka",
        "State": "Melaka"
    },
    {
        "Postcode": "75200",
        "Location": "Golden Coast Pangsapuri Langkawi",
        "Post_Office": "Melaka",
        "State": "Melaka"
    },
    {
        "Postcode": "75200",
        "Location": "Golden Shower",
        "Post_Office": "Melaka",
        "State": "Melaka"
    },
    {
        "Postcode": "75200",
        "Location": "Gorbina Kondominium",
        "Post_Office": "Melaka",
        "State": "Melaka"
    },
    {
        "Postcode": "75200",
        "Location": "Jalan Abdul Ghafar",
        "Post_Office": "Melaka",
        "State": "Melaka"
    },
    {
        "Postcode": "75200",
        "Location": "Jalan Bayu",
        "Post_Office": "Melaka",
        "State": "Melaka"
    },
    {
        "Postcode": "75200",
        "Location": "Jalan Gajah Berang",
        "Post_Office": "Melaka",
        "State": "Melaka"
    },
    {
        "Postcode": "75200",
        "Location": "Jalan Hang Jebat",
        "Post_Office": "Melaka",
        "State": "Melaka"
    },
    {
        "Postcode": "75200",
        "Location": "Jalan Hang Kasturi",
        "Post_Office": "Melaka",
        "State": "Melaka"
    },
    {
        "Postcode": "75200",
        "Location": "Jalan Hang Lekir",
        "Post_Office": "Melaka",
        "State": "Melaka"
    },
    {
        "Postcode": "75200",
        "Location": "Jalan Hang Lekiu",
        "Post_Office": "Melaka",
        "State": "Melaka"
    },
    {
        "Postcode": "75200",
        "Location": "Jalan Kampung Kuli",
        "Post_Office": "Melaka",
        "State": "Melaka"
    },
    {
        "Postcode": "75200",
        "Location": "Jalan Kampung Lapan",
        "Post_Office": "Melaka",
        "State": "Melaka"
    },
    {
        "Postcode": "75200",
        "Location": "Jalan Kampung Pantai",
        "Post_Office": "Melaka",
        "State": "Melaka"
    },
    {
        "Postcode": "75200",
        "Location": "Jalan Kapitan",
        "Post_Office": "Melaka",
        "State": "Melaka"
    },
    {
        "Postcode": "75200",
        "Location": "Jalan Kesidang",
        "Post_Office": "Melaka",
        "State": "Melaka"
    },
    {
        "Postcode": "75200",
        "Location": "Jalan Kesidang (Kampung Lapan)",
        "Post_Office": "Melaka",
        "State": "Melaka"
    },
    {
        "Postcode": "75200",
        "Location": "Jalan Kota Laksamana",
        "Post_Office": "Melaka",
        "State": "Melaka"
    },
    {
        "Postcode": "75200",
        "Location": "Jalan Limbongan",
        "Post_Office": "Melaka",
        "State": "Melaka"
    },
    {
        "Postcode": "75200",
        "Location": "Jalan Melati (Klebang Kecil)",
        "Post_Office": "Melaka",
        "State": "Melaka"
    },
    {
        "Postcode": "75200",
        "Location": "Jalan Orkid",
        "Post_Office": "Melaka",
        "State": "Melaka"
    },
    {
        "Postcode": "75200",
        "Location": "Jalan Pulau Gadong",
        "Post_Office": "Melaka",
        "State": "Melaka"
    },
    {
        "Postcode": "75200",
        "Location": "Jalan Sekolah",
        "Post_Office": "Melaka",
        "State": "Melaka"
    },
    {
        "Postcode": "75200",
        "Location": "Jalan Seri Kota Laksamana",
        "Post_Office": "Melaka",
        "State": "Melaka"
    },
    {
        "Postcode": "75200",
        "Location": "Jalan Tai Boon Seng",
        "Post_Office": "Melaka",
        "State": "Melaka"
    },
    {
        "Postcode": "75200",
        "Location": "Jalan Tengkera",
        "Post_Office": "Melaka",
        "State": "Melaka"
    },
    {
        "Postcode": "75200",
        "Location": "Jalan Tokong",
        "Post_Office": "Melaka",
        "State": "Melaka"
    },
    {
        "Postcode": "75200",
        "Location": "Jalan Tukang Besi",
        "Post_Office": "Melaka",
        "State": "Melaka"
    },
    {
        "Postcode": "75200",
        "Location": "Jalan Tukang Emas",
        "Post_Office": "Melaka",
        "State": "Melaka"
    },
    {
        "Postcode": "75200",
        "Location": "Jalan Tun Tan Cheng Lock",
        "Post_Office": "Melaka",
        "State": "Melaka"
    },
    {
        "Postcode": "75200",
        "Location": "Jalan Woon Hoe Kam",
        "Post_Office": "Melaka",
        "State": "Melaka"
    },
    {
        "Postcode": "75200",
        "Location": "Kampung 8 Lorong Pandan",
        "Post_Office": "Melaka",
        "State": "Melaka"
    },
    {
        "Postcode": "75200",
        "Location": "Kampung 8 Tengkera Pantai Dua",
        "Post_Office": "Melaka",
        "State": "Melaka"
    },
    {
        "Postcode": "75200",
        "Location": "Kampung 9 Off Jalan Tengkera",
        "Post_Office": "Melaka",
        "State": "Melaka"
    },
    {
        "Postcode": "75200",
        "Location": "Kampung Balik Buloh",
        "Post_Office": "Melaka",
        "State": "Melaka"
    },
    {
        "Postcode": "75200",
        "Location": "Kampung Dua",
        "Post_Office": "Melaka",
        "State": "Melaka"
    },
    {
        "Postcode": "75200",
        "Location": "Kampung Dua (Kubu)",
        "Post_Office": "Melaka",
        "State": "Melaka"
    },
    {
        "Postcode": "75200",
        "Location": "Kampung Hulu",
        "Post_Office": "Melaka",
        "State": "Melaka"
    },
    {
        "Postcode": "75200",
        "Location": "Kampung Kesidang",
        "Post_Office": "Melaka",
        "State": "Melaka"
    },
    {
        "Postcode": "75200",
        "Location": "Kampung Lapan (Tengkera)",
        "Post_Office": "Melaka",
        "State": "Melaka"
    },
    {
        "Postcode": "75200",
        "Location": "Kampung Pantai",
        "Post_Office": "Melaka",
        "State": "Melaka"
    },
    {
        "Postcode": "75200",
        "Location": "Kampung Pulau Gadong",
        "Post_Office": "Melaka",
        "State": "Melaka"
    },
    {
        "Postcode": "75200",
        "Location": "Kampung Sembilan (Tengkera)",
        "Post_Office": "Melaka",
        "State": "Melaka"
    },
    {
        "Postcode": "75200",
        "Location": "Kampung Tengah (Klebang Besar)",
        "Post_Office": "Melaka",
        "State": "Melaka"
    },
    {
        "Postcode": "75200",
        "Location": "Kampung Tengkera",
        "Post_Office": "Melaka",
        "State": "Melaka"
    },
    {
        "Postcode": "75200",
        "Location": "Kampung Tiga Kubu",
        "Post_Office": "Melaka",
        "State": "Melaka"
    },
    {
        "Postcode": "75200",
        "Location": "Kampung Tujuh (Gajah Berang)",
        "Post_Office": "Melaka",
        "State": "Melaka"
    },
    {
        "Postcode": "75200",
        "Location": "Klebang Besar",
        "Post_Office": "Melaka",
        "State": "Melaka"
    },
    {
        "Postcode": "75200",
        "Location": "Kondo Kesidang Emas",
        "Post_Office": "Melaka",
        "State": "Melaka"
    },
    {
        "Postcode": "75200",
        "Location": "Kondo Siantan Puri",
        "Post_Office": "Melaka",
        "State": "Melaka"
    },
    {
        "Postcode": "75200",
        "Location": "Kondominium Klebang Delima",
        "Post_Office": "Melaka",
        "State": "Melaka"
    },
    {
        "Postcode": "75200",
        "Location": "Lagenda Kondominium",
        "Post_Office": "Melaka",
        "State": "Melaka"
    },
    {
        "Postcode": "75200",
        "Location": "Lorong Dtk Manila",
        "Post_Office": "Melaka",
        "State": "Melaka"
    },
    {
        "Postcode": "75200",
        "Location": "Lorong Hang Jebat",
        "Post_Office": "Melaka",
        "State": "Melaka"
    },
    {
        "Postcode": "75200",
        "Location": "Lorong Jembatan",
        "Post_Office": "Melaka",
        "State": "Melaka"
    },
    {
        "Postcode": "75200",
        "Location": "Lorong Kapitan",
        "Post_Office": "Melaka",
        "State": "Melaka"
    },
    {
        "Postcode": "75200",
        "Location": "Lorong Kesang",
        "Post_Office": "Melaka",
        "State": "Melaka"
    },
    {
        "Postcode": "75200",
        "Location": "Lorong Mariappan",
        "Post_Office": "Melaka",
        "State": "Melaka"
    },
    {
        "Postcode": "75200",
        "Location": "Lorong Meringgu",
        "Post_Office": "Melaka",
        "State": "Melaka"
    },
    {
        "Postcode": "75200",
        "Location": "Lorong Pak Itam",
        "Post_Office": "Melaka",
        "State": "Melaka"
    },
    {
        "Postcode": "75200",
        "Location": "Lorong Taman Kota Laksamana",
        "Post_Office": "Melaka",
        "State": "Melaka"
    },
    {
        "Postcode": "75200",
        "Location": "Pangsapuri Kesidang",
        "Post_Office": "Melaka",
        "State": "Melaka"
    },
    {
        "Postcode": "75200",
        "Location": "Pangsapuri Kota Laksamana",
        "Post_Office": "Melaka",
        "State": "Melaka"
    },
    {
        "Postcode": "75200",
        "Location": "Pangsapuri Kota Laksamana Utama",
        "Post_Office": "Melaka",
        "State": "Melaka"
    },
    {
        "Postcode": "75200",
        "Location": "Pangsapuri Pandan Wangi",
        "Post_Office": "Melaka",
        "State": "Melaka"
    },
    {
        "Postcode": "75200",
        "Location": "Park View Court",
        "Post_Office": "Melaka",
        "State": "Melaka"
    },
    {
        "Postcode": "75200",
        "Location": "Pekan Pokok Mangga",
        "Post_Office": "Melaka",
        "State": "Melaka"
    },
    {
        "Postcode": "75200",
        "Location": "Plaza Kesidang",
        "Post_Office": "Melaka",
        "State": "Melaka"
    },
    {
        "Postcode": "75200",
        "Location": "Pulau Gadong",
        "Post_Office": "Melaka",
        "State": "Melaka"
    },
    {
        "Postcode": "75200",
        "Location": "Rumah Awam Pulau Gadong",
        "Post_Office": "Melaka",
        "State": "Melaka"
    },
    {
        "Postcode": "75200",
        "Location": "Rumah Awam Pulau Gadong 2",
        "Post_Office": "Melaka",
        "State": "Melaka"
    },
    {
        "Postcode": "75200",
        "Location": "Rumah Pangsa Jalan Kenanga",
        "Post_Office": "Melaka",
        "State": "Melaka"
    },
    {
        "Postcode": "75200",
        "Location": "Rumah Pangsa Jasa",
        "Post_Office": "Melaka",
        "State": "Melaka"
    },
    {
        "Postcode": "75200",
        "Location": "Rumah Pangsa Kampung 8",
        "Post_Office": "Melaka",
        "State": "Melaka"
    },
    {
        "Postcode": "75200",
        "Location": "Rumah Pangsa Kesidang Indah",
        "Post_Office": "Melaka",
        "State": "Melaka"
    },
    {
        "Postcode": "75200",
        "Location": "Solok Kampung Baru",
        "Post_Office": "Melaka",
        "State": "Melaka"
    },
    {
        "Postcode": "75200",
        "Location": "Taman Abdul Ghafar",
        "Post_Office": "Melaka",
        "State": "Melaka"
    },
    {
        "Postcode": "75200",
        "Location": "Taman Aunler",
        "Post_Office": "Melaka",
        "State": "Melaka"
    },
    {
        "Postcode": "75200",
        "Location": "Taman Bagus",
        "Post_Office": "Melaka",
        "State": "Melaka"
    },
    {
        "Postcode": "75200",
        "Location": "Taman Gadong Perdana",
        "Post_Office": "Melaka",
        "State": "Melaka"
    },
    {
        "Postcode": "75200",
        "Location": "Taman Gembira",
        "Post_Office": "Melaka",
        "State": "Melaka"
    },
    {
        "Postcode": "75200",
        "Location": "Taman Kagum",
        "Post_Office": "Melaka",
        "State": "Melaka"
    },
    {
        "Postcode": "75200",
        "Location": "Taman Kenanga (Seksyen 1)",
        "Post_Office": "Melaka",
        "State": "Melaka"
    },
    {
        "Postcode": "75200",
        "Location": "Taman Kenanga (Seksyen 2)",
        "Post_Office": "Melaka",
        "State": "Melaka"
    },
    {
        "Postcode": "75200",
        "Location": "Taman Kenanga (Seksyen 3)",
        "Post_Office": "Melaka",
        "State": "Melaka"
    },
    {
        "Postcode": "75200",
        "Location": "Taman Kesidang",
        "Post_Office": "Melaka",
        "State": "Melaka"
    },
    {
        "Postcode": "75200",
        "Location": "Taman Kesidang Indah",
        "Post_Office": "Melaka",
        "State": "Melaka"
    },
    {
        "Postcode": "75200",
        "Location": "Taman Klebang Besar",
        "Post_Office": "Melaka",
        "State": "Melaka"
    },
    {
        "Postcode": "75200",
        "Location": "Taman Klebang Jaya",
        "Post_Office": "Melaka",
        "State": "Melaka"
    },
    {
        "Postcode": "75200",
        "Location": "Taman Klebang Kecil",
        "Post_Office": "Melaka",
        "State": "Melaka"
    },
    {
        "Postcode": "75200",
        "Location": "Taman Klebang Permai",
        "Post_Office": "Melaka",
        "State": "Melaka"
    },
    {
        "Postcode": "75200",
        "Location": "Taman Kota Laksamana",
        "Post_Office": "Melaka",
        "State": "Melaka"
    },
    {
        "Postcode": "75200",
        "Location": "Taman Kota Laksamana Seksyen 3",
        "Post_Office": "Melaka",
        "State": "Melaka"
    },
    {
        "Postcode": "75200",
        "Location": "Taman Limbongan Indah",
        "Post_Office": "Melaka",
        "State": "Melaka"
    },
    {
        "Postcode": "75200",
        "Location": "Taman Limbongan Permai",
        "Post_Office": "Melaka",
        "State": "Melaka"
    },
    {
        "Postcode": "75200",
        "Location": "Taman Mandarin Court",
        "Post_Office": "Melaka",
        "State": "Melaka"
    },
    {
        "Postcode": "75200",
        "Location": "Taman Mayfair",
        "Post_Office": "Melaka",
        "State": "Melaka"
    },
    {
        "Postcode": "75200",
        "Location": "Taman Melati",
        "Post_Office": "Melaka",
        "State": "Melaka"
    },
    {
        "Postcode": "75200",
        "Location": "Taman Ming Hock",
        "Post_Office": "Melaka",
        "State": "Melaka"
    },
    {
        "Postcode": "75200",
        "Location": "Taman Muhibah",
        "Post_Office": "Melaka",
        "State": "Melaka"
    },
    {
        "Postcode": "75200",
        "Location": "Taman Orkid",
        "Post_Office": "Melaka",
        "State": "Melaka"
    },
    {
        "Postcode": "75200",
        "Location": "Taman Pantai Emas",
        "Post_Office": "Melaka",
        "State": "Melaka"
    },
    {
        "Postcode": "75200",
        "Location": "Taman Pasir Emas",
        "Post_Office": "Melaka",
        "State": "Melaka"
    },
    {
        "Postcode": "75200",
        "Location": "Taman Pulau Gadong",
        "Post_Office": "Melaka",
        "State": "Melaka"
    },
    {
        "Postcode": "75200",
        "Location": "Taman Pulau Gadong Jaya",
        "Post_Office": "Melaka",
        "State": "Melaka"
    },
    {
        "Postcode": "75200",
        "Location": "Taman Purnama",
        "Post_Office": "Melaka",
        "State": "Melaka"
    },
    {
        "Postcode": "75200",
        "Location": "Taman Puspa",
        "Post_Office": "Melaka",
        "State": "Melaka"
    },
    {
        "Postcode": "75200",
        "Location": "Taman Sayang Selasih",
        "Post_Office": "Melaka",
        "State": "Melaka"
    },
    {
        "Postcode": "75200",
        "Location": "Taman Seri Bacang",
        "Post_Office": "Melaka",
        "State": "Melaka"
    },
    {
        "Postcode": "75200",
        "Location": "Taman Seri Bancang (Flat)",
        "Post_Office": "Melaka",
        "State": "Melaka"
    },
    {
        "Postcode": "75200",
        "Location": "Taman Seri Bayu (Jalan Kesidang)",
        "Post_Office": "Melaka",
        "State": "Melaka"
    },
    {
        "Postcode": "75200",
        "Location": "Taman Seri Indah",
        "Post_Office": "Melaka",
        "State": "Melaka"
    },
    {
        "Postcode": "75200",
        "Location": "Taman Seri Putra",
        "Post_Office": "Melaka",
        "State": "Melaka"
    },
    {
        "Postcode": "75200",
        "Location": "Taman Seroja",
        "Post_Office": "Melaka",
        "State": "Melaka"
    },
    {
        "Postcode": "75200",
        "Location": "Taman Setia",
        "Post_Office": "Melaka",
        "State": "Melaka"
    },
    {
        "Postcode": "75200",
        "Location": "Taman Siantan",
        "Post_Office": "Melaka",
        "State": "Melaka"
    },
    {
        "Postcode": "75200",
        "Location": "Taman Sri Bayu",
        "Post_Office": "Melaka",
        "State": "Melaka"
    },
    {
        "Postcode": "75200",
        "Location": "Taman Tay Boon Seng",
        "Post_Office": "Melaka",
        "State": "Melaka"
    },
    {
        "Postcode": "75200",
        "Location": "Taman Tengkera",
        "Post_Office": "Melaka",
        "State": "Melaka"
    },
    {
        "Postcode": "75200",
        "Location": "Taman Tengkera Indah",
        "Post_Office": "Melaka",
        "State": "Melaka"
    },
    {
        "Postcode": "75200",
        "Location": "Taman Tengkera Jaya",
        "Post_Office": "Melaka",
        "State": "Melaka"
    },
    {
        "Postcode": "75200",
        "Location": "Taman Union",
        "Post_Office": "Melaka",
        "State": "Melaka"
    },
    {
        "Postcode": "75200",
        "Location": "Taman Usrah Jaya",
        "Post_Office": "Melaka",
        "State": "Melaka"
    },
    {
        "Postcode": "75200",
        "Location": "Tan Teek Chye Avenue",
        "Post_Office": "Melaka",
        "State": "Melaka"
    },
    {
        "Postcode": "75200",
        "Location": "Jalan Masjid",
        "Post_Office": "Melaka",
        "State": "Melaka"
    },
    {
        "Postcode": "75200",
        "Location": "Lorong Masjid",
        "Post_Office": "Melaka",
        "State": "Melaka"
    },
    {
        "Postcode": "75200",
        "Location": "Melaka Mall",
        "Post_Office": "Melaka",
        "State": "Melaka"
    },
    {
        "Postcode": "75200",
        "Location": "Taman Anggerik",
        "Post_Office": "Melaka",
        "State": "Melaka"
    },
    {
        "Postcode": "75200",
        "Location": "Taman Setia Jaya",
        "Post_Office": "Melaka",
        "State": "Melaka"
    },
    {
        "Postcode": "75200",
        "Location": "Taman Mawar",
        "Post_Office": "Melaka",
        "State": "Melaka"
    },
    {
        "Postcode": "75200",
        "Location": "Taman Seri Pandan",
        "Post_Office": "Melaka",
        "State": "Melaka"
    },
    {
        "Postcode": "75200",
        "Location": "Flat Kenanga Seksyen 3",
        "Post_Office": "Melaka",
        "State": "Melaka"
    },
    {
        "Postcode": "75200",
        "Location": "Kampung Bahagia",
        "Post_Office": "Melaka",
        "State": "Melaka"
    },
    {
        "Postcode": "75200",
        "Location": "Kampung Batak",
        "Post_Office": "Melaka",
        "State": "Melaka"
    },
    {
        "Postcode": "75200",
        "Location": "Taman Cempaka",
        "Post_Office": "Melaka",
        "State": "Melaka"
    },
    {
        "Postcode": "75200",
        "Location": "Taman Gadong Bahagia",
        "Post_Office": "Melaka",
        "State": "Melaka"
    },
    {
        "Postcode": "75200",
        "Location": "Taman Seri Siantan",
        "Post_Office": "Melaka",
        "State": "Melaka"
    },
    {
        "Postcode": "75200",
        "Location": "Taman Siantan Seksyen 2",
        "Post_Office": "Melaka",
        "State": "Melaka"
    },
    {
        "Postcode": "75200",
        "Location": "Taman Kota Laksamana Jaya",
        "Post_Office": "Melaka",
        "State": "Melaka"
    },
    {
        "Postcode": "75200",
        "Location": "Laman Kenanga",
        "Post_Office": "Melaka",
        "State": "Melaka"
    },
    {
        "Postcode": "75200",
        "Location": "Taman Gadong Indah",
        "Post_Office": "Melaka",
        "State": "Melaka"
    },
    {
        "Postcode": "75200",
        "Location": "Jalan Baiduri 1",
        "Post_Office": "Melaka",
        "State": "Melaka"
    },
    {
        "Postcode": "75200",
        "Location": "Kompleks Perniagaan Kota Syahbandar",
        "Post_Office": "Melaka",
        "State": "Melaka"
    },
    {
        "Postcode": "75200",
        "Location": "Taman Kota Bendahari",
        "Post_Office": "Melaka",
        "State": "Melaka"
    },
    {
        "Postcode": "75200",
        "Location": "Jalan Ksb 11",
        "Post_Office": "Melaka",
        "State": "Melaka"
    },
    {
        "Postcode": "75200",
        "Location": "Jalan Ksb 11A",
        "Post_Office": "Melaka",
        "State": "Melaka"
    },
    {
        "Postcode": "75200",
        "Location": "Straits Courtyard",
        "Post_Office": "Melaka",
        "State": "Melaka"
    },
    {
        "Postcode": "75200",
        "Location": "Taman Gadong Murni",
        "Post_Office": "Melaka",
        "State": "Melaka"
    },
    {
        "Postcode": "75200",
        "Location": "Taman Kesidang Seksyen 3",
        "Post_Office": "Melaka",
        "State": "Melaka"
    },
    {
        "Postcode": "75200",
        "Location": "Kampung Klebang Kecil",
        "Post_Office": "Melaka",
        "State": "Melaka"
    },
    {
        "Postcode": "75200",
        "Location": "Kampung Lapan (Bachang)",
        "Post_Office": "Melaka",
        "State": "Melaka"
    },
    {
        "Postcode": "75200",
        "Location": "Kampung Lima (Gajah Berang)",
        "Post_Office": "Melaka",
        "State": "Melaka"
    },
    {
        "Postcode": "75200",
        "Location": "Kampung Limbongan",
        "Post_Office": "Melaka",
        "State": "Melaka"
    },
    {
        "Postcode": "75200",
        "Location": "Jalan Kampung Hulu",
        "Post_Office": "Melaka",
        "State": "Melaka"
    },
    {
        "Postcode": "75200",
        "Location": "Jalan Meranti 2",
        "Post_Office": "Melaka",
        "State": "Melaka"
    },
    {
        "Postcode": "75200",
        "Location": "Jalan Meranti 3",
        "Post_Office": "Melaka",
        "State": "Melaka"
    },
    {
        "Postcode": "75200",
        "Location": "Jalan Meranti 4",
        "Post_Office": "Melaka",
        "State": "Melaka"
    },
    {
        "Postcode": "75200",
        "Location": "Jalan Meranti 5",
        "Post_Office": "Melaka",
        "State": "Melaka"
    },
    {
        "Postcode": "75200",
        "Location": "Jalan Pulau Gadong 1",
        "Post_Office": "Melaka",
        "State": "Melaka"
    },
    {
        "Postcode": "75200",
        "Location": "Jalan Pulau Gadong 2",
        "Post_Office": "Melaka",
        "State": "Melaka"
    },
    {
        "Postcode": "75200",
        "Location": "Jalan Pulau Gadong 3",
        "Post_Office": "Melaka",
        "State": "Melaka"
    },
    {
        "Postcode": "75200",
        "Location": "Jalan Pulau Gadong 4",
        "Post_Office": "Melaka",
        "State": "Melaka"
    },
    {
        "Postcode": "75200",
        "Location": "Jalan Pulau Gadong 5",
        "Post_Office": "Melaka",
        "State": "Melaka"
    },
    {
        "Postcode": "75200",
        "Location": "Jalan Pulau Gadong 6",
        "Post_Office": "Melaka",
        "State": "Melaka"
    },
    {
        "Postcode": "75200",
        "Location": "Jalan Pulau Gadong 7",
        "Post_Office": "Melaka",
        "State": "Melaka"
    },
    {
        "Postcode": "75200",
        "Location": "Jalan Pulau Gadong 8",
        "Post_Office": "Melaka",
        "State": "Melaka"
    },
    {
        "Postcode": "75200",
        "Location": "Jalan Tengkera Pantai 1",
        "Post_Office": "Melaka",
        "State": "Melaka"
    },
    {
        "Postcode": "75200",
        "Location": "Jalan Tengkera Pantai 2",
        "Post_Office": "Melaka",
        "State": "Melaka"
    },
    {
        "Postcode": "75200",
        "Location": "Lorong Batak 1",
        "Post_Office": "Melaka",
        "State": "Melaka"
    },
    {
        "Postcode": "75200",
        "Location": "Lorong Batak 2",
        "Post_Office": "Melaka",
        "State": "Melaka"
    },
    {
        "Postcode": "75200",
        "Location": "Lorong Pokok Mangga 1",
        "Post_Office": "Melaka",
        "State": "Melaka"
    },
    {
        "Postcode": "75200",
        "Location": "Lorong Pokok Mangga 2",
        "Post_Office": "Melaka",
        "State": "Melaka"
    },
    {
        "Postcode": "75200",
        "Location": "Lorong Pokok Mangga 3",
        "Post_Office": "Melaka",
        "State": "Melaka"
    },
    {
        "Postcode": "75200",
        "Location": "Taman Kesidang Seksyen 1",
        "Post_Office": "Melaka",
        "State": "Melaka"
    },
    {
        "Postcode": "75200",
        "Location": "Taman Kesidang Seksyen 2",
        "Post_Office": "Melaka",
        "State": "Melaka"
    },
    {
        "Postcode": "75200",
        "Location": "Taman Kota Laksamana Seksyen 1",
        "Post_Office": "Melaka",
        "State": "Melaka"
    },
    {
        "Postcode": "75200",
        "Location": "Taman Kota Laksamana Seksyen 2",
        "Post_Office": "Melaka",
        "State": "Melaka"
    },
    {
        "Postcode": "75200",
        "Location": "Taman Kota Syahbandar",
        "Post_Office": "Melaka",
        "State": "Melaka"
    },
    {
        "Postcode": "75200",
        "Location": "Taman Limbongan Jaya",
        "Post_Office": "Melaka",
        "State": "Melaka"
    },
    {
        "Postcode": "75200",
        "Location": "Taman Seri Pulau Gadong",
        "Post_Office": "Melaka",
        "State": "Melaka"
    },
    {
        "Postcode": "75200",
        "Location": "Impression City",
        "Post_Office": "Melaka",
        "State": "Melaka"
    },
    {
        "Postcode": "75200",
        "Location": "Admiral Residences",
        "Post_Office": "Melaka",
        "State": "Melaka"
    },
    {
        "Postcode": "75200",
        "Location": "Residensi Pr1Ma Klebang 1",
        "Post_Office": "Melaka",
        "State": "Melaka"
    },
    {
        "Postcode": "75200",
        "Location": "Jalan Jentayu 1",
        "Post_Office": "Melaka",
        "State": "Melaka"
    }
]
