[
    {
        "Postcode": "75250",
        "Location": "Balai Panjang",
        "Post_Office": "Melaka",
        "State": "Melaka"
    },
    {
        "Postcode": "75250",
        "Location": "Blok Anggerik Malim Jaya",
        "Post_Office": "Melaka",
        "State": "Melaka"
    },
    {
        "Postcode": "75250",
        "Location": "Blok Bunga Raya",
        "Post_Office": "Melaka",
        "State": "Melaka"
    },
    {
        "Postcode": "75250",
        "Location": "Blok Orkid",
        "Post_Office": "Melaka",
        "State": "Melaka"
    },
    {
        "Postcode": "75250",
        "Location": "Dewan Badminton Seri Pandan",
        "Post_Office": "Melaka",
        "State": "Melaka"
    },
    {
        "Postcode": "75250",
        "Location": "Flat Taman Asean",
        "Post_Office": "Melaka",
        "State": "Melaka"
    },
    {
        "Postcode": "75250",
        "Location": "Imj Malim Jaya",
        "Post_Office": "Melaka",
        "State": "Melaka"
    },
    {
        "Postcode": "75250",
        "Location": "Jalan Abadi",
        "Post_Office": "Melaka",
        "State": "Melaka"
    },
    {
        "Postcode": "75250",
        "Location": "Jalan Balai Panjang (Hingga Batu 3)",
        "Post_Office": "Melaka",
        "State": "Melaka"
    },
    {
        "Postcode": "75250",
        "Location": "Jalan Dahlia",
        "Post_Office": "Melaka",
        "State": "Melaka"
    },
    {
        "Postcode": "75250",
        "Location": "Jalan Kampung Padang",
        "Post_Office": "Melaka",
        "State": "Melaka"
    },
    {
        "Postcode": "75250",
        "Location": "Jalan Malim Jaya",
        "Post_Office": "Melaka",
        "State": "Melaka"
    },
    {
        "Postcode": "75250",
        "Location": "Jalan Murni",
        "Post_Office": "Melaka",
        "State": "Melaka"
    },
    {
        "Postcode": "75250",
        "Location": "Jalan Pokok Mangga",
        "Post_Office": "Melaka",
        "State": "Melaka"
    },
    {
        "Postcode": "75250",
        "Location": "Jalan Suria",
        "Post_Office": "Melaka",
        "State": "Melaka"
    },
    {
        "Postcode": "75250",
        "Location": "Kampung Balai Panjang",
        "Post_Office": "Melaka",
        "State": "Melaka"
    },
    {
        "Postcode": "75250",
        "Location": "Kampung Baruh (Bachang)",
        "Post_Office": "Melaka",
        "State": "Melaka"
    },
    {
        "Postcode": "75250",
        "Location": "Kawasan Perindustrian Malim Jaya",
        "Post_Office": "Melaka",
        "State": "Melaka"
    },
    {
        "Postcode": "75250",
        "Location": "Lorong Pandan",
        "Post_Office": "Melaka",
        "State": "Melaka"
    },
    {
        "Postcode": "75250",
        "Location": "Pandan Indah",
        "Post_Office": "Melaka",
        "State": "Melaka"
    },
    {
        "Postcode": "75250",
        "Location": "Pandan Point",
        "Post_Office": "Melaka",
        "State": "Melaka"
    },
    {
        "Postcode": "75250",
        "Location": "Pangsapuri Malim",
        "Post_Office": "Melaka",
        "State": "Melaka"
    },
    {
        "Postcode": "75250",
        "Location": "Pangsapuri Puteri Kesidang",
        "Post_Office": "Melaka",
        "State": "Melaka"
    },
    {
        "Postcode": "75250",
        "Location": "Plaza Pandan Malim",
        "Post_Office": "Melaka",
        "State": "Melaka"
    },
    {
        "Postcode": "75250",
        "Location": "Plaza Pandan Perdana",
        "Post_Office": "Melaka",
        "State": "Melaka"
    },
    {
        "Postcode": "75250",
        "Location": "Rumah Pangsa Pandan Indah",
        "Post_Office": "Melaka",
        "State": "Melaka"
    },
    {
        "Postcode": "75250",
        "Location": "Rumah Pangsa Pandan Malim",
        "Post_Office": "Melaka",
        "State": "Melaka"
    },
    {
        "Postcode": "75250",
        "Location": "Solok Baroh Balai Panjang",
        "Post_Office": "Melaka",
        "State": "Melaka"
    },
    {
        "Postcode": "75250",
        "Location": "Taman Anika",
        "Post_Office": "Melaka",
        "State": "Melaka"
    },
    {
        "Postcode": "75250",
        "Location": "Taman Asean",
        "Post_Office": "Melaka",
        "State": "Melaka"
    },
    {
        "Postcode": "75250",
        "Location": "Taman Malim Jaya",
        "Post_Office": "Melaka",
        "State": "Melaka"
    },
    {
        "Postcode": "75250",
        "Location": "Taman Malim Jaya Seksyen 1",
        "Post_Office": "Melaka",
        "State": "Melaka"
    },
    {
        "Postcode": "75250",
        "Location": "Taman Malim Jaya, Hang Tuah Jaya",
        "Post_Office": "Melaka",
        "State": "Melaka"
    },
    {
        "Postcode": "75250",
        "Location": "Taman Malim Permai, Hang Tuah Jaya",
        "Post_Office": "Melaka",
        "State": "Melaka"
    },
    {
        "Postcode": "75250",
        "Location": "Taman Pandan Indah",
        "Post_Office": "Melaka",
        "State": "Melaka"
    },
    {
        "Postcode": "75250",
        "Location": "Taman Pandan Jaya",
        "Post_Office": "Melaka",
        "State": "Melaka"
    },
    {
        "Postcode": "75250",
        "Location": "Taman Pandan Maju",
        "Post_Office": "Melaka",
        "State": "Melaka"
    },
    {
        "Postcode": "75250",
        "Location": "Taman Pandan Malim",
        "Post_Office": "Melaka",
        "State": "Melaka"
    },
    {
        "Postcode": "75250",
        "Location": "Taman Pandan Mawar",
        "Post_Office": "Melaka",
        "State": "Melaka"
    },
    {
        "Postcode": "75250",
        "Location": "Taman Pandan Perdana",
        "Post_Office": "Melaka",
        "State": "Melaka"
    },
    {
        "Postcode": "75250",
        "Location": "Taman Seri Mangga",
        "Post_Office": "Melaka",
        "State": "Melaka"
    },
    {
        "Postcode": "75250",
        "Location": "Taman Tisah",
        "Post_Office": "Melaka",
        "State": "Melaka"
    },
    {
        "Postcode": "75250",
        "Location": "Jalan Malim",
        "Post_Office": "Melaka",
        "State": "Melaka"
    },
    {
        "Postcode": "75250",
        "Location": "Taman Mutiara",
        "Post_Office": "Melaka",
        "State": "Melaka"
    },
    {
        "Postcode": "75250",
        "Location": "Taman Seri Pandan",
        "Post_Office": "Melaka",
        "State": "Melaka"
    },
    {
        "Postcode": "75250",
        "Location": "Jalan Berkat",
        "Post_Office": "Melaka",
        "State": "Melaka"
    },
    {
        "Postcode": "75250",
        "Location": "Jalan Rahmat",
        "Post_Office": "Melaka",
        "State": "Melaka"
    },
    {
        "Postcode": "75250",
        "Location": "Kampung Padang",
        "Post_Office": "Melaka",
        "State": "Melaka"
    },
    {
        "Postcode": "75250",
        "Location": "Taman Balai Panjang Murni",
        "Post_Office": "Melaka",
        "State": "Melaka"
    },
    {
        "Postcode": "75250",
        "Location": "Taman Gadong Bahagia",
        "Post_Office": "Melaka",
        "State": "Melaka"
    },
    {
        "Postcode": "75250",
        "Location": "Pusat Perniagaan Malim Permai",
        "Post_Office": "Melaka",
        "State": "Melaka"
    },
    {
        "Postcode": "75250",
        "Location": "Jalan Abadi 1",
        "Post_Office": "Melaka",
        "State": "Melaka"
    },
    {
        "Postcode": "75250",
        "Location": "Jalan Abadi 10",
        "Post_Office": "Melaka",
        "State": "Melaka"
    },
    {
        "Postcode": "75250",
        "Location": "Jalan Abadi 11",
        "Post_Office": "Melaka",
        "State": "Melaka"
    },
    {
        "Postcode": "75250",
        "Location": "Jalan Abadi 12",
        "Post_Office": "Melaka",
        "State": "Melaka"
    },
    {
        "Postcode": "75250",
        "Location": "Jalan Abadi 13",
        "Post_Office": "Melaka",
        "State": "Melaka"
    },
    {
        "Postcode": "75250",
        "Location": "Jalan Abadi 14",
        "Post_Office": "Melaka",
        "State": "Melaka"
    },
    {
        "Postcode": "75250",
        "Location": "Jalan Abadi 15",
        "Post_Office": "Melaka",
        "State": "Melaka"
    },
    {
        "Postcode": "75250",
        "Location": "Jalan Abadi 16",
        "Post_Office": "Melaka",
        "State": "Melaka"
    },
    {
        "Postcode": "75250",
        "Location": "Jalan Abadi 17",
        "Post_Office": "Melaka",
        "State": "Melaka"
    },
    {
        "Postcode": "75250",
        "Location": "Jalan Abadi 18",
        "Post_Office": "Melaka",
        "State": "Melaka"
    },
    {
        "Postcode": "75250",
        "Location": "Jalan Abadi 19",
        "Post_Office": "Melaka",
        "State": "Melaka"
    },
    {
        "Postcode": "75250",
        "Location": "Jalan Abadi 2",
        "Post_Office": "Melaka",
        "State": "Melaka"
    },
    {
        "Postcode": "75250",
        "Location": "Jalan Abadi 20",
        "Post_Office": "Melaka",
        "State": "Melaka"
    },
    {
        "Postcode": "75250",
        "Location": "Jalan Abadi 21",
        "Post_Office": "Melaka",
        "State": "Melaka"
    },
    {
        "Postcode": "75250",
        "Location": "Jalan Abadi 22",
        "Post_Office": "Melaka",
        "State": "Melaka"
    },
    {
        "Postcode": "75250",
        "Location": "Jalan Abadi 23",
        "Post_Office": "Melaka",
        "State": "Melaka"
    },
    {
        "Postcode": "75250",
        "Location": "Jalan Abadi 24",
        "Post_Office": "Melaka",
        "State": "Melaka"
    },
    {
        "Postcode": "75250",
        "Location": "Jalan Abadi 25",
        "Post_Office": "Melaka",
        "State": "Melaka"
    },
    {
        "Postcode": "75250",
        "Location": "Jalan Abadi 26",
        "Post_Office": "Melaka",
        "State": "Melaka"
    },
    {
        "Postcode": "75250",
        "Location": "Jalan Abadi 3",
        "Post_Office": "Melaka",
        "State": "Melaka"
    },
    {
        "Postcode": "75250",
        "Location": "Jalan Abadi 4",
        "Post_Office": "Melaka",
        "State": "Melaka"
    },
    {
        "Postcode": "75250",
        "Location": "Jalan Abadi 5",
        "Post_Office": "Melaka",
        "State": "Melaka"
    },
    {
        "Postcode": "75250",
        "Location": "Jalan Abadi 6",
        "Post_Office": "Melaka",
        "State": "Melaka"
    },
    {
        "Postcode": "75250",
        "Location": "Jalan Abadi 7",
        "Post_Office": "Melaka",
        "State": "Melaka"
    },
    {
        "Postcode": "75250",
        "Location": "Jalan Abadi 8",
        "Post_Office": "Melaka",
        "State": "Melaka"
    },
    {
        "Postcode": "75250",
        "Location": "Jalan Abadi 9",
        "Post_Office": "Melaka",
        "State": "Melaka"
    },
    {
        "Postcode": "75250",
        "Location": "Jalan Murni 10",
        "Post_Office": "Melaka",
        "State": "Melaka"
    },
    {
        "Postcode": "75250",
        "Location": "Jalan Murni 11",
        "Post_Office": "Melaka",
        "State": "Melaka"
    },
    {
        "Postcode": "75250",
        "Location": "Jalan Murni 12",
        "Post_Office": "Melaka",
        "State": "Melaka"
    },
    {
        "Postcode": "75250",
        "Location": "Jalan Murni 13",
        "Post_Office": "Melaka",
        "State": "Melaka"
    },
    {
        "Postcode": "75250",
        "Location": "Jalan Murni 14",
        "Post_Office": "Melaka",
        "State": "Melaka"
    },
    {
        "Postcode": "75250",
        "Location": "Jalan Murni 15",
        "Post_Office": "Melaka",
        "State": "Melaka"
    },
    {
        "Postcode": "75250",
        "Location": "Jalan Murni 16",
        "Post_Office": "Melaka",
        "State": "Melaka"
    },
    {
        "Postcode": "75250",
        "Location": "Jalan Murni 17",
        "Post_Office": "Melaka",
        "State": "Melaka"
    },
    {
        "Postcode": "75250",
        "Location": "Jalan Murni 5",
        "Post_Office": "Melaka",
        "State": "Melaka"
    },
    {
        "Postcode": "75250",
        "Location": "Jalan Murni 6",
        "Post_Office": "Melaka",
        "State": "Melaka"
    },
    {
        "Postcode": "75250",
        "Location": "Jalan Murni 7",
        "Post_Office": "Melaka",
        "State": "Melaka"
    },
    {
        "Postcode": "75250",
        "Location": "Jalan Murni 8",
        "Post_Office": "Melaka",
        "State": "Melaka"
    },
    {
        "Postcode": "75250",
        "Location": "Jalan Murni 9",
        "Post_Office": "Melaka",
        "State": "Melaka"
    },
    {
        "Postcode": "75250",
        "Location": "Jalan Zahir 1",
        "Post_Office": "Melaka",
        "State": "Melaka"
    },
    {
        "Postcode": "75250",
        "Location": "Jalan Zahir 10",
        "Post_Office": "Melaka",
        "State": "Melaka"
    },
    {
        "Postcode": "75250",
        "Location": "Jalan Zahir 11",
        "Post_Office": "Melaka",
        "State": "Melaka"
    },
    {
        "Postcode": "75250",
        "Location": "Jalan Zahir 12",
        "Post_Office": "Melaka",
        "State": "Melaka"
    },
    {
        "Postcode": "75250",
        "Location": "Jalan Zahir 13",
        "Post_Office": "Melaka",
        "State": "Melaka"
    },
    {
        "Postcode": "75250",
        "Location": "Jalan Zahir 14",
        "Post_Office": "Melaka",
        "State": "Melaka"
    },
    {
        "Postcode": "75250",
        "Location": "Jalan Zahir 15",
        "Post_Office": "Melaka",
        "State": "Melaka"
    },
    {
        "Postcode": "75250",
        "Location": "Jalan Zahir 16",
        "Post_Office": "Melaka",
        "State": "Melaka"
    },
    {
        "Postcode": "75250",
        "Location": "Jalan Zahir 17",
        "Post_Office": "Melaka",
        "State": "Melaka"
    },
    {
        "Postcode": "75250",
        "Location": "Jalan Zahir 18",
        "Post_Office": "Melaka",
        "State": "Melaka"
    },
    {
        "Postcode": "75250",
        "Location": "Jalan Zahir 19",
        "Post_Office": "Melaka",
        "State": "Melaka"
    },
    {
        "Postcode": "75250",
        "Location": "Jalan Zahir 2",
        "Post_Office": "Melaka",
        "State": "Melaka"
    },
    {
        "Postcode": "75250",
        "Location": "Jalan Zahir 20",
        "Post_Office": "Melaka",
        "State": "Melaka"
    },
    {
        "Postcode": "75250",
        "Location": "Jalan Zahir 21",
        "Post_Office": "Melaka",
        "State": "Melaka"
    },
    {
        "Postcode": "75250",
        "Location": "Jalan Zahir 22",
        "Post_Office": "Melaka",
        "State": "Melaka"
    },
    {
        "Postcode": "75250",
        "Location": "Jalan Zahir 23",
        "Post_Office": "Melaka",
        "State": "Melaka"
    },
    {
        "Postcode": "75250",
        "Location": "Jalan Zahir 24",
        "Post_Office": "Melaka",
        "State": "Melaka"
    },
    {
        "Postcode": "75250",
        "Location": "Jalan Zahir 3",
        "Post_Office": "Melaka",
        "State": "Melaka"
    },
    {
        "Postcode": "75250",
        "Location": "Jalan Zahir 4",
        "Post_Office": "Melaka",
        "State": "Melaka"
    },
    {
        "Postcode": "75250",
        "Location": "Jalan Zahir 5",
        "Post_Office": "Melaka",
        "State": "Melaka"
    },
    {
        "Postcode": "75250",
        "Location": "Jalan Zahir 6",
        "Post_Office": "Melaka",
        "State": "Melaka"
    },
    {
        "Postcode": "75250",
        "Location": "Jalan Zahir 7",
        "Post_Office": "Melaka",
        "State": "Melaka"
    },
    {
        "Postcode": "75250",
        "Location": "Jalan Zahir 8",
        "Post_Office": "Melaka",
        "State": "Melaka"
    },
    {
        "Postcode": "75250",
        "Location": "Jalan Zahir 9",
        "Post_Office": "Melaka",
        "State": "Melaka"
    },
    {
        "Postcode": "75250",
        "Location": "Taman Iks Malim Jaya",
        "Post_Office": "Melaka",
        "State": "Melaka"
    },
    {
        "Postcode": "75250",
        "Location": "Taman Seri Mangga Seksyen 1",
        "Post_Office": "Melaka",
        "State": "Melaka"
    },
    {
        "Postcode": "75250",
        "Location": "Taman Seri Mangga Seksyen 2",
        "Post_Office": "Melaka",
        "State": "Melaka"
    },
    {
        "Postcode": "75250",
        "Location": "Taman Wangi",
        "Post_Office": "Melaka",
        "State": "Melaka"
    },
    {
        "Postcode": "75250",
        "Location": "Taman Pokok Mangga",
        "Post_Office": "Melaka",
        "State": "Melaka"
    }
]
