[
    {
        "Postcode": "75260",
        "Location": "Taman Tanjung Indah",
        "Post_Office": "Melaka",
        "State": "Melaka"
    },
    {
        "Postcode": "75260",
        "Location": "Ayer Salak",
        "Post_Office": "Melaka",
        "State": "Melaka"
    },
    {
        "Postcode": "75260",
        "Location": "Bukit Dato Ucho",
        "Post_Office": "Melaka",
        "State": "Melaka"
    },
    {
        "Postcode": "75260",
        "Location": "Cheng Baru",
        "Post_Office": "Melaka",
        "State": "Melaka"
    },
    {
        "Postcode": "75260",
        "Location": "Desa Cheng Perdana",
        "Post_Office": "Melaka",
        "State": "Melaka"
    },
    {
        "Postcode": "75260",
        "Location": "Desa Permai Cheng",
        "Post_Office": "Melaka",
        "State": "Melaka"
    },
    {
        "Postcode": "75260",
        "Location": "Emerald Court",
        "Post_Office": "Melaka",
        "State": "Melaka"
    },
    {
        "Postcode": "75260",
        "Location": "Flat Klinik Cheng",
        "Post_Office": "Melaka",
        "State": "Melaka"
    },
    {
        "Postcode": "75260",
        "Location": "Jalan Bukit Cheng",
        "Post_Office": "Melaka",
        "State": "Melaka"
    },
    {
        "Postcode": "75260",
        "Location": "Jalan Cheng",
        "Post_Office": "Melaka",
        "State": "Melaka"
    },
    {
        "Postcode": "75260",
        "Location": "Jalan Cheng Perdana",
        "Post_Office": "Melaka",
        "State": "Melaka"
    },
    {
        "Postcode": "75260",
        "Location": "Jalan Gaung Piring Bertam Malim",
        "Post_Office": "Melaka",
        "State": "Melaka"
    },
    {
        "Postcode": "75260",
        "Location": "Jalan Gaung Piring Cheng",
        "Post_Office": "Melaka",
        "State": "Melaka"
    },
    {
        "Postcode": "75260",
        "Location": "Jalan Gedung Lalang",
        "Post_Office": "Melaka",
        "State": "Melaka"
    },
    {
        "Postcode": "75260",
        "Location": "Jalan Gelanggang Cheng",
        "Post_Office": "Melaka",
        "State": "Melaka"
    },
    {
        "Postcode": "75260",
        "Location": "Jalan Haji Ariffin",
        "Post_Office": "Melaka",
        "State": "Melaka"
    },
    {
        "Postcode": "75260",
        "Location": "Jalan Kampung Tampoi",
        "Post_Office": "Melaka",
        "State": "Melaka"
    },
    {
        "Postcode": "75260",
        "Location": "Jalan Kampung Tampoi Indah",
        "Post_Office": "Melaka",
        "State": "Melaka"
    },
    {
        "Postcode": "75260",
        "Location": "Jalan Krubong Utama",
        "Post_Office": "Melaka",
        "State": "Melaka"
    },
    {
        "Postcode": "75260",
        "Location": "Jalan Kubor China",
        "Post_Office": "Melaka",
        "State": "Melaka"
    },
    {
        "Postcode": "75260",
        "Location": "Jalan Pantai Cheng",
        "Post_Office": "Melaka",
        "State": "Melaka"
    },
    {
        "Postcode": "75260",
        "Location": "Jalan Paya Mengkuang",
        "Post_Office": "Melaka",
        "State": "Melaka"
    },
    {
        "Postcode": "75260",
        "Location": "Jalan Sabidah",
        "Post_Office": "Melaka",
        "State": "Melaka"
    },
    {
        "Postcode": "75260",
        "Location": "Jalan Seberang Gajah",
        "Post_Office": "Melaka",
        "State": "Melaka"
    },
    {
        "Postcode": "75260",
        "Location": "Jalan Seri Krubong",
        "Post_Office": "Melaka",
        "State": "Melaka"
    },
    {
        "Postcode": "75260",
        "Location": "Jalan Sidang Wahab",
        "Post_Office": "Melaka",
        "State": "Melaka"
    },
    {
        "Postcode": "75260",
        "Location": "Jalan Soya Cheng",
        "Post_Office": "Melaka",
        "State": "Melaka"
    },
    {
        "Postcode": "75260",
        "Location": "Jalan Tampoi",
        "Post_Office": "Melaka",
        "State": "Melaka"
    },
    {
        "Postcode": "75260",
        "Location": "Jalan Tanjung Minyak",
        "Post_Office": "Melaka",
        "State": "Melaka"
    },
    {
        "Postcode": "75260",
        "Location": "Jalan Wakaf Tampoi",
        "Post_Office": "Melaka",
        "State": "Melaka"
    },
    {
        "Postcode": "75260",
        "Location": "Kampung Banjir",
        "Post_Office": "Melaka",
        "State": "Melaka"
    },
    {
        "Postcode": "75260",
        "Location": "Kampung Baru (Tanjung Minyak)",
        "Post_Office": "Melaka",
        "State": "Melaka"
    },
    {
        "Postcode": "75260",
        "Location": "Kampung Gedong Lalang",
        "Post_Office": "Melaka",
        "State": "Melaka"
    },
    {
        "Postcode": "75260",
        "Location": "Kampung Kemboja (Bukit Datuk)",
        "Post_Office": "Melaka",
        "State": "Melaka"
    },
    {
        "Postcode": "75260",
        "Location": "Kampung Pantai Cheng",
        "Post_Office": "Melaka",
        "State": "Melaka"
    },
    {
        "Postcode": "75260",
        "Location": "Kampung Seberang Gajah",
        "Post_Office": "Melaka",
        "State": "Melaka"
    },
    {
        "Postcode": "75260",
        "Location": "Kampung Solok Jeram",
        "Post_Office": "Melaka",
        "State": "Melaka"
    },
    {
        "Postcode": "75260",
        "Location": "Kampung Sungai Badau",
        "Post_Office": "Melaka",
        "State": "Melaka"
    },
    {
        "Postcode": "75260",
        "Location": "Kampung Tanjong Minyak",
        "Post_Office": "Melaka",
        "State": "Melaka"
    },
    {
        "Postcode": "75260",
        "Location": "Kampung Tengah (Tanjong Minyak)",
        "Post_Office": "Melaka",
        "State": "Melaka"
    },
    {
        "Postcode": "75260",
        "Location": "Kawasan Kilang Cheng Ttc",
        "Post_Office": "Melaka",
        "State": "Melaka"
    },
    {
        "Postcode": "75260",
        "Location": "Kawasan Perindustrian Bukit Rambai",
        "Post_Office": "Melaka",
        "State": "Melaka"
    },
    {
        "Postcode": "75260",
        "Location": "Kawasan Perindustrian Cheng",
        "Post_Office": "Melaka",
        "State": "Melaka"
    },
    {
        "Postcode": "75260",
        "Location": "Kawasan Perindustrian Krubong",
        "Post_Office": "Melaka",
        "State": "Melaka"
    },
    {
        "Postcode": "75260",
        "Location": "Kompleks Sukan Paya Rumput",
        "Post_Office": "Melaka",
        "State": "Melaka"
    },
    {
        "Postcode": "75260",
        "Location": "Kondo Cheng Heights",
        "Post_Office": "Melaka",
        "State": "Melaka"
    },
    {
        "Postcode": "75260",
        "Location": "Krubong (Batu 9 - 10)",
        "Post_Office": "Melaka",
        "State": "Melaka"
    },
    {
        "Postcode": "75260",
        "Location": "Leong Wat Hin Estate",
        "Post_Office": "Melaka",
        "State": "Melaka"
    },
    {
        "Postcode": "75260",
        "Location": "Pekan Bukit Rambai",
        "Post_Office": "Melaka",
        "State": "Melaka"
    },
    {
        "Postcode": "75260",
        "Location": "Rumah Awam Bertam Malim",
        "Post_Office": "Melaka",
        "State": "Melaka"
    },
    {
        "Postcode": "75260",
        "Location": "Rumah Awam Bukit Rambai",
        "Post_Office": "Melaka",
        "State": "Melaka"
    },
    {
        "Postcode": "75260",
        "Location": "Rumah Awam Cheng",
        "Post_Office": "Melaka",
        "State": "Melaka"
    },
    {
        "Postcode": "75260",
        "Location": "Rumah Awam Datin Fatimah",
        "Post_Office": "Melaka",
        "State": "Melaka"
    },
    {
        "Postcode": "75260",
        "Location": "Setulang Daing",
        "Post_Office": "Melaka",
        "State": "Melaka"
    },
    {
        "Postcode": "75260",
        "Location": "Solok Ayer Hitam",
        "Post_Office": "Melaka",
        "State": "Melaka"
    },
    {
        "Postcode": "75260",
        "Location": "Solok Paya Lebar",
        "Post_Office": "Melaka",
        "State": "Melaka"
    },
    {
        "Postcode": "75260",
        "Location": "Solok Soya",
        "Post_Office": "Melaka",
        "State": "Melaka"
    },
    {
        "Postcode": "75260",
        "Location": "Sungai Badau",
        "Post_Office": "Melaka",
        "State": "Melaka"
    },
    {
        "Postcode": "75260",
        "Location": "Taman Air Salak",
        "Post_Office": "Melaka",
        "State": "Melaka"
    },
    {
        "Postcode": "75260",
        "Location": "Taman Balkis",
        "Post_Office": "Melaka",
        "State": "Melaka"
    },
    {
        "Postcode": "75260",
        "Location": "Taman Bertam Bahagia",
        "Post_Office": "Melaka",
        "State": "Melaka"
    },
    {
        "Postcode": "75260",
        "Location": "Taman Bertam Murni",
        "Post_Office": "Melaka",
        "State": "Melaka"
    },
    {
        "Postcode": "75260",
        "Location": "Taman Bertam Mutiara",
        "Post_Office": "Melaka",
        "State": "Melaka"
    },
    {
        "Postcode": "75260",
        "Location": "Taman Bertam Perdana",
        "Post_Office": "Melaka",
        "State": "Melaka"
    },
    {
        "Postcode": "75260",
        "Location": "Taman Bertam Ria",
        "Post_Office": "Melaka",
        "State": "Melaka"
    },
    {
        "Postcode": "75260",
        "Location": "Taman Bomba Bukit Cheng",
        "Post_Office": "Melaka",
        "State": "Melaka"
    },
    {
        "Postcode": "75260",
        "Location": "Taman Bukit Cheng",
        "Post_Office": "Melaka",
        "State": "Melaka"
    },
    {
        "Postcode": "75260",
        "Location": "Taman Bukit Rambai",
        "Post_Office": "Melaka",
        "State": "Melaka"
    },
    {
        "Postcode": "75260",
        "Location": "Taman Cheng Baru",
        "Post_Office": "Melaka",
        "State": "Melaka"
    },
    {
        "Postcode": "75260",
        "Location": "Taman Cheng Baru Fasa 1",
        "Post_Office": "Melaka",
        "State": "Melaka"
    },
    {
        "Postcode": "75260",
        "Location": "Taman Cheng Bestari",
        "Post_Office": "Melaka",
        "State": "Melaka"
    },
    {
        "Postcode": "75260",
        "Location": "Taman Cheng Bistari",
        "Post_Office": "Melaka",
        "State": "Melaka"
    },
    {
        "Postcode": "75260",
        "Location": "Taman Cheng Indah",
        "Post_Office": "Melaka",
        "State": "Melaka"
    },
    {
        "Postcode": "75260",
        "Location": "Taman Cheng Jaya",
        "Post_Office": "Melaka",
        "State": "Melaka"
    },
    {
        "Postcode": "75260",
        "Location": "Taman Cheng Jaya 1",
        "Post_Office": "Melaka",
        "State": "Melaka"
    },
    {
        "Postcode": "75260",
        "Location": "Taman Cheng Mutiara",
        "Post_Office": "Melaka",
        "State": "Melaka"
    },
    {
        "Postcode": "75260",
        "Location": "Taman Cheng Perdana",
        "Post_Office": "Melaka",
        "State": "Melaka"
    },
    {
        "Postcode": "75260",
        "Location": "Taman Cheng Perdana 1",
        "Post_Office": "Melaka",
        "State": "Melaka"
    },
    {
        "Postcode": "75260",
        "Location": "Taman Cheng Perdana Eden Heights",
        "Post_Office": "Melaka",
        "State": "Melaka"
    },
    {
        "Postcode": "75260",
        "Location": "Taman Cheng Permai",
        "Post_Office": "Melaka",
        "State": "Melaka"
    },
    {
        "Postcode": "75260",
        "Location": "Taman Cheng Ria",
        "Post_Office": "Melaka",
        "State": "Melaka"
    },
    {
        "Postcode": "75260",
        "Location": "Taman Cheng Utama",
        "Post_Office": "Melaka",
        "State": "Melaka"
    },
    {
        "Postcode": "75260",
        "Location": "Taman Damai (Tanjung Minyak)",
        "Post_Office": "Melaka",
        "State": "Melaka"
    },
    {
        "Postcode": "75260",
        "Location": "Taman Desa Cheng Perdana 1",
        "Post_Office": "Melaka",
        "State": "Melaka"
    },
    {
        "Postcode": "75260",
        "Location": "Taman Desa Damai",
        "Post_Office": "Melaka",
        "State": "Melaka"
    },
    {
        "Postcode": "75260",
        "Location": "Taman Desa Damai (Tanjung Minyak)",
        "Post_Office": "Melaka",
        "State": "Melaka"
    },
    {
        "Postcode": "75260",
        "Location": "Taman Krubong",
        "Post_Office": "Melaka",
        "State": "Melaka"
    },
    {
        "Postcode": "75260",
        "Location": "Taman Krubong Indah",
        "Post_Office": "Melaka",
        "State": "Melaka"
    },
    {
        "Postcode": "75260",
        "Location": "Taman Krubong Jaya",
        "Post_Office": "Melaka",
        "State": "Melaka"
    },
    {
        "Postcode": "75260",
        "Location": "Taman Krubong Perdana",
        "Post_Office": "Melaka",
        "State": "Melaka"
    },
    {
        "Postcode": "75260",
        "Location": "Taman Krubong Permai",
        "Post_Office": "Melaka",
        "State": "Melaka"
    },
    {
        "Postcode": "75260",
        "Location": "Taman Perindustrian Krubong",
        "Post_Office": "Melaka",
        "State": "Melaka"
    },
    {
        "Postcode": "75260",
        "Location": "Taman Perwira (Cheng)",
        "Post_Office": "Melaka",
        "State": "Melaka"
    },
    {
        "Postcode": "75260",
        "Location": "Taman Puncak Bertam",
        "Post_Office": "Melaka",
        "State": "Melaka"
    },
    {
        "Postcode": "75260",
        "Location": "Taman Rambai",
        "Post_Office": "Melaka",
        "State": "Melaka"
    },
    {
        "Postcode": "75260",
        "Location": "Taman Rambai Emas",
        "Post_Office": "Melaka",
        "State": "Melaka"
    },
    {
        "Postcode": "75260",
        "Location": "Taman Rambai Harmoni",
        "Post_Office": "Melaka",
        "State": "Melaka"
    },
    {
        "Postcode": "75260",
        "Location": "Taman Rambai Idaman",
        "Post_Office": "Melaka",
        "State": "Melaka"
    },
    {
        "Postcode": "75260",
        "Location": "Taman Rambai Indah",
        "Post_Office": "Melaka",
        "State": "Melaka"
    },
    {
        "Postcode": "75260",
        "Location": "Taman Rambai Jaya",
        "Post_Office": "Melaka",
        "State": "Melaka"
    },
    {
        "Postcode": "75260",
        "Location": "Taman Rambai Mesra",
        "Post_Office": "Melaka",
        "State": "Melaka"
    },
    {
        "Postcode": "75260",
        "Location": "Taman Rambai Murni",
        "Post_Office": "Melaka",
        "State": "Melaka"
    },
    {
        "Postcode": "75260",
        "Location": "Taman Rambai Murni 2",
        "Post_Office": "Melaka",
        "State": "Melaka"
    },
    {
        "Postcode": "75260",
        "Location": "Taman Rambai Mutiara",
        "Post_Office": "Melaka",
        "State": "Melaka"
    },
    {
        "Postcode": "75260",
        "Location": "Taman Rambai Permai",
        "Post_Office": "Melaka",
        "State": "Melaka"
    },
    {
        "Postcode": "75260",
        "Location": "Taman Rambai Ria",
        "Post_Office": "Melaka",
        "State": "Melaka"
    },
    {
        "Postcode": "75260",
        "Location": "Taman Rambai Setia",
        "Post_Office": "Melaka",
        "State": "Melaka"
    },
    {
        "Postcode": "75260",
        "Location": "Taman Rambai Sutera",
        "Post_Office": "Melaka",
        "State": "Melaka"
    },
    {
        "Postcode": "75260",
        "Location": "Taman Rambai Tengah",
        "Post_Office": "Melaka",
        "State": "Melaka"
    },
    {
        "Postcode": "75260",
        "Location": "Taman Rambai Utama",
        "Post_Office": "Melaka",
        "State": "Melaka"
    },
    {
        "Postcode": "75260",
        "Location": "Taman Saga",
        "Post_Office": "Melaka",
        "State": "Melaka"
    },
    {
        "Postcode": "75260",
        "Location": "Taman Seri Krubong",
        "Post_Office": "Melaka",
        "State": "Melaka"
    },
    {
        "Postcode": "75260",
        "Location": "Taman Seri Krubong Jaya",
        "Post_Office": "Melaka",
        "State": "Melaka"
    },
    {
        "Postcode": "75260",
        "Location": "Taman Seri Putih",
        "Post_Office": "Melaka",
        "State": "Melaka"
    },
    {
        "Postcode": "75260",
        "Location": "Taman Seri Rambai",
        "Post_Office": "Melaka",
        "State": "Melaka"
    },
    {
        "Postcode": "75260",
        "Location": "Taman Seri Rambai Fasa 1",
        "Post_Office": "Melaka",
        "State": "Melaka"
    },
    {
        "Postcode": "75260",
        "Location": "Taman Sri Nenas",
        "Post_Office": "Melaka",
        "State": "Melaka"
    },
    {
        "Postcode": "75260",
        "Location": "Taman Tanjung Minyak",
        "Post_Office": "Melaka",
        "State": "Melaka"
    },
    {
        "Postcode": "75260",
        "Location": "Taman Tanjung Minyak Baru",
        "Post_Office": "Melaka",
        "State": "Melaka"
    },
    {
        "Postcode": "75260",
        "Location": "Taman Tanjung Minyak Jaya",
        "Post_Office": "Melaka",
        "State": "Melaka"
    },
    {
        "Postcode": "75260",
        "Location": "Taman Tanjung Minyak Setia",
        "Post_Office": "Melaka",
        "State": "Melaka"
    },
    {
        "Postcode": "75260",
        "Location": "Taman Tanjung Minyak Utama",
        "Post_Office": "Melaka",
        "State": "Melaka"
    },
    {
        "Postcode": "75260",
        "Location": "Taman Teknologi Cheng",
        "Post_Office": "Melaka",
        "State": "Melaka"
    },
    {
        "Postcode": "75260",
        "Location": "Taman Wangi (Norpiah)",
        "Post_Office": "Melaka",
        "State": "Melaka"
    },
    {
        "Postcode": "75260",
        "Location": "Tanah Merah",
        "Post_Office": "Melaka",
        "State": "Melaka"
    },
    {
        "Postcode": "75260",
        "Location": "Taman Puncak Rambai",
        "Post_Office": "Melaka",
        "State": "Melaka"
    },
    {
        "Postcode": "75260",
        "Location": "Kampung Ladang",
        "Post_Office": "Melaka",
        "State": "Melaka"
    },
    {
        "Postcode": "75260",
        "Location": "Kampung Lanjut Manis",
        "Post_Office": "Melaka",
        "State": "Melaka"
    },
    {
        "Postcode": "75260",
        "Location": "Lian Huat Estate",
        "Post_Office": "Melaka",
        "State": "Melaka"
    },
    {
        "Postcode": "75260",
        "Location": "Taman Cenderawasih",
        "Post_Office": "Melaka",
        "State": "Melaka"
    },
    {
        "Postcode": "75260",
        "Location": "Bertam Estate",
        "Post_Office": "Melaka",
        "State": "Melaka"
    },
    {
        "Postcode": "75260",
        "Location": "Jalan Setulang Daing",
        "Post_Office": "Melaka",
        "State": "Melaka"
    },
    {
        "Postcode": "75260",
        "Location": "Kampung Tanah Merah",
        "Post_Office": "Melaka",
        "State": "Melaka"
    },
    {
        "Postcode": "75260",
        "Location": "Solok Bukit Palah",
        "Post_Office": "Melaka",
        "State": "Melaka"
    },
    {
        "Postcode": "75260",
        "Location": "Stesen Minyak Shell Tampoi",
        "Post_Office": "Melaka",
        "State": "Melaka"
    },
    {
        "Postcode": "75260",
        "Location": "Stesen Minyak Shell Tampoi",
        "Post_Office": "Melaka",
        "State": "Melaka"
    },
    {
        "Postcode": "75260",
        "Location": "Jalan TMS 2A",
        "Post_Office": "Melaka",
        "State": "Melaka"
    },
    {
        "Postcode": "75260",
        "Location": "Taman Balai Panjang Indah",
        "Post_Office": "Melaka",
        "State": "Melaka"
    },
    {
        "Postcode": "75260",
        "Location": "Taman Tanjung Minyak Ria",
        "Post_Office": "Melaka",
        "State": "Melaka"
    },
    {
        "Postcode": "75260",
        "Location": "Masjid Cina Negeri Melaka",
        "Post_Office": "Melaka",
        "State": "Melaka"
    },
    {
        "Postcode": "75260",
        "Location": "Taman Perindustrian Tanjong Minyak Perdana",
        "Post_Office": "Melaka",
        "State": "Melaka"
    },
    {
        "Postcode": "75260",
        "Location": "Taman Satu Krubong",
        "Post_Office": "Melaka",
        "State": "Melaka"
    },
    {
        "Postcode": "75260",
        "Location": "Ppr Krubong",
        "Post_Office": "Melaka",
        "State": "Melaka"
    },
    {
        "Postcode": "75260",
        "Location": "Taman Bukit Rambai Sentosa",
        "Post_Office": "Melaka",
        "State": "Melaka"
    },
    {
        "Postcode": "75260",
        "Location": "Pusat Perniagaan Bertam Malim",
        "Post_Office": "Melaka",
        "State": "Melaka"
    },
    {
        "Postcode": "75260",
        "Location": "Taman Bukit Rambai Utama",
        "Post_Office": "Melaka",
        "State": "Melaka"
    },
    {
        "Postcode": "75260",
        "Location": "Taman Krubong Heights",
        "Post_Office": "Melaka",
        "State": "Melaka"
    },
    {
        "Postcode": "75260",
        "Location": "Taman Seri Tanjong Minyak",
        "Post_Office": "Melaka",
        "State": "Melaka"
    },
    {
        "Postcode": "75260",
        "Location": "Jalan STM 1",
        "Post_Office": "Melaka",
        "State": "Melaka"
    },
    {
        "Postcode": "75260",
        "Location": "Jalan STM 2",
        "Post_Office": "Melaka",
        "State": "Melaka"
    },
    {
        "Postcode": "75260",
        "Location": "Jalan STM 3",
        "Post_Office": "Melaka",
        "State": "Melaka"
    },
    {
        "Postcode": "75260",
        "Location": "Jalan STM 4",
        "Post_Office": "Melaka",
        "State": "Melaka"
    },
    {
        "Postcode": "75260",
        "Location": "Jalan STM 5",
        "Post_Office": "Melaka",
        "State": "Melaka"
    },
    {
        "Postcode": "75260",
        "Location": "Jalan STM 6",
        "Post_Office": "Melaka",
        "State": "Melaka"
    },
    {
        "Postcode": "75260",
        "Location": "Jalan STM 7",
        "Post_Office": "Melaka",
        "State": "Melaka"
    },
    {
        "Postcode": "75260",
        "Location": "Kampung Bertam Malim",
        "Post_Office": "Melaka",
        "State": "Melaka"
    },
    {
        "Postcode": "75260",
        "Location": "Kampung Bukit Datok B",
        "Post_Office": "Melaka",
        "State": "Melaka"
    },
    {
        "Postcode": "75260",
        "Location": "Kampung Bukit Rambai",
        "Post_Office": "Melaka",
        "State": "Melaka"
    },
    {
        "Postcode": "75260",
        "Location": "Kampung Cheng ",
        "Post_Office": "Melaka",
        "State": "Melaka"
    },
    {
        "Postcode": "75260",
        "Location": "Kampung Sungai Air Hitam",
        "Post_Office": "Melaka",
        "State": "Melaka"
    },
    {
        "Postcode": "75260",
        "Location": "Kampung Sungai Badau Luar",
        "Post_Office": "Melaka",
        "State": "Melaka"
    },
    {
        "Postcode": "75260",
        "Location": "Jalan Br 1",
        "Post_Office": "Melaka",
        "State": "Melaka"
    },
    {
        "Postcode": "75260",
        "Location": "Jalan Br 2",
        "Post_Office": "Melaka",
        "State": "Melaka"
    },
    {
        "Postcode": "75260",
        "Location": "Jalan Br 3",
        "Post_Office": "Melaka",
        "State": "Melaka"
    },
    {
        "Postcode": "75260",
        "Location": "Jalan Br 4",
        "Post_Office": "Melaka",
        "State": "Melaka"
    },
    {
        "Postcode": "75260",
        "Location": "Jalan Br 5",
        "Post_Office": "Melaka",
        "State": "Melaka"
    },
    {
        "Postcode": "75260",
        "Location": "Jalan Br 6",
        "Post_Office": "Melaka",
        "State": "Melaka"
    },
    {
        "Postcode": "75260",
        "Location": "Jalan Kejora 1",
        "Post_Office": "Melaka",
        "State": "Melaka"
    },
    {
        "Postcode": "75260",
        "Location": "Jalan Kejora 2",
        "Post_Office": "Melaka",
        "State": "Melaka"
    },
    {
        "Postcode": "75260",
        "Location": "Jalan Kejora 3",
        "Post_Office": "Melaka",
        "State": "Melaka"
    },
    {
        "Postcode": "75260",
        "Location": "Jalan Ki 1",
        "Post_Office": "Melaka",
        "State": "Melaka"
    },
    {
        "Postcode": "75260",
        "Location": "Jalan Ki 2",
        "Post_Office": "Melaka",
        "State": "Melaka"
    },
    {
        "Postcode": "75260",
        "Location": "Jalan Ki 3",
        "Post_Office": "Melaka",
        "State": "Melaka"
    },
    {
        "Postcode": "75260",
        "Location": "Jalan Ku 1",
        "Post_Office": "Melaka",
        "State": "Melaka"
    },
    {
        "Postcode": "75260",
        "Location": "Jalan Ku 10",
        "Post_Office": "Melaka",
        "State": "Melaka"
    },
    {
        "Postcode": "75260",
        "Location": "Jalan Ku 11",
        "Post_Office": "Melaka",
        "State": "Melaka"
    },
    {
        "Postcode": "75260",
        "Location": "Jalan Ku 12",
        "Post_Office": "Melaka",
        "State": "Melaka"
    },
    {
        "Postcode": "75260",
        "Location": "Jalan Ku 13",
        "Post_Office": "Melaka",
        "State": "Melaka"
    },
    {
        "Postcode": "75260",
        "Location": "Jalan Ku 14",
        "Post_Office": "Melaka",
        "State": "Melaka"
    },
    {
        "Postcode": "75260",
        "Location": "Jalan Ku 15",
        "Post_Office": "Melaka",
        "State": "Melaka"
    },
    {
        "Postcode": "75260",
        "Location": "Jalan Ku 16",
        "Post_Office": "Melaka",
        "State": "Melaka"
    },
    {
        "Postcode": "75260",
        "Location": "Jalan Ku 17",
        "Post_Office": "Melaka",
        "State": "Melaka"
    },
    {
        "Postcode": "75260",
        "Location": "Jalan Ku 18",
        "Post_Office": "Melaka",
        "State": "Melaka"
    },
    {
        "Postcode": "75260",
        "Location": "Jalan Ku 19",
        "Post_Office": "Melaka",
        "State": "Melaka"
    },
    {
        "Postcode": "75260",
        "Location": "Jalan Ku 2",
        "Post_Office": "Melaka",
        "State": "Melaka"
    },
    {
        "Postcode": "75260",
        "Location": "Jalan Ku 20",
        "Post_Office": "Melaka",
        "State": "Melaka"
    },
    {
        "Postcode": "75260",
        "Location": "Jalan Ku 21",
        "Post_Office": "Melaka",
        "State": "Melaka"
    },
    {
        "Postcode": "75260",
        "Location": "Jalan Ku 22",
        "Post_Office": "Melaka",
        "State": "Melaka"
    },
    {
        "Postcode": "75260",
        "Location": "Jalan Ku 23",
        "Post_Office": "Melaka",
        "State": "Melaka"
    },
    {
        "Postcode": "75260",
        "Location": "Jalan Ku 24",
        "Post_Office": "Melaka",
        "State": "Melaka"
    },
    {
        "Postcode": "75260",
        "Location": "Jalan Ku 3",
        "Post_Office": "Melaka",
        "State": "Melaka"
    },
    {
        "Postcode": "75260",
        "Location": "Jalan Ku 4",
        "Post_Office": "Melaka",
        "State": "Melaka"
    },
    {
        "Postcode": "75260",
        "Location": "Jalan Ku 5",
        "Post_Office": "Melaka",
        "State": "Melaka"
    },
    {
        "Postcode": "75260",
        "Location": "Jalan Ku 6",
        "Post_Office": "Melaka",
        "State": "Melaka"
    },
    {
        "Postcode": "75260",
        "Location": "Jalan Ku 7",
        "Post_Office": "Melaka",
        "State": "Melaka"
    },
    {
        "Postcode": "75260",
        "Location": "Jalan Ku 8",
        "Post_Office": "Melaka",
        "State": "Melaka"
    },
    {
        "Postcode": "75260",
        "Location": "Jalan Ku 9",
        "Post_Office": "Melaka",
        "State": "Melaka"
    },
    {
        "Postcode": "75260",
        "Location": "Jalan Tmj 1",
        "Post_Office": "Melaka",
        "State": "Melaka"
    },
    {
        "Postcode": "75260",
        "Location": "Jalan Tmj 10",
        "Post_Office": "Melaka",
        "State": "Melaka"
    },
    {
        "Postcode": "75260",
        "Location": "Jalan Tmj 11",
        "Post_Office": "Melaka",
        "State": "Melaka"
    },
    {
        "Postcode": "75260",
        "Location": "Jalan Tmj 12",
        "Post_Office": "Melaka",
        "State": "Melaka"
    },
    {
        "Postcode": "75260",
        "Location": "Jalan Tmj 13",
        "Post_Office": "Melaka",
        "State": "Melaka"
    },
    {
        "Postcode": "75260",
        "Location": "Jalan Tmj 14",
        "Post_Office": "Melaka",
        "State": "Melaka"
    },
    {
        "Postcode": "75260",
        "Location": "Jalan Tmj 15",
        "Post_Office": "Melaka",
        "State": "Melaka"
    },
    {
        "Postcode": "75260",
        "Location": "Jalan Tmj 16",
        "Post_Office": "Melaka",
        "State": "Melaka"
    },
    {
        "Postcode": "75260",
        "Location": "Jalan Tmj 2",
        "Post_Office": "Melaka",
        "State": "Melaka"
    },
    {
        "Postcode": "75260",
        "Location": "Jalan Tmj 3",
        "Post_Office": "Melaka",
        "State": "Melaka"
    },
    {
        "Postcode": "75260",
        "Location": "Jalan Tmj 4",
        "Post_Office": "Melaka",
        "State": "Melaka"
    },
    {
        "Postcode": "75260",
        "Location": "Jalan Tmj 5",
        "Post_Office": "Melaka",
        "State": "Melaka"
    },
    {
        "Postcode": "75260",
        "Location": "Jalan Tmj 6",
        "Post_Office": "Melaka",
        "State": "Melaka"
    },
    {
        "Postcode": "75260",
        "Location": "Jalan Tmj 7",
        "Post_Office": "Melaka",
        "State": "Melaka"
    },
    {
        "Postcode": "75260",
        "Location": "Jalan Tmj 8",
        "Post_Office": "Melaka",
        "State": "Melaka"
    },
    {
        "Postcode": "75260",
        "Location": "Jalan Tmj 9",
        "Post_Office": "Melaka",
        "State": "Melaka"
    },
    {
        "Postcode": "75260",
        "Location": "Solok Paya Mengkuang 1",
        "Post_Office": "Melaka",
        "State": "Melaka"
    },
    {
        "Postcode": "75260",
        "Location": "Solok Paya Mengkuang 2",
        "Post_Office": "Melaka",
        "State": "Melaka"
    },
    {
        "Postcode": "75260",
        "Location": "Taman Bukit Rambai 1",
        "Post_Office": "Melaka",
        "State": "Melaka"
    },
    {
        "Postcode": "75260",
        "Location": "Taman Bukit Rambai 2",
        "Post_Office": "Melaka",
        "State": "Melaka"
    },
    {
        "Postcode": "75260",
        "Location": "Taman Seri Krubong 1",
        "Post_Office": "Melaka",
        "State": "Melaka"
    },
    {
        "Postcode": "75260",
        "Location": "Taman Seri Krubong 2",
        "Post_Office": "Melaka",
        "State": "Melaka"
    },
    {
        "Postcode": "75260",
        "Location": "Kompleks Perumahan Ibu Pejabat Polis Daerah Krubong",
        "Post_Office": "Melaka",
        "State": "Melaka"
    },
    {
        "Postcode": "75260",
        "Location": "Kompleks Sukan Hang Jebat",
        "Post_Office": "Melaka",
        "State": "Melaka"
    },
    {
        "Postcode": "75260",
        "Location": "Taman Bertam Malim",
        "Post_Office": "Melaka",
        "State": "Melaka"
    },
    {
        "Postcode": "75260",
        "Location": "Jalan RI 3",
        "Post_Office": "Melaka",
        "State": "Melaka"
    },
    {
        "Postcode": "75260",
        "Location": "Jalan RI 7",
        "Post_Office": "Melaka",
        "State": "Melaka"
    },
    {
        "Postcode": "75260",
        "Location": "Jalan RI 8",
        "Post_Office": "Melaka",
        "State": "Melaka"
    },
    {
        "Postcode": "75260",
        "Location": "Taman Tanjong Minyak",
        "Post_Office": "Melaka",
        "State": "Melaka"
    },
    {
        "Postcode": "75260",
        "Location": "Jalan TM 1",
        "Post_Office": "Melaka",
        "State": "Melaka"
    },
    {
        "Postcode": "75260",
        "Location": "Jalan TM 2",
        "Post_Office": "Melaka",
        "State": "Melaka"
    },
    {
        "Postcode": "75260",
        "Location": "Jalan TM 3",
        "Post_Office": "Melaka",
        "State": "Melaka"
    },
    {
        "Postcode": "75260",
        "Location": "Jalan TM 4",
        "Post_Office": "Melaka",
        "State": "Melaka"
    },
    {
        "Postcode": "75260",
        "Location": "Jalan TM 5",
        "Post_Office": "Melaka",
        "State": "Melaka"
    },
    {
        "Postcode": "75260",
        "Location": "Jalan TM 6",
        "Post_Office": "Melaka",
        "State": "Melaka"
    },
    {
        "Postcode": "75260",
        "Location": "Jalan TM 7",
        "Post_Office": "Melaka",
        "State": "Melaka"
    },
    {
        "Postcode": "75260",
        "Location": "Jalan TM 8",
        "Post_Office": "Melaka",
        "State": "Melaka"
    },
    {
        "Postcode": "75260",
        "Location": "Jalan TM 9",
        "Post_Office": "Melaka",
        "State": "Melaka"
    },
    {
        "Postcode": "75260",
        "Location": "Jalan TM 10",
        "Post_Office": "Melaka",
        "State": "Melaka"
    },
    {
        "Postcode": "75260",
        "Location": "Jalan TM 11",
        "Post_Office": "Melaka",
        "State": "Melaka"
    },
    {
        "Postcode": "75260",
        "Location": "Jalan TM 12",
        "Post_Office": "Melaka",
        "State": "Melaka"
    },
    {
        "Postcode": "75260",
        "Location": "Jalan TM 13",
        "Post_Office": "Melaka",
        "State": "Melaka"
    },
    {
        "Postcode": "75260",
        "Location": "Jalan TM 14",
        "Post_Office": "Melaka",
        "State": "Melaka"
    },
    {
        "Postcode": "75260",
        "Location": "Jalan TM 15",
        "Post_Office": "Melaka",
        "State": "Melaka"
    },
    {
        "Postcode": "75260",
        "Location": "Jalan TM 16",
        "Post_Office": "Melaka",
        "State": "Melaka"
    },
    {
        "Postcode": "75260",
        "Location": "Jalan TM 17",
        "Post_Office": "Melaka",
        "State": "Melaka"
    },
    {
        "Postcode": "75260",
        "Location": "Jalan TM 18",
        "Post_Office": "Melaka",
        "State": "Melaka"
    },
    {
        "Postcode": "75260",
        "Location": "Jalan TM 19",
        "Post_Office": "Melaka",
        "State": "Melaka"
    },
    {
        "Postcode": "75260",
        "Location": "Jalan TM 20",
        "Post_Office": "Melaka",
        "State": "Melaka"
    },
    {
        "Postcode": "75260",
        "Location": "Jalan TM 21",
        "Post_Office": "Melaka",
        "State": "Melaka"
    },
    {
        "Postcode": "75260",
        "Location": "Jalan TM 22",
        "Post_Office": "Melaka",
        "State": "Melaka"
    },
    {
        "Postcode": "75260",
        "Location": "Jalan TM 23",
        "Post_Office": "Melaka",
        "State": "Melaka"
    },
    {
        "Postcode": "75260",
        "Location": "Jalan TM 24",
        "Post_Office": "Melaka",
        "State": "Melaka"
    },
    {
        "Postcode": "75260",
        "Location": "Jalan TM 25",
        "Post_Office": "Melaka",
        "State": "Melaka"
    },
    {
        "Postcode": "75260",
        "Location": "Jalan TM 26",
        "Post_Office": "Melaka",
        "State": "Melaka"
    },
    {
        "Postcode": "75260",
        "Location": "Jalan TM 27",
        "Post_Office": "Melaka",
        "State": "Melaka"
    },
    {
        "Postcode": "75260",
        "Location": "Jalan TM 28",
        "Post_Office": "Melaka",
        "State": "Melaka"
    },
    {
        "Postcode": "75260",
        "Location": "Jalan TM 29",
        "Post_Office": "Melaka",
        "State": "Melaka"
    },
    {
        "Postcode": "75260",
        "Location": "Jalan TM 30",
        "Post_Office": "Melaka",
        "State": "Melaka"
    },
    {
        "Postcode": "75260",
        "Location": "Jalan TM 31",
        "Post_Office": "Melaka",
        "State": "Melaka"
    },
    {
        "Postcode": "75260",
        "Location": "Jalan TM 32",
        "Post_Office": "Melaka",
        "State": "Melaka"
    },
    {
        "Postcode": "75260",
        "Location": "Jalan TM 33",
        "Post_Office": "Melaka",
        "State": "Melaka"
    },
    {
        "Postcode": "75260",
        "Location": "Jalan TM 34",
        "Post_Office": "Melaka",
        "State": "Melaka"
    },
    {
        "Postcode": "75260",
        "Location": "Jalan TM 35",
        "Post_Office": "Melaka",
        "State": "Melaka"
    },
    {
        "Postcode": "75260",
        "Location": "Jalan TM 36",
        "Post_Office": "Melaka",
        "State": "Melaka"
    }
]
