[
    {
        "Postcode": "75350",
        "Location": "Kampung Bachang",
        "Post_Office": "Melaka",
        "State": "Melaka"
    },
    {
        "Postcode": "75350",
        "Location": "Jalan Bidadari",
        "Post_Office": "Melaka",
        "State": "Melaka"
    },
    {
        "Postcode": "75350",
        "Location": "Taman Peringatan Huai En Jelutong",
        "Post_Office": "Melaka",
        "State": "Melaka"
    },
    {
        "Postcode": "75350",
        "Location": "Wisma Teladan Setia",
        "Post_Office": "Melaka",
        "State": "Melaka"
    },
    {
        "Postcode": "75350",
        "Location": "Batu Berendam",
        "Post_Office": "Melaka",
        "State": "Melaka"
    },
    {
        "Postcode": "75350",
        "Location": "Batu Berendam Putera",
        "Post_Office": "Melaka",
        "State": "Melaka"
    },
    {
        "Postcode": "75350",
        "Location": "Batu Hampar",
        "Post_Office": "Melaka",
        "State": "Melaka"
    },
    {
        "Postcode": "75350",
        "Location": "Jalan Batu Berendam",
        "Post_Office": "Melaka",
        "State": "Melaka"
    },
    {
        "Postcode": "75350",
        "Location": "Jalan Batu Hampar",
        "Post_Office": "Melaka",
        "State": "Melaka"
    },
    {
        "Postcode": "75350",
        "Location": "Jalan Cengal",
        "Post_Office": "Melaka",
        "State": "Melaka"
    },
    {
        "Postcode": "75350",
        "Location": "Jalan Datuk Seri Haji Mohd Zin",
        "Post_Office": "Melaka",
        "State": "Melaka"
    },
    {
        "Postcode": "75350",
        "Location": "Jalan Gudang Beras",
        "Post_Office": "Melaka",
        "State": "Melaka"
    },
    {
        "Postcode": "75350",
        "Location": "Jalan Jasa Merdeka",
        "Post_Office": "Melaka",
        "State": "Melaka"
    },
    {
        "Postcode": "75350",
        "Location": "Jalan Kolam Ikan",
        "Post_Office": "Melaka",
        "State": "Melaka"
    },
    {
        "Postcode": "75350",
        "Location": "Jalan Lapangan Terbang",
        "Post_Office": "Melaka",
        "State": "Melaka"
    },
    {
        "Postcode": "75350",
        "Location": "Jalan Melaka Baru",
        "Post_Office": "Melaka",
        "State": "Melaka"
    },
    {
        "Postcode": "75350",
        "Location": "Jalan Melaka Baru Fasa 3",
        "Post_Office": "Melaka",
        "State": "Melaka"
    },
    {
        "Postcode": "75350",
        "Location": "Jalan Meranti",
        "Post_Office": "Melaka",
        "State": "Melaka"
    },
    {
        "Postcode": "75350",
        "Location": "Jalan Pengaga",
        "Post_Office": "Melaka",
        "State": "Melaka"
    },
    {
        "Postcode": "75350",
        "Location": "Jalan Peringgit (Batu Berendam)",
        "Post_Office": "Melaka",
        "State": "Melaka"
    },
    {
        "Postcode": "75350",
        "Location": "Jalan Solok Pulau Nibong",
        "Post_Office": "Melaka",
        "State": "Melaka"
    },
    {
        "Postcode": "75350",
        "Location": "Jalan Taman Merdeka",
        "Post_Office": "Melaka",
        "State": "Melaka"
    },
    {
        "Postcode": "75350",
        "Location": "Jalan Taman Perkota",
        "Post_Office": "Melaka",
        "State": "Melaka"
    },
    {
        "Postcode": "75350",
        "Location": "Jalan Tembusu",
        "Post_Office": "Melaka",
        "State": "Melaka"
    },
    {
        "Postcode": "75350",
        "Location": "Jelutong",
        "Post_Office": "Melaka",
        "State": "Melaka"
    },
    {
        "Postcode": "75350",
        "Location": "Kampung Bachang Pasir Putih",
        "Post_Office": "Melaka",
        "State": "Melaka"
    },
    {
        "Postcode": "75350",
        "Location": "Kampung Batu Ampar",
        "Post_Office": "Melaka",
        "State": "Melaka"
    },
    {
        "Postcode": "75350",
        "Location": "Kampung Batu Berendam",
        "Post_Office": "Melaka",
        "State": "Melaka"
    },
    {
        "Postcode": "75350",
        "Location": "Kampung Batu Hampar, Hang Tuah Jaya",
        "Post_Office": "Melaka",
        "State": "Melaka"
    },
    {
        "Postcode": "75350",
        "Location": "Kampung Gelanggang Sikumi",
        "Post_Office": "Melaka",
        "State": "Melaka"
    },
    {
        "Postcode": "75350",
        "Location": "Kampung Pasir Putih",
        "Post_Office": "Melaka",
        "State": "Melaka"
    },
    {
        "Postcode": "75350",
        "Location": "Kampung Pulau Nibong",
        "Post_Office": "Melaka",
        "State": "Melaka"
    },
    {
        "Postcode": "75350",
        "Location": "Kampung Pulau Samak",
        "Post_Office": "Melaka",
        "State": "Melaka"
    },
    {
        "Postcode": "75350",
        "Location": "Kampung Solok Pulau Nibong",
        "Post_Office": "Melaka",
        "State": "Melaka"
    },
    {
        "Postcode": "75350",
        "Location": "Kampung Solok Sang Lang",
        "Post_Office": "Melaka",
        "State": "Melaka"
    },
    {
        "Postcode": "75350",
        "Location": "Kampung Solok Sarang Helang",
        "Post_Office": "Melaka",
        "State": "Melaka"
    },
    {
        "Postcode": "75350",
        "Location": "Kampung Sungai Putat",
        "Post_Office": "Melaka",
        "State": "Melaka"
    },
    {
        "Postcode": "75350",
        "Location": "Lorong Bachang",
        "Post_Office": "Melaka",
        "State": "Melaka"
    },
    {
        "Postcode": "75350",
        "Location": "Menara Pertam, Hang Tuah Jaya",
        "Post_Office": "Melaka",
        "State": "Melaka"
    },
    {
        "Postcode": "75350",
        "Location": "Pangsapuri Kiara Apartment",
        "Post_Office": "Melaka",
        "State": "Melaka"
    },
    {
        "Postcode": "75350",
        "Location": "Pangsapuri Melaka Baru, Hang Tuah Jaya",
        "Post_Office": "Melaka",
        "State": "Melaka"
    },
    {
        "Postcode": "75350",
        "Location": "Pangsapuri Taman Merdeka",
        "Post_Office": "Melaka",
        "State": "Melaka"
    },
    {
        "Postcode": "75350",
        "Location": "Pangsapuri Tasek Barat, Hang Tuah Jaya",
        "Post_Office": "Melaka",
        "State": "Melaka"
    },
    {
        "Postcode": "75350",
        "Location": "Peringgit Point",
        "Post_Office": "Melaka",
        "State": "Melaka"
    },
    {
        "Postcode": "75350",
        "Location": "Pulau Samak",
        "Post_Office": "Melaka",
        "State": "Melaka"
    },
    {
        "Postcode": "75350",
        "Location": "Rumah Awam Batu Berendam",
        "Post_Office": "Melaka",
        "State": "Melaka"
    },
    {
        "Postcode": "75350",
        "Location": "Rumah Awam Seri Budi",
        "Post_Office": "Melaka",
        "State": "Melaka"
    },
    {
        "Postcode": "75350",
        "Location": "Rumah Awam Setia Budi, Hang Tuah Jaya",
        "Post_Office": "Melaka",
        "State": "Melaka"
    },
    {
        "Postcode": "75350",
        "Location": "Rumah Awam Sungai Putat",
        "Post_Office": "Melaka",
        "State": "Melaka"
    },
    {
        "Postcode": "75350",
        "Location": "Rumah Pangsa Bacang Permai, Hang Tuah Jaya",
        "Post_Office": "Melaka",
        "State": "Melaka"
    },
    {
        "Postcode": "75350",
        "Location": "Rumah Pangsa Batu Berendam, Hang Tuah Jaya",
        "Post_Office": "Melaka",
        "State": "Melaka"
    },
    {
        "Postcode": "75350",
        "Location": "Rumah Pangsa Pegaga Taman Merdeka",
        "Post_Office": "Melaka",
        "State": "Melaka"
    },
    {
        "Postcode": "75350",
        "Location": "Rumah Pangsa Taman Merdeka, Hang Tuah Jaya",
        "Post_Office": "Melaka",
        "State": "Melaka"
    },
    {
        "Postcode": "75350",
        "Location": "Solok Pasir Putih",
        "Post_Office": "Melaka",
        "State": "Melaka"
    },
    {
        "Postcode": "75350",
        "Location": "Solok Pulau Nibong",
        "Post_Office": "Melaka",
        "State": "Melaka"
    },
    {
        "Postcode": "75350",
        "Location": "Solok Sang Lang",
        "Post_Office": "Melaka",
        "State": "Melaka"
    },
    {
        "Postcode": "75350",
        "Location": "Sungai Putat",
        "Post_Office": "Melaka",
        "State": "Melaka"
    },
    {
        "Postcode": "75350",
        "Location": "Taman Akasia, Hang Tuah Jaya",
        "Post_Office": "Melaka",
        "State": "Melaka"
    },
    {
        "Postcode": "75350",
        "Location": "Taman Ara Indah, Hang Tuah Jaya",
        "Post_Office": "Melaka",
        "State": "Melaka"
    },
    {
        "Postcode": "75350",
        "Location": "Taman Ara Permai, Hang Tuah Jaya",
        "Post_Office": "Melaka",
        "State": "Melaka"
    },
    {
        "Postcode": "75350",
        "Location": "Taman Ara, Hang Tuah Jaya",
        "Post_Office": "Melaka",
        "State": "Melaka"
    },
    {
        "Postcode": "75350",
        "Location": "Taman Berendam, Hang Tuah Jaya",
        "Post_Office": "Melaka",
        "State": "Melaka"
    },
    {
        "Postcode": "75350",
        "Location": "Taman Beringin, Hang Tuah Jaya",
        "Post_Office": "Melaka",
        "State": "Melaka"
    },
    {
        "Postcode": "75350",
        "Location": "Taman Cergas, Hang Tuah Jaya",
        "Post_Office": "Melaka",
        "State": "Melaka"
    },
    {
        "Postcode": "75350",
        "Location": "Taman Datuk Tamby Chik Karim, Hang Tuah Jaya",
        "Post_Office": "Melaka",
        "State": "Melaka"
    },
    {
        "Postcode": "75350",
        "Location": "Taman Desa Bakti",
        "Post_Office": "Melaka",
        "State": "Melaka"
    },
    {
        "Postcode": "75350",
        "Location": "Taman Desa Baru, Hang Tuah Jaya",
        "Post_Office": "Melaka",
        "State": "Melaka"
    },
    {
        "Postcode": "75350",
        "Location": "Taman Devadason, Hang Tuah Jaya",
        "Post_Office": "Melaka",
        "State": "Melaka"
    },
    {
        "Postcode": "75350",
        "Location": "Taman Ikhsan, Hang Tuah Jaya",
        "Post_Office": "Melaka",
        "State": "Melaka"
    },
    {
        "Postcode": "75350",
        "Location": "Taman Iks Merdeka",
        "Post_Office": "Melaka",
        "State": "Melaka"
    },
    {
        "Postcode": "75350",
        "Location": "Taman Jati, Hang Tuah Jaya",
        "Post_Office": "Melaka",
        "State": "Melaka"
    },
    {
        "Postcode": "75350",
        "Location": "Taman Mas Jaya",
        "Post_Office": "Melaka",
        "State": "Melaka"
    },
    {
        "Postcode": "75350",
        "Location": "Taman Mas Merah Jaya, Hang Tuah Jaya",
        "Post_Office": "Melaka",
        "State": "Melaka"
    },
    {
        "Postcode": "75350",
        "Location": "Taman Mas Merah, Hang Tuah Jaya",
        "Post_Office": "Melaka",
        "State": "Melaka"
    },
    {
        "Postcode": "75350",
        "Location": "Taman Melaka Baru, Hang Tuah Jaya",
        "Post_Office": "Melaka",
        "State": "Melaka"
    },
    {
        "Postcode": "75350",
        "Location": "Taman Melaka Permai, Hang Tuah Jaya",
        "Post_Office": "Melaka",
        "State": "Melaka"
    },
    {
        "Postcode": "75350",
        "Location": "Taman Merdeka Jaya, Hang Tuah Jaya",
        "Post_Office": "Melaka",
        "State": "Melaka"
    },
    {
        "Postcode": "75350",
        "Location": "Taman Merdeka Permai, Hang Tuah Jaya",
        "Post_Office": "Melaka",
        "State": "Melaka"
    },
    {
        "Postcode": "75350",
        "Location": "Taman Merdeka, Hang Tuah Jaya",
        "Post_Office": "Melaka",
        "State": "Melaka"
    },
    {
        "Postcode": "75350",
        "Location": "Taman Mgbm",
        "Post_Office": "Melaka",
        "State": "Melaka"
    },
    {
        "Postcode": "75350",
        "Location": "Taman Mutiara Melaka, Hang Tuah Jaya",
        "Post_Office": "Melaka",
        "State": "Melaka"
    },
    {
        "Postcode": "75350",
        "Location": "Taman Padang Balang, Hang Tuah Jaya",
        "Post_Office": "Melaka",
        "State": "Melaka"
    },
    {
        "Postcode": "75350",
        "Location": "Taman Pasir Putih",
        "Post_Office": "Melaka",
        "State": "Melaka"
    },
    {
        "Postcode": "75350",
        "Location": "Taman Perindustrian Batu Berendam, Hang Tuah Jaya",
        "Post_Office": "Melaka",
        "State": "Melaka"
    },
    {
        "Postcode": "75350",
        "Location": "Taman Perindustrian Merdeka Jaya",
        "Post_Office": "Melaka",
        "State": "Melaka"
    },
    {
        "Postcode": "75350",
        "Location": "Taman Perindustrian Merdeka, Hang Tuah Jaya",
        "Post_Office": "Melaka",
        "State": "Melaka"
    },
    {
        "Postcode": "75350",
        "Location": "Taman Perkota, Hang Tuah Jaya",
        "Post_Office": "Melaka",
        "State": "Melaka"
    },
    {
        "Postcode": "75350",
        "Location": "Taman Pertama",
        "Post_Office": "Melaka",
        "State": "Melaka"
    },
    {
        "Postcode": "75350",
        "Location": "Taman Putat Indah, Hang Tuah Jaya",
        "Post_Office": "Melaka",
        "State": "Melaka"
    },
    {
        "Postcode": "75350",
        "Location": "Taman Putat Permai, Hang Tuah Jaya",
        "Post_Office": "Melaka",
        "State": "Melaka"
    },
    {
        "Postcode": "75350",
        "Location": "Taman Ria, Hang Tuah Jaya",
        "Post_Office": "Melaka",
        "State": "Melaka"
    },
    {
        "Postcode": "75350",
        "Location": "Taman Seri Budi",
        "Post_Office": "Melaka",
        "State": "Melaka"
    },
    {
        "Postcode": "75350",
        "Location": "Taman Seri Daya, Hang Tuah Jaya",
        "Post_Office": "Melaka",
        "State": "Melaka"
    },
    {
        "Postcode": "75350",
        "Location": "Taman Seri Jati, Hang Tuah Jaya",
        "Post_Office": "Melaka",
        "State": "Melaka"
    },
    {
        "Postcode": "75350",
        "Location": "Taman Seri Perkota",
        "Post_Office": "Melaka",
        "State": "Melaka"
    },
    {
        "Postcode": "75350",
        "Location": "Taman Seri Selendang, Hang Tuah Jaya",
        "Post_Office": "Melaka",
        "State": "Melaka"
    },
    {
        "Postcode": "75350",
        "Location": "Taman Seri Songket, Hang Tuah Jaya",
        "Post_Office": "Melaka",
        "State": "Melaka"
    },
    {
        "Postcode": "75350",
        "Location": "Taman Seri Wangsa, Hang Tuah Jaya",
        "Post_Office": "Melaka",
        "State": "Melaka"
    },
    {
        "Postcode": "75350",
        "Location": "Taman Sutera Belia, Hang Tuah Jaya",
        "Post_Office": "Melaka",
        "State": "Melaka"
    },
    {
        "Postcode": "75350",
        "Location": "Taman Sutera Seksyen 1, Hang Tuah Jaya",
        "Post_Office": "Melaka",
        "State": "Melaka"
    },
    {
        "Postcode": "75350",
        "Location": "Taman Sutera Wangi",
        "Post_Office": "Melaka",
        "State": "Melaka"
    },
    {
        "Postcode": "75350",
        "Location": "Taman Widuri",
        "Post_Office": "Melaka",
        "State": "Melaka"
    },
    {
        "Postcode": "75350",
        "Location": "Lapangan Terbang Batu Berendam",
        "Post_Office": "Melaka",
        "State": "Melaka"
    },
    {
        "Postcode": "75350",
        "Location": "Taman Sutera",
        "Post_Office": "Melaka",
        "State": "Melaka"
    },
    {
        "Postcode": "75350",
        "Location": "Taman Bachang Baru",
        "Post_Office": "Melaka",
        "State": "Melaka"
    },
    {
        "Postcode": "75350",
        "Location": "Taman Bachang Baru Seksyen 1",
        "Post_Office": "Melaka",
        "State": "Melaka"
    },
    {
        "Postcode": "75350",
        "Location": "Taman Bachang Jaya",
        "Post_Office": "Melaka",
        "State": "Melaka"
    },
    {
        "Postcode": "75350",
        "Location": "Taman Bachang Permai",
        "Post_Office": "Melaka",
        "State": "Melaka"
    },
    {
        "Postcode": "75350",
        "Location": "Taman Bachang Utama",
        "Post_Office": "Melaka",
        "State": "Melaka"
    },
    {
        "Postcode": "75350",
        "Location": "Wisma Teladan",
        "Post_Office": "Melaka",
        "State": "Melaka"
    },
    {
        "Postcode": "75350",
        "Location": "Taman Perindustrian Merdeka Permai",
        "Post_Office": "Melaka",
        "State": "Melaka"
    },
    {
        "Postcode": "75350",
        "Location": "Pusat Komersial Sutera Wangi",
        "Post_Office": "Melaka",
        "State": "Melaka"
    },
    {
        "Postcode": "75350",
        "Location": "Jalan Komersial Sutera Wangi",
        "Post_Office": "Melaka",
        "State": "Melaka"
    },
    {
        "Postcode": "75350",
        "Location": "Jalan Komersial Sutera Wangi 1",
        "Post_Office": "Melaka",
        "State": "Melaka"
    },
    {
        "Postcode": "75350",
        "Location": "Kawasan Perindustrian Batu Berendam",
        "Post_Office": "Melaka",
        "State": "Melaka"
    },
    {
        "Postcode": "75350",
        "Location": "Taman Arked Sutera Belia",
        "Post_Office": "Melaka",
        "State": "Melaka"
    },
    {
        "Postcode": "75350",
        "Location": "Taman Arked Sutera Jaya",
        "Post_Office": "Melaka",
        "State": "Melaka"
    },
    {
        "Postcode": "75350",
        "Location": "Taman Batu Berendam Putera, Hang Tuah Jaya",
        "Post_Office": "Melaka",
        "State": "Melaka"
    },
    {
        "Postcode": "75350",
        "Location": "Jalan Iks M12",
        "Post_Office": "Melaka",
        "State": "Melaka"
    },
    {
        "Postcode": "75350",
        "Location": "Jalan Iks M5",
        "Post_Office": "Melaka",
        "State": "Melaka"
    },
    {
        "Postcode": "75350",
        "Location": "Jalan Iks M6",
        "Post_Office": "Melaka",
        "State": "Melaka"
    },
    {
        "Postcode": "75350",
        "Location": "Jalan Iks M7",
        "Post_Office": "Melaka",
        "State": "Melaka"
    },
    {
        "Postcode": "75350",
        "Location": "Jalan Iks M7A",
        "Post_Office": "Melaka",
        "State": "Melaka"
    },
    {
        "Postcode": "75350",
        "Location": "Taman Melaka Baru Seksyen 1, Hang Tuah Jaya",
        "Post_Office": "Melaka",
        "State": "Melaka"
    },
    {
        "Postcode": "75350",
        "Location": "Taman Melaka Baru Seksyen 2, Hang Tuah Jaya",
        "Post_Office": "Melaka",
        "State": "Melaka"
    },
    {
        "Postcode": "75350",
        "Location": "Taman Melaka Baru Seksyen 3, Hang Tuah Jaya",
        "Post_Office": "Melaka",
        "State": "Melaka"
    },
    {
        "Postcode": "75350",
        "Location": "Taman Sutera Wangi 2",
        "Post_Office": "Melaka",
        "State": "Melaka"
    }
]
