[
    {
        "Postcode": "75400",
        "Location": "Bukit Palah",
        "Post_Office": "Melaka",
        "State": "Melaka"
    },
    {
        "Postcode": "75400",
        "Location": "Bukit Peringgit",
        "Post_Office": "Melaka",
        "State": "Melaka"
    },
    {
        "Postcode": "75400",
        "Location": "Bukit Serindit",
        "Post_Office": "Melaka",
        "State": "Melaka"
    },
    {
        "Postcode": "75400",
        "Location": "Flat Bukit Serindit",
        "Post_Office": "Melaka",
        "State": "Melaka"
    },
    {
        "Postcode": "75400",
        "Location": "Jalan Bakti Peringgit",
        "Post_Office": "Melaka",
        "State": "Melaka"
    },
    {
        "Postcode": "75400",
        "Location": "Jalan Bukit Palah",
        "Post_Office": "Melaka",
        "State": "Melaka"
    },
    {
        "Postcode": "75400",
        "Location": "Jalan Bukit Serindit",
        "Post_Office": "Melaka",
        "State": "Melaka"
    },
    {
        "Postcode": "75400",
        "Location": "Jalan Durian Daun Dalam",
        "Post_Office": "Melaka",
        "State": "Melaka"
    },
    {
        "Postcode": "75400",
        "Location": "Jalan Lin Cheng Hoon",
        "Post_Office": "Melaka",
        "State": "Melaka"
    },
    {
        "Postcode": "75400",
        "Location": "Jalan Mahendasa",
        "Post_Office": "Melaka",
        "State": "Melaka"
    },
    {
        "Postcode": "75400",
        "Location": "Jalan Mayang",
        "Post_Office": "Melaka",
        "State": "Melaka"
    },
    {
        "Postcode": "75400",
        "Location": "Jalan Mufti Haji Khalil",
        "Post_Office": "Melaka",
        "State": "Melaka"
    },
    {
        "Postcode": "75400",
        "Location": "Jalan Pantai Peringgit",
        "Post_Office": "Melaka",
        "State": "Melaka"
    },
    {
        "Postcode": "75400",
        "Location": "Jalan Peringgit (Peringgit)",
        "Post_Office": "Melaka",
        "State": "Melaka"
    },
    {
        "Postcode": "75400",
        "Location": "Jalan Peringgit Jaya",
        "Post_Office": "Melaka",
        "State": "Melaka"
    },
    {
        "Postcode": "75400",
        "Location": "Jalan Seri Aman",
        "Post_Office": "Melaka",
        "State": "Melaka"
    },
    {
        "Postcode": "75400",
        "Location": "Jalan Taming Sari",
        "Post_Office": "Melaka",
        "State": "Melaka"
    },
    {
        "Postcode": "75400",
        "Location": "Jalan Taming Sari Dalam",
        "Post_Office": "Melaka",
        "State": "Melaka"
    },
    {
        "Postcode": "75400",
        "Location": "Jalan Tun Fatimah",
        "Post_Office": "Melaka",
        "State": "Melaka"
    },
    {
        "Postcode": "75400",
        "Location": "Jalan Tun Fatimah (Durian Daun)",
        "Post_Office": "Melaka",
        "State": "Melaka"
    },
    {
        "Postcode": "75400",
        "Location": "Jalan Tun Razak",
        "Post_Office": "Melaka",
        "State": "Melaka"
    },
    {
        "Postcode": "75400",
        "Location": "Kampung Durian Daun Dalam",
        "Post_Office": "Melaka",
        "State": "Melaka"
    },
    {
        "Postcode": "75400",
        "Location": "Kampung Mata Kuching Dalam",
        "Post_Office": "Melaka",
        "State": "Melaka"
    },
    {
        "Postcode": "75400",
        "Location": "Kampung Pantai Peringgit",
        "Post_Office": "Melaka",
        "State": "Melaka"
    },
    {
        "Postcode": "75400",
        "Location": "Kolej Jururawat",
        "Post_Office": "Melaka",
        "State": "Melaka"
    },
    {
        "Postcode": "75400",
        "Location": "Kompleks Majlis Agama Islam Melaka (Maim)",
        "Post_Office": "Melaka",
        "State": "Melaka"
    },
    {
        "Postcode": "75400",
        "Location": "Kompleks Perniagaan Al-Azim",
        "Post_Office": "Melaka",
        "State": "Melaka"
    },
    {
        "Postcode": "75400",
        "Location": "Kompleks Perumahan Tnb",
        "Post_Office": "Melaka",
        "State": "Melaka"
    },
    {
        "Postcode": "75400",
        "Location": "Melaka Sentral",
        "Post_Office": "Melaka",
        "State": "Melaka"
    },
    {
        "Postcode": "75400",
        "Location": "Pangsapuri Peringgit Indah",
        "Post_Office": "Melaka",
        "State": "Melaka"
    },
    {
        "Postcode": "75400",
        "Location": "Pangsapuri Sri Serindit",
        "Post_Office": "Melaka",
        "State": "Melaka"
    },
    {
        "Postcode": "75400",
        "Location": "Pangsapuri Taming Sari",
        "Post_Office": "Melaka",
        "State": "Melaka"
    },
    {
        "Postcode": "75400",
        "Location": "Pasar Besar Melaka",
        "Post_Office": "Melaka",
        "State": "Melaka"
    },
    {
        "Postcode": "75400",
        "Location": "Plaza Melaka Central",
        "Post_Office": "Melaka",
        "State": "Melaka"
    },
    {
        "Postcode": "75400",
        "Location": "Rumah Awam Pantai Peringgit",
        "Post_Office": "Melaka",
        "State": "Melaka"
    },
    {
        "Postcode": "75400",
        "Location": "Rumah Murah Perenggit",
        "Post_Office": "Melaka",
        "State": "Melaka"
    },
    {
        "Postcode": "75400",
        "Location": "Solok Balik Bukit",
        "Post_Office": "Melaka",
        "State": "Melaka"
    },
    {
        "Postcode": "75400",
        "Location": "Solok Balik Bukit Palah",
        "Post_Office": "Melaka",
        "State": "Melaka"
    },
    {
        "Postcode": "75400",
        "Location": "Taman Bukit Serindit",
        "Post_Office": "Melaka",
        "State": "Melaka"
    },
    {
        "Postcode": "75400",
        "Location": "Taman Bukit Serindit Jaya",
        "Post_Office": "Melaka",
        "State": "Melaka"
    },
    {
        "Postcode": "75400",
        "Location": "Taman Desa Peringgit",
        "Post_Office": "Melaka",
        "State": "Melaka"
    },
    {
        "Postcode": "75400",
        "Location": "Taman Elok",
        "Post_Office": "Melaka",
        "State": "Melaka"
    },
    {
        "Postcode": "75400",
        "Location": "Taman Laksamana",
        "Post_Office": "Melaka",
        "State": "Melaka"
    },
    {
        "Postcode": "75400",
        "Location": "Taman Mata Kuching",
        "Post_Office": "Melaka",
        "State": "Melaka"
    },
    {
        "Postcode": "75400",
        "Location": "Taman Noorbar",
        "Post_Office": "Melaka",
        "State": "Melaka"
    },
    {
        "Postcode": "75400",
        "Location": "Taman Norbah",
        "Post_Office": "Melaka",
        "State": "Melaka"
    },
    {
        "Postcode": "75400",
        "Location": "Taman Panglima",
        "Post_Office": "Melaka",
        "State": "Melaka"
    },
    {
        "Postcode": "75400",
        "Location": "Taman Panglima (Bukit Serindit)",
        "Post_Office": "Melaka",
        "State": "Melaka"
    },
    {
        "Postcode": "75400",
        "Location": "Taman Panglima 2",
        "Post_Office": "Melaka",
        "State": "Melaka"
    },
    {
        "Postcode": "75400",
        "Location": "Taman Peringgit Indah",
        "Post_Office": "Melaka",
        "State": "Melaka"
    },
    {
        "Postcode": "75400",
        "Location": "Taman Peringgit Jaya",
        "Post_Office": "Melaka",
        "State": "Melaka"
    },
    {
        "Postcode": "75400",
        "Location": "Taman Peringgit Permai",
        "Post_Office": "Melaka",
        "State": "Melaka"
    },
    {
        "Postcode": "75400",
        "Location": "Taman Peringgit Ria",
        "Post_Office": "Melaka",
        "State": "Melaka"
    },
    {
        "Postcode": "75400",
        "Location": "Taman Seri Cempaka",
        "Post_Office": "Melaka",
        "State": "Melaka"
    },
    {
        "Postcode": "75400",
        "Location": "Jalan Lagenda",
        "Post_Office": "Melaka",
        "State": "Melaka"
    },
    {
        "Postcode": "75400",
        "Location": "Jalan Durian Daun",
        "Post_Office": "Melaka",
        "State": "Melaka"
    },
    {
        "Postcode": "75400",
        "Location": "Kompleks Perumahan Tnb",
        "Post_Office": "Melaka",
        "State": "Melaka"
    },
    {
        "Postcode": "75400",
        "Location": "Solok Bukit Palah",
        "Post_Office": "Melaka",
        "State": "Melaka"
    },
    {
        "Postcode": "75400",
        "Location": "Taman Cempaka",
        "Post_Office": "Melaka",
        "State": "Melaka"
    },
    {
        "Postcode": "75400",
        "Location": "Kompleks Perniagaan Musai Jaya",
        "Post_Office": "Melaka",
        "State": "Melaka"
    },
    {
        "Postcode": "75400",
        "Location": "Kampung Peringgit",
        "Post_Office": "Melaka",
        "State": "Melaka"
    },
    {
        "Postcode": "75400",
        "Location": "Taman 1 Lagenda",
        "Post_Office": "Melaka",
        "State": "Melaka"
    },
    {
        "Postcode": "75400",
        "Location": "Taman Seri Serindit",
        "Post_Office": "Melaka",
        "State": "Melaka"
    },
    {
        "Postcode": "75400",
        "Location": "Jalan Lagenda 1",
        "Post_Office": "Melaka",
        "State": "Melaka"
    },
    {
        "Postcode": "75400",
        "Location": "Jalan Lagenda 10",
        "Post_Office": "Melaka",
        "State": "Melaka"
    },
    {
        "Postcode": "75400",
        "Location": "Jalan Lagenda 2",
        "Post_Office": "Melaka",
        "State": "Melaka"
    },
    {
        "Postcode": "75400",
        "Location": "Jalan Lagenda 3",
        "Post_Office": "Melaka",
        "State": "Melaka"
    },
    {
        "Postcode": "75400",
        "Location": "Jalan Lagenda 4",
        "Post_Office": "Melaka",
        "State": "Melaka"
    },
    {
        "Postcode": "75400",
        "Location": "Jalan Lagenda 5",
        "Post_Office": "Melaka",
        "State": "Melaka"
    },
    {
        "Postcode": "75400",
        "Location": "Jalan Lagenda 6",
        "Post_Office": "Melaka",
        "State": "Melaka"
    },
    {
        "Postcode": "75400",
        "Location": "Jalan Lagenda 7",
        "Post_Office": "Melaka",
        "State": "Melaka"
    },
    {
        "Postcode": "75400",
        "Location": "Jalan Lagenda 8",
        "Post_Office": "Melaka",
        "State": "Melaka"
    },
    {
        "Postcode": "75400",
        "Location": "Jalan Lagenda 9",
        "Post_Office": "Melaka",
        "State": "Melaka"
    },
    {
        "Postcode": "75400",
        "Location": "Pantai Peringgit 1",
        "Post_Office": "Melaka",
        "State": "Melaka"
    },
    {
        "Postcode": "75400",
        "Location": "Pantai Peringgit 2",
        "Post_Office": "Melaka",
        "State": "Melaka"
    },
    {
        "Postcode": "75400",
        "Location": "Pusat Niaga Persimpangan Peringgit",
        "Post_Office": "Melaka",
        "State": "Melaka"
    }
]
