[
    {
        "Postcode": "75450",
        "Location": "Kota Cemerlang",
        "Post_Office": "Ayer Keroh",
        "State": "Melaka"
    },
    {
        "Postcode": "75450",
        "Location": "Taman Bukit Beruang Heights",
        "Post_Office": "Ayer Keroh",
        "State": "Melaka"
    },
    {
        "Postcode": "75450",
        "Location": "Taman Muzaffar Heights, Hang Tuah Jaya",
        "Post_Office": "Ayer Keroh",
        "State": "Melaka"
    },
    {
        "Postcode": "75450",
        "Location": "Taman Tun Razak",
        "Post_Office": "Ayer Keroh",
        "State": "Melaka"
    },
    {
        "Postcode": "75450",
        "Location": "Jalan Seri Puri 1",
        "Post_Office": "Ayer Keroh",
        "State": "Melaka"
    },
    {
        "Postcode": "75450",
        "Location": "Jalan Seri Puri 2",
        "Post_Office": "Ayer Keroh",
        "State": "Melaka"
    },
    {
        "Postcode": "75450",
        "Location": "Jalan Seri Puri 3",
        "Post_Office": "Ayer Keroh",
        "State": "Melaka"
    },
    {
        "Postcode": "75450",
        "Location": "Jalan Seri Puri 4",
        "Post_Office": "Ayer Keroh",
        "State": "Melaka"
    },
    {
        "Postcode": "75450",
        "Location": "Taman Seri Puri",
        "Post_Office": "Ayer Keroh",
        "State": "Melaka"
    },
    {
        "Postcode": "75450",
        "Location": "Jalan Seri Duta 4",
        "Post_Office": "Ayer Keroh",
        "State": "Melaka"
    },
    {
        "Postcode": "75450",
        "Location": "Jalan Graha Makmur",
        "Post_Office": "Ayer Keroh",
        "State": "Melaka"
    },
    {
        "Postcode": "75450",
        "Location": "D Bayu Residen",
        "Post_Office": "Ayer Keroh",
        "State": "Melaka"
    },
    {
        "Postcode": "75450",
        "Location": "Air Keroh D Village Resort",
        "Post_Office": "Ayer Keroh",
        "State": "Melaka"
    },
    {
        "Postcode": "75450",
        "Location": "Ayer Keroh Country Resort",
        "Post_Office": "Ayer Keroh",
        "State": "Melaka"
    },
    {
        "Postcode": "75450",
        "Location": "Bayu Lagun Saujana Resort",
        "Post_Office": "Ayer Keroh",
        "State": "Melaka"
    },
    {
        "Postcode": "75450",
        "Location": "Bazaar Bukit Beruang, Hang Tuah Jaya",
        "Post_Office": "Ayer Keroh",
        "State": "Melaka"
    },
    {
        "Postcode": "75450",
        "Location": "Bioteknologi",
        "Post_Office": "Ayer Keroh",
        "State": "Melaka"
    },
    {
        "Postcode": "75450",
        "Location": "Bukit Bayan",
        "Post_Office": "Ayer Keroh",
        "State": "Melaka"
    },
    {
        "Postcode": "75450",
        "Location": "Bukit Beruang",
        "Post_Office": "Ayer Keroh",
        "State": "Melaka"
    },
    {
        "Postcode": "75450",
        "Location": "Bukit Beruang Bazaar",
        "Post_Office": "Ayer Keroh",
        "State": "Melaka"
    },
    {
        "Postcode": "75450",
        "Location": "Bukit Beruang Dalam",
        "Post_Office": "Ayer Keroh",
        "State": "Melaka"
    },
    {
        "Postcode": "75450",
        "Location": "Bukit Bruang Heights, Hang Tuah Jaya",
        "Post_Office": "Ayer Keroh",
        "State": "Melaka"
    },
    {
        "Postcode": "75450",
        "Location": "Bukit Katil",
        "Post_Office": "Ayer Keroh",
        "State": "Melaka"
    },
    {
        "Postcode": "75450",
        "Location": "Bukit Katil Permai",
        "Post_Office": "Ayer Keroh",
        "State": "Melaka"
    },
    {
        "Postcode": "75450",
        "Location": "Bukit Tahu Sama Tahu",
        "Post_Office": "Ayer Keroh",
        "State": "Melaka"
    },
    {
        "Postcode": "75450",
        "Location": "D'Village Resort",
        "Post_Office": "Ayer Keroh",
        "State": "Melaka"
    },
    {
        "Postcode": "75450",
        "Location": "Hospital Pantai",
        "Post_Office": "Ayer Keroh",
        "State": "Melaka"
    },
    {
        "Postcode": "75450",
        "Location": "Hotel Sri Malaysia",
        "Post_Office": "Ayer Keroh",
        "State": "Melaka"
    },
    {
        "Postcode": "75450",
        "Location": "Hotel Water City",
        "Post_Office": "Ayer Keroh",
        "State": "Melaka"
    },
    {
        "Postcode": "75450",
        "Location": "Ibu Pejabat Bomba Negeri Melaka, Bukit Katil",
        "Post_Office": "Ayer Keroh",
        "State": "Melaka"
    },
    {
        "Postcode": "75450",
        "Location": "Ibu Pejabat Polis Kontijen Melaka Bukit Beruang",
        "Post_Office": "Ayer Keroh",
        "State": "Melaka"
    },
    {
        "Postcode": "75450",
        "Location": "Institut Latihan Perindustrian",
        "Post_Office": "Ayer Keroh",
        "State": "Melaka"
    },
    {
        "Postcode": "75450",
        "Location": "Institut Putra",
        "Post_Office": "Ayer Keroh",
        "State": "Melaka"
    },
    {
        "Postcode": "75450",
        "Location": "Jalan Ayer Keroh",
        "Post_Office": "Ayer Keroh",
        "State": "Melaka"
    },
    {
        "Postcode": "75450",
        "Location": "Jalan Ayer Keroh Lama",
        "Post_Office": "Ayer Keroh",
        "State": "Melaka"
    },
    {
        "Postcode": "75450",
        "Location": "Jalan Bukit Beruang",
        "Post_Office": "Ayer Keroh",
        "State": "Melaka"
    },
    {
        "Postcode": "75450",
        "Location": "Jalan Bukit Katil",
        "Post_Office": "Ayer Keroh",
        "State": "Melaka"
    },
    {
        "Postcode": "75450",
        "Location": "Jalan Bukit Katil Dalam",
        "Post_Office": "Ayer Keroh",
        "State": "Melaka"
    },
    {
        "Postcode": "75450",
        "Location": "K - Ekonomi",
        "Post_Office": "Ayer Keroh",
        "State": "Melaka"
    },
    {
        "Postcode": "75450",
        "Location": "Kampung Ayer Keroh, Hang Tuah Jaya",
        "Post_Office": "Ayer Keroh",
        "State": "Melaka"
    },
    {
        "Postcode": "75450",
        "Location": "Kampung Balik Hutan",
        "Post_Office": "Ayer Keroh",
        "State": "Melaka"
    },
    {
        "Postcode": "75450",
        "Location": "Kampung Baru Ayer Keroh",
        "Post_Office": "Ayer Keroh",
        "State": "Melaka"
    },
    {
        "Postcode": "75450",
        "Location": "Kampung Baru Bukit Bruang, Hang Tuah Jaya",
        "Post_Office": "Ayer Keroh",
        "State": "Melaka"
    },
    {
        "Postcode": "75450",
        "Location": "Kampung Batu Tujuh",
        "Post_Office": "Ayer Keroh",
        "State": "Melaka"
    },
    {
        "Postcode": "75450",
        "Location": "Kampung Bukit Bayan",
        "Post_Office": "Ayer Keroh",
        "State": "Melaka"
    },
    {
        "Postcode": "75450",
        "Location": "Kampung Bukit Beruang, Hang Tuah Jaya",
        "Post_Office": "Ayer Keroh",
        "State": "Melaka"
    },
    {
        "Postcode": "75450",
        "Location": "Kampung Bukit Katil",
        "Post_Office": "Ayer Keroh",
        "State": "Melaka"
    },
    {
        "Postcode": "75450",
        "Location": "Kampung Bukit Ranting",
        "Post_Office": "Ayer Keroh",
        "State": "Melaka"
    },
    {
        "Postcode": "75450",
        "Location": "Kampung Pengkalan Badak, Hang Tuah Jaya",
        "Post_Office": "Ayer Keroh",
        "State": "Melaka"
    },
    {
        "Postcode": "75450",
        "Location": "Kampung Tebing Tinggi",
        "Post_Office": "Ayer Keroh",
        "State": "Melaka"
    },
    {
        "Postcode": "75450",
        "Location": "Kampung Telok Bukit Beruang",
        "Post_Office": "Ayer Keroh",
        "State": "Melaka"
    },
    {
        "Postcode": "75450",
        "Location": "Kampung Tun Abdul Razak, Hang Tuah Jaya",
        "Post_Office": "Ayer Keroh",
        "State": "Melaka"
    },
    {
        "Postcode": "75450",
        "Location": "K-Ekonomi",
        "Post_Office": "Ayer Keroh",
        "State": "Melaka"
    },
    {
        "Postcode": "75450",
        "Location": "Kelab Pelangi Hang Tuah Jaya",
        "Post_Office": "Ayer Keroh",
        "State": "Melaka"
    },
    {
        "Postcode": "75450",
        "Location": "Kem Bukit Bruang",
        "Post_Office": "Ayer Keroh",
        "State": "Melaka"
    },
    {
        "Postcode": "75450",
        "Location": "Kolej Universiti Teknologi Kebangsaan Malaysia",
        "Post_Office": "Ayer Keroh",
        "State": "Melaka"
    },
    {
        "Postcode": "75450",
        "Location": "Kolej Yayasan Saad",
        "Post_Office": "Ayer Keroh",
        "State": "Melaka"
    },
    {
        "Postcode": "75450",
        "Location": "Kompleks Belia \u0026 Sukan",
        "Post_Office": "Ayer Keroh",
        "State": "Melaka"
    },
    {
        "Postcode": "75450",
        "Location": "Kompleks Ibu Pejabat Bomba \u0026 Penyelamat Hang Tuah Jaya",
        "Post_Office": "Ayer Keroh",
        "State": "Melaka"
    },
    {
        "Postcode": "75450",
        "Location": "Kompleks Niaga Melaka Perdana",
        "Post_Office": "Ayer Keroh",
        "State": "Melaka"
    },
    {
        "Postcode": "75450",
        "Location": "Kondominium Seri Nuri, Hang Tuah Jaya",
        "Post_Office": "Ayer Keroh",
        "State": "Melaka"
    },
    {
        "Postcode": "75450",
        "Location": "Kondominium Tiara, Hang Tuah Jaya",
        "Post_Office": "Ayer Keroh",
        "State": "Melaka"
    },
    {
        "Postcode": "75450",
        "Location": "Kota Fesyen - Mtc",
        "Post_Office": "Ayer Keroh",
        "State": "Melaka"
    },
    {
        "Postcode": "75450",
        "Location": "Leboh Ayer Keroh",
        "Post_Office": "Ayer Keroh",
        "State": "Melaka"
    },
    {
        "Postcode": "75450",
        "Location": "Lorong Bukit Saga",
        "Post_Office": "Ayer Keroh",
        "State": "Melaka"
    },
    {
        "Postcode": "75450",
        "Location": "Melaka Perdana",
        "Post_Office": "Ayer Keroh",
        "State": "Melaka"
    },
    {
        "Postcode": "75450",
        "Location": "Menara Micth",
        "Post_Office": "Ayer Keroh",
        "State": "Melaka"
    },
    {
        "Postcode": "75450",
        "Location": "Ozana Country Resort",
        "Post_Office": "Ayer Keroh",
        "State": "Melaka"
    },
    {
        "Postcode": "75450",
        "Location": "Ozana Impian",
        "Post_Office": "Ayer Keroh",
        "State": "Melaka"
    },
    {
        "Postcode": "75450",
        "Location": "Pangsapuri Bukit Beruang",
        "Post_Office": "Ayer Keroh",
        "State": "Melaka"
    },
    {
        "Postcode": "75450",
        "Location": "Pangsapuri Bukit Beruang Murni, Hang Tuah Jaya",
        "Post_Office": "Ayer Keroh",
        "State": "Melaka"
    },
    {
        "Postcode": "75450",
        "Location": "Pangsapuri Bukit Beruang Permai, Hang Tuah Jaya",
        "Post_Office": "Ayer Keroh",
        "State": "Melaka"
    },
    {
        "Postcode": "75450",
        "Location": "Pangsapuri Bukit Beruang Utama, Hang Tuah Jaya",
        "Post_Office": "Ayer Keroh",
        "State": "Melaka"
    },
    {
        "Postcode": "75450",
        "Location": "Pangsapuri Bukit Beruang, Hang Tuah Jaya",
        "Post_Office": "Ayer Keroh",
        "State": "Melaka"
    },
    {
        "Postcode": "75450",
        "Location": "Pangsapuri Bunga Raya, Hang Tuah Jaya",
        "Post_Office": "Ayer Keroh",
        "State": "Melaka"
    },
    {
        "Postcode": "75450",
        "Location": "Pangsapuri Dahlia, Hang Tuah Jaya",
        "Post_Office": "Ayer Keroh",
        "State": "Melaka"
    },
    {
        "Postcode": "75450",
        "Location": "Pangsapuri Melor",
        "Post_Office": "Ayer Keroh",
        "State": "Melaka"
    },
    {
        "Postcode": "75450",
        "Location": "Pangsapuri Murni",
        "Post_Office": "Ayer Keroh",
        "State": "Melaka"
    },
    {
        "Postcode": "75450",
        "Location": "Pangsapuri Pantai Baru, Hang Tuah Jaya",
        "Post_Office": "Ayer Keroh",
        "State": "Melaka"
    },
    {
        "Postcode": "75450",
        "Location": "Pangsapuri Pelangi, Hang Tuah Jaya",
        "Post_Office": "Ayer Keroh",
        "State": "Melaka"
    },
    {
        "Postcode": "75450",
        "Location": "Pangsapuri Saujana Resort",
        "Post_Office": "Ayer Keroh",
        "State": "Melaka"
    },
    {
        "Postcode": "75450",
        "Location": "Pangsapuri Yayasan Belia Sedunia",
        "Post_Office": "Ayer Keroh",
        "State": "Melaka"
    },
    {
        "Postcode": "75450",
        "Location": "Paradise Resort",
        "Post_Office": "Ayer Keroh",
        "State": "Melaka"
    },
    {
        "Postcode": "75450",
        "Location": "Pejabat Hutan",
        "Post_Office": "Ayer Keroh",
        "State": "Melaka"
    },
    {
        "Postcode": "75450",
        "Location": "Pejabat Seri Negeri",
        "Post_Office": "Ayer Keroh",
        "State": "Melaka"
    },
    {
        "Postcode": "75450",
        "Location": "Plaza Mitc",
        "Post_Office": "Ayer Keroh",
        "State": "Melaka"
    },
    {
        "Postcode": "75450",
        "Location": "Putri Resort",
        "Post_Office": "Ayer Keroh",
        "State": "Melaka"
    },
    {
        "Postcode": "75450",
        "Location": "Rumah Awam Bukit Beruang, Hang Tuah Jaya",
        "Post_Office": "Ayer Keroh",
        "State": "Melaka"
    },
    {
        "Postcode": "75450",
        "Location": "Rumah Awam Bukit Katil",
        "Post_Office": "Ayer Keroh",
        "State": "Melaka"
    },
    {
        "Postcode": "75450",
        "Location": "Rumah Ku Syurga Ku",
        "Post_Office": "Ayer Keroh",
        "State": "Melaka"
    },
    {
        "Postcode": "75450",
        "Location": "Rumah Pangsa Murni, Hang Tuah Jaya",
        "Post_Office": "Ayer Keroh",
        "State": "Melaka"
    },
    {
        "Postcode": "75450",
        "Location": "Sekolah Menengah Teknik Bukit Katil",
        "Post_Office": "Ayer Keroh",
        "State": "Melaka"
    },
    {
        "Postcode": "75450",
        "Location": "Sekolah Menengah Teknik Melaka Tengah",
        "Post_Office": "Ayer Keroh",
        "State": "Melaka"
    },
    {
        "Postcode": "75450",
        "Location": "Solok Bukit Bayan",
        "Post_Office": "Ayer Keroh",
        "State": "Melaka"
    },
    {
        "Postcode": "75450",
        "Location": "Solok Sidang Hasan (Bukit Katil)",
        "Post_Office": "Ayer Keroh",
        "State": "Melaka"
    },
    {
        "Postcode": "75450",
        "Location": "Solok Tebing Tinggi (Bukit Katil)",
        "Post_Office": "Ayer Keroh",
        "State": "Melaka"
    },
    {
        "Postcode": "75450",
        "Location": "Soon Lee Lebah",
        "Post_Office": "Ayer Keroh",
        "State": "Melaka"
    },
    {
        "Postcode": "75450",
        "Location": "Taman Ayer Keroh Permai",
        "Post_Office": "Ayer Keroh",
        "State": "Melaka"
    },
    {
        "Postcode": "75450",
        "Location": "Taman Belia Antarabangsa",
        "Post_Office": "Ayer Keroh",
        "State": "Melaka"
    },
    {
        "Postcode": "75450",
        "Location": "Taman Bistari",
        "Post_Office": "Ayer Keroh",
        "State": "Melaka"
    },
    {
        "Postcode": "75450",
        "Location": "Taman Buaya",
        "Post_Office": "Ayer Keroh",
        "State": "Melaka"
    },
    {
        "Postcode": "75450",
        "Location": "Taman Bukit Baru",
        "Post_Office": "Ayer Keroh",
        "State": "Melaka"
    },
    {
        "Postcode": "75450",
        "Location": "Taman Bukit Beruang",
        "Post_Office": "Ayer Keroh",
        "State": "Melaka"
    },
    {
        "Postcode": "75450",
        "Location": "Taman Bukit Beruang Bestari",
        "Post_Office": "Ayer Keroh",
        "State": "Melaka"
    },
    {
        "Postcode": "75450",
        "Location": "Taman Bukit Beruang Indah",
        "Post_Office": "Ayer Keroh",
        "State": "Melaka"
    },
    {
        "Postcode": "75450",
        "Location": "Taman Bukit Beruang Permai",
        "Post_Office": "Ayer Keroh",
        "State": "Melaka"
    },
    {
        "Postcode": "75450",
        "Location": "Taman Bukit Beruang Utama",
        "Post_Office": "Ayer Keroh",
        "State": "Melaka"
    },
    {
        "Postcode": "75450",
        "Location": "Taman Bukit Beruang Utama 2",
        "Post_Office": "Ayer Keroh",
        "State": "Melaka"
    },
    {
        "Postcode": "75450",
        "Location": "Taman Bukit Beruang Utama Seksyen 1",
        "Post_Office": "Ayer Keroh",
        "State": "Melaka"
    },
    {
        "Postcode": "75450",
        "Location": "Taman Bukit Katil",
        "Post_Office": "Ayer Keroh",
        "State": "Melaka"
    },
    {
        "Postcode": "75450",
        "Location": "Taman Bukit Katil Indah",
        "Post_Office": "Ayer Keroh",
        "State": "Melaka"
    },
    {
        "Postcode": "75450",
        "Location": "Taman Bukit Katil Jaya",
        "Post_Office": "Ayer Keroh",
        "State": "Melaka"
    },
    {
        "Postcode": "75450",
        "Location": "Taman Bukit Katil Kenari",
        "Post_Office": "Ayer Keroh",
        "State": "Melaka"
    },
    {
        "Postcode": "75450",
        "Location": "Taman Bukit Katil Permai",
        "Post_Office": "Ayer Keroh",
        "State": "Melaka"
    },
    {
        "Postcode": "75450",
        "Location": "Taman Bukit Melaka Seksyen 1, Hang Tuah Jaya",
        "Post_Office": "Ayer Keroh",
        "State": "Melaka"
    },
    {
        "Postcode": "75450",
        "Location": "Taman Bukit Melaka, Hang Tuah Jaya",
        "Post_Office": "Ayer Keroh",
        "State": "Melaka"
    },
    {
        "Postcode": "75450",
        "Location": "Taman Bukit Puteri",
        "Post_Office": "Ayer Keroh",
        "State": "Melaka"
    },
    {
        "Postcode": "75450",
        "Location": "Taman Bunga Raya, Hang Tuah Jaya",
        "Post_Office": "Ayer Keroh",
        "State": "Melaka"
    },
    {
        "Postcode": "75450",
        "Location": "Taman Bunga Seksyen 3, Hang Tuah Jaya",
        "Post_Office": "Ayer Keroh",
        "State": "Melaka"
    },
    {
        "Postcode": "75450",
        "Location": "Taman Camar Indah",
        "Post_Office": "Ayer Keroh",
        "State": "Melaka"
    },
    {
        "Postcode": "75450",
        "Location": "Taman Cendana, Hang Tuah Jaya",
        "Post_Office": "Ayer Keroh",
        "State": "Melaka"
    },
    {
        "Postcode": "75450",
        "Location": "Taman Ciptaco, Hang Tuah Jaya",
        "Post_Office": "Ayer Keroh",
        "State": "Melaka"
    },
    {
        "Postcode": "75450",
        "Location": "Taman Dahlia, Hang Tuah Jaya",
        "Post_Office": "Ayer Keroh",
        "State": "Melaka"
    },
    {
        "Postcode": "75450",
        "Location": "Taman Delima, Hang Tuah Jaya",
        "Post_Office": "Ayer Keroh",
        "State": "Melaka"
    },
    {
        "Postcode": "75450",
        "Location": "Taman Duyong Permai",
        "Post_Office": "Ayer Keroh",
        "State": "Melaka"
    },
    {
        "Postcode": "75450",
        "Location": "Taman Faridah, Hang Tuah Jaya",
        "Post_Office": "Ayer Keroh",
        "State": "Melaka"
    },
    {
        "Postcode": "75450",
        "Location": "Taman Iks Bukit Katil, Hang Tuah Jaya",
        "Post_Office": "Ayer Keroh",
        "State": "Melaka"
    },
    {
        "Postcode": "75450",
        "Location": "Taman Kerjasama, Hang Tuah Jaya",
        "Post_Office": "Ayer Keroh",
        "State": "Melaka"
    },
    {
        "Postcode": "75450",
        "Location": "Taman Kota Gemilang",
        "Post_Office": "Ayer Keroh",
        "State": "Melaka"
    },
    {
        "Postcode": "75450",
        "Location": "Taman Kota Mas, Hang Tuah Jaya",
        "Post_Office": "Ayer Keroh",
        "State": "Melaka"
    },
    {
        "Postcode": "75450",
        "Location": "Taman Mega",
        "Post_Office": "Ayer Keroh",
        "State": "Melaka"
    },
    {
        "Postcode": "75450",
        "Location": "Taman Mega Perdana, Hang Tuah Jaya",
        "Post_Office": "Ayer Keroh",
        "State": "Melaka"
    },
    {
        "Postcode": "75450",
        "Location": "Taman Megah, Hang Tuah Jaya",
        "Post_Office": "Ayer Keroh",
        "State": "Melaka"
    },
    {
        "Postcode": "75450",
        "Location": "Taman Melaka Perdana, Hang Tuah Jaya",
        "Post_Office": "Ayer Keroh",
        "State": "Melaka"
    },
    {
        "Postcode": "75450",
        "Location": "Taman Melawis, Hang Tuah Jaya",
        "Post_Office": "Ayer Keroh",
        "State": "Melaka"
    },
    {
        "Postcode": "75450",
        "Location": "Taman Merak Mas, Hang Tuah Jaya",
        "Post_Office": "Ayer Keroh",
        "State": "Melaka"
    },
    {
        "Postcode": "75450",
        "Location": "Taman Merak, Hang Tuah Jaya",
        "Post_Office": "Ayer Keroh",
        "State": "Melaka"
    },
    {
        "Postcode": "75450",
        "Location": "Taman Merbok Seksyen 1, Hang Tuah Jaya",
        "Post_Office": "Ayer Keroh",
        "State": "Melaka"
    },
    {
        "Postcode": "75450",
        "Location": "Taman Merbok, Hang Tuah Jaya",
        "Post_Office": "Ayer Keroh",
        "State": "Melaka"
    },
    {
        "Postcode": "75450",
        "Location": "Taman Muzaffar Shah",
        "Post_Office": "Ayer Keroh",
        "State": "Melaka"
    },
    {
        "Postcode": "75450",
        "Location": "Taman Ozana Impian, Hang Tuah Jaya",
        "Post_Office": "Ayer Keroh",
        "State": "Melaka"
    },
    {
        "Postcode": "75450",
        "Location": "Taman Pangsapuri Bukit Pelangi",
        "Post_Office": "Ayer Keroh",
        "State": "Melaka"
    },
    {
        "Postcode": "75450",
        "Location": "Taman Pelangi, Hang Tuah Jaya",
        "Post_Office": "Ayer Keroh",
        "State": "Melaka"
    },
    {
        "Postcode": "75450",
        "Location": "Taman Pengkalan Jaya",
        "Post_Office": "Ayer Keroh",
        "State": "Melaka"
    },
    {
        "Postcode": "75450",
        "Location": "Taman Pengkalan Permai",
        "Post_Office": "Ayer Keroh",
        "State": "Melaka"
    },
    {
        "Postcode": "75450",
        "Location": "Taman Perindustrian Ayer Keroh 2, Hang Tuah Jaya",
        "Post_Office": "Ayer Keroh",
        "State": "Melaka"
    },
    {
        "Postcode": "75450",
        "Location": "Taman Perindustrian Ayer Keroh, Hang Tuah Jaya",
        "Post_Office": "Ayer Keroh",
        "State": "Melaka"
    },
    {
        "Postcode": "75450",
        "Location": "Taman Puncak Bukit Katil, Hang Tuah Jaya",
        "Post_Office": "Ayer Keroh",
        "State": "Melaka"
    },
    {
        "Postcode": "75450",
        "Location": "Taman Rama-Rama",
        "Post_Office": "Ayer Keroh",
        "State": "Melaka"
    },
    {
        "Postcode": "75450",
        "Location": "Taman Saujana Impian",
        "Post_Office": "Ayer Keroh",
        "State": "Melaka"
    },
    {
        "Postcode": "75450",
        "Location": "Taman Saujana Indah, Hang Tuah Jaya",
        "Post_Office": "Ayer Keroh",
        "State": "Melaka"
    },
    {
        "Postcode": "75450",
        "Location": "Taman Saujana Jaya",
        "Post_Office": "Ayer Keroh",
        "State": "Melaka"
    },
    {
        "Postcode": "75450",
        "Location": "Taman Saujana Puri",
        "Post_Office": "Ayer Keroh",
        "State": "Melaka"
    },
    {
        "Postcode": "75450",
        "Location": "Taman Saujana Puri, Hang Tuah Jaya",
        "Post_Office": "Ayer Keroh",
        "State": "Melaka"
    },
    {
        "Postcode": "75450",
        "Location": "Taman Saujana Seksyen 1",
        "Post_Office": "Ayer Keroh",
        "State": "Melaka"
    },
    {
        "Postcode": "75450",
        "Location": "Taman Saujana Seksyen 3",
        "Post_Office": "Ayer Keroh",
        "State": "Melaka"
    },
    {
        "Postcode": "75450",
        "Location": "Taman Saujana Villa, Hang Tuah Jaya",
        "Post_Office": "Ayer Keroh",
        "State": "Melaka"
    },
    {
        "Postcode": "75450",
        "Location": "Taman Seroja, Hang Tuah Jaya",
        "Post_Office": "Ayer Keroh",
        "State": "Melaka"
    },
    {
        "Postcode": "75450",
        "Location": "Taman Sri Pengkalan",
        "Post_Office": "Ayer Keroh",
        "State": "Melaka"
    },
    {
        "Postcode": "75450",
        "Location": "Taman Suria, Hang Tuah Jaya",
        "Post_Office": "Ayer Keroh",
        "State": "Melaka"
    },
    {
        "Postcode": "75450",
        "Location": "Taman Tasik Air Keroh",
        "Post_Office": "Ayer Keroh",
        "State": "Melaka"
    },
    {
        "Postcode": "75450",
        "Location": "Taman Tasik Perdana",
        "Post_Office": "Ayer Keroh",
        "State": "Melaka"
    },
    {
        "Postcode": "75450",
        "Location": "Taman Tasik Utama, Hang Tuah Jaya",
        "Post_Office": "Ayer Keroh",
        "State": "Melaka"
    },
    {
        "Postcode": "75450",
        "Location": "Taman Tiong Emas, Hang Tuah Jaya",
        "Post_Office": "Ayer Keroh",
        "State": "Melaka"
    },
    {
        "Postcode": "75450",
        "Location": "Taman Tun Kudu",
        "Post_Office": "Ayer Keroh",
        "State": "Melaka"
    },
    {
        "Postcode": "75450",
        "Location": "Taman Tun Rahah, Hang Tuah Jaya",
        "Post_Office": "Ayer Keroh",
        "State": "Melaka"
    },
    {
        "Postcode": "75450",
        "Location": "Tepian Gelanggang",
        "Post_Office": "Ayer Keroh",
        "State": "Melaka"
    },
    {
        "Postcode": "75450",
        "Location": "Tiara Golf \u0026 Ayer Keroh Country Resort",
        "Post_Office": "Ayer Keroh",
        "State": "Melaka"
    },
    {
        "Postcode": "75450",
        "Location": "Tiara Golf \u0026 Country Resort",
        "Post_Office": "Ayer Keroh",
        "State": "Melaka"
    },
    {
        "Postcode": "75450",
        "Location": "Universiti Multimedia",
        "Post_Office": "Ayer Keroh",
        "State": "Melaka"
    },
    {
        "Postcode": "75450",
        "Location": "Wisma Negeri",
        "Post_Office": "Ayer Keroh",
        "State": "Melaka"
    },
    {
        "Postcode": "75450",
        "Location": "Wisma Pantai Baru",
        "Post_Office": "Ayer Keroh",
        "State": "Melaka"
    },
    {
        "Postcode": "75450",
        "Location": "Wisma Perkeso",
        "Post_Office": "Ayer Keroh",
        "State": "Melaka"
    },
    {
        "Postcode": "75450",
        "Location": "World Youth Fondation Consult",
        "Post_Office": "Ayer Keroh",
        "State": "Melaka"
    },
    {
        "Postcode": "75450",
        "Location": "Yayasan Melaka",
        "Post_Office": "Ayer Keroh",
        "State": "Melaka"
    },
    {
        "Postcode": "75450",
        "Location": "Zoo Melaka",
        "Post_Office": "Ayer Keroh",
        "State": "Melaka"
    },
    {
        "Postcode": "75450",
        "Location": "Jalan Belia Antarabangsa",
        "Post_Office": "Ayer Keroh",
        "State": "Melaka"
    },
    {
        "Postcode": "75450",
        "Location": "Jalan Belia Utama",
        "Post_Office": "Ayer Keroh",
        "State": "Melaka"
    },
    {
        "Postcode": "75450",
        "Location": "Jalan Rksk",
        "Post_Office": "Ayer Keroh",
        "State": "Melaka"
    },
    {
        "Postcode": "75450",
        "Location": "Melaka Planetarium Adventure Science Centre",
        "Post_Office": "Ayer Keroh",
        "State": "Melaka"
    },
    {
        "Postcode": "75450",
        "Location": "Mydin Mall Ayer Keroh",
        "Post_Office": "Ayer Keroh",
        "State": "Melaka"
    },
    {
        "Postcode": "75450",
        "Location": "Taman Rumahku Syurgaku (Rksk)",
        "Post_Office": "Ayer Keroh",
        "State": "Melaka"
    },
    {
        "Postcode": "75450",
        "Location": "Pangsapuri Bukit Beruang Bestari",
        "Post_Office": "Ayer Keroh",
        "State": "Melaka"
    },
    {
        "Postcode": "75450",
        "Location": "Taman Muzaffar Syah",
        "Post_Office": "Ayer Keroh",
        "State": "Melaka"
    },
    {
        "Postcode": "75450",
        "Location": "Taman Saujana Permai",
        "Post_Office": "Ayer Keroh",
        "State": "Melaka"
    },
    {
        "Postcode": "75450",
        "Location": "Kuarters Kastam",
        "Post_Office": "Ayer Keroh",
        "State": "Melaka"
    },
    {
        "Postcode": "75450",
        "Location": "Melaka Mall",
        "Post_Office": "Ayer Keroh",
        "State": "Melaka"
    },
    {
        "Postcode": "75450",
        "Location": "Taman Melaka Perdana",
        "Post_Office": "Ayer Keroh",
        "State": "Melaka"
    },
    {
        "Postcode": "75450",
        "Location": "Taman Bukit Katil Damai",
        "Post_Office": "Ayer Keroh",
        "State": "Melaka"
    },
    {
        "Postcode": "75450",
        "Location": "Taman Saujana Indah",
        "Post_Office": "Ayer Keroh",
        "State": "Melaka"
    },
    {
        "Postcode": "75450",
        "Location": "Pusat Komersial Cendana Ayer Keroh",
        "Post_Office": "Ayer Keroh",
        "State": "Melaka"
    },
    {
        "Postcode": "75450",
        "Location": "Taman Mitc Prima",
        "Post_Office": "Ayer Keroh",
        "State": "Melaka"
    },
    {
        "Postcode": "75450",
        "Location": "Kompleks Hijau Solar",
        "Post_Office": "Ayer Keroh",
        "State": "Melaka"
    },
    {
        "Postcode": "75450",
        "Location": "Pusat Komersial Ayer Keroh",
        "Post_Office": "Ayer Keroh",
        "State": "Melaka"
    },
    {
        "Postcode": "75450",
        "Location": "Kawasan Perindustrian Taman Tasik Utama",
        "Post_Office": "Ayer Keroh",
        "State": "Melaka"
    },
    {
        "Postcode": "75450",
        "Location": "Pusat Komersial Skywiz Ayer Keroh",
        "Post_Office": "Ayer Keroh",
        "State": "Melaka"
    },
    {
        "Postcode": "75450",
        "Location": "Jalan Komersial Skywiz",
        "Post_Office": "Ayer Keroh",
        "State": "Melaka"
    },
    {
        "Postcode": "75450",
        "Location": "Kampung Teluk Bukit Katil",
        "Post_Office": "Ayer Keroh",
        "State": "Melaka"
    },
    {
        "Postcode": "75450",
        "Location": "Kampung Tun Razak Fasa 2",
        "Post_Office": "Ayer Keroh",
        "State": "Melaka"
    },
    {
        "Postcode": "75450",
        "Location": "Kawasan Perindustrian Ayer Keroh",
        "Post_Office": "Ayer Keroh",
        "State": "Melaka"
    },
    {
        "Postcode": "75450",
        "Location": "Taman Ayer Keroh Heights",
        "Post_Office": "Ayer Keroh",
        "State": "Melaka"
    },
    {
        "Postcode": "75450",
        "Location": "Taman Ayer Keroh Heights 1",
        "Post_Office": "Ayer Keroh",
        "State": "Melaka"
    },
    {
        "Postcode": "75450",
        "Location": "Taman Kerjasama Seksyen 1, Hang Tuah Jaya",
        "Post_Office": "Ayer Keroh",
        "State": "Melaka"
    },
    {
        "Postcode": "75450",
        "Location": "Taman Serambi Gapam",
        "Post_Office": "Ayer Keroh",
        "State": "Melaka"
    },
    {
        "Postcode": "75450",
        "Location": "Zon Perindustrian Ayer Keroh Baru",
        "Post_Office": "Ayer Keroh",
        "State": "Melaka"
    },
    {
        "Postcode": "75450",
        "Location": "Pusat Komersial Ixora",
        "Post_Office": "Ayer Keroh",
        "State": "Melaka"
    },
    {
        "Postcode": "75450",
        "Location": "Jalan Belia 1",
        "Post_Office": "Ayer Keroh",
        "State": "Melaka"
    },
    {
        "Postcode": "75450",
        "Location": "Jalan Belia 10",
        "Post_Office": "Ayer Keroh",
        "State": "Melaka"
    },
    {
        "Postcode": "75450",
        "Location": "Jalan Belia 11",
        "Post_Office": "Ayer Keroh",
        "State": "Melaka"
    },
    {
        "Postcode": "75450",
        "Location": "Jalan Belia 12",
        "Post_Office": "Ayer Keroh",
        "State": "Melaka"
    },
    {
        "Postcode": "75450",
        "Location": "Jalan Belia 13",
        "Post_Office": "Ayer Keroh",
        "State": "Melaka"
    },
    {
        "Postcode": "75450",
        "Location": "Jalan Belia 14",
        "Post_Office": "Ayer Keroh",
        "State": "Melaka"
    },
    {
        "Postcode": "75450",
        "Location": "Jalan Belia 15",
        "Post_Office": "Ayer Keroh",
        "State": "Melaka"
    },
    {
        "Postcode": "75450",
        "Location": "Jalan Belia 16",
        "Post_Office": "Ayer Keroh",
        "State": "Melaka"
    },
    {
        "Postcode": "75450",
        "Location": "Jalan Belia 17",
        "Post_Office": "Ayer Keroh",
        "State": "Melaka"
    },
    {
        "Postcode": "75450",
        "Location": "Jalan Belia 2",
        "Post_Office": "Ayer Keroh",
        "State": "Melaka"
    },
    {
        "Postcode": "75450",
        "Location": "Jalan Belia 3",
        "Post_Office": "Ayer Keroh",
        "State": "Melaka"
    },
    {
        "Postcode": "75450",
        "Location": "Jalan Belia 4",
        "Post_Office": "Ayer Keroh",
        "State": "Melaka"
    },
    {
        "Postcode": "75450",
        "Location": "Jalan Belia 5",
        "Post_Office": "Ayer Keroh",
        "State": "Melaka"
    },
    {
        "Postcode": "75450",
        "Location": "Jalan Belia 6",
        "Post_Office": "Ayer Keroh",
        "State": "Melaka"
    },
    {
        "Postcode": "75450",
        "Location": "Jalan Belia 7",
        "Post_Office": "Ayer Keroh",
        "State": "Melaka"
    },
    {
        "Postcode": "75450",
        "Location": "Jalan Belia 8",
        "Post_Office": "Ayer Keroh",
        "State": "Melaka"
    },
    {
        "Postcode": "75450",
        "Location": "Bangunan Lhdn Hang Tuah Jaya",
        "Post_Office": "Ayer Keroh",
        "State": "Melaka"
    },
    {
        "Postcode": "75450",
        "Location": "Bangunan Tm Hang Tuah Jaya",
        "Post_Office": "Ayer Keroh",
        "State": "Melaka"
    },
    {
        "Postcode": "75450",
        "Location": "Wisma Persekutuan Mitc Hang Tuah Jaya",
        "Post_Office": "Ayer Keroh",
        "State": "Melaka"
    },
    {
        "Postcode": "75450",
        "Location": "Taman Vista Kirana",
        "Post_Office": "Ayer Keroh",
        "State": "Melaka"
    },
    {
        "Postcode": "75450",
        "Location": "Taman Tuah Perdana",
        "Post_Office": "Ayer Keroh",
        "State": "Melaka"
    },
    {
        "Postcode": "75450",
        "Location": "Taman Bukit Katil Emas",
        "Post_Office": "Ayer Keroh",
        "State": "Melaka"
    },
    {
        "Postcode": "75450",
        "Location": "Jalan Belia 9",
        "Post_Office": "Ayer Keroh",
        "State": "Melaka"
    },
    {
        "Postcode": "75450",
        "Location": "Jalan Bki 1",
        "Post_Office": "Ayer Keroh",
        "State": "Melaka"
    },
    {
        "Postcode": "75450",
        "Location": "Jalan Bki 10",
        "Post_Office": "Ayer Keroh",
        "State": "Melaka"
    },
    {
        "Postcode": "75450",
        "Location": "Jalan Bki 11",
        "Post_Office": "Ayer Keroh",
        "State": "Melaka"
    },
    {
        "Postcode": "75450",
        "Location": "Jalan Bki 12",
        "Post_Office": "Ayer Keroh",
        "State": "Melaka"
    },
    {
        "Postcode": "75450",
        "Location": "Jalan Bki 13",
        "Post_Office": "Ayer Keroh",
        "State": "Melaka"
    },
    {
        "Postcode": "75450",
        "Location": "Jalan Bki 14",
        "Post_Office": "Ayer Keroh",
        "State": "Melaka"
    },
    {
        "Postcode": "75450",
        "Location": "Jalan Bki 15",
        "Post_Office": "Ayer Keroh",
        "State": "Melaka"
    },
    {
        "Postcode": "75450",
        "Location": "Jalan Bki 16",
        "Post_Office": "Ayer Keroh",
        "State": "Melaka"
    },
    {
        "Postcode": "75450",
        "Location": "Jalan Bki 17",
        "Post_Office": "Ayer Keroh",
        "State": "Melaka"
    },
    {
        "Postcode": "75450",
        "Location": "Jalan Bki 18",
        "Post_Office": "Ayer Keroh",
        "State": "Melaka"
    },
    {
        "Postcode": "75450",
        "Location": "Jalan Bki 19",
        "Post_Office": "Ayer Keroh",
        "State": "Melaka"
    },
    {
        "Postcode": "75450",
        "Location": "Jalan Bki 2",
        "Post_Office": "Ayer Keroh",
        "State": "Melaka"
    },
    {
        "Postcode": "75450",
        "Location": "Jalan Bki 20",
        "Post_Office": "Ayer Keroh",
        "State": "Melaka"
    },
    {
        "Postcode": "75450",
        "Location": "Jalan Bki 3",
        "Post_Office": "Ayer Keroh",
        "State": "Melaka"
    },
    {
        "Postcode": "75450",
        "Location": "Jalan Bki 4",
        "Post_Office": "Ayer Keroh",
        "State": "Melaka"
    },
    {
        "Postcode": "75450",
        "Location": "Jalan Bki 5",
        "Post_Office": "Ayer Keroh",
        "State": "Melaka"
    },
    {
        "Postcode": "75450",
        "Location": "Jalan Bki 6",
        "Post_Office": "Ayer Keroh",
        "State": "Melaka"
    },
    {
        "Postcode": "75450",
        "Location": "Jalan Bki 7",
        "Post_Office": "Ayer Keroh",
        "State": "Melaka"
    },
    {
        "Postcode": "75450",
        "Location": "Jalan Bki 8",
        "Post_Office": "Ayer Keroh",
        "State": "Melaka"
    },
    {
        "Postcode": "75450",
        "Location": "Jalan Bki 9",
        "Post_Office": "Ayer Keroh",
        "State": "Melaka"
    },
    {
        "Postcode": "75450",
        "Location": "Jalan Rksk 1",
        "Post_Office": "Ayer Keroh",
        "State": "Melaka"
    },
    {
        "Postcode": "75450",
        "Location": "Jalan Rksk 2",
        "Post_Office": "Ayer Keroh",
        "State": "Melaka"
    },
    {
        "Postcode": "75450",
        "Location": "Taman Saujana Seksyen 2",
        "Post_Office": "Ayer Keroh",
        "State": "Melaka"
    }
]
