[
    {
        "Postcode": "75460",
        "Location": "Rumah Awam Bukit Duyong",
        "Post_Office": "Ayer Keroh",
        "State": "Melaka"
    },
    {
        "Postcode": "75460",
        "Location": "Akademi Jpj",
        "Post_Office": "Melaka",
        "State": "Melaka"
    },
    {
        "Postcode": "75460",
        "Location": "Alai  (Km 7 - 8)",
        "Post_Office": "Melaka",
        "State": "Melaka"
    },
    {
        "Postcode": "75460",
        "Location": "Ayer Molek",
        "Post_Office": "Melaka",
        "State": "Melaka"
    },
    {
        "Postcode": "75460",
        "Location": "Bakar Batu",
        "Post_Office": "Melaka",
        "State": "Melaka"
    },
    {
        "Postcode": "75460",
        "Location": "Balik Bukit (Bukit Lintang)",
        "Post_Office": "Melaka",
        "State": "Melaka"
    },
    {
        "Postcode": "75460",
        "Location": "Batu 3 1/2 Duyong",
        "Post_Office": "Melaka",
        "State": "Melaka"
    },
    {
        "Postcode": "75460",
        "Location": "Batu 9 Solok Punggai (Air Molek)",
        "Post_Office": "Melaka",
        "State": "Melaka"
    },
    {
        "Postcode": "75460",
        "Location": "Bukit Larang",
        "Post_Office": "Melaka",
        "State": "Melaka"
    },
    {
        "Postcode": "75460",
        "Location": "Bukit Lintang",
        "Post_Office": "Melaka",
        "State": "Melaka"
    },
    {
        "Postcode": "75460",
        "Location": "Bukit Meta",
        "Post_Office": "Melaka",
        "State": "Melaka"
    },
    {
        "Postcode": "75460",
        "Location": "Bukit Nibong",
        "Post_Office": "Melaka",
        "State": "Melaka"
    },
    {
        "Postcode": "75460",
        "Location": "Bukit Pungur",
        "Post_Office": "Melaka",
        "State": "Melaka"
    },
    {
        "Postcode": "75460",
        "Location": "Duyong",
        "Post_Office": "Melaka",
        "State": "Melaka"
    },
    {
        "Postcode": "75460",
        "Location": "Iks Telok Mas",
        "Post_Office": "Melaka",
        "State": "Melaka"
    },
    {
        "Postcode": "75460",
        "Location": "Jalan Alai Indah",
        "Post_Office": "Melaka",
        "State": "Melaka"
    },
    {
        "Postcode": "75460",
        "Location": "Jalan Baru Tiang Dua",
        "Post_Office": "Melaka",
        "State": "Melaka"
    },
    {
        "Postcode": "75460",
        "Location": "Jalan Bukit Katil (Duyong)",
        "Post_Office": "Melaka",
        "State": "Melaka"
    },
    {
        "Postcode": "75460",
        "Location": "Jalan Cempaka",
        "Post_Office": "Melaka",
        "State": "Melaka"
    },
    {
        "Postcode": "75460",
        "Location": "Jalan Daing Tawi",
        "Post_Office": "Melaka",
        "State": "Melaka"
    },
    {
        "Postcode": "75460",
        "Location": "Jalan Haji Amin (Air Molek)",
        "Post_Office": "Melaka",
        "State": "Melaka"
    },
    {
        "Postcode": "75460",
        "Location": "Jalan Haji Ismail",
        "Post_Office": "Melaka",
        "State": "Melaka"
    },
    {
        "Postcode": "75460",
        "Location": "Jalan Haji Manan",
        "Post_Office": "Melaka",
        "State": "Melaka"
    },
    {
        "Postcode": "75460",
        "Location": "Jalan Hang Nadim",
        "Post_Office": "Melaka",
        "State": "Melaka"
    },
    {
        "Postcode": "75460",
        "Location": "Jalan Hang Tuah Duyung",
        "Post_Office": "Melaka",
        "State": "Melaka"
    },
    {
        "Postcode": "75460",
        "Location": "Jalan Hashim Alai",
        "Post_Office": "Melaka",
        "State": "Melaka"
    },
    {
        "Postcode": "75460",
        "Location": "Jalan Jasin (Batu 9)",
        "Post_Office": "Melaka",
        "State": "Melaka"
    },
    {
        "Postcode": "75460",
        "Location": "Jalan Lama Telok Mas",
        "Post_Office": "Melaka",
        "State": "Melaka"
    },
    {
        "Postcode": "75460",
        "Location": "Jalan Makmor",
        "Post_Office": "Melaka",
        "State": "Melaka"
    },
    {
        "Postcode": "75460",
        "Location": "Jalan Masjid Tambak Paya",
        "Post_Office": "Melaka",
        "State": "Melaka"
    },
    {
        "Postcode": "75460",
        "Location": "Jalan Mawar Tambak Paya",
        "Post_Office": "Melaka",
        "State": "Melaka"
    },
    {
        "Postcode": "75460",
        "Location": "Jalan Melati (Tambak Paya)",
        "Post_Office": "Melaka",
        "State": "Melaka"
    },
    {
        "Postcode": "75460",
        "Location": "Jalan Pantai Telok Mas",
        "Post_Office": "Melaka",
        "State": "Melaka"
    },
    {
        "Postcode": "75460",
        "Location": "Jalan Penghulu",
        "Post_Office": "Melaka",
        "State": "Melaka"
    },
    {
        "Postcode": "75460",
        "Location": "Jalan Penghulu Samad",
        "Post_Office": "Melaka",
        "State": "Melaka"
    },
    {
        "Postcode": "75460",
        "Location": "Jalan Pengkalan",
        "Post_Office": "Melaka",
        "State": "Melaka"
    },
    {
        "Postcode": "75460",
        "Location": "Jalan Pengkalan Jajar",
        "Post_Office": "Melaka",
        "State": "Melaka"
    },
    {
        "Postcode": "75460",
        "Location": "Jalan Pengkalan Pulau Besar (Pernu)",
        "Post_Office": "Melaka",
        "State": "Melaka"
    },
    {
        "Postcode": "75460",
        "Location": "Jalan Perigi Hang Tuah",
        "Post_Office": "Melaka",
        "State": "Melaka"
    },
    {
        "Postcode": "75460",
        "Location": "Jalan Permatang Pasir",
        "Post_Office": "Melaka",
        "State": "Melaka"
    },
    {
        "Postcode": "75460",
        "Location": "Jalan Punggai",
        "Post_Office": "Melaka",
        "State": "Melaka"
    },
    {
        "Postcode": "75460",
        "Location": "Jalan Raja Haji",
        "Post_Office": "Melaka",
        "State": "Melaka"
    },
    {
        "Postcode": "75460",
        "Location": "Jalan Sekolah Alai (Batu 5)",
        "Post_Office": "Melaka",
        "State": "Melaka"
    },
    {
        "Postcode": "75460",
        "Location": "Jalan Setia",
        "Post_Office": "Melaka",
        "State": "Melaka"
    },
    {
        "Postcode": "75460",
        "Location": "Jalan Solok Sidang Hussain",
        "Post_Office": "Melaka",
        "State": "Melaka"
    },
    {
        "Postcode": "75460",
        "Location": "Jalan Surau",
        "Post_Office": "Melaka",
        "State": "Melaka"
    },
    {
        "Postcode": "75460",
        "Location": "Jalan Tambak Gelam",
        "Post_Office": "Melaka",
        "State": "Melaka"
    },
    {
        "Postcode": "75460",
        "Location": "Jalan Tambak Paya",
        "Post_Office": "Melaka",
        "State": "Melaka"
    },
    {
        "Postcode": "75460",
        "Location": "Jalan Wakaf 1",
        "Post_Office": "Melaka",
        "State": "Melaka"
    },
    {
        "Postcode": "75460",
        "Location": "Kampung Air Molek",
        "Post_Office": "Melaka",
        "State": "Melaka"
    },
    {
        "Postcode": "75460",
        "Location": "Kampung Alai",
        "Post_Office": "Melaka",
        "State": "Melaka"
    },
    {
        "Postcode": "75460",
        "Location": "Kampung Bantut (Paya Redan)",
        "Post_Office": "Melaka",
        "State": "Melaka"
    },
    {
        "Postcode": "75460",
        "Location": "Kampung Baru Tiang Dua",
        "Post_Office": "Melaka",
        "State": "Melaka"
    },
    {
        "Postcode": "75460",
        "Location": "Kampung Batu Puteh",
        "Post_Office": "Melaka",
        "State": "Melaka"
    },
    {
        "Postcode": "75460",
        "Location": "Kampung Bukit Gadong",
        "Post_Office": "Melaka",
        "State": "Melaka"
    },
    {
        "Postcode": "75460",
        "Location": "Kampung Bukit Larang (Pernu)",
        "Post_Office": "Melaka",
        "State": "Melaka"
    },
    {
        "Postcode": "75460",
        "Location": "Kampung Bukit Lintang",
        "Post_Office": "Melaka",
        "State": "Melaka"
    },
    {
        "Postcode": "75460",
        "Location": "Kampung Bukit Meta",
        "Post_Office": "Melaka",
        "State": "Melaka"
    },
    {
        "Postcode": "75460",
        "Location": "Kampung Bukit Nibong (Paya Dalam)",
        "Post_Office": "Melaka",
        "State": "Melaka"
    },
    {
        "Postcode": "75460",
        "Location": "Kampung Bukit Pegoh",
        "Post_Office": "Melaka",
        "State": "Melaka"
    },
    {
        "Postcode": "75460",
        "Location": "Kampung Duyong",
        "Post_Office": "Melaka",
        "State": "Melaka"
    },
    {
        "Postcode": "75460",
        "Location": "Kampung Jambatan Duyong",
        "Post_Office": "Melaka",
        "State": "Melaka"
    },
    {
        "Postcode": "75460",
        "Location": "Kampung Kandang",
        "Post_Office": "Melaka",
        "State": "Melaka"
    },
    {
        "Postcode": "75460",
        "Location": "Kampung Ketapang",
        "Post_Office": "Melaka",
        "State": "Melaka"
    },
    {
        "Postcode": "75460",
        "Location": "Kampung Padang (Bukit Lintang)",
        "Post_Office": "Melaka",
        "State": "Melaka"
    },
    {
        "Postcode": "75460",
        "Location": "Kampung Paya Baru",
        "Post_Office": "Melaka",
        "State": "Melaka"
    },
    {
        "Postcode": "75460",
        "Location": "Kampung Paya Menanti",
        "Post_Office": "Melaka",
        "State": "Melaka"
    },
    {
        "Postcode": "75460",
        "Location": "Kampung Paya Redan",
        "Post_Office": "Melaka",
        "State": "Melaka"
    },
    {
        "Postcode": "75460",
        "Location": "Kampung Pendamar",
        "Post_Office": "Melaka",
        "State": "Melaka"
    },
    {
        "Postcode": "75460",
        "Location": "Kampung Pengkalan Minyak",
        "Post_Office": "Melaka",
        "State": "Melaka"
    },
    {
        "Postcode": "75460",
        "Location": "Kampung Permatang Duyong",
        "Post_Office": "Melaka",
        "State": "Melaka"
    },
    {
        "Postcode": "75460",
        "Location": "Kampung Permatang Pasir",
        "Post_Office": "Melaka",
        "State": "Melaka"
    },
    {
        "Postcode": "75460",
        "Location": "Kampung Pernu",
        "Post_Office": "Melaka",
        "State": "Melaka"
    },
    {
        "Postcode": "75460",
        "Location": "Kampung Seberang Anak Air",
        "Post_Office": "Melaka",
        "State": "Melaka"
    },
    {
        "Postcode": "75460",
        "Location": "Kampung Solok Gaong",
        "Post_Office": "Melaka",
        "State": "Melaka"
    },
    {
        "Postcode": "75460",
        "Location": "Kampung Surau Batu",
        "Post_Office": "Melaka",
        "State": "Melaka"
    },
    {
        "Postcode": "75460",
        "Location": "Kampung Tambak Paya",
        "Post_Office": "Melaka",
        "State": "Melaka"
    },
    {
        "Postcode": "75460",
        "Location": "Kampung Tengah Paya Dalam",
        "Post_Office": "Melaka",
        "State": "Melaka"
    },
    {
        "Postcode": "75460",
        "Location": "Kampung Tersusun Bukit Larang",
        "Post_Office": "Melaka",
        "State": "Melaka"
    },
    {
        "Postcode": "75460",
        "Location": "Kandang",
        "Post_Office": "Melaka",
        "State": "Melaka"
    },
    {
        "Postcode": "75460",
        "Location": "Kandang Batu 4 1/2 - 5 1/4",
        "Post_Office": "Melaka",
        "State": "Melaka"
    },
    {
        "Postcode": "75460",
        "Location": "Km 14 Jalan Haji Manan (Air Molek)",
        "Post_Office": "Melaka",
        "State": "Melaka"
    },
    {
        "Postcode": "75460",
        "Location": "Ladang Union",
        "Post_Office": "Melaka",
        "State": "Melaka"
    },
    {
        "Postcode": "75460",
        "Location": "Lorong Pitchy Tambak Paya",
        "Post_Office": "Melaka",
        "State": "Melaka"
    },
    {
        "Postcode": "75460",
        "Location": "Lorong Sinnu",
        "Post_Office": "Melaka",
        "State": "Melaka"
    },
    {
        "Postcode": "75460",
        "Location": "Paya Baru",
        "Post_Office": "Melaka",
        "State": "Melaka"
    },
    {
        "Postcode": "75460",
        "Location": "Paya Redan",
        "Post_Office": "Melaka",
        "State": "Melaka"
    },
    {
        "Postcode": "75460",
        "Location": "Pekan Air Molek",
        "Post_Office": "Melaka",
        "State": "Melaka"
    },
    {
        "Postcode": "75460",
        "Location": "Pengkalan Minyak",
        "Post_Office": "Melaka",
        "State": "Melaka"
    },
    {
        "Postcode": "75460",
        "Location": "Pengkalan Renggam",
        "Post_Office": "Melaka",
        "State": "Melaka"
    },
    {
        "Postcode": "75460",
        "Location": "Permatang Bukit Meta",
        "Post_Office": "Melaka",
        "State": "Melaka"
    },
    {
        "Postcode": "75460",
        "Location": "Permatang Duyong",
        "Post_Office": "Melaka",
        "State": "Melaka"
    },
    {
        "Postcode": "75460",
        "Location": "Permatang Pasir",
        "Post_Office": "Melaka",
        "State": "Melaka"
    },
    {
        "Postcode": "75460",
        "Location": "Pernu",
        "Post_Office": "Melaka",
        "State": "Melaka"
    },
    {
        "Postcode": "75460",
        "Location": "Pusat Serenti Tiang Dua",
        "Post_Office": "Melaka",
        "State": "Melaka"
    },
    {
        "Postcode": "75460",
        "Location": "Rumah Awam Air Molek",
        "Post_Office": "Melaka",
        "State": "Melaka"
    },
    {
        "Postcode": "75460",
        "Location": "Rumah Awam Bukit Larang",
        "Post_Office": "Melaka",
        "State": "Melaka"
    },
    {
        "Postcode": "75460",
        "Location": "Rumah Awam Bukit Lintang",
        "Post_Office": "Melaka",
        "State": "Melaka"
    },
    {
        "Postcode": "75460",
        "Location": "Rumah Awam Kandang",
        "Post_Office": "Melaka",
        "State": "Melaka"
    },
    {
        "Postcode": "75460",
        "Location": "Rumah Awam Paya Dalam",
        "Post_Office": "Melaka",
        "State": "Melaka"
    },
    {
        "Postcode": "75460",
        "Location": "Simpang Bukit Lintang",
        "Post_Office": "Melaka",
        "State": "Melaka"
    },
    {
        "Postcode": "75460",
        "Location": "Simpang Tambak Bugis",
        "Post_Office": "Melaka",
        "State": "Melaka"
    },
    {
        "Postcode": "75460",
        "Location": "Solok Bantut",
        "Post_Office": "Melaka",
        "State": "Melaka"
    },
    {
        "Postcode": "75460",
        "Location": "Solok Bukit Gadong",
        "Post_Office": "Melaka",
        "State": "Melaka"
    },
    {
        "Postcode": "75460",
        "Location": "Solok Bukit Jinjang",
        "Post_Office": "Melaka",
        "State": "Melaka"
    },
    {
        "Postcode": "75460",
        "Location": "Solok Bukit Kecil",
        "Post_Office": "Melaka",
        "State": "Melaka"
    },
    {
        "Postcode": "75460",
        "Location": "Solok Bukit Ranting",
        "Post_Office": "Melaka",
        "State": "Melaka"
    },
    {
        "Postcode": "75460",
        "Location": "Solok Gaung Tiang Dua",
        "Post_Office": "Melaka",
        "State": "Melaka"
    },
    {
        "Postcode": "75460",
        "Location": "Solok Jenuang",
        "Post_Office": "Melaka",
        "State": "Melaka"
    },
    {
        "Postcode": "75460",
        "Location": "Taman Air Molek (Fasa 2)",
        "Post_Office": "Melaka",
        "State": "Melaka"
    },
    {
        "Postcode": "75460",
        "Location": "Taman Air Molek Jaya (Fasa 2)",
        "Post_Office": "Melaka",
        "State": "Melaka"
    },
    {
        "Postcode": "75460",
        "Location": "Taman Air Molek Mesra",
        "Post_Office": "Melaka",
        "State": "Melaka"
    },
    {
        "Postcode": "75460",
        "Location": "Taman Alai Indah",
        "Post_Office": "Melaka",
        "State": "Melaka"
    },
    {
        "Postcode": "75460",
        "Location": "Taman Alai Jaya",
        "Post_Office": "Melaka",
        "State": "Melaka"
    },
    {
        "Postcode": "75460",
        "Location": "Taman Alai Murni",
        "Post_Office": "Melaka",
        "State": "Melaka"
    },
    {
        "Postcode": "75460",
        "Location": "Taman Alai Perdana",
        "Post_Office": "Melaka",
        "State": "Melaka"
    },
    {
        "Postcode": "75460",
        "Location": "Taman Ayer Molek",
        "Post_Office": "Melaka",
        "State": "Melaka"
    },
    {
        "Postcode": "75460",
        "Location": "Taman Ayer Molek Jaya",
        "Post_Office": "Melaka",
        "State": "Melaka"
    },
    {
        "Postcode": "75460",
        "Location": "Taman Ayer Molek Mesra",
        "Post_Office": "Melaka",
        "State": "Melaka"
    },
    {
        "Postcode": "75460",
        "Location": "Taman Bukit Larang Indah",
        "Post_Office": "Melaka",
        "State": "Melaka"
    },
    {
        "Postcode": "75460",
        "Location": "Taman Bukit Nibong",
        "Post_Office": "Melaka",
        "State": "Melaka"
    },
    {
        "Postcode": "75460",
        "Location": "Taman Desa Duyong",
        "Post_Office": "Melaka",
        "State": "Melaka"
    },
    {
        "Postcode": "75460",
        "Location": "Taman Desa Molek",
        "Post_Office": "Melaka",
        "State": "Melaka"
    },
    {
        "Postcode": "75460",
        "Location": "Taman Duyong Bistari",
        "Post_Office": "Melaka",
        "State": "Melaka"
    },
    {
        "Postcode": "75460",
        "Location": "Taman Duyong Emas",
        "Post_Office": "Melaka",
        "State": "Melaka"
    },
    {
        "Postcode": "75460",
        "Location": "Taman Duyong Indah",
        "Post_Office": "Melaka",
        "State": "Melaka"
    },
    {
        "Postcode": "75460",
        "Location": "Taman Duyong Indah 2",
        "Post_Office": "Melaka",
        "State": "Melaka"
    },
    {
        "Postcode": "75460",
        "Location": "Taman Duyong Ria",
        "Post_Office": "Melaka",
        "State": "Melaka"
    },
    {
        "Postcode": "75460",
        "Location": "Taman Emas",
        "Post_Office": "Melaka",
        "State": "Melaka"
    },
    {
        "Postcode": "75460",
        "Location": "Taman Iks Duyong",
        "Post_Office": "Melaka",
        "State": "Melaka"
    },
    {
        "Postcode": "75460",
        "Location": "Taman Kandang Mesra",
        "Post_Office": "Melaka",
        "State": "Melaka"
    },
    {
        "Postcode": "75460",
        "Location": "Taman Kandang Permai",
        "Post_Office": "Melaka",
        "State": "Melaka"
    },
    {
        "Postcode": "75460",
        "Location": "Taman Lintang Indah",
        "Post_Office": "Melaka",
        "State": "Melaka"
    },
    {
        "Postcode": "75460",
        "Location": "Taman Lintang Jaya",
        "Post_Office": "Melaka",
        "State": "Melaka"
    },
    {
        "Postcode": "75460",
        "Location": "Taman Lintang Permai",
        "Post_Office": "Melaka",
        "State": "Melaka"
    },
    {
        "Postcode": "75460",
        "Location": "Taman Merdeka Permai Hang Tuah Jaya",
        "Post_Office": "Melaka",
        "State": "Melaka"
    },
    {
        "Postcode": "75460",
        "Location": "Taman Molek",
        "Post_Office": "Melaka",
        "State": "Melaka"
    },
    {
        "Postcode": "75460",
        "Location": "Taman Paya Dalam",
        "Post_Office": "Melaka",
        "State": "Melaka"
    },
    {
        "Postcode": "75460",
        "Location": "Taman Paya Murni",
        "Post_Office": "Melaka",
        "State": "Melaka"
    },
    {
        "Postcode": "75460",
        "Location": "Taman Permatang Pasir",
        "Post_Office": "Melaka",
        "State": "Melaka"
    },
    {
        "Postcode": "75460",
        "Location": "Taman Permatang Pasir Perdana",
        "Post_Office": "Melaka",
        "State": "Melaka"
    },
    {
        "Postcode": "75460",
        "Location": "Taman Permatang Pasir Permai",
        "Post_Office": "Melaka",
        "State": "Melaka"
    },
    {
        "Postcode": "75460",
        "Location": "Taman Pusaka",
        "Post_Office": "Melaka",
        "State": "Melaka"
    },
    {
        "Postcode": "75460",
        "Location": "Taman Seri Duyong",
        "Post_Office": "Melaka",
        "State": "Melaka"
    },
    {
        "Postcode": "75460",
        "Location": "Taman Tambak Paya Murni, Hang Tuah Jaya",
        "Post_Office": "Melaka",
        "State": "Melaka"
    },
    {
        "Postcode": "75460",
        "Location": "Taman Tambak Paya Permai",
        "Post_Office": "Melaka",
        "State": "Melaka"
    },
    {
        "Postcode": "75460",
        "Location": "Taman Tiang Dua Utama",
        "Post_Office": "Melaka",
        "State": "Melaka"
    },
    {
        "Postcode": "75460",
        "Location": "Tambak Paya",
        "Post_Office": "Melaka",
        "State": "Melaka"
    },
    {
        "Postcode": "75460",
        "Location": "Taman Tambak Paya Indah",
        "Post_Office": "Melaka",
        "State": "Melaka"
    },
    {
        "Postcode": "75460",
        "Location": "Jalan Anggerik",
        "Post_Office": "Melaka",
        "State": "Melaka"
    },
    {
        "Postcode": "75460",
        "Location": "Jalan Muhibah",
        "Post_Office": "Melaka",
        "State": "Melaka"
    },
    {
        "Postcode": "75460",
        "Location": "Jalan Damai",
        "Post_Office": "Melaka",
        "State": "Melaka"
    },
    {
        "Postcode": "75460",
        "Location": "Jalan Kenanga",
        "Post_Office": "Melaka",
        "State": "Melaka"
    },
    {
        "Postcode": "75460",
        "Location": "Jalan Tanjung",
        "Post_Office": "Melaka",
        "State": "Melaka"
    },
    {
        "Postcode": "75460",
        "Location": "Kampung Balik Bukit",
        "Post_Office": "Melaka",
        "State": "Melaka"
    },
    {
        "Postcode": "75460",
        "Location": "Kampung Paya Dalam",
        "Post_Office": "Melaka",
        "State": "Melaka"
    },
    {
        "Postcode": "75460",
        "Location": "Taman Bukit Nibong Damai",
        "Post_Office": "Melaka",
        "State": "Melaka"
    },
    {
        "Postcode": "75460",
        "Location": "Jalan BND 1",
        "Post_Office": "Melaka",
        "State": "Melaka"
    },
    {
        "Postcode": "75460",
        "Location": "Jalan BND 2",
        "Post_Office": "Melaka",
        "State": "Melaka"
    },
    {
        "Postcode": "75460",
        "Location": "Jalan BND 3",
        "Post_Office": "Melaka",
        "State": "Melaka"
    },
    {
        "Postcode": "75460",
        "Location": "Jalan BND 4",
        "Post_Office": "Melaka",
        "State": "Melaka"
    },
    {
        "Postcode": "75460",
        "Location": "Jalan BND 5",
        "Post_Office": "Melaka",
        "State": "Melaka"
    },
    {
        "Postcode": "75460",
        "Location": "Taman Ayer Molek Perdana",
        "Post_Office": "Melaka",
        "State": "Melaka"
    },
    {
        "Postcode": "75460",
        "Location": "Taman Pengkalan Minyak Utama",
        "Post_Office": "Melaka",
        "State": "Melaka"
    },
    {
        "Postcode": "75460",
        "Location": "Taman Bukit Lintang Indah",
        "Post_Office": "Melaka",
        "State": "Melaka"
    },
    {
        "Postcode": "75460",
        "Location": "Taman Duyong Bestari",
        "Post_Office": "Melaka",
        "State": "Melaka"
    },
    {
        "Postcode": "75460",
        "Location": "Taman Tambak Paya Harmoni",
        "Post_Office": "Melaka",
        "State": "Melaka"
    },
    {
        "Postcode": "75460",
        "Location": "Kampung Bukit Duyong",
        "Post_Office": "Melaka",
        "State": "Melaka"
    },
    {
        "Postcode": "75460",
        "Location": "Kampung Bukit Kecil (Pernu)",
        "Post_Office": "Melaka",
        "State": "Melaka"
    },
    {
        "Postcode": "75460",
        "Location": "Kampung Bukit Punggur ",
        "Post_Office": "Melaka",
        "State": "Melaka"
    },
    {
        "Postcode": "75460",
        "Location": "Kampung Paya Meranti",
        "Post_Office": "Melaka",
        "State": "Melaka"
    },
    {
        "Postcode": "75460",
        "Location": "Kampung Solok Bukit Baru",
        "Post_Office": "Melaka",
        "State": "Melaka"
    },
    {
        "Postcode": "75460",
        "Location": "Kampung Tambak Bugis",
        "Post_Office": "Melaka",
        "State": "Melaka"
    },
    {
        "Postcode": "75460",
        "Location": "Kampung Tambak Gelam",
        "Post_Office": "Melaka",
        "State": "Melaka"
    },
    {
        "Postcode": "75460",
        "Location": "Kampung Tambak Sebelong",
        "Post_Office": "Melaka",
        "State": "Melaka"
    },
    {
        "Postcode": "75460",
        "Location": "Kampung Tanjung Mak Midah",
        "Post_Office": "Melaka",
        "State": "Melaka"
    },
    {
        "Postcode": "75460",
        "Location": "Taman Permatang Duyong",
        "Post_Office": "Melaka",
        "State": "Melaka"
    },
    {
        "Postcode": "75460",
        "Location": "Taman Permatang Duyong 2",
        "Post_Office": "Melaka",
        "State": "Melaka"
    },
    {
        "Postcode": "75460",
        "Location": "Taman Seri Duyong Seksyen 2",
        "Post_Office": "Melaka",
        "State": "Melaka"
    },
    {
        "Postcode": "75460",
        "Location": "Taman Seri Duyong Seksyen 3",
        "Post_Office": "Melaka",
        "State": "Melaka"
    },
    {
        "Postcode": "75460",
        "Location": "Taman Seri Paya Dalam",
        "Post_Office": "Melaka",
        "State": "Melaka"
    },
    {
        "Postcode": "75460",
        "Location": "Taman Seri Telok Emas",
        "Post_Office": "Melaka",
        "State": "Melaka"
    },
    {
        "Postcode": "75460",
        "Location": "Bandar Baru Sungai Udang",
        "Post_Office": "Melaka",
        "State": "Melaka"
    },
    {
        "Postcode": "75460",
        "Location": "Taman Bukit Nibong Ria",
        "Post_Office": "Melaka",
        "State": "Melaka"
    },
    {
        "Postcode": "75460",
        "Location": "Taman Molek Residen",
        "Post_Office": "Melaka",
        "State": "Melaka"
    },
    {
        "Postcode": "75460",
        "Location": "Taman Pinggiran Molek",
        "Post_Office": "Melaka",
        "State": "Melaka"
    },
    {
        "Postcode": "75460",
        "Location": "Taman Tiang Dua Mutiara",
        "Post_Office": "Melaka",
        "State": "Melaka"
    },
    {
        "Postcode": "75460",
        "Location": "Taman Pendamar Jaya",
        "Post_Office": "Melaka",
        "State": "Melaka"
    },
    {
        "Postcode": "75460",
        "Location": "Rumah Awam Ayer Molek 1",
        "Post_Office": "Melaka",
        "State": "Melaka"
    },
    {
        "Postcode": "75460",
        "Location": "Taman Bukit Durian Setia",
        "Post_Office": "Melaka",
        "State": "Melaka"
    },
    {
        "Postcode": "75460",
        "Location": "Taman Bukit Lintang Ceria",
        "Post_Office": "Melaka",
        "State": "Melaka"
    },
    {
        "Postcode": "75460",
        "Location": "Taman Bukit Punggur",
        "Post_Office": "Melaka",
        "State": "Melaka"
    },
    {
        "Postcode": "75460",
        "Location": "Jalan Aman 1",
        "Post_Office": "Melaka",
        "State": "Melaka"
    },
    {
        "Postcode": "75460",
        "Location": "Jalan Aman 2",
        "Post_Office": "Melaka",
        "State": "Melaka"
    },
    {
        "Postcode": "75460",
        "Location": "Jalan Amm 1",
        "Post_Office": "Melaka",
        "State": "Melaka"
    },
    {
        "Postcode": "75460",
        "Location": "Jalan Amm 2",
        "Post_Office": "Melaka",
        "State": "Melaka"
    },
    {
        "Postcode": "75460",
        "Location": "Jalan Amm 3",
        "Post_Office": "Melaka",
        "State": "Melaka"
    },
    {
        "Postcode": "75460",
        "Location": "Jalan Amm 4",
        "Post_Office": "Melaka",
        "State": "Melaka"
    },
    {
        "Postcode": "75460",
        "Location": "Jalan Amm 5",
        "Post_Office": "Melaka",
        "State": "Melaka"
    },
    {
        "Postcode": "75460",
        "Location": "Jalan Amm 6",
        "Post_Office": "Melaka",
        "State": "Melaka"
    },
    {
        "Postcode": "75460",
        "Location": "Jalan Desa Duyong 18",
        "Post_Office": "Melaka",
        "State": "Melaka"
    },
    {
        "Postcode": "75460",
        "Location": "Jalan Desa Duyong 18A",
        "Post_Office": "Melaka",
        "State": "Melaka"
    },
    {
        "Postcode": "75460",
        "Location": "Jalan Desa Duyong 18B",
        "Post_Office": "Melaka",
        "State": "Melaka"
    },
    {
        "Postcode": "75460",
        "Location": "Jalan Desa Duyong 24",
        "Post_Office": "Melaka",
        "State": "Melaka"
    },
    {
        "Postcode": "75460",
        "Location": "Jalan Desa Duyong 24A",
        "Post_Office": "Melaka",
        "State": "Melaka"
    }
]
