[
    {
        "Postcode": "62000",
        "Location": "Presint 1",
        "Post_Office": "Putrajaya",
        "State": "WP Putrajaya"
    },
    {
        "Postcode": "62000",
        "Location": "Jalan Alamanda",
        "Post_Office": "Putrajaya",
        "State": "WP Putrajaya"
    },
    {
        "Postcode": "62000",
        "Location": "Jalan Alamanda 1",
        "Post_Office": "Putrajaya",
        "State": "WP Putrajaya"
    },
    {
        "Postcode": "62000",
        "Location": "Jalan Alamanda 2",
        "Post_Office": "Putrajaya",
        "State": "WP Putrajaya"
    },
    {
        "Postcode": "62000",
        "Location": "Jalan Perdana Timur A/1",
        "Post_Office": "Putrajaya",
        "State": "WP Putrajaya"
    },
    {
        "Postcode": "62000",
        "Location": "Jalan Taman Putra Perdana",
        "Post_Office": "Putrajaya",
        "State": "WP Putrajaya"
    },
    {
        "Postcode": "62000",
        "Location": "Jalan Taman Putra Perdana/1",
        "Post_Office": "Putrajaya",
        "State": "WP Putrajaya"
    },
    {
        "Postcode": "62000",
        "Location": "Jalan Taman Putra Perdana/2",
        "Post_Office": "Putrajaya",
        "State": "WP Putrajaya"
    },
    {
        "Postcode": "62000",
        "Location": "Jalan Taman Putra Perdana/3",
        "Post_Office": "Putrajaya",
        "State": "WP Putrajaya"
    },
    {
        "Postcode": "62000",
        "Location": "Jalan Taman Putra Perdana/4",
        "Post_Office": "Putrajaya",
        "State": "WP Putrajaya"
    },
    {
        "Postcode": "62000",
        "Location": "Laluan Dataran Pahlawan P1",
        "Post_Office": "Putrajaya",
        "State": "WP Putrajaya"
    },
    {
        "Postcode": "62000",
        "Location": "Laluan Laman Putra P1/1",
        "Post_Office": "Putrajaya",
        "State": "WP Putrajaya"
    },
    {
        "Postcode": "62000",
        "Location": "Laluan Laman Putra P1/2",
        "Post_Office": "Putrajaya",
        "State": "WP Putrajaya"
    },
    {
        "Postcode": "62000",
        "Location": "Laluan Laman Putra P1/3",
        "Post_Office": "Putrajaya",
        "State": "WP Putrajaya"
    },
    {
        "Postcode": "62000",
        "Location": "Jalan Gynura P12/1",
        "Post_Office": "Putrajaya",
        "State": "WP Putrajaya"
    },
    {
        "Postcode": "62000",
        "Location": "Jalan Gynura P12/2",
        "Post_Office": "Putrajaya",
        "State": "WP Putrajaya"
    },
    {
        "Postcode": "62000",
        "Location": "Jalan Gynura P12/3",
        "Post_Office": "Putrajaya",
        "State": "WP Putrajaya"
    },
    {
        "Postcode": "62000",
        "Location": "Jalan Gynura P12/4",
        "Post_Office": "Putrajaya",
        "State": "WP Putrajaya"
    },
    {
        "Postcode": "62000",
        "Location": "Jalan Gynura P12/5",
        "Post_Office": "Putrajaya",
        "State": "WP Putrajaya"
    },
    {
        "Postcode": "62000",
        "Location": "Jalan Gynura P12/6",
        "Post_Office": "Putrajaya",
        "State": "WP Putrajaya"
    },
    {
        "Postcode": "62000",
        "Location": "Jalan Gynura P12/7",
        "Post_Office": "Putrajaya",
        "State": "WP Putrajaya"
    },
    {
        "Postcode": "62000",
        "Location": "Jalan Gynura P12/8",
        "Post_Office": "Putrajaya",
        "State": "WP Putrajaya"
    },
    {
        "Postcode": "62000",
        "Location": "Jalan Murraya P12/1",
        "Post_Office": "Putrajaya",
        "State": "WP Putrajaya"
    },
    {
        "Postcode": "62000",
        "Location": "Jalan Murraya P12/2",
        "Post_Office": "Putrajaya",
        "State": "WP Putrajaya"
    },
    {
        "Postcode": "62000",
        "Location": "Jalan Murraya P12/3",
        "Post_Office": "Putrajaya",
        "State": "WP Putrajaya"
    },
    {
        "Postcode": "62000",
        "Location": "Jalan Murraya P12/4",
        "Post_Office": "Putrajaya",
        "State": "WP Putrajaya"
    },
    {
        "Postcode": "62000",
        "Location": "Jalan Murraya P12/5",
        "Post_Office": "Putrajaya",
        "State": "WP Putrajaya"
    },
    {
        "Postcode": "62000",
        "Location": "Jalan Murraya P12/6",
        "Post_Office": "Putrajaya",
        "State": "WP Putrajaya"
    },
    {
        "Postcode": "62000",
        "Location": "Jalan Murraya P12/7",
        "Post_Office": "Putrajaya",
        "State": "WP Putrajaya"
    },
    {
        "Postcode": "62000",
        "Location": "Jalan Murraya P12/8",
        "Post_Office": "Putrajaya",
        "State": "WP Putrajaya"
    },
    {
        "Postcode": "62000",
        "Location": "Jalan Murraya P12/9",
        "Post_Office": "Putrajaya",
        "State": "WP Putrajaya"
    },
    {
        "Postcode": "62000",
        "Location": "Jalan Senna P12",
        "Post_Office": "Putrajaya",
        "State": "WP Putrajaya"
    },
    {
        "Postcode": "62000",
        "Location": "Jalan Areca P12",
        "Post_Office": "Putrajaya",
        "State": "WP Putrajaya"
    },
    {
        "Postcode": "62000",
        "Location": "Jalan Cassia P12/1",
        "Post_Office": "Putrajaya",
        "State": "WP Putrajaya"
    },
    {
        "Postcode": "62000",
        "Location": "Jalan Cassia P12/2",
        "Post_Office": "Putrajaya",
        "State": "WP Putrajaya"
    },
    {
        "Postcode": "62000",
        "Location": "Jalan Cassia P12/3",
        "Post_Office": "Putrajaya",
        "State": "WP Putrajaya"
    },
    {
        "Postcode": "62000",
        "Location": "Jalan Cassia P12/4",
        "Post_Office": "Putrajaya",
        "State": "WP Putrajaya"
    },
    {
        "Postcode": "62000",
        "Location": "Jalan Cassia P12/5",
        "Post_Office": "Putrajaya",
        "State": "WP Putrajaya"
    },
    {
        "Postcode": "62000",
        "Location": "Jalan Cassia P12/6",
        "Post_Office": "Putrajaya",
        "State": "WP Putrajaya"
    },
    {
        "Postcode": "62000",
        "Location": "Jalan Cassia P12/7",
        "Post_Office": "Putrajaya",
        "State": "WP Putrajaya"
    },
    {
        "Postcode": "62000",
        "Location": "Jalan Cassia P12/8",
        "Post_Office": "Putrajaya",
        "State": "WP Putrajaya"
    },
    {
        "Postcode": "62000",
        "Location": "Jalan Cassia P12/9",
        "Post_Office": "Putrajaya",
        "State": "WP Putrajaya"
    },
    {
        "Postcode": "62000",
        "Location": "Jalan Eugenia P12",
        "Post_Office": "Putrajaya",
        "State": "WP Putrajaya"
    }
]
