[
    {
        "Postcode": "62050",
        "Location": "Bahagian Pilihanraya Parlimen P125 Putrajaya",
        "Post_Office": "Putrajaya",
        "State": "WP Putrajaya"
    },
    {
        "Postcode": "62050",
        "Location": "Presint 14",
        "Post_Office": "Putrajaya",
        "State": "WP Putrajaya"
    },
    {
        "Postcode": "62050",
        "Location": "Presint 15",
        "Post_Office": "Putrajaya",
        "State": "WP Putrajaya"
    },
    {
        "Postcode": "62050",
        "Location": "Jalan Ara P15/1 (Jalan P15D)",
        "Post_Office": "Putrajaya",
        "State": "WP Putrajaya"
    },
    {
        "Postcode": "62050",
        "Location": "Jalan Ara P15/2 (Jalan P15D/1)",
        "Post_Office": "Putrajaya",
        "State": "WP Putrajaya"
    },
    {
        "Postcode": "62050",
        "Location": "Jalan Ara P15/3 (Jalan P15D/2)",
        "Post_Office": "Putrajaya",
        "State": "WP Putrajaya"
    },
    {
        "Postcode": "62050",
        "Location": "Jalan Ara P15/4 (Jalan P15D/3)",
        "Post_Office": "Putrajaya",
        "State": "WP Putrajaya"
    },
    {
        "Postcode": "62050",
        "Location": "Jalan Ara P15/5 (Jalan P15D/4)",
        "Post_Office": "Putrajaya",
        "State": "WP Putrajaya"
    },
    {
        "Postcode": "62050",
        "Location": "Jalan Ara P15/6 (Jalan P15D/5)",
        "Post_Office": "Putrajaya",
        "State": "WP Putrajaya"
    },
    {
        "Postcode": "62050",
        "Location": "Jalan Ara P15/7 (Jalan P15D/6)",
        "Post_Office": "Putrajaya",
        "State": "WP Putrajaya"
    },
    {
        "Postcode": "62050",
        "Location": "Jalan Ara P15/8 (Jalan P15D/7)",
        "Post_Office": "Putrajaya",
        "State": "WP Putrajaya"
    },
    {
        "Postcode": "62050",
        "Location": "Jalan Balau P15H 3 (Jalan P15H 3)",
        "Post_Office": "Putrajaya",
        "State": "WP Putrajaya"
    },
    {
        "Postcode": "62050",
        "Location": "Jalan Balau P15H 3/1 (Jalan P15H 3/1)",
        "Post_Office": "Putrajaya",
        "State": "WP Putrajaya"
    },
    {
        "Postcode": "62050",
        "Location": "Jalan Balau P15H 3/2 (Jalan P15H 3/2)",
        "Post_Office": "Putrajaya",
        "State": "WP Putrajaya"
    },
    {
        "Postcode": "62050",
        "Location": "Jalan Balau P15H 3/3 (Jalan P15H 3/3)",
        "Post_Office": "Putrajaya",
        "State": "WP Putrajaya"
    },
    {
        "Postcode": "62050",
        "Location": "Jalan Gelam P15/1 (Jalan P15A)",
        "Post_Office": "Putrajaya",
        "State": "WP Putrajaya"
    },
    {
        "Postcode": "62050",
        "Location": "Jalan Gelam P15/2 (Jalan P15A/1)",
        "Post_Office": "Putrajaya",
        "State": "WP Putrajaya"
    },
    {
        "Postcode": "62050",
        "Location": "Jalan Gelam P15/3 (Jalan P15A/2)",
        "Post_Office": "Putrajaya",
        "State": "WP Putrajaya"
    },
    {
        "Postcode": "62050",
        "Location": "Jalan Gelam P15/4 (Jalan P15A/3)",
        "Post_Office": "Putrajaya",
        "State": "WP Putrajaya"
    },
    {
        "Postcode": "62050",
        "Location": "Jalan Karas P15/1 (Jalan P15F)",
        "Post_Office": "Putrajaya",
        "State": "WP Putrajaya"
    },
    {
        "Postcode": "62050",
        "Location": "Jalan Karas P15/2 (Jalan P15F/1)",
        "Post_Office": "Putrajaya",
        "State": "WP Putrajaya"
    },
    {
        "Postcode": "62050",
        "Location": "Jalan Karas P15/3 (Jalan P15F/2)",
        "Post_Office": "Putrajaya",
        "State": "WP Putrajaya"
    },
    {
        "Postcode": "62050",
        "Location": "Jalan Karas P15/4 (Jalan P15F/3)",
        "Post_Office": "Putrajaya",
        "State": "WP Putrajaya"
    },
    {
        "Postcode": "62050",
        "Location": "Jalan Karas P15/5 (Jalan P15F/4)",
        "Post_Office": "Putrajaya",
        "State": "WP Putrajaya"
    },
    {
        "Postcode": "62050",
        "Location": "Jalan Karas P15/6 (Jalan P15F/5)",
        "Post_Office": "Putrajaya",
        "State": "WP Putrajaya"
    },
    {
        "Postcode": "62050",
        "Location": "Jalan Karas P15/7 (Jalan P15F/6)",
        "Post_Office": "Putrajaya",
        "State": "WP Putrajaya"
    },
    {
        "Postcode": "62050",
        "Location": "Jalan Melunak P15/1 (Jalan P15G)",
        "Post_Office": "Putrajaya",
        "State": "WP Putrajaya"
    },
    {
        "Postcode": "62050",
        "Location": "Jalan Melunak P15/2 (Jalan P15G/1)",
        "Post_Office": "Putrajaya",
        "State": "WP Putrajaya"
    },
    {
        "Postcode": "62050",
        "Location": "Jalan Melunak P15/3 (Jalan P15G/2)",
        "Post_Office": "Putrajaya",
        "State": "WP Putrajaya"
    },
    {
        "Postcode": "62050",
        "Location": "Jalan Mempaga P15/1 (Jalan P15B)",
        "Post_Office": "Putrajaya",
        "State": "WP Putrajaya"
    },
    {
        "Postcode": "62050",
        "Location": "Jalan Mempaga P15/2 (Jalan P15B/1)",
        "Post_Office": "Putrajaya",
        "State": "WP Putrajaya"
    },
    {
        "Postcode": "62050",
        "Location": "Jalan Mempaga P15/3 (Jalan P15B/2)",
        "Post_Office": "Putrajaya",
        "State": "WP Putrajaya"
    },
    {
        "Postcode": "62050",
        "Location": "Jalan Mempaga P15/4 (Jalan P15B/3)",
        "Post_Office": "Putrajaya",
        "State": "WP Putrajaya"
    },
    {
        "Postcode": "62050",
        "Location": "Jalan Merawan P15 (Jalan P15)",
        "Post_Office": "Putrajaya",
        "State": "WP Putrajaya"
    },
    {
        "Postcode": "62050",
        "Location": "Jalan Nyatoh P15H (Jalan P15H)",
        "Post_Office": "Putrajaya",
        "State": "WP Putrajaya"
    },
    {
        "Postcode": "62050",
        "Location": "Jalan Pelawan P15H 2 (Jalan P15H 2)",
        "Post_Office": "Putrajaya",
        "State": "WP Putrajaya"
    },
    {
        "Postcode": "62050",
        "Location": "Jalan Pelawan P15H 2/1 (Jalan P15H 2/1)",
        "Post_Office": "Putrajaya",
        "State": "WP Putrajaya"
    },
    {
        "Postcode": "62050",
        "Location": "Jalan Pelawan P15H 2/2 (Jalan P15H 2/2)",
        "Post_Office": "Putrajaya",
        "State": "WP Putrajaya"
    },
    {
        "Postcode": "62050",
        "Location": "Jalan Pelawan P15H 2/3 (Jalan P15H 2/3)",
        "Post_Office": "Putrajaya",
        "State": "WP Putrajaya"
    },
    {
        "Postcode": "62050",
        "Location": "Jalan Resah P15H 1/1 (Jalan P15H 1/1)",
        "Post_Office": "Putrajaya",
        "State": "WP Putrajaya"
    },
    {
        "Postcode": "62050",
        "Location": "Jalan Resak P15H 1 (Jalan P15H 1)",
        "Post_Office": "Putrajaya",
        "State": "WP Putrajaya"
    },
    {
        "Postcode": "62050",
        "Location": "Jalan Resak P15H 1/1 (Jalan P15H 1/1)",
        "Post_Office": "Putrajaya",
        "State": "WP Putrajaya"
    },
    {
        "Postcode": "62050",
        "Location": "Jalan Resak P15H 1/2 (Jalan P15H 1/2)",
        "Post_Office": "Putrajaya",
        "State": "WP Putrajaya"
    },
    {
        "Postcode": "62050",
        "Location": "Jalan Resak P15H 1/3 (Jalan P15H 1/3)",
        "Post_Office": "Putrajaya",
        "State": "WP Putrajaya"
    },
    {
        "Postcode": "62050",
        "Location": "Jalan Resak P15H 1/4 (Jalan P15H 1/4)",
        "Post_Office": "Putrajaya",
        "State": "WP Putrajaya"
    },
    {
        "Postcode": "62050",
        "Location": "Jalan Resak P15H 1/5 (Jalan P15H 1/5)",
        "Post_Office": "Putrajaya",
        "State": "WP Putrajaya"
    },
    {
        "Postcode": "62050",
        "Location": "Jalan Tembusu P15/1 (Jalan P15C)",
        "Post_Office": "Putrajaya",
        "State": "WP Putrajaya"
    },
    {
        "Postcode": "62050",
        "Location": "Jalan Tembusu P15/2 (Jalan P15C/1)",
        "Post_Office": "Putrajaya",
        "State": "WP Putrajaya"
    },
    {
        "Postcode": "62050",
        "Location": "Jalan Tembusu P15/3 (Jalan P15C/2)",
        "Post_Office": "Putrajaya",
        "State": "WP Putrajaya"
    },
    {
        "Postcode": "62050",
        "Location": "Jalan Tembusu P15/4 (Jalan P15C/3)",
        "Post_Office": "Putrajaya",
        "State": "WP Putrajaya"
    },
    {
        "Postcode": "62050",
        "Location": "Jalan Terap P15/1 (Jalan P15E)",
        "Post_Office": "Putrajaya",
        "State": "WP Putrajaya"
    },
    {
        "Postcode": "62050",
        "Location": "Jalan Terap P15/2 (Jalan P15E 1)",
        "Post_Office": "Putrajaya",
        "State": "WP Putrajaya"
    },
    {
        "Postcode": "62050",
        "Location": "Jalan Terap P15/3 (Jalan P15E 2)",
        "Post_Office": "Putrajaya",
        "State": "WP Putrajaya"
    },
    {
        "Postcode": "62050",
        "Location": "Jalan Terap P15/4 (Jalan P15E 2/1)",
        "Post_Office": "Putrajaya",
        "State": "WP Putrajaya"
    },
    {
        "Postcode": "62050",
        "Location": "Jalan Tualang P15H 4 (Jalan P15H 4)",
        "Post_Office": "Putrajaya",
        "State": "WP Putrajaya"
    },
    {
        "Postcode": "62050",
        "Location": "Jalan Tualang P15H 4/1 (Jalan P15H 4/1)",
        "Post_Office": "Putrajaya",
        "State": "WP Putrajaya"
    },
    {
        "Postcode": "62050",
        "Location": "Jalan Tualang P15H 4/2 (Jalan P15H 4/2)",
        "Post_Office": "Putrajaya",
        "State": "WP Putrajaya"
    },
    {
        "Postcode": "62050",
        "Location": "Jalan Tualang P15H 4/3 (Jalan P15H 4/3)",
        "Post_Office": "Putrajaya",
        "State": "WP Putrajaya"
    },
    {
        "Postcode": "62050",
        "Location": "Jalan Tualang P15H 4/4 (Jalan P15H 4/4)",
        "Post_Office": "Putrajaya",
        "State": "WP Putrajaya"
    },
    {
        "Postcode": "62050",
        "Location": "Jalan Tualang P15H 4/5 (Jalan P15H 4/5)",
        "Post_Office": "Putrajaya",
        "State": "WP Putrajaya"
    },
    {
        "Postcode": "62050",
        "Location": "Jalan Tualang P15H 4/6 (Jalan P15H 4/6)",
        "Post_Office": "Putrajaya",
        "State": "WP Putrajaya"
    },
    {
        "Postcode": "62050",
        "Location": "Jalan Tualang P15H 4/7 (Jalan P15H 4/7)",
        "Post_Office": "Putrajaya",
        "State": "WP Putrajaya"
    },
    {
        "Postcode": "62050",
        "Location": "Jalan Bertam P14J (Jalan P14J)",
        "Post_Office": "Putrajaya",
        "State": "WP Putrajaya"
    },
    {
        "Postcode": "62050",
        "Location": "Jalan Bertam P14J/1 (Jalan P14J/1)",
        "Post_Office": "Putrajaya",
        "State": "WP Putrajaya"
    },
    {
        "Postcode": "62050",
        "Location": "Jalan Cendana P14A (Jalan P14A)",
        "Post_Office": "Putrajaya",
        "State": "WP Putrajaya"
    },
    {
        "Postcode": "62050",
        "Location": "Jalan Cendana P14A 1 (Jalan P14A 1)",
        "Post_Office": "Putrajaya",
        "State": "WP Putrajaya"
    },
    {
        "Postcode": "62050",
        "Location": "Jalan Cendana P14A 1/1 (Jalan P14A 1/1)",
        "Post_Office": "Putrajaya",
        "State": "WP Putrajaya"
    },
    {
        "Postcode": "62050",
        "Location": "Jalan Cendana P14A 1/10",
        "Post_Office": "Putrajaya",
        "State": "WP Putrajaya"
    },
    {
        "Postcode": "62050",
        "Location": "Jalan Cendana P14A 1/11",
        "Post_Office": "Putrajaya",
        "State": "WP Putrajaya"
    },
    {
        "Postcode": "62050",
        "Location": "Jalan Cendana P14A 1/12",
        "Post_Office": "Putrajaya",
        "State": "WP Putrajaya"
    },
    {
        "Postcode": "62050",
        "Location": "Jalan Cendana P14A 1/13",
        "Post_Office": "Putrajaya",
        "State": "WP Putrajaya"
    },
    {
        "Postcode": "62050",
        "Location": "Jalan Cendana P14A 1/14",
        "Post_Office": "Putrajaya",
        "State": "WP Putrajaya"
    },
    {
        "Postcode": "62050",
        "Location": "Jalan Cendana P14A 1/2 (Jalan P14A 1/2)",
        "Post_Office": "Putrajaya",
        "State": "WP Putrajaya"
    },
    {
        "Postcode": "62050",
        "Location": "Jalan Cendana P14A 1/3 (Jalan P14A 1/3)",
        "Post_Office": "Putrajaya",
        "State": "WP Putrajaya"
    },
    {
        "Postcode": "62050",
        "Location": "Jalan Cendana P14A 1/5",
        "Post_Office": "Putrajaya",
        "State": "WP Putrajaya"
    },
    {
        "Postcode": "62050",
        "Location": "Jalan Cendana P14A 1/6",
        "Post_Office": "Putrajaya",
        "State": "WP Putrajaya"
    },
    {
        "Postcode": "62050",
        "Location": "Jalan Cendana P14A 1/7",
        "Post_Office": "Putrajaya",
        "State": "WP Putrajaya"
    },
    {
        "Postcode": "62050",
        "Location": "Jalan Cendana P14A 1/8",
        "Post_Office": "Putrajaya",
        "State": "WP Putrajaya"
    },
    {
        "Postcode": "62050",
        "Location": "Jalan Cendana P14A 1/9",
        "Post_Office": "Putrajaya",
        "State": "WP Putrajaya"
    },
    {
        "Postcode": "62050",
        "Location": "Jalan Cengal P14 (Jalan P14)",
        "Post_Office": "Putrajaya",
        "State": "WP Putrajaya"
    },
    {
        "Postcode": "62050",
        "Location": "Jalan Industri Putra 1",
        "Post_Office": "Putrajaya",
        "State": "WP Putrajaya"
    },
    {
        "Postcode": "62050",
        "Location": "Jalan Jati P14B (Jalan P14B)",
        "Post_Office": "Putrajaya",
        "State": "WP Putrajaya"
    },
    {
        "Postcode": "62050",
        "Location": "Jalan Jati P14B 1 (Jalan P14B 1)",
        "Post_Office": "Putrajaya",
        "State": "WP Putrajaya"
    },
    {
        "Postcode": "62050",
        "Location": "Jalan Jati P14B 1/1 (Jalan P14B 1/1)",
        "Post_Office": "Putrajaya",
        "State": "WP Putrajaya"
    },
    {
        "Postcode": "62050",
        "Location": "Jalan Jati P14B 1/2 (Jalan P14B 1/2)",
        "Post_Office": "Putrajaya",
        "State": "WP Putrajaya"
    },
    {
        "Postcode": "62050",
        "Location": "Jalan Jati P14B 1/3 (Jalan P14B 1/3)",
        "Post_Office": "Putrajaya",
        "State": "WP Putrajaya"
    },
    {
        "Postcode": "62050",
        "Location": "Jalan Jati P14B 1/4 (Jalan P14B 1/4)",
        "Post_Office": "Putrajaya",
        "State": "WP Putrajaya"
    },
    {
        "Postcode": "62050",
        "Location": "Jalan Jati P14B 1/5 (Jalan P14B 1/5)",
        "Post_Office": "Putrajaya",
        "State": "WP Putrajaya"
    },
    {
        "Postcode": "62050",
        "Location": "Jalan Jati P14B 1/6 (Jalan P14B 1/6)",
        "Post_Office": "Putrajaya",
        "State": "WP Putrajaya"
    },
    {
        "Postcode": "62050",
        "Location": "Jalan Jati P14B 1/7 (Jalan P14B 1/7)",
        "Post_Office": "Putrajaya",
        "State": "WP Putrajaya"
    },
    {
        "Postcode": "62050",
        "Location": "Jalan Jati P14B 2 (Jalan P14B 2)",
        "Post_Office": "Putrajaya",
        "State": "WP Putrajaya"
    },
    {
        "Postcode": "62050",
        "Location": "Jalan Jati P14B 2/1 (Jalan P14B 2/1)",
        "Post_Office": "Putrajaya",
        "State": "WP Putrajaya"
    },
    {
        "Postcode": "62050",
        "Location": "Jalan Jati P14B 2/2 (Jalan P14B 2/2)",
        "Post_Office": "Putrajaya",
        "State": "WP Putrajaya"
    },
    {
        "Postcode": "62050",
        "Location": "Jalan Jati P14B 2/3 (Jalan P14B 2/3)",
        "Post_Office": "Putrajaya",
        "State": "WP Putrajaya"
    },
    {
        "Postcode": "62050",
        "Location": "Jalan Jati P14B 2/4 (Jalan P14B 2/4)",
        "Post_Office": "Putrajaya",
        "State": "WP Putrajaya"
    },
    {
        "Postcode": "62050",
        "Location": "Jalan Jati P14B 2/5 (Jalan P14B 2/5)",
        "Post_Office": "Putrajaya",
        "State": "WP Putrajaya"
    },
    {
        "Postcode": "62050",
        "Location": "Jalan Jati P14B 2/6 (Jalan P14B 2/6)",
        "Post_Office": "Putrajaya",
        "State": "WP Putrajaya"
    },
    {
        "Postcode": "62050",
        "Location": "Jalan Jati P14B 4 (Jalan P14B 4)",
        "Post_Office": "Putrajaya",
        "State": "WP Putrajaya"
    },
    {
        "Postcode": "62050",
        "Location": "Jalan Jati P14L (Jalan P14L)",
        "Post_Office": "Putrajaya",
        "State": "WP Putrajaya"
    },
    {
        "Postcode": "62050",
        "Location": "Jalan Keruing P14F (Jalan P14F)",
        "Post_Office": "Putrajaya",
        "State": "WP Putrajaya"
    },
    {
        "Postcode": "62050",
        "Location": "Jalan Keruing P14F/1 (Jalan P14F/1)",
        "Post_Office": "Putrajaya",
        "State": "WP Putrajaya"
    },
    {
        "Postcode": "62050",
        "Location": "Jalan Keruing P14F/2 (Jalan P14F/2)",
        "Post_Office": "Putrajaya",
        "State": "WP Putrajaya"
    },
    {
        "Postcode": "62050",
        "Location": "Jalan Keruing P14F/3 (Jalan P14F/3)",
        "Post_Office": "Putrajaya",
        "State": "WP Putrajaya"
    },
    {
        "Postcode": "62050",
        "Location": "Jalan Keruing P14F/4 (Jalan P14F/4)",
        "Post_Office": "Putrajaya",
        "State": "WP Putrajaya"
    },
    {
        "Postcode": "62050",
        "Location": "Jalan Keruing P14F/5 (Jalan P14F/5)",
        "Post_Office": "Putrajaya",
        "State": "WP Putrajaya"
    },
    {
        "Postcode": "62050",
        "Location": "Jalan Keruing P14F/6 (Jalan P14F/6)",
        "Post_Office": "Putrajaya",
        "State": "WP Putrajaya"
    },
    {
        "Postcode": "62050",
        "Location": "Jalan Keruing P14F/7 (Jalan P14F/7)",
        "Post_Office": "Putrajaya",
        "State": "WP Putrajaya"
    },
    {
        "Postcode": "62050",
        "Location": "Jalan Meranti P14G (Jalan P14G)",
        "Post_Office": "Putrajaya",
        "State": "WP Putrajaya"
    },
    {
        "Postcode": "62050",
        "Location": "Jalan Meranti P14G/1 (Jalan P14G/1)",
        "Post_Office": "Putrajaya",
        "State": "WP Putrajaya"
    },
    {
        "Postcode": "62050",
        "Location": "Jalan Meranti P14G/2 (Jalan P14G/2)",
        "Post_Office": "Putrajaya",
        "State": "WP Putrajaya"
    },
    {
        "Postcode": "62050",
        "Location": "Jalan Meranti P14H (Jalan P14H)",
        "Post_Office": "Putrajaya",
        "State": "WP Putrajaya"
    },
    {
        "Postcode": "62050",
        "Location": "Jalan Merbau P14D (Jalan P14D)",
        "Post_Office": "Putrajaya",
        "State": "WP Putrajaya"
    },
    {
        "Postcode": "62050",
        "Location": "Jalan Merbau P14D 1 (Jalan P14D 1)",
        "Post_Office": "Putrajaya",
        "State": "WP Putrajaya"
    },
    {
        "Postcode": "62050",
        "Location": "Jalan Merbau P14D 2 (Jalan P14D 2)",
        "Post_Office": "Putrajaya",
        "State": "WP Putrajaya"
    },
    {
        "Postcode": "62050",
        "Location": "Jalan Merbau P14D 2/1 (Jalan P14D 2/1)",
        "Post_Office": "Putrajaya",
        "State": "WP Putrajaya"
    },
    {
        "Postcode": "62050",
        "Location": "Jalan Merbau P14D 2/2 (Jalan P14D 2/2)",
        "Post_Office": "Putrajaya",
        "State": "WP Putrajaya"
    },
    {
        "Postcode": "62050",
        "Location": "Jalan Merbau P14D/1 (Jalan P14D/1)",
        "Post_Office": "Putrajaya",
        "State": "WP Putrajaya"
    },
    {
        "Postcode": "62050",
        "Location": "Jalan Merbau P14D/2 (Jalan P14D/2)",
        "Post_Office": "Putrajaya",
        "State": "WP Putrajaya"
    },
    {
        "Postcode": "62050",
        "Location": "Jalan Rimba Alam P14 (Jalan P14)",
        "Post_Office": "Putrajaya",
        "State": "WP Putrajaya"
    },
    {
        "Postcode": "62050",
        "Location": "Jalan Surian P14E (Jalan P14E)",
        "Post_Office": "Putrajaya",
        "State": "WP Putrajaya"
    },
    {
        "Postcode": "62050",
        "Location": "Jalan Surian P14E 1 (Jalan P14E 1)",
        "Post_Office": "Putrajaya",
        "State": "WP Putrajaya"
    },
    {
        "Postcode": "62050",
        "Location": "Jalan Surian P14E 1/1 (Jalan P14E 1/1)",
        "Post_Office": "Putrajaya",
        "State": "WP Putrajaya"
    },
    {
        "Postcode": "62050",
        "Location": "Jalan Surian P14E 1/2 (Jalan P14E 1/2)",
        "Post_Office": "Putrajaya",
        "State": "WP Putrajaya"
    },
    {
        "Postcode": "62050",
        "Location": "Jalan Surian P14E 2 (Jalan P14E 2)",
        "Post_Office": "Putrajaya",
        "State": "WP Putrajaya"
    },
    {
        "Postcode": "62050",
        "Location": "Jalan Surian P14E 2/1 (Jalan P14E 2/1)",
        "Post_Office": "Putrajaya",
        "State": "WP Putrajaya"
    },
    {
        "Postcode": "62050",
        "Location": "Jalan Tempinis P14C (Jalan P14C)",
        "Post_Office": "Putrajaya",
        "State": "WP Putrajaya"
    },
    {
        "Postcode": "62050",
        "Location": "Jalan Tempinis P14C 1 (Jalan P14C 1)",
        "Post_Office": "Putrajaya",
        "State": "WP Putrajaya"
    },
    {
        "Postcode": "62050",
        "Location": "Jalan Tempinis P14C 1/1 (Jalan P14C 1/1)",
        "Post_Office": "Putrajaya",
        "State": "WP Putrajaya"
    },
    {
        "Postcode": "62050",
        "Location": "Jalan Tempinis P14C 1/2 (Jalan P14C 1/2)",
        "Post_Office": "Putrajaya",
        "State": "WP Putrajaya"
    },
    {
        "Postcode": "62050",
        "Location": "Jalan Tempinis P14C 1/3 (Jalan P14C 1/3)",
        "Post_Office": "Putrajaya",
        "State": "WP Putrajaya"
    },
    {
        "Postcode": "62050",
        "Location": "Jalan Tempinis P14C 1/4 (Jalan P14C 1/4)",
        "Post_Office": "Putrajaya",
        "State": "WP Putrajaya"
    },
    {
        "Postcode": "62050",
        "Location": "Jalan Tempinis P14C 1/5 (Jalan P14C 1/5)",
        "Post_Office": "Putrajaya",
        "State": "WP Putrajaya"
    },
    {
        "Postcode": "62050",
        "Location": "Jalan Tempinis P14C 1/6 (Jalan P14C 1/6)",
        "Post_Office": "Putrajaya",
        "State": "WP Putrajaya"
    },
    {
        "Postcode": "62050",
        "Location": "Jalan Tempinis P14C 2 (Jalan P14C 2)",
        "Post_Office": "Putrajaya",
        "State": "WP Putrajaya"
    },
    {
        "Postcode": "62050",
        "Location": "Jalan Tempinis P14C 2/1 (Jalan P14C 2/1)",
        "Post_Office": "Putrajaya",
        "State": "WP Putrajaya"
    },
    {
        "Postcode": "62050",
        "Location": "Jalan Tempinis P14C 2/2 (Jalan P14C 2/2)",
        "Post_Office": "Putrajaya",
        "State": "WP Putrajaya"
    },
    {
        "Postcode": "62050",
        "Location": "Jalan Tempinis P14C 2/3 (Jalan P14C 2/3)",
        "Post_Office": "Putrajaya",
        "State": "WP Putrajaya"
    },
    {
        "Postcode": "62050",
        "Location": "Jalan Tempinis P14C 2/4 (Jalan P14C 2/4)",
        "Post_Office": "Putrajaya",
        "State": "WP Putrajaya"
    },
    {
        "Postcode": "62050",
        "Location": "Jalan Tempinis P14C 2/5 (Jalan P14C 2/5)",
        "Post_Office": "Putrajaya",
        "State": "WP Putrajaya"
    },
    {
        "Postcode": "62050",
        "Location": "Jalan Tempinis P14C 2/6 (Jalan P14C 2/6)",
        "Post_Office": "Putrajaya",
        "State": "WP Putrajaya"
    },
    {
        "Postcode": "62050",
        "Location": "Jalan Tempinis P14C 2/7 (Jalan P14C 2/7)",
        "Post_Office": "Putrajaya",
        "State": "WP Putrajaya"
    }
]
