[
    {
        "Postcode": "62100",
        "Location": "Perumahan Penjawat Awam Malaysia (PPAM) Dalur",
        "Post_Office": "Putrajaya",
        "State": "WP Putrajaya"
    },
    {
        "Postcode": "62100",
        "Location": "Kementerian Wilayah Persekutuan",
        "Post_Office": "Putrajaya",
        "State": "WP Putrajaya"
    },
    {
        "Postcode": "62100",
        "Location": "Suruhanjaya Tenaga",
        "Post_Office": "Putrajaya",
        "State": "WP Putrajaya"
    },
    {
        "Postcode": "62100",
        "Location": "Jalan Tunku Abdul Rahman ",
        "Post_Office": "Putrajaya",
        "State": "WP Putrajaya"
    },
    {
        "Postcode": "62100",
        "Location": "Persiaran Perdana (Presint 4)",
        "Post_Office": "Putrajaya",
        "State": "WP Putrajaya"
    },
    {
        "Postcode": "62100",
        "Location": "Presint 18",
        "Post_Office": "Putrajaya",
        "State": "WP Putrajaya"
    },
    {
        "Postcode": "62100",
        "Location": "Presint 2",
        "Post_Office": "Putrajaya",
        "State": "WP Putrajaya"
    },
    {
        "Postcode": "62100",
        "Location": "Presint 3",
        "Post_Office": "Putrajaya",
        "State": "WP Putrajaya"
    },
    {
        "Postcode": "62100",
        "Location": "Presint 4",
        "Post_Office": "Putrajaya",
        "State": "WP Putrajaya"
    },
    {
        "Postcode": "62100",
        "Location": "Jalan Anggerik P18C 1 (Jalan P18C 1)",
        "Post_Office": "Putrajaya",
        "State": "WP Putrajaya"
    },
    {
        "Postcode": "62100",
        "Location": "Jalan Anggerik P18C 1/1 (Jalan P18C 1/1)",
        "Post_Office": "Putrajaya",
        "State": "WP Putrajaya"
    },
    {
        "Postcode": "62100",
        "Location": "Jalan Anggerik P18C 1/2 (Jalan P18C 1/2)",
        "Post_Office": "Putrajaya",
        "State": "WP Putrajaya"
    },
    {
        "Postcode": "62100",
        "Location": "Jalan Anggerik P18C 1/3 (Jalan P18C 1/3)",
        "Post_Office": "Putrajaya",
        "State": "WP Putrajaya"
    },
    {
        "Postcode": "62100",
        "Location": "Jalan Anggerik P18C 1/4 (Jalan P18C 1/4)",
        "Post_Office": "Putrajaya",
        "State": "WP Putrajaya"
    },
    {
        "Postcode": "62100",
        "Location": "Jalan Anggerik P18C 1/5 (Jalan P18C 1/5)",
        "Post_Office": "Putrajaya",
        "State": "WP Putrajaya"
    },
    {
        "Postcode": "62100",
        "Location": "Jalan Buginvila P18N (Jalan P18N)",
        "Post_Office": "Putrajaya",
        "State": "WP Putrajaya"
    },
    {
        "Postcode": "62100",
        "Location": "Jalan Bunga Matahari P18M (Jalan P18M)",
        "Post_Office": "Putrajaya",
        "State": "WP Putrajaya"
    },
    {
        "Postcode": "62100",
        "Location": "Jalan Bunga Raya P18C (Jalan P18C)",
        "Post_Office": "Putrajaya",
        "State": "WP Putrajaya"
    },
    {
        "Postcode": "62100",
        "Location": "Jalan Cekur P16C (Jalan P16C)",
        "Post_Office": "Putrajaya",
        "State": "WP Putrajaya"
    },
    {
        "Postcode": "62100",
        "Location": "Jalan Gapis P18G (Jalan P18G)",
        "Post_Office": "Putrajaya",
        "State": "WP Putrajaya"
    },
    {
        "Postcode": "62100",
        "Location": "Jalan Halba P17C (Jalan P17C)",
        "Post_Office": "Putrajaya",
        "State": "WP Putrajaya"
    },
    {
        "Postcode": "62100",
        "Location": "Jalan Halia P16 (Jalan P16)",
        "Post_Office": "Putrajaya",
        "State": "WP Putrajaya"
    },
    {
        "Postcode": "62100",
        "Location": "Jalan Helikonia P18D (Jalan P18D)",
        "Post_Office": "Putrajaya",
        "State": "WP Putrajaya"
    },
    {
        "Postcode": "62100",
        "Location": "Jalan Helikonia P18D 1/1 (Jalan P18D 1/1)",
        "Post_Office": "Putrajaya",
        "State": "WP Putrajaya"
    },
    {
        "Postcode": "62100",
        "Location": "Jalan Helikonia P18D 1/2 (Jalan P18D 1/2)",
        "Post_Office": "Putrajaya",
        "State": "WP Putrajaya"
    },
    {
        "Postcode": "62100",
        "Location": "Jalan Jasmin P18E (Jalan P18E)",
        "Post_Office": "Putrajaya",
        "State": "WP Putrajaya"
    },
    {
        "Postcode": "62100",
        "Location": "Jalan Kandis P16 (Jalan P16J)",
        "Post_Office": "Putrajaya",
        "State": "WP Putrajaya"
    },
    {
        "Postcode": "62100",
        "Location": "Jalan Kantan P17A (Jalan P17A)",
        "Post_Office": "Putrajaya",
        "State": "WP Putrajaya"
    },
    {
        "Postcode": "62100",
        "Location": "Jalan Kasturi P17 (Jalan P17)",
        "Post_Office": "Putrajaya",
        "State": "WP Putrajaya"
    },
    {
        "Postcode": "62100",
        "Location": "Jalan Kekwa P18C 2 (Jalan P18C 2)",
        "Post_Office": "Putrajaya",
        "State": "WP Putrajaya"
    },
    {
        "Postcode": "62100",
        "Location": "Jalan Kemboja P18J (Jalan P18J)",
        "Post_Office": "Putrajaya",
        "State": "WP Putrajaya"
    },
    {
        "Postcode": "62100",
        "Location": "Jalan Kesidang P18H (Jalan P18H)",
        "Post_Office": "Putrajaya",
        "State": "WP Putrajaya"
    },
    {
        "Postcode": "62100",
        "Location": "Jalan Kesidang P18H 1/1 (Jalan P18H 1/1)",
        "Post_Office": "Putrajaya",
        "State": "WP Putrajaya"
    },
    {
        "Postcode": "62100",
        "Location": "Jalan Kesidang P18H 1/2 (Jalan P18H 1/2)",
        "Post_Office": "Putrajaya",
        "State": "WP Putrajaya"
    },
    {
        "Postcode": "62100",
        "Location": "Jalan Kesidang P18H 1/3 (Jalan P18H 1/3)",
        "Post_Office": "Putrajaya",
        "State": "WP Putrajaya"
    },
    {
        "Postcode": "62100",
        "Location": "Jalan Kesidang P18H 1/4 (Jalan P18H 1/4)",
        "Post_Office": "Putrajaya",
        "State": "WP Putrajaya"
    },
    {
        "Postcode": "62100",
        "Location": "Jalan Kesidang P18H 1/5 (Jalan P18H 1/5)",
        "Post_Office": "Putrajaya",
        "State": "WP Putrajaya"
    },
    {
        "Postcode": "62100",
        "Location": "Jalan Kesidang P18H 1/6 (Jalan P18H 1/6)",
        "Post_Office": "Putrajaya",
        "State": "WP Putrajaya"
    },
    {
        "Postcode": "62100",
        "Location": "Jalan Kesidang P18H 1/7 (Jalan P18H 1/7)",
        "Post_Office": "Putrajaya",
        "State": "WP Putrajaya"
    },
    {
        "Postcode": "62100",
        "Location": "Jalan Kesidang P18H 1/8 (Jalan P18H 1/8)",
        "Post_Office": "Putrajaya",
        "State": "WP Putrajaya"
    },
    {
        "Postcode": "62100",
        "Location": "Jalan Kesidang P18H 1/9 (Jalan P18H 1/9)",
        "Post_Office": "Putrajaya",
        "State": "WP Putrajaya"
    },
    {
        "Postcode": "62100",
        "Location": "Jalan Ketumbar P17B (Jalan P17B)",
        "Post_Office": "Putrajaya",
        "State": "WP Putrajaya"
    },
    {
        "Postcode": "62100",
        "Location": "Jalan Kunyit Emas P16A (Jalan P16A)",
        "Post_Office": "Putrajaya",
        "State": "WP Putrajaya"
    },
    {
        "Postcode": "62100",
        "Location": "Jalan Lawang P17D (Jalan P17D)",
        "Post_Office": "Putrajaya",
        "State": "WP Putrajaya"
    },
    {
        "Postcode": "62100",
        "Location": "Jalan Lengkuas P16F (Jalan P16F)",
        "Post_Office": "Putrajaya",
        "State": "WP Putrajaya"
    },
    {
        "Postcode": "62100",
        "Location": "Jalan Melati P18L (Jalan P18L)",
        "Post_Office": "Putrajaya",
        "State": "WP Putrajaya"
    },
    {
        "Postcode": "62100",
        "Location": "Jalan Pancarona P18 (Jalan P18)",
        "Post_Office": "Putrajaya",
        "State": "WP Putrajaya"
    },
    {
        "Postcode": "62100",
        "Location": "Jalan Pancarona P18/Uia-4 (Jalan P18/Uia-4)",
        "Post_Office": "Putrajaya",
        "State": "WP Putrajaya"
    },
    {
        "Postcode": "62100",
        "Location": "Jalan Pelaga P17F (Jalan P17F)",
        "Post_Office": "Putrajaya",
        "State": "WP Putrajaya"
    },
    {
        "Postcode": "62100",
        "Location": "Jalan Pelaga P17G (Jalan P17G)",
        "Post_Office": "Putrajaya",
        "State": "WP Putrajaya"
    },
    {
        "Postcode": "62100",
        "Location": "Jalan Selasih P17E (Jalan P17E)",
        "Post_Office": "Putrajaya",
        "State": "WP Putrajaya"
    },
    {
        "Postcode": "62100",
        "Location": "Jalan Selasih P17E 1 (Jalan P17E 1)",
        "Post_Office": "Putrajaya",
        "State": "WP Putrajaya"
    },
    {
        "Postcode": "62100",
        "Location": "Jalan Selom P16E (Jalan P16E)",
        "Post_Office": "Putrajaya",
        "State": "WP Putrajaya"
    },
    {
        "Postcode": "62100",
        "Location": "Jalan Serai Wangi P16G (Jalan P16G)",
        "Post_Office": "Putrajaya",
        "State": "WP Putrajaya"
    },
    {
        "Postcode": "62100",
        "Location": "Jalan Siantan P18K (Jalan P18K)",
        "Post_Office": "Putrajaya",
        "State": "WP Putrajaya"
    },
    {
        "Postcode": "62100",
        "Location": "Jalan Siantan P18K 1/1 (Jalan P18K 1/1)",
        "Post_Office": "Putrajaya",
        "State": "WP Putrajaya"
    },
    {
        "Postcode": "62100",
        "Location": "Jalan Siantan P18K 1/2 (Jalan P18K 1/2)",
        "Post_Office": "Putrajaya",
        "State": "WP Putrajaya"
    },
    {
        "Postcode": "62100",
        "Location": "Jalan Siantan P18K 1/3 (Jalan P18K 1/3)",
        "Post_Office": "Putrajaya",
        "State": "WP Putrajaya"
    },
    {
        "Postcode": "62100",
        "Location": "Jalan Tanjung P18F (Jalan P18F)",
        "Post_Office": "Putrajaya",
        "State": "WP Putrajaya"
    },
    {
        "Postcode": "62100",
        "Location": "Jalan Teja P18B (Jalan P18B)",
        "Post_Office": "Putrajaya",
        "State": "WP Putrajaya"
    },
    {
        "Postcode": "62100",
        "Location": "Jalan Ulam Raja P16D (Jalan P16D)",
        "Post_Office": "Putrajaya",
        "State": "WP Putrajaya"
    },
    {
        "Postcode": "62100",
        "Location": "Jalan Ulam Raja P16D/1 (Jalan P16D/1)",
        "Post_Office": "Putrajaya",
        "State": "WP Putrajaya"
    },
    {
        "Postcode": "62100",
        "Location": "Jalan Ulam Raja P16D/2 (Jalan P16D/2)",
        "Post_Office": "Putrajaya",
        "State": "WP Putrajaya"
    },
    {
        "Postcode": "62100",
        "Location": "Jalan Ulam Raja P16D/3 (Jalan P16D/3)",
        "Post_Office": "Putrajaya",
        "State": "WP Putrajaya"
    },
    {
        "Postcode": "62100",
        "Location": "Jalan Ulam Raja P16D/4 (Jalan P16D/4)",
        "Post_Office": "Putrajaya",
        "State": "WP Putrajaya"
    },
    {
        "Postcode": "62100",
        "Location": "Jalan Ulam Raja P16D/5 (Jalan P16D/5)",
        "Post_Office": "Putrajaya",
        "State": "WP Putrajaya"
    },
    {
        "Postcode": "62100",
        "Location": "Jalan Ulam Raja P16D/6 (Jalan P16D/6)",
        "Post_Office": "Putrajaya",
        "State": "WP Putrajaya"
    },
    {
        "Postcode": "62100",
        "Location": "Presint 12",
        "Post_Office": "Putrajaya",
        "State": "WP Putrajaya"
    },
    {
        "Postcode": "62100",
        "Location": "Jalan Alaf Baru P2 M (Jalan P2 M)",
        "Post_Office": "Putrajaya",
        "State": "WP Putrajaya"
    },
    {
        "Postcode": "62100",
        "Location": "Jalan Alaf Baru P2 N (Jalan P2 N)",
        "Post_Office": "Putrajaya",
        "State": "WP Putrajaya"
    },
    {
        "Postcode": "62100",
        "Location": "Jalan Kastam P2 Y (Jalan P2 Y)",
        "Post_Office": "Putrajaya",
        "State": "WP Putrajaya"
    },
    {
        "Postcode": "62100",
        "Location": "Jalan Perbendaharaan P2 R (Jalan P2 R)",
        "Post_Office": "Putrajaya",
        "State": "WP Putrajaya"
    },
    {
        "Postcode": "62100",
        "Location": "Jalan Perbendaharaan P2 S (Jalan P2 S)",
        "Post_Office": "Putrajaya",
        "State": "WP Putrajaya"
    },
    {
        "Postcode": "62100",
        "Location": "Jalan Perbendaharaan P2 T (Jalan P2 T)",
        "Post_Office": "Putrajaya",
        "State": "WP Putrajaya"
    },
    {
        "Postcode": "62100",
        "Location": "Jalan Perbendaharaan P2 U (Jalan P2 U)",
        "Post_Office": "Putrajaya",
        "State": "WP Putrajaya"
    },
    {
        "Postcode": "62100",
        "Location": "Jalan Perbendaharaan P2 W (Jalan P2 W)",
        "Post_Office": "Putrajaya",
        "State": "WP Putrajaya"
    },
    {
        "Postcode": "62100",
        "Location": "Jalan Perbendaharaan P2 X (Jalan P2 X)",
        "Post_Office": "Putrajaya",
        "State": "WP Putrajaya"
    },
    {
        "Postcode": "62100",
        "Location": "Jalan Seri Wilayah P2 A (Jalan P2 A)",
        "Post_Office": "Putrajaya",
        "State": "WP Putrajaya"
    },
    {
        "Postcode": "62100",
        "Location": "Jalan Tenaga P2 P (Jalan P2 P)",
        "Post_Office": "Putrajaya",
        "State": "WP Putrajaya"
    },
    {
        "Postcode": "62100",
        "Location": "Jalan Tenaga P2 Q (Jalan P2 Q)",
        "Post_Office": "Putrajaya",
        "State": "WP Putrajaya"
    },
    {
        "Postcode": "62100",
        "Location": "Jalan Usahawan P2 K (Jalan P2 K)",
        "Post_Office": "Putrajaya",
        "State": "WP Putrajaya"
    },
    {
        "Postcode": "62100",
        "Location": "Jalan Usahawan P2 L (Jalan P2 L)",
        "Post_Office": "Putrajaya",
        "State": "WP Putrajaya"
    },
    {
        "Postcode": "62100",
        "Location": "Jalan Wawasan P2 B (Jalan P2 B)",
        "Post_Office": "Putrajaya",
        "State": "WP Putrajaya"
    },
    {
        "Postcode": "62100",
        "Location": "Jalan Wawasan P2 C (Jalan P2 C)",
        "Post_Office": "Putrajaya",
        "State": "WP Putrajaya"
    },
    {
        "Postcode": "62100",
        "Location": "Jalan Wawasan P2 D (Jalan P2 D)",
        "Post_Office": "Putrajaya",
        "State": "WP Putrajaya"
    },
    {
        "Postcode": "62100",
        "Location": "Jalan Wawasan P2 E (Jalan P2 E)",
        "Post_Office": "Putrajaya",
        "State": "WP Putrajaya"
    },
    {
        "Postcode": "62100",
        "Location": "Jalan Wawasan P2 F (Jalan P2 F)",
        "Post_Office": "Putrajaya",
        "State": "WP Putrajaya"
    },
    {
        "Postcode": "62100",
        "Location": "Jalan Wawasan P2 G (Jalan P2 G)",
        "Post_Office": "Putrajaya",
        "State": "WP Putrajaya"
    },
    {
        "Postcode": "62100",
        "Location": "Jalan Wawasan P2 H (Jalan P2 H)",
        "Post_Office": "Putrajaya",
        "State": "WP Putrajaya"
    },
    {
        "Postcode": "62100",
        "Location": "Jalan Wawasan P2 J (Jalan P2 J)",
        "Post_Office": "Putrajaya",
        "State": "WP Putrajaya"
    },
    {
        "Postcode": "62100",
        "Location": "Jalan Al Biruni P3 K (Jalan P3 K)",
        "Post_Office": "Putrajaya",
        "State": "WP Putrajaya"
    },
    {
        "Postcode": "62100",
        "Location": "Jalan Al Farabi P3 H (Jalan P3 H)",
        "Post_Office": "Putrajaya",
        "State": "WP Putrajaya"
    },
    {
        "Postcode": "62100",
        "Location": "Jalan Alaf Baru P3 A (Jalan P3 A)",
        "Post_Office": "Putrajaya",
        "State": "WP Putrajaya"
    },
    {
        "Postcode": "62100",
        "Location": "Jalan Alaf Baru P3 L (Jalan P3 L)",
        "Post_Office": "Putrajaya",
        "State": "WP Putrajaya"
    },
    {
        "Postcode": "62100",
        "Location": "Jalan Belia P4 X (Jalan P4 X)",
        "Post_Office": "Putrajaya",
        "State": "WP Putrajaya"
    },
    {
        "Postcode": "62100",
        "Location": "Jalan Belia P4 Y (Jalan P4 Y)",
        "Post_Office": "Putrajaya",
        "State": "WP Putrajaya"
    },
    {
        "Postcode": "62100",
        "Location": "Jalan Gemilang P4-1 (Jalan P4-1)",
        "Post_Office": "Putrajaya",
        "State": "WP Putrajaya"
    },
    {
        "Postcode": "62100",
        "Location": "Jalan Gemilang P4-10 (Jalan P4-10)",
        "Post_Office": "Putrajaya",
        "State": "WP Putrajaya"
    },
    {
        "Postcode": "62100",
        "Location": "Jalan Gemilang P4-2 (Jalan P4-2)",
        "Post_Office": "Putrajaya",
        "State": "WP Putrajaya"
    },
    {
        "Postcode": "62100",
        "Location": "Jalan Gemilang P4-3 (Jalan P4-3)",
        "Post_Office": "Putrajaya",
        "State": "WP Putrajaya"
    },
    {
        "Postcode": "62100",
        "Location": "Jalan Gemilang P4-4 (Jalan P4-4)",
        "Post_Office": "Putrajaya",
        "State": "WP Putrajaya"
    },
    {
        "Postcode": "62100",
        "Location": "Jalan Gemilang P4-5 (Jalan P4-5)",
        "Post_Office": "Putrajaya",
        "State": "WP Putrajaya"
    },
    {
        "Postcode": "62100",
        "Location": "Jalan Gemilang P4-6 (Jalan P4-6)",
        "Post_Office": "Putrajaya",
        "State": "WP Putrajaya"
    },
    {
        "Postcode": "62100",
        "Location": "Jalan Gemilang P4-8 (Jalan P4-8)",
        "Post_Office": "Putrajaya",
        "State": "WP Putrajaya"
    },
    {
        "Postcode": "62100",
        "Location": "Jalan Gemilang P4-9 (Jalan P4-9)",
        "Post_Office": "Putrajaya",
        "State": "WP Putrajaya"
    },
    {
        "Postcode": "62100",
        "Location": "Jalan Guaman P4 P (Jalan P4 P)",
        "Post_Office": "Putrajaya",
        "State": "WP Putrajaya"
    },
    {
        "Postcode": "62100",
        "Location": "Jalan Guaman P4 Q (Jalan P4 Q)",
        "Post_Office": "Putrajaya",
        "State": "WP Putrajaya"
    },
    {
        "Postcode": "62100",
        "Location": "Jalan Ibnu Khaldun P3 J (Jalan P3 J)",
        "Post_Office": "Putrajaya",
        "State": "WP Putrajaya"
    },
    {
        "Postcode": "62100",
        "Location": "Jalan Ibnu Sina P3 E (Jalan P3 E)",
        "Post_Office": "Putrajaya",
        "State": "WP Putrajaya"
    },
    {
        "Postcode": "62100",
        "Location": "Jalan Kehakiman P3 M (Jalan P3 M)",
        "Post_Office": "Putrajaya",
        "State": "WP Putrajaya"
    },
    {
        "Postcode": "62100",
        "Location": "Jalan Kehakiman P3 N (Jalan P3 N)",
        "Post_Office": "Putrajaya",
        "State": "WP Putrajaya"
    },
    {
        "Postcode": "62100",
        "Location": "Jalan Kehakiman P3 P (Jalan P3 P)",
        "Post_Office": "Putrajaya",
        "State": "WP Putrajaya"
    },
    {
        "Postcode": "62100",
        "Location": "Jalan Kehakiman P3 Q (Jalan P3 Q)",
        "Post_Office": "Putrajaya",
        "State": "WP Putrajaya"
    },
    {
        "Postcode": "62100",
        "Location": "Jalan Khawarizmi P3 D (Jalan P3 D)",
        "Post_Office": "Putrajaya",
        "State": "WP Putrajaya"
    },
    {
        "Postcode": "62100",
        "Location": "Jalan Konsulat P4 D (Jalan P4 D)",
        "Post_Office": "Putrajaya",
        "State": "WP Putrajaya"
    },
    {
        "Postcode": "62100",
        "Location": "Jalan Konsulat P4 N (Jalan P4 N)",
        "Post_Office": "Putrajaya",
        "State": "WP Putrajaya"
    },
    {
        "Postcode": "62100",
        "Location": "Jalan Perbadanan P3 B (Jalan P3 B)",
        "Post_Office": "Putrajaya",
        "State": "WP Putrajaya"
    },
    {
        "Postcode": "62100",
        "Location": "Jalan Perbadanan P3 C (Jalan P3 C)",
        "Post_Office": "Putrajaya",
        "State": "WP Putrajaya"
    },
    {
        "Postcode": "62100",
        "Location": "Jalan Perbadanan P3 F (Jalan P3 F)",
        "Post_Office": "Putrajaya",
        "State": "WP Putrajaya"
    },
    {
        "Postcode": "62100",
        "Location": "Jalan Perbadanan P3 G (Jalan P3 G)",
        "Post_Office": "Putrajaya",
        "State": "WP Putrajaya"
    },
    {
        "Postcode": "62100",
        "Location": "Jalan Pertanian P4 A (Jalan P4 A)",
        "Post_Office": "Putrajaya",
        "State": "WP Putrajaya"
    },
    {
        "Postcode": "62100",
        "Location": "Jalan Pertanian P4 B (Jalan P4 B)",
        "Post_Office": "Putrajaya",
        "State": "WP Putrajaya"
    },
    {
        "Postcode": "62100",
        "Location": "Jalan Puteri P4 H (Jalan P4 H)",
        "Post_Office": "Putrajaya",
        "State": "WP Putrajaya"
    },
    {
        "Postcode": "62100",
        "Location": "Jalan Puteri P4 J (Jalan P4 J)",
        "Post_Office": "Putrajaya",
        "State": "WP Putrajaya"
    },
    {
        "Postcode": "62100",
        "Location": "Jalan Puteri P4 K (Jalan P4 K)",
        "Post_Office": "Putrajaya",
        "State": "WP Putrajaya"
    },
    {
        "Postcode": "62100",
        "Location": "Jalan Puteri P4 L (Jalan P4 L)",
        "Post_Office": "Putrajaya",
        "State": "WP Putrajaya"
    },
    {
        "Postcode": "62100",
        "Location": "Jalan Puteri P4 M (Jalan P4 M)",
        "Post_Office": "Putrajaya",
        "State": "WP Putrajaya"
    },
    {
        "Postcode": "62100",
        "Location": "Jalan Rakyat P4 C (Jalan P4 C)",
        "Post_Office": "Putrajaya",
        "State": "WP Putrajaya"
    },
    {
        "Postcode": "62100",
        "Location": "Jalan Rakyat P4 E (Jalan P4 E)",
        "Post_Office": "Putrajaya",
        "State": "WP Putrajaya"
    },
    {
        "Postcode": "62100",
        "Location": "Jalan Rakyat P4 F (Jalan P4 F)",
        "Post_Office": "Putrajaya",
        "State": "WP Putrajaya"
    },
    {
        "Postcode": "62100",
        "Location": "Jalan Rakyat P4 G (Jalan P4 G)",
        "Post_Office": "Putrajaya",
        "State": "WP Putrajaya"
    },
    {
        "Postcode": "62100",
        "Location": "Jalan Rakyat P4 R (Jalan P4 R)",
        "Post_Office": "Putrajaya",
        "State": "WP Putrajaya"
    },
    {
        "Postcode": "62100",
        "Location": "Jalan Rakyat P4 S (Jalan P4 S)",
        "Post_Office": "Putrajaya",
        "State": "WP Putrajaya"
    },
    {
        "Postcode": "62100",
        "Location": "Jalan Rakyat P4 T (Jalan P4 T)",
        "Post_Office": "Putrajaya",
        "State": "WP Putrajaya"
    },
    {
        "Postcode": "62100",
        "Location": "Jalan Rakyat P4 U (Jalan P4 U)",
        "Post_Office": "Putrajaya",
        "State": "WP Putrajaya"
    },
    {
        "Postcode": "62100",
        "Location": "Jalan Rakyat P4 V (Jalan P4 V)",
        "Post_Office": "Putrajaya",
        "State": "WP Putrajaya"
    },
    {
        "Postcode": "62100",
        "Location": "Jalan Rakyat P4 W (Jalan P4 W)",
        "Post_Office": "Putrajaya",
        "State": "WP Putrajaya"
    },
    {
        "Postcode": "62100",
        "Location": "Jalan Wisma Putra",
        "Post_Office": "Putrajaya",
        "State": "WP Putrajaya"
    },
    {
        "Postcode": "62100",
        "Location": "Lingkaran Gemilang Dua",
        "Post_Office": "Putrajaya",
        "State": "WP Putrajaya"
    },
    {
        "Postcode": "62100",
        "Location": "Lingkaran Gemilang Satu",
        "Post_Office": "Putrajaya",
        "State": "WP Putrajaya"
    },
    {
        "Postcode": "62100",
        "Location": "Jalan Kunyit Emas P16A/2",
        "Post_Office": "Putrajaya",
        "State": "WP Putrajaya"
    },
    {
        "Postcode": "62100",
        "Location": "Jalan Kunyit Emas P16A/3",
        "Post_Office": "Putrajaya",
        "State": "WP Putrajaya"
    },
    {
        "Postcode": "62100",
        "Location": "Jalan Seri Satria P16",
        "Post_Office": "Putrajaya",
        "State": "WP Putrajaya"
    },
    {
        "Postcode": "62100",
        "Location": "Jalan Kesum P16/1",
        "Post_Office": "Putrajaya",
        "State": "WP Putrajaya"
    },
    {
        "Postcode": "62100",
        "Location": "Jalan Kesum P16/2",
        "Post_Office": "Putrajaya",
        "State": "WP Putrajaya"
    },
    {
        "Postcode": "62100",
        "Location": "Jalan Kesum P16/3",
        "Post_Office": "Putrajaya",
        "State": "WP Putrajaya"
    },
    {
        "Postcode": "62100",
        "Location": "Jalan Kesum P16/4",
        "Post_Office": "Putrajaya",
        "State": "WP Putrajaya"
    }
]
