[
    {
        "Postcode": "62150",
        "Location": "Residensi Prihatin Keluarga Malaysia (RPKM) Cengkih",
        "Post_Office": "Putrajaya",
        "State": "WP Putrajaya"
    },
    {
        "Postcode": "62150",
        "Location": "Presint 19",
        "Post_Office": "Putrajaya",
        "State": "WP Putrajaya"
    },
    {
        "Postcode": "62150",
        "Location": "Presint 20",
        "Post_Office": "Putrajaya",
        "State": "WP Putrajaya"
    },
    {
        "Postcode": "62150",
        "Location": "Presint 6",
        "Post_Office": "Putrajaya",
        "State": "WP Putrajaya"
    },
    {
        "Postcode": "62150",
        "Location": "Jalan Pegaga P16/1 (Jalan P16/1)",
        "Post_Office": "Putrajaya",
        "State": "WP Putrajaya"
    },
    {
        "Postcode": "62150",
        "Location": "Jalan Pegaga P16B (Jalan P16B)",
        "Post_Office": "Putrajaya",
        "State": "WP Putrajaya"
    },
    {
        "Postcode": "62150",
        "Location": "Jalan Pegaga P16B/1 (Jalan P16B/1)",
        "Post_Office": "Putrajaya",
        "State": "WP Putrajaya"
    },
    {
        "Postcode": "62150",
        "Location": "Jalan Pegaga P16B/2 (Jalan P16B/2)",
        "Post_Office": "Putrajaya",
        "State": "WP Putrajaya"
    },
    {
        "Postcode": "62150",
        "Location": "Jalan Pegaga P16B/3 (Jalan P16B/3)",
        "Post_Office": "Putrajaya",
        "State": "WP Putrajaya"
    },
    {
        "Postcode": "62150",
        "Location": "Jalan Saderi P16 (Jalan P16K)",
        "Post_Office": "Putrajaya",
        "State": "WP Putrajaya"
    },
    {
        "Postcode": "62150",
        "Location": "Presint 16",
        "Post_Office": "Putrajaya",
        "State": "WP Putrajaya"
    },
    {
        "Postcode": "62150",
        "Location": "Presint 17",
        "Post_Office": "Putrajaya",
        "State": "WP Putrajaya"
    },
    {
        "Postcode": "62150",
        "Location": "Jalan Bedar P6 (Jalan P6)",
        "Post_Office": "Putrajaya",
        "State": "WP Putrajaya"
    },
    {
        "Postcode": "62150",
        "Location": "Jalan Gambus P5/1 (Jalan P5/1)",
        "Post_Office": "Putrajaya",
        "State": "WP Putrajaya"
    },
    {
        "Postcode": "62150",
        "Location": "Jalan Gambus P5/2 (Jalan P5/2)",
        "Post_Office": "Putrajaya",
        "State": "WP Putrajaya"
    },
    {
        "Postcode": "62150",
        "Location": "Jalan Gambus P5/5 (Jalan P5/5)",
        "Post_Office": "Putrajaya",
        "State": "WP Putrajaya"
    },
    {
        "Postcode": "62150",
        "Location": "Jalan Gambus P5/6 (Jalan P5/6)",
        "Post_Office": "Putrajaya",
        "State": "WP Putrajaya"
    },
    {
        "Postcode": "62150",
        "Location": "Jalan Gendang P5/5 (Jalan P5/5)",
        "Post_Office": "Putrajaya",
        "State": "WP Putrajaya"
    },
    {
        "Postcode": "62150",
        "Location": "Jalan Gendang P5/9 (Jalan P6/1)",
        "Post_Office": "Putrajaya",
        "State": "WP Putrajaya"
    },
    {
        "Postcode": "62150",
        "Location": "Jalan Gong P5B (Jalan P5B)",
        "Post_Office": "Putrajaya",
        "State": "WP Putrajaya"
    },
    {
        "Postcode": "62150",
        "Location": "Jalan Jalur P6 (Jalan P/3)",
        "Post_Office": "Putrajaya",
        "State": "WP Putrajaya"
    },
    {
        "Postcode": "62150",
        "Location": "Jalan Kajangan P6 (Jalan P/5)",
        "Post_Office": "Putrajaya",
        "State": "WP Putrajaya"
    },
    {
        "Postcode": "62150",
        "Location": "Jalan Payang P6 (Jalan P/2)",
        "Post_Office": "Putrajaya",
        "State": "WP Putrajaya"
    },
    {
        "Postcode": "62150",
        "Location": "Jalan Rebana P5 (Jalan P5)",
        "Post_Office": "Putrajaya",
        "State": "WP Putrajaya"
    },
    {
        "Postcode": "62150",
        "Location": "Jalan Sapeh P5/7 (Jalan P5/7)",
        "Post_Office": "Putrajaya",
        "State": "WP Putrajaya"
    },
    {
        "Postcode": "62150",
        "Location": "Jalan Sapeh P5/8 (Jalan P5/8)",
        "Post_Office": "Putrajaya",
        "State": "WP Putrajaya"
    },
    {
        "Postcode": "62150",
        "Location": "Jalan Sekoci P6 (Jalan P/4)",
        "Post_Office": "Putrajaya",
        "State": "WP Putrajaya"
    },
    {
        "Postcode": "62150",
        "Location": "Jalan Seruling P5A (Jalan P5A)",
        "Post_Office": "Putrajaya",
        "State": "WP Putrajaya"
    },
    {
        "Postcode": "62150",
        "Location": "Jalan Seruling P5A/3 (Jalan P5A/3)",
        "Post_Office": "Putrajaya",
        "State": "WP Putrajaya"
    },
    {
        "Postcode": "62150",
        "Location": "Jalan Seruling P5A/4 (Jalan P5A/4)",
        "Post_Office": "Putrajaya",
        "State": "WP Putrajaya"
    },
    {
        "Postcode": "62150",
        "Location": "Jalan Seruling P5A/5 (Jalan P5A/5)",
        "Post_Office": "Putrajaya",
        "State": "WP Putrajaya"
    },
    {
        "Postcode": "62150",
        "Location": "Jalan Seruling P5A/6 (Jalan P5A/6)",
        "Post_Office": "Putrajaya",
        "State": "WP Putrajaya"
    },
    {
        "Postcode": "62150",
        "Location": "Jalan Serunai P5A (Jalan P5A)",
        "Post_Office": "Putrajaya",
        "State": "WP Putrajaya"
    },
    {
        "Postcode": "62150",
        "Location": "Jalan Serunai P5A/1 (Jalan P5A/1)",
        "Post_Office": "Putrajaya",
        "State": "WP Putrajaya"
    },
    {
        "Postcode": "62150",
        "Location": "Jalan Serunai P5A/2 (Jalan P5A/2)",
        "Post_Office": "Putrajaya",
        "State": "WP Putrajaya"
    },
    {
        "Postcode": "62150",
        "Location": "Jalan Venna P5/3 (Jalan P5/3)",
        "Post_Office": "Putrajaya",
        "State": "WP Putrajaya"
    },
    {
        "Postcode": "62150",
        "Location": "Jalan Venna P5/4 (Jalan P5/4)",
        "Post_Office": "Putrajaya",
        "State": "WP Putrajaya"
    },
    {
        "Postcode": "62150",
        "Location": "Jalan Abadi P20 (Jalan P20)",
        "Post_Office": "Putrajaya",
        "State": "WP Putrajaya"
    },
    {
        "Postcode": "62150",
        "Location": "Jalan Abadi P20/1 (Jalan P20/1)",
        "Post_Office": "Putrajaya",
        "State": "WP Putrajaya"
    },
    {
        "Postcode": "62150",
        "Location": "Jalan Abadi P20/2 (Jalan P20/2)",
        "Post_Office": "Putrajaya",
        "State": "WP Putrajaya"
    },
    {
        "Postcode": "62150",
        "Location": "Jalan Abadi P20/3 (Jalan P20/3)",
        "Post_Office": "Putrajaya",
        "State": "WP Putrajaya"
    },
    {
        "Postcode": "62150",
        "Location": "Jalan Abadi P20/4 (Jalan P20/4)",
        "Post_Office": "Putrajaya",
        "State": "WP Putrajaya"
    },
    {
        "Postcode": "62150",
        "Location": "Jalan Abadi P20/5 (Jalan P20/5)",
        "Post_Office": "Putrajaya",
        "State": "WP Putrajaya"
    },
    {
        "Postcode": "62150",
        "Location": "Jalan Aman P20/6 (Jalan P20/6)",
        "Post_Office": "Putrajaya",
        "State": "WP Putrajaya"
    },
    {
        "Postcode": "62150",
        "Location": "Jalan Amra P19",
        "Post_Office": "Putrajaya",
        "State": "WP Putrajaya"
    },
    {
        "Postcode": "62150",
        "Location": "Jalan Bidara P19",
        "Post_Office": "Putrajaya",
        "State": "WP Putrajaya"
    },
    {
        "Postcode": "62150",
        "Location": "Jalan Damai P20A (Jalan P20A)",
        "Post_Office": "Putrajaya",
        "State": "WP Putrajaya"
    },
    {
        "Postcode": "62150",
        "Location": "Jalan Damai P20A/1 (Jalan P20A/1)",
        "Post_Office": "Putrajaya",
        "State": "WP Putrajaya"
    },
    {
        "Postcode": "62150",
        "Location": "Jalan Damai P20A/2 (Jalan P20A/2)",
        "Post_Office": "Putrajaya",
        "State": "WP Putrajaya"
    },
    {
        "Postcode": "62150",
        "Location": "Jalan Kelubi P19",
        "Post_Office": "Putrajaya",
        "State": "WP Putrajaya"
    },
    {
        "Postcode": "62150",
        "Location": "Jalan Kenangan P20 (Jalan P5)",
        "Post_Office": "Putrajaya",
        "State": "WP Putrajaya"
    },
    {
        "Postcode": "62150",
        "Location": "Jalan Kundang P19/1",
        "Post_Office": "Putrajaya",
        "State": "WP Putrajaya"
    },
    {
        "Postcode": "62150",
        "Location": "Jalan Kundang P19/10",
        "Post_Office": "Putrajaya",
        "State": "WP Putrajaya"
    },
    {
        "Postcode": "62150",
        "Location": "Jalan Kundang P19/2",
        "Post_Office": "Putrajaya",
        "State": "WP Putrajaya"
    },
    {
        "Postcode": "62150",
        "Location": "Jalan Kundang P19/3",
        "Post_Office": "Putrajaya",
        "State": "WP Putrajaya"
    },
    {
        "Postcode": "62150",
        "Location": "Jalan Kundang P19/4",
        "Post_Office": "Putrajaya",
        "State": "WP Putrajaya"
    },
    {
        "Postcode": "62150",
        "Location": "Jalan Kundang P19/5",
        "Post_Office": "Putrajaya",
        "State": "WP Putrajaya"
    },
    {
        "Postcode": "62150",
        "Location": "Jalan Kundang P19/6",
        "Post_Office": "Putrajaya",
        "State": "WP Putrajaya"
    },
    {
        "Postcode": "62150",
        "Location": "Jalan Kundang P19/7",
        "Post_Office": "Putrajaya",
        "State": "WP Putrajaya"
    },
    {
        "Postcode": "62150",
        "Location": "Jalan Kundang P19/8",
        "Post_Office": "Putrajaya",
        "State": "WP Putrajaya"
    },
    {
        "Postcode": "62150",
        "Location": "Jalan Kundang P19/9",
        "Post_Office": "Putrajaya",
        "State": "WP Putrajaya"
    },
    {
        "Postcode": "62150",
        "Location": "Jalan Lindungan P19",
        "Post_Office": "Putrajaya",
        "State": "WP Putrajaya"
    },
    {
        "Postcode": "62150",
        "Location": "Laluan Lindungan P19",
        "Post_Office": "Putrajaya",
        "State": "WP Putrajaya"
    }
]
