[
    {
        "Postcode": "62250",
        "Location": "Jalan P7E",
        "Post_Office": "Putrajaya",
        "State": "WP Putrajaya"
    },
    {
        "Postcode": "62250",
        "Location": "Jalan P9C/1",
        "Post_Office": "Putrajaya",
        "State": "WP Putrajaya"
    },
    {
        "Postcode": "62250",
        "Location": "Jalan P8E 2/5-2",
        "Post_Office": "Putrajaya",
        "State": "WP Putrajaya"
    },
    {
        "Postcode": "62250",
        "Location": "Jalan Intan P10A 1 (Jalan P10A 1)",
        "Post_Office": "Putrajaya",
        "State": "WP Putrajaya"
    },
    {
        "Postcode": "62250",
        "Location": "Presint 10",
        "Post_Office": "Putrajaya",
        "State": "WP Putrajaya"
    },
    {
        "Postcode": "62250",
        "Location": "Presint 7",
        "Post_Office": "Putrajaya",
        "State": "WP Putrajaya"
    },
    {
        "Postcode": "62250",
        "Location": "Presint 8",
        "Post_Office": "Putrajaya",
        "State": "WP Putrajaya"
    },
    {
        "Postcode": "62250",
        "Location": "Presint 9",
        "Post_Office": "Putrajaya",
        "State": "WP Putrajaya"
    },
    {
        "Postcode": "62250",
        "Location": "Jalan Berlian P10/10 (Jalan P10/10)",
        "Post_Office": "Putrajaya",
        "State": "WP Putrajaya"
    },
    {
        "Postcode": "62250",
        "Location": "Jalan Delima P10/8 (Jalan P10/8)",
        "Post_Office": "Putrajaya",
        "State": "WP Putrajaya"
    },
    {
        "Postcode": "62250",
        "Location": "Jalan Delima P10/9 (Jalan P10/9)",
        "Post_Office": "Putrajaya",
        "State": "WP Putrajaya"
    },
    {
        "Postcode": "62250",
        "Location": "Jalan Firus P10D (Jalan P10D)",
        "Post_Office": "Putrajaya",
        "State": "WP Putrajaya"
    },
    {
        "Postcode": "62250",
        "Location": "Jalan Intan P10A (Jalan P10A)",
        "Post_Office": "Putrajaya",
        "State": "WP Putrajaya"
    },
    {
        "Postcode": "62250",
        "Location": "Jalan Intan P10A 1/1 (Jalan P10A 1/1)",
        "Post_Office": "Putrajaya",
        "State": "WP Putrajaya"
    },
    {
        "Postcode": "62250",
        "Location": "Jalan Intan P10A 1/2 (Jalan P10A 1/2)",
        "Post_Office": "Putrajaya",
        "State": "WP Putrajaya"
    },
    {
        "Postcode": "62250",
        "Location": "Jalan Intan P10A 1/3 (Jalan P10A 1/3)",
        "Post_Office": "Putrajaya",
        "State": "WP Putrajaya"
    },
    {
        "Postcode": "62250",
        "Location": "Jalan Intan P10A 2 (Jalan P10A 2)",
        "Post_Office": "Putrajaya",
        "State": "WP Putrajaya"
    },
    {
        "Postcode": "62250",
        "Location": "Jalan Intan P10A 2/1 (Jalan P10A 2/1)",
        "Post_Office": "Putrajaya",
        "State": "WP Putrajaya"
    },
    {
        "Postcode": "62250",
        "Location": "Jalan Intan P10A 2/2 (Jalan P10A 2/2)",
        "Post_Office": "Putrajaya",
        "State": "WP Putrajaya"
    },
    {
        "Postcode": "62250",
        "Location": "Jalan Intan P10A 2/3 (Jalan P10A 2/3)",
        "Post_Office": "Putrajaya",
        "State": "WP Putrajaya"
    },
    {
        "Postcode": "62250",
        "Location": "Jalan Intan P10A 3 (Jalan P10A 3)",
        "Post_Office": "Putrajaya",
        "State": "WP Putrajaya"
    },
    {
        "Postcode": "62250",
        "Location": "Jalan Intan P10A 3/1 (Jalan P10A 3/1)",
        "Post_Office": "Putrajaya",
        "State": "WP Putrajaya"
    },
    {
        "Postcode": "62250",
        "Location": "Jalan Intan P10A 3/2 (Jalan P10A 3/2)",
        "Post_Office": "Putrajaya",
        "State": "WP Putrajaya"
    },
    {
        "Postcode": "62250",
        "Location": "Jalan Intan P10A 3/3 (Jalan P10A 3/3)",
        "Post_Office": "Putrajaya",
        "State": "WP Putrajaya"
    },
    {
        "Postcode": "62250",
        "Location": "Jalan Intan P10A 3/4 (Jalan P10A 3/4)",
        "Post_Office": "Putrajaya",
        "State": "WP Putrajaya"
    },
    {
        "Postcode": "62250",
        "Location": "Jalan Intan P10A 3/5 (Jalan P10A 3/5)",
        "Post_Office": "Putrajaya",
        "State": "WP Putrajaya"
    },
    {
        "Postcode": "62250",
        "Location": "Jalan Nilam P10C (Jalan P10C)",
        "Post_Office": "Putrajaya",
        "State": "WP Putrajaya"
    },
    {
        "Postcode": "62250",
        "Location": "Jalan Nilam P10C/1 (Jalan P10C/1)",
        "Post_Office": "Putrajaya",
        "State": "WP Putrajaya"
    },
    {
        "Postcode": "62250",
        "Location": "Jalan Nilam P10C/2 (Jalan P10C/2)",
        "Post_Office": "Putrajaya",
        "State": "WP Putrajaya"
    },
    {
        "Postcode": "62250",
        "Location": "Jalan Nilam P10C/3 (Jalan P10C/3)",
        "Post_Office": "Putrajaya",
        "State": "WP Putrajaya"
    },
    {
        "Postcode": "62250",
        "Location": "Jalan Nilam P10C/4 (Jalan P10C/4)",
        "Post_Office": "Putrajaya",
        "State": "WP Putrajaya"
    },
    {
        "Postcode": "62250",
        "Location": "Jalan Nilam P10C/5 (Jalan P10C/5)",
        "Post_Office": "Putrajaya",
        "State": "WP Putrajaya"
    },
    {
        "Postcode": "62250",
        "Location": "Jalan Nilam P10C/6 (Jalan P10C/6)",
        "Post_Office": "Putrajaya",
        "State": "WP Putrajaya"
    },
    {
        "Postcode": "62250",
        "Location": "Jalan P10/2",
        "Post_Office": "Putrajaya",
        "State": "WP Putrajaya"
    },
    {
        "Postcode": "62250",
        "Location": "Jalan Topaz P10/1 (Jalan P10/1)",
        "Post_Office": "Putrajaya",
        "State": "WP Putrajaya"
    },
    {
        "Postcode": "62250",
        "Location": "Jalan Topaz P10/3 (Jalan P10/3)",
        "Post_Office": "Putrajaya",
        "State": "WP Putrajaya"
    },
    {
        "Postcode": "62250",
        "Location": "Jalan Topaz P10/4 (Jalan P10/4)",
        "Post_Office": "Putrajaya",
        "State": "WP Putrajaya"
    },
    {
        "Postcode": "62250",
        "Location": "Jalan Topaz P10/5 (Jalan P10/5)",
        "Post_Office": "Putrajaya",
        "State": "WP Putrajaya"
    },
    {
        "Postcode": "62250",
        "Location": "Jalan Topaz P10/6 (Jalan P10/6)",
        "Post_Office": "Putrajaya",
        "State": "WP Putrajaya"
    },
    {
        "Postcode": "62250",
        "Location": "Jalan Topaz P10/7 (Jalan P10/7)",
        "Post_Office": "Putrajaya",
        "State": "WP Putrajaya"
    },
    {
        "Postcode": "62250",
        "Location": "Jalan Zamrud P10B (Jalan P10B)",
        "Post_Office": "Putrajaya",
        "State": "WP Putrajaya"
    },
    {
        "Postcode": "62250",
        "Location": "Jalan Zamrud P10B/1 (Jalan P10B/1)",
        "Post_Office": "Putrajaya",
        "State": "WP Putrajaya"
    },
    {
        "Postcode": "62250",
        "Location": "Jalan Zamrud P10B/10 (Jalan P10B/10)",
        "Post_Office": "Putrajaya",
        "State": "WP Putrajaya"
    },
    {
        "Postcode": "62250",
        "Location": "Jalan Zamrud P10B/11 (Jalan P10B/11)",
        "Post_Office": "Putrajaya",
        "State": "WP Putrajaya"
    },
    {
        "Postcode": "62250",
        "Location": "Jalan Zamrud P10B/12 (Jalan P10B/12)",
        "Post_Office": "Putrajaya",
        "State": "WP Putrajaya"
    },
    {
        "Postcode": "62250",
        "Location": "Jalan Zamrud P10B/13 (Jalan P10B/13)",
        "Post_Office": "Putrajaya",
        "State": "WP Putrajaya"
    },
    {
        "Postcode": "62250",
        "Location": "Jalan Zamrud P10B/2 (Jalan P10B/2)",
        "Post_Office": "Putrajaya",
        "State": "WP Putrajaya"
    },
    {
        "Postcode": "62250",
        "Location": "Jalan Zamrud P10B/3 (Jalan P10B/3)",
        "Post_Office": "Putrajaya",
        "State": "WP Putrajaya"
    },
    {
        "Postcode": "62250",
        "Location": "Jalan Zamrud P10B/4 (Jalan P10B/4)",
        "Post_Office": "Putrajaya",
        "State": "WP Putrajaya"
    },
    {
        "Postcode": "62250",
        "Location": "Jalan Zamrud P10B/5 (Jalan P10B/5)",
        "Post_Office": "Putrajaya",
        "State": "WP Putrajaya"
    },
    {
        "Postcode": "62250",
        "Location": "Jalan Zamrud P10B/6 (Jalan P10B/6)",
        "Post_Office": "Putrajaya",
        "State": "WP Putrajaya"
    },
    {
        "Postcode": "62250",
        "Location": "Jalan Zamrud P10B/7 (Jalan P10B/7)",
        "Post_Office": "Putrajaya",
        "State": "WP Putrajaya"
    },
    {
        "Postcode": "62250",
        "Location": "Jalan Zamrud P10B/8 (Jalan P10B/8)",
        "Post_Office": "Putrajaya",
        "State": "WP Putrajaya"
    },
    {
        "Postcode": "62250",
        "Location": "Jalan Zamrud P10B/9 (Jalan P10B/9)",
        "Post_Office": "Putrajaya",
        "State": "WP Putrajaya"
    },
    {
        "Postcode": "62250",
        "Location": "Jalan Cenderawasih P9 A (Jalan P9 A)",
        "Post_Office": "Putrajaya",
        "State": "WP Putrajaya"
    },
    {
        "Postcode": "62250",
        "Location": "Jalan Cenderawasih P9 A/1 (Jalan P9 A/1)",
        "Post_Office": "Putrajaya",
        "State": "WP Putrajaya"
    },
    {
        "Postcode": "62250",
        "Location": "Jalan Cenderawasih P9 A/2 (Jalan P9 A/2)",
        "Post_Office": "Putrajaya",
        "State": "WP Putrajaya"
    },
    {
        "Postcode": "62250",
        "Location": "Jalan Cenderawasih P9 A/3 (Jalan P9 A/3)",
        "Post_Office": "Putrajaya",
        "State": "WP Putrajaya"
    },
    {
        "Postcode": "62250",
        "Location": "Jalan Cenderawasih P9 A/4 (Jalan P9 A/4)",
        "Post_Office": "Putrajaya",
        "State": "WP Putrajaya"
    },
    {
        "Postcode": "62250",
        "Location": "Jalan Cenderawasih P9 A/5 (Jalan P9 A/5)",
        "Post_Office": "Putrajaya",
        "State": "WP Putrajaya"
    },
    {
        "Postcode": "62250",
        "Location": "Jalan Enggang P9 (Jalan P9)",
        "Post_Office": "Putrajaya",
        "State": "WP Putrajaya"
    },
    {
        "Postcode": "62250",
        "Location": "Jalan Gelam P9 D (Jalan P9 D)",
        "Post_Office": "Putrajaya",
        "State": "WP Putrajaya"
    },
    {
        "Postcode": "62250",
        "Location": "Jalan Gelam P9 D/1 (Jalan P9 D/1)",
        "Post_Office": "Putrajaya",
        "State": "WP Putrajaya"
    },
    {
        "Postcode": "62250",
        "Location": "Jalan Gelam P9 D/2 (Jalan P9 D/2)",
        "Post_Office": "Putrajaya",
        "State": "WP Putrajaya"
    },
    {
        "Postcode": "62250",
        "Location": "Jalan Gelam P9 D/3 (Jalan P9 D/3)",
        "Post_Office": "Putrajaya",
        "State": "WP Putrajaya"
    },
    {
        "Postcode": "62250",
        "Location": "Jalan Istana P8E 1 (Jalan P8E 1)",
        "Post_Office": "Putrajaya",
        "State": "WP Putrajaya"
    },
    {
        "Postcode": "62250",
        "Location": "Jalan Jelawat P8C (Jalan P8C)",
        "Post_Office": "Putrajaya",
        "State": "WP Putrajaya"
    },
    {
        "Postcode": "62250",
        "Location": "Jalan Jelawat P8D (Jalan P8D)",
        "Post_Office": "Putrajaya",
        "State": "WP Putrajaya"
    },
    {
        "Postcode": "62250",
        "Location": "Jalan Kedidi P9 G/2 (Jalan P9 G/2)",
        "Post_Office": "Putrajaya",
        "State": "WP Putrajaya"
    },
    {
        "Postcode": "62250",
        "Location": "Jalan Kedidi P9 G/3 (Jalan P9 G/3)",
        "Post_Office": "Putrajaya",
        "State": "WP Putrajaya"
    },
    {
        "Postcode": "62250",
        "Location": "Jalan Kedidi P9 G/4 (Jalan P9 G/4)",
        "Post_Office": "Putrajaya",
        "State": "WP Putrajaya"
    },
    {
        "Postcode": "62250",
        "Location": "Jalan Kedidi P9 G/5 (Jalan P9 G/5)",
        "Post_Office": "Putrajaya",
        "State": "WP Putrajaya"
    },
    {
        "Postcode": "62250",
        "Location": "Jalan Kedidi P9 G/6 (Jalan P9 G/6)",
        "Post_Office": "Putrajaya",
        "State": "WP Putrajaya"
    },
    {
        "Postcode": "62250",
        "Location": "Jalan Kedidi P9 G/7 (Jalan P9 G/7)",
        "Post_Office": "Putrajaya",
        "State": "WP Putrajaya"
    },
    {
        "Postcode": "62250",
        "Location": "Jalan Kelah P8 (Jalan P8)",
        "Post_Office": "Putrajaya",
        "State": "WP Putrajaya"
    },
    {
        "Postcode": "62250",
        "Location": "Jalan Kelicap P9 G/1 (Jalan P9 G/1)",
        "Post_Office": "Putrajaya",
        "State": "WP Putrajaya"
    },
    {
        "Postcode": "62250",
        "Location": "Jalan Kenari P9 G 1/1 (Jalan P9 G 1/1)",
        "Post_Office": "Putrajaya",
        "State": "WP Putrajaya"
    },
    {
        "Postcode": "62250",
        "Location": "Jalan Kenari P9 G 1/2 (Jalan P9 G 1/2)",
        "Post_Office": "Putrajaya",
        "State": "WP Putrajaya"
    },
    {
        "Postcode": "62250",
        "Location": "Jalan Kenari P9 G 1/3 (Jalan P9 G 1/3)",
        "Post_Office": "Putrajaya",
        "State": "WP Putrajaya"
    },
    {
        "Postcode": "62250",
        "Location": "Jalan Kenari P9 G 1/4 (Jalan P9 G 1/4)",
        "Post_Office": "Putrajaya",
        "State": "WP Putrajaya"
    },
    {
        "Postcode": "62250",
        "Location": "Jalan Kenari P9 G 1/5 (Jalan P9 G 1/5)",
        "Post_Office": "Putrajaya",
        "State": "WP Putrajaya"
    },
    {
        "Postcode": "62250",
        "Location": "Jalan Kenari P9 G1 (Jalan P9 G1)",
        "Post_Office": "Putrajaya",
        "State": "WP Putrajaya"
    },
    {
        "Postcode": "62250",
        "Location": "Jalan Kenyalang P9 G (Jalan P9 G)",
        "Post_Office": "Putrajaya",
        "State": "WP Putrajaya"
    },
    {
        "Postcode": "62250",
        "Location": "Jalan Kepimpinan P8H (Jalan P8H)",
        "Post_Office": "Putrajaya",
        "State": "WP Putrajaya"
    },
    {
        "Postcode": "62250",
        "Location": "Jalan Kerai P8E (Jalan P8E)",
        "Post_Office": "Putrajaya",
        "State": "WP Putrajaya"
    },
    {
        "Postcode": "62250",
        "Location": "Jalan Kerai P8E/1 (Jalan P8E/1)",
        "Post_Office": "Putrajaya",
        "State": "WP Putrajaya"
    },
    {
        "Postcode": "62250",
        "Location": "Jalan Kerai P8E/2 (Jalan P8E/2)",
        "Post_Office": "Putrajaya",
        "State": "WP Putrajaya"
    },
    {
        "Postcode": "62250",
        "Location": "Jalan Kerai P8E/3 (Jalan P8E/3)",
        "Post_Office": "Putrajaya",
        "State": "WP Putrajaya"
    },
    {
        "Postcode": "62250",
        "Location": "Jalan Kerai P8E/4 (Jalan P8E/4)",
        "Post_Office": "Putrajaya",
        "State": "WP Putrajaya"
    },
    {
        "Postcode": "62250",
        "Location": "Jalan Kerai P8E/5 (Jalan P8E/5)",
        "Post_Office": "Putrajaya",
        "State": "WP Putrajaya"
    },
    {
        "Postcode": "62250",
        "Location": "Jalan Merbuk P9 C1 (Jalan P9 C1)",
        "Post_Office": "Putrajaya",
        "State": "WP Putrajaya"
    },
    {
        "Postcode": "62250",
        "Location": "Jalan Merpati P9 C (Jalan P9 C)",
        "Post_Office": "Putrajaya",
        "State": "WP Putrajaya"
    },
    {
        "Postcode": "62250",
        "Location": "Jalan Merpati P9 C/1 (Jalan P9 C/1)",
        "Post_Office": "Putrajaya",
        "State": "WP Putrajaya"
    },
    {
        "Postcode": "62250",
        "Location": "Jalan Nuri P9 F (Jalan P9 F)",
        "Post_Office": "Putrajaya",
        "State": "WP Putrajaya"
    },
    {
        "Postcode": "62250",
        "Location": "Jalan Patin P8B (Jalan P8B)",
        "Post_Office": "Putrajaya",
        "State": "WP Putrajaya"
    },
    {
        "Postcode": "62250",
        "Location": "Jalan Patin P8B/1 (Jalan P8B/1)",
        "Post_Office": "Putrajaya",
        "State": "WP Putrajaya"
    },
    {
        "Postcode": "62250",
        "Location": "Jalan Patin P8B/2 (Jalan P8B/2)",
        "Post_Office": "Putrajaya",
        "State": "WP Putrajaya"
    },
    {
        "Postcode": "62250",
        "Location": "Jalan Patin P8B/3 (Jalan P8B/3)",
        "Post_Office": "Putrajaya",
        "State": "WP Putrajaya"
    },
    {
        "Postcode": "62250",
        "Location": "Jalan Patin P8B/4 (Jalan P8B/4)",
        "Post_Office": "Putrajaya",
        "State": "WP Putrajaya"
    },
    {
        "Postcode": "62250",
        "Location": "Jalan Patin P8B/5 (Jalan P8B/5)",
        "Post_Office": "Putrajaya",
        "State": "WP Putrajaya"
    },
    {
        "Postcode": "62250",
        "Location": "Jalan Penyelamat P7A (Jalan P7A)",
        "Post_Office": "Putrajaya",
        "State": "WP Putrajaya"
    },
    {
        "Postcode": "62250",
        "Location": "Jalan Rajawali P9 B 1/1 (Jalan P9 B 1/1)",
        "Post_Office": "Putrajaya",
        "State": "WP Putrajaya"
    },
    {
        "Postcode": "62250",
        "Location": "Jalan Rajawali P9 B 1/10 (Jalan P9 B 1/10)",
        "Post_Office": "Putrajaya",
        "State": "WP Putrajaya"
    },
    {
        "Postcode": "62250",
        "Location": "Jalan Rajawali P9 B 1/11 (Jalan P9 B 1/11)",
        "Post_Office": "Putrajaya",
        "State": "WP Putrajaya"
    },
    {
        "Postcode": "62250",
        "Location": "Jalan Rajawali P9 B 1/12 (Jalan P9 B 1/12)",
        "Post_Office": "Putrajaya",
        "State": "WP Putrajaya"
    },
    {
        "Postcode": "62250",
        "Location": "Jalan Rajawali P9 B 1/13 (Jalan P9 B 1/13)",
        "Post_Office": "Putrajaya",
        "State": "WP Putrajaya"
    },
    {
        "Postcode": "62250",
        "Location": "Jalan Rajawali P9 B 1/14 (Jalan P9 B 1/14)",
        "Post_Office": "Putrajaya",
        "State": "WP Putrajaya"
    },
    {
        "Postcode": "62250",
        "Location": "Jalan Rajawali P9 B 1/15 (Jalan P9 B 1/15)",
        "Post_Office": "Putrajaya",
        "State": "WP Putrajaya"
    },
    {
        "Postcode": "62250",
        "Location": "Jalan Rajawali P9 B 1/16 (Jalan P9 B 1/16)",
        "Post_Office": "Putrajaya",
        "State": "WP Putrajaya"
    },
    {
        "Postcode": "62250",
        "Location": "Jalan Rajawali P9 B 1/17 (Jalan P9 B 1/17)",
        "Post_Office": "Putrajaya",
        "State": "WP Putrajaya"
    },
    {
        "Postcode": "62250",
        "Location": "Jalan Rajawali P9 B 1/2 (Jalan P9 B 1/2)",
        "Post_Office": "Putrajaya",
        "State": "WP Putrajaya"
    },
    {
        "Postcode": "62250",
        "Location": "Jalan Rajawali P9 B 1/4 (Jalan P9 B 1/4)",
        "Post_Office": "Putrajaya",
        "State": "WP Putrajaya"
    },
    {
        "Postcode": "62250",
        "Location": "Jalan Rajawali P9 B 1/5 (Jalan P9 B 1/5)",
        "Post_Office": "Putrajaya",
        "State": "WP Putrajaya"
    },
    {
        "Postcode": "62250",
        "Location": "Jalan Rajawali P9 B 1/6 (Jalan P9 B 1/6)",
        "Post_Office": "Putrajaya",
        "State": "WP Putrajaya"
    },
    {
        "Postcode": "62250",
        "Location": "Jalan Rajawali P9 B 1/7 (Jalan P9 B 1/7)",
        "Post_Office": "Putrajaya",
        "State": "WP Putrajaya"
    },
    {
        "Postcode": "62250",
        "Location": "Jalan Rajawali P9 B 1/8 (Jalan P9 B 1/8)",
        "Post_Office": "Putrajaya",
        "State": "WP Putrajaya"
    },
    {
        "Postcode": "62250",
        "Location": "Jalan Rajawali P9 B 1/9 (Jalan P9 B 1/9)",
        "Post_Office": "Putrajaya",
        "State": "WP Putrajaya"
    },
    {
        "Postcode": "62250",
        "Location": "Jalan Rajawali P9 B1 (Jalan P9 B1)",
        "Post_Office": "Putrajaya",
        "State": "WP Putrajaya"
    },
    {
        "Postcode": "62250",
        "Location": "Jalan Rohu P8A (Jalan P8A)",
        "Post_Office": "Putrajaya",
        "State": "WP Putrajaya"
    },
    {
        "Postcode": "62250",
        "Location": "Jalan Rohu P8A/1 (Jalan P8A/1)",
        "Post_Office": "Putrajaya",
        "State": "WP Putrajaya"
    },
    {
        "Postcode": "62250",
        "Location": "Jalan Rohu P8A/2 (Jalan P8A/2)",
        "Post_Office": "Putrajaya",
        "State": "WP Putrajaya"
    },
    {
        "Postcode": "62250",
        "Location": "Jalan Rohu P8A/3 (Jalan P8A/3)",
        "Post_Office": "Putrajaya",
        "State": "WP Putrajaya"
    },
    {
        "Postcode": "62250",
        "Location": "Jalan Rohu P8A/4 (Jalan P8A/4)",
        "Post_Office": "Putrajaya",
        "State": "WP Putrajaya"
    },
    {
        "Postcode": "62250",
        "Location": "Jalan Rohu P8A/5 (Jalan P8A/5)",
        "Post_Office": "Putrajaya",
        "State": "WP Putrajaya"
    },
    {
        "Postcode": "62250",
        "Location": "Jalan Seluang P8/7",
        "Post_Office": "Putrajaya",
        "State": "WP Putrajaya"
    },
    {
        "Postcode": "62250",
        "Location": "Jalan Seluang P8E 2 (Jalan P8E 2)",
        "Post_Office": "Putrajaya",
        "State": "WP Putrajaya"
    },
    {
        "Postcode": "62250",
        "Location": "Jalan Seluang P8E 2/1 (Jalan P8E 2/1)",
        "Post_Office": "Putrajaya",
        "State": "WP Putrajaya"
    },
    {
        "Postcode": "62250",
        "Location": "Jalan Seluang P8E 2/2 (Jalan P8E 2/2)",
        "Post_Office": "Putrajaya",
        "State": "WP Putrajaya"
    },
    {
        "Postcode": "62250",
        "Location": "Jalan Seluang P8E 2/3 (Jalan P8E 2/3)",
        "Post_Office": "Putrajaya",
        "State": "WP Putrajaya"
    },
    {
        "Postcode": "62250",
        "Location": "Jalan Seluang P8E 2/4 (Jalan P8E 2/4)",
        "Post_Office": "Putrajaya",
        "State": "WP Putrajaya"
    },
    {
        "Postcode": "62250",
        "Location": "Jalan Seluang P8E 2/5 (Jalan P8E 2/5)",
        "Post_Office": "Putrajaya",
        "State": "WP Putrajaya"
    },
    {
        "Postcode": "62250",
        "Location": "Jalan Seluang P8E 2/5-1 (Jalan P8E 2/5-1)",
        "Post_Office": "Putrajaya",
        "State": "WP Putrajaya"
    },
    {
        "Postcode": "62250",
        "Location": "Jalan Tempua P9 B (Jalan P9 B)",
        "Post_Office": "Putrajaya",
        "State": "WP Putrajaya"
    },
    {
        "Postcode": "62250",
        "Location": "Jalan Tempua P9 B/1 (Jalan P9 B/1)",
        "Post_Office": "Putrajaya",
        "State": "WP Putrajaya"
    },
    {
        "Postcode": "62250",
        "Location": "Jalan Tempua P9 B/10 (Jalan P9 B/10)",
        "Post_Office": "Putrajaya",
        "State": "WP Putrajaya"
    },
    {
        "Postcode": "62250",
        "Location": "Jalan Tempua P9 B/11 (Jalan P9 B/11)",
        "Post_Office": "Putrajaya",
        "State": "WP Putrajaya"
    },
    {
        "Postcode": "62250",
        "Location": "Jalan Tempua P9 B/12 (Jalan P9 B/12)",
        "Post_Office": "Putrajaya",
        "State": "WP Putrajaya"
    },
    {
        "Postcode": "62250",
        "Location": "Jalan Tempua P9 B/2 (Jalan P9 B/2)",
        "Post_Office": "Putrajaya",
        "State": "WP Putrajaya"
    },
    {
        "Postcode": "62250",
        "Location": "Jalan Tempua P9 B/3 (Jalan P9 B/3)",
        "Post_Office": "Putrajaya",
        "State": "WP Putrajaya"
    },
    {
        "Postcode": "62250",
        "Location": "Jalan Tempua P9 B/4 (Jalan P9 B/4)",
        "Post_Office": "Putrajaya",
        "State": "WP Putrajaya"
    },
    {
        "Postcode": "62250",
        "Location": "Jalan Tempua P9 B/5 (Jalan P9 B/5)",
        "Post_Office": "Putrajaya",
        "State": "WP Putrajaya"
    },
    {
        "Postcode": "62250",
        "Location": "Jalan Tempua P9 B/6 (Jalan P9 B/6)",
        "Post_Office": "Putrajaya",
        "State": "WP Putrajaya"
    },
    {
        "Postcode": "62250",
        "Location": "Jalan Tempua P9 B/7 (Jalan P9 B/7)",
        "Post_Office": "Putrajaya",
        "State": "WP Putrajaya"
    },
    {
        "Postcode": "62250",
        "Location": "Jalan Tempua P9 B/8 (Jalan P9 B/8)",
        "Post_Office": "Putrajaya",
        "State": "WP Putrajaya"
    },
    {
        "Postcode": "62250",
        "Location": "Jalan Tempua P9 B/9 (Jalan P9 B/9)",
        "Post_Office": "Putrajaya",
        "State": "WP Putrajaya"
    },
    {
        "Postcode": "62250",
        "Location": "Laluan Seri Perdana Dua",
        "Post_Office": "Putrajaya",
        "State": "WP Putrajaya"
    },
    {
        "Postcode": "62250",
        "Location": "Laluan Seri Perdana Satu",
        "Post_Office": "Putrajaya",
        "State": "WP Putrajaya"
    },
    {
        "Postcode": "62250",
        "Location": "Jalan Seluang P8E 2/5-2 (Jalan P8E 2/5-2)",
        "Post_Office": "Putrajaya",
        "State": "WP Putrajaya"
    },
    {
        "Postcode": "62250",
        "Location": "Jalan Seluang P8E 2/6 (Jalan P8E 2/6)",
        "Post_Office": "Putrajaya",
        "State": "WP Putrajaya"
    },
    {
        "Postcode": "62250",
        "Location": "Jalan Seluang P8E 2/7 (Jalan P8E 2/7)",
        "Post_Office": "Putrajaya",
        "State": "WP Putrajaya"
    },
    {
        "Postcode": "62250",
        "Location": "Jalan Seluang P8E 2/8 (Jalan P8E 2/8)",
        "Post_Office": "Putrajaya",
        "State": "WP Putrajaya"
    },
    {
        "Postcode": "62250",
        "Location": "Jalan Seluang P8E 2/9 (Jalan P8E 2/9)",
        "Post_Office": "Putrajaya",
        "State": "WP Putrajaya"
    },
    {
        "Postcode": "62250",
        "Location": "Jalan Sentral P7 (Jalan P7)",
        "Post_Office": "Putrajaya",
        "State": "WP Putrajaya"
    },
    {
        "Postcode": "62250",
        "Location": "Jalan Sentral P7D (Jalan P7D)",
        "Post_Office": "Putrajaya",
        "State": "WP Putrajaya"
    },
    {
        "Postcode": "62250",
        "Location": "Jalan Sentral P7E (Jalan P7E)",
        "Post_Office": "Putrajaya",
        "State": "WP Putrajaya"
    },
    {
        "Postcode": "62250",
        "Location": "Jalan Sentral P7F (Jalan P7F)",
        "Post_Office": "Putrajaya",
        "State": "WP Putrajaya"
    },
    {
        "Postcode": "62250",
        "Location": "Jalan Sentral P7G (Jalan P7G)",
        "Post_Office": "Putrajaya",
        "State": "WP Putrajaya"
    },
    {
        "Postcode": "62250",
        "Location": "Jalan Sentral P7G/2 (Jalan P7G/2)",
        "Post_Office": "Putrajaya",
        "State": "WP Putrajaya"
    },
    {
        "Postcode": "62250",
        "Location": "Jalan Serindit P9 E (Jalan P9 E)",
        "Post_Office": "Putrajaya",
        "State": "WP Putrajaya"
    },
    {
        "Postcode": "62250",
        "Location": "Jalan Temoleh P8/4",
        "Post_Office": "Putrajaya",
        "State": "WP Putrajaya"
    },
    {
        "Postcode": "62250",
        "Location": "Jalan Temoleh P8/6",
        "Post_Office": "Putrajaya",
        "State": "WP Putrajaya"
    },
    {
        "Postcode": "62250",
        "Location": "Jalan Temoleh P8/7",
        "Post_Office": "Putrajaya",
        "State": "WP Putrajaya"
    },
    {
        "Postcode": "62250",
        "Location": "Jalan Temoleh P8/8",
        "Post_Office": "Putrajaya",
        "State": "WP Putrajaya"
    },
    {
        "Postcode": "62250",
        "Location": "Jalan Temoleh P8/9",
        "Post_Office": "Putrajaya",
        "State": "WP Putrajaya"
    },
    {
        "Postcode": "62250",
        "Location": "Jalan Temoleh P8G (Jalan P8G)",
        "Post_Office": "Putrajaya",
        "State": "WP Putrajaya"
    },
    {
        "Postcode": "62250",
        "Location": "Jalan Temoleh P8G 1 (Jalan P8G 1)",
        "Post_Office": "Putrajaya",
        "State": "WP Putrajaya"
    },
    {
        "Postcode": "62250",
        "Location": "Jalan Temoleh P8G/13 (Jalan P8G/13)",
        "Post_Office": "Putrajaya",
        "State": "WP Putrajaya"
    },
    {
        "Postcode": "62250",
        "Location": "Jalan Temoleh P8G/3 (Jalan P8G/3)",
        "Post_Office": "Putrajaya",
        "State": "WP Putrajaya"
    },
    {
        "Postcode": "62250",
        "Location": "Jalan Tenggalan P8 (Jalan P8)",
        "Post_Office": "Putrajaya",
        "State": "WP Putrajaya"
    },
    {
        "Postcode": "62250",
        "Location": "Jalan Tenggalan P8F (Jalan P8F)",
        "Post_Office": "Putrajaya",
        "State": "WP Putrajaya"
    }
]
