[
    {
        "Postcode": "62300",
        "Location": "Bahagian Kerja Tanah Jabatan Perdana Menteri",
        "Post_Office": "Putrajaya",
        "State": "WP Putrajaya"
    },
    {
        "Postcode": "62300",
        "Location": "Presint 11",
        "Post_Office": "Putrajaya",
        "State": "WP Putrajaya"
    },
    {
        "Postcode": "62300",
        "Location": "Presint 13",
        "Post_Office": "Putrajaya",
        "State": "WP Putrajaya"
    },
    {
        "Postcode": "62300",
        "Location": "Jalan Gingko P11/1 (Jalan P11/1)",
        "Post_Office": "Putrajaya",
        "State": "WP Putrajaya"
    },
    {
        "Postcode": "62300",
        "Location": "Jalan Juniper P11/2",
        "Post_Office": "Putrajaya",
        "State": "WP Putrajaya"
    },
    {
        "Postcode": "62300",
        "Location": "Jalan Juniper P11/4",
        "Post_Office": "Putrajaya",
        "State": "WP Putrajaya"
    },
    {
        "Postcode": "62300",
        "Location": "Jalan Juniper P11/5",
        "Post_Office": "Putrajaya",
        "State": "WP Putrajaya"
    },
    {
        "Postcode": "62300",
        "Location": "Jalan P11/3",
        "Post_Office": "Putrajaya",
        "State": "WP Putrajaya"
    },
    {
        "Postcode": "62300",
        "Location": "Jalan Resam P11",
        "Post_Office": "Putrajaya",
        "State": "WP Putrajaya"
    },
    {
        "Postcode": "62300",
        "Location": "Jalan Saujana Hijau P11 (Jalan P11)",
        "Post_Office": "Putrajaya",
        "State": "WP Putrajaya"
    },
    {
        "Postcode": "62300",
        "Location": "Jalan Saujana Hijau P11/2 (Jalan P11/2) ",
        "Post_Office": "Putrajaya",
        "State": "WP Putrajaya"
    },
    {
        "Postcode": "62300",
        "Location": "Jalan Saujana Hijau P11/4 (Jalan P11/4)",
        "Post_Office": "Putrajaya",
        "State": "WP Putrajaya"
    },
    {
        "Postcode": "62300",
        "Location": "Jalan Setada P11A 1 (Jalan P11A 1)",
        "Post_Office": "Putrajaya",
        "State": "WP Putrajaya"
    },
    {
        "Postcode": "62300",
        "Location": "Jalan Setada P11A 1/1 (Jalan P11A 1/1)",
        "Post_Office": "Putrajaya",
        "State": "WP Putrajaya"
    },
    {
        "Postcode": "62300",
        "Location": "Jalan Setada P11A 1/2 (Jalan P11A 1/2)",
        "Post_Office": "Putrajaya",
        "State": "WP Putrajaya"
    },
    {
        "Postcode": "62300",
        "Location": "Jalan Zamia P11A (Jalan P11A)",
        "Post_Office": "Putrajaya",
        "State": "WP Putrajaya"
    },
    {
        "Postcode": "62300",
        "Location": "Jalan Araucaria P11B 1 (Jalan P11B 1)",
        "Post_Office": "Putrajaya",
        "State": "WP Putrajaya"
    },
    {
        "Postcode": "62300",
        "Location": "Jalan Araucaria P11B 1/1 (Jalan P11B 1/1)",
        "Post_Office": "Putrajaya",
        "State": "WP Putrajaya"
    },
    {
        "Postcode": "62300",
        "Location": "Jalan Araucaria P11B 1/2 (Jalan P11B 1/2)",
        "Post_Office": "Putrajaya",
        "State": "WP Putrajaya"
    },
    {
        "Postcode": "62300",
        "Location": "Jalan Araucaria P11B 1/3 (Jalan P11B 1/3)",
        "Post_Office": "Putrajaya",
        "State": "WP Putrajaya"
    },
    {
        "Postcode": "62300",
        "Location": "Jalan Araucaria P11B 1/4 (Jalan P11B 1/4)",
        "Post_Office": "Putrajaya",
        "State": "WP Putrajaya"
    },
    {
        "Postcode": "62300",
        "Location": "Jalan Araucaria P11B 1/5 (Jalan P11B 1/5)",
        "Post_Office": "Putrajaya",
        "State": "WP Putrajaya"
    },
    {
        "Postcode": "62300",
        "Location": "Jalan Araucaria P11B 1/6 (Jalan P11B 1/6)",
        "Post_Office": "Putrajaya",
        "State": "WP Putrajaya"
    },
    {
        "Postcode": "62300",
        "Location": "Jalan Bucida P11A 6 (Jalan P11A 6)",
        "Post_Office": "Putrajaya",
        "State": "WP Putrajaya"
    },
    {
        "Postcode": "62300",
        "Location": "Jalan Bucida P11A 6/1 (Jalan P11A 6/1)",
        "Post_Office": "Putrajaya",
        "State": "WP Putrajaya"
    },
    {
        "Postcode": "62300",
        "Location": "Jalan Bucida P11A 6/2 (Jalan P11A 6/2)",
        "Post_Office": "Putrajaya",
        "State": "WP Putrajaya"
    },
    {
        "Postcode": "62300",
        "Location": "Jalan Bucida P11A 6/3 (Jalan P11A 6/3)",
        "Post_Office": "Putrajaya",
        "State": "WP Putrajaya"
    },
    {
        "Postcode": "62300",
        "Location": "Jalan Bucida P11A 6/4 (Jalan P11A 6/4)",
        "Post_Office": "Putrajaya",
        "State": "WP Putrajaya"
    },
    {
        "Postcode": "62300",
        "Location": "Jalan Bucida P11A 6/5 (Jalan P11A 6/5)",
        "Post_Office": "Putrajaya",
        "State": "WP Putrajaya"
    },
    {
        "Postcode": "62300",
        "Location": "Jalan Bucida P11A 6/6 (Jalan P11A 6/6)",
        "Post_Office": "Putrajaya",
        "State": "WP Putrajaya"
    },
    {
        "Postcode": "62300",
        "Location": "Jalan Bucida P11A 6/7 (Jalan P11A 6/7) ",
        "Post_Office": "Putrajaya",
        "State": "WP Putrajaya"
    },
    {
        "Postcode": "62300",
        "Location": "Jalan Cemara P11C (Jalan P11C)",
        "Post_Office": "Putrajaya",
        "State": "WP Putrajaya"
    },
    {
        "Postcode": "62300",
        "Location": "Jalan Cemara P11C/1 (Jalan P11C/1)",
        "Post_Office": "Putrajaya",
        "State": "WP Putrajaya"
    },
    {
        "Postcode": "62300",
        "Location": "Jalan Cemara P11C/10 (Jalan P11C/10)",
        "Post_Office": "Putrajaya",
        "State": "WP Putrajaya"
    },
    {
        "Postcode": "62300",
        "Location": "Jalan Cemara P11C/11 (Jalan P11C/11)",
        "Post_Office": "Putrajaya",
        "State": "WP Putrajaya"
    },
    {
        "Postcode": "62300",
        "Location": "Jalan Cemara P11C/12 (Jalan P11C/12)",
        "Post_Office": "Putrajaya",
        "State": "WP Putrajaya"
    },
    {
        "Postcode": "62300",
        "Location": "Jalan Cemara P11C/13 (Jalan P11C/13)",
        "Post_Office": "Putrajaya",
        "State": "WP Putrajaya"
    },
    {
        "Postcode": "62300",
        "Location": "Jalan Cemara P11C/14 (Jalan P11C/14)",
        "Post_Office": "Putrajaya",
        "State": "WP Putrajaya"
    },
    {
        "Postcode": "62300",
        "Location": "Jalan Cemara P11C/15 (Jalan P11C/15)",
        "Post_Office": "Putrajaya",
        "State": "WP Putrajaya"
    },
    {
        "Postcode": "62300",
        "Location": "Jalan Cemara P11C/16 (Jalan P11C/16)",
        "Post_Office": "Putrajaya",
        "State": "WP Putrajaya"
    },
    {
        "Postcode": "62300",
        "Location": "Jalan Cemara P11C/17 (Jalan P11C/17)",
        "Post_Office": "Putrajaya",
        "State": "WP Putrajaya"
    },
    {
        "Postcode": "62300",
        "Location": "Jalan Cemara P11C/2 (Jalan P11C/2)",
        "Post_Office": "Putrajaya",
        "State": "WP Putrajaya"
    },
    {
        "Postcode": "62300",
        "Location": "Jalan Cemara P11C/3 (Jalan P11C/3)",
        "Post_Office": "Putrajaya",
        "State": "WP Putrajaya"
    },
    {
        "Postcode": "62300",
        "Location": "Jalan Cemara P11C/4 (Jalan P11C/4)",
        "Post_Office": "Putrajaya",
        "State": "WP Putrajaya"
    },
    {
        "Postcode": "62300",
        "Location": "Jalan Cemara P11C/6 (Jalan P11C/6)",
        "Post_Office": "Putrajaya",
        "State": "WP Putrajaya"
    },
    {
        "Postcode": "62300",
        "Location": "Jalan Cemara P11C/7 (Jalan P11C/7)",
        "Post_Office": "Putrajaya",
        "State": "WP Putrajaya"
    },
    {
        "Postcode": "62300",
        "Location": "Jalan Cemara P11C/8 (Jalan P11C/8)",
        "Post_Office": "Putrajaya",
        "State": "WP Putrajaya"
    },
    {
        "Postcode": "62300",
        "Location": "Jalan Cemara P11C/9 (Jalan P11C/9)",
        "Post_Office": "Putrajaya",
        "State": "WP Putrajaya"
    },
    {
        "Postcode": "62300",
        "Location": "Jalan Damar P11J",
        "Post_Office": "Putrajaya",
        "State": "WP Putrajaya"
    },
    {
        "Postcode": "62300",
        "Location": "Jalan Damar P11J 1",
        "Post_Office": "Putrajaya",
        "State": "WP Putrajaya"
    },
    {
        "Postcode": "62300",
        "Location": "Jalan Jati Bukit P11/1 (Jalan P11F)",
        "Post_Office": "Putrajaya",
        "State": "WP Putrajaya"
    },
    {
        "Postcode": "62300",
        "Location": "Jalan Jati Bukit P11/10 (Jalan P11F/9)",
        "Post_Office": "Putrajaya",
        "State": "WP Putrajaya"
    },
    {
        "Postcode": "62300",
        "Location": "Jalan Jati Bukit P11/11 (Jalan P11F/10)",
        "Post_Office": "Putrajaya",
        "State": "WP Putrajaya"
    },
    {
        "Postcode": "62300",
        "Location": "Jalan Jati Bukit P11/2 (Jalan P11F/1)",
        "Post_Office": "Putrajaya",
        "State": "WP Putrajaya"
    },
    {
        "Postcode": "62300",
        "Location": "Jalan Jati Bukit P11/25",
        "Post_Office": "Putrajaya",
        "State": "WP Putrajaya"
    },
    {
        "Postcode": "62300",
        "Location": "Jalan Jati Bukit P11/3 (Jalan P11F/2)",
        "Post_Office": "Putrajaya",
        "State": "WP Putrajaya"
    },
    {
        "Postcode": "62300",
        "Location": "Jalan Jati Bukit P11/4 (Jalan P11F/3)",
        "Post_Office": "Putrajaya",
        "State": "WP Putrajaya"
    },
    {
        "Postcode": "62300",
        "Location": "Jalan Jati Bukit P11/5 (Jalan P11F/4)",
        "Post_Office": "Putrajaya",
        "State": "WP Putrajaya"
    },
    {
        "Postcode": "62300",
        "Location": "Jalan Jati Bukit P11/6 (Jalan P11F/5)",
        "Post_Office": "Putrajaya",
        "State": "WP Putrajaya"
    },
    {
        "Postcode": "62300",
        "Location": "Jalan Jati Bukit P11/7 (Jalan P11F/6)",
        "Post_Office": "Putrajaya",
        "State": "WP Putrajaya"
    },
    {
        "Postcode": "62300",
        "Location": "Jalan Jati Bukit P11/8 (Jalan P11F/7)",
        "Post_Office": "Putrajaya",
        "State": "WP Putrajaya"
    },
    {
        "Postcode": "62300",
        "Location": "Jalan Jati Bukit P11/9 (Jalan P11F/8)",
        "Post_Office": "Putrajaya",
        "State": "WP Putrajaya"
    },
    {
        "Postcode": "62300",
        "Location": "Jalan Jati Laut P11F/11 (Jalan P11F/11)",
        "Post_Office": "Putrajaya",
        "State": "WP Putrajaya"
    },
    {
        "Postcode": "62300",
        "Location": "Jalan Jati Laut P11F/12 (Jalan P11F/12)",
        "Post_Office": "Putrajaya",
        "State": "WP Putrajaya"
    },
    {
        "Postcode": "62300",
        "Location": "Jalan Jati Laut P11F/13 (Jalan P11F/13)",
        "Post_Office": "Putrajaya",
        "State": "WP Putrajaya"
    },
    {
        "Postcode": "62300",
        "Location": "Jalan Jati Laut P11F/14 (Jalan P11F/14)",
        "Post_Office": "Putrajaya",
        "State": "WP Putrajaya"
    },
    {
        "Postcode": "62300",
        "Location": "Jalan Jati Laut P11F/15 (Jalan P11F/15)",
        "Post_Office": "Putrajaya",
        "State": "WP Putrajaya"
    },
    {
        "Postcode": "62300",
        "Location": "Jalan Jati Laut P11F/16 (Jalan P11F/16)",
        "Post_Office": "Putrajaya",
        "State": "WP Putrajaya"
    },
    {
        "Postcode": "62300",
        "Location": "Jalan Jati Laut P11F/17 (Jalan P11F/17)",
        "Post_Office": "Putrajaya",
        "State": "WP Putrajaya"
    },
    {
        "Postcode": "62300",
        "Location": "Jalan Jati Laut P11F/18 (Jalan P11F/18)",
        "Post_Office": "Putrajaya",
        "State": "WP Putrajaya"
    },
    {
        "Postcode": "62300",
        "Location": "Jalan Jati Laut P11F/19 (Jalan P11F/19)",
        "Post_Office": "Putrajaya",
        "State": "WP Putrajaya"
    },
    {
        "Postcode": "62300",
        "Location": "Jalan Jati Laut P11F/20 (Jalan P11F/20)",
        "Post_Office": "Putrajaya",
        "State": "WP Putrajaya"
    },
    {
        "Postcode": "62300",
        "Location": "Jalan Jati Laut P11F/21 (Jalan P11F/21)",
        "Post_Office": "Putrajaya",
        "State": "WP Putrajaya"
    },
    {
        "Postcode": "62300",
        "Location": "Jalan Jati Laut P11F/22 (Jalan P11F/22)",
        "Post_Office": "Putrajaya",
        "State": "WP Putrajaya"
    },
    {
        "Postcode": "62300",
        "Location": "Jalan Jati Laut P11F/3 (Jalan P11F/3)",
        "Post_Office": "Putrajaya",
        "State": "WP Putrajaya"
    },
    {
        "Postcode": "62300",
        "Location": "Jalan Konifer P11H (Jalan P11H)",
        "Post_Office": "Putrajaya",
        "State": "WP Putrajaya"
    },
    {
        "Postcode": "62300",
        "Location": "Jalan Konifer P11H/1 (Jalan P11H/1)",
        "Post_Office": "Putrajaya",
        "State": "WP Putrajaya"
    },
    {
        "Postcode": "62300",
        "Location": "Jalan Konifer P11H/2 (Jalan P11H/2)",
        "Post_Office": "Putrajaya",
        "State": "WP Putrajaya"
    },
    {
        "Postcode": "62300",
        "Location": "Jalan Konifer P11H/3 (Jalan P11H/3)",
        "Post_Office": "Putrajaya",
        "State": "WP Putrajaya"
    },
    {
        "Postcode": "62300",
        "Location": "Jalan Konifer P11H/4 (Jalan P11H/4)",
        "Post_Office": "Putrajaya",
        "State": "WP Putrajaya"
    },
    {
        "Postcode": "62300",
        "Location": "Jalan Konifer P11H/5 (Jalan P11H/5)",
        "Post_Office": "Putrajaya",
        "State": "WP Putrajaya"
    },
    {
        "Postcode": "62300",
        "Location": "Jalan Konifer P11H/6 (Jalan P11H/6)",
        "Post_Office": "Putrajaya",
        "State": "WP Putrajaya"
    },
    {
        "Postcode": "62300",
        "Location": "Jalan Konifer P11H/7 (Jalan P11H/7)",
        "Post_Office": "Putrajaya",
        "State": "WP Putrajaya"
    },
    {
        "Postcode": "62300",
        "Location": "Jalan Konifer P11H/8 (Jalan P11H/8)",
        "Post_Office": "Putrajaya",
        "State": "WP Putrajaya"
    },
    {
        "Postcode": "62300",
        "Location": "Jalan Melinjau P11E (Jalan P11E)",
        "Post_Office": "Putrajaya",
        "State": "WP Putrajaya"
    },
    {
        "Postcode": "62300",
        "Location": "Jalan Melinjau P11E/1 (Jalan P11E/1)",
        "Post_Office": "Putrajaya",
        "State": "WP Putrajaya"
    },
    {
        "Postcode": "62300",
        "Location": "Jalan Melinjau P11E/2 (Jalan P11E/2)",
        "Post_Office": "Putrajaya",
        "State": "WP Putrajaya"
    },
    {
        "Postcode": "62300",
        "Location": "Jalan Melinjau P11E/3 (Jalan P11E/3)",
        "Post_Office": "Putrajaya",
        "State": "WP Putrajaya"
    },
    {
        "Postcode": "62300",
        "Location": "Jalan Melinjau P11E/4 (Jalan P11E/4)",
        "Post_Office": "Putrajaya",
        "State": "WP Putrajaya"
    },
    {
        "Postcode": "62300",
        "Location": "Jalan Melinjau P11E/5 (Jalan P11E/5)",
        "Post_Office": "Putrajaya",
        "State": "WP Putrajaya"
    },
    {
        "Postcode": "62300",
        "Location": "Jalan Paku Gajah P11K (Jalan P11K)",
        "Post_Office": "Putrajaya",
        "State": "WP Putrajaya"
    },
    {
        "Postcode": "62300",
        "Location": "Jalan Paku Gajah P11K/1 (Jalan P11K/1)",
        "Post_Office": "Putrajaya",
        "State": "WP Putrajaya"
    },
    {
        "Postcode": "62300",
        "Location": "Jalan Paku Gajah P11K/10 (Jalan P11K/10)",
        "Post_Office": "Putrajaya",
        "State": "WP Putrajaya"
    },
    {
        "Postcode": "62300",
        "Location": "Jalan Paku Gajah P11K/11 (Jalan P11K/11)",
        "Post_Office": "Putrajaya",
        "State": "WP Putrajaya"
    },
    {
        "Postcode": "62300",
        "Location": "Jalan Paku Gajah P11K/12 (Jalan P11K/12)",
        "Post_Office": "Putrajaya",
        "State": "WP Putrajaya"
    },
    {
        "Postcode": "62300",
        "Location": "Jalan Paku Gajah P11K/13 (Jalan P11K/13)",
        "Post_Office": "Putrajaya",
        "State": "WP Putrajaya"
    },
    {
        "Postcode": "62300",
        "Location": "Jalan Paku Gajah P11K/2 (Jalan P11K/2)",
        "Post_Office": "Putrajaya",
        "State": "WP Putrajaya"
    },
    {
        "Postcode": "62300",
        "Location": "Jalan Paku Gajah P11K/3 (Jalan P11K/3)",
        "Post_Office": "Putrajaya",
        "State": "WP Putrajaya"
    },
    {
        "Postcode": "62300",
        "Location": "Jalan Paku Gajah P11K/4 (Jalan P11K/4)",
        "Post_Office": "Putrajaya",
        "State": "WP Putrajaya"
    },
    {
        "Postcode": "62300",
        "Location": "Jalan Paku Gajah P11K/5 (Jalan P11K/5)",
        "Post_Office": "Putrajaya",
        "State": "WP Putrajaya"
    },
    {
        "Postcode": "62300",
        "Location": "Jalan Paku Gajah P11K/6 (Jalan P11K/6)",
        "Post_Office": "Putrajaya",
        "State": "WP Putrajaya"
    },
    {
        "Postcode": "62300",
        "Location": "Jalan Paku Gajah P11K/7 (Jalan P11K/7)",
        "Post_Office": "Putrajaya",
        "State": "WP Putrajaya"
    },
    {
        "Postcode": "62300",
        "Location": "Jalan Paku Gajah P11K/8 (Jalan P11K/8)",
        "Post_Office": "Putrajaya",
        "State": "WP Putrajaya"
    },
    {
        "Postcode": "62300",
        "Location": "Jalan Paku Gajah P11K/9 (Jalan P11K/9)",
        "Post_Office": "Putrajaya",
        "State": "WP Putrajaya"
    },
    {
        "Postcode": "62300",
        "Location": "Jalan Rhu P11/1 (Jalan P11G/1)",
        "Post_Office": "Putrajaya",
        "State": "WP Putrajaya"
    },
    {
        "Postcode": "62300",
        "Location": "Jalan Rhu P11/2 (Jalan P11G/2)",
        "Post_Office": "Putrajaya",
        "State": "WP Putrajaya"
    },
    {
        "Postcode": "62300",
        "Location": "Jalan Rhu P11/3 (Jalan P11G/3)",
        "Post_Office": "Putrajaya",
        "State": "WP Putrajaya"
    },
    {
        "Postcode": "62300",
        "Location": "Jalan Rhu P11/4 (Jalan P11G/4)",
        "Post_Office": "Putrajaya",
        "State": "WP Putrajaya"
    },
    {
        "Postcode": "62300",
        "Location": "Jalan Rhu P11/5 (Jalan P11G/5)",
        "Post_Office": "Putrajaya",
        "State": "WP Putrajaya"
    },
    {
        "Postcode": "62300",
        "Location": "Jalan Rhu P11G (Jalan P11G)",
        "Post_Office": "Putrajaya",
        "State": "WP Putrajaya"
    },
    {
        "Postcode": "62300",
        "Location": "Jalan Setada P11A 1/10 (Jalan P11A 1/10)",
        "Post_Office": "Putrajaya",
        "State": "WP Putrajaya"
    },
    {
        "Postcode": "62300",
        "Location": "Jalan Setada P11A 1/11 (Jalan P11A 1/11)",
        "Post_Office": "Putrajaya",
        "State": "WP Putrajaya"
    },
    {
        "Postcode": "62300",
        "Location": "Jalan Setada P11A 1/12 (Jalan P11A 1/12)",
        "Post_Office": "Putrajaya",
        "State": "WP Putrajaya"
    },
    {
        "Postcode": "62300",
        "Location": "Jalan Setada P11A 1/13 (Jalan P11A 1/13)",
        "Post_Office": "Putrajaya",
        "State": "WP Putrajaya"
    },
    {
        "Postcode": "62300",
        "Location": "Jalan Setada P11A 1/14 (Jalan P11A 1/14)",
        "Post_Office": "Putrajaya",
        "State": "WP Putrajaya"
    },
    {
        "Postcode": "62300",
        "Location": "Jalan Setada P11A 1/15 (Jalan P11A 1/15)",
        "Post_Office": "Putrajaya",
        "State": "WP Putrajaya"
    },
    {
        "Postcode": "62300",
        "Location": "Jalan Setada P11A 1/3 (Jalan P11A 1/3)",
        "Post_Office": "Putrajaya",
        "State": "WP Putrajaya"
    },
    {
        "Postcode": "62300",
        "Location": "Jalan Setada P11A 1/4 (Jalan P11A 1/4)",
        "Post_Office": "Putrajaya",
        "State": "WP Putrajaya"
    },
    {
        "Postcode": "62300",
        "Location": "Jalan Setada P11A 1/5 (Jalan P11A 1/5)",
        "Post_Office": "Putrajaya",
        "State": "WP Putrajaya"
    },
    {
        "Postcode": "62300",
        "Location": "Jalan Setada P11A 1/6 (Jalan P11A 1/6)",
        "Post_Office": "Putrajaya",
        "State": "WP Putrajaya"
    },
    {
        "Postcode": "62300",
        "Location": "Jalan Setada P11A 1/7 (Jalan P11A 1/7)",
        "Post_Office": "Putrajaya",
        "State": "WP Putrajaya"
    },
    {
        "Postcode": "62300",
        "Location": "Jalan Setada P11A 1/8 (Jalan P11A 1/8)",
        "Post_Office": "Putrajaya",
        "State": "WP Putrajaya"
    },
    {
        "Postcode": "62300",
        "Location": "Jalan Setada P11A 1/9 (Jalan P11A 1/9)",
        "Post_Office": "Putrajaya",
        "State": "WP Putrajaya"
    },
    {
        "Postcode": "62300",
        "Location": "Jalan Setada P11A 4 (Jalan P11A 4)",
        "Post_Office": "Putrajaya",
        "State": "WP Putrajaya"
    },
    {
        "Postcode": "62300",
        "Location": "Jalan Sikas P11A 2 (Jalan P11A 2)",
        "Post_Office": "Putrajaya",
        "State": "WP Putrajaya"
    },
    {
        "Postcode": "62300",
        "Location": "Jalan Sikas P11A 2/1 (Jalan P11A 2/1)",
        "Post_Office": "Putrajaya",
        "State": "WP Putrajaya"
    },
    {
        "Postcode": "62300",
        "Location": "Jalan Sikas P11A 2/2 (Jalan P11A 2/2)",
        "Post_Office": "Putrajaya",
        "State": "WP Putrajaya"
    },
    {
        "Postcode": "62300",
        "Location": "Jalan Sikas P11A 2/3 (Jalan P11A 2/3)",
        "Post_Office": "Putrajaya",
        "State": "WP Putrajaya"
    },
    {
        "Postcode": "62300",
        "Location": "Jalan Sikas P11A 2/4 (Jalan P11A 2/4)",
        "Post_Office": "Putrajaya",
        "State": "WP Putrajaya"
    },
    {
        "Postcode": "62300",
        "Location": "Jalan Sikas P11A 2/5 (Jalan P11A 2/5)",
        "Post_Office": "Putrajaya",
        "State": "WP Putrajaya"
    },
    {
        "Postcode": "62300",
        "Location": "Jalan Sikas P11A 2/6 (Jalan P11A 2/6)",
        "Post_Office": "Putrajaya",
        "State": "WP Putrajaya"
    },
    {
        "Postcode": "62300",
        "Location": "Jalan Sikas P11A 3 (Jalan P11A 3)",
        "Post_Office": "Putrajaya",
        "State": "WP Putrajaya"
    },
    {
        "Postcode": "62300",
        "Location": "Jalan Sikas P11A 5 (Jalan P11A 5)",
        "Post_Office": "Putrajaya",
        "State": "WP Putrajaya"
    },
    {
        "Postcode": "62300",
        "Location": "Jalan Sikas P11A 5/1 (Jalan P11A 5/1)",
        "Post_Office": "Putrajaya",
        "State": "WP Putrajaya"
    },
    {
        "Postcode": "62300",
        "Location": "Jalan Sikas P11A 5/2 (Jalan P11A 5/2)",
        "Post_Office": "Putrajaya",
        "State": "WP Putrajaya"
    },
    {
        "Postcode": "62300",
        "Location": "Jalan Sikas P11A 5/3 (Jalan P11A 5/3)",
        "Post_Office": "Putrajaya",
        "State": "WP Putrajaya"
    },
    {
        "Postcode": "62300",
        "Location": "Jalan Sikas P11A 5/4 (Jalan P11A 5/4)",
        "Post_Office": "Putrajaya",
        "State": "WP Putrajaya"
    },
    {
        "Postcode": "62300",
        "Location": "Jalan Sikas P11A 5/5 (Jalan P11A 5/5)",
        "Post_Office": "Putrajaya",
        "State": "WP Putrajaya"
    },
    {
        "Postcode": "62300",
        "Location": "Jalan Sikas P11A 5/6 (Jalan P11A 5/6)",
        "Post_Office": "Putrajaya",
        "State": "WP Putrajaya"
    },
    {
        "Postcode": "62300",
        "Location": "Jalan Sikas P11A 5/7 (Jalan P11A 5/7)",
        "Post_Office": "Putrajaya",
        "State": "WP Putrajaya"
    },
    {
        "Postcode": "62300",
        "Location": "Jalan Sikas P11A 5/8 (Jalan P11A 5/8)",
        "Post_Office": "Putrajaya",
        "State": "WP Putrajaya"
    },
    {
        "Postcode": "62300",
        "Location": "Jalan Tanggilan P11D (Jalan P11D)",
        "Post_Office": "Putrajaya",
        "State": "WP Putrajaya"
    },
    {
        "Postcode": "62300",
        "Location": "Jalan Tanggilan P11D/1 (Jalan P11D/1)",
        "Post_Office": "Putrajaya",
        "State": "WP Putrajaya"
    },
    {
        "Postcode": "62300",
        "Location": "Jalan Tanggilan P11D/10 (Jalan P11D/10)",
        "Post_Office": "Putrajaya",
        "State": "WP Putrajaya"
    },
    {
        "Postcode": "62300",
        "Location": "Jalan Tanggilan P11D/11 (Jalan P11D/11)",
        "Post_Office": "Putrajaya",
        "State": "WP Putrajaya"
    },
    {
        "Postcode": "62300",
        "Location": "Jalan Tanggilan P11D/12 (Jalan P11D/12)",
        "Post_Office": "Putrajaya",
        "State": "WP Putrajaya"
    },
    {
        "Postcode": "62300",
        "Location": "Jalan Tanggilan P11D/13 (Jalan P11D/13)",
        "Post_Office": "Putrajaya",
        "State": "WP Putrajaya"
    },
    {
        "Postcode": "62300",
        "Location": "Jalan Tanggilan P11D/14 (Jalan P11D/14)",
        "Post_Office": "Putrajaya",
        "State": "WP Putrajaya"
    },
    {
        "Postcode": "62300",
        "Location": "Jalan Tanggilan P11D/15 (Jalan P11D/15)",
        "Post_Office": "Putrajaya",
        "State": "WP Putrajaya"
    },
    {
        "Postcode": "62300",
        "Location": "Jalan Tanggilan P11D/16 (Jalan P11D/16)",
        "Post_Office": "Putrajaya",
        "State": "WP Putrajaya"
    },
    {
        "Postcode": "62300",
        "Location": "Jalan Tanggilan P11D/17 (Jalan P11D/17)",
        "Post_Office": "Putrajaya",
        "State": "WP Putrajaya"
    },
    {
        "Postcode": "62300",
        "Location": "Jalan Tanggilan P11D/18 (Jalan P11D/18)",
        "Post_Office": "Putrajaya",
        "State": "WP Putrajaya"
    },
    {
        "Postcode": "62300",
        "Location": "Jalan Tanggilan P11D/19 (Jalan P11D/19)",
        "Post_Office": "Putrajaya",
        "State": "WP Putrajaya"
    },
    {
        "Postcode": "62300",
        "Location": "Jalan Tanggilan P11D/2 (Jalan P11D/2)",
        "Post_Office": "Putrajaya",
        "State": "WP Putrajaya"
    },
    {
        "Postcode": "62300",
        "Location": "Jalan Tanggilan P11D/20 (Jalan P11D/20)",
        "Post_Office": "Putrajaya",
        "State": "WP Putrajaya"
    },
    {
        "Postcode": "62300",
        "Location": "Jalan Tanggilan P11D/21 (Jalan P11D/21)",
        "Post_Office": "Putrajaya",
        "State": "WP Putrajaya"
    },
    {
        "Postcode": "62300",
        "Location": "Jalan Tanggilan P11D/22 (Jalan P11D/22)",
        "Post_Office": "Putrajaya",
        "State": "WP Putrajaya"
    },
    {
        "Postcode": "62300",
        "Location": "Jalan Tanggilan P11D/23 (Jalan P11D/23)",
        "Post_Office": "Putrajaya",
        "State": "WP Putrajaya"
    },
    {
        "Postcode": "62300",
        "Location": "Jalan Tanggilan P11D/24 (Jalan P11D/24)",
        "Post_Office": "Putrajaya",
        "State": "WP Putrajaya"
    },
    {
        "Postcode": "62300",
        "Location": "Jalan Tanggilan P11D/25 (Jalan P11D/25)",
        "Post_Office": "Putrajaya",
        "State": "WP Putrajaya"
    },
    {
        "Postcode": "62300",
        "Location": "Jalan Tanggilan P11D/26 (Jalan P11D/26)",
        "Post_Office": "Putrajaya",
        "State": "WP Putrajaya"
    },
    {
        "Postcode": "62300",
        "Location": "Jalan Tanggilan P11D/28",
        "Post_Office": "Putrajaya",
        "State": "WP Putrajaya"
    },
    {
        "Postcode": "62300",
        "Location": "Jalan Tanggilan P11D/3 (Jalan P11D/3)",
        "Post_Office": "Putrajaya",
        "State": "WP Putrajaya"
    },
    {
        "Postcode": "62300",
        "Location": "Jalan Tanggilan P11D/4 (Jalan P11D/4)",
        "Post_Office": "Putrajaya",
        "State": "WP Putrajaya"
    },
    {
        "Postcode": "62300",
        "Location": "Jalan Tanggilan P11D/5 (Jalan P11D/5)",
        "Post_Office": "Putrajaya",
        "State": "WP Putrajaya"
    },
    {
        "Postcode": "62300",
        "Location": "Jalan Tanggilan P11D/6 (Jalan P11D/6)",
        "Post_Office": "Putrajaya",
        "State": "WP Putrajaya"
    },
    {
        "Postcode": "62300",
        "Location": "Jalan Tanggilan P11D/7 (Jalan P11D/7)",
        "Post_Office": "Putrajaya",
        "State": "WP Putrajaya"
    },
    {
        "Postcode": "62300",
        "Location": "Jalan Tanggilan P11D/8 (Jalan P11D/8)",
        "Post_Office": "Putrajaya",
        "State": "WP Putrajaya"
    },
    {
        "Postcode": "62300",
        "Location": "Jalan Tanggilan P11D/9 (Jalan P11D/9)",
        "Post_Office": "Putrajaya",
        "State": "WP Putrajaya"
    },
    {
        "Postcode": "62300",
        "Location": "Jalan Zamia P11B (Jalan P11B)",
        "Post_Office": "Putrajaya",
        "State": "WP Putrajaya"
    },
    {
        "Postcode": "62300",
        "Location": "Laluan Belalang P13",
        "Post_Office": "Putrajaya",
        "State": "WP Putrajaya"
    },
    {
        "Postcode": "62300",
        "Location": "Laluan Cengkerik P13",
        "Post_Office": "Putrajaya",
        "State": "WP Putrajaya"
    },
    {
        "Postcode": "62300",
        "Location": "Laluan Kerengga P13",
        "Post_Office": "Putrajaya",
        "State": "WP Putrajaya"
    },
    {
        "Postcode": "62300",
        "Location": "Laluan Keridik P13",
        "Post_Office": "Putrajaya",
        "State": "WP Putrajaya"
    },
    {
        "Postcode": "62300",
        "Location": "Laluan Kumbang P13",
        "Post_Office": "Putrajaya",
        "State": "WP Putrajaya"
    },
    {
        "Postcode": "62300",
        "Location": "Laluan Kunang-Kunang P13",
        "Post_Office": "Putrajaya",
        "State": "WP Putrajaya"
    },
    {
        "Postcode": "62300",
        "Location": "Laluan Lebah P13",
        "Post_Office": "Putrajaya",
        "State": "WP Putrajaya"
    },
    {
        "Postcode": "62300",
        "Location": "Laluan Mentadak P13",
        "Post_Office": "Putrajaya",
        "State": "WP Putrajaya"
    },
    {
        "Postcode": "62300",
        "Location": "Laluan Rama-Rama P13",
        "Post_Office": "Putrajaya",
        "State": "WP Putrajaya"
    },
    {
        "Postcode": "62300",
        "Location": "Laluan Rekreasi Air P13",
        "Post_Office": "Putrajaya",
        "State": "WP Putrajaya"
    },
    {
        "Postcode": "62300",
        "Location": "Laluan Tebuan P13",
        "Post_Office": "Putrajaya",
        "State": "WP Putrajaya"
    }
]
