[
    {
        "Postcode": "62502",
        "Location": "Bahagian Keselamatan Negara Jabatan Perdana Menteri",
        "Post_Office": "Putrajaya",
        "State": "WP Putrajaya"
    },
    {
        "Postcode": "62502",
        "Location": "Bahagian Pengurusan Harta Tanah Jabatan Perdana Menteri",
        "Post_Office": "Putrajaya",
        "State": "WP Putrajaya"
    },
    {
        "Postcode": "62502",
        "Location": "Bahagian Penyelidikan Jabatan Perdana Menteri",
        "Post_Office": "Putrajaya",
        "State": "WP Putrajaya"
    },
    {
        "Postcode": "62502",
        "Location": "Biro Tatanegara",
        "Post_Office": "Putrajaya",
        "State": "WP Putrajaya"
    },
    {
        "Postcode": "62502",
        "Location": "Jabatan Perdana Menteri",
        "Post_Office": "Putrajaya",
        "State": "WP Putrajaya"
    },
    {
        "Postcode": "62502",
        "Location": "Ketua Setiausaha Negara",
        "Post_Office": "Putrajaya",
        "State": "WP Putrajaya"
    },
    {
        "Postcode": "62502",
        "Location": "Ketua Setiausaha Sulit Kanan Jabatan Perdana Menteri",
        "Post_Office": "Putrajaya",
        "State": "WP Putrajaya"
    },
    {
        "Postcode": "62502",
        "Location": "Ketua Unit Kawal Selia Felda",
        "Post_Office": "Putrajaya",
        "State": "WP Putrajaya"
    },
    {
        "Postcode": "62502",
        "Location": "Koperasi Pekerja-Pekerja Jabatan Perdana Menteri Berhad",
        "Post_Office": "Putrajaya",
        "State": "WP Putrajaya"
    },
    {
        "Postcode": "62502",
        "Location": "Lembaga Penasihat Jabatan Perdana Menteri",
        "Post_Office": "Putrajaya",
        "State": "WP Putrajaya"
    },
    {
        "Postcode": "62502",
        "Location": "Pejabat Menteri Di Jabatan Perdana Menteri",
        "Post_Office": "Putrajaya",
        "State": "WP Putrajaya"
    },
    {
        "Postcode": "62502",
        "Location": "Pejabat Perdana Menteri ",
        "Post_Office": "Putrajaya",
        "State": "WP Putrajaya"
    },
    {
        "Postcode": "62502",
        "Location": "Pejabat Timbalan Menteri Di Jabatan Perdana Menteri",
        "Post_Office": "Putrajaya",
        "State": "WP Putrajaya"
    },
    {
        "Postcode": "62502",
        "Location": "Pejabat Timbalan Perdana Menteri ",
        "Post_Office": "Putrajaya",
        "State": "WP Putrajaya"
    },
    {
        "Postcode": "62502",
        "Location": "Penasihat Agama Islam Kepada Yang Amat Berhormat Perdana Menteri ",
        "Post_Office": "Putrajaya",
        "State": "WP Putrajaya"
    },
    {
        "Postcode": "62502",
        "Location": "Seketrial Permata Jabatan Perdana Menteri",
        "Post_Office": "Putrajaya",
        "State": "WP Putrajaya"
    },
    {
        "Postcode": "62502",
        "Location": "Setiausaha Parlimen Di Jabatan Perdana Menteri",
        "Post_Office": "Putrajaya",
        "State": "WP Putrajaya"
    },
    {
        "Postcode": "62502",
        "Location": "Unit Pemodenan Tadbiran Malaysia",
        "Post_Office": "Putrajaya",
        "State": "WP Putrajaya"
    },
    {
        "Postcode": "62502",
        "Location": "Unit Penyelarasan Dan Perlaksanaan Jabatan Perdana Menteri",
        "Post_Office": "Putrajaya",
        "State": "WP Putrajaya"
    },
    {
        "Postcode": "62502",
        "Location": "Unit Perancang Ekonomi Jabatan Perdana Menteri",
        "Post_Office": "Putrajaya",
        "State": "WP Putrajaya"
    }
]
