[
    {
        "Postcode": "62604",
        "Location": "Bahagian Kewangan Kementerian Pelajaran",
        "Post_Office": "Putrajaya",
        "State": "WP Putrajaya"
    },
    {
        "Postcode": "62604",
        "Location": "Bahagian Pendidikan Guru",
        "Post_Office": "Putrajaya",
        "State": "WP Putrajaya"
    },
    {
        "Postcode": "62604",
        "Location": "Bahagian Sumber Manusia Kementerian Pelajaran",
        "Post_Office": "Putrajaya",
        "State": "WP Putrajaya"
    },
    {
        "Postcode": "62604",
        "Location": "Jabatan Pendidikan Teknikal",
        "Post_Office": "Putrajaya",
        "State": "WP Putrajaya"
    },
    {
        "Postcode": "62604",
        "Location": "Jabatan Pendidikan Tinggi",
        "Post_Office": "Putrajaya",
        "State": "WP Putrajaya"
    },
    {
        "Postcode": "62604",
        "Location": "Jabatan Politeknik Dan Kolej Komuniti",
        "Post_Office": "Putrajaya",
        "State": "WP Putrajaya"
    },
    {
        "Postcode": "62604",
        "Location": "Jemaah Nazir",
        "Post_Office": "Putrajaya",
        "State": "WP Putrajaya"
    },
    {
        "Postcode": "62604",
        "Location": "Kementerian Pelajaran",
        "Post_Office": "Putrajaya",
        "State": "WP Putrajaya"
    },
    {
        "Postcode": "62604",
        "Location": "Kementerian Pengajian Tinggi",
        "Post_Office": "Putrajaya",
        "State": "WP Putrajaya"
    },
    {
        "Postcode": "62604",
        "Location": "Lembaga Peperiksaan Malaysia",
        "Post_Office": "Putrajaya",
        "State": "WP Putrajaya"
    },
    {
        "Postcode": "62604",
        "Location": "Pusat Perkembangan Kurikulum",
        "Post_Office": "Putrajaya",
        "State": "WP Putrajaya"
    }
]
