[
    {
        "Postcode": "06000",
        "Location": "Kampung Bendang Dalam",
        "Post_Office": "Jitra",
        "State": "Kedah"
    },
    {
        "Postcode": "06000",
        "Location": "Kampung Lahar",
        "Post_Office": "Jitra",
        "State": "Kedah"
    },
    {
        "Postcode": "06000",
        "Location": "Kampung Lembah",
        "Post_Office": "Jitra",
        "State": "Kedah"
    },
    {
        "Postcode": "06000",
        "Location": "Kampung Lubok Ipoh",
        "Post_Office": "Jitra",
        "State": "Kedah"
    },
    {
        "Postcode": "06000",
        "Location": "Kampung Manggol",
        "Post_Office": "Jitra",
        "State": "Kedah"
    },
    {
        "Postcode": "06000",
        "Location": "Kampung Padang Panjang",
        "Post_Office": "Jitra",
        "State": "Kedah"
    },
    {
        "Postcode": "06000",
        "Location": "Kampung Selarong",
        "Post_Office": "Jitra",
        "State": "Kedah"
    },
    {
        "Postcode": "06000",
        "Location": "Kampung Titi Panjang",
        "Post_Office": "Jitra",
        "State": "Kedah"
    },
    {
        "Postcode": "06000",
        "Location": "Taman Bahagia",
        "Post_Office": "Jitra",
        "State": "Kedah"
    },
    {
        "Postcode": "06000",
        "Location": "Taman Darulaman",
        "Post_Office": "Jitra",
        "State": "Kedah"
    },
    {
        "Postcode": "06000",
        "Location": "Taman Desa Damai",
        "Post_Office": "Jitra",
        "State": "Kedah"
    },
    {
        "Postcode": "06000",
        "Location": "Taman Ihsan",
        "Post_Office": "Jitra",
        "State": "Kedah"
    },
    {
        "Postcode": "06000",
        "Location": "Taman Mahsuri",
        "Post_Office": "Jitra",
        "State": "Kedah"
    },
    {
        "Postcode": "06000",
        "Location": "Taman Pulasan",
        "Post_Office": "Jitra",
        "State": "Kedah"
    },
    {
        "Postcode": "06000",
        "Location": "Taman Sinaran",
        "Post_Office": "Jitra",
        "State": "Kedah"
    },
    {
        "Postcode": "06000",
        "Location": "Taman Suria",
        "Post_Office": "Jitra",
        "State": "Kedah"
    },
    {
        "Postcode": "06000",
        "Location": "Tanah Merah",
        "Post_Office": "Jitra",
        "State": "Kedah"
    },
    {
        "Postcode": "06000",
        "Location": "Bandar Baru Darulaman",
        "Post_Office": "Jitra",
        "State": "Kedah"
    },
    {
        "Postcode": "06000",
        "Location": "Cherok Ketiak",
        "Post_Office": "Jitra",
        "State": "Kedah"
    },
    {
        "Postcode": "06000",
        "Location": "Flat Kelubi",
        "Post_Office": "Jitra",
        "State": "Kedah"
    },
    {
        "Postcode": "06000",
        "Location": "Guar Napai",
        "Post_Office": "Jitra",
        "State": "Kedah"
    },
    {
        "Postcode": "06000",
        "Location": "Jitra",
        "Post_Office": "Jitra",
        "State": "Kedah"
    },
    {
        "Postcode": "06000",
        "Location": "Jitra Jaya",
        "Post_Office": "Jitra",
        "State": "Kedah"
    },
    {
        "Postcode": "06000",
        "Location": "Kampung Alor Batu",
        "Post_Office": "Jitra",
        "State": "Kedah"
    },
    {
        "Postcode": "06000",
        "Location": "Kampung Alor Janggus",
        "Post_Office": "Jitra",
        "State": "Kedah"
    },
    {
        "Postcode": "06000",
        "Location": "Kampung Alor Rambai",
        "Post_Office": "Jitra",
        "State": "Kedah"
    },
    {
        "Postcode": "06000",
        "Location": "Kampung Alor Tok Chik",
        "Post_Office": "Jitra",
        "State": "Kedah"
    },
    {
        "Postcode": "06000",
        "Location": "Kampung Aman",
        "Post_Office": "Jitra",
        "State": "Kedah"
    },
    {
        "Postcode": "06000",
        "Location": "Kampung Bagan",
        "Post_Office": "Jitra",
        "State": "Kedah"
    },
    {
        "Postcode": "06000",
        "Location": "Kampung Bagan Jeram",
        "Post_Office": "Jitra",
        "State": "Kedah"
    },
    {
        "Postcode": "06000",
        "Location": "Kampung Banai",
        "Post_Office": "Jitra",
        "State": "Kedah"
    },
    {
        "Postcode": "06000",
        "Location": "Kampung Baru Jeram",
        "Post_Office": "Jitra",
        "State": "Kedah"
    },
    {
        "Postcode": "06000",
        "Location": "Kampung Bata",
        "Post_Office": "Jitra",
        "State": "Kedah"
    },
    {
        "Postcode": "06000",
        "Location": "Kampung Batu 17 (Jalan Kodiang)",
        "Post_Office": "Jitra",
        "State": "Kedah"
    },
    {
        "Postcode": "06000",
        "Location": "Kampung Bemban",
        "Post_Office": "Jitra",
        "State": "Kedah"
    },
    {
        "Postcode": "06000",
        "Location": "Kampung Biak",
        "Post_Office": "Jitra",
        "State": "Kedah"
    },
    {
        "Postcode": "06000",
        "Location": "Kampung Budi",
        "Post_Office": "Jitra",
        "State": "Kedah"
    },
    {
        "Postcode": "06000",
        "Location": "Kampung Bukit Berangan",
        "Post_Office": "Jitra",
        "State": "Kedah"
    },
    {
        "Postcode": "06000",
        "Location": "Kampung Bukit Beruas",
        "Post_Office": "Jitra",
        "State": "Kedah"
    },
    {
        "Postcode": "06000",
        "Location": "Kampung Buluh Nipis",
        "Post_Office": "Jitra",
        "State": "Kedah"
    },
    {
        "Postcode": "06000",
        "Location": "Kampung Celam",
        "Post_Office": "Jitra",
        "State": "Kedah"
    },
    {
        "Postcode": "06000",
        "Location": "Kampung Changkat",
        "Post_Office": "Jitra",
        "State": "Kedah"
    },
    {
        "Postcode": "06000",
        "Location": "Kampung Chegar Jeram",
        "Post_Office": "Jitra",
        "State": "Kedah"
    },
    {
        "Postcode": "06000",
        "Location": "Kampung Cherok Latah",
        "Post_Office": "Jitra",
        "State": "Kedah"
    },
    {
        "Postcode": "06000",
        "Location": "Kampung Darat",
        "Post_Office": "Jitra",
        "State": "Kedah"
    },
    {
        "Postcode": "06000",
        "Location": "Kampung Gelong Rambai",
        "Post_Office": "Jitra",
        "State": "Kedah"
    },
    {
        "Postcode": "06000",
        "Location": "Kampung Guar Jeram",
        "Post_Office": "Jitra",
        "State": "Kedah"
    },
    {
        "Postcode": "06000",
        "Location": "Kampung Guar Tanah Rancangan",
        "Post_Office": "Jitra",
        "State": "Kedah"
    },
    {
        "Postcode": "06000",
        "Location": "Kampung Hosba",
        "Post_Office": "Jitra",
        "State": "Kedah"
    },
    {
        "Postcode": "06000",
        "Location": "Kampung Hutan Getah",
        "Post_Office": "Jitra",
        "State": "Kedah"
    },
    {
        "Postcode": "06000",
        "Location": "Kampung Hutan Setali",
        "Post_Office": "Jitra",
        "State": "Kedah"
    },
    {
        "Postcode": "06000",
        "Location": "Kampung Hutan Terabak",
        "Post_Office": "Jitra",
        "State": "Kedah"
    },
    {
        "Postcode": "06000",
        "Location": "Kampung Iman",
        "Post_Office": "Jitra",
        "State": "Kedah"
    },
    {
        "Postcode": "06000",
        "Location": "Kampung Kepala Batu",
        "Post_Office": "Jitra",
        "State": "Kedah"
    },
    {
        "Postcode": "06000",
        "Location": "Kampung Ketul",
        "Post_Office": "Jitra",
        "State": "Kedah"
    },
    {
        "Postcode": "06000",
        "Location": "Kampung Kota Mengkuang",
        "Post_Office": "Jitra",
        "State": "Kedah"
    },
    {
        "Postcode": "06000",
        "Location": "Kampung Kota Rentang",
        "Post_Office": "Jitra",
        "State": "Kedah"
    },
    {
        "Postcode": "06000",
        "Location": "Kampung Kubang Betong",
        "Post_Office": "Jitra",
        "State": "Kedah"
    },
    {
        "Postcode": "06000",
        "Location": "Kampung Kubang Lembu",
        "Post_Office": "Jitra",
        "State": "Kedah"
    },
    {
        "Postcode": "06000",
        "Location": "Kampung Kubu",
        "Post_Office": "Jitra",
        "State": "Kedah"
    },
    {
        "Postcode": "06000",
        "Location": "Kampung Kun Luang",
        "Post_Office": "Jitra",
        "State": "Kedah"
    },
    {
        "Postcode": "06000",
        "Location": "Kampung Lama",
        "Post_Office": "Jitra",
        "State": "Kedah"
    },
    {
        "Postcode": "06000",
        "Location": "Kampung Lembah Abu",
        "Post_Office": "Jitra",
        "State": "Kedah"
    },
    {
        "Postcode": "06000",
        "Location": "Kampung Lembah Arang",
        "Post_Office": "Jitra",
        "State": "Kedah"
    },
    {
        "Postcode": "06000",
        "Location": "Kampung Lembah Bata",
        "Post_Office": "Jitra",
        "State": "Kedah"
    },
    {
        "Postcode": "06000",
        "Location": "Kampung Makpap",
        "Post_Office": "Jitra",
        "State": "Kedah"
    },
    {
        "Postcode": "06000",
        "Location": "Kampung Matang Keriang",
        "Post_Office": "Jitra",
        "State": "Kedah"
    },
    {
        "Postcode": "06000",
        "Location": "Kampung Matang Nibong",
        "Post_Office": "Jitra",
        "State": "Kedah"
    },
    {
        "Postcode": "06000",
        "Location": "Kampung Matang Pinang",
        "Post_Office": "Jitra",
        "State": "Kedah"
    },
    {
        "Postcode": "06000",
        "Location": "Kampung Muhibah",
        "Post_Office": "Jitra",
        "State": "Kedah"
    },
    {
        "Postcode": "06000",
        "Location": "Kampung Natoi",
        "Post_Office": "Jitra",
        "State": "Kedah"
    },
    {
        "Postcode": "06000",
        "Location": "Kampung Nongka",
        "Post_Office": "Jitra",
        "State": "Kedah"
    },
    {
        "Postcode": "06000",
        "Location": "Kampung Padang Asam",
        "Post_Office": "Jitra",
        "State": "Kedah"
    },
    {
        "Postcode": "06000",
        "Location": "Kampung Padang Asun",
        "Post_Office": "Jitra",
        "State": "Kedah"
    },
    {
        "Postcode": "06000",
        "Location": "Kampung Padang Belanga",
        "Post_Office": "Jitra",
        "State": "Kedah"
    },
    {
        "Postcode": "06000",
        "Location": "Kampung Teluk Malek",
        "Post_Office": "Jitra",
        "State": "Kedah"
    },
    {
        "Postcode": "06000",
        "Location": "Kampung Teluk Tenggiri",
        "Post_Office": "Jitra",
        "State": "Kedah"
    },
    {
        "Postcode": "06000",
        "Location": "Kampung Telok Bilik",
        "Post_Office": "Jitra",
        "State": "Kedah"
    },
    {
        "Postcode": "06000",
        "Location": "Asun",
        "Post_Office": "Jitra",
        "State": "Kedah"
    },
    {
        "Postcode": "06000",
        "Location": "Kampung Alor Kelubi",
        "Post_Office": "Jitra",
        "State": "Kedah"
    },
    {
        "Postcode": "06000",
        "Location": "Kampung Asun",
        "Post_Office": "Jitra",
        "State": "Kedah"
    },
    {
        "Postcode": "06000",
        "Location": "Kampung Changkat Tok Rahman",
        "Post_Office": "Jitra",
        "State": "Kedah"
    },
    {
        "Postcode": "06000",
        "Location": "Kampung Cherok Mokkan",
        "Post_Office": "Jitra",
        "State": "Kedah"
    },
    {
        "Postcode": "06000",
        "Location": "Kampung Jalil",
        "Post_Office": "Jitra",
        "State": "Kedah"
    },
    {
        "Postcode": "06000",
        "Location": "Kampung Lubuk Batu",
        "Post_Office": "Jitra",
        "State": "Kedah"
    },
    {
        "Postcode": "06000",
        "Location": "Kampung Lubuk Kawah",
        "Post_Office": "Jitra",
        "State": "Kedah"
    },
    {
        "Postcode": "06000",
        "Location": "Kampung Napoh",
        "Post_Office": "Jitra",
        "State": "Kedah"
    },
    {
        "Postcode": "06000",
        "Location": "Kampung Paya Kercut",
        "Post_Office": "Jitra",
        "State": "Kedah"
    },
    {
        "Postcode": "06000",
        "Location": "Kampung Paya Tok Teh",
        "Post_Office": "Jitra",
        "State": "Kedah"
    },
    {
        "Postcode": "06000",
        "Location": "Kampung Tanjung Putus",
        "Post_Office": "Jitra",
        "State": "Kedah"
    },
    {
        "Postcode": "06000",
        "Location": "Kampung Teluk Ara",
        "Post_Office": "Jitra",
        "State": "Kedah"
    },
    {
        "Postcode": "06000",
        "Location": "Kampung Teluk Gelam",
        "Post_Office": "Jitra",
        "State": "Kedah"
    },
    {
        "Postcode": "06000",
        "Location": "Taman Cermai",
        "Post_Office": "Jitra",
        "State": "Kedah"
    },
    {
        "Postcode": "06000",
        "Location": "Kampung Tanah Rang",
        "Post_Office": "Jitra",
        "State": "Kedah"
    },
    {
        "Postcode": "06000",
        "Location": "Kampung Belukar",
        "Post_Office": "Jitra",
        "State": "Kedah"
    },
    {
        "Postcode": "06000",
        "Location": "Kampung Binjal",
        "Post_Office": "Jitra",
        "State": "Kedah"
    },
    {
        "Postcode": "06000",
        "Location": "Kampung Bukit",
        "Post_Office": "Jitra",
        "State": "Kedah"
    },
    {
        "Postcode": "06000",
        "Location": "Kampung Chegar",
        "Post_Office": "Jitra",
        "State": "Kedah"
    },
    {
        "Postcode": "06000",
        "Location": "Kampung Huma",
        "Post_Office": "Jitra",
        "State": "Kedah"
    },
    {
        "Postcode": "06000",
        "Location": "Kampung Jerangan",
        "Post_Office": "Jitra",
        "State": "Kedah"
    },
    {
        "Postcode": "06000",
        "Location": "Kampung Kandis",
        "Post_Office": "Jitra",
        "State": "Kedah"
    },
    {
        "Postcode": "06000",
        "Location": "Kampung Kemunting",
        "Post_Office": "Jitra",
        "State": "Kedah"
    },
    {
        "Postcode": "06000",
        "Location": "Kampung Kepala Bukit",
        "Post_Office": "Jitra",
        "State": "Kedah"
    },
    {
        "Postcode": "06000",
        "Location": "Kampung Kubang Lintah",
        "Post_Office": "Jitra",
        "State": "Kedah"
    },
    {
        "Postcode": "06000",
        "Location": "Kampung Macang",
        "Post_Office": "Jitra",
        "State": "Kedah"
    },
    {
        "Postcode": "06000",
        "Location": "Kampung Malau",
        "Post_Office": "Jitra",
        "State": "Kedah"
    },
    {
        "Postcode": "06000",
        "Location": "Kampung Padang Lalang",
        "Post_Office": "Jitra",
        "State": "Kedah"
    },
    {
        "Postcode": "06000",
        "Location": "Kampung Padang Pekan",
        "Post_Office": "Jitra",
        "State": "Kedah"
    },
    {
        "Postcode": "06000",
        "Location": "Kampung Paya",
        "Post_Office": "Jitra",
        "State": "Kedah"
    },
    {
        "Postcode": "06000",
        "Location": "Kampung Perupuk",
        "Post_Office": "Jitra",
        "State": "Kedah"
    },
    {
        "Postcode": "06000",
        "Location": "Kampung Seberang Alor",
        "Post_Office": "Jitra",
        "State": "Kedah"
    },
    {
        "Postcode": "06000",
        "Location": "Kampung Tanjong",
        "Post_Office": "Jitra",
        "State": "Kedah"
    },
    {
        "Postcode": "06000",
        "Location": "Kampung Telok",
        "Post_Office": "Jitra",
        "State": "Kedah"
    },
    {
        "Postcode": "06000",
        "Location": "Taman Bersatu",
        "Post_Office": "Jitra",
        "State": "Kedah"
    },
    {
        "Postcode": "06000",
        "Location": "Taman Cahaya",
        "Post_Office": "Jitra",
        "State": "Kedah"
    },
    {
        "Postcode": "06000",
        "Location": "Taman Delima",
        "Post_Office": "Jitra",
        "State": "Kedah"
    },
    {
        "Postcode": "06000",
        "Location": "Taman Gemilang",
        "Post_Office": "Jitra",
        "State": "Kedah"
    },
    {
        "Postcode": "06000",
        "Location": "Taman Jalai Jaya",
        "Post_Office": "Jitra",
        "State": "Kedah"
    },
    {
        "Postcode": "06000",
        "Location": "Taman Mahkota",
        "Post_Office": "Jitra",
        "State": "Kedah"
    },
    {
        "Postcode": "06000",
        "Location": "Taman Makmur",
        "Post_Office": "Jitra",
        "State": "Kedah"
    },
    {
        "Postcode": "06000",
        "Location": "Taman Melor",
        "Post_Office": "Jitra",
        "State": "Kedah"
    },
    {
        "Postcode": "06000",
        "Location": "Taman Muhibbah",
        "Post_Office": "Jitra",
        "State": "Kedah"
    },
    {
        "Postcode": "06000",
        "Location": "Taman Permata",
        "Post_Office": "Jitra",
        "State": "Kedah"
    },
    {
        "Postcode": "06000",
        "Location": "Taman Rasa Sayang",
        "Post_Office": "Jitra",
        "State": "Kedah"
    },
    {
        "Postcode": "06000",
        "Location": "Taman Seri Pelangi",
        "Post_Office": "Jitra",
        "State": "Kedah"
    },
    {
        "Postcode": "06000",
        "Location": "Taman Setia Jaya",
        "Post_Office": "Jitra",
        "State": "Kedah"
    },
    {
        "Postcode": "06000",
        "Location": "Taman Darulaman Jaya 1",
        "Post_Office": "Jitra",
        "State": "Kedah"
    },
    {
        "Postcode": "06000",
        "Location": "Taman Darulaman Jaya 2",
        "Post_Office": "Jitra",
        "State": "Kedah"
    },
    {
        "Postcode": "06000",
        "Location": "Taman Seri Kemuning 1",
        "Post_Office": "Jitra",
        "State": "Kedah"
    },
    {
        "Postcode": "06000",
        "Location": "Taman Seri Kemuning 2",
        "Post_Office": "Jitra",
        "State": "Kedah"
    },
    {
        "Postcode": "06000",
        "Location": "Taman Suria 1",
        "Post_Office": "Jitra",
        "State": "Kedah"
    },
    {
        "Postcode": "06000",
        "Location": "Taman Suria 2",
        "Post_Office": "Jitra",
        "State": "Kedah"
    },
    {
        "Postcode": "06000",
        "Location": "Taman Suria 3",
        "Post_Office": "Jitra",
        "State": "Kedah"
    },
    {
        "Postcode": "06000",
        "Location": "Taman Suria 5",
        "Post_Office": "Jitra",
        "State": "Kedah"
    },
    {
        "Postcode": "06000",
        "Location": "Kampung Padang Curah",
        "Post_Office": "Jitra",
        "State": "Kedah"
    },
    {
        "Postcode": "06000",
        "Location": "Kampung Padang Luar",
        "Post_Office": "Jitra",
        "State": "Kedah"
    },
    {
        "Postcode": "06000",
        "Location": "Kampung Padang Ludap",
        "Post_Office": "Jitra",
        "State": "Kedah"
    },
    {
        "Postcode": "06000",
        "Location": "Kampung Padang Perahu",
        "Post_Office": "Jitra",
        "State": "Kedah"
    },
    {
        "Postcode": "06000",
        "Location": "Kampung Pahana",
        "Post_Office": "Jitra",
        "State": "Kedah"
    },
    {
        "Postcode": "06000",
        "Location": "Kampung Panchor",
        "Post_Office": "Jitra",
        "State": "Kedah"
    },
    {
        "Postcode": "06000",
        "Location": "Kampung Pantai Halban",
        "Post_Office": "Jitra",
        "State": "Kedah"
    },
    {
        "Postcode": "06000",
        "Location": "Kampung Parit Tok Lam",
        "Post_Office": "Jitra",
        "State": "Kedah"
    },
    {
        "Postcode": "06000",
        "Location": "Kampung Pasir Tambun",
        "Post_Office": "Jitra",
        "State": "Kedah"
    },
    {
        "Postcode": "06000",
        "Location": "Kampung Paya Keriang",
        "Post_Office": "Jitra",
        "State": "Kedah"
    },
    {
        "Postcode": "06000",
        "Location": "Kampung Paya Pulau Dudur",
        "Post_Office": "Jitra",
        "State": "Kedah"
    },
    {
        "Postcode": "06000",
        "Location": "Kampung Pedang Pekan",
        "Post_Office": "Jitra",
        "State": "Kedah"
    },
    {
        "Postcode": "06000",
        "Location": "Kampung Pelubang",
        "Post_Office": "Jitra",
        "State": "Kedah"
    },
    {
        "Postcode": "06000",
        "Location": "Kampung Penia",
        "Post_Office": "Jitra",
        "State": "Kedah"
    },
    {
        "Postcode": "06000",
        "Location": "Kampung Pochong",
        "Post_Office": "Jitra",
        "State": "Kedah"
    },
    {
        "Postcode": "06000",
        "Location": "Kampung Pulau Capa",
        "Post_Office": "Jitra",
        "State": "Kedah"
    },
    {
        "Postcode": "06000",
        "Location": "Kampung Pulau Kain",
        "Post_Office": "Jitra",
        "State": "Kedah"
    },
    {
        "Postcode": "06000",
        "Location": "Kampung Pulau Kecil",
        "Post_Office": "Jitra",
        "State": "Kedah"
    },
    {
        "Postcode": "06000",
        "Location": "Kampung Pulau Ketam",
        "Post_Office": "Jitra",
        "State": "Kedah"
    },
    {
        "Postcode": "06000",
        "Location": "Kampung Pulau Maharaja",
        "Post_Office": "Jitra",
        "State": "Kedah"
    },
    {
        "Postcode": "06000",
        "Location": "Kampung Pulau Nyior",
        "Post_Office": "Jitra",
        "State": "Kedah"
    },
    {
        "Postcode": "06000",
        "Location": "Kampung Pulau Pak Ubin",
        "Post_Office": "Jitra",
        "State": "Kedah"
    },
    {
        "Postcode": "06000",
        "Location": "Kampung Pulau Pisang",
        "Post_Office": "Jitra",
        "State": "Kedah"
    },
    {
        "Postcode": "06000",
        "Location": "Kampung Pulau Timbul",
        "Post_Office": "Jitra",
        "State": "Kedah"
    },
    {
        "Postcode": "06000",
        "Location": "Kampung Putat",
        "Post_Office": "Jitra",
        "State": "Kedah"
    },
    {
        "Postcode": "06000",
        "Location": "Kampung Raja",
        "Post_Office": "Jitra",
        "State": "Kedah"
    },
    {
        "Postcode": "06000",
        "Location": "Kampung Salib",
        "Post_Office": "Jitra",
        "State": "Kedah"
    },
    {
        "Postcode": "06000",
        "Location": "Kampung Sungai Baru",
        "Post_Office": "Jitra",
        "State": "Kedah"
    },
    {
        "Postcode": "06000",
        "Location": "Kampung Tandop",
        "Post_Office": "Jitra",
        "State": "Kedah"
    },
    {
        "Postcode": "06000",
        "Location": "Kampung Tandop Baru Matang Kena",
        "Post_Office": "Jitra",
        "State": "Kedah"
    },
    {
        "Postcode": "06000",
        "Location": "Kampung Tanjong Kapor",
        "Post_Office": "Jitra",
        "State": "Kedah"
    },
    {
        "Postcode": "06000",
        "Location": "Kampung Tebing",
        "Post_Office": "Jitra",
        "State": "Kedah"
    },
    {
        "Postcode": "06000",
        "Location": "Kampung Telok Berangan",
        "Post_Office": "Jitra",
        "State": "Kedah"
    },
    {
        "Postcode": "06000",
        "Location": "Kampung Telok Keluang",
        "Post_Office": "Jitra",
        "State": "Kedah"
    },
    {
        "Postcode": "06000",
        "Location": "Kampung Telok Nibong",
        "Post_Office": "Jitra",
        "State": "Kedah"
    },
    {
        "Postcode": "06000",
        "Location": "Kampung Temalang",
        "Post_Office": "Jitra",
        "State": "Kedah"
    },
    {
        "Postcode": "06000",
        "Location": "Kampung Tengah",
        "Post_Office": "Jitra",
        "State": "Kedah"
    },
    {
        "Postcode": "06000",
        "Location": "Kampung Tok Jalai",
        "Post_Office": "Jitra",
        "State": "Kedah"
    },
    {
        "Postcode": "06000",
        "Location": "Kampung Tok Kesop",
        "Post_Office": "Jitra",
        "State": "Kedah"
    },
    {
        "Postcode": "06000",
        "Location": "Kampung Tok Tambak",
        "Post_Office": "Jitra",
        "State": "Kedah"
    },
    {
        "Postcode": "06000",
        "Location": "Kampung Tok Ya",
        "Post_Office": "Jitra",
        "State": "Kedah"
    },
    {
        "Postcode": "06000",
        "Location": "Kampung Tualang",
        "Post_Office": "Jitra",
        "State": "Kedah"
    },
    {
        "Postcode": "06000",
        "Location": "Kampung Wan Perah",
        "Post_Office": "Jitra",
        "State": "Kedah"
    },
    {
        "Postcode": "06000",
        "Location": "Kampung Wang Tepus",
        "Post_Office": "Jitra",
        "State": "Kedah"
    },
    {
        "Postcode": "06000",
        "Location": "Kolej Darulaman Height",
        "Post_Office": "Jitra",
        "State": "Kedah"
    },
    {
        "Postcode": "06000",
        "Location": "Kota Mengkuang",
        "Post_Office": "Jitra",
        "State": "Kedah"
    },
    {
        "Postcode": "06000",
        "Location": "Kota Siam",
        "Post_Office": "Jitra",
        "State": "Kedah"
    },
    {
        "Postcode": "06000",
        "Location": "Lembah Arang",
        "Post_Office": "Jitra",
        "State": "Kedah"
    },
    {
        "Postcode": "06000",
        "Location": "Pelubang",
        "Post_Office": "Jitra",
        "State": "Kedah"
    },
    {
        "Postcode": "06000",
        "Location": "Pida 3 Batu 17",
        "Post_Office": "Jitra",
        "State": "Kedah"
    },
    {
        "Postcode": "06000",
        "Location": "Taman Bahagia 2",
        "Post_Office": "Jitra",
        "State": "Kedah"
    },
    {
        "Postcode": "06000",
        "Location": "Taman Bersatu 2",
        "Post_Office": "Jitra",
        "State": "Kedah"
    },
    {
        "Postcode": "06000",
        "Location": "Taman Bunga Raya",
        "Post_Office": "Jitra",
        "State": "Kedah"
    },
    {
        "Postcode": "06000",
        "Location": "Taman Cempaka",
        "Post_Office": "Jitra",
        "State": "Kedah"
    },
    {
        "Postcode": "06000",
        "Location": "Taman Damai Jaya",
        "Post_Office": "Jitra",
        "State": "Kedah"
    },
    {
        "Postcode": "06000",
        "Location": "Taman Desa Darulaman",
        "Post_Office": "Jitra",
        "State": "Kedah"
    },
    {
        "Postcode": "06000",
        "Location": "Taman Desa Halban",
        "Post_Office": "Jitra",
        "State": "Kedah"
    },
    {
        "Postcode": "06000",
        "Location": "Taman Desa Murni",
        "Post_Office": "Jitra",
        "State": "Kedah"
    },
    {
        "Postcode": "06000",
        "Location": "Taman Desa Perdana",
        "Post_Office": "Jitra",
        "State": "Kedah"
    },
    {
        "Postcode": "06000",
        "Location": "Taman Desa Tanjung",
        "Post_Office": "Jitra",
        "State": "Kedah"
    },
    {
        "Postcode": "06000",
        "Location": "Taman Hosba",
        "Post_Office": "Jitra",
        "State": "Kedah"
    },
    {
        "Postcode": "06000",
        "Location": "Taman Indera",
        "Post_Office": "Jitra",
        "State": "Kedah"
    },
    {
        "Postcode": "06000",
        "Location": "Taman Jitra 1",
        "Post_Office": "Jitra",
        "State": "Kedah"
    },
    {
        "Postcode": "06000",
        "Location": "Taman Jitra 2",
        "Post_Office": "Jitra",
        "State": "Kedah"
    },
    {
        "Postcode": "06000",
        "Location": "Taman Jitra Indah",
        "Post_Office": "Jitra",
        "State": "Kedah"
    },
    {
        "Postcode": "06000",
        "Location": "Taman Kantan",
        "Post_Office": "Jitra",
        "State": "Kedah"
    },
    {
        "Postcode": "06000",
        "Location": "Taman Keda Binjal",
        "Post_Office": "Jitra",
        "State": "Kedah"
    },
    {
        "Postcode": "06000",
        "Location": "Taman Kelisa",
        "Post_Office": "Jitra",
        "State": "Kedah"
    },
    {
        "Postcode": "06000",
        "Location": "Taman Kenanga",
        "Post_Office": "Jitra",
        "State": "Kedah"
    },
    {
        "Postcode": "06000",
        "Location": "Taman Kenanga 2",
        "Post_Office": "Jitra",
        "State": "Kedah"
    },
    {
        "Postcode": "06000",
        "Location": "Taman Kubang Pasu",
        "Post_Office": "Jitra",
        "State": "Kedah"
    },
    {
        "Postcode": "06000",
        "Location": "Taman Kubang Pasu 2",
        "Post_Office": "Jitra",
        "State": "Kedah"
    },
    {
        "Postcode": "06000",
        "Location": "Taman Malinja",
        "Post_Office": "Jitra",
        "State": "Kedah"
    },
    {
        "Postcode": "06000",
        "Location": "Taman Maluri",
        "Post_Office": "Jitra",
        "State": "Kedah"
    },
    {
        "Postcode": "06000",
        "Location": "Taman Mawar",
        "Post_Office": "Jitra",
        "State": "Kedah"
    },
    {
        "Postcode": "06000",
        "Location": "Taman Melati Tunjang",
        "Post_Office": "Jitra",
        "State": "Kedah"
    },
    {
        "Postcode": "06000",
        "Location": "Taman Mutiara",
        "Post_Office": "Jitra",
        "State": "Kedah"
    },
    {
        "Postcode": "06000",
        "Location": "Taman Mutiara Naga",
        "Post_Office": "Jitra",
        "State": "Kedah"
    },
    {
        "Postcode": "06000",
        "Location": "Taman Pasu",
        "Post_Office": "Jitra",
        "State": "Kedah"
    },
    {
        "Postcode": "06000",
        "Location": "Taman Perdana",
        "Post_Office": "Jitra",
        "State": "Kedah"
    },
    {
        "Postcode": "06000",
        "Location": "Taman Perumahan Awam Tanah Merah",
        "Post_Office": "Jitra",
        "State": "Kedah"
    },
    {
        "Postcode": "06000",
        "Location": "Taman Rahmat",
        "Post_Office": "Jitra",
        "State": "Kedah"
    },
    {
        "Postcode": "06000",
        "Location": "Taman Rhu",
        "Post_Office": "Jitra",
        "State": "Kedah"
    },
    {
        "Postcode": "06000",
        "Location": "Taman Ria",
        "Post_Office": "Jitra",
        "State": "Kedah"
    },
    {
        "Postcode": "06000",
        "Location": "Taman Sepadu",
        "Post_Office": "Jitra",
        "State": "Kedah"
    },
    {
        "Postcode": "06000",
        "Location": "Taman Seri Damai",
        "Post_Office": "Jitra",
        "State": "Kedah"
    },
    {
        "Postcode": "06000",
        "Location": "Taman Seri Jitra",
        "Post_Office": "Jitra",
        "State": "Kedah"
    },
    {
        "Postcode": "06000",
        "Location": "Taman Seri Makmur",
        "Post_Office": "Jitra",
        "State": "Kedah"
    },
    {
        "Postcode": "06000",
        "Location": "Taman Seri Nyior",
        "Post_Office": "Jitra",
        "State": "Kedah"
    },
    {
        "Postcode": "06000",
        "Location": "Taman Seri Utama",
        "Post_Office": "Jitra",
        "State": "Kedah"
    },
    {
        "Postcode": "06000",
        "Location": "Taman Setiaja",
        "Post_Office": "Jitra",
        "State": "Kedah"
    },
    {
        "Postcode": "06000",
        "Location": "Taman Sireh",
        "Post_Office": "Jitra",
        "State": "Kedah"
    },
    {
        "Postcode": "06000",
        "Location": "Taman Sri Cempaka",
        "Post_Office": "Jitra",
        "State": "Kedah"
    },
    {
        "Postcode": "06000",
        "Location": "Taman Sri Halban",
        "Post_Office": "Jitra",
        "State": "Kedah"
    },
    {
        "Postcode": "06000",
        "Location": "Taman Sri Murni",
        "Post_Office": "Jitra",
        "State": "Kedah"
    },
    {
        "Postcode": "06000",
        "Location": "Taman Sri Nyiur 2",
        "Post_Office": "Jitra",
        "State": "Kedah"
    },
    {
        "Postcode": "06000",
        "Location": "Taman Sri Utama",
        "Post_Office": "Jitra",
        "State": "Kedah"
    },
    {
        "Postcode": "06000",
        "Location": "Taman Suasana Damai",
        "Post_Office": "Jitra",
        "State": "Kedah"
    },
    {
        "Postcode": "06000",
        "Location": "Taman Suasana Indah",
        "Post_Office": "Jitra",
        "State": "Kedah"
    },
    {
        "Postcode": "06000",
        "Location": "Taman Tanjung",
        "Post_Office": "Jitra",
        "State": "Kedah"
    },
    {
        "Postcode": "06000",
        "Location": "Taman Tengku Anum",
        "Post_Office": "Jitra",
        "State": "Kedah"
    },
    {
        "Postcode": "06000",
        "Location": "Taman Tengku Maheran",
        "Post_Office": "Jitra",
        "State": "Kedah"
    },
    {
        "Postcode": "06000",
        "Location": "Taman Tengku Sarina",
        "Post_Office": "Jitra",
        "State": "Kedah"
    },
    {
        "Postcode": "06000",
        "Location": "Taman Wira Mas",
        "Post_Office": "Jitra",
        "State": "Kedah"
    },
    {
        "Postcode": "06000",
        "Location": "Tanjung Pauh",
        "Post_Office": "Jitra",
        "State": "Kedah"
    },
    {
        "Postcode": "06000",
        "Location": "Tunjang",
        "Post_Office": "Jitra",
        "State": "Kedah"
    }
]
