[
    {
        "Postcode": "06010",
        "Location": "Taman Sayang",
        "Post_Office": "Changloon",
        "State": "Kedah"
    },
    {
        "Postcode": "06010",
        "Location": "Kampung Changkat Setol",
        "Post_Office": "Changloon",
        "State": "Kedah"
    },
    {
        "Postcode": "06010",
        "Location": "Kampung Jenalik",
        "Post_Office": "Changloon",
        "State": "Kedah"
    },
    {
        "Postcode": "06010",
        "Location": "Kampung Kangar",
        "Post_Office": "Changloon",
        "State": "Kedah"
    },
    {
        "Postcode": "06010",
        "Location": "Kampung Kepala Kerbau",
        "Post_Office": "Changloon",
        "State": "Kedah"
    },
    {
        "Postcode": "06010",
        "Location": "Kampung Lanterom",
        "Post_Office": "Changloon",
        "State": "Kedah"
    },
    {
        "Postcode": "06010",
        "Location": "Kampung Lubok",
        "Post_Office": "Changloon",
        "State": "Kedah"
    },
    {
        "Postcode": "06010",
        "Location": "Kampung Padang Halban",
        "Post_Office": "Changloon",
        "State": "Kedah"
    },
    {
        "Postcode": "06010",
        "Location": "Kampung Paya Nongmi",
        "Post_Office": "Changloon",
        "State": "Kedah"
    },
    {
        "Postcode": "06010",
        "Location": "Kampung Sungai Kelian",
        "Post_Office": "Changloon",
        "State": "Kedah"
    },
    {
        "Postcode": "06010",
        "Location": "Kampung Sungai Petani",
        "Post_Office": "Changloon",
        "State": "Kedah"
    },
    {
        "Postcode": "06010",
        "Location": "Kampung Kubang Pasu",
        "Post_Office": "Changloon",
        "State": "Kedah"
    },
    {
        "Postcode": "06010",
        "Location": "Kampung Lembah Palas",
        "Post_Office": "Changloon",
        "State": "Kedah"
    },
    {
        "Postcode": "06010",
        "Location": "Kampung Tok Kassim",
        "Post_Office": "Changloon",
        "State": "Kedah"
    },
    {
        "Postcode": "06010",
        "Location": "Kampung Tok Paroh",
        "Post_Office": "Changloon",
        "State": "Kedah"
    },
    {
        "Postcode": "06010",
        "Location": "Taman Cengal",
        "Post_Office": "Changloon",
        "State": "Kedah"
    },
    {
        "Postcode": "06010",
        "Location": "Changloon",
        "Post_Office": "Changloon",
        "State": "Kedah"
    },
    {
        "Postcode": "06010",
        "Location": "Kampung Teradisi Lembah Arang ",
        "Post_Office": "Changloon",
        "State": "Kedah"
    },
    {
        "Postcode": "06010",
        "Location": "Taman Sri Menanti",
        "Post_Office": "Changloon",
        "State": "Kedah"
    },
    {
        "Postcode": "06010",
        "Location": "Taman Teja",
        "Post_Office": "Changloon",
        "State": "Kedah"
    },
    {
        "Postcode": "06010",
        "Location": "Universiti Utara Malaysia",
        "Post_Office": "Changloon",
        "State": "Kedah"
    }
]
