[
    {
        "Postcode": "06050",
        "Location": "Bukit Kayu Hitam",
        "Post_Office": "Bukit Kayu Hitam",
        "State": "Kedah"
    },
    {
        "Postcode": "06050",
        "Location": "Felda Batu 8",
        "Post_Office": "Bukit Kayu Hitam",
        "State": "Kedah"
    },
    {
        "Postcode": "06050",
        "Location": "Felda Bukit Tangga",
        "Post_Office": "Bukit Kayu Hitam",
        "State": "Kedah"
    },
    {
        "Postcode": "06050",
        "Location": "Kampung Batas",
        "Post_Office": "Bukit Kayu Hitam",
        "State": "Kedah"
    },
    {
        "Postcode": "06050",
        "Location": "Kampung Bendang Cherok",
        "Post_Office": "Bukit Kayu Hitam",
        "State": "Kedah"
    },
    {
        "Postcode": "06050",
        "Location": "Kampung Bendang Nerang",
        "Post_Office": "Bukit Kayu Hitam",
        "State": "Kedah"
    },
    {
        "Postcode": "06050",
        "Location": "Kampung Bendang Tok Leh",
        "Post_Office": "Bukit Kayu Hitam",
        "State": "Kedah"
    },
    {
        "Postcode": "06050",
        "Location": "Kampung Changkat Selat",
        "Post_Office": "Bukit Kayu Hitam",
        "State": "Kedah"
    },
    {
        "Postcode": "06050",
        "Location": "Kampung Guar Jenalik",
        "Post_Office": "Bukit Kayu Hitam",
        "State": "Kedah"
    },
    {
        "Postcode": "06050",
        "Location": "Kampung Kubang Nerang",
        "Post_Office": "Bukit Kayu Hitam",
        "State": "Kedah"
    },
    {
        "Postcode": "06050",
        "Location": "Kampung Padang Pasir",
        "Post_Office": "Bukit Kayu Hitam",
        "State": "Kedah"
    },
    {
        "Postcode": "06050",
        "Location": "Kampung Paya Lantan",
        "Post_Office": "Bukit Kayu Hitam",
        "State": "Kedah"
    },
    {
        "Postcode": "06050",
        "Location": "Kampung Tanjong Ganting",
        "Post_Office": "Bukit Kayu Hitam",
        "State": "Kedah"
    },
    {
        "Postcode": "06050",
        "Location": "Kampung Titi Kerbau",
        "Post_Office": "Bukit Kayu Hitam",
        "State": "Kedah"
    },
    {
        "Postcode": "06050",
        "Location": "Ladang Kiap Loong",
        "Post_Office": "Bukit Kayu Hitam",
        "State": "Kedah"
    },
    {
        "Postcode": "06050",
        "Location": "Ladang Rakyat",
        "Post_Office": "Bukit Kayu Hitam",
        "State": "Kedah"
    }
]
