[
    {
        "Postcode": "06100",
        "Location": "Kampung Seberang",
        "Post_Office": "Kodiang",
        "State": "Kedah"
    },
    {
        "Postcode": "06100",
        "Location": "Kampung Kodiang Lama Dalam",
        "Post_Office": "Kodiang",
        "State": "Kedah"
    },
    {
        "Postcode": "06100",
        "Location": "Kampung Kodiang Lama Luar",
        "Post_Office": "Kodiang",
        "State": "Kedah"
    },
    {
        "Postcode": "06100",
        "Location": "Kampung Belukar",
        "Post_Office": "Kodiang",
        "State": "Kedah"
    },
    {
        "Postcode": "06100",
        "Location": "Kampung Bukit Hantu",
        "Post_Office": "Kodiang",
        "State": "Kedah"
    },
    {
        "Postcode": "06100",
        "Location": "Kampung Kandis",
        "Post_Office": "Kodiang",
        "State": "Kedah"
    },
    {
        "Postcode": "06100",
        "Location": "Kampung Paya",
        "Post_Office": "Kodiang",
        "State": "Kedah"
    },
    {
        "Postcode": "06100",
        "Location": "Kampung Tengah",
        "Post_Office": "Kodiang",
        "State": "Kedah"
    },
    {
        "Postcode": "06100",
        "Location": "Jalan Kodiang (Batu 20 - 22)",
        "Post_Office": "Kodiang",
        "State": "Kedah"
    },
    {
        "Postcode": "06100",
        "Location": "Jalan Kodiang (Km 37)",
        "Post_Office": "Kodiang",
        "State": "Kedah"
    },
    {
        "Postcode": "06100",
        "Location": "Kampung Alor",
        "Post_Office": "Kodiang",
        "State": "Kedah"
    },
    {
        "Postcode": "06100",
        "Location": "Kampung Baru",
        "Post_Office": "Kodiang",
        "State": "Kedah"
    },
    {
        "Postcode": "06100",
        "Location": "Kampung Batu 1 Sanglang",
        "Post_Office": "Kodiang",
        "State": "Kedah"
    },
    {
        "Postcode": "06100",
        "Location": "Kampung Batu 4 (Jalan Sanglang)",
        "Post_Office": "Kodiang",
        "State": "Kedah"
    },
    {
        "Postcode": "06100",
        "Location": "Kampung Batu 5",
        "Post_Office": "Kodiang",
        "State": "Kedah"
    },
    {
        "Postcode": "06100",
        "Location": "Kampung Bendahara",
        "Post_Office": "Kodiang",
        "State": "Kedah"
    },
    {
        "Postcode": "06100",
        "Location": "Kampung Changkat Bulang",
        "Post_Office": "Kodiang",
        "State": "Kedah"
    },
    {
        "Postcode": "06100",
        "Location": "Kampung Changkat Logan",
        "Post_Office": "Kodiang",
        "State": "Kedah"
    },
    {
        "Postcode": "06100",
        "Location": "Kampung Damai",
        "Post_Office": "Kodiang",
        "State": "Kedah"
    },
    {
        "Postcode": "06100",
        "Location": "Kampung Gajah Puteh",
        "Post_Office": "Kodiang",
        "State": "Kedah"
    },
    {
        "Postcode": "06100",
        "Location": "Kampung Guar (Jalan Changloon)",
        "Post_Office": "Kodiang",
        "State": "Kedah"
    },
    {
        "Postcode": "06100",
        "Location": "Kampung Guar Batu Hitam",
        "Post_Office": "Kodiang",
        "State": "Kedah"
    },
    {
        "Postcode": "06100",
        "Location": "Kampung Hutan Palas",
        "Post_Office": "Kodiang",
        "State": "Kedah"
    },
    {
        "Postcode": "06100",
        "Location": "Kampung Kolam",
        "Post_Office": "Kodiang",
        "State": "Kedah"
    },
    {
        "Postcode": "06100",
        "Location": "Kampung Kota",
        "Post_Office": "Kodiang",
        "State": "Kedah"
    },
    {
        "Postcode": "06100",
        "Location": "Kampung Kubang Beruang",
        "Post_Office": "Kodiang",
        "State": "Kedah"
    },
    {
        "Postcode": "06100",
        "Location": "Kampung Kubang Chenok",
        "Post_Office": "Kodiang",
        "State": "Kedah"
    },
    {
        "Postcode": "06100",
        "Location": "Kampung Kubang Menerong",
        "Post_Office": "Kodiang",
        "State": "Kedah"
    },
    {
        "Postcode": "06100",
        "Location": "Kampung Kubang Menerong Dalam",
        "Post_Office": "Kodiang",
        "State": "Kedah"
    },
    {
        "Postcode": "06100",
        "Location": "Kampung Lubok Remia",
        "Post_Office": "Kodiang",
        "State": "Kedah"
    },
    {
        "Postcode": "06100",
        "Location": "Kampung Melele",
        "Post_Office": "Kodiang",
        "State": "Kedah"
    },
    {
        "Postcode": "06100",
        "Location": "Kampung Meribut",
        "Post_Office": "Kodiang",
        "State": "Kedah"
    },
    {
        "Postcode": "06100",
        "Location": "Kampung Pak Chik",
        "Post_Office": "Kodiang",
        "State": "Kedah"
    },
    {
        "Postcode": "06100",
        "Location": "Kampung Periang",
        "Post_Office": "Kodiang",
        "State": "Kedah"
    },
    {
        "Postcode": "06100",
        "Location": "Kampung Pering",
        "Post_Office": "Kodiang",
        "State": "Kedah"
    },
    {
        "Postcode": "06100",
        "Location": "Kampung Pulau Kabu",
        "Post_Office": "Kodiang",
        "State": "Kedah"
    },
    {
        "Postcode": "06100",
        "Location": "Kampung Pulau Siputeh",
        "Post_Office": "Kodiang",
        "State": "Kedah"
    },
    {
        "Postcode": "06100",
        "Location": "Kampung Raja",
        "Post_Office": "Kodiang",
        "State": "Kedah"
    },
    {
        "Postcode": "06100",
        "Location": "Kampung Sc",
        "Post_Office": "Kodiang",
        "State": "Kedah"
    },
    {
        "Postcode": "06100",
        "Location": "Kampung Siputeh",
        "Post_Office": "Kodiang",
        "State": "Kedah"
    },
    {
        "Postcode": "06100",
        "Location": "Kampung Tok Arang",
        "Post_Office": "Kodiang",
        "State": "Kedah"
    },
    {
        "Postcode": "06100",
        "Location": "Kampung Tok Kepak",
        "Post_Office": "Kodiang",
        "State": "Kedah"
    },
    {
        "Postcode": "06100",
        "Location": "Kampung Wang",
        "Post_Office": "Kodiang",
        "State": "Kedah"
    },
    {
        "Postcode": "06100",
        "Location": "Kodiang",
        "Post_Office": "Kodiang",
        "State": "Kedah"
    },
    {
        "Postcode": "06100",
        "Location": "Megat Dewa",
        "Post_Office": "Kodiang",
        "State": "Kedah"
    },
    {
        "Postcode": "06100",
        "Location": "Padang Sera",
        "Post_Office": "Kodiang",
        "State": "Kedah"
    },
    {
        "Postcode": "06100",
        "Location": "Pekan Stesyen Kodiang",
        "Post_Office": "Kodiang",
        "State": "Kedah"
    },
    {
        "Postcode": "06100",
        "Location": "Pida 1 - 12",
        "Post_Office": "Kodiang",
        "State": "Kedah"
    },
    {
        "Postcode": "06100",
        "Location": "Pida 1 - 2 (Mukim Ah)",
        "Post_Office": "Kodiang",
        "State": "Kedah"
    },
    {
        "Postcode": "06100",
        "Location": "Pida 1 - 5 (Mukim Putat)",
        "Post_Office": "Kodiang",
        "State": "Kedah"
    },
    {
        "Postcode": "06100",
        "Location": "Pida 10 (Mukim Ah)",
        "Post_Office": "Kodiang",
        "State": "Kedah"
    },
    {
        "Postcode": "06100",
        "Location": "Sintok",
        "Post_Office": "Kodiang",
        "State": "Kedah"
    }
]
