[
    {
        "Postcode": "06150",
        "Location": "Kampung Batu 7",
        "Post_Office": "Ayer Hitam",
        "State": "Kedah"
    },
    {
        "Postcode": "06150",
        "Location": "Kampung Padang Gelanggang",
        "Post_Office": "Ayer Hitam",
        "State": "Kedah"
    },
    {
        "Postcode": "06150",
        "Location": "Kampung Sungai Baru ",
        "Post_Office": "Ayer Hitam",
        "State": "Kedah"
    },
    {
        "Postcode": "06150",
        "Location": "Kampung Golok Puting",
        "Post_Office": "Ayer Hitam",
        "State": "Kedah"
    },
    {
        "Postcode": "06150",
        "Location": "Kampung Lubuk Ayer",
        "Post_Office": "Ayer Hitam",
        "State": "Kedah"
    },
    {
        "Postcode": "06150",
        "Location": "Kampung Lubuk Pinang",
        "Post_Office": "Ayer Hitam",
        "State": "Kedah"
    },
    {
        "Postcode": "06150",
        "Location": "Kampung Teluk Tui",
        "Post_Office": "Ayer Hitam",
        "State": "Kedah"
    },
    {
        "Postcode": "06150",
        "Location": "Kampung Padang Lalang",
        "Post_Office": "Ayer Hitam",
        "State": "Kedah"
    },
    {
        "Postcode": "06150",
        "Location": "Kampung Telaga Batu",
        "Post_Office": "Ayer Hitam",
        "State": "Kedah"
    },
    {
        "Postcode": "06150",
        "Location": "Ayer Hitam",
        "Post_Office": "Ayer Hitam",
        "State": "Kedah"
    },
    {
        "Postcode": "06150",
        "Location": "Jalan Sungai Korok (Batu 9 1/2)",
        "Post_Office": "Ayer Hitam",
        "State": "Kedah"
    },
    {
        "Postcode": "06150",
        "Location": "Kampung Alor Biak",
        "Post_Office": "Ayer Hitam",
        "State": "Kedah"
    },
    {
        "Postcode": "06150",
        "Location": "Kampung Baru Kuala Sanglang",
        "Post_Office": "Ayer Hitam",
        "State": "Kedah"
    },
    {
        "Postcode": "06150",
        "Location": "Kampung Batas Bengkok",
        "Post_Office": "Ayer Hitam",
        "State": "Kedah"
    },
    {
        "Postcode": "06150",
        "Location": "Kampung Batu 6 1/2",
        "Post_Office": "Ayer Hitam",
        "State": "Kedah"
    },
    {
        "Postcode": "06150",
        "Location": "Kampung Bohor Karang",
        "Post_Office": "Ayer Hitam",
        "State": "Kedah"
    },
    {
        "Postcode": "06150",
        "Location": "Kampung Gandai",
        "Post_Office": "Ayer Hitam",
        "State": "Kedah"
    },
    {
        "Postcode": "06150",
        "Location": "Kampung Gerbi",
        "Post_Office": "Ayer Hitam",
        "State": "Kedah"
    },
    {
        "Postcode": "06150",
        "Location": "Kampung Gurindam",
        "Post_Office": "Ayer Hitam",
        "State": "Kedah"
    },
    {
        "Postcode": "06150",
        "Location": "Kampung Jerlun",
        "Post_Office": "Ayer Hitam",
        "State": "Kedah"
    },
    {
        "Postcode": "06150",
        "Location": "Kampung Jeruju",
        "Post_Office": "Ayer Hitam",
        "State": "Kedah"
    },
    {
        "Postcode": "06150",
        "Location": "Kampung Kerpan Kechil",
        "Post_Office": "Ayer Hitam",
        "State": "Kedah"
    },
    {
        "Postcode": "06150",
        "Location": "Kampung Kuala Jerlun",
        "Post_Office": "Ayer Hitam",
        "State": "Kedah"
    },
    {
        "Postcode": "06150",
        "Location": "Kampung Kuala Kerpan",
        "Post_Office": "Ayer Hitam",
        "State": "Kedah"
    },
    {
        "Postcode": "06150",
        "Location": "Kampung Kubang Nipah",
        "Post_Office": "Ayer Hitam",
        "State": "Kedah"
    },
    {
        "Postcode": "06150",
        "Location": "Kampung Kubang Sepat",
        "Post_Office": "Ayer Hitam",
        "State": "Kedah"
    },
    {
        "Postcode": "06150",
        "Location": "Kampung Lana Bulu",
        "Post_Office": "Ayer Hitam",
        "State": "Kedah"
    },
    {
        "Postcode": "06150",
        "Location": "Kampung Lubok Gokgek",
        "Post_Office": "Ayer Hitam",
        "State": "Kedah"
    },
    {
        "Postcode": "06150",
        "Location": "Kampung Permatang Bonglai",
        "Post_Office": "Ayer Hitam",
        "State": "Kedah"
    },
    {
        "Postcode": "06150",
        "Location": "Kampung Permatang Kerengga",
        "Post_Office": "Ayer Hitam",
        "State": "Kedah"
    },
    {
        "Postcode": "06150",
        "Location": "Kampung Pida 13",
        "Post_Office": "Ayer Hitam",
        "State": "Kedah"
    },
    {
        "Postcode": "06150",
        "Location": "Kampung Pida 14",
        "Post_Office": "Ayer Hitam",
        "State": "Kedah"
    },
    {
        "Postcode": "06150",
        "Location": "Kampung Pida 15",
        "Post_Office": "Ayer Hitam",
        "State": "Kedah"
    },
    {
        "Postcode": "06150",
        "Location": "Kampung Sanglang",
        "Post_Office": "Ayer Hitam",
        "State": "Kedah"
    },
    {
        "Postcode": "06150",
        "Location": "Kampung Sematang Kerpan",
        "Post_Office": "Ayer Hitam",
        "State": "Kedah"
    },
    {
        "Postcode": "06150",
        "Location": "Kampung Tok Mengkula",
        "Post_Office": "Ayer Hitam",
        "State": "Kedah"
    },
    {
        "Postcode": "06150",
        "Location": "Kuala Sanglang",
        "Post_Office": "Ayer Hitam",
        "State": "Kedah"
    },
    {
        "Postcode": "06150",
        "Location": "Lana Bulu",
        "Post_Office": "Ayer Hitam",
        "State": "Kedah"
    },
    {
        "Postcode": "06150",
        "Location": "Pida 14",
        "Post_Office": "Ayer Hitam",
        "State": "Kedah"
    },
    {
        "Postcode": "06150",
        "Location": "Pida 5 - 8",
        "Post_Office": "Ayer Hitam",
        "State": "Kedah"
    },
    {
        "Postcode": "06150",
        "Location": "Pida 8 (Mukim Ah)",
        "Post_Office": "Ayer Hitam",
        "State": "Kedah"
    },
    {
        "Postcode": "06150",
        "Location": "Simpang Empat Kerpan",
        "Post_Office": "Ayer Hitam",
        "State": "Kedah"
    },
    {
        "Postcode": "06150",
        "Location": "Sungai Korok",
        "Post_Office": "Ayer Hitam",
        "State": "Kedah"
    },
    {
        "Postcode": "06150",
        "Location": "Taman Seri Sanglang",
        "Post_Office": "Ayer Hitam",
        "State": "Kedah"
    }
]
