[
    {
        "Postcode": "06200",
        "Location": "Tok Jalai",
        "Post_Office": "Kepala Batas",
        "State": "Kedah"
    },
    {
        "Postcode": "06200",
        "Location": "Kampung Tok Buge",
        "Post_Office": "Kepala Batas",
        "State": "Kedah"
    },
    {
        "Postcode": "06200",
        "Location": "Kampung Baru Padang Tembak",
        "Post_Office": "Kepala Batas",
        "State": "Kedah"
    },
    {
        "Postcode": "06200",
        "Location": "Kampung Padang Hasan",
        "Post_Office": "Kepala Batas",
        "State": "Kedah"
    },
    {
        "Postcode": "06200",
        "Location": "Kampung Bukit Tinggi",
        "Post_Office": "Kepala Batas",
        "State": "Kedah"
    },
    {
        "Postcode": "06200",
        "Location": "Kampung Kepala Bendang",
        "Post_Office": "Kepala Batas",
        "State": "Kedah"
    },
    {
        "Postcode": "06200",
        "Location": "Kampung Kepala Bukit",
        "Post_Office": "Kepala Batas",
        "State": "Kedah"
    },
    {
        "Postcode": "06200",
        "Location": "Kampung Lengkuas",
        "Post_Office": "Kepala Batas",
        "State": "Kedah"
    },
    {
        "Postcode": "06200",
        "Location": "Kampung Padang Pekan",
        "Post_Office": "Kepala Batas",
        "State": "Kedah"
    },
    {
        "Postcode": "06200",
        "Location": "Kampung Pasir",
        "Post_Office": "Kepala Batas",
        "State": "Kedah"
    },
    {
        "Postcode": "06200",
        "Location": "Kampung Seberang Paya",
        "Post_Office": "Kepala Batas",
        "State": "Kedah"
    },
    {
        "Postcode": "06200",
        "Location": "Kampung Telok",
        "Post_Office": "Kepala Batas",
        "State": "Kedah"
    },
    {
        "Postcode": "06200",
        "Location": "Taman Jalai Jaya",
        "Post_Office": "Kepala Batas",
        "State": "Kedah"
    },
    {
        "Postcode": "06200",
        "Location": "Taman Merak",
        "Post_Office": "Kepala Batas",
        "State": "Kedah"
    },
    {
        "Postcode": "06200",
        "Location": "Bukit Pinang",
        "Post_Office": "Kepala Batas",
        "State": "Kedah"
    },
    {
        "Postcode": "06200",
        "Location": "Jalan Kepala Batas",
        "Post_Office": "Kepala Batas",
        "State": "Kedah"
    },
    {
        "Postcode": "06200",
        "Location": "Kampung Alor Ganu",
        "Post_Office": "Kepala Batas",
        "State": "Kedah"
    },
    {
        "Postcode": "06200",
        "Location": "Kampung Batu 8 1/2 (Tok Jelai)",
        "Post_Office": "Kepala Batas",
        "State": "Kedah"
    },
    {
        "Postcode": "06200",
        "Location": "Kampung Bukit Inas",
        "Post_Office": "Kepala Batas",
        "State": "Kedah"
    },
    {
        "Postcode": "06200",
        "Location": "Kampung Bukit Pala",
        "Post_Office": "Kepala Batas",
        "State": "Kedah"
    },
    {
        "Postcode": "06200",
        "Location": "Kampung Cherok Ayer Pasang",
        "Post_Office": "Kepala Batas",
        "State": "Kedah"
    },
    {
        "Postcode": "06200",
        "Location": "Kampung Hilir",
        "Post_Office": "Kepala Batas",
        "State": "Kedah"
    },
    {
        "Postcode": "06200",
        "Location": "Kampung Naga",
        "Post_Office": "Kepala Batas",
        "State": "Kedah"
    },
    {
        "Postcode": "06200",
        "Location": "Kampung Padang Gelam",
        "Post_Office": "Kepala Batas",
        "State": "Kedah"
    },
    {
        "Postcode": "06200",
        "Location": "Kampung Padang Sejana",
        "Post_Office": "Kepala Batas",
        "State": "Kedah"
    },
    {
        "Postcode": "06200",
        "Location": "Kampung Pengkalan Gelong",
        "Post_Office": "Kepala Batas",
        "State": "Kedah"
    },
    {
        "Postcode": "06200",
        "Location": "Kampung Tepi Alor",
        "Post_Office": "Kepala Batas",
        "State": "Kedah"
    },
    {
        "Postcode": "06200",
        "Location": "Kampung Titi Baru",
        "Post_Office": "Kepala Batas",
        "State": "Kedah"
    },
    {
        "Postcode": "06200",
        "Location": "Kampung Titi Besi",
        "Post_Office": "Kepala Batas",
        "State": "Kedah"
    },
    {
        "Postcode": "06200",
        "Location": "Kepala Batas",
        "Post_Office": "Kepala Batas",
        "State": "Kedah"
    },
    {
        "Postcode": "06200",
        "Location": "Taman Desa Bukit Tinggi",
        "Post_Office": "Kepala Batas",
        "State": "Kedah"
    },
    {
        "Postcode": "06200",
        "Location": "Taman Mutiara",
        "Post_Office": "Kepala Batas",
        "State": "Kedah"
    },
    {
        "Postcode": "06200",
        "Location": "Taman Pinang Jaya",
        "Post_Office": "Kepala Batas",
        "State": "Kedah"
    },
    {
        "Postcode": "06200",
        "Location": "Taman Pinang Merah",
        "Post_Office": "Kepala Batas",
        "State": "Kedah"
    },
    {
        "Postcode": "06200",
        "Location": "Taman Sirih",
        "Post_Office": "Kepala Batas",
        "State": "Kedah"
    },
    {
        "Postcode": "06200",
        "Location": "Taman Sri Naga",
        "Post_Office": "Kepala Batas",
        "State": "Kedah"
    },
    {
        "Postcode": "06200",
        "Location": "Taman Wira Emas",
        "Post_Office": "Kepala Batas",
        "State": "Kedah"
    }
]
