[
    {
        "Postcode": "06250",
        "Location": "Kampung Kubang Jambu",
        "Post_Office": "Alor Setar",
        "State": "Kedah"
    },
    {
        "Postcode": "06250",
        "Location": "Kampung Kubang Siam",
        "Post_Office": "Alor Setar",
        "State": "Kedah"
    },
    {
        "Postcode": "06250",
        "Location": "Taman Desa Aman",
        "Post_Office": "Alor Setar",
        "State": "Kedah"
    },
    {
        "Postcode": "06250",
        "Location": "Taman Sayang",
        "Post_Office": "Alor Setar",
        "State": "Kedah"
    },
    {
        "Postcode": "06250",
        "Location": "Kampung Masjid Kubang Rotan",
        "Post_Office": "Alor Setar",
        "State": "Kedah"
    },
    {
        "Postcode": "06250",
        "Location": "Kampung Sematang",
        "Post_Office": "Alor Setar",
        "State": "Kedah"
    },
    {
        "Postcode": "06250",
        "Location": "Kampung Sematang Budi",
        "Post_Office": "Alor Setar",
        "State": "Kedah"
    },
    {
        "Postcode": "06250",
        "Location": "Kampung Sematang Kabu",
        "Post_Office": "Alor Setar",
        "State": "Kedah"
    },
    {
        "Postcode": "06250",
        "Location": "Kampung Tanjung Besar",
        "Post_Office": "Alor Setar",
        "State": "Kedah"
    },
    {
        "Postcode": "06250",
        "Location": "Hujung Mergong",
        "Post_Office": "Alor Setar",
        "State": "Kedah"
    },
    {
        "Postcode": "06250",
        "Location": "Kampung Kuala Sungai Baru",
        "Post_Office": "Alor Setar",
        "State": "Kedah"
    },
    {
        "Postcode": "06250",
        "Location": "Kampung Sungai Dua",
        "Post_Office": "Alor Setar",
        "State": "Kedah"
    },
    {
        "Postcode": "06250",
        "Location": "Kampung Telaga Juan",
        "Post_Office": "Alor Setar",
        "State": "Kedah"
    },
    {
        "Postcode": "06250",
        "Location": "Kampung Huma",
        "Post_Office": "Alor Setar",
        "State": "Kedah"
    },
    {
        "Postcode": "06250",
        "Location": "Taman Maju",
        "Post_Office": "Alor Setar",
        "State": "Kedah"
    },
    {
        "Postcode": "06250",
        "Location": "Taman Arwana",
        "Post_Office": "Alor Setar",
        "State": "Kedah"
    },
    {
        "Postcode": "06250",
        "Location": "Alor Janggus",
        "Post_Office": "Alor Setar",
        "State": "Kedah"
    },
    {
        "Postcode": "06250",
        "Location": "Jalan Pondok",
        "Post_Office": "Alor Setar",
        "State": "Kedah"
    },
    {
        "Postcode": "06250",
        "Location": "Jalan Putra (Km 3 - 14)",
        "Post_Office": "Alor Setar",
        "State": "Kedah"
    },
    {
        "Postcode": "06250",
        "Location": "Kampung Alor Janggos",
        "Post_Office": "Alor Setar",
        "State": "Kedah"
    },
    {
        "Postcode": "06250",
        "Location": "Kampung Baru Keluncor",
        "Post_Office": "Alor Setar",
        "State": "Kedah"
    },
    {
        "Postcode": "06250",
        "Location": "Kampung Hilir Tandop",
        "Post_Office": "Alor Setar",
        "State": "Kedah"
    },
    {
        "Postcode": "06250",
        "Location": "Kampung Hutan",
        "Post_Office": "Alor Setar",
        "State": "Kedah"
    },
    {
        "Postcode": "06250",
        "Location": "Kampung Jawa",
        "Post_Office": "Alor Setar",
        "State": "Kedah"
    },
    {
        "Postcode": "06250",
        "Location": "Kampung Kelompang (Alor Janggus)",
        "Post_Office": "Alor Setar",
        "State": "Kedah"
    },
    {
        "Postcode": "06250",
        "Location": "Kampung Kuala Kuar",
        "Post_Office": "Alor Setar",
        "State": "Kedah"
    },
    {
        "Postcode": "06250",
        "Location": "Kampung Kuar Jawa",
        "Post_Office": "Alor Setar",
        "State": "Kedah"
    },
    {
        "Postcode": "06250",
        "Location": "Kampung Kubang Bongor",
        "Post_Office": "Alor Setar",
        "State": "Kedah"
    },
    {
        "Postcode": "06250",
        "Location": "Kampung Kubang Pangas",
        "Post_Office": "Alor Setar",
        "State": "Kedah"
    },
    {
        "Postcode": "06250",
        "Location": "Kampung Kubang Rotan",
        "Post_Office": "Alor Setar",
        "State": "Kedah"
    },
    {
        "Postcode": "06250",
        "Location": "Kampung Lemping",
        "Post_Office": "Alor Setar",
        "State": "Kedah"
    },
    {
        "Postcode": "06250",
        "Location": "Kampung Lentang Kubang Jawi",
        "Post_Office": "Alor Setar",
        "State": "Kedah"
    },
    {
        "Postcode": "06250",
        "Location": "Kampung Masjid Luyung",
        "Post_Office": "Alor Setar",
        "State": "Kedah"
    },
    {
        "Postcode": "06250",
        "Location": "Kampung Mergong",
        "Post_Office": "Alor Setar",
        "State": "Kedah"
    },
    {
        "Postcode": "06250",
        "Location": "Kampung Mergong Hilir",
        "Post_Office": "Alor Setar",
        "State": "Kedah"
    },
    {
        "Postcode": "06250",
        "Location": "Kampung Padang Gunong",
        "Post_Office": "Alor Setar",
        "State": "Kedah"
    },
    {
        "Postcode": "06250",
        "Location": "Kampung Padang Hang",
        "Post_Office": "Alor Setar",
        "State": "Kedah"
    },
    {
        "Postcode": "06250",
        "Location": "Kampung Padang Wat",
        "Post_Office": "Alor Setar",
        "State": "Kedah"
    },
    {
        "Postcode": "06250",
        "Location": "Kampung Parit Buaya",
        "Post_Office": "Alor Setar",
        "State": "Kedah"
    },
    {
        "Postcode": "06250",
        "Location": "Kampung Pondok",
        "Post_Office": "Alor Setar",
        "State": "Kedah"
    },
    {
        "Postcode": "06250",
        "Location": "Kampung Seberang Alur",
        "Post_Office": "Alor Setar",
        "State": "Kedah"
    },
    {
        "Postcode": "06250",
        "Location": "Kampung Sematang Bogak",
        "Post_Office": "Alor Setar",
        "State": "Kedah"
    },
    {
        "Postcode": "06250",
        "Location": "Kampung Tandop Kuala Sungai",
        "Post_Office": "Alor Setar",
        "State": "Kedah"
    },
    {
        "Postcode": "06250",
        "Location": "Kampung Telaga Tengah",
        "Post_Office": "Alor Setar",
        "State": "Kedah"
    },
    {
        "Postcode": "06250",
        "Location": "Kuala Sungai",
        "Post_Office": "Alor Setar",
        "State": "Kedah"
    },
    {
        "Postcode": "06250",
        "Location": "Kuala Sungai Kubang Rotan",
        "Post_Office": "Alor Setar",
        "State": "Kedah"
    },
    {
        "Postcode": "06250",
        "Location": "Kubang Bonggor",
        "Post_Office": "Alor Setar",
        "State": "Kedah"
    },
    {
        "Postcode": "06250",
        "Location": "Kubang Jambu",
        "Post_Office": "Alor Setar",
        "State": "Kedah"
    },
    {
        "Postcode": "06250",
        "Location": "Lorong Alor Sematang",
        "Post_Office": "Alor Setar",
        "State": "Kedah"
    },
    {
        "Postcode": "06250",
        "Location": "Lorong Kilang",
        "Post_Office": "Alor Setar",
        "State": "Kedah"
    },
    {
        "Postcode": "06250",
        "Location": "Lorong Sekolah",
        "Post_Office": "Alor Setar",
        "State": "Kedah"
    },
    {
        "Postcode": "06250",
        "Location": "Padang Lalang",
        "Post_Office": "Alor Setar",
        "State": "Kedah"
    },
    {
        "Postcode": "06250",
        "Location": "Pecah Batu",
        "Post_Office": "Alor Setar",
        "State": "Kedah"
    },
    {
        "Postcode": "06250",
        "Location": "Seberang Kampung Hilir",
        "Post_Office": "Alor Setar",
        "State": "Kedah"
    },
    {
        "Postcode": "06250",
        "Location": "Seberang Kampung Masjid",
        "Post_Office": "Alor Setar",
        "State": "Kedah"
    },
    {
        "Postcode": "06250",
        "Location": "Simpang Empat Kuar",
        "Post_Office": "Alor Setar",
        "State": "Kedah"
    },
    {
        "Postcode": "06250",
        "Location": "Sungai Baru (Alor Janggus)",
        "Post_Office": "Alor Setar",
        "State": "Kedah"
    },
    {
        "Postcode": "06250",
        "Location": "Sungai Lentang",
        "Post_Office": "Alor Setar",
        "State": "Kedah"
    },
    {
        "Postcode": "06250",
        "Location": "Taman Alor Janggus",
        "Post_Office": "Alor Setar",
        "State": "Kedah"
    },
    {
        "Postcode": "06250",
        "Location": "Taman Cencaru",
        "Post_Office": "Alor Setar",
        "State": "Kedah"
    },
    {
        "Postcode": "06250",
        "Location": "Taman Flora",
        "Post_Office": "Alor Setar",
        "State": "Kedah"
    },
    {
        "Postcode": "06250",
        "Location": "Taman Inang",
        "Post_Office": "Alor Setar",
        "State": "Kedah"
    },
    {
        "Postcode": "06250",
        "Location": "Taman Janggus 2",
        "Post_Office": "Alor Setar",
        "State": "Kedah"
    },
    {
        "Postcode": "06250",
        "Location": "Taman Kubang Rotan",
        "Post_Office": "Alor Setar",
        "State": "Kedah"
    },
    {
        "Postcode": "06250",
        "Location": "Taman Kubang Rotan Fasa 2",
        "Post_Office": "Alor Setar",
        "State": "Kedah"
    },
    {
        "Postcode": "06250",
        "Location": "Taman Mergong Indah (Alor Janggus)",
        "Post_Office": "Alor Setar",
        "State": "Kedah"
    },
    {
        "Postcode": "06250",
        "Location": "Taman Mergong Jaya 1",
        "Post_Office": "Alor Setar",
        "State": "Kedah"
    },
    {
        "Postcode": "06250",
        "Location": "Taman Mergong Jaya 2",
        "Post_Office": "Alor Setar",
        "State": "Kedah"
    },
    {
        "Postcode": "06250",
        "Location": "Taman Murni",
        "Post_Office": "Alor Setar",
        "State": "Kedah"
    },
    {
        "Postcode": "06250",
        "Location": "Taman Mutiara (Alor Janggus)",
        "Post_Office": "Alor Setar",
        "State": "Kedah"
    },
    {
        "Postcode": "06250",
        "Location": "Taman Pesona",
        "Post_Office": "Alor Setar",
        "State": "Kedah"
    },
    {
        "Postcode": "06250",
        "Location": "Taman Serampang",
        "Post_Office": "Alor Setar",
        "State": "Kedah"
    },
    {
        "Postcode": "06250",
        "Location": "Telok Talipon",
        "Post_Office": "Alor Setar",
        "State": "Kedah"
    }
]
