[
    {
        "Postcode": "06300",
        "Location": "Kampung Rumia Manis",
        "Post_Office": "Kuala Nerang",
        "State": "Kedah"
    },
    {
        "Postcode": "06300",
        "Location": "Kem Sahara (Kem Askar)",
        "Post_Office": "Kuala Nerang",
        "State": "Kedah"
    },
    {
        "Postcode": "06300",
        "Location": "Taman Desa Sapura",
        "Post_Office": "Kuala Nerang",
        "State": "Kedah"
    },
    {
        "Postcode": "06300",
        "Location": "Taman Jelutang Fasa 2",
        "Post_Office": "Kuala Nerang",
        "State": "Kedah"
    },
    {
        "Postcode": "06300",
        "Location": "Taman Kemangi",
        "Post_Office": "Kuala Nerang",
        "State": "Kedah"
    },
    {
        "Postcode": "06300",
        "Location": "Taman Merbau",
        "Post_Office": "Kuala Nerang",
        "State": "Kedah"
    },
    {
        "Postcode": "06300",
        "Location": "Taman Mesra 2",
        "Post_Office": "Kuala Nerang",
        "State": "Kedah"
    },
    {
        "Postcode": "06300",
        "Location": "Taman Perumahan Imigresen",
        "Post_Office": "Kuala Nerang",
        "State": "Kedah"
    },
    {
        "Postcode": "06300",
        "Location": "Kampung Belimbing",
        "Post_Office": "Kuala Nerang",
        "State": "Kedah"
    },
    {
        "Postcode": "06300",
        "Location": "Kampung Bendang Raja",
        "Post_Office": "Kuala Nerang",
        "State": "Kedah"
    },
    {
        "Postcode": "06300",
        "Location": "Kampung Bukit Buluh",
        "Post_Office": "Kuala Nerang",
        "State": "Kedah"
    },
    {
        "Postcode": "06300",
        "Location": "Kampung Hijrah",
        "Post_Office": "Kuala Nerang",
        "State": "Kedah"
    },
    {
        "Postcode": "06300",
        "Location": "Kampung Lubok Ipoh",
        "Post_Office": "Kuala Nerang",
        "State": "Kedah"
    },
    {
        "Postcode": "06300",
        "Location": "Kampung Padang Gelanggang",
        "Post_Office": "Kuala Nerang",
        "State": "Kedah"
    },
    {
        "Postcode": "06300",
        "Location": "Kampung Pokok Machang",
        "Post_Office": "Kuala Nerang",
        "State": "Kedah"
    },
    {
        "Postcode": "06300",
        "Location": "Kampung Seberang",
        "Post_Office": "Kuala Nerang",
        "State": "Kedah"
    },
    {
        "Postcode": "06300",
        "Location": "Taman Desa Kenangan",
        "Post_Office": "Kuala Nerang",
        "State": "Kedah"
    },
    {
        "Postcode": "06300",
        "Location": "Felcra Belimbing Tualak",
        "Post_Office": "Kuala Nerang",
        "State": "Kedah"
    },
    {
        "Postcode": "06300",
        "Location": "Kampung Padang Sanai",
        "Post_Office": "Kuala Nerang",
        "State": "Kedah"
    },
    {
        "Postcode": "06300",
        "Location": "Kampung Pasir Putih",
        "Post_Office": "Kuala Nerang",
        "State": "Kedah"
    },
    {
        "Postcode": "06300",
        "Location": "Kampung Tanjung Luar",
        "Post_Office": "Kuala Nerang",
        "State": "Kedah"
    },
    {
        "Postcode": "06300",
        "Location": "Kampung Tanjung Putus",
        "Post_Office": "Kuala Nerang",
        "State": "Kedah"
    },
    {
        "Postcode": "06300",
        "Location": "Kampung Tanjung Siam",
        "Post_Office": "Kuala Nerang",
        "State": "Kedah"
    },
    {
        "Postcode": "06300",
        "Location": "Kampung Teluk Belanga",
        "Post_Office": "Kuala Nerang",
        "State": "Kedah"
    },
    {
        "Postcode": "06300",
        "Location": "Rumah Keda Pasir Putih",
        "Post_Office": "Kuala Nerang",
        "State": "Kedah"
    },
    {
        "Postcode": "06300",
        "Location": "Kampung Belukar",
        "Post_Office": "Kuala Nerang",
        "State": "Kedah"
    },
    {
        "Postcode": "06300",
        "Location": "Kampung Bendang",
        "Post_Office": "Kuala Nerang",
        "State": "Kedah"
    },
    {
        "Postcode": "06300",
        "Location": "Kampung Bukit",
        "Post_Office": "Kuala Nerang",
        "State": "Kedah"
    },
    {
        "Postcode": "06300",
        "Location": "Kampung Durian Burong",
        "Post_Office": "Kuala Nerang",
        "State": "Kedah"
    },
    {
        "Postcode": "06300",
        "Location": "Kampung Kejai",
        "Post_Office": "Kuala Nerang",
        "State": "Kedah"
    },
    {
        "Postcode": "06300",
        "Location": "Kampung Kubang Lintah",
        "Post_Office": "Kuala Nerang",
        "State": "Kedah"
    },
    {
        "Postcode": "06300",
        "Location": "Kampung Macang",
        "Post_Office": "Kuala Nerang",
        "State": "Kedah"
    },
    {
        "Postcode": "06300",
        "Location": "Kampung Malau",
        "Post_Office": "Kuala Nerang",
        "State": "Kedah"
    },
    {
        "Postcode": "06300",
        "Location": "Kampung Masjid",
        "Post_Office": "Kuala Nerang",
        "State": "Kedah"
    },
    {
        "Postcode": "06300",
        "Location": "Kampung Padang Setol",
        "Post_Office": "Kuala Nerang",
        "State": "Kedah"
    },
    {
        "Postcode": "06300",
        "Location": "Kampung Pisang",
        "Post_Office": "Kuala Nerang",
        "State": "Kedah"
    },
    {
        "Postcode": "06300",
        "Location": "Kampung Seberang Paya",
        "Post_Office": "Kuala Nerang",
        "State": "Kedah"
    },
    {
        "Postcode": "06300",
        "Location": "Kampung Seladang Rebah",
        "Post_Office": "Kuala Nerang",
        "State": "Kedah"
    },
    {
        "Postcode": "06300",
        "Location": "Kampung Surau",
        "Post_Office": "Kuala Nerang",
        "State": "Kedah"
    },
    {
        "Postcode": "06300",
        "Location": "Kampung Tanjong",
        "Post_Office": "Kuala Nerang",
        "State": "Kedah"
    },
    {
        "Postcode": "06300",
        "Location": "Taman Bersatu",
        "Post_Office": "Kuala Nerang",
        "State": "Kedah"
    },
    {
        "Postcode": "06300",
        "Location": "Taman Jati",
        "Post_Office": "Kuala Nerang",
        "State": "Kedah"
    },
    {
        "Postcode": "06300",
        "Location": "Taman Pelangi",
        "Post_Office": "Kuala Nerang",
        "State": "Kedah"
    },
    {
        "Postcode": "06300",
        "Location": "Taman Saujana",
        "Post_Office": "Kuala Nerang",
        "State": "Kedah"
    },
    {
        "Postcode": "06300",
        "Location": "Taman Sri Emas",
        "Post_Office": "Kuala Nerang",
        "State": "Kedah"
    },
    {
        "Postcode": "06300",
        "Location": "Ampangan Pedu",
        "Post_Office": "Kuala Nerang",
        "State": "Kedah"
    },
    {
        "Postcode": "06300",
        "Location": "Anjung Pedu Lake",
        "Post_Office": "Kuala Nerang",
        "State": "Kedah"
    },
    {
        "Postcode": "06300",
        "Location": "Desa Utara",
        "Post_Office": "Kuala Nerang",
        "State": "Kedah"
    },
    {
        "Postcode": "06300",
        "Location": "Felcra Bukit Tampoi",
        "Post_Office": "Kuala Nerang",
        "State": "Kedah"
    },
    {
        "Postcode": "06300",
        "Location": "Felcra Kubang Palas",
        "Post_Office": "Kuala Nerang",
        "State": "Kedah"
    },
    {
        "Postcode": "06300",
        "Location": "Felda Bukit Tembaga",
        "Post_Office": "Kuala Nerang",
        "State": "Kedah"
    },
    {
        "Postcode": "06300",
        "Location": "Kampung Aceh",
        "Post_Office": "Kuala Nerang",
        "State": "Kedah"
    },
    {
        "Postcode": "06300",
        "Location": "Kampung Apel",
        "Post_Office": "Kuala Nerang",
        "State": "Kedah"
    },
    {
        "Postcode": "06300",
        "Location": "Kampung Bakong",
        "Post_Office": "Kuala Nerang",
        "State": "Kedah"
    },
    {
        "Postcode": "06300",
        "Location": "Kampung Banggol Dogol",
        "Post_Office": "Kuala Nerang",
        "State": "Kedah"
    },
    {
        "Postcode": "06300",
        "Location": "Kampung Banggol Pong",
        "Post_Office": "Kuala Nerang",
        "State": "Kedah"
    },
    {
        "Postcode": "06300",
        "Location": "Kampung Baru Belimbing Kanan",
        "Post_Office": "Kuala Nerang",
        "State": "Kedah"
    },
    {
        "Postcode": "06300",
        "Location": "Kampung Baru Khas",
        "Post_Office": "Kuala Nerang",
        "State": "Kedah"
    },
    {
        "Postcode": "06300",
        "Location": "Kampung Baru Lembah Permai",
        "Post_Office": "Kuala Nerang",
        "State": "Kedah"
    },
    {
        "Postcode": "06300",
        "Location": "Kampung Baru Padang Lalang",
        "Post_Office": "Kuala Nerang",
        "State": "Kedah"
    },
    {
        "Postcode": "06300",
        "Location": "Kampung Baru Padang Sanai",
        "Post_Office": "Kuala Nerang",
        "State": "Kedah"
    },
    {
        "Postcode": "06300",
        "Location": "Kampung Baru Tualak",
        "Post_Office": "Kuala Nerang",
        "State": "Kedah"
    },
    {
        "Postcode": "06300",
        "Location": "Kampung Bukit Kura",
        "Post_Office": "Kuala Nerang",
        "State": "Kedah"
    },
    {
        "Postcode": "06300",
        "Location": "Kampung Bukit Larik",
        "Post_Office": "Kuala Nerang",
        "State": "Kedah"
    },
    {
        "Postcode": "06300",
        "Location": "Kampung Bukit Nambua",
        "Post_Office": "Kuala Nerang",
        "State": "Kedah"
    },
    {
        "Postcode": "06300",
        "Location": "Kampung Bukit Nyamok",
        "Post_Office": "Kuala Nerang",
        "State": "Kedah"
    },
    {
        "Postcode": "06300",
        "Location": "Kampung Bukit Tembaga Selatan",
        "Post_Office": "Kuala Nerang",
        "State": "Kedah"
    },
    {
        "Postcode": "06300",
        "Location": "Kampung Bukit Tembaga Timur",
        "Post_Office": "Kuala Nerang",
        "State": "Kedah"
    },
    {
        "Postcode": "06300",
        "Location": "Kampung Charok Manora",
        "Post_Office": "Kuala Nerang",
        "State": "Kedah"
    },
    {
        "Postcode": "06300",
        "Location": "Kampung Dalam",
        "Post_Office": "Kuala Nerang",
        "State": "Kedah"
    },
    {
        "Postcode": "06300",
        "Location": "Kampung Genting Palas",
        "Post_Office": "Kuala Nerang",
        "State": "Kedah"
    },
    {
        "Postcode": "06300",
        "Location": "Kampung Jelutong",
        "Post_Office": "Kuala Nerang",
        "State": "Kedah"
    },
    {
        "Postcode": "06300",
        "Location": "Kampung Kepala Batas",
        "Post_Office": "Kuala Nerang",
        "State": "Kedah"
    },
    {
        "Postcode": "06300",
        "Location": "Kampung Kuala Janing",
        "Post_Office": "Kuala Nerang",
        "State": "Kedah"
    },
    {
        "Postcode": "06300",
        "Location": "Kampung Kuala Nibong",
        "Post_Office": "Kuala Nerang",
        "State": "Kedah"
    },
    {
        "Postcode": "06300",
        "Location": "Kampung Kuala Pai",
        "Post_Office": "Kuala Nerang",
        "State": "Kedah"
    },
    {
        "Postcode": "06300",
        "Location": "Kampung Kuala Tekai",
        "Post_Office": "Kuala Nerang",
        "State": "Kedah"
    },
    {
        "Postcode": "06300",
        "Location": "Kampung Kuala Tualak",
        "Post_Office": "Kuala Nerang",
        "State": "Kedah"
    },
    {
        "Postcode": "06300",
        "Location": "Kampung Kubang Palas",
        "Post_Office": "Kuala Nerang",
        "State": "Kedah"
    },
    {
        "Postcode": "06300",
        "Location": "Kampung Kubu",
        "Post_Office": "Kuala Nerang",
        "State": "Kedah"
    },
    {
        "Postcode": "06300",
        "Location": "Kampung Labi",
        "Post_Office": "Kuala Nerang",
        "State": "Kedah"
    },
    {
        "Postcode": "06300",
        "Location": "Kampung Lubok Labi",
        "Post_Office": "Kuala Nerang",
        "State": "Kedah"
    },
    {
        "Postcode": "06300",
        "Location": "Kampung Lubok Merbau",
        "Post_Office": "Kuala Nerang",
        "State": "Kedah"
    },
    {
        "Postcode": "06300",
        "Location": "Kampung Lubok Tok Wi",
        "Post_Office": "Kuala Nerang",
        "State": "Kedah"
    },
    {
        "Postcode": "06300",
        "Location": "Kampung Magak",
        "Post_Office": "Kuala Nerang",
        "State": "Kedah"
    },
    {
        "Postcode": "06300",
        "Location": "Kampung Mani",
        "Post_Office": "Kuala Nerang",
        "State": "Kedah"
    },
    {
        "Postcode": "06300",
        "Location": "Kampung Masjid Tualak",
        "Post_Office": "Kuala Nerang",
        "State": "Kedah"
    },
    {
        "Postcode": "06300",
        "Location": "Kampung Musa",
        "Post_Office": "Kuala Nerang",
        "State": "Kedah"
    },
    {
        "Postcode": "06300",
        "Location": "Kampung Naiteh",
        "Post_Office": "Kuala Nerang",
        "State": "Kedah"
    },
    {
        "Postcode": "06300",
        "Location": "Kampung Nako",
        "Post_Office": "Kuala Nerang",
        "State": "Kedah"
    },
    {
        "Postcode": "06300",
        "Location": "Kampung Padang Balai",
        "Post_Office": "Kuala Nerang",
        "State": "Kedah"
    },
    {
        "Postcode": "06300",
        "Location": "Kampung Padang Chanderai",
        "Post_Office": "Kuala Nerang",
        "State": "Kedah"
    },
    {
        "Postcode": "06300",
        "Location": "Kampung Padang Lanjut",
        "Post_Office": "Kuala Nerang",
        "State": "Kedah"
    },
    {
        "Postcode": "06300",
        "Location": "Kampung Paya Terap",
        "Post_Office": "Kuala Nerang",
        "State": "Kedah"
    },
    {
        "Postcode": "06300",
        "Location": "Kampung Pecah Gadong",
        "Post_Office": "Kuala Nerang",
        "State": "Kedah"
    },
    {
        "Postcode": "06300",
        "Location": "Kampung Pengkalan Tok Puteh",
        "Post_Office": "Kuala Nerang",
        "State": "Kedah"
    },
    {
        "Postcode": "06300",
        "Location": "Kampung Perik",
        "Post_Office": "Kuala Nerang",
        "State": "Kedah"
    },
    {
        "Postcode": "06300",
        "Location": "Kampung Pinang",
        "Post_Office": "Kuala Nerang",
        "State": "Kedah"
    },
    {
        "Postcode": "06300",
        "Location": "Kampung Pokka",
        "Post_Office": "Kuala Nerang",
        "State": "Kedah"
    },
    {
        "Postcode": "06300",
        "Location": "Kampung Pong Utara",
        "Post_Office": "Kuala Nerang",
        "State": "Kedah"
    },
    {
        "Postcode": "06300",
        "Location": "Kampung Pulau Kijang",
        "Post_Office": "Kuala Nerang",
        "State": "Kedah"
    },
    {
        "Postcode": "06300",
        "Location": "Kampung Rambutan",
        "Post_Office": "Kuala Nerang",
        "State": "Kedah"
    },
    {
        "Postcode": "06300",
        "Location": "Kampung Semeliang",
        "Post_Office": "Kuala Nerang",
        "State": "Kedah"
    },
    {
        "Postcode": "06300",
        "Location": "Kampung Sena",
        "Post_Office": "Kuala Nerang",
        "State": "Kedah"
    },
    {
        "Postcode": "06300",
        "Location": "Kampung Sungai Kecil",
        "Post_Office": "Kuala Nerang",
        "State": "Kedah"
    },
    {
        "Postcode": "06300",
        "Location": "Kampung Tanah Merah",
        "Post_Office": "Kuala Nerang",
        "State": "Kedah"
    },
    {
        "Postcode": "06300",
        "Location": "Kampung Tengah",
        "Post_Office": "Kuala Nerang",
        "State": "Kedah"
    },
    {
        "Postcode": "06300",
        "Location": "Kampung Tong Plu",
        "Post_Office": "Kuala Nerang",
        "State": "Kedah"
    },
    {
        "Postcode": "06300",
        "Location": "Kampung Wawasan",
        "Post_Office": "Kuala Nerang",
        "State": "Kedah"
    },
    {
        "Postcode": "06300",
        "Location": "Keda Bukit Ular",
        "Post_Office": "Kuala Nerang",
        "State": "Kedah"
    },
    {
        "Postcode": "06300",
        "Location": "Kilang Gula Padang Terap",
        "Post_Office": "Kuala Nerang",
        "State": "Kedah"
    },
    {
        "Postcode": "06300",
        "Location": "Kuala Nerang",
        "Post_Office": "Kuala Nerang",
        "State": "Kedah"
    },
    {
        "Postcode": "06300",
        "Location": "Ladang Tunku Abdul Rahman",
        "Post_Office": "Kuala Nerang",
        "State": "Kedah"
    },
    {
        "Postcode": "06300",
        "Location": "Mutiara Pedu Lake",
        "Post_Office": "Kuala Nerang",
        "State": "Kedah"
    },
    {
        "Postcode": "06300",
        "Location": "Pedu",
        "Post_Office": "Kuala Nerang",
        "State": "Kedah"
    },
    {
        "Postcode": "06300",
        "Location": "Rumah Keda Kampung Belukar",
        "Post_Office": "Kuala Nerang",
        "State": "Kedah"
    },
    {
        "Postcode": "06300",
        "Location": "Taman Belimbing Indah",
        "Post_Office": "Kuala Nerang",
        "State": "Kedah"
    },
    {
        "Postcode": "06300",
        "Location": "Taman Seri Tampoi",
        "Post_Office": "Kuala Nerang",
        "State": "Kedah"
    },
    {
        "Postcode": "06300",
        "Location": "Taman Sri Desa",
        "Post_Office": "Kuala Nerang",
        "State": "Kedah"
    },
    {
        "Postcode": "06300",
        "Location": "Taman Sri Kenangan",
        "Post_Office": "Kuala Nerang",
        "State": "Kedah"
    }
]
