[
    {
        "Postcode": "06350",
        "Location": "Kampung Bendang Baru",
        "Post_Office": "Pokok Sena",
        "State": "Kedah"
    },
    {
        "Postcode": "06350",
        "Location": "Kampung Padang Kerasak",
        "Post_Office": "Pokok Sena",
        "State": "Kedah"
    },
    {
        "Postcode": "06350",
        "Location": "Kampung Masjid Lama",
        "Post_Office": "Pokok Sena",
        "State": "Kedah"
    },
    {
        "Postcode": "06350",
        "Location": "Naka",
        "Post_Office": "Pokok Sena",
        "State": "Kedah"
    },
    {
        "Postcode": "06350",
        "Location": "Kampung Padang",
        "Post_Office": "Pokok Sena",
        "State": "Kedah"
    },
    {
        "Postcode": "06350",
        "Location": "Jalan Naka (Batu 18 1/2)",
        "Post_Office": "Pokok Sena",
        "State": "Kedah"
    },
    {
        "Postcode": "06350",
        "Location": "Kampung Baru Naka",
        "Post_Office": "Pokok Sena",
        "State": "Kedah"
    },
    {
        "Postcode": "06350",
        "Location": "Kampung Kubang Kenyeng",
        "Post_Office": "Pokok Sena",
        "State": "Kedah"
    },
    {
        "Postcode": "06350",
        "Location": "Kampung Lamdin",
        "Post_Office": "Pokok Sena",
        "State": "Kedah"
    },
    {
        "Postcode": "06350",
        "Location": "Kampung Lubok Perong",
        "Post_Office": "Pokok Sena",
        "State": "Kedah"
    },
    {
        "Postcode": "06350",
        "Location": "Kampung Tandop",
        "Post_Office": "Pokok Sena",
        "State": "Kedah"
    },
    {
        "Postcode": "06350",
        "Location": "Kampung Tandop Besar",
        "Post_Office": "Pokok Sena",
        "State": "Kedah"
    },
    {
        "Postcode": "06350",
        "Location": "Taman Sri Nerang",
        "Post_Office": "Pokok Sena",
        "State": "Kedah"
    }
]
