[
    {
        "Postcode": "06400",
        "Location": "Kampung Gajah Mati",
        "Post_Office": "Pokok Sena",
        "State": "Kedah"
    },
    {
        "Postcode": "06400",
        "Location": "Kampung Keranji",
        "Post_Office": "Pokok Sena",
        "State": "Kedah"
    },
    {
        "Postcode": "06400",
        "Location": "Taman Kempas",
        "Post_Office": "Pokok Sena",
        "State": "Kedah"
    },
    {
        "Postcode": "06400",
        "Location": "Kampung Pulau Binjal",
        "Post_Office": "Pokok Sena",
        "State": "Kedah"
    },
    {
        "Postcode": "06400",
        "Location": "Kampung Sungai Durian",
        "Post_Office": "Pokok Sena",
        "State": "Kedah"
    },
    {
        "Postcode": "06400",
        "Location": "Kampung Machang Kudung",
        "Post_Office": "Pokok Sena",
        "State": "Kedah"
    },
    {
        "Postcode": "06400",
        "Location": "Taman Angsana",
        "Post_Office": "Pokok Sena",
        "State": "Kedah"
    },
    {
        "Postcode": "06400",
        "Location": "Kampung Banggol",
        "Post_Office": "Pokok Sena",
        "State": "Kedah"
    },
    {
        "Postcode": "06400",
        "Location": "Kampung Belukar",
        "Post_Office": "Pokok Sena",
        "State": "Kedah"
    },
    {
        "Postcode": "06400",
        "Location": "Kampung Bukit Lada",
        "Post_Office": "Pokok Sena",
        "State": "Kedah"
    },
    {
        "Postcode": "06400",
        "Location": "Kampung Huma",
        "Post_Office": "Pokok Sena",
        "State": "Kedah"
    },
    {
        "Postcode": "06400",
        "Location": "Kampung Kepala Bendang",
        "Post_Office": "Pokok Sena",
        "State": "Kedah"
    },
    {
        "Postcode": "06400",
        "Location": "Kampung Kepala Bukit",
        "Post_Office": "Pokok Sena",
        "State": "Kedah"
    },
    {
        "Postcode": "06400",
        "Location": "Kampung Perupuk",
        "Post_Office": "Pokok Sena",
        "State": "Kedah"
    },
    {
        "Postcode": "06400",
        "Location": "Bukit Panjang",
        "Post_Office": "Pokok Sena",
        "State": "Kedah"
    },
    {
        "Postcode": "06400",
        "Location": "Jabi",
        "Post_Office": "Pokok Sena",
        "State": "Kedah"
    },
    {
        "Postcode": "06400",
        "Location": "Kampung Alor China",
        "Post_Office": "Pokok Sena",
        "State": "Kedah"
    },
    {
        "Postcode": "06400",
        "Location": "Kampung Atong",
        "Post_Office": "Pokok Sena",
        "State": "Kedah"
    },
    {
        "Postcode": "06400",
        "Location": "Kampung Banggol Chengal",
        "Post_Office": "Pokok Sena",
        "State": "Kedah"
    },
    {
        "Postcode": "06400",
        "Location": "Kampung Batu 11",
        "Post_Office": "Pokok Sena",
        "State": "Kedah"
    },
    {
        "Postcode": "06400",
        "Location": "Kampung Bendang Bukit",
        "Post_Office": "Pokok Sena",
        "State": "Kedah"
    },
    {
        "Postcode": "06400",
        "Location": "Kampung Bukit Berangan",
        "Post_Office": "Pokok Sena",
        "State": "Kedah"
    },
    {
        "Postcode": "06400",
        "Location": "Kampung Bukit Derang",
        "Post_Office": "Pokok Sena",
        "State": "Kedah"
    },
    {
        "Postcode": "06400",
        "Location": "Kampung Bukit Hijau",
        "Post_Office": "Pokok Sena",
        "State": "Kedah"
    },
    {
        "Postcode": "06400",
        "Location": "Kampung Bukit Lala",
        "Post_Office": "Pokok Sena",
        "State": "Kedah"
    },
    {
        "Postcode": "06400",
        "Location": "Kampung Bukit Pak Kiau",
        "Post_Office": "Pokok Sena",
        "State": "Kedah"
    },
    {
        "Postcode": "06400",
        "Location": "Kampung Bukit Pak Pom",
        "Post_Office": "Pokok Sena",
        "State": "Kedah"
    },
    {
        "Postcode": "06400",
        "Location": "Kampung Bukit Patong",
        "Post_Office": "Pokok Sena",
        "State": "Kedah"
    },
    {
        "Postcode": "06400",
        "Location": "Kampung Bukit Telaga Emas",
        "Post_Office": "Pokok Sena",
        "State": "Kedah"
    },
    {
        "Postcode": "06400",
        "Location": "Kampung Bukit Teriak",
        "Post_Office": "Pokok Sena",
        "State": "Kedah"
    },
    {
        "Postcode": "06400",
        "Location": "Kampung Derang",
        "Post_Office": "Pokok Sena",
        "State": "Kedah"
    },
    {
        "Postcode": "06400",
        "Location": "Kampung Empa",
        "Post_Office": "Pokok Sena",
        "State": "Kedah"
    },
    {
        "Postcode": "06400",
        "Location": "Kampung Gua Ginu",
        "Post_Office": "Pokok Sena",
        "State": "Kedah"
    },
    {
        "Postcode": "06400",
        "Location": "Kampung Huma Besar",
        "Post_Office": "Pokok Sena",
        "State": "Kedah"
    },
    {
        "Postcode": "06400",
        "Location": "Kampung Kedondong",
        "Post_Office": "Pokok Sena",
        "State": "Kedah"
    },
    {
        "Postcode": "06400",
        "Location": "Kampung Kelut",
        "Post_Office": "Pokok Sena",
        "State": "Kedah"
    },
    {
        "Postcode": "06400",
        "Location": "Kampung Khotan",
        "Post_Office": "Pokok Sena",
        "State": "Kedah"
    },
    {
        "Postcode": "06400",
        "Location": "Kampung Kiew",
        "Post_Office": "Pokok Sena",
        "State": "Kedah"
    },
    {
        "Postcode": "06400",
        "Location": "Kampung Kolam",
        "Post_Office": "Pokok Sena",
        "State": "Kedah"
    },
    {
        "Postcode": "06400",
        "Location": "Kampung Kolon",
        "Post_Office": "Pokok Sena",
        "State": "Kedah"
    },
    {
        "Postcode": "06400",
        "Location": "Kampung Kolot",
        "Post_Office": "Pokok Sena",
        "State": "Kedah"
    },
    {
        "Postcode": "06400",
        "Location": "Kampung Kuala Lanjut",
        "Post_Office": "Pokok Sena",
        "State": "Kedah"
    },
    {
        "Postcode": "06400",
        "Location": "Kampung Kuang Buang",
        "Post_Office": "Pokok Sena",
        "State": "Kedah"
    },
    {
        "Postcode": "06400",
        "Location": "Kampung Kubang Pisang",
        "Post_Office": "Pokok Sena",
        "State": "Kedah"
    },
    {
        "Postcode": "06400",
        "Location": "Kampung Lahar Tunjang",
        "Post_Office": "Pokok Sena",
        "State": "Kedah"
    },
    {
        "Postcode": "06400",
        "Location": "Kampung Lamdam",
        "Post_Office": "Pokok Sena",
        "State": "Kedah"
    },
    {
        "Postcode": "06400",
        "Location": "Kampung Lanjut Malau",
        "Post_Office": "Pokok Sena",
        "State": "Kedah"
    },
    {
        "Postcode": "06400",
        "Location": "Kampung Menerong",
        "Post_Office": "Pokok Sena",
        "State": "Kedah"
    },
    {
        "Postcode": "06400",
        "Location": "Kampung Minangkabau",
        "Post_Office": "Pokok Sena",
        "State": "Kedah"
    },
    {
        "Postcode": "06400",
        "Location": "Kampung Nangka Melayu",
        "Post_Office": "Pokok Sena",
        "State": "Kedah"
    },
    {
        "Postcode": "06400",
        "Location": "Kampung Nangka Siam",
        "Post_Office": "Pokok Sena",
        "State": "Kedah"
    },
    {
        "Postcode": "06400",
        "Location": "Kampung Nawa",
        "Post_Office": "Pokok Sena",
        "State": "Kedah"
    },
    {
        "Postcode": "06400",
        "Location": "Kampung Padang Serai",
        "Post_Office": "Pokok Sena",
        "State": "Kedah"
    },
    {
        "Postcode": "06400",
        "Location": "Kampung Padang Tembusu",
        "Post_Office": "Pokok Sena",
        "State": "Kedah"
    },
    {
        "Postcode": "06400",
        "Location": "Kampung Panchor",
        "Post_Office": "Pokok Sena",
        "State": "Kedah"
    },
    {
        "Postcode": "06400",
        "Location": "Kampung Pelanduk Jatuh",
        "Post_Office": "Pokok Sena",
        "State": "Kedah"
    },
    {
        "Postcode": "06400",
        "Location": "Kampung Pokok Pauh",
        "Post_Office": "Pokok Sena",
        "State": "Kedah"
    },
    {
        "Postcode": "06400",
        "Location": "Kampung Pulau Bidin",
        "Post_Office": "Pokok Sena",
        "State": "Kedah"
    },
    {
        "Postcode": "06400",
        "Location": "Kampung Tanjong Musang",
        "Post_Office": "Pokok Sena",
        "State": "Kedah"
    },
    {
        "Postcode": "06400",
        "Location": "Kampung Telaga Mas",
        "Post_Office": "Pokok Sena",
        "State": "Kedah"
    },
    {
        "Postcode": "06400",
        "Location": "Kampung Telok Jamat",
        "Post_Office": "Pokok Sena",
        "State": "Kedah"
    },
    {
        "Postcode": "06400",
        "Location": "Kampung Tok Dam",
        "Post_Office": "Pokok Sena",
        "State": "Kedah"
    },
    {
        "Postcode": "06400",
        "Location": "Kampung Tok Kun",
        "Post_Office": "Pokok Sena",
        "State": "Kedah"
    },
    {
        "Postcode": "06400",
        "Location": "Kampung Tualang",
        "Post_Office": "Pokok Sena",
        "State": "Kedah"
    },
    {
        "Postcode": "06400",
        "Location": "Kampung Tuba",
        "Post_Office": "Pokok Sena",
        "State": "Kedah"
    },
    {
        "Postcode": "06400",
        "Location": "Kampung Yoi",
        "Post_Office": "Pokok Sena",
        "State": "Kedah"
    },
    {
        "Postcode": "06400",
        "Location": "Kebun 500",
        "Post_Office": "Pokok Sena",
        "State": "Kedah"
    },
    {
        "Postcode": "06400",
        "Location": "Pekan Baru",
        "Post_Office": "Pokok Sena",
        "State": "Kedah"
    },
    {
        "Postcode": "06400",
        "Location": "Pokok Sena",
        "Post_Office": "Pokok Sena",
        "State": "Kedah"
    },
    {
        "Postcode": "06400",
        "Location": "Taman Balak Baru 2",
        "Post_Office": "Pokok Sena",
        "State": "Kedah"
    },
    {
        "Postcode": "06400",
        "Location": "Taman Bunga Sena",
        "Post_Office": "Pokok Sena",
        "State": "Kedah"
    },
    {
        "Postcode": "06400",
        "Location": "Taman Nangka Madu",
        "Post_Office": "Pokok Sena",
        "State": "Kedah"
    },
    {
        "Postcode": "06400",
        "Location": "Taman Sena Impian",
        "Post_Office": "Pokok Sena",
        "State": "Kedah"
    }
]
