[
    {
        "Postcode": "06500",
        "Location": "Jalan Masjid",
        "Post_Office": "Langgar",
        "State": "Kedah"
    },
    {
        "Postcode": "06500",
        "Location": "Kampung Alor Besar",
        "Post_Office": "Langgar",
        "State": "Kedah"
    },
    {
        "Postcode": "06500",
        "Location": "Kampung Alor Gandak",
        "Post_Office": "Langgar",
        "State": "Kedah"
    },
    {
        "Postcode": "06500",
        "Location": "Kampung Hijrah",
        "Post_Office": "Langgar",
        "State": "Kedah"
    },
    {
        "Postcode": "06500",
        "Location": "Kampung Hutan Gelam",
        "Post_Office": "Langgar",
        "State": "Kedah"
    },
    {
        "Postcode": "06500",
        "Location": "Kampung Tok Pauh",
        "Post_Office": "Langgar",
        "State": "Kedah"
    },
    {
        "Postcode": "06500",
        "Location": "Kampung Pagar Air",
        "Post_Office": "Langgar",
        "State": "Kedah"
    },
    {
        "Postcode": "06500",
        "Location": "Kampung Titi Haji Idris",
        "Post_Office": "Langgar",
        "State": "Kedah"
    },
    {
        "Postcode": "06500",
        "Location": "Kampung Lubuk Keriang",
        "Post_Office": "Langgar",
        "State": "Kedah"
    },
    {
        "Postcode": "06500",
        "Location": "Kampung Alor Jawi",
        "Post_Office": "Langgar",
        "State": "Kedah"
    },
    {
        "Postcode": "06500",
        "Location": "Taman Lelasari",
        "Post_Office": "Langgar",
        "State": "Kedah"
    },
    {
        "Postcode": "06500",
        "Location": "Taman Malinja",
        "Post_Office": "Langgar",
        "State": "Kedah"
    },
    {
        "Postcode": "06500",
        "Location": "Taman Malinja Fasa 2",
        "Post_Office": "Langgar",
        "State": "Kedah"
    },
    {
        "Postcode": "06500",
        "Location": "Taman Sri Kota",
        "Post_Office": "Langgar",
        "State": "Kedah"
    },
    {
        "Postcode": "06500",
        "Location": "Taman Suri",
        "Post_Office": "Langgar",
        "State": "Kedah"
    },
    {
        "Postcode": "06500",
        "Location": "Taman Terantai",
        "Post_Office": "Langgar",
        "State": "Kedah"
    },
    {
        "Postcode": "06500",
        "Location": "Taman Vistana",
        "Post_Office": "Langgar",
        "State": "Kedah"
    },
    {
        "Postcode": "06500",
        "Location": "Taman Vistana Fasa 2",
        "Post_Office": "Langgar",
        "State": "Kedah"
    },
    {
        "Postcode": "06500",
        "Location": "Jalan Datuk Kumbar (Batu 4 3/4 - 10)",
        "Post_Office": "Langgar",
        "State": "Kedah"
    },
    {
        "Postcode": "06500",
        "Location": "Kampung Alor Gelam",
        "Post_Office": "Langgar",
        "State": "Kedah"
    },
    {
        "Postcode": "06500",
        "Location": "Kampung Alor Keladi",
        "Post_Office": "Langgar",
        "State": "Kedah"
    },
    {
        "Postcode": "06500",
        "Location": "Kampung Alor Melentang",
        "Post_Office": "Langgar",
        "State": "Kedah"
    },
    {
        "Postcode": "06500",
        "Location": "Kampung Alor Pak Ngah",
        "Post_Office": "Langgar",
        "State": "Kedah"
    },
    {
        "Postcode": "06500",
        "Location": "Kampung Alor Raja",
        "Post_Office": "Langgar",
        "State": "Kedah"
    },
    {
        "Postcode": "06500",
        "Location": "Kampung Alor Rela",
        "Post_Office": "Langgar",
        "State": "Kedah"
    },
    {
        "Postcode": "06500",
        "Location": "Kampung Alor Saga",
        "Post_Office": "Langgar",
        "State": "Kedah"
    },
    {
        "Postcode": "06500",
        "Location": "Kampung Alor Sekawan",
        "Post_Office": "Langgar",
        "State": "Kedah"
    },
    {
        "Postcode": "06500",
        "Location": "Kampung Alor Senibong",
        "Post_Office": "Langgar",
        "State": "Kedah"
    },
    {
        "Postcode": "06500",
        "Location": "Kampung Alor Setol",
        "Post_Office": "Langgar",
        "State": "Kedah"
    },
    {
        "Postcode": "06500",
        "Location": "Kampung Alor Tebuan",
        "Post_Office": "Langgar",
        "State": "Kedah"
    },
    {
        "Postcode": "06500",
        "Location": "Kampung Baru Kepala Kota",
        "Post_Office": "Langgar",
        "State": "Kedah"
    },
    {
        "Postcode": "06500",
        "Location": "Kampung Haji Naik Kayu",
        "Post_Office": "Langgar",
        "State": "Kedah"
    },
    {
        "Postcode": "06500",
        "Location": "Kampung Jelai (Simpang 4)",
        "Post_Office": "Langgar",
        "State": "Kedah"
    },
    {
        "Postcode": "06500",
        "Location": "Kampung Juara Tua",
        "Post_Office": "Langgar",
        "State": "Kedah"
    },
    {
        "Postcode": "06500",
        "Location": "Kampung Kandai",
        "Post_Office": "Langgar",
        "State": "Kedah"
    },
    {
        "Postcode": "06500",
        "Location": "Kampung Keramat",
        "Post_Office": "Langgar",
        "State": "Kedah"
    },
    {
        "Postcode": "06500",
        "Location": "Kampung Kuar",
        "Post_Office": "Langgar",
        "State": "Kedah"
    },
    {
        "Postcode": "06500",
        "Location": "Kampung Limbong",
        "Post_Office": "Langgar",
        "State": "Kedah"
    },
    {
        "Postcode": "06500",
        "Location": "Kampung Makam",
        "Post_Office": "Langgar",
        "State": "Kedah"
    },
    {
        "Postcode": "06500",
        "Location": "Kampung Padang Petani",
        "Post_Office": "Langgar",
        "State": "Kedah"
    },
    {
        "Postcode": "06500",
        "Location": "Kampung Padang Tajar",
        "Post_Office": "Langgar",
        "State": "Kedah"
    },
    {
        "Postcode": "06500",
        "Location": "Kampung Padang Tepus",
        "Post_Office": "Langgar",
        "State": "Kedah"
    },
    {
        "Postcode": "06500",
        "Location": "Kampung Pantai Jamai",
        "Post_Office": "Langgar",
        "State": "Kedah"
    },
    {
        "Postcode": "06500",
        "Location": "Kampung Permatang Limau",
        "Post_Office": "Langgar",
        "State": "Kedah"
    },
    {
        "Postcode": "06500",
        "Location": "Kampung Pokok Asam",
        "Post_Office": "Langgar",
        "State": "Kedah"
    },
    {
        "Postcode": "06500",
        "Location": "Kampung Pondok Tasak",
        "Post_Office": "Langgar",
        "State": "Kedah"
    },
    {
        "Postcode": "06500",
        "Location": "Kampung Sungai Mati",
        "Post_Office": "Langgar",
        "State": "Kedah"
    },
    {
        "Postcode": "06500",
        "Location": "Kampung Tajar",
        "Post_Office": "Langgar",
        "State": "Kedah"
    },
    {
        "Postcode": "06500",
        "Location": "Kampung Tanjong Inggeris",
        "Post_Office": "Langgar",
        "State": "Kedah"
    },
    {
        "Postcode": "06500",
        "Location": "Kampung Telaga Bata",
        "Post_Office": "Langgar",
        "State": "Kedah"
    },
    {
        "Postcode": "06500",
        "Location": "Kampung Terong Asam",
        "Post_Office": "Langgar",
        "State": "Kedah"
    },
    {
        "Postcode": "06500",
        "Location": "Kampung Tok Sibil",
        "Post_Office": "Langgar",
        "State": "Kedah"
    },
    {
        "Postcode": "06500",
        "Location": "Kampung Tok Temenggong",
        "Post_Office": "Langgar",
        "State": "Kedah"
    },
    {
        "Postcode": "06500",
        "Location": "Langgar",
        "Post_Office": "Langgar",
        "State": "Kedah"
    },
    {
        "Postcode": "06500",
        "Location": "Taman Indah",
        "Post_Office": "Langgar",
        "State": "Kedah"
    }
]
