[
    {
        "Postcode": "06550",
        "Location": "Taman Seri Aman",
        "Post_Office": "Alor Setar",
        "State": "Kedah"
    },
    {
        "Postcode": "06550",
        "Location": "Taman Kancil",
        "Post_Office": "Alor Setar",
        "State": "Kedah"
    },
    {
        "Postcode": "06550",
        "Location": "Taman Laman Kuda",
        "Post_Office": "Alor Setar",
        "State": "Kedah"
    },
    {
        "Postcode": "06550",
        "Location": "Anak Bukit",
        "Post_Office": "Alor Setar",
        "State": "Kedah"
    },
    {
        "Postcode": "06550",
        "Location": "Jalan Anak Bukit",
        "Post_Office": "Alor Setar",
        "State": "Kedah"
    },
    {
        "Postcode": "06550",
        "Location": "Kampung Alor Senjaya",
        "Post_Office": "Alor Setar",
        "State": "Kedah"
    },
    {
        "Postcode": "06550",
        "Location": "Kampung Pak Putih",
        "Post_Office": "Alor Setar",
        "State": "Kedah"
    },
    {
        "Postcode": "06550",
        "Location": "Kampung Titi Gajah",
        "Post_Office": "Alor Setar",
        "State": "Kedah"
    },
    {
        "Postcode": "06550",
        "Location": "Kampung Tok Din",
        "Post_Office": "Alor Setar",
        "State": "Kedah"
    },
    {
        "Postcode": "06550",
        "Location": "Kampung Tunku Lat",
        "Post_Office": "Alor Setar",
        "State": "Kedah"
    },
    {
        "Postcode": "06550",
        "Location": "Laman Lumba Kuda",
        "Post_Office": "Alor Setar",
        "State": "Kedah"
    },
    {
        "Postcode": "06550",
        "Location": "Lorong Seri Kota",
        "Post_Office": "Alor Setar",
        "State": "Kedah"
    },
    {
        "Postcode": "06550",
        "Location": "Taman Berlian",
        "Post_Office": "Alor Setar",
        "State": "Kedah"
    },
    {
        "Postcode": "06550",
        "Location": "Taman Desa Mutiara",
        "Post_Office": "Alor Setar",
        "State": "Kedah"
    },
    {
        "Postcode": "06550",
        "Location": "Taman Mas Merah",
        "Post_Office": "Alor Setar",
        "State": "Kedah"
    },
    {
        "Postcode": "06550",
        "Location": "Taman Seri Jelapang",
        "Post_Office": "Alor Setar",
        "State": "Kedah"
    },
    {
        "Postcode": "06550",
        "Location": "Taman Tengku Bendahara",
        "Post_Office": "Alor Setar",
        "State": "Kedah"
    },
    {
        "Postcode": "06550",
        "Location": "Taman Titi Gajah",
        "Post_Office": "Alor Setar",
        "State": "Kedah"
    },
    {
        "Postcode": "06550",
        "Location": "Taman Tunku Bendahara",
        "Post_Office": "Alor Setar",
        "State": "Kedah"
    }
]
