[
    {
        "Postcode": "06570",
        "Location": "Kampung Gelong Air",
        "Post_Office": "Alor Setar",
        "State": "Kedah"
    },
    {
        "Postcode": "06570",
        "Location": "Kampung Matang Kong Bawah",
        "Post_Office": "Alor Setar",
        "State": "Kedah"
    },
    {
        "Postcode": "06570",
        "Location": "Kampung Matang Pukang",
        "Post_Office": "Alor Setar",
        "State": "Kedah"
    },
    {
        "Postcode": "06570",
        "Location": "Kampung Teluk Binasa",
        "Post_Office": "Alor Setar",
        "State": "Kedah"
    },
    {
        "Postcode": "06570",
        "Location": "Kampung Teluk Jawa",
        "Post_Office": "Alor Setar",
        "State": "Kedah"
    },
    {
        "Postcode": "06570",
        "Location": "Kampung Teluk Seme",
        "Post_Office": "Alor Setar",
        "State": "Kedah"
    },
    {
        "Postcode": "06570",
        "Location": "Kampung Tengah A",
        "Post_Office": "Alor Setar",
        "State": "Kedah"
    },
    {
        "Postcode": "06570",
        "Location": "Kampung Tengah B",
        "Post_Office": "Alor Setar",
        "State": "Kedah"
    },
    {
        "Postcode": "06570",
        "Location": "Kampung Sematang Gunung",
        "Post_Office": "Alor Setar",
        "State": "Kedah"
    },
    {
        "Postcode": "06570",
        "Location": "Matang Kong Bawah",
        "Post_Office": "Alor Setar",
        "State": "Kedah"
    },
    {
        "Postcode": "06570",
        "Location": "Kampung Simpang Tiga",
        "Post_Office": "Alor Setar",
        "State": "Kedah"
    },
    {
        "Postcode": "06570",
        "Location": "Gunung Keriang",
        "Post_Office": "Alor Setar",
        "State": "Kedah"
    },
    {
        "Postcode": "06570",
        "Location": "Jalan Permatang Gunung",
        "Post_Office": "Alor Setar",
        "State": "Kedah"
    },
    {
        "Postcode": "06570",
        "Location": "Kampung Alor Gonchar",
        "Post_Office": "Alor Setar",
        "State": "Kedah"
    },
    {
        "Postcode": "06570",
        "Location": "Kampung Kubang Raja",
        "Post_Office": "Alor Setar",
        "State": "Kedah"
    },
    {
        "Postcode": "06570",
        "Location": "Kampung Kubang Teduh",
        "Post_Office": "Alor Setar",
        "State": "Kedah"
    },
    {
        "Postcode": "06570",
        "Location": "Kampung Matang Kong Atas",
        "Post_Office": "Alor Setar",
        "State": "Kedah"
    },
    {
        "Postcode": "06570",
        "Location": "Matang Kong",
        "Post_Office": "Alor Setar",
        "State": "Kedah"
    },
    {
        "Postcode": "06570",
        "Location": "Teluk Junus",
        "Post_Office": "Alor Setar",
        "State": "Kedah"
    },
    {
        "Postcode": "06570",
        "Location": "Titi Gajah (Batu 6 1/2)",
        "Post_Office": "Alor Setar",
        "State": "Kedah"
    }
]
