[
    {
        "Postcode": "06600",
        "Location": "Kampung Cina",
        "Post_Office": "Kuala Kedah",
        "State": "Kedah"
    },
    {
        "Postcode": "06600",
        "Location": "Kampung Pajak",
        "Post_Office": "Kuala Kedah",
        "State": "Kedah"
    },
    {
        "Postcode": "06600",
        "Location": "Kampung Perlis",
        "Post_Office": "Kuala Kedah",
        "State": "Kedah"
    },
    {
        "Postcode": "06600",
        "Location": "Kampung Tepi Laut",
        "Post_Office": "Kuala Kedah",
        "State": "Kedah"
    },
    {
        "Postcode": "06600",
        "Location": "Taman Kekwa",
        "Post_Office": "Kuala Kedah",
        "State": "Kedah"
    },
    {
        "Postcode": "06600",
        "Location": "Kampung Tok Kong",
        "Post_Office": "Kuala Kedah",
        "State": "Kedah"
    },
    {
        "Postcode": "06600",
        "Location": "Kampung Hujung",
        "Post_Office": "Kuala Kedah",
        "State": "Kedah"
    },
    {
        "Postcode": "06600",
        "Location": "Kampung Kilang Ais",
        "Post_Office": "Kuala Kedah",
        "State": "Kedah"
    },
    {
        "Postcode": "06600",
        "Location": "Taman Desa Chengai Indah",
        "Post_Office": "Kuala Kedah",
        "State": "Kedah"
    },
    {
        "Postcode": "06600",
        "Location": "Taman Desarena 2",
        "Post_Office": "Kuala Kedah",
        "State": "Kedah"
    },
    {
        "Postcode": "06600",
        "Location": "Telok Kechai",
        "Post_Office": "Kuala Kedah",
        "State": "Kedah"
    },
    {
        "Postcode": "06600",
        "Location": "Kampung Alor Pulai",
        "Post_Office": "Kuala Kedah",
        "State": "Kedah"
    },
    {
        "Postcode": "06600",
        "Location": "Kampung Padang Raja",
        "Post_Office": "Kuala Kedah",
        "State": "Kedah"
    },
    {
        "Postcode": "06600",
        "Location": "Kampung Seberang Alor",
        "Post_Office": "Kuala Kedah",
        "State": "Kedah"
    },
    {
        "Postcode": "06600",
        "Location": "Taman Harapan",
        "Post_Office": "Kuala Kedah",
        "State": "Kedah"
    },
    {
        "Postcode": "06600",
        "Location": "Taman Melati",
        "Post_Office": "Kuala Kedah",
        "State": "Kedah"
    },
    {
        "Postcode": "06600",
        "Location": "Taman Sepakat",
        "Post_Office": "Kuala Kedah",
        "State": "Kedah"
    },
    {
        "Postcode": "06600",
        "Location": "Taman Sri Abadi",
        "Post_Office": "Kuala Kedah",
        "State": "Kedah"
    },
    {
        "Postcode": "06600",
        "Location": "Taman Bersatu A",
        "Post_Office": "Kuala Kedah",
        "State": "Kedah"
    },
    {
        "Postcode": "06600",
        "Location": "Taman Bersatu B",
        "Post_Office": "Kuala Kedah",
        "State": "Kedah"
    },
    {
        "Postcode": "06600",
        "Location": "Taman Perpaduan 1",
        "Post_Office": "Kuala Kedah",
        "State": "Kedah"
    },
    {
        "Postcode": "06600",
        "Location": "Taman Perpaduan 2",
        "Post_Office": "Kuala Kedah",
        "State": "Kedah"
    },
    {
        "Postcode": "06600",
        "Location": "Taman Bahtera",
        "Post_Office": "Kuala Kedah",
        "State": "Kedah"
    },
    {
        "Postcode": "06600",
        "Location": "Taman Juragan",
        "Post_Office": "Kuala Kedah",
        "State": "Kedah"
    },
    {
        "Postcode": "06600",
        "Location": "Taman Kemudi",
        "Post_Office": "Kuala Kedah",
        "State": "Kedah"
    },
    {
        "Postcode": "06600",
        "Location": "Taman Layar",
        "Post_Office": "Kuala Kedah",
        "State": "Kedah"
    },
    {
        "Postcode": "06600",
        "Location": "Taman Nusantara",
        "Post_Office": "Kuala Kedah",
        "State": "Kedah"
    },
    {
        "Postcode": "06600",
        "Location": "Taman Terumbu Indah",
        "Post_Office": "Kuala Kedah",
        "State": "Kedah"
    },
    {
        "Postcode": "06600",
        "Location": "Alor Ibus Tepi Laut",
        "Post_Office": "Kuala Kedah",
        "State": "Kedah"
    },
    {
        "Postcode": "06600",
        "Location": "Kampung Alor Ibus",
        "Post_Office": "Kuala Kedah",
        "State": "Kedah"
    },
    {
        "Postcode": "06600",
        "Location": "Kampung Balai",
        "Post_Office": "Kuala Kedah",
        "State": "Kedah"
    },
    {
        "Postcode": "06600",
        "Location": "Kampung Batas Paip",
        "Post_Office": "Kuala Kedah",
        "State": "Kedah"
    },
    {
        "Postcode": "06600",
        "Location": "Kampung Berembang Panjang",
        "Post_Office": "Kuala Kedah",
        "State": "Kedah"
    },
    {
        "Postcode": "06600",
        "Location": "Kampung Darat",
        "Post_Office": "Kuala Kedah",
        "State": "Kedah"
    },
    {
        "Postcode": "06600",
        "Location": "Kampung Hujung Sungai",
        "Post_Office": "Kuala Kedah",
        "State": "Kedah"
    },
    {
        "Postcode": "06600",
        "Location": "Kampung Hulu",
        "Post_Office": "Kuala Kedah",
        "State": "Kedah"
    },
    {
        "Postcode": "06600",
        "Location": "Kampung Hutan Putus",
        "Post_Office": "Kuala Kedah",
        "State": "Kedah"
    },
    {
        "Postcode": "06600",
        "Location": "Kampung Madrasah",
        "Post_Office": "Kuala Kedah",
        "State": "Kedah"
    },
    {
        "Postcode": "06600",
        "Location": "Kampung Masjid Lama",
        "Post_Office": "Kuala Kedah",
        "State": "Kedah"
    },
    {
        "Postcode": "06600",
        "Location": "Kampung Megat Ali",
        "Post_Office": "Kuala Kedah",
        "State": "Kedah"
    },
    {
        "Postcode": "06600",
        "Location": "Kampung Padang Garam",
        "Post_Office": "Kuala Kedah",
        "State": "Kedah"
    },
    {
        "Postcode": "06600",
        "Location": "Kampung Pergam",
        "Post_Office": "Kuala Kedah",
        "State": "Kedah"
    },
    {
        "Postcode": "06600",
        "Location": "Kampung Seberang Kota",
        "Post_Office": "Kuala Kedah",
        "State": "Kedah"
    },
    {
        "Postcode": "06600",
        "Location": "Kampung Selarong Batak",
        "Post_Office": "Kuala Kedah",
        "State": "Kedah"
    },
    {
        "Postcode": "06600",
        "Location": "Kampung Sematang Pinang",
        "Post_Office": "Kuala Kedah",
        "State": "Kedah"
    },
    {
        "Postcode": "06600",
        "Location": "Kampung Sungai Badang",
        "Post_Office": "Kuala Kedah",
        "State": "Kedah"
    },
    {
        "Postcode": "06600",
        "Location": "Kampung Sungai Mati",
        "Post_Office": "Kuala Kedah",
        "State": "Kedah"
    },
    {
        "Postcode": "06600",
        "Location": "Kampung Sungai Nonang",
        "Post_Office": "Kuala Kedah",
        "State": "Kedah"
    },
    {
        "Postcode": "06600",
        "Location": "Kampung Sungai Papan",
        "Post_Office": "Kuala Kedah",
        "State": "Kedah"
    },
    {
        "Postcode": "06600",
        "Location": "Kampung Tebengau",
        "Post_Office": "Kuala Kedah",
        "State": "Kedah"
    },
    {
        "Postcode": "06600",
        "Location": "Kampung Telok Bulang",
        "Post_Office": "Kuala Kedah",
        "State": "Kedah"
    },
    {
        "Postcode": "06600",
        "Location": "Kampung Telok Layang",
        "Post_Office": "Kuala Kedah",
        "State": "Kedah"
    },
    {
        "Postcode": "06600",
        "Location": "Kampung Tengah",
        "Post_Office": "Kuala Kedah",
        "State": "Kedah"
    },
    {
        "Postcode": "06600",
        "Location": "Kampung Tengah (Telok Kechai)",
        "Post_Office": "Kuala Kedah",
        "State": "Kedah"
    },
    {
        "Postcode": "06600",
        "Location": "Kampung Tok Pasai",
        "Post_Office": "Kuala Kedah",
        "State": "Kedah"
    },
    {
        "Postcode": "06600",
        "Location": "Kampung Tok Song",
        "Post_Office": "Kuala Kedah",
        "State": "Kedah"
    },
    {
        "Postcode": "06600",
        "Location": "Kompleks Peruda",
        "Post_Office": "Kuala Kedah",
        "State": "Kedah"
    },
    {
        "Postcode": "06600",
        "Location": "Kuala Kedah",
        "Post_Office": "Kuala Kedah",
        "State": "Kedah"
    },
    {
        "Postcode": "06600",
        "Location": "Lorong Air Masin",
        "Post_Office": "Kuala Kedah",
        "State": "Kedah"
    },
    {
        "Postcode": "06600",
        "Location": "Seberang Kampung Baru",
        "Post_Office": "Kuala Kedah",
        "State": "Kedah"
    },
    {
        "Postcode": "06600",
        "Location": "Sementang Tepi Laut",
        "Post_Office": "Kuala Kedah",
        "State": "Kedah"
    },
    {
        "Postcode": "06600",
        "Location": "Taman Desarina 2",
        "Post_Office": "Kuala Kedah",
        "State": "Kedah"
    },
    {
        "Postcode": "06600",
        "Location": "Taman Indah",
        "Post_Office": "Kuala Kedah",
        "State": "Kedah"
    },
    {
        "Postcode": "06600",
        "Location": "Taman Marina",
        "Post_Office": "Kuala Kedah",
        "State": "Kedah"
    },
    {
        "Postcode": "06600",
        "Location": "Taman Merpati",
        "Post_Office": "Kuala Kedah",
        "State": "Kedah"
    },
    {
        "Postcode": "06600",
        "Location": "Taman Nakhoda",
        "Post_Office": "Kuala Kedah",
        "State": "Kedah"
    },
    {
        "Postcode": "06600",
        "Location": "Taman Restu",
        "Post_Office": "Kuala Kedah",
        "State": "Kedah"
    },
    {
        "Postcode": "06600",
        "Location": "Taman Ria",
        "Post_Office": "Kuala Kedah",
        "State": "Kedah"
    },
    {
        "Postcode": "06600",
        "Location": "Taman Ria (Jalan Kuala Kedah)",
        "Post_Office": "Kuala Kedah",
        "State": "Kedah"
    },
    {
        "Postcode": "06600",
        "Location": "Taman Seri Putra",
        "Post_Office": "Kuala Kedah",
        "State": "Kedah"
    },
    {
        "Postcode": "06600",
        "Location": "Taman Sri Idaman",
        "Post_Office": "Kuala Kedah",
        "State": "Kedah"
    },
    {
        "Postcode": "06600",
        "Location": "Telok Telipon",
        "Post_Office": "Kuala Kedah",
        "State": "Kedah"
    },
    {
        "Postcode": "06600",
        "Location": "Teluk Chengai",
        "Post_Office": "Kuala Kedah",
        "State": "Kedah"
    }
]
