[
    {
        "Postcode": "06650",
        "Location": "Kampung Sala Kecil",
        "Post_Office": "Simpang Empat",
        "State": "Kedah"
    },
    {
        "Postcode": "06650",
        "Location": "Kampung Tok Pauh",
        "Post_Office": "Simpang Empat",
        "State": "Kedah"
    },
    {
        "Postcode": "06650",
        "Location": "Kampung Lahar Kepala Buaya",
        "Post_Office": "Simpang Empat",
        "State": "Kedah"
    },
    {
        "Postcode": "06650",
        "Location": "Kampung Pisang",
        "Post_Office": "Simpang Empat",
        "State": "Kedah"
    },
    {
        "Postcode": "06650",
        "Location": "Simpang Empat",
        "Post_Office": "Simpang Empat",
        "State": "Kedah"
    },
    {
        "Postcode": "06650",
        "Location": "Kampung 15 Relong",
        "Post_Office": "Simpang Empat",
        "State": "Kedah"
    },
    {
        "Postcode": "06650",
        "Location": "Kampung 20 Relong",
        "Post_Office": "Simpang Empat",
        "State": "Kedah"
    },
    {
        "Postcode": "06650",
        "Location": "Kampung 30 Relong",
        "Post_Office": "Simpang Empat",
        "State": "Kedah"
    },
    {
        "Postcode": "06650",
        "Location": "Kampung Ah Piew",
        "Post_Office": "Simpang Empat",
        "State": "Kedah"
    },
    {
        "Postcode": "06650",
        "Location": "Kampung Alor Ali",
        "Post_Office": "Simpang Empat",
        "State": "Kedah"
    },
    {
        "Postcode": "06650",
        "Location": "Kampung Alor Mengkuang",
        "Post_Office": "Simpang Empat",
        "State": "Kedah"
    },
    {
        "Postcode": "06650",
        "Location": "Kampung Baru Tokai",
        "Post_Office": "Simpang Empat",
        "State": "Kedah"
    },
    {
        "Postcode": "06650",
        "Location": "Kampung Batu 8 Tokai",
        "Post_Office": "Simpang Empat",
        "State": "Kedah"
    },
    {
        "Postcode": "06650",
        "Location": "Kampung Benua",
        "Post_Office": "Simpang Empat",
        "State": "Kedah"
    },
    {
        "Postcode": "06650",
        "Location": "Kampung Dalam Baroh",
        "Post_Office": "Simpang Empat",
        "State": "Kedah"
    },
    {
        "Postcode": "06650",
        "Location": "Kampung Jelai",
        "Post_Office": "Simpang Empat",
        "State": "Kedah"
    },
    {
        "Postcode": "06650",
        "Location": "Kampung Kepala Parit",
        "Post_Office": "Simpang Empat",
        "State": "Kedah"
    },
    {
        "Postcode": "06650",
        "Location": "Kampung Kubang Jelai",
        "Post_Office": "Simpang Empat",
        "State": "Kedah"
    },
    {
        "Postcode": "06650",
        "Location": "Kampung Kubang Pasu",
        "Post_Office": "Simpang Empat",
        "State": "Kedah"
    },
    {
        "Postcode": "06650",
        "Location": "Kampung Masjid Tokai",
        "Post_Office": "Simpang Empat",
        "State": "Kedah"
    },
    {
        "Postcode": "06650",
        "Location": "Kampung Padang Jambu",
        "Post_Office": "Simpang Empat",
        "State": "Kedah"
    },
    {
        "Postcode": "06650",
        "Location": "Kampung Permatang Iblis",
        "Post_Office": "Simpang Empat",
        "State": "Kedah"
    },
    {
        "Postcode": "06650",
        "Location": "Kampung Pulai (Simpang Empat)",
        "Post_Office": "Simpang Empat",
        "State": "Kedah"
    },
    {
        "Postcode": "06650",
        "Location": "Kampung Rambai",
        "Post_Office": "Simpang Empat",
        "State": "Kedah"
    },
    {
        "Postcode": "06650",
        "Location": "Kampung Senggora",
        "Post_Office": "Simpang Empat",
        "State": "Kedah"
    },
    {
        "Postcode": "06650",
        "Location": "Kampung Tokai",
        "Post_Office": "Simpang Empat",
        "State": "Kedah"
    },
    {
        "Postcode": "06650",
        "Location": "Kangkong",
        "Post_Office": "Simpang Empat",
        "State": "Kedah"
    },
    {
        "Postcode": "06650",
        "Location": "Kota Kangkong",
        "Post_Office": "Simpang Empat",
        "State": "Kedah"
    },
    {
        "Postcode": "06650",
        "Location": "Taman Bersatu",
        "Post_Office": "Simpang Empat",
        "State": "Kedah"
    },
    {
        "Postcode": "06650",
        "Location": "Taman Bersatu (Kuala Kedah)",
        "Post_Office": "Simpang Empat",
        "State": "Kedah"
    },
    {
        "Postcode": "06650",
        "Location": "Taman Bersatu (Simpang Empat)",
        "Post_Office": "Simpang Empat",
        "State": "Kedah"
    }
]
