[
    {
        "Postcode": "06700",
        "Location": "Kampung Alor Pudak",
        "Post_Office": "Pendang",
        "State": "Kedah"
    },
    {
        "Postcode": "06700",
        "Location": "Kampung Asam Jawa",
        "Post_Office": "Pendang",
        "State": "Kedah"
    },
    {
        "Postcode": "06700",
        "Location": "Kampung Balik Bukit",
        "Post_Office": "Pendang",
        "State": "Kedah"
    },
    {
        "Postcode": "06700",
        "Location": "Kampung Gajah Mati",
        "Post_Office": "Pendang",
        "State": "Kedah"
    },
    {
        "Postcode": "06700",
        "Location": "Kampung Keranji",
        "Post_Office": "Pendang",
        "State": "Kedah"
    },
    {
        "Postcode": "06700",
        "Location": "Kampung Kubang Badak",
        "Post_Office": "Pendang",
        "State": "Kedah"
    },
    {
        "Postcode": "06700",
        "Location": "Kampung Paya Kelubi",
        "Post_Office": "Pendang",
        "State": "Kedah"
    },
    {
        "Postcode": "06700",
        "Location": "Kampung Paya Kerchut",
        "Post_Office": "Pendang",
        "State": "Kedah"
    },
    {
        "Postcode": "06700",
        "Location": "Kampung Petani",
        "Post_Office": "Pendang",
        "State": "Kedah"
    },
    {
        "Postcode": "06700",
        "Location": "Kampung Telok Wang",
        "Post_Office": "Pendang",
        "State": "Kedah"
    },
    {
        "Postcode": "06700",
        "Location": "Kampung Tempoyak",
        "Post_Office": "Pendang",
        "State": "Kedah"
    },
    {
        "Postcode": "06700",
        "Location": "Tanah Merah",
        "Post_Office": "Pendang",
        "State": "Kedah"
    },
    {
        "Postcode": "06700",
        "Location": "Kampung Bechah",
        "Post_Office": "Pendang",
        "State": "Kedah"
    },
    {
        "Postcode": "06700",
        "Location": "Kampung Charok Pinang",
        "Post_Office": "Pendang",
        "State": "Kedah"
    },
    {
        "Postcode": "06700",
        "Location": "Kampung Charok Umar",
        "Post_Office": "Pendang",
        "State": "Kedah"
    },
    {
        "Postcode": "06700",
        "Location": "Kampung Chelong",
        "Post_Office": "Pendang",
        "State": "Kedah"
    },
    {
        "Postcode": "06700",
        "Location": "Kampung Kilang Kecik",
        "Post_Office": "Pendang",
        "State": "Kedah"
    },
    {
        "Postcode": "06700",
        "Location": "Kampung Bahagia\r\n",
        "Post_Office": "Pendang",
        "State": "Kedah"
    },
    {
        "Postcode": "06700",
        "Location": "Kampung Banggol",
        "Post_Office": "Pendang",
        "State": "Kedah"
    },
    {
        "Postcode": "06700",
        "Location": "Kampung Banggol Petai",
        "Post_Office": "Pendang",
        "State": "Kedah"
    },
    {
        "Postcode": "06700",
        "Location": "Kampung Batu 20",
        "Post_Office": "Pendang",
        "State": "Kedah"
    },
    {
        "Postcode": "06700",
        "Location": "Kampung Batu Hampar",
        "Post_Office": "Pendang",
        "State": "Kedah"
    },
    {
        "Postcode": "06700",
        "Location": "Kampung Belukar",
        "Post_Office": "Pendang",
        "State": "Kedah"
    },
    {
        "Postcode": "06700",
        "Location": "Kampung Chegar",
        "Post_Office": "Pendang",
        "State": "Kedah"
    },
    {
        "Postcode": "06700",
        "Location": "Kampung Gelong Gajah",
        "Post_Office": "Pendang",
        "State": "Kedah"
    },
    {
        "Postcode": "06700",
        "Location": "Kampung Kepala Bukit",
        "Post_Office": "Pendang",
        "State": "Kedah"
    },
    {
        "Postcode": "06700",
        "Location": "Kampung Lubok Gajah",
        "Post_Office": "Pendang",
        "State": "Kedah"
    },
    {
        "Postcode": "06700",
        "Location": "Bukit Raya",
        "Post_Office": "Pendang",
        "State": "Kedah"
    },
    {
        "Postcode": "06700",
        "Location": "Guar Kepayang",
        "Post_Office": "Pendang",
        "State": "Kedah"
    },
    {
        "Postcode": "06700",
        "Location": "Kampung Alor Berhala",
        "Post_Office": "Pendang",
        "State": "Kedah"
    },
    {
        "Postcode": "06700",
        "Location": "Kampung Alor Parit",
        "Post_Office": "Pendang",
        "State": "Kedah"
    },
    {
        "Postcode": "06700",
        "Location": "Kampung Alor Pauh",
        "Post_Office": "Pendang",
        "State": "Kedah"
    },
    {
        "Postcode": "06700",
        "Location": "Kampung Alor Pering",
        "Post_Office": "Pendang",
        "State": "Kedah"
    },
    {
        "Postcode": "06700",
        "Location": "Kampung Alor Punti",
        "Post_Office": "Pendang",
        "State": "Kedah"
    },
    {
        "Postcode": "06700",
        "Location": "Kampung Ayer Puteh",
        "Post_Office": "Pendang",
        "State": "Kedah"
    },
    {
        "Postcode": "06700",
        "Location": "Kampung Banggok Kambing",
        "Post_Office": "Pendang",
        "State": "Kedah"
    },
    {
        "Postcode": "06700",
        "Location": "Kampung Banggol Belimbing",
        "Post_Office": "Pendang",
        "State": "Kedah"
    },
    {
        "Postcode": "06700",
        "Location": "Kampung Banggol Besi",
        "Post_Office": "Pendang",
        "State": "Kedah"
    },
    {
        "Postcode": "06700",
        "Location": "Kampung Banggol Ibus",
        "Post_Office": "Pendang",
        "State": "Kedah"
    },
    {
        "Postcode": "06700",
        "Location": "Kampung Banggol Jali",
        "Post_Office": "Pendang",
        "State": "Kedah"
    },
    {
        "Postcode": "06700",
        "Location": "Kampung Banggol Kambing",
        "Post_Office": "Pendang",
        "State": "Kedah"
    },
    {
        "Postcode": "06700",
        "Location": "Kampung Banggol Keling",
        "Post_Office": "Pendang",
        "State": "Kedah"
    },
    {
        "Postcode": "06700",
        "Location": "Kampung Banggol Masjid",
        "Post_Office": "Pendang",
        "State": "Kedah"
    },
    {
        "Postcode": "06700",
        "Location": "Kampung Banggol Pauh",
        "Post_Office": "Pendang",
        "State": "Kedah"
    },
    {
        "Postcode": "06700",
        "Location": "Kampung Banggol Senu",
        "Post_Office": "Pendang",
        "State": "Kedah"
    },
    {
        "Postcode": "06700",
        "Location": "Kampung Banggol Temak",
        "Post_Office": "Pendang",
        "State": "Kedah"
    },
    {
        "Postcode": "06700",
        "Location": "Kampung Banggol Tengah",
        "Post_Office": "Pendang",
        "State": "Kedah"
    },
    {
        "Postcode": "06700",
        "Location": "Kampung Banggol Terus",
        "Post_Office": "Pendang",
        "State": "Kedah"
    },
    {
        "Postcode": "06700",
        "Location": "Kampung Baru Asam Jawa",
        "Post_Office": "Pendang",
        "State": "Kedah"
    },
    {
        "Postcode": "06700",
        "Location": "Kampung Batu 14 - 16 (Pendang)",
        "Post_Office": "Pendang",
        "State": "Kedah"
    },
    {
        "Postcode": "06700",
        "Location": "Kampung Batu Menunggul",
        "Post_Office": "Pendang",
        "State": "Kedah"
    },
    {
        "Postcode": "06700",
        "Location": "Kampung Bukit Bubus",
        "Post_Office": "Pendang",
        "State": "Kedah"
    },
    {
        "Postcode": "06700",
        "Location": "Kampung Bukit Jagong",
        "Post_Office": "Pendang",
        "State": "Kedah"
    },
    {
        "Postcode": "06700",
        "Location": "Kampung Bukit Kecil",
        "Post_Office": "Pendang",
        "State": "Kedah"
    },
    {
        "Postcode": "06700",
        "Location": "Kampung Bukit Lanjut",
        "Post_Office": "Pendang",
        "State": "Kedah"
    },
    {
        "Postcode": "06700",
        "Location": "Kampung Bukit Murai",
        "Post_Office": "Pendang",
        "State": "Kedah"
    },
    {
        "Postcode": "06700",
        "Location": "Kampung Bukit Sekechong",
        "Post_Office": "Pendang",
        "State": "Kedah"
    },
    {
        "Postcode": "06700",
        "Location": "Kampung Bukit Seni",
        "Post_Office": "Pendang",
        "State": "Kedah"
    },
    {
        "Postcode": "06700",
        "Location": "Kampung Changkat Nering",
        "Post_Office": "Pendang",
        "State": "Kedah"
    },
    {
        "Postcode": "06700",
        "Location": "Kampung Charok Keladi",
        "Post_Office": "Pendang",
        "State": "Kedah"
    },
    {
        "Postcode": "06700",
        "Location": "Kampung Charok Kering",
        "Post_Office": "Pendang",
        "State": "Kedah"
    },
    {
        "Postcode": "06700",
        "Location": "Kampung Charok Kubong",
        "Post_Office": "Pendang",
        "State": "Kedah"
    },
    {
        "Postcode": "06700",
        "Location": "Kampung Charok Kudong",
        "Post_Office": "Pendang",
        "State": "Kedah"
    },
    {
        "Postcode": "06700",
        "Location": "Kampung Chekong",
        "Post_Office": "Pendang",
        "State": "Kedah"
    },
    {
        "Postcode": "06700",
        "Location": "Kampung Dundang",
        "Post_Office": "Pendang",
        "State": "Kedah"
    },
    {
        "Postcode": "06700",
        "Location": "Kampung Durian",
        "Post_Office": "Pendang",
        "State": "Kedah"
    },
    {
        "Postcode": "06700",
        "Location": "Kampung Haji Bunga",
        "Post_Office": "Pendang",
        "State": "Kedah"
    },
    {
        "Postcode": "06700",
        "Location": "Kampung Haji Darus",
        "Post_Office": "Pendang",
        "State": "Kedah"
    },
    {
        "Postcode": "06700",
        "Location": "Kampung Jelutong",
        "Post_Office": "Pendang",
        "State": "Kedah"
    },
    {
        "Postcode": "06700",
        "Location": "Kampung Kedah",
        "Post_Office": "Pendang",
        "State": "Kedah"
    },
    {
        "Postcode": "06700",
        "Location": "Kampung Kerkau",
        "Post_Office": "Pendang",
        "State": "Kedah"
    },
    {
        "Postcode": "06700",
        "Location": "Kampung Kolam",
        "Post_Office": "Pendang",
        "State": "Kedah"
    },
    {
        "Postcode": "06700",
        "Location": "Kampung Kuala Mawa",
        "Post_Office": "Pendang",
        "State": "Kedah"
    },
    {
        "Postcode": "06700",
        "Location": "Kampung Kubang Anak Gajah",
        "Post_Office": "Pendang",
        "State": "Kedah"
    },
    {
        "Postcode": "06700",
        "Location": "Kampung Kubang Kuar",
        "Post_Office": "Pendang",
        "State": "Kedah"
    },
    {
        "Postcode": "06700",
        "Location": "Kampung Kubang Teradan",
        "Post_Office": "Pendang",
        "State": "Kedah"
    },
    {
        "Postcode": "06700",
        "Location": "Kampung Kubang Teradeh",
        "Post_Office": "Pendang",
        "State": "Kedah"
    },
    {
        "Postcode": "06700",
        "Location": "Kampung Lahar Batu",
        "Post_Office": "Pendang",
        "State": "Kedah"
    },
    {
        "Postcode": "06700",
        "Location": "Kampung Lang Merah",
        "Post_Office": "Pendang",
        "State": "Kedah"
    },
    {
        "Postcode": "06700",
        "Location": "Kampung Lubok Getah",
        "Post_Office": "Pendang",
        "State": "Kedah"
    },
    {
        "Postcode": "06700",
        "Location": "Kampung Lubok Rambutan",
        "Post_Office": "Pendang",
        "State": "Kedah"
    },
    {
        "Postcode": "06700",
        "Location": "Kampung Menja Pahit",
        "Post_Office": "Pendang",
        "State": "Kedah"
    },
    {
        "Postcode": "06700",
        "Location": "Kampung Padang Kasak",
        "Post_Office": "Pendang",
        "State": "Kedah"
    },
    {
        "Postcode": "06700",
        "Location": "Kampung Padang Nyior",
        "Post_Office": "Pendang",
        "State": "Kedah"
    },
    {
        "Postcode": "06700",
        "Location": "Kampung Padang Pusing",
        "Post_Office": "Pendang",
        "State": "Kedah"
    },
    {
        "Postcode": "06700",
        "Location": "Kampung Padang Temucut",
        "Post_Office": "Pendang",
        "State": "Kedah"
    },
    {
        "Postcode": "06700",
        "Location": "Kampung Palas",
        "Post_Office": "Pendang",
        "State": "Kedah"
    },
    {
        "Postcode": "06700",
        "Location": "Kampung Panchor",
        "Post_Office": "Pendang",
        "State": "Kedah"
    },
    {
        "Postcode": "06700",
        "Location": "Kampung Paya Nedam",
        "Post_Office": "Pendang",
        "State": "Kedah"
    },
    {
        "Postcode": "06700",
        "Location": "Kampung Paya Rawa",
        "Post_Office": "Pendang",
        "State": "Kedah"
    },
    {
        "Postcode": "06700",
        "Location": "Kampung Paya Saga",
        "Post_Office": "Pendang",
        "State": "Kedah"
    },
    {
        "Postcode": "06700",
        "Location": "Kampung Paya Sena",
        "Post_Office": "Pendang",
        "State": "Kedah"
    },
    {
        "Postcode": "06700",
        "Location": "Kampung Paya Sulaiman",
        "Post_Office": "Pendang",
        "State": "Kedah"
    },
    {
        "Postcode": "06700",
        "Location": "Kampung Penyarom",
        "Post_Office": "Pendang",
        "State": "Kedah"
    },
    {
        "Postcode": "06700",
        "Location": "Kampung Pokok Gajah Mati",
        "Post_Office": "Pendang",
        "State": "Kedah"
    },
    {
        "Postcode": "06700",
        "Location": "Kampung Pondok Chegar",
        "Post_Office": "Pendang",
        "State": "Kedah"
    },
    {
        "Postcode": "06700",
        "Location": "Kampung Pondok Guar Kepayang",
        "Post_Office": "Pendang",
        "State": "Kedah"
    },
    {
        "Postcode": "06700",
        "Location": "Kampung Pondok Haji Aziz",
        "Post_Office": "Pendang",
        "State": "Kedah"
    },
    {
        "Postcode": "06700",
        "Location": "Kampung Pondok Haji Hussain",
        "Post_Office": "Pendang",
        "State": "Kedah"
    },
    {
        "Postcode": "06700",
        "Location": "Kampung Pondok Sawa",
        "Post_Office": "Pendang",
        "State": "Kedah"
    },
    {
        "Postcode": "06700",
        "Location": "Kampung Pondok Tanah Merah",
        "Post_Office": "Pendang",
        "State": "Kedah"
    },
    {
        "Postcode": "06700",
        "Location": "Kampung Pulau Machang",
        "Post_Office": "Pendang",
        "State": "Kedah"
    },
    {
        "Postcode": "06700",
        "Location": "Kampung Sawa",
        "Post_Office": "Pendang",
        "State": "Kedah"
    },
    {
        "Postcode": "06700",
        "Location": "Kampung Sawa Besar",
        "Post_Office": "Pendang",
        "State": "Kedah"
    },
    {
        "Postcode": "06700",
        "Location": "Kampung Seberang Pendang",
        "Post_Office": "Pendang",
        "State": "Kedah"
    },
    {
        "Postcode": "06700",
        "Location": "Kampung Sena",
        "Post_Office": "Pendang",
        "State": "Kedah"
    },
    {
        "Postcode": "06700",
        "Location": "Kampung Simpang Tiga Tobiar",
        "Post_Office": "Pendang",
        "State": "Kedah"
    },
    {
        "Postcode": "06700",
        "Location": "Kampung Sukamari",
        "Post_Office": "Pendang",
        "State": "Kedah"
    },
    {
        "Postcode": "06700",
        "Location": "Kampung Sungai Jagong",
        "Post_Office": "Pendang",
        "State": "Kedah"
    },
    {
        "Postcode": "06700",
        "Location": "Kampung Sungai Mati",
        "Post_Office": "Pendang",
        "State": "Kedah"
    },
    {
        "Postcode": "06700",
        "Location": "Kampung Sungai Pudak",
        "Post_Office": "Pendang",
        "State": "Kedah"
    },
    {
        "Postcode": "06700",
        "Location": "Kampung Tanjong Radin",
        "Post_Office": "Pendang",
        "State": "Kedah"
    },
    {
        "Postcode": "06700",
        "Location": "Kampung Titi Kera",
        "Post_Office": "Pendang",
        "State": "Kedah"
    },
    {
        "Postcode": "06700",
        "Location": "Kampung Tok Besah",
        "Post_Office": "Pendang",
        "State": "Kedah"
    },
    {
        "Postcode": "06700",
        "Location": "Kampung Tok La",
        "Post_Office": "Pendang",
        "State": "Kedah"
    },
    {
        "Postcode": "06700",
        "Location": "Kampung Wat Padang Pusing",
        "Post_Office": "Pendang",
        "State": "Kedah"
    },
    {
        "Postcode": "06700",
        "Location": "Padang Pusing",
        "Post_Office": "Pendang",
        "State": "Kedah"
    },
    {
        "Postcode": "06700",
        "Location": "Pendang",
        "Post_Office": "Pendang",
        "State": "Kedah"
    },
    {
        "Postcode": "06700",
        "Location": "Taman Mawar",
        "Post_Office": "Pendang",
        "State": "Kedah"
    },
    {
        "Postcode": "06700",
        "Location": "Taman Seri Pendang",
        "Post_Office": "Pendang",
        "State": "Kedah"
    },
    {
        "Postcode": "06700",
        "Location": "Tobiar",
        "Post_Office": "Pendang",
        "State": "Kedah"
    }
]
