[
    {
        "Postcode": "06710",
        "Location": "Felda Lubok Merbau",
        "Post_Office": "Pendang",
        "State": "Kedah"
    },
    {
        "Postcode": "06710",
        "Location": "Kampung Berjaya",
        "Post_Office": "Pendang",
        "State": "Kedah"
    },
    {
        "Postcode": "06710",
        "Location": "Kampung Baru Lubuk Merbau",
        "Post_Office": "Pendang",
        "State": "Kedah"
    },
    {
        "Postcode": "06710",
        "Location": "Kampung Baru Tapang",
        "Post_Office": "Pendang",
        "State": "Kedah"
    },
    {
        "Postcode": "06710",
        "Location": "Kampung Mahawangsa",
        "Post_Office": "Pendang",
        "State": "Kedah"
    },
    {
        "Postcode": "06710",
        "Location": "Kampung Sukamari Lubok Merbau",
        "Post_Office": "Pendang",
        "State": "Kedah"
    },
    {
        "Postcode": "06710",
        "Location": "Kampung Sungai Pisang",
        "Post_Office": "Pendang",
        "State": "Kedah"
    },
    {
        "Postcode": "06710",
        "Location": "Kampung Sungai Siput",
        "Post_Office": "Pendang",
        "State": "Kedah"
    },
    {
        "Postcode": "06710",
        "Location": "Kampung Sungai Siput Dalam",
        "Post_Office": "Pendang",
        "State": "Kedah"
    }
]
