[
    {
        "Postcode": "06720",
        "Location": "Kampung Baru Padang Panjang",
        "Post_Office": "Pendang",
        "State": "Kedah"
    },
    {
        "Postcode": "06720",
        "Location": "Su Poh Estate",
        "Post_Office": "Pendang",
        "State": "Kedah"
    },
    {
        "Postcode": "06720",
        "Location": "Bukit Jenun",
        "Post_Office": "Pendang",
        "State": "Kedah"
    },
    {
        "Postcode": "06720",
        "Location": "Kampung Banggol Basin",
        "Post_Office": "Pendang",
        "State": "Kedah"
    },
    {
        "Postcode": "06720",
        "Location": "Kampung Bukit Mak Insun",
        "Post_Office": "Pendang",
        "State": "Kedah"
    },
    {
        "Postcode": "06720",
        "Location": "Kampung Paya Mak Insun",
        "Post_Office": "Pendang",
        "State": "Kedah"
    },
    {
        "Postcode": "06720",
        "Location": "Kampung Alor Pulai",
        "Post_Office": "Pendang",
        "State": "Kedah"
    },
    {
        "Postcode": "06720",
        "Location": "Kampung Guar Stesen",
        "Post_Office": "Pendang",
        "State": "Kedah"
    },
    {
        "Postcode": "06720",
        "Location": "Kampung Wat Siam",
        "Post_Office": "Pendang",
        "State": "Kedah"
    },
    {
        "Postcode": "06720",
        "Location": "Taman Orkid",
        "Post_Office": "Pendang",
        "State": "Kedah"
    },
    {
        "Postcode": "06720",
        "Location": "Taman Gemilang 1",
        "Post_Office": "Pendang",
        "State": "Kedah"
    },
    {
        "Postcode": "06720",
        "Location": "Taman Gemilang 2",
        "Post_Office": "Pendang",
        "State": "Kedah"
    },
    {
        "Postcode": "06720",
        "Location": "Taman Teratai 1",
        "Post_Office": "Pendang",
        "State": "Kedah"
    },
    {
        "Postcode": "06720",
        "Location": "Taman Teratai 2",
        "Post_Office": "Pendang",
        "State": "Kedah"
    },
    {
        "Postcode": "06720",
        "Location": "Bukit Genting Estate",
        "Post_Office": "Pendang",
        "State": "Kedah"
    },
    {
        "Postcode": "06720",
        "Location": "Kampung Alor Kubang",
        "Post_Office": "Pendang",
        "State": "Kedah"
    },
    {
        "Postcode": "06720",
        "Location": "Kampung Alor Kumbang",
        "Post_Office": "Pendang",
        "State": "Kedah"
    },
    {
        "Postcode": "06720",
        "Location": "Kampung Baloh",
        "Post_Office": "Pendang",
        "State": "Kedah"
    },
    {
        "Postcode": "06720",
        "Location": "Kampung Banggol Sanai",
        "Post_Office": "Pendang",
        "State": "Kedah"
    },
    {
        "Postcode": "06720",
        "Location": "Kampung Banggol Sawa",
        "Post_Office": "Pendang",
        "State": "Kedah"
    },
    {
        "Postcode": "06720",
        "Location": "Kampung Banggol Senai",
        "Post_Office": "Pendang",
        "State": "Kedah"
    },
    {
        "Postcode": "06720",
        "Location": "Kampung Bukit Jambul",
        "Post_Office": "Pendang",
        "State": "Kedah"
    },
    {
        "Postcode": "06720",
        "Location": "Kampung Bukit Nibong",
        "Post_Office": "Pendang",
        "State": "Kedah"
    },
    {
        "Postcode": "06720",
        "Location": "Kampung Bukit Pinang",
        "Post_Office": "Pendang",
        "State": "Kedah"
    },
    {
        "Postcode": "06720",
        "Location": "Kampung Doket",
        "Post_Office": "Pendang",
        "State": "Kedah"
    },
    {
        "Postcode": "06720",
        "Location": "Kampung Kilang Bata",
        "Post_Office": "Pendang",
        "State": "Kedah"
    },
    {
        "Postcode": "06720",
        "Location": "Kampung Kilang Besar",
        "Post_Office": "Pendang",
        "State": "Kedah"
    },
    {
        "Postcode": "06720",
        "Location": "Kampung Kongsi Tujuh",
        "Post_Office": "Pendang",
        "State": "Kedah"
    },
    {
        "Postcode": "06720",
        "Location": "Kampung Kuala Rimau",
        "Post_Office": "Pendang",
        "State": "Kedah"
    },
    {
        "Postcode": "06720",
        "Location": "Kampung Lanchok Bunjai",
        "Post_Office": "Pendang",
        "State": "Kedah"
    },
    {
        "Postcode": "06720",
        "Location": "Kampung Lubok Reba",
        "Post_Office": "Pendang",
        "State": "Kedah"
    },
    {
        "Postcode": "06720",
        "Location": "Kampung Lubok Ular",
        "Post_Office": "Pendang",
        "State": "Kedah"
    },
    {
        "Postcode": "06720",
        "Location": "Kampung Manggol Tambak Luar",
        "Post_Office": "Pendang",
        "State": "Kedah"
    },
    {
        "Postcode": "06720",
        "Location": "Kampung Manggul Tambak",
        "Post_Office": "Pendang",
        "State": "Kedah"
    },
    {
        "Postcode": "06720",
        "Location": "Kampung Panjang",
        "Post_Office": "Pendang",
        "State": "Kedah"
    },
    {
        "Postcode": "06720",
        "Location": "Kampung Paya Palas",
        "Post_Office": "Pendang",
        "State": "Kedah"
    },
    {
        "Postcode": "06720",
        "Location": "Kampung Pokok Tai",
        "Post_Office": "Pendang",
        "State": "Kedah"
    },
    {
        "Postcode": "06720",
        "Location": "Kampung Sungai Baru",
        "Post_Office": "Pendang",
        "State": "Kedah"
    },
    {
        "Postcode": "06720",
        "Location": "Kampung Sungai Rotan",
        "Post_Office": "Pendang",
        "State": "Kedah"
    },
    {
        "Postcode": "06720",
        "Location": "Kampung Tanjong Setol",
        "Post_Office": "Pendang",
        "State": "Kedah"
    },
    {
        "Postcode": "06720",
        "Location": "Ladang Bukit Genting",
        "Post_Office": "Pendang",
        "State": "Kedah"
    },
    {
        "Postcode": "06720",
        "Location": "Ladang Heng Seng",
        "Post_Office": "Pendang",
        "State": "Kedah"
    },
    {
        "Postcode": "06720",
        "Location": "Ladang Poh Seng",
        "Post_Office": "Pendang",
        "State": "Kedah"
    },
    {
        "Postcode": "06720",
        "Location": "Lubok Merbau",
        "Post_Office": "Pendang",
        "State": "Kedah"
    },
    {
        "Postcode": "06720",
        "Location": "Pusat Perniagaan Kiara Mas",
        "Post_Office": "Pendang",
        "State": "Kedah"
    },
    {
        "Postcode": "06720",
        "Location": "Taman Harmoni",
        "Post_Office": "Pendang",
        "State": "Kedah"
    },
    {
        "Postcode": "06720",
        "Location": "Taman Kiara Mas",
        "Post_Office": "Pendang",
        "State": "Kedah"
    },
    {
        "Postcode": "06720",
        "Location": "Taman Murni",
        "Post_Office": "Pendang",
        "State": "Kedah"
    },
    {
        "Postcode": "06720",
        "Location": "Taman Seri Putih",
        "Post_Office": "Pendang",
        "State": "Kedah"
    },
    {
        "Postcode": "06720",
        "Location": "Taman Seri Wawasan",
        "Post_Office": "Pendang",
        "State": "Kedah"
    },
    {
        "Postcode": "06720",
        "Location": "Wisma Haji Salleh",
        "Post_Office": "Pendang",
        "State": "Kedah"
    }
]
