[
    {
        "Postcode": "06750",
        "Location": "Kampung Cina",
        "Post_Office": "Pendang",
        "State": "Kedah"
    },
    {
        "Postcode": "06750",
        "Location": "Kampung Pulau Tengah",
        "Post_Office": "Pendang",
        "State": "Kedah"
    },
    {
        "Postcode": "06750",
        "Location": "Kampung Sungai Korok",
        "Post_Office": "Pendang",
        "State": "Kedah"
    },
    {
        "Postcode": "06750",
        "Location": "Kampung Celong",
        "Post_Office": "Pendang",
        "State": "Kedah"
    },
    {
        "Postcode": "06750",
        "Location": "Kampung Wat Padang Pelian",
        "Post_Office": "Pendang",
        "State": "Kedah"
    },
    {
        "Postcode": "06750",
        "Location": "Kampung Padang Tok Sedau",
        "Post_Office": "Pendang",
        "State": "Kedah"
    },
    {
        "Postcode": "06750",
        "Location": "Kampung Titi Akar",
        "Post_Office": "Pendang",
        "State": "Kedah"
    },
    {
        "Postcode": "06750",
        "Location": "Kampung Bendang Petani",
        "Post_Office": "Pendang",
        "State": "Kedah"
    },
    {
        "Postcode": "06750",
        "Location": "Kampung Bendang Pulai",
        "Post_Office": "Pendang",
        "State": "Kedah"
    },
    {
        "Postcode": "06750",
        "Location": "Kampung Bukit Kerek",
        "Post_Office": "Pendang",
        "State": "Kedah"
    },
    {
        "Postcode": "06750",
        "Location": "Kampung Bukit Tegur",
        "Post_Office": "Pendang",
        "State": "Kedah"
    },
    {
        "Postcode": "06750",
        "Location": "Kampung Bukit Tok Aji",
        "Post_Office": "Pendang",
        "State": "Kedah"
    },
    {
        "Postcode": "06750",
        "Location": "Kampung Hujong Keton",
        "Post_Office": "Pendang",
        "State": "Kedah"
    },
    {
        "Postcode": "06750",
        "Location": "Kampung Kayu Tiga",
        "Post_Office": "Pendang",
        "State": "Kedah"
    },
    {
        "Postcode": "06750",
        "Location": "Kampung Kebun 4 Relong",
        "Post_Office": "Pendang",
        "State": "Kedah"
    },
    {
        "Postcode": "06750",
        "Location": "Kampung Kota",
        "Post_Office": "Pendang",
        "State": "Kedah"
    },
    {
        "Postcode": "06750",
        "Location": "Kampung Linchan",
        "Post_Office": "Pendang",
        "State": "Kedah"
    },
    {
        "Postcode": "06750",
        "Location": "Kampung Nam Dam",
        "Post_Office": "Pendang",
        "State": "Kedah"
    },
    {
        "Postcode": "06750",
        "Location": "Kampung Padang Durian",
        "Post_Office": "Pendang",
        "State": "Kedah"
    },
    {
        "Postcode": "06750",
        "Location": "Kampung Padang Kabu",
        "Post_Office": "Pendang",
        "State": "Kedah"
    },
    {
        "Postcode": "06750",
        "Location": "Kampung Paya Lepai",
        "Post_Office": "Pendang",
        "State": "Kedah"
    },
    {
        "Postcode": "06750",
        "Location": "Kampung Pokok Asam",
        "Post_Office": "Pendang",
        "State": "Kedah"
    },
    {
        "Postcode": "06750",
        "Location": "Kampung Rasau",
        "Post_Office": "Pendang",
        "State": "Kedah"
    },
    {
        "Postcode": "06750",
        "Location": "Kampung Sungai Ma",
        "Post_Office": "Pendang",
        "State": "Kedah"
    },
    {
        "Postcode": "06750",
        "Location": "Kampung Tanjong Berolah",
        "Post_Office": "Pendang",
        "State": "Kedah"
    },
    {
        "Postcode": "06750",
        "Location": "Kampung Titi Siam",
        "Post_Office": "Pendang",
        "State": "Kedah"
    },
    {
        "Postcode": "06750",
        "Location": "Kampung Tok Sek",
        "Post_Office": "Pendang",
        "State": "Kedah"
    },
    {
        "Postcode": "06750",
        "Location": "Kampung Tong Prok",
        "Post_Office": "Pendang",
        "State": "Kedah"
    },
    {
        "Postcode": "06750",
        "Location": "Kampung Wan Lah",
        "Post_Office": "Pendang",
        "State": "Kedah"
    },
    {
        "Postcode": "06750",
        "Location": "Kampung Wat",
        "Post_Office": "Pendang",
        "State": "Kedah"
    },
    {
        "Postcode": "06750",
        "Location": "Ladang Bukit Perak",
        "Post_Office": "Pendang",
        "State": "Kedah"
    },
    {
        "Postcode": "06750",
        "Location": "Padang Durian",
        "Post_Office": "Pendang",
        "State": "Kedah"
    },
    {
        "Postcode": "06750",
        "Location": "Sungai Tiang",
        "Post_Office": "Pendang",
        "State": "Kedah"
    }
]
