[
    {
        "Postcode": "06800",
        "Location": "Jalan Pengkalan",
        "Post_Office": "Kota Sarang Semut",
        "State": "Kedah"
    },
    {
        "Postcode": "06800",
        "Location": "Kampung Alor Besar",
        "Post_Office": "Kota Sarang Semut",
        "State": "Kedah"
    },
    {
        "Postcode": "06800",
        "Location": "Kampung Alor Pudak",
        "Post_Office": "Kota Sarang Semut",
        "State": "Kedah"
    },
    {
        "Postcode": "06800",
        "Location": "Kampung Manggol",
        "Post_Office": "Kota Sarang Semut",
        "State": "Kedah"
    },
    {
        "Postcode": "06800",
        "Location": "Kampung Permatang Buluh",
        "Post_Office": "Kota Sarang Semut",
        "State": "Kedah"
    },
    {
        "Postcode": "06800",
        "Location": "Kampung Sala Kecil",
        "Post_Office": "Kota Sarang Semut",
        "State": "Kedah"
    },
    {
        "Postcode": "06800",
        "Location": "Taman Kota Jaya",
        "Post_Office": "Kota Sarang Semut",
        "State": "Kedah"
    },
    {
        "Postcode": "06800",
        "Location": "Kampung Jawa",
        "Post_Office": "Kota Sarang Semut",
        "State": "Kedah"
    },
    {
        "Postcode": "06800",
        "Location": "Kampung Jemerlang",
        "Post_Office": "Kota Sarang Semut",
        "State": "Kedah"
    },
    {
        "Postcode": "06800",
        "Location": "Kampung Jerang Belanga",
        "Post_Office": "Kota Sarang Semut",
        "State": "Kedah"
    },
    {
        "Postcode": "06800",
        "Location": "Kampung Kuala Sala",
        "Post_Office": "Kota Sarang Semut",
        "State": "Kedah"
    },
    {
        "Postcode": "06800",
        "Location": "Kampung Kuala Sula",
        "Post_Office": "Kota Sarang Semut",
        "State": "Kedah"
    },
    {
        "Postcode": "06800",
        "Location": "Kampung Kubang Pasu",
        "Post_Office": "Kota Sarang Semut",
        "State": "Kedah"
    },
    {
        "Postcode": "06800",
        "Location": "Kampung Padang Peninjau",
        "Post_Office": "Kota Sarang Semut",
        "State": "Kedah"
    },
    {
        "Postcode": "06800",
        "Location": "Kampung Permatang Bongor",
        "Post_Office": "Kota Sarang Semut",
        "State": "Kedah"
    },
    {
        "Postcode": "06800",
        "Location": "Kampung Permatang Kecil",
        "Post_Office": "Kota Sarang Semut",
        "State": "Kedah"
    },
    {
        "Postcode": "06800",
        "Location": "Kampung Permatang Tepi Laut",
        "Post_Office": "Kota Sarang Semut",
        "State": "Kedah"
    },
    {
        "Postcode": "06800",
        "Location": "Kampung Perpat",
        "Post_Office": "Kota Sarang Semut",
        "State": "Kedah"
    },
    {
        "Postcode": "06800",
        "Location": "Kampung Pulau Jerat",
        "Post_Office": "Kota Sarang Semut",
        "State": "Kedah"
    },
    {
        "Postcode": "06800",
        "Location": "Kampung Pulau Mas",
        "Post_Office": "Kota Sarang Semut",
        "State": "Kedah"
    },
    {
        "Postcode": "06800",
        "Location": "Kampung Pulau Nyiur",
        "Post_Office": "Kota Sarang Semut",
        "State": "Kedah"
    },
    {
        "Postcode": "06800",
        "Location": "Kampung Selamat",
        "Post_Office": "Kota Sarang Semut",
        "State": "Kedah"
    },
    {
        "Postcode": "06800",
        "Location": "Kampung Simpang 3 (Sungai Daun)",
        "Post_Office": "Kota Sarang Semut",
        "State": "Kedah"
    },
    {
        "Postcode": "06800",
        "Location": "Kampung Simpang 4 (Sungai Daun)",
        "Post_Office": "Kota Sarang Semut",
        "State": "Kedah"
    },
    {
        "Postcode": "06800",
        "Location": "Kampung Sungai Daun",
        "Post_Office": "Kota Sarang Semut",
        "State": "Kedah"
    },
    {
        "Postcode": "06800",
        "Location": "Kampung Sungai Daun Atas",
        "Post_Office": "Kota Sarang Semut",
        "State": "Kedah"
    },
    {
        "Postcode": "06800",
        "Location": "Kampung Sungai Daun Tengah",
        "Post_Office": "Kota Sarang Semut",
        "State": "Kedah"
    },
    {
        "Postcode": "06800",
        "Location": "Kampung Sungai Dedap",
        "Post_Office": "Kota Sarang Semut",
        "State": "Kedah"
    },
    {
        "Postcode": "06800",
        "Location": "Kampung Telok Chentang",
        "Post_Office": "Kota Sarang Semut",
        "State": "Kedah"
    },
    {
        "Postcode": "06800",
        "Location": "Kampung Telok Chentong",
        "Post_Office": "Kota Sarang Semut",
        "State": "Kedah"
    },
    {
        "Postcode": "06800",
        "Location": "Kampung Tualang",
        "Post_Office": "Kota Sarang Semut",
        "State": "Kedah"
    },
    {
        "Postcode": "06800",
        "Location": "Kobah",
        "Post_Office": "Kota Sarang Semut",
        "State": "Kedah"
    },
    {
        "Postcode": "06800",
        "Location": "Kuala Bangka",
        "Post_Office": "Kota Sarang Semut",
        "State": "Kedah"
    },
    {
        "Postcode": "06800",
        "Location": "Kuala Sala",
        "Post_Office": "Kota Sarang Semut",
        "State": "Kedah"
    },
    {
        "Postcode": "06800",
        "Location": "Pekan Kota Sarang Semut",
        "Post_Office": "Kota Sarang Semut",
        "State": "Kedah"
    },
    {
        "Postcode": "06800",
        "Location": "Perumahan Awam Kuala Sala",
        "Post_Office": "Kota Sarang Semut",
        "State": "Kedah"
    },
    {
        "Postcode": "06800",
        "Location": "Perumahan Baru Kelubi",
        "Post_Office": "Kota Sarang Semut",
        "State": "Kedah"
    },
    {
        "Postcode": "06800",
        "Location": "Seberang Kuala Sala",
        "Post_Office": "Kota Sarang Semut",
        "State": "Kedah"
    },
    {
        "Postcode": "06800",
        "Location": "Seberang Tandop",
        "Post_Office": "Kota Sarang Semut",
        "State": "Kedah"
    },
    {
        "Postcode": "06800",
        "Location": "Simpang 3 (Sungai Limau)",
        "Post_Office": "Kota Sarang Semut",
        "State": "Kedah"
    },
    {
        "Postcode": "06800",
        "Location": "Sungai Tiang Luar",
        "Post_Office": "Kota Sarang Semut",
        "State": "Kedah"
    },
    {
        "Postcode": "06800",
        "Location": "Taman Kota Sarang Semut",
        "Post_Office": "Kota Sarang Semut",
        "State": "Kedah"
    },
    {
        "Postcode": "06800",
        "Location": "Kampung Kepala 10 Simpang 3",
        "Post_Office": "Kota Sarang Semut",
        "State": "Kedah"
    },
    {
        "Postcode": "06800",
        "Location": "Kampung Kepala 10 Sungai Daun",
        "Post_Office": "Kota Sarang Semut",
        "State": "Kedah"
    },
    {
        "Postcode": "06800",
        "Location": "Kampung Dato Abdullah",
        "Post_Office": "Kota Sarang Semut",
        "State": "Kedah"
    },
    {
        "Postcode": "06800",
        "Location": "Kampung Kuala Sungai Daun",
        "Post_Office": "Kota Sarang Semut",
        "State": "Kedah"
    },
    {
        "Postcode": "06800",
        "Location": "Jalan Kolam Air (Bukit Besar)",
        "Post_Office": "Kota Sarang Semut",
        "State": "Kedah"
    },
    {
        "Postcode": "06800",
        "Location": "Jalan Sekolah",
        "Post_Office": "Kota Sarang Semut",
        "State": "Kedah"
    },
    {
        "Postcode": "06800",
        "Location": "Kampung Bahagia",
        "Post_Office": "Kota Sarang Semut",
        "State": "Kedah"
    },
    {
        "Postcode": "06800",
        "Location": "Kampung Bukit Besar",
        "Post_Office": "Kota Sarang Semut",
        "State": "Kedah"
    },
    {
        "Postcode": "06800",
        "Location": "Kampung Haji Mehat",
        "Post_Office": "Kota Sarang Semut",
        "State": "Kedah"
    },
    {
        "Postcode": "06800",
        "Location": "Kampung Kilang Baru",
        "Post_Office": "Kota Sarang Semut",
        "State": "Kedah"
    },
    {
        "Postcode": "06800",
        "Location": "Kampung Padang Besar",
        "Post_Office": "Kota Sarang Semut",
        "State": "Kedah"
    },
    {
        "Postcode": "06800",
        "Location": "Kampung Pisang",
        "Post_Office": "Kota Sarang Semut",
        "State": "Kedah"
    },
    {
        "Postcode": "06800",
        "Location": "Kampung Simpang Tiga",
        "Post_Office": "Kota Sarang Semut",
        "State": "Kedah"
    },
    {
        "Postcode": "06800",
        "Location": "Kampung Telok",
        "Post_Office": "Kota Sarang Semut",
        "State": "Kedah"
    },
    {
        "Postcode": "06800",
        "Location": "Taman Gemilang",
        "Post_Office": "Kota Sarang Semut",
        "State": "Kedah"
    },
    {
        "Postcode": "06800",
        "Location": "Taman Impian",
        "Post_Office": "Kota Sarang Semut",
        "State": "Kedah"
    },
    {
        "Postcode": "06800",
        "Location": "Batu 11 1/2 Jalan Sungai Petani",
        "Post_Office": "Kota Sarang Semut",
        "State": "Kedah"
    },
    {
        "Postcode": "06800",
        "Location": "Batu 11- 12 Bukit Besar",
        "Post_Office": "Kota Sarang Semut",
        "State": "Kedah"
    },
    {
        "Postcode": "06800",
        "Location": "Batu 14 Jalan Sungai Petani",
        "Post_Office": "Kota Sarang Semut",
        "State": "Kedah"
    },
    {
        "Postcode": "06800",
        "Location": "Batu 15 Padang Lumat",
        "Post_Office": "Kota Sarang Semut",
        "State": "Kedah"
    },
    {
        "Postcode": "06800",
        "Location": "Batu 9",
        "Post_Office": "Kota Sarang Semut",
        "State": "Kedah"
    },
    {
        "Postcode": "06800",
        "Location": "Jalan Kuala Sala",
        "Post_Office": "Kota Sarang Semut",
        "State": "Kedah"
    },
    {
        "Postcode": "06800",
        "Location": "Jalan Padang Besar",
        "Post_Office": "Kota Sarang Semut",
        "State": "Kedah"
    },
    {
        "Postcode": "06800",
        "Location": "Jalan Tokong",
        "Post_Office": "Kota Sarang Semut",
        "State": "Kedah"
    },
    {
        "Postcode": "06800",
        "Location": "Kampung Alor Gelanggang",
        "Post_Office": "Kota Sarang Semut",
        "State": "Kedah"
    },
    {
        "Postcode": "06800",
        "Location": "Kampung Alor Nan",
        "Post_Office": "Kota Sarang Semut",
        "State": "Kedah"
    },
    {
        "Postcode": "06800",
        "Location": "Kampung Alor Nibong",
        "Post_Office": "Kota Sarang Semut",
        "State": "Kedah"
    },
    {
        "Postcode": "06800",
        "Location": "Kampung Alor Pinggu",
        "Post_Office": "Kota Sarang Semut",
        "State": "Kedah"
    },
    {
        "Postcode": "06800",
        "Location": "Kampung Alor Serdang",
        "Post_Office": "Kota Sarang Semut",
        "State": "Kedah"
    },
    {
        "Postcode": "06800",
        "Location": "Kampung Alor Terjun",
        "Post_Office": "Kota Sarang Semut",
        "State": "Kedah"
    },
    {
        "Postcode": "06800",
        "Location": "Kampung Alor Tok Ya",
        "Post_Office": "Kota Sarang Semut",
        "State": "Kedah"
    },
    {
        "Postcode": "06800",
        "Location": "Kampung Bakong",
        "Post_Office": "Kota Sarang Semut",
        "State": "Kedah"
    },
    {
        "Postcode": "06800",
        "Location": "Kampung Banggol Haji Seman",
        "Post_Office": "Kota Sarang Semut",
        "State": "Kedah"
    },
    {
        "Postcode": "06800",
        "Location": "Kampung Banggol Wan Awang",
        "Post_Office": "Kota Sarang Semut",
        "State": "Kedah"
    },
    {
        "Postcode": "06800",
        "Location": "Kampung Baru (Jalan Pendang)",
        "Post_Office": "Kota Sarang Semut",
        "State": "Kedah"
    },
    {
        "Postcode": "06800",
        "Location": "Kampung Batas Baru",
        "Post_Office": "Kota Sarang Semut",
        "State": "Kedah"
    },
    {
        "Postcode": "06800",
        "Location": "Kampung Bukit Chepat",
        "Post_Office": "Kota Sarang Semut",
        "State": "Kedah"
    },
    {
        "Postcode": "06800",
        "Location": "Kampung Bukit Choras",
        "Post_Office": "Kota Sarang Semut",
        "State": "Kedah"
    },
    {
        "Postcode": "06800",
        "Location": "Kampung Bukit Kokbah",
        "Post_Office": "Kota Sarang Semut",
        "State": "Kedah"
    },
    {
        "Postcode": "06800",
        "Location": "Kampung Bukit Tok Chun",
        "Post_Office": "Kota Sarang Semut",
        "State": "Kedah"
    },
    {
        "Postcode": "06800",
        "Location": "Kampung Buluh Lima",
        "Post_Office": "Kota Sarang Semut",
        "State": "Kedah"
    },
    {
        "Postcode": "06800",
        "Location": "Kampung Buluh Lima Dalam",
        "Post_Office": "Kota Sarang Semut",
        "State": "Kedah"
    },
    {
        "Postcode": "06800",
        "Location": "Kampung Gelam Tiga",
        "Post_Office": "Kota Sarang Semut",
        "State": "Kedah"
    }
]
