[
    {
        "Postcode": "06900",
        "Location": "Kampung Hutan Gelam",
        "Post_Office": "Yan",
        "State": "Kedah"
    },
    {
        "Postcode": "06900",
        "Location": "Kampung Setol",
        "Post_Office": "Yan",
        "State": "Kedah"
    },
    {
        "Postcode": "06900",
        "Location": "Batu 21 1/4 - 24 3/4 Jalan Yan",
        "Post_Office": "Yan",
        "State": "Kedah"
    },
    {
        "Postcode": "06900",
        "Location": "Dulang Kechik",
        "Post_Office": "Yan",
        "State": "Kedah"
    },
    {
        "Postcode": "06900",
        "Location": "Jalan Market (Yan)",
        "Post_Office": "Yan",
        "State": "Kedah"
    },
    {
        "Postcode": "06900",
        "Location": "Jalan Masjid (Yan)",
        "Post_Office": "Yan",
        "State": "Kedah"
    },
    {
        "Postcode": "06900",
        "Location": "Jalan Pantai Murni",
        "Post_Office": "Yan",
        "State": "Kedah"
    },
    {
        "Postcode": "06900",
        "Location": "Jalan Pegawai (Yan)",
        "Post_Office": "Yan",
        "State": "Kedah"
    },
    {
        "Postcode": "06900",
        "Location": "Kampung Acheh",
        "Post_Office": "Yan",
        "State": "Kedah"
    },
    {
        "Postcode": "06900",
        "Location": "Kampung Bakar Bata",
        "Post_Office": "Yan",
        "State": "Kedah"
    },
    {
        "Postcode": "06900",
        "Location": "Kampung Batas Ubi",
        "Post_Office": "Yan",
        "State": "Kedah"
    },
    {
        "Postcode": "06900",
        "Location": "Kampung Batu 22",
        "Post_Office": "Yan",
        "State": "Kedah"
    },
    {
        "Postcode": "06900",
        "Location": "Kampung Batu 22 1/2 (Dulang Kechil)",
        "Post_Office": "Yan",
        "State": "Kedah"
    },
    {
        "Postcode": "06900",
        "Location": "Kampung Bukit Belida",
        "Post_Office": "Yan",
        "State": "Kedah"
    },
    {
        "Postcode": "06900",
        "Location": "Kampung Bukit Tumbuh",
        "Post_Office": "Yan",
        "State": "Kedah"
    },
    {
        "Postcode": "06900",
        "Location": "Kampung Dulang Besar",
        "Post_Office": "Yan",
        "State": "Kedah"
    },
    {
        "Postcode": "06900",
        "Location": "Kampung Dulang Kechil Tengah",
        "Post_Office": "Yan",
        "State": "Kedah"
    },
    {
        "Postcode": "06900",
        "Location": "Kampung Jawa",
        "Post_Office": "Yan",
        "State": "Kedah"
    },
    {
        "Postcode": "06900",
        "Location": "Kampung Kelantan",
        "Post_Office": "Yan",
        "State": "Kedah"
    },
    {
        "Postcode": "06900",
        "Location": "Kampung Kepala 10 Sedaka",
        "Post_Office": "Yan",
        "State": "Kedah"
    },
    {
        "Postcode": "06900",
        "Location": "Kampung Km 32 (Ulu Sedaka)",
        "Post_Office": "Yan",
        "State": "Kedah"
    },
    {
        "Postcode": "06900",
        "Location": "Kampung Kuala Dulang Besar",
        "Post_Office": "Yan",
        "State": "Kedah"
    },
    {
        "Postcode": "06900",
        "Location": "Kampung Kuala Dulang Kechil",
        "Post_Office": "Yan",
        "State": "Kedah"
    },
    {
        "Postcode": "06900",
        "Location": "Kampung Kuala Raga",
        "Post_Office": "Yan",
        "State": "Kedah"
    },
    {
        "Postcode": "06900",
        "Location": "Kampung Kuala Sedaka",
        "Post_Office": "Yan",
        "State": "Kedah"
    },
    {
        "Postcode": "06900",
        "Location": "Kampung Kuala Sungai Udang",
        "Post_Office": "Yan",
        "State": "Kedah"
    },
    {
        "Postcode": "06900",
        "Location": "Kampung Lubok Boi",
        "Post_Office": "Yan",
        "State": "Kedah"
    },
    {
        "Postcode": "06900",
        "Location": "Kampung Pantai Murni",
        "Post_Office": "Yan",
        "State": "Kedah"
    },
    {
        "Postcode": "06900",
        "Location": "Kampung Pauh",
        "Post_Office": "Yan",
        "State": "Kedah"
    },
    {
        "Postcode": "06900",
        "Location": "Kampung Perigi",
        "Post_Office": "Yan",
        "State": "Kedah"
    },
    {
        "Postcode": "06900",
        "Location": "Kampung Permatang Chengai",
        "Post_Office": "Yan",
        "State": "Kedah"
    },
    {
        "Postcode": "06900",
        "Location": "Kampung Permatang Keramat",
        "Post_Office": "Yan",
        "State": "Kedah"
    },
    {
        "Postcode": "06900",
        "Location": "Kampung Permatang Serantang",
        "Post_Office": "Yan",
        "State": "Kedah"
    },
    {
        "Postcode": "06900",
        "Location": "Kampung Permatang Serentang (Sungai Udang)",
        "Post_Office": "Yan",
        "State": "Kedah"
    },
    {
        "Postcode": "06900",
        "Location": "Kampung Permatang Tok Alim",
        "Post_Office": "Yan",
        "State": "Kedah"
    },
    {
        "Postcode": "06900",
        "Location": "Kampung Raga",
        "Post_Office": "Yan",
        "State": "Kedah"
    },
    {
        "Postcode": "06900",
        "Location": "Kampung Rendang Pasir",
        "Post_Office": "Yan",
        "State": "Kedah"
    },
    {
        "Postcode": "06900",
        "Location": "Kampung Ruat",
        "Post_Office": "Yan",
        "State": "Kedah"
    },
    {
        "Postcode": "06900",
        "Location": "Kampung Seberang Pekan Yan",
        "Post_Office": "Yan",
        "State": "Kedah"
    },
    {
        "Postcode": "06900",
        "Location": "Kampung Sedaka",
        "Post_Office": "Yan",
        "State": "Kedah"
    },
    {
        "Postcode": "06900",
        "Location": "Kampung Sedaka Tengah",
        "Post_Office": "Yan",
        "State": "Kedah"
    },
    {
        "Postcode": "06900",
        "Location": "Kampung Serong",
        "Post_Office": "Yan",
        "State": "Kedah"
    },
    {
        "Postcode": "06900",
        "Location": "Kampung Setar",
        "Post_Office": "Yan",
        "State": "Kedah"
    },
    {
        "Postcode": "06900",
        "Location": "Kampung Seter",
        "Post_Office": "Yan",
        "State": "Kedah"
    },
    {
        "Postcode": "06900",
        "Location": "Kampung Simpang Empat Sedaka",
        "Post_Office": "Yan",
        "State": "Kedah"
    },
    {
        "Postcode": "06900",
        "Location": "Kampung Simpang Empat Sungai Lintang",
        "Post_Office": "Yan",
        "State": "Kedah"
    },
    {
        "Postcode": "06900",
        "Location": "Kampung Sungai Lintang (Sungai Limau Dalam)",
        "Post_Office": "Yan",
        "State": "Kedah"
    },
    {
        "Postcode": "06900",
        "Location": "Kampung Sungai Malai",
        "Post_Office": "Yan",
        "State": "Kedah"
    },
    {
        "Postcode": "06900",
        "Location": "Kampung Sungai Pagar",
        "Post_Office": "Yan",
        "State": "Kedah"
    },
    {
        "Postcode": "06900",
        "Location": "Kampung Sungai Udang",
        "Post_Office": "Yan",
        "State": "Kedah"
    },
    {
        "Postcode": "06900",
        "Location": "Kampung Sungai Udang Atas",
        "Post_Office": "Yan",
        "State": "Kedah"
    },
    {
        "Postcode": "06900",
        "Location": "Kampung Sungai Yan",
        "Post_Office": "Yan",
        "State": "Kedah"
    },
    {
        "Postcode": "06900",
        "Location": "Kampung Telok Mat Acheh",
        "Post_Office": "Yan",
        "State": "Kedah"
    },
    {
        "Postcode": "06900",
        "Location": "Kampung Tengah",
        "Post_Office": "Yan",
        "State": "Kedah"
    },
    {
        "Postcode": "06900",
        "Location": "Kampung Tengah Yan Kechil",
        "Post_Office": "Yan",
        "State": "Kedah"
    },
    {
        "Postcode": "06900",
        "Location": "Kampung Titi Bakong",
        "Post_Office": "Yan",
        "State": "Kedah"
    },
    {
        "Postcode": "06900",
        "Location": "Kampung Titi Raga",
        "Post_Office": "Yan",
        "State": "Kedah"
    },
    {
        "Postcode": "06900",
        "Location": "Kampung Tohor",
        "Post_Office": "Yan",
        "State": "Kedah"
    },
    {
        "Postcode": "06900",
        "Location": "Kampung Ulu Dulang Besar",
        "Post_Office": "Yan",
        "State": "Kedah"
    },
    {
        "Postcode": "06900",
        "Location": "Kampung Ulu Dulang Kechil",
        "Post_Office": "Yan",
        "State": "Kedah"
    },
    {
        "Postcode": "06900",
        "Location": "Kampung Ulu Sedaka",
        "Post_Office": "Yan",
        "State": "Kedah"
    },
    {
        "Postcode": "06900",
        "Location": "Permatang Serentang",
        "Post_Office": "Yan",
        "State": "Kedah"
    },
    {
        "Postcode": "06900",
        "Location": "Pondok Fauzi",
        "Post_Office": "Yan",
        "State": "Kedah"
    },
    {
        "Postcode": "06900",
        "Location": "Rumah Awam Titi Barong",
        "Post_Office": "Yan",
        "State": "Kedah"
    },
    {
        "Postcode": "06900",
        "Location": "Sedaka",
        "Post_Office": "Yan",
        "State": "Kedah"
    },
    {
        "Postcode": "06900",
        "Location": "Taman Guru",
        "Post_Office": "Yan",
        "State": "Kedah"
    },
    {
        "Postcode": "06900",
        "Location": "Taman Pantai Murni",
        "Post_Office": "Yan",
        "State": "Kedah"
    },
    {
        "Postcode": "06900",
        "Location": "Taman Perniagaan",
        "Post_Office": "Yan",
        "State": "Kedah"
    },
    {
        "Postcode": "06900",
        "Location": "Taman Rumah Murah Pantai Murni",
        "Post_Office": "Yan",
        "State": "Kedah"
    },
    {
        "Postcode": "06900",
        "Location": "Taman Samudera (Yan)",
        "Post_Office": "Yan",
        "State": "Kedah"
    },
    {
        "Postcode": "06900",
        "Location": "Taman Samudera Ruat",
        "Post_Office": "Yan",
        "State": "Kedah"
    },
    {
        "Postcode": "06900",
        "Location": "Taman Yan",
        "Post_Office": "Yan",
        "State": "Kedah"
    },
    {
        "Postcode": "06900",
        "Location": "Yan",
        "Post_Office": "Yan",
        "State": "Kedah"
    },
    {
        "Postcode": "06900",
        "Location": "Kampung Keda Sungai Udang",
        "Post_Office": "Yan",
        "State": "Kedah"
    },
    {
        "Postcode": "06900",
        "Location": "Kampung Titi Serong",
        "Post_Office": "Yan",
        "State": "Kedah"
    },
    {
        "Postcode": "06900",
        "Location": "Kampung Dulang Kecil",
        "Post_Office": "Yan",
        "State": "Kedah"
    },
    {
        "Postcode": "06900",
        "Location": "Kampung Kuala Sungai Yan",
        "Post_Office": "Yan",
        "State": "Kedah"
    },
    {
        "Postcode": "06900",
        "Location": "Kampung Lubok Kasai",
        "Post_Office": "Yan",
        "State": "Kedah"
    },
    {
        "Postcode": "06900",
        "Location": "Kampung Permatang Kecil",
        "Post_Office": "Yan",
        "State": "Kedah"
    },
    {
        "Postcode": "06900",
        "Location": "Yan Kechil",
        "Post_Office": "Yan",
        "State": "Kedah"
    },
    {
        "Postcode": "06900",
        "Location": "Jalan Pegawai",
        "Post_Office": "Yan",
        "State": "Kedah"
    },
    {
        "Postcode": "06900",
        "Location": "Kampung Perupuk",
        "Post_Office": "Yan",
        "State": "Kedah"
    },
    {
        "Postcode": "06900",
        "Location": "Kampung Teroi",
        "Post_Office": "Yan",
        "State": "Kedah"
    },
    {
        "Postcode": "06900",
        "Location": "Taman Setia Jaya",
        "Post_Office": "Yan",
        "State": "Kedah"
    }
]
