[
    {
        "Postcode": "89000",
        "Location": "Apin-Apin",
        "Post_Office": "Keningau",
        "State": "Sabah"
    },
    {
        "Postcode": "89000",
        "Location": "Kampung Bingkor",
        "Post_Office": "Keningau",
        "State": "Sabah"
    },
    {
        "Postcode": "89000",
        "Location": "Kampung Dalayan Sook",
        "Post_Office": "Keningau",
        "State": "Sabah"
    },
    {
        "Postcode": "89000",
        "Location": "Kampung Pinipi Lanas",
        "Post_Office": "Keningau",
        "State": "Sabah"
    },
    {
        "Postcode": "89000",
        "Location": "Kampung Sebarang",
        "Post_Office": "Keningau",
        "State": "Sabah"
    },
    {
        "Postcode": "89000",
        "Location": "Kampung Sinulihan",
        "Post_Office": "Keningau",
        "State": "Sabah"
    },
    {
        "Postcode": "89000",
        "Location": "Kampung Tulid",
        "Post_Office": "Keningau",
        "State": "Sabah"
    },
    {
        "Postcode": "89000",
        "Location": "Keningau",
        "Post_Office": "Keningau",
        "State": "Sabah"
    }
]
