[
    {
        "Postcode": "89050",
        "Location": "Banggi",
        "Post_Office": "Kudat",
        "State": "Sabah"
    },
    {
        "Postcode": "89050",
        "Location": "Kampung Lajong",
        "Post_Office": "Kudat",
        "State": "Sabah"
    },
    {
        "Postcode": "89050",
        "Location": "Kudat",
        "Post_Office": "Kudat",
        "State": "Sabah"
    },
    {
        "Postcode": "89050",
        "Location": "Langkon",
        "Post_Office": "Kudat",
        "State": "Sabah"
    },
    {
        "Postcode": "89050",
        "Location": "Matunggong",
        "Post_Office": "Kudat",
        "State": "Sabah"
    },
    {
        "Postcode": "89050",
        "Location": "Pinawantai",
        "Post_Office": "Kudat",
        "State": "Sabah"
    },
    {
        "Postcode": "89050",
        "Location": "Pulau Banggi",
        "Post_Office": "Kudat",
        "State": "Sabah"
    },
    {
        "Postcode": "89050",
        "Location": "Sekuati",
        "Post_Office": "Kudat",
        "State": "Sabah"
    }
]
