[
    {
        "Postcode": "89300",
        "Location": "Bundu Tuhan",
        "Post_Office": "Ranau",
        "State": "Sabah"
    },
    {
        "Postcode": "89300",
        "Location": "Kampung Bangkod",
        "Post_Office": "Ranau",
        "State": "Sabah"
    },
    {
        "Postcode": "89300",
        "Location": "Kampung Kundasang",
        "Post_Office": "Ranau",
        "State": "Sabah"
    },
    {
        "Postcode": "89300",
        "Location": "Kampung Lohan",
        "Post_Office": "Ranau",
        "State": "Sabah"
    },
    {
        "Postcode": "89300",
        "Location": "Kampung Malinsau",
        "Post_Office": "Ranau",
        "State": "Sabah"
    },
    {
        "Postcode": "89300",
        "Location": "Kampung Nabalu",
        "Post_Office": "Ranau",
        "State": "Sabah"
    },
    {
        "Postcode": "89300",
        "Location": "Kampung Nalapak",
        "Post_Office": "Ranau",
        "State": "Sabah"
    },
    {
        "Postcode": "89300",
        "Location": "Kampung Panginatan",
        "Post_Office": "Ranau",
        "State": "Sabah"
    },
    {
        "Postcode": "89300",
        "Location": "Kampung Tagudon",
        "Post_Office": "Ranau",
        "State": "Sabah"
    },
    {
        "Postcode": "89300",
        "Location": "Kampung Tampios",
        "Post_Office": "Ranau",
        "State": "Sabah"
    },
    {
        "Postcode": "89300",
        "Location": "Kampung Timbua",
        "Post_Office": "Ranau",
        "State": "Sabah"
    },
    {
        "Postcode": "89300",
        "Location": "Kundasang",
        "Post_Office": "Ranau",
        "State": "Sabah"
    },
    {
        "Postcode": "89300",
        "Location": "Namaus",
        "Post_Office": "Ranau",
        "State": "Sabah"
    },
    {
        "Postcode": "89300",
        "Location": "Ranau",
        "Post_Office": "Ranau",
        "State": "Sabah"
    }
]
