[
    {
        "Postcode": "89500",
        "Location": "Jalan Penampang",
        "Post_Office": "Penampang",
        "State": "Sabah"
    },
    {
        "Postcode": "89500",
        "Location": "Jalan Tambunan",
        "Post_Office": "Penampang",
        "State": "Sabah"
    },
    {
        "Postcode": "89500",
        "Location": "Kampung Babagon",
        "Post_Office": "Penampang",
        "State": "Sabah"
    },
    {
        "Postcode": "89500",
        "Location": "Kampung Kolopis",
        "Post_Office": "Penampang",
        "State": "Sabah"
    },
    {
        "Postcode": "89500",
        "Location": "Kampung Limbanak",
        "Post_Office": "Penampang",
        "State": "Sabah"
    },
    {
        "Postcode": "89500",
        "Location": "Kampung Maang",
        "Post_Office": "Penampang",
        "State": "Sabah"
    },
    {
        "Postcode": "89500",
        "Location": "Kampung Mahanoi",
        "Post_Office": "Penampang",
        "State": "Sabah"
    },
    {
        "Postcode": "89500",
        "Location": "Kampung Terawi",
        "Post_Office": "Penampang",
        "State": "Sabah"
    },
    {
        "Postcode": "89500",
        "Location": "Kampung Tombovo",
        "Post_Office": "Penampang",
        "State": "Sabah"
    },
    {
        "Postcode": "89500",
        "Location": "Penampang",
        "Post_Office": "Penampang",
        "State": "Sabah"
    }
]
