[
    {
        "Postcode": "89600",
        "Location": "Taman Langkuas",
        "Post_Office": "Papar\r\n",
        "State": "Sabah"
    },
    {
        "Postcode": "89600",
        "Location": "Kampung Benoni",
        "Post_Office": "Papar",
        "State": "Sabah"
    },
    {
        "Postcode": "89600",
        "Location": "Kampung Limbahau",
        "Post_Office": "Papar",
        "State": "Sabah"
    },
    {
        "Postcode": "89600",
        "Location": "Kampung Nagapas",
        "Post_Office": "Papar",
        "State": "Sabah"
    },
    {
        "Postcode": "89600",
        "Location": "Kawang",
        "Post_Office": "Papar",
        "State": "Sabah"
    },
    {
        "Postcode": "89600",
        "Location": "Pantai Manis",
        "Post_Office": "Papar",
        "State": "Sabah"
    },
    {
        "Postcode": "89600",
        "Location": "Papar",
        "Post_Office": "Papar",
        "State": "Sabah"
    },
    {
        "Postcode": "89600",
        "Location": "Pengalat Besar",
        "Post_Office": "Papar",
        "State": "Sabah"
    }
]
