[
    {
        "Postcode": "89800",
        "Location": "Beaufort",
        "Post_Office": "Beaufort",
        "State": "Sabah"
    },
    {
        "Postcode": "89800",
        "Location": "Kampung Bingkul",
        "Post_Office": "Beaufort",
        "State": "Sabah"
    },
    {
        "Postcode": "89800",
        "Location": "Kampung Bukau",
        "Post_Office": "Beaufort",
        "State": "Sabah"
    },
    {
        "Postcode": "89800",
        "Location": "Kampung Gadong",
        "Post_Office": "Beaufort",
        "State": "Sabah"
    },
    {
        "Postcode": "89800",
        "Location": "Kampung Kabajang",
        "Post_Office": "Beaufort",
        "State": "Sabah"
    },
    {
        "Postcode": "89800",
        "Location": "Kampung Lingkongan",
        "Post_Office": "Beaufort",
        "State": "Sabah"
    },
    {
        "Postcode": "89800",
        "Location": "Kampung Lumadan",
        "Post_Office": "Beaufort",
        "State": "Sabah"
    },
    {
        "Postcode": "89800",
        "Location": "Kampung Simpagar",
        "Post_Office": "Beaufort",
        "State": "Sabah"
    },
    {
        "Postcode": "89800",
        "Location": "Kampung Suasa",
        "Post_Office": "Beaufort",
        "State": "Sabah"
    },
    {
        "Postcode": "89800",
        "Location": "Kota Klias",
        "Post_Office": "Beaufort",
        "State": "Sabah"
    },
    {
        "Postcode": "89800",
        "Location": "Padas Damit",
        "Post_Office": "Beaufort",
        "State": "Sabah"
    },
    {
        "Postcode": "89800",
        "Location": "Weston",
        "Post_Office": "Beaufort",
        "State": "Sabah"
    }
]
