[
    {
        "Postcode": "11000",
        "Location": "Jalan Sungai Air Putih 1/1 ",
        "Post_Office": "Balik Pulau",
        "State": "Pulau Pinang"
    },
    {
        "Postcode": "11000",
        "Location": "Jalan Sungai Air Putih 2/3",
        "Post_Office": "Balik Pulau",
        "State": "Pulau Pinang"
    },
    {
        "Postcode": "11000",
        "Location": "Jalan Sungai Nipah 1",
        "Post_Office": "Balik Pulau",
        "State": "Pulau Pinang"
    },
    {
        "Postcode": "11000",
        "Location": "Jalan Sungai Nipah 2",
        "Post_Office": "Balik Pulau",
        "State": "Pulau Pinang"
    },
    {
        "Postcode": "11000",
        "Location": "Jalan Sungai Nipah 3",
        "Post_Office": "Balik Pulau",
        "State": "Pulau Pinang"
    },
    {
        "Postcode": "11000",
        "Location": "Jalan Sungai Nipah 4",
        "Post_Office": "Balik Pulau",
        "State": "Pulau Pinang"
    },
    {
        "Postcode": "11000",
        "Location": "Jalan Sungai Nipah 5",
        "Post_Office": "Balik Pulau",
        "State": "Pulau Pinang"
    },
    {
        "Postcode": "11000",
        "Location": "Jalan Sungai Nipah 6",
        "Post_Office": "Balik Pulau",
        "State": "Pulau Pinang"
    },
    {
        "Postcode": "11000",
        "Location": "Jalan Sungai Nipah 7",
        "Post_Office": "Balik Pulau",
        "State": "Pulau Pinang"
    },
    {
        "Postcode": "11000",
        "Location": "Lebuh Seri Genting 1",
        "Post_Office": "Balik Pulau",
        "State": "Pulau Pinang"
    },
    {
        "Postcode": "11000",
        "Location": "Lebuh Seri Genting 2",
        "Post_Office": "Balik Pulau",
        "State": "Pulau Pinang"
    },
    {
        "Postcode": "11000",
        "Location": "Lebuh Seri Genting 3",
        "Post_Office": "Balik Pulau",
        "State": "Pulau Pinang"
    },
    {
        "Postcode": "11000",
        "Location": "Lebuh Seri Genting 4",
        "Post_Office": "Balik Pulau",
        "State": "Pulau Pinang"
    },
    {
        "Postcode": "11000",
        "Location": "Lebuh Seri Genting 5",
        "Post_Office": "Balik Pulau",
        "State": "Pulau Pinang"
    },
    {
        "Postcode": "11000",
        "Location": "Lebuh Seri Genting 6",
        "Post_Office": "Balik Pulau",
        "State": "Pulau Pinang"
    },
    {
        "Postcode": "11000",
        "Location": "Lebuh Sungai Burung 1",
        "Post_Office": "Balik Pulau",
        "State": "Pulau Pinang"
    },
    {
        "Postcode": "11000",
        "Location": "Lebuh Sungai Burung 2",
        "Post_Office": "Balik Pulau",
        "State": "Pulau Pinang"
    },
    {
        "Postcode": "11000",
        "Location": "Lebuh Sungai Burung 3",
        "Post_Office": "Balik Pulau",
        "State": "Pulau Pinang"
    },
    {
        "Postcode": "11000",
        "Location": "Lebuh Sungai Burung 4",
        "Post_Office": "Balik Pulau",
        "State": "Pulau Pinang"
    },
    {
        "Postcode": "11000",
        "Location": "Lorong Pondok Upih 1",
        "Post_Office": "Balik Pulau",
        "State": "Pulau Pinang"
    },
    {
        "Postcode": "11000",
        "Location": "Lorong Pondok Upih 2",
        "Post_Office": "Balik Pulau",
        "State": "Pulau Pinang"
    },
    {
        "Postcode": "11000",
        "Location": "Lorong Pondok Upih 3",
        "Post_Office": "Balik Pulau",
        "State": "Pulau Pinang"
    },
    {
        "Postcode": "11000",
        "Location": "Lorong Seri Genting 1",
        "Post_Office": "Balik Pulau",
        "State": "Pulau Pinang"
    },
    {
        "Postcode": "11000",
        "Location": "Lorong Seri Genting 10",
        "Post_Office": "Balik Pulau",
        "State": "Pulau Pinang"
    },
    {
        "Postcode": "11000",
        "Location": "Lorong Seri Genting 11",
        "Post_Office": "Balik Pulau",
        "State": "Pulau Pinang"
    },
    {
        "Postcode": "11000",
        "Location": "Lorong Seri Genting 12",
        "Post_Office": "Balik Pulau",
        "State": "Pulau Pinang"
    },
    {
        "Postcode": "11000",
        "Location": "Lorong Seri Genting 13",
        "Post_Office": "Balik Pulau",
        "State": "Pulau Pinang"
    },
    {
        "Postcode": "11000",
        "Location": "Lorong Seri Genting 14",
        "Post_Office": "Balik Pulau",
        "State": "Pulau Pinang"
    },
    {
        "Postcode": "11000",
        "Location": "Lorong Seri Genting 2",
        "Post_Office": "Balik Pulau",
        "State": "Pulau Pinang"
    },
    {
        "Postcode": "11000",
        "Location": "Lorong Seri Genting 3",
        "Post_Office": "Balik Pulau",
        "State": "Pulau Pinang"
    },
    {
        "Postcode": "11000",
        "Location": "Lorong Seri Genting 4",
        "Post_Office": "Balik Pulau",
        "State": "Pulau Pinang"
    },
    {
        "Postcode": "11000",
        "Location": "Lorong Seri Genting 5",
        "Post_Office": "Balik Pulau",
        "State": "Pulau Pinang"
    },
    {
        "Postcode": "11000",
        "Location": "Lorong Seri Genting 6",
        "Post_Office": "Balik Pulau",
        "State": "Pulau Pinang"
    },
    {
        "Postcode": "11000",
        "Location": "Lorong Seri Genting 7",
        "Post_Office": "Balik Pulau",
        "State": "Pulau Pinang"
    },
    {
        "Postcode": "11000",
        "Location": "Lorong Seri Genting 8",
        "Post_Office": "Balik Pulau",
        "State": "Pulau Pinang"
    },
    {
        "Postcode": "11000",
        "Location": "Lorong Seri Genting 9",
        "Post_Office": "Balik Pulau",
        "State": "Pulau Pinang"
    },
    {
        "Postcode": "11000",
        "Location": "Lorong Sungai Nipah 1",
        "Post_Office": "Balik Pulau",
        "State": "Pulau Pinang"
    },
    {
        "Postcode": "11000",
        "Location": "Lorong Sungai Nipah 2",
        "Post_Office": "Balik Pulau",
        "State": "Pulau Pinang"
    },
    {
        "Postcode": "11000",
        "Location": "Lorong Sungai Nipah 3",
        "Post_Office": "Balik Pulau",
        "State": "Pulau Pinang"
    },
    {
        "Postcode": "11000",
        "Location": "Lorong Sungai Nipah 4",
        "Post_Office": "Balik Pulau",
        "State": "Pulau Pinang"
    },
    {
        "Postcode": "11000",
        "Location": "Lorong Sungai Nipah 5",
        "Post_Office": "Balik Pulau",
        "State": "Pulau Pinang"
    },
    {
        "Postcode": "11000",
        "Location": "Lorong Sungai Nipah 6",
        "Post_Office": "Balik Pulau",
        "State": "Pulau Pinang"
    },
    {
        "Postcode": "11000",
        "Location": "Solok Titi Teras 1",
        "Post_Office": "Balik Pulau",
        "State": "Pulau Pinang"
    },
    {
        "Postcode": "11000",
        "Location": "Solok Titi Teras 2",
        "Post_Office": "Balik Pulau",
        "State": "Pulau Pinang"
    },
    {
        "Postcode": "11000",
        "Location": "Solok Titi Teras 3",
        "Post_Office": "Balik Pulau",
        "State": "Pulau Pinang"
    },
    {
        "Postcode": "11000",
        "Location": "Solok Titi Teras 4",
        "Post_Office": "Balik Pulau",
        "State": "Pulau Pinang"
    },
    {
        "Postcode": "11000",
        "Location": "Taman Simpang Jaya 1",
        "Post_Office": "Balik Pulau",
        "State": "Pulau Pinang"
    },
    {
        "Postcode": "11000",
        "Location": "Taman Simpang Jaya 2",
        "Post_Office": "Balik Pulau",
        "State": "Pulau Pinang"
    },
    {
        "Postcode": "11000",
        "Location": "Taman Simpang Jaya 3",
        "Post_Office": "Balik Pulau",
        "State": "Pulau Pinang"
    },
    {
        "Postcode": "11000",
        "Location": "Taman Simpang Jaya 4",
        "Post_Office": "Balik Pulau",
        "State": "Pulau Pinang"
    },
    {
        "Postcode": "11000",
        "Location": "Taman Simpang Jaya 5",
        "Post_Office": "Balik Pulau",
        "State": "Pulau Pinang"
    },
    {
        "Postcode": "11000",
        "Location": "Tingkat Seri Genting 1",
        "Post_Office": "Balik Pulau",
        "State": "Pulau Pinang"
    },
    {
        "Postcode": "11000",
        "Location": "Tingkat Seri Genting 2",
        "Post_Office": "Balik Pulau",
        "State": "Pulau Pinang"
    },
    {
        "Postcode": "11000",
        "Location": "Tingkat Seri Genting 3",
        "Post_Office": "Balik Pulau",
        "State": "Pulau Pinang"
    },
    {
        "Postcode": "11000",
        "Location": "Tingkat Titi Teras 3",
        "Post_Office": "Balik Pulau",
        "State": "Pulau Pinang"
    },
    {
        "Postcode": "11000",
        "Location": "Tingkat Titi Teras 4",
        "Post_Office": "Balik Pulau",
        "State": "Pulau Pinang"
    },
    {
        "Postcode": "11000",
        "Location": "Tingkat Titi Teras 5",
        "Post_Office": "Balik Pulau",
        "State": "Pulau Pinang"
    },
    {
        "Postcode": "11000",
        "Location": "Tingkat Titi Teras 6",
        "Post_Office": "Balik Pulau",
        "State": "Pulau Pinang"
    },
    {
        "Postcode": "11000",
        "Location": "Tingkat Titi Teras 7",
        "Post_Office": "Balik Pulau",
        "State": "Pulau Pinang"
    },
    {
        "Postcode": "11000",
        "Location": "Tingkat Titi Teras 8",
        "Post_Office": "Balik Pulau",
        "State": "Pulau Pinang"
    },
    {
        "Postcode": "11000",
        "Location": "Tingkat Titi Teras 9",
        "Post_Office": "Balik Pulau",
        "State": "Pulau Pinang"
    },
    {
        "Postcode": "11000",
        "Location": "Kampung Jalan Baru",
        "Post_Office": "Balik Pulau",
        "State": "Pulau Pinang"
    },
    {
        "Postcode": "11000",
        "Location": "Kampung Paya",
        "Post_Office": "Balik Pulau",
        "State": "Pulau Pinang"
    },
    {
        "Postcode": "11000",
        "Location": "Taman Seri Emas",
        "Post_Office": "Balik Pulau",
        "State": "Pulau Pinang"
    },
    {
        "Postcode": "11000",
        "Location": "Taman Sri Genting",
        "Post_Office": "Balik Pulau",
        "State": "Pulau Pinang"
    },
    {
        "Postcode": "11000",
        "Location": "Bandar Baru Air Putih",
        "Post_Office": "Balik Pulau",
        "State": "Pulau Pinang"
    },
    {
        "Postcode": "11000",
        "Location": "Kampung Air Putih ",
        "Post_Office": "Balik Pulau",
        "State": "Pulau Pinang"
    },
    {
        "Postcode": "11000",
        "Location": "Kampung Balik Pulau",
        "Post_Office": "Balik Pulau",
        "State": "Pulau Pinang"
    },
    {
        "Postcode": "11000",
        "Location": "Kampung Batu Itam",
        "Post_Office": "Balik Pulau",
        "State": "Pulau Pinang"
    },
    {
        "Postcode": "11000",
        "Location": "Kampung Bukit Penara ",
        "Post_Office": "Balik Pulau",
        "State": "Pulau Pinang"
    },
    {
        "Postcode": "11000",
        "Location": "Kampung Padang Kemunting ",
        "Post_Office": "Balik Pulau",
        "State": "Pulau Pinang"
    },
    {
        "Postcode": "11000",
        "Location": "Kampung Paya Kongsi ",
        "Post_Office": "Balik Pulau",
        "State": "Pulau Pinang"
    },
    {
        "Postcode": "11000",
        "Location": "Kampung Pulau Betong",
        "Post_Office": "Balik Pulau",
        "State": "Pulau Pinang"
    },
    {
        "Postcode": "11000",
        "Location": "Kampung Sungai Burung ",
        "Post_Office": "Balik Pulau",
        "State": "Pulau Pinang"
    },
    {
        "Postcode": "11000",
        "Location": "Kampung Titi Serong",
        "Post_Office": "Balik Pulau",
        "State": "Pulau Pinang"
    },
    {
        "Postcode": "11000",
        "Location": "Kampung Titi Teras ",
        "Post_Office": "Balik Pulau",
        "State": "Pulau Pinang"
    },
    {
        "Postcode": "11000",
        "Location": "Permatang Timbul",
        "Post_Office": "Balik Pulau",
        "State": "Pulau Pinang"
    },
    {
        "Postcode": "11000",
        "Location": "Sungai Burung",
        "Post_Office": "Balik Pulau",
        "State": "Pulau Pinang"
    },
    {
        "Postcode": "11000",
        "Location": "Taman Genting Emas",
        "Post_Office": "Balik Pulau",
        "State": "Pulau Pinang"
    },
    {
        "Postcode": "11000",
        "Location": "Taman Metro",
        "Post_Office": "Balik Pulau",
        "State": "Pulau Pinang"
    },
    {
        "Postcode": "11000",
        "Location": "Taman Nelayan",
        "Post_Office": "Balik Pulau",
        "State": "Pulau Pinang"
    },
    {
        "Postcode": "11000",
        "Location": "Taman Pasir Mas",
        "Post_Office": "Balik Pulau",
        "State": "Pulau Pinang"
    },
    {
        "Postcode": "11000",
        "Location": "Taman Simpang Jaya",
        "Post_Office": "Balik Pulau",
        "State": "Pulau Pinang"
    },
    {
        "Postcode": "11000",
        "Location": "Jalan Besar",
        "Post_Office": "Balik Pulau",
        "State": "Pulau Pinang"
    },
    {
        "Postcode": "11000",
        "Location": "Jalan Pulau Betong",
        "Post_Office": "Balik Pulau",
        "State": "Pulau Pinang"
    },
    {
        "Postcode": "11000",
        "Location": "Jalan Relau",
        "Post_Office": "Balik Pulau",
        "State": "Pulau Pinang"
    },
    {
        "Postcode": "11000",
        "Location": "Kampung Permatang Tengah",
        "Post_Office": "Balik Pulau",
        "State": "Pulau Pinang"
    },
    {
        "Postcode": "11000",
        "Location": "Taman Jelita",
        "Post_Office": "Balik Pulau",
        "State": "Pulau Pinang"
    },
    {
        "Postcode": "11000",
        "Location": "Taman Kristal",
        "Post_Office": "Balik Pulau",
        "State": "Pulau Pinang"
    },
    {
        "Postcode": "11000",
        "Location": "Taman Mutiara",
        "Post_Office": "Balik Pulau",
        "State": "Pulau Pinang"
    },
    {
        "Postcode": "11000",
        "Location": "Taman Sri Indah",
        "Post_Office": "Balik Pulau",
        "State": "Pulau Pinang"
    },
    {
        "Postcode": "11000",
        "Location": "Jalan Sungai Pinang",
        "Post_Office": "Balik Pulau",
        "State": "Pulau Pinang"
    },
    {
        "Postcode": "11000",
        "Location": "Kampung Kuala Muda",
        "Post_Office": "Balik Pulau",
        "State": "Pulau Pinang"
    },
    {
        "Postcode": "11000",
        "Location": "Taman Manggis Indah",
        "Post_Office": "Balik Pulau",
        "State": "Pulau Pinang"
    },
    {
        "Postcode": "11000",
        "Location": "Ayer Puteh",
        "Post_Office": "Balik Pulau",
        "State": "Pulau Pinang"
    },
    {
        "Postcode": "11000",
        "Location": "Ayer Puteh Mk. 4",
        "Post_Office": "Balik Pulau",
        "State": "Pulau Pinang"
    },
    {
        "Postcode": "11000",
        "Location": "Ayer Puteh Mk. C",
        "Post_Office": "Balik Pulau",
        "State": "Pulau Pinang"
    },
    {
        "Postcode": "11000",
        "Location": "Ayer Puteh Mk. E",
        "Post_Office": "Balik Pulau",
        "State": "Pulau Pinang"
    },
    {
        "Postcode": "11000",
        "Location": "Balik Pulau",
        "Post_Office": "Balik Pulau",
        "State": "Pulau Pinang"
    },
    {
        "Postcode": "11000",
        "Location": "Batu Itam",
        "Post_Office": "Balik Pulau",
        "State": "Pulau Pinang"
    },
    {
        "Postcode": "11000",
        "Location": "Bukit Cengkeh",
        "Post_Office": "Balik Pulau",
        "State": "Pulau Pinang"
    },
    {
        "Postcode": "11000",
        "Location": "Bukit Penara",
        "Post_Office": "Balik Pulau",
        "State": "Pulau Pinang"
    },
    {
        "Postcode": "11000",
        "Location": "Focus Heights",
        "Post_Office": "Balik Pulau",
        "State": "Pulau Pinang"
    },
    {
        "Postcode": "11000",
        "Location": "Genting",
        "Post_Office": "Balik Pulau",
        "State": "Pulau Pinang"
    },
    {
        "Postcode": "11000",
        "Location": "Hilir Sungai Burong",
        "Post_Office": "Balik Pulau",
        "State": "Pulau Pinang"
    },
    {
        "Postcode": "11000",
        "Location": "Jalan Air Putih",
        "Post_Office": "Balik Pulau",
        "State": "Pulau Pinang"
    },
    {
        "Postcode": "11000",
        "Location": "Jalan Balik Pulau",
        "Post_Office": "Balik Pulau",
        "State": "Pulau Pinang"
    },
    {
        "Postcode": "11000",
        "Location": "Jalan Baru Mk. D",
        "Post_Office": "Balik Pulau",
        "State": "Pulau Pinang"
    },
    {
        "Postcode": "11000",
        "Location": "Jalan Baru Mk. H",
        "Post_Office": "Balik Pulau",
        "State": "Pulau Pinang"
    },
    {
        "Postcode": "11000",
        "Location": "Jalan Baru Mk. I",
        "Post_Office": "Balik Pulau",
        "State": "Pulau Pinang"
    },
    {
        "Postcode": "11000",
        "Location": "Jalan Bukit Penara",
        "Post_Office": "Balik Pulau",
        "State": "Pulau Pinang"
    },
    {
        "Postcode": "11000",
        "Location": "Jalan Chai",
        "Post_Office": "Balik Pulau",
        "State": "Pulau Pinang"
    },
    {
        "Postcode": "11000",
        "Location": "Jalan Genting",
        "Post_Office": "Balik Pulau",
        "State": "Pulau Pinang"
    },
    {
        "Postcode": "11000",
        "Location": "Jalan Nelayan",
        "Post_Office": "Balik Pulau",
        "State": "Pulau Pinang"
    },
    {
        "Postcode": "11000",
        "Location": "Jalan Pinang Nirai",
        "Post_Office": "Balik Pulau",
        "State": "Pulau Pinang"
    },
    {
        "Postcode": "11000",
        "Location": "Jalan Pondok Upeh",
        "Post_Office": "Balik Pulau",
        "State": "Pulau Pinang"
    },
    {
        "Postcode": "11000",
        "Location": "Jalan Pondok Upeh Mk. 6",
        "Post_Office": "Balik Pulau",
        "State": "Pulau Pinang"
    },
    {
        "Postcode": "11000",
        "Location": "Jalan Pulau Betong Mk. 7",
        "Post_Office": "Balik Pulau",
        "State": "Pulau Pinang"
    },
    {
        "Postcode": "11000",
        "Location": "Jalan Pulau Betong Mk. G",
        "Post_Office": "Balik Pulau",
        "State": "Pulau Pinang"
    },
    {
        "Postcode": "11000",
        "Location": "Jalan Pulau Betong Mk. J",
        "Post_Office": "Balik Pulau",
        "State": "Pulau Pinang"
    },
    {
        "Postcode": "11000",
        "Location": "Jalan Quah Sin Kheng",
        "Post_Office": "Balik Pulau",
        "State": "Pulau Pinang"
    },
    {
        "Postcode": "11000",
        "Location": "Jalan Relau Balik Pulau",
        "Post_Office": "Balik Pulau",
        "State": "Pulau Pinang"
    },
    {
        "Postcode": "11000",
        "Location": "Jalan Sungai Air Putih",
        "Post_Office": "Balik Pulau",
        "State": "Pulau Pinang"
    },
    {
        "Postcode": "11000",
        "Location": "Jalan Sungai Nipah",
        "Post_Office": "Balik Pulau",
        "State": "Pulau Pinang"
    },
    {
        "Postcode": "11000",
        "Location": "Jalan Telok Kumbar Mk.6",
        "Post_Office": "Balik Pulau",
        "State": "Pulau Pinang"
    },
    {
        "Postcode": "11000",
        "Location": "Jalan Tun Sardon",
        "Post_Office": "Balik Pulau",
        "State": "Pulau Pinang"
    },
    {
        "Postcode": "11000",
        "Location": "Kampung Genting",
        "Post_Office": "Balik Pulau",
        "State": "Pulau Pinang"
    },
    {
        "Postcode": "11000",
        "Location": "Kampung Kebun Besar",
        "Post_Office": "Balik Pulau",
        "State": "Pulau Pinang"
    },
    {
        "Postcode": "11000",
        "Location": "Kampung Paya Genting",
        "Post_Office": "Balik Pulau",
        "State": "Pulau Pinang"
    },
    {
        "Postcode": "11000",
        "Location": "Kampung Paya Mk. 6",
        "Post_Office": "Balik Pulau",
        "State": "Pulau Pinang"
    },
    {
        "Postcode": "11000",
        "Location": "Kampung Permatang Tengah Mk.G",
        "Post_Office": "Balik Pulau",
        "State": "Pulau Pinang"
    },
    {
        "Postcode": "11000",
        "Location": "Kampung Permatang Tepi  Mk.H",
        "Post_Office": "Balik Pulau",
        "State": "Pulau Pinang"
    },
    {
        "Postcode": "11000",
        "Location": "Kampung Permatang Timbul",
        "Post_Office": "Balik Pulau",
        "State": "Pulau Pinang"
    },
    {
        "Postcode": "11000",
        "Location": "Kampung Pondok Upeh",
        "Post_Office": "Balik Pulau",
        "State": "Pulau Pinang"
    },
    {
        "Postcode": "11000",
        "Location": "Kampung Sungai Nipah",
        "Post_Office": "Balik Pulau",
        "State": "Pulau Pinang"
    },
    {
        "Postcode": "11000",
        "Location": "Kampung Terang",
        "Post_Office": "Balik Pulau",
        "State": "Pulau Pinang"
    },
    {
        "Postcode": "11000",
        "Location": "Kampung Terang Mk. J",
        "Post_Office": "Balik Pulau",
        "State": "Pulau Pinang"
    },
    {
        "Postcode": "11000",
        "Location": "Kebun Besar",
        "Post_Office": "Balik Pulau",
        "State": "Pulau Pinang"
    },
    {
        "Postcode": "11000",
        "Location": "Komplek Balik Pulau",
        "Post_Office": "Balik Pulau",
        "State": "Pulau Pinang"
    },
    {
        "Postcode": "11000",
        "Location": "Kuala Jalan Baru",
        "Post_Office": "Balik Pulau",
        "State": "Pulau Pinang"
    },
    {
        "Postcode": "11000",
        "Location": "Kuala Jalan Baru Mk. C",
        "Post_Office": "Balik Pulau",
        "State": "Pulau Pinang"
    },
    {
        "Postcode": "11000",
        "Location": "Kuala Jalan Baru Mk. D",
        "Post_Office": "Balik Pulau",
        "State": "Pulau Pinang"
    },
    {
        "Postcode": "11000",
        "Location": "Lintang Bukit Penara 6",
        "Post_Office": "Balik Pulau",
        "State": "Pulau Pinang"
    },
    {
        "Postcode": "11000",
        "Location": "Lintang Bukit Penara 8",
        "Post_Office": "Balik Pulau",
        "State": "Pulau Pinang"
    },
    {
        "Postcode": "11000",
        "Location": "Lintang Pondok Upih",
        "Post_Office": "Balik Pulau",
        "State": "Pulau Pinang"
    },
    {
        "Postcode": "11000",
        "Location": "Lintang Sungai Burong",
        "Post_Office": "Balik Pulau",
        "State": "Pulau Pinang"
    },
    {
        "Postcode": "11000",
        "Location": "Lintang Sungai Burung",
        "Post_Office": "Balik Pulau",
        "State": "Pulau Pinang"
    },
    {
        "Postcode": "11000",
        "Location": "Lorong Pondok Upih",
        "Post_Office": "Balik Pulau",
        "State": "Pulau Pinang"
    },
    {
        "Postcode": "11000",
        "Location": "Lorong Seri Genting",
        "Post_Office": "Balik Pulau",
        "State": "Pulau Pinang"
    },
    {
        "Postcode": "11000",
        "Location": "Lorong Sungai Acheh",
        "Post_Office": "Balik Pulau",
        "State": "Pulau Pinang"
    },
    {
        "Postcode": "11000",
        "Location": "Padang Kemunting",
        "Post_Office": "Balik Pulau",
        "State": "Pulau Pinang"
    },
    {
        "Postcode": "11000",
        "Location": "Padang Kemunting Mk. E",
        "Post_Office": "Balik Pulau",
        "State": "Pulau Pinang"
    },
    {
        "Postcode": "11000",
        "Location": "Paya Kongsi",
        "Post_Office": "Balik Pulau",
        "State": "Pulau Pinang"
    },
    {
        "Postcode": "11000",
        "Location": "Pekan Kongsi",
        "Post_Office": "Balik Pulau",
        "State": "Pulau Pinang"
    },
    {
        "Postcode": "11000",
        "Location": "Permatang Tepi",
        "Post_Office": "Balik Pulau",
        "State": "Pulau Pinang"
    },
    {
        "Postcode": "11000",
        "Location": "Pokok Manggis",
        "Post_Office": "Balik Pulau",
        "State": "Pulau Pinang"
    },
    {
        "Postcode": "11000",
        "Location": "Pondok Upeh Mk. 6",
        "Post_Office": "Balik Pulau",
        "State": "Pulau Pinang"
    },
    {
        "Postcode": "11000",
        "Location": "Solok Kampung Air Putih",
        "Post_Office": "Balik Pulau",
        "State": "Pulau Pinang"
    },
    {
        "Postcode": "11000",
        "Location": "Solok Pondok Upih",
        "Post_Office": "Balik Pulau",
        "State": "Pulau Pinang"
    },
    {
        "Postcode": "11000",
        "Location": "Sungai Burong",
        "Post_Office": "Balik Pulau",
        "State": "Pulau Pinang"
    },
    {
        "Postcode": "11000",
        "Location": "Taman Balik Pulau",
        "Post_Office": "Balik Pulau",
        "State": "Pulau Pinang"
    },
    {
        "Postcode": "11000",
        "Location": "Taman Desa Genting",
        "Post_Office": "Balik Pulau",
        "State": "Pulau Pinang"
    },
    {
        "Postcode": "11000",
        "Location": "Taman Desa Mutiara",
        "Post_Office": "Balik Pulau",
        "State": "Pulau Pinang"
    },
    {
        "Postcode": "11000",
        "Location": "Taman Nyaman Indah",
        "Post_Office": "Balik Pulau",
        "State": "Pulau Pinang"
    },
    {
        "Postcode": "11000",
        "Location": "Taman Pondok Upeh",
        "Post_Office": "Balik Pulau",
        "State": "Pulau Pinang"
    },
    {
        "Postcode": "11000",
        "Location": "Taman Seri Genting 1",
        "Post_Office": "Balik Pulau",
        "State": "Pulau Pinang"
    },
    {
        "Postcode": "11000",
        "Location": "Tingkat Seri Genting",
        "Post_Office": "Balik Pulau",
        "State": "Pulau Pinang"
    },
    {
        "Postcode": "11000",
        "Location": "Titi Serong",
        "Post_Office": "Balik Pulau",
        "State": "Pulau Pinang"
    },
    {
        "Postcode": "11000",
        "Location": "Titi Serong Mk. 5",
        "Post_Office": "Balik Pulau",
        "State": "Pulau Pinang"
    },
    {
        "Postcode": "11000",
        "Location": "Titi Teras",
        "Post_Office": "Balik Pulau",
        "State": "Pulau Pinang"
    },
    {
        "Postcode": "11000",
        "Location": "Titi Teras Mk. E",
        "Post_Office": "Balik Pulau",
        "State": "Pulau Pinang"
    }
]
