[
    {
        "Postcode": "11010",
        "Location": "Jalan Kampung Air Putih 2",
        "Post_Office": "Balik Pulau",
        "State": "Pulau Pinang"
    },
    {
        "Postcode": "11010",
        "Location": "Jalan Kampung Air Putih 3",
        "Post_Office": "Balik Pulau",
        "State": "Pulau Pinang"
    },
    {
        "Postcode": "11010",
        "Location": "Jalan Kampung Air Putih 4",
        "Post_Office": "Balik Pulau",
        "State": "Pulau Pinang"
    },
    {
        "Postcode": "11010",
        "Location": "Jalan Sungai Rusa 1",
        "Post_Office": "Balik Pulau",
        "State": "Pulau Pinang"
    },
    {
        "Postcode": "11010",
        "Location": "Jalan Sungai Rusa 2",
        "Post_Office": "Balik Pulau",
        "State": "Pulau Pinang"
    },
    {
        "Postcode": "11010",
        "Location": "Jalan Sungai Rusa 3",
        "Post_Office": "Balik Pulau",
        "State": "Pulau Pinang"
    },
    {
        "Postcode": "11010",
        "Location": "Lorong Permatang Pasir 10",
        "Post_Office": "Balik Pulau",
        "State": "Pulau Pinang"
    },
    {
        "Postcode": "11010",
        "Location": "Lorong Permatang Pasir 8",
        "Post_Office": "Balik Pulau",
        "State": "Pulau Pinang"
    },
    {
        "Postcode": "11010",
        "Location": "Lorong Permatang Pasir 9",
        "Post_Office": "Balik Pulau",
        "State": "Pulau Pinang"
    },
    {
        "Postcode": "11010",
        "Location": "Lorong Sungai Pinang 1",
        "Post_Office": "Balik Pulau",
        "State": "Pulau Pinang"
    },
    {
        "Postcode": "11010",
        "Location": "Lorong Sungai Pinang 2",
        "Post_Office": "Balik Pulau",
        "State": "Pulau Pinang"
    },
    {
        "Postcode": "11010",
        "Location": "Lorong Sungai Pinang 3",
        "Post_Office": "Balik Pulau",
        "State": "Pulau Pinang"
    },
    {
        "Postcode": "11010",
        "Location": "Lorong Sungai Pinang 4",
        "Post_Office": "Balik Pulau",
        "State": "Pulau Pinang"
    },
    {
        "Postcode": "11010",
        "Location": "Lorong Sungai Pinang 5",
        "Post_Office": "Balik Pulau",
        "State": "Pulau Pinang"
    },
    {
        "Postcode": "11010",
        "Location": "Lorong Sungai Pinang 6",
        "Post_Office": "Balik Pulau",
        "State": "Pulau Pinang"
    },
    {
        "Postcode": "11010",
        "Location": "Solok Nelayan 1",
        "Post_Office": "Balik Pulau",
        "State": "Pulau Pinang"
    },
    {
        "Postcode": "11010",
        "Location": "Solok Nelayan 2",
        "Post_Office": "Balik Pulau",
        "State": "Pulau Pinang"
    },
    {
        "Postcode": "11010",
        "Location": "Solok Nelayan 3",
        "Post_Office": "Balik Pulau",
        "State": "Pulau Pinang"
    },
    {
        "Postcode": "11010",
        "Location": "Solok Nelayan 4",
        "Post_Office": "Balik Pulau",
        "State": "Pulau Pinang"
    },
    {
        "Postcode": "11010",
        "Location": "Solok Nelayan 5",
        "Post_Office": "Balik Pulau",
        "State": "Pulau Pinang"
    },
    {
        "Postcode": "11010",
        "Location": "Solok Nelayan 6",
        "Post_Office": "Balik Pulau",
        "State": "Pulau Pinang"
    },
    {
        "Postcode": "11010",
        "Location": "Solok Nelayan 7",
        "Post_Office": "Balik Pulau",
        "State": "Pulau Pinang"
    },
    {
        "Postcode": "11010",
        "Location": "Solok Nelayan 8",
        "Post_Office": "Balik Pulau",
        "State": "Pulau Pinang"
    },
    {
        "Postcode": "11010",
        "Location": "Solok Nelayan 9",
        "Post_Office": "Balik Pulau",
        "State": "Pulau Pinang"
    },
    {
        "Postcode": "11010",
        "Location": "Bukit Kecil",
        "Post_Office": "Balik Pulau",
        "State": "Pulau Pinang"
    },
    {
        "Postcode": "11010",
        "Location": "Solok Nelayan",
        "Post_Office": "Balik Pulau",
        "State": "Pulau Pinang"
    },
    {
        "Postcode": "11010",
        "Location": "Sungai Nipah",
        "Post_Office": "Balik Pulau",
        "State": "Pulau Pinang"
    },
    {
        "Postcode": "11010",
        "Location": "Jalan Kampung Air Putih 1",
        "Post_Office": "Balik Pulau",
        "State": "Pulau Pinang"
    },
    {
        "Postcode": "11010",
        "Location": "Jalan Titi Kerawang",
        "Post_Office": "Balik Pulau",
        "State": "Pulau Pinang"
    },
    {
        "Postcode": "11010",
        "Location": "Bandar Baru Air Puteh",
        "Post_Office": "Balik Pulau",
        "State": "Pulau Pinang"
    },
    {
        "Postcode": "11010",
        "Location": "Jalan Sungai Rusa",
        "Post_Office": "Balik Pulau",
        "State": "Pulau Pinang"
    },
    {
        "Postcode": "11010",
        "Location": "Kampung Pokok Manggis",
        "Post_Office": "Balik Pulau",
        "State": "Pulau Pinang"
    },
    {
        "Postcode": "11010",
        "Location": "Kuala Sungai Pinang",
        "Post_Office": "Balik Pulau",
        "State": "Pulau Pinang"
    },
    {
        "Postcode": "11010",
        "Location": "Lengkok Nelayan",
        "Post_Office": "Balik Pulau",
        "State": "Pulau Pinang"
    },
    {
        "Postcode": "11010",
        "Location": "Lintang Nelayan",
        "Post_Office": "Balik Pulau",
        "State": "Pulau Pinang"
    },
    {
        "Postcode": "11010",
        "Location": "Lorong Permatang Pasir 1",
        "Post_Office": "Balik Pulau",
        "State": "Pulau Pinang"
    },
    {
        "Postcode": "11010",
        "Location": "Lorong Sungai Rusa",
        "Post_Office": "Balik Pulau",
        "State": "Pulau Pinang"
    },
    {
        "Postcode": "11010",
        "Location": "Pantai Acheh",
        "Post_Office": "Balik Pulau",
        "State": "Pulau Pinang"
    },
    {
        "Postcode": "11010",
        "Location": "Pantai Acheh Mk,1",
        "Post_Office": "Balik Pulau",
        "State": "Pulau Pinang"
    },
    {
        "Postcode": "11010",
        "Location": "Pantai Acheh Mk. 1",
        "Post_Office": "Balik Pulau",
        "State": "Pulau Pinang"
    },
    {
        "Postcode": "11010",
        "Location": "Pekan Sungai Pinang",
        "Post_Office": "Balik Pulau",
        "State": "Pulau Pinang"
    },
    {
        "Postcode": "11010",
        "Location": "Permatang Pasir Mk.C",
        "Post_Office": "Balik Pulau",
        "State": "Pulau Pinang"
    },
    {
        "Postcode": "11010",
        "Location": "Solok Kuala Sungai Pinang",
        "Post_Office": "Balik Pulau",
        "State": "Pulau Pinang"
    },
    {
        "Postcode": "11010",
        "Location": "Sungai Pinang",
        "Post_Office": "Balik Pulau",
        "State": "Pulau Pinang"
    },
    {
        "Postcode": "11010",
        "Location": "Sungai Pinang Mk. 3",
        "Post_Office": "Balik Pulau",
        "State": "Pulau Pinang"
    },
    {
        "Postcode": "11010",
        "Location": "Sungai Pinang Mk. B",
        "Post_Office": "Balik Pulau",
        "State": "Pulau Pinang"
    },
    {
        "Postcode": "11010",
        "Location": "Sungai Rusa",
        "Post_Office": "Balik Pulau",
        "State": "Pulau Pinang"
    },
    {
        "Postcode": "11010",
        "Location": "Sungai Rusa Mk. 3",
        "Post_Office": "Balik Pulau",
        "State": "Pulau Pinang"
    },
    {
        "Postcode": "11010",
        "Location": "Sungai Rusa Mk. B",
        "Post_Office": "Balik Pulau",
        "State": "Pulau Pinang"
    },
    {
        "Postcode": "11010",
        "Location": "Taman Donaldson",
        "Post_Office": "Balik Pulau",
        "State": "Pulau Pinang"
    },
    {
        "Postcode": "11010",
        "Location": "Taman Permatang Pasir",
        "Post_Office": "Balik Pulau",
        "State": "Pulau Pinang"
    },
    {
        "Postcode": "11010",
        "Location": "Taman Seri Sayang",
        "Post_Office": "Balik Pulau",
        "State": "Pulau Pinang"
    }
]
