[
    {
        "Postcode": "11020",
        "Location": "Kampung Perlis",
        "Post_Office": "Balik Pulau",
        "State": "Pulau Pinang"
    },
    {
        "Postcode": "11020",
        "Location": "Permatang Pasir",
        "Post_Office": "Balik Pulau",
        "State": "Pulau Pinang"
    },
    {
        "Postcode": "11020",
        "Location": "Bagan Pulau Betong",
        "Post_Office": "Balik Pulau",
        "State": "Pulau Pinang"
    },
    {
        "Postcode": "11020",
        "Location": "Kuala Pulau Betong",
        "Post_Office": "Balik Pulau",
        "State": "Pulau Pinang"
    },
    {
        "Postcode": "11020",
        "Location": "Pasir Panjang",
        "Post_Office": "Balik Pulau",
        "State": "Pulau Pinang"
    },
    {
        "Postcode": "11020",
        "Location": "Pekan Pulau Betong",
        "Post_Office": "Balik Pulau",
        "State": "Pulau Pinang"
    },
    {
        "Postcode": "11020",
        "Location": "Pondok Upeh",
        "Post_Office": "Balik Pulau",
        "State": "Pulau Pinang"
    },
    {
        "Postcode": "11020",
        "Location": "Pulau Betong",
        "Post_Office": "Balik Pulau",
        "State": "Pulau Pinang"
    }
]
