[
    {
        "Postcode": "11050",
        "Location": "Lorong Hassan Abbas 2",
        "Post_Office": "Pulau Pinang",
        "State": "Pulau Pinang"
    },
    {
        "Postcode": "11050",
        "Location": "Lorong Hassan Abbas 3",
        "Post_Office": "Pulau Pinang",
        "State": "Pulau Pinang"
    },
    {
        "Postcode": "11050",
        "Location": "Lorong Hassan Abbas 4",
        "Post_Office": "Pulau Pinang",
        "State": "Pulau Pinang"
    },
    {
        "Postcode": "11050",
        "Location": "Lorong Hassan Abbas 7",
        "Post_Office": "Pulau Pinang",
        "State": "Pulau Pinang"
    },
    {
        "Postcode": "11050",
        "Location": "Kampung Masjid",
        "Post_Office": "Pulau Pinang",
        "State": "Pulau Pinang"
    },
    {
        "Postcode": "11050",
        "Location": "Aseania Court",
        "Post_Office": "Pulau Pinang",
        "State": "Pulau Pinang"
    },
    {
        "Postcode": "11050",
        "Location": "Desa Marina",
        "Post_Office": "Pulau Pinang",
        "State": "Pulau Pinang"
    },
    {
        "Postcode": "11050",
        "Location": "Jalan Hassan Abbas",
        "Post_Office": "Pulau Pinang",
        "State": "Pulau Pinang"
    },
    {
        "Postcode": "11050",
        "Location": "Jalan Taman Rimba",
        "Post_Office": "Pulau Pinang",
        "State": "Pulau Pinang"
    },
    {
        "Postcode": "11050",
        "Location": "Jalan Teluk Bahang",
        "Post_Office": "Pulau Pinang",
        "State": "Pulau Pinang"
    },
    {
        "Postcode": "11050",
        "Location": "Kampung Bangsal Rawai",
        "Post_Office": "Pulau Pinang",
        "State": "Pulau Pinang"
    },
    {
        "Postcode": "11050",
        "Location": "Kampung Haji Dak",
        "Post_Office": "Pulau Pinang",
        "State": "Pulau Pinang"
    },
    {
        "Postcode": "11050",
        "Location": "Kampung Sekolah",
        "Post_Office": "Pulau Pinang",
        "State": "Pulau Pinang"
    },
    {
        "Postcode": "11050",
        "Location": "Kampung Teluk Awak",
        "Post_Office": "Pulau Pinang",
        "State": "Pulau Pinang"
    },
    {
        "Postcode": "11050",
        "Location": "Kampung Teluk Awak Mukim 1",
        "Post_Office": "Pulau Pinang",
        "State": "Pulau Pinang"
    },
    {
        "Postcode": "11050",
        "Location": "Lorong Hj. Hassan Abbas",
        "Post_Office": "Pulau Pinang",
        "State": "Pulau Pinang"
    },
    {
        "Postcode": "11050",
        "Location": "Lorong Nelayan",
        "Post_Office": "Pulau Pinang",
        "State": "Pulau Pinang"
    },
    {
        "Postcode": "11050",
        "Location": "Medan Nelayan",
        "Post_Office": "Pulau Pinang",
        "State": "Pulau Pinang"
    },
    {
        "Postcode": "11050",
        "Location": "Pekan Teluk Bahang",
        "Post_Office": "Pulau Pinang",
        "State": "Pulau Pinang"
    }
]
