[
    {
        "Postcode": "11100",
        "Location": "Jalan Pantai Miami",
        "Post_Office": "Batu Ferringhi",
        "State": "Pulau Pinang"
    },
    {
        "Postcode": "11100",
        "Location": "Taman Pantai Batu",
        "Post_Office": "Batu Ferringhi",
        "State": "Pulau Pinang"
    },
    {
        "Postcode": "11100",
        "Location": "Jalan Batu Ferringhi",
        "Post_Office": "Batu Ferringhi",
        "State": "Pulau Pinang"
    },
    {
        "Postcode": "11100",
        "Location": "Jalan Ferringhi Indah 1",
        "Post_Office": "Batu Ferringhi",
        "State": "Pulau Pinang"
    },
    {
        "Postcode": "11100",
        "Location": "Jalan Ferringhi Indah 2",
        "Post_Office": "Batu Ferringhi",
        "State": "Pulau Pinang"
    },
    {
        "Postcode": "11100",
        "Location": "Jalan Ferringhi Indah 3",
        "Post_Office": "Batu Ferringhi",
        "State": "Pulau Pinang"
    },
    {
        "Postcode": "11100",
        "Location": "Jalan Ferringhi Indah 5",
        "Post_Office": "Batu Ferringhi",
        "State": "Pulau Pinang"
    },
    {
        "Postcode": "11100",
        "Location": "Jalan Ferringhi Indah 7",
        "Post_Office": "Batu Ferringhi",
        "State": "Pulau Pinang"
    },
    {
        "Postcode": "11100",
        "Location": "Jalan Sungai Emas 1",
        "Post_Office": "Batu Ferringhi",
        "State": "Pulau Pinang"
    },
    {
        "Postcode": "11100",
        "Location": "Jalan Sungai Emas 2",
        "Post_Office": "Batu Ferringhi",
        "State": "Pulau Pinang"
    },
    {
        "Postcode": "11100",
        "Location": "Jalan Sungai Emas 2A",
        "Post_Office": "Batu Ferringhi",
        "State": "Pulau Pinang"
    },
    {
        "Postcode": "11100",
        "Location": "Jalan Sungai Emas 3",
        "Post_Office": "Batu Ferringhi",
        "State": "Pulau Pinang"
    },
    {
        "Postcode": "11100",
        "Location": "Jalan Sungai Emas 4",
        "Post_Office": "Batu Ferringhi",
        "State": "Pulau Pinang"
    },
    {
        "Postcode": "11100",
        "Location": "Jalan Sungai Emas 5",
        "Post_Office": "Batu Ferringhi",
        "State": "Pulau Pinang"
    },
    {
        "Postcode": "11100",
        "Location": "Jalan Sungai Emas 5A",
        "Post_Office": "Batu Ferringhi",
        "State": "Pulau Pinang"
    },
    {
        "Postcode": "11100",
        "Location": "Jalan Sungai Emas 5B",
        "Post_Office": "Batu Ferringhi",
        "State": "Pulau Pinang"
    },
    {
        "Postcode": "11100",
        "Location": "Jalan Sungai Emas 5C",
        "Post_Office": "Batu Ferringhi",
        "State": "Pulau Pinang"
    },
    {
        "Postcode": "11100",
        "Location": "Jalan Sungai Emas 5D",
        "Post_Office": "Batu Ferringhi",
        "State": "Pulau Pinang"
    },
    {
        "Postcode": "11100",
        "Location": "Lengkok Sungai Emas 1",
        "Post_Office": "Batu Ferringhi",
        "State": "Pulau Pinang"
    },
    {
        "Postcode": "11100",
        "Location": "Lengkok Sungai Emas 2",
        "Post_Office": "Batu Ferringhi",
        "State": "Pulau Pinang"
    },
    {
        "Postcode": "11100",
        "Location": "Lengkok Sungai Emas 3",
        "Post_Office": "Batu Ferringhi",
        "State": "Pulau Pinang"
    },
    {
        "Postcode": "11100",
        "Location": "Lintang Ferringhi 1",
        "Post_Office": "Batu Ferringhi",
        "State": "Pulau Pinang"
    },
    {
        "Postcode": "11100",
        "Location": "Lintang Ferringhi 2",
        "Post_Office": "Batu Ferringhi",
        "State": "Pulau Pinang"
    },
    {
        "Postcode": "11100",
        "Location": "Lintang Ferringhi 3",
        "Post_Office": "Batu Ferringhi",
        "State": "Pulau Pinang"
    },
    {
        "Postcode": "11100",
        "Location": "Lintang Ferringhi 4",
        "Post_Office": "Batu Ferringhi",
        "State": "Pulau Pinang"
    },
    {
        "Postcode": "11100",
        "Location": "Solok Ferringhi 1",
        "Post_Office": "Batu Ferringhi",
        "State": "Pulau Pinang"
    },
    {
        "Postcode": "11100",
        "Location": "Solok Ferringhi 2",
        "Post_Office": "Batu Ferringhi",
        "State": "Pulau Pinang"
    },
    {
        "Postcode": "11100",
        "Location": "Solok Pantai Batu 1",
        "Post_Office": "Batu Ferringhi",
        "State": "Pulau Pinang"
    },
    {
        "Postcode": "11100",
        "Location": "Solok Pantai Batu 2",
        "Post_Office": "Batu Ferringhi",
        "State": "Pulau Pinang"
    },
    {
        "Postcode": "11100",
        "Location": "Batu Feringghi",
        "Post_Office": "Batu Ferringhi",
        "State": "Pulau Pinang"
    },
    {
        "Postcode": "11100",
        "Location": "Bukit Mewah",
        "Post_Office": "Batu Ferringhi",
        "State": "Pulau Pinang"
    },
    {
        "Postcode": "11100",
        "Location": "Bukit Ria",
        "Post_Office": "Batu Ferringhi",
        "State": "Pulau Pinang"
    },
    {
        "Postcode": "11100",
        "Location": "Changkat Ria",
        "Post_Office": "Batu Ferringhi",
        "State": "Pulau Pinang"
    },
    {
        "Postcode": "11100",
        "Location": "Eden Fairway Condo",
        "Post_Office": "Batu Ferringhi",
        "State": "Pulau Pinang"
    },
    {
        "Postcode": "11100",
        "Location": "Eden Feringghi Delima Condo",
        "Post_Office": "Batu Ferringhi",
        "State": "Pulau Pinang"
    },
    {
        "Postcode": "11100",
        "Location": "Eden Parade",
        "Post_Office": "Batu Ferringhi",
        "State": "Pulau Pinang"
    },
    {
        "Postcode": "11100",
        "Location": "Eden Seaview",
        "Post_Office": "Batu Ferringhi",
        "State": "Pulau Pinang"
    },
    {
        "Postcode": "11100",
        "Location": "Feringghi Mutiara Appartment",
        "Post_Office": "Batu Ferringhi",
        "State": "Pulau Pinang"
    },
    {
        "Postcode": "11100",
        "Location": "Jalan Ferringhi Indah",
        "Post_Office": "Batu Ferringhi",
        "State": "Pulau Pinang"
    },
    {
        "Postcode": "11100",
        "Location": "Jalan Low Yat",
        "Post_Office": "Batu Ferringhi",
        "State": "Pulau Pinang"
    },
    {
        "Postcode": "11100",
        "Location": "Jalan Pantai Batu",
        "Post_Office": "Batu Ferringhi",
        "State": "Pulau Pinang"
    },
    {
        "Postcode": "11100",
        "Location": "Jalan Sungai Emas",
        "Post_Office": "Batu Ferringhi",
        "State": "Pulau Pinang"
    },
    {
        "Postcode": "11100",
        "Location": "Jalan Sungai Satu",
        "Post_Office": "Batu Ferringhi",
        "State": "Pulau Pinang"
    },
    {
        "Postcode": "11100",
        "Location": "Kampung Belacan",
        "Post_Office": "Batu Ferringhi",
        "State": "Pulau Pinang"
    },
    {
        "Postcode": "11100",
        "Location": "Kampung Chetty",
        "Post_Office": "Batu Ferringhi",
        "State": "Pulau Pinang"
    },
    {
        "Postcode": "11100",
        "Location": "Kampung Hailam",
        "Post_Office": "Batu Ferringhi",
        "State": "Pulau Pinang"
    },
    {
        "Postcode": "11100",
        "Location": "Kampung Mutiara",
        "Post_Office": "Batu Ferringhi",
        "State": "Pulau Pinang"
    },
    {
        "Postcode": "11100",
        "Location": "Lengkok Ferringhi",
        "Post_Office": "Batu Ferringhi",
        "State": "Pulau Pinang"
    },
    {
        "Postcode": "11100",
        "Location": "Lengkok Sungai Emas",
        "Post_Office": "Batu Ferringhi",
        "State": "Pulau Pinang"
    },
    {
        "Postcode": "11100",
        "Location": "Lengkok Sungai Emas 4",
        "Post_Office": "Batu Ferringhi",
        "State": "Pulau Pinang"
    },
    {
        "Postcode": "11100",
        "Location": "Lengkok Sungai Emas 5",
        "Post_Office": "Batu Ferringhi",
        "State": "Pulau Pinang"
    },
    {
        "Postcode": "11100",
        "Location": "Lilitan Sungai Emas",
        "Post_Office": "Batu Ferringhi",
        "State": "Pulau Pinang"
    },
    {
        "Postcode": "11100",
        "Location": "Lorong Sungai Emas",
        "Post_Office": "Batu Ferringhi",
        "State": "Pulau Pinang"
    },
    {
        "Postcode": "11100",
        "Location": "Miami Garden",
        "Post_Office": "Batu Ferringhi",
        "State": "Pulau Pinang"
    },
    {
        "Postcode": "11100",
        "Location": "Mount Pleasure",
        "Post_Office": "Batu Ferringhi",
        "State": "Pulau Pinang"
    },
    {
        "Postcode": "11100",
        "Location": "Pantai Miami",
        "Post_Office": "Batu Ferringhi",
        "State": "Pulau Pinang"
    },
    {
        "Postcode": "11100",
        "Location": "Persiaran Sungai Emas",
        "Post_Office": "Batu Ferringhi",
        "State": "Pulau Pinang"
    },
    {
        "Postcode": "11100",
        "Location": "Persiaran Sungai Emas 1",
        "Post_Office": "Batu Ferringhi",
        "State": "Pulau Pinang"
    },
    {
        "Postcode": "11100",
        "Location": "Pinang Emas Aparment",
        "Post_Office": "Batu Ferringhi",
        "State": "Pulau Pinang"
    },
    {
        "Postcode": "11100",
        "Location": "Puncak Ria",
        "Post_Office": "Batu Ferringhi",
        "State": "Pulau Pinang"
    },
    {
        "Postcode": "11100",
        "Location": "Sea Range Tower",
        "Post_Office": "Batu Ferringhi",
        "State": "Pulau Pinang"
    },
    {
        "Postcode": "11100",
        "Location": "Sea View Garden",
        "Post_Office": "Batu Ferringhi",
        "State": "Pulau Pinang"
    },
    {
        "Postcode": "11100",
        "Location": "Sungai Emas 1",
        "Post_Office": "Batu Ferringhi",
        "State": "Pulau Pinang"
    },
    {
        "Postcode": "11100",
        "Location": "The Reef Appartment",
        "Post_Office": "Batu Ferringhi",
        "State": "Pulau Pinang"
    },
    {
        "Postcode": "11100",
        "Location": "Tingkat Pantai Miami",
        "Post_Office": "Batu Ferringhi",
        "State": "Pulau Pinang"
    }
]
