[
    {
        "Postcode": "11200",
        "Location": "Desa Tanjung",
        "Post_Office": "Tanjong Bungah",
        "State": "Pulau Pinang"
    },
    {
        "Postcode": "11200",
        "Location": "Jalan Bintang",
        "Post_Office": "Tanjong Bungah",
        "State": "Pulau Pinang"
    },
    {
        "Postcode": "11200",
        "Location": "Jalan Pantai Miami",
        "Post_Office": "Tanjong Bungah",
        "State": "Pulau Pinang"
    },
    {
        "Postcode": "11200",
        "Location": "Jalan Pelangi",
        "Post_Office": "Tanjong Bungah",
        "State": "Pulau Pinang"
    },
    {
        "Postcode": "11200",
        "Location": "Kampung Cina",
        "Post_Office": "Tanjong Bungah",
        "State": "Pulau Pinang"
    },
    {
        "Postcode": "11200",
        "Location": "Kampung Melayu",
        "Post_Office": "Tanjong Bungah",
        "State": "Pulau Pinang"
    },
    {
        "Postcode": "11200",
        "Location": "Lorong Bintang",
        "Post_Office": "Tanjong Bungah",
        "State": "Pulau Pinang"
    },
    {
        "Postcode": "11200",
        "Location": "Kampung Poy Wah",
        "Post_Office": "Tanjong Bungah",
        "State": "Pulau Pinang"
    },
    {
        "Postcode": "11200",
        "Location": "Kampung Ubi Kayu",
        "Post_Office": "Tanjong Bungah",
        "State": "Pulau Pinang"
    },
    {
        "Postcode": "11200",
        "Location": "Taman Bayu Timur",
        "Post_Office": "Tanjong Bungah",
        "State": "Pulau Pinang"
    },
    {
        "Postcode": "11200",
        "Location": "Taman Miami Green",
        "Post_Office": "Tanjong Bungah",
        "State": "Pulau Pinang"
    },
    {
        "Postcode": "11200",
        "Location": "Taman Sri Bayu",
        "Post_Office": "Tanjong Bungah",
        "State": "Pulau Pinang"
    },
    {
        "Postcode": "11200",
        "Location": "Taman Sri Setia",
        "Post_Office": "Tanjong Bungah",
        "State": "Pulau Pinang"
    },
    {
        "Postcode": "11200",
        "Location": "Jalan Batu Bukit",
        "Post_Office": "Tanjong Bungah",
        "State": "Pulau Pinang"
    },
    {
        "Postcode": "11200",
        "Location": "Jalan Batu Ferringhi",
        "Post_Office": "Tanjong Bungah",
        "State": "Pulau Pinang"
    },
    {
        "Postcode": "11200",
        "Location": "Jalan Bulan",
        "Post_Office": "Tanjong Bungah",
        "State": "Pulau Pinang"
    },
    {
        "Postcode": "11200",
        "Location": "Jalan Meranti",
        "Post_Office": "Tanjong Bungah",
        "State": "Pulau Pinang"
    },
    {
        "Postcode": "11200",
        "Location": "Jalan Merbau",
        "Post_Office": "Tanjong Bungah",
        "State": "Pulau Pinang"
    },
    {
        "Postcode": "11200",
        "Location": "Jalan Rusa",
        "Post_Office": "Tanjong Bungah",
        "State": "Pulau Pinang"
    },
    {
        "Postcode": "11200",
        "Location": "Jalan Sentosa",
        "Post_Office": "Tanjong Bungah",
        "State": "Pulau Pinang"
    },
    {
        "Postcode": "11200",
        "Location": "Taman Kota Permai",
        "Post_Office": "Tanjong Bungah",
        "State": "Pulau Pinang"
    },
    {
        "Postcode": "11200",
        "Location": "Jalan Tanjong Tokong",
        "Post_Office": "Tanjong Bungah",
        "State": "Pulau Pinang"
    },
    {
        "Postcode": "11200",
        "Location": "Jalan Telaga Air",
        "Post_Office": "Tanjong Bungah",
        "State": "Pulau Pinang"
    },
    {
        "Postcode": "11200",
        "Location": "Jalan Chee Seng 1",
        "Post_Office": "Tanjong Bungah",
        "State": "Pulau Pinang"
    },
    {
        "Postcode": "11200",
        "Location": "Jalan Chee Seng 10",
        "Post_Office": "Tanjong Bungah",
        "State": "Pulau Pinang"
    },
    {
        "Postcode": "11200",
        "Location": "Jalan Chee Seng 11",
        "Post_Office": "Tanjong Bungah",
        "State": "Pulau Pinang"
    },
    {
        "Postcode": "11200",
        "Location": "Jalan Chee Seng 12",
        "Post_Office": "Tanjong Bungah",
        "State": "Pulau Pinang"
    },
    {
        "Postcode": "11200",
        "Location": "Jalan Chee Seng 13",
        "Post_Office": "Tanjong Bungah",
        "State": "Pulau Pinang"
    },
    {
        "Postcode": "11200",
        "Location": "Jalan Chee Seng 2",
        "Post_Office": "Tanjong Bungah",
        "State": "Pulau Pinang"
    },
    {
        "Postcode": "11200",
        "Location": "Jalan Chee Seng 3",
        "Post_Office": "Tanjong Bungah",
        "State": "Pulau Pinang"
    },
    {
        "Postcode": "11200",
        "Location": "Jalan Chee Seng 4",
        "Post_Office": "Tanjong Bungah",
        "State": "Pulau Pinang"
    },
    {
        "Postcode": "11200",
        "Location": "Jalan Chee Seng 5",
        "Post_Office": "Tanjong Bungah",
        "State": "Pulau Pinang"
    },
    {
        "Postcode": "11200",
        "Location": "Jalan Chee Seng 6",
        "Post_Office": "Tanjong Bungah",
        "State": "Pulau Pinang"
    },
    {
        "Postcode": "11200",
        "Location": "Jalan Chee Seng 7",
        "Post_Office": "Tanjong Bungah",
        "State": "Pulau Pinang"
    },
    {
        "Postcode": "11200",
        "Location": "Casa Lagenda Mutiara",
        "Post_Office": "Tanjong Bungah",
        "State": "Pulau Pinang"
    },
    {
        "Postcode": "11200",
        "Location": "Fettes Park",
        "Post_Office": "Tanjong Bungah",
        "State": "Pulau Pinang"
    },
    {
        "Postcode": "11200",
        "Location": "Hillside",
        "Post_Office": "Tanjong Bungah",
        "State": "Pulau Pinang"
    },
    {
        "Postcode": "11200",
        "Location": "Jalan Abbas",
        "Post_Office": "Tanjong Bungah",
        "State": "Pulau Pinang"
    },
    {
        "Postcode": "11200",
        "Location": "Jalan Ahmad Bin Kasa",
        "Post_Office": "Tanjong Bungah",
        "State": "Pulau Pinang"
    },
    {
        "Postcode": "11200",
        "Location": "Jalan Azyze",
        "Post_Office": "Tanjong Bungah",
        "State": "Pulau Pinang"
    },
    {
        "Postcode": "11200",
        "Location": "Jalan Baba Ahmad",
        "Post_Office": "Tanjong Bungah",
        "State": "Pulau Pinang"
    },
    {
        "Postcode": "11200",
        "Location": "Jalan Bahaudin",
        "Post_Office": "Tanjong Bungah",
        "State": "Pulau Pinang"
    },
    {
        "Postcode": "11200",
        "Location": "Jalan Bunga Bakawali",
        "Post_Office": "Tanjong Bungah",
        "State": "Pulau Pinang"
    },
    {
        "Postcode": "11200",
        "Location": "Jalan Bunga Cempaka Putih",
        "Post_Office": "Tanjong Bungah",
        "State": "Pulau Pinang"
    },
    {
        "Postcode": "11200",
        "Location": "Jalan Bunga Ciku Dangan",
        "Post_Office": "Tanjong Bungah",
        "State": "Pulau Pinang"
    },
    {
        "Postcode": "11200",
        "Location": "Jalan Bunga Hinai",
        "Post_Office": "Tanjong Bungah",
        "State": "Pulau Pinang"
    },
    {
        "Postcode": "11200",
        "Location": "Jalan Bunga Kacang Piring",
        "Post_Office": "Tanjong Bungah",
        "State": "Pulau Pinang"
    },
    {
        "Postcode": "11200",
        "Location": "Jalan Bunga Matahari",
        "Post_Office": "Tanjong Bungah",
        "State": "Pulau Pinang"
    },
    {
        "Postcode": "11200",
        "Location": "Jalan Bunga Mawar",
        "Post_Office": "Tanjong Bungah",
        "State": "Pulau Pinang"
    },
    {
        "Postcode": "11200",
        "Location": "Jalan Bunga Melati",
        "Post_Office": "Tanjong Bungah",
        "State": "Pulau Pinang"
    },
    {
        "Postcode": "11200",
        "Location": "Jalan Bunga Orchid",
        "Post_Office": "Tanjong Bungah",
        "State": "Pulau Pinang"
    },
    {
        "Postcode": "11200",
        "Location": "Jalan Bunga Orkid",
        "Post_Office": "Tanjong Bungah",
        "State": "Pulau Pinang"
    },
    {
        "Postcode": "11200",
        "Location": "Jalan Bunga Pakawali",
        "Post_Office": "Tanjong Bungah",
        "State": "Pulau Pinang"
    },
    {
        "Postcode": "11200",
        "Location": "Jalan Bunga Pisang",
        "Post_Office": "Tanjong Bungah",
        "State": "Pulau Pinang"
    },
    {
        "Postcode": "11200",
        "Location": "Jalan Bunga Pudak",
        "Post_Office": "Tanjong Bungah",
        "State": "Pulau Pinang"
    },
    {
        "Postcode": "11200",
        "Location": "Jalan Bunga Rampai",
        "Post_Office": "Tanjong Bungah",
        "State": "Pulau Pinang"
    },
    {
        "Postcode": "11200",
        "Location": "Jalan Bunga Sangka",
        "Post_Office": "Tanjong Bungah",
        "State": "Pulau Pinang"
    },
    {
        "Postcode": "11200",
        "Location": "Jalan Bunga Tanjung",
        "Post_Office": "Tanjong Bungah",
        "State": "Pulau Pinang"
    },
    {
        "Postcode": "11200",
        "Location": "Jalan Bunga Telang",
        "Post_Office": "Tanjong Bungah",
        "State": "Pulau Pinang"
    },
    {
        "Postcode": "11200",
        "Location": "Jalan Bunga Tongkeng",
        "Post_Office": "Tanjong Bungah",
        "State": "Pulau Pinang"
    },
    {
        "Postcode": "11200",
        "Location": "Jalan Cengai",
        "Post_Office": "Tanjong Bungah",
        "State": "Pulau Pinang"
    },
    {
        "Postcode": "11200",
        "Location": "Jalan Chan Siew Teong",
        "Post_Office": "Tanjong Bungah",
        "State": "Pulau Pinang"
    },
    {
        "Postcode": "11200",
        "Location": "Jalan Cheah Phee Cheok",
        "Post_Office": "Tanjong Bungah",
        "State": "Pulau Pinang"
    },
    {
        "Postcode": "11200",
        "Location": "Jalan Cheah Sim Khim",
        "Post_Office": "Tanjong Bungah",
        "State": "Pulau Pinang"
    },
    {
        "Postcode": "11200",
        "Location": "Jalan Chee Swee Ee",
        "Post_Office": "Tanjong Bungah",
        "State": "Pulau Pinang"
    },
    {
        "Postcode": "11200",
        "Location": "Jalan Chempa Putih",
        "Post_Office": "Tanjong Bungah",
        "State": "Pulau Pinang"
    },
    {
        "Postcode": "11200",
        "Location": "Jalan Chong Cheng Kean",
        "Post_Office": "Tanjong Bungah",
        "State": "Pulau Pinang"
    },
    {
        "Postcode": "11200",
        "Location": "Jalan Concord",
        "Post_Office": "Tanjong Bungah",
        "State": "Pulau Pinang"
    },
    {
        "Postcode": "11200",
        "Location": "Jalan Evergreen",
        "Post_Office": "Tanjong Bungah",
        "State": "Pulau Pinang"
    },
    {
        "Postcode": "11200",
        "Location": "Jalan Fettes",
        "Post_Office": "Tanjong Bungah",
        "State": "Pulau Pinang"
    },
    {
        "Postcode": "11200",
        "Location": "Jalan Gajah",
        "Post_Office": "Tanjong Bungah",
        "State": "Pulau Pinang"
    },
    {
        "Postcode": "11200",
        "Location": "Jalan Geh Chong Keat",
        "Post_Office": "Tanjong Bungah",
        "State": "Pulau Pinang"
    },
    {
        "Postcode": "11200",
        "Location": "Jalan Green Hill Drive",
        "Post_Office": "Tanjong Bungah",
        "State": "Pulau Pinang"
    },
    {
        "Postcode": "11200",
        "Location": "Jalan Haji Rafie",
        "Post_Office": "Tanjong Bungah",
        "State": "Pulau Pinang"
    },
    {
        "Postcode": "11200",
        "Location": "Jalan Haji Sudin",
        "Post_Office": "Tanjong Bungah",
        "State": "Pulau Pinang"
    },
    {
        "Postcode": "11200",
        "Location": "Jalan Hashim",
        "Post_Office": "Tanjong Bungah",
        "State": "Pulau Pinang"
    },
    {
        "Postcode": "11200",
        "Location": "Jalan Heah Joo Seang",
        "Post_Office": "Tanjong Bungah",
        "State": "Pulau Pinang"
    },
    {
        "Postcode": "11200",
        "Location": "Jalan Jati",
        "Post_Office": "Tanjong Bungah",
        "State": "Pulau Pinang"
    },
    {
        "Postcode": "11200",
        "Location": "Jalan Kaca Piring",
        "Post_Office": "Tanjong Bungah",
        "State": "Pulau Pinang"
    },
    {
        "Postcode": "11200",
        "Location": "Jalan Kebun Sangka",
        "Post_Office": "Tanjong Bungah",
        "State": "Pulau Pinang"
    },
    {
        "Postcode": "11200",
        "Location": "Jalan Lembah Permai",
        "Post_Office": "Tanjong Bungah",
        "State": "Pulau Pinang"
    },
    {
        "Postcode": "11200",
        "Location": "Jalan Lim Huck Aik",
        "Post_Office": "Tanjong Bungah",
        "State": "Pulau Pinang"
    },
    {
        "Postcode": "11200",
        "Location": "Jalan Lim Liew Saik",
        "Post_Office": "Tanjong Bungah",
        "State": "Pulau Pinang"
    },
    {
        "Postcode": "11200",
        "Location": "Jalan Loh Poh Heng",
        "Post_Office": "Tanjong Bungah",
        "State": "Pulau Pinang"
    },
    {
        "Postcode": "11200",
        "Location": "Jalan Loh Poh Heng 3",
        "Post_Office": "Tanjong Bungah",
        "State": "Pulau Pinang"
    },
    {
        "Postcode": "11200",
        "Location": "Jalan Marie Pitchay",
        "Post_Office": "Tanjong Bungah",
        "State": "Pulau Pinang"
    },
    {
        "Postcode": "11200",
        "Location": "Jalan Nyior Chabang",
        "Post_Office": "Tanjong Bungah",
        "State": "Pulau Pinang"
    },
    {
        "Postcode": "11200",
        "Location": "Jalan Oldham",
        "Post_Office": "Tanjong Bungah",
        "State": "Pulau Pinang"
    },
    {
        "Postcode": "11200",
        "Location": "Jalan Osman Abdul Rahman",
        "Post_Office": "Tanjong Bungah",
        "State": "Pulau Pinang"
    },
    {
        "Postcode": "11200",
        "Location": "Jalan Pakawali",
        "Post_Office": "Tanjong Bungah",
        "State": "Pulau Pinang"
    },
    {
        "Postcode": "11200",
        "Location": "Jalan Pelata",
        "Post_Office": "Tanjong Bungah",
        "State": "Pulau Pinang"
    },
    {
        "Postcode": "11200",
        "Location": "Jalan Puncak Bukit Mutiara",
        "Post_Office": "Tanjong Bungah",
        "State": "Pulau Pinang"
    },
    {
        "Postcode": "11200",
        "Location": "Jalan Puncak Bukit Mutiara 1",
        "Post_Office": "Tanjong Bungah",
        "State": "Pulau Pinang"
    },
    {
        "Postcode": "11200",
        "Location": "Jalan Sam Ah Chow",
        "Post_Office": "Tanjong Bungah",
        "State": "Pulau Pinang"
    },
    {
        "Postcode": "11200",
        "Location": "Jalan Sateria",
        "Post_Office": "Tanjong Bungah",
        "State": "Pulau Pinang"
    },
    {
        "Postcode": "11200",
        "Location": "Jalan Sea Home",
        "Post_Office": "Tanjong Bungah",
        "State": "Pulau Pinang"
    },
    {
        "Postcode": "11200",
        "Location": "Jalan Seri Bunga",
        "Post_Office": "Tanjong Bungah",
        "State": "Pulau Pinang"
    },
    {
        "Postcode": "11200",
        "Location": "Jalan Sungai Kelian",
        "Post_Office": "Tanjong Bungah",
        "State": "Pulau Pinang"
    },
    {
        "Postcode": "11200",
        "Location": "Jalan Syed Abdullah Al-Sagoff",
        "Post_Office": "Tanjong Bungah",
        "State": "Pulau Pinang"
    },
    {
        "Postcode": "11200",
        "Location": "Jalan Taman Bunga",
        "Post_Office": "Tanjong Bungah",
        "State": "Pulau Pinang"
    },
    {
        "Postcode": "11200",
        "Location": "Jalan Tan Jit Seng",
        "Post_Office": "Tanjong Bungah",
        "State": "Pulau Pinang"
    },
    {
        "Postcode": "11200",
        "Location": "Jalan Tanggavelu",
        "Post_Office": "Tanjong Bungah",
        "State": "Pulau Pinang"
    },
    {
        "Postcode": "11200",
        "Location": "Jalan Tanjong Bungah",
        "Post_Office": "Tanjong Bungah",
        "State": "Pulau Pinang"
    },
    {
        "Postcode": "11200",
        "Location": "Jalan Tingkat Laut (Sea Home)",
        "Post_Office": "Tanjong Bungah",
        "State": "Pulau Pinang"
    },
    {
        "Postcode": "11200",
        "Location": "Jalan Warburton",
        "Post_Office": "Tanjong Bungah",
        "State": "Pulau Pinang"
    },
    {
        "Postcode": "11200",
        "Location": "Jalan Wee Hein Tze",
        "Post_Office": "Tanjong Bungah",
        "State": "Pulau Pinang"
    },
    {
        "Postcode": "11200",
        "Location": "Kampung Cina Tanjong Bungah",
        "Post_Office": "Tanjong Bungah",
        "State": "Pulau Pinang"
    },
    {
        "Postcode": "11200",
        "Location": "Kampung Evergreen",
        "Post_Office": "Tanjong Bungah",
        "State": "Pulau Pinang"
    },
    {
        "Postcode": "11200",
        "Location": "Kampung Hablour",
        "Post_Office": "Tanjong Bungah",
        "State": "Pulau Pinang"
    },
    {
        "Postcode": "11200",
        "Location": "Kampung Poh Wah",
        "Post_Office": "Tanjong Bungah",
        "State": "Pulau Pinang"
    },
    {
        "Postcode": "11200",
        "Location": "Kampung Solok Lembah Permai",
        "Post_Office": "Tanjong Bungah",
        "State": "Pulau Pinang"
    },
    {
        "Postcode": "11200",
        "Location": "Kondominium Infiniti",
        "Post_Office": "Tanjong Bungah",
        "State": "Pulau Pinang"
    },
    {
        "Postcode": "11200",
        "Location": "Lebuh Orchard",
        "Post_Office": "Tanjong Bungah",
        "State": "Pulau Pinang"
    },
    {
        "Postcode": "11200",
        "Location": "Lebuhraya Barat",
        "Post_Office": "Tanjong Bungah",
        "State": "Pulau Pinang"
    },
    {
        "Postcode": "11200",
        "Location": "Lebuhraya Fettes",
        "Post_Office": "Tanjong Bungah",
        "State": "Pulau Pinang"
    },
    {
        "Postcode": "11200",
        "Location": "Lebuhraya Selatan",
        "Post_Office": "Tanjong Bungah",
        "State": "Pulau Pinang"
    },
    {
        "Postcode": "11200",
        "Location": "Lebuhraya Timur",
        "Post_Office": "Tanjong Bungah",
        "State": "Pulau Pinang"
    },
    {
        "Postcode": "11200",
        "Location": "Lebuhraya Utara",
        "Post_Office": "Tanjong Bungah",
        "State": "Pulau Pinang"
    },
    {
        "Postcode": "11200",
        "Location": "Lintang Fettes",
        "Post_Office": "Tanjong Bungah",
        "State": "Pulau Pinang"
    },
    {
        "Postcode": "11200",
        "Location": "Lintang Lembah Permai",
        "Post_Office": "Tanjong Bungah",
        "State": "Pulau Pinang"
    },
    {
        "Postcode": "11200",
        "Location": "Lintang Tanjong Bungah",
        "Post_Office": "Tanjong Bungah",
        "State": "Pulau Pinang"
    },
    {
        "Postcode": "11200",
        "Location": "Lorong Abbas",
        "Post_Office": "Tanjong Bungah",
        "State": "Pulau Pinang"
    },
    {
        "Postcode": "11200",
        "Location": "Lorong Bunga Kaca Piring",
        "Post_Office": "Tanjong Bungah",
        "State": "Pulau Pinang"
    },
    {
        "Postcode": "11200",
        "Location": "Lorong Bunga Pudak",
        "Post_Office": "Tanjong Bungah",
        "State": "Pulau Pinang"
    },
    {
        "Postcode": "11200",
        "Location": "Lorong Gajah",
        "Post_Office": "Tanjong Bungah",
        "State": "Pulau Pinang"
    },
    {
        "Postcode": "11200",
        "Location": "Lorong Geh Chong Keat",
        "Post_Office": "Tanjong Bungah",
        "State": "Pulau Pinang"
    },
    {
        "Postcode": "11200",
        "Location": "Lorong Kejora",
        "Post_Office": "Tanjong Bungah",
        "State": "Pulau Pinang"
    },
    {
        "Postcode": "11200",
        "Location": "Lorong Lembah Permai",
        "Post_Office": "Tanjong Bungah",
        "State": "Pulau Pinang"
    },
    {
        "Postcode": "11200",
        "Location": "Lorong Sekerat",
        "Post_Office": "Tanjong Bungah",
        "State": "Pulau Pinang"
    },
    {
        "Postcode": "11200",
        "Location": "Lorong Sungai Kelian",
        "Post_Office": "Tanjong Bungah",
        "State": "Pulau Pinang"
    },
    {
        "Postcode": "11200",
        "Location": "Lorong Tanjong Bungah",
        "Post_Office": "Tanjong Bungah",
        "State": "Pulau Pinang"
    },
    {
        "Postcode": "11200",
        "Location": "Lorong Tanjong Bungah 1",
        "Post_Office": "Tanjong Bungah",
        "State": "Pulau Pinang"
    },
    {
        "Postcode": "11200",
        "Location": "Medan Fettes",
        "Post_Office": "Tanjong Bungah",
        "State": "Pulau Pinang"
    },
    {
        "Postcode": "11200",
        "Location": "Medan Lembah Pantai",
        "Post_Office": "Tanjong Bungah",
        "State": "Pulau Pinang"
    },
    {
        "Postcode": "11200",
        "Location": "Pepper Estate",
        "Post_Office": "Tanjong Bungah",
        "State": "Pulau Pinang"
    },
    {
        "Postcode": "11200",
        "Location": "Permai Jaya",
        "Post_Office": "Tanjong Bungah",
        "State": "Pulau Pinang"
    },
    {
        "Postcode": "11200",
        "Location": "Persiaran Green Brook",
        "Post_Office": "Tanjong Bungah",
        "State": "Pulau Pinang"
    },
    {
        "Postcode": "11200",
        "Location": "Persiaran Green Hill",
        "Post_Office": "Tanjong Bungah",
        "State": "Pulau Pinang"
    },
    {
        "Postcode": "11200",
        "Location": "Persiaran Hablor",
        "Post_Office": "Tanjong Bungah",
        "State": "Pulau Pinang"
    },
    {
        "Postcode": "11200",
        "Location": "Persiaran Lembah Permai",
        "Post_Office": "Tanjong Bungah",
        "State": "Pulau Pinang"
    },
    {
        "Postcode": "11200",
        "Location": "Persiaran New Spring",
        "Post_Office": "Tanjong Bungah",
        "State": "Pulau Pinang"
    },
    {
        "Postcode": "11200",
        "Location": "Persiaran Pekeliling",
        "Post_Office": "Tanjong Bungah",
        "State": "Pulau Pinang"
    },
    {
        "Postcode": "11200",
        "Location": "Persiaran Tanjong Bungah",
        "Post_Office": "Tanjong Bungah",
        "State": "Pulau Pinang"
    },
    {
        "Postcode": "11200",
        "Location": "Puncak Bukit Mutiara Dua",
        "Post_Office": "Tanjong Bungah",
        "State": "Pulau Pinang"
    },
    {
        "Postcode": "11200",
        "Location": "Puncak Bukit Mutiara Satu",
        "Post_Office": "Tanjong Bungah",
        "State": "Pulau Pinang"
    },
    {
        "Postcode": "11200",
        "Location": "Puncak Mutiara",
        "Post_Office": "Tanjong Bungah",
        "State": "Pulau Pinang"
    },
    {
        "Postcode": "11200",
        "Location": "Sea Home (Jalan Tingkat Laut)",
        "Post_Office": "Tanjong Bungah",
        "State": "Pulau Pinang"
    },
    {
        "Postcode": "11200",
        "Location": "Solok Bunga Pudak",
        "Post_Office": "Tanjong Bungah",
        "State": "Pulau Pinang"
    },
    {
        "Postcode": "11200",
        "Location": "Solok Lembah Permai",
        "Post_Office": "Tanjong Bungah",
        "State": "Pulau Pinang"
    },
    {
        "Postcode": "11200",
        "Location": "Solok Tan Jit Seng",
        "Post_Office": "Tanjong Bungah",
        "State": "Pulau Pinang"
    },
    {
        "Postcode": "11200",
        "Location": "Solok Wee Hein Tze",
        "Post_Office": "Tanjong Bungah",
        "State": "Pulau Pinang"
    },
    {
        "Postcode": "11200",
        "Location": "Taman Chee Seng",
        "Post_Office": "Tanjong Bungah",
        "State": "Pulau Pinang"
    },
    {
        "Postcode": "11200",
        "Location": "Tanjong Bungah Park",
        "Post_Office": "Tanjong Bungah",
        "State": "Pulau Pinang"
    },
    {
        "Postcode": "11200",
        "Location": "Tanjong Park",
        "Post_Office": "Tanjong Bungah",
        "State": "Pulau Pinang"
    },
    {
        "Postcode": "11200",
        "Location": "Tanjung Bungah",
        "Post_Office": "Tanjong Bungah",
        "State": "Pulau Pinang"
    },
    {
        "Postcode": "11200",
        "Location": "Tanjung Bungah Park",
        "Post_Office": "Tanjong Bungah",
        "State": "Pulau Pinang"
    },
    {
        "Postcode": "11200",
        "Location": "Tingkat Fettes",
        "Post_Office": "Tanjong Bungah",
        "State": "Pulau Pinang"
    },
    {
        "Postcode": "11200",
        "Location": "Tingkat Lembah Permai",
        "Post_Office": "Tanjong Bungah",
        "State": "Pulau Pinang"
    },
    {
        "Postcode": "11200",
        "Location": "Jalan Chee Seng 8",
        "Post_Office": "Tanjong Bungah",
        "State": "Pulau Pinang"
    },
    {
        "Postcode": "11200",
        "Location": "Jalan Chee Seng 9",
        "Post_Office": "Tanjong Bungah",
        "State": "Pulau Pinang"
    },
    {
        "Postcode": "11200",
        "Location": "Jalan Concord 10",
        "Post_Office": "Tanjong Bungah",
        "State": "Pulau Pinang"
    },
    {
        "Postcode": "11200",
        "Location": "Jalan Concord 11",
        "Post_Office": "Tanjong Bungah",
        "State": "Pulau Pinang"
    },
    {
        "Postcode": "11200",
        "Location": "Jalan Concord 12",
        "Post_Office": "Tanjong Bungah",
        "State": "Pulau Pinang"
    },
    {
        "Postcode": "11200",
        "Location": "Jalan Concord 13",
        "Post_Office": "Tanjong Bungah",
        "State": "Pulau Pinang"
    },
    {
        "Postcode": "11200",
        "Location": "Jalan Concord 14",
        "Post_Office": "Tanjong Bungah",
        "State": "Pulau Pinang"
    },
    {
        "Postcode": "11200",
        "Location": "Jalan Concord 15",
        "Post_Office": "Tanjong Bungah",
        "State": "Pulau Pinang"
    },
    {
        "Postcode": "11200",
        "Location": "Jalan Concord 8",
        "Post_Office": "Tanjong Bungah",
        "State": "Pulau Pinang"
    },
    {
        "Postcode": "11200",
        "Location": "Jalan Concord 9",
        "Post_Office": "Tanjong Bungah",
        "State": "Pulau Pinang"
    },
    {
        "Postcode": "11200",
        "Location": "Lebuh Lembah Permai 1",
        "Post_Office": "Tanjong Bungah",
        "State": "Pulau Pinang"
    },
    {
        "Postcode": "11200",
        "Location": "Lebuh Lembah Permai 3",
        "Post_Office": "Tanjong Bungah",
        "State": "Pulau Pinang"
    },
    {
        "Postcode": "11200",
        "Location": "Lebuh Lembah Permai 4",
        "Post_Office": "Tanjong Bungah",
        "State": "Pulau Pinang"
    },
    {
        "Postcode": "11200",
        "Location": "Lebuhraya Fettes 1",
        "Post_Office": "Tanjong Bungah",
        "State": "Pulau Pinang"
    },
    {
        "Postcode": "11200",
        "Location": "Lebuhraya Fettes 2",
        "Post_Office": "Tanjong Bungah",
        "State": "Pulau Pinang"
    },
    {
        "Postcode": "11200",
        "Location": "Lebuhraya Fettes 3",
        "Post_Office": "Tanjong Bungah",
        "State": "Pulau Pinang"
    },
    {
        "Postcode": "11200",
        "Location": "Lintang Lembah Permai 10",
        "Post_Office": "Tanjong Bungah",
        "State": "Pulau Pinang"
    },
    {
        "Postcode": "11200",
        "Location": "Lintang Lembah Permai 11",
        "Post_Office": "Tanjong Bungah",
        "State": "Pulau Pinang"
    },
    {
        "Postcode": "11200",
        "Location": "Lintang Lembah Permai 12",
        "Post_Office": "Tanjong Bungah",
        "State": "Pulau Pinang"
    },
    {
        "Postcode": "11200",
        "Location": "Lintang Lembah Permai 13",
        "Post_Office": "Tanjong Bungah",
        "State": "Pulau Pinang"
    },
    {
        "Postcode": "11200",
        "Location": "Lintang Lembah Permai 14",
        "Post_Office": "Tanjong Bungah",
        "State": "Pulau Pinang"
    },
    {
        "Postcode": "11200",
        "Location": "Lintang Lembah Permai 15",
        "Post_Office": "Tanjong Bungah",
        "State": "Pulau Pinang"
    },
    {
        "Postcode": "11200",
        "Location": "Lintang Lembah Permai 16",
        "Post_Office": "Tanjong Bungah",
        "State": "Pulau Pinang"
    },
    {
        "Postcode": "11200",
        "Location": "Lintang Lembah Permai 3",
        "Post_Office": "Tanjong Bungah",
        "State": "Pulau Pinang"
    },
    {
        "Postcode": "11200",
        "Location": "Lintang Lembah Permai 4",
        "Post_Office": "Tanjong Bungah",
        "State": "Pulau Pinang"
    },
    {
        "Postcode": "11200",
        "Location": "Lintang Lembah Permai 5",
        "Post_Office": "Tanjong Bungah",
        "State": "Pulau Pinang"
    },
    {
        "Postcode": "11200",
        "Location": "Lintang Lembah Permai 6",
        "Post_Office": "Tanjong Bungah",
        "State": "Pulau Pinang"
    },
    {
        "Postcode": "11200",
        "Location": "Lintang Lembah Permai 7",
        "Post_Office": "Tanjong Bungah",
        "State": "Pulau Pinang"
    },
    {
        "Postcode": "11200",
        "Location": "Lintang Lembah Permai 8",
        "Post_Office": "Tanjong Bungah",
        "State": "Pulau Pinang"
    },
    {
        "Postcode": "11200",
        "Location": "Lintang Lembah Permai 9",
        "Post_Office": "Tanjong Bungah",
        "State": "Pulau Pinang"
    },
    {
        "Postcode": "11200",
        "Location": "Lorong Abbas 1",
        "Post_Office": "Tanjong Bungah",
        "State": "Pulau Pinang"
    },
    {
        "Postcode": "11200",
        "Location": "Lorong Abbas 2",
        "Post_Office": "Tanjong Bungah",
        "State": "Pulau Pinang"
    },
    {
        "Postcode": "11200",
        "Location": "Lorong Bintang 1",
        "Post_Office": "Tanjong Bungah",
        "State": "Pulau Pinang"
    },
    {
        "Postcode": "11200",
        "Location": "Lorong Bintang 2",
        "Post_Office": "Tanjong Bungah",
        "State": "Pulau Pinang"
    },
    {
        "Postcode": "11200",
        "Location": "Lorong Bintang 3",
        "Post_Office": "Tanjong Bungah",
        "State": "Pulau Pinang"
    },
    {
        "Postcode": "11200",
        "Location": "Lorong Lembah Permai 1",
        "Post_Office": "Tanjong Bungah",
        "State": "Pulau Pinang"
    },
    {
        "Postcode": "11200",
        "Location": "Lorong Lembah Permai 2",
        "Post_Office": "Tanjong Bungah",
        "State": "Pulau Pinang"
    },
    {
        "Postcode": "11200",
        "Location": "Lorong Lembah Permai 3",
        "Post_Office": "Tanjong Bungah",
        "State": "Pulau Pinang"
    },
    {
        "Postcode": "11200",
        "Location": "Lorong Lembah Permai 4",
        "Post_Office": "Tanjong Bungah",
        "State": "Pulau Pinang"
    },
    {
        "Postcode": "11200",
        "Location": "Lorong Lembah Permai 5",
        "Post_Office": "Tanjong Bungah",
        "State": "Pulau Pinang"
    },
    {
        "Postcode": "11200",
        "Location": "Lorong Lembah Permai 6",
        "Post_Office": "Tanjong Bungah",
        "State": "Pulau Pinang"
    },
    {
        "Postcode": "11200",
        "Location": "Lorong Lembah Permai 7",
        "Post_Office": "Tanjong Bungah",
        "State": "Pulau Pinang"
    },
    {
        "Postcode": "11200",
        "Location": "Lorong Lembah Permai 8",
        "Post_Office": "Tanjong Bungah",
        "State": "Pulau Pinang"
    },
    {
        "Postcode": "11200",
        "Location": "Lorong Lembah Permai 9",
        "Post_Office": "Tanjong Bungah",
        "State": "Pulau Pinang"
    },
    {
        "Postcode": "11200",
        "Location": "Lorong Sungai Kelian 1",
        "Post_Office": "Tanjong Bungah",
        "State": "Pulau Pinang"
    },
    {
        "Postcode": "11200",
        "Location": "Lorong Sungai Kelian 10",
        "Post_Office": "Tanjong Bungah",
        "State": "Pulau Pinang"
    },
    {
        "Postcode": "11200",
        "Location": "Lorong Sungai Kelian 2",
        "Post_Office": "Tanjong Bungah",
        "State": "Pulau Pinang"
    },
    {
        "Postcode": "11200",
        "Location": "Lorong Sungai Kelian 3",
        "Post_Office": "Tanjong Bungah",
        "State": "Pulau Pinang"
    },
    {
        "Postcode": "11200",
        "Location": "Lorong Sungai Kelian 4",
        "Post_Office": "Tanjong Bungah",
        "State": "Pulau Pinang"
    },
    {
        "Postcode": "11200",
        "Location": "Lorong Sungai Kelian 5",
        "Post_Office": "Tanjong Bungah",
        "State": "Pulau Pinang"
    },
    {
        "Postcode": "11200",
        "Location": "Lorong Sungai Kelian 6",
        "Post_Office": "Tanjong Bungah",
        "State": "Pulau Pinang"
    },
    {
        "Postcode": "11200",
        "Location": "Lorong Sungai Kelian 7",
        "Post_Office": "Tanjong Bungah",
        "State": "Pulau Pinang"
    },
    {
        "Postcode": "11200",
        "Location": "Lorong Sungai Kelian 8",
        "Post_Office": "Tanjong Bungah",
        "State": "Pulau Pinang"
    },
    {
        "Postcode": "11200",
        "Location": "Lorong Sungai Kelian 9",
        "Post_Office": "Tanjong Bungah",
        "State": "Pulau Pinang"
    },
    {
        "Postcode": "11200",
        "Location": "Persiaran Tanjong Bungah 1",
        "Post_Office": "Tanjong Bungah",
        "State": "Pulau Pinang"
    },
    {
        "Postcode": "11200",
        "Location": "Persiaran Tanjong Bungah 2",
        "Post_Office": "Tanjong Bungah",
        "State": "Pulau Pinang"
    },
    {
        "Postcode": "11200",
        "Location": "Persiaran Tanjong Bungah 3",
        "Post_Office": "Tanjong Bungah",
        "State": "Pulau Pinang"
    },
    {
        "Postcode": "11200",
        "Location": "Pesara Lembah Permai 1",
        "Post_Office": "Tanjong Bungah",
        "State": "Pulau Pinang"
    },
    {
        "Postcode": "11200",
        "Location": "Pesara Lembah Permai 2",
        "Post_Office": "Tanjong Bungah",
        "State": "Pulau Pinang"
    },
    {
        "Postcode": "11200",
        "Location": "Solok Evergreen 1",
        "Post_Office": "Tanjong Bungah",
        "State": "Pulau Pinang"
    },
    {
        "Postcode": "11200",
        "Location": "Solok Evergreen 2",
        "Post_Office": "Tanjong Bungah",
        "State": "Pulau Pinang"
    },
    {
        "Postcode": "11200",
        "Location": "Solok Kejora 1",
        "Post_Office": "Tanjong Bungah",
        "State": "Pulau Pinang"
    },
    {
        "Postcode": "11200",
        "Location": "Solok Kejora 2",
        "Post_Office": "Tanjong Bungah",
        "State": "Pulau Pinang"
    },
    {
        "Postcode": "11200",
        "Location": "Solok Lembah Permai 3",
        "Post_Office": "Tanjong Bungah",
        "State": "Pulau Pinang"
    },
    {
        "Postcode": "11200",
        "Location": "Solok Lembah Permai 4",
        "Post_Office": "Tanjong Bungah",
        "State": "Pulau Pinang"
    },
    {
        "Postcode": "11200",
        "Location": "Solok Lembah Permai 5",
        "Post_Office": "Tanjong Bungah",
        "State": "Pulau Pinang"
    },
    {
        "Postcode": "11200",
        "Location": "Solok Lembah Permai 6",
        "Post_Office": "Tanjong Bungah",
        "State": "Pulau Pinang"
    },
    {
        "Postcode": "11200",
        "Location": "Tanjung Park 1",
        "Post_Office": "Tanjong Bungah",
        "State": "Pulau Pinang"
    },
    {
        "Postcode": "11200",
        "Location": "Tanjung Park 2",
        "Post_Office": "Tanjong Bungah",
        "State": "Pulau Pinang"
    },
    {
        "Postcode": "11200",
        "Location": "Tingkat Lembah Permai 1",
        "Post_Office": "Tanjong Bungah",
        "State": "Pulau Pinang"
    },
    {
        "Postcode": "11200",
        "Location": "Tingkat Lembah Permai 2",
        "Post_Office": "Tanjong Bungah",
        "State": "Pulau Pinang"
    },
    {
        "Postcode": "11200",
        "Location": "Tingkat Lembah Permai 3",
        "Post_Office": "Tanjong Bungah",
        "State": "Pulau Pinang"
    }
]
