[
    {
        "Postcode": "11400",
        "Location": "Jalan Dua (Ayer Itam)",
        "Post_Office": "Pulau Pinang",
        "State": "Pulau Pinang"
    },
    {
        "Postcode": "11400",
        "Location": "Jalan Goh Guan Ho",
        "Post_Office": "Pulau Pinang",
        "State": "Pulau Pinang"
    },
    {
        "Postcode": "11400",
        "Location": "Jalan Grove",
        "Post_Office": "Pulau Pinang",
        "State": "Pulau Pinang"
    },
    {
        "Postcode": "11400",
        "Location": "Jalan Ibbetson",
        "Post_Office": "Pulau Pinang",
        "State": "Pulau Pinang"
    },
    {
        "Postcode": "11400",
        "Location": "Jalan Joki",
        "Post_Office": "Pulau Pinang",
        "State": "Pulau Pinang"
    },
    {
        "Postcode": "11400",
        "Location": "Jalan Kuda",
        "Post_Office": "Pulau Pinang",
        "State": "Pulau Pinang"
    },
    {
        "Postcode": "11400",
        "Location": "Jalan Lumba Kuda",
        "Post_Office": "Pulau Pinang",
        "State": "Pulau Pinang"
    },
    {
        "Postcode": "11400",
        "Location": "Jalan Padang Tembak",
        "Post_Office": "Pulau Pinang",
        "State": "Pulau Pinang"
    },
    {
        "Postcode": "11400",
        "Location": "Jalan Pekeliling Sempadan",
        "Post_Office": "Pulau Pinang",
        "State": "Pulau Pinang"
    },
    {
        "Postcode": "11400",
        "Location": "Jalan Satu Ayer Itam",
        "Post_Office": "Pulau Pinang",
        "State": "Pulau Pinang"
    },
    {
        "Postcode": "11400",
        "Location": "Jalan Sekolah La Salle",
        "Post_Office": "Pulau Pinang",
        "State": "Pulau Pinang"
    },
    {
        "Postcode": "11400",
        "Location": "Jalan Sempadan Enam",
        "Post_Office": "Pulau Pinang",
        "State": "Pulau Pinang"
    },
    {
        "Postcode": "11400",
        "Location": "Jalan Sempadan Lima",
        "Post_Office": "Pulau Pinang",
        "State": "Pulau Pinang"
    },
    {
        "Postcode": "11400",
        "Location": "Jalan Sheik Eusoff",
        "Post_Office": "Pulau Pinang",
        "State": "Pulau Pinang"
    },
    {
        "Postcode": "11400",
        "Location": "Jalan Thean Teik Mk 13 (1G - 3E)",
        "Post_Office": "Pulau Pinang",
        "State": "Pulau Pinang"
    },
    {
        "Postcode": "11400",
        "Location": "Jalan Tunggal",
        "Post_Office": "Pulau Pinang",
        "State": "Pulau Pinang"
    },
    {
        "Postcode": "11400",
        "Location": "Jalan Ulong",
        "Post_Office": "Pulau Pinang",
        "State": "Pulau Pinang"
    },
    {
        "Postcode": "11400",
        "Location": "Kampung Baru Air Hitam",
        "Post_Office": "Pulau Pinang",
        "State": "Pulau Pinang"
    },
    {
        "Postcode": "11400",
        "Location": "Kastella Court",
        "Post_Office": "Pulau Pinang",
        "State": "Pulau Pinang"
    },
    {
        "Postcode": "11400",
        "Location": "Lebuh Padang Tembak",
        "Post_Office": "Pulau Pinang",
        "State": "Pulau Pinang"
    },
    {
        "Postcode": "11400",
        "Location": "Lengkok Lumba Kuda",
        "Post_Office": "Pulau Pinang",
        "State": "Pulau Pinang"
    },
    {
        "Postcode": "11400",
        "Location": "Lengkok Padang Tembak",
        "Post_Office": "Pulau Pinang",
        "State": "Pulau Pinang"
    },
    {
        "Postcode": "11400",
        "Location": "Lengkok Sekolah La Salle",
        "Post_Office": "Pulau Pinang",
        "State": "Pulau Pinang"
    },
    {
        "Postcode": "11400",
        "Location": "Lintang Abdullah Ariff",
        "Post_Office": "Pulau Pinang",
        "State": "Pulau Pinang"
    },
    {
        "Postcode": "11400",
        "Location": "Lintang Kampung Melayu",
        "Post_Office": "Pulau Pinang",
        "State": "Pulau Pinang"
    },
    {
        "Postcode": "11400",
        "Location": "Lintang Lumba Kuda",
        "Post_Office": "Pulau Pinang",
        "State": "Pulau Pinang"
    },
    {
        "Postcode": "11400",
        "Location": "Lintang Lumba Kuda 1",
        "Post_Office": "Pulau Pinang",
        "State": "Pulau Pinang"
    },
    {
        "Postcode": "11400",
        "Location": "Lintang Sempadan",
        "Post_Office": "Pulau Pinang",
        "State": "Pulau Pinang"
    },
    {
        "Postcode": "11400",
        "Location": "Lorong Air Puteh",
        "Post_Office": "Pulau Pinang",
        "State": "Pulau Pinang"
    },
    {
        "Postcode": "11400",
        "Location": "Lorong Batu Lancang",
        "Post_Office": "Pulau Pinang",
        "State": "Pulau Pinang"
    },
    {
        "Postcode": "11400",
        "Location": "Lorong Batu Lancang  (79 - 143)",
        "Post_Office": "Pulau Pinang",
        "State": "Pulau Pinang"
    },
    {
        "Postcode": "11400",
        "Location": "Lorong Boundary 5",
        "Post_Office": "Pulau Pinang",
        "State": "Pulau Pinang"
    },
    {
        "Postcode": "11400",
        "Location": "Lorong Lumba Kuda",
        "Post_Office": "Pulau Pinang",
        "State": "Pulau Pinang"
    },
    {
        "Postcode": "11400",
        "Location": "Lorong Padang Tembak",
        "Post_Office": "Pulau Pinang",
        "State": "Pulau Pinang"
    },
    {
        "Postcode": "11400",
        "Location": "Lorong Sempadan",
        "Post_Office": "Pulau Pinang",
        "State": "Pulau Pinang"
    },
    {
        "Postcode": "11400",
        "Location": "Lorong Sheikh Eusoff",
        "Post_Office": "Pulau Pinang",
        "State": "Pulau Pinang"
    },
    {
        "Postcode": "11400",
        "Location": "Medan Goh Guan Ho",
        "Post_Office": "Pulau Pinang",
        "State": "Pulau Pinang"
    },
    {
        "Postcode": "11400",
        "Location": "Padang Tembak",
        "Post_Office": "Pulau Pinang",
        "State": "Pulau Pinang"
    },
    {
        "Postcode": "11400",
        "Location": "Persiaran Abdullah Ariff",
        "Post_Office": "Pulau Pinang",
        "State": "Pulau Pinang"
    },
    {
        "Postcode": "11400",
        "Location": "Polis Simpanan Persekutuan (Fru)",
        "Post_Office": "Pulau Pinang",
        "State": "Pulau Pinang"
    },
    {
        "Postcode": "11400",
        "Location": "Riffle Court",
        "Post_Office": "Pulau Pinang",
        "State": "Pulau Pinang"
    },
    {
        "Postcode": "11400",
        "Location": "Riffle Garden",
        "Post_Office": "Pulau Pinang",
        "State": "Pulau Pinang"
    },
    {
        "Postcode": "11400",
        "Location": "Solok Goh Guan Ho",
        "Post_Office": "Pulau Pinang",
        "State": "Pulau Pinang"
    },
    {
        "Postcode": "11400",
        "Location": "Solok Padang Tembak",
        "Post_Office": "Pulau Pinang",
        "State": "Pulau Pinang"
    },
    {
        "Postcode": "11400",
        "Location": "Solok Sekolah La Salle",
        "Post_Office": "Pulau Pinang",
        "State": "Pulau Pinang"
    },
    {
        "Postcode": "11400",
        "Location": "Solok Sempadan",
        "Post_Office": "Pulau Pinang",
        "State": "Pulau Pinang"
    },
    {
        "Postcode": "11400",
        "Location": "Taman Air Hitam",
        "Post_Office": "Pulau Pinang",
        "State": "Pulau Pinang"
    },
    {
        "Postcode": "11400",
        "Location": "Taman Air Itam",
        "Post_Office": "Pulau Pinang",
        "State": "Pulau Pinang"
    },
    {
        "Postcode": "11400",
        "Location": "Taman Boundry",
        "Post_Office": "Pulau Pinang",
        "State": "Pulau Pinang"
    },
    {
        "Postcode": "11400",
        "Location": "Taman David Chen",
        "Post_Office": "Pulau Pinang",
        "State": "Pulau Pinang"
    },
    {
        "Postcode": "11400",
        "Location": "Taman Harmoni",
        "Post_Office": "Pulau Pinang",
        "State": "Pulau Pinang"
    },
    {
        "Postcode": "11400",
        "Location": "Taman Lengkok",
        "Post_Office": "Pulau Pinang",
        "State": "Pulau Pinang"
    },
    {
        "Postcode": "11400",
        "Location": "Taman Lumba Kuda",
        "Post_Office": "Pulau Pinang",
        "State": "Pulau Pinang"
    },
    {
        "Postcode": "11400",
        "Location": "Taman Manik",
        "Post_Office": "Pulau Pinang",
        "State": "Pulau Pinang"
    },
    {
        "Postcode": "11400",
        "Location": "Villa Sri Melati",
        "Post_Office": "Pulau Pinang",
        "State": "Pulau Pinang"
    },
    {
        "Postcode": "11400",
        "Location": "Kampung Paya",
        "Post_Office": "Pulau Pinang",
        "State": "Pulau Pinang"
    },
    {
        "Postcode": "11400",
        "Location": "Medan Lumba Kuda",
        "Post_Office": "Pulau Pinang",
        "State": "Pulau Pinang"
    },
    {
        "Postcode": "11400",
        "Location": "Taman Mahsuri",
        "Post_Office": "Pulau Pinang",
        "State": "Pulau Pinang"
    },
    {
        "Postcode": "11400",
        "Location": "Taman Boundary ",
        "Post_Office": "Pulau Pinang",
        "State": "Pulau Pinang"
    },
    {
        "Postcode": "11400",
        "Location": "Taman Padang Tembak",
        "Post_Office": "Pulau Pinang",
        "State": "Pulau Pinang"
    },
    {
        "Postcode": "11400",
        "Location": "Jalan Sempadan",
        "Post_Office": "Pulau Pinang",
        "State": "Pulau Pinang"
    },
    {
        "Postcode": "11400",
        "Location": "Taman Sri Indah",
        "Post_Office": "Pulau Pinang",
        "State": "Pulau Pinang"
    },
    {
        "Postcode": "11400",
        "Location": "Boundry Court",
        "Post_Office": "Pulau Pinang",
        "State": "Pulau Pinang"
    },
    {
        "Postcode": "11400",
        "Location": "Jalan Abdullah Ariff",
        "Post_Office": "Pulau Pinang",
        "State": "Pulau Pinang"
    },
    {
        "Postcode": "11400",
        "Location": "Jalan Air Itam",
        "Post_Office": "Pulau Pinang",
        "State": "Pulau Pinang"
    },
    {
        "Postcode": "11400",
        "Location": "Jalan Ayer Itam (129 - 173)",
        "Post_Office": "Pulau Pinang",
        "State": "Pulau Pinang"
    },
    {
        "Postcode": "11400",
        "Location": "Jalan Ayer Itam (262 - 584)",
        "Post_Office": "Pulau Pinang",
        "State": "Pulau Pinang"
    },
    {
        "Postcode": "11400",
        "Location": "Jalan Ayer Itam (Mukim 13)",
        "Post_Office": "Pulau Pinang",
        "State": "Pulau Pinang"
    },
    {
        "Postcode": "11400",
        "Location": "Jalan Ayer Itam Mk13 (1 - 18H)",
        "Post_Office": "Pulau Pinang",
        "State": "Pulau Pinang"
    },
    {
        "Postcode": "11400",
        "Location": "Jalan Thean Teik 1",
        "Post_Office": "Pulau Pinang",
        "State": "Pulau Pinang"
    },
    {
        "Postcode": "11400",
        "Location": "Jalan Thean Teik 10",
        "Post_Office": "Pulau Pinang",
        "State": "Pulau Pinang"
    },
    {
        "Postcode": "11400",
        "Location": "Jalan Thean Teik 11",
        "Post_Office": "Pulau Pinang",
        "State": "Pulau Pinang"
    },
    {
        "Postcode": "11400",
        "Location": "Jalan Thean Teik 12",
        "Post_Office": "Pulau Pinang",
        "State": "Pulau Pinang"
    },
    {
        "Postcode": "11400",
        "Location": "Jalan Thean Teik 13",
        "Post_Office": "Pulau Pinang",
        "State": "Pulau Pinang"
    },
    {
        "Postcode": "11400",
        "Location": "Jalan Thean Teik 14",
        "Post_Office": "Pulau Pinang",
        "State": "Pulau Pinang"
    },
    {
        "Postcode": "11400",
        "Location": "Jalan Thean Teik 15",
        "Post_Office": "Pulau Pinang",
        "State": "Pulau Pinang"
    },
    {
        "Postcode": "11400",
        "Location": "Jalan Thean Teik 16",
        "Post_Office": "Pulau Pinang",
        "State": "Pulau Pinang"
    },
    {
        "Postcode": "11400",
        "Location": "Jalan Thean Teik 17",
        "Post_Office": "Pulau Pinang",
        "State": "Pulau Pinang"
    },
    {
        "Postcode": "11400",
        "Location": "Jalan Thean Teik 18",
        "Post_Office": "Pulau Pinang",
        "State": "Pulau Pinang"
    },
    {
        "Postcode": "11400",
        "Location": "Jalan Thean Teik 19",
        "Post_Office": "Pulau Pinang",
        "State": "Pulau Pinang"
    },
    {
        "Postcode": "11400",
        "Location": "Jalan Thean Teik 2",
        "Post_Office": "Pulau Pinang",
        "State": "Pulau Pinang"
    },
    {
        "Postcode": "11400",
        "Location": "Jalan Thean Teik 20",
        "Post_Office": "Pulau Pinang",
        "State": "Pulau Pinang"
    },
    {
        "Postcode": "11400",
        "Location": "Jalan Thean Teik 21",
        "Post_Office": "Pulau Pinang",
        "State": "Pulau Pinang"
    },
    {
        "Postcode": "11400",
        "Location": "Jalan Thean Teik 22",
        "Post_Office": "Pulau Pinang",
        "State": "Pulau Pinang"
    },
    {
        "Postcode": "11400",
        "Location": "Jalan Thean Teik 23",
        "Post_Office": "Pulau Pinang",
        "State": "Pulau Pinang"
    },
    {
        "Postcode": "11400",
        "Location": "Jalan Thean Teik 3",
        "Post_Office": "Pulau Pinang",
        "State": "Pulau Pinang"
    },
    {
        "Postcode": "11400",
        "Location": "Jalan Thean Teik 4",
        "Post_Office": "Pulau Pinang",
        "State": "Pulau Pinang"
    },
    {
        "Postcode": "11400",
        "Location": "Jalan Thean Teik 5",
        "Post_Office": "Pulau Pinang",
        "State": "Pulau Pinang"
    },
    {
        "Postcode": "11400",
        "Location": "Jalan Thean Teik 6",
        "Post_Office": "Pulau Pinang",
        "State": "Pulau Pinang"
    },
    {
        "Postcode": "11400",
        "Location": "Jalan Thean Teik 7",
        "Post_Office": "Pulau Pinang",
        "State": "Pulau Pinang"
    },
    {
        "Postcode": "11400",
        "Location": "Jalan Thean Teik 8",
        "Post_Office": "Pulau Pinang",
        "State": "Pulau Pinang"
    },
    {
        "Postcode": "11400",
        "Location": "Jalan Thean Teik 9",
        "Post_Office": "Pulau Pinang",
        "State": "Pulau Pinang"
    },
    {
        "Postcode": "11400",
        "Location": "Lorong Sempadan 1",
        "Post_Office": "Pulau Pinang",
        "State": "Pulau Pinang"
    },
    {
        "Postcode": "11400",
        "Location": "Lorong Sempadan 2",
        "Post_Office": "Pulau Pinang",
        "State": "Pulau Pinang"
    },
    {
        "Postcode": "11400",
        "Location": "Lorong Sempadan 3",
        "Post_Office": "Pulau Pinang",
        "State": "Pulau Pinang"
    },
    {
        "Postcode": "11400",
        "Location": "Lorong Sempadan 4",
        "Post_Office": "Pulau Pinang",
        "State": "Pulau Pinang"
    },
    {
        "Postcode": "11400",
        "Location": "Lorong Sempadan 5",
        "Post_Office": "Pulau Pinang",
        "State": "Pulau Pinang"
    },
    {
        "Postcode": "11400",
        "Location": "Solok Goh Guan Ho 1",
        "Post_Office": "Pulau Pinang",
        "State": "Pulau Pinang"
    },
    {
        "Postcode": "11400",
        "Location": "Solok Goh Guan Ho 2",
        "Post_Office": "Pulau Pinang",
        "State": "Pulau Pinang"
    }
]
