[
    {
        "Postcode": "11500",
        "Location": "Ayer Itam",
        "Post_Office": "Ayer Itam",
        "State": "Pulau Pinang"
    },
    {
        "Postcode": "11500",
        "Location": "Bandar Baru Ayer Itam",
        "Post_Office": "Ayer Itam",
        "State": "Pulau Pinang"
    },
    {
        "Postcode": "11500",
        "Location": "Cangkat Lembah Ria",
        "Post_Office": "Ayer Itam",
        "State": "Pulau Pinang"
    },
    {
        "Postcode": "11500",
        "Location": "Desa Bendera",
        "Post_Office": "Ayer Itam",
        "State": "Pulau Pinang"
    },
    {
        "Postcode": "11500",
        "Location": "Desa Cantik",
        "Post_Office": "Ayer Itam",
        "State": "Pulau Pinang"
    },
    {
        "Postcode": "11500",
        "Location": "Desa Delima",
        "Post_Office": "Ayer Itam",
        "State": "Pulau Pinang"
    },
    {
        "Postcode": "11500",
        "Location": "Desa Intan",
        "Post_Office": "Ayer Itam",
        "State": "Pulau Pinang"
    },
    {
        "Postcode": "11500",
        "Location": "Desa Ivory",
        "Post_Office": "Ayer Itam",
        "State": "Pulau Pinang"
    },
    {
        "Postcode": "11500",
        "Location": "Desa Ixora",
        "Post_Office": "Ayer Itam",
        "State": "Pulau Pinang"
    },
    {
        "Postcode": "11500",
        "Location": "Fairy Heights",
        "Post_Office": "Ayer Itam",
        "State": "Pulau Pinang"
    },
    {
        "Postcode": "11500",
        "Location": "Flat Desa Mawar",
        "Post_Office": "Ayer Itam",
        "State": "Pulau Pinang"
    },
    {
        "Postcode": "11500",
        "Location": "Flat Kampung Melayu",
        "Post_Office": "Ayer Itam",
        "State": "Pulau Pinang"
    },
    {
        "Postcode": "11500",
        "Location": "Fortune Court",
        "Post_Office": "Ayer Itam",
        "State": "Pulau Pinang"
    },
    {
        "Postcode": "11500",
        "Location": "Grand View Heights",
        "Post_Office": "Ayer Itam",
        "State": "Pulau Pinang"
    },
    {
        "Postcode": "11500",
        "Location": "Halaman Zoo",
        "Post_Office": "Ayer Itam",
        "State": "Pulau Pinang"
    },
    {
        "Postcode": "11500",
        "Location": "Halaman Zoo 1",
        "Post_Office": "Ayer Itam",
        "State": "Pulau Pinang"
    },
    {
        "Postcode": "11500",
        "Location": "Hill Railway Road",
        "Post_Office": "Ayer Itam",
        "State": "Pulau Pinang"
    },
    {
        "Postcode": "11500",
        "Location": "Hye Keat Estate",
        "Post_Office": "Ayer Itam",
        "State": "Pulau Pinang"
    },
    {
        "Postcode": "11500",
        "Location": "Jalan Air Puteh",
        "Post_Office": "Ayer Itam",
        "State": "Pulau Pinang"
    },
    {
        "Postcode": "11500",
        "Location": "Jalan Angsana",
        "Post_Office": "Ayer Itam",
        "State": "Pulau Pinang"
    },
    {
        "Postcode": "11500",
        "Location": "Jalan Ayer Itam (Mk 13 \u0026 16)",
        "Post_Office": "Ayer Itam",
        "State": "Pulau Pinang"
    },
    {
        "Postcode": "11500",
        "Location": "Jalan Batu Jantan",
        "Post_Office": "Ayer Itam",
        "State": "Pulau Pinang"
    },
    {
        "Postcode": "11500",
        "Location": "Jalan Batu Perempuan",
        "Post_Office": "Ayer Itam",
        "State": "Pulau Pinang"
    },
    {
        "Postcode": "11500",
        "Location": "Jalan Beriksa",
        "Post_Office": "Ayer Itam",
        "State": "Pulau Pinang"
    },
    {
        "Postcode": "11500",
        "Location": "Jalan Bukit Bendera",
        "Post_Office": "Ayer Itam",
        "State": "Pulau Pinang"
    },
    {
        "Postcode": "11500",
        "Location": "Jalan Chor Sin Kheng",
        "Post_Office": "Ayer Itam",
        "State": "Pulau Pinang"
    },
    {
        "Postcode": "11500",
        "Location": "Jalan Kampung Melayu",
        "Post_Office": "Ayer Itam",
        "State": "Pulau Pinang"
    },
    {
        "Postcode": "11500",
        "Location": "Jalan Kampung Pisang",
        "Post_Office": "Ayer Itam",
        "State": "Pulau Pinang"
    },
    {
        "Postcode": "11500",
        "Location": "Jalan Khoo Hye Keat",
        "Post_Office": "Ayer Itam",
        "State": "Pulau Pinang"
    },
    {
        "Postcode": "11500",
        "Location": "Jalan Lembah Ria",
        "Post_Office": "Ayer Itam",
        "State": "Pulau Pinang"
    },
    {
        "Postcode": "11500",
        "Location": "Jalan Lintang",
        "Post_Office": "Ayer Itam",
        "State": "Pulau Pinang"
    },
    {
        "Postcode": "11500",
        "Location": "Jalan Mata Kucing",
        "Post_Office": "Ayer Itam",
        "State": "Pulau Pinang"
    },
    {
        "Postcode": "11500",
        "Location": "Jalan Pisang Emas",
        "Post_Office": "Ayer Itam",
        "State": "Pulau Pinang"
    },
    {
        "Postcode": "11500",
        "Location": "Jalan Pisang Embun",
        "Post_Office": "Ayer Itam",
        "State": "Pulau Pinang"
    },
    {
        "Postcode": "11500",
        "Location": "Jalan Pisang Nangka",
        "Post_Office": "Ayer Itam",
        "State": "Pulau Pinang"
    },
    {
        "Postcode": "11500",
        "Location": "Jalan Pisang Raja",
        "Post_Office": "Ayer Itam",
        "State": "Pulau Pinang"
    },
    {
        "Postcode": "11500",
        "Location": "Jalan Pisang Rastali",
        "Post_Office": "Ayer Itam",
        "State": "Pulau Pinang"
    },
    {
        "Postcode": "11500",
        "Location": "Jalan Pisang Tanduk",
        "Post_Office": "Ayer Itam",
        "State": "Pulau Pinang"
    },
    {
        "Postcode": "11500",
        "Location": "Jalan Pokok Cheri",
        "Post_Office": "Ayer Itam",
        "State": "Pulau Pinang"
    },
    {
        "Postcode": "11500",
        "Location": "Jalan Pokok Sena",
        "Post_Office": "Ayer Itam",
        "State": "Pulau Pinang"
    },
    {
        "Postcode": "11500",
        "Location": "Jalan Ru",
        "Post_Office": "Ayer Itam",
        "State": "Pulau Pinang"
    },
    {
        "Postcode": "11500",
        "Location": "Jalan Savoy",
        "Post_Office": "Ayer Itam",
        "State": "Pulau Pinang"
    },
    {
        "Postcode": "11500",
        "Location": "Jalan Semarak Api",
        "Post_Office": "Ayer Itam",
        "State": "Pulau Pinang"
    },
    {
        "Postcode": "11500",
        "Location": "Jalan Semarak Api 1",
        "Post_Office": "Ayer Itam",
        "State": "Pulau Pinang"
    },
    {
        "Postcode": "11500",
        "Location": "Jalan Seri Bendera",
        "Post_Office": "Ayer Itam",
        "State": "Pulau Pinang"
    },
    {
        "Postcode": "11500",
        "Location": "Jalan Shaik Madar",
        "Post_Office": "Ayer Itam",
        "State": "Pulau Pinang"
    },
    {
        "Postcode": "11500",
        "Location": "Jalan Stesen Bukit Bendera",
        "Post_Office": "Ayer Itam",
        "State": "Pulau Pinang"
    },
    {
        "Postcode": "11500",
        "Location": "Jalan Taman Cantik",
        "Post_Office": "Ayer Itam",
        "State": "Pulau Pinang"
    },
    {
        "Postcode": "11500",
        "Location": "Jalan Taman Ria",
        "Post_Office": "Ayer Itam",
        "State": "Pulau Pinang"
    },
    {
        "Postcode": "11500",
        "Location": "Jalan Teo Chew",
        "Post_Office": "Ayer Itam",
        "State": "Pulau Pinang"
    },
    {
        "Postcode": "11500",
        "Location": "Jalan Thean Teik",
        "Post_Office": "Ayer Itam",
        "State": "Pulau Pinang"
    },
    {
        "Postcode": "11500",
        "Location": "Jalan Tingkat Lintang",
        "Post_Office": "Ayer Itam",
        "State": "Pulau Pinang"
    },
    {
        "Postcode": "11500",
        "Location": "Jalan Tun Mohd Salleh",
        "Post_Office": "Ayer Itam",
        "State": "Pulau Pinang"
    },
    {
        "Postcode": "11500",
        "Location": "Jalan Zoo",
        "Post_Office": "Ayer Itam",
        "State": "Pulau Pinang"
    },
    {
        "Postcode": "11500",
        "Location": "Kampung Lembah Ria",
        "Post_Office": "Ayer Itam",
        "State": "Pulau Pinang"
    },
    {
        "Postcode": "11500",
        "Location": "Kampung Shaik Madar",
        "Post_Office": "Ayer Itam",
        "State": "Pulau Pinang"
    },
    {
        "Postcode": "11500",
        "Location": "Kiara Indah Condo",
        "Post_Office": "Ayer Itam",
        "State": "Pulau Pinang"
    },
    {
        "Postcode": "11500",
        "Location": "Komplek Farlim",
        "Post_Office": "Ayer Itam",
        "State": "Pulau Pinang"
    },
    {
        "Postcode": "11500",
        "Location": "Ladang Hye Keat",
        "Post_Office": "Ayer Itam",
        "State": "Pulau Pinang"
    },
    {
        "Postcode": "11500",
        "Location": "Lebuh Rambai",
        "Post_Office": "Ayer Itam",
        "State": "Pulau Pinang"
    },
    {
        "Postcode": "11500",
        "Location": "Lembah Ria",
        "Post_Office": "Ayer Itam",
        "State": "Pulau Pinang"
    },
    {
        "Postcode": "11500",
        "Location": "Lintang Angsana",
        "Post_Office": "Ayer Itam",
        "State": "Pulau Pinang"
    },
    {
        "Postcode": "11500",
        "Location": "Lintang Zoo",
        "Post_Office": "Ayer Itam",
        "State": "Pulau Pinang"
    },
    {
        "Postcode": "11500",
        "Location": "Lorong Kampung Melayu",
        "Post_Office": "Ayer Itam",
        "State": "Pulau Pinang"
    },
    {
        "Postcode": "11500",
        "Location": "Lorong Lapan",
        "Post_Office": "Ayer Itam",
        "State": "Pulau Pinang"
    },
    {
        "Postcode": "11500",
        "Location": "Lorong Rambutan",
        "Post_Office": "Ayer Itam",
        "State": "Pulau Pinang"
    },
    {
        "Postcode": "11500",
        "Location": "Lorong Semarak Api",
        "Post_Office": "Ayer Itam",
        "State": "Pulau Pinang"
    },
    {
        "Postcode": "11500",
        "Location": "Lorong Taman Cantik",
        "Post_Office": "Ayer Itam",
        "State": "Pulau Pinang"
    },
    {
        "Postcode": "11500",
        "Location": "Lorong Zoo",
        "Post_Office": "Ayer Itam",
        "State": "Pulau Pinang"
    },
    {
        "Postcode": "11500",
        "Location": "Medan Angsana",
        "Post_Office": "Ayer Itam",
        "State": "Pulau Pinang"
    },
    {
        "Postcode": "11500",
        "Location": "Medan Chor Sin Kheng",
        "Post_Office": "Ayer Itam",
        "State": "Pulau Pinang"
    },
    {
        "Postcode": "11500",
        "Location": "Medan Kolam Air",
        "Post_Office": "Ayer Itam",
        "State": "Pulau Pinang"
    },
    {
        "Postcode": "11500",
        "Location": "Paya Terubong Hill",
        "Post_Office": "Ayer Itam",
        "State": "Pulau Pinang"
    },
    {
        "Postcode": "11500",
        "Location": "Reservoir Cresent",
        "Post_Office": "Ayer Itam",
        "State": "Pulau Pinang"
    },
    {
        "Postcode": "11500",
        "Location": "Reservoir Garden (1St - 9Th Avenue)",
        "Post_Office": "Ayer Itam",
        "State": "Pulau Pinang"
    },
    {
        "Postcode": "11500",
        "Location": "Solok Lintang",
        "Post_Office": "Ayer Itam",
        "State": "Pulau Pinang"
    },
    {
        "Postcode": "11500",
        "Location": "Solok Semarak Api",
        "Post_Office": "Ayer Itam",
        "State": "Pulau Pinang"
    },
    {
        "Postcode": "11500",
        "Location": "Solok Thean Tek",
        "Post_Office": "Ayer Itam",
        "State": "Pulau Pinang"
    },
    {
        "Postcode": "11500",
        "Location": "Solok Zoo",
        "Post_Office": "Ayer Itam",
        "State": "Pulau Pinang"
    },
    {
        "Postcode": "11500",
        "Location": "Solok Zoo Satu",
        "Post_Office": "Ayer Itam",
        "State": "Pulau Pinang"
    },
    {
        "Postcode": "11500",
        "Location": "Sri Impian",
        "Post_Office": "Ayer Itam",
        "State": "Pulau Pinang"
    },
    {
        "Postcode": "11500",
        "Location": "Swarna",
        "Post_Office": "Ayer Itam",
        "State": "Pulau Pinang"
    },
    {
        "Postcode": "11500",
        "Location": "Taman Green Field",
        "Post_Office": "Ayer Itam",
        "State": "Pulau Pinang"
    },
    {
        "Postcode": "11500",
        "Location": "Taman Hui Aun",
        "Post_Office": "Ayer Itam",
        "State": "Pulau Pinang"
    },
    {
        "Postcode": "11500",
        "Location": "Taman Kim",
        "Post_Office": "Ayer Itam",
        "State": "Pulau Pinang"
    },
    {
        "Postcode": "11500",
        "Location": "Taman Lintang",
        "Post_Office": "Ayer Itam",
        "State": "Pulau Pinang"
    },
    {
        "Postcode": "11500",
        "Location": "Taman Lone Pine",
        "Post_Office": "Ayer Itam",
        "State": "Pulau Pinang"
    },
    {
        "Postcode": "11500",
        "Location": "Taman Pisang Awak",
        "Post_Office": "Ayer Itam",
        "State": "Pulau Pinang"
    },
    {
        "Postcode": "11500",
        "Location": "Taman Reservoir",
        "Post_Office": "Ayer Itam",
        "State": "Pulau Pinang"
    },
    {
        "Postcode": "11500",
        "Location": "Taman Saukat",
        "Post_Office": "Ayer Itam",
        "State": "Pulau Pinang"
    },
    {
        "Postcode": "11500",
        "Location": "Taman Seri Hye Keat",
        "Post_Office": "Ayer Itam",
        "State": "Pulau Pinang"
    },
    {
        "Postcode": "11500",
        "Location": "Taman Seri Idaman",
        "Post_Office": "Ayer Itam",
        "State": "Pulau Pinang"
    },
    {
        "Postcode": "11500",
        "Location": "Taman Seri Timur",
        "Post_Office": "Ayer Itam",
        "State": "Pulau Pinang"
    },
    {
        "Postcode": "11500",
        "Location": "Taman Thean Teik",
        "Post_Office": "Ayer Itam",
        "State": "Pulau Pinang"
    },
    {
        "Postcode": "11500",
        "Location": "Tanjung Court Condo",
        "Post_Office": "Ayer Itam",
        "State": "Pulau Pinang"
    },
    {
        "Postcode": "11500",
        "Location": "Thean Teik Estate",
        "Post_Office": "Ayer Itam",
        "State": "Pulau Pinang"
    },
    {
        "Postcode": "11500",
        "Location": "Tingkat Lembah Ria",
        "Post_Office": "Ayer Itam",
        "State": "Pulau Pinang"
    },
    {
        "Postcode": "11500",
        "Location": "Treasure Ville",
        "Post_Office": "Ayer Itam",
        "State": "Pulau Pinang"
    },
    {
        "Postcode": "11500",
        "Location": "Desa Mawar",
        "Post_Office": "Ayer Itam",
        "State": "Pulau Pinang"
    },
    {
        "Postcode": "11500",
        "Location": "Happy Garden",
        "Post_Office": "Ayer Itam",
        "State": "Pulau Pinang"
    },
    {
        "Postcode": "11500",
        "Location": "Jalan Pasar",
        "Post_Office": "Ayer Itam",
        "State": "Pulau Pinang"
    },
    {
        "Postcode": "11500",
        "Location": "Jalan Rambutan",
        "Post_Office": "Ayer Itam",
        "State": "Pulau Pinang"
    },
    {
        "Postcode": "11500",
        "Location": "Jalan Ru 1",
        "Post_Office": "Ayer Itam",
        "State": "Pulau Pinang"
    },
    {
        "Postcode": "11500",
        "Location": "Kampung Melayu",
        "Post_Office": "Ayer Itam",
        "State": "Pulau Pinang"
    },
    {
        "Postcode": "11500",
        "Location": "Lorong Rambai",
        "Post_Office": "Ayer Itam",
        "State": "Pulau Pinang"
    },
    {
        "Postcode": "11500",
        "Location": "Taman Paya Terubong",
        "Post_Office": "Ayer Itam",
        "State": "Pulau Pinang"
    },
    {
        "Postcode": "11500",
        "Location": "Taman Savoy",
        "Post_Office": "Ayer Itam",
        "State": "Pulau Pinang"
    },
    {
        "Postcode": "11500",
        "Location": "Taman Seri Indah",
        "Post_Office": "Ayer Itam",
        "State": "Pulau Pinang"
    },
    {
        "Postcode": "11500",
        "Location": "Solok Thean Teik",
        "Post_Office": "Ayer Itam",
        "State": "Pulau Pinang"
    },
    {
        "Postcode": "11500",
        "Location": "Desa Baiduri",
        "Post_Office": "Ayer Itam",
        "State": "Pulau Pinang"
    },
    {
        "Postcode": "11500",
        "Location": "Desa Sri Swarna",
        "Post_Office": "Ayer Itam",
        "State": "Pulau Pinang"
    },
    {
        "Postcode": "11500",
        "Location": "Garden Reseivoir",
        "Post_Office": "Ayer Itam",
        "State": "Pulau Pinang"
    },
    {
        "Postcode": "11500",
        "Location": "Taman Casa Idaman",
        "Post_Office": "Ayer Itam",
        "State": "Pulau Pinang"
    },
    {
        "Postcode": "11500",
        "Location": "Taman Green Feild",
        "Post_Office": "Ayer Itam",
        "State": "Pulau Pinang"
    },
    {
        "Postcode": "11500",
        "Location": "Taman Happy Valley",
        "Post_Office": "Ayer Itam",
        "State": "Pulau Pinang"
    },
    {
        "Postcode": "11500",
        "Location": "Taman Seri Rambai",
        "Post_Office": "Ayer Itam",
        "State": "Pulau Pinang"
    },
    {
        "Postcode": "11500",
        "Location": "Jalan Paya Terubong",
        "Post_Office": "Ayer Itam",
        "State": "Pulau Pinang"
    },
    {
        "Postcode": "11500",
        "Location": "Kampung Pisang",
        "Post_Office": "Ayer Itam",
        "State": "Pulau Pinang"
    },
    {
        "Postcode": "11500",
        "Location": "Lebuhraya Thean Teik",
        "Post_Office": "Ayer Itam",
        "State": "Pulau Pinang"
    },
    {
        "Postcode": "11500",
        "Location": "Taman Cantik",
        "Post_Office": "Ayer Itam",
        "State": "Pulau Pinang"
    },
    {
        "Postcode": "11500",
        "Location": "Jalan Beriksa 1",
        "Post_Office": "Ayer Itam",
        "State": "Pulau Pinang"
    },
    {
        "Postcode": "11500",
        "Location": "Jalan Beriksa 2",
        "Post_Office": "Ayer Itam",
        "State": "Pulau Pinang"
    },
    {
        "Postcode": "11500",
        "Location": "Jalan Beriksa 3",
        "Post_Office": "Ayer Itam",
        "State": "Pulau Pinang"
    },
    {
        "Postcode": "11500",
        "Location": "Jalan Beriksa 4",
        "Post_Office": "Ayer Itam",
        "State": "Pulau Pinang"
    },
    {
        "Postcode": "11500",
        "Location": "Jalan Ru 2",
        "Post_Office": "Ayer Itam",
        "State": "Pulau Pinang"
    },
    {
        "Postcode": "11500",
        "Location": "Jalan Ru 3",
        "Post_Office": "Ayer Itam",
        "State": "Pulau Pinang"
    },
    {
        "Postcode": "11500",
        "Location": "Jalan Taman Ria 1",
        "Post_Office": "Ayer Itam",
        "State": "Pulau Pinang"
    },
    {
        "Postcode": "11500",
        "Location": "Jalan Taman Ria 2",
        "Post_Office": "Ayer Itam",
        "State": "Pulau Pinang"
    },
    {
        "Postcode": "11500",
        "Location": "Jalan Taman Ria 3",
        "Post_Office": "Ayer Itam",
        "State": "Pulau Pinang"
    },
    {
        "Postcode": "11500",
        "Location": "Jalan Teo Chew 1",
        "Post_Office": "Ayer Itam",
        "State": "Pulau Pinang"
    },
    {
        "Postcode": "11500",
        "Location": "Jalan Teo Chew 2",
        "Post_Office": "Ayer Itam",
        "State": "Pulau Pinang"
    },
    {
        "Postcode": "11500",
        "Location": "Lintang Kampung Melayu 1",
        "Post_Office": "Ayer Itam",
        "State": "Pulau Pinang"
    },
    {
        "Postcode": "11500",
        "Location": "Lintang Kampung Melayu 2",
        "Post_Office": "Ayer Itam",
        "State": "Pulau Pinang"
    },
    {
        "Postcode": "11500",
        "Location": "Lorong Lembah Ria 1",
        "Post_Office": "Ayer Itam",
        "State": "Pulau Pinang"
    },
    {
        "Postcode": "11500",
        "Location": "Lorong Lembah Ria 2",
        "Post_Office": "Ayer Itam",
        "State": "Pulau Pinang"
    },
    {
        "Postcode": "11500",
        "Location": "Lorong Semarak Api 1",
        "Post_Office": "Ayer Itam",
        "State": "Pulau Pinang"
    },
    {
        "Postcode": "11500",
        "Location": "Lorong Semarak Api 2",
        "Post_Office": "Ayer Itam",
        "State": "Pulau Pinang"
    },
    {
        "Postcode": "11500",
        "Location": "Lorong Semarak Api 3",
        "Post_Office": "Ayer Itam",
        "State": "Pulau Pinang"
    },
    {
        "Postcode": "11500",
        "Location": "Lorong Semarak Api 4",
        "Post_Office": "Ayer Itam",
        "State": "Pulau Pinang"
    },
    {
        "Postcode": "11500",
        "Location": "Lorong Semarak Api 5",
        "Post_Office": "Ayer Itam",
        "State": "Pulau Pinang"
    },
    {
        "Postcode": "11500",
        "Location": "Lorong Zoo 1",
        "Post_Office": "Ayer Itam",
        "State": "Pulau Pinang"
    },
    {
        "Postcode": "11500",
        "Location": "Lorong Zoo 2",
        "Post_Office": "Ayer Itam",
        "State": "Pulau Pinang"
    },
    {
        "Postcode": "11500",
        "Location": "Lorong Zoo 3",
        "Post_Office": "Ayer Itam",
        "State": "Pulau Pinang"
    },
    {
        "Postcode": "11500",
        "Location": "Lorong Zoo 4",
        "Post_Office": "Ayer Itam",
        "State": "Pulau Pinang"
    },
    {
        "Postcode": "11500",
        "Location": "Lorong Zoo 5",
        "Post_Office": "Ayer Itam",
        "State": "Pulau Pinang"
    },
    {
        "Postcode": "11500",
        "Location": "Lorong Zoo 6",
        "Post_Office": "Ayer Itam",
        "State": "Pulau Pinang"
    },
    {
        "Postcode": "11500",
        "Location": "Lorong Zoo 7",
        "Post_Office": "Ayer Itam",
        "State": "Pulau Pinang"
    },
    {
        "Postcode": "11500",
        "Location": "Medan Angsana 1",
        "Post_Office": "Ayer Itam",
        "State": "Pulau Pinang"
    },
    {
        "Postcode": "11500",
        "Location": "Medan Angsana 2",
        "Post_Office": "Ayer Itam",
        "State": "Pulau Pinang"
    },
    {
        "Postcode": "11500",
        "Location": "Medan Angsana 4",
        "Post_Office": "Ayer Itam",
        "State": "Pulau Pinang"
    },
    {
        "Postcode": "11500",
        "Location": "Tingkat Lembah Ria 1",
        "Post_Office": "Ayer Itam",
        "State": "Pulau Pinang"
    },
    {
        "Postcode": "11500",
        "Location": "Tingkat Lembah Ria 2",
        "Post_Office": "Ayer Itam",
        "State": "Pulau Pinang"
    },
    {
        "Postcode": "11500",
        "Location": "Tingkat Lembah Ria 3",
        "Post_Office": "Ayer Itam",
        "State": "Pulau Pinang"
    },
    {
        "Postcode": "11500",
        "Location": "Tingkat Lembah Ria 4",
        "Post_Office": "Ayer Itam",
        "State": "Pulau Pinang"
    }
]
