[
    {
        "Postcode": "11600",
        "Location": "Batu Hijau",
        "Post_Office": "Jelutong",
        "State": "Pulau Pinang"
    },
    {
        "Postcode": "11600",
        "Location": "Batu Lancang",
        "Post_Office": "Jelutong",
        "State": "Pulau Pinang"
    },
    {
        "Postcode": "11600",
        "Location": "Bukit Dumbar",
        "Post_Office": "Jelutong",
        "State": "Pulau Pinang"
    },
    {
        "Postcode": "11600",
        "Location": "Cangkat Dumbar",
        "Post_Office": "Jelutong",
        "State": "Pulau Pinang"
    },
    {
        "Postcode": "11600",
        "Location": "Changkat Tembaga",
        "Post_Office": "Jelutong",
        "State": "Pulau Pinang"
    },
    {
        "Postcode": "11600",
        "Location": "Gelugor Hijau",
        "Post_Office": "Jelutong",
        "State": "Pulau Pinang"
    },
    {
        "Postcode": "11600",
        "Location": "Gerbang Batu Lancang",
        "Post_Office": "Jelutong",
        "State": "Pulau Pinang"
    },
    {
        "Postcode": "11600",
        "Location": "Gerbang Heah Swee Lee",
        "Post_Office": "Jelutong",
        "State": "Pulau Pinang"
    },
    {
        "Postcode": "11600",
        "Location": "Green Drive (Persiaran Hijau)",
        "Post_Office": "Jelutong",
        "State": "Pulau Pinang"
    },
    {
        "Postcode": "11600",
        "Location": "Green Garden Estate",
        "Post_Office": "Jelutong",
        "State": "Pulau Pinang"
    },
    {
        "Postcode": "11600",
        "Location": "Hala Sungai Pinang",
        "Post_Office": "Jelutong",
        "State": "Pulau Pinang"
    },
    {
        "Postcode": "11600",
        "Location": "Halaman Bakau",
        "Post_Office": "Jelutong",
        "State": "Pulau Pinang"
    },
    {
        "Postcode": "11600",
        "Location": "Halaman Freeschool",
        "Post_Office": "Jelutong",
        "State": "Pulau Pinang"
    },
    {
        "Postcode": "11600",
        "Location": "Halaman Hargreaves",
        "Post_Office": "Jelutong",
        "State": "Pulau Pinang"
    },
    {
        "Postcode": "11600",
        "Location": "Halaman Tembaga",
        "Post_Office": "Jelutong",
        "State": "Pulau Pinang"
    },
    {
        "Postcode": "11600",
        "Location": "Hargreaves Circus",
        "Post_Office": "Jelutong",
        "State": "Pulau Pinang"
    },
    {
        "Postcode": "11600",
        "Location": "Hilir Sungai Pinang",
        "Post_Office": "Jelutong",
        "State": "Pulau Pinang"
    },
    {
        "Postcode": "11600",
        "Location": "Jalan Bagan Serai",
        "Post_Office": "Jelutong",
        "State": "Pulau Pinang"
    },
    {
        "Postcode": "11600",
        "Location": "Jalan Batu Gajah",
        "Post_Office": "Jelutong",
        "State": "Pulau Pinang"
    },
    {
        "Postcode": "11600",
        "Location": "Jalan Batu Lanchang",
        "Post_Office": "Jelutong",
        "State": "Pulau Pinang"
    },
    {
        "Postcode": "11600",
        "Location": "Jalan Berseh",
        "Post_Office": "Jelutong",
        "State": "Pulau Pinang"
    },
    {
        "Postcode": "11600",
        "Location": "Jalan Besi",
        "Post_Office": "Jelutong",
        "State": "Pulau Pinang"
    },
    {
        "Postcode": "11600",
        "Location": "Jalan Bukit Dumber",
        "Post_Office": "Jelutong",
        "State": "Pulau Pinang"
    },
    {
        "Postcode": "11600",
        "Location": "Jalan Cheeseman",
        "Post_Office": "Jelutong",
        "State": "Pulau Pinang"
    },
    {
        "Postcode": "11600",
        "Location": "Jalan Dungun",
        "Post_Office": "Jelutong",
        "State": "Pulau Pinang"
    },
    {
        "Postcode": "11600",
        "Location": "Jalan Free School",
        "Post_Office": "Jelutong",
        "State": "Pulau Pinang"
    },
    {
        "Postcode": "11600",
        "Location": "Jalan Grik",
        "Post_Office": "Jelutong",
        "State": "Pulau Pinang"
    },
    {
        "Postcode": "11600",
        "Location": "Jalan Haji Ahmad",
        "Post_Office": "Jelutong",
        "State": "Pulau Pinang"
    },
    {
        "Postcode": "11600",
        "Location": "Jalan Haji Ali",
        "Post_Office": "Jelutong",
        "State": "Pulau Pinang"
    },
    {
        "Postcode": "11600",
        "Location": "Jalan Hajjah Rehmah",
        "Post_Office": "Jelutong",
        "State": "Pulau Pinang"
    },
    {
        "Postcode": "11600",
        "Location": "Jalan Hamilton",
        "Post_Office": "Jelutong",
        "State": "Pulau Pinang"
    },
    {
        "Postcode": "11600",
        "Location": "Jalan Han Chiang",
        "Post_Office": "Jelutong",
        "State": "Pulau Pinang"
    },
    {
        "Postcode": "11600",
        "Location": "Jalan Hargreaves",
        "Post_Office": "Jelutong",
        "State": "Pulau Pinang"
    },
    {
        "Postcode": "11600",
        "Location": "Jalan Hijau",
        "Post_Office": "Jelutong",
        "State": "Pulau Pinang"
    },
    {
        "Postcode": "11600",
        "Location": "Jalan Hikmat",
        "Post_Office": "Jelutong",
        "State": "Pulau Pinang"
    },
    {
        "Postcode": "11600",
        "Location": "Jalan Jelutong",
        "Post_Office": "Jelutong",
        "State": "Pulau Pinang"
    },
    {
        "Postcode": "11600",
        "Location": "Jalan Jeti Jelutong",
        "Post_Office": "Jelutong",
        "State": "Pulau Pinang"
    },
    {
        "Postcode": "11600",
        "Location": "Jalan Jkr",
        "Post_Office": "Jelutong",
        "State": "Pulau Pinang"
    },
    {
        "Postcode": "11600",
        "Location": "Jalan Kennedy",
        "Post_Office": "Jelutong",
        "State": "Pulau Pinang"
    },
    {
        "Postcode": "11600",
        "Location": "Jalan Kota Giam",
        "Post_Office": "Jelutong",
        "State": "Pulau Pinang"
    },
    {
        "Postcode": "11600",
        "Location": "Jalan Lenggong",
        "Post_Office": "Jelutong",
        "State": "Pulau Pinang"
    },
    {
        "Postcode": "11600",
        "Location": "Jalan Lim Lean Teng",
        "Post_Office": "Jelutong",
        "State": "Pulau Pinang"
    },
    {
        "Postcode": "11600",
        "Location": "Jalan Madrasah",
        "Post_Office": "Jelutong",
        "State": "Pulau Pinang"
    },
    {
        "Postcode": "11600",
        "Location": "Jalan Mas",
        "Post_Office": "Jelutong",
        "State": "Pulau Pinang"
    },
    {
        "Postcode": "11600",
        "Location": "Jalan Masjid Jelutong Timur",
        "Post_Office": "Jelutong",
        "State": "Pulau Pinang"
    },
    {
        "Postcode": "11600",
        "Location": "Jalan Masjid Negeri (Dahulu Jalan Greenlane)",
        "Post_Office": "Jelutong",
        "State": "Pulau Pinang"
    },
    {
        "Postcode": "11600",
        "Location": "Jalan Md Taib",
        "Post_Office": "Jelutong",
        "State": "Pulau Pinang"
    },
    {
        "Postcode": "11600",
        "Location": "Jalan Ong Joo San",
        "Post_Office": "Jelutong",
        "State": "Pulau Pinang"
    },
    {
        "Postcode": "11600",
        "Location": "Jalan Ooi Thiam Siew",
        "Post_Office": "Jelutong",
        "State": "Pulau Pinang"
    },
    {
        "Postcode": "11600",
        "Location": "Jalan Panchor",
        "Post_Office": "Jelutong",
        "State": "Pulau Pinang"
    },
    {
        "Postcode": "11600",
        "Location": "Jalan Penaga",
        "Post_Office": "Jelutong",
        "State": "Pulau Pinang"
    },
    {
        "Postcode": "11600",
        "Location": "Jalan Penawar",
        "Post_Office": "Jelutong",
        "State": "Pulau Pinang"
    },
    {
        "Postcode": "11600",
        "Location": "Jalan Penawar 1",
        "Post_Office": "Jelutong",
        "State": "Pulau Pinang"
    },
    {
        "Postcode": "11600",
        "Location": "Jalan Perak (302 - 420)",
        "Post_Office": "Jelutong",
        "State": "Pulau Pinang"
    },
    {
        "Postcode": "11600",
        "Location": "Jalan Perak (313 - 421)",
        "Post_Office": "Jelutong",
        "State": "Pulau Pinang"
    },
    {
        "Postcode": "11600",
        "Location": "Jalan Perusahaan Jelutong",
        "Post_Office": "Jelutong",
        "State": "Pulau Pinang"
    },
    {
        "Postcode": "11600",
        "Location": "Jalan Philips",
        "Post_Office": "Jelutong",
        "State": "Pulau Pinang"
    },
    {
        "Postcode": "11600",
        "Location": "Jalan Pinhorn",
        "Post_Office": "Jelutong",
        "State": "Pulau Pinang"
    },
    {
        "Postcode": "11600",
        "Location": "Jalan Selama",
        "Post_Office": "Jelutong",
        "State": "Pulau Pinang"
    },
    {
        "Postcode": "11600",
        "Location": "Jalan Selendang",
        "Post_Office": "Jelutong",
        "State": "Pulau Pinang"
    },
    {
        "Postcode": "11600",
        "Location": "Jalan Sir Hussain",
        "Post_Office": "Jelutong",
        "State": "Pulau Pinang"
    },
    {
        "Postcode": "11600",
        "Location": "Jalan Sir Ibrahim",
        "Post_Office": "Jelutong",
        "State": "Pulau Pinang"
    },
    {
        "Postcode": "11600",
        "Location": "Jalan Sitiawan",
        "Post_Office": "Jelutong",
        "State": "Pulau Pinang"
    },
    {
        "Postcode": "11600",
        "Location": "Jalan Taiping",
        "Post_Office": "Jelutong",
        "State": "Pulau Pinang"
    },
    {
        "Postcode": "11600",
        "Location": "Jalan Taman Green View",
        "Post_Office": "Jelutong",
        "State": "Pulau Pinang"
    },
    {
        "Postcode": "11600",
        "Location": "Jalan Tapah",
        "Post_Office": "Jelutong",
        "State": "Pulau Pinang"
    },
    {
        "Postcode": "11600",
        "Location": "Jalan Taylor",
        "Post_Office": "Jelutong",
        "State": "Pulau Pinang"
    },
    {
        "Postcode": "11600",
        "Location": "Jalan Tembaga",
        "Post_Office": "Jelutong",
        "State": "Pulau Pinang"
    },
    {
        "Postcode": "11600",
        "Location": "Jalan Tengku",
        "Post_Office": "Jelutong",
        "State": "Pulau Pinang"
    },
    {
        "Postcode": "11600",
        "Location": "Jalan Thorpe",
        "Post_Office": "Jelutong",
        "State": "Pulau Pinang"
    },
    {
        "Postcode": "11600",
        "Location": "Jalan Tokong Batu",
        "Post_Office": "Jelutong",
        "State": "Pulau Pinang"
    },
    {
        "Postcode": "11600",
        "Location": "Jalan Van Praagh",
        "Post_Office": "Jelutong",
        "State": "Pulau Pinang"
    },
    {
        "Postcode": "11600",
        "Location": "Jalan Western",
        "Post_Office": "Jelutong",
        "State": "Pulau Pinang"
    },
    {
        "Postcode": "11600",
        "Location": "Jelutong",
        "Post_Office": "Jelutong",
        "State": "Pulau Pinang"
    },
    {
        "Postcode": "11600",
        "Location": "Jelutong Barat",
        "Post_Office": "Jelutong",
        "State": "Pulau Pinang"
    },
    {
        "Postcode": "11600",
        "Location": "Jelutong Timur",
        "Post_Office": "Jelutong",
        "State": "Pulau Pinang"
    },
    {
        "Postcode": "11600",
        "Location": "Kampung Hijau",
        "Post_Office": "Jelutong",
        "State": "Pulau Pinang"
    },
    {
        "Postcode": "11600",
        "Location": "Kampung Madrasah",
        "Post_Office": "Jelutong",
        "State": "Pulau Pinang"
    },
    {
        "Postcode": "11600",
        "Location": "Kampung Pisang Awak",
        "Post_Office": "Jelutong",
        "State": "Pulau Pinang"
    },
    {
        "Postcode": "11600",
        "Location": "Kampung Pulau (Jelutong)",
        "Post_Office": "Jelutong",
        "State": "Pulau Pinang"
    },
    {
        "Postcode": "11600",
        "Location": "Kampung Tokong Siam",
        "Post_Office": "Jelutong",
        "State": "Pulau Pinang"
    },
    {
        "Postcode": "11600",
        "Location": "Lebuh Bakau",
        "Post_Office": "Jelutong",
        "State": "Pulau Pinang"
    },
    {
        "Postcode": "11600",
        "Location": "Lebuh Batu Gajah",
        "Post_Office": "Jelutong",
        "State": "Pulau Pinang"
    },
    {
        "Postcode": "11600",
        "Location": "Lebuh Gelugor",
        "Post_Office": "Jelutong",
        "State": "Pulau Pinang"
    },
    {
        "Postcode": "11600",
        "Location": "Lebuh Sungai Pinang",
        "Post_Office": "Jelutong",
        "State": "Pulau Pinang"
    },
    {
        "Postcode": "11600",
        "Location": "Lebuhraya Batu Lanchang",
        "Post_Office": "Jelutong",
        "State": "Pulau Pinang"
    },
    {
        "Postcode": "11600",
        "Location": "Lebuhraya Besi",
        "Post_Office": "Jelutong",
        "State": "Pulau Pinang"
    },
    {
        "Postcode": "11600",
        "Location": "Lebuhraya Gelugor",
        "Post_Office": "Jelutong",
        "State": "Pulau Pinang"
    },
    {
        "Postcode": "11600",
        "Location": "Lebuhraya Jelutong",
        "Post_Office": "Jelutong",
        "State": "Pulau Pinang"
    },
    {
        "Postcode": "11600",
        "Location": "Lebuhraya Mas",
        "Post_Office": "Jelutong",
        "State": "Pulau Pinang"
    },
    {
        "Postcode": "11600",
        "Location": "Lebuhraya Tembaga",
        "Post_Office": "Jelutong",
        "State": "Pulau Pinang"
    },
    {
        "Postcode": "11600",
        "Location": "Lebuhraya Tun Dr. Hamdan",
        "Post_Office": "Jelutong",
        "State": "Pulau Pinang"
    },
    {
        "Postcode": "11600",
        "Location": "Lengkok Ariff",
        "Post_Office": "Jelutong",
        "State": "Pulau Pinang"
    },
    {
        "Postcode": "11600",
        "Location": "Lengkok Batu Lanchang",
        "Post_Office": "Jelutong",
        "State": "Pulau Pinang"
    },
    {
        "Postcode": "11600",
        "Location": "Lengkok Dumbar",
        "Post_Office": "Jelutong",
        "State": "Pulau Pinang"
    },
    {
        "Postcode": "11600",
        "Location": "Lengkok Gelugor",
        "Post_Office": "Jelutong",
        "State": "Pulau Pinang"
    },
    {
        "Postcode": "11600",
        "Location": "Lengkok Haji Ahmad",
        "Post_Office": "Jelutong",
        "State": "Pulau Pinang"
    },
    {
        "Postcode": "11600",
        "Location": "Lengkok Hijau",
        "Post_Office": "Jelutong",
        "State": "Pulau Pinang"
    },
    {
        "Postcode": "11600",
        "Location": "Lengkok Tembaga",
        "Post_Office": "Jelutong",
        "State": "Pulau Pinang"
    },
    {
        "Postcode": "11600",
        "Location": "Lilitan Hargreaves",
        "Post_Office": "Jelutong",
        "State": "Pulau Pinang"
    },
    {
        "Postcode": "11600",
        "Location": "Lintang Bakau",
        "Post_Office": "Jelutong",
        "State": "Pulau Pinang"
    },
    {
        "Postcode": "11600",
        "Location": "Lintang Batu",
        "Post_Office": "Jelutong",
        "State": "Pulau Pinang"
    },
    {
        "Postcode": "11600",
        "Location": "Lintang Batu Lanchang",
        "Post_Office": "Jelutong",
        "State": "Pulau Pinang"
    },
    {
        "Postcode": "11600",
        "Location": "Lintang Besi",
        "Post_Office": "Jelutong",
        "State": "Pulau Pinang"
    },
    {
        "Postcode": "11600",
        "Location": "Lintang Gelugor",
        "Post_Office": "Jelutong",
        "State": "Pulau Pinang"
    },
    {
        "Postcode": "11600",
        "Location": "Lintang Hajjah Rehmah",
        "Post_Office": "Jelutong",
        "State": "Pulau Pinang"
    },
    {
        "Postcode": "11600",
        "Location": "Lintang Hijau",
        "Post_Office": "Jelutong",
        "State": "Pulau Pinang"
    },
    {
        "Postcode": "11600",
        "Location": "Lintang Jelutong",
        "Post_Office": "Jelutong",
        "State": "Pulau Pinang"
    },
    {
        "Postcode": "11600",
        "Location": "Lintang Madrasah",
        "Post_Office": "Jelutong",
        "State": "Pulau Pinang"
    },
    {
        "Postcode": "11600",
        "Location": "Lintang Mas",
        "Post_Office": "Jelutong",
        "State": "Pulau Pinang"
    },
    {
        "Postcode": "11600",
        "Location": "Lintang Penawar",
        "Post_Office": "Jelutong",
        "State": "Pulau Pinang"
    },
    {
        "Postcode": "11600",
        "Location": "Lintang Tembaga",
        "Post_Office": "Jelutong",
        "State": "Pulau Pinang"
    },
    {
        "Postcode": "11600",
        "Location": "Lorong Bakau",
        "Post_Office": "Jelutong",
        "State": "Pulau Pinang"
    },
    {
        "Postcode": "11600",
        "Location": "Lorong Batu",
        "Post_Office": "Jelutong",
        "State": "Pulau Pinang"
    },
    {
        "Postcode": "11600",
        "Location": "Lorong Batu Lanchang",
        "Post_Office": "Jelutong",
        "State": "Pulau Pinang"
    },
    {
        "Postcode": "11600",
        "Location": "Lorong Bidor",
        "Post_Office": "Jelutong",
        "State": "Pulau Pinang"
    },
    {
        "Postcode": "11600",
        "Location": "Lorong Cantik",
        "Post_Office": "Jelutong",
        "State": "Pulau Pinang"
    },
    {
        "Postcode": "11600",
        "Location": "Lorong Chemor",
        "Post_Office": "Jelutong",
        "State": "Pulau Pinang"
    },
    {
        "Postcode": "11600",
        "Location": "Lorong Dumbar",
        "Post_Office": "Jelutong",
        "State": "Pulau Pinang"
    },
    {
        "Postcode": "11600",
        "Location": "Lorong Free School",
        "Post_Office": "Jelutong",
        "State": "Pulau Pinang"
    },
    {
        "Postcode": "11600",
        "Location": "Lorong Gangsa",
        "Post_Office": "Jelutong",
        "State": "Pulau Pinang"
    },
    {
        "Postcode": "11600",
        "Location": "Lorong Gelugor",
        "Post_Office": "Jelutong",
        "State": "Pulau Pinang"
    },
    {
        "Postcode": "11600",
        "Location": "Lorong Gemang",
        "Post_Office": "Jelutong",
        "State": "Pulau Pinang"
    },
    {
        "Postcode": "11600",
        "Location": "Lorong Haji Ahmad",
        "Post_Office": "Jelutong",
        "State": "Pulau Pinang"
    },
    {
        "Postcode": "11600",
        "Location": "Lorong Ipoh",
        "Post_Office": "Jelutong",
        "State": "Pulau Pinang"
    },
    {
        "Postcode": "11600",
        "Location": "Lorong Jelutong",
        "Post_Office": "Jelutong",
        "State": "Pulau Pinang"
    },
    {
        "Postcode": "11600",
        "Location": "Lorong Juru",
        "Post_Office": "Jelutong",
        "State": "Pulau Pinang"
    },
    {
        "Postcode": "11600",
        "Location": "Lorong Kaya",
        "Post_Office": "Jelutong",
        "State": "Pulau Pinang"
    },
    {
        "Postcode": "11600",
        "Location": "Lorong Madrasah",
        "Post_Office": "Jelutong",
        "State": "Pulau Pinang"
    },
    {
        "Postcode": "11600",
        "Location": "Lorong Parit Buntar",
        "Post_Office": "Jelutong",
        "State": "Pulau Pinang"
    },
    {
        "Postcode": "11600",
        "Location": "Lorong Penaga",
        "Post_Office": "Jelutong",
        "State": "Pulau Pinang"
    },
    {
        "Postcode": "11600",
        "Location": "Lorong Penawar 2",
        "Post_Office": "Jelutong",
        "State": "Pulau Pinang"
    },
    {
        "Postcode": "11600",
        "Location": "Lorong Perak",
        "Post_Office": "Jelutong",
        "State": "Pulau Pinang"
    },
    {
        "Postcode": "11600",
        "Location": "Lorong Sekolah",
        "Post_Office": "Jelutong",
        "State": "Pulau Pinang"
    },
    {
        "Postcode": "11600",
        "Location": "Lorong Slim",
        "Post_Office": "Jelutong",
        "State": "Pulau Pinang"
    },
    {
        "Postcode": "11600",
        "Location": "Lorong Tembaga",
        "Post_Office": "Jelutong",
        "State": "Pulau Pinang"
    },
    {
        "Postcode": "11600",
        "Location": "Lorong Tenang",
        "Post_Office": "Jelutong",
        "State": "Pulau Pinang"
    },
    {
        "Postcode": "11600",
        "Location": "Medan Penaga",
        "Post_Office": "Jelutong",
        "State": "Pulau Pinang"
    },
    {
        "Postcode": "11600",
        "Location": "Medan Tembaga",
        "Post_Office": "Jelutong",
        "State": "Pulau Pinang"
    },
    {
        "Postcode": "11600",
        "Location": "Medan Terengganu",
        "Post_Office": "Jelutong",
        "State": "Pulau Pinang"
    },
    {
        "Postcode": "11600",
        "Location": "Persiaran Besi",
        "Post_Office": "Jelutong",
        "State": "Pulau Pinang"
    },
    {
        "Postcode": "11600",
        "Location": "Persiaran Hijau",
        "Post_Office": "Jelutong",
        "State": "Pulau Pinang"
    },
    {
        "Postcode": "11600",
        "Location": "Persiaran Mas",
        "Post_Office": "Jelutong",
        "State": "Pulau Pinang"
    },
    {
        "Postcode": "11600",
        "Location": "Persiaran Tembaga",
        "Post_Office": "Jelutong",
        "State": "Pulau Pinang"
    },
    {
        "Postcode": "11600",
        "Location": "Pintasan Sungai Pinang",
        "Post_Office": "Jelutong",
        "State": "Pulau Pinang"
    },
    {
        "Postcode": "11600",
        "Location": "Solok Batu Gajah",
        "Post_Office": "Jelutong",
        "State": "Pulau Pinang"
    },
    {
        "Postcode": "11600",
        "Location": "Solok Batu Lanchang",
        "Post_Office": "Jelutong",
        "State": "Pulau Pinang"
    },
    {
        "Postcode": "11600",
        "Location": "Solok Besi",
        "Post_Office": "Jelutong",
        "State": "Pulau Pinang"
    },
    {
        "Postcode": "11600",
        "Location": "Solok Dumbar",
        "Post_Office": "Jelutong",
        "State": "Pulau Pinang"
    },
    {
        "Postcode": "11600",
        "Location": "Solok Free School",
        "Post_Office": "Jelutong",
        "State": "Pulau Pinang"
    },
    {
        "Postcode": "11600",
        "Location": "Solok Gangsa",
        "Post_Office": "Jelutong",
        "State": "Pulau Pinang"
    },
    {
        "Postcode": "11600",
        "Location": "Solok Gangsa 1",
        "Post_Office": "Jelutong",
        "State": "Pulau Pinang"
    },
    {
        "Postcode": "11600",
        "Location": "Solok Gelugor",
        "Post_Office": "Jelutong",
        "State": "Pulau Pinang"
    },
    {
        "Postcode": "11600",
        "Location": "Solok Jelutong",
        "Post_Office": "Jelutong",
        "State": "Pulau Pinang"
    },
    {
        "Postcode": "11600",
        "Location": "Solok Mas",
        "Post_Office": "Jelutong",
        "State": "Pulau Pinang"
    },
    {
        "Postcode": "11600",
        "Location": "Solok Perak",
        "Post_Office": "Jelutong",
        "State": "Pulau Pinang"
    },
    {
        "Postcode": "11600",
        "Location": "Solok Slim",
        "Post_Office": "Jelutong",
        "State": "Pulau Pinang"
    },
    {
        "Postcode": "11600",
        "Location": "Solok Slim 1",
        "Post_Office": "Jelutong",
        "State": "Pulau Pinang"
    },
    {
        "Postcode": "11600",
        "Location": "Solok Sungai Pinang",
        "Post_Office": "Jelutong",
        "State": "Pulau Pinang"
    },
    {
        "Postcode": "11600",
        "Location": "Solok Tembaga",
        "Post_Office": "Jelutong",
        "State": "Pulau Pinang"
    },
    {
        "Postcode": "11600",
        "Location": "Solok Tengku",
        "Post_Office": "Jelutong",
        "State": "Pulau Pinang"
    },
    {
        "Postcode": "11600",
        "Location": "Solok Van Praagh",
        "Post_Office": "Jelutong",
        "State": "Pulau Pinang"
    },
    {
        "Postcode": "11600",
        "Location": "Taman Besi",
        "Post_Office": "Jelutong",
        "State": "Pulau Pinang"
    },
    {
        "Postcode": "11600",
        "Location": "Taman Gelugor",
        "Post_Office": "Jelutong",
        "State": "Pulau Pinang"
    },
    {
        "Postcode": "11600",
        "Location": "Taman Green View",
        "Post_Office": "Jelutong",
        "State": "Pulau Pinang"
    },
    {
        "Postcode": "11600",
        "Location": "Taman Guan Joo Seng",
        "Post_Office": "Jelutong",
        "State": "Pulau Pinang"
    },
    {
        "Postcode": "11600",
        "Location": "Taman Haji Ahmad",
        "Post_Office": "Jelutong",
        "State": "Pulau Pinang"
    },
    {
        "Postcode": "11600",
        "Location": "Taman Hutchings",
        "Post_Office": "Jelutong",
        "State": "Pulau Pinang"
    },
    {
        "Postcode": "11600",
        "Location": "Taman Island",
        "Post_Office": "Jelutong",
        "State": "Pulau Pinang"
    },
    {
        "Postcode": "11600",
        "Location": "Taman Jelutong",
        "Post_Office": "Jelutong",
        "State": "Pulau Pinang"
    },
    {
        "Postcode": "11600",
        "Location": "Taman Kennedy",
        "Post_Office": "Jelutong",
        "State": "Pulau Pinang"
    },
    {
        "Postcode": "11600",
        "Location": "Taman Mutiara Vista",
        "Post_Office": "Jelutong",
        "State": "Pulau Pinang"
    },
    {
        "Postcode": "11600",
        "Location": "Taman Pelangi Indah",
        "Post_Office": "Jelutong",
        "State": "Pulau Pinang"
    },
    {
        "Postcode": "11600",
        "Location": "Taman Sinar Pelangi",
        "Post_Office": "Jelutong",
        "State": "Pulau Pinang"
    },
    {
        "Postcode": "11600",
        "Location": "Taman Sir Hussein",
        "Post_Office": "Jelutong",
        "State": "Pulau Pinang"
    },
    {
        "Postcode": "11600",
        "Location": "Taman Wu Lien The",
        "Post_Office": "Jelutong",
        "State": "Pulau Pinang"
    },
    {
        "Postcode": "11600",
        "Location": "Tapak Pokok Asam",
        "Post_Office": "Jelutong",
        "State": "Pulau Pinang"
    },
    {
        "Postcode": "11600",
        "Location": "Tapak Sungai Pinang",
        "Post_Office": "Jelutong",
        "State": "Pulau Pinang"
    },
    {
        "Postcode": "11600",
        "Location": "Tingkat Bakau",
        "Post_Office": "Jelutong",
        "State": "Pulau Pinang"
    },
    {
        "Postcode": "11600",
        "Location": "Tingkat Besi",
        "Post_Office": "Jelutong",
        "State": "Pulau Pinang"
    },
    {
        "Postcode": "11600",
        "Location": "Tingkat Haji Ahmad",
        "Post_Office": "Jelutong",
        "State": "Pulau Pinang"
    },
    {
        "Postcode": "11600",
        "Location": "Tingkat Jelutong",
        "Post_Office": "Jelutong",
        "State": "Pulau Pinang"
    },
    {
        "Postcode": "11600",
        "Location": "Tingkat Mas",
        "Post_Office": "Jelutong",
        "State": "Pulau Pinang"
    },
    {
        "Postcode": "11600",
        "Location": "Tingkat Tembaga",
        "Post_Office": "Jelutong",
        "State": "Pulau Pinang"
    },
    {
        "Postcode": "11600",
        "Location": "Tingkat Tengku",
        "Post_Office": "Jelutong",
        "State": "Pulau Pinang"
    },
    {
        "Postcode": "11600",
        "Location": "Wayton Flat",
        "Post_Office": "Jelutong",
        "State": "Pulau Pinang"
    },
    {
        "Postcode": "11600",
        "Location": "Jalan Kampung Masjid",
        "Post_Office": "Jelutong",
        "State": "Pulau Pinang"
    },
    {
        "Postcode": "11600",
        "Location": "Kampung Masjid",
        "Post_Office": "Jelutong",
        "State": "Pulau Pinang"
    },
    {
        "Postcode": "11600",
        "Location": "Kampung Tengah",
        "Post_Office": "Jelutong\r\n",
        "State": "Pulau Pinang"
    },
    {
        "Postcode": "11600",
        "Location": "Greenlane Height",
        "Post_Office": "Jelutong",
        "State": "Pulau Pinang"
    },
    {
        "Postcode": "11600",
        "Location": "Taman Hijau 1",
        "Post_Office": "Jelutong",
        "State": "Pulau Pinang"
    },
    {
        "Postcode": "11600",
        "Location": "Taman Hijau 2",
        "Post_Office": "Jelutong",
        "State": "Pulau Pinang"
    },
    {
        "Postcode": "11600",
        "Location": "Taman Hijau 3",
        "Post_Office": "Jelutong",
        "State": "Pulau Pinang"
    },
    {
        "Postcode": "11600",
        "Location": "Desa Jelutong",
        "Post_Office": "Jelutong",
        "State": "Pulau Pinang"
    },
    {
        "Postcode": "11600",
        "Location": "Jalan Wu Lian Teh",
        "Post_Office": "Jelutong",
        "State": "Pulau Pinang"
    },
    {
        "Postcode": "11600",
        "Location": "Kampung Bang Liau ",
        "Post_Office": "Jelutong",
        "State": "Pulau Pinang"
    },
    {
        "Postcode": "11600",
        "Location": "Kampung Batu Lancang",
        "Post_Office": "Jelutong",
        "State": "Pulau Pinang"
    },
    {
        "Postcode": "11600",
        "Location": "Kampung Jelutong Timur",
        "Post_Office": "Jelutong",
        "State": "Pulau Pinang"
    },
    {
        "Postcode": "11600",
        "Location": "Kampung Telaga Rendah",
        "Post_Office": "Jelutong",
        "State": "Pulau Pinang"
    },
    {
        "Postcode": "11600",
        "Location": "Natilus Bay",
        "Post_Office": "Jelutong",
        "State": "Pulau Pinang"
    },
    {
        "Postcode": "11600",
        "Location": "Pangsapuri Sri Carlyun",
        "Post_Office": "Jelutong",
        "State": "Pulau Pinang"
    },
    {
        "Postcode": "11600",
        "Location": "Taman Cemerlang",
        "Post_Office": "Jelutong",
        "State": "Pulau Pinang"
    },
    {
        "Postcode": "11600",
        "Location": "Taman Continental",
        "Post_Office": "Jelutong",
        "State": "Pulau Pinang"
    },
    {
        "Postcode": "11600",
        "Location": "Taman Dato Syed Abbas",
        "Post_Office": "Jelutong",
        "State": "Pulau Pinang"
    },
    {
        "Postcode": "11600",
        "Location": "Taman Desa Green",
        "Post_Office": "Jelutong",
        "State": "Pulau Pinang"
    },
    {
        "Postcode": "11600",
        "Location": "Taman Duwang",
        "Post_Office": "Jelutong",
        "State": "Pulau Pinang"
    },
    {
        "Postcode": "11600",
        "Location": "Taman Green Lane",
        "Post_Office": "Jelutong",
        "State": "Pulau Pinang"
    },
    {
        "Postcode": "11600",
        "Location": "Taman Jelutong Height",
        "Post_Office": "Jelutong",
        "State": "Pulau Pinang"
    },
    {
        "Postcode": "11600",
        "Location": "Taman Jelutong Jaya",
        "Post_Office": "Jelutong",
        "State": "Pulau Pinang"
    },
    {
        "Postcode": "11600",
        "Location": "Taman Kang Har Tong",
        "Post_Office": "Jelutong",
        "State": "Pulau Pinang"
    },
    {
        "Postcode": "11600",
        "Location": "Taman Koperasi Jelutong",
        "Post_Office": "Jelutong",
        "State": "Pulau Pinang"
    },
    {
        "Postcode": "11600",
        "Location": "Taman Lembah Hijau",
        "Post_Office": "Jelutong",
        "State": "Pulau Pinang"
    },
    {
        "Postcode": "11600",
        "Location": "Taman Panchor",
        "Post_Office": "Jelutong",
        "State": "Pulau Pinang"
    },
    {
        "Postcode": "11600",
        "Location": "Taman Selatan",
        "Post_Office": "Jelutong",
        "State": "Pulau Pinang"
    },
    {
        "Postcode": "11600",
        "Location": "Taman Serendah",
        "Post_Office": "Jelutong",
        "State": "Pulau Pinang"
    },
    {
        "Postcode": "11600",
        "Location": "Taman Seri Damai",
        "Post_Office": "Jelutong",
        "State": "Pulau Pinang"
    },
    {
        "Postcode": "11600",
        "Location": "Taman Seri Hijau",
        "Post_Office": "Jelutong",
        "State": "Pulau Pinang"
    },
    {
        "Postcode": "11600",
        "Location": "Taman Seri Perak",
        "Post_Office": "Jelutong",
        "State": "Pulau Pinang"
    },
    {
        "Postcode": "11600",
        "Location": "Taman Sri Hussein",
        "Post_Office": "Jelutong",
        "State": "Pulau Pinang"
    },
    {
        "Postcode": "11600",
        "Location": "Taman Sri Penawar",
        "Post_Office": "Jelutong",
        "State": "Pulau Pinang"
    },
    {
        "Postcode": "11600",
        "Location": "Jalan Gangsa",
        "Post_Office": "Jelutong",
        "State": "Pulau Pinang"
    },
    {
        "Postcode": "11600",
        "Location": "Jalan Kurau",
        "Post_Office": "Jelutong",
        "State": "Pulau Pinang"
    },
    {
        "Postcode": "11600",
        "Location": "Taman Sri Permai",
        "Post_Office": "Jelutong",
        "State": "Pulau Pinang"
    },
    {
        "Postcode": "11600",
        "Location": "Taman Bukit Dumbar",
        "Post_Office": "Jelutong",
        "State": "Pulau Pinang"
    },
    {
        "Postcode": "11600",
        "Location": "Taman Meranti",
        "Post_Office": "Jelutong",
        "State": "Pulau Pinang"
    },
    {
        "Postcode": "11600",
        "Location": "Taman Sri Bunga",
        "Post_Office": "Jelutong",
        "State": "Pulau Pinang"
    },
    {
        "Postcode": "11600",
        "Location": "Jalan Gelugor 10",
        "Post_Office": "Jelutong",
        "State": "Pulau Pinang"
    },
    {
        "Postcode": "11600",
        "Location": "Jalan Gelugor 2",
        "Post_Office": "Jelutong",
        "State": "Pulau Pinang"
    },
    {
        "Postcode": "11600",
        "Location": "Jalan Gelugor 3",
        "Post_Office": "Jelutong",
        "State": "Pulau Pinang"
    },
    {
        "Postcode": "11600",
        "Location": "Jalan Gelugor 4",
        "Post_Office": "Jelutong",
        "State": "Pulau Pinang"
    },
    {
        "Postcode": "11600",
        "Location": "Jalan Gelugor 5",
        "Post_Office": "Jelutong",
        "State": "Pulau Pinang"
    },
    {
        "Postcode": "11600",
        "Location": "Jalan Gelugor 6",
        "Post_Office": "Jelutong",
        "State": "Pulau Pinang"
    },
    {
        "Postcode": "11600",
        "Location": "Jalan Gelugor 7",
        "Post_Office": "Jelutong",
        "State": "Pulau Pinang"
    },
    {
        "Postcode": "11600",
        "Location": "Jalan Gelugor 8",
        "Post_Office": "Jelutong",
        "State": "Pulau Pinang"
    },
    {
        "Postcode": "11600",
        "Location": "Jalan Gelugor 9",
        "Post_Office": "Jelutong",
        "State": "Pulau Pinang"
    },
    {
        "Postcode": "11600",
        "Location": "Jalan Hijau 1",
        "Post_Office": "Jelutong",
        "State": "Pulau Pinang"
    },
    {
        "Postcode": "11600",
        "Location": "Jalan Hijau 2",
        "Post_Office": "Jelutong",
        "State": "Pulau Pinang"
    },
    {
        "Postcode": "11600",
        "Location": "Jalan Hijau 3",
        "Post_Office": "Jelutong",
        "State": "Pulau Pinang"
    },
    {
        "Postcode": "11600",
        "Location": "Jalan Hijau 4",
        "Post_Office": "Jelutong",
        "State": "Pulau Pinang"
    },
    {
        "Postcode": "11600",
        "Location": "Jalan Perusahaan Jelutong 1",
        "Post_Office": "Jelutong",
        "State": "Pulau Pinang"
    },
    {
        "Postcode": "11600",
        "Location": "Jalan Perusahaan Jelutong 2",
        "Post_Office": "Jelutong",
        "State": "Pulau Pinang"
    },
    {
        "Postcode": "11600",
        "Location": "Jalan Perusahaan Jelutong 3",
        "Post_Office": "Jelutong",
        "State": "Pulau Pinang"
    },
    {
        "Postcode": "11600",
        "Location": "Lebuh Sungai Pinang 1",
        "Post_Office": "Jelutong",
        "State": "Pulau Pinang"
    },
    {
        "Postcode": "11600",
        "Location": "Lebuh Sungai Pinang 2",
        "Post_Office": "Jelutong",
        "State": "Pulau Pinang"
    },
    {
        "Postcode": "11600",
        "Location": "Lebuh Sungai Pinang 3",
        "Post_Office": "Jelutong",
        "State": "Pulau Pinang"
    },
    {
        "Postcode": "11600",
        "Location": "Lebuh Sungai Pinang 4",
        "Post_Office": "Jelutong",
        "State": "Pulau Pinang"
    },
    {
        "Postcode": "11600",
        "Location": "Lebuh Sungai Pinang 5",
        "Post_Office": "Jelutong",
        "State": "Pulau Pinang"
    },
    {
        "Postcode": "11600",
        "Location": "Lebuh Sungai Pinang 6",
        "Post_Office": "Jelutong",
        "State": "Pulau Pinang"
    },
    {
        "Postcode": "11600",
        "Location": "Lebuh Sungai Pinang 7",
        "Post_Office": "Jelutong",
        "State": "Pulau Pinang"
    },
    {
        "Postcode": "11600",
        "Location": "Lebuh Sungai Pinang 8",
        "Post_Office": "Jelutong",
        "State": "Pulau Pinang"
    },
    {
        "Postcode": "11600",
        "Location": "Lintang Penawar 1",
        "Post_Office": "Jelutong",
        "State": "Pulau Pinang"
    },
    {
        "Postcode": "11600",
        "Location": "Lintang Penawar 2",
        "Post_Office": "Jelutong",
        "State": "Pulau Pinang"
    },
    {
        "Postcode": "11600",
        "Location": "Lintang Penawar 3",
        "Post_Office": "Jelutong",
        "State": "Pulau Pinang"
    },
    {
        "Postcode": "11600",
        "Location": "Lorong Hijau 1",
        "Post_Office": "Jelutong",
        "State": "Pulau Pinang"
    },
    {
        "Postcode": "11600",
        "Location": "Lorong Hijau 2",
        "Post_Office": "Jelutong",
        "State": "Pulau Pinang"
    },
    {
        "Postcode": "11600",
        "Location": "Lorong Hijau 3",
        "Post_Office": "Jelutong",
        "State": "Pulau Pinang"
    },
    {
        "Postcode": "11600",
        "Location": "Lorong Hijau 4",
        "Post_Office": "Jelutong",
        "State": "Pulau Pinang"
    },
    {
        "Postcode": "11600",
        "Location": "Lorong Hijau 5",
        "Post_Office": "Jelutong",
        "State": "Pulau Pinang"
    },
    {
        "Postcode": "11600",
        "Location": "Lorong Hijau 6",
        "Post_Office": "Jelutong",
        "State": "Pulau Pinang"
    },
    {
        "Postcode": "11600",
        "Location": "Lorong Hijau 7",
        "Post_Office": "Jelutong",
        "State": "Pulau Pinang"
    },
    {
        "Postcode": "11600",
        "Location": "Lorong Hijau 8",
        "Post_Office": "Jelutong",
        "State": "Pulau Pinang"
    },
    {
        "Postcode": "11600",
        "Location": "Solok Sungai Pinang 3",
        "Post_Office": "Jelutong",
        "State": "Pulau Pinang"
    },
    {
        "Postcode": "11600",
        "Location": "Solok Sungai Pinang 4",
        "Post_Office": "Jelutong",
        "State": "Pulau Pinang"
    },
    {
        "Postcode": "11600",
        "Location": "Solok Sungai Pinang 5",
        "Post_Office": "Jelutong",
        "State": "Pulau Pinang"
    },
    {
        "Postcode": "11600",
        "Location": "Solok Sungai Pinang 6",
        "Post_Office": "Jelutong",
        "State": "Pulau Pinang"
    },
    {
        "Postcode": "11600",
        "Location": "Solok Tembaga 1",
        "Post_Office": "Jelutong",
        "State": "Pulau Pinang"
    },
    {
        "Postcode": "11600",
        "Location": "Solok Tembaga 2",
        "Post_Office": "Jelutong",
        "State": "Pulau Pinang"
    },
    {
        "Postcode": "11600",
        "Location": "Solok Tembaga 3",
        "Post_Office": "Jelutong",
        "State": "Pulau Pinang"
    },
    {
        "Postcode": "11600",
        "Location": "Solok Tembaga 4",
        "Post_Office": "Jelutong",
        "State": "Pulau Pinang"
    }
]
