[
    {
        "Postcode": "11700",
        "Location": "Batu Uban",
        "Post_Office": "Gelugor",
        "State": "Pulau Pinang"
    },
    {
        "Postcode": "11700",
        "Location": "Bukit Gambier",
        "Post_Office": "Gelugor",
        "State": "Pulau Pinang"
    },
    {
        "Postcode": "11700",
        "Location": "Bukit Gelugor",
        "Post_Office": "Gelugor",
        "State": "Pulau Pinang"
    },
    {
        "Postcode": "11700",
        "Location": "Cangkat Bukit Gambir",
        "Post_Office": "Gelugor",
        "State": "Pulau Pinang"
    },
    {
        "Postcode": "11700",
        "Location": "Cangkat Delima",
        "Post_Office": "Gelugor",
        "State": "Pulau Pinang"
    },
    {
        "Postcode": "11700",
        "Location": "Gelugor",
        "Post_Office": "Gelugor",
        "State": "Pulau Pinang"
    },
    {
        "Postcode": "11700",
        "Location": "Gerbang Minden",
        "Post_Office": "Gelugor",
        "State": "Pulau Pinang"
    },
    {
        "Postcode": "11700",
        "Location": "Gerbang Minden 1",
        "Post_Office": "Gelugor",
        "State": "Pulau Pinang"
    },
    {
        "Postcode": "11700",
        "Location": "Halaman Bukit Gambir",
        "Post_Office": "Gelugor",
        "State": "Pulau Pinang"
    },
    {
        "Postcode": "11700",
        "Location": "Hilir Pemancar",
        "Post_Office": "Gelugor",
        "State": "Pulau Pinang"
    },
    {
        "Postcode": "11700",
        "Location": "Islan Glades",
        "Post_Office": "Gelugor",
        "State": "Pulau Pinang"
    },
    {
        "Postcode": "11700",
        "Location": "Jalan Akuarium",
        "Post_Office": "Gelugor",
        "State": "Pulau Pinang"
    },
    {
        "Postcode": "11700",
        "Location": "Jalan Batu Uban 5",
        "Post_Office": "Gelugor",
        "State": "Pulau Pinang"
    },
    {
        "Postcode": "11700",
        "Location": "Jalan Bukit Dumbar",
        "Post_Office": "Gelugor",
        "State": "Pulau Pinang"
    },
    {
        "Postcode": "11700",
        "Location": "Jalan Bukit Gambir",
        "Post_Office": "Gelugor",
        "State": "Pulau Pinang"
    },
    {
        "Postcode": "11700",
        "Location": "Jalan Bunga Cempaka",
        "Post_Office": "Gelugor",
        "State": "Pulau Pinang"
    },
    {
        "Postcode": "11700",
        "Location": "Jalan Cathrop",
        "Post_Office": "Gelugor",
        "State": "Pulau Pinang"
    },
    {
        "Postcode": "11700",
        "Location": "Jalan Endah",
        "Post_Office": "Gelugor",
        "State": "Pulau Pinang"
    },
    {
        "Postcode": "11700",
        "Location": "Jalan Faraday",
        "Post_Office": "Gelugor",
        "State": "Pulau Pinang"
    },
    {
        "Postcode": "11700",
        "Location": "Jalan Gelugor",
        "Post_Office": "Gelugor",
        "State": "Pulau Pinang"
    },
    {
        "Postcode": "11700",
        "Location": "Jalan Helang",
        "Post_Office": "Gelugor",
        "State": "Pulau Pinang"
    },
    {
        "Postcode": "11700",
        "Location": "Jalan Ismail Nagore",
        "Post_Office": "Gelugor",
        "State": "Pulau Pinang"
    },
    {
        "Postcode": "11700",
        "Location": "Jalan Kaki Bukit",
        "Post_Office": "Gelugor",
        "State": "Pulau Pinang"
    },
    {
        "Postcode": "11700",
        "Location": "Jalan Ketitir",
        "Post_Office": "Gelugor",
        "State": "Pulau Pinang"
    },
    {
        "Postcode": "11700",
        "Location": "Jalan Khemah",
        "Post_Office": "Gelugor",
        "State": "Pulau Pinang"
    },
    {
        "Postcode": "11700",
        "Location": "Jalan Murai",
        "Post_Office": "Gelugor",
        "State": "Pulau Pinang"
    },
    {
        "Postcode": "11700",
        "Location": "Jalan Pekeliling",
        "Post_Office": "Gelugor",
        "State": "Pulau Pinang"
    },
    {
        "Postcode": "11700",
        "Location": "Jalan Pemancar",
        "Post_Office": "Gelugor",
        "State": "Pulau Pinang"
    },
    {
        "Postcode": "11700",
        "Location": "Jalan Selatan",
        "Post_Office": "Gelugor",
        "State": "Pulau Pinang"
    },
    {
        "Postcode": "11700",
        "Location": "Jalan Thomas",
        "Post_Office": "Gelugor",
        "State": "Pulau Pinang"
    },
    {
        "Postcode": "11700",
        "Location": "Jalan Tunku Kudin",
        "Post_Office": "Gelugor",
        "State": "Pulau Pinang"
    },
    {
        "Postcode": "11700",
        "Location": "Jalan Udini",
        "Post_Office": "Gelugor",
        "State": "Pulau Pinang"
    },
    {
        "Postcode": "11700",
        "Location": "Jalan Utara",
        "Post_Office": "Gelugor",
        "State": "Pulau Pinang"
    },
    {
        "Postcode": "11700",
        "Location": "Jalan Williams",
        "Post_Office": "Gelugor",
        "State": "Pulau Pinang"
    },
    {
        "Postcode": "11700",
        "Location": "Jalan Yeap Chor Ee",
        "Post_Office": "Gelugor",
        "State": "Pulau Pinang"
    },
    {
        "Postcode": "11700",
        "Location": "Kampung Gelugor",
        "Post_Office": "Gelugor",
        "State": "Pulau Pinang"
    },
    {
        "Postcode": "11700",
        "Location": "Kampung Sungai Dua",
        "Post_Office": "Gelugor",
        "State": "Pulau Pinang"
    },
    {
        "Postcode": "11700",
        "Location": "Komplek Perdagangan Lkk Nipah",
        "Post_Office": "Gelugor",
        "State": "Pulau Pinang"
    },
    {
        "Postcode": "11700",
        "Location": "Lebuh Tunku Kudin 2",
        "Post_Office": "Gelugor",
        "State": "Pulau Pinang"
    },
    {
        "Postcode": "11700",
        "Location": "Lebuhraya Bingham",
        "Post_Office": "Gelugor",
        "State": "Pulau Pinang"
    },
    {
        "Postcode": "11700",
        "Location": "Lebuhraya Pantai Gelugor",
        "Post_Office": "Gelugor",
        "State": "Pulau Pinang"
    },
    {
        "Postcode": "11700",
        "Location": "Lengkok Atas",
        "Post_Office": "Gelugor",
        "State": "Pulau Pinang"
    },
    {
        "Postcode": "11700",
        "Location": "Lengkok Bawah",
        "Post_Office": "Gelugor",
        "State": "Pulau Pinang"
    },
    {
        "Postcode": "11700",
        "Location": "Lengkok Minden",
        "Post_Office": "Gelugor",
        "State": "Pulau Pinang"
    },
    {
        "Postcode": "11700",
        "Location": "Lengkok Pemancar",
        "Post_Office": "Gelugor",
        "State": "Pulau Pinang"
    },
    {
        "Postcode": "11700",
        "Location": "Lengkok Sungai Dua",
        "Post_Office": "Gelugor",
        "State": "Pulau Pinang"
    },
    {
        "Postcode": "11700",
        "Location": "Lintang Delima",
        "Post_Office": "Gelugor",
        "State": "Pulau Pinang"
    },
    {
        "Postcode": "11700",
        "Location": "Lintang Merak",
        "Post_Office": "Gelugor",
        "State": "Pulau Pinang"
    },
    {
        "Postcode": "11700",
        "Location": "Lintang Pantai Jerejak",
        "Post_Office": "Gelugor",
        "State": "Pulau Pinang"
    },
    {
        "Postcode": "11700",
        "Location": "Lorong Buah Pala",
        "Post_Office": "Gelugor",
        "State": "Pulau Pinang"
    },
    {
        "Postcode": "11700",
        "Location": "Lorong Bunga Raya",
        "Post_Office": "Gelugor",
        "State": "Pulau Pinang"
    },
    {
        "Postcode": "11700",
        "Location": "Lorong Delima",
        "Post_Office": "Gelugor",
        "State": "Pulau Pinang"
    },
    {
        "Postcode": "11700",
        "Location": "Lorong Tunku Kudin 2",
        "Post_Office": "Gelugor",
        "State": "Pulau Pinang"
    },
    {
        "Postcode": "11700",
        "Location": "Minden Heights",
        "Post_Office": "Gelugor",
        "State": "Pulau Pinang"
    },
    {
        "Postcode": "11700",
        "Location": "Persiaran Batu Uban",
        "Post_Office": "Gelugor",
        "State": "Pulau Pinang"
    },
    {
        "Postcode": "11700",
        "Location": "Persiaran Bukit Gambir",
        "Post_Office": "Gelugor",
        "State": "Pulau Pinang"
    },
    {
        "Postcode": "11700",
        "Location": "Persiaran Minden",
        "Post_Office": "Gelugor",
        "State": "Pulau Pinang"
    },
    {
        "Postcode": "11700",
        "Location": "Persiaran Nipah",
        "Post_Office": "Gelugor",
        "State": "Pulau Pinang"
    },
    {
        "Postcode": "11700",
        "Location": "Solok Bunga Raya",
        "Post_Office": "Gelugor",
        "State": "Pulau Pinang"
    },
    {
        "Postcode": "11700",
        "Location": "Solok Minden",
        "Post_Office": "Gelugor",
        "State": "Pulau Pinang"
    },
    {
        "Postcode": "11700",
        "Location": "Solok Pemancar",
        "Post_Office": "Gelugor",
        "State": "Pulau Pinang"
    },
    {
        "Postcode": "11700",
        "Location": "Solok Permai",
        "Post_Office": "Gelugor",
        "State": "Pulau Pinang"
    },
    {
        "Postcode": "11700",
        "Location": "Sungai Dua Mk.13",
        "Post_Office": "Gelugor",
        "State": "Pulau Pinang"
    },
    {
        "Postcode": "11700",
        "Location": "Taman Brown",
        "Post_Office": "Gelugor",
        "State": "Pulau Pinang"
    },
    {
        "Postcode": "11700",
        "Location": "Taman Century",
        "Post_Office": "Gelugor",
        "State": "Pulau Pinang"
    },
    {
        "Postcode": "11700",
        "Location": "Taman Tun Sardon",
        "Post_Office": "Gelugor",
        "State": "Pulau Pinang"
    },
    {
        "Postcode": "11700",
        "Location": "The View Condo",
        "Post_Office": "Gelugor",
        "State": "Pulau Pinang"
    },
    {
        "Postcode": "11700",
        "Location": "Tingkat Bukit Dumbar",
        "Post_Office": "Gelugor",
        "State": "Pulau Pinang"
    },
    {
        "Postcode": "11700",
        "Location": "Tingkat Jerejak",
        "Post_Office": "Gelugor",
        "State": "Pulau Pinang"
    },
    {
        "Postcode": "11700",
        "Location": "Tingkat Pemancar",
        "Post_Office": "Gelugor",
        "State": "Pulau Pinang"
    },
    {
        "Postcode": "11700",
        "Location": "Tingkat Permai",
        "Post_Office": "Gelugor",
        "State": "Pulau Pinang"
    },
    {
        "Postcode": "11700",
        "Location": "Halaman Sentosa",
        "Post_Office": "Gelugor",
        "State": "Pulau Pinang"
    },
    {
        "Postcode": "11700",
        "Location": "Jalan Delima",
        "Post_Office": "Gelugor",
        "State": "Pulau Pinang"
    },
    {
        "Postcode": "11700",
        "Location": "Kampung Kastam",
        "Post_Office": "Gelugor",
        "State": "Pulau Pinang"
    },
    {
        "Postcode": "11700",
        "Location": "Kampung Manggis",
        "Post_Office": "Gelugor",
        "State": "Pulau Pinang"
    },
    {
        "Postcode": "11700",
        "Location": "Lorong Delima 3",
        "Post_Office": "Gelugor",
        "State": "Pulau Pinang"
    },
    {
        "Postcode": "11700",
        "Location": "Lorong Delima 4",
        "Post_Office": "Gelugor",
        "State": "Pulau Pinang"
    },
    {
        "Postcode": "11700",
        "Location": "Sungai Dua",
        "Post_Office": "Gelugor",
        "State": "Pulau Pinang"
    },
    {
        "Postcode": "11700",
        "Location": "Ashley Green",
        "Post_Office": "Gelugor",
        "State": "Pulau Pinang"
    },
    {
        "Postcode": "11700",
        "Location": "Desa Permai Indah",
        "Post_Office": "Gelugor",
        "State": "Pulau Pinang"
    },
    {
        "Postcode": "11700",
        "Location": "Kampung Batu Uban",
        "Post_Office": "Gelugor",
        "State": "Pulau Pinang"
    },
    {
        "Postcode": "11700",
        "Location": "Kampung Murthy",
        "Post_Office": "Gelugor",
        "State": "Pulau Pinang"
    },
    {
        "Postcode": "11700",
        "Location": "Kampung Pantai Jerejak",
        "Post_Office": "Gelugor",
        "State": "Pulau Pinang"
    },
    {
        "Postcode": "11700",
        "Location": "Sungai Gelugor",
        "Post_Office": "Gelugor",
        "State": "Pulau Pinang"
    },
    {
        "Postcode": "11700",
        "Location": "Taman Batu Uban",
        "Post_Office": "Gelugor",
        "State": "Pulau Pinang"
    },
    {
        "Postcode": "11700",
        "Location": "Taman Island Glades",
        "Post_Office": "Gelugor",
        "State": "Pulau Pinang"
    },
    {
        "Postcode": "11700",
        "Location": "Taman Pulau Emas",
        "Post_Office": "Gelugor",
        "State": "Pulau Pinang"
    },
    {
        "Postcode": "11700",
        "Location": "Taman Sri Saujana",
        "Post_Office": "Gelugor",
        "State": "Pulau Pinang"
    },
    {
        "Postcode": "11700",
        "Location": "Taman Utama",
        "Post_Office": "Gelugor",
        "State": "Pulau Pinang"
    },
    {
        "Postcode": "11700",
        "Location": "Jalan Bunga Raya",
        "Post_Office": "Gelugor",
        "State": "Pulau Pinang"
    },
    {
        "Postcode": "11700",
        "Location": "Jalan Kampung Kastam",
        "Post_Office": "Gelugor",
        "State": "Pulau Pinang"
    },
    {
        "Postcode": "11700",
        "Location": "Jalan Ketitir 1",
        "Post_Office": "Gelugor",
        "State": "Pulau Pinang"
    },
    {
        "Postcode": "11700",
        "Location": "Jalan Ketitir 2",
        "Post_Office": "Gelugor",
        "State": "Pulau Pinang"
    },
    {
        "Postcode": "11700",
        "Location": "Jalan Molek",
        "Post_Office": "Gelugor",
        "State": "Pulau Pinang"
    },
    {
        "Postcode": "11700",
        "Location": "Jalan Permai",
        "Post_Office": "Gelugor",
        "State": "Pulau Pinang"
    },
    {
        "Postcode": "11700",
        "Location": "Jalan Sungai Dua",
        "Post_Office": "Gelugor",
        "State": "Pulau Pinang"
    },
    {
        "Postcode": "11700",
        "Location": "Jalan Sultan Azlan Shah",
        "Post_Office": "Gelugor",
        "State": "Pulau Pinang"
    },
    {
        "Postcode": "11700",
        "Location": "Kampung Selamat",
        "Post_Office": "Gelugor",
        "State": "Pulau Pinang"
    },
    {
        "Postcode": "11700",
        "Location": "Lengkok Nipah",
        "Post_Office": "Gelugor",
        "State": "Pulau Pinang"
    },
    {
        "Postcode": "11700",
        "Location": "Lengkok Pekaka",
        "Post_Office": "Gelugor",
        "State": "Pulau Pinang"
    },
    {
        "Postcode": "11700",
        "Location": "Lorong Delima 1",
        "Post_Office": "Gelugor",
        "State": "Pulau Pinang"
    },
    {
        "Postcode": "11700",
        "Location": "Lorong Delima 2",
        "Post_Office": "Gelugor",
        "State": "Pulau Pinang"
    },
    {
        "Postcode": "11700",
        "Location": "Lorong Merak 2",
        "Post_Office": "Gelugor",
        "State": "Pulau Pinang"
    },
    {
        "Postcode": "11700",
        "Location": "Lorong Pekaka 1",
        "Post_Office": "Gelugor",
        "State": "Pulau Pinang"
    },
    {
        "Postcode": "11700",
        "Location": "Lorong Pekaka 2",
        "Post_Office": "Gelugor",
        "State": "Pulau Pinang"
    },
    {
        "Postcode": "11700",
        "Location": "Lorong Pekaka 3",
        "Post_Office": "Gelugor",
        "State": "Pulau Pinang"
    },
    {
        "Postcode": "11700",
        "Location": "Lorong Pekaka 4",
        "Post_Office": "Gelugor",
        "State": "Pulau Pinang"
    },
    {
        "Postcode": "11700",
        "Location": "Lorong Pekaka 5",
        "Post_Office": "Gelugor",
        "State": "Pulau Pinang"
    },
    {
        "Postcode": "11700",
        "Location": "Lorong Permai 1",
        "Post_Office": "Gelugor",
        "State": "Pulau Pinang"
    },
    {
        "Postcode": "11700",
        "Location": "Lorong Permai 2",
        "Post_Office": "Gelugor",
        "State": "Pulau Pinang"
    },
    {
        "Postcode": "11700",
        "Location": "Taman Bukit Dumbar",
        "Post_Office": "Gelugor",
        "State": "Pulau Pinang"
    },
    {
        "Postcode": "11700",
        "Location": "Taman Pekaka",
        "Post_Office": "Gelugor",
        "State": "Pulau Pinang"
    },
    {
        "Postcode": "11700",
        "Location": "Taman Sri Bunga",
        "Post_Office": "Gelugor",
        "State": "Pulau Pinang"
    },
    {
        "Postcode": "11700",
        "Location": "Cangkat Bukit Gambir 1",
        "Post_Office": "Gelugor",
        "State": "Pulau Pinang"
    },
    {
        "Postcode": "11700",
        "Location": "Cangkat Bukit Gambir 2",
        "Post_Office": "Gelugor",
        "State": "Pulau Pinang"
    },
    {
        "Postcode": "11700",
        "Location": "Cangkat Minden Jalan 1",
        "Post_Office": "Gelugor",
        "State": "Pulau Pinang"
    },
    {
        "Postcode": "11700",
        "Location": "Cangkat Minden Jalan 10",
        "Post_Office": "Gelugor",
        "State": "Pulau Pinang"
    },
    {
        "Postcode": "11700",
        "Location": "Cangkat Minden Jalan 11",
        "Post_Office": "Gelugor",
        "State": "Pulau Pinang"
    },
    {
        "Postcode": "11700",
        "Location": "Cangkat Minden Jalan 12",
        "Post_Office": "Gelugor",
        "State": "Pulau Pinang"
    },
    {
        "Postcode": "11700",
        "Location": "Cangkat Minden Jalan 13",
        "Post_Office": "Gelugor",
        "State": "Pulau Pinang"
    },
    {
        "Postcode": "11700",
        "Location": "Cangkat Minden Jalan 14",
        "Post_Office": "Gelugor",
        "State": "Pulau Pinang"
    },
    {
        "Postcode": "11700",
        "Location": "Cangkat Minden Jalan 15",
        "Post_Office": "Gelugor",
        "State": "Pulau Pinang"
    },
    {
        "Postcode": "11700",
        "Location": "Cangkat Minden Jalan 16",
        "Post_Office": "Gelugor",
        "State": "Pulau Pinang"
    },
    {
        "Postcode": "11700",
        "Location": "Cangkat Minden Jalan 17",
        "Post_Office": "Gelugor",
        "State": "Pulau Pinang"
    },
    {
        "Postcode": "11700",
        "Location": "Cangkat Minden Jalan 2",
        "Post_Office": "Gelugor",
        "State": "Pulau Pinang"
    },
    {
        "Postcode": "11700",
        "Location": "Cangkat Minden Jalan 3",
        "Post_Office": "Gelugor",
        "State": "Pulau Pinang"
    },
    {
        "Postcode": "11700",
        "Location": "Cangkat Minden Jalan 4",
        "Post_Office": "Gelugor",
        "State": "Pulau Pinang"
    },
    {
        "Postcode": "11700",
        "Location": "Cangkat Minden Jalan 5",
        "Post_Office": "Gelugor",
        "State": "Pulau Pinang"
    },
    {
        "Postcode": "11700",
        "Location": "Cangkat Minden Jalan 6",
        "Post_Office": "Gelugor",
        "State": "Pulau Pinang"
    },
    {
        "Postcode": "11700",
        "Location": "Cangkat Minden Jalan 7",
        "Post_Office": "Gelugor",
        "State": "Pulau Pinang"
    },
    {
        "Postcode": "11700",
        "Location": "Cangkat Minden Jalan 8",
        "Post_Office": "Gelugor",
        "State": "Pulau Pinang"
    },
    {
        "Postcode": "11700",
        "Location": "Cangkat Minden Jalan 9",
        "Post_Office": "Gelugor",
        "State": "Pulau Pinang"
    },
    {
        "Postcode": "11700",
        "Location": "Cangkat Minden Lorong 1",
        "Post_Office": "Gelugor",
        "State": "Pulau Pinang"
    },
    {
        "Postcode": "11700",
        "Location": "Cangkat Minden Lorong 10",
        "Post_Office": "Gelugor",
        "State": "Pulau Pinang"
    },
    {
        "Postcode": "11700",
        "Location": "Cangkat Minden Lorong 11",
        "Post_Office": "Gelugor",
        "State": "Pulau Pinang"
    },
    {
        "Postcode": "11700",
        "Location": "Cangkat Minden Lorong 12",
        "Post_Office": "Gelugor",
        "State": "Pulau Pinang"
    },
    {
        "Postcode": "11700",
        "Location": "Cangkat Minden Lorong 13",
        "Post_Office": "Gelugor",
        "State": "Pulau Pinang"
    },
    {
        "Postcode": "11700",
        "Location": "Cangkat Minden Lorong 14",
        "Post_Office": "Gelugor",
        "State": "Pulau Pinang"
    },
    {
        "Postcode": "11700",
        "Location": "Cangkat Minden Lorong 2",
        "Post_Office": "Gelugor",
        "State": "Pulau Pinang"
    },
    {
        "Postcode": "11700",
        "Location": "Cangkat Minden Lorong 3",
        "Post_Office": "Gelugor",
        "State": "Pulau Pinang"
    },
    {
        "Postcode": "11700",
        "Location": "Cangkat Minden Lorong 4",
        "Post_Office": "Gelugor",
        "State": "Pulau Pinang"
    },
    {
        "Postcode": "11700",
        "Location": "Cangkat Minden Lorong 5",
        "Post_Office": "Gelugor",
        "State": "Pulau Pinang"
    },
    {
        "Postcode": "11700",
        "Location": "Cangkat Minden Lorong 6",
        "Post_Office": "Gelugor",
        "State": "Pulau Pinang"
    },
    {
        "Postcode": "11700",
        "Location": "Cangkat Minden Lorong 7",
        "Post_Office": "Gelugor",
        "State": "Pulau Pinang"
    },
    {
        "Postcode": "11700",
        "Location": "Cangkat Minden Lorong 8",
        "Post_Office": "Gelugor",
        "State": "Pulau Pinang"
    },
    {
        "Postcode": "11700",
        "Location": "Cangkat Minden Lorong 9",
        "Post_Office": "Gelugor",
        "State": "Pulau Pinang"
    },
    {
        "Postcode": "11700",
        "Location": "Halaman Bukit Gambir 1",
        "Post_Office": "Gelugor",
        "State": "Pulau Pinang"
    },
    {
        "Postcode": "11700",
        "Location": "Halaman Bukit Gambir 10",
        "Post_Office": "Gelugor",
        "State": "Pulau Pinang"
    },
    {
        "Postcode": "11700",
        "Location": "Halaman Bukit Gambir 11",
        "Post_Office": "Gelugor",
        "State": "Pulau Pinang"
    },
    {
        "Postcode": "11700",
        "Location": "Halaman Bukit Gambir 2",
        "Post_Office": "Gelugor",
        "State": "Pulau Pinang"
    },
    {
        "Postcode": "11700",
        "Location": "Halaman Bukit Gambir 3",
        "Post_Office": "Gelugor",
        "State": "Pulau Pinang"
    },
    {
        "Postcode": "11700",
        "Location": "Halaman Bukit Gambir 4",
        "Post_Office": "Gelugor",
        "State": "Pulau Pinang"
    },
    {
        "Postcode": "11700",
        "Location": "Halaman Bukit Gambir 5",
        "Post_Office": "Gelugor",
        "State": "Pulau Pinang"
    },
    {
        "Postcode": "11700",
        "Location": "Halaman Bukit Gambir 6",
        "Post_Office": "Gelugor",
        "State": "Pulau Pinang"
    },
    {
        "Postcode": "11700",
        "Location": "Halaman Bukit Gambir 7",
        "Post_Office": "Gelugor",
        "State": "Pulau Pinang"
    },
    {
        "Postcode": "11700",
        "Location": "Halaman Bukit Gambir 8",
        "Post_Office": "Gelugor",
        "State": "Pulau Pinang"
    },
    {
        "Postcode": "11700",
        "Location": "Halaman Bukit Gambir 9",
        "Post_Office": "Gelugor",
        "State": "Pulau Pinang"
    },
    {
        "Postcode": "11700",
        "Location": "Jalan Batu Uban 1",
        "Post_Office": "Gelugor",
        "State": "Pulau Pinang"
    },
    {
        "Postcode": "11700",
        "Location": "Jalan Batu Uban 2",
        "Post_Office": "Gelugor",
        "State": "Pulau Pinang"
    },
    {
        "Postcode": "11700",
        "Location": "Jalan Batu Uban 3",
        "Post_Office": "Gelugor",
        "State": "Pulau Pinang"
    },
    {
        "Postcode": "11700",
        "Location": "Jalan Batu Uban 4",
        "Post_Office": "Gelugor",
        "State": "Pulau Pinang"
    },
    {
        "Postcode": "11700",
        "Location": "Jalan Ketitir 3",
        "Post_Office": "Gelugor",
        "State": "Pulau Pinang"
    },
    {
        "Postcode": "11700",
        "Location": "Jalan Ketitir 4",
        "Post_Office": "Gelugor",
        "State": "Pulau Pinang"
    },
    {
        "Postcode": "11700",
        "Location": "Jalan Pekaka 1",
        "Post_Office": "Gelugor",
        "State": "Pulau Pinang"
    },
    {
        "Postcode": "11700",
        "Location": "Jalan Pekaka 2",
        "Post_Office": "Gelugor",
        "State": "Pulau Pinang"
    },
    {
        "Postcode": "11700",
        "Location": "Lebuh Bukit Gambir 2",
        "Post_Office": "Gelugor",
        "State": "Pulau Pinang"
    },
    {
        "Postcode": "11700",
        "Location": "Lebuh Bukit Gambir 3",
        "Post_Office": "Gelugor",
        "State": "Pulau Pinang"
    },
    {
        "Postcode": "11700",
        "Location": "Lebuh Minden 1",
        "Post_Office": "Gelugor",
        "State": "Pulau Pinang"
    },
    {
        "Postcode": "11700",
        "Location": "Lebuh Minden 2",
        "Post_Office": "Gelugor",
        "State": "Pulau Pinang"
    },
    {
        "Postcode": "11700",
        "Location": "Lebuh Pekaka 1",
        "Post_Office": "Gelugor",
        "State": "Pulau Pinang"
    },
    {
        "Postcode": "11700",
        "Location": "Lebuh Pekaka 2",
        "Post_Office": "Gelugor",
        "State": "Pulau Pinang"
    },
    {
        "Postcode": "11700",
        "Location": "Lengkok Nipah 2",
        "Post_Office": "Gelugor",
        "State": "Pulau Pinang"
    },
    {
        "Postcode": "11700",
        "Location": "Lengkok Nipah 3",
        "Post_Office": "Gelugor",
        "State": "Pulau Pinang"
    },
    {
        "Postcode": "11700",
        "Location": "Lengkok Nipah 4",
        "Post_Office": "Gelugor",
        "State": "Pulau Pinang"
    },
    {
        "Postcode": "11700",
        "Location": "Lengkok Nipah 5",
        "Post_Office": "Gelugor",
        "State": "Pulau Pinang"
    },
    {
        "Postcode": "11700",
        "Location": "Lengkok Sungai Gelugor 1",
        "Post_Office": "Gelugor",
        "State": "Pulau Pinang"
    },
    {
        "Postcode": "11700",
        "Location": "Lengkok Sungai Gelugor 2",
        "Post_Office": "Gelugor",
        "State": "Pulau Pinang"
    },
    {
        "Postcode": "11700",
        "Location": "Lintang Delima 1",
        "Post_Office": "Gelugor",
        "State": "Pulau Pinang"
    },
    {
        "Postcode": "11700",
        "Location": "Lintang Delima 10",
        "Post_Office": "Gelugor",
        "State": "Pulau Pinang"
    },
    {
        "Postcode": "11700",
        "Location": "Lintang Delima 11",
        "Post_Office": "Gelugor",
        "State": "Pulau Pinang"
    },
    {
        "Postcode": "11700",
        "Location": "Lintang Delima 12",
        "Post_Office": "Gelugor",
        "State": "Pulau Pinang"
    },
    {
        "Postcode": "11700",
        "Location": "Lintang Delima 13",
        "Post_Office": "Gelugor",
        "State": "Pulau Pinang"
    },
    {
        "Postcode": "11700",
        "Location": "Lintang Delima 14",
        "Post_Office": "Gelugor",
        "State": "Pulau Pinang"
    },
    {
        "Postcode": "11700",
        "Location": "Lintang Delima 15",
        "Post_Office": "Gelugor",
        "State": "Pulau Pinang"
    },
    {
        "Postcode": "11700",
        "Location": "Lintang Delima 2",
        "Post_Office": "Gelugor",
        "State": "Pulau Pinang"
    },
    {
        "Postcode": "11700",
        "Location": "Lintang Delima 3",
        "Post_Office": "Gelugor",
        "State": "Pulau Pinang"
    },
    {
        "Postcode": "11700",
        "Location": "Lintang Delima 4",
        "Post_Office": "Gelugor",
        "State": "Pulau Pinang"
    },
    {
        "Postcode": "11700",
        "Location": "Lintang Delima 5",
        "Post_Office": "Gelugor",
        "State": "Pulau Pinang"
    },
    {
        "Postcode": "11700",
        "Location": "Lintang Delima 6",
        "Post_Office": "Gelugor",
        "State": "Pulau Pinang"
    },
    {
        "Postcode": "11700",
        "Location": "Lintang Delima 7",
        "Post_Office": "Gelugor",
        "State": "Pulau Pinang"
    },
    {
        "Postcode": "11700",
        "Location": "Lintang Delima 8",
        "Post_Office": "Gelugor",
        "State": "Pulau Pinang"
    },
    {
        "Postcode": "11700",
        "Location": "Lintang Delima 9",
        "Post_Office": "Gelugor",
        "State": "Pulau Pinang"
    },
    {
        "Postcode": "11700",
        "Location": "Lintang Minden 1",
        "Post_Office": "Gelugor",
        "State": "Pulau Pinang"
    },
    {
        "Postcode": "11700",
        "Location": "Lintang Minden 2",
        "Post_Office": "Gelugor",
        "State": "Pulau Pinang"
    },
    {
        "Postcode": "11700",
        "Location": "Lintang Minden 3",
        "Post_Office": "Gelugor",
        "State": "Pulau Pinang"
    },
    {
        "Postcode": "11700",
        "Location": "Lintang Pantai Jerejak 2",
        "Post_Office": "Gelugor",
        "State": "Pulau Pinang"
    },
    {
        "Postcode": "11700",
        "Location": "Lintang Pantai Jerejak 3",
        "Post_Office": "Gelugor",
        "State": "Pulau Pinang"
    },
    {
        "Postcode": "11700",
        "Location": "Lintang Pantai Jerejak 4",
        "Post_Office": "Gelugor",
        "State": "Pulau Pinang"
    },
    {
        "Postcode": "11700",
        "Location": "Lintang Pantai Jerejak 5",
        "Post_Office": "Gelugor",
        "State": "Pulau Pinang"
    },
    {
        "Postcode": "11700",
        "Location": "Lintang Pantai Jerejak 6",
        "Post_Office": "Gelugor",
        "State": "Pulau Pinang"
    },
    {
        "Postcode": "11700",
        "Location": "Lintang Pekaka 1",
        "Post_Office": "Gelugor",
        "State": "Pulau Pinang"
    },
    {
        "Postcode": "11700",
        "Location": "Lintang Pekaka 2",
        "Post_Office": "Gelugor",
        "State": "Pulau Pinang"
    },
    {
        "Postcode": "11700",
        "Location": "Lintang Pekaka 3",
        "Post_Office": "Gelugor",
        "State": "Pulau Pinang"
    },
    {
        "Postcode": "11700",
        "Location": "Lintang Pekaka 4",
        "Post_Office": "Gelugor",
        "State": "Pulau Pinang"
    },
    {
        "Postcode": "11700",
        "Location": "Lintang Pekaka 5",
        "Post_Office": "Gelugor",
        "State": "Pulau Pinang"
    },
    {
        "Postcode": "11700",
        "Location": "Lintang Pekaka 6",
        "Post_Office": "Gelugor",
        "State": "Pulau Pinang"
    },
    {
        "Postcode": "11700",
        "Location": "Lintang Pekaka 7",
        "Post_Office": "Gelugor",
        "State": "Pulau Pinang"
    },
    {
        "Postcode": "11700",
        "Location": "Lintang Pekaka 8",
        "Post_Office": "Gelugor",
        "State": "Pulau Pinang"
    },
    {
        "Postcode": "11700",
        "Location": "Lintang Pekaka 9",
        "Post_Office": "Gelugor",
        "State": "Pulau Pinang"
    },
    {
        "Postcode": "11700",
        "Location": "Lintang Permai 1",
        "Post_Office": "Gelugor",
        "State": "Pulau Pinang"
    },
    {
        "Postcode": "11700",
        "Location": "Lintang Permai 2",
        "Post_Office": "Gelugor",
        "State": "Pulau Pinang"
    },
    {
        "Postcode": "11700",
        "Location": "Lintang Permai 3",
        "Post_Office": "Gelugor",
        "State": "Pulau Pinang"
    },
    {
        "Postcode": "11700",
        "Location": "Lintang Permai 4",
        "Post_Office": "Gelugor",
        "State": "Pulau Pinang"
    },
    {
        "Postcode": "11700",
        "Location": "Lorong Batu Uban 1",
        "Post_Office": "Gelugor",
        "State": "Pulau Pinang"
    },
    {
        "Postcode": "11700",
        "Location": "Lorong Batu Uban 2",
        "Post_Office": "Gelugor",
        "State": "Pulau Pinang"
    },
    {
        "Postcode": "11700",
        "Location": "Lorong Batu Uban 3",
        "Post_Office": "Gelugor",
        "State": "Pulau Pinang"
    },
    {
        "Postcode": "11700",
        "Location": "Lorong Batu Uban 4",
        "Post_Office": "Gelugor",
        "State": "Pulau Pinang"
    },
    {
        "Postcode": "11700",
        "Location": "Lorong Batu Uban 5",
        "Post_Office": "Gelugor",
        "State": "Pulau Pinang"
    },
    {
        "Postcode": "11700",
        "Location": "Lorong Bukit Gambir 2",
        "Post_Office": "Gelugor",
        "State": "Pulau Pinang"
    },
    {
        "Postcode": "11700",
        "Location": "Lorong Bukit Gambir 3",
        "Post_Office": "Gelugor",
        "State": "Pulau Pinang"
    },
    {
        "Postcode": "11700",
        "Location": "Lorong Delima 10",
        "Post_Office": "Gelugor",
        "State": "Pulau Pinang"
    },
    {
        "Postcode": "11700",
        "Location": "Lorong Delima 11",
        "Post_Office": "Gelugor",
        "State": "Pulau Pinang"
    },
    {
        "Postcode": "11700",
        "Location": "Lorong Delima 12",
        "Post_Office": "Gelugor",
        "State": "Pulau Pinang"
    },
    {
        "Postcode": "11700",
        "Location": "Lorong Delima 13",
        "Post_Office": "Gelugor",
        "State": "Pulau Pinang"
    },
    {
        "Postcode": "11700",
        "Location": "Lorong Delima 14",
        "Post_Office": "Gelugor",
        "State": "Pulau Pinang"
    },
    {
        "Postcode": "11700",
        "Location": "Lorong Delima 15",
        "Post_Office": "Gelugor",
        "State": "Pulau Pinang"
    },
    {
        "Postcode": "11700",
        "Location": "Lorong Delima 16",
        "Post_Office": "Gelugor",
        "State": "Pulau Pinang"
    },
    {
        "Postcode": "11700",
        "Location": "Lorong Delima 17",
        "Post_Office": "Gelugor",
        "State": "Pulau Pinang"
    },
    {
        "Postcode": "11700",
        "Location": "Lorong Delima 18",
        "Post_Office": "Gelugor",
        "State": "Pulau Pinang"
    },
    {
        "Postcode": "11700",
        "Location": "Lorong Delima 19",
        "Post_Office": "Gelugor",
        "State": "Pulau Pinang"
    },
    {
        "Postcode": "11700",
        "Location": "Lorong Delima 20",
        "Post_Office": "Gelugor",
        "State": "Pulau Pinang"
    },
    {
        "Postcode": "11700",
        "Location": "Lorong Delima 5",
        "Post_Office": "Gelugor",
        "State": "Pulau Pinang"
    },
    {
        "Postcode": "11700",
        "Location": "Lorong Delima 6",
        "Post_Office": "Gelugor",
        "State": "Pulau Pinang"
    },
    {
        "Postcode": "11700",
        "Location": "Lorong Delima 7",
        "Post_Office": "Gelugor",
        "State": "Pulau Pinang"
    },
    {
        "Postcode": "11700",
        "Location": "Lorong Delima 8",
        "Post_Office": "Gelugor",
        "State": "Pulau Pinang"
    },
    {
        "Postcode": "11700",
        "Location": "Lorong Delima 9",
        "Post_Office": "Gelugor",
        "State": "Pulau Pinang"
    },
    {
        "Postcode": "11700",
        "Location": "Lorong Endah 1",
        "Post_Office": "Gelugor",
        "State": "Pulau Pinang"
    },
    {
        "Postcode": "11700",
        "Location": "Lorong Endah 2",
        "Post_Office": "Gelugor",
        "State": "Pulau Pinang"
    },
    {
        "Postcode": "11700",
        "Location": "Lorong Endah 3",
        "Post_Office": "Gelugor",
        "State": "Pulau Pinang"
    },
    {
        "Postcode": "11700",
        "Location": "Lorong Endah 4",
        "Post_Office": "Gelugor",
        "State": "Pulau Pinang"
    },
    {
        "Postcode": "11700",
        "Location": "Lorong Endah 5",
        "Post_Office": "Gelugor",
        "State": "Pulau Pinang"
    },
    {
        "Postcode": "11700",
        "Location": "Lorong Endah 6",
        "Post_Office": "Gelugor",
        "State": "Pulau Pinang"
    },
    {
        "Postcode": "11700",
        "Location": "Lorong Endah 7",
        "Post_Office": "Gelugor",
        "State": "Pulau Pinang"
    },
    {
        "Postcode": "11700",
        "Location": "Lorong Helang 1",
        "Post_Office": "Gelugor",
        "State": "Pulau Pinang"
    },
    {
        "Postcode": "11700",
        "Location": "Lorong Helang 2",
        "Post_Office": "Gelugor",
        "State": "Pulau Pinang"
    },
    {
        "Postcode": "11700",
        "Location": "Lorong Helang 3",
        "Post_Office": "Gelugor",
        "State": "Pulau Pinang"
    },
    {
        "Postcode": "11700",
        "Location": "Lorong Merak 1",
        "Post_Office": "Gelugor",
        "State": "Pulau Pinang"
    },
    {
        "Postcode": "11700",
        "Location": "Lorong Pekaka 6",
        "Post_Office": "Gelugor",
        "State": "Pulau Pinang"
    },
    {
        "Postcode": "11700",
        "Location": "Lorong Permai 3",
        "Post_Office": "Gelugor",
        "State": "Pulau Pinang"
    },
    {
        "Postcode": "11700",
        "Location": "Medan Murai 1",
        "Post_Office": "Gelugor",
        "State": "Pulau Pinang"
    },
    {
        "Postcode": "11700",
        "Location": "Medan Murai 2",
        "Post_Office": "Gelugor",
        "State": "Pulau Pinang"
    },
    {
        "Postcode": "11700",
        "Location": "Persiaran Minden 1",
        "Post_Office": "Gelugor",
        "State": "Pulau Pinang"
    },
    {
        "Postcode": "11700",
        "Location": "Persiaran Minden 2",
        "Post_Office": "Gelugor",
        "State": "Pulau Pinang"
    },
    {
        "Postcode": "11700",
        "Location": "Persiaran Minden 3",
        "Post_Office": "Gelugor",
        "State": "Pulau Pinang"
    },
    {
        "Postcode": "11700",
        "Location": "Pintasan Pemancar 3",
        "Post_Office": "Gelugor",
        "State": "Pulau Pinang"
    },
    {
        "Postcode": "11700",
        "Location": "Pintasan Pemancar 4",
        "Post_Office": "Gelugor",
        "State": "Pulau Pinang"
    },
    {
        "Postcode": "11700",
        "Location": "Solok Batu Uban 3",
        "Post_Office": "Gelugor",
        "State": "Pulau Pinang"
    },
    {
        "Postcode": "11700",
        "Location": "Solok Batu Uban 4",
        "Post_Office": "Gelugor",
        "State": "Pulau Pinang"
    },
    {
        "Postcode": "11700",
        "Location": "Solok Pekaka 1",
        "Post_Office": "Gelugor",
        "State": "Pulau Pinang"
    },
    {
        "Postcode": "11700",
        "Location": "Solok Pekaka 2",
        "Post_Office": "Gelugor",
        "State": "Pulau Pinang"
    },
    {
        "Postcode": "11700",
        "Location": "Tingkat Batu Uban 1",
        "Post_Office": "Gelugor",
        "State": "Pulau Pinang"
    },
    {
        "Postcode": "11700",
        "Location": "Tingkat Batu Uban 2",
        "Post_Office": "Gelugor",
        "State": "Pulau Pinang"
    },
    {
        "Postcode": "11700",
        "Location": "Tingkat Batu Uban 3",
        "Post_Office": "Gelugor",
        "State": "Pulau Pinang"
    },
    {
        "Postcode": "11700",
        "Location": "Tingkat Batu Uban 4",
        "Post_Office": "Gelugor",
        "State": "Pulau Pinang"
    },
    {
        "Postcode": "11700",
        "Location": "Tingkat Pekaka 2",
        "Post_Office": "Gelugor",
        "State": "Pulau Pinang"
    },
    {
        "Postcode": "11700",
        "Location": "Tingkat Pekaka 4",
        "Post_Office": "Gelugor",
        "State": "Pulau Pinang"
    },
    {
        "Postcode": "11700",
        "Location": "Tingkat Sungai Gelugor 8",
        "Post_Office": "Gelugor",
        "State": "Pulau Pinang"
    },
    {
        "Postcode": "11700",
        "Location": "Tingkat Sungai Gelugor 9",
        "Post_Office": "Gelugor",
        "State": "Pulau Pinang"
    }
]
