[
    {
        "Postcode": "11900",
        "Location": "Akasia",
        "Post_Office": "Bayan Lepas",
        "State": "Pulau Pinang"
    },
    {
        "Postcode": "11900",
        "Location": "Alamanda",
        "Post_Office": "Bayan Lepas",
        "State": "Pulau Pinang"
    },
    {
        "Postcode": "11900",
        "Location": "Asoka",
        "Post_Office": "Bayan Lepas",
        "State": "Pulau Pinang"
    },
    {
        "Postcode": "11900",
        "Location": "Ayu Height",
        "Post_Office": "Bayan Lepas",
        "State": "Pulau Pinang"
    },
    {
        "Postcode": "11900",
        "Location": "Bayan Bay",
        "Post_Office": "Bayan Lepas",
        "State": "Pulau Pinang"
    },
    {
        "Postcode": "11900",
        "Location": "Bayan Lepas",
        "Post_Office": "Bayan Lepas",
        "State": "Pulau Pinang"
    },
    {
        "Postcode": "11900",
        "Location": "Bayan Permai",
        "Post_Office": "Bayan Lepas",
        "State": "Pulau Pinang"
    },
    {
        "Postcode": "11900",
        "Location": "Begonia",
        "Post_Office": "Bayan Lepas",
        "State": "Pulau Pinang"
    },
    {
        "Postcode": "11900",
        "Location": "Bukit Ayon",
        "Post_Office": "Bayan Lepas",
        "State": "Pulau Pinang"
    },
    {
        "Postcode": "11900",
        "Location": "Bukit Huma",
        "Post_Office": "Bayan Lepas",
        "State": "Pulau Pinang"
    },
    {
        "Postcode": "11900",
        "Location": "Bukit Huma Sungai Ara Mk. 12",
        "Post_Office": "Bayan Lepas",
        "State": "Pulau Pinang"
    },
    {
        "Postcode": "11900",
        "Location": "Bukit Kecil Sungai Nibong Besar",
        "Post_Office": "Bayan Lepas",
        "State": "Pulau Pinang"
    },
    {
        "Postcode": "11900",
        "Location": "Cangkat Kenari",
        "Post_Office": "Bayan Lepas",
        "State": "Pulau Pinang"
    },
    {
        "Postcode": "11900",
        "Location": "Cangkat Kenari Desaria Sungai Ara",
        "Post_Office": "Bayan Lepas",
        "State": "Pulau Pinang"
    },
    {
        "Postcode": "11900",
        "Location": "Cangkat Sungai Ara",
        "Post_Office": "Bayan Lepas",
        "State": "Pulau Pinang"
    },
    {
        "Postcode": "11900",
        "Location": "Cangkat Sungai Ara 1A",
        "Post_Office": "Bayan Lepas",
        "State": "Pulau Pinang"
    },
    {
        "Postcode": "11900",
        "Location": "Cempaka",
        "Post_Office": "Bayan Lepas",
        "State": "Pulau Pinang"
    },
    {
        "Postcode": "11900",
        "Location": "Dafe Court",
        "Post_Office": "Bayan Lepas",
        "State": "Pulau Pinang"
    },
    {
        "Postcode": "11900",
        "Location": "Dahlia",
        "Post_Office": "Bayan Lepas",
        "State": "Pulau Pinang"
    },
    {
        "Postcode": "11900",
        "Location": "Daisi",
        "Post_Office": "Bayan Lepas",
        "State": "Pulau Pinang"
    },
    {
        "Postcode": "11900",
        "Location": "Desa Alor Vista",
        "Post_Office": "Bayan Lepas",
        "State": "Pulau Pinang"
    },
    {
        "Postcode": "11900",
        "Location": "Desa Aman",
        "Post_Office": "Bayan Lepas",
        "State": "Pulau Pinang"
    },
    {
        "Postcode": "11900",
        "Location": "Desa Bayan",
        "Post_Office": "Bayan Lepas",
        "State": "Pulau Pinang"
    },
    {
        "Postcode": "11900",
        "Location": "Desa Clarissa",
        "Post_Office": "Bayan Lepas",
        "State": "Pulau Pinang"
    },
    {
        "Postcode": "11900",
        "Location": "Desa Golf",
        "Post_Office": "Bayan Lepas",
        "State": "Pulau Pinang"
    },
    {
        "Postcode": "11900",
        "Location": "Desa Iswara",
        "Post_Office": "Bayan Lepas",
        "State": "Pulau Pinang"
    },
    {
        "Postcode": "11900",
        "Location": "Desa Jaya",
        "Post_Office": "Bayan Lepas",
        "State": "Pulau Pinang"
    },
    {
        "Postcode": "11900",
        "Location": "Desa Madura",
        "Post_Office": "Bayan Lepas",
        "State": "Pulau Pinang"
    },
    {
        "Postcode": "11900",
        "Location": "Desa Mas Melor",
        "Post_Office": "Bayan Lepas",
        "State": "Pulau Pinang"
    },
    {
        "Postcode": "11900",
        "Location": "Desa May",
        "Post_Office": "Bayan Lepas",
        "State": "Pulau Pinang"
    },
    {
        "Postcode": "11900",
        "Location": "Desa Putra",
        "Post_Office": "Bayan Lepas",
        "State": "Pulau Pinang"
    },
    {
        "Postcode": "11900",
        "Location": "Desa Rahmat",
        "Post_Office": "Bayan Lepas",
        "State": "Pulau Pinang"
    },
    {
        "Postcode": "11900",
        "Location": "Desa Widuri",
        "Post_Office": "Bayan Lepas",
        "State": "Pulau Pinang"
    },
    {
        "Postcode": "11900",
        "Location": "Desaria Sungai Ara",
        "Post_Office": "Bayan Lepas",
        "State": "Pulau Pinang"
    },
    {
        "Postcode": "11900",
        "Location": "Diamond Valley",
        "Post_Office": "Bayan Lepas",
        "State": "Pulau Pinang"
    },
    {
        "Postcode": "11900",
        "Location": "Fairway",
        "Post_Office": "Bayan Lepas",
        "State": "Pulau Pinang"
    },
    {
        "Postcode": "11900",
        "Location": "Gerbang Bukit Kecil 2",
        "Post_Office": "Bayan Lepas",
        "State": "Pulau Pinang"
    },
    {
        "Postcode": "11900",
        "Location": "Gerbang Sungai Ara 2A",
        "Post_Office": "Bayan Lepas",
        "State": "Pulau Pinang"
    },
    {
        "Postcode": "11900",
        "Location": "Halaman Bukit Jambul",
        "Post_Office": "Bayan Lepas",
        "State": "Pulau Pinang"
    },
    {
        "Postcode": "11900",
        "Location": "Halaman Kampung Jawa",
        "Post_Office": "Bayan Lepas",
        "State": "Pulau Pinang"
    },
    {
        "Postcode": "11900",
        "Location": "Halaman Kampung Jawa 1",
        "Post_Office": "Bayan Lepas",
        "State": "Pulau Pinang"
    },
    {
        "Postcode": "11900",
        "Location": "Halaman Murni",
        "Post_Office": "Bayan Lepas",
        "State": "Pulau Pinang"
    },
    {
        "Postcode": "11900",
        "Location": "Halaman Paya Terubung",
        "Post_Office": "Bayan Lepas",
        "State": "Pulau Pinang"
    },
    {
        "Postcode": "11900",
        "Location": "Halaman Sungai Keluang",
        "Post_Office": "Bayan Lepas",
        "State": "Pulau Pinang"
    },
    {
        "Postcode": "11900",
        "Location": "Halaman Teratai",
        "Post_Office": "Bayan Lepas",
        "State": "Pulau Pinang"
    },
    {
        "Postcode": "11900",
        "Location": "Hilir Paya Terubong",
        "Post_Office": "Bayan Lepas",
        "State": "Pulau Pinang"
    },
    {
        "Postcode": "11900",
        "Location": "Hilir Sungai",
        "Post_Office": "Bayan Lepas",
        "State": "Pulau Pinang"
    },
    {
        "Postcode": "11900",
        "Location": "Hilir Sungai 2",
        "Post_Office": "Bayan Lepas",
        "State": "Pulau Pinang"
    },
    {
        "Postcode": "11900",
        "Location": "Hilir Sungai Keluang",
        "Post_Office": "Bayan Lepas",
        "State": "Pulau Pinang"
    },
    {
        "Postcode": "11900",
        "Location": "Hilir Sungai Keluang 2",
        "Post_Office": "Bayan Lepas",
        "State": "Pulau Pinang"
    },
    {
        "Postcode": "11900",
        "Location": "Hilir Sungai Keluang 3",
        "Post_Office": "Bayan Lepas",
        "State": "Pulau Pinang"
    },
    {
        "Postcode": "11900",
        "Location": "Inai",
        "Post_Office": "Bayan Lepas",
        "State": "Pulau Pinang"
    },
    {
        "Postcode": "11900",
        "Location": "Jalan Aziz Ibrahim",
        "Post_Office": "Bayan Lepas",
        "State": "Pulau Pinang"
    },
    {
        "Postcode": "11900",
        "Location": "Jalan Ban Batu Maung",
        "Post_Office": "Bayan Lepas",
        "State": "Pulau Pinang"
    },
    {
        "Postcode": "11900",
        "Location": "Jalan Besar Bayan Lepas",
        "Post_Office": "Bayan Lepas",
        "State": "Pulau Pinang"
    },
    {
        "Postcode": "11900",
        "Location": "Jalan Datok Ismail Hashim",
        "Post_Office": "Bayan Lepas",
        "State": "Pulau Pinang"
    },
    {
        "Postcode": "11900",
        "Location": "Jalan Garuda",
        "Post_Office": "Bayan Lepas",
        "State": "Pulau Pinang"
    },
    {
        "Postcode": "11900",
        "Location": "Jalan Kampung Bukit",
        "Post_Office": "Bayan Lepas",
        "State": "Pulau Pinang"
    },
    {
        "Postcode": "11900",
        "Location": "Jalan Kampung Perlis",
        "Post_Office": "Bayan Lepas",
        "State": "Pulau Pinang"
    },
    {
        "Postcode": "11900",
        "Location": "Jalan Kampung Relau",
        "Post_Office": "Bayan Lepas",
        "State": "Pulau Pinang"
    },
    {
        "Postcode": "11900",
        "Location": "Jalan Kenari",
        "Post_Office": "Bayan Lepas",
        "State": "Pulau Pinang"
    },
    {
        "Postcode": "11900",
        "Location": "Jalan Kenyalang",
        "Post_Office": "Bayan Lepas",
        "State": "Pulau Pinang"
    },
    {
        "Postcode": "11900",
        "Location": "Jalan Kolam Ikan",
        "Post_Office": "Bayan Lepas",
        "State": "Pulau Pinang"
    },
    {
        "Postcode": "11900",
        "Location": "Jalan Mahkamah",
        "Post_Office": "Bayan Lepas",
        "State": "Pulau Pinang"
    },
    {
        "Postcode": "11900",
        "Location": "Jalan Pantai Aziz Ibrahim",
        "Post_Office": "Bayan Lepas",
        "State": "Pulau Pinang"
    },
    {
        "Postcode": "11900",
        "Location": "Jalan Pantai Jerejak",
        "Post_Office": "Bayan Lepas",
        "State": "Pulau Pinang"
    },
    {
        "Postcode": "11900",
        "Location": "Jalan Rumbia",
        "Post_Office": "Bayan Lepas",
        "State": "Pulau Pinang"
    },
    {
        "Postcode": "11900",
        "Location": "Jalan Sungai Ara",
        "Post_Office": "Bayan Lepas",
        "State": "Pulau Pinang"
    },
    {
        "Postcode": "11900",
        "Location": "Jalan Sungai Keluang 1",
        "Post_Office": "Bayan Lepas",
        "State": "Pulau Pinang"
    },
    {
        "Postcode": "11900",
        "Location": "Jalan Sungai Tiram",
        "Post_Office": "Bayan Lepas",
        "State": "Pulau Pinang"
    },
    {
        "Postcode": "11900",
        "Location": "Jalan Tengah Blok B",
        "Post_Office": "Bayan Lepas",
        "State": "Pulau Pinang"
    },
    {
        "Postcode": "11900",
        "Location": "Jalan Tengah Blok D",
        "Post_Office": "Bayan Lepas",
        "State": "Pulau Pinang"
    },
    {
        "Postcode": "11900",
        "Location": "Jalan Tun Dr Awang",
        "Post_Office": "Bayan Lepas",
        "State": "Pulau Pinang"
    },
    {
        "Postcode": "11900",
        "Location": "Jambul Court",
        "Post_Office": "Bayan Lepas",
        "State": "Pulau Pinang"
    },
    {
        "Postcode": "11900",
        "Location": "Jambul View",
        "Post_Office": "Bayan Lepas",
        "State": "Pulau Pinang"
    },
    {
        "Postcode": "11900",
        "Location": "Kampung Bakit",
        "Post_Office": "Bayan Lepas",
        "State": "Pulau Pinang"
    },
    {
        "Postcode": "11900",
        "Location": "Kampung Baru Sungai Ara",
        "Post_Office": "Bayan Lepas",
        "State": "Pulau Pinang"
    },
    {
        "Postcode": "11900",
        "Location": "Kampung Baruh",
        "Post_Office": "Bayan Lepas",
        "State": "Pulau Pinang"
    },
    {
        "Postcode": "11900",
        "Location": "Kampung Batak",
        "Post_Office": "Bayan Lepas",
        "State": "Pulau Pinang"
    },
    {
        "Postcode": "11900",
        "Location": "Kampung Batak Mk. 13",
        "Post_Office": "Bayan Lepas",
        "State": "Pulau Pinang"
    },
    {
        "Postcode": "11900",
        "Location": "Kampung Bukit Ayon Blok G",
        "Post_Office": "Bayan Lepas",
        "State": "Pulau Pinang"
    },
    {
        "Postcode": "11900",
        "Location": "Kampung Bukit Bayan Lepas",
        "Post_Office": "Bayan Lepas",
        "State": "Pulau Pinang"
    },
    {
        "Postcode": "11900",
        "Location": "Kampung Manggis Bayan Lepas",
        "Post_Office": "Bayan Lepas",
        "State": "Pulau Pinang"
    },
    {
        "Postcode": "11900",
        "Location": "Kampung Masjid Bayan Lepas",
        "Post_Office": "Bayan Lepas",
        "State": "Pulau Pinang"
    },
    {
        "Postcode": "11900",
        "Location": "Kampung Masjid Blok D Sungai Ara",
        "Post_Office": "Bayan Lepas",
        "State": "Pulau Pinang"
    },
    {
        "Postcode": "11900",
        "Location": "Kampung Padang Asam Blok G",
        "Post_Office": "Bayan Lepas",
        "State": "Pulau Pinang"
    },
    {
        "Postcode": "11900",
        "Location": "Kampung Padang Bayan Lepas",
        "Post_Office": "Bayan Lepas",
        "State": "Pulau Pinang"
    },
    {
        "Postcode": "11900",
        "Location": "Jalan Pantai Jerejak 1",
        "Post_Office": "Bayan Lepas",
        "State": "Pulau Pinang"
    },
    {
        "Postcode": "11900",
        "Location": "Kampung Bukit Kecil",
        "Post_Office": "Bayan Lepas",
        "State": "Pulau Pinang"
    },
    {
        "Postcode": "11900",
        "Location": "Kampung Jawa",
        "Post_Office": "Bayan Lepas",
        "State": "Pulau Pinang"
    },
    {
        "Postcode": "11900",
        "Location": "Kampung Manggis",
        "Post_Office": "Bayan Lepas",
        "State": "Pulau Pinang"
    },
    {
        "Postcode": "11900",
        "Location": "Kampung Perlis",
        "Post_Office": "Bayan Lepas",
        "State": "Pulau Pinang"
    },
    {
        "Postcode": "11900",
        "Location": "Kampung Seberang Paya",
        "Post_Office": "Bayan Lepas",
        "State": "Pulau Pinang"
    },
    {
        "Postcode": "11900",
        "Location": "Kampung Seronok",
        "Post_Office": "Bayan Lepas",
        "State": "Pulau Pinang"
    },
    {
        "Postcode": "11900",
        "Location": "Kampung Tersusun",
        "Post_Office": "Bayan Lepas",
        "State": "Pulau Pinang"
    },
    {
        "Postcode": "11900",
        "Location": "Lebuhraya Lim Chong Eu\r\n",
        "Post_Office": "Bayan Lepas",
        "State": "Pulau Pinang"
    },
    {
        "Postcode": "11900",
        "Location": "Lintang Batu Maung 2",
        "Post_Office": "Bayan Lepas",
        "State": "Pulau Pinang"
    },
    {
        "Postcode": "11900",
        "Location": "Solok Nuri",
        "Post_Office": "Bayan Lepas",
        "State": "Pulau Pinang"
    },
    {
        "Postcode": "11900",
        "Location": "Taman Mahsuri",
        "Post_Office": "Bayan Lepas",
        "State": "Pulau Pinang"
    },
    {
        "Postcode": "11900",
        "Location": "Taman Seri Emas",
        "Post_Office": "Bayan Lepas",
        "State": "Pulau Pinang"
    },
    {
        "Postcode": "11900",
        "Location": "Taman Seri Acres",
        "Post_Office": "Bayan Lepas",
        "State": "Pulau Pinang"
    },
    {
        "Postcode": "11900",
        "Location": "Garden Krystal",
        "Post_Office": "Bayan Lepas",
        "State": "Pulau Pinang"
    },
    {
        "Postcode": "11900",
        "Location": "Halaman Paya Terubong 2",
        "Post_Office": "Bayan Lepas",
        "State": "Pulau Pinang"
    },
    {
        "Postcode": "11900",
        "Location": "Kampung Pulau Blok B",
        "Post_Office": "Bayan Lepas",
        "State": "Pulau Pinang"
    },
    {
        "Postcode": "11900",
        "Location": "Setia Vista",
        "Post_Office": "Bayan Lepas",
        "State": "Pulau Pinang"
    },
    {
        "Postcode": "11900",
        "Location": "Sierra Vista",
        "Post_Office": "Bayan Lepas",
        "State": "Pulau Pinang"
    },
    {
        "Postcode": "11900",
        "Location": "Taman Bukit Jalil",
        "Post_Office": "Bayan Lepas",
        "State": "Pulau Pinang"
    },
    {
        "Postcode": "11900",
        "Location": "Taman Desa Ria",
        "Post_Office": "Bayan Lepas",
        "State": "Pulau Pinang"
    },
    {
        "Postcode": "11900",
        "Location": "Taman Gambir",
        "Post_Office": "Bayan Lepas",
        "State": "Pulau Pinang"
    },
    {
        "Postcode": "11900",
        "Location": "Taman Jublee 4",
        "Post_Office": "Bayan Lepas",
        "State": "Pulau Pinang"
    },
    {
        "Postcode": "11900",
        "Location": "Taman Pagar Buluh",
        "Post_Office": "Bayan Lepas",
        "State": "Pulau Pinang"
    },
    {
        "Postcode": "11900",
        "Location": "Taman Seri Sari",
        "Post_Office": "Bayan Lepas",
        "State": "Pulau Pinang"
    },
    {
        "Postcode": "11900",
        "Location": "Taman Sri Bayan",
        "Post_Office": "Bayan Lepas",
        "State": "Pulau Pinang"
    },
    {
        "Postcode": "11900",
        "Location": "Taman Sri Bukit Jambul",
        "Post_Office": "Bayan Lepas",
        "State": "Pulau Pinang"
    },
    {
        "Postcode": "11900",
        "Location": "Taman Sunway Mutiara",
        "Post_Office": "Bayan Lepas",
        "State": "Pulau Pinang"
    },
    {
        "Postcode": "11900",
        "Location": "Jalan Bukit Kecil 1",
        "Post_Office": "Bayan Lepas",
        "State": "Pulau Pinang"
    },
    {
        "Postcode": "11900",
        "Location": "Jalan Kedidi",
        "Post_Office": "Bayan Lepas",
        "State": "Pulau Pinang"
    },
    {
        "Postcode": "11900",
        "Location": "Jalan Merbah",
        "Post_Office": "Bayan Lepas",
        "State": "Pulau Pinang"
    },
    {
        "Postcode": "11900",
        "Location": "Jalan Nipah",
        "Post_Office": "Bayan Lepas",
        "State": "Pulau Pinang"
    },
    {
        "Postcode": "11900",
        "Location": "Jalan Paya Terubong",
        "Post_Office": "Bayan Lepas",
        "State": "Pulau Pinang"
    },
    {
        "Postcode": "11900",
        "Location": "Jalan Relau",
        "Post_Office": "Bayan Lepas",
        "State": "Pulau Pinang"
    },
    {
        "Postcode": "11900",
        "Location": "Jalan Sungai Dua",
        "Post_Office": "Bayan Lepas",
        "State": "Pulau Pinang"
    },
    {
        "Postcode": "11900",
        "Location": "Kampung Padang",
        "Post_Office": "Bayan Lepas",
        "State": "Pulau Pinang"
    },
    {
        "Postcode": "11900",
        "Location": "Lintang Kampung Jawa",
        "Post_Office": "Bayan Lepas",
        "State": "Pulau Pinang"
    },
    {
        "Postcode": "11900",
        "Location": "Jalan Sultan Azlan Shah",
        "Post_Office": "Bayan Lepas",
        "State": "Pulau Pinang"
    },
    {
        "Postcode": "11900",
        "Location": "Jalan Tengah",
        "Post_Office": "Bayan Lepas",
        "State": "Pulau Pinang"
    },
    {
        "Postcode": "11900",
        "Location": "Lengkok Nipah",
        "Post_Office": "Bayan Lepas",
        "State": "Pulau Pinang"
    },
    {
        "Postcode": "11900",
        "Location": "Lorong Kampung Jawa",
        "Post_Office": "Bayan Lepas",
        "State": "Pulau Pinang"
    },
    {
        "Postcode": "11900",
        "Location": "Taman Ara Indah",
        "Post_Office": "Bayan Lepas",
        "State": "Pulau Pinang"
    },
    {
        "Postcode": "11900",
        "Location": "Taman Sri Aman",
        "Post_Office": "Bayan Lepas",
        "State": "Pulau Pinang"
    },
    {
        "Postcode": "11900",
        "Location": "Taman Sri Nibong",
        "Post_Office": "Bayan Lepas",
        "State": "Pulau Pinang"
    },
    {
        "Postcode": "11900",
        "Location": "Tingkat Nipah",
        "Post_Office": "Bayan Lepas",
        "State": "Pulau Pinang"
    },
    {
        "Postcode": "11900",
        "Location": "Jalan Medan Bayan",
        "Post_Office": "Bayan Lepas",
        "State": "Pulau Pinang"
    },
    {
        "Postcode": "11900",
        "Location": "Lintang Bukit Kecil 1",
        "Post_Office": "Bayan Lepas",
        "State": "Pulau Pinang"
    },
    {
        "Postcode": "11900",
        "Location": "Cangkat Kenari 1",
        "Post_Office": "Bayan Lepas",
        "State": "Pulau Pinang"
    },
    {
        "Postcode": "11900",
        "Location": "Cangkat Kenari 2",
        "Post_Office": "Bayan Lepas",
        "State": "Pulau Pinang"
    },
    {
        "Postcode": "11900",
        "Location": "Cangkat Kenari 3",
        "Post_Office": "Bayan Lepas",
        "State": "Pulau Pinang"
    },
    {
        "Postcode": "11900",
        "Location": "Cangkat Sungai Ara 1",
        "Post_Office": "Bayan Lepas",
        "State": "Pulau Pinang"
    },
    {
        "Postcode": "11900",
        "Location": "Cangkat Sungai Ara 10",
        "Post_Office": "Bayan Lepas",
        "State": "Pulau Pinang"
    },
    {
        "Postcode": "11900",
        "Location": "Cangkat Sungai Ara 2",
        "Post_Office": "Bayan Lepas",
        "State": "Pulau Pinang"
    },
    {
        "Postcode": "11900",
        "Location": "Cangkat Sungai Ara 3",
        "Post_Office": "Bayan Lepas",
        "State": "Pulau Pinang"
    },
    {
        "Postcode": "11900",
        "Location": "Cangkat Sungai Ara 4",
        "Post_Office": "Bayan Lepas",
        "State": "Pulau Pinang"
    },
    {
        "Postcode": "11900",
        "Location": "Cangkat Sungai Ara 5",
        "Post_Office": "Bayan Lepas",
        "State": "Pulau Pinang"
    },
    {
        "Postcode": "11900",
        "Location": "Cangkat Sungai Ara 6",
        "Post_Office": "Bayan Lepas",
        "State": "Pulau Pinang"
    },
    {
        "Postcode": "11900",
        "Location": "Cangkat Sungai Ara 7",
        "Post_Office": "Bayan Lepas",
        "State": "Pulau Pinang"
    },
    {
        "Postcode": "11900",
        "Location": "Cangkat Sungai Ara 8",
        "Post_Office": "Bayan Lepas",
        "State": "Pulau Pinang"
    },
    {
        "Postcode": "11900",
        "Location": "Cangkat Sungai Ara 9",
        "Post_Office": "Bayan Lepas",
        "State": "Pulau Pinang"
    },
    {
        "Postcode": "11900",
        "Location": "Free Industrial Zone 1",
        "Post_Office": "Bayan Lepas",
        "State": "Pulau Pinang"
    },
    {
        "Postcode": "11900",
        "Location": "Free Industrial Zone 2",
        "Post_Office": "Bayan Lepas",
        "State": "Pulau Pinang"
    },
    {
        "Postcode": "11900",
        "Location": "Free Industrial Zone 3",
        "Post_Office": "Bayan Lepas",
        "State": "Pulau Pinang"
    },
    {
        "Postcode": "11900",
        "Location": "Free Industrial Zone 4",
        "Post_Office": "Bayan Lepas",
        "State": "Pulau Pinang"
    },
    {
        "Postcode": "11900",
        "Location": "Gerbang Sungai Ara 1",
        "Post_Office": "Bayan Lepas",
        "State": "Pulau Pinang"
    },
    {
        "Postcode": "11900",
        "Location": "Gerbang Sungai Ara 2",
        "Post_Office": "Bayan Lepas",
        "State": "Pulau Pinang"
    },
    {
        "Postcode": "11900",
        "Location": "Gerbang Sungai Ara 3",
        "Post_Office": "Bayan Lepas",
        "State": "Pulau Pinang"
    },
    {
        "Postcode": "11900",
        "Location": "Gerbang Sungai Ara 4",
        "Post_Office": "Bayan Lepas",
        "State": "Pulau Pinang"
    },
    {
        "Postcode": "11900",
        "Location": "Gerbang Sungai Ara 5",
        "Post_Office": "Bayan Lepas",
        "State": "Pulau Pinang"
    },
    {
        "Postcode": "11900",
        "Location": "Gerbang Sungai Ara 6",
        "Post_Office": "Bayan Lepas",
        "State": "Pulau Pinang"
    },
    {
        "Postcode": "11900",
        "Location": "Gerbang Sungai Ara 7",
        "Post_Office": "Bayan Lepas",
        "State": "Pulau Pinang"
    },
    {
        "Postcode": "11900",
        "Location": "Hala Kampung Jawa 1",
        "Post_Office": "Bayan Lepas",
        "State": "Pulau Pinang"
    },
    {
        "Postcode": "11900",
        "Location": "Hala Kampung Jawa 2",
        "Post_Office": "Bayan Lepas",
        "State": "Pulau Pinang"
    },
    {
        "Postcode": "11900",
        "Location": "Hilir Paya Terubong 1",
        "Post_Office": "Bayan Lepas",
        "State": "Pulau Pinang"
    },
    {
        "Postcode": "11900",
        "Location": "Hilir Paya Terubong 2",
        "Post_Office": "Bayan Lepas",
        "State": "Pulau Pinang"
    },
    {
        "Postcode": "11900",
        "Location": "Hilir Paya Terubong 3",
        "Post_Office": "Bayan Lepas",
        "State": "Pulau Pinang"
    },
    {
        "Postcode": "11900",
        "Location": "Jalan Bukit Kecil 2",
        "Post_Office": "Bayan Lepas",
        "State": "Pulau Pinang"
    },
    {
        "Postcode": "11900",
        "Location": "Jalan Nuri 1",
        "Post_Office": "Bayan Lepas",
        "State": "Pulau Pinang"
    },
    {
        "Postcode": "11900",
        "Location": "Jalan Nuri 10",
        "Post_Office": "Bayan Lepas",
        "State": "Pulau Pinang"
    },
    {
        "Postcode": "11900",
        "Location": "Jalan Nuri 11",
        "Post_Office": "Bayan Lepas",
        "State": "Pulau Pinang"
    },
    {
        "Postcode": "11900",
        "Location": "Jalan Nuri 2",
        "Post_Office": "Bayan Lepas",
        "State": "Pulau Pinang"
    },
    {
        "Postcode": "11900",
        "Location": "Jalan Nuri 3",
        "Post_Office": "Bayan Lepas",
        "State": "Pulau Pinang"
    },
    {
        "Postcode": "11900",
        "Location": "Jalan Nuri 4",
        "Post_Office": "Bayan Lepas",
        "State": "Pulau Pinang"
    },
    {
        "Postcode": "11900",
        "Location": "Jalan Nuri 5",
        "Post_Office": "Bayan Lepas",
        "State": "Pulau Pinang"
    },
    {
        "Postcode": "11900",
        "Location": "Jalan Nuri 6",
        "Post_Office": "Bayan Lepas",
        "State": "Pulau Pinang"
    },
    {
        "Postcode": "11900",
        "Location": "Jalan Nuri 7",
        "Post_Office": "Bayan Lepas",
        "State": "Pulau Pinang"
    },
    {
        "Postcode": "11900",
        "Location": "Jalan Nuri 8",
        "Post_Office": "Bayan Lepas",
        "State": "Pulau Pinang"
    },
    {
        "Postcode": "11900",
        "Location": "Jalan Nuri 9",
        "Post_Office": "Bayan Lepas",
        "State": "Pulau Pinang"
    },
    {
        "Postcode": "11900",
        "Location": "Jalan Pantai Jerejak 10",
        "Post_Office": "Bayan Lepas",
        "State": "Pulau Pinang"
    },
    {
        "Postcode": "11900",
        "Location": "Jalan Pantai Jerejak 11",
        "Post_Office": "Bayan Lepas",
        "State": "Pulau Pinang"
    },
    {
        "Postcode": "11900",
        "Location": "Jalan Pantai Jerejak 12",
        "Post_Office": "Bayan Lepas",
        "State": "Pulau Pinang"
    },
    {
        "Postcode": "11900",
        "Location": "Jalan Pantai Jerejak 13",
        "Post_Office": "Bayan Lepas",
        "State": "Pulau Pinang"
    },
    {
        "Postcode": "11900",
        "Location": "Jalan Pantai Jerejak 14",
        "Post_Office": "Bayan Lepas",
        "State": "Pulau Pinang"
    },
    {
        "Postcode": "11900",
        "Location": "Jalan Pantai Jerejak 15",
        "Post_Office": "Bayan Lepas",
        "State": "Pulau Pinang"
    },
    {
        "Postcode": "11900",
        "Location": "Jalan Pantai Jerejak 16",
        "Post_Office": "Bayan Lepas",
        "State": "Pulau Pinang"
    },
    {
        "Postcode": "11900",
        "Location": "Jalan Pantai Jerejak 17",
        "Post_Office": "Bayan Lepas",
        "State": "Pulau Pinang"
    },
    {
        "Postcode": "11900",
        "Location": "Jalan Pantai Jerejak 18",
        "Post_Office": "Bayan Lepas",
        "State": "Pulau Pinang"
    },
    {
        "Postcode": "11900",
        "Location": "Jalan Pantai Jerejak 2",
        "Post_Office": "Bayan Lepas",
        "State": "Pulau Pinang"
    },
    {
        "Postcode": "11900",
        "Location": "Jalan Pantai Jerejak 3",
        "Post_Office": "Bayan Lepas",
        "State": "Pulau Pinang"
    },
    {
        "Postcode": "11900",
        "Location": "Jalan Pantai Jerejak 4",
        "Post_Office": "Bayan Lepas",
        "State": "Pulau Pinang"
    },
    {
        "Postcode": "11900",
        "Location": "Jalan Pantai Jerejak 5",
        "Post_Office": "Bayan Lepas",
        "State": "Pulau Pinang"
    },
    {
        "Postcode": "11900",
        "Location": "Jalan Pantai Jerejak 6",
        "Post_Office": "Bayan Lepas",
        "State": "Pulau Pinang"
    },
    {
        "Postcode": "11900",
        "Location": "Jalan Pantai Jerejak 7",
        "Post_Office": "Bayan Lepas",
        "State": "Pulau Pinang"
    },
    {
        "Postcode": "11900",
        "Location": "Jalan Pantai Jerejak 8",
        "Post_Office": "Bayan Lepas",
        "State": "Pulau Pinang"
    },
    {
        "Postcode": "11900",
        "Location": "Jalan Pantai Jerejak 9",
        "Post_Office": "Bayan Lepas",
        "State": "Pulau Pinang"
    },
    {
        "Postcode": "11900",
        "Location": "Jalan Sungai Ara 1",
        "Post_Office": "Bayan Lepas",
        "State": "Pulau Pinang"
    },
    {
        "Postcode": "11900",
        "Location": "Jalan Sungai Ara 2",
        "Post_Office": "Bayan Lepas",
        "State": "Pulau Pinang"
    },
    {
        "Postcode": "11900",
        "Location": "Jalan Sungai Ara 3",
        "Post_Office": "Bayan Lepas",
        "State": "Pulau Pinang"
    },
    {
        "Postcode": "11900",
        "Location": "Jalan Sungai Ara 4",
        "Post_Office": "Bayan Lepas",
        "State": "Pulau Pinang"
    },
    {
        "Postcode": "11900",
        "Location": "Jalan Sungai Ara 5",
        "Post_Office": "Bayan Lepas",
        "State": "Pulau Pinang"
    },
    {
        "Postcode": "11900",
        "Location": "Jalan Sungai Ara 6",
        "Post_Office": "Bayan Lepas",
        "State": "Pulau Pinang"
    },
    {
        "Postcode": "11900",
        "Location": "Jalan Sungai Ara 7",
        "Post_Office": "Bayan Lepas",
        "State": "Pulau Pinang"
    },
    {
        "Postcode": "11900",
        "Location": "Jalan Sungai Ara 8",
        "Post_Office": "Bayan Lepas",
        "State": "Pulau Pinang"
    },
    {
        "Postcode": "11900",
        "Location": "Jalan Sungai Ara 9",
        "Post_Office": "Bayan Lepas",
        "State": "Pulau Pinang"
    },
    {
        "Postcode": "11900",
        "Location": "Jalan Sungai Tiram 2",
        "Post_Office": "Bayan Lepas",
        "State": "Pulau Pinang"
    },
    {
        "Postcode": "11900",
        "Location": "Jalan Sungai Tiram 3",
        "Post_Office": "Bayan Lepas",
        "State": "Pulau Pinang"
    },
    {
        "Postcode": "11900",
        "Location": "Jalan Sungai Tiram 6",
        "Post_Office": "Bayan Lepas",
        "State": "Pulau Pinang"
    },
    {
        "Postcode": "11900",
        "Location": "Lebuh Bukit Kecil 1",
        "Post_Office": "Bayan Lepas",
        "State": "Pulau Pinang"
    },
    {
        "Postcode": "11900",
        "Location": "Lebuh Bukit Kecil 2",
        "Post_Office": "Bayan Lepas",
        "State": "Pulau Pinang"
    },
    {
        "Postcode": "11900",
        "Location": "Lebuh Bukit Kecil 3",
        "Post_Office": "Bayan Lepas",
        "State": "Pulau Pinang"
    },
    {
        "Postcode": "11900",
        "Location": "Lebuh Bukit Kecil 4",
        "Post_Office": "Bayan Lepas",
        "State": "Pulau Pinang"
    },
    {
        "Postcode": "11900",
        "Location": "Lebuh Bukit Kecil 5",
        "Post_Office": "Bayan Lepas",
        "State": "Pulau Pinang"
    },
    {
        "Postcode": "11900",
        "Location": "Lebuh Bukit Kecil 6",
        "Post_Office": "Bayan Lepas",
        "State": "Pulau Pinang"
    },
    {
        "Postcode": "11900",
        "Location": "Lebuh Nipah 1",
        "Post_Office": "Bayan Lepas",
        "State": "Pulau Pinang"
    },
    {
        "Postcode": "11900",
        "Location": "Lebuh Nipah 2",
        "Post_Office": "Bayan Lepas",
        "State": "Pulau Pinang"
    },
    {
        "Postcode": "11900",
        "Location": "Lebuh Nipah 3",
        "Post_Office": "Bayan Lepas",
        "State": "Pulau Pinang"
    },
    {
        "Postcode": "11900",
        "Location": "Lebuh Nipah 4",
        "Post_Office": "Bayan Lepas",
        "State": "Pulau Pinang"
    },
    {
        "Postcode": "11900",
        "Location": "Lebuh Nipah 5",
        "Post_Office": "Bayan Lepas",
        "State": "Pulau Pinang"
    },
    {
        "Postcode": "11900",
        "Location": "Lebuh Relau 2",
        "Post_Office": "Bayan Lepas",
        "State": "Pulau Pinang"
    },
    {
        "Postcode": "11900",
        "Location": "Lebuh Relau 3",
        "Post_Office": "Bayan Lepas",
        "State": "Pulau Pinang"
    },
    {
        "Postcode": "11900",
        "Location": "Lebuh Relau 4",
        "Post_Office": "Bayan Lepas",
        "State": "Pulau Pinang"
    },
    {
        "Postcode": "11900",
        "Location": "Lebuh Relau 5",
        "Post_Office": "Bayan Lepas",
        "State": "Pulau Pinang"
    },
    {
        "Postcode": "11900",
        "Location": "Lebuh Relau 6",
        "Post_Office": "Bayan Lepas",
        "State": "Pulau Pinang"
    },
    {
        "Postcode": "11900",
        "Location": "Lebuh Relau 7",
        "Post_Office": "Bayan Lepas",
        "State": "Pulau Pinang"
    },
    {
        "Postcode": "11900",
        "Location": "Lebuh Relau 8",
        "Post_Office": "Bayan Lepas",
        "State": "Pulau Pinang"
    },
    {
        "Postcode": "11900",
        "Location": "Lebuh Sungai Tiram 1",
        "Post_Office": "Bayan Lepas",
        "State": "Pulau Pinang"
    },
    {
        "Postcode": "11900",
        "Location": "Lebuh Sungai Tiram 2",
        "Post_Office": "Bayan Lepas",
        "State": "Pulau Pinang"
    },
    {
        "Postcode": "11900",
        "Location": "Lengkok Kenari 1",
        "Post_Office": "Bayan Lepas",
        "State": "Pulau Pinang"
    },
    {
        "Postcode": "11900",
        "Location": "Lengkok Kenari 2",
        "Post_Office": "Bayan Lepas",
        "State": "Pulau Pinang"
    },
    {
        "Postcode": "11900",
        "Location": "Lengkok Kenari 3",
        "Post_Office": "Bayan Lepas",
        "State": "Pulau Pinang"
    },
    {
        "Postcode": "11900",
        "Location": "Lintang Bayan 1",
        "Post_Office": "Bayan Lepas",
        "State": "Pulau Pinang"
    },
    {
        "Postcode": "11900",
        "Location": "Lintang Bayan 10",
        "Post_Office": "Bayan Lepas",
        "State": "Pulau Pinang"
    },
    {
        "Postcode": "11900",
        "Location": "Lintang Bayan 11",
        "Post_Office": "Bayan Lepas",
        "State": "Pulau Pinang"
    },
    {
        "Postcode": "11900",
        "Location": "Lintang Bayan 12",
        "Post_Office": "Bayan Lepas",
        "State": "Pulau Pinang"
    },
    {
        "Postcode": "11900",
        "Location": "Lintang Bayan 13",
        "Post_Office": "Bayan Lepas",
        "State": "Pulau Pinang"
    },
    {
        "Postcode": "11900",
        "Location": "Lintang Bayan 14",
        "Post_Office": "Bayan Lepas",
        "State": "Pulau Pinang"
    },
    {
        "Postcode": "11900",
        "Location": "Lintang Bayan 2",
        "Post_Office": "Bayan Lepas",
        "State": "Pulau Pinang"
    },
    {
        "Postcode": "11900",
        "Location": "Lintang Bayan 3",
        "Post_Office": "Bayan Lepas",
        "State": "Pulau Pinang"
    },
    {
        "Postcode": "11900",
        "Location": "Lintang Bayan 4",
        "Post_Office": "Bayan Lepas",
        "State": "Pulau Pinang"
    },
    {
        "Postcode": "11900",
        "Location": "Lintang Bayan 5",
        "Post_Office": "Bayan Lepas",
        "State": "Pulau Pinang"
    },
    {
        "Postcode": "11900",
        "Location": "Lintang Bayan 6",
        "Post_Office": "Bayan Lepas",
        "State": "Pulau Pinang"
    },
    {
        "Postcode": "11900",
        "Location": "Lintang Bayan 7",
        "Post_Office": "Bayan Lepas",
        "State": "Pulau Pinang"
    },
    {
        "Postcode": "11900",
        "Location": "Lintang Bayan 8",
        "Post_Office": "Bayan Lepas",
        "State": "Pulau Pinang"
    },
    {
        "Postcode": "11900",
        "Location": "Lintang Bayan 9",
        "Post_Office": "Bayan Lepas",
        "State": "Pulau Pinang"
    },
    {
        "Postcode": "11900",
        "Location": "Lintang Bayan Indah 1",
        "Post_Office": "Bayan Lepas",
        "State": "Pulau Pinang"
    },
    {
        "Postcode": "11900",
        "Location": "Lintang Bayan Indah 2",
        "Post_Office": "Bayan Lepas",
        "State": "Pulau Pinang"
    },
    {
        "Postcode": "11900",
        "Location": "Lintang Bayan Indah 3",
        "Post_Office": "Bayan Lepas",
        "State": "Pulau Pinang"
    },
    {
        "Postcode": "11900",
        "Location": "Lintang Bayan Indah 4",
        "Post_Office": "Bayan Lepas",
        "State": "Pulau Pinang"
    },
    {
        "Postcode": "11900",
        "Location": "Lintang Bayan Lepas 1",
        "Post_Office": "Bayan Lepas",
        "State": "Pulau Pinang"
    },
    {
        "Postcode": "11900",
        "Location": "Lintang Bayan Lepas 10",
        "Post_Office": "Bayan Lepas",
        "State": "Pulau Pinang"
    },
    {
        "Postcode": "11900",
        "Location": "Lintang Bayan Lepas 11",
        "Post_Office": "Bayan Lepas",
        "State": "Pulau Pinang"
    },
    {
        "Postcode": "11900",
        "Location": "Lintang Bayan Lepas 2",
        "Post_Office": "Bayan Lepas",
        "State": "Pulau Pinang"
    },
    {
        "Postcode": "11900",
        "Location": "Lintang Bayan Lepas 3",
        "Post_Office": "Bayan Lepas",
        "State": "Pulau Pinang"
    },
    {
        "Postcode": "11900",
        "Location": "Lintang Bayan Lepas 4",
        "Post_Office": "Bayan Lepas",
        "State": "Pulau Pinang"
    },
    {
        "Postcode": "11900",
        "Location": "Lintang Bayan Lepas 5",
        "Post_Office": "Bayan Lepas",
        "State": "Pulau Pinang"
    },
    {
        "Postcode": "11900",
        "Location": "Lintang Bayan Lepas 6",
        "Post_Office": "Bayan Lepas",
        "State": "Pulau Pinang"
    },
    {
        "Postcode": "11900",
        "Location": "Lintang Bayan Lepas 7",
        "Post_Office": "Bayan Lepas",
        "State": "Pulau Pinang"
    },
    {
        "Postcode": "11900",
        "Location": "Lintang Bayan Lepas 8",
        "Post_Office": "Bayan Lepas",
        "State": "Pulau Pinang"
    },
    {
        "Postcode": "11900",
        "Location": "Lintang Bayan Lepas 9",
        "Post_Office": "Bayan Lepas",
        "State": "Pulau Pinang"
    },
    {
        "Postcode": "11900",
        "Location": "Lintang Bukit Kecil 2",
        "Post_Office": "Bayan Lepas",
        "State": "Pulau Pinang"
    },
    {
        "Postcode": "11900",
        "Location": "Lintang Bukit Kecil 3",
        "Post_Office": "Bayan Lepas",
        "State": "Pulau Pinang"
    },
    {
        "Postcode": "11900",
        "Location": "Lintang Bukit Kecil 4",
        "Post_Office": "Bayan Lepas",
        "State": "Pulau Pinang"
    },
    {
        "Postcode": "11900",
        "Location": "Lintang Bukit Kecil 5",
        "Post_Office": "Bayan Lepas",
        "State": "Pulau Pinang"
    },
    {
        "Postcode": "11900",
        "Location": "Lintang Bukit Kecil 6",
        "Post_Office": "Bayan Lepas",
        "State": "Pulau Pinang"
    },
    {
        "Postcode": "11900",
        "Location": "Lintang Sungai Ara 1",
        "Post_Office": "Bayan Lepas",
        "State": "Pulau Pinang"
    },
    {
        "Postcode": "11900",
        "Location": "Lintang Sungai Ara 2",
        "Post_Office": "Bayan Lepas",
        "State": "Pulau Pinang"
    },
    {
        "Postcode": "11900",
        "Location": "Lintang Sungai Ara 3",
        "Post_Office": "Bayan Lepas",
        "State": "Pulau Pinang"
    },
    {
        "Postcode": "11900",
        "Location": "Lintang Sungai Ara 4",
        "Post_Office": "Bayan Lepas",
        "State": "Pulau Pinang"
    },
    {
        "Postcode": "11900",
        "Location": "Lintang Sungai Ara 5",
        "Post_Office": "Bayan Lepas",
        "State": "Pulau Pinang"
    },
    {
        "Postcode": "11900",
        "Location": "Lintang Sungai Tiram 4",
        "Post_Office": "Bayan Lepas",
        "State": "Pulau Pinang"
    },
    {
        "Postcode": "11900",
        "Location": "Lintang Sungai Tiram 5",
        "Post_Office": "Bayan Lepas",
        "State": "Pulau Pinang"
    },
    {
        "Postcode": "11900",
        "Location": "Lorong Batu Nilam 2",
        "Post_Office": "Bayan Lepas",
        "State": "Pulau Pinang"
    },
    {
        "Postcode": "11900",
        "Location": "Lorong Batu Nilam 4",
        "Post_Office": "Bayan Lepas",
        "State": "Pulau Pinang"
    },
    {
        "Postcode": "11900",
        "Location": "Lorong Batu Nilam 6",
        "Post_Office": "Bayan Lepas",
        "State": "Pulau Pinang"
    },
    {
        "Postcode": "11900",
        "Location": "Lorong Bayan Indah 1",
        "Post_Office": "Bayan Lepas",
        "State": "Pulau Pinang"
    },
    {
        "Postcode": "11900",
        "Location": "Lorong Bayan Indah 2",
        "Post_Office": "Bayan Lepas",
        "State": "Pulau Pinang"
    },
    {
        "Postcode": "11900",
        "Location": "Lorong Bayan Indah 3",
        "Post_Office": "Bayan Lepas",
        "State": "Pulau Pinang"
    },
    {
        "Postcode": "11900",
        "Location": "Lorong Bayan Indah 4",
        "Post_Office": "Bayan Lepas",
        "State": "Pulau Pinang"
    },
    {
        "Postcode": "11900",
        "Location": "Lorong Kenari 1",
        "Post_Office": "Bayan Lepas",
        "State": "Pulau Pinang"
    },
    {
        "Postcode": "11900",
        "Location": "Lorong Kenari 10",
        "Post_Office": "Bayan Lepas",
        "State": "Pulau Pinang"
    },
    {
        "Postcode": "11900",
        "Location": "Lorong Kenari 11",
        "Post_Office": "Bayan Lepas",
        "State": "Pulau Pinang"
    },
    {
        "Postcode": "11900",
        "Location": "Lorong Kenari 12",
        "Post_Office": "Bayan Lepas",
        "State": "Pulau Pinang"
    },
    {
        "Postcode": "11900",
        "Location": "Lorong Kenari 13",
        "Post_Office": "Bayan Lepas",
        "State": "Pulau Pinang"
    },
    {
        "Postcode": "11900",
        "Location": "Lorong Kenari 14",
        "Post_Office": "Bayan Lepas",
        "State": "Pulau Pinang"
    },
    {
        "Postcode": "11900",
        "Location": "Lorong Kenari 15",
        "Post_Office": "Bayan Lepas",
        "State": "Pulau Pinang"
    },
    {
        "Postcode": "11900",
        "Location": "Lorong Kenari 2",
        "Post_Office": "Bayan Lepas",
        "State": "Pulau Pinang"
    },
    {
        "Postcode": "11900",
        "Location": "Lorong Kenari 3",
        "Post_Office": "Bayan Lepas",
        "State": "Pulau Pinang"
    },
    {
        "Postcode": "11900",
        "Location": "Lorong Kenari 4",
        "Post_Office": "Bayan Lepas",
        "State": "Pulau Pinang"
    },
    {
        "Postcode": "11900",
        "Location": "Lorong Kenari 5",
        "Post_Office": "Bayan Lepas",
        "State": "Pulau Pinang"
    },
    {
        "Postcode": "11900",
        "Location": "Lorong Kenari 6",
        "Post_Office": "Bayan Lepas",
        "State": "Pulau Pinang"
    },
    {
        "Postcode": "11900",
        "Location": "Lorong Kenari 7",
        "Post_Office": "Bayan Lepas",
        "State": "Pulau Pinang"
    },
    {
        "Postcode": "11900",
        "Location": "Lorong Kenari 8",
        "Post_Office": "Bayan Lepas",
        "State": "Pulau Pinang"
    },
    {
        "Postcode": "11900",
        "Location": "Lorong Kenari 9",
        "Post_Office": "Bayan Lepas",
        "State": "Pulau Pinang"
    },
    {
        "Postcode": "11900",
        "Location": "Lorong Kolam Ikan 1",
        "Post_Office": "Bayan Lepas",
        "State": "Pulau Pinang"
    },
    {
        "Postcode": "11900",
        "Location": "Lorong Kolam Ikan 2",
        "Post_Office": "Bayan Lepas",
        "State": "Pulau Pinang"
    },
    {
        "Postcode": "11900",
        "Location": "Lorong Kolam Ikan 3",
        "Post_Office": "Bayan Lepas",
        "State": "Pulau Pinang"
    },
    {
        "Postcode": "11900",
        "Location": "Lorong Nipah 1",
        "Post_Office": "Bayan Lepas",
        "State": "Pulau Pinang"
    },
    {
        "Postcode": "11900",
        "Location": "Lorong Nipah 10",
        "Post_Office": "Bayan Lepas",
        "State": "Pulau Pinang"
    },
    {
        "Postcode": "11900",
        "Location": "Lorong Nipah 11",
        "Post_Office": "Bayan Lepas",
        "State": "Pulau Pinang"
    },
    {
        "Postcode": "11900",
        "Location": "Lorong Nipah 12",
        "Post_Office": "Bayan Lepas",
        "State": "Pulau Pinang"
    },
    {
        "Postcode": "11900",
        "Location": "Lorong Nipah 13",
        "Post_Office": "Bayan Lepas",
        "State": "Pulau Pinang"
    },
    {
        "Postcode": "11900",
        "Location": "Lorong Nipah 14",
        "Post_Office": "Bayan Lepas",
        "State": "Pulau Pinang"
    },
    {
        "Postcode": "11900",
        "Location": "Lorong Nipah 15",
        "Post_Office": "Bayan Lepas",
        "State": "Pulau Pinang"
    },
    {
        "Postcode": "11900",
        "Location": "Lorong Nipah 2",
        "Post_Office": "Bayan Lepas",
        "State": "Pulau Pinang"
    },
    {
        "Postcode": "11900",
        "Location": "Lorong Nipah 3",
        "Post_Office": "Bayan Lepas",
        "State": "Pulau Pinang"
    },
    {
        "Postcode": "11900",
        "Location": "Lorong Nipah 4",
        "Post_Office": "Bayan Lepas",
        "State": "Pulau Pinang"
    },
    {
        "Postcode": "11900",
        "Location": "Lorong Nipah 5",
        "Post_Office": "Bayan Lepas",
        "State": "Pulau Pinang"
    },
    {
        "Postcode": "11900",
        "Location": "Lorong Nipah 6",
        "Post_Office": "Bayan Lepas",
        "State": "Pulau Pinang"
    },
    {
        "Postcode": "11900",
        "Location": "Lorong Nipah 7",
        "Post_Office": "Bayan Lepas",
        "State": "Pulau Pinang"
    },
    {
        "Postcode": "11900",
        "Location": "Lorong Nipah 8",
        "Post_Office": "Bayan Lepas",
        "State": "Pulau Pinang"
    },
    {
        "Postcode": "11900",
        "Location": "Lorong Nipah 9",
        "Post_Office": "Bayan Lepas",
        "State": "Pulau Pinang"
    },
    {
        "Postcode": "11900",
        "Location": "Lorong Relau 1",
        "Post_Office": "Bayan Lepas",
        "State": "Pulau Pinang"
    },
    {
        "Postcode": "11900",
        "Location": "Lorong Relau 2",
        "Post_Office": "Bayan Lepas",
        "State": "Pulau Pinang"
    },
    {
        "Postcode": "11900",
        "Location": "Lorong Relau 3",
        "Post_Office": "Bayan Lepas",
        "State": "Pulau Pinang"
    },
    {
        "Postcode": "11900",
        "Location": "Lorong Rumbia 1",
        "Post_Office": "Bayan Lepas",
        "State": "Pulau Pinang"
    },
    {
        "Postcode": "11900",
        "Location": "Lorong Rumbia 2",
        "Post_Office": "Bayan Lepas",
        "State": "Pulau Pinang"
    },
    {
        "Postcode": "11900",
        "Location": "Lorong Sungai Tiram 1",
        "Post_Office": "Bayan Lepas",
        "State": "Pulau Pinang"
    },
    {
        "Postcode": "11900",
        "Location": "Lorong Sungai Tiram 2",
        "Post_Office": "Bayan Lepas",
        "State": "Pulau Pinang"
    },
    {
        "Postcode": "11900",
        "Location": "Lorong Sungai Tiram 3",
        "Post_Office": "Bayan Lepas",
        "State": "Pulau Pinang"
    },
    {
        "Postcode": "11900",
        "Location": "Lorong Sungai Tiram 4",
        "Post_Office": "Bayan Lepas",
        "State": "Pulau Pinang"
    },
    {
        "Postcode": "11900",
        "Location": "Lorong Sungai Tiram 5",
        "Post_Office": "Bayan Lepas",
        "State": "Pulau Pinang"
    },
    {
        "Postcode": "11900",
        "Location": "Persiaran Bayan Indah 1",
        "Post_Office": "Bayan Lepas",
        "State": "Pulau Pinang"
    },
    {
        "Postcode": "11900",
        "Location": "Persiaran Bayan Indah 2",
        "Post_Office": "Bayan Lepas",
        "State": "Pulau Pinang"
    },
    {
        "Postcode": "11900",
        "Location": "Persiaran Bayan Indah 3",
        "Post_Office": "Bayan Lepas",
        "State": "Pulau Pinang"
    },
    {
        "Postcode": "11900",
        "Location": "Persiaran Bukit Jambul 1",
        "Post_Office": "Bayan Lepas",
        "State": "Pulau Pinang"
    },
    {
        "Postcode": "11900",
        "Location": "Persiaran Bukit Jambul 2",
        "Post_Office": "Bayan Lepas",
        "State": "Pulau Pinang"
    },
    {
        "Postcode": "11900",
        "Location": "Persiaran Bukit Jambul 3",
        "Post_Office": "Bayan Lepas",
        "State": "Pulau Pinang"
    },
    {
        "Postcode": "11900",
        "Location": "Persiaran Bukit Jambul 4",
        "Post_Office": "Bayan Lepas",
        "State": "Pulau Pinang"
    },
    {
        "Postcode": "11900",
        "Location": "Persiaran Bukit Jambul 5",
        "Post_Office": "Bayan Lepas",
        "State": "Pulau Pinang"
    },
    {
        "Postcode": "11900",
        "Location": "Persiaran Bukit Jambul 6",
        "Post_Office": "Bayan Lepas",
        "State": "Pulau Pinang"
    },
    {
        "Postcode": "11900",
        "Location": "Persiaran Bukit Jambul 7",
        "Post_Office": "Bayan Lepas",
        "State": "Pulau Pinang"
    },
    {
        "Postcode": "11900",
        "Location": "Persiaran Bukit Jambul 8",
        "Post_Office": "Bayan Lepas",
        "State": "Pulau Pinang"
    },
    {
        "Postcode": "11900",
        "Location": "Persiaran Bukit Jambul 9",
        "Post_Office": "Bayan Lepas",
        "State": "Pulau Pinang"
    },
    {
        "Postcode": "11900",
        "Location": "Persiaran Bukit Kecil 1",
        "Post_Office": "Bayan Lepas",
        "State": "Pulau Pinang"
    },
    {
        "Postcode": "11900",
        "Location": "Persiaran Bukit Kecil 2",
        "Post_Office": "Bayan Lepas",
        "State": "Pulau Pinang"
    },
    {
        "Postcode": "11900",
        "Location": "Persiaran Bukit Kecil 3",
        "Post_Office": "Bayan Lepas",
        "State": "Pulau Pinang"
    },
    {
        "Postcode": "11900",
        "Location": "Persiaran Bukit Kecil 4",
        "Post_Office": "Bayan Lepas",
        "State": "Pulau Pinang"
    },
    {
        "Postcode": "11900",
        "Location": "Persiaran Bukit Kecil 5",
        "Post_Office": "Bayan Lepas",
        "State": "Pulau Pinang"
    },
    {
        "Postcode": "11900",
        "Location": "Persiaran Bukit Kecil 6",
        "Post_Office": "Bayan Lepas",
        "State": "Pulau Pinang"
    },
    {
        "Postcode": "11900",
        "Location": "Persiaran Bukit Kecil 7",
        "Post_Office": "Bayan Lepas",
        "State": "Pulau Pinang"
    },
    {
        "Postcode": "11900",
        "Location": "Persiaran Bukit Kecil 8",
        "Post_Office": "Bayan Lepas",
        "State": "Pulau Pinang"
    },
    {
        "Postcode": "11900",
        "Location": "Persiaran Bukit Kecil 9",
        "Post_Office": "Bayan Lepas",
        "State": "Pulau Pinang"
    },
    {
        "Postcode": "11900",
        "Location": "Persiaran Kelicap 1",
        "Post_Office": "Bayan Lepas",
        "State": "Pulau Pinang"
    },
    {
        "Postcode": "11900",
        "Location": "Persiaran Kelicap 2",
        "Post_Office": "Bayan Lepas",
        "State": "Pulau Pinang"
    },
    {
        "Postcode": "11900",
        "Location": "Persiaran Kelicap 3",
        "Post_Office": "Bayan Lepas",
        "State": "Pulau Pinang"
    },
    {
        "Postcode": "11900",
        "Location": "Persiaran Nuri 1",
        "Post_Office": "Bayan Lepas",
        "State": "Pulau Pinang"
    },
    {
        "Postcode": "11900",
        "Location": "Persiaran Nuri 2",
        "Post_Office": "Bayan Lepas",
        "State": "Pulau Pinang"
    },
    {
        "Postcode": "11900",
        "Location": "Persiaran Nuri 3",
        "Post_Office": "Bayan Lepas",
        "State": "Pulau Pinang"
    },
    {
        "Postcode": "11900",
        "Location": "Persiaran Pantai Jerejak 1",
        "Post_Office": "Bayan Lepas",
        "State": "Pulau Pinang"
    },
    {
        "Postcode": "11900",
        "Location": "Persiaran Pantai Jerejak 10",
        "Post_Office": "Bayan Lepas",
        "State": "Pulau Pinang"
    },
    {
        "Postcode": "11900",
        "Location": "Persiaran Pantai Jerejak 11",
        "Post_Office": "Bayan Lepas",
        "State": "Pulau Pinang"
    },
    {
        "Postcode": "11900",
        "Location": "Persiaran Pantai Jerejak 2",
        "Post_Office": "Bayan Lepas",
        "State": "Pulau Pinang"
    },
    {
        "Postcode": "11900",
        "Location": "Persiaran Pantai Jerejak 3",
        "Post_Office": "Bayan Lepas",
        "State": "Pulau Pinang"
    },
    {
        "Postcode": "11900",
        "Location": "Persiaran Pantai Jerejak 4",
        "Post_Office": "Bayan Lepas",
        "State": "Pulau Pinang"
    },
    {
        "Postcode": "11900",
        "Location": "Persiaran Pantai Jerejak 5",
        "Post_Office": "Bayan Lepas",
        "State": "Pulau Pinang"
    },
    {
        "Postcode": "11900",
        "Location": "Persiaran Pantai Jerejak 6",
        "Post_Office": "Bayan Lepas",
        "State": "Pulau Pinang"
    },
    {
        "Postcode": "11900",
        "Location": "Persiaran Pantai Jerejak 7",
        "Post_Office": "Bayan Lepas",
        "State": "Pulau Pinang"
    },
    {
        "Postcode": "11900",
        "Location": "Persiaran Pantai Jerejak 8",
        "Post_Office": "Bayan Lepas",
        "State": "Pulau Pinang"
    },
    {
        "Postcode": "11900",
        "Location": "Persiaran Pantai Jerejak 9",
        "Post_Office": "Bayan Lepas",
        "State": "Pulau Pinang"
    },
    {
        "Postcode": "11900",
        "Location": "Persiaran Paya Terubong 1",
        "Post_Office": "Bayan Lepas",
        "State": "Pulau Pinang"
    },
    {
        "Postcode": "11900",
        "Location": "Persiaran Paya Terubong 2",
        "Post_Office": "Bayan Lepas",
        "State": "Pulau Pinang"
    },
    {
        "Postcode": "11900",
        "Location": "Persiaran Paya Terubong 3",
        "Post_Office": "Bayan Lepas",
        "State": "Pulau Pinang"
    },
    {
        "Postcode": "11900",
        "Location": "Persiaran Paya Terubong 5",
        "Post_Office": "Bayan Lepas",
        "State": "Pulau Pinang"
    },
    {
        "Postcode": "11900",
        "Location": "Persiaran Paya Terubong 6",
        "Post_Office": "Bayan Lepas",
        "State": "Pulau Pinang"
    },
    {
        "Postcode": "11900",
        "Location": "Persiaran Paya Terubong 7",
        "Post_Office": "Bayan Lepas",
        "State": "Pulau Pinang"
    },
    {
        "Postcode": "11900",
        "Location": "Persiaran Paya Terubong 8",
        "Post_Office": "Bayan Lepas",
        "State": "Pulau Pinang"
    },
    {
        "Postcode": "11900",
        "Location": "Persiaran Paya Terubong 9",
        "Post_Office": "Bayan Lepas",
        "State": "Pulau Pinang"
    },
    {
        "Postcode": "11900",
        "Location": "Pintasan Kampung Jawa 1",
        "Post_Office": "Bayan Lepas",
        "State": "Pulau Pinang"
    },
    {
        "Postcode": "11900",
        "Location": "Pintasan Kampung Jawa 2",
        "Post_Office": "Bayan Lepas",
        "State": "Pulau Pinang"
    },
    {
        "Postcode": "11900",
        "Location": "Pintasan Sungai Ara 1",
        "Post_Office": "Bayan Lepas",
        "State": "Pulau Pinang"
    },
    {
        "Postcode": "11900",
        "Location": "Pintasan Sungai Ara 2",
        "Post_Office": "Bayan Lepas",
        "State": "Pulau Pinang"
    },
    {
        "Postcode": "11900",
        "Location": "Pintasan Sungai Ara 3",
        "Post_Office": "Bayan Lepas",
        "State": "Pulau Pinang"
    },
    {
        "Postcode": "11900",
        "Location": "Pintasan Sungai Ara 4",
        "Post_Office": "Bayan Lepas",
        "State": "Pulau Pinang"
    },
    {
        "Postcode": "11900",
        "Location": "Pintasan Sungai Ara 5",
        "Post_Office": "Bayan Lepas",
        "State": "Pulau Pinang"
    },
    {
        "Postcode": "11900",
        "Location": "Pintasan Sungai Ara 6",
        "Post_Office": "Bayan Lepas",
        "State": "Pulau Pinang"
    },
    {
        "Postcode": "11900",
        "Location": "Solok Bukit Jambul 1",
        "Post_Office": "Bayan Lepas",
        "State": "Pulau Pinang"
    },
    {
        "Postcode": "11900",
        "Location": "Solok Bukit Jambul 2",
        "Post_Office": "Bayan Lepas",
        "State": "Pulau Pinang"
    },
    {
        "Postcode": "11900",
        "Location": "Solok Bukit Jambul 3",
        "Post_Office": "Bayan Lepas",
        "State": "Pulau Pinang"
    },
    {
        "Postcode": "11900",
        "Location": "Solok Bukit Jambul 4",
        "Post_Office": "Bayan Lepas",
        "State": "Pulau Pinang"
    },
    {
        "Postcode": "11900",
        "Location": "Solok Bukit Jambul 5",
        "Post_Office": "Bayan Lepas",
        "State": "Pulau Pinang"
    },
    {
        "Postcode": "11900",
        "Location": "Solok Relau 1",
        "Post_Office": "Bayan Lepas",
        "State": "Pulau Pinang"
    },
    {
        "Postcode": "11900",
        "Location": "Solok Relau 2",
        "Post_Office": "Bayan Lepas",
        "State": "Pulau Pinang"
    },
    {
        "Postcode": "11900",
        "Location": "Solok Relau 3",
        "Post_Office": "Bayan Lepas",
        "State": "Pulau Pinang"
    },
    {
        "Postcode": "11900",
        "Location": "Tingkat Bukit Kecil 1",
        "Post_Office": "Bayan Lepas",
        "State": "Pulau Pinang"
    },
    {
        "Postcode": "11900",
        "Location": "Tingkat Bukit Kecil 2",
        "Post_Office": "Bayan Lepas",
        "State": "Pulau Pinang"
    },
    {
        "Postcode": "11900",
        "Location": "Tingkat Bukit Kecil 4",
        "Post_Office": "Bayan Lepas",
        "State": "Pulau Pinang"
    },
    {
        "Postcode": "11900",
        "Location": "Tingkat Kenari 1",
        "Post_Office": "Bayan Lepas",
        "State": "Pulau Pinang"
    },
    {
        "Postcode": "11900",
        "Location": "Tingkat Kenari 2",
        "Post_Office": "Bayan Lepas",
        "State": "Pulau Pinang"
    },
    {
        "Postcode": "11900",
        "Location": "Tingkat Kenari 3",
        "Post_Office": "Bayan Lepas",
        "State": "Pulau Pinang"
    },
    {
        "Postcode": "11900",
        "Location": "Tingkat Kenari 4",
        "Post_Office": "Bayan Lepas",
        "State": "Pulau Pinang"
    },
    {
        "Postcode": "11900",
        "Location": "Tingkat Kenari 5",
        "Post_Office": "Bayan Lepas",
        "State": "Pulau Pinang"
    },
    {
        "Postcode": "11900",
        "Location": "Tingkat Kenari 6",
        "Post_Office": "Bayan Lepas",
        "State": "Pulau Pinang"
    },
    {
        "Postcode": "11900",
        "Location": "Tingkat Sungai Ara 1",
        "Post_Office": "Bayan Lepas",
        "State": "Pulau Pinang"
    },
    {
        "Postcode": "11900",
        "Location": "Tingkat Sungai Ara 2",
        "Post_Office": "Bayan Lepas",
        "State": "Pulau Pinang"
    },
    {
        "Postcode": "11900",
        "Location": "Tingkat Sungai Ara 3",
        "Post_Office": "Bayan Lepas",
        "State": "Pulau Pinang"
    },
    {
        "Postcode": "11900",
        "Location": "Tingkat Sungai Ara 4",
        "Post_Office": "Bayan Lepas",
        "State": "Pulau Pinang"
    },
    {
        "Postcode": "11900",
        "Location": "Kampung Pagar Buluh",
        "Post_Office": "Bayan Lepas",
        "State": "Pulau Pinang"
    },
    {
        "Postcode": "11900",
        "Location": "Kampung Pagar Buluh Sungai Ara Mk.10",
        "Post_Office": "Bayan Lepas",
        "State": "Pulau Pinang"
    },
    {
        "Postcode": "11900",
        "Location": "Kampung Perlis Blok G",
        "Post_Office": "Bayan Lepas",
        "State": "Pulau Pinang"
    },
    {
        "Postcode": "11900",
        "Location": "Kampung Relau",
        "Post_Office": "Bayan Lepas",
        "State": "Pulau Pinang"
    },
    {
        "Postcode": "11900",
        "Location": "Kampung Relau Mk. 10",
        "Post_Office": "Bayan Lepas",
        "State": "Pulau Pinang"
    },
    {
        "Postcode": "11900",
        "Location": "Kampung Sepuluh Kongsi Blok G",
        "Post_Office": "Bayan Lepas",
        "State": "Pulau Pinang"
    },
    {
        "Postcode": "11900",
        "Location": "Kampung Sungai Tiram Blok G",
        "Post_Office": "Bayan Lepas",
        "State": "Pulau Pinang"
    },
    {
        "Postcode": "11900",
        "Location": "Kampung Sungai Tiram Blok H",
        "Post_Office": "Bayan Lepas",
        "State": "Pulau Pinang"
    },
    {
        "Postcode": "11900",
        "Location": "Kampung Tersusun Sungai Ara",
        "Post_Office": "Bayan Lepas",
        "State": "Pulau Pinang"
    },
    {
        "Postcode": "11900",
        "Location": "Kem Sungai Ara",
        "Post_Office": "Bayan Lepas",
        "State": "Pulau Pinang"
    },
    {
        "Postcode": "11900",
        "Location": "Komplek Sri Relau",
        "Post_Office": "Bayan Lepas",
        "State": "Pulau Pinang"
    },
    {
        "Postcode": "11900",
        "Location": "Kompleks Bukit Jambul",
        "Post_Office": "Bayan Lepas",
        "State": "Pulau Pinang"
    },
    {
        "Postcode": "11900",
        "Location": "Kompleks Tabung Haji",
        "Post_Office": "Bayan Lepas",
        "State": "Pulau Pinang"
    },
    {
        "Postcode": "11900",
        "Location": "Kondo Putra Marina",
        "Post_Office": "Bayan Lepas",
        "State": "Pulau Pinang"
    },
    {
        "Postcode": "11900",
        "Location": "Kota Nibong",
        "Post_Office": "Bayan Lepas",
        "State": "Pulau Pinang"
    },
    {
        "Postcode": "11900",
        "Location": "Kristal Corporate",
        "Post_Office": "Bayan Lepas",
        "State": "Pulau Pinang"
    },
    {
        "Postcode": "11900",
        "Location": "Kristal Court",
        "Post_Office": "Bayan Lepas",
        "State": "Pulau Pinang"
    },
    {
        "Postcode": "11900",
        "Location": "Kristal Idaman",
        "Post_Office": "Bayan Lepas",
        "State": "Pulau Pinang"
    },
    {
        "Postcode": "11900",
        "Location": "Kristal Villa",
        "Post_Office": "Bayan Lepas",
        "State": "Pulau Pinang"
    },
    {
        "Postcode": "11900",
        "Location": "Krystal Point",
        "Post_Office": "Bayan Lepas",
        "State": "Pulau Pinang"
    },
    {
        "Postcode": "11900",
        "Location": "Lantana",
        "Post_Office": "Bayan Lepas",
        "State": "Pulau Pinang"
    },
    {
        "Postcode": "11900",
        "Location": "Lapangan Terbang Antarabangsa Bayan Lepas",
        "Post_Office": "Bayan Lepas",
        "State": "Pulau Pinang"
    },
    {
        "Postcode": "11900",
        "Location": "Lavina Aparment",
        "Post_Office": "Bayan Lepas",
        "State": "Pulau Pinang"
    },
    {
        "Postcode": "11900",
        "Location": "Lebuh Bukit Jambul",
        "Post_Office": "Bayan Lepas",
        "State": "Pulau Pinang"
    },
    {
        "Postcode": "11900",
        "Location": "Lebuh Kampung Jawa",
        "Post_Office": "Bayan Lepas",
        "State": "Pulau Pinang"
    },
    {
        "Postcode": "11900",
        "Location": "Lebuh Mas",
        "Post_Office": "Bayan Lepas",
        "State": "Pulau Pinang"
    },
    {
        "Postcode": "11900",
        "Location": "Lebuh Nipah Emas",
        "Post_Office": "Bayan Lepas",
        "State": "Pulau Pinang"
    },
    {
        "Postcode": "11900",
        "Location": "Lebuh Pantai Jerejak 2",
        "Post_Office": "Bayan Lepas",
        "State": "Pulau Pinang"
    },
    {
        "Postcode": "11900",
        "Location": "Lebuh Paya Terubung 3",
        "Post_Office": "Bayan Lepas",
        "State": "Pulau Pinang"
    },
    {
        "Postcode": "11900",
        "Location": "Lebuh Relau",
        "Post_Office": "Bayan Lepas",
        "State": "Pulau Pinang"
    },
    {
        "Postcode": "11900",
        "Location": "Lebuh Sungai Ara",
        "Post_Office": "Bayan Lepas",
        "State": "Pulau Pinang"
    },
    {
        "Postcode": "11900",
        "Location": "Lebuh Sungai Ara 1",
        "Post_Office": "Bayan Lepas",
        "State": "Pulau Pinang"
    },
    {
        "Postcode": "11900",
        "Location": "Lebuhraya Kampung Jawa",
        "Post_Office": "Bayan Lepas",
        "State": "Pulau Pinang"
    },
    {
        "Postcode": "11900",
        "Location": "Lebuhraya Nipah",
        "Post_Office": "Bayan Lepas",
        "State": "Pulau Pinang"
    },
    {
        "Postcode": "11900",
        "Location": "Lembaga Kemajuan Ikan Malaysia",
        "Post_Office": "Bayan Lepas",
        "State": "Pulau Pinang"
    },
    {
        "Postcode": "11900",
        "Location": "Lengkok Bukit Jambul",
        "Post_Office": "Bayan Lepas",
        "State": "Pulau Pinang"
    },
    {
        "Postcode": "11900",
        "Location": "Lengkok Kampung Jawa 2",
        "Post_Office": "Bayan Lepas",
        "State": "Pulau Pinang"
    },
    {
        "Postcode": "11900",
        "Location": "Lengkok Kelicap",
        "Post_Office": "Bayan Lepas",
        "State": "Pulau Pinang"
    },
    {
        "Postcode": "11900",
        "Location": "Lengkok Merbah",
        "Post_Office": "Bayan Lepas",
        "State": "Pulau Pinang"
    },
    {
        "Postcode": "11900",
        "Location": "Lengkok Nuri",
        "Post_Office": "Bayan Lepas",
        "State": "Pulau Pinang"
    },
    {
        "Postcode": "11900",
        "Location": "Lilitan Bayan",
        "Post_Office": "Bayan Lepas",
        "State": "Pulau Pinang"
    },
    {
        "Postcode": "11900",
        "Location": "Lintang Bayan",
        "Post_Office": "Bayan Lepas",
        "State": "Pulau Pinang"
    },
    {
        "Postcode": "11900",
        "Location": "Lintang Bayan Lepas",
        "Post_Office": "Bayan Lepas",
        "State": "Pulau Pinang"
    },
    {
        "Postcode": "11900",
        "Location": "Lintang Beringin",
        "Post_Office": "Bayan Lepas",
        "State": "Pulau Pinang"
    },
    {
        "Postcode": "11900",
        "Location": "Lintang Bukit Jambul",
        "Post_Office": "Bayan Lepas",
        "State": "Pulau Pinang"
    },
    {
        "Postcode": "11900",
        "Location": "Lintang Nipah",
        "Post_Office": "Bayan Lepas",
        "State": "Pulau Pinang"
    },
    {
        "Postcode": "11900",
        "Location": "Lintang Relau 1",
        "Post_Office": "Bayan Lepas",
        "State": "Pulau Pinang"
    },
    {
        "Postcode": "11900",
        "Location": "Lorong Aziz Ibrahim",
        "Post_Office": "Bayan Lepas",
        "State": "Pulau Pinang"
    },
    {
        "Postcode": "11900",
        "Location": "Lorong Batu Nilam",
        "Post_Office": "Bayan Lepas",
        "State": "Pulau Pinang"
    },
    {
        "Postcode": "11900",
        "Location": "Lorong Bukit Jambul",
        "Post_Office": "Bayan Lepas",
        "State": "Pulau Pinang"
    },
    {
        "Postcode": "11900",
        "Location": "Lorong Bukit Jambul 1",
        "Post_Office": "Bayan Lepas",
        "State": "Pulau Pinang"
    },
    {
        "Postcode": "11900",
        "Location": "Lorong Bukit Kecil",
        "Post_Office": "Bayan Lepas",
        "State": "Pulau Pinang"
    },
    {
        "Postcode": "11900",
        "Location": "Lorong Kelicap",
        "Post_Office": "Bayan Lepas",
        "State": "Pulau Pinang"
    },
    {
        "Postcode": "11900",
        "Location": "Lorong Kenari",
        "Post_Office": "Bayan Lepas",
        "State": "Pulau Pinang"
    },
    {
        "Postcode": "11900",
        "Location": "Lorong Pantai Jerejak",
        "Post_Office": "Bayan Lepas",
        "State": "Pulau Pinang"
    },
    {
        "Postcode": "11900",
        "Location": "Lorong Sungai Ara",
        "Post_Office": "Bayan Lepas",
        "State": "Pulau Pinang"
    },
    {
        "Postcode": "11900",
        "Location": "Lorong Sungai Ara 2",
        "Post_Office": "Bayan Lepas",
        "State": "Pulau Pinang"
    },
    {
        "Postcode": "11900",
        "Location": "Lorong Sungai Tiram",
        "Post_Office": "Bayan Lepas",
        "State": "Pulau Pinang"
    },
    {
        "Postcode": "11900",
        "Location": "Lucky Garden",
        "Post_Office": "Bayan Lepas",
        "State": "Pulau Pinang"
    },
    {
        "Postcode": "11900",
        "Location": "Marina Towers",
        "Post_Office": "Bayan Lepas",
        "State": "Pulau Pinang"
    },
    {
        "Postcode": "11900",
        "Location": "Mawar",
        "Post_Office": "Bayan Lepas",
        "State": "Pulau Pinang"
    },
    {
        "Postcode": "11900",
        "Location": "Mawar Apartment",
        "Post_Office": "Bayan Lepas",
        "State": "Pulau Pinang"
    },
    {
        "Postcode": "11900",
        "Location": "Medan Bayan Indah",
        "Post_Office": "Bayan Lepas",
        "State": "Pulau Pinang"
    },
    {
        "Postcode": "11900",
        "Location": "Medan Bayan Lepas",
        "Post_Office": "Bayan Lepas",
        "State": "Pulau Pinang"
    },
    {
        "Postcode": "11900",
        "Location": "Medan Kampung Relau",
        "Post_Office": "Bayan Lepas",
        "State": "Pulau Pinang"
    },
    {
        "Postcode": "11900",
        "Location": "Medan Kampung Relau 1",
        "Post_Office": "Bayan Lepas",
        "State": "Pulau Pinang"
    },
    {
        "Postcode": "11900",
        "Location": "Medan Nipah",
        "Post_Office": "Bayan Lepas",
        "State": "Pulau Pinang"
    },
    {
        "Postcode": "11900",
        "Location": "Medan Nuri",
        "Post_Office": "Bayan Lepas",
        "State": "Pulau Pinang"
    },
    {
        "Postcode": "11900",
        "Location": "Medan Pantai Jerejak",
        "Post_Office": "Bayan Lepas",
        "State": "Pulau Pinang"
    },
    {
        "Postcode": "11900",
        "Location": "Medan Suri",
        "Post_Office": "Bayan Lepas",
        "State": "Pulau Pinang"
    },
    {
        "Postcode": "11900",
        "Location": "Melati",
        "Post_Office": "Bayan Lepas",
        "State": "Pulau Pinang"
    },
    {
        "Postcode": "11900",
        "Location": "Melati Apartment",
        "Post_Office": "Bayan Lepas",
        "State": "Pulau Pinang"
    },
    {
        "Postcode": "11900",
        "Location": "Msspp Kem Sungai Ara",
        "Post_Office": "Bayan Lepas",
        "State": "Pulau Pinang"
    },
    {
        "Postcode": "11900",
        "Location": "Mutiara Perdana",
        "Post_Office": "Bayan Lepas",
        "State": "Pulau Pinang"
    },
    {
        "Postcode": "11900",
        "Location": "None Free Industrial Zone",
        "Post_Office": "Bayan Lepas",
        "State": "Pulau Pinang"
    },
    {
        "Postcode": "11900",
        "Location": "Orkid",
        "Post_Office": "Bayan Lepas",
        "State": "Pulau Pinang"
    },
    {
        "Postcode": "11900",
        "Location": "Padang Asam",
        "Post_Office": "Bayan Lepas",
        "State": "Pulau Pinang"
    },
    {
        "Postcode": "11900",
        "Location": "Pagar Buloh",
        "Post_Office": "Bayan Lepas",
        "State": "Pulau Pinang"
    },
    {
        "Postcode": "11900",
        "Location": "Pantai Jerjak",
        "Post_Office": "Bayan Lepas",
        "State": "Pulau Pinang"
    },
    {
        "Postcode": "11900",
        "Location": "Pearl Island Condominium",
        "Post_Office": "Bayan Lepas",
        "State": "Pulau Pinang"
    },
    {
        "Postcode": "11900",
        "Location": "Pearl Island Country Club",
        "Post_Office": "Bayan Lepas",
        "State": "Pulau Pinang"
    },
    {
        "Postcode": "11900",
        "Location": "Pekan Relau",
        "Post_Office": "Bayan Lepas",
        "State": "Pulau Pinang"
    },
    {
        "Postcode": "11900",
        "Location": "Penang Development Corporation",
        "Post_Office": "Bayan Lepas",
        "State": "Pulau Pinang"
    },
    {
        "Postcode": "11900",
        "Location": "Perkampungan Polis Bayan Indah",
        "Post_Office": "Bayan Lepas",
        "State": "Pulau Pinang"
    },
    {
        "Postcode": "11900",
        "Location": "Persara Mahsuri",
        "Post_Office": "Bayan Lepas",
        "State": "Pulau Pinang"
    },
    {
        "Postcode": "11900",
        "Location": "Persiaran Bayan",
        "Post_Office": "Bayan Lepas",
        "State": "Pulau Pinang"
    },
    {
        "Postcode": "11900",
        "Location": "Persiaran Bayan Bay",
        "Post_Office": "Bayan Lepas",
        "State": "Pulau Pinang"
    },
    {
        "Postcode": "11900",
        "Location": "Persiaran Bukit Kecil",
        "Post_Office": "Bayan Lepas",
        "State": "Pulau Pinang"
    },
    {
        "Postcode": "11900",
        "Location": "Persiaran Paya Terubong",
        "Post_Office": "Bayan Lepas",
        "State": "Pulau Pinang"
    },
    {
        "Postcode": "11900",
        "Location": "Persiaran Relau",
        "Post_Office": "Bayan Lepas",
        "State": "Pulau Pinang"
    },
    {
        "Postcode": "11900",
        "Location": "Pesara Kampung Jawa",
        "Post_Office": "Bayan Lepas",
        "State": "Pulau Pinang"
    },
    {
        "Postcode": "11900",
        "Location": "Pesara Nipah",
        "Post_Office": "Bayan Lepas",
        "State": "Pulau Pinang"
    },
    {
        "Postcode": "11900",
        "Location": "Pintasan Kenari",
        "Post_Office": "Bayan Lepas",
        "State": "Pulau Pinang"
    },
    {
        "Postcode": "11900",
        "Location": "Pintasan Pasir Belanda",
        "Post_Office": "Bayan Lepas",
        "State": "Pulau Pinang"
    },
    {
        "Postcode": "11900",
        "Location": "Prima View",
        "Post_Office": "Bayan Lepas",
        "State": "Pulau Pinang"
    },
    {
        "Postcode": "11900",
        "Location": "Pulau Jerejak",
        "Post_Office": "Bayan Lepas",
        "State": "Pulau Pinang"
    },
    {
        "Postcode": "11900",
        "Location": "Pusat Bayan",
        "Post_Office": "Bayan Lepas",
        "State": "Pulau Pinang"
    },
    {
        "Postcode": "11900",
        "Location": "Queen Bay Mall",
        "Post_Office": "Bayan Lepas",
        "State": "Pulau Pinang"
    },
    {
        "Postcode": "11900",
        "Location": "Raya",
        "Post_Office": "Bayan Lepas",
        "State": "Pulau Pinang"
    },
    {
        "Postcode": "11900",
        "Location": "Regency Height",
        "Post_Office": "Bayan Lepas",
        "State": "Pulau Pinang"
    },
    {
        "Postcode": "11900",
        "Location": "Relau",
        "Post_Office": "Bayan Lepas",
        "State": "Pulau Pinang"
    },
    {
        "Postcode": "11900",
        "Location": "Relau Estate",
        "Post_Office": "Bayan Lepas",
        "State": "Pulau Pinang"
    },
    {
        "Postcode": "11900",
        "Location": "Relau Indah",
        "Post_Office": "Bayan Lepas",
        "State": "Pulau Pinang"
    },
    {
        "Postcode": "11900",
        "Location": "Relau Intan",
        "Post_Office": "Bayan Lepas",
        "State": "Pulau Pinang"
    },
    {
        "Postcode": "11900",
        "Location": "Relau Vista",
        "Post_Office": "Bayan Lepas",
        "State": "Pulau Pinang"
    },
    {
        "Postcode": "11900",
        "Location": "Sepuloh Kongsi",
        "Post_Office": "Bayan Lepas",
        "State": "Pulau Pinang"
    },
    {
        "Postcode": "11900",
        "Location": "Seroja",
        "Post_Office": "Bayan Lepas",
        "State": "Pulau Pinang"
    },
    {
        "Postcode": "11900",
        "Location": "Setia Pulau Mutiara",
        "Post_Office": "Bayan Lepas",
        "State": "Pulau Pinang"
    },
    {
        "Postcode": "11900",
        "Location": "Solok Bayan Indah",
        "Post_Office": "Bayan Lepas",
        "State": "Pulau Pinang"
    },
    {
        "Postcode": "11900",
        "Location": "Solok Bayan Lepas",
        "Post_Office": "Bayan Lepas",
        "State": "Pulau Pinang"
    },
    {
        "Postcode": "11900",
        "Location": "Solok Bukit Jambul",
        "Post_Office": "Bayan Lepas",
        "State": "Pulau Pinang"
    },
    {
        "Postcode": "11900",
        "Location": "Solok Kampung Perlis",
        "Post_Office": "Bayan Lepas",
        "State": "Pulau Pinang"
    },
    {
        "Postcode": "11900",
        "Location": "Solok Kampung Relau",
        "Post_Office": "Bayan Lepas",
        "State": "Pulau Pinang"
    },
    {
        "Postcode": "11900",
        "Location": "Solok Kampung Relau 1",
        "Post_Office": "Bayan Lepas",
        "State": "Pulau Pinang"
    },
    {
        "Postcode": "11900",
        "Location": "Solok Kelicap",
        "Post_Office": "Bayan Lepas",
        "State": "Pulau Pinang"
    },
    {
        "Postcode": "11900",
        "Location": "Solok Kenari",
        "Post_Office": "Bayan Lepas",
        "State": "Pulau Pinang"
    },
    {
        "Postcode": "11900",
        "Location": "Solok Pantai Jerejak",
        "Post_Office": "Bayan Lepas",
        "State": "Pulau Pinang"
    },
    {
        "Postcode": "11900",
        "Location": "Solok Sungai Ara 2",
        "Post_Office": "Bayan Lepas",
        "State": "Pulau Pinang"
    },
    {
        "Postcode": "11900",
        "Location": "Springfield Apartment",
        "Post_Office": "Bayan Lepas",
        "State": "Pulau Pinang"
    },
    {
        "Postcode": "11900",
        "Location": "Springfield Condominium",
        "Post_Office": "Bayan Lepas",
        "State": "Pulau Pinang"
    },
    {
        "Postcode": "11900",
        "Location": "Sri Abadi",
        "Post_Office": "Bayan Lepas",
        "State": "Pulau Pinang"
    },
    {
        "Postcode": "11900",
        "Location": "Sri Merbah",
        "Post_Office": "Bayan Lepas",
        "State": "Pulau Pinang"
    },
    {
        "Postcode": "11900",
        "Location": "Sri Nipah",
        "Post_Office": "Bayan Lepas",
        "State": "Pulau Pinang"
    },
    {
        "Postcode": "11900",
        "Location": "Sungai Ara",
        "Post_Office": "Bayan Lepas",
        "State": "Pulau Pinang"
    },
    {
        "Postcode": "11900",
        "Location": "Sungai Ara Blok B",
        "Post_Office": "Bayan Lepas",
        "State": "Pulau Pinang"
    },
    {
        "Postcode": "11900",
        "Location": "Sungai Ara Blok D",
        "Post_Office": "Bayan Lepas",
        "State": "Pulau Pinang"
    },
    {
        "Postcode": "11900",
        "Location": "Sungai Keluang",
        "Post_Office": "Bayan Lepas",
        "State": "Pulau Pinang"
    },
    {
        "Postcode": "11900",
        "Location": "Sungai Nibong",
        "Post_Office": "Bayan Lepas",
        "State": "Pulau Pinang"
    },
    {
        "Postcode": "11900",
        "Location": "Sungai Nibong Besar",
        "Post_Office": "Bayan Lepas",
        "State": "Pulau Pinang"
    },
    {
        "Postcode": "11900",
        "Location": "Sungai Nibong Besar Blok A",
        "Post_Office": "Bayan Lepas",
        "State": "Pulau Pinang"
    },
    {
        "Postcode": "11900",
        "Location": "Sungai Nibong Kecil",
        "Post_Office": "Bayan Lepas",
        "State": "Pulau Pinang"
    },
    {
        "Postcode": "11900",
        "Location": "Sungai Tiram",
        "Post_Office": "Bayan Lepas",
        "State": "Pulau Pinang"
    },
    {
        "Postcode": "11900",
        "Location": "Sunrise Garden",
        "Post_Office": "Bayan Lepas",
        "State": "Pulau Pinang"
    },
    {
        "Postcode": "11900",
        "Location": "Suria Kenari",
        "Post_Office": "Bayan Lepas",
        "State": "Pulau Pinang"
    },
    {
        "Postcode": "11900",
        "Location": "Taman Alor Vista",
        "Post_Office": "Bayan Lepas",
        "State": "Pulau Pinang"
    },
    {
        "Postcode": "11900",
        "Location": "Taman Ara Mas",
        "Post_Office": "Bayan Lepas",
        "State": "Pulau Pinang"
    },
    {
        "Postcode": "11900",
        "Location": "Taman Bendera",
        "Post_Office": "Bayan Lepas",
        "State": "Pulau Pinang"
    },
    {
        "Postcode": "11900",
        "Location": "Taman Bukit Jambul",
        "Post_Office": "Bayan Lepas",
        "State": "Pulau Pinang"
    },
    {
        "Postcode": "11900",
        "Location": "Taman Cahaya",
        "Post_Office": "Bayan Lepas",
        "State": "Pulau Pinang"
    },
    {
        "Postcode": "11900",
        "Location": "Taman Desa Ara",
        "Post_Office": "Bayan Lepas",
        "State": "Pulau Pinang"
    },
    {
        "Postcode": "11900",
        "Location": "Taman Desa Permai Indah",
        "Post_Office": "Bayan Lepas",
        "State": "Pulau Pinang"
    },
    {
        "Postcode": "11900",
        "Location": "Taman Desa Rahmat",
        "Post_Office": "Bayan Lepas",
        "State": "Pulau Pinang"
    },
    {
        "Postcode": "11900",
        "Location": "Taman Desa Relau",
        "Post_Office": "Bayan Lepas",
        "State": "Pulau Pinang"
    },
    {
        "Postcode": "11900",
        "Location": "Taman Fairway View",
        "Post_Office": "Bayan Lepas",
        "State": "Pulau Pinang"
    },
    {
        "Postcode": "11900",
        "Location": "Taman Jasmine",
        "Post_Office": "Bayan Lepas",
        "State": "Pulau Pinang"
    },
    {
        "Postcode": "11900",
        "Location": "Taman Jublee",
        "Post_Office": "Bayan Lepas",
        "State": "Pulau Pinang"
    },
    {
        "Postcode": "11900",
        "Location": "Taman Kumbar Permai",
        "Post_Office": "Bayan Lepas",
        "State": "Pulau Pinang"
    },
    {
        "Postcode": "11900",
        "Location": "Taman Lip Sin",
        "Post_Office": "Bayan Lepas",
        "State": "Pulau Pinang"
    },
    {
        "Postcode": "11900",
        "Location": "Taman Makmur Jaya",
        "Post_Office": "Bayan Lepas",
        "State": "Pulau Pinang"
    },
    {
        "Postcode": "11900",
        "Location": "Taman Relau Intan",
        "Post_Office": "Bayan Lepas",
        "State": "Pulau Pinang"
    },
    {
        "Postcode": "11900",
        "Location": "Taman Relau Jaya",
        "Post_Office": "Bayan Lepas",
        "State": "Pulau Pinang"
    },
    {
        "Postcode": "11900",
        "Location": "Taman Sawkit",
        "Post_Office": "Bayan Lepas",
        "State": "Pulau Pinang"
    },
    {
        "Postcode": "11900",
        "Location": "Taman Sri Angsana",
        "Post_Office": "Bayan Lepas",
        "State": "Pulau Pinang"
    },
    {
        "Postcode": "11900",
        "Location": "Taman Sri Ara",
        "Post_Office": "Bayan Lepas",
        "State": "Pulau Pinang"
    },
    {
        "Postcode": "11900",
        "Location": "Taman Sri Merpati",
        "Post_Office": "Bayan Lepas",
        "State": "Pulau Pinang"
    },
    {
        "Postcode": "11900",
        "Location": "Taman Sri Relau",
        "Post_Office": "Bayan Lepas",
        "State": "Pulau Pinang"
    },
    {
        "Postcode": "11900",
        "Location": "Taman Sungai Ara",
        "Post_Office": "Bayan Lepas",
        "State": "Pulau Pinang"
    },
    {
        "Postcode": "11900",
        "Location": "Taman Tunas Damai",
        "Post_Office": "Bayan Lepas",
        "State": "Pulau Pinang"
    },
    {
        "Postcode": "11900",
        "Location": "Tingkat Bukit Jambul",
        "Post_Office": "Bayan Lepas",
        "State": "Pulau Pinang"
    },
    {
        "Postcode": "11900",
        "Location": "Tingkat Bukit Jambul 1",
        "Post_Office": "Bayan Lepas",
        "State": "Pulau Pinang"
    },
    {
        "Postcode": "11900",
        "Location": "Tingkat Kenari",
        "Post_Office": "Bayan Lepas",
        "State": "Pulau Pinang"
    },
    {
        "Postcode": "11900",
        "Location": "Tingkat Kenari 8",
        "Post_Office": "Bayan Lepas",
        "State": "Pulau Pinang"
    },
    {
        "Postcode": "11900",
        "Location": "Tingkat Sungai Ara",
        "Post_Office": "Bayan Lepas",
        "State": "Pulau Pinang"
    },
    {
        "Postcode": "11900",
        "Location": "Victoria Height",
        "Post_Office": "Bayan Lepas",
        "State": "Pulau Pinang"
    },
    {
        "Postcode": "11900",
        "Location": "Villa Emas",
        "Post_Office": "Bayan Lepas",
        "State": "Pulau Pinang"
    },
    {
        "Postcode": "11900",
        "Location": "Vista Ria Condominium",
        "Post_Office": "Bayan Lepas",
        "State": "Pulau Pinang"
    },
    {
        "Postcode": "11900",
        "Location": "Wisma Pahlawan",
        "Post_Office": "Bayan Lepas",
        "State": "Pulau Pinang"
    },
    {
        "Postcode": "11900",
        "Location": "Zon Perdagangan Bebas Bayan Lepas",
        "Post_Office": "Bayan Lepas",
        "State": "Pulau Pinang"
    }
]
