[
    {
        "Postcode": "11910",
        "Location": "Taman Gemuruh",
        "Post_Office": "Bayan Lepas",
        "State": "Pulau Pinang"
    },
    {
        "Postcode": "11910",
        "Location": "Lorong Gertak Sanggul 1",
        "Post_Office": "Bayan Lepas",
        "State": "Pulau Pinang"
    },
    {
        "Postcode": "11910",
        "Location": "Lorong Gertak Sanggul 2",
        "Post_Office": "Bayan Lepas",
        "State": "Pulau Pinang"
    },
    {
        "Postcode": "11910",
        "Location": "Jalan Gertak Sanggul",
        "Post_Office": "Bayan Lepas",
        "State": "Pulau Pinang"
    },
    {
        "Postcode": "11910",
        "Location": "Jalan Gertak Sanggul 2",
        "Post_Office": "Bayan Lepas",
        "State": "Pulau Pinang"
    },
    {
        "Postcode": "11910",
        "Location": "Kampung Sulup",
        "Post_Office": "Bayan Lepas",
        "State": "Pulau Pinang"
    },
    {
        "Postcode": "11910",
        "Location": "Pasir Belanda",
        "Post_Office": "Bayan Lepas",
        "State": "Pulau Pinang"
    },
    {
        "Postcode": "11910",
        "Location": "Solok Gertak Sanggul",
        "Post_Office": "Bayan Lepas",
        "State": "Pulau Pinang"
    },
    {
        "Postcode": "11910",
        "Location": "Solok Gertak Sanggul 1",
        "Post_Office": "Bayan Lepas",
        "State": "Pulau Pinang"
    }
]
