[
    {
        "Postcode": "11950",
        "Location": "Taman Melati",
        "Post_Office": "Bayan Lepas",
        "State": "Pulau Pinang"
    },
    {
        "Postcode": "11950",
        "Location": "Taman Bayan Baru",
        "Post_Office": "Bayan Lepas",
        "State": "Pulau Pinang"
    },
    {
        "Postcode": "11950",
        "Location": "Taman Gedung Heights",
        "Post_Office": "Bayan Lepas",
        "State": "Pulau Pinang"
    },
    {
        "Postcode": "11950",
        "Location": "Jalan Bahagia",
        "Post_Office": "Bayan Lepas",
        "State": "Pulau Pinang"
    },
    {
        "Postcode": "11950",
        "Location": "Jalan Mahsuri",
        "Post_Office": "Bayan Lepas",
        "State": "Pulau Pinang"
    },
    {
        "Postcode": "11950",
        "Location": "Jalan Relau",
        "Post_Office": "Bayan Lepas",
        "State": "Pulau Pinang"
    },
    {
        "Postcode": "11950",
        "Location": "Jalan Sultan Azlan Shah",
        "Post_Office": "Bayan Lepas",
        "State": "Pulau Pinang"
    },
    {
        "Postcode": "11950",
        "Location": "Medan Mayang Pasir",
        "Post_Office": "Bayan Lepas",
        "State": "Pulau Pinang"
    },
    {
        "Postcode": "11950",
        "Location": "Persiaran Mahsuri",
        "Post_Office": "Bayan Lepas",
        "State": "Pulau Pinang"
    },
    {
        "Postcode": "11950",
        "Location": "Halaman Mayang Pasir 1",
        "Post_Office": "Bayan Lepas",
        "State": "Pulau Pinang"
    },
    {
        "Postcode": "11950",
        "Location": "Halaman Mayang Pasir 2",
        "Post_Office": "Bayan Lepas",
        "State": "Pulau Pinang"
    },
    {
        "Postcode": "11950",
        "Location": "Halaman Mayang Pasir 3",
        "Post_Office": "Bayan Lepas",
        "State": "Pulau Pinang"
    },
    {
        "Postcode": "11950",
        "Location": "Halaman Mayang Pasir 4",
        "Post_Office": "Bayan Lepas",
        "State": "Pulau Pinang"
    },
    {
        "Postcode": "11950",
        "Location": "Halaman Mayang Pasir 5",
        "Post_Office": "Bayan Lepas",
        "State": "Pulau Pinang"
    },
    {
        "Postcode": "11950",
        "Location": "Halaman Mayang Pasir 6",
        "Post_Office": "Bayan Lepas",
        "State": "Pulau Pinang"
    },
    {
        "Postcode": "11950",
        "Location": "Halaman Mayang Pasir 7",
        "Post_Office": "Bayan Lepas",
        "State": "Pulau Pinang"
    },
    {
        "Postcode": "11950",
        "Location": "Halaman Mayang Pasir 8",
        "Post_Office": "Bayan Lepas",
        "State": "Pulau Pinang"
    },
    {
        "Postcode": "11950",
        "Location": "Halaman Mayang Pasir 9",
        "Post_Office": "Bayan Lepas",
        "State": "Pulau Pinang"
    },
    {
        "Postcode": "11950",
        "Location": "Hilir Nibong 1",
        "Post_Office": "Bayan Lepas",
        "State": "Pulau Pinang"
    },
    {
        "Postcode": "11950",
        "Location": "Hilir Nibong 2",
        "Post_Office": "Bayan Lepas",
        "State": "Pulau Pinang"
    },
    {
        "Postcode": "11950",
        "Location": "Lengkok Mayang Pasir 1",
        "Post_Office": "Bayan Lepas",
        "State": "Pulau Pinang"
    },
    {
        "Postcode": "11950",
        "Location": "Lengkok Mayang Pasir 2",
        "Post_Office": "Bayan Lepas",
        "State": "Pulau Pinang"
    },
    {
        "Postcode": "11950",
        "Location": "Lintang Mayang Pasir 1",
        "Post_Office": "Bayan Lepas",
        "State": "Pulau Pinang"
    },
    {
        "Postcode": "11950",
        "Location": "Lintang Mayang Pasir 2",
        "Post_Office": "Bayan Lepas",
        "State": "Pulau Pinang"
    },
    {
        "Postcode": "11950",
        "Location": "Lintang Mayang Pasir 3",
        "Post_Office": "Bayan Lepas",
        "State": "Pulau Pinang"
    },
    {
        "Postcode": "11950",
        "Location": "Lintang Mayang Pasir 4",
        "Post_Office": "Bayan Lepas",
        "State": "Pulau Pinang"
    },
    {
        "Postcode": "11950",
        "Location": "Lintang Mayang Pasir 5",
        "Post_Office": "Bayan Lepas",
        "State": "Pulau Pinang"
    },
    {
        "Postcode": "11950",
        "Location": "Lorong Mahsuri 1",
        "Post_Office": "Bayan Lepas",
        "State": "Pulau Pinang"
    },
    {
        "Postcode": "11950",
        "Location": "Lorong Mahsuri 10",
        "Post_Office": "Bayan Lepas",
        "State": "Pulau Pinang"
    },
    {
        "Postcode": "11950",
        "Location": "Lorong Mahsuri 11",
        "Post_Office": "Bayan Lepas",
        "State": "Pulau Pinang"
    },
    {
        "Postcode": "11950",
        "Location": "Lorong Mahsuri 12",
        "Post_Office": "Bayan Lepas",
        "State": "Pulau Pinang"
    },
    {
        "Postcode": "11950",
        "Location": "Lorong Mahsuri 2",
        "Post_Office": "Bayan Lepas",
        "State": "Pulau Pinang"
    },
    {
        "Postcode": "11950",
        "Location": "Lorong Mahsuri 3",
        "Post_Office": "Bayan Lepas",
        "State": "Pulau Pinang"
    },
    {
        "Postcode": "11950",
        "Location": "Lorong Mahsuri 4",
        "Post_Office": "Bayan Lepas",
        "State": "Pulau Pinang"
    },
    {
        "Postcode": "11950",
        "Location": "Lorong Mahsuri 5",
        "Post_Office": "Bayan Lepas",
        "State": "Pulau Pinang"
    },
    {
        "Postcode": "11950",
        "Location": "Lorong Mahsuri 6",
        "Post_Office": "Bayan Lepas",
        "State": "Pulau Pinang"
    },
    {
        "Postcode": "11950",
        "Location": "Lorong Mahsuri 7",
        "Post_Office": "Bayan Lepas",
        "State": "Pulau Pinang"
    },
    {
        "Postcode": "11950",
        "Location": "Lorong Mahsuri 8",
        "Post_Office": "Bayan Lepas",
        "State": "Pulau Pinang"
    },
    {
        "Postcode": "11950",
        "Location": "Lorong Mahsuri 9",
        "Post_Office": "Bayan Lepas",
        "State": "Pulau Pinang"
    },
    {
        "Postcode": "11950",
        "Location": "Lorong Mayang Pasir 1",
        "Post_Office": "Bayan Lepas",
        "State": "Pulau Pinang"
    },
    {
        "Postcode": "11950",
        "Location": "Lorong Mayang Pasir 2",
        "Post_Office": "Bayan Lepas",
        "State": "Pulau Pinang"
    },
    {
        "Postcode": "11950",
        "Location": "Lorong Mayang Pasir 3",
        "Post_Office": "Bayan Lepas",
        "State": "Pulau Pinang"
    },
    {
        "Postcode": "11950",
        "Location": "Lorong Mayang Pasir 4",
        "Post_Office": "Bayan Lepas",
        "State": "Pulau Pinang"
    },
    {
        "Postcode": "11950",
        "Location": "Lorong Mayang Pasir 5",
        "Post_Office": "Bayan Lepas",
        "State": "Pulau Pinang"
    },
    {
        "Postcode": "11950",
        "Location": "Persiaran Mahsuri 1/1",
        "Post_Office": "Bayan Lepas",
        "State": "Pulau Pinang"
    },
    {
        "Postcode": "11950",
        "Location": "Persiaran Mahsuri 1/2",
        "Post_Office": "Bayan Lepas",
        "State": "Pulau Pinang"
    },
    {
        "Postcode": "11950",
        "Location": "Persiaran Mahsuri 1/3",
        "Post_Office": "Bayan Lepas",
        "State": "Pulau Pinang"
    },
    {
        "Postcode": "11950",
        "Location": "Persiaran Mahsuri 2/1",
        "Post_Office": "Bayan Lepas",
        "State": "Pulau Pinang"
    },
    {
        "Postcode": "11950",
        "Location": "Persiaran Mahsuri 2/2",
        "Post_Office": "Bayan Lepas",
        "State": "Pulau Pinang"
    },
    {
        "Postcode": "11950",
        "Location": "Persiaran Mahsuri 2/3",
        "Post_Office": "Bayan Lepas",
        "State": "Pulau Pinang"
    },
    {
        "Postcode": "11950",
        "Location": "Persiaran Mahsuri 2/4",
        "Post_Office": "Bayan Lepas",
        "State": "Pulau Pinang"
    },
    {
        "Postcode": "11950",
        "Location": "Persiaran Mahsuri 2/5",
        "Post_Office": "Bayan Lepas",
        "State": "Pulau Pinang"
    },
    {
        "Postcode": "11950",
        "Location": "Persiaran Mahsuri 2/6",
        "Post_Office": "Bayan Lepas",
        "State": "Pulau Pinang"
    },
    {
        "Postcode": "11950",
        "Location": "Persiaran Mayang Pasir 2",
        "Post_Office": "Bayan Lepas",
        "State": "Pulau Pinang"
    },
    {
        "Postcode": "11950",
        "Location": "Persiaran Mayang Pasir 3",
        "Post_Office": "Bayan Lepas",
        "State": "Pulau Pinang"
    },
    {
        "Postcode": "11950",
        "Location": "Persiaran Mayang Pasir 4",
        "Post_Office": "Bayan Lepas",
        "State": "Pulau Pinang"
    },
    {
        "Postcode": "11950",
        "Location": "Persiaran Mayang Pasir 5",
        "Post_Office": "Bayan Lepas",
        "State": "Pulau Pinang"
    },
    {
        "Postcode": "11950",
        "Location": "Persiaran Mayang Pasir 6",
        "Post_Office": "Bayan Lepas",
        "State": "Pulau Pinang"
    },
    {
        "Postcode": "11950",
        "Location": "Persiaran Mayang Pasir 7",
        "Post_Office": "Bayan Lepas",
        "State": "Pulau Pinang"
    },
    {
        "Postcode": "11950",
        "Location": "Persiaran Mayang Pasir 8",
        "Post_Office": "Bayan Lepas",
        "State": "Pulau Pinang"
    },
    {
        "Postcode": "11950",
        "Location": "Pesara Mahsuri 3",
        "Post_Office": "Bayan Lepas",
        "State": "Pulau Pinang"
    },
    {
        "Postcode": "11950",
        "Location": "Pesara Mahsuri 4",
        "Post_Office": "Bayan Lepas",
        "State": "Pulau Pinang"
    },
    {
        "Postcode": "11950",
        "Location": "Pesara Mahsuri 5",
        "Post_Office": "Bayan Lepas",
        "State": "Pulau Pinang"
    },
    {
        "Postcode": "11950",
        "Location": "Pintasan Bahagia 10",
        "Post_Office": "Bayan Lepas",
        "State": "Pulau Pinang"
    },
    {
        "Postcode": "11950",
        "Location": "Pintasan Bahagia 11",
        "Post_Office": "Bayan Lepas",
        "State": "Pulau Pinang"
    },
    {
        "Postcode": "11950",
        "Location": "Pintasan Bahagia 12",
        "Post_Office": "Bayan Lepas",
        "State": "Pulau Pinang"
    },
    {
        "Postcode": "11950",
        "Location": "Pintasan Bahagia 13",
        "Post_Office": "Bayan Lepas",
        "State": "Pulau Pinang"
    },
    {
        "Postcode": "11950",
        "Location": "Pintasan Bahagia 14",
        "Post_Office": "Bayan Lepas",
        "State": "Pulau Pinang"
    },
    {
        "Postcode": "11950",
        "Location": "Pintasan Bahagia 3",
        "Post_Office": "Bayan Lepas",
        "State": "Pulau Pinang"
    },
    {
        "Postcode": "11950",
        "Location": "Pintasan Bahagia 4",
        "Post_Office": "Bayan Lepas",
        "State": "Pulau Pinang"
    },
    {
        "Postcode": "11950",
        "Location": "Pintasan Bahagia 5",
        "Post_Office": "Bayan Lepas",
        "State": "Pulau Pinang"
    },
    {
        "Postcode": "11950",
        "Location": "Pintasan Bahagia 6",
        "Post_Office": "Bayan Lepas",
        "State": "Pulau Pinang"
    },
    {
        "Postcode": "11950",
        "Location": "Pintasan Bahagia 7",
        "Post_Office": "Bayan Lepas",
        "State": "Pulau Pinang"
    },
    {
        "Postcode": "11950",
        "Location": "Pintasan Bahagia 8",
        "Post_Office": "Bayan Lepas",
        "State": "Pulau Pinang"
    },
    {
        "Postcode": "11950",
        "Location": "Pintasan Bahagia 9",
        "Post_Office": "Bayan Lepas",
        "State": "Pulau Pinang"
    },
    {
        "Postcode": "11950",
        "Location": "Pintasan Mayang 1",
        "Post_Office": "Bayan Lepas",
        "State": "Pulau Pinang"
    },
    {
        "Postcode": "11950",
        "Location": "Pintasan Mayang 2",
        "Post_Office": "Bayan Lepas",
        "State": "Pulau Pinang"
    },
    {
        "Postcode": "11950",
        "Location": "Pintasan Mayang 3",
        "Post_Office": "Bayan Lepas",
        "State": "Pulau Pinang"
    },
    {
        "Postcode": "11950",
        "Location": "Pintasan Mayang 4",
        "Post_Office": "Bayan Lepas",
        "State": "Pulau Pinang"
    },
    {
        "Postcode": "11950",
        "Location": "Pintasan Mayang 5",
        "Post_Office": "Bayan Lepas",
        "State": "Pulau Pinang"
    },
    {
        "Postcode": "11950",
        "Location": "Pintasan Mayang 6",
        "Post_Office": "Bayan Lepas",
        "State": "Pulau Pinang"
    },
    {
        "Postcode": "11950",
        "Location": "Pintasan Mayang 7",
        "Post_Office": "Bayan Lepas",
        "State": "Pulau Pinang"
    },
    {
        "Postcode": "11950",
        "Location": "Solok Kampung Jawa 1",
        "Post_Office": "Bayan Lepas",
        "State": "Pulau Pinang"
    },
    {
        "Postcode": "11950",
        "Location": "Solok Kampung Jawa 2",
        "Post_Office": "Bayan Lepas",
        "State": "Pulau Pinang"
    },
    {
        "Postcode": "11950",
        "Location": "Solok Kampung Jawa 3",
        "Post_Office": "Bayan Lepas",
        "State": "Pulau Pinang"
    },
    {
        "Postcode": "11950",
        "Location": "Solok Kampung Jawa 4",
        "Post_Office": "Bayan Lepas",
        "State": "Pulau Pinang"
    },
    {
        "Postcode": "11950",
        "Location": "Solok Kampung Jawa 5",
        "Post_Office": "Bayan Lepas",
        "State": "Pulau Pinang"
    },
    {
        "Postcode": "11950",
        "Location": "Solok Kampung Jawa 6",
        "Post_Office": "Bayan Lepas",
        "State": "Pulau Pinang"
    },
    {
        "Postcode": "11950",
        "Location": "Solok Kampung Jawa 7",
        "Post_Office": "Bayan Lepas",
        "State": "Pulau Pinang"
    },
    {
        "Postcode": "11950",
        "Location": "Solok Kampung Jawa 8",
        "Post_Office": "Bayan Lepas",
        "State": "Pulau Pinang"
    },
    {
        "Postcode": "11950",
        "Location": "Solok Mahsuri 1",
        "Post_Office": "Bayan Lepas",
        "State": "Pulau Pinang"
    },
    {
        "Postcode": "11950",
        "Location": "Solok Mahsuri 2",
        "Post_Office": "Bayan Lepas",
        "State": "Pulau Pinang"
    },
    {
        "Postcode": "11950",
        "Location": "Solok Mahsuri 3",
        "Post_Office": "Bayan Lepas",
        "State": "Pulau Pinang"
    },
    {
        "Postcode": "11950",
        "Location": "Solok Mahsuri 4",
        "Post_Office": "Bayan Lepas",
        "State": "Pulau Pinang"
    },
    {
        "Postcode": "11950",
        "Location": "Solok Mahsuri 5",
        "Post_Office": "Bayan Lepas",
        "State": "Pulau Pinang"
    },
    {
        "Postcode": "11950",
        "Location": "Tingkat Nibong 1",
        "Post_Office": "Bayan Lepas",
        "State": "Pulau Pinang"
    },
    {
        "Postcode": "11950",
        "Location": "Tingkat Nibong 2",
        "Post_Office": "Bayan Lepas",
        "State": "Pulau Pinang"
    },
    {
        "Postcode": "11950",
        "Location": "Astaka Bukit Gedong",
        "Post_Office": "Bayan Lepas",
        "State": "Pulau Pinang"
    },
    {
        "Postcode": "11950",
        "Location": "Bandar Bayan Baru",
        "Post_Office": "Bayan Lepas",
        "State": "Pulau Pinang"
    },
    {
        "Postcode": "11950",
        "Location": "Bayan Baru",
        "Post_Office": "Bayan Lepas",
        "State": "Pulau Pinang"
    },
    {
        "Postcode": "11950",
        "Location": "Bukit Gedong",
        "Post_Office": "Bayan Lepas",
        "State": "Pulau Pinang"
    },
    {
        "Postcode": "11950",
        "Location": "Cangkat Mayang Pasir",
        "Post_Office": "Bayan Lepas",
        "State": "Pulau Pinang"
    },
    {
        "Postcode": "11950",
        "Location": "Giant Hypermarket",
        "Post_Office": "Bayan Lepas",
        "State": "Pulau Pinang"
    },
    {
        "Postcode": "11950",
        "Location": "Hala Nibong",
        "Post_Office": "Bayan Lepas",
        "State": "Pulau Pinang"
    },
    {
        "Postcode": "11950",
        "Location": "Halaman Cendana",
        "Post_Office": "Bayan Lepas",
        "State": "Pulau Pinang"
    },
    {
        "Postcode": "11950",
        "Location": "Halaman Mahsuri",
        "Post_Office": "Bayan Lepas",
        "State": "Pulau Pinang"
    },
    {
        "Postcode": "11950",
        "Location": "Jalan Mayang Pasir",
        "Post_Office": "Bayan Lepas",
        "State": "Pulau Pinang"
    },
    {
        "Postcode": "11950",
        "Location": "Jalan Mayang Pasir 2",
        "Post_Office": "Bayan Lepas",
        "State": "Pulau Pinang"
    },
    {
        "Postcode": "11950",
        "Location": "Jalan Nibong",
        "Post_Office": "Bayan Lepas",
        "State": "Pulau Pinang"
    },
    {
        "Postcode": "11950",
        "Location": "Jalan Teluk Tempoyak Mk.12",
        "Post_Office": "Bayan Lepas",
        "State": "Pulau Pinang"
    },
    {
        "Postcode": "11950",
        "Location": "Jalan Tun Dr. Awang",
        "Post_Office": "Bayan Lepas",
        "State": "Pulau Pinang"
    },
    {
        "Postcode": "11950",
        "Location": "Kampung Paya (Teluk Kumbar)",
        "Post_Office": "Bayan Lepas",
        "State": "Pulau Pinang"
    },
    {
        "Postcode": "11950",
        "Location": "Kampung Sungai Nibong Kecil",
        "Post_Office": "Bayan Lepas",
        "State": "Pulau Pinang"
    },
    {
        "Postcode": "11950",
        "Location": "Kampung Tengah Sungai Nibong Kecil",
        "Post_Office": "Bayan Lepas",
        "State": "Pulau Pinang"
    },
    {
        "Postcode": "11950",
        "Location": "Komplek Desa Mayang",
        "Post_Office": "Bayan Lepas",
        "State": "Pulau Pinang"
    },
    {
        "Postcode": "11950",
        "Location": "Komplek Mayang Mall",
        "Post_Office": "Bayan Lepas",
        "State": "Pulau Pinang"
    },
    {
        "Postcode": "11950",
        "Location": "Komplek Pisa",
        "Post_Office": "Bayan Lepas",
        "State": "Pulau Pinang"
    },
    {
        "Postcode": "11950",
        "Location": "Lebuh Mahsuri",
        "Post_Office": "Bayan Lepas",
        "State": "Pulau Pinang"
    },
    {
        "Postcode": "11950",
        "Location": "Lebuh Mayang Pasir",
        "Post_Office": "Bayan Lepas",
        "State": "Pulau Pinang"
    },
    {
        "Postcode": "11950",
        "Location": "Lebuh Nibong",
        "Post_Office": "Bayan Lepas",
        "State": "Pulau Pinang"
    },
    {
        "Postcode": "11950",
        "Location": "Lebuhraya Mayang Pasir",
        "Post_Office": "Bayan Lepas",
        "State": "Pulau Pinang"
    },
    {
        "Postcode": "11950",
        "Location": "Lebuhraya Nibong",
        "Post_Office": "Bayan Lepas",
        "State": "Pulau Pinang"
    },
    {
        "Postcode": "11950",
        "Location": "Lengkok Mahsuri",
        "Post_Office": "Bayan Lepas",
        "State": "Pulau Pinang"
    },
    {
        "Postcode": "11950",
        "Location": "Lintang Mahsuri",
        "Post_Office": "Bayan Lepas",
        "State": "Pulau Pinang"
    },
    {
        "Postcode": "11950",
        "Location": "Lintang Mayang Pasir",
        "Post_Office": "Bayan Lepas",
        "State": "Pulau Pinang"
    },
    {
        "Postcode": "11950",
        "Location": "Lintang Nibong",
        "Post_Office": "Bayan Lepas",
        "State": "Pulau Pinang"
    },
    {
        "Postcode": "11950",
        "Location": "Lorong Bahagia",
        "Post_Office": "Bayan Lepas",
        "State": "Pulau Pinang"
    },
    {
        "Postcode": "11950",
        "Location": "Medan Mahsuri",
        "Post_Office": "Bayan Lepas",
        "State": "Pulau Pinang"
    },
    {
        "Postcode": "11950",
        "Location": "Medan Mahsuri 1",
        "Post_Office": "Bayan Lepas",
        "State": "Pulau Pinang"
    },
    {
        "Postcode": "11950",
        "Location": "Penang International Sports Arena (Pisa)",
        "Post_Office": "Bayan Lepas",
        "State": "Pulau Pinang"
    },
    {
        "Postcode": "11950",
        "Location": "Persiaran Mahsuri 1",
        "Post_Office": "Bayan Lepas",
        "State": "Pulau Pinang"
    },
    {
        "Postcode": "11950",
        "Location": "Persiaran Mahsuri 2",
        "Post_Office": "Bayan Lepas",
        "State": "Pulau Pinang"
    },
    {
        "Postcode": "11950",
        "Location": "Persiaran Mayang Pasir",
        "Post_Office": "Bayan Lepas",
        "State": "Pulau Pinang"
    },
    {
        "Postcode": "11950",
        "Location": "Pesara Mahsuri",
        "Post_Office": "Bayan Lepas",
        "State": "Pulau Pinang"
    },
    {
        "Postcode": "11950",
        "Location": "Puteri Indah Apartment",
        "Post_Office": "Bayan Lepas",
        "State": "Pulau Pinang"
    },
    {
        "Postcode": "11950",
        "Location": "Solok Mahsuri",
        "Post_Office": "Bayan Lepas",
        "State": "Pulau Pinang"
    },
    {
        "Postcode": "11950",
        "Location": "Solok Nibong Kecil",
        "Post_Office": "Bayan Lepas",
        "State": "Pulau Pinang"
    },
    {
        "Postcode": "11950",
        "Location": "Sunshine Square Market",
        "Post_Office": "Bayan Lepas",
        "State": "Pulau Pinang"
    },
    {
        "Postcode": "11950",
        "Location": "Taman Bukit Gedong",
        "Post_Office": "Bayan Lepas",
        "State": "Pulau Pinang"
    },
    {
        "Postcode": "11950",
        "Location": "Taman Nibong",
        "Post_Office": "Bayan Lepas",
        "State": "Pulau Pinang"
    },
    {
        "Postcode": "11950",
        "Location": "Taman Sri Tunas",
        "Post_Office": "Bayan Lepas",
        "State": "Pulau Pinang"
    },
    {
        "Postcode": "11950",
        "Location": "Taman Tunas Muda",
        "Post_Office": "Bayan Lepas",
        "State": "Pulau Pinang"
    },
    {
        "Postcode": "11950",
        "Location": "Tingkat Mayang Pasir",
        "Post_Office": "Bayan Lepas",
        "State": "Pulau Pinang"
    }
]
