[
    {
        "Postcode": "11960",
        "Location": "Kampung Seronok",
        "Post_Office": "Batu Maung",
        "State": "Pulau Pinang"
    },
    {
        "Postcode": "11960",
        "Location": "Lintang Batu Maung 2",
        "Post_Office": "Batu Maung",
        "State": "Pulau Pinang"
    },
    {
        "Postcode": "11960",
        "Location": "Sungai Nipah",
        "Post_Office": "Batu Maung",
        "State": "Pulau Pinang"
    },
    {
        "Postcode": "11960",
        "Location": "Taman Seri Mewah Indah",
        "Post_Office": "Batu Maung",
        "State": "Pulau Pinang"
    },
    {
        "Postcode": "11960",
        "Location": "Taman Sunway",
        "Post_Office": "Batu Maung",
        "State": "Pulau Pinang"
    },
    {
        "Postcode": "11960",
        "Location": "Jalan Permatang Damar Laut",
        "Post_Office": "Batu Maung",
        "State": "Pulau Pinang"
    },
    {
        "Postcode": "11960",
        "Location": "Taman Jelita",
        "Post_Office": "Batu Maung",
        "State": "Pulau Pinang"
    },
    {
        "Postcode": "11960",
        "Location": "Kampung Binjai",
        "Post_Office": "Batu Maung",
        "State": "Pulau Pinang"
    },
    {
        "Postcode": "11960",
        "Location": "Jalan Damar 1",
        "Post_Office": "Batu Maung",
        "State": "Pulau Pinang"
    },
    {
        "Postcode": "11960",
        "Location": "Jalan Damar 2",
        "Post_Office": "Batu Maung",
        "State": "Pulau Pinang"
    },
    {
        "Postcode": "11960",
        "Location": "Jalan Damar 3",
        "Post_Office": "Batu Maung",
        "State": "Pulau Pinang"
    },
    {
        "Postcode": "11960",
        "Location": "Jalan Damar 4",
        "Post_Office": "Batu Maung",
        "State": "Pulau Pinang"
    },
    {
        "Postcode": "11960",
        "Location": "Jalan Jeliti 1",
        "Post_Office": "Batu Maung",
        "State": "Pulau Pinang"
    },
    {
        "Postcode": "11960",
        "Location": "Jalan Jeliti 2",
        "Post_Office": "Batu Maung",
        "State": "Pulau Pinang"
    },
    {
        "Postcode": "11960",
        "Location": "Jalan Kekabu 1",
        "Post_Office": "Batu Maung",
        "State": "Pulau Pinang"
    },
    {
        "Postcode": "11960",
        "Location": "Jalan Kekabu 2",
        "Post_Office": "Batu Maung",
        "State": "Pulau Pinang"
    },
    {
        "Postcode": "11960",
        "Location": "Jalan Kekabu 3",
        "Post_Office": "Batu Maung",
        "State": "Pulau Pinang"
    },
    {
        "Postcode": "11960",
        "Location": "Lebuh Batu Maung 1",
        "Post_Office": "Batu Maung",
        "State": "Pulau Pinang"
    },
    {
        "Postcode": "11960",
        "Location": "Lebuh Batu Maung 10",
        "Post_Office": "Batu Maung",
        "State": "Pulau Pinang"
    },
    {
        "Postcode": "11960",
        "Location": "Lebuh Batu Maung 11",
        "Post_Office": "Batu Maung",
        "State": "Pulau Pinang"
    },
    {
        "Postcode": "11960",
        "Location": "Lebuh Batu Maung 12",
        "Post_Office": "Batu Maung",
        "State": "Pulau Pinang"
    },
    {
        "Postcode": "11960",
        "Location": "Lebuh Batu Maung 13",
        "Post_Office": "Batu Maung",
        "State": "Pulau Pinang"
    },
    {
        "Postcode": "11960",
        "Location": "Lebuh Batu Maung 2",
        "Post_Office": "Batu Maung",
        "State": "Pulau Pinang"
    },
    {
        "Postcode": "11960",
        "Location": "Lebuh Batu Maung 3",
        "Post_Office": "Batu Maung",
        "State": "Pulau Pinang"
    },
    {
        "Postcode": "11960",
        "Location": "Lebuh Batu Maung 4",
        "Post_Office": "Batu Maung",
        "State": "Pulau Pinang"
    },
    {
        "Postcode": "11960",
        "Location": "Lebuh Batu Maung 5",
        "Post_Office": "Batu Maung",
        "State": "Pulau Pinang"
    },
    {
        "Postcode": "11960",
        "Location": "Lebuh Batu Maung 6",
        "Post_Office": "Batu Maung",
        "State": "Pulau Pinang"
    },
    {
        "Postcode": "11960",
        "Location": "Lebuh Batu Maung 7",
        "Post_Office": "Batu Maung",
        "State": "Pulau Pinang"
    },
    {
        "Postcode": "11960",
        "Location": "Lebuh Batu Maung 8",
        "Post_Office": "Batu Maung",
        "State": "Pulau Pinang"
    },
    {
        "Postcode": "11960",
        "Location": "Lebuh Batu Maung 9",
        "Post_Office": "Batu Maung",
        "State": "Pulau Pinang"
    },
    {
        "Postcode": "11960",
        "Location": "Lintang Batu Maung 1",
        "Post_Office": "Batu Maung",
        "State": "Pulau Pinang"
    },
    {
        "Postcode": "11960",
        "Location": "Lintang Batu Maung 3",
        "Post_Office": "Batu Maung",
        "State": "Pulau Pinang"
    },
    {
        "Postcode": "11960",
        "Location": "Lintang Batu Maung 4",
        "Post_Office": "Batu Maung",
        "State": "Pulau Pinang"
    },
    {
        "Postcode": "11960",
        "Location": "Lintang Batu Maung 5",
        "Post_Office": "Batu Maung",
        "State": "Pulau Pinang"
    },
    {
        "Postcode": "11960",
        "Location": "Lintang Batu Maung 6",
        "Post_Office": "Batu Maung",
        "State": "Pulau Pinang"
    },
    {
        "Postcode": "11960",
        "Location": "Lintang Batu Maung 7",
        "Post_Office": "Batu Maung",
        "State": "Pulau Pinang"
    },
    {
        "Postcode": "11960",
        "Location": "Lintang Batu Maung 8",
        "Post_Office": "Batu Maung",
        "State": "Pulau Pinang"
    },
    {
        "Postcode": "11960",
        "Location": "Lintang Beringin 1",
        "Post_Office": "Batu Maung",
        "State": "Pulau Pinang"
    },
    {
        "Postcode": "11960",
        "Location": "Lintang Beringin 2",
        "Post_Office": "Batu Maung",
        "State": "Pulau Pinang"
    },
    {
        "Postcode": "11960",
        "Location": "Lintang Beringin 3",
        "Post_Office": "Batu Maung",
        "State": "Pulau Pinang"
    },
    {
        "Postcode": "11960",
        "Location": "Lintang Beringin 4",
        "Post_Office": "Batu Maung",
        "State": "Pulau Pinang"
    },
    {
        "Postcode": "11960",
        "Location": "Lintang Beringin 5",
        "Post_Office": "Batu Maung",
        "State": "Pulau Pinang"
    },
    {
        "Postcode": "11960",
        "Location": "Lintang Beringin 6",
        "Post_Office": "Batu Maung",
        "State": "Pulau Pinang"
    },
    {
        "Postcode": "11960",
        "Location": "Lintang Beringin 7",
        "Post_Office": "Batu Maung",
        "State": "Pulau Pinang"
    },
    {
        "Postcode": "11960",
        "Location": "Lorong Batu Maung 1",
        "Post_Office": "Batu Maung",
        "State": "Pulau Pinang"
    },
    {
        "Postcode": "11960",
        "Location": "Lorong Batu Maung 2",
        "Post_Office": "Batu Maung",
        "State": "Pulau Pinang"
    },
    {
        "Postcode": "11960",
        "Location": "Lorong Damar 1",
        "Post_Office": "Batu Maung",
        "State": "Pulau Pinang"
    },
    {
        "Postcode": "11960",
        "Location": "Lorong Damar 2",
        "Post_Office": "Batu Maung",
        "State": "Pulau Pinang"
    },
    {
        "Postcode": "11960",
        "Location": "Lorong Damar 3",
        "Post_Office": "Batu Maung",
        "State": "Pulau Pinang"
    },
    {
        "Postcode": "11960",
        "Location": "Lorong Damar 4",
        "Post_Office": "Batu Maung",
        "State": "Pulau Pinang"
    },
    {
        "Postcode": "11960",
        "Location": "Lorong Damar 5",
        "Post_Office": "Batu Maung",
        "State": "Pulau Pinang"
    },
    {
        "Postcode": "11960",
        "Location": "Lorong Jeliti 1",
        "Post_Office": "Batu Maung",
        "State": "Pulau Pinang"
    },
    {
        "Postcode": "11960",
        "Location": "Lorong Jeliti 2",
        "Post_Office": "Batu Maung",
        "State": "Pulau Pinang"
    },
    {
        "Postcode": "11960",
        "Location": "Lorong Kekabu 1",
        "Post_Office": "Batu Maung",
        "State": "Pulau Pinang"
    },
    {
        "Postcode": "11960",
        "Location": "Lorong Kekabu 2",
        "Post_Office": "Batu Maung",
        "State": "Pulau Pinang"
    },
    {
        "Postcode": "11960",
        "Location": "Solok Kekabu 1",
        "Post_Office": "Batu Maung",
        "State": "Pulau Pinang"
    },
    {
        "Postcode": "11960",
        "Location": "Solok Kekabu 2",
        "Post_Office": "Batu Maung",
        "State": "Pulau Pinang"
    },
    {
        "Postcode": "11960",
        "Location": "Batu Maung",
        "Post_Office": "Batu Maung",
        "State": "Pulau Pinang"
    },
    {
        "Postcode": "11960",
        "Location": "Batu Maung Blok H",
        "Post_Office": "Batu Maung",
        "State": "Pulau Pinang"
    },
    {
        "Postcode": "11960",
        "Location": "Batu Maung Blok J",
        "Post_Office": "Batu Maung",
        "State": "Pulau Pinang"
    },
    {
        "Postcode": "11960",
        "Location": "Batu Maung Blok K",
        "Post_Office": "Batu Maung",
        "State": "Pulau Pinang"
    },
    {
        "Postcode": "11960",
        "Location": "Batu Maung Blok K Mk. 12",
        "Post_Office": "Batu Maung",
        "State": "Pulau Pinang"
    },
    {
        "Postcode": "11960",
        "Location": "Batu Maung Slipway",
        "Post_Office": "Batu Maung",
        "State": "Pulau Pinang"
    },
    {
        "Postcode": "11960",
        "Location": "Bukit Batu Maung Blok K",
        "Post_Office": "Batu Maung",
        "State": "Pulau Pinang"
    },
    {
        "Postcode": "11960",
        "Location": "Desa Jelita",
        "Post_Office": "Batu Maung",
        "State": "Pulau Pinang"
    },
    {
        "Postcode": "11960",
        "Location": "Desa Wangsa",
        "Post_Office": "Batu Maung",
        "State": "Pulau Pinang"
    },
    {
        "Postcode": "11960",
        "Location": "Dynaview",
        "Post_Office": "Batu Maung",
        "State": "Pulau Pinang"
    },
    {
        "Postcode": "11960",
        "Location": "Gerbang Batu Maung",
        "Post_Office": "Batu Maung",
        "State": "Pulau Pinang"
    },
    {
        "Postcode": "11960",
        "Location": "Halaman Batu Maung",
        "Post_Office": "Batu Maung",
        "State": "Pulau Pinang"
    },
    {
        "Postcode": "11960",
        "Location": "Institut Penyelidikan Perikanan",
        "Post_Office": "Batu Maung",
        "State": "Pulau Pinang"
    },
    {
        "Postcode": "11960",
        "Location": "Jalan Baru Batu Maung",
        "Post_Office": "Batu Maung",
        "State": "Pulau Pinang"
    },
    {
        "Postcode": "11960",
        "Location": "Jalan Batu Maung",
        "Post_Office": "Batu Maung",
        "State": "Pulau Pinang"
    },
    {
        "Postcode": "11960",
        "Location": "Jalan Beringin",
        "Post_Office": "Batu Maung",
        "State": "Pulau Pinang"
    },
    {
        "Postcode": "11960",
        "Location": "Jalan Bukit Jambul",
        "Post_Office": "Batu Maung",
        "State": "Pulau Pinang"
    },
    {
        "Postcode": "11960",
        "Location": "Jalan Damar",
        "Post_Office": "Batu Maung",
        "State": "Pulau Pinang"
    },
    {
        "Postcode": "11960",
        "Location": "Jalan Jeliti",
        "Post_Office": "Batu Maung",
        "State": "Pulau Pinang"
    },
    {
        "Postcode": "11960",
        "Location": "Jalan Kekabu",
        "Post_Office": "Batu Maung",
        "State": "Pulau Pinang"
    },
    {
        "Postcode": "11960",
        "Location": "Jalan Permatang Damar Laut Blok J Mk.12",
        "Post_Office": "Batu Maung",
        "State": "Pulau Pinang"
    },
    {
        "Postcode": "11960",
        "Location": "Jalan Permatang Tepi Bukit",
        "Post_Office": "Batu Maung",
        "State": "Pulau Pinang"
    },
    {
        "Postcode": "11960",
        "Location": "Jalan Telok Tempoyak Mk.12",
        "Post_Office": "Batu Maung",
        "State": "Pulau Pinang"
    },
    {
        "Postcode": "11960",
        "Location": "Kampung Baru Batu Maung Blok H",
        "Post_Office": "Batu Maung",
        "State": "Pulau Pinang"
    },
    {
        "Postcode": "11960",
        "Location": "Lebuh Batu Maung",
        "Post_Office": "Batu Maung",
        "State": "Pulau Pinang"
    },
    {
        "Postcode": "11960",
        "Location": "Lebuhraya  Tuanku Syed Sirajuddin",
        "Post_Office": "Batu Maung",
        "State": "Pulau Pinang"
    },
    {
        "Postcode": "11960",
        "Location": "Lebuhraya Batu Maung",
        "Post_Office": "Batu Maung",
        "State": "Pulau Pinang"
    },
    {
        "Postcode": "11960",
        "Location": "Lengkok Batu Maung",
        "Post_Office": "Batu Maung",
        "State": "Pulau Pinang"
    },
    {
        "Postcode": "11960",
        "Location": "Lengkok Permatang Damar Laut",
        "Post_Office": "Batu Maung",
        "State": "Pulau Pinang"
    },
    {
        "Postcode": "11960",
        "Location": "Lengkok Permatang Damar Laut 1",
        "Post_Office": "Batu Maung",
        "State": "Pulau Pinang"
    },
    {
        "Postcode": "11960",
        "Location": "Lilitan Batu Maung",
        "Post_Office": "Batu Maung",
        "State": "Pulau Pinang"
    },
    {
        "Postcode": "11960",
        "Location": "Lorong Damar",
        "Post_Office": "Batu Maung",
        "State": "Pulau Pinang"
    },
    {
        "Postcode": "11960",
        "Location": "Permatang Damar Laut",
        "Post_Office": "Batu Maung",
        "State": "Pulau Pinang"
    },
    {
        "Postcode": "11960",
        "Location": "Solok Batu Maung",
        "Post_Office": "Batu Maung",
        "State": "Pulau Pinang"
    },
    {
        "Postcode": "11960",
        "Location": "Solok Beringin",
        "Post_Office": "Batu Maung",
        "State": "Pulau Pinang"
    },
    {
        "Postcode": "11960",
        "Location": "Taman Gembira",
        "Post_Office": "Batu Maung",
        "State": "Pulau Pinang"
    },
    {
        "Postcode": "11960",
        "Location": "Taman Iping",
        "Post_Office": "Batu Maung",
        "State": "Pulau Pinang"
    },
    {
        "Postcode": "11960",
        "Location": "Taman Seri Mewah",
        "Post_Office": "Batu Maung",
        "State": "Pulau Pinang"
    },
    {
        "Postcode": "11960",
        "Location": "Taman Seri Orkid",
        "Post_Office": "Batu Maung",
        "State": "Pulau Pinang"
    },
    {
        "Postcode": "11960",
        "Location": "Teluk Tempoyak",
        "Post_Office": "Batu Maung",
        "State": "Pulau Pinang"
    },
    {
        "Postcode": "11960",
        "Location": "Terminal Kargo",
        "Post_Office": "Batu Maung",
        "State": "Pulau Pinang"
    },
    {
        "Postcode": "11960",
        "Location": "Tingkat Batu Maung",
        "Post_Office": "Batu Maung",
        "State": "Pulau Pinang"
    },
    {
        "Postcode": "11960",
        "Location": "Tingkat Batu Maung 1",
        "Post_Office": "Batu Maung",
        "State": "Pulau Pinang"
    }
]
