[
    {
        "Postcode": "78000",
        "Location": "Kampung Kundangan ",
        "Post_Office": "Alor Gajah",
        "State": "Melaka"
    },
    {
        "Postcode": "78000",
        "Location": "Kampung Solok Jeram Rembia",
        "Post_Office": "Alor Gajah",
        "State": "Melaka"
    },
    {
        "Postcode": "78000",
        "Location": "Kampung Tanjung Balai",
        "Post_Office": "Alor Gajah",
        "State": "Melaka"
    },
    {
        "Postcode": "78000",
        "Location": "Rumah Awam Rembia",
        "Post_Office": "Alor Gajah",
        "State": "Melaka"
    },
    {
        "Postcode": "78000",
        "Location": "Taman Bukit Rembia",
        "Post_Office": "Alor Gajah",
        "State": "Melaka"
    },
    {
        "Postcode": "78000",
        "Location": "Taman Permai Rembia",
        "Post_Office": "Alor Gajah",
        "State": "Melaka"
    },
    {
        "Postcode": "78000",
        "Location": "Taman Rembia",
        "Post_Office": "Alor Gajah",
        "State": "Melaka"
    },
    {
        "Postcode": "78000",
        "Location": "Taman Rembia Perkasa",
        "Post_Office": "Alor Gajah",
        "State": "Melaka"
    },
    {
        "Postcode": "78000",
        "Location": "Taman Seri Kelemak",
        "Post_Office": "Alor Gajah",
        "State": "Melaka"
    },
    {
        "Postcode": "78000",
        "Location": "Taman Sri Sutera",
        "Post_Office": "Alor Gajah",
        "State": "Melaka"
    },
    {
        "Postcode": "78000",
        "Location": "Kampung Jawa",
        "Post_Office": "Alor Gajah",
        "State": "Melaka"
    },
    {
        "Postcode": "78000",
        "Location": "Kampung Lanjut Manis",
        "Post_Office": "Alor Gajah",
        "State": "Melaka"
    },
    {
        "Postcode": "78000",
        "Location": "Lian Huat Estate",
        "Post_Office": "Alor Gajah",
        "State": "Melaka"
    },
    {
        "Postcode": "78000",
        "Location": "Taman Aman",
        "Post_Office": "Alor Gajah",
        "State": "Melaka"
    },
    {
        "Postcode": "78000",
        "Location": "Taman Mewah",
        "Post_Office": "Alor Gajah",
        "State": "Melaka"
    },
    {
        "Postcode": "78000",
        "Location": "Taman Melaka Perdana",
        "Post_Office": "Alor Gajah",
        "State": "Melaka"
    },
    {
        "Postcode": "78000",
        "Location": "Taman Mutiara",
        "Post_Office": "Alor Gajah",
        "State": "Melaka"
    },
    {
        "Postcode": "78000",
        "Location": "Taman Sutera",
        "Post_Office": "Alor Gajah",
        "State": "Melaka"
    },
    {
        "Postcode": "78000",
        "Location": "Ayer Panas",
        "Post_Office": "Alor Gajah",
        "State": "Melaka"
    },
    {
        "Postcode": "78000",
        "Location": "Jalan Kolam Air",
        "Post_Office": "Alor Gajah",
        "State": "Melaka"
    },
    {
        "Postcode": "78000",
        "Location": "Jalan Tanjung",
        "Post_Office": "Alor Gajah",
        "State": "Melaka"
    },
    {
        "Postcode": "78000",
        "Location": "Kampung Ayer Manggis",
        "Post_Office": "Alor Gajah",
        "State": "Melaka"
    },
    {
        "Postcode": "78000",
        "Location": "Kampung Padang",
        "Post_Office": "Alor Gajah",
        "State": "Melaka"
    },
    {
        "Postcode": "78000",
        "Location": "Taman Jaya",
        "Post_Office": "Alor Gajah",
        "State": "Melaka"
    },
    {
        "Postcode": "78000",
        "Location": "Taman Pelangi",
        "Post_Office": "Alor Gajah",
        "State": "Melaka"
    },
    {
        "Postcode": "78000",
        "Location": "Taman Permai",
        "Post_Office": "Alor Gajah",
        "State": "Melaka"
    },
    {
        "Postcode": "78000",
        "Location": "Felda Menggong",
        "Post_Office": "Alor Gajah",
        "State": "Melaka"
    },
    {
        "Postcode": "78000",
        "Location": "Kampung Air Lanjut",
        "Post_Office": "Alor Gajah",
        "State": "Melaka"
    },
    {
        "Postcode": "78000",
        "Location": "Kampung Air Lanjut Dalam",
        "Post_Office": "Alor Gajah",
        "State": "Melaka"
    },
    {
        "Postcode": "78000",
        "Location": "Kampung Air Tanai",
        "Post_Office": "Alor Gajah",
        "State": "Melaka"
    },
    {
        "Postcode": "78000",
        "Location": "Kampung Ampang Batu Gadek",
        "Post_Office": "Alor Gajah",
        "State": "Melaka"
    },
    {
        "Postcode": "78000",
        "Location": "Kampung Melaka Pindah",
        "Post_Office": "Alor Gajah",
        "State": "Melaka"
    },
    {
        "Postcode": "78000",
        "Location": "Kampung Pegoh Dalam",
        "Post_Office": "Alor Gajah",
        "State": "Melaka"
    },
    {
        "Postcode": "78000",
        "Location": "Kampung Tanjung Rimau",
        "Post_Office": "Alor Gajah",
        "State": "Melaka"
    },
    {
        "Postcode": "78000",
        "Location": "Kampung Tanjung Rimau Dalam",
        "Post_Office": "Alor Gajah",
        "State": "Melaka"
    },
    {
        "Postcode": "78000",
        "Location": "Kampung Tanjung Rimau Luar",
        "Post_Office": "Alor Gajah",
        "State": "Melaka"
    },
    {
        "Postcode": "78000",
        "Location": "Kampung Ulu Melaka Pindah",
        "Post_Office": "Alor Gajah",
        "State": "Melaka"
    },
    {
        "Postcode": "78000",
        "Location": "Kampung Ulu Sungai Buloh",
        "Post_Office": "Alor Gajah",
        "State": "Melaka"
    },
    {
        "Postcode": "78000",
        "Location": "Kampung Baru Rembia",
        "Post_Office": "Alor Gajah",
        "State": "Melaka"
    },
    {
        "Postcode": "78000",
        "Location": "Rembia (Pekan)",
        "Post_Office": "Alor Gajah",
        "State": "Melaka"
    },
    {
        "Postcode": "78000",
        "Location": "Residensi Prima A'Famosa",
        "Post_Office": "Alor Gajah",
        "State": "Melaka"
    },
    {
        "Postcode": "78000",
        "Location": "Residensi Prima Pulau Sebang",
        "Post_Office": "Alor Gajah",
        "State": "Melaka"
    },
    {
        "Postcode": "78000",
        "Location": "Air Cantik (Lendu Air Paabas)",
        "Post_Office": "Alor Gajah",
        "State": "Melaka"
    },
    {
        "Postcode": "78000",
        "Location": "Alor Gajah",
        "Post_Office": "Alor Gajah",
        "State": "Melaka"
    },
    {
        "Postcode": "78000",
        "Location": "Ayer Hitam Lendu",
        "Post_Office": "Alor Gajah",
        "State": "Melaka"
    },
    {
        "Postcode": "78000",
        "Location": "Ayer Pak Abas",
        "Post_Office": "Alor Gajah",
        "State": "Melaka"
    },
    {
        "Postcode": "78000",
        "Location": "Ayer Panas Estate",
        "Post_Office": "Alor Gajah",
        "State": "Melaka"
    },
    {
        "Postcode": "78000",
        "Location": "Bandar Vendor Taboh Naning",
        "Post_Office": "Alor Gajah",
        "State": "Melaka"
    },
    {
        "Postcode": "78000",
        "Location": "Bangunan Prima Alor Gajah",
        "Post_Office": "Alor Gajah",
        "State": "Melaka"
    },
    {
        "Postcode": "78000",
        "Location": "Bukit Hang Lipoh",
        "Post_Office": "Alor Gajah",
        "State": "Melaka"
    },
    {
        "Postcode": "78000",
        "Location": "Bukit Hantu (Lendu Dalam)",
        "Post_Office": "Alor Gajah",
        "State": "Melaka"
    },
    {
        "Postcode": "78000",
        "Location": "Bukit Lengkap",
        "Post_Office": "Alor Gajah",
        "State": "Melaka"
    },
    {
        "Postcode": "78000",
        "Location": "Bukit Tampoi",
        "Post_Office": "Alor Gajah",
        "State": "Melaka"
    },
    {
        "Postcode": "78000",
        "Location": "Bukit Tuan Karia",
        "Post_Office": "Alor Gajah",
        "State": "Melaka"
    },
    {
        "Postcode": "78000",
        "Location": "Felda Hutan Percha",
        "Post_Office": "Alor Gajah",
        "State": "Melaka"
    },
    {
        "Postcode": "78000",
        "Location": "Felda Machap",
        "Post_Office": "Alor Gajah",
        "State": "Melaka"
    },
    {
        "Postcode": "78000",
        "Location": "Gadek",
        "Post_Office": "Alor Gajah",
        "State": "Melaka"
    },
    {
        "Postcode": "78000",
        "Location": "Gadek Buloh China",
        "Post_Office": "Alor Gajah",
        "State": "Melaka"
    },
    {
        "Postcode": "78000",
        "Location": "Heng Lee Estate",
        "Post_Office": "Alor Gajah",
        "State": "Melaka"
    },
    {
        "Postcode": "78000",
        "Location": "Hook Lai Estate",
        "Post_Office": "Alor Gajah",
        "State": "Melaka"
    },
    {
        "Postcode": "78000",
        "Location": "Hutan Percha",
        "Post_Office": "Alor Gajah",
        "State": "Melaka"
    },
    {
        "Postcode": "78000",
        "Location": "Iks Air Paabas",
        "Post_Office": "Alor Gajah",
        "State": "Melaka"
    },
    {
        "Postcode": "78000",
        "Location": "Iks Paya Datok",
        "Post_Office": "Alor Gajah",
        "State": "Melaka"
    },
    {
        "Postcode": "78000",
        "Location": "Iks Sungai Petai",
        "Post_Office": "Alor Gajah",
        "State": "Melaka"
    },
    {
        "Postcode": "78000",
        "Location": "Jalan Air Lanjut",
        "Post_Office": "Alor Gajah",
        "State": "Melaka"
    },
    {
        "Postcode": "78000",
        "Location": "Jalan Air Manggis (Lendu Dalam)",
        "Post_Office": "Alor Gajah",
        "State": "Melaka"
    },
    {
        "Postcode": "78000",
        "Location": "Jalan Air Putih",
        "Post_Office": "Alor Gajah",
        "State": "Melaka"
    },
    {
        "Postcode": "78000",
        "Location": "Jalan Batu 16 3/4 Kampung Paya Datok",
        "Post_Office": "Alor Gajah",
        "State": "Melaka"
    },
    {
        "Postcode": "78000",
        "Location": "Jalan Besar Alor Gajah",
        "Post_Office": "Alor Gajah",
        "State": "Melaka"
    },
    {
        "Postcode": "78000",
        "Location": "Jalan Bukit Langkap",
        "Post_Office": "Alor Gajah",
        "State": "Melaka"
    },
    {
        "Postcode": "78000",
        "Location": "Jalan Bukit Payong",
        "Post_Office": "Alor Gajah",
        "State": "Melaka"
    },
    {
        "Postcode": "78000",
        "Location": "Jalan Hospital",
        "Post_Office": "Alor Gajah",
        "State": "Melaka"
    },
    {
        "Postcode": "78000",
        "Location": "Jalan Kolam Ayer",
        "Post_Office": "Alor Gajah",
        "State": "Melaka"
    },
    {
        "Postcode": "78000",
        "Location": "Jalan Lama Padang Sebang",
        "Post_Office": "Alor Gajah",
        "State": "Melaka"
    },
    {
        "Postcode": "78000",
        "Location": "Jalan Lendu",
        "Post_Office": "Alor Gajah",
        "State": "Melaka"
    },
    {
        "Postcode": "78000",
        "Location": "Jalan Maid Cerana Putih",
        "Post_Office": "Alor Gajah",
        "State": "Melaka"
    },
    {
        "Postcode": "78000",
        "Location": "Jalan Masjid Melekek",
        "Post_Office": "Alor Gajah",
        "State": "Melaka"
    },
    {
        "Postcode": "78000",
        "Location": "Jalan Miat",
        "Post_Office": "Alor Gajah",
        "State": "Melaka"
    },
    {
        "Postcode": "78000",
        "Location": "Jalan Mutiara",
        "Post_Office": "Alor Gajah",
        "State": "Melaka"
    },
    {
        "Postcode": "78000",
        "Location": "Jalan Semerling",
        "Post_Office": "Alor Gajah",
        "State": "Melaka"
    },
    {
        "Postcode": "78000",
        "Location": "Jalan Tanjong Cerana Putih",
        "Post_Office": "Alor Gajah",
        "State": "Melaka"
    },
    {
        "Postcode": "78000",
        "Location": "Kampung Ayer Hitam Lendu",
        "Post_Office": "Alor Gajah",
        "State": "Melaka"
    },
    {
        "Postcode": "78000",
        "Location": "Kampung Ayer Paabas",
        "Post_Office": "Alor Gajah",
        "State": "Melaka"
    },
    {
        "Postcode": "78000",
        "Location": "Kampung Ayer Paabas Dalam",
        "Post_Office": "Alor Gajah",
        "State": "Melaka"
    },
    {
        "Postcode": "78000",
        "Location": "Kampung Balai",
        "Post_Office": "Alor Gajah",
        "State": "Melaka"
    },
    {
        "Postcode": "78000",
        "Location": "Kampung Baru Alor Gajah",
        "Post_Office": "Alor Gajah",
        "State": "Melaka"
    },
    {
        "Postcode": "78000",
        "Location": "Kampung Baru Gadek",
        "Post_Office": "Alor Gajah",
        "State": "Melaka"
    },
    {
        "Postcode": "78000",
        "Location": "Kampung Baru Lendu",
        "Post_Office": "Alor Gajah",
        "State": "Melaka"
    },
    {
        "Postcode": "78000",
        "Location": "Kampung Baru Menggong",
        "Post_Office": "Alor Gajah",
        "State": "Melaka"
    },
    {
        "Postcode": "78000",
        "Location": "Kampung Baru Paya Datok",
        "Post_Office": "Alor Gajah",
        "State": "Melaka"
    },
    {
        "Postcode": "78000",
        "Location": "Kampung Baru Taboh Naning",
        "Post_Office": "Alor Gajah",
        "State": "Melaka"
    },
    {
        "Postcode": "78000",
        "Location": "Kampung Bukit Nangka",
        "Post_Office": "Alor Gajah",
        "State": "Melaka"
    },
    {
        "Postcode": "78000",
        "Location": "Kampung Cherana Puteh",
        "Post_Office": "Alor Gajah",
        "State": "Melaka"
    },
    {
        "Postcode": "78000",
        "Location": "Kampung Dalong",
        "Post_Office": "Alor Gajah",
        "State": "Melaka"
    },
    {
        "Postcode": "78000",
        "Location": "Kampung Durian Terong",
        "Post_Office": "Alor Gajah",
        "State": "Melaka"
    },
    {
        "Postcode": "78000",
        "Location": "Kampung Enau",
        "Post_Office": "Alor Gajah",
        "State": "Melaka"
    },
    {
        "Postcode": "78000",
        "Location": "Kampung Gadek Binjai",
        "Post_Office": "Alor Gajah",
        "State": "Melaka"
    },
    {
        "Postcode": "78000",
        "Location": "Kampung Gadek Buluh Cina",
        "Post_Office": "Alor Gajah",
        "State": "Melaka"
    },
    {
        "Postcode": "78000",
        "Location": "Kampung Gadek Dalam",
        "Post_Office": "Alor Gajah",
        "State": "Melaka"
    },
    {
        "Postcode": "78000",
        "Location": "Kampung Gadek Luar",
        "Post_Office": "Alor Gajah",
        "State": "Melaka"
    },
    {
        "Postcode": "78000",
        "Location": "Kampung Gadek Tebat",
        "Post_Office": "Alor Gajah",
        "State": "Melaka"
    },
    {
        "Postcode": "78000",
        "Location": "Kampung Ganun",
        "Post_Office": "Alor Gajah",
        "State": "Melaka"
    },
    {
        "Postcode": "78000",
        "Location": "Kampung Gedang",
        "Post_Office": "Alor Gajah",
        "State": "Melaka"
    },
    {
        "Postcode": "78000",
        "Location": "Kampung Jalan Estate Kelemak",
        "Post_Office": "Alor Gajah",
        "State": "Melaka"
    },
    {
        "Postcode": "78000",
        "Location": "Kampung Jelatang",
        "Post_Office": "Alor Gajah",
        "State": "Melaka"
    },
    {
        "Postcode": "78000",
        "Location": "Kampung Kati",
        "Post_Office": "Alor Gajah",
        "State": "Melaka"
    },
    {
        "Postcode": "78000",
        "Location": "Kampung Kelemak",
        "Post_Office": "Alor Gajah",
        "State": "Melaka"
    },
    {
        "Postcode": "78000",
        "Location": "Kampung Kelemak (Jalan Lendu)",
        "Post_Office": "Alor Gajah",
        "State": "Melaka"
    },
    {
        "Postcode": "78000",
        "Location": "Kampung Kelemak Dalam",
        "Post_Office": "Alor Gajah",
        "State": "Melaka"
    },
    {
        "Postcode": "78000",
        "Location": "Kampung Kelemak Luar",
        "Post_Office": "Alor Gajah",
        "State": "Melaka"
    },
    {
        "Postcode": "78000",
        "Location": "Kampung Kelemak Tengah",
        "Post_Office": "Alor Gajah",
        "State": "Melaka"
    },
    {
        "Postcode": "78000",
        "Location": "Kampung Kelemak Ulu",
        "Post_Office": "Alor Gajah",
        "State": "Melaka"
    },
    {
        "Postcode": "78000",
        "Location": "Kampung Kemuning",
        "Post_Office": "Alor Gajah",
        "State": "Melaka"
    },
    {
        "Postcode": "78000",
        "Location": "Kampung Kemuning Tengah",
        "Post_Office": "Alor Gajah",
        "State": "Melaka"
    },
    {
        "Postcode": "78000",
        "Location": "Kampung Kemus",
        "Post_Office": "Alor Gajah",
        "State": "Melaka"
    },
    {
        "Postcode": "78000",
        "Location": "Kampung Kolam Ayer Gadek",
        "Post_Office": "Alor Gajah",
        "State": "Melaka"
    },
    {
        "Postcode": "78000",
        "Location": "Kampung Lelong",
        "Post_Office": "Alor Gajah",
        "State": "Melaka"
    },
    {
        "Postcode": "78000",
        "Location": "Kampung Lendu",
        "Post_Office": "Alor Gajah",
        "State": "Melaka"
    },
    {
        "Postcode": "78000",
        "Location": "Kampung Lendu Ayer Hitam",
        "Post_Office": "Alor Gajah",
        "State": "Melaka"
    },
    {
        "Postcode": "78000",
        "Location": "Kampung Lendu Dalam",
        "Post_Office": "Alor Gajah",
        "State": "Melaka"
    },
    {
        "Postcode": "78000",
        "Location": "Kampung Lendu Hilir",
        "Post_Office": "Alor Gajah",
        "State": "Melaka"
    },
    {
        "Postcode": "78000",
        "Location": "Kampung Lendu Pondok Sepam",
        "Post_Office": "Alor Gajah",
        "State": "Melaka"
    },
    {
        "Postcode": "78000",
        "Location": "Kampung Lendu Tengah",
        "Post_Office": "Alor Gajah",
        "State": "Melaka"
    },
    {
        "Postcode": "78000",
        "Location": "Kampung Lubok Kepong",
        "Post_Office": "Alor Gajah",
        "State": "Melaka"
    },
    {
        "Postcode": "78000",
        "Location": "Kampung Melekek (Batu 17 1/2)",
        "Post_Office": "Alor Gajah",
        "State": "Melaka"
    },
    {
        "Postcode": "78000",
        "Location": "Kampung Melekek Dalam",
        "Post_Office": "Alor Gajah",
        "State": "Melaka"
    },
    {
        "Postcode": "78000",
        "Location": "Kampung Padang Besar",
        "Post_Office": "Alor Gajah",
        "State": "Melaka"
    },
    {
        "Postcode": "78000",
        "Location": "Kampung Padang Kambing",
        "Post_Office": "Alor Gajah",
        "State": "Melaka"
    },
    {
        "Postcode": "78000",
        "Location": "Kampung Padang Lalang",
        "Post_Office": "Alor Gajah",
        "State": "Melaka"
    },
    {
        "Postcode": "78000",
        "Location": "Kampung Padang Melekek",
        "Post_Office": "Alor Gajah",
        "State": "Melaka"
    },
    {
        "Postcode": "78000",
        "Location": "Kampung Padang Sebang",
        "Post_Office": "Alor Gajah",
        "State": "Melaka"
    },
    {
        "Postcode": "78000",
        "Location": "Kampung Pagoh Luar",
        "Post_Office": "Alor Gajah",
        "State": "Melaka"
    },
    {
        "Postcode": "78000",
        "Location": "Kampung Paku",
        "Post_Office": "Alor Gajah",
        "State": "Melaka"
    },
    {
        "Postcode": "78000",
        "Location": "Kampung Paku Dalam",
        "Post_Office": "Alor Gajah",
        "State": "Melaka"
    },
    {
        "Postcode": "78000",
        "Location": "Kampung Paya Datok",
        "Post_Office": "Alor Gajah",
        "State": "Melaka"
    },
    {
        "Postcode": "78000",
        "Location": "Kampung Paya Simpang Empat",
        "Post_Office": "Alor Gajah",
        "State": "Melaka"
    },
    {
        "Postcode": "78000",
        "Location": "Kampung Pegoh",
        "Post_Office": "Alor Gajah",
        "State": "Melaka"
    },
    {
        "Postcode": "78000",
        "Location": "Kampung Pengkalan",
        "Post_Office": "Alor Gajah",
        "State": "Melaka"
    },
    {
        "Postcode": "78000",
        "Location": "Kampung Perling",
        "Post_Office": "Alor Gajah",
        "State": "Melaka"
    },
    {
        "Postcode": "78000",
        "Location": "Kampung Perling (Simpang Ampat)",
        "Post_Office": "Alor Gajah",
        "State": "Melaka"
    },
    {
        "Postcode": "78000",
        "Location": "Kampung Pernau",
        "Post_Office": "Alor Gajah",
        "State": "Melaka"
    },
    {
        "Postcode": "78000",
        "Location": "Kampung Ponggor",
        "Post_Office": "Alor Gajah",
        "State": "Melaka"
    },
    {
        "Postcode": "78000",
        "Location": "Kampung Ponggur",
        "Post_Office": "Alor Gajah",
        "State": "Melaka"
    },
    {
        "Postcode": "78000",
        "Location": "Kampung Punggur",
        "Post_Office": "Alor Gajah",
        "State": "Melaka"
    },
    {
        "Postcode": "78000",
        "Location": "Kampung Rembia",
        "Post_Office": "Alor Gajah",
        "State": "Melaka"
    },
    {
        "Postcode": "78000",
        "Location": "Kampung Simpang Kendong",
        "Post_Office": "Alor Gajah",
        "State": "Melaka"
    },
    {
        "Postcode": "78000",
        "Location": "Kampung Solok Ayer Puteh",
        "Post_Office": "Alor Gajah",
        "State": "Melaka"
    },
    {
        "Postcode": "78000",
        "Location": "Kampung Solok Bukit Hantu",
        "Post_Office": "Alor Gajah",
        "State": "Melaka"
    },
    {
        "Postcode": "78000",
        "Location": "Kampung Solok Cherana Puteh",
        "Post_Office": "Alor Gajah",
        "State": "Melaka"
    },
    {
        "Postcode": "78000",
        "Location": "Kampung Solok Gajah Mati",
        "Post_Office": "Alor Gajah",
        "State": "Melaka"
    },
    {
        "Postcode": "78000",
        "Location": "Kampung Solok Limau Purut",
        "Post_Office": "Alor Gajah",
        "State": "Melaka"
    },
    {
        "Postcode": "78000",
        "Location": "Kampung Solok Menggong",
        "Post_Office": "Alor Gajah",
        "State": "Melaka"
    },
    {
        "Postcode": "78000",
        "Location": "Kampung Sri Kendong",
        "Post_Office": "Alor Gajah",
        "State": "Melaka"
    },
    {
        "Postcode": "78000",
        "Location": "Kampung Sungai Buloh",
        "Post_Office": "Alor Gajah",
        "State": "Melaka"
    },
    {
        "Postcode": "78000",
        "Location": "Kampung Sungai Petai",
        "Post_Office": "Alor Gajah",
        "State": "Melaka"
    },
    {
        "Postcode": "78000",
        "Location": "Kampung Sungai Ragok",
        "Post_Office": "Alor Gajah",
        "State": "Melaka"
    },
    {
        "Postcode": "78000",
        "Location": "Kampung Taboh Naning",
        "Post_Office": "Alor Gajah",
        "State": "Melaka"
    },
    {
        "Postcode": "78000",
        "Location": "Kampung Tambak Jelatang",
        "Post_Office": "Alor Gajah",
        "State": "Melaka"
    },
    {
        "Postcode": "78000",
        "Location": "Kampung Tebat",
        "Post_Office": "Alor Gajah",
        "State": "Melaka"
    },
    {
        "Postcode": "78000",
        "Location": "Kampung Tengah (Melaka Pindah)",
        "Post_Office": "Alor Gajah",
        "State": "Melaka"
    },
    {
        "Postcode": "78000",
        "Location": "Kampung Tengah (Melekek)",
        "Post_Office": "Alor Gajah",
        "State": "Melaka"
    },
    {
        "Postcode": "78000",
        "Location": "Kampung Tengah Sungai Ragok",
        "Post_Office": "Alor Gajah",
        "State": "Melaka"
    },
    {
        "Postcode": "78000",
        "Location": "Kampung Ulu Kemus",
        "Post_Office": "Alor Gajah",
        "State": "Melaka"
    },
    {
        "Postcode": "78000",
        "Location": "Kampung Ulu Sungai Buluh",
        "Post_Office": "Alor Gajah",
        "State": "Melaka"
    },
    {
        "Postcode": "78000",
        "Location": "Kelemak Jalan Bukit Tampoi",
        "Post_Office": "Alor Gajah",
        "State": "Melaka"
    },
    {
        "Postcode": "78000",
        "Location": "Kelemak Jalan Lama",
        "Post_Office": "Alor Gajah",
        "State": "Melaka"
    },
    {
        "Postcode": "78000",
        "Location": "Kemas Dalam",
        "Post_Office": "Alor Gajah",
        "State": "Melaka"
    },
    {
        "Postcode": "78000",
        "Location": "Kolej Risda Melaka",
        "Post_Office": "Alor Gajah",
        "State": "Melaka"
    },
    {
        "Postcode": "78000",
        "Location": "Kuarters Kesihatan Paya Datok",
        "Post_Office": "Alor Gajah",
        "State": "Melaka"
    },
    {
        "Postcode": "78000",
        "Location": "Ladang Kemuning Kru",
        "Post_Office": "Alor Gajah",
        "State": "Melaka"
    },
    {
        "Postcode": "78000",
        "Location": "Lanjut Manis",
        "Post_Office": "Alor Gajah",
        "State": "Melaka"
    },
    {
        "Postcode": "78000",
        "Location": "Lendu",
        "Post_Office": "Alor Gajah",
        "State": "Melaka"
    },
    {
        "Postcode": "78000",
        "Location": "Lendu Ayer Paabas",
        "Post_Office": "Alor Gajah",
        "State": "Melaka"
    },
    {
        "Postcode": "78000",
        "Location": "Lendu Estate",
        "Post_Office": "Alor Gajah",
        "State": "Melaka"
    },
    {
        "Postcode": "78000",
        "Location": "Lesong Batu",
        "Post_Office": "Alor Gajah",
        "State": "Melaka"
    },
    {
        "Postcode": "78000",
        "Location": "Lorong Solok Zakaria",
        "Post_Office": "Alor Gajah",
        "State": "Melaka"
    },
    {
        "Postcode": "78000",
        "Location": "Machap Umboo",
        "Post_Office": "Alor Gajah",
        "State": "Melaka"
    },
    {
        "Postcode": "78000",
        "Location": "Machap Umboo Baru",
        "Post_Office": "Alor Gajah",
        "State": "Melaka"
    },
    {
        "Postcode": "78000",
        "Location": "Machap Umboo Permai",
        "Post_Office": "Alor Gajah",
        "State": "Melaka"
    },
    {
        "Postcode": "78000",
        "Location": "Masjid Saga",
        "Post_Office": "Alor Gajah",
        "State": "Melaka"
    },
    {
        "Postcode": "78000",
        "Location": "Melaka Pindah Estate",
        "Post_Office": "Alor Gajah",
        "State": "Melaka"
    },
    {
        "Postcode": "78000",
        "Location": "Melaka Pindah Hilir",
        "Post_Office": "Alor Gajah",
        "State": "Melaka"
    },
    {
        "Postcode": "78000",
        "Location": "Melekek",
        "Post_Office": "Alor Gajah",
        "State": "Melaka"
    },
    {
        "Postcode": "78000",
        "Location": "Melekek Kampung Padang",
        "Post_Office": "Alor Gajah",
        "State": "Melaka"
    },
    {
        "Postcode": "78000",
        "Location": "Melekek Tanjong Balai",
        "Post_Office": "Alor Gajah",
        "State": "Melaka"
    },
    {
        "Postcode": "78000",
        "Location": "Padang Besar",
        "Post_Office": "Alor Gajah",
        "State": "Melaka"
    },
    {
        "Postcode": "78000",
        "Location": "Pasar Menggong",
        "Post_Office": "Alor Gajah",
        "State": "Melaka"
    },
    {
        "Postcode": "78000",
        "Location": "Paya Dalam",
        "Post_Office": "Alor Gajah",
        "State": "Melaka"
    },
    {
        "Postcode": "78000",
        "Location": "Pegoh Estate",
        "Post_Office": "Alor Gajah",
        "State": "Melaka"
    },
    {
        "Postcode": "78000",
        "Location": "Pegoh Estate Rembia Division",
        "Post_Office": "Alor Gajah",
        "State": "Melaka"
    },
    {
        "Postcode": "78000",
        "Location": "Pekan Alor Gajah",
        "Post_Office": "Alor Gajah",
        "State": "Melaka"
    },
    {
        "Postcode": "78000",
        "Location": "Pekan Gadek",
        "Post_Office": "Alor Gajah",
        "State": "Melaka"
    },
    {
        "Postcode": "78000",
        "Location": "Pekan Lendu",
        "Post_Office": "Alor Gajah",
        "State": "Melaka"
    },
    {
        "Postcode": "78000",
        "Location": "Pekan Melaka Pindah",
        "Post_Office": "Alor Gajah",
        "State": "Melaka"
    },
    {
        "Postcode": "78000",
        "Location": "Pekan Simpang Empat",
        "Post_Office": "Alor Gajah",
        "State": "Melaka"
    },
    {
        "Postcode": "78000",
        "Location": "Rumah Awam Gadek",
        "Post_Office": "Alor Gajah",
        "State": "Melaka"
    },
    {
        "Postcode": "78000",
        "Location": "Rumah Awam Kelemak",
        "Post_Office": "Alor Gajah",
        "State": "Melaka"
    },
    {
        "Postcode": "78000",
        "Location": "Rumah Awam Kemuning",
        "Post_Office": "Alor Gajah",
        "State": "Melaka"
    },
    {
        "Postcode": "78000",
        "Location": "Rumah Awam Lendu",
        "Post_Office": "Alor Gajah",
        "State": "Melaka"
    },
    {
        "Postcode": "78000",
        "Location": "Rumah Awam Machap Umboo Permai",
        "Post_Office": "Alor Gajah",
        "State": "Melaka"
    },
    {
        "Postcode": "78000",
        "Location": "Rumah Awam Melekek",
        "Post_Office": "Alor Gajah",
        "State": "Melaka"
    },
    {
        "Postcode": "78000",
        "Location": "Rumah Awam Paya Datok",
        "Post_Office": "Alor Gajah",
        "State": "Melaka"
    },
    {
        "Postcode": "78000",
        "Location": "Rumah Awam Simpang Ampat",
        "Post_Office": "Alor Gajah",
        "State": "Melaka"
    },
    {
        "Postcode": "78000",
        "Location": "Rumah Awam Sri Pengkalan",
        "Post_Office": "Alor Gajah",
        "State": "Melaka"
    },
    {
        "Postcode": "78000",
        "Location": "Rumah Awam Sungai Petai",
        "Post_Office": "Alor Gajah",
        "State": "Melaka"
    },
    {
        "Postcode": "78000",
        "Location": "Seri Kelemak",
        "Post_Office": "Alor Gajah",
        "State": "Melaka"
    },
    {
        "Postcode": "78000",
        "Location": "Seri Tanjong",
        "Post_Office": "Alor Gajah",
        "State": "Melaka"
    },
    {
        "Postcode": "78000",
        "Location": "Simpang Ampat",
        "Post_Office": "Alor Gajah",
        "State": "Melaka"
    },
    {
        "Postcode": "78000",
        "Location": "Simpang Gadek",
        "Post_Office": "Alor Gajah",
        "State": "Melaka"
    },
    {
        "Postcode": "78000",
        "Location": "Simpang Kelemak",
        "Post_Office": "Alor Gajah",
        "State": "Melaka"
    },
    {
        "Postcode": "78000",
        "Location": "Simpang Kendong",
        "Post_Office": "Alor Gajah",
        "State": "Melaka"
    },
    {
        "Postcode": "78000",
        "Location": "Simpang Melaka Pindah",
        "Post_Office": "Alor Gajah",
        "State": "Melaka"
    },
    {
        "Postcode": "78000",
        "Location": "Simpang Pengkalan",
        "Post_Office": "Alor Gajah",
        "State": "Melaka"
    },
    {
        "Postcode": "78000",
        "Location": "Solok Air Tanai",
        "Post_Office": "Alor Gajah",
        "State": "Melaka"
    },
    {
        "Postcode": "78000",
        "Location": "Solok Ayer Pinang",
        "Post_Office": "Alor Gajah",
        "State": "Melaka"
    },
    {
        "Postcode": "78000",
        "Location": "Solok Gajah Mati",
        "Post_Office": "Alor Gajah",
        "State": "Melaka"
    },
    {
        "Postcode": "78000",
        "Location": "Solok Kemus",
        "Post_Office": "Alor Gajah",
        "State": "Melaka"
    },
    {
        "Postcode": "78000",
        "Location": "Solok Limau Purut",
        "Post_Office": "Alor Gajah",
        "State": "Melaka"
    },
    {
        "Postcode": "78000",
        "Location": "Solok Mengawa (Pegoh)",
        "Post_Office": "Alor Gajah",
        "State": "Melaka"
    },
    {
        "Postcode": "78000",
        "Location": "Solok Perling",
        "Post_Office": "Alor Gajah",
        "State": "Melaka"
    },
    {
        "Postcode": "78000",
        "Location": "Solok Pinang Pegoh",
        "Post_Office": "Alor Gajah",
        "State": "Melaka"
    },
    {
        "Postcode": "78000",
        "Location": "Solok Seberang Perai",
        "Post_Office": "Alor Gajah",
        "State": "Melaka"
    },
    {
        "Postcode": "78000",
        "Location": "Solok Semelenggong",
        "Post_Office": "Alor Gajah",
        "State": "Melaka"
    },
    {
        "Postcode": "78000",
        "Location": "Solok Semenggang",
        "Post_Office": "Alor Gajah",
        "State": "Melaka"
    },
    {
        "Postcode": "78000",
        "Location": "Solok Senda",
        "Post_Office": "Alor Gajah",
        "State": "Melaka"
    },
    {
        "Postcode": "78000",
        "Location": "Solok Tanah Liat",
        "Post_Office": "Alor Gajah",
        "State": "Melaka"
    },
    {
        "Postcode": "78000",
        "Location": "Sungai Petai",
        "Post_Office": "Alor Gajah",
        "State": "Melaka"
    },
    {
        "Postcode": "78000",
        "Location": "Taboh Naning New Village",
        "Post_Office": "Alor Gajah",
        "State": "Melaka"
    },
    {
        "Postcode": "78000",
        "Location": "Taman Alor",
        "Post_Office": "Alor Gajah",
        "State": "Melaka"
    },
    {
        "Postcode": "78000",
        "Location": "Taman Anggerik Utama",
        "Post_Office": "Alor Gajah",
        "State": "Melaka"
    },
    {
        "Postcode": "78000",
        "Location": "Taman Bukit Emas",
        "Post_Office": "Alor Gajah",
        "State": "Melaka"
    },
    {
        "Postcode": "78000",
        "Location": "Taman Bukit Nangka",
        "Post_Office": "Alor Gajah",
        "State": "Melaka"
    },
    {
        "Postcode": "78000",
        "Location": "Taman Dimensi",
        "Post_Office": "Alor Gajah",
        "State": "Melaka"
    },
    {
        "Postcode": "78000",
        "Location": "Taman Gadek",
        "Post_Office": "Alor Gajah",
        "State": "Melaka"
    },
    {
        "Postcode": "78000",
        "Location": "Taman Gadek Perdana",
        "Post_Office": "Alor Gajah",
        "State": "Melaka"
    },
    {
        "Postcode": "78000",
        "Location": "Taman Iks",
        "Post_Office": "Alor Gajah",
        "State": "Melaka"
    },
    {
        "Postcode": "78000",
        "Location": "Taman Industri Perniagaan Melekek",
        "Post_Office": "Alor Gajah",
        "State": "Melaka"
    },
    {
        "Postcode": "78000",
        "Location": "Taman Intekma",
        "Post_Office": "Alor Gajah",
        "State": "Melaka"
    },
    {
        "Postcode": "78000",
        "Location": "Taman Jati Indah",
        "Post_Office": "Alor Gajah",
        "State": "Melaka"
    },
    {
        "Postcode": "78000",
        "Location": "Taman Jati Lendu",
        "Post_Office": "Alor Gajah",
        "State": "Melaka"
    },
    {
        "Postcode": "78000",
        "Location": "Taman Kebaya",
        "Post_Office": "Alor Gajah",
        "State": "Melaka"
    },
    {
        "Postcode": "78000",
        "Location": "Taman Kelemak Jaya",
        "Post_Office": "Alor Gajah",
        "State": "Melaka"
    },
    {
        "Postcode": "78000",
        "Location": "Taman Kelemak Perdana",
        "Post_Office": "Alor Gajah",
        "State": "Melaka"
    },
    {
        "Postcode": "78000",
        "Location": "Taman Koperasi Naning",
        "Post_Office": "Alor Gajah",
        "State": "Melaka"
    },
    {
        "Postcode": "78000",
        "Location": "Taman Lendu Bakti",
        "Post_Office": "Alor Gajah",
        "State": "Melaka"
    },
    {
        "Postcode": "78000",
        "Location": "Taman Lendu Baru",
        "Post_Office": "Alor Gajah",
        "State": "Melaka"
    },
    {
        "Postcode": "78000",
        "Location": "Taman Maim",
        "Post_Office": "Alor Gajah",
        "State": "Melaka"
    },
    {
        "Postcode": "78000",
        "Location": "Taman Markisah",
        "Post_Office": "Alor Gajah",
        "State": "Melaka"
    },
    {
        "Postcode": "78000",
        "Location": "Taman Mawar Jaya",
        "Post_Office": "Alor Gajah",
        "State": "Melaka"
    },
    {
        "Postcode": "78000",
        "Location": "Taman Melaka Pindah",
        "Post_Office": "Alor Gajah",
        "State": "Melaka"
    },
    {
        "Postcode": "78000",
        "Location": "Taman Melayu Permai",
        "Post_Office": "Alor Gajah",
        "State": "Melaka"
    },
    {
        "Postcode": "78000",
        "Location": "Taman Melekek",
        "Post_Office": "Alor Gajah",
        "State": "Melaka"
    },
    {
        "Postcode": "78000",
        "Location": "Taman Merak Iks Sungai Petai",
        "Post_Office": "Alor Gajah",
        "State": "Melaka"
    },
    {
        "Postcode": "78000",
        "Location": "Taman Pengkalan Indah",
        "Post_Office": "Alor Gajah",
        "State": "Melaka"
    },
    {
        "Postcode": "78000",
        "Location": "Taman Perumahan Pdrm",
        "Post_Office": "Alor Gajah",
        "State": "Melaka"
    },
    {
        "Postcode": "78000",
        "Location": "Taman Perumahan Pdrm (Polis)",
        "Post_Office": "Alor Gajah",
        "State": "Melaka"
    },
    {
        "Postcode": "78000",
        "Location": "Taman Pisang Mas",
        "Post_Office": "Alor Gajah",
        "State": "Melaka"
    },
    {
        "Postcode": "78000",
        "Location": "Taman Pisang Mas Jaya",
        "Post_Office": "Alor Gajah",
        "State": "Melaka"
    },
    {
        "Postcode": "78000",
        "Location": "Taman Pknm",
        "Post_Office": "Alor Gajah",
        "State": "Melaka"
    },
    {
        "Postcode": "78000",
        "Location": "Taman Rancangan Bukit Bulat",
        "Post_Office": "Alor Gajah",
        "State": "Melaka"
    },
    {
        "Postcode": "78000",
        "Location": "Taman Rembia Setia",
        "Post_Office": "Alor Gajah",
        "State": "Melaka"
    },
    {
        "Postcode": "78000",
        "Location": "Taman Rembia Utama",
        "Post_Office": "Alor Gajah",
        "State": "Melaka"
    },
    {
        "Postcode": "78000",
        "Location": "Taman Rumah Awam Biru",
        "Post_Office": "Alor Gajah",
        "State": "Melaka"
    },
    {
        "Postcode": "78000",
        "Location": "Taman Saujana Height",
        "Post_Office": "Alor Gajah",
        "State": "Melaka"
    },
    {
        "Postcode": "78000",
        "Location": "Taman Sebang Gemilang",
        "Post_Office": "Alor Gajah",
        "State": "Melaka"
    },
    {
        "Postcode": "78000",
        "Location": "Taman Sebang Mutiara",
        "Post_Office": "Alor Gajah",
        "State": "Melaka"
    },
    {
        "Postcode": "78000",
        "Location": "Taman Seri Bayu",
        "Post_Office": "Alor Gajah",
        "State": "Melaka"
    },
    {
        "Postcode": "78000",
        "Location": "Taman Seri Naning",
        "Post_Office": "Alor Gajah",
        "State": "Melaka"
    },
    {
        "Postcode": "78000",
        "Location": "Taman Seri Pelangi",
        "Post_Office": "Alor Gajah",
        "State": "Melaka"
    },
    {
        "Postcode": "78000",
        "Location": "Taman Sutera Indah",
        "Post_Office": "Alor Gajah",
        "State": "Melaka"
    },
    {
        "Postcode": "78000",
        "Location": "Tanah Rancangan Bukit Bulat",
        "Post_Office": "Alor Gajah",
        "State": "Melaka"
    },
    {
        "Postcode": "78000",
        "Location": "Tanah Rancangan Hutan Percha",
        "Post_Office": "Alor Gajah",
        "State": "Melaka"
    },
    {
        "Postcode": "78000",
        "Location": "Tanah Rancangan Menggong",
        "Post_Office": "Alor Gajah",
        "State": "Melaka"
    },
    {
        "Postcode": "78000",
        "Location": "Teck Ping Chan",
        "Post_Office": "Alor Gajah",
        "State": "Melaka"
    },
    {
        "Postcode": "78000",
        "Location": "Tiang Guan Estate",
        "Post_Office": "Alor Gajah",
        "State": "Melaka"
    },
    {
        "Postcode": "78000",
        "Location": "Uitm Lendu",
        "Post_Office": "Alor Gajah",
        "State": "Melaka"
    },
    {
        "Postcode": "78000",
        "Location": "Vinnyagar Estate",
        "Post_Office": "Alor Gajah",
        "State": "Melaka"
    },
    {
        "Postcode": "78000",
        "Location": "Kampung Baru 1",
        "Post_Office": "Alor Gajah",
        "State": "Melaka"
    },
    {
        "Postcode": "78000",
        "Location": "Kampung Baru 2",
        "Post_Office": "Alor Gajah",
        "State": "Melaka"
    },
    {
        "Postcode": "78000",
        "Location": "Taman Seri Bayu 1",
        "Post_Office": "Alor Gajah",
        "State": "Melaka"
    },
    {
        "Postcode": "78000",
        "Location": "Taman Seri Bayu 2",
        "Post_Office": "Alor Gajah",
        "State": "Melaka"
    }
]
