[
    {
        "Postcode": "78100",
        "Location": "Taman Wira Mas",
        "Post_Office": "Lubok China",
        "State": "Melaka"
    },
    {
        "Postcode": "78100",
        "Location": "Taman Setia Jaya",
        "Post_Office": "Lubok China",
        "State": "Melaka"
    },
    {
        "Postcode": "78100",
        "Location": "Kampung Seberang",
        "Post_Office": "Lubok China",
        "State": "Melaka"
    },
    {
        "Postcode": "78100",
        "Location": "Kampung Berembang Jaya",
        "Post_Office": "Lubok China",
        "State": "Melaka"
    },
    {
        "Postcode": "78100",
        "Location": "Berisu Tengah",
        "Post_Office": "Lubok China",
        "State": "Melaka"
    },
    {
        "Postcode": "78100",
        "Location": "Jalan Batu Alang",
        "Post_Office": "Lubok China",
        "State": "Melaka"
    },
    {
        "Postcode": "78100",
        "Location": "Jalan Bukit Pering",
        "Post_Office": "Lubok China",
        "State": "Melaka"
    },
    {
        "Postcode": "78100",
        "Location": "Jalan Bukit Sendok",
        "Post_Office": "Lubok China",
        "State": "Melaka"
    },
    {
        "Postcode": "78100",
        "Location": "Jalan Lubok Buntar",
        "Post_Office": "Lubok China",
        "State": "Melaka"
    },
    {
        "Postcode": "78100",
        "Location": "Jalan Solok Gitam",
        "Post_Office": "Lubok China",
        "State": "Melaka"
    },
    {
        "Postcode": "78100",
        "Location": "Kampung Baru Lubuk China",
        "Post_Office": "Lubok China",
        "State": "Melaka"
    },
    {
        "Postcode": "78100",
        "Location": "Kampung Berisu",
        "Post_Office": "Lubok China",
        "State": "Melaka"
    },
    {
        "Postcode": "78100",
        "Location": "Kampung Lubok Buntar",
        "Post_Office": "Lubok China",
        "State": "Melaka"
    },
    {
        "Postcode": "78100",
        "Location": "Kampung Lubok China",
        "Post_Office": "Lubok China",
        "State": "Melaka"
    },
    {
        "Postcode": "78100",
        "Location": "Kampung Pengkalan Paoh",
        "Post_Office": "Lubok China",
        "State": "Melaka"
    },
    {
        "Postcode": "78100",
        "Location": "Kampung Pengkalan Pauh",
        "Post_Office": "Lubok China",
        "State": "Melaka"
    },
    {
        "Postcode": "78100",
        "Location": "Kampung Ramuan China Kechil",
        "Post_Office": "Lubok China",
        "State": "Melaka"
    },
    {
        "Postcode": "78100",
        "Location": "Kampung Serban Hijau",
        "Post_Office": "Lubok China",
        "State": "Melaka"
    },
    {
        "Postcode": "78100",
        "Location": "Kampung Seri Marlow",
        "Post_Office": "Lubok China",
        "State": "Melaka"
    },
    {
        "Postcode": "78100",
        "Location": "Kampung Seri Merlow",
        "Post_Office": "Lubok China",
        "State": "Melaka"
    },
    {
        "Postcode": "78100",
        "Location": "Kampung Solok Limau Nipis",
        "Post_Office": "Lubok China",
        "State": "Melaka"
    },
    {
        "Postcode": "78100",
        "Location": "Kampung Solok Minching",
        "Post_Office": "Lubok China",
        "State": "Melaka"
    },
    {
        "Postcode": "78100",
        "Location": "Kampung Solok Uban",
        "Post_Office": "Lubok China",
        "State": "Melaka"
    },
    {
        "Postcode": "78100",
        "Location": "Kampung Sungai Jerneh Ulu",
        "Post_Office": "Lubok China",
        "State": "Melaka"
    },
    {
        "Postcode": "78100",
        "Location": "Kampung Sungai Jernih",
        "Post_Office": "Lubok China",
        "State": "Melaka"
    },
    {
        "Postcode": "78100",
        "Location": "Kampung Sungai Siput",
        "Post_Office": "Lubok China",
        "State": "Melaka"
    },
    {
        "Postcode": "78100",
        "Location": "Kampung Sungai Siput (Lubuk China)",
        "Post_Office": "Lubok China",
        "State": "Melaka"
    },
    {
        "Postcode": "78100",
        "Location": "Kampung Telok Berembang",
        "Post_Office": "Lubok China",
        "State": "Melaka"
    },
    {
        "Postcode": "78100",
        "Location": "Kampung Tengah (Berisu)",
        "Post_Office": "Lubok China",
        "State": "Melaka"
    },
    {
        "Postcode": "78100",
        "Location": "Kampung Ulu Brisu",
        "Post_Office": "Lubok China",
        "State": "Melaka"
    },
    {
        "Postcode": "78100",
        "Location": "Lubok China (Pekan)",
        "Post_Office": "Lubok China",
        "State": "Melaka"
    },
    {
        "Postcode": "78100",
        "Location": "Rumah Awam Sungai Siput",
        "Post_Office": "Lubok China",
        "State": "Melaka"
    },
    {
        "Postcode": "78100",
        "Location": "Serban Hijau",
        "Post_Office": "Lubok China",
        "State": "Melaka"
    },
    {
        "Postcode": "78100",
        "Location": "Solok Miching",
        "Post_Office": "Lubok China",
        "State": "Melaka"
    },
    {
        "Postcode": "78100",
        "Location": "Solok Minching",
        "Post_Office": "Lubok China",
        "State": "Melaka"
    },
    {
        "Postcode": "78100",
        "Location": "Solok Semenggong",
        "Post_Office": "Lubok China",
        "State": "Melaka"
    },
    {
        "Postcode": "78100",
        "Location": "Solok Serban Hijau",
        "Post_Office": "Lubok China",
        "State": "Melaka"
    },
    {
        "Postcode": "78100",
        "Location": "Solok Tumpak",
        "Post_Office": "Lubok China",
        "State": "Melaka"
    },
    {
        "Postcode": "78100",
        "Location": "Solok Uban Dekat",
        "Post_Office": "Lubok China",
        "State": "Melaka"
    },
    {
        "Postcode": "78100",
        "Location": "Solok Uban Jauh",
        "Post_Office": "Lubok China",
        "State": "Melaka"
    },
    {
        "Postcode": "78100",
        "Location": "Sungai Jerneh Ulu",
        "Post_Office": "Lubok China",
        "State": "Melaka"
    },
    {
        "Postcode": "78100",
        "Location": "Sungai Siput Estate",
        "Post_Office": "Lubok China",
        "State": "Melaka"
    },
    {
        "Postcode": "78100",
        "Location": "Taman Berembang Jaya",
        "Post_Office": "Lubok China",
        "State": "Melaka"
    },
    {
        "Postcode": "78100",
        "Location": "Taman Wira Indah",
        "Post_Office": "Lubok China",
        "State": "Melaka"
    }
]
