[
    {
        "Postcode": "78200",
        "Location": "Kampung Bukit Darat",
        "Post_Office": "Kuala Sungai Baru",
        "State": "Melaka"
    },
    {
        "Postcode": "78200",
        "Location": "Kampung Hilir",
        "Post_Office": "Kuala Sungai Baru",
        "State": "Melaka"
    },
    {
        "Postcode": "78200",
        "Location": "Kampung Ladang",
        "Post_Office": "Kuala Sungai Baru",
        "State": "Melaka"
    },
    {
        "Postcode": "78200",
        "Location": "Kampung Telok Gong",
        "Post_Office": "Kuala Sungai Baru",
        "State": "Melaka"
    },
    {
        "Postcode": "78200",
        "Location": "Taman Melor",
        "Post_Office": "Kuala Sungai Baru",
        "State": "Melaka"
    },
    {
        "Postcode": "78200",
        "Location": "Jalan Melor",
        "Post_Office": "Kuala Sungai Baru",
        "State": "Melaka"
    },
    {
        "Postcode": "78200",
        "Location": "Kampung Tengah",
        "Post_Office": "Kuala Sungai Baru",
        "State": "Melaka"
    },
    {
        "Postcode": "78200",
        "Location": "Taman Kuala Idaman",
        "Post_Office": "Kuala Sungai Baru",
        "State": "Melaka"
    },
    {
        "Postcode": "78200",
        "Location": "Taman Rebana Jernih",
        "Post_Office": "Kuala Sungai Baru",
        "State": "Melaka"
    },
    {
        "Postcode": "78200",
        "Location": "Kampung Bukit Bun-Bun",
        "Post_Office": "Kuala Sungai Baru",
        "State": "Melaka"
    },
    {
        "Postcode": "78200",
        "Location": "Kampung Keramat Leban",
        "Post_Office": "Kuala Sungai Baru",
        "State": "Melaka"
    },
    {
        "Postcode": "78200",
        "Location": "Taman Permatang Ria",
        "Post_Office": "Kuala Sungai Baru",
        "State": "Melaka"
    },
    {
        "Postcode": "78200",
        "Location": "Batu 28 Kampung Lapan (Permatang)",
        "Post_Office": "Kuala Sungai Baru",
        "State": "Melaka"
    },
    {
        "Postcode": "78200",
        "Location": "Jalan Air Molek",
        "Post_Office": "Kuala Sungai Baru",
        "State": "Melaka"
    },
    {
        "Postcode": "78200",
        "Location": "Jalan Atas Masjid (Kuala Linggi)",
        "Post_Office": "Kuala Sungai Baru",
        "State": "Melaka"
    },
    {
        "Postcode": "78200",
        "Location": "Jalan Balik Bukit (Kuala Linggi)",
        "Post_Office": "Kuala Sungai Baru",
        "State": "Melaka"
    },
    {
        "Postcode": "78200",
        "Location": "Jalan Bilal Mohd",
        "Post_Office": "Kuala Sungai Baru",
        "State": "Melaka"
    },
    {
        "Postcode": "78200",
        "Location": "Jalan Bukit Darat",
        "Post_Office": "Kuala Sungai Baru",
        "State": "Melaka"
    },
    {
        "Postcode": "78200",
        "Location": "Jalan Bukit Darat (Kuala Linggi)",
        "Post_Office": "Kuala Sungai Baru",
        "State": "Melaka"
    },
    {
        "Postcode": "78200",
        "Location": "Jalan Felcra",
        "Post_Office": "Kuala Sungai Baru",
        "State": "Melaka"
    },
    {
        "Postcode": "78200",
        "Location": "Jalan Haji Baba",
        "Post_Office": "Kuala Sungai Baru",
        "State": "Melaka"
    },
    {
        "Postcode": "78200",
        "Location": "Jalan Haji Mat Dali",
        "Post_Office": "Kuala Sungai Baru",
        "State": "Melaka"
    },
    {
        "Postcode": "78200",
        "Location": "Jalan Katib Alwi (Kampung Tengah)",
        "Post_Office": "Kuala Sungai Baru",
        "State": "Melaka"
    },
    {
        "Postcode": "78200",
        "Location": "Jalan Khatib Osman",
        "Post_Office": "Kuala Sungai Baru",
        "State": "Melaka"
    },
    {
        "Postcode": "78200",
        "Location": "Jalan Kilang (Kuala Linggi)",
        "Post_Office": "Kuala Sungai Baru",
        "State": "Melaka"
    },
    {
        "Postcode": "78200",
        "Location": "Jalan Kuala Idaman",
        "Post_Office": "Kuala Sungai Baru",
        "State": "Melaka"
    },
    {
        "Postcode": "78200",
        "Location": "Jalan Labuh Kapal",
        "Post_Office": "Kuala Sungai Baru",
        "State": "Melaka"
    },
    {
        "Postcode": "78200",
        "Location": "Jalan Meriam Patah",
        "Post_Office": "Kuala Sungai Baru",
        "State": "Melaka"
    },
    {
        "Postcode": "78200",
        "Location": "Jalan Parit Bakar (Kampung Tengah)",
        "Post_Office": "Kuala Sungai Baru",
        "State": "Melaka"
    },
    {
        "Postcode": "78200",
        "Location": "Jalan Tanjung Agas (Kuala Linggi)",
        "Post_Office": "Kuala Sungai Baru",
        "State": "Melaka"
    },
    {
        "Postcode": "78200",
        "Location": "Jalan Telok",
        "Post_Office": "Kuala Sungai Baru",
        "State": "Melaka"
    },
    {
        "Postcode": "78200",
        "Location": "Jalan Tok Bongkok (Tanjung Dahan)",
        "Post_Office": "Kuala Sungai Baru",
        "State": "Melaka"
    },
    {
        "Postcode": "78200",
        "Location": "Jalan Tok Enteh (Tanjung Dahan)",
        "Post_Office": "Kuala Sungai Baru",
        "State": "Melaka"
    },
    {
        "Postcode": "78200",
        "Location": "Kampung Ayer Molek",
        "Post_Office": "Kuala Sungai Baru",
        "State": "Melaka"
    },
    {
        "Postcode": "78200",
        "Location": "Kampung Baru Kuala Sungai Baru",
        "Post_Office": "Kuala Sungai Baru",
        "State": "Melaka"
    },
    {
        "Postcode": "78200",
        "Location": "Kampung Bukit Beruang",
        "Post_Office": "Kuala Sungai Baru",
        "State": "Melaka"
    },
    {
        "Postcode": "78200",
        "Location": "Kampung Bukit Supai",
        "Post_Office": "Kuala Sungai Baru",
        "State": "Melaka"
    },
    {
        "Postcode": "78200",
        "Location": "Kampung Guan",
        "Post_Office": "Kuala Sungai Baru",
        "State": "Melaka"
    },
    {
        "Postcode": "78200",
        "Location": "Kampung Kuala",
        "Post_Office": "Kuala Sungai Baru",
        "State": "Melaka"
    },
    {
        "Postcode": "78200",
        "Location": "Kampung Kuala Linggi",
        "Post_Office": "Kuala Sungai Baru",
        "State": "Melaka"
    },
    {
        "Postcode": "78200",
        "Location": "Kampung Man Lok",
        "Post_Office": "Kuala Sungai Baru",
        "State": "Melaka"
    },
    {
        "Postcode": "78200",
        "Location": "Kampung Nelayan",
        "Post_Office": "Kuala Sungai Baru",
        "State": "Melaka"
    },
    {
        "Postcode": "78200",
        "Location": "Kampung Permatang",
        "Post_Office": "Kuala Sungai Baru",
        "State": "Melaka"
    },
    {
        "Postcode": "78200",
        "Location": "Kampung Permatang Hilir",
        "Post_Office": "Kuala Sungai Baru",
        "State": "Melaka"
    },
    {
        "Postcode": "78200",
        "Location": "Kampung Permatang Tengah",
        "Post_Office": "Kuala Sungai Baru",
        "State": "Melaka"
    },
    {
        "Postcode": "78200",
        "Location": "Kampung Tanjong Dahan",
        "Post_Office": "Kuala Sungai Baru",
        "State": "Melaka"
    },
    {
        "Postcode": "78200",
        "Location": "Kampung Tanjong Serai",
        "Post_Office": "Kuala Sungai Baru",
        "State": "Melaka"
    },
    {
        "Postcode": "78200",
        "Location": "Kampung Telok Perun",
        "Post_Office": "Kuala Sungai Baru",
        "State": "Melaka"
    },
    {
        "Postcode": "78200",
        "Location": "Kampung Teluk Belanga",
        "Post_Office": "Kuala Sungai Baru",
        "State": "Melaka"
    },
    {
        "Postcode": "78200",
        "Location": "Keramat Leban",
        "Post_Office": "Kuala Sungai Baru",
        "State": "Melaka"
    },
    {
        "Postcode": "78200",
        "Location": "Kuala Linggi",
        "Post_Office": "Kuala Sungai Baru",
        "State": "Melaka"
    },
    {
        "Postcode": "78200",
        "Location": "Kuala Sungai Baru",
        "Post_Office": "Kuala Sungai Baru",
        "State": "Melaka"
    },
    {
        "Postcode": "78200",
        "Location": "Lorong Haji Zainal",
        "Post_Office": "Kuala Sungai Baru",
        "State": "Melaka"
    },
    {
        "Postcode": "78200",
        "Location": "Lorong Hitam Pajar",
        "Post_Office": "Kuala Sungai Baru",
        "State": "Melaka"
    },
    {
        "Postcode": "78200",
        "Location": "Pekan Kuala Sungai Baru",
        "Post_Office": "Kuala Sungai Baru",
        "State": "Melaka"
    },
    {
        "Postcode": "78200",
        "Location": "Pelabuhan Kuala Linggi",
        "Post_Office": "Kuala Sungai Baru",
        "State": "Melaka"
    },
    {
        "Postcode": "78200",
        "Location": "Rebana Jernih",
        "Post_Office": "Kuala Sungai Baru",
        "State": "Melaka"
    },
    {
        "Postcode": "78200",
        "Location": "Rumah Awam Tanjung Dahan Fasa 2",
        "Post_Office": "Kuala Sungai Baru",
        "State": "Melaka"
    },
    {
        "Postcode": "78200",
        "Location": "Taman Kuala Damai",
        "Post_Office": "Kuala Sungai Baru",
        "State": "Melaka"
    },
    {
        "Postcode": "78200",
        "Location": "Taman Kuala Indah",
        "Post_Office": "Kuala Sungai Baru",
        "State": "Melaka"
    },
    {
        "Postcode": "78200",
        "Location": "Taman Kuala Jaya",
        "Post_Office": "Kuala Sungai Baru",
        "State": "Melaka"
    },
    {
        "Postcode": "78200",
        "Location": "Taman Kuala Permai",
        "Post_Office": "Kuala Sungai Baru",
        "State": "Melaka"
    },
    {
        "Postcode": "78200",
        "Location": "Taman Sri Kuala",
        "Post_Office": "Kuala Sungai Baru",
        "State": "Melaka"
    },
    {
        "Postcode": "78200",
        "Location": "Teluk Belanga",
        "Post_Office": "Kuala Sungai Baru",
        "State": "Melaka"
    }
]
