[
    {
        "Postcode": "78300",
        "Location": "Taman Sri Permata",
        "Post_Office": "Masjid Tanah",
        "State": "Melaka"
    },
    {
        "Postcode": "78300",
        "Location": "Taman Jeram Permai",
        "Post_Office": "Masjid Tanah",
        "State": "Melaka"
    },
    {
        "Postcode": "78300",
        "Location": "Jalan Bakti",
        "Post_Office": "Masjid Tanah",
        "State": "Melaka"
    },
    {
        "Postcode": "78300",
        "Location": "Jalan Bunga Tanjung",
        "Post_Office": "Masjid Tanah",
        "State": "Melaka"
    },
    {
        "Postcode": "78300",
        "Location": "Jalan Durian Daun",
        "Post_Office": "Masjid Tanah",
        "State": "Melaka"
    },
    {
        "Postcode": "78300",
        "Location": "Jalan Haji Hassan",
        "Post_Office": "Masjid Tanah",
        "State": "Melaka"
    },
    {
        "Postcode": "78300",
        "Location": "Kampung Hailam",
        "Post_Office": "Masjid Tanah",
        "State": "Melaka"
    },
    {
        "Postcode": "78300",
        "Location": "Kampung Paya Rumput",
        "Post_Office": "Masjid Tanah",
        "State": "Melaka"
    },
    {
        "Postcode": "78300",
        "Location": "Rumah Awam Paya Rumput",
        "Post_Office": "Masjid Tanah",
        "State": "Melaka"
    },
    {
        "Postcode": "78300",
        "Location": "Taman Damai",
        "Post_Office": "Masjid Tanah",
        "State": "Melaka"
    },
    {
        "Postcode": "78300",
        "Location": "Taman Harmoni",
        "Post_Office": "Masjid Tanah",
        "State": "Melaka"
    },
    {
        "Postcode": "78300",
        "Location": "Taman Maju Jaya",
        "Post_Office": "Masjid Tanah",
        "State": "Melaka"
    },
    {
        "Postcode": "78300",
        "Location": "Taman Makmur",
        "Post_Office": "Masjid Tanah",
        "State": "Melaka"
    },
    {
        "Postcode": "78300",
        "Location": "Jalan Damai",
        "Post_Office": "Masjid Tanah",
        "State": "Melaka"
    },
    {
        "Postcode": "78300",
        "Location": "Jalan Paya Keladi",
        "Post_Office": "Masjid Tanah",
        "State": "Melaka"
    },
    {
        "Postcode": "78300",
        "Location": "Jalan Sentosa",
        "Post_Office": "Masjid Tanah",
        "State": "Melaka"
    },
    {
        "Postcode": "78300",
        "Location": "Jalan Setulang Daing",
        "Post_Office": "Masjid Tanah",
        "State": "Melaka"
    },
    {
        "Postcode": "78300",
        "Location": "Kampung Baru Ayer Limau",
        "Post_Office": "Masjid Tanah",
        "State": "Melaka"
    },
    {
        "Postcode": "78300",
        "Location": "Kampung Pulau",
        "Post_Office": "Masjid Tanah",
        "State": "Melaka"
    },
    {
        "Postcode": "78300",
        "Location": "Taman Permai",
        "Post_Office": "Masjid Tanah",
        "State": "Melaka"
    },
    {
        "Postcode": "78300",
        "Location": "Kampung Air Limau",
        "Post_Office": "Masjid Tanah",
        "State": "Melaka"
    },
    {
        "Postcode": "78300",
        "Location": "Kampung Ayer Hitam Pantai",
        "Post_Office": "Masjid Tanah",
        "State": "Melaka"
    },
    {
        "Postcode": "78300",
        "Location": "Kampung Balik Batu",
        "Post_Office": "Masjid Tanah",
        "State": "Melaka"
    },
    {
        "Postcode": "78300",
        "Location": "Kampung Hujung Padang",
        "Post_Office": "Masjid Tanah",
        "State": "Melaka"
    },
    {
        "Postcode": "78300",
        "Location": "Masjid Tanah (Pekan)",
        "Post_Office": "Masjid Tanah",
        "State": "Melaka"
    },
    {
        "Postcode": "78300",
        "Location": "Pengkalan Balak (Pekan)",
        "Post_Office": "Masjid Tanah",
        "State": "Melaka"
    },
    {
        "Postcode": "78300",
        "Location": "Ramuan China Besar (Pekan)",
        "Post_Office": "Masjid Tanah",
        "State": "Melaka"
    },
    {
        "Postcode": "78300",
        "Location": "Taman Thamby Chik Karim",
        "Post_Office": "Masjid Tanah",
        "State": "Melaka"
    },
    {
        "Postcode": "78300",
        "Location": "Taman Masjid Tanah Bahagia",
        "Post_Office": "Masjid Tanah",
        "State": "Melaka"
    },
    {
        "Postcode": "78300",
        "Location": "Ayer Hitam Hulu",
        "Post_Office": "Masjid Tanah",
        "State": "Melaka"
    },
    {
        "Postcode": "78300",
        "Location": "Ayer Hitam Tengah",
        "Post_Office": "Masjid Tanah",
        "State": "Melaka"
    },
    {
        "Postcode": "78300",
        "Location": "Ayer Punggai",
        "Post_Office": "Masjid Tanah",
        "State": "Melaka"
    },
    {
        "Postcode": "78300",
        "Location": "Felcra Ramuan China",
        "Post_Office": "Masjid Tanah",
        "State": "Melaka"
    },
    {
        "Postcode": "78300",
        "Location": "Felcra Ramuan China Kechil",
        "Post_Office": "Masjid Tanah",
        "State": "Melaka"
    },
    {
        "Postcode": "78300",
        "Location": "Hong Teng Estate",
        "Post_Office": "Masjid Tanah",
        "State": "Melaka"
    },
    {
        "Postcode": "78300",
        "Location": "Institut Kemahiran Belia Negara",
        "Post_Office": "Masjid Tanah",
        "State": "Melaka"
    },
    {
        "Postcode": "78300",
        "Location": "Jalan  Pulau Semut",
        "Post_Office": "Masjid Tanah",
        "State": "Melaka"
    },
    {
        "Postcode": "78300",
        "Location": "Jalan Ahmad Teriang",
        "Post_Office": "Masjid Tanah",
        "State": "Melaka"
    },
    {
        "Postcode": "78300",
        "Location": "Jalan Air Langsat",
        "Post_Office": "Masjid Tanah",
        "State": "Melaka"
    },
    {
        "Postcode": "78300",
        "Location": "Jalan Ampang Batu",
        "Post_Office": "Masjid Tanah",
        "State": "Melaka"
    },
    {
        "Postcode": "78300",
        "Location": "Jalan Ayer Limau",
        "Post_Office": "Masjid Tanah",
        "State": "Melaka"
    },
    {
        "Postcode": "78300",
        "Location": "Jalan Ayer Selamah",
        "Post_Office": "Masjid Tanah",
        "State": "Melaka"
    },
    {
        "Postcode": "78300",
        "Location": "Jalan Balik Batu",
        "Post_Office": "Masjid Tanah",
        "State": "Melaka"
    },
    {
        "Postcode": "78300",
        "Location": "Jalan Balik Hutan",
        "Post_Office": "Masjid Tanah",
        "State": "Melaka"
    },
    {
        "Postcode": "78300",
        "Location": "Jalan Bandar Baru",
        "Post_Office": "Masjid Tanah",
        "State": "Melaka"
    },
    {
        "Postcode": "78300",
        "Location": "Jalan Berisu",
        "Post_Office": "Masjid Tanah",
        "State": "Melaka"
    },
    {
        "Postcode": "78300",
        "Location": "Jalan Bilal Mamat",
        "Post_Office": "Masjid Tanah",
        "State": "Melaka"
    },
    {
        "Postcode": "78300",
        "Location": "Jalan Bukit Kepong",
        "Post_Office": "Masjid Tanah",
        "State": "Melaka"
    },
    {
        "Postcode": "78300",
        "Location": "Jalan Bukit Tinggi 1",
        "Post_Office": "Masjid Tanah",
        "State": "Melaka"
    },
    {
        "Postcode": "78300",
        "Location": "Jalan Bukit Tinggi 2",
        "Post_Office": "Masjid Tanah",
        "State": "Melaka"
    },
    {
        "Postcode": "78300",
        "Location": "Jalan Bunga Melor",
        "Post_Office": "Masjid Tanah",
        "State": "Melaka"
    },
    {
        "Postcode": "78300",
        "Location": "Jalan Dato Nelo",
        "Post_Office": "Masjid Tanah",
        "State": "Melaka"
    },
    {
        "Postcode": "78300",
        "Location": "Jalan Deli Awal",
        "Post_Office": "Masjid Tanah",
        "State": "Melaka"
    },
    {
        "Postcode": "78300",
        "Location": "Jalan Desa Permai",
        "Post_Office": "Masjid Tanah",
        "State": "Melaka"
    },
    {
        "Postcode": "78300",
        "Location": "Jalan Dol Hadi",
        "Post_Office": "Masjid Tanah",
        "State": "Melaka"
    },
    {
        "Postcode": "78300",
        "Location": "Jalan Fatimah Arip",
        "Post_Office": "Masjid Tanah",
        "State": "Melaka"
    },
    {
        "Postcode": "78300",
        "Location": "Jalan Haji Ali",
        "Post_Office": "Masjid Tanah",
        "State": "Melaka"
    },
    {
        "Postcode": "78300",
        "Location": "Jalan Haji Omar",
        "Post_Office": "Masjid Tanah",
        "State": "Melaka"
    },
    {
        "Postcode": "78300",
        "Location": "Jalan Hamid Osman",
        "Post_Office": "Masjid Tanah",
        "State": "Melaka"
    },
    {
        "Postcode": "78300",
        "Location": "Jalan Hujan Panas",
        "Post_Office": "Masjid Tanah",
        "State": "Melaka"
    },
    {
        "Postcode": "78300",
        "Location": "Jalan Imam Haji Kamarudin",
        "Post_Office": "Masjid Tanah",
        "State": "Melaka"
    },
    {
        "Postcode": "78300",
        "Location": "Jalan Imam Sohor",
        "Post_Office": "Masjid Tanah",
        "State": "Melaka"
    },
    {
        "Postcode": "78300",
        "Location": "Jalan Khairat",
        "Post_Office": "Masjid Tanah",
        "State": "Melaka"
    },
    {
        "Postcode": "78300",
        "Location": "Jalan Lebai Budin",
        "Post_Office": "Masjid Tanah",
        "State": "Melaka"
    },
    {
        "Postcode": "78300",
        "Location": "Jalan Maasim",
        "Post_Office": "Masjid Tanah",
        "State": "Melaka"
    },
    {
        "Postcode": "78300",
        "Location": "Jalan Pawang Tahir",
        "Post_Office": "Masjid Tanah",
        "State": "Melaka"
    },
    {
        "Postcode": "78300",
        "Location": "Jalan Paya Meranti",
        "Post_Office": "Masjid Tanah",
        "State": "Melaka"
    },
    {
        "Postcode": "78300",
        "Location": "Jalan Penghulu Arif",
        "Post_Office": "Masjid Tanah",
        "State": "Melaka"
    },
    {
        "Postcode": "78300",
        "Location": "Jalan Penghulu Manas",
        "Post_Office": "Masjid Tanah",
        "State": "Melaka"
    },
    {
        "Postcode": "78300",
        "Location": "Jalan Penghulu Said",
        "Post_Office": "Masjid Tanah",
        "State": "Melaka"
    },
    {
        "Postcode": "78300",
        "Location": "Jalan Pokok Tanjung",
        "Post_Office": "Masjid Tanah",
        "State": "Melaka"
    },
    {
        "Postcode": "78300",
        "Location": "Jalan Seberang Perai",
        "Post_Office": "Masjid Tanah",
        "State": "Melaka"
    },
    {
        "Postcode": "78300",
        "Location": "Jalan Sekolah Ghafar Baba",
        "Post_Office": "Masjid Tanah",
        "State": "Melaka"
    },
    {
        "Postcode": "78300",
        "Location": "Jalan Sekolah Lama",
        "Post_Office": "Masjid Tanah",
        "State": "Melaka"
    },
    {
        "Postcode": "78300",
        "Location": "Jalan Sekolah Sri Laksamana",
        "Post_Office": "Masjid Tanah",
        "State": "Melaka"
    },
    {
        "Postcode": "78300",
        "Location": "Jalan Sekolah Thamby Chik Karim",
        "Post_Office": "Masjid Tanah",
        "State": "Melaka"
    },
    {
        "Postcode": "78300",
        "Location": "Jalan Sidang Mat Karim",
        "Post_Office": "Masjid Tanah",
        "State": "Melaka"
    },
    {
        "Postcode": "78300",
        "Location": "Jalan Sidang Mat Karim Ani",
        "Post_Office": "Masjid Tanah",
        "State": "Melaka"
    },
    {
        "Postcode": "78300",
        "Location": "Jalan Sidang Othman",
        "Post_Office": "Masjid Tanah",
        "State": "Melaka"
    },
    {
        "Postcode": "78300",
        "Location": "Jalan Simat",
        "Post_Office": "Masjid Tanah",
        "State": "Melaka"
    },
    {
        "Postcode": "78300",
        "Location": "Jalan Solok Air Batu",
        "Post_Office": "Masjid Tanah",
        "State": "Melaka"
    },
    {
        "Postcode": "78300",
        "Location": "Jalan Solok Ayer Punggai",
        "Post_Office": "Masjid Tanah",
        "State": "Melaka"
    },
    {
        "Postcode": "78300",
        "Location": "Jalan Solok Chambang",
        "Post_Office": "Masjid Tanah",
        "State": "Melaka"
    },
    {
        "Postcode": "78300",
        "Location": "Jalan Solok Chuah",
        "Post_Office": "Masjid Tanah",
        "State": "Melaka"
    },
    {
        "Postcode": "78300",
        "Location": "Jalan Solok Imam Tahir",
        "Post_Office": "Masjid Tanah",
        "State": "Melaka"
    },
    {
        "Postcode": "78300",
        "Location": "Jalan Solok Kilang",
        "Post_Office": "Masjid Tanah",
        "State": "Melaka"
    },
    {
        "Postcode": "78300",
        "Location": "Jalan Solok Tok Budi",
        "Post_Office": "Masjid Tanah",
        "State": "Melaka"
    },
    {
        "Postcode": "78300",
        "Location": "Jalan Sri Tanjong",
        "Post_Office": "Masjid Tanah",
        "State": "Melaka"
    },
    {
        "Postcode": "78300",
        "Location": "Jalan Sri Terubok",
        "Post_Office": "Masjid Tanah",
        "State": "Melaka"
    },
    {
        "Postcode": "78300",
        "Location": "Jalan Talib Wahid",
        "Post_Office": "Masjid Tanah",
        "State": "Melaka"
    },
    {
        "Postcode": "78300",
        "Location": "Jalan Talip Hassan",
        "Post_Office": "Masjid Tanah",
        "State": "Melaka"
    },
    {
        "Postcode": "78300",
        "Location": "Jalan Thamby Chik Karim",
        "Post_Office": "Masjid Tanah",
        "State": "Melaka"
    },
    {
        "Postcode": "78300",
        "Location": "Jalan Tok Talib",
        "Post_Office": "Masjid Tanah",
        "State": "Melaka"
    },
    {
        "Postcode": "78300",
        "Location": "Jalan Tulang Daing",
        "Post_Office": "Masjid Tanah",
        "State": "Melaka"
    },
    {
        "Postcode": "78300",
        "Location": "Jalan Ulu Rantau",
        "Post_Office": "Masjid Tanah",
        "State": "Melaka"
    },
    {
        "Postcode": "78300",
        "Location": "Jalan Wakaf Baru",
        "Post_Office": "Masjid Tanah",
        "State": "Melaka"
    },
    {
        "Postcode": "78300",
        "Location": "Jalan Wakaf Lama",
        "Post_Office": "Masjid Tanah",
        "State": "Melaka"
    },
    {
        "Postcode": "78300",
        "Location": "Jalan Wira",
        "Post_Office": "Masjid Tanah",
        "State": "Melaka"
    },
    {
        "Postcode": "78300",
        "Location": "Kampung Ayer Limau Nipis",
        "Post_Office": "Masjid Tanah",
        "State": "Melaka"
    },
    {
        "Postcode": "78300",
        "Location": "Kampung Bukit Apit",
        "Post_Office": "Masjid Tanah",
        "State": "Melaka"
    },
    {
        "Postcode": "78300",
        "Location": "Kampung Bukit Beringin",
        "Post_Office": "Masjid Tanah",
        "State": "Melaka"
    },
    {
        "Postcode": "78300",
        "Location": "Kampung Durian Daun",
        "Post_Office": "Masjid Tanah",
        "State": "Melaka"
    },
    {
        "Postcode": "78300",
        "Location": "Kampung Jeram",
        "Post_Office": "Masjid Tanah",
        "State": "Melaka"
    },
    {
        "Postcode": "78300",
        "Location": "Kampung Lekok",
        "Post_Office": "Masjid Tanah",
        "State": "Melaka"
    },
    {
        "Postcode": "78300",
        "Location": "Kampung Londang",
        "Post_Office": "Masjid Tanah",
        "State": "Melaka"
    },
    {
        "Postcode": "78300",
        "Location": "Kampung Lorong Haji Karim",
        "Post_Office": "Masjid Tanah",
        "State": "Melaka"
    },
    {
        "Postcode": "78300",
        "Location": "Kampung Lubok Redan",
        "Post_Office": "Masjid Tanah",
        "State": "Melaka"
    },
    {
        "Postcode": "78300",
        "Location": "Kampung Masjid Tengah",
        "Post_Office": "Masjid Tanah",
        "State": "Melaka"
    },
    {
        "Postcode": "78300",
        "Location": "Kampung Padang Dekat",
        "Post_Office": "Masjid Tanah",
        "State": "Melaka"
    },
    {
        "Postcode": "78300",
        "Location": "Kampung Padang Kemunting",
        "Post_Office": "Masjid Tanah",
        "State": "Melaka"
    },
    {
        "Postcode": "78300",
        "Location": "Kampung Pasir Gembor",
        "Post_Office": "Masjid Tanah",
        "State": "Melaka"
    },
    {
        "Postcode": "78300",
        "Location": "Kampung Paya Keladi",
        "Post_Office": "Masjid Tanah",
        "State": "Melaka"
    },
    {
        "Postcode": "78300",
        "Location": "Kampung Paya Lebar",
        "Post_Office": "Masjid Tanah",
        "State": "Melaka"
    },
    {
        "Postcode": "78300",
        "Location": "Kampung Paya Mengkuang",
        "Post_Office": "Masjid Tanah",
        "State": "Melaka"
    },
    {
        "Postcode": "78300",
        "Location": "Kampung Paya Rumput Batu 19",
        "Post_Office": "Masjid Tanah",
        "State": "Melaka"
    },
    {
        "Postcode": "78300",
        "Location": "Kampung Pengkalan Balak",
        "Post_Office": "Masjid Tanah",
        "State": "Melaka"
    },
    {
        "Postcode": "78300",
        "Location": "Kampung Pinang",
        "Post_Office": "Masjid Tanah",
        "State": "Melaka"
    },
    {
        "Postcode": "78300",
        "Location": "Kampung Pulau Semut",
        "Post_Office": "Masjid Tanah",
        "State": "Melaka"
    },
    {
        "Postcode": "78300",
        "Location": "Kampung Ramuan China Besar",
        "Post_Office": "Masjid Tanah",
        "State": "Melaka"
    },
    {
        "Postcode": "78300",
        "Location": "Kampung Rantau Panjang",
        "Post_Office": "Masjid Tanah",
        "State": "Melaka"
    },
    {
        "Postcode": "78300",
        "Location": "Kampung Seri Tanjong",
        "Post_Office": "Masjid Tanah",
        "State": "Melaka"
    },
    {
        "Postcode": "78300",
        "Location": "Kampung Simpang Empat",
        "Post_Office": "Masjid Tanah",
        "State": "Melaka"
    },
    {
        "Postcode": "78300",
        "Location": "Kampung Solok Ayer Limau",
        "Post_Office": "Masjid Tanah",
        "State": "Melaka"
    },
    {
        "Postcode": "78300",
        "Location": "Kampung Solok Ayer Limau Nipis",
        "Post_Office": "Masjid Tanah",
        "State": "Melaka"
    },
    {
        "Postcode": "78300",
        "Location": "Kampung Solok Duku",
        "Post_Office": "Masjid Tanah",
        "State": "Melaka"
    },
    {
        "Postcode": "78300",
        "Location": "Kampung Solok Jauh",
        "Post_Office": "Masjid Tanah",
        "State": "Melaka"
    },
    {
        "Postcode": "78300",
        "Location": "Kampung Solok Ketong",
        "Post_Office": "Masjid Tanah",
        "State": "Melaka"
    },
    {
        "Postcode": "78300",
        "Location": "Kampung Solok Pak Rimau",
        "Post_Office": "Masjid Tanah",
        "State": "Melaka"
    },
    {
        "Postcode": "78300",
        "Location": "Kampung Solok Rimau",
        "Post_Office": "Masjid Tanah",
        "State": "Melaka"
    },
    {
        "Postcode": "78300",
        "Location": "Kampung Sri Jeram",
        "Post_Office": "Masjid Tanah",
        "State": "Melaka"
    },
    {
        "Postcode": "78300",
        "Location": "Kampung Sungai Kertah",
        "Post_Office": "Masjid Tanah",
        "State": "Melaka"
    },
    {
        "Postcode": "78300",
        "Location": "Kampung Sungai Tuang",
        "Post_Office": "Masjid Tanah",
        "State": "Melaka"
    },
    {
        "Postcode": "78300",
        "Location": "Kampung Tahir Kaya",
        "Post_Office": "Masjid Tanah",
        "State": "Melaka"
    },
    {
        "Postcode": "78300",
        "Location": "Kampung Tanjong Bidara",
        "Post_Office": "Masjid Tanah",
        "State": "Melaka"
    },
    {
        "Postcode": "78300",
        "Location": "Kawasan Perindustrian Pengkalan Balak",
        "Post_Office": "Masjid Tanah",
        "State": "Melaka"
    },
    {
        "Postcode": "78300",
        "Location": "Ladang Lian Heo",
        "Post_Office": "Masjid Tanah",
        "State": "Melaka"
    },
    {
        "Postcode": "78300",
        "Location": "Lorong Haji Bidin",
        "Post_Office": "Masjid Tanah",
        "State": "Melaka"
    },
    {
        "Postcode": "78300",
        "Location": "Lorong Haji Dol",
        "Post_Office": "Masjid Tanah",
        "State": "Melaka"
    },
    {
        "Postcode": "78300",
        "Location": "Lorong Haji Haron",
        "Post_Office": "Masjid Tanah",
        "State": "Melaka"
    },
    {
        "Postcode": "78300",
        "Location": "Lorong Haji Karim",
        "Post_Office": "Masjid Tanah",
        "State": "Melaka"
    },
    {
        "Postcode": "78300",
        "Location": "Lorong Haji Kechut",
        "Post_Office": "Masjid Tanah",
        "State": "Melaka"
    },
    {
        "Postcode": "78300",
        "Location": "Lorong Haji Md Din",
        "Post_Office": "Masjid Tanah",
        "State": "Melaka"
    },
    {
        "Postcode": "78300",
        "Location": "Lorong Haji Omar",
        "Post_Office": "Masjid Tanah",
        "State": "Melaka"
    },
    {
        "Postcode": "78300",
        "Location": "Lorong Haji Shamsudin",
        "Post_Office": "Masjid Tanah",
        "State": "Melaka"
    },
    {
        "Postcode": "78300",
        "Location": "Lorong Imam Mamat",
        "Post_Office": "Masjid Tanah",
        "State": "Melaka"
    },
    {
        "Postcode": "78300",
        "Location": "Lorong Kadi Haji Mahadi",
        "Post_Office": "Masjid Tanah",
        "State": "Melaka"
    },
    {
        "Postcode": "78300",
        "Location": "Padang Kemunting",
        "Post_Office": "Masjid Tanah",
        "State": "Melaka"
    },
    {
        "Postcode": "78300",
        "Location": "Perkampungan Baru Air Hitam Darat",
        "Post_Office": "Masjid Tanah",
        "State": "Melaka"
    },
    {
        "Postcode": "78300",
        "Location": "Permatang Hilir",
        "Post_Office": "Masjid Tanah",
        "State": "Melaka"
    },
    {
        "Postcode": "78300",
        "Location": "Permatang Tengah",
        "Post_Office": "Masjid Tanah",
        "State": "Melaka"
    },
    {
        "Postcode": "78300",
        "Location": "Rantau Panjang",
        "Post_Office": "Masjid Tanah",
        "State": "Melaka"
    },
    {
        "Postcode": "78300",
        "Location": "Rumah Awam Bukit Beringin",
        "Post_Office": "Masjid Tanah",
        "State": "Melaka"
    },
    {
        "Postcode": "78300",
        "Location": "Rumah Awam Lubok Redan",
        "Post_Office": "Masjid Tanah",
        "State": "Melaka"
    },
    {
        "Postcode": "78300",
        "Location": "Rumah Awam Paya Redan",
        "Post_Office": "Masjid Tanah",
        "State": "Melaka"
    },
    {
        "Postcode": "78300",
        "Location": "Rumah Awam Tanjung Bidara",
        "Post_Office": "Masjid Tanah",
        "State": "Melaka"
    },
    {
        "Postcode": "78300",
        "Location": "Solok Ayer Limau Nipis",
        "Post_Office": "Masjid Tanah",
        "State": "Melaka"
    },
    {
        "Postcode": "78300",
        "Location": "Solok Imam Kasim",
        "Post_Office": "Masjid Tanah",
        "State": "Melaka"
    },
    {
        "Postcode": "78300",
        "Location": "Solok Imam Tahir",
        "Post_Office": "Masjid Tanah",
        "State": "Melaka"
    },
    {
        "Postcode": "78300",
        "Location": "Solok Jeram",
        "Post_Office": "Masjid Tanah",
        "State": "Melaka"
    },
    {
        "Postcode": "78300",
        "Location": "Solok Katib Budin",
        "Post_Office": "Masjid Tanah",
        "State": "Melaka"
    },
    {
        "Postcode": "78300",
        "Location": "Solok Mangga",
        "Post_Office": "Masjid Tanah",
        "State": "Melaka"
    },
    {
        "Postcode": "78300",
        "Location": "Solok Paya Lebar 11",
        "Post_Office": "Masjid Tanah",
        "State": "Melaka"
    },
    {
        "Postcode": "78300",
        "Location": "Solok Paya Lebar Satu",
        "Post_Office": "Masjid Tanah",
        "State": "Melaka"
    },
    {
        "Postcode": "78300",
        "Location": "Solok Paya Rumput",
        "Post_Office": "Masjid Tanah",
        "State": "Melaka"
    },
    {
        "Postcode": "78300",
        "Location": "Solok Terubok",
        "Post_Office": "Masjid Tanah",
        "State": "Melaka"
    },
    {
        "Postcode": "78300",
        "Location": "Solok Tok Budi",
        "Post_Office": "Masjid Tanah",
        "State": "Melaka"
    },
    {
        "Postcode": "78300",
        "Location": "Solok Tulang Daing",
        "Post_Office": "Masjid Tanah",
        "State": "Melaka"
    },
    {
        "Postcode": "78300",
        "Location": "Sungai Baru Estate",
        "Post_Office": "Masjid Tanah",
        "State": "Melaka"
    },
    {
        "Postcode": "78300",
        "Location": "Taman Alias",
        "Post_Office": "Masjid Tanah",
        "State": "Melaka"
    },
    {
        "Postcode": "78300",
        "Location": "Taman Angklong",
        "Post_Office": "Masjid Tanah",
        "State": "Melaka"
    },
    {
        "Postcode": "78300",
        "Location": "Taman Bandar Baru",
        "Post_Office": "Masjid Tanah",
        "State": "Melaka"
    },
    {
        "Postcode": "78300",
        "Location": "Taman Bidara Indah",
        "Post_Office": "Masjid Tanah",
        "State": "Melaka"
    },
    {
        "Postcode": "78300",
        "Location": "Taman Bidara Jaya",
        "Post_Office": "Masjid Tanah",
        "State": "Melaka"
    },
    {
        "Postcode": "78300",
        "Location": "Taman Bidara Mekar",
        "Post_Office": "Masjid Tanah",
        "State": "Melaka"
    },
    {
        "Postcode": "78300",
        "Location": "Taman Bidara Palma",
        "Post_Office": "Masjid Tanah",
        "State": "Melaka"
    },
    {
        "Postcode": "78300",
        "Location": "Taman Bidara Permai",
        "Post_Office": "Masjid Tanah",
        "State": "Melaka"
    },
    {
        "Postcode": "78300",
        "Location": "Taman Bukit Indah",
        "Post_Office": "Masjid Tanah",
        "State": "Melaka"
    },
    {
        "Postcode": "78300",
        "Location": "Taman Cahaya Mas",
        "Post_Office": "Masjid Tanah",
        "State": "Melaka"
    },
    {
        "Postcode": "78300",
        "Location": "Taman Dato Setia",
        "Post_Office": "Masjid Tanah",
        "State": "Melaka"
    },
    {
        "Postcode": "78300",
        "Location": "Taman Idaman Jaya",
        "Post_Office": "Masjid Tanah",
        "State": "Melaka"
    },
    {
        "Postcode": "78300",
        "Location": "Taman Masjid Tanah",
        "Post_Office": "Masjid Tanah",
        "State": "Melaka"
    },
    {
        "Postcode": "78300",
        "Location": "Taman Masjid Tanah Ria",
        "Post_Office": "Masjid Tanah",
        "State": "Melaka"
    },
    {
        "Postcode": "78300",
        "Location": "Taman Paya Mengkuang",
        "Post_Office": "Masjid Tanah",
        "State": "Melaka"
    },
    {
        "Postcode": "78300",
        "Location": "Taman Paya Rumput",
        "Post_Office": "Masjid Tanah",
        "State": "Melaka"
    },
    {
        "Postcode": "78300",
        "Location": "Taman Pengkalan Balak",
        "Post_Office": "Masjid Tanah",
        "State": "Melaka"
    },
    {
        "Postcode": "78300",
        "Location": "Taman Seri Bidara",
        "Post_Office": "Masjid Tanah",
        "State": "Melaka"
    },
    {
        "Postcode": "78300",
        "Location": "Taman Seri Naga",
        "Post_Office": "Masjid Tanah",
        "State": "Melaka"
    },
    {
        "Postcode": "78300",
        "Location": "Taman Seri Redan",
        "Post_Office": "Masjid Tanah",
        "State": "Melaka"
    },
    {
        "Postcode": "78300",
        "Location": "Taman Sri Aman",
        "Post_Office": "Masjid Tanah",
        "State": "Melaka"
    },
    {
        "Postcode": "78300",
        "Location": "Taman Sungai Baru",
        "Post_Office": "Masjid Tanah",
        "State": "Melaka"
    },
    {
        "Postcode": "78300",
        "Location": "Taman Sungai Baru Indah",
        "Post_Office": "Masjid Tanah",
        "State": "Melaka"
    },
    {
        "Postcode": "78300",
        "Location": "Tanjung Bidara",
        "Post_Office": "Masjid Tanah",
        "State": "Melaka"
    },
    {
        "Postcode": "78300",
        "Location": "Tanjung Bidara Beach Resort",
        "Post_Office": "Masjid Tanah",
        "State": "Melaka"
    },
    {
        "Postcode": "78300",
        "Location": "Umr Estate",
        "Post_Office": "Masjid Tanah",
        "State": "Melaka"
    },
    {
        "Postcode": "78300",
        "Location": "Wakaf Baru",
        "Post_Office": "Masjid Tanah",
        "State": "Melaka"
    },
    {
        "Postcode": "78300",
        "Location": "Jalan Batu Putih 1",
        "Post_Office": "Masjid Tanah",
        "State": "Melaka"
    },
    {
        "Postcode": "78300",
        "Location": "Jalan Batu Putih 2",
        "Post_Office": "Masjid Tanah",
        "State": "Melaka"
    },
    {
        "Postcode": "78300",
        "Location": "Taman Desa Bayu 1",
        "Post_Office": "Masjid Tanah",
        "State": "Melaka"
    },
    {
        "Postcode": "78300",
        "Location": "Taman Desa Bayu 2",
        "Post_Office": "Masjid Tanah",
        "State": "Melaka"
    }
]
