[
    {
        "Postcode": "68000",
        "Location": "Dataran Ukay",
        "Post_Office": "Ampang",
        "State": "Selangor"
    },
    {
        "Postcode": "68000",
        "Location": "Jalan Ulu Kelang",
        "Post_Office": "Ampang",
        "State": "Selangor"
    },
    {
        "Postcode": "68000",
        "Location": "Kampung Lembah Jaya Utara",
        "Post_Office": "Ampang",
        "State": "Selangor"
    },
    {
        "Postcode": "68000",
        "Location": "Kampung Sri Ampang",
        "Post_Office": "Ampang",
        "State": "Selangor"
    },
    {
        "Postcode": "68000",
        "Location": "Kampung Sri Melor",
        "Post_Office": "Ampang",
        "State": "Selangor"
    },
    {
        "Postcode": "68000",
        "Location": "Kampung Tasek Permai",
        "Post_Office": "Ampang",
        "State": "Selangor"
    },
    {
        "Postcode": "68000",
        "Location": "Kampung Tasik Tambahan",
        "Post_Office": "Ampang",
        "State": "Selangor"
    },
    {
        "Postcode": "68000",
        "Location": "Kampung Tengah",
        "Post_Office": "Ampang",
        "State": "Selangor"
    },
    {
        "Postcode": "68000",
        "Location": "Pangsapuri Sri Mutiara",
        "Post_Office": "Ampang",
        "State": "Selangor"
    },
    {
        "Postcode": "68000",
        "Location": "Rumah Pangsa Dahlia",
        "Post_Office": "Ampang",
        "State": "Selangor"
    },
    {
        "Postcode": "68000",
        "Location": "Taman Sri Ampang",
        "Post_Office": "Ampang",
        "State": "Selangor"
    },
    {
        "Postcode": "68000",
        "Location": "Taman Sri Intan",
        "Post_Office": "Ampang",
        "State": "Selangor"
    },
    {
        "Postcode": "68000",
        "Location": "Taman Sri Raya",
        "Post_Office": "Ampang",
        "State": "Selangor"
    },
    {
        "Postcode": "68000",
        "Location": "Taman Sri Ukay",
        "Post_Office": "Ampang",
        "State": "Selangor"
    },
    {
        "Postcode": "68000",
        "Location": "Taman Sri Watan",
        "Post_Office": "Ampang",
        "State": "Selangor"
    },
    {
        "Postcode": "68000",
        "Location": "Ulu Kelang",
        "Post_Office": "Ampang",
        "State": "Selangor"
    },
    {
        "Postcode": "68000",
        "Location": "Kampung Ampang Campuran",
        "Post_Office": "Ampang",
        "State": "Selangor"
    },
    {
        "Postcode": "68000",
        "Location": "Kampung Ampang Indah",
        "Post_Office": "Ampang",
        "State": "Selangor"
    },
    {
        "Postcode": "68000",
        "Location": "Kampung Baru Ampang Tambahan",
        "Post_Office": "Ampang",
        "State": "Selangor"
    },
    {
        "Postcode": "68000",
        "Location": "Kampung Indah Permai",
        "Post_Office": "Ampang",
        "State": "Selangor"
    },
    {
        "Postcode": "68000",
        "Location": "Kampung Kemensah",
        "Post_Office": "Ampang",
        "State": "Selangor"
    },
    {
        "Postcode": "68000",
        "Location": "Kampung Lembah Jaya Timur",
        "Post_Office": "Ampang",
        "State": "Selangor"
    },
    {
        "Postcode": "68000",
        "Location": "Kampung Melayu Ampang",
        "Post_Office": "Ampang",
        "State": "Selangor"
    },
    {
        "Postcode": "68000",
        "Location": "Kampung Sri Taman Baru",
        "Post_Office": "Ampang",
        "State": "Selangor"
    },
    {
        "Postcode": "68000",
        "Location": "Merdeka Ria Industrial Park",
        "Post_Office": "Ampang",
        "State": "Selangor"
    },
    {
        "Postcode": "68000",
        "Location": "Taman Ampang Hilir",
        "Post_Office": "Ampang",
        "State": "Selangor"
    },
    {
        "Postcode": "68000",
        "Location": "Taman Andaman Ukay",
        "Post_Office": "Ampang",
        "State": "Selangor"
    },
    {
        "Postcode": "68000",
        "Location": "Taman Bukit Jobina",
        "Post_Office": "Ampang",
        "State": "Selangor"
    },
    {
        "Postcode": "68000",
        "Location": "Taman Bukit Mulia",
        "Post_Office": "Ampang",
        "State": "Selangor"
    },
    {
        "Postcode": "68000",
        "Location": "Taman Desa Haras",
        "Post_Office": "Ampang",
        "State": "Selangor"
    },
    {
        "Postcode": "68000",
        "Location": "Taman D'Suria",
        "Post_Office": "Ampang",
        "State": "Selangor"
    },
    {
        "Postcode": "68000",
        "Location": "Taman Industri Lembah Jaya",
        "Post_Office": "Ampang",
        "State": "Selangor"
    },
    {
        "Postcode": "68000",
        "Location": "Taman Lembah Ttdi",
        "Post_Office": "Ampang",
        "State": "Selangor"
    },
    {
        "Postcode": "68000",
        "Location": "Taman Permai Jaya",
        "Post_Office": "Ampang",
        "State": "Selangor"
    },
    {
        "Postcode": "68000",
        "Location": "Taman Saga",
        "Post_Office": "Ampang",
        "State": "Selangor"
    },
    {
        "Postcode": "68000",
        "Location": "Taman Sierra Ukay",
        "Post_Office": "Ampang",
        "State": "Selangor"
    },
    {
        "Postcode": "68000",
        "Location": "Taman Tasik Permai",
        "Post_Office": "Ampang",
        "State": "Selangor"
    },
    {
        "Postcode": "68000",
        "Location": "Taman Tasik Tambahan",
        "Post_Office": "Ampang",
        "State": "Selangor"
    },
    {
        "Postcode": "68000",
        "Location": "Taman Ukay Tropika",
        "Post_Office": "Ampang",
        "State": "Selangor"
    },
    {
        "Postcode": "68000",
        "Location": "Persiaran Cahaya 1",
        "Post_Office": "Ampang",
        "State": "Selangor"
    },
    {
        "Postcode": "68000",
        "Location": "Jalan Dagang 12",
        "Post_Office": "Ampang",
        "State": "Selangor"
    },
    {
        "Postcode": "68000",
        "Location": "Pusat Yayasan Autorr",
        "Post_Office": "Ampang",
        "State": "Selangor"
    },
    {
        "Postcode": "68000",
        "Location": "Jalan Anggerik",
        "Post_Office": "Ampang",
        "State": "Selangor"
    },
    {
        "Postcode": "68000",
        "Location": "Axis Atrium",
        "Post_Office": "Ampang",
        "State": "Selangor"
    },
    {
        "Postcode": "68000",
        "Location": "Jalan Cempaka",
        "Post_Office": "Ampang",
        "State": "Selangor"
    },
    {
        "Postcode": "68000",
        "Location": "Pangsapuri Axis Crown",
        "Post_Office": "Ampang",
        "State": "Selangor"
    },
    {
        "Postcode": "68000",
        "Location": "Pangsapuri Axis Residences",
        "Post_Office": "Ampang",
        "State": "Selangor"
    },
    {
        "Postcode": "68000",
        "Location": "Jalan Beverly Heights (2,5)",
        "Post_Office": "Ampang",
        "State": "Selangor"
    },
    {
        "Postcode": "68000",
        "Location": "Jalan Bayu Kemensah 1",
        "Post_Office": "Ampang",
        "State": "Selangor"
    },
    {
        "Postcode": "68000",
        "Location": "Taman Bayu Kemensah",
        "Post_Office": "Ampang",
        "State": "Selangor"
    },
    {
        "Postcode": "68000",
        "Location": "Bukit Palma Kemensah",
        "Post_Office": "Ampang",
        "State": "Selangor"
    },
    {
        "Postcode": "68000",
        "Location": "Jalan Palma 1D",
        "Post_Office": "Ampang",
        "State": "Selangor"
    },
    {
        "Postcode": "68000",
        "Location": "Jalan Dagang Permai 4",
        "Post_Office": "Ampang",
        "State": "Selangor"
    },
    {
        "Postcode": "68000",
        "Location": "Taman Dagang Permai",
        "Post_Office": "Ampang",
        "State": "Selangor"
    },
    {
        "Postcode": "68000",
        "Location": "Jalan Nirwana",
        "Post_Office": "Ampang",
        "State": "Selangor"
    },
    {
        "Postcode": "68000",
        "Location": "Ampang",
        "Post_Office": "Ampang",
        "State": "Selangor"
    },
    {
        "Postcode": "68000",
        "Location": "Ampang Baru",
        "Post_Office": "Ampang",
        "State": "Selangor"
    },
    {
        "Postcode": "68000",
        "Location": "Ampang Jaya",
        "Post_Office": "Ampang",
        "State": "Selangor"
    },
    {
        "Postcode": "68000",
        "Location": "Ampang Lama",
        "Post_Office": "Ampang",
        "State": "Selangor"
    },
    {
        "Postcode": "68000",
        "Location": "Ampang Point",
        "Post_Office": "Ampang",
        "State": "Selangor"
    },
    {
        "Postcode": "68000",
        "Location": "Ampang Prima Condominium",
        "Post_Office": "Ampang",
        "State": "Selangor"
    },
    {
        "Postcode": "68000",
        "Location": "Ampang Utama",
        "Post_Office": "Ampang",
        "State": "Selangor"
    },
    {
        "Postcode": "68000",
        "Location": "Ampang Water Front",
        "Post_Office": "Ampang",
        "State": "Selangor"
    },
    {
        "Postcode": "68000",
        "Location": "Avenue Ampang",
        "Post_Office": "Ampang",
        "State": "Selangor"
    },
    {
        "Postcode": "68000",
        "Location": "Bandar Baru Ampang",
        "Post_Office": "Ampang",
        "State": "Selangor"
    },
    {
        "Postcode": "68000",
        "Location": "Beverly Heights",
        "Post_Office": "Ampang",
        "State": "Selangor"
    },
    {
        "Postcode": "68000",
        "Location": "Bukit Ampang Permai",
        "Post_Office": "Ampang",
        "State": "Selangor"
    },
    {
        "Postcode": "68000",
        "Location": "Bukit Antarabangsa",
        "Post_Office": "Ampang",
        "State": "Selangor"
    },
    {
        "Postcode": "68000",
        "Location": "Bukit Belachan",
        "Post_Office": "Ampang",
        "State": "Selangor"
    },
    {
        "Postcode": "68000",
        "Location": "Bukit Indah",
        "Post_Office": "Ampang",
        "State": "Selangor"
    },
    {
        "Postcode": "68000",
        "Location": "Bukit Kemensah Indah",
        "Post_Office": "Ampang",
        "State": "Selangor"
    },
    {
        "Postcode": "68000",
        "Location": "Desa 288",
        "Post_Office": "Ampang",
        "State": "Selangor"
    },
    {
        "Postcode": "68000",
        "Location": "Desa Lembah Permai",
        "Post_Office": "Ampang",
        "State": "Selangor"
    },
    {
        "Postcode": "68000",
        "Location": "Desa Teratai",
        "Post_Office": "Ampang",
        "State": "Selangor"
    },
    {
        "Postcode": "68000",
        "Location": "Goodview Estate",
        "Post_Office": "Ampang",
        "State": "Selangor"
    },
    {
        "Postcode": "68000",
        "Location": "Hillside Estate",
        "Post_Office": "Ampang",
        "State": "Selangor"
    },
    {
        "Postcode": "68000",
        "Location": "Hillview Estate",
        "Post_Office": "Ampang",
        "State": "Selangor"
    },
    {
        "Postcode": "68000",
        "Location": "Jalan 13D Desa Permai",
        "Post_Office": "Ampang",
        "State": "Selangor"
    },
    {
        "Postcode": "68000",
        "Location": "Jalan 3A Batu 6",
        "Post_Office": "Ampang",
        "State": "Selangor"
    },
    {
        "Postcode": "68000",
        "Location": "Jalan 8/2",
        "Post_Office": "Ampang",
        "State": "Selangor"
    },
    {
        "Postcode": "68000",
        "Location": "Jalan Air Bukit",
        "Post_Office": "Ampang",
        "State": "Selangor"
    },
    {
        "Postcode": "68000",
        "Location": "Jalan Ampang (Km 7 Ke Atas)",
        "Post_Office": "Ampang",
        "State": "Selangor"
    },
    {
        "Postcode": "68000",
        "Location": "Jalan Besar Ampang",
        "Post_Office": "Ampang",
        "State": "Selangor"
    },
    {
        "Postcode": "68000",
        "Location": "Jalan Bu 2/1 Laman Oakleaf",
        "Post_Office": "Ampang",
        "State": "Selangor"
    },
    {
        "Postcode": "68000",
        "Location": "Jalan Dagang",
        "Post_Office": "Ampang",
        "State": "Selangor"
    },
    {
        "Postcode": "68000",
        "Location": "Jalan Dravidan",
        "Post_Office": "Ampang",
        "State": "Selangor"
    },
    {
        "Postcode": "68000",
        "Location": "Jalan Lingkaran Tengah 2",
        "Post_Office": "Ampang",
        "State": "Selangor"
    },
    {
        "Postcode": "68000",
        "Location": "Jalan Mewah 2",
        "Post_Office": "Ampang",
        "State": "Selangor"
    },
    {
        "Postcode": "68000",
        "Location": "Jalan Pandan Cahaya 1/2",
        "Post_Office": "Ampang",
        "State": "Selangor"
    },
    {
        "Postcode": "68000",
        "Location": "Jalan Permai M",
        "Post_Office": "Ampang",
        "State": "Selangor"
    },
    {
        "Postcode": "68000",
        "Location": "Jalan Permai M1",
        "Post_Office": "Ampang",
        "State": "Selangor"
    },
    {
        "Postcode": "68000",
        "Location": "Jalan Puncak Bukit Indah 1",
        "Post_Office": "Ampang",
        "State": "Selangor"
    },
    {
        "Postcode": "68000",
        "Location": "Jalan Puncak Bukit Indah 2",
        "Post_Office": "Ampang",
        "State": "Selangor"
    },
    {
        "Postcode": "68000",
        "Location": "Jalan Putra",
        "Post_Office": "Ampang",
        "State": "Selangor"
    },
    {
        "Postcode": "68000",
        "Location": "Jalan Tebrau",
        "Post_Office": "Ampang",
        "State": "Selangor"
    },
    {
        "Postcode": "68000",
        "Location": "Jalan Wangsa 5A",
        "Post_Office": "Ampang",
        "State": "Selangor"
    },
    {
        "Postcode": "68000",
        "Location": "Jalan Wawasan Ampang 2/5",
        "Post_Office": "Ampang",
        "State": "Selangor"
    },
    {
        "Postcode": "68000",
        "Location": "Kampung Aman (Ampang)",
        "Post_Office": "Ampang",
        "State": "Selangor"
    },
    {
        "Postcode": "68000",
        "Location": "Kampung Ampang",
        "Post_Office": "Ampang",
        "State": "Selangor"
    },
    {
        "Postcode": "68000",
        "Location": "Kampung Ampang Raya",
        "Post_Office": "Ampang",
        "State": "Selangor"
    },
    {
        "Postcode": "68000",
        "Location": "Kampung Bahagia",
        "Post_Office": "Ampang",
        "State": "Selangor"
    },
    {
        "Postcode": "68000",
        "Location": "Kampung Baru Ampang",
        "Post_Office": "Ampang",
        "State": "Selangor"
    },
    {
        "Postcode": "68000",
        "Location": "Kampung Baru Melayu",
        "Post_Office": "Ampang",
        "State": "Selangor"
    },
    {
        "Postcode": "68000",
        "Location": "Kampung Baru Ulu Kelang",
        "Post_Office": "Ampang",
        "State": "Selangor"
    },
    {
        "Postcode": "68000",
        "Location": "Kampung Bukit Jobina",
        "Post_Office": "Ampang",
        "State": "Selangor"
    },
    {
        "Postcode": "68000",
        "Location": "Kampung Bukit Seputih",
        "Post_Office": "Ampang",
        "State": "Selangor"
    },
    {
        "Postcode": "68000",
        "Location": "Kampung Dagang",
        "Post_Office": "Ampang",
        "State": "Selangor"
    },
    {
        "Postcode": "68000",
        "Location": "Kampung Indah",
        "Post_Office": "Ampang",
        "State": "Selangor"
    },
    {
        "Postcode": "68000",
        "Location": "Kampung Kemansah",
        "Post_Office": "Ampang",
        "State": "Selangor"
    },
    {
        "Postcode": "68000",
        "Location": "Kampung Lembah Jaya",
        "Post_Office": "Ampang",
        "State": "Selangor"
    },
    {
        "Postcode": "68000",
        "Location": "Kampung Lembah Jaya Selatan",
        "Post_Office": "Ampang",
        "State": "Selangor"
    },
    {
        "Postcode": "68000",
        "Location": "Kampung Muhibbah",
        "Post_Office": "Ampang",
        "State": "Selangor"
    },
    {
        "Postcode": "68000",
        "Location": "Kampung Pinggir",
        "Post_Office": "Ampang",
        "State": "Selangor"
    },
    {
        "Postcode": "68000",
        "Location": "Kampung Pinggiran 3",
        "Post_Office": "Ampang",
        "State": "Selangor"
    },
    {
        "Postcode": "68000",
        "Location": "Kampung Seri Tanjung",
        "Post_Office": "Ampang",
        "State": "Selangor"
    },
    {
        "Postcode": "68000",
        "Location": "Kampung Sungai Putih (Desa Datok Mufti)",
        "Post_Office": "Ampang",
        "State": "Selangor"
    },
    {
        "Postcode": "68000",
        "Location": "Kampung Tasek",
        "Post_Office": "Ampang",
        "State": "Selangor"
    },
    {
        "Postcode": "68000",
        "Location": "Kampung Tasek Campuran",
        "Post_Office": "Ampang",
        "State": "Selangor"
    },
    {
        "Postcode": "68000",
        "Location": "Kemensah Heights",
        "Post_Office": "Ampang",
        "State": "Selangor"
    },
    {
        "Postcode": "68000",
        "Location": "Kemensah Mewah",
        "Post_Office": "Ampang",
        "State": "Selangor"
    },
    {
        "Postcode": "68000",
        "Location": "Lembah Jaya Selatan",
        "Post_Office": "Ampang",
        "State": "Selangor"
    },
    {
        "Postcode": "68000",
        "Location": "Lorong Wangsa 1",
        "Post_Office": "Ampang",
        "State": "Selangor"
    },
    {
        "Postcode": "68000",
        "Location": "Medan Ampang",
        "Post_Office": "Ampang",
        "State": "Selangor"
    },
    {
        "Postcode": "68000",
        "Location": "Pandan Cahaya",
        "Post_Office": "Ampang",
        "State": "Selangor"
    },
    {
        "Postcode": "68000",
        "Location": "Pandan Utama 2",
        "Post_Office": "Ampang",
        "State": "Selangor"
    },
    {
        "Postcode": "68000",
        "Location": "Permai Court - 2",
        "Post_Office": "Ampang",
        "State": "Selangor"
    },
    {
        "Postcode": "68000",
        "Location": "Permai Ria",
        "Post_Office": "Ampang",
        "State": "Selangor"
    },
    {
        "Postcode": "68000",
        "Location": "Permai Villa",
        "Post_Office": "Ampang",
        "State": "Selangor"
    },
    {
        "Postcode": "68000",
        "Location": "Persiaran Sering Ukay 1",
        "Post_Office": "Ampang",
        "State": "Selangor"
    },
    {
        "Postcode": "68000",
        "Location": "Pinggiran Ukay",
        "Post_Office": "Ampang",
        "State": "Selangor"
    },
    {
        "Postcode": "68000",
        "Location": "Residensi Bistaria",
        "Post_Office": "Ampang",
        "State": "Selangor"
    },
    {
        "Postcode": "68000",
        "Location": "Riverdale Park",
        "Post_Office": "Ampang",
        "State": "Selangor"
    },
    {
        "Postcode": "68000",
        "Location": "Sering Ukay",
        "Post_Office": "Ampang",
        "State": "Selangor"
    },
    {
        "Postcode": "68000",
        "Location": "Siarah Oakleaf Bukit Antarabangsa",
        "Post_Office": "Ampang",
        "State": "Selangor"
    },
    {
        "Postcode": "68000",
        "Location": "Sri Pinang Villa",
        "Post_Office": "Ampang",
        "State": "Selangor"
    },
    {
        "Postcode": "68000",
        "Location": "Taman Al-Ridzuan",
        "Post_Office": "Ampang",
        "State": "Selangor"
    },
    {
        "Postcode": "68000",
        "Location": "Taman Ampang Maju",
        "Post_Office": "Ampang",
        "State": "Selangor"
    },
    {
        "Postcode": "68000",
        "Location": "Taman Ampang Mewah",
        "Post_Office": "Ampang",
        "State": "Selangor"
    },
    {
        "Postcode": "68000",
        "Location": "Taman Ampang Prima",
        "Post_Office": "Ampang",
        "State": "Selangor"
    },
    {
        "Postcode": "68000",
        "Location": "Taman Ampang Utama",
        "Post_Office": "Ampang",
        "State": "Selangor"
    },
    {
        "Postcode": "68000",
        "Location": "Taman Bukit Ampang",
        "Post_Office": "Ampang",
        "State": "Selangor"
    },
    {
        "Postcode": "68000",
        "Location": "Taman Bukit Jaya",
        "Post_Office": "Ampang",
        "State": "Selangor"
    },
    {
        "Postcode": "68000",
        "Location": "Taman Bukit Mewah",
        "Post_Office": "Ampang",
        "State": "Selangor"
    },
    {
        "Postcode": "68000",
        "Location": "Taman Bukit Utama",
        "Post_Office": "Ampang",
        "State": "Selangor"
    },
    {
        "Postcode": "68000",
        "Location": "Taman Cahaya",
        "Post_Office": "Ampang",
        "State": "Selangor"
    },
    {
        "Postcode": "68000",
        "Location": "Taman Cahaya Indah",
        "Post_Office": "Ampang",
        "State": "Selangor"
    },
    {
        "Postcode": "68000",
        "Location": "Taman Cahaya Suria",
        "Post_Office": "Ampang",
        "State": "Selangor"
    },
    {
        "Postcode": "68000",
        "Location": "Taman Dagang",
        "Post_Office": "Ampang",
        "State": "Selangor"
    },
    {
        "Postcode": "68000",
        "Location": "Taman Dagang Jaya",
        "Post_Office": "Ampang",
        "State": "Selangor"
    },
    {
        "Postcode": "68000",
        "Location": "Taman Dato Ahmad Razali",
        "Post_Office": "Ampang",
        "State": "Selangor"
    },
    {
        "Postcode": "68000",
        "Location": "Taman Fairuza",
        "Post_Office": "Ampang",
        "State": "Selangor"
    },
    {
        "Postcode": "68000",
        "Location": "Taman Grand View",
        "Post_Office": "Ampang",
        "State": "Selangor"
    },
    {
        "Postcode": "68000",
        "Location": "Taman D'Suria Ampang",
        "Post_Office": "Ampang",
        "State": "Selangor"
    },
    {
        "Postcode": "68000",
        "Location": "Taman Tijani Ukay",
        "Post_Office": "Ampang",
        "State": "Selangor"
    },
    {
        "Postcode": "68000",
        "Location": "Residensi Debunga ",
        "Post_Office": "Ampang",
        "State": "Selangor"
    },
    {
        "Postcode": "68000",
        "Location": "Persiaran Ampang Ukay",
        "Post_Office": "Ampang",
        "State": "Selangor"
    },
    {
        "Postcode": "68000",
        "Location": "Kampung Dato Mufti Shuib",
        "Post_Office": "Ampang",
        "State": "Selangor"
    },
    {
        "Postcode": "68000",
        "Location": "Jalan Andaman Utama ",
        "Post_Office": "Ampang",
        "State": "Selangor"
    },
    {
        "Postcode": "68000",
        "Location": "Taman Hillview",
        "Post_Office": "Ampang",
        "State": "Selangor"
    },
    {
        "Postcode": "68000",
        "Location": "Taman Melur",
        "Post_Office": "Ampang",
        "State": "Selangor"
    },
    {
        "Postcode": "68000",
        "Location": "Taman Nusa Tropika",
        "Post_Office": "Ampang",
        "State": "Selangor"
    },
    {
        "Postcode": "68000",
        "Location": "Taman Perwira Dua",
        "Post_Office": "Ampang",
        "State": "Selangor"
    },
    {
        "Postcode": "68000",
        "Location": "Taman Wangsa Ukay",
        "Post_Office": "Ampang",
        "State": "Selangor"
    },
    {
        "Postcode": "68000",
        "Location": "Taman Halaman",
        "Post_Office": "Ampang",
        "State": "Selangor"
    },
    {
        "Postcode": "68000",
        "Location": "Taman Jobena",
        "Post_Office": "Ampang",
        "State": "Selangor"
    },
    {
        "Postcode": "68000",
        "Location": "Taman Kelab Ukay",
        "Post_Office": "Ampang",
        "State": "Selangor"
    },
    {
        "Postcode": "68000",
        "Location": "Taman Kesuma",
        "Post_Office": "Ampang",
        "State": "Selangor"
    },
    {
        "Postcode": "68000",
        "Location": "Taman Kosas",
        "Post_Office": "Ampang",
        "State": "Selangor"
    },
    {
        "Postcode": "68000",
        "Location": "Taman Mewah",
        "Post_Office": "Ampang",
        "State": "Selangor"
    },
    {
        "Postcode": "68000",
        "Location": "Taman Mulia Jaya",
        "Post_Office": "Ampang",
        "State": "Selangor"
    },
    {
        "Postcode": "68000",
        "Location": "Taman Nirwana",
        "Post_Office": "Ampang",
        "State": "Selangor"
    },
    {
        "Postcode": "68000",
        "Location": "Taman Pandan Mesra",
        "Post_Office": "Ampang",
        "State": "Selangor"
    },
    {
        "Postcode": "68000",
        "Location": "Taman Pandan Mewah",
        "Post_Office": "Ampang",
        "State": "Selangor"
    },
    {
        "Postcode": "68000",
        "Location": "Taman Pinggiran Ukay",
        "Post_Office": "Ampang",
        "State": "Selangor"
    },
    {
        "Postcode": "68000",
        "Location": "Taman Puncak Bukit Utama",
        "Post_Office": "Ampang",
        "State": "Selangor"
    },
    {
        "Postcode": "68000",
        "Location": "Taman Putra",
        "Post_Office": "Ampang",
        "State": "Selangor"
    },
    {
        "Postcode": "68000",
        "Location": "Taman Putra Sulaiman",
        "Post_Office": "Ampang",
        "State": "Selangor"
    },
    {
        "Postcode": "68000",
        "Location": "Taman Rasmi Jaya",
        "Post_Office": "Ampang",
        "State": "Selangor"
    },
    {
        "Postcode": "68000",
        "Location": "Taman Riana Ukay",
        "Post_Office": "Ampang",
        "State": "Selangor"
    },
    {
        "Postcode": "68000",
        "Location": "Taman Saza",
        "Post_Office": "Ampang",
        "State": "Selangor"
    },
    {
        "Postcode": "68000",
        "Location": "Taman Seri Merdeka",
        "Post_Office": "Ampang",
        "State": "Selangor"
    },
    {
        "Postcode": "68000",
        "Location": "Taman Tasik Rimba",
        "Post_Office": "Ampang",
        "State": "Selangor"
    },
    {
        "Postcode": "68000",
        "Location": "Taman Tiara Kemensah Rimba",
        "Post_Office": "Ampang",
        "State": "Selangor"
    },
    {
        "Postcode": "68000",
        "Location": "Taman Tun Abdul Razak",
        "Post_Office": "Ampang",
        "State": "Selangor"
    },
    {
        "Postcode": "68000",
        "Location": "Taman Tun Razak",
        "Post_Office": "Ampang",
        "State": "Selangor"
    },
    {
        "Postcode": "68000",
        "Location": "Taman Uda Jaya",
        "Post_Office": "Ampang",
        "State": "Selangor"
    },
    {
        "Postcode": "68000",
        "Location": "Taman Ukay",
        "Post_Office": "Ampang",
        "State": "Selangor"
    },
    {
        "Postcode": "68000",
        "Location": "Taman Ukay Bistari",
        "Post_Office": "Ampang",
        "State": "Selangor"
    },
    {
        "Postcode": "68000",
        "Location": "Taman Ukay Perdana",
        "Post_Office": "Ampang",
        "State": "Selangor"
    },
    {
        "Postcode": "68000",
        "Location": "Taman Wawasan",
        "Post_Office": "Ampang",
        "State": "Selangor"
    },
    {
        "Postcode": "68000",
        "Location": "Taman Zoo View",
        "Post_Office": "Ampang",
        "State": "Selangor"
    },
    {
        "Postcode": "68000",
        "Location": "Tropika Kemensah",
        "Post_Office": "Ampang",
        "State": "Selangor"
    },
    {
        "Postcode": "68000",
        "Location": "Ukay Boulevard",
        "Post_Office": "Ampang",
        "State": "Selangor"
    },
    {
        "Postcode": "68000",
        "Location": "Ukay Heights",
        "Post_Office": "Ampang",
        "State": "Selangor"
    },
    {
        "Postcode": "68000",
        "Location": "Ukay Perdana",
        "Post_Office": "Ampang",
        "State": "Selangor"
    },
    {
        "Postcode": "68000",
        "Location": "Wangsa Heights",
        "Post_Office": "Ampang",
        "State": "Selangor"
    },
    {
        "Postcode": "68000",
        "Location": "Zoo Negara",
        "Post_Office": "Ampang",
        "State": "Selangor"
    },
    {
        "Postcode": "68000",
        "Location": "Zoo View Estate",
        "Post_Office": "Ampang",
        "State": "Selangor"
    },
    {
        "Postcode": "68000",
        "Location": "Taman Bakti",
        "Post_Office": "Ampang",
        "State": "Selangor"
    },
    {
        "Postcode": "68000",
        "Location": "Taman Cempaka",
        "Post_Office": "Ampang",
        "State": "Selangor"
    },
    {
        "Postcode": "68000",
        "Location": "Taman Indah Jaya",
        "Post_Office": "Ampang",
        "State": "Selangor"
    },
    {
        "Postcode": "68000",
        "Location": "Kampung Pasir ",
        "Post_Office": "Ampang",
        "State": "Selangor"
    },
    {
        "Postcode": "68000",
        "Location": "Taman Bukit Indah",
        "Post_Office": "Ampang",
        "State": "Selangor"
    },
    {
        "Postcode": "68000",
        "Location": "Taman Hijau",
        "Post_Office": "Ampang",
        "State": "Selangor"
    },
    {
        "Postcode": "68000",
        "Location": "Taman Sri Bayu",
        "Post_Office": "Ampang",
        "State": "Selangor"
    },
    {
        "Postcode": "68000",
        "Location": "Bukit Alam Ukay",
        "Post_Office": "Ampang",
        "State": "Selangor"
    },
    {
        "Postcode": "68000",
        "Location": "Jalan Alam Ukay 1",
        "Post_Office": "Ampang",
        "State": "Selangor"
    },
    {
        "Postcode": "68000",
        "Location": "Jalan Saujana 19",
        "Post_Office": "Ampang",
        "State": "Selangor"
    },
    {
        "Postcode": "68000",
        "Location": "Taman Ampang Saujana",
        "Post_Office": "Ampang",
        "State": "Selangor"
    },
    {
        "Postcode": "68000",
        "Location": "Persiaran Kayangan Kemensah",
        "Post_Office": "Ampang",
        "State": "Selangor"
    },
    {
        "Postcode": "68000",
        "Location": "Puncak Kayangan Kemensah",
        "Post_Office": "Ampang",
        "State": "Selangor"
    },
    {
        "Postcode": "68000",
        "Location": "Jalan Ukay Seraya 1",
        "Post_Office": "Ampang",
        "State": "Selangor"
    },
    {
        "Postcode": "68000",
        "Location": "Taman Ukay Seraya",
        "Post_Office": "Ampang",
        "State": "Selangor"
    },
    {
        "Postcode": "68000",
        "Location": "Taman Ampang Jaya",
        "Post_Office": "Ampang",
        "State": "Selangor"
    },
    {
        "Postcode": "68000",
        "Location": "Jalan Pakat",
        "Post_Office": "Ampang",
        "State": "Selangor"
    },
    {
        "Postcode": "68000",
        "Location": "Taman Ampang Indah",
        "Post_Office": "Ampang",
        "State": "Selangor"
    },
    {
        "Postcode": "68000",
        "Location": "Pangsapuri RSKU Puncak Indah",
        "Post_Office": "Ampang",
        "State": "WP Kuala Lumpur"
    },
    {
        "Postcode": "68000",
        "Location": "Taman Puncak Indah",
        "Post_Office": "Ampang",
        "State": "WP Kuala Lumpur"
    },
    {
        "Postcode": "68000",
        "Location": "Taman Beverly Heights",
        "Post_Office": "Ampang",
        "State": "Selangor"
    }
]
