[
    {
        "Postcode": "35000",
        "Location": "Kampung Gajah",
        "Post_Office": "Tapah",
        "State": "Perak"
    },
    {
        "Postcode": "35000",
        "Location": "Kampung Pulau Tiga",
        "Post_Office": "Tapah",
        "State": "Perak"
    },
    {
        "Postcode": "35000",
        "Location": "Kampung Tersusun",
        "Post_Office": "Tapah",
        "State": "Perak"
    },
    {
        "Postcode": "35000",
        "Location": "Kampung Datok",
        "Post_Office": "Tapah",
        "State": "Perak"
    },
    {
        "Postcode": "35000",
        "Location": "Taman Cempaka",
        "Post_Office": "Tapah",
        "State": "Perak"
    },
    {
        "Postcode": "35000",
        "Location": "Taman Golf",
        "Post_Office": "Tapah",
        "State": "Perak"
    },
    {
        "Postcode": "35000",
        "Location": "Taman Bunga Raya",
        "Post_Office": "Tapah",
        "State": "Perak"
    },
    {
        "Postcode": "35000",
        "Location": "Taman Kenari",
        "Post_Office": "Tapah",
        "State": "Perak"
    },
    {
        "Postcode": "35000",
        "Location": "Taman Melati",
        "Post_Office": "Tapah",
        "State": "Perak"
    },
    {
        "Postcode": "35000",
        "Location": "Taman Melor",
        "Post_Office": "Tapah",
        "State": "Perak"
    },
    {
        "Postcode": "35000",
        "Location": "Taman Mewah",
        "Post_Office": "Tapah",
        "State": "Perak"
    },
    {
        "Postcode": "35000",
        "Location": "Taman Orkid",
        "Post_Office": "Tapah",
        "State": "Perak"
    },
    {
        "Postcode": "35000",
        "Location": "Taman Saga",
        "Post_Office": "Tapah",
        "State": "Perak"
    },
    {
        "Postcode": "35000",
        "Location": "Taman Highland",
        "Post_Office": "Tapah",
        "State": "Perak"
    },
    {
        "Postcode": "35000",
        "Location": "Taman Tapah Jaya",
        "Post_Office": "Tapah",
        "State": "Perak"
    },
    {
        "Postcode": "35000",
        "Location": "Taman Puteri Rupawan",
        "Post_Office": "Tapah",
        "State": "Perak"
    },
    {
        "Postcode": "35000",
        "Location": "Taman Sri Damai 2",
        "Post_Office": "Tapah",
        "State": "Perak"
    },
    {
        "Postcode": "35000",
        "Location": "Batang Estate",
        "Post_Office": "Tapah",
        "State": "Perak"
    },
    {
        "Postcode": "35000",
        "Location": "Batang Padang Estate",
        "Post_Office": "Tapah",
        "State": "Perak"
    },
    {
        "Postcode": "35000",
        "Location": "Bukit Baldwin",
        "Post_Office": "Tapah",
        "State": "Perak"
    },
    {
        "Postcode": "35000",
        "Location": "Bukit Bidor",
        "Post_Office": "Tapah",
        "State": "Perak"
    },
    {
        "Postcode": "35000",
        "Location": "Bukit Pagar Kampung Baru",
        "Post_Office": "Tapah",
        "State": "Perak"
    },
    {
        "Postcode": "35000",
        "Location": "Bukit Temoh",
        "Post_Office": "Tapah",
        "State": "Perak"
    },
    {
        "Postcode": "35000",
        "Location": "Kampung Ampang",
        "Post_Office": "Tapah",
        "State": "Perak"
    },
    {
        "Postcode": "35000",
        "Location": "Kampung Bakar Sampah",
        "Post_Office": "Tapah",
        "State": "Perak"
    },
    {
        "Postcode": "35000",
        "Location": "Kampung Batu Melintang",
        "Post_Office": "Tapah",
        "State": "Perak"
    },
    {
        "Postcode": "35000",
        "Location": "Kampung Bermin",
        "Post_Office": "Tapah",
        "State": "Perak"
    },
    {
        "Postcode": "35000",
        "Location": "Kampung Dusun Muda",
        "Post_Office": "Tapah",
        "State": "Perak"
    },
    {
        "Postcode": "35000",
        "Location": "Kampung Genggaram",
        "Post_Office": "Tapah",
        "State": "Perak"
    },
    {
        "Postcode": "35000",
        "Location": "Kampung Jalan Kachu",
        "Post_Office": "Tapah",
        "State": "Perak"
    },
    {
        "Postcode": "35000",
        "Location": "Kampung Jambai",
        "Post_Office": "Tapah",
        "State": "Perak"
    },
    {
        "Postcode": "35000",
        "Location": "Kampung Kuala Raya",
        "Post_Office": "Tapah",
        "State": "Perak"
    },
    {
        "Postcode": "35000",
        "Location": "Kampung Lubok Katak",
        "Post_Office": "Tapah",
        "State": "Perak"
    },
    {
        "Postcode": "35000",
        "Location": "Kampung Orang Asli (Batu 6 - 19)",
        "Post_Office": "Tapah",
        "State": "Perak"
    },
    {
        "Postcode": "35000",
        "Location": "Kampung Orang Asli (Km 8)",
        "Post_Office": "Tapah",
        "State": "Perak"
    },
    {
        "Postcode": "35000",
        "Location": "Kampung Pahang",
        "Post_Office": "Tapah",
        "State": "Perak"
    },
    {
        "Postcode": "35000",
        "Location": "Kampung Rajoo",
        "Post_Office": "Tapah",
        "State": "Perak"
    },
    {
        "Postcode": "35000",
        "Location": "Kampung Raya",
        "Post_Office": "Tapah",
        "State": "Perak"
    },
    {
        "Postcode": "35000",
        "Location": "Kampung Rebai",
        "Post_Office": "Tapah",
        "State": "Perak"
    },
    {
        "Postcode": "35000",
        "Location": "Kampung Samy",
        "Post_Office": "Tapah",
        "State": "Perak"
    },
    {
        "Postcode": "35000",
        "Location": "Kampung Sungai Gading",
        "Post_Office": "Tapah",
        "State": "Perak"
    },
    {
        "Postcode": "35000",
        "Location": "Kampung Sungai Selinsing",
        "Post_Office": "Tapah",
        "State": "Perak"
    },
    {
        "Postcode": "35000",
        "Location": "Kampung Sunut",
        "Post_Office": "Tapah",
        "State": "Perak"
    },
    {
        "Postcode": "35000",
        "Location": "Kampung Tersusun Batu 2 1/2 Jalan Bidor",
        "Post_Office": "Tapah",
        "State": "Perak"
    },
    {
        "Postcode": "35000",
        "Location": "Kuala Woh Batu 7",
        "Post_Office": "Tapah",
        "State": "Perak"
    },
    {
        "Postcode": "35000",
        "Location": "Perumahan 4 Ramd",
        "Post_Office": "Tapah",
        "State": "Perak"
    },
    {
        "Postcode": "35000",
        "Location": "Perumahan Tnb (Batu 7 - 8)",
        "Post_Office": "Tapah",
        "State": "Perak"
    },
    {
        "Postcode": "35000",
        "Location": "Ramasami Estate",
        "Post_Office": "Tapah",
        "State": "Perak"
    },
    {
        "Postcode": "35000",
        "Location": "Rumah Guru Km 5, Jalan Pahang",
        "Post_Office": "Tapah",
        "State": "Perak"
    },
    {
        "Postcode": "35000",
        "Location": "Taman Anson Park",
        "Post_Office": "Tapah",
        "State": "Perak"
    },
    {
        "Postcode": "35000",
        "Location": "Taman Bukit Hijau",
        "Post_Office": "Tapah",
        "State": "Perak"
    },
    {
        "Postcode": "35000",
        "Location": "Taman Bukit Indah",
        "Post_Office": "Tapah",
        "State": "Perak"
    },
    {
        "Postcode": "35000",
        "Location": "Taman Kenanga",
        "Post_Office": "Tapah",
        "State": "Perak"
    },
    {
        "Postcode": "35000",
        "Location": "Taman Kuda Emas",
        "Post_Office": "Tapah",
        "State": "Perak"
    },
    {
        "Postcode": "35000",
        "Location": "Taman Kuning Emas",
        "Post_Office": "Tapah",
        "State": "Perak"
    },
    {
        "Postcode": "35000",
        "Location": "Taman Kuning Emas 2",
        "Post_Office": "Tapah",
        "State": "Perak"
    },
    {
        "Postcode": "35000",
        "Location": "Taman Seri Tapah",
        "Post_Office": "Tapah",
        "State": "Perak"
    },
    {
        "Postcode": "35000",
        "Location": "Taman Sri Damai",
        "Post_Office": "Tapah",
        "State": "Perak"
    },
    {
        "Postcode": "35000",
        "Location": "Taman Sri Kelana",
        "Post_Office": "Tapah",
        "State": "Perak"
    },
    {
        "Postcode": "35000",
        "Location": "Taman Tapah",
        "Post_Office": "Tapah",
        "State": "Perak"
    },
    {
        "Postcode": "35000",
        "Location": "Taman Tapah 2",
        "Post_Office": "Tapah",
        "State": "Perak"
    },
    {
        "Postcode": "35000",
        "Location": "Taman Tapah Baru",
        "Post_Office": "Tapah",
        "State": "Perak"
    },
    {
        "Postcode": "35000",
        "Location": "Taman Tapah Endah",
        "Post_Office": "Tapah",
        "State": "Perak"
    },
    {
        "Postcode": "35000",
        "Location": "Taman Tapah Indah 3",
        "Post_Office": "Tapah",
        "State": "Perak"
    },
    {
        "Postcode": "35000",
        "Location": "Tapah",
        "Post_Office": "Tapah",
        "State": "Perak"
    },
    {
        "Postcode": "35000",
        "Location": "Tapah (Km 5)",
        "Post_Office": "Tapah",
        "State": "Perak"
    }
]
