[
    {
        "Postcode": "35300",
        "Location": "Kampung Baru",
        "Post_Office": "Chenderiang",
        "State": "Perak"
    },
    {
        "Postcode": "35300",
        "Location": "Kampung Muhibbah",
        "Post_Office": "Chenderiang",
        "State": "Perak"
    },
    {
        "Postcode": "35300",
        "Location": "Kampung Lubok Mas",
        "Post_Office": "Chenderiang",
        "State": "Perak"
    },
    {
        "Postcode": "35300",
        "Location": "Kampung Sungai Bindu",
        "Post_Office": "Chenderiang",
        "State": "Perak"
    },
    {
        "Postcode": "35300",
        "Location": "Kampung Sungai Bulek",
        "Post_Office": "Chenderiang",
        "State": "Perak"
    },
    {
        "Postcode": "35300",
        "Location": "Kampung Sungai Cincin",
        "Post_Office": "Chenderiang",
        "State": "Perak"
    },
    {
        "Postcode": "35300",
        "Location": "Kampung Sungai Genting",
        "Post_Office": "Chenderiang",
        "State": "Perak"
    },
    {
        "Postcode": "35300",
        "Location": "Kampung Sungai Ijok",
        "Post_Office": "Chenderiang",
        "State": "Perak"
    },
    {
        "Postcode": "35300",
        "Location": "Kampung Sungai Lah",
        "Post_Office": "Chenderiang",
        "State": "Perak"
    },
    {
        "Postcode": "35300",
        "Location": "Kampung Sungai Lerek",
        "Post_Office": "Chenderiang",
        "State": "Perak"
    },
    {
        "Postcode": "35300",
        "Location": "Km 4 Jalan Temoh - Chenderiang",
        "Post_Office": "Chenderiang",
        "State": "Perak"
    },
    {
        "Postcode": "35300",
        "Location": "Ladang Jong Landor",
        "Post_Office": "Chenderiang",
        "State": "Perak"
    },
    {
        "Postcode": "35300",
        "Location": "Ladang Tong Wah",
        "Post_Office": "Chenderiang",
        "State": "Perak"
    },
    {
        "Postcode": "35300",
        "Location": "Rancangan Rumah Awam 1",
        "Post_Office": "Chenderiang",
        "State": "Perak"
    },
    {
        "Postcode": "35300",
        "Location": "Rancangan Rumah Awam 2",
        "Post_Office": "Chenderiang",
        "State": "Perak"
    },
    {
        "Postcode": "35300",
        "Location": "Taman Chenderiang",
        "Post_Office": "Chenderiang",
        "State": "Perak"
    },
    {
        "Postcode": "35300",
        "Location": "Taman Sri Chenderiang",
        "Post_Office": "Chenderiang",
        "State": "Perak"
    },
    {
        "Postcode": "35300",
        "Location": "Chenderiang",
        "Post_Office": "Chenderiang",
        "State": "Perak"
    },
    {
        "Postcode": "35300",
        "Location": "Kampung Kinjang",
        "Post_Office": "Chenderiang",
        "State": "Perak"
    },
    {
        "Postcode": "35300",
        "Location": "Kampung Kinjang Baru",
        "Post_Office": "Chenderiang",
        "State": "Perak"
    },
    {
        "Postcode": "35300",
        "Location": "Kampung Kinjang Lama",
        "Post_Office": "Chenderiang",
        "State": "Perak"
    },
    {
        "Postcode": "35300",
        "Location": "Kampung Kinjang Pasir",
        "Post_Office": "Chenderiang",
        "State": "Perak"
    }
]
