[
    {
        "Postcode": "35350",
        "Location": "Kampung Baru",
        "Post_Office": "Temoh",
        "State": "Perak"
    },
    {
        "Postcode": "35350",
        "Location": "Kampung Batu 3",
        "Post_Office": "Temoh",
        "State": "Perak"
    },
    {
        "Postcode": "35350",
        "Location": "Kampung Masjid",
        "Post_Office": "Temoh",
        "State": "Perak"
    },
    {
        "Postcode": "35350",
        "Location": "Kampung Orang Asli",
        "Post_Office": "Temoh",
        "State": "Perak"
    },
    {
        "Postcode": "35350",
        "Location": "Kampung Perak",
        "Post_Office": "Temoh",
        "State": "Perak"
    },
    {
        "Postcode": "35350",
        "Location": "Kampung Raja",
        "Post_Office": "Temoh",
        "State": "Perak"
    },
    {
        "Postcode": "35350",
        "Location": "Kampung Haji Salleh",
        "Post_Office": "Temoh",
        "State": "Perak"
    },
    {
        "Postcode": "35350",
        "Location": "Jalan Kampar - Temoh",
        "Post_Office": "Temoh",
        "State": "Perak"
    },
    {
        "Postcode": "35350",
        "Location": "Kampung Baru Ladang Banir",
        "Post_Office": "Temoh",
        "State": "Perak"
    },
    {
        "Postcode": "35350",
        "Location": "Kampung Baru Temoh Station",
        "Post_Office": "Temoh",
        "State": "Perak"
    },
    {
        "Postcode": "35350",
        "Location": "Kampung Batu Masjid",
        "Post_Office": "Temoh",
        "State": "Perak"
    },
    {
        "Postcode": "35350",
        "Location": "Kampung Belakang Jalan Besar Temoh",
        "Post_Office": "Temoh",
        "State": "Perak"
    },
    {
        "Postcode": "35350",
        "Location": "Kampung Belakang Kedai",
        "Post_Office": "Temoh",
        "State": "Perak"
    },
    {
        "Postcode": "35350",
        "Location": "Kampung Belakang Kilang",
        "Post_Office": "Temoh",
        "State": "Perak"
    },
    {
        "Postcode": "35350",
        "Location": "Kampung Belakang Sekolah Cina",
        "Post_Office": "Temoh",
        "State": "Perak"
    },
    {
        "Postcode": "35350",
        "Location": "Kampung Bukit Pasir",
        "Post_Office": "Temoh",
        "State": "Perak"
    },
    {
        "Postcode": "35350",
        "Location": "Kampung Hadapan Stesen",
        "Post_Office": "Temoh",
        "State": "Perak"
    },
    {
        "Postcode": "35350",
        "Location": "Kampung Haji Ali",
        "Post_Office": "Temoh",
        "State": "Perak"
    },
    {
        "Postcode": "35350",
        "Location": "Kampung Haji Ariff",
        "Post_Office": "Temoh",
        "State": "Perak"
    },
    {
        "Postcode": "35350",
        "Location": "Kampung Jawa Batu Masjid",
        "Post_Office": "Temoh",
        "State": "Perak"
    },
    {
        "Postcode": "35350",
        "Location": "Kampung Orang Asli S.E.K",
        "Post_Office": "Temoh",
        "State": "Perak"
    },
    {
        "Postcode": "35350",
        "Location": "Kampung Pasir Putih",
        "Post_Office": "Temoh",
        "State": "Perak"
    },
    {
        "Postcode": "35350",
        "Location": "Kampung Pasir Simpang Chenderiang",
        "Post_Office": "Temoh",
        "State": "Perak"
    },
    {
        "Postcode": "35350",
        "Location": "Kampung Sekolah Kebangsaan",
        "Post_Office": "Temoh",
        "State": "Perak"
    },
    {
        "Postcode": "35350",
        "Location": "Kampung Seri Baru",
        "Post_Office": "Temoh",
        "State": "Perak"
    },
    {
        "Postcode": "35350",
        "Location": "Kampung Sungai Dadeh",
        "Post_Office": "Temoh",
        "State": "Perak"
    },
    {
        "Postcode": "35350",
        "Location": "Kampung Sungai Ketiau",
        "Post_Office": "Temoh",
        "State": "Perak"
    },
    {
        "Postcode": "35350",
        "Location": "Kampung Sungai Silo",
        "Post_Office": "Temoh",
        "State": "Perak"
    },
    {
        "Postcode": "35350",
        "Location": "Kampung Tersusun Batu 33 Temoh",
        "Post_Office": "Temoh",
        "State": "Perak"
    },
    {
        "Postcode": "35350",
        "Location": "Kampung Tersusun Haji Tahir",
        "Post_Office": "Temoh",
        "State": "Perak"
    },
    {
        "Postcode": "35350",
        "Location": "Kampung Tersusun Ladang Banir",
        "Post_Office": "Temoh",
        "State": "Perak"
    },
    {
        "Postcode": "35350",
        "Location": "Ladang Kumaran",
        "Post_Office": "Temoh",
        "State": "Perak"
    },
    {
        "Postcode": "35350",
        "Location": "Perumahan Awam Simpang C'Riang",
        "Post_Office": "Temoh",
        "State": "Perak"
    },
    {
        "Postcode": "35350",
        "Location": "Perumahan Smtd",
        "Post_Office": "Temoh",
        "State": "Perak"
    },
    {
        "Postcode": "35350",
        "Location": "Pusat Latihan Plkn Sungai Cincin",
        "Post_Office": "Temoh",
        "State": "Perak"
    },
    {
        "Postcode": "35350",
        "Location": "Simpang Chenderiang",
        "Post_Office": "Temoh",
        "State": "Perak"
    },
    {
        "Postcode": "35350",
        "Location": "Taman Temoh Jaya",
        "Post_Office": "Temoh",
        "State": "Perak"
    },
    {
        "Postcode": "35350",
        "Location": "Taman Temoh Permai",
        "Post_Office": "Temoh",
        "State": "Perak"
    },
    {
        "Postcode": "35350",
        "Location": "Temoh",
        "Post_Office": "Temoh",
        "State": "Perak"
    },
    {
        "Postcode": "35350",
        "Location": "Temoh (Km 5)",
        "Post_Office": "Temoh",
        "State": "Perak"
    },
    {
        "Postcode": "35350",
        "Location": "Temoh Station",
        "Post_Office": "Temoh",
        "State": "Perak"
    }
]
