[
    {
        "Postcode": "35400",
        "Location": "Kampung Baru",
        "Post_Office": "Tapah Road",
        "State": "Perak"
    },
    {
        "Postcode": "35400",
        "Location": "Kampung Jawa",
        "Post_Office": "Tapah Road",
        "State": "Perak"
    },
    {
        "Postcode": "35400",
        "Location": "Kampung Masjid",
        "Post_Office": "Tapah Road",
        "State": "Perak"
    },
    {
        "Postcode": "35400",
        "Location": "Kampung Sekolah",
        "Post_Office": "Tapah Road",
        "State": "Perak"
    },
    {
        "Postcode": "35400",
        "Location": "Taman Indah",
        "Post_Office": "Tapah Road",
        "State": "Perak"
    },
    {
        "Postcode": "35400",
        "Location": "Banir New Village",
        "Post_Office": "Tapah Road",
        "State": "Perak"
    },
    {
        "Postcode": "35400",
        "Location": "Changkat Petai 1",
        "Post_Office": "Tapah Road",
        "State": "Perak"
    },
    {
        "Postcode": "35400",
        "Location": "Kampung Baru Banir",
        "Post_Office": "Tapah Road",
        "State": "Perak"
    },
    {
        "Postcode": "35400",
        "Location": "Kampung Batu 4 - 5",
        "Post_Office": "Tapah Road",
        "State": "Perak"
    },
    {
        "Postcode": "35400",
        "Location": "Kampung Batu 9 (Changkat Petai)",
        "Post_Office": "Tapah Road",
        "State": "Perak"
    },
    {
        "Postcode": "35400",
        "Location": "Kampung Belakang Dewan",
        "Post_Office": "Tapah Road",
        "State": "Perak"
    },
    {
        "Postcode": "35400",
        "Location": "Kampung Changkat Besar",
        "Post_Office": "Tapah Road",
        "State": "Perak"
    },
    {
        "Postcode": "35400",
        "Location": "Kampung Changkat Dermawan",
        "Post_Office": "Tapah Road",
        "State": "Perak"
    },
    {
        "Postcode": "35400",
        "Location": "Kampung Changkat Petai Hilir",
        "Post_Office": "Tapah Road",
        "State": "Perak"
    },
    {
        "Postcode": "35400",
        "Location": "Kampung Changkat Petai Hulu",
        "Post_Office": "Tapah Road",
        "State": "Perak"
    },
    {
        "Postcode": "35400",
        "Location": "Kampung Daud",
        "Post_Office": "Tapah Road",
        "State": "Perak"
    },
    {
        "Postcode": "35400",
        "Location": "Kampung Haji Dollah",
        "Post_Office": "Tapah Road",
        "State": "Perak"
    },
    {
        "Postcode": "35400",
        "Location": "Kampung Haji Hassan",
        "Post_Office": "Tapah Road",
        "State": "Perak"
    },
    {
        "Postcode": "35400",
        "Location": "Kampung Kassim",
        "Post_Office": "Tapah Road",
        "State": "Perak"
    },
    {
        "Postcode": "35400",
        "Location": "Kampung Mak Teh",
        "Post_Office": "Tapah Road",
        "State": "Perak"
    },
    {
        "Postcode": "35400",
        "Location": "Kampung Masjid Banir",
        "Post_Office": "Tapah Road",
        "State": "Perak"
    },
    {
        "Postcode": "35400",
        "Location": "Kampung Mat Satir",
        "Post_Office": "Tapah Road",
        "State": "Perak"
    },
    {
        "Postcode": "35400",
        "Location": "Kampung Melor",
        "Post_Office": "Tapah Road",
        "State": "Perak"
    },
    {
        "Postcode": "35400",
        "Location": "Kampung Pekan Kecil",
        "Post_Office": "Tapah Road",
        "State": "Perak"
    },
    {
        "Postcode": "35400",
        "Location": "Kampung Sekerat Banir",
        "Post_Office": "Tapah Road",
        "State": "Perak"
    },
    {
        "Postcode": "35400",
        "Location": "Kampung Sembilan",
        "Post_Office": "Tapah Road",
        "State": "Perak"
    },
    {
        "Postcode": "35400",
        "Location": "Kampung Sungai Renggas",
        "Post_Office": "Tapah Road",
        "State": "Perak"
    },
    {
        "Postcode": "35400",
        "Location": "Kampung Tambi",
        "Post_Office": "Tapah Road",
        "State": "Perak"
    },
    {
        "Postcode": "35400",
        "Location": "Kampung Tanah Pinggir",
        "Post_Office": "Tapah Road",
        "State": "Perak"
    },
    {
        "Postcode": "35400",
        "Location": "Kampung Tersusun Batu 4",
        "Post_Office": "Tapah Road",
        "State": "Perak"
    },
    {
        "Postcode": "35400",
        "Location": "Kampung Tersusun Tambahan Batu 4",
        "Post_Office": "Tapah Road",
        "State": "Perak"
    },
    {
        "Postcode": "35400",
        "Location": "Kampung Titi Besi",
        "Post_Office": "Tapah Road",
        "State": "Perak"
    },
    {
        "Postcode": "35400",
        "Location": "Kampung Zainab",
        "Post_Office": "Tapah Road",
        "State": "Perak"
    },
    {
        "Postcode": "35400",
        "Location": "Ladang Sungai Selinsing Tanah Pinggir",
        "Post_Office": "Tapah Road",
        "State": "Perak"
    },
    {
        "Postcode": "35400",
        "Location": "Pekan Getah New Village",
        "Post_Office": "Tapah Road",
        "State": "Perak"
    },
    {
        "Postcode": "35400",
        "Location": "Perumahan Tapak Penjara",
        "Post_Office": "Tapah Road",
        "State": "Perak"
    },
    {
        "Postcode": "35400",
        "Location": "Rumah Awam 2 Kampung Mak The",
        "Post_Office": "Tapah Road",
        "State": "Perak"
    },
    {
        "Postcode": "35400",
        "Location": "Taman Dato Kamaruddin",
        "Post_Office": "Tapah Road",
        "State": "Perak"
    },
    {
        "Postcode": "35400",
        "Location": "Taman Pedana (Pekan Getah)",
        "Post_Office": "Tapah Road",
        "State": "Perak"
    },
    {
        "Postcode": "35400",
        "Location": "Taman Tapah Ria",
        "Post_Office": "Tapah Road",
        "State": "Perak"
    },
    {
        "Postcode": "35400",
        "Location": "Tapah Road",
        "Post_Office": "Tapah Road",
        "State": "Perak"
    },
    {
        "Postcode": "35400",
        "Location": "Tapah Road (Km 6)",
        "Post_Office": "Tapah Road",
        "State": "Perak"
    },
    {
        "Postcode": "35400",
        "Location": "Taman Tapah Jaya",
        "Post_Office": "Tapah Road",
        "State": "Perak"
    }
]
