[
    {
        "Postcode": "35500",
        "Location": "Kampung Baru",
        "Post_Office": "Bidor",
        "State": "Perak"
    },
    {
        "Postcode": "35500",
        "Location": "Kampung Baru Timur",
        "Post_Office": "Bidor",
        "State": "Perak"
    },
    {
        "Postcode": "35500",
        "Location": "Kampung Lembah",
        "Post_Office": "Bidor",
        "State": "Perak"
    },
    {
        "Postcode": "35500",
        "Location": "Kampung Masjid",
        "Post_Office": "Bidor",
        "State": "Perak"
    },
    {
        "Postcode": "35500",
        "Location": "Kampung Padang",
        "Post_Office": "Bidor",
        "State": "Perak"
    },
    {
        "Postcode": "35500",
        "Location": "Kampung Pasir",
        "Post_Office": "Bidor",
        "State": "Perak"
    },
    {
        "Postcode": "35500",
        "Location": "Kampung Simpang Tiga",
        "Post_Office": "Bidor",
        "State": "Perak"
    },
    {
        "Postcode": "35500",
        "Location": "Kawasan Perindustrian",
        "Post_Office": "Bidor",
        "State": "Perak"
    },
    {
        "Postcode": "35500",
        "Location": "Taman Intan",
        "Post_Office": "Bidor",
        "State": "Perak"
    },
    {
        "Postcode": "35500",
        "Location": "Kampung Rahmat",
        "Post_Office": "Bidor",
        "State": "Perak"
    },
    {
        "Postcode": "35500",
        "Location": "Taman Permai",
        "Post_Office": "Bidor",
        "State": "Perak"
    },
    {
        "Postcode": "35500",
        "Location": "Taman Seri Emas",
        "Post_Office": "Bidor",
        "State": "Perak"
    },
    {
        "Postcode": "35500",
        "Location": "Taman Bidor Botani",
        "Post_Office": "Bidor",
        "State": "Perak"
    },
    {
        "Postcode": "35500",
        "Location": "Taman Aman",
        "Post_Office": "Bidor",
        "State": "Perak"
    },
    {
        "Postcode": "35500",
        "Location": "Taman Anson",
        "Post_Office": "Bidor",
        "State": "Perak"
    },
    {
        "Postcode": "35500",
        "Location": "Taman Megah",
        "Post_Office": "Bidor",
        "State": "Perak"
    },
    {
        "Postcode": "35500",
        "Location": "Taman Permata",
        "Post_Office": "Bidor",
        "State": "Perak"
    },
    {
        "Postcode": "35500",
        "Location": "Bedrock Estate",
        "Post_Office": "Bidor",
        "State": "Perak"
    },
    {
        "Postcode": "35500",
        "Location": "Bidor",
        "Post_Office": "Bidor",
        "State": "Perak"
    },
    {
        "Postcode": "35500",
        "Location": "Bidor Station New Village",
        "Post_Office": "Bidor",
        "State": "Perak"
    },
    {
        "Postcode": "35500",
        "Location": "Kampung Baru Bidor  Stesyen",
        "Post_Office": "Bidor",
        "State": "Perak"
    },
    {
        "Postcode": "35500",
        "Location": "Kampung Baru Jalan Sungkai",
        "Post_Office": "Bidor",
        "State": "Perak"
    },
    {
        "Postcode": "35500",
        "Location": "Kampung Baru Kuala Bikam",
        "Post_Office": "Bidor",
        "State": "Perak"
    },
    {
        "Postcode": "35500",
        "Location": "Kampung Baru Kuala Gepai",
        "Post_Office": "Bidor",
        "State": "Perak"
    },
    {
        "Postcode": "35500",
        "Location": "Kampung Baru Tanah Mas",
        "Post_Office": "Bidor",
        "State": "Perak"
    },
    {
        "Postcode": "35500",
        "Location": "Kampung Bertuah",
        "Post_Office": "Bidor",
        "State": "Perak"
    },
    {
        "Postcode": "35500",
        "Location": "Kampung Chang",
        "Post_Office": "Bidor",
        "State": "Perak"
    },
    {
        "Postcode": "35500",
        "Location": "Kampung Cold Stream",
        "Post_Office": "Bidor",
        "State": "Perak"
    },
    {
        "Postcode": "35500",
        "Location": "Kampung Dato Sri Kamaruddin",
        "Post_Office": "Bidor",
        "State": "Perak"
    },
    {
        "Postcode": "35500",
        "Location": "Kampung Delima",
        "Post_Office": "Bidor",
        "State": "Perak"
    },
    {
        "Postcode": "35500",
        "Location": "Kampung Jalan Bruseh",
        "Post_Office": "Bidor",
        "State": "Perak"
    },
    {
        "Postcode": "35500",
        "Location": "Kampung Jeram Mengkuang",
        "Post_Office": "Bidor",
        "State": "Perak"
    },
    {
        "Postcode": "35500",
        "Location": "Kampung Kenangan",
        "Post_Office": "Bidor",
        "State": "Perak"
    },
    {
        "Postcode": "35500",
        "Location": "Kampung Kuala Bikam",
        "Post_Office": "Bidor",
        "State": "Perak"
    },
    {
        "Postcode": "35500",
        "Location": "Kampung Kuala Gepai",
        "Post_Office": "Bidor",
        "State": "Perak"
    },
    {
        "Postcode": "35500",
        "Location": "Kampung Lapangan Terbang",
        "Post_Office": "Bidor",
        "State": "Perak"
    },
    {
        "Postcode": "35500",
        "Location": "Kampung Pekan Pasir",
        "Post_Office": "Bidor",
        "State": "Perak"
    },
    {
        "Postcode": "35500",
        "Location": "Kampung Petaling Baru",
        "Post_Office": "Bidor",
        "State": "Perak"
    },
    {
        "Postcode": "35500",
        "Location": "Kampung Poh",
        "Post_Office": "Bidor",
        "State": "Perak"
    },
    {
        "Postcode": "35500",
        "Location": "Perumahan Pprt",
        "Post_Office": "Bidor",
        "State": "Perak"
    },
    {
        "Postcode": "35500",
        "Location": "Rumah Murah 3",
        "Post_Office": "Bidor",
        "State": "Perak"
    },
    {
        "Postcode": "35500",
        "Location": "Taman Bidor",
        "Post_Office": "Bidor",
        "State": "Perak"
    },
    {
        "Postcode": "35500",
        "Location": "Taman Bidor Intan",
        "Post_Office": "Bidor",
        "State": "Perak"
    },
    {
        "Postcode": "35500",
        "Location": "Taman Bidor Jaya",
        "Post_Office": "Bidor",
        "State": "Perak"
    },
    {
        "Postcode": "35500",
        "Location": "Taman Bukit Bidor",
        "Post_Office": "Bidor",
        "State": "Perak"
    },
    {
        "Postcode": "35500",
        "Location": "Taman Chit Long",
        "Post_Office": "Bidor",
        "State": "Perak"
    },
    {
        "Postcode": "35500",
        "Location": "Taman Civic",
        "Post_Office": "Bidor",
        "State": "Perak"
    },
    {
        "Postcode": "35500",
        "Location": "Taman Desa Damai",
        "Post_Office": "Bidor",
        "State": "Perak"
    },
    {
        "Postcode": "35500",
        "Location": "Taman Kawan",
        "Post_Office": "Bidor",
        "State": "Perak"
    },
    {
        "Postcode": "35500",
        "Location": "Taman Pun Chun",
        "Post_Office": "Bidor",
        "State": "Perak"
    },
    {
        "Postcode": "35500",
        "Location": "Taman Puteri Indah",
        "Post_Office": "Bidor",
        "State": "Perak"
    },
    {
        "Postcode": "35500",
        "Location": "Taman Seri Bidor",
        "Post_Office": "Bidor",
        "State": "Perak"
    },
    {
        "Postcode": "35500",
        "Location": "Taman Syed Mahazar",
        "Post_Office": "Bidor",
        "State": "Perak"
    }
]
