[
    {
        "Postcode": "35600",
        "Location": "Trolak ",
        "Post_Office": "Sungkai",
        "State": "Perak"
    },
    {
        "Postcode": "35600",
        "Location": "Jalan Besar",
        "Post_Office": "Sungkai",
        "State": "Perak"
    },
    {
        "Postcode": "35600",
        "Location": "Jalan Pasar",
        "Post_Office": "Sungkai",
        "State": "Perak"
    },
    {
        "Postcode": "35600",
        "Location": "Kampung Baru Cina",
        "Post_Office": "Sungkai",
        "State": "Perak"
    },
    {
        "Postcode": "35600",
        "Location": "Kampung Gajah",
        "Post_Office": "Sungkai",
        "State": "Perak"
    },
    {
        "Postcode": "35600",
        "Location": "Kampung Haji",
        "Post_Office": "Sungkai",
        "State": "Perak"
    },
    {
        "Postcode": "35600",
        "Location": "Kampung Tersusun Aa Tin",
        "Post_Office": "Sungkai",
        "State": "Perak"
    },
    {
        "Postcode": "35600",
        "Location": "Taman Intan",
        "Post_Office": "Sungkai",
        "State": "Perak"
    },
    {
        "Postcode": "35600",
        "Location": "Jalan Kelab",
        "Post_Office": "Sungkai",
        "State": "Perak"
    },
    {
        "Postcode": "35600",
        "Location": "Kampung Rahmat Changkat Sulaiman",
        "Post_Office": "Sungkai",
        "State": "Perak"
    },
    {
        "Postcode": "35600",
        "Location": "Taman Permai",
        "Post_Office": "Sungkai",
        "State": "Perak"
    },
    {
        "Postcode": "35600",
        "Location": "Kampong Anak Perlok",
        "Post_Office": "Sungkai",
        "State": "Perak"
    },
    {
        "Postcode": "35600",
        "Location": "Taman Orkid",
        "Post_Office": "Sungkai",
        "State": "Perak"
    },
    {
        "Postcode": "35600",
        "Location": "Belakang Pasar",
        "Post_Office": "Sungkai",
        "State": "Perak"
    },
    {
        "Postcode": "35600",
        "Location": "Felda Gunong Besout 2 Tambahan",
        "Post_Office": "Sungkai",
        "State": "Perak"
    },
    {
        "Postcode": "35600",
        "Location": "Felda Gunong Besout 6",
        "Post_Office": "Sungkai",
        "State": "Perak"
    },
    {
        "Postcode": "35600",
        "Location": "Felda Gunong Besout 7",
        "Post_Office": "Sungkai",
        "State": "Perak"
    },
    {
        "Postcode": "35600",
        "Location": "Felda Gunung Besout",
        "Post_Office": "Sungkai",
        "State": "Perak"
    },
    {
        "Postcode": "35600",
        "Location": "Felda Gunung Besout 1",
        "Post_Office": "Sungkai",
        "State": "Perak"
    },
    {
        "Postcode": "35600",
        "Location": "Felda Gunung Besout 2",
        "Post_Office": "Sungkai",
        "State": "Perak"
    },
    {
        "Postcode": "35600",
        "Location": "Felda Gunung Besout 3",
        "Post_Office": "Sungkai",
        "State": "Perak"
    },
    {
        "Postcode": "35600",
        "Location": "Felda Gunung Besout 4",
        "Post_Office": "Sungkai",
        "State": "Perak"
    },
    {
        "Postcode": "35600",
        "Location": "Felda Gunung Besout 5",
        "Post_Office": "Sungkai",
        "State": "Perak"
    },
    {
        "Postcode": "35600",
        "Location": "Felda Input",
        "Post_Office": "Sungkai",
        "State": "Perak"
    },
    {
        "Postcode": "35600",
        "Location": "Felda Sungai Klah",
        "Post_Office": "Sungkai",
        "State": "Perak"
    },
    {
        "Postcode": "35600",
        "Location": "Felda Trolak Selatan",
        "Post_Office": "Sungkai",
        "State": "Perak"
    },
    {
        "Postcode": "35600",
        "Location": "Felda Trolak Utara",
        "Post_Office": "Sungkai",
        "State": "Perak"
    },
    {
        "Postcode": "35600",
        "Location": "Jalan Besar Baru",
        "Post_Office": "Sungkai",
        "State": "Perak"
    },
    {
        "Postcode": "35600",
        "Location": "Jalan Changkat Sulaiman",
        "Post_Office": "Sungkai",
        "State": "Perak"
    },
    {
        "Postcode": "35600",
        "Location": "Jalan Menderang",
        "Post_Office": "Sungkai",
        "State": "Perak"
    },
    {
        "Postcode": "35600",
        "Location": "Kampung Aa Tin",
        "Post_Office": "Sungkai",
        "State": "Perak"
    },
    {
        "Postcode": "35600",
        "Location": "Kampung Ac",
        "Post_Office": "Sungkai",
        "State": "Perak"
    },
    {
        "Postcode": "35600",
        "Location": "Kampung Baru Rimba Melati",
        "Post_Office": "Sungkai",
        "State": "Perak"
    },
    {
        "Postcode": "35600",
        "Location": "Kampung Baru Stesen Keretapi",
        "Post_Office": "Sungkai",
        "State": "Perak"
    },
    {
        "Postcode": "35600",
        "Location": "Kampung Baru Tiang Bertanah",
        "Post_Office": "Sungkai",
        "State": "Perak"
    },
    {
        "Postcode": "35600",
        "Location": "Kampung Batu (A - C)",
        "Post_Office": "Sungkai",
        "State": "Perak"
    },
    {
        "Postcode": "35600",
        "Location": "Kampung Bikam",
        "Post_Office": "Sungkai",
        "State": "Perak"
    },
    {
        "Postcode": "35600",
        "Location": "Kampung Buloh Telor",
        "Post_Office": "Sungkai",
        "State": "Perak"
    },
    {
        "Postcode": "35600",
        "Location": "Kampung Changkat Sulaiman",
        "Post_Office": "Sungkai",
        "State": "Perak"
    },
    {
        "Postcode": "35600",
        "Location": "Kampung Chengai",
        "Post_Office": "Sungkai",
        "State": "Perak"
    },
    {
        "Postcode": "35600",
        "Location": "Kampung Gembol",
        "Post_Office": "Sungkai",
        "State": "Perak"
    },
    {
        "Postcode": "35600",
        "Location": "Kampung Guntong",
        "Post_Office": "Sungkai",
        "State": "Perak"
    },
    {
        "Postcode": "35600",
        "Location": "Kampung Haji Ismail",
        "Post_Office": "Sungkai",
        "State": "Perak"
    },
    {
        "Postcode": "35600",
        "Location": "Kampung Hendra",
        "Post_Office": "Sungkai",
        "State": "Perak"
    },
    {
        "Postcode": "35600",
        "Location": "Kampung Hendra Baru",
        "Post_Office": "Sungkai",
        "State": "Perak"
    },
    {
        "Postcode": "35600",
        "Location": "Kampung Jawa Bikam",
        "Post_Office": "Sungkai",
        "State": "Perak"
    },
    {
        "Postcode": "35600",
        "Location": "Kampung Jernang",
        "Post_Office": "Sungkai",
        "State": "Perak"
    },
    {
        "Postcode": "35600",
        "Location": "Kampung Kelah Baru",
        "Post_Office": "Sungkai",
        "State": "Perak"
    },
    {
        "Postcode": "35600",
        "Location": "Kampung Kuala Alah",
        "Post_Office": "Sungkai",
        "State": "Perak"
    },
    {
        "Postcode": "35600",
        "Location": "Kampung Menderang",
        "Post_Office": "Sungkai",
        "State": "Perak"
    },
    {
        "Postcode": "35600",
        "Location": "Kampung Menterang",
        "Post_Office": "Sungkai",
        "State": "Perak"
    },
    {
        "Postcode": "35600",
        "Location": "Kampung Pekan Lama",
        "Post_Office": "Sungkai",
        "State": "Perak"
    },
    {
        "Postcode": "35600",
        "Location": "Kampung Perlok",
        "Post_Office": "Sungkai",
        "State": "Perak"
    },
    {
        "Postcode": "35600",
        "Location": "Kampung Perlok Baru",
        "Post_Office": "Sungkai",
        "State": "Perak"
    },
    {
        "Postcode": "35600",
        "Location": "Kampung Perlok Lama",
        "Post_Office": "Sungkai",
        "State": "Perak"
    },
    {
        "Postcode": "35600",
        "Location": "Kampung Ras",
        "Post_Office": "Sungkai",
        "State": "Perak"
    },
    {
        "Postcode": "35600",
        "Location": "Kampung Rimba Melati",
        "Post_Office": "Sungkai",
        "State": "Perak"
    },
    {
        "Postcode": "35600",
        "Location": "Kampung Rtb Menderang",
        "Post_Office": "Sungkai",
        "State": "Perak"
    },
    {
        "Postcode": "35600",
        "Location": "Kampung Sabar Jaya",
        "Post_Office": "Sungkai",
        "State": "Perak"
    },
    {
        "Postcode": "35600",
        "Location": "Kampung Sat",
        "Post_Office": "Sungkai",
        "State": "Perak"
    },
    {
        "Postcode": "35600",
        "Location": "Kampung Sc",
        "Post_Office": "Sungkai",
        "State": "Perak"
    },
    {
        "Postcode": "35600",
        "Location": "Kampung Setia Jaya",
        "Post_Office": "Sungkai",
        "State": "Perak"
    },
    {
        "Postcode": "35600",
        "Location": "Kampung Tersusun Muhibah",
        "Post_Office": "Sungkai",
        "State": "Perak"
    },
    {
        "Postcode": "35600",
        "Location": "Kampung Tiang Bertanah",
        "Post_Office": "Sungkai",
        "State": "Perak"
    },
    {
        "Postcode": "35600",
        "Location": "Kampung Tidong",
        "Post_Office": "Sungkai",
        "State": "Perak"
    },
    {
        "Postcode": "35600",
        "Location": "Ladang Batu Tiga",
        "Post_Office": "Sungkai",
        "State": "Perak"
    },
    {
        "Postcode": "35600",
        "Location": "Ladang Bikam",
        "Post_Office": "Sungkai",
        "State": "Perak"
    },
    {
        "Postcode": "35600",
        "Location": "Ladang Chengai",
        "Post_Office": "Sungkai",
        "State": "Perak"
    },
    {
        "Postcode": "35600",
        "Location": "Ladang Guan Chow",
        "Post_Office": "Sungkai",
        "State": "Perak"
    },
    {
        "Postcode": "35600",
        "Location": "Ladang Hendra",
        "Post_Office": "Sungkai",
        "State": "Perak"
    },
    {
        "Postcode": "35600",
        "Location": "Ladang Risda Changkat Sulaiman",
        "Post_Office": "Sungkai",
        "State": "Perak"
    },
    {
        "Postcode": "35600",
        "Location": "Ladang Rtb Menderang",
        "Post_Office": "Sungkai",
        "State": "Perak"
    },
    {
        "Postcode": "35600",
        "Location": "Ladang Sungai Kruit",
        "Post_Office": "Sungkai",
        "State": "Perak"
    },
    {
        "Postcode": "35600",
        "Location": "Ladang Sungkai",
        "Post_Office": "Sungkai",
        "State": "Perak"
    },
    {
        "Postcode": "35600",
        "Location": "Ladang Sungkai Klah",
        "Post_Office": "Sungkai",
        "State": "Perak"
    },
    {
        "Postcode": "35600",
        "Location": "Ladang Sungkai Sungkai",
        "Post_Office": "Sungkai",
        "State": "Perak"
    },
    {
        "Postcode": "35600",
        "Location": "Ladang Tong Foh",
        "Post_Office": "Sungkai",
        "State": "Perak"
    },
    {
        "Postcode": "35600",
        "Location": "Sungai Kelah",
        "Post_Office": "Sungkai",
        "State": "Perak"
    },
    {
        "Postcode": "35600",
        "Location": "Sungkai",
        "Post_Office": "Sungkai",
        "State": "Perak"
    },
    {
        "Postcode": "35600",
        "Location": "Taman Desa Idaman",
        "Post_Office": "Sungkai",
        "State": "Perak"
    },
    {
        "Postcode": "35600",
        "Location": "Taman Okid Jaya",
        "Post_Office": "Sungkai",
        "State": "Perak"
    },
    {
        "Postcode": "35600",
        "Location": "Taman Sara Bakti",
        "Post_Office": "Sungkai",
        "State": "Perak"
    },
    {
        "Postcode": "35600",
        "Location": "Taman Sungkai",
        "Post_Office": "Sungkai",
        "State": "Perak"
    },
    {
        "Postcode": "35600",
        "Location": "Taman Sungkai Jaya",
        "Post_Office": "Sungkai",
        "State": "Perak"
    },
    {
        "Postcode": "35600",
        "Location": "Taman Syarikat Melayu",
        "Post_Office": "Sungkai",
        "State": "Perak"
    },
    {
        "Postcode": "35600",
        "Location": "Taman Bakti",
        "Post_Office": "Sungkai",
        "State": "Perak"
    },
    {
        "Postcode": "35600",
        "Location": "Taman Permai Jaya",
        "Post_Office": "Sungkai",
        "State": "Perak"
    }
]
