[
    {
        "Postcode": "35800",
        "Location": "Kampung Baru",
        "Post_Office": "Slim River",
        "State": "Perak"
    },
    {
        "Postcode": "35800",
        "Location": "Kampung Jaya",
        "Post_Office": "Slim River",
        "State": "Perak"
    },
    {
        "Postcode": "35800",
        "Location": "Kampung Kurnia",
        "Post_Office": "Slim River",
        "State": "Perak"
    },
    {
        "Postcode": "35800",
        "Location": "Kampung Manggis",
        "Post_Office": "Slim River",
        "State": "Perak"
    },
    {
        "Postcode": "35800",
        "Location": "Kampung Masjid",
        "Post_Office": "Slim River",
        "State": "Perak"
    },
    {
        "Postcode": "35800",
        "Location": "Kampung Pasir",
        "Post_Office": "Slim River",
        "State": "Perak"
    },
    {
        "Postcode": "35800",
        "Location": "Kampung Sentosa",
        "Post_Office": "Slim River",
        "State": "Perak"
    },
    {
        "Postcode": "35800",
        "Location": "Taman Krishnan",
        "Post_Office": "Slim River",
        "State": "Perak"
    },
    {
        "Postcode": "35800",
        "Location": "Taman Sentosa",
        "Post_Office": "Slim River",
        "State": "Perak"
    },
    {
        "Postcode": "35800",
        "Location": "Kampung Masjid Lama",
        "Post_Office": "Slim River",
        "State": "Perak"
    },
    {
        "Postcode": "35800",
        "Location": "Taman Aman",
        "Post_Office": "Slim River",
        "State": "Perak"
    },
    {
        "Postcode": "35800",
        "Location": "Taman Bunga Raya",
        "Post_Office": "Slim River",
        "State": "Perak"
    },
    {
        "Postcode": "35800",
        "Location": "Bandar Baru",
        "Post_Office": "Slim River",
        "State": "Perak"
    },
    {
        "Postcode": "35800",
        "Location": "Felcra Sungai Rasau",
        "Post_Office": "Slim River",
        "State": "Perak"
    },
    {
        "Postcode": "35800",
        "Location": "Kampung Alah Batu",
        "Post_Office": "Slim River",
        "State": "Perak"
    },
    {
        "Postcode": "35800",
        "Location": "Kampung Baru Slim",
        "Post_Office": "Slim River",
        "State": "Perak"
    },
    {
        "Postcode": "35800",
        "Location": "Kampung Belakang Pejabat Pos",
        "Post_Office": "Slim River",
        "State": "Perak"
    },
    {
        "Postcode": "35800",
        "Location": "Kampung Gugoh",
        "Post_Office": "Slim River",
        "State": "Perak"
    },
    {
        "Postcode": "35800",
        "Location": "Kampung Kuala Slim",
        "Post_Office": "Slim River",
        "State": "Perak"
    },
    {
        "Postcode": "35800",
        "Location": "Kampung Lintah",
        "Post_Office": "Slim River",
        "State": "Perak"
    },
    {
        "Postcode": "35800",
        "Location": "Kampung Naran",
        "Post_Office": "Slim River",
        "State": "Perak"
    },
    {
        "Postcode": "35800",
        "Location": "Kampung Penderas",
        "Post_Office": "Slim River",
        "State": "Perak"
    },
    {
        "Postcode": "35800",
        "Location": "Kampung Perhentian",
        "Post_Office": "Slim River",
        "State": "Perak"
    },
    {
        "Postcode": "35800",
        "Location": "Kampung Piong",
        "Post_Office": "Slim River",
        "State": "Perak"
    },
    {
        "Postcode": "35800",
        "Location": "Kampung Rasau",
        "Post_Office": "Slim River",
        "State": "Perak"
    },
    {
        "Postcode": "35800",
        "Location": "Kampung Slim",
        "Post_Office": "Slim River",
        "State": "Perak"
    },
    {
        "Postcode": "35800",
        "Location": "Kampung Sri Kledang",
        "Post_Office": "Slim River",
        "State": "Perak"
    },
    {
        "Postcode": "35800",
        "Location": "Kampung Sungai Bil",
        "Post_Office": "Slim River",
        "State": "Perak"
    },
    {
        "Postcode": "35800",
        "Location": "Kampung Sungai Gesa",
        "Post_Office": "Slim River",
        "State": "Perak"
    },
    {
        "Postcode": "35800",
        "Location": "Kampung Sungai Jurong",
        "Post_Office": "Slim River",
        "State": "Perak"
    },
    {
        "Postcode": "35800",
        "Location": "Kampung Sungai Selim",
        "Post_Office": "Slim River",
        "State": "Perak"
    },
    {
        "Postcode": "35800",
        "Location": "Kampung Sungai Semuda",
        "Post_Office": "Slim River",
        "State": "Perak"
    },
    {
        "Postcode": "35800",
        "Location": "Kampung Tambok",
        "Post_Office": "Slim River",
        "State": "Perak"
    },
    {
        "Postcode": "35800",
        "Location": "Kampung Ulu Slim",
        "Post_Office": "Slim River",
        "State": "Perak"
    },
    {
        "Postcode": "35800",
        "Location": "Ladang Baba Bakala",
        "Post_Office": "Slim River",
        "State": "Perak"
    },
    {
        "Postcode": "35800",
        "Location": "Ladang Bedford",
        "Post_Office": "Slim River",
        "State": "Perak"
    },
    {
        "Postcode": "35800",
        "Location": "Ladang Cluny",
        "Post_Office": "Slim River",
        "State": "Perak"
    },
    {
        "Postcode": "35800",
        "Location": "Pekan Slim Village",
        "Post_Office": "Slim River",
        "State": "Perak"
    },
    {
        "Postcode": "35800",
        "Location": "Slim River",
        "Post_Office": "Slim River",
        "State": "Perak"
    },
    {
        "Postcode": "35800",
        "Location": "Slim Village",
        "Post_Office": "Slim River",
        "State": "Perak"
    },
    {
        "Postcode": "35800",
        "Location": "Sungai Bil Estate",
        "Post_Office": "Slim River",
        "State": "Perak"
    },
    {
        "Postcode": "35800",
        "Location": "Taman Saroja",
        "Post_Office": "Slim River",
        "State": "Perak"
    },
    {
        "Postcode": "35800",
        "Location": "Taman Slim Indah",
        "Post_Office": "Slim River",
        "State": "Perak"
    },
    {
        "Postcode": "35800",
        "Location": "Taman Slim Jaya",
        "Post_Office": "Slim River",
        "State": "Perak"
    },
    {
        "Postcode": "35800",
        "Location": "Taman Slim Permai",
        "Post_Office": "Slim River",
        "State": "Perak"
    },
    {
        "Postcode": "35800",
        "Location": "Taman Slim River",
        "Post_Office": "Slim River",
        "State": "Perak"
    },
    {
        "Postcode": "35800",
        "Location": "Kampung Sawa",
        "Post_Office": "Slim River",
        "State": "Perak"
    }
]
