[
    {
        "Postcode": "35950",
        "Location": "Jalan Wm 3/13",
        "Post_Office": "Behrang Stesen",
        "State": "Perak"
    },
    {
        "Postcode": "35950",
        "Location": "Jalan Wm 3/14",
        "Post_Office": "Behrang Stesen",
        "State": "Perak"
    },
    {
        "Postcode": "35950",
        "Location": "Jalan Wm 3/15",
        "Post_Office": "Behrang Stesen",
        "State": "Perak"
    },
    {
        "Postcode": "35950",
        "Location": "Jalan Wm 3/16",
        "Post_Office": "Behrang Stesen",
        "State": "Perak"
    },
    {
        "Postcode": "35950",
        "Location": "Jalan Wm 3/17",
        "Post_Office": "Behrang Stesen",
        "State": "Perak"
    },
    {
        "Postcode": "35950",
        "Location": "Jalan Wm 3/18",
        "Post_Office": "Behrang Stesen",
        "State": "Perak"
    },
    {
        "Postcode": "35950",
        "Location": "Jalan Wm 3A/10",
        "Post_Office": "Behrang Stesen",
        "State": "Perak"
    },
    {
        "Postcode": "35950",
        "Location": "Jalan Wm 3A/11",
        "Post_Office": "Behrang Stesen",
        "State": "Perak"
    },
    {
        "Postcode": "35950",
        "Location": "Jalan Wm 3A/12",
        "Post_Office": "Behrang Stesen",
        "State": "Perak"
    },
    {
        "Postcode": "35950",
        "Location": "Jalan Wm 3A/13",
        "Post_Office": "Behrang Stesen",
        "State": "Perak"
    },
    {
        "Postcode": "35950",
        "Location": "Jalan Wm 3A/14",
        "Post_Office": "Behrang Stesen",
        "State": "Perak"
    },
    {
        "Postcode": "35950",
        "Location": "Jalan Wm 3A/15",
        "Post_Office": "Behrang Stesen",
        "State": "Perak"
    },
    {
        "Postcode": "35950",
        "Location": "Jalan Wm 3A/16",
        "Post_Office": "Behrang Stesen",
        "State": "Perak"
    },
    {
        "Postcode": "35950",
        "Location": "Jalan Wm 3A/17",
        "Post_Office": "Behrang Stesen",
        "State": "Perak"
    },
    {
        "Postcode": "35950",
        "Location": "Jalan Wm 3A/2",
        "Post_Office": "Behrang Stesen",
        "State": "Perak"
    },
    {
        "Postcode": "35950",
        "Location": "Jalan Wm 3A/3",
        "Post_Office": "Behrang Stesen",
        "State": "Perak"
    },
    {
        "Postcode": "35950",
        "Location": "Jalan Wm 3A/4",
        "Post_Office": "Behrang Stesen",
        "State": "Perak"
    },
    {
        "Postcode": "35950",
        "Location": "Jalan Wm 3A/5",
        "Post_Office": "Behrang Stesen",
        "State": "Perak"
    },
    {
        "Postcode": "35950",
        "Location": "Jalan Wm 3A/6",
        "Post_Office": "Behrang Stesen",
        "State": "Perak"
    },
    {
        "Postcode": "35950",
        "Location": "Jalan Wm 3A/7",
        "Post_Office": "Behrang Stesen",
        "State": "Perak"
    },
    {
        "Postcode": "35950",
        "Location": "Jalan Wm 3A/8",
        "Post_Office": "Behrang Stesen",
        "State": "Perak"
    },
    {
        "Postcode": "35950",
        "Location": "Jalan Wm 3A/9",
        "Post_Office": "Behrang Stesen",
        "State": "Perak"
    },
    {
        "Postcode": "35950",
        "Location": "Kampung Baru",
        "Post_Office": "Behrang Stesen",
        "State": "Perak"
    },
    {
        "Postcode": "35950",
        "Location": "Kampung Orang Asli",
        "Post_Office": "Behrang Stesen",
        "State": "Perak"
    },
    {
        "Postcode": "35950",
        "Location": "Kampung Padang",
        "Post_Office": "Behrang Stesen",
        "State": "Perak"
    },
    {
        "Postcode": "35950",
        "Location": "Kampung Pauh",
        "Post_Office": "Behrang Stesen",
        "State": "Perak"
    },
    {
        "Postcode": "35950",
        "Location": "Rumah Murah",
        "Post_Office": "Behrang Stesen",
        "State": "Perak"
    },
    {
        "Postcode": "35950",
        "Location": "Kampung Simpang Empat",
        "Post_Office": "Behrang Stesen",
        "State": "Perak"
    },
    {
        "Postcode": "35950",
        "Location": "Kampung Sungai Dara",
        "Post_Office": "Behrang Stesen",
        "State": "Perak"
    },
    {
        "Postcode": "35950",
        "Location": "Balai Polis Behrang Stesen",
        "Post_Office": "Behrang Stesen",
        "State": "Perak"
    },
    {
        "Postcode": "35950",
        "Location": "Bandar Behrang 2020 Wawasan",
        "Post_Office": "Behrang Stesen",
        "State": "Perak"
    },
    {
        "Postcode": "35950",
        "Location": "Bandar Sri Behrang",
        "Post_Office": "Behrang Stesen",
        "State": "Perak"
    },
    {
        "Postcode": "35950",
        "Location": "Behrang",
        "Post_Office": "Behrang Stesen",
        "State": "Perak"
    },
    {
        "Postcode": "35950",
        "Location": "Behrang Stesen",
        "Post_Office": "Behrang Stesen",
        "State": "Perak"
    },
    {
        "Postcode": "35950",
        "Location": "Behrang Ulu",
        "Post_Office": "Behrang Stesen",
        "State": "Perak"
    },
    {
        "Postcode": "35950",
        "Location": "Diamond Creek Country Resort",
        "Post_Office": "Behrang Stesen",
        "State": "Perak"
    },
    {
        "Postcode": "35950",
        "Location": "Felcra Changkat Baru",
        "Post_Office": "Behrang Stesen",
        "State": "Perak"
    },
    {
        "Postcode": "35950",
        "Location": "Filati Lastex Sdn. Bhd",
        "Post_Office": "Behrang Stesen",
        "State": "Perak"
    },
    {
        "Postcode": "35950",
        "Location": "Institut Tanah Dan Ukur Negara",
        "Post_Office": "Behrang Stesen",
        "State": "Perak"
    },
    {
        "Postcode": "35950",
        "Location": "Jalan Behrang Stesen/Behrang Ulu",
        "Post_Office": "Behrang Stesen",
        "State": "Perak"
    },
    {
        "Postcode": "35950",
        "Location": "Jalan Besar Behrang Stesen",
        "Post_Office": "Behrang Stesen",
        "State": "Perak"
    },
    {
        "Postcode": "35950",
        "Location": "Jalan Diamond Creek",
        "Post_Office": "Behrang Stesen",
        "State": "Perak"
    },
    {
        "Postcode": "35950",
        "Location": "Jalan Pasar Behrang Stesen",
        "Post_Office": "Behrang Stesen",
        "State": "Perak"
    },
    {
        "Postcode": "35950",
        "Location": "Jalan Wm 3A/10A",
        "Post_Office": "Behrang Stesen",
        "State": "Perak"
    },
    {
        "Postcode": "35950",
        "Location": "Kampung Baru A - Behrang Stesen",
        "Post_Office": "Behrang Stesen",
        "State": "Perak"
    },
    {
        "Postcode": "35950",
        "Location": "Kampung Baru B - Behrang Stesen",
        "Post_Office": "Behrang Stesen",
        "State": "Perak"
    },
    {
        "Postcode": "35950",
        "Location": "Kampung Baru Behrang Ulu",
        "Post_Office": "Behrang Stesen",
        "State": "Perak"
    },
    {
        "Postcode": "35950",
        "Location": "Kampung Canai Sungai Dara",
        "Post_Office": "Behrang Stesen",
        "State": "Perak"
    },
    {
        "Postcode": "35950",
        "Location": "Kampung Chehnain",
        "Post_Office": "Behrang Stesen",
        "State": "Perak"
    },
    {
        "Postcode": "35950",
        "Location": "Kampung Chinggong",
        "Post_Office": "Behrang Stesen",
        "State": "Perak"
    },
    {
        "Postcode": "35950",
        "Location": "Kampung Ladang Behrang",
        "Post_Office": "Behrang Stesen",
        "State": "Perak"
    },
    {
        "Postcode": "35950",
        "Location": "Kampung Ladang Behrang River",
        "Post_Office": "Behrang Stesen",
        "State": "Perak"
    },
    {
        "Postcode": "35950",
        "Location": "Kampung Orang Asli Chenien",
        "Post_Office": "Behrang Stesen",
        "State": "Perak"
    },
    {
        "Postcode": "35950",
        "Location": "Kampung Orang Asli Chinggung Batu 8",
        "Post_Office": "Behrang Stesen",
        "State": "Perak"
    },
    {
        "Postcode": "35950",
        "Location": "Kampung Orang Asli Sungai Lembing",
        "Post_Office": "Behrang Stesen",
        "State": "Perak"
    },
    {
        "Postcode": "35950",
        "Location": "Kampung Penghulu (Batu 8)",
        "Post_Office": "Behrang Stesen",
        "State": "Perak"
    },
    {
        "Postcode": "35950",
        "Location": "Kampung Simpang Sekolah Batu 8",
        "Post_Office": "Behrang Stesen",
        "State": "Perak"
    },
    {
        "Postcode": "35950",
        "Location": "Kampung Sungai Lembing",
        "Post_Office": "Behrang Stesen",
        "State": "Perak"
    },
    {
        "Postcode": "35950",
        "Location": "Kampung Sungai Sekiah Batu 7",
        "Post_Office": "Behrang Stesen",
        "State": "Perak"
    },
    {
        "Postcode": "35950",
        "Location": "Kampus Baru Upsi Behrang Ulu",
        "Post_Office": "Behrang Stesen",
        "State": "Perak"
    },
    {
        "Postcode": "35950",
        "Location": "Klan Halt 3",
        "Post_Office": "Behrang Stesen",
        "State": "Perak"
    },
    {
        "Postcode": "35950",
        "Location": "Klang Halt",
        "Post_Office": "Behrang Stesen",
        "State": "Perak"
    },
    {
        "Postcode": "35950",
        "Location": "Ladang Behrang River (Srjk Tamil)",
        "Post_Office": "Behrang Stesen",
        "State": "Perak"
    },
    {
        "Postcode": "35950",
        "Location": "Ladang Sungai Muda",
        "Post_Office": "Behrang Stesen",
        "State": "Perak"
    },
    {
        "Postcode": "35950",
        "Location": "Ovr Estate",
        "Post_Office": "Behrang Stesen",
        "State": "Perak"
    },
    {
        "Postcode": "35950",
        "Location": "Pejabat Majlis Daerah Tanjong Malim",
        "Post_Office": "Behrang Stesen",
        "State": "Perak"
    },
    {
        "Postcode": "35950",
        "Location": "Plaza Tol Behrang Stesen",
        "Post_Office": "Behrang Stesen",
        "State": "Perak"
    },
    {
        "Postcode": "35950",
        "Location": "Politeknik Tanjong Malim",
        "Post_Office": "Behrang Stesen",
        "State": "Perak"
    },
    {
        "Postcode": "35950",
        "Location": "Proton City Behrang Ulu",
        "Post_Office": "Behrang Stesen",
        "State": "Perak"
    },
    {
        "Postcode": "35950",
        "Location": "Proton Industri Behrang Ulu",
        "Post_Office": "Behrang Stesen",
        "State": "Perak"
    },
    {
        "Postcode": "35950",
        "Location": "Rancangan Rumah Murah",
        "Post_Office": "Behrang Stesen",
        "State": "Perak"
    },
    {
        "Postcode": "35950",
        "Location": "Sekolah Kebangsaan Behrang Batu 8 Behrang Ulu",
        "Post_Office": "Behrang Stesen",
        "State": "Perak"
    },
    {
        "Postcode": "35950",
        "Location": "Sekolah Kebangsaan Dato Kamarudin",
        "Post_Office": "Behrang Stesen",
        "State": "Perak"
    },
    {
        "Postcode": "35950",
        "Location": "Srjk ( C ) Behrang Ulu",
        "Post_Office": "Behrang Stesen",
        "State": "Perak"
    },
    {
        "Postcode": "35950",
        "Location": "Srjk ( C ) Phin Min",
        "Post_Office": "Behrang Stesen",
        "State": "Perak"
    },
    {
        "Postcode": "35950",
        "Location": "Taman Behrang Baru",
        "Post_Office": "Behrang Stesen",
        "State": "Perak"
    },
    {
        "Postcode": "35950",
        "Location": "Tanjung Malim (Km 3)",
        "Post_Office": "Behrang Stesen",
        "State": "Perak"
    }
]
