[
    {
        "Postcode": "39000",
        "Location": "Persiaran Camelia 1",
        "Post_Office": "Tanah Rata",
        "State": "Pahang"
    },
    {
        "Postcode": "39000",
        "Location": "Persiaran Camelia 2",
        "Post_Office": "Tanah Rata",
        "State": "Pahang"
    },
    {
        "Postcode": "39000",
        "Location": "Persiaran Camelia 3",
        "Post_Office": "Tanah Rata",
        "State": "Pahang"
    },
    {
        "Postcode": "39000",
        "Location": "Persiaran Camelia 4",
        "Post_Office": "Tanah Rata",
        "State": "Pahang"
    },
    {
        "Postcode": "39000",
        "Location": "Carnation Park (Block A - E)",
        "Post_Office": "Tanah Rata",
        "State": "Pahang"
    },
    {
        "Postcode": "39000",
        "Location": "Gunung Berinchang",
        "Post_Office": "Tanah Rata",
        "State": "Pahang"
    },
    {
        "Postcode": "39000",
        "Location": "Kampung Orang Asli Sungai Ruil",
        "Post_Office": "Tanah Rata",
        "State": "Pahang"
    },
    {
        "Postcode": "39000",
        "Location": "Kampung Teringkap",
        "Post_Office": "Tanah Rata",
        "State": "Pahang"
    },
    {
        "Postcode": "39000",
        "Location": "Kuala Terala",
        "Post_Office": "Tanah Rata",
        "State": "Pahang"
    },
    {
        "Postcode": "39000",
        "Location": "Ladang Blue Valley",
        "Post_Office": "Tanah Rata",
        "State": "Pahang"
    },
    {
        "Postcode": "39000",
        "Location": "Ladang Sungai Palas",
        "Post_Office": "Tanah Rata",
        "State": "Pahang"
    },
    {
        "Postcode": "39000",
        "Location": "Ladang Teh Bharat",
        "Post_Office": "Tanah Rata",
        "State": "Pahang"
    },
    {
        "Postcode": "39000",
        "Location": "Taman Sedia",
        "Post_Office": "Tanah Rata",
        "State": "Pahang"
    },
    {
        "Postcode": "39000",
        "Location": "Tanah Rata",
        "Post_Office": "Tanah Rata",
        "State": "Pahang"
    },
    {
        "Postcode": "39000",
        "Location": "Tanah Rata (Batu 49)",
        "Post_Office": "Tanah Rata",
        "State": "Pahang"
    },
    {
        "Postcode": "39000",
        "Location": "Tanah Tinggi Cameron",
        "Post_Office": "Tanah Rata",
        "State": "Pahang"
    }
]
