[
    {
        "Postcode": "39100",
        "Location": "Taman Bukit Indah",
        "Post_Office": "Brinchang",
        "State": "Pahang"
    },
    {
        "Postcode": "39100",
        "Location": "Arked Peladang",
        "Post_Office": "Brinchang",
        "State": "Pahang"
    },
    {
        "Postcode": "39100",
        "Location": "Bandar Baru Brinchang",
        "Post_Office": "Brinchang",
        "State": "Pahang"
    },
    {
        "Postcode": "39100",
        "Location": "Brinchang",
        "Post_Office": "Brinchang",
        "State": "Pahang"
    },
    {
        "Postcode": "39100",
        "Location": "Equatorial Hotel",
        "Post_Office": "Brinchang",
        "State": "Pahang"
    },
    {
        "Postcode": "39100",
        "Location": "Flat Jkr",
        "Post_Office": "Brinchang",
        "State": "Pahang"
    },
    {
        "Postcode": "39100",
        "Location": "Gerai Mdch Kea Farm",
        "Post_Office": "Brinchang",
        "State": "Pahang"
    },
    {
        "Postcode": "39100",
        "Location": "Gerai Terminal Inn",
        "Post_Office": "Brinchang",
        "State": "Pahang"
    },
    {
        "Postcode": "39100",
        "Location": "Green Cow",
        "Post_Office": "Brinchang",
        "State": "Pahang"
    },
    {
        "Postcode": "39100",
        "Location": "Ibu Pejabat Polis Brinchang",
        "Post_Office": "Brinchang",
        "State": "Pahang"
    },
    {
        "Postcode": "39100",
        "Location": "Jalan Kolam Air",
        "Post_Office": "Brinchang",
        "State": "Pahang"
    },
    {
        "Postcode": "39100",
        "Location": "Jalan Kuari",
        "Post_Office": "Brinchang",
        "State": "Pahang"
    },
    {
        "Postcode": "39100",
        "Location": "Jalan Kuari 2",
        "Post_Office": "Brinchang",
        "State": "Pahang"
    },
    {
        "Postcode": "39100",
        "Location": "Jalan Pekan Lama",
        "Post_Office": "Brinchang",
        "State": "Pahang"
    },
    {
        "Postcode": "39100",
        "Location": "Jalan Sungai Palas",
        "Post_Office": "Brinchang",
        "State": "Pahang"
    },
    {
        "Postcode": "39100",
        "Location": "Jalan Ulu Tringkap",
        "Post_Office": "Brinchang",
        "State": "Pahang"
    },
    {
        "Postcode": "39100",
        "Location": "Kampung Baru Brinchang",
        "Post_Office": "Brinchang",
        "State": "Pahang"
    },
    {
        "Postcode": "39100",
        "Location": "Kampung Baru Teringkap",
        "Post_Office": "Brinchang",
        "State": "Pahang"
    },
    {
        "Postcode": "39100",
        "Location": "Kampung Melayu Teringkap",
        "Post_Office": "Brinchang",
        "State": "Pahang"
    },
    {
        "Postcode": "39100",
        "Location": "Kampung Tringkap",
        "Post_Office": "Brinchang",
        "State": "Pahang"
    },
    {
        "Postcode": "39100",
        "Location": "Kea Farm",
        "Post_Office": "Brinchang",
        "State": "Pahang"
    },
    {
        "Postcode": "39100",
        "Location": "Pasar Brinchang",
        "Post_Office": "Brinchang",
        "State": "Pahang"
    },
    {
        "Postcode": "39100",
        "Location": "Pasar Tringkap",
        "Post_Office": "Brinchang",
        "State": "Pahang"
    },
    {
        "Postcode": "39100",
        "Location": "Rumah-Rumah Tentera",
        "Post_Office": "Brinchang",
        "State": "Pahang"
    },
    {
        "Postcode": "39100",
        "Location": "S.K Brinchang",
        "Post_Office": "Brinchang",
        "State": "Pahang"
    },
    {
        "Postcode": "39100",
        "Location": "Sungai Burung",
        "Post_Office": "Brinchang",
        "State": "Pahang"
    },
    {
        "Postcode": "39100",
        "Location": "Taman Mca Tringkap",
        "Post_Office": "Brinchang",
        "State": "Pahang"
    },
    {
        "Postcode": "39100",
        "Location": "Taman Teringkap Puncak",
        "Post_Office": "Brinchang",
        "State": "Pahang"
    },
    {
        "Postcode": "39100",
        "Location": "Teringkap",
        "Post_Office": "Brinchang",
        "State": "Pahang"
    }
]
