[
    {
        "Postcode": "39200",
        "Location": "Taman Pelangi",
        "Post_Office": "Ringlet",
        "State": "Pahang"
    },
    {
        "Postcode": "39200",
        "Location": "Ladang Shum Yip Leong",
        "Post_Office": "Ringlet",
        "State": "Pahang"
    },
    {
        "Postcode": "39200",
        "Location": "Taman Mca",
        "Post_Office": "Ringlet",
        "State": "Pahang"
    },
    {
        "Postcode": "39200",
        "Location": "Bertam Valley",
        "Post_Office": "Ringlet",
        "State": "Pahang"
    },
    {
        "Postcode": "39200",
        "Location": "Gerai Makan Ringlet",
        "Post_Office": "Ringlet",
        "State": "Pahang"
    },
    {
        "Postcode": "39200",
        "Location": "Hotel Lake House",
        "Post_Office": "Ringlet",
        "State": "Pahang"
    },
    {
        "Postcode": "39200",
        "Location": "Jalan Bertam Valley",
        "Post_Office": "Ringlet",
        "State": "Pahang"
    },
    {
        "Postcode": "39200",
        "Location": "Jalan Ladang Boh",
        "Post_Office": "Ringlet",
        "State": "Pahang"
    },
    {
        "Postcode": "39200",
        "Location": "Jalan Mdch",
        "Post_Office": "Ringlet",
        "State": "Pahang"
    },
    {
        "Postcode": "39200",
        "Location": "Jalan Ulu Bertam",
        "Post_Office": "Ringlet",
        "State": "Pahang"
    },
    {
        "Postcode": "39200",
        "Location": "Jalan Ulu Merah",
        "Post_Office": "Ringlet",
        "State": "Pahang"
    },
    {
        "Postcode": "39200",
        "Location": "Jalan Ulu Ringlet",
        "Post_Office": "Ringlet",
        "State": "Pahang"
    },
    {
        "Postcode": "39200",
        "Location": "Kampung Baru",
        "Post_Office": "Ringlet",
        "State": "Pahang"
    },
    {
        "Postcode": "39200",
        "Location": "Kampung Baru B",
        "Post_Office": "Ringlet",
        "State": "Pahang"
    },
    {
        "Postcode": "39200",
        "Location": "Kampung Lama A",
        "Post_Office": "Ringlet",
        "State": "Pahang"
    },
    {
        "Postcode": "39200",
        "Location": "Kampung Lubok Tamang",
        "Post_Office": "Ringlet",
        "State": "Pahang"
    },
    {
        "Postcode": "39200",
        "Location": "Kampung Melayu",
        "Post_Office": "Ringlet",
        "State": "Pahang"
    },
    {
        "Postcode": "39200",
        "Location": "Kampung Sungai Kabuk",
        "Post_Office": "Ringlet",
        "State": "Pahang"
    },
    {
        "Postcode": "39200",
        "Location": "Ladang Boh",
        "Post_Office": "Ringlet",
        "State": "Pahang"
    },
    {
        "Postcode": "39200",
        "Location": "Ladang Ng Teong Kiat",
        "Post_Office": "Ringlet",
        "State": "Pahang"
    },
    {
        "Postcode": "39200",
        "Location": "Pangsapuri Aster",
        "Post_Office": "Ringlet",
        "State": "Pahang"
    },
    {
        "Postcode": "39200",
        "Location": "Pekan Bertam Valley Sa",
        "Post_Office": "Ringlet",
        "State": "Pahang"
    },
    {
        "Postcode": "39200",
        "Location": "Pekan Bertam Valley Sb",
        "Post_Office": "Ringlet",
        "State": "Pahang"
    },
    {
        "Postcode": "39200",
        "Location": "Pekan Rengit",
        "Post_Office": "Ringlet",
        "State": "Pahang"
    },
    {
        "Postcode": "39200",
        "Location": "Pusat Bengkel Ulu Ringlet",
        "Post_Office": "Ringlet",
        "State": "Pahang"
    },
    {
        "Postcode": "39200",
        "Location": "Quarters Hospital",
        "Post_Office": "Ringlet",
        "State": "Pahang"
    },
    {
        "Postcode": "39200",
        "Location": "Quarters Jkr",
        "Post_Office": "Ringlet",
        "State": "Pahang"
    },
    {
        "Postcode": "39200",
        "Location": "Quarters Loji Stir Habu",
        "Post_Office": "Ringlet",
        "State": "Pahang"
    },
    {
        "Postcode": "39200",
        "Location": "Quarters Tnb",
        "Post_Office": "Ringlet",
        "State": "Pahang"
    },
    {
        "Postcode": "39200",
        "Location": "Ringlet",
        "Post_Office": "Ringlet",
        "State": "Pahang"
    },
    {
        "Postcode": "39200",
        "Location": "Sungai Parang",
        "Post_Office": "Ringlet",
        "State": "Pahang"
    },
    {
        "Postcode": "39200",
        "Location": "Taman Bertam Mewah",
        "Post_Office": "Ringlet",
        "State": "Pahang"
    },
    {
        "Postcode": "39200",
        "Location": "Taman Evergreen Villa",
        "Post_Office": "Ringlet",
        "State": "Pahang"
    },
    {
        "Postcode": "39200",
        "Location": "Taman Ipoh Land Aquiti",
        "Post_Office": "Ringlet",
        "State": "Pahang"
    },
    {
        "Postcode": "39200",
        "Location": "Taman Lake View",
        "Post_Office": "Ringlet",
        "State": "Pahang"
    },
    {
        "Postcode": "39200",
        "Location": "Taman Malar Hijau",
        "Post_Office": "Ringlet",
        "State": "Pahang"
    },
    {
        "Postcode": "39200",
        "Location": "Taman Mca Lembah Bertam",
        "Post_Office": "Ringlet",
        "State": "Pahang"
    },
    {
        "Postcode": "39200",
        "Location": "Taman Mewah",
        "Post_Office": "Ringlet",
        "State": "Pahang"
    },
    {
        "Postcode": "39200",
        "Location": "Taman Orchid Deluxe Park",
        "Post_Office": "Ringlet",
        "State": "Pahang"
    },
    {
        "Postcode": "39200",
        "Location": "Taman Ringlet",
        "Post_Office": "Ringlet",
        "State": "Pahang"
    },
    {
        "Postcode": "39200",
        "Location": "Taman Sri Bertam",
        "Post_Office": "Ringlet",
        "State": "Pahang"
    }
]
