[
    {
        "Postcode": "33000",
        "Location": "Kampung Paya Selipat",
        "Post_Office": "Kuala Kangsar",
        "State": "Perak"
    },
    {
        "Postcode": "33000",
        "Location": "Kampung Raau",
        "Post_Office": "Kuala Kangsar",
        "State": "Perak"
    },
    {
        "Postcode": "33000",
        "Location": "Kampung Silor",
        "Post_Office": "Kuala Kangsar",
        "State": "Perak"
    },
    {
        "Postcode": "33000",
        "Location": "Kampung Simpang Lawin",
        "Post_Office": "Kuala Kangsar",
        "State": "Perak"
    },
    {
        "Postcode": "33000",
        "Location": "Kampung Suak Larah",
        "Post_Office": "Kuala Kangsar",
        "State": "Perak"
    },
    {
        "Postcode": "33000",
        "Location": "Kampung Tanah Merah",
        "Post_Office": "Kuala Kangsar",
        "State": "Perak"
    },
    {
        "Postcode": "33000",
        "Location": "Lawin Estate",
        "Post_Office": "Kuala Kangsar",
        "State": "Perak"
    },
    {
        "Postcode": "33000",
        "Location": "Payah Besar",
        "Post_Office": "Kuala Kangsar",
        "State": "Perak"
    },
    {
        "Postcode": "33000",
        "Location": "Payah Selipat",
        "Post_Office": "Kuala Kangsar",
        "State": "Perak"
    },
    {
        "Postcode": "33000",
        "Location": "Taman Bouganvilla",
        "Post_Office": "Kuala Kangsar",
        "State": "Perak"
    },
    {
        "Postcode": "33000",
        "Location": "Taman Izora",
        "Post_Office": "Kuala Kangsar",
        "State": "Perak"
    },
    {
        "Postcode": "33000",
        "Location": "Taman Jasa 1",
        "Post_Office": "Kuala Kangsar",
        "State": "Perak"
    },
    {
        "Postcode": "33000",
        "Location": "Taman Jasa 2",
        "Post_Office": "Kuala Kangsar",
        "State": "Perak"
    },
    {
        "Postcode": "33000",
        "Location": "Taman Jasa 3",
        "Post_Office": "Kuala Kangsar",
        "State": "Perak"
    },
    {
        "Postcode": "33000",
        "Location": "Taman Puncak Bouganvilla",
        "Post_Office": "Kuala Kangsar",
        "State": "Perak"
    },
    {
        "Postcode": "33000",
        "Location": "Taman Seri Mercu 1",
        "Post_Office": "Kuala Kangsar",
        "State": "Perak"
    },
    {
        "Postcode": "33000",
        "Location": "Taman Seri Mercu 2",
        "Post_Office": "Kuala Kangsar",
        "State": "Perak"
    },
    {
        "Postcode": "33000",
        "Location": "Taman Seri Mercu 3",
        "Post_Office": "Kuala Kangsar",
        "State": "Perak"
    },
    {
        "Postcode": "33000",
        "Location": "Kampung Jawa",
        "Post_Office": "Kuala Kangsar",
        "State": "Perak"
    },
    {
        "Postcode": "33000",
        "Location": "Kampung Maran",
        "Post_Office": "Kuala Kangsar",
        "State": "Perak"
    },
    {
        "Postcode": "33000",
        "Location": "Kampung Nyior",
        "Post_Office": "Kuala Kangsar",
        "State": "Perak"
    },
    {
        "Postcode": "33000",
        "Location": "Kampung Pisang",
        "Post_Office": "Kuala Kangsar",
        "State": "Perak"
    },
    {
        "Postcode": "33000",
        "Location": "Kampung Sungai Akar",
        "Post_Office": "Kuala Kangsar",
        "State": "Perak"
    },
    {
        "Postcode": "33000",
        "Location": "Kampung Talang",
        "Post_Office": "Kuala Kangsar",
        "State": "Perak"
    },
    {
        "Postcode": "33000",
        "Location": "Kuala Parit",
        "Post_Office": "Kuala Kangsar",
        "State": "Perak"
    },
    {
        "Postcode": "33000",
        "Location": "Taman Indah",
        "Post_Office": "Kuala Kangsar",
        "State": "Perak"
    },
    {
        "Postcode": "33000",
        "Location": "Taman Kenangan",
        "Post_Office": "Kuala Kangsar",
        "State": "Perak"
    },
    {
        "Postcode": "33000",
        "Location": "Taman Sentosa 1",
        "Post_Office": "Kuala Kangsar",
        "State": "Perak"
    },
    {
        "Postcode": "33000",
        "Location": "Taman Sentosa 2",
        "Post_Office": "Kuala Kangsar",
        "State": "Perak"
    },
    {
        "Postcode": "33000",
        "Location": "Taman Seroja",
        "Post_Office": "Kuala Kangsar",
        "State": "Perak"
    },
    {
        "Postcode": "33000",
        "Location": "Kampung Terengganu",
        "Post_Office": "Kuala Kangsar",
        "State": "Perak"
    },
    {
        "Postcode": "33000",
        "Location": "Taman Cempaka Sari",
        "Post_Office": "Kuala Kangsar",
        "State": "Perak"
    },
    {
        "Postcode": "33000",
        "Location": "Taman Seri Emas",
        "Post_Office": "Kuala Kangsar",
        "State": "Perak"
    },
    {
        "Postcode": "33000",
        "Location": "Taman Wawasan",
        "Post_Office": "Kuala Kangsar",
        "State": "Perak"
    },
    {
        "Postcode": "33000",
        "Location": "Kampung Pulai",
        "Post_Office": "Kuala Kangsar",
        "State": "Perak"
    },
    {
        "Postcode": "33000",
        "Location": "Kampung Pulau",
        "Post_Office": "Kuala Kangsar",
        "State": "Perak"
    },
    {
        "Postcode": "33000",
        "Location": "Kampung Setia",
        "Post_Office": "Kuala Kangsar",
        "State": "Perak"
    },
    {
        "Postcode": "33000",
        "Location": "Kampung Talang Tengah",
        "Post_Office": "Kuala Kangsar",
        "State": "Perak"
    },
    {
        "Postcode": "33000",
        "Location": "Taman Anggerik",
        "Post_Office": "Kuala Kangsar",
        "State": "Perak"
    },
    {
        "Postcode": "33000",
        "Location": "Taman Bunga Raya",
        "Post_Office": "Kuala Kangsar",
        "State": "Perak"
    },
    {
        "Postcode": "33000",
        "Location": "Taman Damai",
        "Post_Office": "Kuala Kangsar",
        "State": "Perak"
    },
    {
        "Postcode": "33000",
        "Location": "Taman Harmoni",
        "Post_Office": "Kuala Kangsar",
        "State": "Perak"
    },
    {
        "Postcode": "33000",
        "Location": "Taman Kenari",
        "Post_Office": "Kuala Kangsar",
        "State": "Perak"
    },
    {
        "Postcode": "33000",
        "Location": "Taman Maju",
        "Post_Office": "Kuala Kangsar",
        "State": "Perak"
    },
    {
        "Postcode": "33000",
        "Location": "Taman Melur",
        "Post_Office": "Kuala Kangsar",
        "State": "Perak"
    },
    {
        "Postcode": "33000",
        "Location": "Taman Pelangi",
        "Post_Office": "Kuala Kangsar",
        "State": "Perak"
    },
    {
        "Postcode": "33000",
        "Location": "Kampung Jenalik",
        "Post_Office": "Kuala Kangsar",
        "State": "Perak"
    },
    {
        "Postcode": "33000",
        "Location": "Kampung Kelang",
        "Post_Office": "Kuala Kangsar",
        "State": "Perak"
    },
    {
        "Postcode": "33000",
        "Location": "Kampung Kolam",
        "Post_Office": "Kuala Kangsar",
        "State": "Perak"
    },
    {
        "Postcode": "33000",
        "Location": "Kampung Batu 35 (Lawin)",
        "Post_Office": "Kuala Kangsar",
        "State": "Perak"
    },
    {
        "Postcode": "33000",
        "Location": "Kampung Belakang Masjid",
        "Post_Office": "Kuala Kangsar",
        "State": "Perak"
    },
    {
        "Postcode": "33000",
        "Location": "Kampung Belukar Kunyit",
        "Post_Office": "Kuala Kangsar",
        "State": "Perak"
    },
    {
        "Postcode": "33000",
        "Location": "Kampung Bubang Panjang",
        "Post_Office": "Kuala Kangsar",
        "State": "Perak"
    },
    {
        "Postcode": "33000",
        "Location": "Kampung Changkat Ayer",
        "Post_Office": "Kuala Kangsar",
        "State": "Perak"
    },
    {
        "Postcode": "33000",
        "Location": "Kampung Changkat Berangan",
        "Post_Office": "Kuala Kangsar",
        "State": "Perak"
    },
    {
        "Postcode": "33000",
        "Location": "Kampung Changkat Payong",
        "Post_Office": "Kuala Kangsar",
        "State": "Perak"
    },
    {
        "Postcode": "33000",
        "Location": "Kampung Gemuroh",
        "Post_Office": "Kuala Kangsar",
        "State": "Perak"
    },
    {
        "Postcode": "33000",
        "Location": "Kampung Hujong Tanjung",
        "Post_Office": "Kuala Kangsar",
        "State": "Perak"
    },
    {
        "Postcode": "33000",
        "Location": "Kampung Jenalik Kiri",
        "Post_Office": "Kuala Kangsar",
        "State": "Perak"
    },
    {
        "Postcode": "33000",
        "Location": "Kampung Jenalik Lubok Merbau",
        "Post_Office": "Kuala Kangsar",
        "State": "Perak"
    },
    {
        "Postcode": "33000",
        "Location": "Kampung Kepala Bendang",
        "Post_Office": "Kuala Kangsar",
        "State": "Perak"
    },
    {
        "Postcode": "33000",
        "Location": "Kampung Kubang Panjang",
        "Post_Office": "Kuala Kangsar",
        "State": "Perak"
    },
    {
        "Postcode": "33000",
        "Location": "Kampung Langkau Luar",
        "Post_Office": "Kuala Kangsar",
        "State": "Perak"
    },
    {
        "Postcode": "33000",
        "Location": "Kampung Langkor",
        "Post_Office": "Kuala Kangsar",
        "State": "Perak"
    },
    {
        "Postcode": "33000",
        "Location": "Kampung Lawin",
        "Post_Office": "Kuala Kangsar",
        "State": "Perak"
    },
    {
        "Postcode": "33000",
        "Location": "Kampung Lubok Merbau",
        "Post_Office": "Kuala Kangsar",
        "State": "Perak"
    },
    {
        "Postcode": "33000",
        "Location": "Kampung Lubok Merbau Tua",
        "Post_Office": "Kuala Kangsar",
        "State": "Perak"
    },
    {
        "Postcode": "33000",
        "Location": "Kampung Paya (Lubok Merbau)",
        "Post_Office": "Kuala Kangsar",
        "State": "Perak"
    },
    {
        "Postcode": "33000",
        "Location": "Kampung Sayong Tengah",
        "Post_Office": "Kuala Kangsar",
        "State": "Perak"
    },
    {
        "Postcode": "33000",
        "Location": "Kuala Kangsar (Km 45)",
        "Post_Office": "Kuala Kangsar",
        "State": "Perak"
    },
    {
        "Postcode": "33000",
        "Location": "Permatang Pauh",
        "Post_Office": "Kuala Kangsar",
        "State": "Perak"
    },
    {
        "Postcode": "33000",
        "Location": "Kampung Padang Changkat",
        "Post_Office": "Kuala Kangsar",
        "State": "Perak"
    },
    {
        "Postcode": "33000",
        "Location": "Kampung Padang Changkat",
        "Post_Office": "Kuala Kangsar",
        "State": "Perak"
    },
    {
        "Postcode": "33000",
        "Location": "Bendang Panjang",
        "Post_Office": "Kuala Kangsar",
        "State": "Perak"
    },
    {
        "Postcode": "33000",
        "Location": "Bukit Batu Satu",
        "Post_Office": "Kuala Kangsar",
        "State": "Perak"
    },
    {
        "Postcode": "33000",
        "Location": "Bukit Chandan",
        "Post_Office": "Kuala Kangsar",
        "State": "Perak"
    },
    {
        "Postcode": "33000",
        "Location": "Bukit Merchu",
        "Post_Office": "Kuala Kangsar",
        "State": "Perak"
    },
    {
        "Postcode": "33000",
        "Location": "Bukit Perabit",
        "Post_Office": "Kuala Kangsar",
        "State": "Perak"
    },
    {
        "Postcode": "33000",
        "Location": "Changkat Rambutan",
        "Post_Office": "Kuala Kangsar",
        "State": "Perak"
    },
    {
        "Postcode": "33000",
        "Location": "Jemuan",
        "Post_Office": "Kuala Kangsar",
        "State": "Perak"
    },
    {
        "Postcode": "33000",
        "Location": "Jerlun",
        "Post_Office": "Kuala Kangsar",
        "State": "Perak"
    },
    {
        "Postcode": "33000",
        "Location": "Kampung Banjir",
        "Post_Office": "Kuala Kangsar",
        "State": "Perak"
    },
    {
        "Postcode": "33000",
        "Location": "Kampung Baru Sanggang (Pprt)",
        "Post_Office": "Kuala Kangsar",
        "State": "Perak"
    },
    {
        "Postcode": "33000",
        "Location": "Kampung Basong",
        "Post_Office": "Kuala Kangsar",
        "State": "Perak"
    },
    {
        "Postcode": "33000",
        "Location": "Kampung Bendang Ayer",
        "Post_Office": "Kuala Kangsar",
        "State": "Perak"
    },
    {
        "Postcode": "33000",
        "Location": "Kampung Bendang Panjang",
        "Post_Office": "Kuala Kangsar",
        "State": "Perak"
    },
    {
        "Postcode": "33000",
        "Location": "Kampung Benting",
        "Post_Office": "Kuala Kangsar",
        "State": "Perak"
    },
    {
        "Postcode": "33000",
        "Location": "Kampung Buaya",
        "Post_Office": "Kuala Kangsar",
        "State": "Perak"
    },
    {
        "Postcode": "33000",
        "Location": "Kampung Changkat Jawa",
        "Post_Office": "Kuala Kangsar",
        "State": "Perak"
    },
    {
        "Postcode": "33000",
        "Location": "Kampung Changkat Krunia",
        "Post_Office": "Kuala Kangsar",
        "State": "Perak"
    },
    {
        "Postcode": "33000",
        "Location": "Kampung Cherok Jamuan",
        "Post_Office": "Kuala Kangsar",
        "State": "Perak"
    },
    {
        "Postcode": "33000",
        "Location": "Kampung Cikgu Yahya",
        "Post_Office": "Kuala Kangsar",
        "State": "Perak"
    },
    {
        "Postcode": "33000",
        "Location": "Kampung Gerakoh",
        "Post_Office": "Kuala Kangsar",
        "State": "Perak"
    },
    {
        "Postcode": "33000",
        "Location": "Kampung Jemuan",
        "Post_Office": "Kuala Kangsar",
        "State": "Perak"
    },
    {
        "Postcode": "33000",
        "Location": "Kampung Kelbor",
        "Post_Office": "Kuala Kangsar",
        "State": "Perak"
    },
    {
        "Postcode": "33000",
        "Location": "Kampung Kelebar",
        "Post_Office": "Kuala Kangsar",
        "State": "Perak"
    },
    {
        "Postcode": "33000",
        "Location": "Kampung Kenas",
        "Post_Office": "Kuala Kangsar",
        "State": "Perak"
    },
    {
        "Postcode": "33000",
        "Location": "Kampung Ketior",
        "Post_Office": "Kuala Kangsar",
        "State": "Perak"
    },
    {
        "Postcode": "33000",
        "Location": "Kampung Kuala Chermin",
        "Post_Office": "Kuala Kangsar",
        "State": "Perak"
    },
    {
        "Postcode": "33000",
        "Location": "Kampung Kuala Kenas",
        "Post_Office": "Kuala Kangsar",
        "State": "Perak"
    },
    {
        "Postcode": "33000",
        "Location": "Kampung Laksa",
        "Post_Office": "Kuala Kangsar",
        "State": "Perak"
    },
    {
        "Postcode": "33000",
        "Location": "Kampung Lal Singh",
        "Post_Office": "Kuala Kangsar",
        "State": "Perak"
    },
    {
        "Postcode": "33000",
        "Location": "Kampung Langkap",
        "Post_Office": "Kuala Kangsar",
        "State": "Perak"
    },
    {
        "Postcode": "33000",
        "Location": "Kampung Larah",
        "Post_Office": "Kuala Kangsar",
        "State": "Perak"
    },
    {
        "Postcode": "33000",
        "Location": "Kampung Lembah Masjid",
        "Post_Office": "Kuala Kangsar",
        "State": "Perak"
    },
    {
        "Postcode": "33000",
        "Location": "Kampung Lorong Manjah",
        "Post_Office": "Kuala Kangsar",
        "State": "Perak"
    },
    {
        "Postcode": "33000",
        "Location": "Kampung Padang Ampang",
        "Post_Office": "Kuala Kangsar",
        "State": "Perak"
    },
    {
        "Postcode": "33000",
        "Location": "Kampung Pajak Potong",
        "Post_Office": "Kuala Kangsar",
        "State": "Perak"
    },
    {
        "Postcode": "33000",
        "Location": "Kampung Pak Wan",
        "Post_Office": "Kuala Kangsar",
        "State": "Perak"
    },
    {
        "Postcode": "33000",
        "Location": "Kampung Pakri",
        "Post_Office": "Kuala Kangsar",
        "State": "Perak"
    },
    {
        "Postcode": "33000",
        "Location": "Kampung Punti Padang Ampang",
        "Post_Office": "Kuala Kangsar",
        "State": "Perak"
    },
    {
        "Postcode": "33000",
        "Location": "Kampung Raja Chulan",
        "Post_Office": "Kuala Kangsar",
        "State": "Perak"
    },
    {
        "Postcode": "33000",
        "Location": "Kampung Raja Ward",
        "Post_Office": "Kuala Kangsar",
        "State": "Perak"
    },
    {
        "Postcode": "33000",
        "Location": "Kampung Ribai",
        "Post_Office": "Kuala Kangsar",
        "State": "Perak"
    },
    {
        "Postcode": "33000",
        "Location": "Kampung Sabapathy",
        "Post_Office": "Kuala Kangsar",
        "State": "Perak"
    },
    {
        "Postcode": "33000",
        "Location": "Kampung Sementa",
        "Post_Office": "Kuala Kangsar",
        "State": "Perak"
    },
    {
        "Postcode": "33000",
        "Location": "Kampung Senawar",
        "Post_Office": "Kuala Kangsar",
        "State": "Perak"
    },
    {
        "Postcode": "33000",
        "Location": "Kampung Senggang",
        "Post_Office": "Kuala Kangsar",
        "State": "Perak"
    },
    {
        "Postcode": "33000",
        "Location": "Kampung Stesyen",
        "Post_Office": "Kuala Kangsar",
        "State": "Perak"
    },
    {
        "Postcode": "33000",
        "Location": "Kampung Sungai Siput",
        "Post_Office": "Kuala Kangsar",
        "State": "Perak"
    },
    {
        "Postcode": "33000",
        "Location": "Kampung Sungai Siput Hilir",
        "Post_Office": "Kuala Kangsar",
        "State": "Perak"
    },
    {
        "Postcode": "33000",
        "Location": "Kampung Sungai Siput Hulu",
        "Post_Office": "Kuala Kangsar",
        "State": "Perak"
    },
    {
        "Postcode": "33000",
        "Location": "Kampung Talang Masjid",
        "Post_Office": "Kuala Kangsar",
        "State": "Perak"
    },
    {
        "Postcode": "33000",
        "Location": "Kampung Tanah Lepan",
        "Post_Office": "Kuala Kangsar",
        "State": "Perak"
    },
    {
        "Postcode": "33000",
        "Location": "Kampung Teow",
        "Post_Office": "Kuala Kangsar",
        "State": "Perak"
    },
    {
        "Postcode": "33000",
        "Location": "Kawasan Perindustrian (Miel)",
        "Post_Office": "Kuala Kangsar",
        "State": "Perak"
    },
    {
        "Postcode": "33000",
        "Location": "Ketior",
        "Post_Office": "Kuala Kangsar",
        "State": "Perak"
    },
    {
        "Postcode": "33000",
        "Location": "Kota Lama Kiri",
        "Post_Office": "Kuala Kangsar",
        "State": "Perak"
    },
    {
        "Postcode": "33000",
        "Location": "Kuala Kangsar",
        "Post_Office": "Kuala Kangsar",
        "State": "Perak"
    },
    {
        "Postcode": "33000",
        "Location": "Kuala Sungai Chempias",
        "Post_Office": "Kuala Kangsar",
        "State": "Perak"
    },
    {
        "Postcode": "33000",
        "Location": "Perumahan Awam Liman Kati",
        "Post_Office": "Kuala Kangsar",
        "State": "Perak"
    },
    {
        "Postcode": "33000",
        "Location": "Perumahan Awam Lubok Merbau",
        "Post_Office": "Kuala Kangsar",
        "State": "Perak"
    },
    {
        "Postcode": "33000",
        "Location": "Rambai Tujuh",
        "Post_Office": "Kuala Kangsar",
        "State": "Perak"
    },
    {
        "Postcode": "33000",
        "Location": "Rpa Sayong",
        "Post_Office": "Kuala Kangsar",
        "State": "Perak"
    },
    {
        "Postcode": "33000",
        "Location": "Sauk Larah",
        "Post_Office": "Kuala Kangsar",
        "State": "Perak"
    },
    {
        "Postcode": "33000",
        "Location": "Seberang Pasir",
        "Post_Office": "Kuala Kangsar",
        "State": "Perak"
    },
    {
        "Postcode": "33000",
        "Location": "Simpang Penaga",
        "Post_Office": "Kuala Kangsar",
        "State": "Perak"
    },
    {
        "Postcode": "33000",
        "Location": "Taman Batu Mas",
        "Post_Office": "Kuala Kangsar",
        "State": "Perak"
    },
    {
        "Postcode": "33000",
        "Location": "Taman Bukit",
        "Post_Office": "Kuala Kangsar",
        "State": "Perak"
    },
    {
        "Postcode": "33000",
        "Location": "Taman Bukit Kerajaan",
        "Post_Office": "Kuala Kangsar",
        "State": "Perak"
    },
    {
        "Postcode": "33000",
        "Location": "Taman Chandan Puteri",
        "Post_Office": "Kuala Kangsar",
        "State": "Perak"
    },
    {
        "Postcode": "33000",
        "Location": "Taman Desa Sri Iskandar",
        "Post_Office": "Kuala Kangsar",
        "State": "Perak"
    },
    {
        "Postcode": "33000",
        "Location": "Taman Emas Indah",
        "Post_Office": "Kuala Kangsar",
        "State": "Perak"
    },
    {
        "Postcode": "33000",
        "Location": "Taman Jasa",
        "Post_Office": "Kuala Kangsar",
        "State": "Perak"
    },
    {
        "Postcode": "33000",
        "Location": "Taman Jasa 4",
        "Post_Office": "Kuala Kangsar",
        "State": "Perak"
    },
    {
        "Postcode": "33000",
        "Location": "Taman Jaya Timur",
        "Post_Office": "Kuala Kangsar",
        "State": "Perak"
    },
    {
        "Postcode": "33000",
        "Location": "Taman Jerlun",
        "Post_Office": "Kuala Kangsar",
        "State": "Perak"
    },
    {
        "Postcode": "33000",
        "Location": "Taman Kangsar",
        "Post_Office": "Kuala Kangsar",
        "State": "Perak"
    },
    {
        "Postcode": "33000",
        "Location": "Taman Kelisa",
        "Post_Office": "Kuala Kangsar",
        "State": "Perak"
    },
    {
        "Postcode": "33000",
        "Location": "Taman Kenas",
        "Post_Office": "Kuala Kangsar",
        "State": "Perak"
    },
    {
        "Postcode": "33000",
        "Location": "Taman Kuala Kangsar",
        "Post_Office": "Kuala Kangsar",
        "State": "Perak"
    },
    {
        "Postcode": "33000",
        "Location": "Taman Lerista",
        "Post_Office": "Kuala Kangsar",
        "State": "Perak"
    },
    {
        "Postcode": "33000",
        "Location": "Taman Mayang",
        "Post_Office": "Kuala Kangsar",
        "State": "Perak"
    },
    {
        "Postcode": "33000",
        "Location": "Taman Mayang Sari",
        "Post_Office": "Kuala Kangsar",
        "State": "Perak"
    },
    {
        "Postcode": "33000",
        "Location": "Taman Pak Pok",
        "Post_Office": "Kuala Kangsar",
        "State": "Perak"
    },
    {
        "Postcode": "33000",
        "Location": "Taman Raja Bendahara",
        "Post_Office": "Kuala Kangsar",
        "State": "Perak"
    },
    {
        "Postcode": "33000",
        "Location": "Taman Raja Lope",
        "Post_Office": "Kuala Kangsar",
        "State": "Perak"
    },
    {
        "Postcode": "33000",
        "Location": "Taman Raja Ngah Ali",
        "Post_Office": "Kuala Kangsar",
        "State": "Perak"
    },
    {
        "Postcode": "33000",
        "Location": "Taman Sabar Jaya",
        "Post_Office": "Kuala Kangsar",
        "State": "Perak"
    },
    {
        "Postcode": "33000",
        "Location": "Taman Seng Tuck",
        "Post_Office": "Kuala Kangsar",
        "State": "Perak"
    },
    {
        "Postcode": "33000",
        "Location": "Taman Seri Chandan",
        "Post_Office": "Kuala Kangsar",
        "State": "Perak"
    },
    {
        "Postcode": "33000",
        "Location": "Taman Seri Kangsar",
        "Post_Office": "Kuala Kangsar",
        "State": "Perak"
    },
    {
        "Postcode": "33000",
        "Location": "Taman Sheikh Tahir",
        "Post_Office": "Kuala Kangsar",
        "State": "Perak"
    },
    {
        "Postcode": "33000",
        "Location": "Taman Sultan Yusuf Izuddin",
        "Post_Office": "Kuala Kangsar",
        "State": "Perak"
    },
    {
        "Postcode": "33000",
        "Location": "Taman Taayah",
        "Post_Office": "Kuala Kangsar",
        "State": "Perak"
    },
    {
        "Postcode": "33000",
        "Location": "Taman Talang",
        "Post_Office": "Kuala Kangsar",
        "State": "Perak"
    },
    {
        "Postcode": "33000",
        "Location": "Taman Uda Safiah",
        "Post_Office": "Kuala Kangsar",
        "State": "Perak"
    },
    {
        "Postcode": "33000",
        "Location": "Taman Villa Gahara",
        "Post_Office": "Kuala Kangsar",
        "State": "Perak"
    },
    {
        "Postcode": "33000",
        "Location": "Taman Wai Thong",
        "Post_Office": "Kuala Kangsar",
        "State": "Perak"
    },
    {
        "Postcode": "33000",
        "Location": "Tanah Lepan",
        "Post_Office": "Kuala Kangsar",
        "State": "Perak"
    },
    {
        "Postcode": "33000",
        "Location": "Titi Dua",
        "Post_Office": "Kuala Kangsar",
        "State": "Perak"
    },
    {
        "Postcode": "33000",
        "Location": "Titi Tiga",
        "Post_Office": "Kuala Kangsar",
        "State": "Perak"
    },
    {
        "Postcode": "33000",
        "Location": "Taman Highland",
        "Post_Office": "Kuala Kangsar",
        "State": "Perak"
    },
    {
        "Postcode": "33000",
        "Location": "Taman Jati",
        "Post_Office": "Kuala Kangsar",
        "State": "Perak"
    },
    {
        "Postcode": "33000",
        "Location": "Taman Raja Idris",
        "Post_Office": "Kuala Kangsar",
        "State": "Perak"
    }
]
