[
    {
        "Postcode": "33020",
        "Location": "Kampung Padang Lalang",
        "Post_Office": "Kuala Kangsar",
        "State": "Perak"
    },
    {
        "Postcode": "33020",
        "Location": "Kampung Temong Hulu",
        "Post_Office": "Kuala Kangsar",
        "State": "Perak"
    },
    {
        "Postcode": "33020",
        "Location": "Kampung Ulu Ribu",
        "Post_Office": "Kuala Kangsar",
        "State": "Perak"
    },
    {
        "Postcode": "33020",
        "Location": "Taman Impiana",
        "Post_Office": "Kuala Kangsar",
        "State": "Perak"
    },
    {
        "Postcode": "33020",
        "Location": "Kampung Cheh",
        "Post_Office": "Kuala Kangsar",
        "State": "Perak"
    },
    {
        "Postcode": "33020",
        "Location": "Bendung Ujib",
        "Post_Office": "Kuala Kangsar",
        "State": "Perak"
    },
    {
        "Postcode": "33020",
        "Location": "Berala",
        "Post_Office": "Kuala Kangsar",
        "State": "Perak"
    },
    {
        "Postcode": "33020",
        "Location": "Bukit Lada",
        "Post_Office": "Kuala Kangsar",
        "State": "Perak"
    },
    {
        "Postcode": "33020",
        "Location": "Changkat Jambu",
        "Post_Office": "Kuala Kangsar",
        "State": "Perak"
    },
    {
        "Postcode": "33020",
        "Location": "Changkat Kampar",
        "Post_Office": "Kuala Kangsar",
        "State": "Perak"
    },
    {
        "Postcode": "33020",
        "Location": "Changkat Payong",
        "Post_Office": "Kuala Kangsar",
        "State": "Perak"
    },
    {
        "Postcode": "33020",
        "Location": "Cheh",
        "Post_Office": "Kuala Kangsar",
        "State": "Perak"
    },
    {
        "Postcode": "33020",
        "Location": "Chuar",
        "Post_Office": "Kuala Kangsar",
        "State": "Perak"
    },
    {
        "Postcode": "33020",
        "Location": "Demong",
        "Post_Office": "Kuala Kangsar",
        "State": "Perak"
    },
    {
        "Postcode": "33020",
        "Location": "Jasa",
        "Post_Office": "Kuala Kangsar",
        "State": "Perak"
    },
    {
        "Postcode": "33020",
        "Location": "Kampung Bendang Ujib",
        "Post_Office": "Kuala Kangsar",
        "State": "Perak"
    },
    {
        "Postcode": "33020",
        "Location": "Kampung Berala",
        "Post_Office": "Kuala Kangsar",
        "State": "Perak"
    },
    {
        "Postcode": "33020",
        "Location": "Kampung Changkat Che Kampar",
        "Post_Office": "Kuala Kangsar",
        "State": "Perak"
    },
    {
        "Postcode": "33020",
        "Location": "Kampung Changkat Jambu",
        "Post_Office": "Kuala Kangsar",
        "State": "Perak"
    },
    {
        "Postcode": "33020",
        "Location": "Kampung Changkat Payong Kati",
        "Post_Office": "Kuala Kangsar",
        "State": "Perak"
    },
    {
        "Postcode": "33020",
        "Location": "Kampung Cheh Ulu",
        "Post_Office": "Kuala Kangsar",
        "State": "Perak"
    },
    {
        "Postcode": "33020",
        "Location": "Kampung Chuar Hilir",
        "Post_Office": "Kuala Kangsar",
        "State": "Perak"
    },
    {
        "Postcode": "33020",
        "Location": "Kampung Chuar Hulu",
        "Post_Office": "Kuala Kangsar",
        "State": "Perak"
    },
    {
        "Postcode": "33020",
        "Location": "Kampung Dangla",
        "Post_Office": "Kuala Kangsar",
        "State": "Perak"
    },
    {
        "Postcode": "33020",
        "Location": "Kampung Hulu Kati",
        "Post_Office": "Kuala Kangsar",
        "State": "Perak"
    },
    {
        "Postcode": "33020",
        "Location": "Kampung Kati",
        "Post_Office": "Kuala Kangsar",
        "State": "Perak"
    },
    {
        "Postcode": "33020",
        "Location": "Kampung Kuala Terap",
        "Post_Office": "Kuala Kangsar",
        "State": "Perak"
    },
    {
        "Postcode": "33020",
        "Location": "Kampung Lata",
        "Post_Office": "Kuala Kangsar",
        "State": "Perak"
    },
    {
        "Postcode": "33020",
        "Location": "Kampung Terap",
        "Post_Office": "Kuala Kangsar",
        "State": "Perak"
    },
    {
        "Postcode": "33020",
        "Location": "Kampung Tiong",
        "Post_Office": "Kuala Kangsar",
        "State": "Perak"
    },
    {
        "Postcode": "33020",
        "Location": "Kati",
        "Post_Office": "Kuala Kangsar",
        "State": "Perak"
    },
    {
        "Postcode": "33020",
        "Location": "Kepala Bendang",
        "Post_Office": "Kuala Kangsar",
        "State": "Perak"
    },
    {
        "Postcode": "33020",
        "Location": "Kuala Terap",
        "Post_Office": "Kuala Kangsar",
        "State": "Perak"
    },
    {
        "Postcode": "33020",
        "Location": "Liman Kati",
        "Post_Office": "Kuala Kangsar",
        "State": "Perak"
    },
    {
        "Postcode": "33020",
        "Location": "Taman Liman",
        "Post_Office": "Kuala Kangsar",
        "State": "Perak"
    },
    {
        "Postcode": "33020",
        "Location": "Taman Sri Pagi",
        "Post_Office": "Kuala Kangsar",
        "State": "Perak"
    }
]
