[
    {
        "Postcode": "33040",
        "Location": "Kampung Keledang",
        "Post_Office": "Kuala Kangsar",
        "State": "Perak"
    },
    {
        "Postcode": "33040",
        "Location": "Kampung Orang Asli",
        "Post_Office": "Kuala Kangsar",
        "State": "Perak"
    },
    {
        "Postcode": "33040",
        "Location": "Kampung Pauh",
        "Post_Office": "Kuala Kangsar",
        "State": "Perak"
    },
    {
        "Postcode": "33040",
        "Location": "Jalan Masjid Kota Lama Kanan",
        "Post_Office": "Kuala Kangsar",
        "State": "Perak"
    },
    {
        "Postcode": "33040",
        "Location": "Kampung Batang Kulim",
        "Post_Office": "Kuala Kangsar",
        "State": "Perak"
    },
    {
        "Postcode": "33040",
        "Location": "Kampung Bendang Kering",
        "Post_Office": "Kuala Kangsar",
        "State": "Perak"
    },
    {
        "Postcode": "33040",
        "Location": "Kampung Bukit Lada",
        "Post_Office": "Kuala Kangsar",
        "State": "Perak"
    },
    {
        "Postcode": "33040",
        "Location": "Kampung Bunut",
        "Post_Office": "Kuala Kangsar",
        "State": "Perak"
    },
    {
        "Postcode": "33040",
        "Location": "Kampung Gintang",
        "Post_Office": "Kuala Kangsar",
        "State": "Perak"
    },
    {
        "Postcode": "33040",
        "Location": "Kampung Kandang",
        "Post_Office": "Kuala Kangsar",
        "State": "Perak"
    },
    {
        "Postcode": "33040",
        "Location": "Kampung Kandang Hilir",
        "Post_Office": "Kuala Kangsar",
        "State": "Perak"
    },
    {
        "Postcode": "33040",
        "Location": "Kampung Kandang Hulu",
        "Post_Office": "Kuala Kangsar",
        "State": "Perak"
    },
    {
        "Postcode": "33040",
        "Location": "Kampung Kongsi",
        "Post_Office": "Kuala Kangsar",
        "State": "Perak"
    },
    {
        "Postcode": "33040",
        "Location": "Kampung Kota Lama Kanan",
        "Post_Office": "Kuala Kangsar",
        "State": "Perak"
    },
    {
        "Postcode": "33040",
        "Location": "Kampung Kuala Sayong Hilir",
        "Post_Office": "Kuala Kangsar",
        "State": "Perak"
    },
    {
        "Postcode": "33040",
        "Location": "Kampung Kuala Sayong Hulu",
        "Post_Office": "Kuala Kangsar",
        "State": "Perak"
    },
    {
        "Postcode": "33040",
        "Location": "Kampung Kubang Pekan",
        "Post_Office": "Kuala Kangsar",
        "State": "Perak"
    },
    {
        "Postcode": "33040",
        "Location": "Kampung Kubang Temiang",
        "Post_Office": "Kuala Kangsar",
        "State": "Perak"
    },
    {
        "Postcode": "33040",
        "Location": "Kampung Kubang Terap",
        "Post_Office": "Kuala Kangsar",
        "State": "Perak"
    },
    {
        "Postcode": "33040",
        "Location": "Kampung Masjid Kota Lama Kanan",
        "Post_Office": "Kuala Kangsar",
        "State": "Perak"
    },
    {
        "Postcode": "33040",
        "Location": "Kampung Mata Ayer",
        "Post_Office": "Kuala Kangsar",
        "State": "Perak"
    },
    {
        "Postcode": "33040",
        "Location": "Kampung Menora",
        "Post_Office": "Kuala Kangsar",
        "State": "Perak"
    },
    {
        "Postcode": "33040",
        "Location": "Kampung Pangkal Ampang",
        "Post_Office": "Kuala Kangsar",
        "State": "Perak"
    },
    {
        "Postcode": "33040",
        "Location": "Kampung Penjan",
        "Post_Office": "Kuala Kangsar",
        "State": "Perak"
    },
    {
        "Postcode": "33040",
        "Location": "Kampung Saga",
        "Post_Office": "Kuala Kangsar",
        "State": "Perak"
    },
    {
        "Postcode": "33040",
        "Location": "Kampung Sayong Lembah",
        "Post_Office": "Kuala Kangsar",
        "State": "Perak"
    },
    {
        "Postcode": "33040",
        "Location": "Kampung Sayong Masjid",
        "Post_Office": "Kuala Kangsar",
        "State": "Perak"
    },
    {
        "Postcode": "33040",
        "Location": "Kampung Sayong Tebing",
        "Post_Office": "Kuala Kangsar",
        "State": "Perak"
    },
    {
        "Postcode": "33040",
        "Location": "Kampung Seberang Paya",
        "Post_Office": "Kuala Kangsar",
        "State": "Perak"
    },
    {
        "Postcode": "33040",
        "Location": "Kota Lama Kanan",
        "Post_Office": "Kuala Kangsar",
        "State": "Perak"
    },
    {
        "Postcode": "33040",
        "Location": "Kuala Sayong",
        "Post_Office": "Kuala Kangsar",
        "State": "Perak"
    },
    {
        "Postcode": "33040",
        "Location": "Kubang Terap",
        "Post_Office": "Kuala Kangsar",
        "State": "Perak"
    },
    {
        "Postcode": "33040",
        "Location": "Masjid Kota Lama Kanan",
        "Post_Office": "Kuala Kangsar",
        "State": "Perak"
    },
    {
        "Postcode": "33040",
        "Location": "Pauh",
        "Post_Office": "Kuala Kangsar",
        "State": "Perak"
    },
    {
        "Postcode": "33040",
        "Location": "Penjan",
        "Post_Office": "Kuala Kangsar",
        "State": "Perak"
    },
    {
        "Postcode": "33040",
        "Location": "Permatang Ipoh",
        "Post_Office": "Kuala Kangsar",
        "State": "Perak"
    },
    {
        "Postcode": "33040",
        "Location": "Saga",
        "Post_Office": "Kuala Kangsar",
        "State": "Perak"
    },
    {
        "Postcode": "33040",
        "Location": "Sayong Hulu",
        "Post_Office": "Kuala Kangsar",
        "State": "Perak"
    },
    {
        "Postcode": "33040",
        "Location": "Seberang Payah",
        "Post_Office": "Kuala Kangsar",
        "State": "Perak"
    },
    {
        "Postcode": "33040",
        "Location": "Tebing Pulai",
        "Post_Office": "Kuala Kangsar",
        "State": "Perak"
    },
    {
        "Postcode": "33040",
        "Location": "Bendang Kering",
        "Post_Office": "Kuala Kangsar",
        "State": "Perak"
    },
    {
        "Postcode": "33040",
        "Location": "Kubang Pekan",
        "Post_Office": "Kuala Kangsar",
        "State": "Perak"
    },
    {
        "Postcode": "33040",
        "Location": "Menora",
        "Post_Office": "Kuala Kangsar",
        "State": "Perak"
    },
    {
        "Postcode": "33040",
        "Location": "Kubang Temiang",
        "Post_Office": "Kuala Kangsar",
        "State": "Perak"
    }
]
