[
    {
        "Postcode": "33100",
        "Location": "Bukit Berapit",
        "Post_Office": "Pengkalan Hulu",
        "State": "Perak"
    },
    {
        "Postcode": "33100",
        "Location": "Kampung Baru",
        "Post_Office": "Pengkalan Hulu",
        "State": "Perak"
    },
    {
        "Postcode": "33100",
        "Location": "Kampung Pecah Batu",
        "Post_Office": "Pengkalan Hulu",
        "State": "Perak"
    },
    {
        "Postcode": "33100",
        "Location": "Kampung Seberang",
        "Post_Office": "Pengkalan Hulu",
        "State": "Perak"
    },
    {
        "Postcode": "33100",
        "Location": "Taman Jaya",
        "Post_Office": "Pengkalan Hulu",
        "State": "Perak"
    },
    {
        "Postcode": "33100",
        "Location": "Jalan Tasek",
        "Post_Office": "Pengkalan Hulu",
        "State": "Perak"
    },
    {
        "Postcode": "33100",
        "Location": "Kampung Ayer Panas",
        "Post_Office": "Pengkalan Hulu",
        "State": "Perak"
    },
    {
        "Postcode": "33100",
        "Location": "Kampung Simpang Pulai",
        "Post_Office": "Pengkalan Hulu",
        "State": "Perak"
    },
    {
        "Postcode": "33100",
        "Location": "Kampung Tanah Hitam",
        "Post_Office": "Pengkalan Hulu\r\n",
        "State": "Perak"
    },
    {
        "Postcode": "33100",
        "Location": "Kampung Tasek",
        "Post_Office": "Pengkalan Hulu",
        "State": "Perak"
    },
    {
        "Postcode": "33100",
        "Location": "Taman Mawar",
        "Post_Office": "Pengkalan Hulu",
        "State": "Perak"
    },
    {
        "Postcode": "33100",
        "Location": "Intan",
        "Post_Office": "Pengkalan Hulu\r\n",
        "State": "Perak"
    },
    {
        "Postcode": "33100",
        "Location": "Kampung Bukit Asu",
        "Post_Office": "Pengkalan Hulu\r\n",
        "State": "Perak"
    },
    {
        "Postcode": "33100",
        "Location": "Kampung Bukit Buluh",
        "Post_Office": "Pengkalan Hulu\r\n",
        "State": "Perak"
    },
    {
        "Postcode": "33100",
        "Location": "Kampung Khek",
        "Post_Office": "Pengkalan Hulu\r\n",
        "State": "Perak"
    },
    {
        "Postcode": "33100",
        "Location": "Kampung Kong Loong",
        "Post_Office": "Pengkalan Hulu\r\n",
        "State": "Perak"
    },
    {
        "Postcode": "33100",
        "Location": "Kampung Kwang Loong",
        "Post_Office": "Pengkalan Hulu\r\n",
        "State": "Perak"
    },
    {
        "Postcode": "33100",
        "Location": "Kampung Pong",
        "Post_Office": "Pengkalan Hulu\r\n",
        "State": "Perak"
    },
    {
        "Postcode": "33100",
        "Location": "Kampung Sri Utara",
        "Post_Office": "Pengkalan Hulu\r\n",
        "State": "Perak"
    },
    {
        "Postcode": "33100",
        "Location": "Kampung Sun Heng",
        "Post_Office": "Pengkalan Hulu\r\n",
        "State": "Perak"
    },
    {
        "Postcode": "33100",
        "Location": "Kuarters Rht",
        "Post_Office": "Pengkalan Hulu\r\n",
        "State": "Perak"
    },
    {
        "Postcode": "33100",
        "Location": "Pprt Kampung Pong",
        "Post_Office": "Pengkalan Hulu\r\n",
        "State": "Perak"
    },
    {
        "Postcode": "33100",
        "Location": "Pprt Sungai Hitam",
        "Post_Office": "Pengkalan Hulu\r\n",
        "State": "Perak"
    },
    {
        "Postcode": "33100",
        "Location": "Taman Tasek Perdana (Jalan Intan)",
        "Post_Office": "Pengkalan Hulu\r\n",
        "State": "Perak"
    },
    {
        "Postcode": "33100",
        "Location": "Simpang Pulai",
        "Post_Office": "Pengkalan Hulu",
        "State": "Perak"
    },
    {
        "Postcode": "33100",
        "Location": "Bukit Perah Kuak Tengah",
        "Post_Office": "Pengkalan Hulu",
        "State": "Perak"
    },
    {
        "Postcode": "33100",
        "Location": "Felda Nenering (1 - 3)",
        "Post_Office": "Pengkalan Hulu",
        "State": "Perak"
    },
    {
        "Postcode": "33100",
        "Location": "Jalan Baling",
        "Post_Office": "Pengkalan Hulu",
        "State": "Perak"
    },
    {
        "Postcode": "33100",
        "Location": "Kampung Banggol Temak",
        "Post_Office": "Pengkalan Hulu",
        "State": "Perak"
    },
    {
        "Postcode": "33100",
        "Location": "Kampung Baru Ayer Panas",
        "Post_Office": "Pengkalan Hulu",
        "State": "Perak"
    },
    {
        "Postcode": "33100",
        "Location": "Kampung Baru Kuak Luar",
        "Post_Office": "Pengkalan Hulu",
        "State": "Perak"
    },
    {
        "Postcode": "33100",
        "Location": "Kampung Baru Tambahan Kuak Luar",
        "Post_Office": "Pengkalan Hulu",
        "State": "Perak"
    },
    {
        "Postcode": "33100",
        "Location": "Kampung Bukit Berangan",
        "Post_Office": "Pengkalan Hulu",
        "State": "Perak"
    },
    {
        "Postcode": "33100",
        "Location": "Kampung Bukit Jerai",
        "Post_Office": "Pengkalan Hulu",
        "State": "Perak"
    },
    {
        "Postcode": "33100",
        "Location": "Kampung Bukit Seradang",
        "Post_Office": "Pengkalan Hulu",
        "State": "Perak"
    },
    {
        "Postcode": "33100",
        "Location": "Kampung Bukit Telor",
        "Post_Office": "Pengkalan Hulu",
        "State": "Perak"
    },
    {
        "Postcode": "33100",
        "Location": "Kampung Buloh Minyak",
        "Post_Office": "Pengkalan Hulu",
        "State": "Perak"
    },
    {
        "Postcode": "33100",
        "Location": "Kampung Carok Kurau",
        "Post_Office": "Pengkalan Hulu",
        "State": "Perak"
    },
    {
        "Postcode": "33100",
        "Location": "Kampung Ceruk Merbau",
        "Post_Office": "Pengkalan Hulu",
        "State": "Perak"
    },
    {
        "Postcode": "33100",
        "Location": "Kampung Kuak Hulu",
        "Post_Office": "Pengkalan Hulu",
        "State": "Perak"
    },
    {
        "Postcode": "33100",
        "Location": "Kampung Kuak Luar",
        "Post_Office": "Pengkalan Hulu",
        "State": "Perak"
    },
    {
        "Postcode": "33100",
        "Location": "Kampung Kuak Tengah",
        "Post_Office": "Pengkalan Hulu",
        "State": "Perak"
    },
    {
        "Postcode": "33100",
        "Location": "Kampung Padang Berkuai",
        "Post_Office": "Pengkalan Hulu",
        "State": "Perak"
    },
    {
        "Postcode": "33100",
        "Location": "Kampung Padang Bongor",
        "Post_Office": "Pengkalan Hulu",
        "State": "Perak"
    },
    {
        "Postcode": "33100",
        "Location": "Kampung Padang Jeneris",
        "Post_Office": "Pengkalan Hulu",
        "State": "Perak"
    },
    {
        "Postcode": "33100",
        "Location": "Kampung Padang Kota",
        "Post_Office": "Pengkalan Hulu",
        "State": "Perak"
    },
    {
        "Postcode": "33100",
        "Location": "Kampung Padang Temak",
        "Post_Office": "Pengkalan Hulu",
        "State": "Perak"
    },
    {
        "Postcode": "33100",
        "Location": "Kampung Pondok Kuak Luar",
        "Post_Office": "Pengkalan Hulu",
        "State": "Perak"
    },
    {
        "Postcode": "33100",
        "Location": "Kampung Pondok Tambahan",
        "Post_Office": "Pengkalan Hulu",
        "State": "Perak"
    },
    {
        "Postcode": "33100",
        "Location": "Kampung Raja Kayu Kuak Luar",
        "Post_Office": "Pengkalan Hulu",
        "State": "Perak"
    },
    {
        "Postcode": "33100",
        "Location": "Kampung Selarong",
        "Post_Office": "Pengkalan Hulu",
        "State": "Perak"
    },
    {
        "Postcode": "33100",
        "Location": "Kampung Simpang Perak",
        "Post_Office": "Pengkalan Hulu",
        "State": "Perak"
    },
    {
        "Postcode": "33100",
        "Location": "Kampung Tanjong Luas",
        "Post_Office": "Pengkalan Hulu",
        "State": "Perak"
    },
    {
        "Postcode": "33100",
        "Location": "Kampung Tasek Tambahan",
        "Post_Office": "Pengkalan Hulu",
        "State": "Perak"
    },
    {
        "Postcode": "33100",
        "Location": "Kampung Tersusun Jalan Lepang Nenering",
        "Post_Office": "Pengkalan Hulu",
        "State": "Perak"
    },
    {
        "Postcode": "33100",
        "Location": "Kampung Tersusun Padang Tamat",
        "Post_Office": "Pengkalan Hulu",
        "State": "Perak"
    },
    {
        "Postcode": "33100",
        "Location": "Kampung Tok Balai",
        "Post_Office": "Pengkalan Hulu",
        "State": "Perak"
    },
    {
        "Postcode": "33100",
        "Location": "Kampung Tok Ketua",
        "Post_Office": "Pengkalan Hulu",
        "State": "Perak"
    },
    {
        "Postcode": "33100",
        "Location": "Keroh",
        "Post_Office": "Pengkalan Hulu",
        "State": "Perak"
    },
    {
        "Postcode": "33100",
        "Location": "Komplek Sempadan",
        "Post_Office": "Pengkalan Hulu",
        "State": "Perak"
    },
    {
        "Postcode": "33100",
        "Location": "Kompleks Bebas Cukai",
        "Post_Office": "Pengkalan Hulu",
        "State": "Perak"
    },
    {
        "Postcode": "33100",
        "Location": "Kompleks Perumahan Jkr (Jalan Betong)",
        "Post_Office": "Pengkalan Hulu",
        "State": "Perak"
    },
    {
        "Postcode": "33100",
        "Location": "Kompleks Perumahan Kastam (Jalan Padang)",
        "Post_Office": "Pengkalan Hulu",
        "State": "Perak"
    },
    {
        "Postcode": "33100",
        "Location": "Kompleks Pga Padang Tamat (Jalan Baling)",
        "Post_Office": "Pengkalan Hulu",
        "State": "Perak"
    },
    {
        "Postcode": "33100",
        "Location": "Medan Selera Jalan Betong",
        "Post_Office": "Pengkalan Hulu",
        "State": "Perak"
    },
    {
        "Postcode": "33100",
        "Location": "Mrsm Padang Tamat",
        "Post_Office": "Pengkalan Hulu",
        "State": "Perak"
    },
    {
        "Postcode": "33100",
        "Location": "Padang Jeneris",
        "Post_Office": "Pengkalan Hulu",
        "State": "Perak"
    },
    {
        "Postcode": "33100",
        "Location": "Pengkalan Hulu",
        "Post_Office": "Pengkalan Hulu",
        "State": "Perak"
    },
    {
        "Postcode": "33100",
        "Location": "Ppms Depan Kem",
        "Post_Office": "Pengkalan Hulu",
        "State": "Perak"
    },
    {
        "Postcode": "33100",
        "Location": "Rancangan Rumah Awam Fasa 3",
        "Post_Office": "Pengkalan Hulu",
        "State": "Perak"
    },
    {
        "Postcode": "33100",
        "Location": "Rpa Iv (Jalan Betong)",
        "Post_Office": "Pengkalan Hulu",
        "State": "Perak"
    },
    {
        "Postcode": "33100",
        "Location": "Taman Aman Rpa 3",
        "Post_Office": "Pengkalan Hulu",
        "State": "Perak"
    },
    {
        "Postcode": "33100",
        "Location": "Taman Bersatu (Jalan Betong)",
        "Post_Office": "Pengkalan Hulu",
        "State": "Perak"
    },
    {
        "Postcode": "33100",
        "Location": "Taman Damai Rpa 2",
        "Post_Office": "Pengkalan Hulu",
        "State": "Perak"
    },
    {
        "Postcode": "33100",
        "Location": "Taman Jaya  (Jalan Baling)",
        "Post_Office": "Pengkalan Hulu",
        "State": "Perak"
    },
    {
        "Postcode": "33100",
        "Location": "Taman Kastam",
        "Post_Office": "Pengkalan Hulu",
        "State": "Perak"
    },
    {
        "Postcode": "33100",
        "Location": "Taman Kroh Indah",
        "Post_Office": "Pengkalan Hulu",
        "State": "Perak"
    },
    {
        "Postcode": "33100",
        "Location": "Taman Lam Kok Loong",
        "Post_Office": "Pengkalan Hulu",
        "State": "Perak"
    },
    {
        "Postcode": "33100",
        "Location": "Taman Raja Sofiah",
        "Post_Office": "Pengkalan Hulu",
        "State": "Perak"
    },
    {
        "Postcode": "33100",
        "Location": "Taman Riah (Jalan Bentong)",
        "Post_Office": "Pengkalan Hulu",
        "State": "Perak"
    },
    {
        "Postcode": "33100",
        "Location": "Taman Riah (Jalan Betong)",
        "Post_Office": "Pengkalan Hulu",
        "State": "Perak"
    },
    {
        "Postcode": "33100",
        "Location": "Taman Semarak (Jalan Betong)",
        "Post_Office": "Pengkalan Hulu",
        "State": "Perak"
    },
    {
        "Postcode": "33100",
        "Location": "Taman Sentosa Rpa 1",
        "Post_Office": "Pengkalan Hulu",
        "State": "Perak"
    },
    {
        "Postcode": "33100",
        "Location": "Taman Seri Kroh",
        "Post_Office": "Pengkalan Hulu",
        "State": "Perak"
    },
    {
        "Postcode": "33100",
        "Location": "Taman Tembusu",
        "Post_Office": "Pengkalan Hulu",
        "State": "Perak"
    },
    {
        "Postcode": "33100",
        "Location": "Taman Usul Jaya",
        "Post_Office": "Pengkalan Hulu",
        "State": "Perak"
    },
    {
        "Postcode": "33100",
        "Location": "Tasik",
        "Post_Office": "Pengkalan Hulu",
        "State": "Perak"
    },
    {
        "Postcode": "33100",
        "Location": "Tok Balai",
        "Post_Office": "Pengkalan Hulu",
        "State": "Perak"
    }
]
