[
    {
        "Postcode": "33300",
        "Location": "Kampung Ayer Suda Peri 1",
        "Post_Office": "Gerik",
        "State": "Perak"
    },
    {
        "Postcode": "33300",
        "Location": "Kampung Ayer Suda Peri 2",
        "Post_Office": "Gerik",
        "State": "Perak"
    },
    {
        "Postcode": "33300",
        "Location": "Kampung Krunei",
        "Post_Office": "Gerik",
        "State": "Perak"
    },
    {
        "Postcode": "33300",
        "Location": "Kampung Padang",
        "Post_Office": "Gerik",
        "State": "Perak"
    },
    {
        "Postcode": "33300",
        "Location": "Kampung Pecah Batu",
        "Post_Office": "Gerik",
        "State": "Perak"
    },
    {
        "Postcode": "33300",
        "Location": "Kampung Ramasamy",
        "Post_Office": "Gerik",
        "State": "Perak"
    },
    {
        "Postcode": "33300",
        "Location": "Kampung Ulu Lawin",
        "Post_Office": "Gerik",
        "State": "Perak"
    },
    {
        "Postcode": "33300",
        "Location": "Taman Intan",
        "Post_Office": "Gerik",
        "State": "Perak"
    },
    {
        "Postcode": "33300",
        "Location": "Taman Sentosa",
        "Post_Office": "Gerik",
        "State": "Perak"
    },
    {
        "Postcode": "33300",
        "Location": "Kampung Padang Tembak",
        "Post_Office": "Gerik",
        "State": "Perak"
    },
    {
        "Postcode": "33300",
        "Location": "Taman Desa Permai",
        "Post_Office": "Gerik",
        "State": "Perak"
    },
    {
        "Postcode": "33300",
        "Location": "Taman Ria",
        "Post_Office": "Gerik",
        "State": "Perak"
    },
    {
        "Postcode": "33300",
        "Location": "Taman Selamat",
        "Post_Office": "Gerik",
        "State": "Perak"
    },
    {
        "Postcode": "33300",
        "Location": "Kampung Air Panas",
        "Post_Office": "Gerik",
        "State": "Perak"
    },
    {
        "Postcode": "33300",
        "Location": "Ayer Bagoh",
        "Post_Office": "Gerik",
        "State": "Perak"
    },
    {
        "Postcode": "33300",
        "Location": "Felda Papulut Lawin",
        "Post_Office": "Gerik",
        "State": "Perak"
    },
    {
        "Postcode": "33300",
        "Location": "Kampung Ayer Bagoh",
        "Post_Office": "Gerik",
        "State": "Perak"
    },
    {
        "Postcode": "33300",
        "Location": "Kampung Pahit",
        "Post_Office": "Gerik",
        "State": "Perak"
    },
    {
        "Postcode": "33300",
        "Location": "Tanjung Lobak",
        "Post_Office": "Gerik",
        "State": "Perak"
    },
    {
        "Postcode": "33300",
        "Location": "Kampung Sawa",
        "Post_Office": "Gerik",
        "State": "Perak"
    },
    {
        "Postcode": "33300",
        "Location": "Ayer Ganda",
        "Post_Office": "Gerik",
        "State": "Perak"
    },
    {
        "Postcode": "33300",
        "Location": "Ayer Panas",
        "Post_Office": "Gerik",
        "State": "Perak"
    },
    {
        "Postcode": "33300",
        "Location": "Ayer Suda",
        "Post_Office": "Gerik",
        "State": "Perak"
    },
    {
        "Postcode": "33300",
        "Location": "Bangunan Aked Mara",
        "Post_Office": "Gerik",
        "State": "Perak"
    },
    {
        "Postcode": "33300",
        "Location": "Bukit Amarikan",
        "Post_Office": "Gerik",
        "State": "Perak"
    },
    {
        "Postcode": "33300",
        "Location": "Gerik",
        "Post_Office": "Gerik",
        "State": "Perak"
    },
    {
        "Postcode": "33300",
        "Location": "Jkr Base Camp",
        "Post_Office": "Gerik",
        "State": "Perak"
    },
    {
        "Postcode": "33300",
        "Location": "Kaki Bukit",
        "Post_Office": "Gerik",
        "State": "Perak"
    },
    {
        "Postcode": "33300",
        "Location": "Kampung Air Bagoh",
        "Post_Office": "Gerik",
        "State": "Perak"
    },
    {
        "Postcode": "33300",
        "Location": "Kampung Air Jada/Pprt",
        "Post_Office": "Gerik",
        "State": "Perak"
    },
    {
        "Postcode": "33300",
        "Location": "Kampung Air Jernang",
        "Post_Office": "Gerik",
        "State": "Perak"
    },
    {
        "Postcode": "33300",
        "Location": "Kampung Air Pari",
        "Post_Office": "Gerik",
        "State": "Perak"
    },
    {
        "Postcode": "33300",
        "Location": "Kampung Air Pulau",
        "Post_Office": "Gerik",
        "State": "Perak"
    },
    {
        "Postcode": "33300",
        "Location": "Kampung Ayer Kelat",
        "Post_Office": "Gerik",
        "State": "Perak"
    },
    {
        "Postcode": "33300",
        "Location": "Kampung Ayer Terap",
        "Post_Office": "Gerik",
        "State": "Perak"
    },
    {
        "Postcode": "33300",
        "Location": "Kampung Banggol Beranggan",
        "Post_Office": "Gerik",
        "State": "Perak"
    },
    {
        "Postcode": "33300",
        "Location": "Kampung Baru (Km 3)",
        "Post_Office": "Gerik",
        "State": "Perak"
    },
    {
        "Postcode": "33300",
        "Location": "Kampung Baru Batu 2",
        "Post_Office": "Gerik",
        "State": "Perak"
    },
    {
        "Postcode": "33300",
        "Location": "Kampung Baru Wan Mohammad",
        "Post_Office": "Gerik",
        "State": "Perak"
    },
    {
        "Postcode": "33300",
        "Location": "Kampung Bukit Amerikan",
        "Post_Office": "Gerik",
        "State": "Perak"
    },
    {
        "Postcode": "33300",
        "Location": "Kampung Bukit Nasah",
        "Post_Office": "Gerik",
        "State": "Perak"
    },
    {
        "Postcode": "33300",
        "Location": "Kampung Ganda Temenggor",
        "Post_Office": "Gerik",
        "State": "Perak"
    },
    {
        "Postcode": "33300",
        "Location": "Kampung Gerik",
        "Post_Office": "Gerik",
        "State": "Perak"
    },
    {
        "Postcode": "33300",
        "Location": "Kampung Haji Wan Mohammed",
        "Post_Office": "Gerik",
        "State": "Perak"
    },
    {
        "Postcode": "33300",
        "Location": "Kampung Jagoh",
        "Post_Office": "Gerik",
        "State": "Perak"
    },
    {
        "Postcode": "33300",
        "Location": "Kampung Kaki Bukit",
        "Post_Office": "Gerik",
        "State": "Perak"
    },
    {
        "Postcode": "33300",
        "Location": "Kampung Kuala Kenderong",
        "Post_Office": "Gerik",
        "State": "Perak"
    },
    {
        "Postcode": "33300",
        "Location": "Kampung Kuala Kenering",
        "Post_Office": "Gerik",
        "State": "Perak"
    },
    {
        "Postcode": "33300",
        "Location": "Kampung Kuala Rui",
        "Post_Office": "Gerik",
        "State": "Perak"
    },
    {
        "Postcode": "33300",
        "Location": "Kampung Padang Kunyit",
        "Post_Office": "Gerik",
        "State": "Perak"
    },
    {
        "Postcode": "33300",
        "Location": "Kampung Pecah Batu Lawin",
        "Post_Office": "Gerik",
        "State": "Perak"
    },
    {
        "Postcode": "33300",
        "Location": "Kampung Pechah Batu Bongor",
        "Post_Office": "Gerik",
        "State": "Perak"
    },
    {
        "Postcode": "33300",
        "Location": "Kampung Perah",
        "Post_Office": "Gerik",
        "State": "Perak"
    },
    {
        "Postcode": "33300",
        "Location": "Kampung Perah Lama",
        "Post_Office": "Gerik",
        "State": "Perak"
    },
    {
        "Postcode": "33300",
        "Location": "Kampung Pulau Belayar",
        "Post_Office": "Gerik",
        "State": "Perak"
    },
    {
        "Postcode": "33300",
        "Location": "Kampung Sira Kulim",
        "Post_Office": "Gerik",
        "State": "Perak"
    },
    {
        "Postcode": "33300",
        "Location": "Kampung Tanjong Kala",
        "Post_Office": "Gerik",
        "State": "Perak"
    },
    {
        "Postcode": "33300",
        "Location": "Kampung Tanjong Rambai",
        "Post_Office": "Gerik",
        "State": "Perak"
    },
    {
        "Postcode": "33300",
        "Location": "Kampung Tanjong Sejarah",
        "Post_Office": "Gerik",
        "State": "Perak"
    },
    {
        "Postcode": "33300",
        "Location": "Kampung Tawai",
        "Post_Office": "Gerik",
        "State": "Perak"
    },
    {
        "Postcode": "33300",
        "Location": "Kampung Ulu Kendrong",
        "Post_Office": "Gerik",
        "State": "Perak"
    },
    {
        "Postcode": "33300",
        "Location": "Kampung Upra 8",
        "Post_Office": "Gerik",
        "State": "Perak"
    },
    {
        "Postcode": "33300",
        "Location": "Kem Sri Aduka",
        "Post_Office": "Gerik",
        "State": "Perak"
    },
    {
        "Postcode": "33300",
        "Location": "Kem Sri Banding",
        "Post_Office": "Gerik",
        "State": "Perak"
    },
    {
        "Postcode": "33300",
        "Location": "Kuala Rui",
        "Post_Office": "Gerik",
        "State": "Perak"
    },
    {
        "Postcode": "33300",
        "Location": "Ladang Air Kala",
        "Post_Office": "Gerik",
        "State": "Perak"
    },
    {
        "Postcode": "33300",
        "Location": "Padang Kunyit",
        "Post_Office": "Gerik",
        "State": "Perak"
    },
    {
        "Postcode": "33300",
        "Location": "Pecah Batu",
        "Post_Office": "Gerik",
        "State": "Perak"
    },
    {
        "Postcode": "33300",
        "Location": "Perumahan Awam 4 (Rpa 4)",
        "Post_Office": "Gerik",
        "State": "Perak"
    },
    {
        "Postcode": "33300",
        "Location": "Perumahan Tnb",
        "Post_Office": "Gerik",
        "State": "Perak"
    },
    {
        "Postcode": "33300",
        "Location": "Rancangan Belia Khas",
        "Post_Office": "Gerik",
        "State": "Perak"
    },
    {
        "Postcode": "33300",
        "Location": "Simpang Tiga Lebuhraya",
        "Post_Office": "Gerik",
        "State": "Perak"
    },
    {
        "Postcode": "33300",
        "Location": "Sira Kulim",
        "Post_Office": "Gerik",
        "State": "Perak"
    },
    {
        "Postcode": "33300",
        "Location": "Taman Desa Kasih Fasa 2",
        "Post_Office": "Gerik",
        "State": "Perak"
    },
    {
        "Postcode": "33300",
        "Location": "Taman Desa Kemboja",
        "Post_Office": "Gerik",
        "State": "Perak"
    },
    {
        "Postcode": "33300",
        "Location": "Taman Desa Mutiara",
        "Post_Office": "Gerik",
        "State": "Perak"
    },
    {
        "Postcode": "33300",
        "Location": "Taman Desa Permata",
        "Post_Office": "Gerik",
        "State": "Perak"
    },
    {
        "Postcode": "33300",
        "Location": "Taman Embun Emas",
        "Post_Office": "Gerik",
        "State": "Perak"
    },
    {
        "Postcode": "33300",
        "Location": "Taman Gerik",
        "Post_Office": "Gerik",
        "State": "Perak"
    },
    {
        "Postcode": "33300",
        "Location": "Taman Gerik (Fasa 2)",
        "Post_Office": "Gerik",
        "State": "Perak"
    },
    {
        "Postcode": "33300",
        "Location": "Taman Ibu",
        "Post_Office": "Gerik",
        "State": "Perak"
    },
    {
        "Postcode": "33300",
        "Location": "Taman Mehar",
        "Post_Office": "Gerik",
        "State": "Perak"
    },
    {
        "Postcode": "33300",
        "Location": "Taman Seri Delima Jaya",
        "Post_Office": "Gerik",
        "State": "Perak"
    },
    {
        "Postcode": "33300",
        "Location": "Taman Seri Temenggor",
        "Post_Office": "Gerik",
        "State": "Perak"
    },
    {
        "Postcode": "33300",
        "Location": "Taman Sinaran",
        "Post_Office": "Gerik",
        "State": "Perak"
    },
    {
        "Postcode": "33300",
        "Location": "Taman Sinaran Hijau",
        "Post_Office": "Gerik",
        "State": "Perak"
    },
    {
        "Postcode": "33300",
        "Location": "Taman Tok Purba Lahamat",
        "Post_Office": "Gerik",
        "State": "Perak"
    },
    {
        "Postcode": "33300",
        "Location": "Tanjung Kala",
        "Post_Office": "Gerik",
        "State": "Perak"
    },
    {
        "Postcode": "33300",
        "Location": "Tanjung Rambai",
        "Post_Office": "Gerik",
        "State": "Perak"
    },
    {
        "Postcode": "33300",
        "Location": "Tanjung Sejarah",
        "Post_Office": "Gerik",
        "State": "Perak"
    },
    {
        "Postcode": "33300",
        "Location": "Ukk Air Kala",
        "Post_Office": "Gerik",
        "State": "Perak"
    },
    {
        "Postcode": "33300",
        "Location": "Ulu Kenderong",
        "Post_Office": "Gerik",
        "State": "Perak"
    },
    {
        "Postcode": "33300",
        "Location": "Upra (1)",
        "Post_Office": "Gerik",
        "State": "Perak"
    }
]
