[
    {
        "Postcode": "33310",
        "Location": "Kampung Keledang",
        "Post_Office": "Gerik",
        "State": "Perak"
    },
    {
        "Postcode": "33310",
        "Location": "Kampung Lalang",
        "Post_Office": "Gerik",
        "State": "Perak"
    },
    {
        "Postcode": "33310",
        "Location": "Kampung Batu Hampar",
        "Post_Office": "Gerik",
        "State": "Perak"
    },
    {
        "Postcode": "33310",
        "Location": "Ayer Musang",
        "Post_Office": "Gerik",
        "State": "Perak"
    },
    {
        "Postcode": "33310",
        "Location": "Banggol Sekawan",
        "Post_Office": "Gerik",
        "State": "Perak"
    },
    {
        "Postcode": "33310",
        "Location": "Corong",
        "Post_Office": "Gerik",
        "State": "Perak"
    },
    {
        "Postcode": "33310",
        "Location": "Kampung Alai",
        "Post_Office": "Gerik",
        "State": "Perak"
    },
    {
        "Postcode": "33310",
        "Location": "Kampung Ayer Keladi",
        "Post_Office": "Gerik",
        "State": "Perak"
    },
    {
        "Postcode": "33310",
        "Location": "Kampung Ayer Musang",
        "Post_Office": "Gerik",
        "State": "Perak"
    },
    {
        "Postcode": "33310",
        "Location": "Kampung Banggol Sekawan",
        "Post_Office": "Gerik",
        "State": "Perak"
    },
    {
        "Postcode": "33310",
        "Location": "Kampung Baru Kampung Lalang",
        "Post_Office": "Gerik",
        "State": "Perak"
    },
    {
        "Postcode": "33310",
        "Location": "Kampung Chorong",
        "Post_Office": "Gerik",
        "State": "Perak"
    },
    {
        "Postcode": "33310",
        "Location": "Kampung Jong",
        "Post_Office": "Gerik",
        "State": "Perak"
    },
    {
        "Postcode": "33310",
        "Location": "Kampung Kerunei",
        "Post_Office": "Gerik",
        "State": "Perak"
    },
    {
        "Postcode": "33310",
        "Location": "Kampung Kubang Air Jada",
        "Post_Office": "Gerik",
        "State": "Perak"
    },
    {
        "Postcode": "33310",
        "Location": "Kampung Padang Langar",
        "Post_Office": "Gerik",
        "State": "Perak"
    },
    {
        "Postcode": "33310",
        "Location": "Kampung Padang Stang",
        "Post_Office": "Gerik",
        "State": "Perak"
    },
    {
        "Postcode": "33310",
        "Location": "Kampung Pahat",
        "Post_Office": "Gerik",
        "State": "Perak"
    },
    {
        "Postcode": "33310",
        "Location": "Kampung Plang",
        "Post_Office": "Gerik",
        "State": "Perak"
    },
    {
        "Postcode": "33310",
        "Location": "Kampung Sira Kecil",
        "Post_Office": "Gerik",
        "State": "Perak"
    },
    {
        "Postcode": "33310",
        "Location": "Kampung Star Kechil",
        "Post_Office": "Gerik",
        "State": "Perak"
    },
    {
        "Postcode": "33310",
        "Location": "Kampung Tersusun Kampung Jong",
        "Post_Office": "Gerik",
        "State": "Perak"
    },
    {
        "Postcode": "33310",
        "Location": "Felda Lawin Papulut",
        "Post_Office": "Gerik",
        "State": "Perak"
    },
    {
        "Postcode": "33310",
        "Location": "Felda Lawin Selatan",
        "Post_Office": "Gerik",
        "State": "Perak"
    },
    {
        "Postcode": "33310",
        "Location": "Felda Lawin Utara",
        "Post_Office": "Gerik",
        "State": "Perak"
    }
]
