[
    {
        "Postcode": "33320",
        "Location": "Bandariang",
        "Post_Office": "Gerik",
        "State": "Perak"
    },
    {
        "Postcode": "33320",
        "Location": "Bersia",
        "Post_Office": "Gerik",
        "State": "Perak"
    },
    {
        "Postcode": "33320",
        "Location": "Bersia (Km 10)",
        "Post_Office": "Gerik",
        "State": "Perak"
    },
    {
        "Postcode": "33320",
        "Location": "Felda Bersia",
        "Post_Office": "Gerik",
        "State": "Perak"
    },
    {
        "Postcode": "33320",
        "Location": "Felda Bersia Timur",
        "Post_Office": "Gerik",
        "State": "Perak"
    },
    {
        "Postcode": "33320",
        "Location": "Kampung Bagan",
        "Post_Office": "Gerik",
        "State": "Perak"
    },
    {
        "Postcode": "33320",
        "Location": "Kampung Bandariang",
        "Post_Office": "Gerik",
        "State": "Perak"
    },
    {
        "Postcode": "33320",
        "Location": "Kampung Bersia",
        "Post_Office": "Gerik",
        "State": "Perak"
    },
    {
        "Postcode": "33320",
        "Location": "Kampung Bersia Lama",
        "Post_Office": "Gerik",
        "State": "Perak"
    },
    {
        "Postcode": "33320",
        "Location": "Kampung Bongor",
        "Post_Office": "Gerik",
        "State": "Perak"
    },
    {
        "Postcode": "33320",
        "Location": "Kampung Sira Panas",
        "Post_Office": "Gerik",
        "State": "Perak"
    },
    {
        "Postcode": "33320",
        "Location": "Kampung Tersusun Bagan Baru",
        "Post_Office": "Gerik",
        "State": "Perak"
    },
    {
        "Postcode": "33320",
        "Location": "Plang",
        "Post_Office": "Gerik",
        "State": "Perak"
    },
    {
        "Postcode": "33320",
        "Location": "Sira Panas",
        "Post_Office": "Gerik",
        "State": "Perak"
    }
]
