[
    {
        "Postcode": "33400",
        "Location": "Kampung Kota",
        "Post_Office": "Lenggong",
        "State": "Perak"
    },
    {
        "Postcode": "33400",
        "Location": "Kampung Masjid",
        "Post_Office": "Lenggong",
        "State": "Perak"
    },
    {
        "Postcode": "33400",
        "Location": "Kampung Paya",
        "Post_Office": "Lenggong",
        "State": "Perak"
    },
    {
        "Postcode": "33400",
        "Location": "Kampung Pecah Batu",
        "Post_Office": "Lenggong",
        "State": "Perak"
    },
    {
        "Postcode": "33400",
        "Location": "Kampung Rambong",
        "Post_Office": "Lenggong",
        "State": "Perak"
    },
    {
        "Postcode": "33400",
        "Location": "Kampung Tengah",
        "Post_Office": "Lenggong",
        "State": "Perak"
    },
    {
        "Postcode": "33400",
        "Location": "Kampung Sekolah",
        "Post_Office": "Lenggong\r\n",
        "State": "Perak"
    },
    {
        "Postcode": "33400",
        "Location": "Changkat Berangan",
        "Post_Office": "Lenggong",
        "State": "Perak"
    },
    {
        "Postcode": "33400",
        "Location": "Kampung Datok",
        "Post_Office": "Lenggong",
        "State": "Perak"
    },
    {
        "Postcode": "33400",
        "Location": "Kampung Kelantan",
        "Post_Office": "Lenggong",
        "State": "Perak"
    },
    {
        "Postcode": "33400",
        "Location": "Kampung Telok Batu",
        "Post_Office": "Lenggong",
        "State": "Perak"
    },
    {
        "Postcode": "33400",
        "Location": "Taman Cempaka",
        "Post_Office": "Lenggong",
        "State": "Perak"
    },
    {
        "Postcode": "33400",
        "Location": "Kampung Chepor",
        "Post_Office": "Lenggong",
        "State": "Perak"
    },
    {
        "Postcode": "33400",
        "Location": "Kuala Kenering",
        "Post_Office": "Lenggong",
        "State": "Perak"
    },
    {
        "Postcode": "33400",
        "Location": "Batu Dinding",
        "Post_Office": "Lenggong",
        "State": "Perak"
    },
    {
        "Postcode": "33400",
        "Location": "Batu Puteri",
        "Post_Office": "Lenggong",
        "State": "Perak"
    },
    {
        "Postcode": "33400",
        "Location": "Bendang Baru",
        "Post_Office": "Lenggong",
        "State": "Perak"
    },
    {
        "Postcode": "33400",
        "Location": "Bukit Balai",
        "Post_Office": "Lenggong",
        "State": "Perak"
    },
    {
        "Postcode": "33400",
        "Location": "Bukit Berapit Kuak",
        "Post_Office": "Lenggong",
        "State": "Perak"
    },
    {
        "Postcode": "33400",
        "Location": "Bukit Nangka",
        "Post_Office": "Lenggong",
        "State": "Perak"
    },
    {
        "Postcode": "33400",
        "Location": "Bukit Sapi",
        "Post_Office": "Lenggong",
        "State": "Perak"
    },
    {
        "Postcode": "33400",
        "Location": "Kampung Bagan Chepor",
        "Post_Office": "Lenggong",
        "State": "Perak"
    },
    {
        "Postcode": "33400",
        "Location": "Kampung Banggol Batu",
        "Post_Office": "Lenggong",
        "State": "Perak"
    },
    {
        "Postcode": "33400",
        "Location": "Kampung Banggol Belimbing",
        "Post_Office": "Lenggong",
        "State": "Perak"
    },
    {
        "Postcode": "33400",
        "Location": "Kampung Baru Kota Tempan",
        "Post_Office": "Lenggong",
        "State": "Perak"
    },
    {
        "Postcode": "33400",
        "Location": "Kampung Baru Tk Batu",
        "Post_Office": "Lenggong",
        "State": "Perak"
    },
    {
        "Postcode": "33400",
        "Location": "Kampung Batu Dinding",
        "Post_Office": "Lenggong",
        "State": "Perak"
    },
    {
        "Postcode": "33400",
        "Location": "Kampung Batu Puteri",
        "Post_Office": "Lenggong",
        "State": "Perak"
    },
    {
        "Postcode": "33400",
        "Location": "Kampung Beng",
        "Post_Office": "Lenggong",
        "State": "Perak"
    },
    {
        "Postcode": "33400",
        "Location": "Kampung Bonggol Batu",
        "Post_Office": "Lenggong",
        "State": "Perak"
    },
    {
        "Postcode": "33400",
        "Location": "Kampung Bor",
        "Post_Office": "Lenggong",
        "State": "Perak"
    },
    {
        "Postcode": "33400",
        "Location": "Kampung Bukit",
        "Post_Office": "Lenggong",
        "State": "Perak"
    },
    {
        "Postcode": "33400",
        "Location": "Kampung Bukit Sapi",
        "Post_Office": "Lenggong",
        "State": "Perak"
    },
    {
        "Postcode": "33400",
        "Location": "Kampung Bukit Sekolah",
        "Post_Office": "Lenggong",
        "State": "Perak"
    },
    {
        "Postcode": "33400",
        "Location": "Kampung Chain",
        "Post_Office": "Lenggong",
        "State": "Perak"
    },
    {
        "Postcode": "33400",
        "Location": "Kampung Chepor Paya",
        "Post_Office": "Lenggong",
        "State": "Perak"
    },
    {
        "Postcode": "33400",
        "Location": "Kampung Gelok",
        "Post_Office": "Lenggong",
        "State": "Perak"
    },
    {
        "Postcode": "33400",
        "Location": "Kampung Gelong Tengah",
        "Post_Office": "Lenggong",
        "State": "Perak"
    },
    {
        "Postcode": "33400",
        "Location": "Kampung Gua Badak",
        "Post_Office": "Lenggong",
        "State": "Perak"
    },
    {
        "Postcode": "33400",
        "Location": "Kampung Gua Badak (Batu 63 1/2)",
        "Post_Office": "Lenggong",
        "State": "Perak"
    },
    {
        "Postcode": "33400",
        "Location": "Kampung Hulu Chepor",
        "Post_Office": "Lenggong",
        "State": "Perak"
    },
    {
        "Postcode": "33400",
        "Location": "Kampung Hulu Lenggong",
        "Post_Office": "Lenggong",
        "State": "Perak"
    },
    {
        "Postcode": "33400",
        "Location": "Kampung Kota Tempan Ayer",
        "Post_Office": "Lenggong",
        "State": "Perak"
    },
    {
        "Postcode": "33400",
        "Location": "Kampung Kuak",
        "Post_Office": "Lenggong",
        "State": "Perak"
    },
    {
        "Postcode": "33400",
        "Location": "Kampung Kuak Lata Papan",
        "Post_Office": "Lenggong",
        "State": "Perak"
    },
    {
        "Postcode": "33400",
        "Location": "Kampung Kubang Jambu",
        "Post_Office": "Lenggong",
        "State": "Perak"
    },
    {
        "Postcode": "33400",
        "Location": "Kampung Kunyit",
        "Post_Office": "Lenggong",
        "State": "Perak"
    },
    {
        "Postcode": "33400",
        "Location": "Kampung Labit",
        "Post_Office": "Lenggong",
        "State": "Perak"
    },
    {
        "Postcode": "33400",
        "Location": "Kampung Lahar",
        "Post_Office": "Lenggong",
        "State": "Perak"
    },
    {
        "Postcode": "33400",
        "Location": "Kampung Lakit",
        "Post_Office": "Lenggong",
        "State": "Perak"
    },
    {
        "Postcode": "33400",
        "Location": "Kampung Lata Papan",
        "Post_Office": "Lenggong",
        "State": "Perak"
    },
    {
        "Postcode": "33400",
        "Location": "Kampung Luat",
        "Post_Office": "Lenggong",
        "State": "Perak"
    },
    {
        "Postcode": "33400",
        "Location": "Kampung Lubok Kawah",
        "Post_Office": "Lenggong",
        "State": "Perak"
    },
    {
        "Postcode": "33400",
        "Location": "Kampung Masjid Chepor",
        "Post_Office": "Lenggong",
        "State": "Perak"
    },
    {
        "Postcode": "33400",
        "Location": "Kampung Masjid Jamek",
        "Post_Office": "Lenggong",
        "State": "Perak"
    },
    {
        "Postcode": "33400",
        "Location": "Kampung Masjid Kuak",
        "Post_Office": "Lenggong",
        "State": "Perak"
    },
    {
        "Postcode": "33400",
        "Location": "Kampung Padang Luas",
        "Post_Office": "Lenggong",
        "State": "Perak"
    },
    {
        "Postcode": "33400",
        "Location": "Kampung Palong",
        "Post_Office": "Lenggong",
        "State": "Perak"
    },
    {
        "Postcode": "33400",
        "Location": "Kampung Payah",
        "Post_Office": "Lenggong",
        "State": "Perak"
    },
    {
        "Postcode": "33400",
        "Location": "Kampung Pelagut",
        "Post_Office": "Lenggong",
        "State": "Perak"
    },
    {
        "Postcode": "33400",
        "Location": "Kampung Pengkalan Ikan",
        "Post_Office": "Lenggong",
        "State": "Perak"
    },
    {
        "Postcode": "33400",
        "Location": "Kampung Pulau Cheri",
        "Post_Office": "Lenggong",
        "State": "Perak"
    },
    {
        "Postcode": "33400",
        "Location": "Kampung Raban",
        "Post_Office": "Lenggong",
        "State": "Perak"
    },
    {
        "Postcode": "33400",
        "Location": "Kampung Sekolah Perempuan",
        "Post_Office": "Lenggong",
        "State": "Perak"
    },
    {
        "Postcode": "33400",
        "Location": "Kampung Selekoh",
        "Post_Office": "Lenggong",
        "State": "Perak"
    },
    {
        "Postcode": "33400",
        "Location": "Kampung Senderlai",
        "Post_Office": "Lenggong",
        "State": "Perak"
    },
    {
        "Postcode": "33400",
        "Location": "Kampung Sira",
        "Post_Office": "Lenggong",
        "State": "Perak"
    },
    {
        "Postcode": "33400",
        "Location": "Kampung Sira Puteh",
        "Post_Office": "Lenggong",
        "State": "Perak"
    },
    {
        "Postcode": "33400",
        "Location": "Kampung Sira Rambutan",
        "Post_Office": "Lenggong",
        "State": "Perak"
    },
    {
        "Postcode": "33400",
        "Location": "Kampung Talung",
        "Post_Office": "Lenggong",
        "State": "Perak"
    },
    {
        "Postcode": "33400",
        "Location": "Kampung Tambang",
        "Post_Office": "Lenggong",
        "State": "Perak"
    },
    {
        "Postcode": "33400",
        "Location": "Kampung Temelong",
        "Post_Office": "Lenggong",
        "State": "Perak"
    },
    {
        "Postcode": "33400",
        "Location": "Kampung Tersusun Bukit Raja",
        "Post_Office": "Lenggong",
        "State": "Perak"
    },
    {
        "Postcode": "33400",
        "Location": "Kampung Ulu Jepai",
        "Post_Office": "Lenggong",
        "State": "Perak"
    },
    {
        "Postcode": "33400",
        "Location": "Kampung Ulu Sepai",
        "Post_Office": "Lenggong",
        "State": "Perak"
    },
    {
        "Postcode": "33400",
        "Location": "Kota Lima Estate",
        "Post_Office": "Lenggong",
        "State": "Perak"
    },
    {
        "Postcode": "33400",
        "Location": "Kota Tampan",
        "Post_Office": "Lenggong",
        "State": "Perak"
    },
    {
        "Postcode": "33400",
        "Location": "Kota Tampan Ayer",
        "Post_Office": "Lenggong",
        "State": "Perak"
    },
    {
        "Postcode": "33400",
        "Location": "Kuak",
        "Post_Office": "Lenggong",
        "State": "Perak"
    },
    {
        "Postcode": "33400",
        "Location": "Kubang Jambu",
        "Post_Office": "Lenggong",
        "State": "Perak"
    },
    {
        "Postcode": "33400",
        "Location": "Lenggong",
        "Post_Office": "Lenggong",
        "State": "Perak"
    },
    {
        "Postcode": "33400",
        "Location": "Mrsm Chenderoh",
        "Post_Office": "Lenggong",
        "State": "Perak"
    },
    {
        "Postcode": "33400",
        "Location": "Padang Bola",
        "Post_Office": "Lenggong",
        "State": "Perak"
    },
    {
        "Postcode": "33400",
        "Location": "Padang Luas",
        "Post_Office": "Lenggong",
        "State": "Perak"
    },
    {
        "Postcode": "33400",
        "Location": "Pekan Kuak",
        "Post_Office": "Lenggong",
        "State": "Perak"
    },
    {
        "Postcode": "33400",
        "Location": "Pengkalan Ikan",
        "Post_Office": "Lenggong",
        "State": "Perak"
    },
    {
        "Postcode": "33400",
        "Location": "Pokok Jerai",
        "Post_Office": "Lenggong",
        "State": "Perak"
    },
    {
        "Postcode": "33400",
        "Location": "Raban",
        "Post_Office": "Lenggong",
        "State": "Perak"
    },
    {
        "Postcode": "33400",
        "Location": "Rumah Awam Gua Badak (Fasa 2)",
        "Post_Office": "Lenggong",
        "State": "Perak"
    },
    {
        "Postcode": "33400",
        "Location": "Rumah Awam Kota Tampan",
        "Post_Office": "Lenggong",
        "State": "Perak"
    },
    {
        "Postcode": "33400",
        "Location": "Senan Lai",
        "Post_Office": "Lenggong",
        "State": "Perak"
    },
    {
        "Postcode": "33400",
        "Location": "Taman Kota Tampan",
        "Post_Office": "Lenggong",
        "State": "Perak"
    },
    {
        "Postcode": "33400",
        "Location": "Taman Lenggong",
        "Post_Office": "Lenggong",
        "State": "Perak"
    },
    {
        "Postcode": "33400",
        "Location": "Tasek Raban",
        "Post_Office": "Lenggong",
        "State": "Perak"
    },
    {
        "Postcode": "33400",
        "Location": "Teluk Batu",
        "Post_Office": "Lenggong",
        "State": "Perak"
    },
    {
        "Postcode": "33400",
        "Location": "Ulu Lenggong",
        "Post_Office": "Lenggong",
        "State": "Perak"
    }
]
