[
    {
        "Postcode": "33410",
        "Location": "Kampung Padang Jeri",
        "Post_Office": "Lenggong",
        "State": "Perak"
    },
    {
        "Postcode": "33410",
        "Location": "Kampung Ulu Lawin",
        "Post_Office": "Lenggong",
        "State": "Perak"
    },
    {
        "Postcode": "33410",
        "Location": "Ayer Pulau",
        "Post_Office": "Lenggong",
        "State": "Perak"
    },
    {
        "Postcode": "33410",
        "Location": "Belum Baru",
        "Post_Office": "Lenggong",
        "State": "Perak"
    },
    {
        "Postcode": "33410",
        "Location": "Kampung Ayer Jada",
        "Post_Office": "Lenggong",
        "State": "Perak"
    },
    {
        "Postcode": "33410",
        "Location": "Kampung Ayer Jernang",
        "Post_Office": "Lenggong",
        "State": "Perak"
    },
    {
        "Postcode": "33410",
        "Location": "Kampung Ayer Pari",
        "Post_Office": "Lenggong",
        "State": "Perak"
    },
    {
        "Postcode": "33410",
        "Location": "Kampung Ayer Pulau",
        "Post_Office": "Lenggong",
        "State": "Perak"
    },
    {
        "Postcode": "33410",
        "Location": "Kampung Belum Baru",
        "Post_Office": "Lenggong",
        "State": "Perak"
    },
    {
        "Postcode": "33410",
        "Location": "Kampung Kubang",
        "Post_Office": "Lenggong",
        "State": "Perak"
    },
    {
        "Postcode": "33410",
        "Location": "Kampung Kubang Lubok Arang",
        "Post_Office": "Lenggong",
        "State": "Perak"
    },
    {
        "Postcode": "33410",
        "Location": "Kampung Malau",
        "Post_Office": "Lenggong",
        "State": "Perak"
    },
    {
        "Postcode": "33410",
        "Location": "Kenayat",
        "Post_Office": "Lenggong",
        "State": "Perak"
    },
    {
        "Postcode": "33410",
        "Location": "Lawin",
        "Post_Office": "Lenggong",
        "State": "Perak"
    },
    {
        "Postcode": "33410",
        "Location": "Malau",
        "Post_Office": "Lenggong",
        "State": "Perak"
    },
    {
        "Postcode": "33410",
        "Location": "Papulut",
        "Post_Office": "Lenggong",
        "State": "Perak"
    },
    {
        "Postcode": "33410",
        "Location": "Tanjung Kasau",
        "Post_Office": "Lenggong",
        "State": "Perak"
    },
    {
        "Postcode": "33410",
        "Location": "Kampung Baru Padang Grus",
        "Post_Office": "Lenggong",
        "State": "Perak"
    },
    {
        "Postcode": "33410",
        "Location": "Kampung Kuala Kedering",
        "Post_Office": "Lenggong",
        "State": "Perak"
    },
    {
        "Postcode": "33410",
        "Location": "Kampung Sawah",
        "Post_Office": "Lenggong",
        "State": "Perak"
    },
    {
        "Postcode": "33410",
        "Location": "Padang Jeri",
        "Post_Office": "Lenggong",
        "State": "Perak"
    },
    {
        "Postcode": "33410",
        "Location": "Ayer Jadah",
        "Post_Office": "Lenggong",
        "State": "Perak"
    },
    {
        "Postcode": "33410",
        "Location": "Kampung Bagan Lawin",
        "Post_Office": "Lenggong",
        "State": "Perak"
    },
    {
        "Postcode": "33410",
        "Location": "Kampung Kenayat",
        "Post_Office": "Lenggong",
        "State": "Perak"
    },
    {
        "Postcode": "33410",
        "Location": "Kampung Rancangan Merah",
        "Post_Office": "Lenggong",
        "State": "Perak"
    },
    {
        "Postcode": "33410",
        "Location": "Kampung Tanjong Kasau",
        "Post_Office": "Lenggong",
        "State": "Perak"
    },
    {
        "Postcode": "33410",
        "Location": "Kampung Tanjong Lobak",
        "Post_Office": "Lenggong",
        "State": "Perak"
    },
    {
        "Postcode": "33410",
        "Location": "Pekan Lawin",
        "Post_Office": "Lenggong",
        "State": "Perak"
    }
]
