[
    {
        "Postcode": "33420",
        "Location": "Ayer Kala",
        "Post_Office": "Lenggong",
        "State": "Perak"
    },
    {
        "Postcode": "33420",
        "Location": "Kampung Ayer Ibor Sumpitan",
        "Post_Office": "Lenggong",
        "State": "Perak"
    },
    {
        "Postcode": "33420",
        "Location": "Kampung Ayer Kala",
        "Post_Office": "Lenggong",
        "State": "Perak"
    },
    {
        "Postcode": "33420",
        "Location": "Kampung Melayu Padang Grus",
        "Post_Office": "Lenggong",
        "State": "Perak"
    },
    {
        "Postcode": "33420",
        "Location": "Kampung Melayu Sumpitan",
        "Post_Office": "Lenggong",
        "State": "Perak"
    },
    {
        "Postcode": "33420",
        "Location": "Kampung Padang Grus",
        "Post_Office": "Lenggong",
        "State": "Perak"
    },
    {
        "Postcode": "33420",
        "Location": "Kampung Sumpitan",
        "Post_Office": "Lenggong",
        "State": "Perak"
    },
    {
        "Postcode": "33420",
        "Location": "Padang Gurus",
        "Post_Office": "Lenggong",
        "State": "Perak"
    },
    {
        "Postcode": "33420",
        "Location": "Selat Pagar",
        "Post_Office": "Lenggong",
        "State": "Perak"
    },
    {
        "Postcode": "33420",
        "Location": "Ulu Lawin",
        "Post_Office": "Lenggong",
        "State": "Perak"
    }
]
