[
    {
        "Postcode": "33500",
        "Location": "Perumahan Awam Baru Fasa 2",
        "Post_Office": "Sauk",
        "State": "Perak"
    },
    {
        "Postcode": "33500",
        "Location": "Taman Ria 1",
        "Post_Office": "Sauk",
        "State": "Perak"
    },
    {
        "Postcode": "33500",
        "Location": "Taman Ria 2",
        "Post_Office": "Sauk",
        "State": "Perak"
    },
    {
        "Postcode": "33500",
        "Location": "Kampung Baru",
        "Post_Office": "Sauk",
        "State": "Perak"
    },
    {
        "Postcode": "33500",
        "Location": "Kampung Tengah",
        "Post_Office": "Sauk",
        "State": "Perak"
    },
    {
        "Postcode": "33500",
        "Location": "Kampung Jenalek",
        "Post_Office": "Sauk",
        "State": "Perak"
    },
    {
        "Postcode": "33500",
        "Location": "Taman Ria",
        "Post_Office": "Sauk",
        "State": "Perak"
    },
    {
        "Postcode": "33500",
        "Location": "Perumahan Awam 1",
        "Post_Office": "Sauk",
        "State": "Perak"
    },
    {
        "Postcode": "33500",
        "Location": "Aras Estate",
        "Post_Office": "Sauk",
        "State": "Perak"
    },
    {
        "Postcode": "33500",
        "Location": "Bendang Bugis",
        "Post_Office": "Sauk",
        "State": "Perak"
    },
    {
        "Postcode": "33500",
        "Location": "Bendang Selingsing",
        "Post_Office": "Sauk",
        "State": "Perak"
    },
    {
        "Postcode": "33500",
        "Location": "Chegar Galah",
        "Post_Office": "Sauk",
        "State": "Perak"
    },
    {
        "Postcode": "33500",
        "Location": "Kampung Baru Cenderoh",
        "Post_Office": "Sauk",
        "State": "Perak"
    },
    {
        "Postcode": "33500",
        "Location": "Kampung Baru Sauk",
        "Post_Office": "Sauk",
        "State": "Perak"
    },
    {
        "Postcode": "33500",
        "Location": "Kampung Bendang Bugis",
        "Post_Office": "Sauk",
        "State": "Perak"
    },
    {
        "Postcode": "33500",
        "Location": "Kampung Bendang Selinsing",
        "Post_Office": "Sauk",
        "State": "Perak"
    },
    {
        "Postcode": "33500",
        "Location": "Kampung Biong",
        "Post_Office": "Sauk",
        "State": "Perak"
    },
    {
        "Postcode": "33500",
        "Location": "Kampung Changkat Duku",
        "Post_Office": "Sauk",
        "State": "Perak"
    },
    {
        "Postcode": "33500",
        "Location": "Kampung Changkat Pinang",
        "Post_Office": "Sauk",
        "State": "Perak"
    },
    {
        "Postcode": "33500",
        "Location": "Kampung Chegar",
        "Post_Office": "Sauk",
        "State": "Perak"
    },
    {
        "Postcode": "33500",
        "Location": "Kampung Chegar Galah",
        "Post_Office": "Sauk",
        "State": "Perak"
    },
    {
        "Postcode": "33500",
        "Location": "Kampung Intan Suraya",
        "Post_Office": "Sauk",
        "State": "Perak"
    },
    {
        "Postcode": "33500",
        "Location": "Kampung Jenalek Hilir",
        "Post_Office": "Sauk",
        "State": "Perak"
    },
    {
        "Postcode": "33500",
        "Location": "Kampung Jenalek Hulu",
        "Post_Office": "Sauk",
        "State": "Perak"
    },
    {
        "Postcode": "33500",
        "Location": "Kampung Kelaong",
        "Post_Office": "Sauk",
        "State": "Perak"
    },
    {
        "Postcode": "33500",
        "Location": "Kampung Ngor",
        "Post_Office": "Sauk",
        "State": "Perak"
    },
    {
        "Postcode": "33500",
        "Location": "Kampung Sauk",
        "Post_Office": "Sauk",
        "State": "Perak"
    },
    {
        "Postcode": "33500",
        "Location": "Kampung Seterus",
        "Post_Office": "Sauk",
        "State": "Perak"
    },
    {
        "Postcode": "33500",
        "Location": "Kampung Sewai",
        "Post_Office": "Sauk",
        "State": "Perak"
    },
    {
        "Postcode": "33500",
        "Location": "Kampung Strus",
        "Post_Office": "Sauk",
        "State": "Perak"
    },
    {
        "Postcode": "33500",
        "Location": "Kampung Tahan",
        "Post_Office": "Sauk",
        "State": "Perak"
    },
    {
        "Postcode": "33500",
        "Location": "Kampung Talang Batu",
        "Post_Office": "Sauk",
        "State": "Perak"
    },
    {
        "Postcode": "33500",
        "Location": "Ladang Jenalek",
        "Post_Office": "Sauk",
        "State": "Perak"
    },
    {
        "Postcode": "33500",
        "Location": "Maryland Estate",
        "Post_Office": "Sauk",
        "State": "Perak"
    },
    {
        "Postcode": "33500",
        "Location": "Sauk",
        "Post_Office": "Sauk",
        "State": "Perak"
    },
    {
        "Postcode": "33500",
        "Location": "Tanjung Perak Estate",
        "Post_Office": "Sauk",
        "State": "Perak"
    }
]
