[
    {
        "Postcode": "33600",
        "Location": "Kampung Keranji",
        "Post_Office": "Enggor",
        "State": "Perak"
    },
    {
        "Postcode": "33600",
        "Location": "Kampung Maran",
        "Post_Office": "Enggor",
        "State": "Perak"
    },
    {
        "Postcode": "33600",
        "Location": "Kampung Rambong",
        "Post_Office": "Enggor",
        "State": "Perak"
    },
    {
        "Postcode": "33600",
        "Location": "Kampung Sungai Akar",
        "Post_Office": "Enggor",
        "State": "Perak"
    },
    {
        "Postcode": "33600",
        "Location": "Kampung Temong Hulu",
        "Post_Office": "Enggor",
        "State": "Perak"
    },
    {
        "Postcode": "33600",
        "Location": "Kampung Ulu Ribu",
        "Post_Office": "Enggor",
        "State": "Perak"
    },
    {
        "Postcode": "33600",
        "Location": "Kampung Setia",
        "Post_Office": "Enggor",
        "State": "Perak"
    },
    {
        "Postcode": "33600",
        "Location": "Beluru",
        "Post_Office": "Enggor",
        "State": "Perak"
    },
    {
        "Postcode": "33600",
        "Location": "Enggor",
        "Post_Office": "Enggor",
        "State": "Perak"
    },
    {
        "Postcode": "33600",
        "Location": "Kampung Baru Pprt",
        "Post_Office": "Enggor",
        "State": "Perak"
    },
    {
        "Postcode": "33600",
        "Location": "Kampung Batu Jarau",
        "Post_Office": "Enggor",
        "State": "Perak"
    },
    {
        "Postcode": "33600",
        "Location": "Kampung Beluru",
        "Post_Office": "Enggor",
        "State": "Perak"
    },
    {
        "Postcode": "33600",
        "Location": "Kampung Bendang Chengal",
        "Post_Office": "Enggor",
        "State": "Perak"
    },
    {
        "Postcode": "33600",
        "Location": "Kampung Enggor",
        "Post_Office": "Enggor",
        "State": "Perak"
    },
    {
        "Postcode": "33600",
        "Location": "Kampung Geliong",
        "Post_Office": "Enggor",
        "State": "Perak"
    },
    {
        "Postcode": "33600",
        "Location": "Kampung Jarau",
        "Post_Office": "Enggor",
        "State": "Perak"
    },
    {
        "Postcode": "33600",
        "Location": "Kampung Kapor",
        "Post_Office": "Enggor",
        "State": "Perak"
    },
    {
        "Postcode": "33600",
        "Location": "Kampung Karai",
        "Post_Office": "Enggor",
        "State": "Perak"
    },
    {
        "Postcode": "33600",
        "Location": "Kampung Kuala Karai",
        "Post_Office": "Enggor",
        "State": "Perak"
    },
    {
        "Postcode": "33600",
        "Location": "Kampung Kubang Halban",
        "Post_Office": "Enggor",
        "State": "Perak"
    },
    {
        "Postcode": "33600",
        "Location": "Kampung Lanchang Seri",
        "Post_Office": "Enggor",
        "State": "Perak"
    },
    {
        "Postcode": "33600",
        "Location": "Kampung Lembah Jemuan",
        "Post_Office": "Enggor",
        "State": "Perak"
    },
    {
        "Postcode": "33600",
        "Location": "Kampung Loh",
        "Post_Office": "Enggor",
        "State": "Perak"
    },
    {
        "Postcode": "33600",
        "Location": "Kampung Lubok Capin",
        "Post_Office": "Enggor",
        "State": "Perak"
    },
    {
        "Postcode": "33600",
        "Location": "Kampung Maran Hilir",
        "Post_Office": "Enggor",
        "State": "Perak"
    },
    {
        "Postcode": "33600",
        "Location": "Kampung Nasib",
        "Post_Office": "Enggor",
        "State": "Perak"
    },
    {
        "Postcode": "33600",
        "Location": "Kampung Ngok",
        "Post_Office": "Enggor",
        "State": "Perak"
    },
    {
        "Postcode": "33600",
        "Location": "Kampung Periang",
        "Post_Office": "Enggor",
        "State": "Perak"
    },
    {
        "Postcode": "33600",
        "Location": "Kampung Prik",
        "Post_Office": "Enggor",
        "State": "Perak"
    },
    {
        "Postcode": "33600",
        "Location": "Kampung Reriang",
        "Post_Office": "Enggor",
        "State": "Perak"
    },
    {
        "Postcode": "33600",
        "Location": "Kampung Ribu",
        "Post_Office": "Enggor",
        "State": "Perak"
    },
    {
        "Postcode": "33600",
        "Location": "Kampung Seberang Karai",
        "Post_Office": "Enggor",
        "State": "Perak"
    },
    {
        "Postcode": "33600",
        "Location": "Kampung Suak Rambai",
        "Post_Office": "Enggor",
        "State": "Perak"
    },
    {
        "Postcode": "33600",
        "Location": "Kampung Temong Hilir",
        "Post_Office": "Enggor",
        "State": "Perak"
    },
    {
        "Postcode": "33600",
        "Location": "Kampung Temung",
        "Post_Office": "Enggor",
        "State": "Perak"
    },
    {
        "Postcode": "33600",
        "Location": "Kampung Tersusun Sri Jemuan",
        "Post_Office": "Enggor",
        "State": "Perak"
    },
    {
        "Postcode": "33600",
        "Location": "Kampung Ulu Kapor",
        "Post_Office": "Enggor",
        "State": "Perak"
    },
    {
        "Postcode": "33600",
        "Location": "Lembah Jemuan",
        "Post_Office": "Enggor",
        "State": "Perak"
    },
    {
        "Postcode": "33600",
        "Location": "Lembah Jemuran",
        "Post_Office": "Enggor",
        "State": "Perak"
    },
    {
        "Postcode": "33600",
        "Location": "Lubok Chopin",
        "Post_Office": "Enggor",
        "State": "Perak"
    },
    {
        "Postcode": "33600",
        "Location": "Maran",
        "Post_Office": "Enggor",
        "State": "Perak"
    },
    {
        "Postcode": "33600",
        "Location": "Seberang Kerai",
        "Post_Office": "Enggor",
        "State": "Perak"
    },
    {
        "Postcode": "33600",
        "Location": "Taman Sri Apang",
        "Post_Office": "Enggor",
        "State": "Perak"
    }
]
