[
    {
        "Postcode": "33700",
        "Location": "Kampung Laneh",
        "Post_Office": "Padang Rengas",
        "State": "Perak"
    },
    {
        "Postcode": "33700",
        "Location": "Bukit Berapit",
        "Post_Office": "Padang Rengas",
        "State": "Perak"
    },
    {
        "Postcode": "33700",
        "Location": "Kampung Baru",
        "Post_Office": "Padang Rengas",
        "State": "Perak"
    },
    {
        "Postcode": "33700",
        "Location": "Kampung Jaya",
        "Post_Office": "Padang Rengas",
        "State": "Perak"
    },
    {
        "Postcode": "33700",
        "Location": "Kampung Lalang",
        "Post_Office": "Padang Rengas",
        "State": "Perak"
    },
    {
        "Postcode": "33700",
        "Location": "Kampung Lembah",
        "Post_Office": "Padang Rengas",
        "State": "Perak"
    },
    {
        "Postcode": "33700",
        "Location": "Kampung Seberang",
        "Post_Office": "Padang Rengas",
        "State": "Perak"
    },
    {
        "Postcode": "33700",
        "Location": "Kampung Sendayan",
        "Post_Office": "Padang Rengas",
        "State": "Perak"
    },
    {
        "Postcode": "33700",
        "Location": "Labu Kubong",
        "Post_Office": "Padang Rengas",
        "State": "Perak"
    },
    {
        "Postcode": "33700",
        "Location": "Kampung Rambong",
        "Post_Office": "Padang Rengas\r\n",
        "State": "Perak"
    },
    {
        "Postcode": "33700",
        "Location": "Kampung Pulau",
        "Post_Office": "Padang Rengas",
        "State": "Perak"
    },
    {
        "Postcode": "33700",
        "Location": "Kampung Repoh",
        "Post_Office": "Padang Rengas",
        "State": "Perak"
    },
    {
        "Postcode": "33700",
        "Location": "Bawah Gunung",
        "Post_Office": "Padang Rengas",
        "State": "Perak"
    },
    {
        "Postcode": "33700",
        "Location": "Changkat Gohor",
        "Post_Office": "Padang Rengas",
        "State": "Perak"
    },
    {
        "Postcode": "33700",
        "Location": "Kampung Batu Buntal",
        "Post_Office": "Padang Rengas",
        "State": "Perak"
    },
    {
        "Postcode": "33700",
        "Location": "Kampung Buaya Hilir",
        "Post_Office": "Padang Rengas",
        "State": "Perak"
    },
    {
        "Postcode": "33700",
        "Location": "Kampung Buaya Hulu",
        "Post_Office": "Padang Rengas",
        "State": "Perak"
    },
    {
        "Postcode": "33700",
        "Location": "Kampung Bunya",
        "Post_Office": "Padang Rengas",
        "State": "Perak"
    },
    {
        "Postcode": "33700",
        "Location": "Kampung Gapis",
        "Post_Office": "Padang Rengas",
        "State": "Perak"
    },
    {
        "Postcode": "33700",
        "Location": "Kampung Kembal Batu",
        "Post_Office": "Padang Rengas",
        "State": "Perak"
    },
    {
        "Postcode": "33700",
        "Location": "Kampung Keroh",
        "Post_Office": "Padang Rengas",
        "State": "Perak"
    },
    {
        "Postcode": "33700",
        "Location": "Kampung Kroh Hilir",
        "Post_Office": "Padang Rengas",
        "State": "Perak"
    },
    {
        "Postcode": "33700",
        "Location": "Kampung Kroh Hulu",
        "Post_Office": "Padang Rengas",
        "State": "Perak"
    },
    {
        "Postcode": "33700",
        "Location": "Kampung Kroh Seberang",
        "Post_Office": "Padang Rengas",
        "State": "Perak"
    },
    {
        "Postcode": "33700",
        "Location": "Kampung Kroh Tanjong",
        "Post_Office": "Padang Rengas",
        "State": "Perak"
    },
    {
        "Postcode": "33700",
        "Location": "Kampung Paya Lintah",
        "Post_Office": "Padang Rengas",
        "State": "Perak"
    },
    {
        "Postcode": "33700",
        "Location": "Kampung Paya Panjang Hilir",
        "Post_Office": "Padang Rengas",
        "State": "Perak"
    },
    {
        "Postcode": "33700",
        "Location": "Kampung Paya Panjang Hulu",
        "Post_Office": "Padang Rengas",
        "State": "Perak"
    },
    {
        "Postcode": "33700",
        "Location": "Kampung Paya Ranggam",
        "Post_Office": "Padang Rengas",
        "State": "Perak"
    },
    {
        "Postcode": "33700",
        "Location": "Kampung Paya Salak",
        "Post_Office": "Padang Rengas",
        "State": "Perak"
    },
    {
        "Postcode": "33700",
        "Location": "Kampung Pondok",
        "Post_Office": "Padang Rengas",
        "State": "Perak"
    },
    {
        "Postcode": "33700",
        "Location": "Kampung Stor",
        "Post_Office": "Padang Rengas",
        "State": "Perak"
    },
    {
        "Postcode": "33700",
        "Location": "Kampung Sungai Ati",
        "Post_Office": "Padang Rengas",
        "State": "Perak"
    },
    {
        "Postcode": "33700",
        "Location": "Kampung Tersusun Jalan Stesen",
        "Post_Office": "Padang Rengas",
        "State": "Perak"
    },
    {
        "Postcode": "33700",
        "Location": "Kembal Bali",
        "Post_Office": "Padang Rengas",
        "State": "Perak"
    },
    {
        "Postcode": "33700",
        "Location": "Kuala Dal",
        "Post_Office": "Padang Rengas",
        "State": "Perak"
    },
    {
        "Postcode": "33700",
        "Location": "Ladang Berapit",
        "Post_Office": "Padang Rengas",
        "State": "Perak"
    },
    {
        "Postcode": "33700",
        "Location": "Padang Assam",
        "Post_Office": "Padang Rengas",
        "State": "Perak"
    },
    {
        "Postcode": "33700",
        "Location": "Padang Rengas",
        "Post_Office": "Padang Rengas",
        "State": "Perak"
    },
    {
        "Postcode": "33700",
        "Location": "Payah Lintah",
        "Post_Office": "Padang Rengas",
        "State": "Perak"
    },
    {
        "Postcode": "33700",
        "Location": "Payah Panjang",
        "Post_Office": "Padang Rengas",
        "State": "Perak"
    },
    {
        "Postcode": "33700",
        "Location": "Payah Renggam",
        "Post_Office": "Padang Rengas",
        "State": "Perak"
    },
    {
        "Postcode": "33700",
        "Location": "Payah Salak",
        "Post_Office": "Padang Rengas",
        "State": "Perak"
    },
    {
        "Postcode": "33700",
        "Location": "Raw Bukit Berapit",
        "Post_Office": "Padang Rengas",
        "State": "Perak"
    },
    {
        "Postcode": "33700",
        "Location": "Rri Changkat Melaka",
        "Post_Office": "Padang Rengas",
        "State": "Perak"
    },
    {
        "Postcode": "33700",
        "Location": "Sendayan",
        "Post_Office": "Padang Rengas",
        "State": "Perak"
    },
    {
        "Postcode": "33700",
        "Location": "Sungai Ati",
        "Post_Office": "Padang Rengas",
        "State": "Perak"
    },
    {
        "Postcode": "33700",
        "Location": "Taman Pamai",
        "Post_Office": "Padang Rengas",
        "State": "Perak"
    },
    {
        "Postcode": "33700",
        "Location": "Taman Rengas Indah",
        "Post_Office": "Padang Rengas",
        "State": "Perak"
    },
    {
        "Postcode": "33700",
        "Location": "Taman Rengas Jaya",
        "Post_Office": "Padang Rengas",
        "State": "Perak"
    }
]
