[
    {
        "Postcode": "33800",
        "Location": "Kampung Bendang Besar",
        "Post_Office": "Manong",
        "State": "Perak"
    },
    {
        "Postcode": "33800",
        "Location": "Kampung Changkat",
        "Post_Office": "Manong",
        "State": "Perak"
    },
    {
        "Postcode": "33800",
        "Location": "Kampung Padang Kerbau",
        "Post_Office": "Manong",
        "State": "Perak"
    },
    {
        "Postcode": "33800",
        "Location": "Kampung Pecah Batu",
        "Post_Office": "Manong",
        "State": "Perak"
    },
    {
        "Postcode": "33800",
        "Location": "Kampung Seberang",
        "Post_Office": "Manong",
        "State": "Perak"
    },
    {
        "Postcode": "33800",
        "Location": "Kampung Pulai",
        "Post_Office": "Manong",
        "State": "Perak"
    },
    {
        "Postcode": "33800",
        "Location": "Ara Panjang",
        "Post_Office": "Manong",
        "State": "Perak"
    },
    {
        "Postcode": "33800",
        "Location": "Chabang Bunggor",
        "Post_Office": "Manong",
        "State": "Perak"
    },
    {
        "Postcode": "33800",
        "Location": "Haji Osman Estate",
        "Post_Office": "Manong",
        "State": "Perak"
    },
    {
        "Postcode": "33800",
        "Location": "Jeliang",
        "Post_Office": "Manong",
        "State": "Perak"
    },
    {
        "Postcode": "33800",
        "Location": "Kampung Ara Panjang",
        "Post_Office": "Manong",
        "State": "Perak"
    },
    {
        "Postcode": "33800",
        "Location": "Kampung Batu 40 (Lempor)",
        "Post_Office": "Manong",
        "State": "Perak"
    },
    {
        "Postcode": "33800",
        "Location": "Kampung Bekor",
        "Post_Office": "Manong",
        "State": "Perak"
    },
    {
        "Postcode": "33800",
        "Location": "Kampung Chabang Bungor",
        "Post_Office": "Manong",
        "State": "Perak"
    },
    {
        "Postcode": "33800",
        "Location": "Kampung Guar",
        "Post_Office": "Manong",
        "State": "Perak"
    },
    {
        "Postcode": "33800",
        "Location": "Kampung Jeliang",
        "Post_Office": "Manong",
        "State": "Perak"
    },
    {
        "Postcode": "33800",
        "Location": "Kampung Kubang Udang",
        "Post_Office": "Manong",
        "State": "Perak"
    },
    {
        "Postcode": "33800",
        "Location": "Kampung Lempor Hilir",
        "Post_Office": "Manong",
        "State": "Perak"
    },
    {
        "Postcode": "33800",
        "Location": "Kampung Lempor Pekan",
        "Post_Office": "Manong",
        "State": "Perak"
    },
    {
        "Postcode": "33800",
        "Location": "Kampung Lempor Seberang",
        "Post_Office": "Manong",
        "State": "Perak"
    },
    {
        "Postcode": "33800",
        "Location": "Kampung Lempor Tengah",
        "Post_Office": "Manong",
        "State": "Perak"
    },
    {
        "Postcode": "33800",
        "Location": "Kampung Mandah",
        "Post_Office": "Manong",
        "State": "Perak"
    },
    {
        "Postcode": "33800",
        "Location": "Kampung Piol",
        "Post_Office": "Manong",
        "State": "Perak"
    },
    {
        "Postcode": "33800",
        "Location": "Kampung Semat",
        "Post_Office": "Manong",
        "State": "Perak"
    },
    {
        "Postcode": "33800",
        "Location": "Kampung Suak Petai",
        "Post_Office": "Manong",
        "State": "Perak"
    },
    {
        "Postcode": "33800",
        "Location": "Kampung Teow Kuala Kangsar",
        "Post_Office": "Manong",
        "State": "Perak"
    },
    {
        "Postcode": "33800",
        "Location": "Kampung Ulu Piol",
        "Post_Office": "Manong",
        "State": "Perak"
    },
    {
        "Postcode": "33800",
        "Location": "Kebun Raja Estate",
        "Post_Office": "Manong",
        "State": "Perak"
    },
    {
        "Postcode": "33800",
        "Location": "Kuala  Kenas",
        "Post_Office": "Manong",
        "State": "Perak"
    },
    {
        "Postcode": "33800",
        "Location": "Kubang Udang",
        "Post_Office": "Manong",
        "State": "Perak"
    },
    {
        "Postcode": "33800",
        "Location": "Lempor",
        "Post_Office": "Manong",
        "State": "Perak"
    },
    {
        "Postcode": "33800",
        "Location": "Mandah",
        "Post_Office": "Manong",
        "State": "Perak"
    },
    {
        "Postcode": "33800",
        "Location": "Manong",
        "Post_Office": "Manong",
        "State": "Perak"
    },
    {
        "Postcode": "33800",
        "Location": "Padang Kerbau",
        "Post_Office": "Manong",
        "State": "Perak"
    },
    {
        "Postcode": "33800",
        "Location": "Seberang Manong",
        "Post_Office": "Manong",
        "State": "Perak"
    },
    {
        "Postcode": "33800",
        "Location": "Semat",
        "Post_Office": "Manong",
        "State": "Perak"
    },
    {
        "Postcode": "33800",
        "Location": "Suak Petai",
        "Post_Office": "Manong",
        "State": "Perak"
    },
    {
        "Postcode": "33800",
        "Location": "Suak Semak",
        "Post_Office": "Manong",
        "State": "Perak"
    },
    {
        "Postcode": "33800",
        "Location": "Ulu Kenas",
        "Post_Office": "Manong",
        "State": "Perak"
    },
    {
        "Postcode": "33800",
        "Location": "Ulu Papan",
        "Post_Office": "Manong",
        "State": "Perak"
    },
    {
        "Postcode": "33800",
        "Location": "Ulu Piol",
        "Post_Office": "Manong",
        "State": "Perak"
    }
]
