[
    {
        "Postcode": "40000",
        "Location": "Jalan Platinum 7/50",
        "Post_Office": "Shah Alam",
        "State": "Selangor"
    },
    {
        "Postcode": "40000",
        "Location": "Jalan Platinum 7/51",
        "Post_Office": "Shah Alam",
        "State": "Selangor"
    },
    {
        "Postcode": "40000",
        "Location": "Jalan Platinum 7/52",
        "Post_Office": "Shah Alam",
        "State": "Selangor"
    },
    {
        "Postcode": "40000",
        "Location": "Jalan Platinum 7/53",
        "Post_Office": "Shah Alam",
        "State": "Selangor"
    },
    {
        "Postcode": "40000",
        "Location": "Jalan Platinum 7/54",
        "Post_Office": "Shah Alam",
        "State": "Selangor"
    },
    {
        "Postcode": "40000",
        "Location": "Jalan Platinum 7/55",
        "Post_Office": "Shah Alam",
        "State": "Selangor"
    },
    {
        "Postcode": "40000",
        "Location": "Jalan Platinum 7/56",
        "Post_Office": "Shah Alam",
        "State": "Selangor"
    },
    {
        "Postcode": "40000",
        "Location": "Jalan Platinum 7/56A",
        "Post_Office": "Shah Alam",
        "State": "Selangor"
    },
    {
        "Postcode": "40000",
        "Location": "Jalan Platinum 7/57",
        "Post_Office": "Shah Alam",
        "State": "Selangor"
    },
    {
        "Postcode": "40000",
        "Location": "Jalan Platinum 7/57A",
        "Post_Office": "Shah Alam",
        "State": "Selangor"
    },
    {
        "Postcode": "40000",
        "Location": "Jalan Platinum 7/58",
        "Post_Office": "Shah Alam",
        "State": "Selangor"
    },
    {
        "Postcode": "40000",
        "Location": "Jalan Platinum 7/59",
        "Post_Office": "Shah Alam",
        "State": "Selangor"
    },
    {
        "Postcode": "40000",
        "Location": "Jalan Platinum 7/60",
        "Post_Office": "Shah Alam",
        "State": "Selangor"
    },
    {
        "Postcode": "40000",
        "Location": "Jalan Platinum 7/60A",
        "Post_Office": "Shah Alam",
        "State": "Selangor"
    },
    {
        "Postcode": "40000",
        "Location": "Jalan Plumbum 7/100",
        "Post_Office": "Shah Alam",
        "State": "Selangor"
    },
    {
        "Postcode": "40000",
        "Location": "Jalan Plumbum 7/101",
        "Post_Office": "Shah Alam",
        "State": "Selangor"
    },
    {
        "Postcode": "40000",
        "Location": "Jalan Plumbum 7/101A",
        "Post_Office": "Shah Alam",
        "State": "Selangor"
    },
    {
        "Postcode": "40000",
        "Location": "Jalan Plumbum 7/101B",
        "Post_Office": "Shah Alam",
        "State": "Selangor"
    },
    {
        "Postcode": "40000",
        "Location": "Jalan Plumbum 7/101C",
        "Post_Office": "Shah Alam",
        "State": "Selangor"
    },
    {
        "Postcode": "40000",
        "Location": "Jalan Plumbum 7/101D",
        "Post_Office": "Shah Alam",
        "State": "Selangor"
    },
    {
        "Postcode": "40000",
        "Location": "Jalan Plumbum 7/101E",
        "Post_Office": "Shah Alam",
        "State": "Selangor"
    },
    {
        "Postcode": "40000",
        "Location": "Jalan Plumbum 7/102",
        "Post_Office": "Shah Alam",
        "State": "Selangor"
    },
    {
        "Postcode": "40000",
        "Location": "Jalan Plumbum 7/103",
        "Post_Office": "Shah Alam",
        "State": "Selangor"
    },
    {
        "Postcode": "40000",
        "Location": "Jalan Plumbum 7/95",
        "Post_Office": "Shah Alam",
        "State": "Selangor"
    },
    {
        "Postcode": "40000",
        "Location": "Jalan Plumbum 7/96",
        "Post_Office": "Shah Alam",
        "State": "Selangor"
    },
    {
        "Postcode": "40000",
        "Location": "Jalan Plumbum 7/97",
        "Post_Office": "Shah Alam",
        "State": "Selangor"
    },
    {
        "Postcode": "40000",
        "Location": "Jalan Plumbum 7/98",
        "Post_Office": "Shah Alam",
        "State": "Selangor"
    },
    {
        "Postcode": "40000",
        "Location": "Jalan Plumbum 7/99",
        "Post_Office": "Shah Alam",
        "State": "Selangor"
    },
    {
        "Postcode": "40000",
        "Location": "Jalan Silikon 7/20",
        "Post_Office": "Shah Alam",
        "State": "Selangor"
    },
    {
        "Postcode": "40000",
        "Location": "Jalan Silikon 7/20A",
        "Post_Office": "Shah Alam",
        "State": "Selangor"
    },
    {
        "Postcode": "40000",
        "Location": "Seksyen 4",
        "Post_Office": "Shah Alam",
        "State": "Selangor"
    },
    {
        "Postcode": "40000",
        "Location": "Jalan Firus 7/7",
        "Post_Office": "Shah Alam",
        "State": "Selangor"
    },
    {
        "Postcode": "40000",
        "Location": "Jalan Firus Empat 7/7D",
        "Post_Office": "Shah Alam",
        "State": "Selangor"
    },
    {
        "Postcode": "40000",
        "Location": "Jalan Jejala Satu 8/11B",
        "Post_Office": "Shah Alam",
        "State": "Selangor"
    },
    {
        "Postcode": "40000",
        "Location": "Jalan Manikam Tiga 7/2C",
        "Post_Office": "Shah Alam",
        "State": "Selangor"
    },
    {
        "Postcode": "40000",
        "Location": "Jalan Oniks Dua 7/11B",
        "Post_Office": "Shah Alam",
        "State": "Selangor"
    },
    {
        "Postcode": "40000",
        "Location": "Jalan Oniks Satu 7/11A",
        "Post_Office": "Shah Alam",
        "State": "Selangor"
    },
    {
        "Postcode": "40000",
        "Location": "Jalan Oniks Tiga 7/11C",
        "Post_Office": "Shah Alam",
        "State": "Selangor"
    },
    {
        "Postcode": "40000",
        "Location": "Jalan Paladium Tiga 7/33C",
        "Post_Office": "Shah Alam",
        "State": "Selangor"
    },
    {
        "Postcode": "40000",
        "Location": "Jalan Platinum 7/41B",
        "Post_Office": "Shah Alam",
        "State": "Selangor"
    },
    {
        "Postcode": "40000",
        "Location": "Jalan Platinum 7/49A",
        "Post_Office": "Shah Alam",
        "State": "Selangor"
    },
    {
        "Postcode": "40000",
        "Location": "Jalan Platinum G 7/G",
        "Post_Office": "Shah Alam",
        "State": "Selangor"
    },
    {
        "Postcode": "40000",
        "Location": "Jalan Plumbum 7/100A",
        "Post_Office": "Shah Alam",
        "State": "Selangor"
    },
    {
        "Postcode": "40000",
        "Location": "Jalan Plumbum Aa 7/Aa",
        "Post_Office": "Shah Alam",
        "State": "Selangor"
    },
    {
        "Postcode": "40000",
        "Location": "Jalan Plumbum Ab 7/Ab",
        "Post_Office": "Shah Alam",
        "State": "Selangor"
    },
    {
        "Postcode": "40000",
        "Location": "Jalan Plumbum Ac 7/Ac",
        "Post_Office": "Shah Alam",
        "State": "Selangor"
    },
    {
        "Postcode": "40000",
        "Location": "Jalan Plumbum N 7/N",
        "Post_Office": "Shah Alam",
        "State": "Selangor"
    },
    {
        "Postcode": "40000",
        "Location": "Jalan Plumbum P 7/P",
        "Post_Office": "Shah Alam",
        "State": "Selangor"
    },
    {
        "Postcode": "40000",
        "Location": "Jalan Plumbum Q /7Q",
        "Post_Office": "Shah Alam",
        "State": "Selangor"
    },
    {
        "Postcode": "40000",
        "Location": "Jalan Plumbum R /7R",
        "Post_Office": "Shah Alam",
        "State": "Selangor"
    },
    {
        "Postcode": "40000",
        "Location": "Jalan Plumbum S /7S",
        "Post_Office": "Shah Alam",
        "State": "Selangor"
    },
    {
        "Postcode": "40000",
        "Location": "Jalan Plumbum T /7T",
        "Post_Office": "Shah Alam",
        "State": "Selangor"
    },
    {
        "Postcode": "40000",
        "Location": "Jalan Plumbum U /7U",
        "Post_Office": "Shah Alam",
        "State": "Selangor"
    },
    {
        "Postcode": "40000",
        "Location": "Jalan Plumbum V /7V",
        "Post_Office": "Shah Alam",
        "State": "Selangor"
    },
    {
        "Postcode": "40000",
        "Location": "Jalan Plumbum W /7W",
        "Post_Office": "Shah Alam",
        "State": "Selangor"
    },
    {
        "Postcode": "40000",
        "Location": "Jalan Plumbum X /7X",
        "Post_Office": "Shah Alam",
        "State": "Selangor"
    },
    {
        "Postcode": "40000",
        "Location": "Jalan Plumbum Y /7Y",
        "Post_Office": "Shah Alam",
        "State": "Selangor"
    },
    {
        "Postcode": "40000",
        "Location": "Jalan Plumbum Z /7Z",
        "Post_Office": "Shah Alam",
        "State": "Selangor"
    },
    {
        "Postcode": "40000",
        "Location": "Jalan Timah Satu 7/25A",
        "Post_Office": "Shah Alam",
        "State": "Selangor"
    },
    {
        "Postcode": "40000",
        "Location": "Jalan Zirkon G 7/G",
        "Post_Office": "Shah Alam",
        "State": "Selangor"
    },
    {
        "Postcode": "40000",
        "Location": "Menara Sinergi",
        "Post_Office": "Shah Alam",
        "State": "Selangor"
    },
    {
        "Postcode": "40000",
        "Location": "Bukit Cahaya Seri Alam\r\n",
        "Post_Office": "Shah Alam",
        "State": "Selangor"
    },
    {
        "Postcode": "40000",
        "Location": "Pusat Perniagaan Bukit Raja\r\n",
        "Post_Office": "Shah Alam",
        "State": "Selangor"
    },
    {
        "Postcode": "40000",
        "Location": "Jalan Aluminium 7/27A ",
        "Post_Office": "Shah Alam",
        "State": "Selangor"
    },
    {
        "Postcode": "40000",
        "Location": "Jalan Aluminium 7/27B",
        "Post_Office": "Shah Alam",
        "State": "Selangor"
    },
    {
        "Postcode": "40000",
        "Location": "Jalan Ambar 7/16A",
        "Post_Office": "Shah Alam",
        "State": "Selangor"
    },
    {
        "Postcode": "40000",
        "Location": "Jalan Ambar 7/16B",
        "Post_Office": "Shah Alam",
        "State": "Selangor"
    },
    {
        "Postcode": "40000",
        "Location": "Jalan Ambar 7/16C",
        "Post_Office": "Shah Alam",
        "State": "Selangor"
    },
    {
        "Postcode": "40000",
        "Location": "Jalan Platinum 7/36",
        "Post_Office": "Shah Alam",
        "State": "Selangor"
    },
    {
        "Postcode": "40000",
        "Location": "Jalan Platinum 7/37",
        "Post_Office": "Shah Alam",
        "State": "Selangor"
    },
    {
        "Postcode": "40000",
        "Location": "Jalan Platinum 7/37A",
        "Post_Office": "Shah Alam",
        "State": "Selangor"
    },
    {
        "Postcode": "40000",
        "Location": "Jalan Platinum 7/37B",
        "Post_Office": "Shah Alam",
        "State": "Selangor"
    },
    {
        "Postcode": "40000",
        "Location": "Jalan Platinum 7/38",
        "Post_Office": "Shah Alam",
        "State": "Selangor"
    },
    {
        "Postcode": "40000",
        "Location": "Jalan Platinum 7/39",
        "Post_Office": "Shah Alam",
        "State": "Selangor"
    },
    {
        "Postcode": "40000",
        "Location": "Jalan Platinum 7/39A",
        "Post_Office": "Shah Alam",
        "State": "Selangor"
    },
    {
        "Postcode": "40000",
        "Location": "Jalan Platinum 7/40",
        "Post_Office": "Shah Alam",
        "State": "Selangor"
    },
    {
        "Postcode": "40000",
        "Location": "Jalan Platinum 7/40A",
        "Post_Office": "Shah Alam",
        "State": "Selangor"
    },
    {
        "Postcode": "40000",
        "Location": "Jalan Platinum 7/41A",
        "Post_Office": "Shah Alam",
        "State": "Selangor"
    },
    {
        "Postcode": "40000",
        "Location": "Jalan Platinum 7/42",
        "Post_Office": "Shah Alam",
        "State": "Selangor"
    },
    {
        "Postcode": "40000",
        "Location": "Jalan Platinum 7/43",
        "Post_Office": "Shah Alam",
        "State": "Selangor"
    },
    {
        "Postcode": "40000",
        "Location": "Jalan Platinum 7/43A",
        "Post_Office": "Shah Alam",
        "State": "Selangor"
    },
    {
        "Postcode": "40000",
        "Location": "Jalan Platinum 7/43B",
        "Post_Office": "Shah Alam",
        "State": "Selangor"
    },
    {
        "Postcode": "40000",
        "Location": "Jalan Platinum 7/43C",
        "Post_Office": "Shah Alam",
        "State": "Selangor"
    },
    {
        "Postcode": "40000",
        "Location": "Jalan Platinum 7/43D",
        "Post_Office": "Shah Alam",
        "State": "Selangor"
    },
    {
        "Postcode": "40000",
        "Location": "Jalan Platinum 7/43E",
        "Post_Office": "Shah Alam",
        "State": "Selangor"
    },
    {
        "Postcode": "40000",
        "Location": "Jalan Platinum 7/44",
        "Post_Office": "Shah Alam",
        "State": "Selangor"
    },
    {
        "Postcode": "40000",
        "Location": "Jalan Platinum 7/44A",
        "Post_Office": "Shah Alam",
        "State": "Selangor"
    },
    {
        "Postcode": "40000",
        "Location": "Jalan Platinum 7/45A",
        "Post_Office": "Shah Alam",
        "State": "Selangor"
    },
    {
        "Postcode": "40000",
        "Location": "Jalan Platinum 7/45B",
        "Post_Office": "Shah Alam",
        "State": "Selangor"
    },
    {
        "Postcode": "40000",
        "Location": "Jalan Platinum 7/46",
        "Post_Office": "Shah Alam",
        "State": "Selangor"
    },
    {
        "Postcode": "40000",
        "Location": "Jalan Platinum 7/47",
        "Post_Office": "Shah Alam",
        "State": "Selangor"
    },
    {
        "Postcode": "40000",
        "Location": "Jalan Platinum 7/48",
        "Post_Office": "Shah Alam",
        "State": "Selangor"
    },
    {
        "Postcode": "40000",
        "Location": "Jalan Platinum 7/49",
        "Post_Office": "Shah Alam",
        "State": "Selangor"
    },
    {
        "Postcode": "40000",
        "Location": "Seksyen 2",
        "Post_Office": "Shah Alam",
        "State": "Selangor"
    },
    {
        "Postcode": "40000",
        "Location": "Seksyen 3",
        "Post_Office": "Shah Alam",
        "State": "Selangor"
    },
    {
        "Postcode": "40000",
        "Location": "Seksyen 5",
        "Post_Office": "Shah Alam",
        "State": "Selangor"
    },
    {
        "Postcode": "40000",
        "Location": "Seksyen 6",
        "Post_Office": "Shah Alam",
        "State": "Selangor"
    },
    {
        "Postcode": "40000",
        "Location": "Seksyen 7",
        "Post_Office": "Shah Alam",
        "State": "Selangor"
    },
    {
        "Postcode": "40000",
        "Location": "Seksyen 8",
        "Post_Office": "Shah Alam",
        "State": "Selangor"
    },
    {
        "Postcode": "40000",
        "Location": "Seksyen 14",
        "Post_Office": "Shah Alam",
        "State": "Selangor"
    },
    {
        "Postcode": "40000",
        "Location": "Pusat Perdagangan Azalea",
        "Post_Office": "Shah Alam",
        "State": "Selangor"
    },
    {
        "Postcode": "40000",
        "Location": "Persiaran Multimedia",
        "Post_Office": "Shah Alam",
        "State": "Selangor"
    },
    {
        "Postcode": "40000",
        "Location": "I-City",
        "Post_Office": "Shah Alam",
        "State": "Selangor"
    },
    {
        "Postcode": "40000",
        "Location": "Persiaran Dato' Menteri",
        "Post_Office": "Shah Alam ",
        "State": "Selangor"
    },
    {
        "Postcode": "40000",
        "Location": "Bukit Raja Selatan",
        "Post_Office": "Shah Alam",
        "State": "Selangor"
    },
    {
        "Postcode": "40000",
        "Location": "Jalan Akik 7/3",
        "Post_Office": "Shah Alam",
        "State": "Selangor"
    },
    {
        "Postcode": "40000",
        "Location": "Jalan Akik Satu 7/3A",
        "Post_Office": "Shah Alam",
        "State": "Selangor"
    },
    {
        "Postcode": "40000",
        "Location": "Jalan Akuamarin 7/21",
        "Post_Office": "Shah Alam",
        "State": "Selangor"
    },
    {
        "Postcode": "40000",
        "Location": "Jalan Akuamarin Satu 7/21A",
        "Post_Office": "Shah Alam",
        "State": "Selangor"
    },
    {
        "Postcode": "40000",
        "Location": "Jalan Aliran 8/23",
        "Post_Office": "Shah Alam",
        "State": "Selangor"
    },
    {
        "Postcode": "40000",
        "Location": "Jalan Aliran Satu 8/23A",
        "Post_Office": "Shah Alam",
        "State": "Selangor"
    },
    {
        "Postcode": "40000",
        "Location": "Jalan Aliran Tiga 8/23C",
        "Post_Office": "Shah Alam",
        "State": "Selangor"
    },
    {
        "Postcode": "40000",
        "Location": "Jalan Aluminium 7/27",
        "Post_Office": "Shah Alam",
        "State": "Selangor"
    },
    {
        "Postcode": "40000",
        "Location": "Jalan Alur 8/27",
        "Post_Office": "Shah Alam",
        "State": "Selangor"
    },
    {
        "Postcode": "40000",
        "Location": "Jalan Ambar 7/16",
        "Post_Office": "Shah Alam",
        "State": "Selangor"
    },
    {
        "Postcode": "40000",
        "Location": "Jalan Angsa 6/5A",
        "Post_Office": "Shah Alam",
        "State": "Selangor"
    },
    {
        "Postcode": "40000",
        "Location": "Jalan Ayam - Ayam 6/2E",
        "Post_Office": "Shah Alam",
        "State": "Selangor"
    },
    {
        "Postcode": "40000",
        "Location": "Jalan Bacang 4/2C",
        "Post_Office": "Shah Alam",
        "State": "Selangor"
    },
    {
        "Postcode": "40000",
        "Location": "Jalan Baiduri 7/1B",
        "Post_Office": "Shah Alam",
        "State": "Selangor"
    },
    {
        "Postcode": "40000",
        "Location": "Jalan Baiduri Bulan 7/28",
        "Post_Office": "Shah Alam",
        "State": "Selangor"
    },
    {
        "Postcode": "40000",
        "Location": "Jalan Balam 6/1B",
        "Post_Office": "Shah Alam",
        "State": "Selangor"
    },
    {
        "Postcode": "40000",
        "Location": "Jalan Balau 3/8",
        "Post_Office": "Shah Alam",
        "State": "Selangor"
    },
    {
        "Postcode": "40000",
        "Location": "Jalan Bangau 6/5B",
        "Post_Office": "Shah Alam",
        "State": "Selangor"
    },
    {
        "Postcode": "40000",
        "Location": "Jalan Bangkung 4/2",
        "Post_Office": "Shah Alam",
        "State": "Selangor"
    },
    {
        "Postcode": "40000",
        "Location": "Jalan Belatuk 6/4B",
        "Post_Office": "Shah Alam",
        "State": "Selangor"
    },
    {
        "Postcode": "40000",
        "Location": "Jalan Belibis 6/5",
        "Post_Office": "Shah Alam",
        "State": "Selangor"
    },
    {
        "Postcode": "40000",
        "Location": "Jalan Belimbing 4/7B",
        "Post_Office": "Shah Alam",
        "State": "Selangor"
    },
    {
        "Postcode": "40000",
        "Location": "Jalan Beril 7/18",
        "Post_Office": "Shah Alam",
        "State": "Selangor"
    },
    {
        "Postcode": "40000",
        "Location": "Jalan Beringin 3/13",
        "Post_Office": "Shah Alam",
        "State": "Selangor"
    },
    {
        "Postcode": "40000",
        "Location": "Jalan Berkik 6/2D",
        "Post_Office": "Shah Alam",
        "State": "Selangor"
    },
    {
        "Postcode": "40000",
        "Location": "Jalan Berlian 7/1A",
        "Post_Office": "Shah Alam",
        "State": "Selangor"
    },
    {
        "Postcode": "40000",
        "Location": "Jalan Beting 8/13",
        "Post_Office": "Shah Alam",
        "State": "Selangor"
    },
    {
        "Postcode": "40000",
        "Location": "Jalan Beting Dua 8/13B",
        "Post_Office": "Shah Alam",
        "State": "Selangor"
    },
    {
        "Postcode": "40000",
        "Location": "Jalan Beting Satu 8/13A",
        "Post_Office": "Shah Alam",
        "State": "Selangor"
    },
    {
        "Postcode": "40000",
        "Location": "Jalan Bidara 4/7F",
        "Post_Office": "Shah Alam",
        "State": "Selangor"
    },
    {
        "Postcode": "40000",
        "Location": "Jalan Bukit 8/1K",
        "Post_Office": "Shah Alam",
        "State": "Selangor"
    },
    {
        "Postcode": "40000",
        "Location": "Jalan Bunga Anggerik 2/4",
        "Post_Office": "Shah Alam",
        "State": "Selangor"
    },
    {
        "Postcode": "40000",
        "Location": "Jalan Bunga Cempaka 2/11",
        "Post_Office": "Shah Alam",
        "State": "Selangor"
    },
    {
        "Postcode": "40000",
        "Location": "Jalan Bunga Kantan 2/13",
        "Post_Office": "Shah Alam",
        "State": "Selangor"
    },
    {
        "Postcode": "40000",
        "Location": "Jalan Bunga Kekwa 2/12",
        "Post_Office": "Shah Alam",
        "State": "Selangor"
    },
    {
        "Postcode": "40000",
        "Location": "Jalan Bunga Kemboja 2/7",
        "Post_Office": "Shah Alam",
        "State": "Selangor"
    },
    {
        "Postcode": "40000",
        "Location": "Jalan Bunga Kemunting 2/10",
        "Post_Office": "Shah Alam",
        "State": "Selangor"
    },
    {
        "Postcode": "40000",
        "Location": "Jalan Bunga Kenanga 2/1",
        "Post_Office": "Shah Alam",
        "State": "Selangor"
    },
    {
        "Postcode": "40000",
        "Location": "Jalan Bunga Kertas 2/15",
        "Post_Office": "Shah Alam",
        "State": "Selangor"
    },
    {
        "Postcode": "40000",
        "Location": "Jalan Bunga Matahari 2/3",
        "Post_Office": "Shah Alam",
        "State": "Selangor"
    },
    {
        "Postcode": "40000",
        "Location": "Jalan Bunga Mawar 2/5",
        "Post_Office": "Shah Alam",
        "State": "Selangor"
    },
    {
        "Postcode": "40000",
        "Location": "Jalan Bunga Melati 2/2",
        "Post_Office": "Shah Alam",
        "State": "Selangor"
    },
    {
        "Postcode": "40000",
        "Location": "Jalan Bunga Melur 2/18",
        "Post_Office": "Shah Alam",
        "State": "Selangor"
    },
    {
        "Postcode": "40000",
        "Location": "Jalan Bunga Nagasari 2/9",
        "Post_Office": "Shah Alam",
        "State": "Selangor"
    },
    {
        "Postcode": "40000",
        "Location": "Jalan Bunga Raya 2/8",
        "Post_Office": "Shah Alam",
        "State": "Selangor"
    },
    {
        "Postcode": "40000",
        "Location": "Jalan Bunga Ros 2/17",
        "Post_Office": "Shah Alam",
        "State": "Selangor"
    },
    {
        "Postcode": "40000",
        "Location": "Jalan Bunga Seroja 2/6",
        "Post_Office": "Shah Alam",
        "State": "Selangor"
    },
    {
        "Postcode": "40000",
        "Location": "Jalan Bunga Tanjung 2/16",
        "Post_Office": "Shah Alam",
        "State": "Selangor"
    },
    {
        "Postcode": "40000",
        "Location": "Jalan Bunga Teratai 2/14",
        "Post_Office": "Shah Alam",
        "State": "Selangor"
    },
    {
        "Postcode": "40000",
        "Location": "Jalan Camar 6/2C",
        "Post_Office": "Shah Alam",
        "State": "Selangor"
    },
    {
        "Postcode": "40000",
        "Location": "Jalan Cecawi 6/5C",
        "Post_Office": "Shah Alam",
        "State": "Selangor"
    },
    {
        "Postcode": "40000",
        "Location": "Jalan Cempedak 4/5",
        "Post_Office": "Shah Alam",
        "State": "Selangor"
    },
    {
        "Postcode": "40000",
        "Location": "Jalan Cendana 3/13B",
        "Post_Office": "Shah Alam",
        "State": "Selangor"
    },
    {
        "Postcode": "40000",
        "Location": "Jalan Cenderawasih 6/7",
        "Post_Office": "Shah Alam",
        "State": "Selangor"
    },
    {
        "Postcode": "40000",
        "Location": "Jalan Cengal 3/14",
        "Post_Office": "Shah Alam",
        "State": "Selangor"
    },
    {
        "Postcode": "40000",
        "Location": "Jalan Cermai 4/7C",
        "Post_Office": "Shah Alam",
        "State": "Selangor"
    },
    {
        "Postcode": "40000",
        "Location": "Jalan Cerun 8/1C",
        "Post_Office": "Shah Alam",
        "State": "Selangor"
    },
    {
        "Postcode": "40000",
        "Location": "Jalan Damar Minyak 3/1",
        "Post_Office": "Shah Alam",
        "State": "Selangor"
    },
    {
        "Postcode": "40000",
        "Location": "Jalan Dataran 8/1G",
        "Post_Office": "Shah Alam",
        "State": "Selangor"
    },
    {
        "Postcode": "40000",
        "Location": "Jalan Delima 7/1D",
        "Post_Office": "Shah Alam",
        "State": "Selangor"
    },
    {
        "Postcode": "40000",
        "Location": "Jalan Delta 8/17",
        "Post_Office": "Shah Alam",
        "State": "Selangor"
    },
    {
        "Postcode": "40000",
        "Location": "Jalan Dingin 8/28",
        "Post_Office": "Shah Alam",
        "State": "Selangor"
    },
    {
        "Postcode": "40000",
        "Location": "Jalan Duku  4/1A",
        "Post_Office": "Shah Alam",
        "State": "Selangor"
    },
    {
        "Postcode": "40000",
        "Location": "Jalan Durian 4/1",
        "Post_Office": "Shah Alam",
        "State": "Selangor"
    },
    {
        "Postcode": "40000",
        "Location": "Jalan Emas 7/1E",
        "Post_Office": "Shah Alam",
        "State": "Selangor"
    },
    {
        "Postcode": "40000",
        "Location": "Jalan Empangan 8/14",
        "Post_Office": "Shah Alam",
        "State": "Selangor"
    },
    {
        "Postcode": "40000",
        "Location": "Jalan Empangan Dua 8/14B",
        "Post_Office": "Shah Alam",
        "State": "Selangor"
    },
    {
        "Postcode": "40000",
        "Location": "Jalan Empangan Empat 8/14D",
        "Post_Office": "Shah Alam",
        "State": "Selangor"
    },
    {
        "Postcode": "40000",
        "Location": "Jalan Empangan Satu 8/14A",
        "Post_Office": "Shah Alam",
        "State": "Selangor"
    },
    {
        "Postcode": "40000",
        "Location": "Jalan Empangan Tiga 8/14C",
        "Post_Office": "Shah Alam",
        "State": "Selangor"
    },
    {
        "Postcode": "40000",
        "Location": "Jalan Enggang 6/4E",
        "Post_Office": "Shah Alam",
        "State": "Selangor"
    },
    {
        "Postcode": "40000",
        "Location": "Jalan Ferum 7/31",
        "Post_Office": "Shah Alam",
        "State": "Selangor"
    },
    {
        "Postcode": "40000",
        "Location": "Jalan Ferum Dua 7/31B",
        "Post_Office": "Shah Alam",
        "State": "Selangor"
    },
    {
        "Postcode": "40000",
        "Location": "Jalan Ferum Empat 7/31D",
        "Post_Office": "Shah Alam",
        "State": "Selangor"
    },
    {
        "Postcode": "40000",
        "Location": "Jalan Ferum Lima 7/31E",
        "Post_Office": "Shah Alam",
        "State": "Selangor"
    },
    {
        "Postcode": "40000",
        "Location": "Jalan Ferum Satu 7/31A",
        "Post_Office": "Shah Alam",
        "State": "Selangor"
    },
    {
        "Postcode": "40000",
        "Location": "Jalan Ferum Tiga 7/31C",
        "Post_Office": "Shah Alam",
        "State": "Selangor"
    },
    {
        "Postcode": "40000",
        "Location": "Jalan Firus Dua 7/7B",
        "Post_Office": "Shah Alam",
        "State": "Selangor"
    },
    {
        "Postcode": "40000",
        "Location": "Jalan Firus Satu 7/7A",
        "Post_Office": "Shah Alam",
        "State": "Selangor"
    },
    {
        "Postcode": "40000",
        "Location": "Jalan Firus Tiga 7/7C",
        "Post_Office": "Shah Alam",
        "State": "Selangor"
    },
    {
        "Postcode": "40000",
        "Location": "Jalan Gagak 6/4G",
        "Post_Office": "Shah Alam",
        "State": "Selangor"
    },
    {
        "Postcode": "40000",
        "Location": "Jalan Galena 7/24",
        "Post_Office": "Shah Alam",
        "State": "Selangor"
    },
    {
        "Postcode": "40000",
        "Location": "Jalan Galena Satu 7/24A",
        "Post_Office": "Shah Alam",
        "State": "Selangor"
    },
    {
        "Postcode": "40000",
        "Location": "Jalan Gangsa 7/1N",
        "Post_Office": "Shah Alam",
        "State": "Selangor"
    },
    {
        "Postcode": "40000",
        "Location": "Jalan Garner 7/19",
        "Post_Office": "Shah Alam",
        "State": "Selangor"
    },
    {
        "Postcode": "40000",
        "Location": "Jalan Garner Satu 7/19A",
        "Post_Office": "Shah Alam",
        "State": "Selangor"
    },
    {
        "Postcode": "40000",
        "Location": "Jalan Gelugur 4/7G",
        "Post_Office": "Shah Alam",
        "State": "Selangor"
    },
    {
        "Postcode": "40000",
        "Location": "Jalan Hablur 7/6",
        "Post_Office": "Shah Alam",
        "State": "Selangor"
    },
    {
        "Postcode": "40000",
        "Location": "Jalan Hablur Satu 7/6A",
        "Post_Office": "Shah Alam",
        "State": "Selangor"
    },
    {
        "Postcode": "40000",
        "Location": "Jalan Hakisan 8/7",
        "Post_Office": "Shah Alam",
        "State": "Selangor"
    },
    {
        "Postcode": "40000",
        "Location": "Jalan Helang 6/4",
        "Post_Office": "Shah Alam",
        "State": "Selangor"
    },
    {
        "Postcode": "40000",
        "Location": "Jalan I-City 7/1",
        "Post_Office": "Shah Alam",
        "State": "Selangor"
    },
    {
        "Postcode": "40000",
        "Location": "Jalan Ikhtisas",
        "Post_Office": "Shah Alam",
        "State": "Selangor"
    },
    {
        "Postcode": "40000",
        "Location": "Jalan Ikhtisas 1",
        "Post_Office": "Shah Alam",
        "State": "Selangor"
    },
    {
        "Postcode": "40000",
        "Location": "Jalan Indah",
        "Post_Office": "Shah Alam",
        "State": "Selangor"
    },
    {
        "Postcode": "40000",
        "Location": "Jalan Institusi",
        "Post_Office": "Shah Alam",
        "State": "Selangor"
    },
    {
        "Postcode": "40000",
        "Location": "Jalan Iridium 7/35",
        "Post_Office": "Shah Alam",
        "State": "Selangor"
    },
    {
        "Postcode": "40000",
        "Location": "Jalan Jaluran 8/3",
        "Post_Office": "Shah Alam",
        "State": "Selangor"
    },
    {
        "Postcode": "40000",
        "Location": "Jalan Jambu Air 4/3B",
        "Post_Office": "Shah Alam",
        "State": "Selangor"
    },
    {
        "Postcode": "40000",
        "Location": "Jalan Jambu Batu 4/3D",
        "Post_Office": "Shah Alam",
        "State": "Selangor"
    },
    {
        "Postcode": "40000",
        "Location": "Jalan Jambu Bertih 4/3F",
        "Post_Office": "Shah Alam",
        "State": "Selangor"
    },
    {
        "Postcode": "40000",
        "Location": "Jalan Jambu Bol 4/3E",
        "Post_Office": "Shah Alam",
        "State": "Selangor"
    },
    {
        "Postcode": "40000",
        "Location": "Jalan Jambu Merah 4/3A",
        "Post_Office": "Shah Alam",
        "State": "Selangor"
    },
    {
        "Postcode": "40000",
        "Location": "Jalan Jambu Susu 4/3C",
        "Post_Office": "Shah Alam",
        "State": "Selangor"
    },
    {
        "Postcode": "40000",
        "Location": "Jalan Jasper 7/15",
        "Post_Office": "Shah Alam",
        "State": "Selangor"
    },
    {
        "Postcode": "40000",
        "Location": "Jalan Jati 3/6",
        "Post_Office": "Shah Alam",
        "State": "Selangor"
    },
    {
        "Postcode": "40000",
        "Location": "Jalan Jed 7/5",
        "Post_Office": "Shah Alam",
        "State": "Selangor"
    },
    {
        "Postcode": "40000",
        "Location": "Jalan Jed Satu 7/5A",
        "Post_Office": "Shah Alam",
        "State": "Selangor"
    },
    {
        "Postcode": "40000",
        "Location": "Jalan Jejala 8/11",
        "Post_Office": "Shah Alam",
        "State": "Selangor"
    },
    {
        "Postcode": "40000",
        "Location": "Jalan Jelutung 3/16",
        "Post_Office": "Shah Alam",
        "State": "Selangor"
    },
    {
        "Postcode": "40000",
        "Location": "Jalan Jeram 8/22",
        "Post_Office": "Shah Alam",
        "State": "Selangor"
    },
    {
        "Postcode": "40000",
        "Location": "Jalan Jeram Dua 8/22B",
        "Post_Office": "Shah Alam",
        "State": "Selangor"
    },
    {
        "Postcode": "40000",
        "Location": "Jalan Jeram Satu 8/22A",
        "Post_Office": "Shah Alam",
        "State": "Selangor"
    },
    {
        "Postcode": "40000",
        "Location": "Jalan Jeram Tiga 8/22C",
        "Post_Office": "Shah Alam",
        "State": "Selangor"
    },
    {
        "Postcode": "40000",
        "Location": "Jalan Jurang 8/19",
        "Post_Office": "Shah Alam",
        "State": "Selangor"
    },
    {
        "Postcode": "40000",
        "Location": "Jalan Kapur 3/3",
        "Post_Office": "Shah Alam",
        "State": "Selangor"
    },
    {
        "Postcode": "40000",
        "Location": "Jalan Kasawari 6/8",
        "Post_Office": "Shah Alam",
        "State": "Selangor"
    },
    {
        "Postcode": "40000",
        "Location": "Jalan Kedidi 6/2A",
        "Post_Office": "Shah Alam",
        "State": "Selangor"
    },
    {
        "Postcode": "40000",
        "Location": "Jalan Kelawar 6/4H",
        "Post_Office": "Shah Alam",
        "State": "Selangor"
    },
    {
        "Postcode": "40000",
        "Location": "Jalan Kelicap 6/4D",
        "Post_Office": "Shah Alam",
        "State": "Selangor"
    },
    {
        "Postcode": "40000",
        "Location": "Jalan Kelubi  4/7A",
        "Post_Office": "Shah Alam",
        "State": "Selangor"
    },
    {
        "Postcode": "40000",
        "Location": "Jalan Kempas 3/2",
        "Post_Office": "Shah Alam",
        "State": "Selangor"
    },
    {
        "Postcode": "40000",
        "Location": "Jalan Kemuning 3/4",
        "Post_Office": "Shah Alam",
        "State": "Selangor"
    },
    {
        "Postcode": "40000",
        "Location": "Jalan Kenari 6/1K",
        "Post_Office": "Shah Alam",
        "State": "Selangor"
    },
    {
        "Postcode": "40000",
        "Location": "Jalan Kerayung 3/13C",
        "Post_Office": "Shah Alam",
        "State": "Selangor"
    },
    {
        "Postcode": "40000",
        "Location": "Jalan Keruing 3/5",
        "Post_Office": "Shah Alam",
        "State": "Selangor"
    },
    {
        "Postcode": "40000",
        "Location": "Jalan Ketiau 3/10",
        "Post_Office": "Shah Alam",
        "State": "Selangor"
    },
    {
        "Postcode": "40000",
        "Location": "Jalan Krisoberil 7/20",
        "Post_Office": "Shah Alam",
        "State": "Selangor"
    },
    {
        "Postcode": "40000",
        "Location": "Jalan Krisoberil Satu 7/20A",
        "Post_Office": "Shah Alam",
        "State": "Selangor"
    },
    {
        "Postcode": "40000",
        "Location": "Jalan Kromium 7/22",
        "Post_Office": "Shah Alam",
        "State": "Selangor"
    },
    {
        "Postcode": "40000",
        "Location": "Jalan Kuarza 7/9",
        "Post_Office": "Shah Alam",
        "State": "Selangor"
    },
    {
        "Postcode": "40000",
        "Location": "Jalan Kuarza Dua 7/9B",
        "Post_Office": "Shah Alam",
        "State": "Selangor"
    },
    {
        "Postcode": "40000",
        "Location": "Jalan Kuarza Satu 7/9A",
        "Post_Office": "Shah Alam",
        "State": "Selangor"
    },
    {
        "Postcode": "40000",
        "Location": "Jalan Kuini 4/2D",
        "Post_Office": "Shah Alam",
        "State": "Selangor"
    },
    {
        "Postcode": "40000",
        "Location": "Jalan Kundang 4/7D",
        "Post_Office": "Shah Alam",
        "State": "Selangor"
    },
    {
        "Postcode": "40000",
        "Location": "Jalan Lanar 8/15",
        "Post_Office": "Shah Alam",
        "State": "Selangor"
    },
    {
        "Postcode": "40000",
        "Location": "Jalan Landai 8/2C",
        "Post_Office": "Shah Alam",
        "State": "Selangor"
    },
    {
        "Postcode": "40000",
        "Location": "Jalan Langsat 4/1B",
        "Post_Office": "Shah Alam",
        "State": "Selangor"
    },
    {
        "Postcode": "40000",
        "Location": "Jalan Layang-Layang 6/4A",
        "Post_Office": "Shah Alam",
        "State": "Selangor"
    },
    {
        "Postcode": "40000",
        "Location": "Jalan Lazuardi 7/29",
        "Post_Office": "Shah Alam",
        "State": "Selangor"
    },
    {
        "Postcode": "40000",
        "Location": "Jalan Lazurit 7/17",
        "Post_Office": "Shah Alam",
        "State": "Selangor"
    },
    {
        "Postcode": "40000",
        "Location": "Jalan Lazurit Satu 7/17A",
        "Post_Office": "Shah Alam",
        "State": "Selangor"
    },
    {
        "Postcode": "40000",
        "Location": "Jalan Ledang 14/20",
        "Post_Office": "Shah Alam",
        "State": "Selangor"
    },
    {
        "Postcode": "40000",
        "Location": "Jalan Lembah 8/1A",
        "Post_Office": "Shah Alam",
        "State": "Selangor"
    },
    {
        "Postcode": "40000",
        "Location": "Jalan Lembangan 8/20",
        "Post_Office": "Shah Alam",
        "State": "Selangor"
    },
    {
        "Postcode": "40000",
        "Location": "Jalan Lereng 8/1E",
        "Post_Office": "Shah Alam",
        "State": "Selangor"
    },
    {
        "Postcode": "40000",
        "Location": "Jalan Liku 8/1",
        "Post_Office": "Shah Alam",
        "State": "Selangor"
    },
    {
        "Postcode": "40000",
        "Location": "Jalan Liku A 8/A",
        "Post_Office": "Shah Alam",
        "State": "Selangor"
    },
    {
        "Postcode": "40000",
        "Location": "Jalan Liku B 8/B",
        "Post_Office": "Shah Alam",
        "State": "Selangor"
    },
    {
        "Postcode": "40000",
        "Location": "Jalan Liku C 8/C",
        "Post_Office": "Shah Alam",
        "State": "Selangor"
    },
    {
        "Postcode": "40000",
        "Location": "Jalan Liku D 8/D",
        "Post_Office": "Shah Alam",
        "State": "Selangor"
    },
    {
        "Postcode": "40000",
        "Location": "Jalan Limau Bali 4/4E",
        "Post_Office": "Shah Alam",
        "State": "Selangor"
    },
    {
        "Postcode": "40000",
        "Location": "Jalan Limau Besar 4/4H",
        "Post_Office": "Shah Alam",
        "State": "Selangor"
    },
    {
        "Postcode": "40000",
        "Location": "Jalan Limau Kapas 4/4G",
        "Post_Office": "Shah Alam",
        "State": "Selangor"
    },
    {
        "Postcode": "40000",
        "Location": "Jalan Limau Kasturi 4/4A",
        "Post_Office": "Shah Alam",
        "State": "Selangor"
    },
    {
        "Postcode": "40000",
        "Location": "Jalan Limau Lelang 4/4J",
        "Post_Office": "Shah Alam",
        "State": "Selangor"
    },
    {
        "Postcode": "40000",
        "Location": "Jalan Limau Manis 4/4B",
        "Post_Office": "Shah Alam",
        "State": "Selangor"
    },
    {
        "Postcode": "40000",
        "Location": "Jalan Limau Nipis 4/4C",
        "Post_Office": "Shah Alam",
        "State": "Selangor"
    },
    {
        "Postcode": "40000",
        "Location": "Jalan Limau Pagar 4/4F",
        "Post_Office": "Shah Alam",
        "State": "Selangor"
    },
    {
        "Postcode": "40000",
        "Location": "Jalan Limau Purut 4/4D",
        "Post_Office": "Shah Alam",
        "State": "Selangor"
    },
    {
        "Postcode": "40000",
        "Location": "Jalan Luluhawa 8/24",
        "Post_Office": "Shah Alam",
        "State": "Selangor"
    },
    {
        "Postcode": "40000",
        "Location": "Jalan Lurah 8/2A",
        "Post_Office": "Shah Alam",
        "State": "Selangor"
    },
    {
        "Postcode": "40000",
        "Location": "Jalan Majlis",
        "Post_Office": "Shah Alam",
        "State": "Selangor"
    },
    {
        "Postcode": "40000",
        "Location": "Jalan Mangga 4/2A",
        "Post_Office": "Shah Alam",
        "State": "Selangor"
    },
    {
        "Postcode": "40000",
        "Location": "Jalan Manggis 4/7H",
        "Post_Office": "Shah Alam",
        "State": "Selangor"
    },
    {
        "Postcode": "40000",
        "Location": "Jalan Manikam 7/2",
        "Post_Office": "Shah Alam",
        "State": "Selangor"
    },
    {
        "Postcode": "40000",
        "Location": "Jalan Manikam Dua 7/2B",
        "Post_Office": "Shah Alam",
        "State": "Selangor"
    },
    {
        "Postcode": "40000",
        "Location": "Jalan Manikam Satu 7/2A",
        "Post_Office": "Shah Alam",
        "State": "Selangor"
    },
    {
        "Postcode": "40000",
        "Location": "Jalan Marmar 7/30",
        "Post_Office": "Shah Alam",
        "State": "Selangor"
    },
    {
        "Postcode": "40000",
        "Location": "Jalan Marmar Dua 7/30B",
        "Post_Office": "Shah Alam",
        "State": "Selangor"
    },
    {
        "Postcode": "40000",
        "Location": "Jalan Marmar Empat 7/30D",
        "Post_Office": "Shah Alam",
        "State": "Selangor"
    },
    {
        "Postcode": "40000",
        "Location": "Jalan Marmar Satu 7/30A",
        "Post_Office": "Shah Alam",
        "State": "Selangor"
    },
    {
        "Postcode": "40000",
        "Location": "Jalan Marmar Tiga 7/30C",
        "Post_Office": "Shah Alam",
        "State": "Selangor"
    },
    {
        "Postcode": "40000",
        "Location": "Jalan Mendak 8/5",
        "Post_Office": "Shah Alam",
        "State": "Selangor"
    },
    {
        "Postcode": "40000",
        "Location": "Jalan Mendapan 8/21",
        "Post_Office": "Shah Alam",
        "State": "Selangor"
    },
    {
        "Postcode": "40000",
        "Location": "Jalan Merak 6/3",
        "Post_Office": "Shah Alam",
        "State": "Selangor"
    },
    {
        "Postcode": "40000",
        "Location": "Jalan Meranti 3/7",
        "Post_Office": "Shah Alam",
        "State": "Selangor"
    },
    {
        "Postcode": "40000",
        "Location": "Jalan Merbah 6/1H",
        "Post_Office": "Shah Alam",
        "State": "Selangor"
    },
    {
        "Postcode": "40000",
        "Location": "Jalan Merbau 3/11",
        "Post_Office": "Shah Alam",
        "State": "Selangor"
    },
    {
        "Postcode": "40000",
        "Location": "Jalan Merbuk 6/1A",
        "Post_Office": "Shah Alam",
        "State": "Selangor"
    },
    {
        "Postcode": "40000",
        "Location": "Jalan Merpati 6/1J",
        "Post_Office": "Shah Alam",
        "State": "Selangor"
    },
    {
        "Postcode": "40000",
        "Location": "Jalan Monsun 8/6",
        "Post_Office": "Shah Alam",
        "State": "Selangor"
    },
    {
        "Postcode": "40000",
        "Location": "Jalan Muara 8/9",
        "Post_Office": "Shah Alam",
        "State": "Selangor"
    },
    {
        "Postcode": "40000",
        "Location": "Jalan Murai 6/1F",
        "Post_Office": "Shah Alam",
        "State": "Selangor"
    },
    {
        "Postcode": "40000",
        "Location": "Jalan Mutiara 7/1M",
        "Post_Office": "Shah Alam",
        "State": "Selangor"
    },
    {
        "Postcode": "40000",
        "Location": "Jalan Nanas 4/4",
        "Post_Office": "Shah Alam",
        "State": "Selangor"
    },
    {
        "Postcode": "40000",
        "Location": "Jalan Nangka 4/6",
        "Post_Office": "Shah Alam",
        "State": "Selangor"
    },
    {
        "Postcode": "40000",
        "Location": "Jalan Nikel 7/26",
        "Post_Office": "Shah Alam",
        "State": "Selangor"
    },
    {
        "Postcode": "40000",
        "Location": "Jalan Nikel Satu 7/26A",
        "Post_Office": "Shah Alam",
        "State": "Selangor"
    },
    {
        "Postcode": "40000",
        "Location": "Jalan Nilam 7/1C",
        "Post_Office": "Shah Alam",
        "State": "Selangor"
    },
    {
        "Postcode": "40000",
        "Location": "Jalan Nuri 6/1",
        "Post_Office": "Shah Alam",
        "State": "Selangor"
    },
    {
        "Postcode": "40000",
        "Location": "Jalan Oniks 7/11",
        "Post_Office": "Shah Alam",
        "State": "Selangor"
    },
    {
        "Postcode": "40000",
        "Location": "Jalan Paladium 7/33",
        "Post_Office": "Shah Alam",
        "State": "Selangor"
    },
    {
        "Postcode": "40000",
        "Location": "Jalan Paladium Dua 7/33B",
        "Post_Office": "Shah Alam",
        "State": "Selangor"
    },
    {
        "Postcode": "40000",
        "Location": "Jalan Paladium Satu 7/33A",
        "Post_Office": "Shah Alam",
        "State": "Selangor"
    },
    {
        "Postcode": "40000",
        "Location": "Jalan Pamah 8/1D",
        "Post_Office": "Shah Alam",
        "State": "Selangor"
    },
    {
        "Postcode": "40000",
        "Location": "Jalan Pauh 4/2B",
        "Post_Office": "Shah Alam",
        "State": "Selangor"
    },
    {
        "Postcode": "40000",
        "Location": "Jalan Pelaburan",
        "Post_Office": "Shah Alam",
        "State": "Selangor"
    },
    {
        "Postcode": "40000",
        "Location": "Jalan Pembangunan",
        "Post_Office": "Shah Alam",
        "State": "Selangor"
    },
    {
        "Postcode": "40000",
        "Location": "Jalan Pengurusan",
        "Post_Office": "Shah Alam",
        "State": "Selangor"
    },
    {
        "Postcode": "40000",
        "Location": "Jalan Perak 7/1F",
        "Post_Office": "Shah Alam",
        "State": "Selangor"
    },
    {
        "Postcode": "40000",
        "Location": "Jalan Perakaunan",
        "Post_Office": "Shah Alam",
        "State": "Selangor"
    },
    {
        "Postcode": "40000",
        "Location": "Jalan Perbadanan",
        "Post_Office": "Shah Alam",
        "State": "Selangor"
    },
    {
        "Postcode": "40000",
        "Location": "Jalan Perbadanan Dua",
        "Post_Office": "Shah Alam",
        "State": "Selangor"
    },
    {
        "Postcode": "40000",
        "Location": "Jalan Perbadanan Satu",
        "Post_Office": "Shah Alam",
        "State": "Selangor"
    },
    {
        "Postcode": "40000",
        "Location": "Jalan Perhimpunan",
        "Post_Office": "Shah Alam",
        "State": "Selangor"
    },
    {
        "Postcode": "40000",
        "Location": "Jalan Permai",
        "Post_Office": "Shah Alam",
        "State": "Selangor"
    },
    {
        "Postcode": "40000",
        "Location": "Jalan Permata 7/1",
        "Post_Office": "Shah Alam",
        "State": "Selangor"
    },
    {
        "Postcode": "40000",
        "Location": "Jalan Persiaran Sultan 5/1",
        "Post_Office": "Shah Alam",
        "State": "Selangor"
    },
    {
        "Postcode": "40000",
        "Location": "Jalan Persidangan",
        "Post_Office": "Shah Alam",
        "State": "Selangor"
    },
    {
        "Postcode": "40000",
        "Location": "Jalan Persidangan Dua",
        "Post_Office": "Shah Alam",
        "State": "Selangor"
    },
    {
        "Postcode": "40000",
        "Location": "Jalan Persidangan Satu",
        "Post_Office": "Shah Alam",
        "State": "Selangor"
    },
    {
        "Postcode": "40000",
        "Location": "Jalan Petalawati 6/2B",
        "Post_Office": "Shah Alam",
        "State": "Selangor"
    },
    {
        "Postcode": "40000",
        "Location": "Jalan Pualam 7/32",
        "Post_Office": "Shah Alam",
        "State": "Selangor"
    },
    {
        "Postcode": "40000",
        "Location": "Jalan Pualam Dua 7/32B",
        "Post_Office": "Shah Alam",
        "State": "Selangor"
    },
    {
        "Postcode": "40000",
        "Location": "Jalan Pualam Satu 7/32A",
        "Post_Office": "Shah Alam",
        "State": "Selangor"
    },
    {
        "Postcode": "40000",
        "Location": "Jalan Pualam Tiga 7/32C",
        "Post_Office": "Shah Alam",
        "State": "Selangor"
    },
    {
        "Postcode": "40000",
        "Location": "Jalan Pulai 3/4A",
        "Post_Office": "Shah Alam",
        "State": "Selangor"
    },
    {
        "Postcode": "40000",
        "Location": "Jalan Pulasan 4/6B",
        "Post_Office": "Shah Alam",
        "State": "Selangor"
    },
    {
        "Postcode": "40000",
        "Location": "Jalan Puncak Lapan 8/1H",
        "Post_Office": "Shah Alam",
        "State": "Selangor"
    },
    {
        "Postcode": "40000",
        "Location": "Jalan Pungguk 6/4F",
        "Post_Office": "Shah Alam",
        "State": "Selangor"
    },
    {
        "Postcode": "40000",
        "Location": "Jalan Pusat Daerah",
        "Post_Office": "Shah Alam",
        "State": "Selangor"
    },
    {
        "Postcode": "40000",
        "Location": "Jalan Puyuh 6/1D",
        "Post_Office": "Shah Alam",
        "State": "Selangor"
    },
    {
        "Postcode": "40000",
        "Location": "Jalan Rajawali 6/6",
        "Post_Office": "Shah Alam",
        "State": "Selangor"
    },
    {
        "Postcode": "40000",
        "Location": "Jalan Rambai 4/7E",
        "Post_Office": "Shah Alam",
        "State": "Selangor"
    },
    {
        "Postcode": "40000",
        "Location": "Jalan Rambutan 4/6A",
        "Post_Office": "Shah Alam",
        "State": "Selangor"
    },
    {
        "Postcode": "40000",
        "Location": "Jalan Rata 8/1F",
        "Post_Office": "Shah Alam",
        "State": "Selangor"
    },
    {
        "Postcode": "40000",
        "Location": "Jalan Ratna 7/10",
        "Post_Office": "Shah Alam",
        "State": "Selangor"
    },
    {
        "Postcode": "40000",
        "Location": "Jalan Ratna Dua 7/10B",
        "Post_Office": "Shah Alam",
        "State": "Selangor"
    },
    {
        "Postcode": "40000",
        "Location": "Jalan Ratna Empat 7/10D",
        "Post_Office": "Shah Alam",
        "State": "Selangor"
    },
    {
        "Postcode": "40000",
        "Location": "Jalan Ratna Enam 7/10F",
        "Post_Office": "Shah Alam",
        "State": "Selangor"
    },
    {
        "Postcode": "40000",
        "Location": "Jalan Ratna Lapan 7/10H",
        "Post_Office": "Shah Alam",
        "State": "Selangor"
    },
    {
        "Postcode": "40000",
        "Location": "Jalan Ratna Lima 7/10E",
        "Post_Office": "Shah Alam",
        "State": "Selangor"
    },
    {
        "Postcode": "40000",
        "Location": "Jalan Ratna Satu 7/10A",
        "Post_Office": "Shah Alam",
        "State": "Selangor"
    },
    {
        "Postcode": "40000",
        "Location": "Jalan Ratna Tiga 7/10C",
        "Post_Office": "Shah Alam",
        "State": "Selangor"
    },
    {
        "Postcode": "40000",
        "Location": "Jalan Ratna Tujuh 7/10G",
        "Post_Office": "Shah Alam",
        "State": "Selangor"
    },
    {
        "Postcode": "40000",
        "Location": "Jalan Resak 3/12A",
        "Post_Office": "Shah Alam",
        "State": "Selangor"
    },
    {
        "Postcode": "40000",
        "Location": "Jalan Ru 3/9A",
        "Post_Office": "Shah Alam",
        "State": "Selangor"
    },
    {
        "Postcode": "40000",
        "Location": "Jalan Sejat 8/10",
        "Post_Office": "Shah Alam",
        "State": "Selangor"
    },
    {
        "Postcode": "40000",
        "Location": "Jalan Selekoh 8/2B",
        "Post_Office": "Shah Alam",
        "State": "Selangor"
    },
    {
        "Postcode": "40000",
        "Location": "Jalan Sena 3/13A",
        "Post_Office": "Shah Alam",
        "State": "Selangor"
    },
    {
        "Postcode": "40000",
        "Location": "Jalan Sepunca 8/12",
        "Post_Office": "Shah Alam",
        "State": "Selangor"
    },
    {
        "Postcode": "40000",
        "Location": "Jalan Seraya 3/12",
        "Post_Office": "Shah Alam",
        "State": "Selangor"
    },
    {
        "Postcode": "40000",
        "Location": "Jalan Serindit 6/1G",
        "Post_Office": "Shah Alam",
        "State": "Selangor"
    },
    {
        "Postcode": "40000",
        "Location": "Jalan Sitrin 7/14",
        "Post_Office": "Shah Alam",
        "State": "Selangor"
    },
    {
        "Postcode": "40000",
        "Location": "Jalan Sitrin Satu 7/14A",
        "Post_Office": "Shah Alam",
        "State": "Selangor"
    },
    {
        "Postcode": "40000",
        "Location": "Jalan Suasa 7/1L",
        "Post_Office": "Shah Alam",
        "State": "Selangor"
    },
    {
        "Postcode": "40000",
        "Location": "Jalan Sukun 4/7",
        "Post_Office": "Shah Alam",
        "State": "Selangor"
    },
    {
        "Postcode": "40000",
        "Location": "Jalan Susuh 8/16",
        "Post_Office": "Shah Alam",
        "State": "Selangor"
    },
    {
        "Postcode": "40000",
        "Location": "Jalan Tanjung 8/28",
        "Post_Office": "Shah Alam",
        "State": "Selangor"
    },
    {
        "Postcode": "40000",
        "Location": "Jalan Tebing 8/8",
        "Post_Office": "Shah Alam",
        "State": "Selangor"
    },
    {
        "Postcode": "40000",
        "Location": "Jalan Tebing Dua 8/8B",
        "Post_Office": "Shah Alam",
        "State": "Selangor"
    },
    {
        "Postcode": "40000",
        "Location": "Jalan Tebing Empat 8/8D",
        "Post_Office": "Shah Alam",
        "State": "Selangor"
    },
    {
        "Postcode": "40000",
        "Location": "Jalan Tebing Enam 8/8F",
        "Post_Office": "Shah Alam",
        "State": "Selangor"
    },
    {
        "Postcode": "40000",
        "Location": "Jalan Tebing Lima 8/8E",
        "Post_Office": "Shah Alam",
        "State": "Selangor"
    },
    {
        "Postcode": "40000",
        "Location": "Jalan Tebing Satu 8/8A",
        "Post_Office": "Shah Alam",
        "State": "Selangor"
    },
    {
        "Postcode": "40000",
        "Location": "Jalan Tebing Tiga 8/8C",
        "Post_Office": "Shah Alam",
        "State": "Selangor"
    },
    {
        "Postcode": "40000",
        "Location": "Jalan Tekukur 6/1C",
        "Post_Office": "Shah Alam",
        "State": "Selangor"
    },
    {
        "Postcode": "40000",
        "Location": "Jalan Telukan 8/25",
        "Post_Office": "Shah Alam",
        "State": "Selangor"
    },
    {
        "Postcode": "40000",
        "Location": "Jalan Telukan Satu 8/25A",
        "Post_Office": "Shah Alam",
        "State": "Selangor"
    },
    {
        "Postcode": "40000",
        "Location": "Jalan Tembaga 7/1P",
        "Post_Office": "Shah Alam",
        "State": "Selangor"
    },
    {
        "Postcode": "40000",
        "Location": "Jalan Tembikai 4/3",
        "Post_Office": "Shah Alam",
        "State": "Selangor"
    },
    {
        "Postcode": "40000",
        "Location": "Jalan Tembusu 3/9",
        "Post_Office": "Shah Alam",
        "State": "Selangor"
    },
    {
        "Postcode": "40000",
        "Location": "Jalan Tembusu Satu 3/9A",
        "Post_Office": "Shah Alam",
        "State": "Selangor"
    },
    {
        "Postcode": "40000",
        "Location": "Jalan Tempua 6/4C",
        "Post_Office": "Shah Alam",
        "State": "Selangor"
    },
    {
        "Postcode": "40000",
        "Location": "Jalan Tepian 8/2",
        "Post_Office": "Shah Alam",
        "State": "Selangor"
    },
    {
        "Postcode": "40000",
        "Location": "Jalan Tepuan 8/4",
        "Post_Office": "Shah Alam",
        "State": "Selangor"
    },
    {
        "Postcode": "40000",
        "Location": "Jalan Tepuan Dua 8/4B",
        "Post_Office": "Shah Alam",
        "State": "Selangor"
    },
    {
        "Postcode": "40000",
        "Location": "Jalan Tepuan Satu 8/4A",
        "Post_Office": "Shah Alam",
        "State": "Selangor"
    },
    {
        "Postcode": "40000",
        "Location": "Jalan Teres 8/1B",
        "Post_Office": "Shah Alam",
        "State": "Selangor"
    },
    {
        "Postcode": "40000",
        "Location": "Jalan Terkukur 6/1C",
        "Post_Office": "Shah Alam",
        "State": "Selangor"
    },
    {
        "Postcode": "40000",
        "Location": "Jalan Terumbu 8/18",
        "Post_Office": "Shah Alam",
        "State": "Selangor"
    },
    {
        "Postcode": "40000",
        "Location": "Jalan Terusan 8/26",
        "Post_Office": "Shah Alam",
        "State": "Selangor"
    },
    {
        "Postcode": "40000",
        "Location": "Jalan Terusan Satu 8/26A",
        "Post_Office": "Shah Alam",
        "State": "Selangor"
    },
    {
        "Postcode": "40000",
        "Location": "Jalan Timah 7/25",
        "Post_Office": "Shah Alam",
        "State": "Selangor"
    },
    {
        "Postcode": "40000",
        "Location": "Jalan Tinggi 8/1J",
        "Post_Office": "Shah Alam",
        "State": "Selangor"
    },
    {
        "Postcode": "40000",
        "Location": "Jalan Tiung 6/1E",
        "Post_Office": "Shah Alam",
        "State": "Selangor"
    },
    {
        "Postcode": "40000",
        "Location": "Jalan Topaz 7/4",
        "Post_Office": "Shah Alam",
        "State": "Selangor"
    },
    {
        "Postcode": "40000",
        "Location": "Jalan Topaz Satu 7/4A",
        "Post_Office": "Shah Alam",
        "State": "Selangor"
    },
    {
        "Postcode": "40000",
        "Location": "Jalan Tungsten 7/23",
        "Post_Office": "Shah Alam",
        "State": "Selangor"
    },
    {
        "Postcode": "40000",
        "Location": "Jalan Turmalin Dua 7/12B",
        "Post_Office": "Shah Alam",
        "State": "Selangor"
    },
    {
        "Postcode": "40000",
        "Location": "Jalan Turmalin Empat 7/12D",
        "Post_Office": "Shah Alam",
        "State": "Selangor"
    },
    {
        "Postcode": "40000",
        "Location": "Jalan Turmalin Enam 7/12G",
        "Post_Office": "Shah Alam",
        "State": "Selangor"
    },
    {
        "Postcode": "40000",
        "Location": "Jalan Turmalin Lapan 7/12H",
        "Post_Office": "Shah Alam",
        "State": "Selangor"
    },
    {
        "Postcode": "40000",
        "Location": "Jalan Turmalin Lima 7/12E",
        "Post_Office": "Shah Alam",
        "State": "Selangor"
    },
    {
        "Postcode": "40000",
        "Location": "Jalan Turmalin Satu 7/12A",
        "Post_Office": "Shah Alam",
        "State": "Selangor"
    },
    {
        "Postcode": "40000",
        "Location": "Jalan Turmalin Tiga 7/12C",
        "Post_Office": "Shah Alam",
        "State": "Selangor"
    },
    {
        "Postcode": "40000",
        "Location": "Jalan Turmalin Tujuh 7/12G",
        "Post_Office": "Shah Alam",
        "State": "Selangor"
    },
    {
        "Postcode": "40000",
        "Location": "Jalan Turmalin 7/12",
        "Post_Office": "Shah Alam",
        "State": "Selangor"
    },
    {
        "Postcode": "40000",
        "Location": "Jalan Undan 6/2",
        "Post_Office": "Shah Alam",
        "State": "Selangor"
    },
    {
        "Postcode": "40000",
        "Location": "Jalan Vanadium 7/34",
        "Post_Office": "Shah Alam",
        "State": "Selangor"
    },
    {
        "Postcode": "40000",
        "Location": "Jalan Vanadium Satu 7/34A",
        "Post_Office": "Shah Alam",
        "State": "Selangor"
    },
    {
        "Postcode": "40000",
        "Location": "Jalan Wak-Wak 6/2F",
        "Post_Office": "Shah Alam",
        "State": "Selangor"
    },
    {
        "Postcode": "40000",
        "Location": "Jalan Yakut 7/13",
        "Post_Office": "Shah Alam",
        "State": "Selangor"
    },
    {
        "Postcode": "40000",
        "Location": "Jalan Zamrud 7/1K",
        "Post_Office": "Shah Alam",
        "State": "Selangor"
    },
    {
        "Postcode": "40000",
        "Location": "Jalan Zirkon A 7/A",
        "Post_Office": "Shah Alam",
        "State": "Selangor"
    },
    {
        "Postcode": "40000",
        "Location": "Jalan Zirkon B 7/B",
        "Post_Office": "Shah Alam",
        "State": "Selangor"
    },
    {
        "Postcode": "40000",
        "Location": "Jalan Zirkon C 7/C",
        "Post_Office": "Shah Alam",
        "State": "Selangor"
    },
    {
        "Postcode": "40000",
        "Location": "Jalan Zirkon D 7/D",
        "Post_Office": "Shah Alam",
        "State": "Selangor"
    },
    {
        "Postcode": "40000",
        "Location": "Jalan Zirkon E 7/E",
        "Post_Office": "Shah Alam",
        "State": "Selangor"
    },
    {
        "Postcode": "40000",
        "Location": "Jalan Zirkon F 7/F",
        "Post_Office": "Shah Alam",
        "State": "Selangor"
    },
    {
        "Postcode": "40000",
        "Location": "Kompleks Pkns",
        "Post_Office": "Shah Alam",
        "State": "Selangor"
    },
    {
        "Postcode": "40000",
        "Location": "Masjid Negeri Selangor",
        "Post_Office": "Shah Alam",
        "State": "Selangor"
    },
    {
        "Postcode": "40000",
        "Location": "Persiaran Perbadanan",
        "Post_Office": "Shah Alam",
        "State": "Selangor"
    },
    {
        "Postcode": "40000",
        "Location": "Persiaran Perdagangan",
        "Post_Office": "Shah Alam",
        "State": "Selangor"
    },
    {
        "Postcode": "40000",
        "Location": "Persiaran Tasik",
        "Post_Office": "Shah Alam",
        "State": "Selangor"
    },
    {
        "Postcode": "40000",
        "Location": "Persiaran Tasik Sultan",
        "Post_Office": "Shah Alam",
        "State": "Selangor"
    },
    {
        "Postcode": "40000",
        "Location": "Taman Pertanian Bukit Cahaya",
        "Post_Office": "Shah Alam",
        "State": "Selangor"
    },
    {
        "Postcode": "40000",
        "Location": "Teh Shum Yip Leong",
        "Post_Office": "Shah Alam",
        "State": "Selangor"
    }
]
