[
    {
        "Postcode": "40100",
        "Location": "Jalan Akuatik 13/64",
        "Post_Office": "Shah Alam",
        "State": "Selangor"
    },
    {
        "Postcode": "40100",
        "Location": "Jalan Akuatik 13/66",
        "Post_Office": "Shah Alam",
        "State": "Selangor"
    },
    {
        "Postcode": "40100",
        "Location": "Jalan Akuatik 13/67",
        "Post_Office": "Shah Alam",
        "State": "Selangor"
    },
    {
        "Postcode": "40100",
        "Location": "Jalan Akuatik 13/67A",
        "Post_Office": "Shah Alam",
        "State": "Selangor"
    },
    {
        "Postcode": "40100",
        "Location": "Jalan Akuatik 13/67B",
        "Post_Office": "Shah Alam",
        "State": "Selangor"
    },
    {
        "Postcode": "40100",
        "Location": "Jalan Akuatik 13/67C",
        "Post_Office": "Shah Alam",
        "State": "Selangor"
    },
    {
        "Postcode": "40100",
        "Location": "Jalan Akuatik 13/67D",
        "Post_Office": "Shah Alam",
        "State": "Selangor"
    },
    {
        "Postcode": "40100",
        "Location": "Jalan Akuatik 13/68",
        "Post_Office": "Shah Alam",
        "State": "Selangor"
    },
    {
        "Postcode": "40100",
        "Location": "Jalan Akuatik 13/69",
        "Post_Office": "Shah Alam",
        "State": "Selangor"
    },
    {
        "Postcode": "40100",
        "Location": "Jalan Akuatik 13/76A",
        "Post_Office": "Shah Alam",
        "State": "Selangor"
    },
    {
        "Postcode": "40100",
        "Location": "Jalan Akuatik 13/76B",
        "Post_Office": "Shah Alam",
        "State": "Selangor"
    },
    {
        "Postcode": "40100",
        "Location": "Jalan Akuatik 13/76C",
        "Post_Office": "Shah Alam",
        "State": "Selangor"
    },
    {
        "Postcode": "40100",
        "Location": "Jalan Akuatik 13/77A",
        "Post_Office": "Shah Alam",
        "State": "Selangor"
    },
    {
        "Postcode": "40100",
        "Location": "Jalan Akuatik 13/77B",
        "Post_Office": "Shah Alam",
        "State": "Selangor"
    },
    {
        "Postcode": "40100",
        "Location": "Jalan Akuatik 13/77C",
        "Post_Office": "Shah Alam",
        "State": "Selangor"
    },
    {
        "Postcode": "40100",
        "Location": "Jalan Akuatik 13/77D",
        "Post_Office": "Shah Alam",
        "State": "Selangor"
    },
    {
        "Postcode": "40100",
        "Location": "Jalan Akuatik 13/77E",
        "Post_Office": "Shah Alam",
        "State": "Selangor"
    },
    {
        "Postcode": "40100",
        "Location": "Jalan Akuatik 13/77F",
        "Post_Office": "Shah Alam",
        "State": "Selangor"
    },
    {
        "Postcode": "40100",
        "Location": "Jalan Akuatik 13/77G",
        "Post_Office": "Shah Alam",
        "State": "Selangor"
    },
    {
        "Postcode": "40100",
        "Location": "Jalan Akuatik 13/77H",
        "Post_Office": "Shah Alam",
        "State": "Selangor"
    },
    {
        "Postcode": "40100",
        "Location": "Jalan Bola Sepak 13/11A",
        "Post_Office": "Shah Alam",
        "State": "Selangor"
    },
    {
        "Postcode": "40100",
        "Location": "Jalan Bola Sepak 13/11B",
        "Post_Office": "Shah Alam",
        "State": "Selangor"
    },
    {
        "Postcode": "40100",
        "Location": "Jalan Bola Sepak 13/11C",
        "Post_Office": "Shah Alam",
        "State": "Selangor"
    },
    {
        "Postcode": "40100",
        "Location": "Jalan Bola Sepak 13/11D",
        "Post_Office": "Shah Alam",
        "State": "Selangor"
    },
    {
        "Postcode": "40100",
        "Location": "Jalan Bola Sepak 13/11E",
        "Post_Office": "Shah Alam",
        "State": "Selangor"
    },
    {
        "Postcode": "40100",
        "Location": "Jalan Bola Sepak 13/11F",
        "Post_Office": "Shah Alam",
        "State": "Selangor"
    },
    {
        "Postcode": "40100",
        "Location": "Jalan Bola Sepak 13/11G",
        "Post_Office": "Shah Alam",
        "State": "Selangor"
    },
    {
        "Postcode": "40100",
        "Location": "Jalan Bola Sepak 13/11H",
        "Post_Office": "Shah Alam",
        "State": "Selangor"
    },
    {
        "Postcode": "40100",
        "Location": "Jalan Bola Sepak 13/11I",
        "Post_Office": "Shah Alam",
        "State": "Selangor"
    },
    {
        "Postcode": "40100",
        "Location": "Jalan Bola Sepak 13/11J",
        "Post_Office": "Shah Alam",
        "State": "Selangor"
    },
    {
        "Postcode": "40100",
        "Location": "Jalan Boling Padang 13/62",
        "Post_Office": "Shah Alam",
        "State": "Selangor"
    },
    {
        "Postcode": "40100",
        "Location": "Jalan Boling Padang 13/63",
        "Post_Office": "Shah Alam",
        "State": "Selangor"
    },
    {
        "Postcode": "40100",
        "Location": "Jalan Kelab Golf 13/5A",
        "Post_Office": "Shah Alam",
        "State": "Selangor"
    },
    {
        "Postcode": "40100",
        "Location": "Jalan Kelab Golf 13/5B",
        "Post_Office": "Shah Alam",
        "State": "Selangor"
    },
    {
        "Postcode": "40100",
        "Location": "Jalan Kelab Golf 13/6A",
        "Post_Office": "Shah Alam",
        "State": "Selangor"
    },
    {
        "Postcode": "40100",
        "Location": "Jalan Kelab Golf 13/6B",
        "Post_Office": "Shah Alam",
        "State": "Selangor"
    },
    {
        "Postcode": "40100",
        "Location": "Jalan Kelab Golf 13/6C",
        "Post_Office": "Shah Alam",
        "State": "Selangor"
    },
    {
        "Postcode": "40100",
        "Location": "Jalan Kelab Golf 13/6D",
        "Post_Office": "Shah Alam",
        "State": "Selangor"
    },
    {
        "Postcode": "40100",
        "Location": "Jalan Kelab Golf 13/6E",
        "Post_Office": "Shah Alam",
        "State": "Selangor"
    },
    {
        "Postcode": "40100",
        "Location": "Jalan Kelab Golf 13/6F",
        "Post_Office": "Shah Alam",
        "State": "Selangor"
    },
    {
        "Postcode": "40100",
        "Location": "Jalan Kelab Golf 13/6G",
        "Post_Office": "Shah Alam",
        "State": "Selangor"
    },
    {
        "Postcode": "40100",
        "Location": "Jalan Polo Air 13/57",
        "Post_Office": "Shah Alam",
        "State": "Selangor"
    },
    {
        "Postcode": "40100",
        "Location": "Jalan Polo Air 13/58",
        "Post_Office": "Shah Alam",
        "State": "Selangor"
    },
    {
        "Postcode": "40100",
        "Location": "Jalan Polo Air 13/58A",
        "Post_Office": "Shah Alam",
        "State": "Selangor"
    },
    {
        "Postcode": "40100",
        "Location": "Jalan Polo Air 13/58B",
        "Post_Office": "Shah Alam",
        "State": "Selangor"
    },
    {
        "Postcode": "40100",
        "Location": "Jalan Polo Air 13/58C",
        "Post_Office": "Shah Alam",
        "State": "Selangor"
    },
    {
        "Postcode": "40100",
        "Location": "Jalan Polo Air 13/58D",
        "Post_Office": "Shah Alam",
        "State": "Selangor"
    },
    {
        "Postcode": "40100",
        "Location": "Jalan Polo Air 13/59",
        "Post_Office": "Shah Alam",
        "State": "Selangor"
    },
    {
        "Postcode": "40100",
        "Location": "Jalan Raja Abdullah 9/19A",
        "Post_Office": "Shah Alam",
        "State": "Selangor"
    },
    {
        "Postcode": "40100",
        "Location": "Jalan Raja Abdullah 9/19B",
        "Post_Office": "Shah Alam",
        "State": "Selangor"
    },
    {
        "Postcode": "40100",
        "Location": "Jalan Raja Abdullah 9/19C",
        "Post_Office": "Shah Alam",
        "State": "Selangor"
    },
    {
        "Postcode": "40100",
        "Location": "Jalan Raja Abdullah 9/19D",
        "Post_Office": "Shah Alam",
        "State": "Selangor"
    },
    {
        "Postcode": "40100",
        "Location": "Jalan Raja Abdullah 9/19E",
        "Post_Office": "Shah Alam",
        "State": "Selangor"
    },
    {
        "Postcode": "40100",
        "Location": "Seksyen 13",
        "Post_Office": "Shah Alam",
        "State": "Selangor"
    },
    {
        "Postcode": "40100",
        "Location": "Jalan Akuatik 13/66A",
        "Post_Office": "Shah Alam",
        "State": "Selangor"
    },
    {
        "Postcode": "40100",
        "Location": "Jalan Akuatik 13/74A",
        "Post_Office": "Shah Alam",
        "State": "Selangor"
    },
    {
        "Postcode": "40100",
        "Location": "Jalan Akuatik 13/7B",
        "Post_Office": "Shah Alam",
        "State": "Selangor"
    },
    {
        "Postcode": "40100",
        "Location": "Jalan Akuatik A 13/A",
        "Post_Office": "Shah Alam",
        "State": "Selangor"
    },
    {
        "Postcode": "40100",
        "Location": "Jalan Kriket 13/28",
        "Post_Office": "Shah Alam",
        "State": "Selangor"
    },
    {
        "Postcode": "40100",
        "Location": "Jalan Memanah 13/55",
        "Post_Office": "Shah Alam",
        "State": "Selangor"
    },
    {
        "Postcode": "40100",
        "Location": "Jalan Menembak 13/54",
        "Post_Office": "Shah Alam",
        "State": "Selangor"
    },
    {
        "Postcode": "40100",
        "Location": "Jalan Tengku Ampuan Zabedah  H 9/H",
        "Post_Office": "Shah Alam",
        "State": "Selangor"
    },
    {
        "Postcode": "40100",
        "Location": "Jalan Tengku Ampuan Zabedah  J 9/J",
        "Post_Office": "Shah Alam",
        "State": "Selangor"
    },
    {
        "Postcode": "40100",
        "Location": "Jalan Tengku Ampuan Zabedah  K 9/K",
        "Post_Office": "Shah Alam",
        "State": "Selangor"
    },
    {
        "Postcode": "40100",
        "Location": "Jalan Tengku Permaisuri Mastura  A 9/14A",
        "Post_Office": "Shah Alam",
        "State": "Selangor"
    },
    {
        "Postcode": "40100",
        "Location": "Jalan Wau Enam 11/F",
        "Post_Office": "Shah Alam",
        "State": "Selangor"
    },
    {
        "Postcode": "40100",
        "Location": "Jalan Wau Lima 11/E",
        "Post_Office": "Shah Alam",
        "State": "Selangor"
    },
    {
        "Postcode": "40100",
        "Location": "Jalan Wau Tujuh 11/G",
        "Post_Office": "Shah Alam",
        "State": "Selangor"
    },
    {
        "Postcode": "40100",
        "Location": "Persiaran Sukan",
        "Post_Office": "Shah Alam",
        "State": "Selangor"
    },
    {
        "Postcode": "40100",
        "Location": "D'Kayangan",
        "Post_Office": "Shah Alam",
        "State": "Selangor"
    },
    {
        "Postcode": "40100",
        "Location": "Laman Seri\r\n",
        "Post_Office": "Shah Alam",
        "State": "Selangor"
    },
    {
        "Postcode": "40100",
        "Location": "Tadisma Business\r\n Park",
        "Post_Office": "Shah Alam",
        "State": "Selangor"
    },
    {
        "Postcode": "40100",
        "Location": "Seksyen 10",
        "Post_Office": "Shah Alam",
        "State": "Selangor"
    },
    {
        "Postcode": "40100",
        "Location": "Seksyen 12",
        "Post_Office": "Shah Alam",
        "State": "Selangor"
    },
    {
        "Postcode": "40100",
        "Location": "Seksyen 9",
        "Post_Office": "Shah Alam",
        "State": "Selangor"
    },
    {
        "Postcode": "40100",
        "Location": "Seksyen 11",
        "Post_Office": "Shah Alam",
        "State": "Selangor"
    },
    {
        "Postcode": "40100",
        "Location": "Studio 14 Square",
        "Post_Office": "Shah Alam",
        "State": "Selangor"
    },
    {
        "Postcode": "40100",
        "Location": "Jalan Aerobatik 13/43",
        "Post_Office": "Shah Alam",
        "State": "Selangor"
    },
    {
        "Postcode": "40100",
        "Location": "Jalan Akido 13/46",
        "Post_Office": "Shah Alam",
        "State": "Selangor"
    },
    {
        "Postcode": "40100",
        "Location": "Jalan Badak 11/4",
        "Post_Office": "Shah Alam",
        "State": "Selangor"
    },
    {
        "Postcode": "40100",
        "Location": "Jalan Badminton 13/29",
        "Post_Office": "Shah Alam",
        "State": "Selangor"
    },
    {
        "Postcode": "40100",
        "Location": "Jalan Balapan 13/32",
        "Post_Office": "Shah Alam",
        "State": "Selangor"
    },
    {
        "Postcode": "40100",
        "Location": "Jalan Batik 10/6",
        "Post_Office": "Shah Alam",
        "State": "Selangor"
    },
    {
        "Postcode": "40100",
        "Location": "Jalan Beduk 11/5B",
        "Post_Office": "Shah Alam",
        "State": "Selangor"
    },
    {
        "Postcode": "40100",
        "Location": "Jalan Bendahara 12/5",
        "Post_Office": "Shah Alam",
        "State": "Selangor"
    },
    {
        "Postcode": "40100",
        "Location": "Jalan Bengkung 10/9",
        "Post_Office": "Shah Alam",
        "State": "Selangor"
    },
    {
        "Postcode": "40100",
        "Location": "Jalan Bentara 12/8",
        "Post_Office": "Shah Alam",
        "State": "Selangor"
    },
    {
        "Postcode": "40100",
        "Location": "Jalan Bola Jaring 13/15",
        "Post_Office": "Shah Alam",
        "State": "Selangor"
    },
    {
        "Postcode": "40100",
        "Location": "Jalan Bola Keranjang 13/16",
        "Post_Office": "Shah Alam",
        "State": "Selangor"
    },
    {
        "Postcode": "40100",
        "Location": "Jalan Bola Lisut 13/17",
        "Post_Office": "Shah Alam",
        "State": "Selangor"
    },
    {
        "Postcode": "40100",
        "Location": "Jalan Bola Sepak 13/11",
        "Post_Office": "Shah Alam",
        "State": "Selangor"
    },
    {
        "Postcode": "40100",
        "Location": "Jalan Bola Tampar 13/14",
        "Post_Office": "Shah Alam",
        "State": "Selangor"
    },
    {
        "Postcode": "40100",
        "Location": "Jalan Boria 11/2L",
        "Post_Office": "Shah Alam",
        "State": "Selangor"
    },
    {
        "Postcode": "40100",
        "Location": "Jalan Bot Laju 13/24",
        "Post_Office": "Shah Alam",
        "State": "Selangor"
    },
    {
        "Postcode": "40100",
        "Location": "Jalan Bukit Opu Daeng Perani 9/1",
        "Post_Office": "Shah Alam",
        "State": "Selangor"
    },
    {
        "Postcode": "40100",
        "Location": "Jalan Bukit Opu Daeng Perani Satu 9/1A",
        "Post_Office": "Shah Alam",
        "State": "Selangor"
    },
    {
        "Postcode": "40100",
        "Location": "Jalan Cahaya 11/7",
        "Post_Office": "Shah Alam",
        "State": "Selangor"
    },
    {
        "Postcode": "40100",
        "Location": "Jalan Canggung 11/2F",
        "Post_Office": "Shah Alam",
        "State": "Selangor"
    },
    {
        "Postcode": "40100",
        "Location": "Jalan Catur 11/1C",
        "Post_Office": "Shah Alam",
        "State": "Selangor"
    },
    {
        "Postcode": "40100",
        "Location": "Jalan Cekak Musang 10/2",
        "Post_Office": "Shah Alam",
        "State": "Selangor"
    },
    {
        "Postcode": "40100",
        "Location": "Jalan Celana 10/13",
        "Post_Office": "Shah Alam",
        "State": "Selangor"
    },
    {
        "Postcode": "40100",
        "Location": "Jalan Cembul 11/8B",
        "Post_Office": "Shah Alam",
        "State": "Selangor"
    },
    {
        "Postcode": "40100",
        "Location": "Jalan Ceongsam 10/11",
        "Post_Office": "Shah Alam",
        "State": "Selangor"
    },
    {
        "Postcode": "40100",
        "Location": "Jalan Cincin 11/6",
        "Post_Office": "Shah Alam",
        "State": "Selangor"
    },
    {
        "Postcode": "40100",
        "Location": "Jalan Congkak 11/1D",
        "Post_Office": "Shah Alam",
        "State": "Selangor"
    },
    {
        "Postcode": "40100",
        "Location": "Jalan Dabus 11/2D",
        "Post_Office": "Shah Alam",
        "State": "Selangor"
    },
    {
        "Postcode": "40100",
        "Location": "Jalan Dam 13/21",
        "Post_Office": "Shah Alam",
        "State": "Selangor"
    },
    {
        "Postcode": "40100",
        "Location": "Jalan Dart 13/22",
        "Post_Office": "Shah Alam",
        "State": "Selangor"
    },
    {
        "Postcode": "40100",
        "Location": "Jalan Equestrian 13/52",
        "Post_Office": "Shah Alam",
        "State": "Selangor"
    },
    {
        "Postcode": "40100",
        "Location": "Jalan Gamelan 11/2E",
        "Post_Office": "Shah Alam",
        "State": "Selangor"
    },
    {
        "Postcode": "40100",
        "Location": "Jalan Gasing 11/1A",
        "Post_Office": "Shah Alam",
        "State": "Selangor"
    },
    {
        "Postcode": "40100",
        "Location": "Jalan Gedombak 11/5G",
        "Post_Office": "Shah Alam",
        "State": "Selangor"
    },
    {
        "Postcode": "40100",
        "Location": "Jalan Gelang 11/6A",
        "Post_Office": "Shah Alam",
        "State": "Selangor"
    },
    {
        "Postcode": "40100",
        "Location": "Jalan Gendang 11/5D",
        "Post_Office": "Shah Alam",
        "State": "Selangor"
    },
    {
        "Postcode": "40100",
        "Location": "Jalan Gobek 11/9",
        "Post_Office": "Shah Alam",
        "State": "Selangor"
    },
    {
        "Postcode": "40100",
        "Location": "Jalan Guli 11/1B",
        "Post_Office": "Shah Alam",
        "State": "Selangor"
    },
    {
        "Postcode": "40100",
        "Location": "Jalan Inang 11/2A",
        "Post_Office": "Shah Alam",
        "State": "Selangor"
    },
    {
        "Postcode": "40100",
        "Location": "Jalan Istana 12/4",
        "Post_Office": "Shah Alam",
        "State": "Selangor"
    },
    {
        "Postcode": "40100",
        "Location": "Jalan Judo 13/45",
        "Post_Office": "Shah Alam",
        "State": "Selangor"
    },
    {
        "Postcode": "40100",
        "Location": "Jalan Kacip 11/8A",
        "Post_Office": "Shah Alam",
        "State": "Selangor"
    },
    {
        "Postcode": "40100",
        "Location": "Jalan Karate 13/47",
        "Post_Office": "Shah Alam",
        "State": "Selangor"
    },
    {
        "Postcode": "40100",
        "Location": "Jalan Karom 13/20",
        "Post_Office": "Shah Alam",
        "State": "Selangor"
    },
    {
        "Postcode": "40100",
        "Location": "Jalan Kayak 13/25",
        "Post_Office": "Shah Alam",
        "State": "Selangor"
    },
    {
        "Postcode": "40100",
        "Location": "Jalan Kebaya 10/3",
        "Post_Office": "Shah Alam",
        "State": "Selangor"
    },
    {
        "Postcode": "40100",
        "Location": "Jalan Kelewang 11/4B",
        "Post_Office": "Shah Alam",
        "State": "Selangor"
    },
    {
        "Postcode": "40100",
        "Location": "Jalan Kerambit 11/4C",
        "Post_Office": "Shah Alam",
        "State": "Selangor"
    },
    {
        "Postcode": "40100",
        "Location": "Jalan Keris 11/4A",
        "Post_Office": "Shah Alam",
        "State": "Selangor"
    },
    {
        "Postcode": "40100",
        "Location": "Jalan Kerongsang 11/6B",
        "Post_Office": "Shah Alam",
        "State": "Selangor"
    },
    {
        "Postcode": "40100",
        "Location": "Jalan Kompang 11/5",
        "Post_Office": "Shah Alam",
        "State": "Selangor"
    },
    {
        "Postcode": "40100",
        "Location": "Jalan Kuda Kepang 11/2C",
        "Post_Office": "Shah Alam",
        "State": "Selangor"
    },
    {
        "Postcode": "40100",
        "Location": "Jalan Kurung 10/4",
        "Post_Office": "Shah Alam",
        "State": "Selangor"
    },
    {
        "Postcode": "40100",
        "Location": "Jalan Laksamana 12/1",
        "Post_Office": "Shah Alam",
        "State": "Selangor"
    },
    {
        "Postcode": "40100",
        "Location": "Jalan Lawan Pedang 13/27",
        "Post_Office": "Shah Alam",
        "State": "Selangor"
    },
    {
        "Postcode": "40100",
        "Location": "Jalan Lompat Galah 13/36",
        "Post_Office": "Shah Alam",
        "State": "Selangor"
    },
    {
        "Postcode": "40100",
        "Location": "Jalan Lompat Jauh 13/35",
        "Post_Office": "Shah Alam",
        "State": "Selangor"
    },
    {
        "Postcode": "40100",
        "Location": "Jalan Lompat Kijang 13/34",
        "Post_Office": "Shah Alam",
        "State": "Selangor"
    },
    {
        "Postcode": "40100",
        "Location": "Jalan Lompat Pagar 13/37",
        "Post_Office": "Shah Alam",
        "State": "Selangor"
    },
    {
        "Postcode": "40100",
        "Location": "Jalan Lompat Tinggi 13/33",
        "Post_Office": "Shah Alam",
        "State": "Selangor"
    },
    {
        "Postcode": "40100",
        "Location": "Jalan Lontar Cakera 13/40",
        "Post_Office": "Shah Alam",
        "State": "Selangor"
    },
    {
        "Postcode": "40100",
        "Location": "Jalan Lontar Lembing 13/38",
        "Post_Office": "Shah Alam",
        "State": "Selangor"
    },
    {
        "Postcode": "40100",
        "Location": "Jalan Lontar Peluru 13/39",
        "Post_Office": "Shah Alam",
        "State": "Selangor"
    },
    {
        "Postcode": "40100",
        "Location": "Jalan Makyong 11/2G",
        "Post_Office": "Shah Alam",
        "State": "Selangor"
    },
    {
        "Postcode": "40100",
        "Location": "Jalan Maraton 13/31",
        "Post_Office": "Shah Alam",
        "State": "Selangor"
    },
    {
        "Postcode": "40100",
        "Location": "Jalan Nafiri 11/5C",
        "Post_Office": "Shah Alam",
        "State": "Selangor"
    },
    {
        "Postcode": "40100",
        "Location": "Jalan Najat 11/2N",
        "Post_Office": "Shah Alam",
        "State": "Selangor"
    },
    {
        "Postcode": "40100",
        "Location": "Jalan Nakhoda 12/3",
        "Post_Office": "Shah Alam",
        "State": "Selangor"
    },
    {
        "Postcode": "40100",
        "Location": "Jalan Nobat 11/5A",
        "Post_Office": "Shah Alam",
        "State": "Selangor"
    },
    {
        "Postcode": "40100",
        "Location": "Jalan Opu Daeng Chelak 9/2",
        "Post_Office": "Shah Alam",
        "State": "Selangor"
    },
    {
        "Postcode": "40100",
        "Location": "Jalan Opu Daeng Chelak Dua 9/2B",
        "Post_Office": "Shah Alam",
        "State": "Selangor"
    },
    {
        "Postcode": "40100",
        "Location": "Jalan Opu Daeng Chelak Satu 9/2A",
        "Post_Office": "Shah Alam",
        "State": "Selangor"
    },
    {
        "Postcode": "40100",
        "Location": "Jalan Opu Daeng Chelak Tiga 9/2C",
        "Post_Office": "Shah Alam",
        "State": "Selangor"
    },
    {
        "Postcode": "40100",
        "Location": "Jalan Opu Daeng Merewah 9/3",
        "Post_Office": "Shah Alam",
        "State": "Selangor"
    },
    {
        "Postcode": "40100",
        "Location": "Jalan Opu Daeng Merewah Satu 9/3A",
        "Post_Office": "Shah Alam",
        "State": "Selangor"
    },
    {
        "Postcode": "40100",
        "Location": "Jalan Pahlawan 12/9",
        "Post_Office": "Shah Alam",
        "State": "Selangor"
    },
    {
        "Postcode": "40100",
        "Location": "Jalan Panglima 12/2",
        "Post_Office": "Shah Alam",
        "State": "Selangor"
    },
    {
        "Postcode": "40100",
        "Location": "Jalan Penggawa 12/10",
        "Post_Office": "Shah Alam",
        "State": "Selangor"
    },
    {
        "Postcode": "40100",
        "Location": "Jalan Perahu Layar 13/23",
        "Post_Office": "Shah Alam",
        "State": "Selangor"
    },
    {
        "Postcode": "40100",
        "Location": "Jalan Pingpong 13/19",
        "Post_Office": "Shah Alam",
        "State": "Selangor"
    },
    {
        "Postcode": "40100",
        "Location": "Jalan Pingpong Satu 13/19A",
        "Post_Office": "Shah Alam",
        "State": "Selangor"
    },
    {
        "Postcode": "40100",
        "Location": "Jalan Polo 13/51",
        "Post_Office": "Shah Alam",
        "State": "Selangor"
    },
    {
        "Postcode": "40100",
        "Location": "Jalan Raja Abdullah 9/19",
        "Post_Office": "Shah Alam",
        "State": "Selangor"
    },
    {
        "Postcode": "40100",
        "Location": "Jalan Raja Jumaat 9/17",
        "Post_Office": "Shah Alam",
        "State": "Selangor"
    },
    {
        "Postcode": "40100",
        "Location": "Jalan Raja Mahadi 9/16",
        "Post_Office": "Shah Alam",
        "State": "Selangor"
    },
    {
        "Postcode": "40100",
        "Location": "Jalan Raja Mahmud 9/18",
        "Post_Office": "Shah Alam",
        "State": "Selangor"
    },
    {
        "Postcode": "40100",
        "Location": "Jalan Rebana 11/5E",
        "Post_Office": "Shah Alam",
        "State": "Selangor"
    },
    {
        "Postcode": "40100",
        "Location": "Jalan Renang 13/26",
        "Post_Office": "Shah Alam",
        "State": "Selangor"
    },
    {
        "Postcode": "40100",
        "Location": "Jalan Rodat 11/2H",
        "Post_Office": "Shah Alam",
        "State": "Selangor"
    },
    {
        "Postcode": "40100",
        "Location": "Jalan Rugbi 13/30",
        "Post_Office": "Shah Alam",
        "State": "Selangor"
    },
    {
        "Postcode": "40100",
        "Location": "Jalan Sampin 10/14",
        "Post_Office": "Shah Alam",
        "State": "Selangor"
    },
    {
        "Postcode": "40100",
        "Location": "Jalan Sari 10/12",
        "Post_Office": "Shah Alam",
        "State": "Selangor"
    },
    {
        "Postcode": "40100",
        "Location": "Jalan Selendang 10/10",
        "Post_Office": "Shah Alam",
        "State": "Selangor"
    },
    {
        "Postcode": "40100",
        "Location": "Jalan Semerit 11/10",
        "Post_Office": "Shah Alam",
        "State": "Selangor"
    },
    {
        "Postcode": "40100",
        "Location": "Jalan Sepak Raga 13/13",
        "Post_Office": "Shah Alam",
        "State": "Selangor"
    },
    {
        "Postcode": "40100",
        "Location": "Jalan Sepak Takraw 13/12",
        "Post_Office": "Shah Alam",
        "State": "Selangor"
    },
    {
        "Postcode": "40100",
        "Location": "Jalan Serampang 11/2J",
        "Post_Office": "Shah Alam",
        "State": "Selangor"
    },
    {
        "Postcode": "40100",
        "Location": "Jalan Seruling 11/5F",
        "Post_Office": "Shah Alam",
        "State": "Selangor"
    },
    {
        "Postcode": "40100",
        "Location": "Jalan Serunai 11/5H",
        "Post_Office": "Shah Alam",
        "State": "Selangor"
    },
    {
        "Postcode": "40100",
        "Location": "Jalan Shah Bandar 12/7",
        "Post_Office": "Shah Alam",
        "State": "Selangor"
    },
    {
        "Postcode": "40100",
        "Location": "Jalan Silat 11/3",
        "Post_Office": "Shah Alam",
        "State": "Selangor"
    },
    {
        "Postcode": "40100",
        "Location": "Jalan Silat Cekak 11/3B",
        "Post_Office": "Shah Alam",
        "State": "Selangor"
    },
    {
        "Postcode": "40100",
        "Location": "Jalan Silat Cimande 11/3D",
        "Post_Office": "Shah Alam",
        "State": "Selangor"
    },
    {
        "Postcode": "40100",
        "Location": "Jalan Silat Gayung 11/3A",
        "Post_Office": "Shah Alam",
        "State": "Selangor"
    },
    {
        "Postcode": "40100",
        "Location": "Jalan Silat Lincah 11/3E",
        "Post_Office": "Shah Alam",
        "State": "Selangor"
    },
    {
        "Postcode": "40100",
        "Location": "Jalan Silat Sendeng 11/3C",
        "Post_Office": "Shah Alam",
        "State": "Selangor"
    },
    {
        "Postcode": "40100",
        "Location": "Jalan Siti Payung 11/2K",
        "Post_Office": "Shah Alam",
        "State": "Selangor"
    },
    {
        "Postcode": "40100",
        "Location": "Jalan Skuasy 13/18",
        "Post_Office": "Shah Alam",
        "State": "Selangor"
    },
    {
        "Postcode": "40100",
        "Location": "Jalan Snuker 13/28",
        "Post_Office": "Shah Alam",
        "State": "Selangor"
    },
    {
        "Postcode": "40100",
        "Location": "Jalan Songket 10/5",
        "Post_Office": "Shah Alam",
        "State": "Selangor"
    },
    {
        "Postcode": "40100",
        "Location": "Jalan Sultan Ibrahim 9/8",
        "Post_Office": "Shah Alam",
        "State": "Selangor"
    },
    {
        "Postcode": "40100",
        "Location": "Jalan Sultan Ibrahim Dua 9/8B",
        "Post_Office": "Shah Alam",
        "State": "Selangor"
    },
    {
        "Postcode": "40100",
        "Location": "Jalan Sultan Ibrahim Satu 9/8A",
        "Post_Office": "Shah Alam",
        "State": "Selangor"
    },
    {
        "Postcode": "40100",
        "Location": "Jalan Sultan Muhammad 9/9",
        "Post_Office": "Shah Alam",
        "State": "Selangor"
    },
    {
        "Postcode": "40100",
        "Location": "Jalan Sultan Musa Ghiathuddin 9/10",
        "Post_Office": "Shah Alam",
        "State": "Selangor"
    },
    {
        "Postcode": "40100",
        "Location": "Jalan Sultan Salahuddin 9/7",
        "Post_Office": "Shah Alam",
        "State": "Selangor"
    },
    {
        "Postcode": "40100",
        "Location": "Jalan Sultan Salahuddin Abd Aziz Shah  Dua 9/6B",
        "Post_Office": "Shah Alam",
        "State": "Selangor"
    },
    {
        "Postcode": "40100",
        "Location": "Jalan Sultan Salahuddin Abd Aziz Shah  Enam 9/6F",
        "Post_Office": "Shah Alam",
        "State": "Selangor"
    },
    {
        "Postcode": "40100",
        "Location": "Jalan Sultan Salahuddin Abd Aziz Shah  Lima 9/6E",
        "Post_Office": "Shah Alam",
        "State": "Selangor"
    },
    {
        "Postcode": "40100",
        "Location": "Jalan Sultan Salahuddin Abd Aziz Shah  Tiga 9/6C",
        "Post_Office": "Shah Alam",
        "State": "Selangor"
    },
    {
        "Postcode": "40100",
        "Location": "Jalan Sultan Salahuddin Abd Aziz Shah 9/6",
        "Post_Office": "Shah Alam",
        "State": "Selangor"
    },
    {
        "Postcode": "40100",
        "Location": "Jalan Sultan Salahuddin Abd Aziz Shah Satu 9/6A",
        "Post_Office": "Shah Alam",
        "State": "Selangor"
    },
    {
        "Postcode": "40100",
        "Location": "Jalan Sultan Salahuddin Abdul Aziz Shah Empat 9/6D",
        "Post_Office": "Shah Alam",
        "State": "Selangor"
    },
    {
        "Postcode": "40100",
        "Location": "Jalan Sultan Sir Abd Samad 9/4",
        "Post_Office": "Shah Alam",
        "State": "Selangor"
    },
    {
        "Postcode": "40100",
        "Location": "Jalan Sultan Sir Abd Samad Satu 9/4A",
        "Post_Office": "Shah Alam",
        "State": "Selangor"
    },
    {
        "Postcode": "40100",
        "Location": "Jalan Sultan Sir Alaeddin Suleiman Shah 9/5",
        "Post_Office": "Shah Alam",
        "State": "Selangor"
    },
    {
        "Postcode": "40100",
        "Location": "Jalan Sultan Sir Alaeddin Suleiman Shah Dua 9/5B",
        "Post_Office": "Shah Alam",
        "State": "Selangor"
    },
    {
        "Postcode": "40100",
        "Location": "Jalan Sultan Sir Alaeddin Suleiman Shah Empat 9/5D",
        "Post_Office": "Shah Alam",
        "State": "Selangor"
    },
    {
        "Postcode": "40100",
        "Location": "Jalan Sultan Sir Alaeddin Suleiman Shah Lima 9/5E",
        "Post_Office": "Shah Alam",
        "State": "Selangor"
    },
    {
        "Postcode": "40100",
        "Location": "Jalan Sultan Sir Alaeddin Suleiman Shah Satu 9/5A",
        "Post_Office": "Shah Alam",
        "State": "Selangor"
    },
    {
        "Postcode": "40100",
        "Location": "Jalan Sultan Sir Alaeddin Suleiman Shah Tiga 9/5C",
        "Post_Office": "Shah Alam",
        "State": "Selangor"
    },
    {
        "Postcode": "40100",
        "Location": "Jalan Sumazau 11/2M",
        "Post_Office": "Shah Alam",
        "State": "Selangor"
    },
    {
        "Postcode": "40100",
        "Location": "Jalan Sunting 11/6C",
        "Post_Office": "Shah Alam",
        "State": "Selangor"
    },
    {
        "Postcode": "40100",
        "Location": "Jalan Tae Kwan Do 13/48",
        "Post_Office": "Shah Alam",
        "State": "Selangor"
    },
    {
        "Postcode": "40100",
        "Location": "Jalan Tanjak 10/7",
        "Post_Office": "Shah Alam",
        "State": "Selangor"
    },
    {
        "Postcode": "40100",
        "Location": "Jalan Tarian 11/2",
        "Post_Office": "Shah Alam",
        "State": "Selangor"
    },
    {
        "Postcode": "40100",
        "Location": "Jalan Teluk Belanga 10/1",
        "Post_Office": "Shah Alam",
        "State": "Selangor"
    },
    {
        "Postcode": "40100",
        "Location": "Jalan Temenggung 12/6",
        "Post_Office": "Shah Alam",
        "State": "Selangor"
    },
    {
        "Postcode": "40100",
        "Location": "Jalan Tengkolok 10/8",
        "Post_Office": "Shah Alam",
        "State": "Selangor"
    },
    {
        "Postcode": "40100",
        "Location": "Jalan Tengku Ampuan 9/10",
        "Post_Office": "Shah Alam",
        "State": "Selangor"
    },
    {
        "Postcode": "40100",
        "Location": "Jalan Tengku Ampuan Besik 9/11",
        "Post_Office": "Shah Alam",
        "State": "Selangor"
    },
    {
        "Postcode": "40100",
        "Location": "Jalan Tengku Ampuan Jemaah 9/13",
        "Post_Office": "Shah Alam",
        "State": "Selangor"
    },
    {
        "Postcode": "40100",
        "Location": "Jalan Tengku Ampuan Jemaah Satu 9/13A",
        "Post_Office": "Shah Alam",
        "State": "Selangor"
    },
    {
        "Postcode": "40100",
        "Location": "Jalan Tengku Ampuan Maharum 9/12",
        "Post_Office": "Shah Alam",
        "State": "Selangor"
    },
    {
        "Postcode": "40100",
        "Location": "Jalan Tengku Ampuan Rahimah 9/20",
        "Post_Office": "Shah Alam",
        "State": "Selangor"
    },
    {
        "Postcode": "40100",
        "Location": "Jalan Tengku Ampuan Zabedah  A 9/A",
        "Post_Office": "Shah Alam",
        "State": "Selangor"
    },
    {
        "Postcode": "40100",
        "Location": "Jalan Tengku Ampuan Zabedah  B 9/B",
        "Post_Office": "Shah Alam",
        "State": "Selangor"
    },
    {
        "Postcode": "40100",
        "Location": "Jalan Tengku Ampuan Zabedah  C 9/C",
        "Post_Office": "Shah Alam",
        "State": "Selangor"
    },
    {
        "Postcode": "40100",
        "Location": "Jalan Tengku Ampuan Zabedah  D 9/D",
        "Post_Office": "Shah Alam",
        "State": "Selangor"
    },
    {
        "Postcode": "40100",
        "Location": "Jalan Tengku Ampuan Zabedah  E 9/E",
        "Post_Office": "Shah Alam",
        "State": "Selangor"
    },
    {
        "Postcode": "40100",
        "Location": "Jalan Tengku Ampuan Zabedah  F 9/F",
        "Post_Office": "Shah Alam",
        "State": "Selangor"
    },
    {
        "Postcode": "40100",
        "Location": "Jalan Tengku Ampuan Zabedah  G 9/G",
        "Post_Office": "Shah Alam",
        "State": "Selangor"
    },
    {
        "Postcode": "40100",
        "Location": "Jalan Tengku Badli Shah 9/21",
        "Post_Office": "Shah Alam",
        "State": "Selangor"
    },
    {
        "Postcode": "40100",
        "Location": "Jalan Tengku Badli Shah Dua 9/21B",
        "Post_Office": "Shah Alam",
        "State": "Selangor"
    },
    {
        "Postcode": "40100",
        "Location": "Jalan Tengku Badli Shah Satu 9/21A",
        "Post_Office": "Shah Alam",
        "State": "Selangor"
    },
    {
        "Postcode": "40100",
        "Location": "Jalan Tengku Dhiauddin 9/15",
        "Post_Office": "Shah Alam",
        "State": "Selangor"
    },
    {
        "Postcode": "40100",
        "Location": "Jalan Tengku Mudauddin 9/19",
        "Post_Office": "Shah Alam",
        "State": "Selangor"
    },
    {
        "Postcode": "40100",
        "Location": "Jalan Tengku Musa Ghiatudin 9/10",
        "Post_Office": "Shah Alam",
        "State": "Selangor"
    },
    {
        "Postcode": "40100",
        "Location": "Jalan Tengku Permaisuri Mastura  B 9/14B",
        "Post_Office": "Shah Alam",
        "State": "Selangor"
    },
    {
        "Postcode": "40100",
        "Location": "Jalan Tengku Permaisuri Mastura 9/14",
        "Post_Office": "Shah Alam",
        "State": "Selangor"
    },
    {
        "Postcode": "40100",
        "Location": "Jalan Tenis 13/44",
        "Post_Office": "Shah Alam",
        "State": "Selangor"
    },
    {
        "Postcode": "40100",
        "Location": "Jalan Tepak 11/8",
        "Post_Office": "Shah Alam",
        "State": "Selangor"
    },
    {
        "Postcode": "40100",
        "Location": "Jalan Tinju 13/50",
        "Post_Office": "Shah Alam",
        "State": "Selangor"
    },
    {
        "Postcode": "40100",
        "Location": "Jalan Tukul Besi 13/41",
        "Post_Office": "Shah Alam",
        "State": "Selangor"
    },
    {
        "Postcode": "40100",
        "Location": "Jalan Wau 11/1",
        "Post_Office": "Shah Alam",
        "State": "Selangor"
    },
    {
        "Postcode": "40100",
        "Location": "Jalan Wau A 11/1A",
        "Post_Office": "Shah Alam",
        "State": "Selangor"
    },
    {
        "Postcode": "40100",
        "Location": "Jalan Wau B 11/1B",
        "Post_Office": "Shah Alam",
        "State": "Selangor"
    },
    {
        "Postcode": "40100",
        "Location": "Jalan Wau C 11/C",
        "Post_Office": "Shah Alam",
        "State": "Selangor"
    },
    {
        "Postcode": "40100",
        "Location": "Jalan Wau D 11/D",
        "Post_Office": "Shah Alam",
        "State": "Selangor"
    },
    {
        "Postcode": "40100",
        "Location": "Jalan Wu Shu 13/49",
        "Post_Office": "Shah Alam",
        "State": "Selangor"
    },
    {
        "Postcode": "40100",
        "Location": "Jalan Yoga 13/42",
        "Post_Office": "Shah Alam",
        "State": "Selangor"
    },
    {
        "Postcode": "40100",
        "Location": "Jalan Zapin 11/2B",
        "Post_Office": "Shah Alam",
        "State": "Selangor"
    },
    {
        "Postcode": "40100",
        "Location": "Kelab Golf Sultan Salahuddin Abdul Aziz",
        "Post_Office": "Shah Alam",
        "State": "Selangor"
    },
    {
        "Postcode": "40100",
        "Location": "Persiaran Akuatik",
        "Post_Office": "Shah Alam",
        "State": "Selangor"
    },
    {
        "Postcode": "40100",
        "Location": "Persiaran Damai",
        "Post_Office": "Shah Alam",
        "State": "Selangor"
    },
    {
        "Postcode": "40100",
        "Location": "Persiaran Masjid",
        "Post_Office": "Shah Alam",
        "State": "Selangor"
    },
    {
        "Postcode": "40100",
        "Location": "Persiaran Perbandaran",
        "Post_Office": "Shah Alam",
        "State": "Selangor"
    },
    {
        "Postcode": "40100",
        "Location": "Persiaran Seksyen 9",
        "Post_Office": "Shah Alam",
        "State": "Selangor"
    }
]
