[
    {
        "Postcode": "40150",
        "Location": "Jalan Adang U8/16",
        "Post_Office": "Shah Alam",
        "State": "Selangor"
    },
    {
        "Postcode": "40150",
        "Location": "Jalan Adang U8/17",
        "Post_Office": "Shah Alam",
        "State": "Selangor"
    },
    {
        "Postcode": "40150",
        "Location": "Jalan Adang U8/18",
        "Post_Office": "Shah Alam",
        "State": "Selangor"
    },
    {
        "Postcode": "40150",
        "Location": "Jalan Alfa A U6/A",
        "Post_Office": "Shah Alam",
        "State": "Selangor"
    },
    {
        "Postcode": "40150",
        "Location": "Jalan Alfa B U6/B",
        "Post_Office": "Shah Alam",
        "State": "Selangor"
    },
    {
        "Postcode": "40150",
        "Location": "Jalan Alfa C U6/C",
        "Post_Office": "Shah Alam",
        "State": "Selangor"
    },
    {
        "Postcode": "40150",
        "Location": "Jalan Alfa D U6/D",
        "Post_Office": "Shah Alam",
        "State": "Selangor"
    },
    {
        "Postcode": "40150",
        "Location": "Jalan Alfa E U6/E",
        "Post_Office": "Shah Alam",
        "State": "Selangor"
    },
    {
        "Postcode": "40150",
        "Location": "Jalan Anjung U8/34",
        "Post_Office": "Shah Alam",
        "State": "Selangor"
    },
    {
        "Postcode": "40150",
        "Location": "Jalan Anjung U8/34A",
        "Post_Office": "Shah Alam",
        "State": "Selangor"
    },
    {
        "Postcode": "40150",
        "Location": "Jalan Anjung U8/34B",
        "Post_Office": "Shah Alam",
        "State": "Selangor"
    },
    {
        "Postcode": "40150",
        "Location": "Jalan Anjung U8/34C",
        "Post_Office": "Shah Alam",
        "State": "Selangor"
    },
    {
        "Postcode": "40150",
        "Location": "Jalan Anjung U8/34D",
        "Post_Office": "Shah Alam",
        "State": "Selangor"
    },
    {
        "Postcode": "40150",
        "Location": "Jalan Anjung U8/35",
        "Post_Office": "Shah Alam",
        "State": "Selangor"
    },
    {
        "Postcode": "40150",
        "Location": "Jalan Apolio U5/185",
        "Post_Office": "Shah Alam",
        "State": "Selangor"
    },
    {
        "Postcode": "40150",
        "Location": "Jalan Apolio U5/186",
        "Post_Office": "Shah Alam",
        "State": "Selangor"
    },
    {
        "Postcode": "40150",
        "Location": "Jalan Apolio U5/187",
        "Post_Office": "Shah Alam",
        "State": "Selangor"
    },
    {
        "Postcode": "40150",
        "Location": "Jalan Apolio U5/188",
        "Post_Office": "Shah Alam",
        "State": "Selangor"
    },
    {
        "Postcode": "40150",
        "Location": "Jalan Apolio U5/189",
        "Post_Office": "Shah Alam",
        "State": "Selangor"
    },
    {
        "Postcode": "40150",
        "Location": "Jalan Apolio U5/190",
        "Post_Office": "Shah Alam",
        "State": "Selangor"
    },
    {
        "Postcode": "40150",
        "Location": "Jalan Apolio U5/191",
        "Post_Office": "Shah Alam",
        "State": "Selangor"
    },
    {
        "Postcode": "40150",
        "Location": "Jalan Apolio U5/192",
        "Post_Office": "Shah Alam",
        "State": "Selangor"
    },
    {
        "Postcode": "40150",
        "Location": "Jalan Apolio U5/193",
        "Post_Office": "Shah Alam",
        "State": "Selangor"
    },
    {
        "Postcode": "40150",
        "Location": "Jalan Apolio U5/194",
        "Post_Office": "Shah Alam",
        "State": "Selangor"
    },
    {
        "Postcode": "40150",
        "Location": "Jalan Apolio U5/195",
        "Post_Office": "Shah Alam",
        "State": "Selangor"
    },
    {
        "Postcode": "40150",
        "Location": "Jalan Apolio U5/196",
        "Post_Office": "Shah Alam",
        "State": "Selangor"
    },
    {
        "Postcode": "40150",
        "Location": "Jalan Apolio U5/197",
        "Post_Office": "Shah Alam",
        "State": "Selangor"
    },
    {
        "Postcode": "40150",
        "Location": "Jalan Apolio U5/198",
        "Post_Office": "Shah Alam",
        "State": "Selangor"
    },
    {
        "Postcode": "40150",
        "Location": "Jalan Arca U8/77",
        "Post_Office": "Shah Alam",
        "State": "Selangor"
    },
    {
        "Postcode": "40150",
        "Location": "Jalan Arca U8/78",
        "Post_Office": "Shah Alam",
        "State": "Selangor"
    },
    {
        "Postcode": "40150",
        "Location": "Jalan Arca U8/79",
        "Post_Office": "Shah Alam",
        "State": "Selangor"
    },
    {
        "Postcode": "40150",
        "Location": "Jalan Arca U8/80",
        "Post_Office": "Shah Alam",
        "State": "Selangor"
    },
    {
        "Postcode": "40150",
        "Location": "Jalan Astaka U8/81",
        "Post_Office": "Shah Alam",
        "State": "Selangor"
    },
    {
        "Postcode": "40150",
        "Location": "Jalan Astaka U8/82",
        "Post_Office": "Shah Alam",
        "State": "Selangor"
    },
    {
        "Postcode": "40150",
        "Location": "Jalan Astaka U8/83",
        "Post_Office": "Shah Alam",
        "State": "Selangor"
    },
    {
        "Postcode": "40150",
        "Location": "Jalan Astaka U8/84",
        "Post_Office": "Shah Alam",
        "State": "Selangor"
    },
    {
        "Postcode": "40150",
        "Location": "Jalan Astaka U8/85",
        "Post_Office": "Shah Alam",
        "State": "Selangor"
    },
    {
        "Postcode": "40150",
        "Location": "Jalan Astaka U8/86",
        "Post_Office": "Shah Alam",
        "State": "Selangor"
    },
    {
        "Postcode": "40150",
        "Location": "Jalan Astaka U8/87",
        "Post_Office": "Shah Alam",
        "State": "Selangor"
    },
    {
        "Postcode": "40150",
        "Location": "Jalan Astaka U8/88",
        "Post_Office": "Shah Alam",
        "State": "Selangor"
    },
    {
        "Postcode": "40150",
        "Location": "Jalan Asteroid U5/30",
        "Post_Office": "Shah Alam",
        "State": "Selangor"
    },
    {
        "Postcode": "40150",
        "Location": "Jalan Asteroid U5/30A",
        "Post_Office": "Shah Alam",
        "State": "Selangor"
    },
    {
        "Postcode": "40150",
        "Location": "Jalan Asteroid U5/30B",
        "Post_Office": "Shah Alam",
        "State": "Selangor"
    },
    {
        "Postcode": "40150",
        "Location": "Jalan Asteroid U5/30C",
        "Post_Office": "Shah Alam",
        "State": "Selangor"
    },
    {
        "Postcode": "40150",
        "Location": "Jalan Asteroid U5/30D",
        "Post_Office": "Shah Alam",
        "State": "Selangor"
    },
    {
        "Postcode": "40150",
        "Location": "Jalan Asteroid U5/30E",
        "Post_Office": "Shah Alam",
        "State": "Selangor"
    },
    {
        "Postcode": "40150",
        "Location": "Jalan Asteroid U5/31",
        "Post_Office": "Shah Alam",
        "State": "Selangor"
    },
    {
        "Postcode": "40150",
        "Location": "Jalan Asteroid U5/32",
        "Post_Office": "Shah Alam",
        "State": "Selangor"
    },
    {
        "Postcode": "40150",
        "Location": "Jalan Awan Larat U8/74A",
        "Post_Office": "Shah Alam",
        "State": "Selangor"
    },
    {
        "Postcode": "40150",
        "Location": "Jalan Awan Larat U8/74B",
        "Post_Office": "Shah Alam",
        "State": "Selangor"
    },
    {
        "Postcode": "40150",
        "Location": "Jalan Awan Larat U8/74C",
        "Post_Office": "Shah Alam",
        "State": "Selangor"
    },
    {
        "Postcode": "40150",
        "Location": "Jalan Awan Larat U8/74D",
        "Post_Office": "Shah Alam",
        "State": "Selangor"
    },
    {
        "Postcode": "40150",
        "Location": "Jalan Awan Larat U8/74E",
        "Post_Office": "Shah Alam",
        "State": "Selangor"
    },
    {
        "Postcode": "40150",
        "Location": "Jalan Awan Larat U8/74F",
        "Post_Office": "Shah Alam",
        "State": "Selangor"
    },
    {
        "Postcode": "40150",
        "Location": "Jalan Bazar U8/100",
        "Post_Office": "Shah Alam",
        "State": "Selangor"
    },
    {
        "Postcode": "40150",
        "Location": "Jalan Bazar U8/101",
        "Post_Office": "Shah Alam",
        "State": "Selangor"
    },
    {
        "Postcode": "40150",
        "Location": "Jalan Bazar U8/98",
        "Post_Office": "Shah Alam",
        "State": "Selangor"
    },
    {
        "Postcode": "40150",
        "Location": "Jalan Bazar U8/99",
        "Post_Office": "Shah Alam",
        "State": "Selangor"
    },
    {
        "Postcode": "40150",
        "Location": "Jalan Bidai U8/13A ",
        "Post_Office": "Shah Alam",
        "State": "Selangor"
    },
    {
        "Postcode": "40150",
        "Location": "Jalan Bidai U8/13B",
        "Post_Office": "Shah Alam",
        "State": "Selangor"
    },
    {
        "Postcode": "40150",
        "Location": "Jalan Bidai U8/13C ",
        "Post_Office": "Shah Alam",
        "State": "Selangor"
    },
    {
        "Postcode": "40150",
        "Location": "Jalan Bidai U8/13D",
        "Post_Office": "Shah Alam",
        "State": "Selangor"
    },
    {
        "Postcode": "40150",
        "Location": "Jalan Bidai U8/13E",
        "Post_Office": "Shah Alam",
        "State": "Selangor"
    },
    {
        "Postcode": "40150",
        "Location": "Jalan Bidai U8/13F",
        "Post_Office": "Shah Alam",
        "State": "Selangor"
    },
    {
        "Postcode": "40150",
        "Location": "Jalan Bidai U8/22",
        "Post_Office": "Shah Alam",
        "State": "Selangor"
    },
    {
        "Postcode": "40150",
        "Location": "Jalan Bidai U8/22A",
        "Post_Office": "Shah Alam",
        "State": "Selangor"
    },
    {
        "Postcode": "40150",
        "Location": "Jalan Bidai U8/22B",
        "Post_Office": "Shah Alam",
        "State": "Selangor"
    },
    {
        "Postcode": "40150",
        "Location": "Jalan Bidai U8/22C",
        "Post_Office": "Shah Alam",
        "State": "Selangor"
    },
    {
        "Postcode": "40150",
        "Location": "Jalan Bidai U8/23",
        "Post_Office": "Shah Alam",
        "State": "Selangor"
    },
    {
        "Postcode": "40150",
        "Location": "Jalan Birai U8/65",
        "Post_Office": "Shah Alam",
        "State": "Selangor"
    },
    {
        "Postcode": "40150",
        "Location": "Jalan Birai U8/66",
        "Post_Office": "Shah Alam",
        "State": "Selangor"
    },
    {
        "Postcode": "40150",
        "Location": "Jalan Birai U8/67",
        "Post_Office": "Shah Alam",
        "State": "Selangor"
    },
    {
        "Postcode": "40150",
        "Location": "Jalan Birai U8/68",
        "Post_Office": "Shah Alam",
        "State": "Selangor"
    },
    {
        "Postcode": "40150",
        "Location": "Jalan Birai U8/69",
        "Post_Office": "Shah Alam",
        "State": "Selangor"
    },
    {
        "Postcode": "40150",
        "Location": "Jalan Birai U8/70",
        "Post_Office": "Shah Alam",
        "State": "Selangor"
    },
    {
        "Postcode": "40150",
        "Location": "Jalan Birai U8/71",
        "Post_Office": "Shah Alam",
        "State": "Selangor"
    },
    {
        "Postcode": "40150",
        "Location": "Jalan Birai U8/72",
        "Post_Office": "Shah Alam",
        "State": "Selangor"
    },
    {
        "Postcode": "40150",
        "Location": "Jalan Bulan U5/163",
        "Post_Office": "Shah Alam",
        "State": "Selangor"
    },
    {
        "Postcode": "40150",
        "Location": "Jalan Bulan U5/164",
        "Post_Office": "Shah Alam",
        "State": "Selangor"
    },
    {
        "Postcode": "40150",
        "Location": "Jalan Bulan U5/165",
        "Post_Office": "Shah Alam",
        "State": "Selangor"
    },
    {
        "Postcode": "40150",
        "Location": "Jalan Bulan U5/166",
        "Post_Office": "Shah Alam",
        "State": "Selangor"
    },
    {
        "Postcode": "40150",
        "Location": "Jalan Bulan U5/167",
        "Post_Office": "Shah Alam",
        "State": "Selangor"
    },
    {
        "Postcode": "40150",
        "Location": "Jalan Bulan U5/168",
        "Post_Office": "Shah Alam",
        "State": "Selangor"
    },
    {
        "Postcode": "40150",
        "Location": "Jalan Bulan U5/169",
        "Post_Office": "Shah Alam",
        "State": "Selangor"
    },
    {
        "Postcode": "40150",
        "Location": "Jalan Bulan U5/170",
        "Post_Office": "Shah Alam",
        "State": "Selangor"
    },
    {
        "Postcode": "40150",
        "Location": "Jalan Bulan U5/171",
        "Post_Office": "Shah Alam",
        "State": "Selangor"
    },
    {
        "Postcode": "40150",
        "Location": "Jalan Bulan U5/172",
        "Post_Office": "Shah Alam",
        "State": "Selangor"
    },
    {
        "Postcode": "40150",
        "Location": "Jalan Bulan U5/173",
        "Post_Office": "Shah Alam",
        "State": "Selangor"
    },
    {
        "Postcode": "40150",
        "Location": "Jalan Dalwu U5/98",
        "Post_Office": "Shah Alam",
        "State": "Selangor"
    },
    {
        "Postcode": "40150",
        "Location": "Jalan Dalwu U5/99",
        "Post_Office": "Shah Alam",
        "State": "Selangor"
    },
    {
        "Postcode": "40150",
        "Location": "Jalan Dinar A U3/A",
        "Post_Office": "Shah Alam",
        "State": "Selangor"
    },
    {
        "Postcode": "40150",
        "Location": "Jalan Dinar A U3/B",
        "Post_Office": "Shah Alam",
        "State": "Selangor"
    },
    {
        "Postcode": "40150",
        "Location": "Jalan Dinar A U3/C",
        "Post_Office": "Shah Alam",
        "State": "Selangor"
    },
    {
        "Postcode": "40150",
        "Location": "Jalan Dinar A U3/D",
        "Post_Office": "Shah Alam",
        "State": "Selangor"
    },
    {
        "Postcode": "40150",
        "Location": "Jalan Dinar A U3/E",
        "Post_Office": "Shah Alam",
        "State": "Selangor"
    },
    {
        "Postcode": "40150",
        "Location": "Jalan Dinar A U3/F",
        "Post_Office": "Shah Alam",
        "State": "Selangor"
    },
    {
        "Postcode": "40150",
        "Location": "Jalan Dinar A U3/G",
        "Post_Office": "Shah Alam",
        "State": "Selangor"
    },
    {
        "Postcode": "40150",
        "Location": "Jalan Dinar U3/1",
        "Post_Office": "Shah Alam",
        "State": "Selangor"
    },
    {
        "Postcode": "40150",
        "Location": "Jalan Dinar U3/2",
        "Post_Office": "Shah Alam",
        "State": "Selangor"
    },
    {
        "Postcode": "40150",
        "Location": "Jalan Dirham C U3/10",
        "Post_Office": "Shah Alam",
        "State": "Selangor"
    },
    {
        "Postcode": "40150",
        "Location": "Jalan Dirham C U3/11",
        "Post_Office": "Shah Alam",
        "State": "Selangor"
    },
    {
        "Postcode": "40150",
        "Location": "Jalan Dirham C U3/12",
        "Post_Office": "Shah Alam",
        "State": "Selangor"
    },
    {
        "Postcode": "40150",
        "Location": "Jalan Dirham C U3/13",
        "Post_Office": "Shah Alam",
        "State": "Selangor"
    },
    {
        "Postcode": "40150",
        "Location": "Jalan Dirham C U3/14",
        "Post_Office": "Shah Alam",
        "State": "Selangor"
    },
    {
        "Postcode": "40150",
        "Location": "Jalan Dirham C U3/15",
        "Post_Office": "Shah Alam",
        "State": "Selangor"
    },
    {
        "Postcode": "40150",
        "Location": "Jalan Dirham C U3/16",
        "Post_Office": "Shah Alam",
        "State": "Selangor"
    },
    {
        "Postcode": "40150",
        "Location": "Jalan Dirham C U3/3",
        "Post_Office": "Shah Alam",
        "State": "Selangor"
    },
    {
        "Postcode": "40150",
        "Location": "Jalan Dirham C U3/4",
        "Post_Office": "Shah Alam",
        "State": "Selangor"
    },
    {
        "Postcode": "40150",
        "Location": "Jalan Dirham C U3/5",
        "Post_Office": "Shah Alam",
        "State": "Selangor"
    },
    {
        "Postcode": "40150",
        "Location": "Jalan Dirham C U3/6",
        "Post_Office": "Shah Alam",
        "State": "Selangor"
    },
    {
        "Postcode": "40150",
        "Location": "Jalan Dirham C U3/7",
        "Post_Office": "Shah Alam",
        "State": "Selangor"
    },
    {
        "Postcode": "40150",
        "Location": "Jalan Dirham C U3/8",
        "Post_Office": "Shah Alam",
        "State": "Selangor"
    },
    {
        "Postcode": "40150",
        "Location": "Jalan Dirham C U3/9",
        "Post_Office": "Shah Alam",
        "State": "Selangor"
    },
    {
        "Postcode": "40150",
        "Location": "Jalan Esei Dua U2/41B",
        "Post_Office": "Shah Alam",
        "State": "Selangor"
    },
    {
        "Postcode": "40150",
        "Location": "Jalan Esei Satu U2/41A",
        "Post_Office": "Shah Alam",
        "State": "Selangor"
    },
    {
        "Postcode": "40150",
        "Location": "Jalan Esei Tiga U2/41C",
        "Post_Office": "Shah Alam",
        "State": "Selangor"
    },
    {
        "Postcode": "40150",
        "Location": "Jalan Fatwa Dua U2/46B",
        "Post_Office": "Shah Alam",
        "State": "Selangor"
    },
    {
        "Postcode": "40150",
        "Location": "Jalan Fatwa Empat U2/46D",
        "Post_Office": "Shah Alam",
        "State": "Selangor"
    },
    {
        "Postcode": "40150",
        "Location": "Jalan Fatwa Lima U2/46E",
        "Post_Office": "Shah Alam",
        "State": "Selangor"
    },
    {
        "Postcode": "40150",
        "Location": "Jalan Fatwa Satu U2/46A",
        "Post_Office": "Shah Alam",
        "State": "Selangor"
    },
    {
        "Postcode": "40150",
        "Location": "Jalan Fatwa Tiga U2/46C",
        "Post_Office": "Shah Alam",
        "State": "Selangor"
    },
    {
        "Postcode": "40150",
        "Location": "Jalan Jendela U8/20A",
        "Post_Office": "Shah Alam",
        "State": "Selangor"
    },
    {
        "Postcode": "40150",
        "Location": "Jalan Jendela U8/20B",
        "Post_Office": "Shah Alam",
        "State": "Selangor"
    },
    {
        "Postcode": "40150",
        "Location": "Jalan Jendela U8/20C",
        "Post_Office": "Shah Alam",
        "State": "Selangor"
    },
    {
        "Postcode": "40150",
        "Location": "Jalan Jeriji U8/75",
        "Post_Office": "Shah Alam",
        "State": "Selangor"
    },
    {
        "Postcode": "40150",
        "Location": "Jalan Jeriji U8/75A",
        "Post_Office": "Shah Alam",
        "State": "Selangor"
    },
    {
        "Postcode": "40150",
        "Location": "Jalan Jeriji U8/75B",
        "Post_Office": "Shah Alam",
        "State": "Selangor"
    },
    {
        "Postcode": "40150",
        "Location": "Jalan Jeriji U8/75C",
        "Post_Office": "Shah Alam",
        "State": "Selangor"
    },
    {
        "Postcode": "40150",
        "Location": "Jalan Jeriji U8/75D",
        "Post_Office": "Shah Alam",
        "State": "Selangor"
    },
    {
        "Postcode": "40150",
        "Location": "Jalan Jeriji U8/76",
        "Post_Office": "Shah Alam",
        "State": "Selangor"
    },
    {
        "Postcode": "40150",
        "Location": "Jalan Jeriji U8/76A",
        "Post_Office": "Shah Alam",
        "State": "Selangor"
    },
    {
        "Postcode": "40150",
        "Location": "Jalan Jeriji U8/76B",
        "Post_Office": "Shah Alam",
        "State": "Selangor"
    },
    {
        "Postcode": "40150",
        "Location": "Jalan Jeriji U8/76C",
        "Post_Office": "Shah Alam",
        "State": "Selangor"
    },
    {
        "Postcode": "40150",
        "Location": "Jalan Jingga U9/39",
        "Post_Office": "Shah Alam",
        "State": "Selangor"
    },
    {
        "Postcode": "40150",
        "Location": "Jalan Jingga U9/40",
        "Post_Office": "Shah Alam",
        "State": "Selangor"
    },
    {
        "Postcode": "40150",
        "Location": "Jalan Jingga U9/40A",
        "Post_Office": "Shah Alam",
        "State": "Selangor"
    },
    {
        "Postcode": "40150",
        "Location": "Jalan Jingga U9/40B",
        "Post_Office": "Shah Alam",
        "State": "Selangor"
    },
    {
        "Postcode": "40150",
        "Location": "Jalan Jingga U9/41",
        "Post_Office": "Shah Alam",
        "State": "Selangor"
    },
    {
        "Postcode": "40150",
        "Location": "Jalan Kejora U5/118",
        "Post_Office": "Shah Alam",
        "State": "Selangor"
    },
    {
        "Postcode": "40150",
        "Location": "Jalan Kejora U5/119",
        "Post_Office": "Shah Alam",
        "State": "Selangor"
    },
    {
        "Postcode": "40150",
        "Location": "Jalan Kejora U5/120",
        "Post_Office": "Shah Alam",
        "State": "Selangor"
    },
    {
        "Postcode": "40150",
        "Location": "Jalan Kejora U5/120A",
        "Post_Office": "Shah Alam",
        "State": "Selangor"
    },
    {
        "Postcode": "40150",
        "Location": "Jalan Kejora U5/120B",
        "Post_Office": "Shah Alam",
        "State": "Selangor"
    },
    {
        "Postcode": "40150",
        "Location": "Jalan Kejora U5/120C",
        "Post_Office": "Shah Alam",
        "State": "Selangor"
    },
    {
        "Postcode": "40150",
        "Location": "Jalan Kejora U5/120D",
        "Post_Office": "Shah Alam",
        "State": "Selangor"
    },
    {
        "Postcode": "40150",
        "Location": "Jalan Kejora U5/120E",
        "Post_Office": "Shah Alam",
        "State": "Selangor"
    },
    {
        "Postcode": "40150",
        "Location": "Jalan Kejora U5/120F",
        "Post_Office": "Shah Alam",
        "State": "Selangor"
    },
    {
        "Postcode": "40150",
        "Location": "Jalan Kejora U5/121",
        "Post_Office": "Shah Alam",
        "State": "Selangor"
    },
    {
        "Postcode": "40150",
        "Location": "Jalan Kubah U8/48",
        "Post_Office": "Shah Alam",
        "State": "Selangor"
    },
    {
        "Postcode": "40150",
        "Location": "Jalan Kubah U8/48A",
        "Post_Office": "Shah Alam",
        "State": "Selangor"
    },
    {
        "Postcode": "40150",
        "Location": "Jalan Kubah U8/48B",
        "Post_Office": "Shah Alam",
        "State": "Selangor"
    },
    {
        "Postcode": "40150",
        "Location": "Jalan Kubah U8/48C",
        "Post_Office": "Shah Alam",
        "State": "Selangor"
    },
    {
        "Postcode": "40150",
        "Location": "Jalan Kubah U8/48D",
        "Post_Office": "Shah Alam",
        "State": "Selangor"
    },
    {
        "Postcode": "40150",
        "Location": "Jalan Kubah U8/48E",
        "Post_Office": "Shah Alam",
        "State": "Selangor"
    },
    {
        "Postcode": "40150",
        "Location": "Jalan Kubah U8/48F",
        "Post_Office": "Shah Alam",
        "State": "Selangor"
    },
    {
        "Postcode": "40150",
        "Location": "Jalan Kubah U8/49",
        "Post_Office": "Shah Alam",
        "State": "Selangor"
    },
    {
        "Postcode": "40150",
        "Location": "Jalan Kubah U8/50",
        "Post_Office": "Shah Alam",
        "State": "Selangor"
    },
    {
        "Postcode": "40150",
        "Location": "Jalan Kubah U8/51",
        "Post_Office": "Shah Alam",
        "State": "Selangor"
    },
    {
        "Postcode": "40150",
        "Location": "Jalan Kubah U8/52",
        "Post_Office": "Shah Alam",
        "State": "Selangor"
    },
    {
        "Postcode": "40150",
        "Location": "Jalan Kubah U8/53",
        "Post_Office": "Shah Alam",
        "State": "Selangor"
    },
    {
        "Postcode": "40150",
        "Location": "Jalan Kubah U8/54",
        "Post_Office": "Shah Alam",
        "State": "Selangor"
    },
    {
        "Postcode": "40150",
        "Location": "Jalan Kubah U8/55",
        "Post_Office": "Shah Alam",
        "State": "Selangor"
    },
    {
        "Postcode": "40150",
        "Location": "Jalan Kubah U8/55A",
        "Post_Office": "Shah Alam",
        "State": "Selangor"
    },
    {
        "Postcode": "40150",
        "Location": "Jalan Kubah U8/56",
        "Post_Office": "Shah Alam",
        "State": "Selangor"
    },
    {
        "Postcode": "40150",
        "Location": "Jalan Kubah U8/57",
        "Post_Office": "Shah Alam",
        "State": "Selangor"
    },
    {
        "Postcode": "40150",
        "Location": "Jalan Kubah U8/57A",
        "Post_Office": "Shah Alam",
        "State": "Selangor"
    },
    {
        "Postcode": "40150",
        "Location": "Jalan Kubah U8/58",
        "Post_Office": "Shah Alam",
        "State": "Selangor"
    },
    {
        "Postcode": "40150",
        "Location": "Jalan Kubah U8/59",
        "Post_Office": "Shah Alam",
        "State": "Selangor"
    },
    {
        "Postcode": "40150",
        "Location": "Jalan Kubah U8/60",
        "Post_Office": "Shah Alam",
        "State": "Selangor"
    },
    {
        "Postcode": "40150",
        "Location": "Jalan Kubah U8/61",
        "Post_Office": "Shah Alam",
        "State": "Selangor"
    },
    {
        "Postcode": "40150",
        "Location": "Jalan Kubah U8/62",
        "Post_Office": "Shah Alam",
        "State": "Selangor"
    },
    {
        "Postcode": "40150",
        "Location": "Jalan Kubah U8/63",
        "Post_Office": "Shah Alam",
        "State": "Selangor"
    },
    {
        "Postcode": "40150",
        "Location": "Jalan Kubah U8/64",
        "Post_Office": "Shah Alam",
        "State": "Selangor"
    },
    {
        "Postcode": "40150",
        "Location": "Jalan Menara U8/10",
        "Post_Office": "Shah Alam",
        "State": "Selangor"
    },
    {
        "Postcode": "40150",
        "Location": "Jalan Menara U8/4",
        "Post_Office": "Shah Alam",
        "State": "Selangor"
    },
    {
        "Postcode": "40150",
        "Location": "Jalan Menara U8/5",
        "Post_Office": "Shah Alam",
        "State": "Selangor"
    },
    {
        "Postcode": "40150",
        "Location": "Jalan Menara U8/6",
        "Post_Office": "Shah Alam",
        "State": "Selangor"
    },
    {
        "Postcode": "40150",
        "Location": "Jalan Menara U8/7",
        "Post_Office": "Shah Alam",
        "State": "Selangor"
    },
    {
        "Postcode": "40150",
        "Location": "Jalan Menara U8/8",
        "Post_Office": "Shah Alam",
        "State": "Selangor"
    },
    {
        "Postcode": "40150",
        "Location": "Jalan Menara U8/9",
        "Post_Office": "Shah Alam",
        "State": "Selangor"
    },
    {
        "Postcode": "40150",
        "Location": "Jalan Mihrab U8/11",
        "Post_Office": "Shah Alam",
        "State": "Selangor"
    },
    {
        "Postcode": "40150",
        "Location": "Jalan Mihrab U8/12",
        "Post_Office": "Shah Alam",
        "State": "Selangor"
    },
    {
        "Postcode": "40150",
        "Location": "Jalan Mihrab U8/12A",
        "Post_Office": "Shah Alam",
        "State": "Selangor"
    },
    {
        "Postcode": "40150",
        "Location": "Jalan Mihrab U8/12B",
        "Post_Office": "Shah Alam",
        "State": "Selangor"
    },
    {
        "Postcode": "40150",
        "Location": "Jalan Mihrab U8/12C",
        "Post_Office": "Shah Alam",
        "State": "Selangor"
    },
    {
        "Postcode": "40150",
        "Location": "Jalan Mihrab U8/12D",
        "Post_Office": "Shah Alam",
        "State": "Selangor"
    },
    {
        "Postcode": "40150",
        "Location": "Jalan Mihrab U8/12E",
        "Post_Office": "Shah Alam",
        "State": "Selangor"
    },
    {
        "Postcode": "40150",
        "Location": "Jalan Mihrab U8/12F",
        "Post_Office": "Shah Alam",
        "State": "Selangor"
    },
    {
        "Postcode": "40150",
        "Location": "Jalan Mimbar U8/14",
        "Post_Office": "Shah Alam",
        "State": "Selangor"
    },
    {
        "Postcode": "40150",
        "Location": "Jalan Mimbar U8/15",
        "Post_Office": "Shah Alam",
        "State": "Selangor"
    },
    {
        "Postcode": "40150",
        "Location": "Jalan Mimbar U8/2",
        "Post_Office": "Shah Alam",
        "State": "Selangor"
    },
    {
        "Postcode": "40150",
        "Location": "Jalan Mimbar U8/2A",
        "Post_Office": "Shah Alam",
        "State": "Selangor"
    },
    {
        "Postcode": "40150",
        "Location": "Jalan Mimbar U8/2B",
        "Post_Office": "Shah Alam",
        "State": "Selangor"
    },
    {
        "Postcode": "40150",
        "Location": "Jalan Musytari U5/127",
        "Post_Office": "Shah Alam",
        "State": "Selangor"
    },
    {
        "Postcode": "40150",
        "Location": "Jalan Musytari U5/128",
        "Post_Office": "Shah Alam",
        "State": "Selangor"
    },
    {
        "Postcode": "40150",
        "Location": "Jalan Musytari U5/128A",
        "Post_Office": "Shah Alam",
        "State": "Selangor"
    },
    {
        "Postcode": "40150",
        "Location": "Jalan Musytari U5/128B",
        "Post_Office": "Shah Alam",
        "State": "Selangor"
    },
    {
        "Postcode": "40150",
        "Location": "Jalan Musytari U5/128C",
        "Post_Office": "Shah Alam",
        "State": "Selangor"
    },
    {
        "Postcode": "40150",
        "Location": "Jalan Musytari U5/128D",
        "Post_Office": "Shah Alam",
        "State": "Selangor"
    },
    {
        "Postcode": "40150",
        "Location": "Jalan Musytari U5/129",
        "Post_Office": "Shah Alam",
        "State": "Selangor"
    },
    {
        "Postcode": "40150",
        "Location": "Jalan Musytari U5/130",
        "Post_Office": "Shah Alam",
        "State": "Selangor"
    },
    {
        "Postcode": "40150",
        "Location": "Jalan Naira U3/32",
        "Post_Office": "Shah Alam",
        "State": "Selangor"
    },
    {
        "Postcode": "40150",
        "Location": "Jalan Naira U3/33",
        "Post_Office": "Shah Alam",
        "State": "Selangor"
    },
    {
        "Postcode": "40150",
        "Location": "Jalan Naira U3/34",
        "Post_Office": "Shah Alam",
        "State": "Selangor"
    },
    {
        "Postcode": "40150",
        "Location": "Jalan Naira U3/35",
        "Post_Office": "Shah Alam",
        "State": "Selangor"
    },
    {
        "Postcode": "40150",
        "Location": "Jalan Nova U5/46",
        "Post_Office": "Shah Alam",
        "State": "Selangor"
    },
    {
        "Postcode": "40150",
        "Location": "Jalan Nova U5/47",
        "Post_Office": "Shah Alam",
        "State": "Selangor"
    },
    {
        "Postcode": "40150",
        "Location": "Jalan Nova U5/48",
        "Post_Office": "Shah Alam",
        "State": "Selangor"
    },
    {
        "Postcode": "40150",
        "Location": "Jalan Nova U5/49",
        "Post_Office": "Shah Alam",
        "State": "Selangor"
    },
    {
        "Postcode": "40150",
        "Location": "Jalan Nova U5/50",
        "Post_Office": "Shah Alam",
        "State": "Selangor"
    },
    {
        "Postcode": "40150",
        "Location": "Jalan Nova U5/51",
        "Post_Office": "Shah Alam",
        "State": "Selangor"
    },
    {
        "Postcode": "40150",
        "Location": "Jalan Nova U5/52",
        "Post_Office": "Shah Alam",
        "State": "Selangor"
    },
    {
        "Postcode": "40150",
        "Location": "Jalan Nova U5/53",
        "Post_Office": "Shah Alam",
        "State": "Selangor"
    },
    {
        "Postcode": "40150",
        "Location": "Jalan Nova U5/54",
        "Post_Office": "Shah Alam",
        "State": "Selangor"
    },
    {
        "Postcode": "40150",
        "Location": "Jalan Nova U5/55",
        "Post_Office": "Shah Alam",
        "State": "Selangor"
    },
    {
        "Postcode": "40150",
        "Location": "Jalan Nova U5/56",
        "Post_Office": "Shah Alam",
        "State": "Selangor"
    },
    {
        "Postcode": "40150",
        "Location": "Jalan Nova U5/57",
        "Post_Office": "Shah Alam",
        "State": "Selangor"
    },
    {
        "Postcode": "40150",
        "Location": "Jalan Nova U5/58",
        "Post_Office": "Shah Alam",
        "State": "Selangor"
    },
    {
        "Postcode": "40150",
        "Location": "Jalan Nova U5/60",
        "Post_Office": "Shah Alam",
        "State": "Selangor"
    },
    {
        "Postcode": "40150",
        "Location": "Jalan Nova U5/61",
        "Post_Office": "Shah Alam",
        "State": "Selangor"
    },
    {
        "Postcode": "40150",
        "Location": "Jalan Nova U5/62",
        "Post_Office": "Shah Alam",
        "State": "Selangor"
    },
    {
        "Postcode": "40150",
        "Location": "Jalan Nova U5/63",
        "Post_Office": "Shah Alam",
        "State": "Selangor"
    },
    {
        "Postcode": "40150",
        "Location": "Jalan Nova U5/64",
        "Post_Office": "Shah Alam",
        "State": "Selangor"
    },
    {
        "Postcode": "40150",
        "Location": "Jalan Nova U5/65",
        "Post_Office": "Shah Alam",
        "State": "Selangor"
    },
    {
        "Postcode": "40150",
        "Location": "Jalan Nova U5/66",
        "Post_Office": "Shah Alam",
        "State": "Selangor"
    },
    {
        "Postcode": "40150",
        "Location": "Jalan Nova U5/66A",
        "Post_Office": "Shah Alam",
        "State": "Selangor"
    },
    {
        "Postcode": "40150",
        "Location": "Jalan Nova U5/66B",
        "Post_Office": "Shah Alam",
        "State": "Selangor"
    },
    {
        "Postcode": "40150",
        "Location": "Jalan Nova U5/66C",
        "Post_Office": "Shah Alam",
        "State": "Selangor"
    },
    {
        "Postcode": "40150",
        "Location": "Jalan Nova U5/67",
        "Post_Office": "Shah Alam",
        "State": "Selangor"
    },
    {
        "Postcode": "40150",
        "Location": "Jalan Nova U5/68",
        "Post_Office": "Shah Alam",
        "State": "Selangor"
    },
    {
        "Postcode": "40150",
        "Location": "Jalan Nova U5/69",
        "Post_Office": "Shah Alam",
        "State": "Selangor"
    },
    {
        "Postcode": "40150",
        "Location": "Jalan Nova U5/70",
        "Post_Office": "Shah Alam",
        "State": "Selangor"
    },
    {
        "Postcode": "40150",
        "Location": "Jalan Nova U5/72",
        "Post_Office": "Shah Alam",
        "State": "Selangor"
    },
    {
        "Postcode": "40150",
        "Location": "Jalan Nova U5/73",
        "Post_Office": "Shah Alam",
        "State": "Selangor"
    },
    {
        "Postcode": "40150",
        "Location": "Jalan Nova U5/74",
        "Post_Office": "Shah Alam",
        "State": "Selangor"
    },
    {
        "Postcode": "40150",
        "Location": "Jalan Nova U5/75",
        "Post_Office": "Shah Alam",
        "State": "Selangor"
    },
    {
        "Postcode": "40150",
        "Location": "Jalan Nova U5/75A",
        "Post_Office": "Shah Alam",
        "State": "Selangor"
    },
    {
        "Postcode": "40150",
        "Location": "Jalan Nova U5/75B",
        "Post_Office": "Shah Alam",
        "State": "Selangor"
    },
    {
        "Postcode": "40150",
        "Location": "Jalan Nova U5/76",
        "Post_Office": "Shah Alam",
        "State": "Selangor"
    },
    {
        "Postcode": "40150",
        "Location": "Jalan Nova U5/77",
        "Post_Office": "Shah Alam",
        "State": "Selangor"
    },
    {
        "Postcode": "40150",
        "Location": "Jalan Nova U5/78",
        "Post_Office": "Shah Alam",
        "State": "Selangor"
    },
    {
        "Postcode": "40150",
        "Location": "Jalan Nova U5/79",
        "Post_Office": "Shah Alam",
        "State": "Selangor"
    },
    {
        "Postcode": "40150",
        "Location": "Jalan Nova U5/80",
        "Post_Office": "Shah Alam",
        "State": "Selangor"
    },
    {
        "Postcode": "40150",
        "Location": "Jalan Nova U5/81",
        "Post_Office": "Shah Alam",
        "State": "Selangor"
    },
    {
        "Postcode": "40150",
        "Location": "Jalan Nova U5/82",
        "Post_Office": "Shah Alam",
        "State": "Selangor"
    },
    {
        "Postcode": "40150",
        "Location": "Jalan Nova U5/83",
        "Post_Office": "Shah Alam",
        "State": "Selangor"
    },
    {
        "Postcode": "40150",
        "Location": "Jalan Nova U5/84",
        "Post_Office": "Shah Alam",
        "State": "Selangor"
    },
    {
        "Postcode": "40150",
        "Location": "Jalan Nova U5/85",
        "Post_Office": "Shah Alam",
        "State": "Selangor"
    },
    {
        "Postcode": "40150",
        "Location": "Jalan Nova U5/86",
        "Post_Office": "Shah Alam",
        "State": "Selangor"
    },
    {
        "Postcode": "40150",
        "Location": "Jalan Nova U5/87",
        "Post_Office": "Shah Alam",
        "State": "Selangor"
    },
    {
        "Postcode": "40150",
        "Location": "Jalan Nova U5/88",
        "Post_Office": "Shah Alam",
        "State": "Selangor"
    },
    {
        "Postcode": "40150",
        "Location": "Jalan Nova U5/89",
        "Post_Office": "Shah Alam",
        "State": "Selangor"
    },
    {
        "Postcode": "40150",
        "Location": "Jalan Nova U5/90",
        "Post_Office": "Shah Alam",
        "State": "Selangor"
    },
    {
        "Postcode": "40150",
        "Location": "Jalan Nova U5/91",
        "Post_Office": "Shah Alam",
        "State": "Selangor"
    },
    {
        "Postcode": "40150",
        "Location": "Jalan Nova U5/91A",
        "Post_Office": "Shah Alam",
        "State": "Selangor"
    },
    {
        "Postcode": "40150",
        "Location": "Jalan Nova U5/91B",
        "Post_Office": "Shah Alam",
        "State": "Selangor"
    },
    {
        "Postcode": "40150",
        "Location": "Jalan Nova U5/91C",
        "Post_Office": "Shah Alam",
        "State": "Selangor"
    },
    {
        "Postcode": "40150",
        "Location": "Jalan Nova U5/91D",
        "Post_Office": "Shah Alam",
        "State": "Selangor"
    },
    {
        "Postcode": "40150",
        "Location": "Jalan Nova U5/92",
        "Post_Office": "Shah Alam",
        "State": "Selangor"
    },
    {
        "Postcode": "40150",
        "Location": "Jalan Nova U5/93",
        "Post_Office": "Shah Alam",
        "State": "Selangor"
    },
    {
        "Postcode": "40150",
        "Location": "Jalan Nova U5/94",
        "Post_Office": "Shah Alam",
        "State": "Selangor"
    },
    {
        "Postcode": "40150",
        "Location": "Jalan Nova U5/95",
        "Post_Office": "Shah Alam",
        "State": "Selangor"
    },
    {
        "Postcode": "40150",
        "Location": "Jalan Nova U5/95A",
        "Post_Office": "Shah Alam",
        "State": "Selangor"
    },
    {
        "Postcode": "40150",
        "Location": "Jalan Nova U5/95B",
        "Post_Office": "Shah Alam",
        "State": "Selangor"
    },
    {
        "Postcode": "40150",
        "Location": "Jalan Nova U5/95C",
        "Post_Office": "Shah Alam",
        "State": "Selangor"
    },
    {
        "Postcode": "40150",
        "Location": "Jalan Nova U5/95D",
        "Post_Office": "Shah Alam",
        "State": "Selangor"
    },
    {
        "Postcode": "40150",
        "Location": "Jalan Nova U5/95E",
        "Post_Office": "Shah Alam",
        "State": "Selangor"
    },
    {
        "Postcode": "40150",
        "Location": "Jalan Nova U5/95F",
        "Post_Office": "Shah Alam",
        "State": "Selangor"
    },
    {
        "Postcode": "40150",
        "Location": "Jalan Nova U5/95G",
        "Post_Office": "Shah Alam",
        "State": "Selangor"
    },
    {
        "Postcode": "40150",
        "Location": "Jalan Nova U5/95H",
        "Post_Office": "Shah Alam",
        "State": "Selangor"
    },
    {
        "Postcode": "40150",
        "Location": "Jalan Nova U5/96",
        "Post_Office": "Shah Alam",
        "State": "Selangor"
    },
    {
        "Postcode": "40150",
        "Location": "Jalan Nova U5/97",
        "Post_Office": "Shah Alam",
        "State": "Selangor"
    },
    {
        "Postcode": "40150",
        "Location": "Jalan Pelapik U8/46",
        "Post_Office": "Shah Alam",
        "State": "Selangor"
    },
    {
        "Postcode": "40150",
        "Location": "Jalan Pelapik U8/47",
        "Post_Office": "Shah Alam",
        "State": "Selangor"
    },
    {
        "Postcode": "40150",
        "Location": "Jalan Pluto U5/138",
        "Post_Office": "Shah Alam",
        "State": "Selangor"
    },
    {
        "Postcode": "40150",
        "Location": "Jalan Pluto U5/140",
        "Post_Office": "Shah Alam",
        "State": "Selangor"
    },
    {
        "Postcode": "40150",
        "Location": "Jalan Pluto U5/141",
        "Post_Office": "Shah Alam",
        "State": "Selangor"
    },
    {
        "Postcode": "40150",
        "Location": "Jalan Pluto U5/142",
        "Post_Office": "Shah Alam",
        "State": "Selangor"
    },
    {
        "Postcode": "40150",
        "Location": "Jalan Pluto U5/143",
        "Post_Office": "Shah Alam",
        "State": "Selangor"
    },
    {
        "Postcode": "40150",
        "Location": "Jalan Pluto U5/144",
        "Post_Office": "Shah Alam",
        "State": "Selangor"
    },
    {
        "Postcode": "40150",
        "Location": "Jalan Pluto U5/145",
        "Post_Office": "Shah Alam",
        "State": "Selangor"
    },
    {
        "Postcode": "40150",
        "Location": "Jalan Pluto U5/146",
        "Post_Office": "Shah Alam",
        "State": "Selangor"
    },
    {
        "Postcode": "40150",
        "Location": "Jalan Pluto U5/148",
        "Post_Office": "Shah Alam",
        "State": "Selangor"
    },
    {
        "Postcode": "40150",
        "Location": "Jalan Rabung U8/36",
        "Post_Office": "Shah Alam",
        "State": "Selangor"
    },
    {
        "Postcode": "40150",
        "Location": "Jalan Rabung U8/36A",
        "Post_Office": "Shah Alam",
        "State": "Selangor"
    },
    {
        "Postcode": "40150",
        "Location": "Jalan Rabung U8/37",
        "Post_Office": "Shah Alam",
        "State": "Selangor"
    },
    {
        "Postcode": "40150",
        "Location": "Jalan Rabung U8/38",
        "Post_Office": "Shah Alam",
        "State": "Selangor"
    },
    {
        "Postcode": "40150",
        "Location": "Jalan Rabung U8/39",
        "Post_Office": "Shah Alam",
        "State": "Selangor"
    },
    {
        "Postcode": "40150",
        "Location": "Jalan Rabung U8/40",
        "Post_Office": "Shah Alam",
        "State": "Selangor"
    },
    {
        "Postcode": "40150",
        "Location": "Jalan Rabung U8/40A",
        "Post_Office": "Shah Alam",
        "State": "Selangor"
    },
    {
        "Postcode": "40150",
        "Location": "Jalan Saujana Indah 1",
        "Post_Office": "Shah Alam",
        "State": "Selangor"
    },
    {
        "Postcode": "40150",
        "Location": "Jalan Saujana Indah 10",
        "Post_Office": "Shah Alam",
        "State": "Selangor"
    },
    {
        "Postcode": "40150",
        "Location": "Jalan Saujana Indah 2",
        "Post_Office": "Shah Alam",
        "State": "Selangor"
    },
    {
        "Postcode": "40150",
        "Location": "Jalan Saujana Indah 3",
        "Post_Office": "Shah Alam",
        "State": "Selangor"
    },
    {
        "Postcode": "40150",
        "Location": "Jalan Saujana Indah 4",
        "Post_Office": "Shah Alam",
        "State": "Selangor"
    },
    {
        "Postcode": "40150",
        "Location": "Jalan Saujana Indah 5",
        "Post_Office": "Shah Alam",
        "State": "Selangor"
    },
    {
        "Postcode": "40150",
        "Location": "Jalan Saujana Indah 6",
        "Post_Office": "Shah Alam",
        "State": "Selangor"
    },
    {
        "Postcode": "40150",
        "Location": "Jalan Saujana Indah 7",
        "Post_Office": "Shah Alam",
        "State": "Selangor"
    },
    {
        "Postcode": "40150",
        "Location": "Jalan Saujana Indah 8",
        "Post_Office": "Shah Alam",
        "State": "Selangor"
    },
    {
        "Postcode": "40150",
        "Location": "Jalan Saujana Indah 9",
        "Post_Office": "Shah Alam",
        "State": "Selangor"
    },
    {
        "Postcode": "40150",
        "Location": "Jalan Serambi U8/24",
        "Post_Office": "Shah Alam",
        "State": "Selangor"
    },
    {
        "Postcode": "40150",
        "Location": "Jalan Serambi U8/25",
        "Post_Office": "Shah Alam",
        "State": "Selangor"
    },
    {
        "Postcode": "40150",
        "Location": "Jalan Serambi U8/25A",
        "Post_Office": "Shah Alam",
        "State": "Selangor"
    },
    {
        "Postcode": "40150",
        "Location": "Jalan Serambi U8/25B",
        "Post_Office": "Shah Alam",
        "State": "Selangor"
    },
    {
        "Postcode": "40150",
        "Location": "Jalan Serambi U8/25C",
        "Post_Office": "Shah Alam",
        "State": "Selangor"
    },
    {
        "Postcode": "40150",
        "Location": "Jalan Serambi U8/26",
        "Post_Office": "Shah Alam",
        "State": "Selangor"
    },
    {
        "Postcode": "40150",
        "Location": "Jalan Serambi U8/27",
        "Post_Office": "Shah Alam",
        "State": "Selangor"
    },
    {
        "Postcode": "40150",
        "Location": "Jalan Serambi U8/28",
        "Post_Office": "Shah Alam",
        "State": "Selangor"
    },
    {
        "Postcode": "40150",
        "Location": "Jalan Serambi U8/29",
        "Post_Office": "Shah Alam",
        "State": "Selangor"
    },
    {
        "Postcode": "40150",
        "Location": "Jalan Serambi U8/29A",
        "Post_Office": "Shah Alam",
        "State": "Selangor"
    },
    {
        "Postcode": "40150",
        "Location": "Jalan Serambi U8/29B",
        "Post_Office": "Shah Alam",
        "State": "Selangor"
    },
    {
        "Postcode": "40150",
        "Location": "Jalan Serambi U8/29C",
        "Post_Office": "Shah Alam",
        "State": "Selangor"
    },
    {
        "Postcode": "40150",
        "Location": "Jalan Serambi U8/30",
        "Post_Office": "Shah Alam",
        "State": "Selangor"
    },
    {
        "Postcode": "40150",
        "Location": "Jalan Serambi U8/31",
        "Post_Office": "Shah Alam",
        "State": "Selangor"
    },
    {
        "Postcode": "40150",
        "Location": "Jalan Serambi U8/32",
        "Post_Office": "Shah Alam",
        "State": "Selangor"
    },
    {
        "Postcode": "40150",
        "Location": "Jalan Serambi U8/33",
        "Post_Office": "Shah Alam",
        "State": "Selangor"
    },
    {
        "Postcode": "40150",
        "Location": "Jalan Subang Indah 1",
        "Post_Office": "Shah Alam",
        "State": "Selangor"
    },
    {
        "Postcode": "40150",
        "Location": "Jalan Subang Indah 10",
        "Post_Office": "Shah Alam",
        "State": "Selangor"
    },
    {
        "Postcode": "40150",
        "Location": "Jalan Subang Indah 2",
        "Post_Office": "Shah Alam",
        "State": "Selangor"
    },
    {
        "Postcode": "40150",
        "Location": "Jalan Subang Indah 3",
        "Post_Office": "Shah Alam",
        "State": "Selangor"
    },
    {
        "Postcode": "40150",
        "Location": "Jalan Subang Indah 4",
        "Post_Office": "Shah Alam",
        "State": "Selangor"
    },
    {
        "Postcode": "40150",
        "Location": "Jalan Subang Indah 5",
        "Post_Office": "Shah Alam",
        "State": "Selangor"
    },
    {
        "Postcode": "40150",
        "Location": "Jalan Subang Indah 6",
        "Post_Office": "Shah Alam",
        "State": "Selangor"
    },
    {
        "Postcode": "40150",
        "Location": "Jalan Subang Indah 7",
        "Post_Office": "Shah Alam",
        "State": "Selangor"
    },
    {
        "Postcode": "40150",
        "Location": "Jalan Subang Indah 8",
        "Post_Office": "Shah Alam",
        "State": "Selangor"
    },
    {
        "Postcode": "40150",
        "Location": "Jalan Subang Indah 9",
        "Post_Office": "Shah Alam",
        "State": "Selangor"
    },
    {
        "Postcode": "40150",
        "Location": "Jalan Subang Permai U6/1",
        "Post_Office": "Shah Alam",
        "State": "Selangor"
    },
    {
        "Postcode": "40150",
        "Location": "Jalan Subang Permai U6/2",
        "Post_Office": "Shah Alam",
        "State": "Selangor"
    },
    {
        "Postcode": "40150",
        "Location": "Jalan Subang Permai U6/2A",
        "Post_Office": "Shah Alam",
        "State": "Selangor"
    },
    {
        "Postcode": "40150",
        "Location": "Jalan Subang Permai U6/2B",
        "Post_Office": "Shah Alam",
        "State": "Selangor"
    },
    {
        "Postcode": "40150",
        "Location": "Jalan Subang Permai U6/3",
        "Post_Office": "Shah Alam",
        "State": "Selangor"
    },
    {
        "Postcode": "40150",
        "Location": "Jalan Subang Permai U6/4",
        "Post_Office": "Shah Alam",
        "State": "Selangor"
    },
    {
        "Postcode": "40150",
        "Location": "Jalan Subang Permai U6/5",
        "Post_Office": "Shah Alam",
        "State": "Selangor"
    },
    {
        "Postcode": "40150",
        "Location": "Jalan Subang Permai U6/6",
        "Post_Office": "Shah Alam",
        "State": "Selangor"
    },
    {
        "Postcode": "40150",
        "Location": "Jalan Subang Permai U6/7",
        "Post_Office": "Shah Alam",
        "State": "Selangor"
    },
    {
        "Postcode": "40150",
        "Location": "Jalan Subang Permai U6/8",
        "Post_Office": "Shah Alam",
        "State": "Selangor"
    },
    {
        "Postcode": "40150",
        "Location": "Jalan Suria R U5/R",
        "Post_Office": "Shah Alam",
        "State": "Selangor"
    },
    {
        "Postcode": "40150",
        "Location": "Jalan Suria S U5/S",
        "Post_Office": "Shah Alam",
        "State": "Selangor"
    },
    {
        "Postcode": "40150",
        "Location": "Jalan Suria T U5/T",
        "Post_Office": "Shah Alam",
        "State": "Selangor"
    },
    {
        "Postcode": "40150",
        "Location": "Jalan Suria U U5/U",
        "Post_Office": "Shah Alam",
        "State": "Selangor"
    },
    {
        "Postcode": "40150",
        "Location": "Jalan Suria U5/103",
        "Post_Office": "Shah Alam",
        "State": "Selangor"
    },
    {
        "Postcode": "40150",
        "Location": "Jalan Suria U5/104",
        "Post_Office": "Shah Alam",
        "State": "Selangor"
    },
    {
        "Postcode": "40150",
        "Location": "Jalan Suria V U5/V",
        "Post_Office": "Shah Alam",
        "State": "Selangor"
    },
    {
        "Postcode": "40150",
        "Location": "Jalan Suria W U5/W",
        "Post_Office": "Shah Alam",
        "State": "Selangor"
    },
    {
        "Postcode": "40150",
        "Location": "Jalan Suria X U5/X",
        "Post_Office": "Shah Alam",
        "State": "Selangor"
    },
    {
        "Postcode": "40150",
        "Location": "Jalan Teratak U8/95",
        "Post_Office": "Shah Alam",
        "State": "Selangor"
    },
    {
        "Postcode": "40150",
        "Location": "Jalan Teratak U8/95A",
        "Post_Office": "Shah Alam",
        "State": "Selangor"
    },
    {
        "Postcode": "40150",
        "Location": "Jalan Teratak U8/95B",
        "Post_Office": "Shah Alam",
        "State": "Selangor"
    },
    {
        "Postcode": "40150",
        "Location": "Jalan Teratak U8/95C",
        "Post_Office": "Shah Alam",
        "State": "Selangor"
    },
    {
        "Postcode": "40150",
        "Location": "Jalan Teratak U8/95D",
        "Post_Office": "Shah Alam",
        "State": "Selangor"
    },
    {
        "Postcode": "40150",
        "Location": "Jalan Teratak U8/95E",
        "Post_Office": "Shah Alam",
        "State": "Selangor"
    },
    {
        "Postcode": "40150",
        "Location": "Jalan Teratak U8/95F",
        "Post_Office": "Shah Alam",
        "State": "Selangor"
    },
    {
        "Postcode": "40150",
        "Location": "Jalan Teratak U8/96",
        "Post_Office": "Shah Alam",
        "State": "Selangor"
    },
    {
        "Postcode": "40150",
        "Location": "Jalan Teratak U8/96A",
        "Post_Office": "Shah Alam",
        "State": "Selangor"
    },
    {
        "Postcode": "40150",
        "Location": "Jalan Teratak U8/96B",
        "Post_Office": "Shah Alam",
        "State": "Selangor"
    },
    {
        "Postcode": "40150",
        "Location": "Jalan Teratak U8/96C",
        "Post_Office": "Shah Alam",
        "State": "Selangor"
    },
    {
        "Postcode": "40150",
        "Location": "Jalan Teratak U8/96D",
        "Post_Office": "Shah Alam",
        "State": "Selangor"
    },
    {
        "Postcode": "40150",
        "Location": "Jalan Teratak U8/96E",
        "Post_Office": "Shah Alam",
        "State": "Selangor"
    },
    {
        "Postcode": "40150",
        "Location": "Jalan Teratak U8/96F",
        "Post_Office": "Shah Alam",
        "State": "Selangor"
    },
    {
        "Postcode": "40150",
        "Location": "Jalan Teratak U8/96G",
        "Post_Office": "Shah Alam",
        "State": "Selangor"
    },
    {
        "Postcode": "40150",
        "Location": "Jalan Teratak U8/96H",
        "Post_Office": "Shah Alam",
        "State": "Selangor"
    },
    {
        "Postcode": "40150",
        "Location": "Jalan Teratak U8/96J",
        "Post_Office": "Shah Alam",
        "State": "Selangor"
    },
    {
        "Postcode": "40150",
        "Location": "Jalan Teratak U8/97",
        "Post_Office": "Shah Alam",
        "State": "Selangor"
    },
    {
        "Postcode": "40150",
        "Location": "Jalan Tiang Seri U8/73A",
        "Post_Office": "Shah Alam",
        "State": "Selangor"
    },
    {
        "Postcode": "40150",
        "Location": "Jalan Tiang Seri U8/73Ae",
        "Post_Office": "Shah Alam",
        "State": "Selangor"
    },
    {
        "Postcode": "40150",
        "Location": "Jalan Tiang Seri U8/73B",
        "Post_Office": "Shah Alam",
        "State": "Selangor"
    },
    {
        "Postcode": "40150",
        "Location": "Jalan Tiang Seri U8/73C",
        "Post_Office": "Shah Alam",
        "State": "Selangor"
    },
    {
        "Postcode": "40150",
        "Location": "Jalan Tiang Seri U8/73D",
        "Post_Office": "Shah Alam",
        "State": "Selangor"
    },
    {
        "Postcode": "40150",
        "Location": "Jalan Tiang Seri U8/73F",
        "Post_Office": "Shah Alam",
        "State": "Selangor"
    },
    {
        "Postcode": "40150",
        "Location": "Jalan Tiang Seri U8/73G",
        "Post_Office": "Shah Alam",
        "State": "Selangor"
    },
    {
        "Postcode": "40150",
        "Location": "Jalan Tiang Seri U8/73H",
        "Post_Office": "Shah Alam",
        "State": "Selangor"
    },
    {
        "Postcode": "40150",
        "Location": "Jalan Tiang Seri U8/73J",
        "Post_Office": "Shah Alam",
        "State": "Selangor"
    },
    {
        "Postcode": "40150",
        "Location": "Jalan Tiang U8/91",
        "Post_Office": "Shah Alam",
        "State": "Selangor"
    },
    {
        "Postcode": "40150",
        "Location": "Jalan Tiang U8/92",
        "Post_Office": "Shah Alam",
        "State": "Selangor"
    },
    {
        "Postcode": "40150",
        "Location": "Jalan Tiang U8/93",
        "Post_Office": "Shah Alam",
        "State": "Selangor"
    },
    {
        "Postcode": "40150",
        "Location": "Jalan Tiang U8/94",
        "Post_Office": "Shah Alam",
        "State": "Selangor"
    },
    {
        "Postcode": "40150",
        "Location": "Jalan Titian U8/41",
        "Post_Office": "Shah Alam",
        "State": "Selangor"
    },
    {
        "Postcode": "40150",
        "Location": "Jalan Titian U8/41A",
        "Post_Office": "Shah Alam",
        "State": "Selangor"
    },
    {
        "Postcode": "40150",
        "Location": "Jalan Titian U8/41B",
        "Post_Office": "Shah Alam",
        "State": "Selangor"
    },
    {
        "Postcode": "40150",
        "Location": "Jalan Titian U8/41C",
        "Post_Office": "Shah Alam",
        "State": "Selangor"
    },
    {
        "Postcode": "40150",
        "Location": "Jalan Titian U8/41D",
        "Post_Office": "Shah Alam",
        "State": "Selangor"
    },
    {
        "Postcode": "40150",
        "Location": "Jalan Titian U8/41E",
        "Post_Office": "Shah Alam",
        "State": "Selangor"
    },
    {
        "Postcode": "40150",
        "Location": "Jalan Titian U8/42",
        "Post_Office": "Shah Alam",
        "State": "Selangor"
    },
    {
        "Postcode": "40150",
        "Location": "Jalan Titian U8/42A",
        "Post_Office": "Shah Alam",
        "State": "Selangor"
    },
    {
        "Postcode": "40150",
        "Location": "Jalan Titian U8/42B",
        "Post_Office": "Shah Alam",
        "State": "Selangor"
    },
    {
        "Postcode": "40150",
        "Location": "Jalan Titian U8/42C",
        "Post_Office": "Shah Alam",
        "State": "Selangor"
    },
    {
        "Postcode": "40150",
        "Location": "Jalan Titian U8/42D",
        "Post_Office": "Shah Alam",
        "State": "Selangor"
    },
    {
        "Postcode": "40150",
        "Location": "Jalan Titian U8/42E",
        "Post_Office": "Shah Alam",
        "State": "Selangor"
    },
    {
        "Postcode": "40150",
        "Location": "Jalan Titian U8/43",
        "Post_Office": "Shah Alam",
        "State": "Selangor"
    },
    {
        "Postcode": "40150",
        "Location": "Jalan U1/84",
        "Post_Office": "Shah Alam",
        "State": "Selangor"
    },
    {
        "Postcode": "40150",
        "Location": "Jalan U1/84A",
        "Post_Office": "Shah Alam",
        "State": "Selangor"
    },
    {
        "Postcode": "40150",
        "Location": "Jalan U1/84B",
        "Post_Office": "Shah Alam",
        "State": "Selangor"
    },
    {
        "Postcode": "40150",
        "Location": "Jalan U1/84C",
        "Post_Office": "Shah Alam",
        "State": "Selangor"
    },
    {
        "Postcode": "40150",
        "Location": "Jalan U1/84D",
        "Post_Office": "Shah Alam",
        "State": "Selangor"
    },
    {
        "Postcode": "40150",
        "Location": "Jalan U1/84E",
        "Post_Office": "Shah Alam",
        "State": "Selangor"
    },
    {
        "Postcode": "40150",
        "Location": "Jalan U1/85",
        "Post_Office": "Shah Alam",
        "State": "Selangor"
    },
    {
        "Postcode": "40150",
        "Location": "Jalan U1/85A",
        "Post_Office": "Shah Alam",
        "State": "Selangor"
    },
    {
        "Postcode": "40150",
        "Location": "Jalan U1/85B",
        "Post_Office": "Shah Alam",
        "State": "Selangor"
    },
    {
        "Postcode": "40150",
        "Location": "Jalan U1/85C",
        "Post_Office": "Shah Alam",
        "State": "Selangor"
    },
    {
        "Postcode": "40150",
        "Location": "Jalan U1/85D",
        "Post_Office": "Shah Alam",
        "State": "Selangor"
    },
    {
        "Postcode": "40150",
        "Location": "Jalan U1/85E",
        "Post_Office": "Shah Alam",
        "State": "Selangor"
    },
    {
        "Postcode": "40150",
        "Location": "Jalan U1/85F",
        "Post_Office": "Shah Alam",
        "State": "Selangor"
    },
    {
        "Postcode": "40150",
        "Location": "Jalan U1/85G",
        "Post_Office": "Shah Alam",
        "State": "Selangor"
    },
    {
        "Postcode": "40150",
        "Location": "Jalan U1/86",
        "Post_Office": "Shah Alam",
        "State": "Selangor"
    },
    {
        "Postcode": "40150",
        "Location": "Jalan U1/87",
        "Post_Office": "Shah Alam",
        "State": "Selangor"
    },
    {
        "Postcode": "40150",
        "Location": "Jalan U1/87A",
        "Post_Office": "Shah Alam",
        "State": "Selangor"
    },
    {
        "Postcode": "40150",
        "Location": "Jalan U1/87B",
        "Post_Office": "Shah Alam",
        "State": "Selangor"
    },
    {
        "Postcode": "40150",
        "Location": "Jalan U1/88",
        "Post_Office": "Shah Alam",
        "State": "Selangor"
    },
    {
        "Postcode": "40150",
        "Location": "Jalan U1/88A",
        "Post_Office": "Shah Alam",
        "State": "Selangor"
    },
    {
        "Postcode": "40150",
        "Location": "Jalan U1/88B",
        "Post_Office": "Shah Alam",
        "State": "Selangor"
    },
    {
        "Postcode": "40150",
        "Location": "Jalan U1/88C",
        "Post_Office": "Shah Alam",
        "State": "Selangor"
    },
    {
        "Postcode": "40150",
        "Location": "Jalan U1/89",
        "Post_Office": "Shah Alam",
        "State": "Selangor"
    },
    {
        "Postcode": "40150",
        "Location": "Jalan U1/89A",
        "Post_Office": "Shah Alam",
        "State": "Selangor"
    },
    {
        "Postcode": "40150",
        "Location": "Jalan U1/89B",
        "Post_Office": "Shah Alam",
        "State": "Selangor"
    },
    {
        "Postcode": "40150",
        "Location": "Jalan U1/89C",
        "Post_Office": "Shah Alam",
        "State": "Selangor"
    },
    {
        "Postcode": "40150",
        "Location": "Jalan U1/89D",
        "Post_Office": "Shah Alam",
        "State": "Selangor"
    },
    {
        "Postcode": "40150",
        "Location": "Jalan U1/89E",
        "Post_Office": "Shah Alam",
        "State": "Selangor"
    },
    {
        "Postcode": "40150",
        "Location": "Jalan U4/1",
        "Post_Office": "Shah Alam",
        "State": "Selangor"
    },
    {
        "Postcode": "40150",
        "Location": "Jalan U4/10",
        "Post_Office": "Shah Alam",
        "State": "Selangor"
    },
    {
        "Postcode": "40150",
        "Location": "Jalan U4/11",
        "Post_Office": "Shah Alam",
        "State": "Selangor"
    },
    {
        "Postcode": "40150",
        "Location": "Jalan U4/12",
        "Post_Office": "Shah Alam",
        "State": "Selangor"
    },
    {
        "Postcode": "40150",
        "Location": "Jalan U4/13",
        "Post_Office": "Shah Alam",
        "State": "Selangor"
    },
    {
        "Postcode": "40150",
        "Location": "Jalan U4/14",
        "Post_Office": "Shah Alam",
        "State": "Selangor"
    },
    {
        "Postcode": "40150",
        "Location": "Jalan U4/15",
        "Post_Office": "Shah Alam",
        "State": "Selangor"
    },
    {
        "Postcode": "40150",
        "Location": "Jalan U4/16",
        "Post_Office": "Shah Alam",
        "State": "Selangor"
    },
    {
        "Postcode": "40150",
        "Location": "Jalan U4/17",
        "Post_Office": "Shah Alam",
        "State": "Selangor"
    },
    {
        "Postcode": "40150",
        "Location": "Jalan U4/18",
        "Post_Office": "Shah Alam",
        "State": "Selangor"
    },
    {
        "Postcode": "40150",
        "Location": "Jalan U4/2",
        "Post_Office": "Shah Alam",
        "State": "Selangor"
    },
    {
        "Postcode": "40150",
        "Location": "Jalan U4/3",
        "Post_Office": "Shah Alam",
        "State": "Selangor"
    },
    {
        "Postcode": "40150",
        "Location": "Jalan U4/4",
        "Post_Office": "Shah Alam",
        "State": "Selangor"
    },
    {
        "Postcode": "40150",
        "Location": "Jalan U4/5",
        "Post_Office": "Shah Alam",
        "State": "Selangor"
    },
    {
        "Postcode": "40150",
        "Location": "Jalan U4/6",
        "Post_Office": "Shah Alam",
        "State": "Selangor"
    },
    {
        "Postcode": "40150",
        "Location": "Jalan U4/7",
        "Post_Office": "Shah Alam",
        "State": "Selangor"
    },
    {
        "Postcode": "40150",
        "Location": "Jalan U4/8",
        "Post_Office": "Shah Alam",
        "State": "Selangor"
    },
    {
        "Postcode": "40150",
        "Location": "Jalan U4/9",
        "Post_Office": "Shah Alam",
        "State": "Selangor"
    },
    {
        "Postcode": "40150",
        "Location": "Jalan Ubin U8/19A",
        "Post_Office": "Shah Alam",
        "State": "Selangor"
    },
    {
        "Postcode": "40150",
        "Location": "Jalan Ubin U8/19B",
        "Post_Office": "Shah Alam",
        "State": "Selangor"
    },
    {
        "Postcode": "40150",
        "Location": "Jalan Ubin U8/19C",
        "Post_Office": "Shah Alam",
        "State": "Selangor"
    },
    {
        "Postcode": "40150",
        "Location": "Jalan Ubin U8/19D",
        "Post_Office": "Shah Alam",
        "State": "Selangor"
    },
    {
        "Postcode": "40150",
        "Location": "Jalan Ubin U8/19E",
        "Post_Office": "Shah Alam",
        "State": "Selangor"
    },
    {
        "Postcode": "40150",
        "Location": "Jalan Ubin U8/19F",
        "Post_Office": "Shah Alam",
        "State": "Selangor"
    },
    {
        "Postcode": "40150",
        "Location": "Jalan Ubin U8/19G",
        "Post_Office": "Shah Alam",
        "State": "Selangor"
    },
    {
        "Postcode": "40150",
        "Location": "Jalan Ubin U8/19H",
        "Post_Office": "Shah Alam",
        "State": "Selangor"
    },
    {
        "Postcode": "40150",
        "Location": "Jalan Ungu U9/27",
        "Post_Office": "Shah Alam",
        "State": "Selangor"
    },
    {
        "Postcode": "40150",
        "Location": "Jalan Ungu U9/28",
        "Post_Office": "Shah Alam",
        "State": "Selangor"
    },
    {
        "Postcode": "40150",
        "Location": "Jalan Ungu U9/29",
        "Post_Office": "Shah Alam",
        "State": "Selangor"
    },
    {
        "Postcode": "40150",
        "Location": "Jalan Ungu U9/30",
        "Post_Office": "Shah Alam",
        "State": "Selangor"
    },
    {
        "Postcode": "40150",
        "Location": "Jalan Ungu U9/31",
        "Post_Office": "Shah Alam",
        "State": "Selangor"
    },
    {
        "Postcode": "40150",
        "Location": "Jalan Ungu U9/32",
        "Post_Office": "Shah Alam",
        "State": "Selangor"
    },
    {
        "Postcode": "40150",
        "Location": "Jalan Ungu U9/33",
        "Post_Office": "Shah Alam",
        "State": "Selangor"
    },
    {
        "Postcode": "40150",
        "Location": "Jalan Ungu U9/34",
        "Post_Office": "Shah Alam",
        "State": "Selangor"
    },
    {
        "Postcode": "40150",
        "Location": "Jalan Ungu U9/34A",
        "Post_Office": "Shah Alam",
        "State": "Selangor"
    },
    {
        "Postcode": "40150",
        "Location": "Jalan Ungu U9/34B",
        "Post_Office": "Shah Alam",
        "State": "Selangor"
    },
    {
        "Postcode": "40150",
        "Location": "Jalan Ungu U9/34C",
        "Post_Office": "Shah Alam",
        "State": "Selangor"
    },
    {
        "Postcode": "40150",
        "Location": "Jalan Ungu U9/34D",
        "Post_Office": "Shah Alam",
        "State": "Selangor"
    },
    {
        "Postcode": "40150",
        "Location": "Jalan Ungu U9/35",
        "Post_Office": "Shah Alam",
        "State": "Selangor"
    },
    {
        "Postcode": "40150",
        "Location": "Jalan Ungu U9/36",
        "Post_Office": "Shah Alam",
        "State": "Selangor"
    },
    {
        "Postcode": "40150",
        "Location": "Jalan Ungu U9/37",
        "Post_Office": "Shah Alam",
        "State": "Selangor"
    },
    {
        "Postcode": "40150",
        "Location": "Jalan Ungu U9/38",
        "Post_Office": "Shah Alam",
        "State": "Selangor"
    },
    {
        "Postcode": "40150",
        "Location": "Jalan Ungu U9/38A",
        "Post_Office": "Shah Alam",
        "State": "Selangor"
    },
    {
        "Postcode": "40150",
        "Location": "Jalan Ungu U9/38B",
        "Post_Office": "Shah Alam",
        "State": "Selangor"
    },
    {
        "Postcode": "40150",
        "Location": "Jalan Ungu U9/38C",
        "Post_Office": "Shah Alam",
        "State": "Selangor"
    },
    {
        "Postcode": "40150",
        "Location": "Jalan Ungu U9/38D",
        "Post_Office": "Shah Alam",
        "State": "Selangor"
    },
    {
        "Postcode": "40150",
        "Location": "Jalan Utarid U5/10",
        "Post_Office": "Shah Alam",
        "State": "Selangor"
    },
    {
        "Postcode": "40150",
        "Location": "Jalan Utarid U5/11",
        "Post_Office": "Shah Alam",
        "State": "Selangor"
    },
    {
        "Postcode": "40150",
        "Location": "Jalan Utarid U5/12",
        "Post_Office": "Shah Alam",
        "State": "Selangor"
    },
    {
        "Postcode": "40150",
        "Location": "Jalan Utarid U5/13",
        "Post_Office": "Shah Alam",
        "State": "Selangor"
    },
    {
        "Postcode": "40150",
        "Location": "Jalan Utarid U5/14",
        "Post_Office": "Shah Alam",
        "State": "Selangor"
    },
    {
        "Postcode": "40150",
        "Location": "Jalan Utarid U5/15",
        "Post_Office": "Shah Alam",
        "State": "Selangor"
    },
    {
        "Postcode": "40150",
        "Location": "Jalan Utarid U5/16",
        "Post_Office": "Shah Alam",
        "State": "Selangor"
    },
    {
        "Postcode": "40150",
        "Location": "Jalan Utarid U5/17",
        "Post_Office": "Shah Alam",
        "State": "Selangor"
    },
    {
        "Postcode": "40150",
        "Location": "Jalan Utarid U5/18",
        "Post_Office": "Shah Alam",
        "State": "Selangor"
    },
    {
        "Postcode": "40150",
        "Location": "Jalan Utarid U5/19",
        "Post_Office": "Shah Alam",
        "State": "Selangor"
    },
    {
        "Postcode": "40150",
        "Location": "Jalan Utarid U5/20",
        "Post_Office": "Shah Alam",
        "State": "Selangor"
    },
    {
        "Postcode": "40150",
        "Location": "Jalan Utarid U5/21",
        "Post_Office": "Shah Alam",
        "State": "Selangor"
    },
    {
        "Postcode": "40150",
        "Location": "Jalan Utarid U5/22",
        "Post_Office": "Shah Alam",
        "State": "Selangor"
    },
    {
        "Postcode": "40150",
        "Location": "Jalan Utarid U5/23",
        "Post_Office": "Shah Alam",
        "State": "Selangor"
    },
    {
        "Postcode": "40150",
        "Location": "Jalan Utarid U5/24",
        "Post_Office": "Shah Alam",
        "State": "Selangor"
    },
    {
        "Postcode": "40150",
        "Location": "Jalan Utarid U5/25",
        "Post_Office": "Shah Alam",
        "State": "Selangor"
    },
    {
        "Postcode": "40150",
        "Location": "Jalan Utarid U5/26",
        "Post_Office": "Shah Alam",
        "State": "Selangor"
    },
    {
        "Postcode": "40150",
        "Location": "Jalan Utarid U5/27",
        "Post_Office": "Shah Alam",
        "State": "Selangor"
    },
    {
        "Postcode": "40150",
        "Location": "Jalan Utarid U5/28",
        "Post_Office": "Shah Alam",
        "State": "Selangor"
    },
    {
        "Postcode": "40150",
        "Location": "Jalan Utarid U5/29",
        "Post_Office": "Shah Alam",
        "State": "Selangor"
    },
    {
        "Postcode": "40150",
        "Location": "Jalan Utarid U5/3",
        "Post_Office": "Shah Alam",
        "State": "Selangor"
    },
    {
        "Postcode": "40150",
        "Location": "Jalan Utarid U5/30",
        "Post_Office": "Shah Alam",
        "State": "Selangor"
    },
    {
        "Postcode": "40150",
        "Location": "Jalan Utarid U5/5",
        "Post_Office": "Shah Alam",
        "State": "Selangor"
    },
    {
        "Postcode": "40150",
        "Location": "Jalan Utarid U5/6",
        "Post_Office": "Shah Alam",
        "State": "Selangor"
    },
    {
        "Postcode": "40150",
        "Location": "Jalan Utarid U5/7",
        "Post_Office": "Shah Alam",
        "State": "Selangor"
    },
    {
        "Postcode": "40150",
        "Location": "Jalan Utarid U5/8",
        "Post_Office": "Shah Alam",
        "State": "Selangor"
    },
    {
        "Postcode": "40150",
        "Location": "Jalan Utarid U5/9",
        "Post_Office": "Shah Alam",
        "State": "Selangor"
    },
    {
        "Postcode": "40150",
        "Location": "Jalan Utarid U5/A",
        "Post_Office": "Shah Alam",
        "State": "Selangor"
    },
    {
        "Postcode": "40150",
        "Location": "Jalan Utarid U5/B",
        "Post_Office": "Shah Alam",
        "State": "Selangor"
    },
    {
        "Postcode": "40150",
        "Location": "Jalan Utarid U5/C",
        "Post_Office": "Shah Alam",
        "State": "Selangor"
    },
    {
        "Postcode": "40150",
        "Location": "Jalan Utarid U5/D",
        "Post_Office": "Shah Alam",
        "State": "Selangor"
    },
    {
        "Postcode": "40150",
        "Location": "Jalan Waruna U5/131",
        "Post_Office": "Shah Alam",
        "State": "Selangor"
    },
    {
        "Postcode": "40150",
        "Location": "Jalan Waruna U5/132",
        "Post_Office": "Shah Alam",
        "State": "Selangor"
    },
    {
        "Postcode": "40150",
        "Location": "Jalan Waruna U5/133",
        "Post_Office": "Shah Alam",
        "State": "Selangor"
    },
    {
        "Postcode": "40150",
        "Location": "Jalan Waruna U5/134",
        "Post_Office": "Shah Alam",
        "State": "Selangor"
    },
    {
        "Postcode": "40150",
        "Location": "Jalan Waruna U5/135",
        "Post_Office": "Shah Alam",
        "State": "Selangor"
    },
    {
        "Postcode": "40150",
        "Location": "Jalan Zuhal U5/177",
        "Post_Office": "Shah Alam",
        "State": "Selangor"
    },
    {
        "Postcode": "40150",
        "Location": "Jalan Zuhal U5/178",
        "Post_Office": "Shah Alam",
        "State": "Selangor"
    },
    {
        "Postcode": "40150",
        "Location": "Jalan Zuhrah U5/150",
        "Post_Office": "Shah Alam",
        "State": "Selangor"
    },
    {
        "Postcode": "40150",
        "Location": "Jalan Zuhrah U5/151",
        "Post_Office": "Shah Alam",
        "State": "Selangor"
    },
    {
        "Postcode": "40150",
        "Location": "Jalan Zuhrah U5/152",
        "Post_Office": "Shah Alam",
        "State": "Selangor"
    },
    {
        "Postcode": "40150",
        "Location": "Jalan Zuhrah U5/153",
        "Post_Office": "Shah Alam",
        "State": "Selangor"
    },
    {
        "Postcode": "40150",
        "Location": "Jalan Zuhrah U5/154",
        "Post_Office": "Shah Alam",
        "State": "Selangor"
    },
    {
        "Postcode": "40150",
        "Location": "Jalan Zuhrah U5/155",
        "Post_Office": "Shah Alam",
        "State": "Selangor"
    },
    {
        "Postcode": "40150",
        "Location": "Jalan Zuhrah U5/156",
        "Post_Office": "Shah Alam",
        "State": "Selangor"
    },
    {
        "Postcode": "40150",
        "Location": "Jalan Zuhrah U5/157",
        "Post_Office": "Shah Alam",
        "State": "Selangor"
    },
    {
        "Postcode": "40150",
        "Location": "Jalan Zuhrah U5/158",
        "Post_Office": "Shah Alam",
        "State": "Selangor"
    },
    {
        "Postcode": "40150",
        "Location": "Jalan Zuhrah U5/159",
        "Post_Office": "Shah Alam",
        "State": "Selangor"
    },
    {
        "Postcode": "40150",
        "Location": "Jalan Zuhrah U5/160",
        "Post_Office": "Shah Alam",
        "State": "Selangor"
    },
    {
        "Postcode": "40150",
        "Location": "Jalan Zuhrah U5/161",
        "Post_Office": "Shah Alam",
        "State": "Selangor"
    },
    {
        "Postcode": "40150",
        "Location": "Jalan Zuhrah U5/162",
        "Post_Office": "Shah Alam",
        "State": "Selangor"
    },
    {
        "Postcode": "40150",
        "Location": "Seksyen U1",
        "Post_Office": "Shah Alam",
        "State": "Selangor"
    },
    {
        "Postcode": "40150",
        "Location": "Seksyen U18",
        "Post_Office": "Shah Alam",
        "State": "Selangor"
    },
    {
        "Postcode": "40150",
        "Location": "Seksyen U2",
        "Post_Office": "Shah Alam",
        "State": "Selangor"
    },
    {
        "Postcode": "40150",
        "Location": "Seksyen U5",
        "Post_Office": "Shah Alam",
        "State": "Selangor"
    },
    {
        "Postcode": "40150",
        "Location": "Seksyen U6",
        "Post_Office": "Shah Alam",
        "State": "Selangor"
    },
    {
        "Postcode": "40150",
        "Location": "Seksyen U7",
        "Post_Office": "Shah Alam",
        "State": "Selangor"
    },
    {
        "Postcode": "40150",
        "Location": "Seksyen U9",
        "Post_Office": "Shah Alam",
        "State": "Selangor"
    },
    {
        "Postcode": "40150",
        "Location": "Subang Bestari ",
        "Post_Office": "Shah Alam",
        "State": "Selangor"
    },
    {
        "Postcode": "40150",
        "Location": "Jalan Batu Tiga - Sungai Buloh",
        "Post_Office": "Shah Alam",
        "State": "Selangor"
    },
    {
        "Postcode": "40150",
        "Location": "Kampung Sri Subang",
        "Post_Office": "Shah Alam",
        "State": "Selangor"
    },
    {
        "Postcode": "40150",
        "Location": "Taman Indarasia ",
        "Post_Office": "Shah Alam",
        "State": "Selangor"
    },
    {
        "Postcode": "40150",
        "Location": "Wisma M.S",
        "Post_Office": "Shah Alam",
        "State": "Selangor"
    },
    {
        "Postcode": "40150",
        "Location": "Jalan Delta U6/18",
        "Post_Office": "Shah Alam",
        "State": "Selangor"
    },
    {
        "Postcode": "40150",
        "Location": "Sunway Subang",
        "Post_Office": "Shah Alam",
        "State": "Selangor"
    },
    {
        "Postcode": "40150",
        "Location": "Jalan Subang Perdana",
        "Post_Office": "Shah Alam",
        "State": "Selangor"
    },
    {
        "Postcode": "40150",
        "Location": "Sekolah Menengah Kebangsaan Subang Bestari",
        "Post_Office": "Shah Alam",
        "State": "Selangor"
    },
    {
        "Postcode": "40150",
        "Location": "Sekolah Rendah Kebangsaan Subang Perdana",
        "Post_Office": "Shah Alam",
        "State": "Selangor"
    },
    {
        "Postcode": "40150",
        "Location": "Kondominium Serai Saujana",
        "Post_Office": "Shah Alam",
        "State": "Selangor"
    },
    {
        "Postcode": "40150",
        "Location": "Persiaran Golf",
        "Post_Office": "Shah Alam",
        "State": "Selangor"
    },
    {
        "Postcode": "40150",
        "Location": "Jalan A U4/A",
        "Post_Office": "Shah Alam",
        "State": "Selangor"
    },
    {
        "Postcode": "40150",
        "Location": "Jalan A U8/A",
        "Post_Office": "Shah Alam",
        "State": "Selangor"
    },
    {
        "Postcode": "40150",
        "Location": "Jalan Adang U8/44",
        "Post_Office": "Shah Alam",
        "State": "Selangor"
    },
    {
        "Postcode": "40150",
        "Location": "Jalan Alfa U6/2",
        "Post_Office": "Shah Alam",
        "State": "Selangor"
    },
    {
        "Postcode": "40150",
        "Location": "Jalan Amanat Dua U2/4B",
        "Post_Office": "Shah Alam",
        "State": "Selangor"
    },
    {
        "Postcode": "40150",
        "Location": "Jalan Amanat Satu U2/4A",
        "Post_Office": "Shah Alam",
        "State": "Selangor"
    },
    {
        "Postcode": "40150",
        "Location": "Jalan Amanat U2/45",
        "Post_Office": "Shah Alam",
        "State": "Selangor"
    },
    {
        "Postcode": "40150",
        "Location": "Jalan Apolio Cg U5/Cg",
        "Post_Office": "Shah Alam",
        "State": "Selangor"
    },
    {
        "Postcode": "40150",
        "Location": "Jalan Apolio Ch U5/C",
        "Post_Office": "Shah Alam",
        "State": "Selangor"
    },
    {
        "Postcode": "40150",
        "Location": "Jalan Awan Larat U8/74",
        "Post_Office": "Shah Alam",
        "State": "Selangor"
    },
    {
        "Postcode": "40150",
        "Location": "Jalan B U4/B",
        "Post_Office": "Shah Alam",
        "State": "Selangor"
    },
    {
        "Postcode": "40150",
        "Location": "Jalan B U8/8",
        "Post_Office": "Shah Alam",
        "State": "Selangor"
    },
    {
        "Postcode": "40150",
        "Location": "Jalan B U9/B",
        "Post_Office": "Shah Alam",
        "State": "Selangor"
    },
    {
        "Postcode": "40150",
        "Location": "Jalan Bait U8/1",
        "Post_Office": "Shah Alam",
        "State": "Selangor"
    },
    {
        "Postcode": "40150",
        "Location": "Jalan Bazar U8/101A",
        "Post_Office": "Shah Alam",
        "State": "Selangor"
    },
    {
        "Postcode": "40150",
        "Location": "Jalan Bidai U8/13",
        "Post_Office": "Shah Alam",
        "State": "Selangor"
    },
    {
        "Postcode": "40150",
        "Location": "Jalan Birai U8/70A",
        "Post_Office": "Shah Alam",
        "State": "Selangor"
    },
    {
        "Postcode": "40150",
        "Location": "Jalan Biru Ceraka U9/14",
        "Post_Office": "Shah Alam",
        "State": "Selangor"
    },
    {
        "Postcode": "40150",
        "Location": "Jalan Biru Firus U9/12",
        "Post_Office": "Shah Alam",
        "State": "Selangor"
    },
    {
        "Postcode": "40150",
        "Location": "Jalan Biru Jelah Dua U9/11B",
        "Post_Office": "Shah Alam",
        "State": "Selangor"
    },
    {
        "Postcode": "40150",
        "Location": "Jalan Biru Jelah Satu U9/11A",
        "Post_Office": "Shah Alam",
        "State": "Selangor"
    },
    {
        "Postcode": "40150",
        "Location": "Jalan Biru Jelah U9/11",
        "Post_Office": "Shah Alam",
        "State": "Selangor"
    },
    {
        "Postcode": "40150",
        "Location": "Jalan Biru Kelasi Dua U9/10B",
        "Post_Office": "Shah Alam",
        "State": "Selangor"
    },
    {
        "Postcode": "40150",
        "Location": "Jalan Biru Kelasi Satu U9/10A",
        "Post_Office": "Shah Alam",
        "State": "Selangor"
    },
    {
        "Postcode": "40150",
        "Location": "Jalan Biru Kelasi U9/10",
        "Post_Office": "Shah Alam",
        "State": "Selangor"
    },
    {
        "Postcode": "40150",
        "Location": "Jalan Biru Laut U9/13",
        "Post_Office": "Shah Alam",
        "State": "Selangor"
    },
    {
        "Postcode": "40150",
        "Location": "Jalan Biru Porselin Dua U9/15B",
        "Post_Office": "Shah Alam",
        "State": "Selangor"
    },
    {
        "Postcode": "40150",
        "Location": "Jalan Biru Porselin Satu U9/15A",
        "Post_Office": "Shah Alam",
        "State": "Selangor"
    },
    {
        "Postcode": "40150",
        "Location": "Jalan Biru Porselin U9/15",
        "Post_Office": "Shah Alam",
        "State": "Selangor"
    },
    {
        "Postcode": "40150",
        "Location": "Jalan Biru U9/9",
        "Post_Office": "Shah Alam",
        "State": "Selangor"
    },
    {
        "Postcode": "40150",
        "Location": "Jalan Bulan Bl U5/Bl",
        "Post_Office": "Shah Alam",
        "State": "Selangor"
    },
    {
        "Postcode": "40150",
        "Location": "Jalan Bulan Bm U5/Bm",
        "Post_Office": "Shah Alam",
        "State": "Selangor"
    },
    {
        "Postcode": "40150",
        "Location": "Jalan Bulan Bn U5/Bn",
        "Post_Office": "Shah Alam",
        "State": "Selangor"
    },
    {
        "Postcode": "40150",
        "Location": "Jalan Bulan Bp U5/Bp",
        "Post_Office": "Shah Alam",
        "State": "Selangor"
    },
    {
        "Postcode": "40150",
        "Location": "Jalan Bulan Bq U5/Bq",
        "Post_Office": "Shah Alam",
        "State": "Selangor"
    },
    {
        "Postcode": "40150",
        "Location": "Jalan Bulan Br U5/Br",
        "Post_Office": "Shah Alam",
        "State": "Selangor"
    },
    {
        "Postcode": "40150",
        "Location": "Jalan Bulan Bs U5/Bs",
        "Post_Office": "Shah Alam",
        "State": "Selangor"
    },
    {
        "Postcode": "40150",
        "Location": "Jalan Bulan Bt U5/Bt",
        "Post_Office": "Shah Alam",
        "State": "Selangor"
    },
    {
        "Postcode": "40150",
        "Location": "Jalan Bulan By U5/By",
        "Post_Office": "Shah Alam",
        "State": "Selangor"
    },
    {
        "Postcode": "40150",
        "Location": "Jalan Bulan Bz U5/Bz",
        "Post_Office": "Shah Alam",
        "State": "Selangor"
    },
    {
        "Postcode": "40150",
        "Location": "Jalan Bulan Ca U5/Ca",
        "Post_Office": "Shah Alam",
        "State": "Selangor"
    },
    {
        "Postcode": "40150",
        "Location": "Jalan Bumbung U8/90",
        "Post_Office": "Shah Alam",
        "State": "Selangor"
    },
    {
        "Postcode": "40150",
        "Location": "Jalan Bumi Aw U5/Aw",
        "Post_Office": "Shah Alam",
        "State": "Selangor"
    },
    {
        "Postcode": "40150",
        "Location": "Jalan Bumi Ax U5/Ax",
        "Post_Office": "Shah Alam",
        "State": "Selangor"
    },
    {
        "Postcode": "40150",
        "Location": "Jalan Bumi U5/136",
        "Post_Office": "Shah Alam",
        "State": "Selangor"
    },
    {
        "Postcode": "40150",
        "Location": "Jalan Bumi U5/137",
        "Post_Office": "Shah Alam",
        "State": "Selangor"
    },
    {
        "Postcode": "40150",
        "Location": "Jalan D U1/D",
        "Post_Office": "Shah Alam",
        "State": "Selangor"
    },
    {
        "Postcode": "40150",
        "Location": "Jalan D U4/D",
        "Post_Office": "Shah Alam",
        "State": "Selangor"
    },
    {
        "Postcode": "40150",
        "Location": "Jalan E U1/E",
        "Post_Office": "Shah Alam",
        "State": "Selangor"
    },
    {
        "Postcode": "40150",
        "Location": "Jalan E U4/E",
        "Post_Office": "Shah Alam",
        "State": "Selangor"
    },
    {
        "Postcode": "40150",
        "Location": "Jalan F U4/F",
        "Post_Office": "Shah Alam",
        "State": "Selangor"
    },
    {
        "Postcode": "40150",
        "Location": "Jalan Fatwa U2/46",
        "Post_Office": "Shah Alam",
        "State": "Selangor"
    },
    {
        "Postcode": "40150",
        "Location": "Jalan H U4/H",
        "Post_Office": "Shah Alam",
        "State": "Selangor"
    },
    {
        "Postcode": "40150",
        "Location": "Jalan H U8/H",
        "Post_Office": "Shah Alam",
        "State": "Selangor"
    },
    {
        "Postcode": "40150",
        "Location": "Jalan J U8/J",
        "Post_Office": "Shah Alam",
        "State": "Selangor"
    },
    {
        "Postcode": "40150",
        "Location": "Jalan Jendela U8/20",
        "Post_Office": "Shah Alam",
        "State": "Selangor"
    },
    {
        "Postcode": "40150",
        "Location": "Jalan K U4/K",
        "Post_Office": "Shah Alam",
        "State": "Selangor"
    },
    {
        "Postcode": "40150",
        "Location": "Jalan K U8/K",
        "Post_Office": "Shah Alam",
        "State": "Selangor"
    },
    {
        "Postcode": "40150",
        "Location": "Jalan Kejora Ac U5/Ac",
        "Post_Office": "Shah Alam",
        "State": "Selangor"
    },
    {
        "Postcode": "40150",
        "Location": "Jalan Kejora Ad U5/Ad",
        "Post_Office": "Shah Alam",
        "State": "Selangor"
    },
    {
        "Postcode": "40150",
        "Location": "Jalan Kejora Ae U5/Ae",
        "Post_Office": "Shah Alam",
        "State": "Selangor"
    },
    {
        "Postcode": "40150",
        "Location": "Jalan Kejora Af U5/Af",
        "Post_Office": "Shah Alam",
        "State": "Selangor"
    },
    {
        "Postcode": "40150",
        "Location": "Jalan L U4/L",
        "Post_Office": "Shah Alam",
        "State": "Selangor"
    },
    {
        "Postcode": "40150",
        "Location": "Jalan L U8/L",
        "Post_Office": "Shah Alam",
        "State": "Selangor"
    },
    {
        "Postcode": "40150",
        "Location": "Jalan Lelangit  U8/45",
        "Post_Office": "Shah Alam",
        "State": "Selangor"
    },
    {
        "Postcode": "40150",
        "Location": "Jalan M U4/M",
        "Post_Office": "Shah Alam",
        "State": "Selangor"
    },
    {
        "Postcode": "40150",
        "Location": "Jalan M U8/M",
        "Post_Office": "Shah Alam",
        "State": "Selangor"
    },
    {
        "Postcode": "40150",
        "Location": "Jalan Marikh Cb U5/Cb",
        "Post_Office": "Shah Alam",
        "State": "Selangor"
    },
    {
        "Postcode": "40150",
        "Location": "Jalan Marikh U5/174",
        "Post_Office": "Shah Alam",
        "State": "Selangor"
    },
    {
        "Postcode": "40150",
        "Location": "Jalan Marikh U5/175",
        "Post_Office": "Shah Alam",
        "State": "Selangor"
    },
    {
        "Postcode": "40150",
        "Location": "Jalan Marikh U5/176",
        "Post_Office": "Shah Alam",
        "State": "Selangor"
    },
    {
        "Postcode": "40150",
        "Location": "Jalan Marikh U5/17A",
        "Post_Office": "Shah Alam",
        "State": "Selangor"
    },
    {
        "Postcode": "40150",
        "Location": "Jalan Menara Satu U5/5A",
        "Post_Office": "Shah Alam",
        "State": "Selangor"
    },
    {
        "Postcode": "40150",
        "Location": "Jalan Menara U8/9A",
        "Post_Office": "Shah Alam",
        "State": "Selangor"
    },
    {
        "Postcode": "40150",
        "Location": "Jalan Merah Bungsu U9/17",
        "Post_Office": "Shah Alam",
        "State": "Selangor"
    },
    {
        "Postcode": "40150",
        "Location": "Jalan Merah Delima Empat U9/7D",
        "Post_Office": "Shah Alam",
        "State": "Selangor"
    },
    {
        "Postcode": "40150",
        "Location": "Jalan Merah Delima Tiga U9/7C",
        "Post_Office": "Shah Alam",
        "State": "Selangor"
    },
    {
        "Postcode": "40150",
        "Location": "Jalan Merah Hati Satu U9/2A",
        "Post_Office": "Shah Alam",
        "State": "Selangor"
    },
    {
        "Postcode": "40150",
        "Location": "Jalan Merah Jambu Empat U9/8D",
        "Post_Office": "Shah Alam",
        "State": "Selangor"
    },
    {
        "Postcode": "40150",
        "Location": "Jalan Merah Jambu Lima U9/8E",
        "Post_Office": "Shah Alam",
        "State": "Selangor"
    },
    {
        "Postcode": "40150",
        "Location": "Jalan Merah Kesumba Dua U9/18B",
        "Post_Office": "Shah Alam",
        "State": "Selangor"
    },
    {
        "Postcode": "40150",
        "Location": "Jalan Merah Kesumba Satu U9/18A",
        "Post_Office": "Shah Alam",
        "State": "Selangor"
    },
    {
        "Postcode": "40150",
        "Location": "Jalan Merah Kesumba U9/18",
        "Post_Office": "Shah Alam",
        "State": "Selangor"
    },
    {
        "Postcode": "40150",
        "Location": "Jalan Merah Mawar Dua Belas U9/6M",
        "Post_Office": "Shah Alam",
        "State": "Selangor"
    },
    {
        "Postcode": "40150",
        "Location": "Jalan Merah Mawar Enam U9/6F",
        "Post_Office": "Shah Alam",
        "State": "Selangor"
    },
    {
        "Postcode": "40150",
        "Location": "Jalan Merah Mawar Lapan U9/6H",
        "Post_Office": "Shah Alam",
        "State": "Selangor"
    },
    {
        "Postcode": "40150",
        "Location": "Jalan Merah Mawar Sebelas U9/6L",
        "Post_Office": "Shah Alam",
        "State": "Selangor"
    },
    {
        "Postcode": "40150",
        "Location": "Jalan Merah Mawar Sembilan U9/6J",
        "Post_Office": "Shah Alam",
        "State": "Selangor"
    },
    {
        "Postcode": "40150",
        "Location": "Jalan Merah Mawar Sepuluh U9/6K",
        "Post_Office": "Shah Alam",
        "State": "Selangor"
    },
    {
        "Postcode": "40150",
        "Location": "Jalan Merah Mawar Tiga Belas U9/6N",
        "Post_Office": "Shah Alam",
        "State": "Selangor"
    },
    {
        "Postcode": "40150",
        "Location": "Jalan Merah Mawar Tujuh U9/6G",
        "Post_Office": "Shah Alam",
        "State": "Selangor"
    },
    {
        "Postcode": "40150",
        "Location": "Jalan Merah Murup U9/16",
        "Post_Office": "Shah Alam",
        "State": "Selangor"
    },
    {
        "Postcode": "40150",
        "Location": "Jalan Merah Pelangi Satu U9/19A",
        "Post_Office": "Shah Alam",
        "State": "Selangor"
    },
    {
        "Postcode": "40150",
        "Location": "Jalan Merah Pelangi U9/19",
        "Post_Office": "Shah Alam",
        "State": "Selangor"
    },
    {
        "Postcode": "40150",
        "Location": "Jalan Merah Pulasan Dua U9/4C",
        "Post_Office": "Shah Alam",
        "State": "Selangor"
    },
    {
        "Postcode": "40150",
        "Location": "Jalan Merah Saga Empat U9/5D",
        "Post_Office": "Shah Alam",
        "State": "Selangor"
    },
    {
        "Postcode": "40150",
        "Location": "Jalan Merah Saga Lima U9/5E",
        "Post_Office": "Shah Alam",
        "State": "Selangor"
    },
    {
        "Postcode": "40150",
        "Location": "Jalan Mesra 1",
        "Post_Office": "Shah Alam",
        "State": "Selangor"
    },
    {
        "Postcode": "40150",
        "Location": "Jalan Mihrab U8/3",
        "Post_Office": "Shah Alam",
        "State": "Selangor"
    },
    {
        "Postcode": "40150",
        "Location": "Jalan Monfort",
        "Post_Office": "Shah Alam",
        "State": "Selangor"
    },
    {
        "Postcode": "40150",
        "Location": "Jalan Musytari Ap U5/Ap",
        "Post_Office": "Shah Alam",
        "State": "Selangor"
    },
    {
        "Postcode": "40150",
        "Location": "Jalan Musytari Aq U5/Aq",
        "Post_Office": "Shah Alam",
        "State": "Selangor"
    },
    {
        "Postcode": "40150",
        "Location": "Jalan Nova H U5/H",
        "Post_Office": "Shah Alam",
        "State": "Selangor"
    },
    {
        "Postcode": "40150",
        "Location": "Jalan Nova J U5/J",
        "Post_Office": "Shah Alam",
        "State": "Selangor"
    },
    {
        "Postcode": "40150",
        "Location": "Jalan Nova K U5/K",
        "Post_Office": "Shah Alam",
        "State": "Selangor"
    },
    {
        "Postcode": "40150",
        "Location": "Jalan Nova L U5/L",
        "Post_Office": "Shah Alam",
        "State": "Selangor"
    },
    {
        "Postcode": "40150",
        "Location": "Jalan Nova M U5/M",
        "Post_Office": "Shah Alam",
        "State": "Selangor"
    },
    {
        "Postcode": "40150",
        "Location": "Jalan Nova N U5/N",
        "Post_Office": "Shah Alam",
        "State": "Selangor"
    },
    {
        "Postcode": "40150",
        "Location": "Jalan Nova P U5/P",
        "Post_Office": "Shah Alam",
        "State": "Selangor"
    },
    {
        "Postcode": "40150",
        "Location": "Jalan Nova Q U5/Q",
        "Post_Office": "Shah Alam",
        "State": "Selangor"
    },
    {
        "Postcode": "40150",
        "Location": "Jalan Nova U5/52A",
        "Post_Office": "Shah Alam",
        "State": "Selangor"
    },
    {
        "Postcode": "40150",
        "Location": "Jalan Nova U5/59A",
        "Post_Office": "Shah Alam",
        "State": "Selangor"
    },
    {
        "Postcode": "40150",
        "Location": "Jalan Nova U5/60A",
        "Post_Office": "Shah Alam",
        "State": "Selangor"
    },
    {
        "Postcode": "40150",
        "Location": "Jalan Nova U5/60B",
        "Post_Office": "Shah Alam",
        "State": "Selangor"
    },
    {
        "Postcode": "40150",
        "Location": "Jalan Nova U5/67A",
        "Post_Office": "Shah Alam",
        "State": "Selangor"
    },
    {
        "Postcode": "40150",
        "Location": "Jalan Nova U5/71A",
        "Post_Office": "Shah Alam",
        "State": "Selangor"
    },
    {
        "Postcode": "40150",
        "Location": "Jalan Nova U5/77A",
        "Post_Office": "Shah Alam",
        "State": "Selangor"
    },
    {
        "Postcode": "40150",
        "Location": "Jalan Nova U5/79A",
        "Post_Office": "Shah Alam",
        "State": "Selangor"
    },
    {
        "Postcode": "40150",
        "Location": "Jalan Nova U5/86A",
        "Post_Office": "Shah Alam",
        "State": "Selangor"
    },
    {
        "Postcode": "40150",
        "Location": "Jalan Nova U5/96A",
        "Post_Office": "Shah Alam",
        "State": "Selangor"
    },
    {
        "Postcode": "40150",
        "Location": "Jalan Pluto Ay U5/Ay",
        "Post_Office": "Shah Alam",
        "State": "Selangor"
    },
    {
        "Postcode": "40150",
        "Location": "Jalan Pluto Az U5/Az",
        "Post_Office": "Shah Alam",
        "State": "Selangor"
    },
    {
        "Postcode": "40150",
        "Location": "Jalan Subang Indah",
        "Post_Office": "Shah Alam",
        "State": "Selangor"
    },
    {
        "Postcode": "40150",
        "Location": "Jalan Subang Permai G U6/G",
        "Post_Office": "Shah Alam",
        "State": "Selangor"
    },
    {
        "Postcode": "40150",
        "Location": "Jalan Subang Permai Utama",
        "Post_Office": "Shah Alam",
        "State": "Selangor"
    },
    {
        "Postcode": "40150",
        "Location": "Jalan Suria U5/103A",
        "Post_Office": "Shah Alam",
        "State": "Selangor"
    },
    {
        "Postcode": "40150",
        "Location": "Jalan Tiang Seri U8/73",
        "Post_Office": "Shah Alam",
        "State": "Selangor"
    },
    {
        "Postcode": "40150",
        "Location": "Jalan Tiang U8/93A",
        "Post_Office": "Shah Alam",
        "State": "Selangor"
    },
    {
        "Postcode": "40150",
        "Location": "Jalan Ubin U8/19",
        "Post_Office": "Shah Alam",
        "State": "Selangor"
    },
    {
        "Postcode": "40150",
        "Location": "Jalan Ungu U9/30A",
        "Post_Office": "Shah Alam",
        "State": "Selangor"
    },
    {
        "Postcode": "40150",
        "Location": "Jalan Warkah U2/44",
        "Post_Office": "Shah Alam",
        "State": "Selangor"
    },
    {
        "Postcode": "40150",
        "Location": "Jalan Waruna Ar U5/Ar",
        "Post_Office": "Shah Alam",
        "State": "Selangor"
    },
    {
        "Postcode": "40150",
        "Location": "Jalan Waruna As U5/As",
        "Post_Office": "Shah Alam",
        "State": "Selangor"
    },
    {
        "Postcode": "40150",
        "Location": "Jalan Waruna At U5/At",
        "Post_Office": "Shah Alam",
        "State": "Selangor"
    },
    {
        "Postcode": "40150",
        "Location": "Jalan Waruna Av U5/Av",
        "Post_Office": "Shah Alam",
        "State": "Selangor"
    },
    {
        "Postcode": "40150",
        "Location": "Jalan Zuhal Cc U5/Cc",
        "Post_Office": "Shah Alam",
        "State": "Selangor"
    },
    {
        "Postcode": "40150",
        "Location": "Jalan Zuhal Cd U5/Cd",
        "Post_Office": "Shah Alam",
        "State": "Selangor"
    },
    {
        "Postcode": "40150",
        "Location": "Jalan Zuhal Ce U5/Ce",
        "Post_Office": "Shah Alam",
        "State": "Selangor"
    },
    {
        "Postcode": "40150",
        "Location": "Jalan Zuhal Cf U5/Cf",
        "Post_Office": "Shah Alam",
        "State": "Selangor"
    },
    {
        "Postcode": "40150",
        "Location": "Jalan Zuhrah Ba U5/Ba",
        "Post_Office": "Shah Alam",
        "State": "Selangor"
    },
    {
        "Postcode": "40150",
        "Location": "Jalan Zuhrah Bb U5/Bb",
        "Post_Office": "Shah Alam",
        "State": "Selangor"
    },
    {
        "Postcode": "40150",
        "Location": "Jalan Zuhrah Bc U5/Bc",
        "Post_Office": "Shah Alam",
        "State": "Selangor"
    },
    {
        "Postcode": "40150",
        "Location": "Jalan Zuhrah Bd U5/Bd",
        "Post_Office": "Shah Alam",
        "State": "Selangor"
    },
    {
        "Postcode": "40150",
        "Location": "Jalan Zuhrah Be U5/Be",
        "Post_Office": "Shah Alam",
        "State": "Selangor"
    },
    {
        "Postcode": "40150",
        "Location": "Jalan Zuhrah Bf U5/Bf",
        "Post_Office": "Shah Alam",
        "State": "Selangor"
    },
    {
        "Postcode": "40150",
        "Location": "Jalan Zuhrah Bg U5/Bg",
        "Post_Office": "Shah Alam",
        "State": "Selangor"
    },
    {
        "Postcode": "40150",
        "Location": "Jalan Zuhrah Bh U5/Bh",
        "Post_Office": "Shah Alam",
        "State": "Selangor"
    },
    {
        "Postcode": "40150",
        "Location": "Pusat Perdagangan Subang Boulevard",
        "Post_Office": "Shah Alam",
        "State": "Selangor"
    },
    {
        "Postcode": "40150",
        "Location": "Pinggiran Suria Jelutong 1",
        "Post_Office": "Shah Alam",
        "State": "Selangor"
    },
    {
        "Postcode": "40150",
        "Location": "Bandar Saujana",
        "Post_Office": "Shah Alam",
        "State": "Selangor"
    },
    {
        "Postcode": "40150",
        "Location": "Jalan Lapangan Terbang Subang",
        "Post_Office": "Shah Alam",
        "State": "Selangor"
    },
    {
        "Postcode": "40150",
        "Location": "Residensi Alpine",
        "Post_Office": "Shah Alam",
        "State": "Selangor"
    },
    {
        "Postcode": "40150",
        "Location": "Perniagaan Temasya 8",
        "Post_Office": "Shah Alam",
        "State": "Selangor"
    },
    {
        "Postcode": "40150",
        "Location": "Seksyen U8",
        "Post_Office": "Shah Alam",
        "State": "Selangor"
    },
    {
        "Postcode": "40150",
        "Location": "Kampung Lembah Bina",
        "Post_Office": "Shah Alam",
        "State": "Selangor"
    },
    {
        "Postcode": "40150",
        "Location": "Kampung Rantau Selamat",
        "Post_Office": "Shah Alam",
        "State": "Selangor"
    },
    {
        "Postcode": "40150",
        "Location": "Hicom Glenmarie Industrial Park",
        "Post_Office": "Shah Alam",
        "State": "Selangor"
    },
    {
        "Postcode": "40150",
        "Location": "Temasya Industrial Park",
        "Post_Office": "Shah Alam",
        "State": "Selangor"
    },
    {
        "Postcode": "40150",
        "Location": "Saujana Resort",
        "Post_Office": "Shah Alam",
        "State": "Selangor"
    },
    {
        "Postcode": "40150",
        "Location": "Damai Suria",
        "Post_Office": "Shah Alam",
        "State": "Selangor"
    },
    {
        "Postcode": "40150",
        "Location": "Bandar Pinggiran Subang\r\n",
        "Post_Office": "Shah Alam",
        "State": "Selangor"
    },
    {
        "Postcode": "40150",
        "Location": "Cahaya Spk\r\n",
        "Post_Office": "Shah Alam",
        "State": "Selangor"
    },
    {
        "Postcode": "40150",
        "Location": "Cahaya\r\n Heights ",
        "Post_Office": "Shah Alam",
        "State": "Selangor"
    },
    {
        "Postcode": "40150",
        "Location": "Desa Subang Perantau Dua\r\n",
        "Post_Office": "Shah Alam",
        "State": "Selangor"
    },
    {
        "Postcode": "40150",
        "Location": "Glenhill Saujana\r\n",
        "Post_Office": "Shah Alam",
        "State": "Selangor"
    },
    {
        "Postcode": "40150",
        "Location": "Glenmarie Court\r\n",
        "Post_Office": "Shah Alam",
        "State": "Selangor"
    },
    {
        "Postcode": "40150",
        "Location": "Glenmarie Gardens\r\n",
        "Post_Office": "Shah Alam",
        "State": "Selangor"
    },
    {
        "Postcode": "40150",
        "Location": "Glenmarie Residences\r\n",
        "Post_Office": "Shah Alam",
        "State": "Selangor"
    },
    {
        "Postcode": "40150",
        "Location": "Kampung Bukit Cherakah\r\n",
        "Post_Office": "Shah Alam",
        "State": "Selangor"
    },
    {
        "Postcode": "40150",
        "Location": "Kampung Melayu Subang Tambahan\r\n",
        "Post_Office": "Shah Alam",
        "State": "Selangor"
    },
    {
        "Postcode": "40150",
        "Location": "Kampung Seri Muhibbah\r\n",
        "Post_Office": "Shah Alam",
        "State": "Selangor"
    },
    {
        "Postcode": "40150",
        "Location": "Kampung Sri Bena\r\n",
        "Post_Office": "Shah Alam",
        "State": "Selangor"
    },
    {
        "Postcode": "40150",
        "Location": "Ladang Subang\r\n",
        "Post_Office": "Shah Alam",
        "State": "Selangor"
    },
    {
        "Postcode": "40150",
        "Location": "Mah Sing Intergrated Industrial\r\n Park ",
        "Post_Office": "Shah Alam",
        "State": "Selangor"
    },
    {
        "Postcode": "40150",
        "Location": "Mutiara Subang\r\n",
        "Post_Office": "Shah Alam",
        "State": "Selangor"
    },
    {
        "Postcode": "40150",
        "Location": "Pinggiran Golf Saujana\r\n",
        "Post_Office": "Shah Alam",
        "State": "Selangor"
    },
    {
        "Postcode": "40150",
        "Location": "Pusat Perdagangan Subang Permai\r\n",
        "Post_Office": "Shah Alam",
        "State": "Selangor"
    },
    {
        "Postcode": "40150",
        "Location": "Subang Galaksi",
        "Post_Office": "Shah Alam",
        "State": "Selangor"
    },
    {
        "Postcode": "40150",
        "Location": "Subang Pelangi\r\n",
        "Post_Office": "Shah Alam",
        "State": "Selangor"
    },
    {
        "Postcode": "40150",
        "Location": "Subang Permata\r\n",
        "Post_Office": "Shah Alam",
        "State": "Selangor"
    },
    {
        "Postcode": "40150",
        "Location": "Sunway Kayangan\r\n",
        "Post_Office": "Shah Alam",
        "State": "Selangor"
    },
    {
        "Postcode": "40150",
        "Location": "Taman Industri Pinggiran Subang",
        "Post_Office": "Shah Alam",
        "State": "Selangor"
    },
    {
        "Postcode": "40150",
        "Location": "Taman Ladang Jaya",
        "Post_Office": "Shah Alam",
        "State": "Selangor"
    },
    {
        "Postcode": "40150",
        "Location": "Taman Nusa Subang",
        "Post_Office": "Shah Alam",
        "State": "Selangor"
    },
    {
        "Postcode": "40150",
        "Location": "Taman Perindustrian Batu Tiga",
        "Post_Office": "Shah Alam",
        "State": "Selangor"
    },
    {
        "Postcode": "40150",
        "Location": "Taman Perindustrian Saujana Indah",
        "Post_Office": "Shah Alam",
        "State": "Selangor"
    },
    {
        "Postcode": "40150",
        "Location": "Taman Puteri Subang",
        "Post_Office": "Shah Alam",
        "State": "Selangor"
    },
    {
        "Postcode": "40150",
        "Location": "Taman Setia Warisan",
        "Post_Office": "Shah Alam",
        "State": "Selangor"
    },
    {
        "Postcode": "40150",
        "Location": "Taman Subang Delima",
        "Post_Office": "Shah Alam",
        "State": "Selangor"
    },
    {
        "Postcode": "40150",
        "Location": "Taman Subang Idaman",
        "Post_Office": "Shah Alam",
        "State": "Selangor"
    },
    {
        "Postcode": "40150",
        "Location": "Taman Subang Jasa",
        "Post_Office": "Shah Alam",
        "State": "Selangor"
    },
    {
        "Postcode": "40150",
        "Location": "Taman Subang Murni",
        "Post_Office": "Shah Alam",
        "State": "Selangor"
    },
    {
        "Postcode": "40150",
        "Location": "Taman Ttdi Jaya",
        "Post_Office": "Shah Alam",
        "State": "Selangor"
    },
    {
        "Postcode": "40150",
        "Location": "Temasya Anggun",
        "Post_Office": "Shah Alam",
        "State": "Selangor"
    },
    {
        "Postcode": "40150",
        "Location": "Temasya Citra",
        "Post_Office": "Shah Alam",
        "State": "Selangor"
    },
    {
        "Postcode": "40150",
        "Location": "Temasya Suria",
        "Post_Office": "Shah Alam",
        "State": "Selangor"
    },
    {
        "Postcode": "40150",
        "Location": "Taman Mesra",
        "Post_Office": "Shah Alam",
        "State": "Selangor"
    },
    {
        "Postcode": "40150",
        "Location": "Dataran Kencana",
        "Post_Office": "Shah Alam",
        "State": "Selangor"
    },
    {
        "Postcode": "40150",
        "Location": "Elmina Heights",
        "Post_Office": "Shah Alam",
        "State": "Selangor"
    },
    {
        "Postcode": "40150",
        "Location": "Zon Perindustrian Subang Hi-Tech",
        "Post_Office": "Shah Alam",
        "State": "Selangor"
    },
    {
        "Postcode": "40150",
        "Location": "Jalan Resak",
        "Post_Office": "Shah Alam",
        "State": "Selangor"
    },
    {
        "Postcode": "40150",
        "Location": "Kampung Bunga Raya",
        "Post_Office": "Shah Alam",
        "State": "Selangor"
    },
    {
        "Postcode": "40150",
        "Location": "Residensi Tujuh",
        "Post_Office": "Shah Alam",
        "State": "Selangor"
    },
    {
        "Postcode": "40150",
        "Location": "Pusat Bandar Kwasa Damansara",
        "Post_Office": "Shah Alam",
        "State": "Selangor"
    },
    {
        "Postcode": "40150",
        "Location": "Taman Perindustrian Temasya ",
        "Post_Office": "Shah Alam",
        "State": "Selangor"
    },
    {
        "Postcode": "40150",
        "Location": "Batu Tiga",
        "Post_Office": "Shah Alam",
        "State": "Selangor"
    },
    {
        "Postcode": "40150",
        "Location": "Bukit Cerakah",
        "Post_Office": "Shah Alam",
        "State": "Selangor"
    },
    {
        "Postcode": "40150",
        "Location": "Bukit Jelutong",
        "Post_Office": "Shah Alam",
        "State": "Selangor"
    },
    {
        "Postcode": "40150",
        "Location": "Desa Subang Permai",
        "Post_Office": "Shah Alam",
        "State": "Selangor"
    },
    {
        "Postcode": "40150",
        "Location": "Jalan Akauntan U1/2",
        "Post_Office": "Shah Alam",
        "State": "Selangor"
    },
    {
        "Postcode": "40150",
        "Location": "Jalan Akitek U1/22",
        "Post_Office": "Shah Alam",
        "State": "Selangor"
    },
    {
        "Postcode": "40150",
        "Location": "Jalan Angkasawan U1/39",
        "Post_Office": "Shah Alam",
        "State": "Selangor"
    },
    {
        "Postcode": "40150",
        "Location": "Jalan Askar U1/56",
        "Post_Office": "Shah Alam",
        "State": "Selangor"
    },
    {
        "Postcode": "40150",
        "Location": "Jalan Bait U2/38",
        "Post_Office": "Shah Alam",
        "State": "Selangor"
    },
    {
        "Postcode": "40150",
        "Location": "Jalan Balada U2/35",
        "Post_Office": "Shah Alam",
        "State": "Selangor"
    },
    {
        "Postcode": "40150",
        "Location": "Jalan Batu Tiga Subang",
        "Post_Office": "Shah Alam",
        "State": "Selangor"
    },
    {
        "Postcode": "40150",
        "Location": "Jalan Bendahari U1/3",
        "Post_Office": "Shah Alam",
        "State": "Selangor"
    },
    {
        "Postcode": "40150",
        "Location": "Jalan Bidalan U2/12",
        "Post_Office": "Shah Alam",
        "State": "Selangor"
    },
    {
        "Postcode": "40150",
        "Location": "Jalan Biduk U2/20",
        "Post_Office": "Shah Alam",
        "State": "Selangor"
    },
    {
        "Postcode": "40150",
        "Location": "Jalan Bomba U1/59",
        "Post_Office": "Shah Alam",
        "State": "Selangor"
    },
    {
        "Postcode": "40150",
        "Location": "Jalan Buana U2/21",
        "Post_Office": "Shah Alam",
        "State": "Selangor"
    },
    {
        "Postcode": "40150",
        "Location": "Jalan Budayawan U2/2",
        "Post_Office": "Shah Alam",
        "State": "Selangor"
    },
    {
        "Postcode": "40150",
        "Location": "Jalan Bukit Badak",
        "Post_Office": "Shah Alam",
        "State": "Selangor"
    },
    {
        "Postcode": "40150",
        "Location": "Jalan Bukit Cerakah",
        "Post_Office": "Shah Alam",
        "State": "Selangor"
    },
    {
        "Postcode": "40150",
        "Location": "Jalan Cendekiawan 1/15A",
        "Post_Office": "Shah Alam",
        "State": "Selangor"
    },
    {
        "Postcode": "40150",
        "Location": "Jalan Citrawara U2/11",
        "Post_Office": "Shah Alam",
        "State": "Selangor"
    },
    {
        "Postcode": "40150",
        "Location": "Jalan Dekan U1/27",
        "Post_Office": "Shah Alam",
        "State": "Selangor"
    },
    {
        "Postcode": "40150",
        "Location": "Jalan Dinasti U2/10",
        "Post_Office": "Shah Alam",
        "State": "Selangor"
    },
    {
        "Postcode": "40150",
        "Location": "Jalan Diplomat Satu U1/11A",
        "Post_Office": "Shah Alam",
        "State": "Selangor"
    },
    {
        "Postcode": "40150",
        "Location": "Jalan Diplomat U1/11",
        "Post_Office": "Shah Alam",
        "State": "Selangor"
    },
    {
        "Postcode": "40150",
        "Location": "Jalan Doktor U1/67",
        "Post_Office": "Shah Alam",
        "State": "Selangor"
    },
    {
        "Postcode": "40150",
        "Location": "Jalan Drama U2/37",
        "Post_Office": "Shah Alam",
        "State": "Selangor"
    },
    {
        "Postcode": "40150",
        "Location": "Jalan Duta Dua U1/12B",
        "Post_Office": "Shah Alam",
        "State": "Selangor"
    },
    {
        "Postcode": "40150",
        "Location": "Jalan Duta Empat U1/12D",
        "Post_Office": "Shah Alam",
        "State": "Selangor"
    },
    {
        "Postcode": "40150",
        "Location": "Jalan Duta Enam U1/12F",
        "Post_Office": "Shah Alam",
        "State": "Selangor"
    },
    {
        "Postcode": "40150",
        "Location": "Jalan Duta Lapan U1/12H",
        "Post_Office": "Shah Alam",
        "State": "Selangor"
    },
    {
        "Postcode": "40150",
        "Location": "Jalan Duta Lima U1/12E",
        "Post_Office": "Shah Alam",
        "State": "Selangor"
    },
    {
        "Postcode": "40150",
        "Location": "Jalan Duta Satu U1/12A",
        "Post_Office": "Shah Alam",
        "State": "Selangor"
    },
    {
        "Postcode": "40150",
        "Location": "Jalan Duta Sembilan U1/12J",
        "Post_Office": "Shah Alam",
        "State": "Selangor"
    },
    {
        "Postcode": "40150",
        "Location": "Jalan Duta Tiga U1/12C",
        "Post_Office": "Shah Alam",
        "State": "Selangor"
    },
    {
        "Postcode": "40150",
        "Location": "Jalan Duta Tujuh U1/12G",
        "Post_Office": "Shah Alam",
        "State": "Selangor"
    },
    {
        "Postcode": "40150",
        "Location": "Jalan Duta U1/12",
        "Post_Office": "Shah Alam",
        "State": "Selangor"
    },
    {
        "Postcode": "40150",
        "Location": "Jalan Eksekutif Dua U1/6B",
        "Post_Office": "Shah Alam",
        "State": "Selangor"
    },
    {
        "Postcode": "40150",
        "Location": "Jalan Eksekutif Empat U1/6D",
        "Post_Office": "Shah Alam",
        "State": "Selangor"
    },
    {
        "Postcode": "40150",
        "Location": "Jalan Eksekutif Lima U1/6E",
        "Post_Office": "Shah Alam",
        "State": "Selangor"
    },
    {
        "Postcode": "40150",
        "Location": "Jalan Eksekutif Satu U1/6A",
        "Post_Office": "Shah Alam",
        "State": "Selangor"
    },
    {
        "Postcode": "40150",
        "Location": "Jalan Eksekutif Tiga U1/6C",
        "Post_Office": "Shah Alam",
        "State": "Selangor"
    },
    {
        "Postcode": "40150",
        "Location": "Jalan Eksekutif U1/6",
        "Post_Office": "Shah Alam",
        "State": "Selangor"
    },
    {
        "Postcode": "40150",
        "Location": "Jalan Esei U2/41",
        "Post_Office": "Shah Alam",
        "State": "Selangor"
    },
    {
        "Postcode": "40150",
        "Location": "Jalan Firasat U2/13",
        "Post_Office": "Shah Alam",
        "State": "Selangor"
    },
    {
        "Postcode": "40150",
        "Location": "Jalan Glanmarie",
        "Post_Office": "Shah Alam",
        "State": "Selangor"
    },
    {
        "Postcode": "40150",
        "Location": "Jalan Hakim U1/24",
        "Post_Office": "Shah Alam",
        "State": "Selangor"
    },
    {
        "Postcode": "40150",
        "Location": "Jalan Hikayat U2/9",
        "Post_Office": "Shah Alam",
        "State": "Selangor"
    },
    {
        "Postcode": "40150",
        "Location": "Jalan Ilham U2/14",
        "Post_Office": "Shah Alam",
        "State": "Selangor"
    },
    {
        "Postcode": "40150",
        "Location": "Jalan Intan",
        "Post_Office": "Shah Alam",
        "State": "Selangor"
    },
    {
        "Postcode": "40150",
        "Location": "Jalan Jati",
        "Post_Office": "Shah Alam",
        "State": "Selangor"
    },
    {
        "Postcode": "40150",
        "Location": "Jalan Juru Ukur U1/19",
        "Post_Office": "Shah Alam",
        "State": "Selangor"
    },
    {
        "Postcode": "40150",
        "Location": "Jalan Juruanalisis  U1/35",
        "Post_Office": "Shah Alam",
        "State": "Selangor"
    },
    {
        "Postcode": "40150",
        "Location": "Jalan Juruanalisis Satu U1/35A",
        "Post_Office": "Shah Alam",
        "State": "Selangor"
    },
    {
        "Postcode": "40150",
        "Location": "Jalan Juruaudit U1/37",
        "Post_Office": "Shah Alam",
        "State": "Selangor"
    },
    {
        "Postcode": "40150",
        "Location": "Jalan Jurubina U1/18",
        "Post_Office": "Shah Alam",
        "State": "Selangor"
    },
    {
        "Postcode": "40150",
        "Location": "Jalan Juruelektrik U1/65",
        "Post_Office": "Shah Alam",
        "State": "Selangor"
    },
    {
        "Postcode": "40150",
        "Location": "Jalan Jurugegas U1/64",
        "Post_Office": "Shah Alam",
        "State": "Selangor"
    },
    {
        "Postcode": "40150",
        "Location": "Jalan Jurulatih U1/66",
        "Post_Office": "Shah Alam",
        "State": "Selangor"
    },
    {
        "Postcode": "40150",
        "Location": "Jalan Jurunilai U1/20",
        "Post_Office": "Shah Alam",
        "State": "Selangor"
    },
    {
        "Postcode": "40150",
        "Location": "Jalan Jururancang Satu U1/21A",
        "Post_Office": "Shah Alam",
        "State": "Selangor"
    },
    {
        "Postcode": "40150",
        "Location": "Jalan Jururancang U1/21",
        "Post_Office": "Shah Alam",
        "State": "Selangor"
    },
    {
        "Postcode": "40150",
        "Location": "Jalan Jurureka U1/40",
        "Post_Office": "Shah Alam",
        "State": "Selangor"
    },
    {
        "Postcode": "40150",
        "Location": "Jalan Juruteknik U1/63",
        "Post_Office": "Shah Alam",
        "State": "Selangor"
    },
    {
        "Postcode": "40150",
        "Location": "Jalan Jurutera U1/23",
        "Post_Office": "Shah Alam",
        "State": "Selangor"
    },
    {
        "Postcode": "40150",
        "Location": "Jalan Juruterbang U1/38",
        "Post_Office": "Shah Alam",
        "State": "Selangor"
    },
    {
        "Postcode": "40150",
        "Location": "Jalan Juruwang A U1/A",
        "Post_Office": "Shah Alam",
        "State": "Selangor"
    },
    {
        "Postcode": "40150",
        "Location": "Jalan Juruwang B U1/B",
        "Post_Office": "Shah Alam",
        "State": "Selangor"
    },
    {
        "Postcode": "40150",
        "Location": "Jalan Kajibumi U1/70",
        "Post_Office": "Shah Alam",
        "State": "Selangor"
    },
    {
        "Postcode": "40150",
        "Location": "Jalan Kampung Melayu Subang",
        "Post_Office": "Shah Alam",
        "State": "Selangor"
    },
    {
        "Postcode": "40150",
        "Location": "Jalan Kartunis U1/47",
        "Post_Office": "Shah Alam",
        "State": "Selangor"
    },
    {
        "Postcode": "40150",
        "Location": "Jalan Karyawan U2/3",
        "Post_Office": "Shah Alam",
        "State": "Selangor"
    },
    {
        "Postcode": "40150",
        "Location": "Jalan Kerjaya",
        "Post_Office": "Shah Alam",
        "State": "Selangor"
    },
    {
        "Postcode": "40150",
        "Location": "Jalan Khazanah U2/15",
        "Post_Office": "Shah Alam",
        "State": "Selangor"
    },
    {
        "Postcode": "40150",
        "Location": "Jalan Kiasan U2/25",
        "Post_Office": "Shah Alam",
        "State": "Selangor"
    },
    {
        "Postcode": "40150",
        "Location": "Jalan Klasik U2/42",
        "Post_Office": "Shah Alam",
        "State": "Selangor"
    },
    {
        "Postcode": "40150",
        "Location": "Jalan Konsul Satu  U1/10A",
        "Post_Office": "Shah Alam",
        "State": "Selangor"
    },
    {
        "Postcode": "40150",
        "Location": "Jalan Konsul U1/10",
        "Post_Office": "Shah Alam",
        "State": "Selangor"
    },
    {
        "Postcode": "40150",
        "Location": "Jalan Kontraktor U1/14",
        "Post_Office": "Shah Alam",
        "State": "Selangor"
    },
    {
        "Postcode": "40150",
        "Location": "Jalan Korporat U1/5",
        "Post_Office": "Shah Alam",
        "State": "Selangor"
    },
    {
        "Postcode": "40150",
        "Location": "Jalan Kurator U1/61",
        "Post_Office": "Shah Alam",
        "State": "Selangor"
    },
    {
        "Postcode": "40150",
        "Location": "Jalan Lagenda U2/8",
        "Post_Office": "Shah Alam",
        "State": "Selangor"
    },
    {
        "Postcode": "40150",
        "Location": "Jalan Madah U2/33",
        "Post_Office": "Shah Alam",
        "State": "Selangor"
    },
    {
        "Postcode": "40150",
        "Location": "Jalan Majistret U1/26",
        "Post_Office": "Shah Alam",
        "State": "Selangor"
    },
    {
        "Postcode": "40150",
        "Location": "Jalan Malim U2/6",
        "Post_Office": "Shah Alam",
        "State": "Selangor"
    },
    {
        "Postcode": "40150",
        "Location": "Jalan Melor",
        "Post_Office": "Shah Alam",
        "State": "Selangor"
    },
    {
        "Postcode": "40150",
        "Location": "Jalan Merah Delima Dua U9/7B",
        "Post_Office": "Shah Alam",
        "State": "Selangor"
    },
    {
        "Postcode": "40150",
        "Location": "Jalan Merah Delima Satu U9/7A",
        "Post_Office": "Shah Alam",
        "State": "Selangor"
    },
    {
        "Postcode": "40150",
        "Location": "Jalan Merah Delima U9/7",
        "Post_Office": "Shah Alam",
        "State": "Selangor"
    },
    {
        "Postcode": "40150",
        "Location": "Jalan Merah Dua U9/1B",
        "Post_Office": "Shah Alam",
        "State": "Selangor"
    },
    {
        "Postcode": "40150",
        "Location": "Jalan Merah Hati U9/2",
        "Post_Office": "Shah Alam",
        "State": "Selangor"
    },
    {
        "Postcode": "40150",
        "Location": "Jalan Merah Jambu Dua U9/8B",
        "Post_Office": "Shah Alam",
        "State": "Selangor"
    },
    {
        "Postcode": "40150",
        "Location": "Jalan Merah Jambu Satu U9/8A",
        "Post_Office": "Shah Alam",
        "State": "Selangor"
    },
    {
        "Postcode": "40150",
        "Location": "Jalan Merah Jambu Tiga U9/8C",
        "Post_Office": "Shah Alam",
        "State": "Selangor"
    },
    {
        "Postcode": "40150",
        "Location": "Jalan Merah Jambu U9/8",
        "Post_Office": "Shah Alam",
        "State": "Selangor"
    },
    {
        "Postcode": "40150",
        "Location": "Jalan Merah Mawar Dua U9/6B",
        "Post_Office": "Shah Alam",
        "State": "Selangor"
    },
    {
        "Postcode": "40150",
        "Location": "Jalan Merah Mawar Empat U9/6D",
        "Post_Office": "Shah Alam",
        "State": "Selangor"
    },
    {
        "Postcode": "40150",
        "Location": "Jalan Merah Mawar Lima U9/6E",
        "Post_Office": "Shah Alam",
        "State": "Selangor"
    },
    {
        "Postcode": "40150",
        "Location": "Jalan Merah Mawar Satu U9/6A",
        "Post_Office": "Shah Alam",
        "State": "Selangor"
    },
    {
        "Postcode": "40150",
        "Location": "Jalan Merah Mawar Tiga U9/6C",
        "Post_Office": "Shah Alam",
        "State": "Selangor"
    },
    {
        "Postcode": "40150",
        "Location": "Jalan Merah Mawar U9/6",
        "Post_Office": "Shah Alam",
        "State": "Selangor"
    },
    {
        "Postcode": "40150",
        "Location": "Jalan Merah Padi Dua U9/3B",
        "Post_Office": "Shah Alam",
        "State": "Selangor"
    },
    {
        "Postcode": "40150",
        "Location": "Jalan Merah Padi Satu U9/3A",
        "Post_Office": "Shah Alam",
        "State": "Selangor"
    },
    {
        "Postcode": "40150",
        "Location": "Jalan Merah Padi U9/3",
        "Post_Office": "Shah Alam",
        "State": "Selangor"
    },
    {
        "Postcode": "40150",
        "Location": "Jalan Merah Pulasan Dua U9/4B",
        "Post_Office": "Shah Alam",
        "State": "Selangor"
    },
    {
        "Postcode": "40150",
        "Location": "Jalan Merah Pulasan Satu U9/4A",
        "Post_Office": "Shah Alam",
        "State": "Selangor"
    },
    {
        "Postcode": "40150",
        "Location": "Jalan Merah Pulasan U9/4",
        "Post_Office": "Shah Alam",
        "State": "Selangor"
    },
    {
        "Postcode": "40150",
        "Location": "Jalan Merah Saga Dua U9/5B",
        "Post_Office": "Shah Alam",
        "State": "Selangor"
    },
    {
        "Postcode": "40150",
        "Location": "Jalan Merah Saga Satu U9/5A",
        "Post_Office": "Shah Alam",
        "State": "Selangor"
    },
    {
        "Postcode": "40150",
        "Location": "Jalan Merah Saga Tiga U9/5C",
        "Post_Office": "Shah Alam",
        "State": "Selangor"
    },
    {
        "Postcode": "40150",
        "Location": "Jalan Merah Saga U9/5",
        "Post_Office": "Shah Alam",
        "State": "Selangor"
    },
    {
        "Postcode": "40150",
        "Location": "Jalan Merah Satu U9/1A",
        "Post_Office": "Shah Alam",
        "State": "Selangor"
    },
    {
        "Postcode": "40150",
        "Location": "Jalan Merah U9/1",
        "Post_Office": "Shah Alam",
        "State": "Selangor"
    },
    {
        "Postcode": "40150",
        "Location": "Jalan Merbau (Kampung Melayu Subang)",
        "Post_Office": "Shah Alam",
        "State": "Selangor"
    },
    {
        "Postcode": "40150",
        "Location": "Jalan Merinyu U1/71",
        "Post_Office": "Shah Alam",
        "State": "Selangor"
    },
    {
        "Postcode": "40150",
        "Location": "Jalan Nova U5/45",
        "Post_Office": "Shah Alam",
        "State": "Selangor"
    },
    {
        "Postcode": "40150",
        "Location": "Jalan Nujum U2/7",
        "Post_Office": "Shah Alam",
        "State": "Selangor"
    },
    {
        "Postcode": "40150",
        "Location": "Jalan Opera  A U2/A",
        "Post_Office": "Shah Alam",
        "State": "Selangor"
    },
    {
        "Postcode": "40150",
        "Location": "Jalan Opera  B U2/B",
        "Post_Office": "Shah Alam",
        "State": "Selangor"
    },
    {
        "Postcode": "40150",
        "Location": "Jalan Opera  C U2/C",
        "Post_Office": "Shah Alam",
        "State": "Selangor"
    },
    {
        "Postcode": "40150",
        "Location": "Jalan Opera  D U2/D",
        "Post_Office": "Shah Alam",
        "State": "Selangor"
    },
    {
        "Postcode": "40150",
        "Location": "Jalan Opera  E U2/E",
        "Post_Office": "Shah Alam",
        "State": "Selangor"
    },
    {
        "Postcode": "40150",
        "Location": "Jalan Opera  F U2/F",
        "Post_Office": "Shah Alam",
        "State": "Selangor"
    },
    {
        "Postcode": "40150",
        "Location": "Jalan Opera  G U2/G",
        "Post_Office": "Shah Alam",
        "State": "Selangor"
    },
    {
        "Postcode": "40150",
        "Location": "Jalan Opera  H U2/H",
        "Post_Office": "Shah Alam",
        "State": "Selangor"
    },
    {
        "Postcode": "40150",
        "Location": "Jalan Opera  J U2/J",
        "Post_Office": "Shah Alam",
        "State": "Selangor"
    },
    {
        "Postcode": "40150",
        "Location": "Jalan Opera  K U2/K",
        "Post_Office": "Shah Alam",
        "State": "Selangor"
    },
    {
        "Postcode": "40150",
        "Location": "Jalan Pantun Satu U2/31A",
        "Post_Office": "Shah Alam",
        "State": "Selangor"
    },
    {
        "Postcode": "40150",
        "Location": "Jalan Pantun U2/31",
        "Post_Office": "Shah Alam",
        "State": "Selangor"
    },
    {
        "Postcode": "40150",
        "Location": "Jalan Pegawai U1/33",
        "Post_Office": "Shah Alam",
        "State": "Selangor"
    },
    {
        "Postcode": "40150",
        "Location": "Jalan Peguam Satu U1/25A",
        "Post_Office": "Shah Alam",
        "State": "Selangor"
    },
    {
        "Postcode": "40150",
        "Location": "Jalan Peguam U1/25",
        "Post_Office": "Shah Alam",
        "State": "Selangor"
    },
    {
        "Postcode": "40150",
        "Location": "Jalan Pekedai U1/36",
        "Post_Office": "Shah Alam",
        "State": "Selangor"
    },
    {
        "Postcode": "40150",
        "Location": "Jalan Pelukis U1/46",
        "Post_Office": "Shah Alam",
        "State": "Selangor"
    },
    {
        "Postcode": "40150",
        "Location": "Jalan Pemaju U1/15",
        "Post_Office": "Shah Alam",
        "State": "Selangor"
    },
    {
        "Postcode": "40150",
        "Location": "Jalan Pembekal U1/13",
        "Post_Office": "Shah Alam",
        "State": "Selangor"
    },
    {
        "Postcode": "40150",
        "Location": "Jalan Pemberita U1/49",
        "Post_Office": "Shah Alam",
        "State": "Selangor"
    },
    {
        "Postcode": "40150",
        "Location": "Jalan Pendaftar U1/54",
        "Post_Office": "Shah Alam",
        "State": "Selangor"
    },
    {
        "Postcode": "40150",
        "Location": "Jalan Pendidik U1/31",
        "Post_Office": "Shah Alam",
        "State": "Selangor"
    },
    {
        "Postcode": "40150",
        "Location": "Jalan Penerbit U1/43",
        "Post_Office": "Shah Alam",
        "State": "Selangor"
    },
    {
        "Postcode": "40150",
        "Location": "Jalan Pengacara U1/48",
        "Post_Office": "Shah Alam",
        "State": "Selangor"
    },
    {
        "Postcode": "40150",
        "Location": "Jalan Pengarah U1/29",
        "Post_Office": "Shah Alam",
        "State": "Selangor"
    },
    {
        "Postcode": "40150",
        "Location": "Jalan Pengaturcara U1/51",
        "Post_Office": "Shah Alam",
        "State": "Selangor"
    },
    {
        "Postcode": "40150",
        "Location": "Jalan Pengawal U1/77",
        "Post_Office": "Shah Alam",
        "State": "Selangor"
    },
    {
        "Postcode": "40150",
        "Location": "Jalan Pengeluaran U1/72",
        "Post_Office": "Shah Alam",
        "State": "Selangor"
    },
    {
        "Postcode": "40150",
        "Location": "Jalan Pengetua U1/32",
        "Post_Office": "Shah Alam",
        "State": "Selangor"
    },
    {
        "Postcode": "40150",
        "Location": "Jalan Penggawa U1/75",
        "Post_Office": "Shah Alam",
        "State": "Selangor"
    },
    {
        "Postcode": "40150",
        "Location": "Jalan Penghulu U1/74",
        "Post_Office": "Shah Alam",
        "State": "Selangor"
    },
    {
        "Postcode": "40150",
        "Location": "Jalan Penguasa U1/53",
        "Post_Office": "Shah Alam",
        "State": "Selangor"
    },
    {
        "Postcode": "40150",
        "Location": "Jalan Pengurus U1/4",
        "Post_Office": "Shah Alam",
        "State": "Selangor"
    },
    {
        "Postcode": "40150",
        "Location": "Jalan Peniaga U1/34",
        "Post_Office": "Shah Alam",
        "State": "Selangor"
    },
    {
        "Postcode": "40150",
        "Location": "Jalan Pensyarah U1/28",
        "Post_Office": "Shah Alam",
        "State": "Selangor"
    },
    {
        "Postcode": "40150",
        "Location": "Jalan Pentadbir U1/30",
        "Post_Office": "Shah Alam",
        "State": "Selangor"
    },
    {
        "Postcode": "40150",
        "Location": "Jalan Pentomin U2/32",
        "Post_Office": "Shah Alam",
        "State": "Selangor"
    },
    {
        "Postcode": "40150",
        "Location": "Jalan Penulis U1/42",
        "Post_Office": "Shah Alam",
        "State": "Selangor"
    },
    {
        "Postcode": "40150",
        "Location": "Jalan Penyair U1/44",
        "Post_Office": "Shah Alam",
        "State": "Selangor"
    },
    {
        "Postcode": "40150",
        "Location": "Jalan Penyajak U1/45",
        "Post_Office": "Shah Alam",
        "State": "Selangor"
    },
    {
        "Postcode": "40150",
        "Location": "Jalan Penyelenggara U1/73",
        "Post_Office": "Shah Alam",
        "State": "Selangor"
    },
    {
        "Postcode": "40150",
        "Location": "Jalan Penyelia U1/78",
        "Post_Office": "Shah Alam",
        "State": "Selangor"
    },
    {
        "Postcode": "40150",
        "Location": "Jalan Penyelidik U1/68",
        "Post_Office": "Shah Alam",
        "State": "Selangor"
    },
    {
        "Postcode": "40150",
        "Location": "Jalan Perajurit U1/58",
        "Post_Office": "Shah Alam",
        "State": "Selangor"
    },
    {
        "Postcode": "40150",
        "Location": "Jalan Peribahasa U2/43",
        "Post_Office": "Shah Alam",
        "State": "Selangor"
    },
    {
        "Postcode": "40150",
        "Location": "Jalan Perintis Satu U1/9A",
        "Post_Office": "Shah Alam",
        "State": "Selangor"
    },
    {
        "Postcode": "40150",
        "Location": "Jalan Perintis U1/9",
        "Post_Office": "Shah Alam",
        "State": "Selangor"
    },
    {
        "Postcode": "40150",
        "Location": "Jalan Perunding U1/17",
        "Post_Office": "Shah Alam",
        "State": "Selangor"
    },
    {
        "Postcode": "40150",
        "Location": "Jalan Pkns (Kampung Melayu Subang)",
        "Post_Office": "Shah Alam",
        "State": "Selangor"
    },
    {
        "Postcode": "40150",
        "Location": "Jalan Polis U1/55",
        "Post_Office": "Shah Alam",
        "State": "Selangor"
    },
    {
        "Postcode": "40150",
        "Location": "Jalan Posman U1/60",
        "Post_Office": "Shah Alam",
        "State": "Selangor"
    },
    {
        "Postcode": "40150",
        "Location": "Jalan Presiden U1/1",
        "Post_Office": "Shah Alam",
        "State": "Selangor"
    },
    {
        "Postcode": "40150",
        "Location": "Jalan Prosa U2/28",
        "Post_Office": "Shah Alam",
        "State": "Selangor"
    },
    {
        "Postcode": "40150",
        "Location": "Jalan Puisi U2/27",
        "Post_Office": "Shah Alam",
        "State": "Selangor"
    },
    {
        "Postcode": "40150",
        "Location": "Jalan Pujangga U2/4",
        "Post_Office": "Shah Alam",
        "State": "Selangor"
    },
    {
        "Postcode": "40150",
        "Location": "Jalan Purnama U2/18",
        "Post_Office": "Shah Alam",
        "State": "Selangor"
    },
    {
        "Postcode": "40150",
        "Location": "Jalan Pusara Aman (Kampung Melayu Subang)",
        "Post_Office": "Shah Alam",
        "State": "Selangor"
    },
    {
        "Postcode": "40150",
        "Location": "Jalan Pustaka U2/24",
        "Post_Office": "Shah Alam",
        "State": "Selangor"
    },
    {
        "Postcode": "40150",
        "Location": "Jalan Pustakawan U1/62",
        "Post_Office": "Shah Alam",
        "State": "Selangor"
    },
    {
        "Postcode": "40150",
        "Location": "Jalan Rangkap U2/39",
        "Post_Office": "Shah Alam",
        "State": "Selangor"
    },
    {
        "Postcode": "40150",
        "Location": "Jalan Rektor U1/7",
        "Post_Office": "Shah Alam",
        "State": "Selangor"
    },
    {
        "Postcode": "40150",
        "Location": "Jalan Saintis U1/69",
        "Post_Office": "Shah Alam",
        "State": "Selangor"
    },
    {
        "Postcode": "40150",
        "Location": "Jalan Sajak U2/29",
        "Post_Office": "Shah Alam",
        "State": "Selangor"
    },
    {
        "Postcode": "40150",
        "Location": "Jalan Salasilah U2/17",
        "Post_Office": "Shah Alam",
        "State": "Selangor"
    },
    {
        "Postcode": "40150",
        "Location": "Jalan Samudera U2/23",
        "Post_Office": "Shah Alam",
        "State": "Selangor"
    },
    {
        "Postcode": "40150",
        "Location": "Jalan Sandiwara U2/40",
        "Post_Office": "Shah Alam",
        "State": "Selangor"
    },
    {
        "Postcode": "40150",
        "Location": "Jalan Santun 1/13A",
        "Post_Office": "Shah Alam",
        "State": "Selangor"
    },
    {
        "Postcode": "40150",
        "Location": "Jalan Sastera U2/1",
        "Post_Office": "Shah Alam",
        "State": "Selangor"
    },
    {
        "Postcode": "40150",
        "Location": "Jalan Sasterawan U2/5",
        "Post_Office": "Shah Alam",
        "State": "Selangor"
    },
    {
        "Postcode": "40150",
        "Location": "Jalan Saudagar Satu U1/16A",
        "Post_Office": "Shah Alam",
        "State": "Selangor"
    },
    {
        "Postcode": "40150",
        "Location": "Jalan Saudagar U1/16",
        "Post_Office": "Shah Alam",
        "State": "Selangor"
    },
    {
        "Postcode": "40150",
        "Location": "Jalan Sayembara U2/34",
        "Post_Office": "Shah Alam",
        "State": "Selangor"
    },
    {
        "Postcode": "40150",
        "Location": "Jalan Seloka U2/30",
        "Post_Office": "Shah Alam",
        "State": "Selangor"
    },
    {
        "Postcode": "40150",
        "Location": "Jalan Senandung U2/22",
        "Post_Office": "Shah Alam",
        "State": "Selangor"
    },
    {
        "Postcode": "40150",
        "Location": "Jalan Seniman U1/41",
        "Post_Office": "Shah Alam",
        "State": "Selangor"
    },
    {
        "Postcode": "40150",
        "Location": "Jalan Subang (Batu 1/4)",
        "Post_Office": "Shah Alam",
        "State": "Selangor"
    },
    {
        "Postcode": "40150",
        "Location": "Jalan Sutradara U2/16",
        "Post_Office": "Shah Alam",
        "State": "Selangor"
    },
    {
        "Postcode": "40150",
        "Location": "Jalan Syair U2/26",
        "Post_Office": "Shah Alam",
        "State": "Selangor"
    },
    {
        "Postcode": "40150",
        "Location": "Jalan Teater U2/36",
        "Post_Office": "Shah Alam",
        "State": "Selangor"
    },
    {
        "Postcode": "40150",
        "Location": "Jalan Tembusu (Kampung Melayu Subang)",
        "Post_Office": "Shah Alam",
        "State": "Selangor"
    },
    {
        "Postcode": "40150",
        "Location": "Jalan Tentera U1/57",
        "Post_Office": "Shah Alam",
        "State": "Selangor"
    },
    {
        "Postcode": "40150",
        "Location": "Jalan Teratak U2/19",
        "Post_Office": "Shah Alam",
        "State": "Selangor"
    },
    {
        "Postcode": "40150",
        "Location": "Jalan Tudm",
        "Post_Office": "Shah Alam",
        "State": "Selangor"
    },
    {
        "Postcode": "40150",
        "Location": "Jalan Usahawan U1/8",
        "Post_Office": "Shah Alam",
        "State": "Selangor"
    },
    {
        "Postcode": "40150",
        "Location": "Jalan Warden U1/76",
        "Post_Office": "Shah Alam",
        "State": "Selangor"
    },
    {
        "Postcode": "40150",
        "Location": "Kampung Baru Cina Subang",
        "Post_Office": "Shah Alam",
        "State": "Selangor"
    },
    {
        "Postcode": "40150",
        "Location": "Kampung Baru Subang",
        "Post_Office": "Shah Alam",
        "State": "Selangor"
    },
    {
        "Postcode": "40150",
        "Location": "Kampung Betik",
        "Post_Office": "Shah Alam",
        "State": "Selangor"
    },
    {
        "Postcode": "40150",
        "Location": "Kampung Bukit (Batu Tiga)",
        "Post_Office": "Shah Alam",
        "State": "Selangor"
    },
    {
        "Postcode": "40150",
        "Location": "Kampung Hamid Tuah (Batu Tiga)",
        "Post_Office": "Shah Alam",
        "State": "Selangor"
    },
    {
        "Postcode": "40150",
        "Location": "Kampung Melayu Subang",
        "Post_Office": "Shah Alam",
        "State": "Selangor"
    },
    {
        "Postcode": "40150",
        "Location": "Kampung Melayu Tambahan",
        "Post_Office": "Shah Alam",
        "State": "Selangor"
    },
    {
        "Postcode": "40150",
        "Location": "Kampung Muhibbah",
        "Post_Office": "Shah Alam",
        "State": "Selangor"
    },
    {
        "Postcode": "40150",
        "Location": "Kampung Rasak",
        "Post_Office": "Shah Alam",
        "State": "Selangor"
    },
    {
        "Postcode": "40150",
        "Location": "Kampung Saujana",
        "Post_Office": "Shah Alam",
        "State": "Selangor"
    },
    {
        "Postcode": "40150",
        "Location": "Kampung Seri Bukit",
        "Post_Office": "Shah Alam",
        "State": "Selangor"
    },
    {
        "Postcode": "40150",
        "Location": "Kayangan Height",
        "Post_Office": "Shah Alam",
        "State": "Selangor"
    },
    {
        "Postcode": "40150",
        "Location": "Ladang Bukit Jelutong",
        "Post_Office": "Shah Alam",
        "State": "Selangor"
    },
    {
        "Postcode": "40150",
        "Location": "Ladang Damansara",
        "Post_Office": "Shah Alam",
        "State": "Selangor"
    },
    {
        "Postcode": "40150",
        "Location": "Ladang Glenmarie",
        "Post_Office": "Shah Alam",
        "State": "Selangor"
    },
    {
        "Postcode": "40150",
        "Location": "Ladang Pilmoor",
        "Post_Office": "Shah Alam",
        "State": "Selangor"
    },
    {
        "Postcode": "40150",
        "Location": "Ladang Resak",
        "Post_Office": "Shah Alam",
        "State": "Selangor"
    },
    {
        "Postcode": "40150",
        "Location": "Ladang Sungai Rengam",
        "Post_Office": "Shah Alam",
        "State": "Selangor"
    },
    {
        "Postcode": "40150",
        "Location": "Lebuhraya Persekutuan",
        "Post_Office": "Shah Alam",
        "State": "Selangor"
    },
    {
        "Postcode": "40150",
        "Location": "Lorong Kemboja",
        "Post_Office": "Shah Alam",
        "State": "Selangor"
    },
    {
        "Postcode": "40150",
        "Location": "Pekan Subang",
        "Post_Office": "Shah Alam",
        "State": "Selangor"
    },
    {
        "Postcode": "40150",
        "Location": "Persiaran Chan Khai Haa",
        "Post_Office": "Shah Alam",
        "State": "Selangor"
    },
    {
        "Postcode": "40150",
        "Location": "Persiaran Harun Osman",
        "Post_Office": "Shah Alam",
        "State": "Selangor"
    },
    {
        "Postcode": "40150",
        "Location": "Persiaran Kerjaya U1/8",
        "Post_Office": "Shah Alam",
        "State": "Selangor"
    },
    {
        "Postcode": "40150",
        "Location": "Persiaran Philip Chan",
        "Post_Office": "Shah Alam",
        "State": "Selangor"
    },
    {
        "Postcode": "40150",
        "Location": "Seksyen U4",
        "Post_Office": "Shah Alam",
        "State": "Selangor"
    },
    {
        "Postcode": "40150",
        "Location": "Subang Estate",
        "Post_Office": "Shah Alam",
        "State": "Selangor"
    },
    {
        "Postcode": "40150",
        "Location": "Taman Batu Tiga",
        "Post_Office": "Shah Alam",
        "State": "Selangor"
    },
    {
        "Postcode": "40150",
        "Location": "Taman Bukit Subang",
        "Post_Office": "Shah Alam",
        "State": "Selangor"
    },
    {
        "Postcode": "40150",
        "Location": "Taman Desa Permai",
        "Post_Office": "Shah Alam",
        "State": "Selangor"
    },
    {
        "Postcode": "40150",
        "Location": "Taman Desa Subang",
        "Post_Office": "Shah Alam",
        "State": "Selangor"
    },
    {
        "Postcode": "40150",
        "Location": "Taman Glenmarie",
        "Post_Office": "Shah Alam",
        "State": "Selangor"
    },
    {
        "Postcode": "40150",
        "Location": "Taman Pinggiran Subang",
        "Post_Office": "Shah Alam",
        "State": "Selangor"
    },
    {
        "Postcode": "40150",
        "Location": "Taman Setia Prima ",
        "Post_Office": "Shah Alam",
        "State": "Selangor"
    },
    {
        "Postcode": "40150",
        "Location": "Taman Subang Baru",
        "Post_Office": "Shah Alam",
        "State": "Selangor"
    },
    {
        "Postcode": "40150",
        "Location": "Taman Subang Perdana",
        "Post_Office": "Shah Alam",
        "State": "Selangor"
    },
    {
        "Postcode": "40150",
        "Location": "Taman Tun Dr Ismail Jaya",
        "Post_Office": "Shah Alam",
        "State": "Selangor"
    },
    {
        "Postcode": "40150",
        "Location": "Wisma Hicom",
        "Post_Office": "Shah Alam",
        "State": "Selangor"
    }
]
