[
    {
        "Postcode": "40160",
        "Location": "Jalan 1A/1",
        "Post_Office": "Shah Alam",
        "State": "Selangor"
    },
    {
        "Postcode": "40160",
        "Location": "Jalan 1A/2",
        "Post_Office": "Shah Alam",
        "State": "Selangor"
    },
    {
        "Postcode": "40160",
        "Location": "Jalan 1A/3",
        "Post_Office": "Shah Alam",
        "State": "Selangor"
    },
    {
        "Postcode": "40160",
        "Location": "Jalan 1A/4",
        "Post_Office": "Shah Alam",
        "State": "Selangor"
    },
    {
        "Postcode": "40160",
        "Location": "Jalan 1A/5",
        "Post_Office": "Shah Alam",
        "State": "Selangor"
    },
    {
        "Postcode": "40160",
        "Location": "Jalan 1A/6",
        "Post_Office": "Shah Alam",
        "State": "Selangor"
    },
    {
        "Postcode": "40160",
        "Location": "Jalan 1A/7",
        "Post_Office": "Shah Alam",
        "State": "Selangor"
    },
    {
        "Postcode": "40160",
        "Location": "Jalan 1A/8",
        "Post_Office": "Shah Alam",
        "State": "Selangor"
    },
    {
        "Postcode": "40160",
        "Location": "Jalan 1A/9",
        "Post_Office": "Shah Alam",
        "State": "Selangor"
    },
    {
        "Postcode": "40160",
        "Location": "Jalan 1B/1",
        "Post_Office": "Shah Alam",
        "State": "Selangor"
    },
    {
        "Postcode": "40160",
        "Location": "Jalan 1B/2",
        "Post_Office": "Shah Alam",
        "State": "Selangor"
    },
    {
        "Postcode": "40160",
        "Location": "Jalan 1B/3",
        "Post_Office": "Shah Alam",
        "State": "Selangor"
    },
    {
        "Postcode": "40160",
        "Location": "Jalan 1B/4",
        "Post_Office": "Shah Alam",
        "State": "Selangor"
    },
    {
        "Postcode": "40160",
        "Location": "Jalan 1B/5",
        "Post_Office": "Shah Alam",
        "State": "Selangor"
    },
    {
        "Postcode": "40160",
        "Location": "Jalan 1B/6",
        "Post_Office": "Shah Alam",
        "State": "Selangor"
    },
    {
        "Postcode": "40160",
        "Location": "Jalan 1B/7",
        "Post_Office": "Shah Alam",
        "State": "Selangor"
    },
    {
        "Postcode": "40160",
        "Location": "Jalan 1B/8",
        "Post_Office": "Shah Alam",
        "State": "Selangor"
    },
    {
        "Postcode": "40160",
        "Location": "Jalan 1B/9",
        "Post_Office": "Shah Alam",
        "State": "Selangor"
    },
    {
        "Postcode": "40160",
        "Location": "Jalan 1C/1",
        "Post_Office": "Shah Alam",
        "State": "Selangor"
    },
    {
        "Postcode": "40160",
        "Location": "Jalan 1C/2",
        "Post_Office": "Shah Alam",
        "State": "Selangor"
    },
    {
        "Postcode": "40160",
        "Location": "Jalan 1C/3",
        "Post_Office": "Shah Alam",
        "State": "Selangor"
    },
    {
        "Postcode": "40160",
        "Location": "Jalan 1C/4",
        "Post_Office": "Shah Alam",
        "State": "Selangor"
    },
    {
        "Postcode": "40160",
        "Location": "Jalan 1C/5",
        "Post_Office": "Shah Alam",
        "State": "Selangor"
    },
    {
        "Postcode": "40160",
        "Location": "Jalan 1C/6",
        "Post_Office": "Shah Alam",
        "State": "Selangor"
    },
    {
        "Postcode": "40160",
        "Location": "Jalan 1D/1",
        "Post_Office": "Shah Alam",
        "State": "Selangor"
    },
    {
        "Postcode": "40160",
        "Location": "Jalan 1D/2",
        "Post_Office": "Shah Alam",
        "State": "Selangor"
    },
    {
        "Postcode": "40160",
        "Location": "Jalan 1D/3",
        "Post_Office": "Shah Alam",
        "State": "Selangor"
    },
    {
        "Postcode": "40160",
        "Location": "Jalan 2/1",
        "Post_Office": "Shah Alam",
        "State": "Selangor"
    },
    {
        "Postcode": "40160",
        "Location": "Jalan 2/2",
        "Post_Office": "Shah Alam",
        "State": "Selangor"
    },
    {
        "Postcode": "40160",
        "Location": "Jalan 2/3",
        "Post_Office": "Shah Alam",
        "State": "Selangor"
    },
    {
        "Postcode": "40160",
        "Location": "Jalan 2/4",
        "Post_Office": "Shah Alam",
        "State": "Selangor"
    },
    {
        "Postcode": "40160",
        "Location": "Jalan 3/1",
        "Post_Office": "Shah Alam",
        "State": "Selangor"
    },
    {
        "Postcode": "40160",
        "Location": "Jalan 3/2",
        "Post_Office": "Shah Alam",
        "State": "Selangor"
    },
    {
        "Postcode": "40160",
        "Location": "Jalan 3/3",
        "Post_Office": "Shah Alam",
        "State": "Selangor"
    },
    {
        "Postcode": "40160",
        "Location": "Jalan 3/4",
        "Post_Office": "Shah Alam",
        "State": "Selangor"
    },
    {
        "Postcode": "40160",
        "Location": "Jalan 3/5",
        "Post_Office": "Shah Alam",
        "State": "Selangor"
    },
    {
        "Postcode": "40160",
        "Location": "Jalan 3/6",
        "Post_Office": "Shah Alam",
        "State": "Selangor"
    },
    {
        "Postcode": "40160",
        "Location": "Jalan 3/7",
        "Post_Office": "Shah Alam",
        "State": "Selangor"
    },
    {
        "Postcode": "40160",
        "Location": "Jalan 3/8",
        "Post_Office": "Shah Alam",
        "State": "Selangor"
    },
    {
        "Postcode": "40160",
        "Location": "Jalan 3/9",
        "Post_Office": "Shah Alam",
        "State": "Selangor"
    },
    {
        "Postcode": "40160",
        "Location": "Jalan Brp 1/1",
        "Post_Office": "Sungai Buloh",
        "State": "Selangor"
    },
    {
        "Postcode": "40160",
        "Location": "Jalan Brp 1/10",
        "Post_Office": "Sungai Buloh",
        "State": "Selangor"
    },
    {
        "Postcode": "40160",
        "Location": "Jalan Brp 1/11",
        "Post_Office": "Sungai Buloh",
        "State": "Selangor"
    },
    {
        "Postcode": "40160",
        "Location": "Jalan Brp 1/12",
        "Post_Office": "Sungai Buloh",
        "State": "Selangor"
    },
    {
        "Postcode": "40160",
        "Location": "Jalan Brp 1/13",
        "Post_Office": "Sungai Buloh",
        "State": "Selangor"
    },
    {
        "Postcode": "40160",
        "Location": "Jalan Brp 1/2",
        "Post_Office": "Sungai Buloh",
        "State": "Selangor"
    },
    {
        "Postcode": "40160",
        "Location": "Jalan Brp 1/3",
        "Post_Office": "Sungai Buloh",
        "State": "Selangor"
    },
    {
        "Postcode": "40160",
        "Location": "Jalan Brp 1/4",
        "Post_Office": "Sungai Buloh",
        "State": "Selangor"
    },
    {
        "Postcode": "40160",
        "Location": "Jalan Brp 1/5",
        "Post_Office": "Sungai Buloh",
        "State": "Selangor"
    },
    {
        "Postcode": "40160",
        "Location": "Jalan Brp 1/6",
        "Post_Office": "Sungai Buloh",
        "State": "Selangor"
    },
    {
        "Postcode": "40160",
        "Location": "Jalan Brp 1/7",
        "Post_Office": "Sungai Buloh",
        "State": "Selangor"
    },
    {
        "Postcode": "40160",
        "Location": "Jalan Brp 1/8",
        "Post_Office": "Sungai Buloh",
        "State": "Selangor"
    },
    {
        "Postcode": "40160",
        "Location": "Jalan Brp 1/9",
        "Post_Office": "Sungai Buloh",
        "State": "Selangor"
    },
    {
        "Postcode": "40160",
        "Location": "Jalan Brp 2/1",
        "Post_Office": "Sungai Buloh",
        "State": "Selangor"
    },
    {
        "Postcode": "40160",
        "Location": "Jalan Brp 2/1A",
        "Post_Office": "Sungai Buloh",
        "State": "Selangor"
    },
    {
        "Postcode": "40160",
        "Location": "Jalan Brp 2/1B",
        "Post_Office": "Sungai Buloh",
        "State": "Selangor"
    },
    {
        "Postcode": "40160",
        "Location": "Jalan Brp 2/1C",
        "Post_Office": "Sungai Buloh",
        "State": "Selangor"
    },
    {
        "Postcode": "40160",
        "Location": "Jalan Brp 2/1D",
        "Post_Office": "Sungai Buloh",
        "State": "Selangor"
    },
    {
        "Postcode": "40160",
        "Location": "Jalan Brp 2/1E",
        "Post_Office": "Sungai Buloh",
        "State": "Selangor"
    },
    {
        "Postcode": "40160",
        "Location": "Jalan Brp 2/1F",
        "Post_Office": "Sungai Buloh",
        "State": "Selangor"
    },
    {
        "Postcode": "40160",
        "Location": "Jalan Brp 2/1G",
        "Post_Office": "Sungai Buloh",
        "State": "Selangor"
    },
    {
        "Postcode": "40160",
        "Location": "Jalan Brp 2/1H",
        "Post_Office": "Sungai Buloh",
        "State": "Selangor"
    },
    {
        "Postcode": "40160",
        "Location": "Jalan Brp 2/1I",
        "Post_Office": "Sungai Buloh",
        "State": "Selangor"
    },
    {
        "Postcode": "40160",
        "Location": "Jalan Brp 2/1J",
        "Post_Office": "Sungai Buloh",
        "State": "Selangor"
    },
    {
        "Postcode": "40160",
        "Location": "Jalan Brp 2/1K",
        "Post_Office": "Sungai Buloh",
        "State": "Selangor"
    },
    {
        "Postcode": "40160",
        "Location": "Jalan Brp 2/1L",
        "Post_Office": "Sungai Buloh",
        "State": "Selangor"
    },
    {
        "Postcode": "40160",
        "Location": "Jalan Brp 2/1M",
        "Post_Office": "Sungai Buloh",
        "State": "Selangor"
    },
    {
        "Postcode": "40160",
        "Location": "Jalan Brp 2/1N",
        "Post_Office": "Sungai Buloh",
        "State": "Selangor"
    },
    {
        "Postcode": "40160",
        "Location": "Jalan Brp 2/2",
        "Post_Office": "Sungai Buloh",
        "State": "Selangor"
    },
    {
        "Postcode": "40160",
        "Location": "Jalan Brp 2/2A",
        "Post_Office": "Sungai Buloh",
        "State": "Selangor"
    },
    {
        "Postcode": "40160",
        "Location": "Jalan Brp 2/2B",
        "Post_Office": "Sungai Buloh",
        "State": "Selangor"
    },
    {
        "Postcode": "40160",
        "Location": "Jalan Brp 2/2C",
        "Post_Office": "Sungai Buloh",
        "State": "Selangor"
    },
    {
        "Postcode": "40160",
        "Location": "Jalan Brp 2/2D",
        "Post_Office": "Sungai Buloh",
        "State": "Selangor"
    },
    {
        "Postcode": "40160",
        "Location": "Jalan Brp 2/2E",
        "Post_Office": "Sungai Buloh",
        "State": "Selangor"
    },
    {
        "Postcode": "40160",
        "Location": "Jalan Brp 2/2F",
        "Post_Office": "Sungai Buloh",
        "State": "Selangor"
    },
    {
        "Postcode": "40160",
        "Location": "Jalan Brp 2/2G",
        "Post_Office": "Sungai Buloh",
        "State": "Selangor"
    },
    {
        "Postcode": "40160",
        "Location": "Jalan Brp 3/1",
        "Post_Office": "Sungai Buloh",
        "State": "Selangor"
    },
    {
        "Postcode": "40160",
        "Location": "Jalan Brp 3/2",
        "Post_Office": "Sungai Buloh",
        "State": "Selangor"
    },
    {
        "Postcode": "40160",
        "Location": "Jalan Brp 3/2A",
        "Post_Office": "Sungai Buloh",
        "State": "Selangor"
    },
    {
        "Postcode": "40160",
        "Location": "Jalan Brp 3/2B",
        "Post_Office": "Sungai Buloh",
        "State": "Selangor"
    },
    {
        "Postcode": "40160",
        "Location": "Jalan Brp 3/2C",
        "Post_Office": "Sungai Buloh",
        "State": "Selangor"
    },
    {
        "Postcode": "40160",
        "Location": "Jalan Brp 4/1",
        "Post_Office": "Sungai Buloh",
        "State": "Selangor"
    },
    {
        "Postcode": "40160",
        "Location": "Jalan Brp 4/10",
        "Post_Office": "Sungai Buloh",
        "State": "Selangor"
    },
    {
        "Postcode": "40160",
        "Location": "Jalan Brp 4/11",
        "Post_Office": "Sungai Buloh",
        "State": "Selangor"
    },
    {
        "Postcode": "40160",
        "Location": "Jalan Brp 4/2",
        "Post_Office": "Sungai Buloh",
        "State": "Selangor"
    },
    {
        "Postcode": "40160",
        "Location": "Jalan Brp 4/3",
        "Post_Office": "Sungai Buloh",
        "State": "Selangor"
    },
    {
        "Postcode": "40160",
        "Location": "Jalan Brp 4/4",
        "Post_Office": "Sungai Buloh",
        "State": "Selangor"
    },
    {
        "Postcode": "40160",
        "Location": "Jalan Brp 4/5",
        "Post_Office": "Sungai Buloh",
        "State": "Selangor"
    },
    {
        "Postcode": "40160",
        "Location": "Jalan Brp 4/6",
        "Post_Office": "Sungai Buloh",
        "State": "Selangor"
    },
    {
        "Postcode": "40160",
        "Location": "Jalan Brp 4/7",
        "Post_Office": "Sungai Buloh",
        "State": "Selangor"
    },
    {
        "Postcode": "40160",
        "Location": "Jalan Brp 4/8",
        "Post_Office": "Sungai Buloh",
        "State": "Selangor"
    },
    {
        "Postcode": "40160",
        "Location": "Jalan Brp 4/9",
        "Post_Office": "Sungai Buloh",
        "State": "Selangor"
    },
    {
        "Postcode": "40160",
        "Location": "Jalan Brp 5/1",
        "Post_Office": "Sungai Buloh",
        "State": "Selangor"
    },
    {
        "Postcode": "40160",
        "Location": "Jalan Brp 5/2",
        "Post_Office": "Sungai Buloh",
        "State": "Selangor"
    },
    {
        "Postcode": "40160",
        "Location": "Jalan Brp 5/3",
        "Post_Office": "Sungai Buloh",
        "State": "Selangor"
    },
    {
        "Postcode": "40160",
        "Location": "Jalan Brp 5/4",
        "Post_Office": "Sungai Buloh",
        "State": "Selangor"
    },
    {
        "Postcode": "40160",
        "Location": "Jalan Brp 5/5",
        "Post_Office": "Sungai Buloh",
        "State": "Selangor"
    },
    {
        "Postcode": "40160",
        "Location": "Jalan Brp 5/5A",
        "Post_Office": "Sungai Buloh",
        "State": "Selangor"
    },
    {
        "Postcode": "40160",
        "Location": "Jalan Brp 5/6",
        "Post_Office": "Sungai Buloh",
        "State": "Selangor"
    },
    {
        "Postcode": "40160",
        "Location": "Jalan Brp 5/7",
        "Post_Office": "Sungai Buloh",
        "State": "Selangor"
    },
    {
        "Postcode": "40160",
        "Location": "Jalan Brp 5/8",
        "Post_Office": "Sungai Buloh",
        "State": "Selangor"
    },
    {
        "Postcode": "40160",
        "Location": "Jalan Brp 5/8A",
        "Post_Office": "Sungai Buloh",
        "State": "Selangor"
    },
    {
        "Postcode": "40160",
        "Location": "Jalan Brp 6/1",
        "Post_Office": "Sungai Buloh",
        "State": "Selangor"
    },
    {
        "Postcode": "40160",
        "Location": "Jalan Brp 6/10",
        "Post_Office": "Sungai Buloh",
        "State": "Selangor"
    },
    {
        "Postcode": "40160",
        "Location": "Jalan Brp 6/11",
        "Post_Office": "Sungai Buloh",
        "State": "Selangor"
    },
    {
        "Postcode": "40160",
        "Location": "Jalan Brp 6/12",
        "Post_Office": "Sungai Buloh",
        "State": "Selangor"
    },
    {
        "Postcode": "40160",
        "Location": "Jalan Brp 6/2",
        "Post_Office": "Sungai Buloh",
        "State": "Selangor"
    },
    {
        "Postcode": "40160",
        "Location": "Jalan Brp 6/3",
        "Post_Office": "Sungai Buloh",
        "State": "Selangor"
    },
    {
        "Postcode": "40160",
        "Location": "Jalan Brp 6/3A",
        "Post_Office": "Sungai Buloh",
        "State": "Selangor"
    },
    {
        "Postcode": "40160",
        "Location": "Jalan Brp 6/3B",
        "Post_Office": "Sungai Buloh",
        "State": "Selangor"
    },
    {
        "Postcode": "40160",
        "Location": "Jalan Brp 6/4",
        "Post_Office": "Sungai Buloh",
        "State": "Selangor"
    },
    {
        "Postcode": "40160",
        "Location": "Jalan Brp 6/5",
        "Post_Office": "Sungai Buloh",
        "State": "Selangor"
    },
    {
        "Postcode": "40160",
        "Location": "Jalan Brp 6/6",
        "Post_Office": "Sungai Buloh",
        "State": "Selangor"
    },
    {
        "Postcode": "40160",
        "Location": "Jalan Brp 6/7",
        "Post_Office": "Sungai Buloh",
        "State": "Selangor"
    },
    {
        "Postcode": "40160",
        "Location": "Jalan Brp 6/8",
        "Post_Office": "Sungai Buloh",
        "State": "Selangor"
    },
    {
        "Postcode": "40160",
        "Location": "Jalan Brp 6/9",
        "Post_Office": "Sungai Buloh",
        "State": "Selangor"
    },
    {
        "Postcode": "40160",
        "Location": "Jalan Brp 6/9A",
        "Post_Office": "Sungai Buloh",
        "State": "Selangor"
    },
    {
        "Postcode": "40160",
        "Location": "Jalan Brp 6/9B",
        "Post_Office": "Sungai Buloh",
        "State": "Selangor"
    },
    {
        "Postcode": "40160",
        "Location": "Jalan Bukit Melawati U17/1",
        "Post_Office": "Shah Alam",
        "State": "Selangor"
    },
    {
        "Postcode": "40160",
        "Location": "Jalan Bukit Melawati U17/10",
        "Post_Office": "Shah Alam",
        "State": "Selangor"
    },
    {
        "Postcode": "40160",
        "Location": "Jalan Bukit Melawati U17/2",
        "Post_Office": "Shah Alam",
        "State": "Selangor"
    },
    {
        "Postcode": "40160",
        "Location": "Jalan Bukit Melawati U17/3",
        "Post_Office": "Shah Alam",
        "State": "Selangor"
    },
    {
        "Postcode": "40160",
        "Location": "Jalan Bukit Melawati U17/4",
        "Post_Office": "Shah Alam",
        "State": "Selangor"
    },
    {
        "Postcode": "40160",
        "Location": "Jalan Bukit Melawati U17/5",
        "Post_Office": "Shah Alam",
        "State": "Selangor"
    },
    {
        "Postcode": "40160",
        "Location": "Jalan Bukit Melawati U17/6",
        "Post_Office": "Shah Alam",
        "State": "Selangor"
    },
    {
        "Postcode": "40160",
        "Location": "Jalan Bukit Melawati U17/7",
        "Post_Office": "Shah Alam",
        "State": "Selangor"
    },
    {
        "Postcode": "40160",
        "Location": "Jalan Bukit Melawati U17/8",
        "Post_Office": "Shah Alam",
        "State": "Selangor"
    },
    {
        "Postcode": "40160",
        "Location": "Jalan Bukit Melawati U17/9",
        "Post_Office": "Shah Alam",
        "State": "Selangor"
    },
    {
        "Postcode": "40160",
        "Location": "Jalan Dm 3A",
        "Post_Office": "Shah Alam",
        "State": "Selangor"
    },
    {
        "Postcode": "40160",
        "Location": "Jalan Dm 3B",
        "Post_Office": "Shah Alam",
        "State": "Selangor"
    },
    {
        "Postcode": "40160",
        "Location": "Jalan Dm 3C",
        "Post_Office": "Shah Alam",
        "State": "Selangor"
    },
    {
        "Postcode": "40160",
        "Location": "Jalan Dm 3D",
        "Post_Office": "Shah Alam",
        "State": "Selangor"
    },
    {
        "Postcode": "40160",
        "Location": "Jalan Gajah 15",
        "Post_Office": "Shah Alam",
        "State": "Selangor"
    },
    {
        "Postcode": "40160",
        "Location": "Jalan Gajah 16",
        "Post_Office": "Shah Alam",
        "State": "Selangor"
    },
    {
        "Postcode": "40160",
        "Location": "Jalan Gajah 20",
        "Post_Office": "Shah Alam",
        "State": "Selangor"
    },
    {
        "Postcode": "40160",
        "Location": "Jalan Gajah 22",
        "Post_Office": "Shah Alam",
        "State": "Selangor"
    },
    {
        "Postcode": "40160",
        "Location": "Jalan Gajah 23",
        "Post_Office": "Shah Alam",
        "State": "Selangor"
    },
    {
        "Postcode": "40160",
        "Location": "Jalan Gajah 24",
        "Post_Office": "Shah Alam",
        "State": "Selangor"
    },
    {
        "Postcode": "40160",
        "Location": "Jalan Gantang U19/1",
        "Post_Office": "Shah Alam",
        "State": "Selangor"
    },
    {
        "Postcode": "40160",
        "Location": "Jalan Gantang U19/10",
        "Post_Office": "Shah Alam",
        "State": "Selangor"
    },
    {
        "Postcode": "40160",
        "Location": "Jalan Gantang U19/11",
        "Post_Office": "Shah Alam",
        "State": "Selangor"
    },
    {
        "Postcode": "40160",
        "Location": "Jalan Gantang U19/12",
        "Post_Office": "Shah Alam",
        "State": "Selangor"
    },
    {
        "Postcode": "40160",
        "Location": "Jalan Gantang U19/12A",
        "Post_Office": "Shah Alam",
        "State": "Selangor"
    },
    {
        "Postcode": "40160",
        "Location": "Jalan Gantang U19/12B",
        "Post_Office": "Shah Alam",
        "State": "Selangor"
    },
    {
        "Postcode": "40160",
        "Location": "Jalan Gantang U19/12C",
        "Post_Office": "Shah Alam",
        "State": "Selangor"
    },
    {
        "Postcode": "40160",
        "Location": "Jalan Gantang U19/2",
        "Post_Office": "Shah Alam",
        "State": "Selangor"
    },
    {
        "Postcode": "40160",
        "Location": "Jalan Gantang U19/3",
        "Post_Office": "Shah Alam",
        "State": "Selangor"
    },
    {
        "Postcode": "40160",
        "Location": "Jalan Gantang U19/4",
        "Post_Office": "Shah Alam",
        "State": "Selangor"
    },
    {
        "Postcode": "40160",
        "Location": "Jalan Gantang U19/5",
        "Post_Office": "Shah Alam",
        "State": "Selangor"
    },
    {
        "Postcode": "40160",
        "Location": "Jalan Gantang U19/6",
        "Post_Office": "Shah Alam",
        "State": "Selangor"
    },
    {
        "Postcode": "40160",
        "Location": "Jalan Gantang U19/7",
        "Post_Office": "Shah Alam",
        "State": "Selangor"
    },
    {
        "Postcode": "40160",
        "Location": "Jalan Gantang U19/8",
        "Post_Office": "Shah Alam",
        "State": "Selangor"
    },
    {
        "Postcode": "40160",
        "Location": "Jalan Gantang U19/9",
        "Post_Office": "Shah Alam",
        "State": "Selangor"
    },
    {
        "Postcode": "40160",
        "Location": "Jalan Perusahaan 1",
        "Post_Office": "Shah Alam",
        "State": "Selangor"
    },
    {
        "Postcode": "40160",
        "Location": "Jalan Perusahaan 2",
        "Post_Office": "Shah Alam",
        "State": "Selangor"
    },
    {
        "Postcode": "40160",
        "Location": "Jalan Perusahaan 3",
        "Post_Office": "Shah Alam",
        "State": "Selangor"
    },
    {
        "Postcode": "40160",
        "Location": "Lorong Gajah 1",
        "Post_Office": "Shah Alam",
        "State": "Selangor"
    },
    {
        "Postcode": "40160",
        "Location": "Lorong Gajah 10",
        "Post_Office": "Shah Alam",
        "State": "Selangor"
    },
    {
        "Postcode": "40160",
        "Location": "Lorong Gajah 11",
        "Post_Office": "Shah Alam",
        "State": "Selangor"
    },
    {
        "Postcode": "40160",
        "Location": "Lorong Gajah 12",
        "Post_Office": "Shah Alam",
        "State": "Selangor"
    },
    {
        "Postcode": "40160",
        "Location": "Lorong Gajah 13",
        "Post_Office": "Shah Alam",
        "State": "Selangor"
    },
    {
        "Postcode": "40160",
        "Location": "Lorong Gajah 14",
        "Post_Office": "Shah Alam",
        "State": "Selangor"
    },
    {
        "Postcode": "40160",
        "Location": "Lorong Gajah 15",
        "Post_Office": "Shah Alam",
        "State": "Selangor"
    },
    {
        "Postcode": "40160",
        "Location": "Lorong Gajah 16",
        "Post_Office": "Shah Alam",
        "State": "Selangor"
    },
    {
        "Postcode": "40160",
        "Location": "Lorong Gajah 17",
        "Post_Office": "Shah Alam",
        "State": "Selangor"
    },
    {
        "Postcode": "40160",
        "Location": "Lorong Gajah 18",
        "Post_Office": "Shah Alam",
        "State": "Selangor"
    },
    {
        "Postcode": "40160",
        "Location": "Lorong Gajah 19",
        "Post_Office": "Shah Alam",
        "State": "Selangor"
    },
    {
        "Postcode": "40160",
        "Location": "Lorong Gajah 2",
        "Post_Office": "Shah Alam",
        "State": "Selangor"
    },
    {
        "Postcode": "40160",
        "Location": "Lorong Gajah 3",
        "Post_Office": "Shah Alam",
        "State": "Selangor"
    },
    {
        "Postcode": "40160",
        "Location": "Lorong Gajah 4",
        "Post_Office": "Shah Alam",
        "State": "Selangor"
    },
    {
        "Postcode": "40160",
        "Location": "Lorong Gajah 5",
        "Post_Office": "Shah Alam",
        "State": "Selangor"
    },
    {
        "Postcode": "40160",
        "Location": "Lorong Gajah 6",
        "Post_Office": "Shah Alam",
        "State": "Selangor"
    },
    {
        "Postcode": "40160",
        "Location": "Lorong Gajah 7",
        "Post_Office": "Shah Alam",
        "State": "Selangor"
    },
    {
        "Postcode": "40160",
        "Location": "Lorong Gajah 8",
        "Post_Office": "Shah Alam",
        "State": "Selangor"
    },
    {
        "Postcode": "40160",
        "Location": "Lorong Gajah 9",
        "Post_Office": "Shah Alam",
        "State": "Selangor"
    },
    {
        "Postcode": "40160",
        "Location": "Lorong Mawar 1",
        "Post_Office": "Shah Alam",
        "State": "Selangor"
    },
    {
        "Postcode": "40160",
        "Location": "Lorong Mawar 2",
        "Post_Office": "Shah Alam",
        "State": "Selangor"
    },
    {
        "Postcode": "40160",
        "Location": "Lorong Tempayan Emas 1",
        "Post_Office": "Shah Alam",
        "State": "Selangor"
    },
    {
        "Postcode": "40160",
        "Location": "Lorong Tempayan Emas 2",
        "Post_Office": "Shah Alam",
        "State": "Selangor"
    },
    {
        "Postcode": "40160",
        "Location": "Lorong Tempayan Emas 3",
        "Post_Office": "Shah Alam",
        "State": "Selangor"
    },
    {
        "Postcode": "40160",
        "Location": "Seksyen U6",
        "Post_Office": "Shah Alam",
        "State": "Selangor"
    },
    {
        "Postcode": "40160",
        "Location": "Kondominium Laman Alstonia",
        "Post_Office": "Shah Alam",
        "State": "Selangor"
    },
    {
        "Postcode": "40160",
        "Location": "Villa Laman Alstonia",
        "Post_Office": "Shah Alam",
        "State": "Selangor"
    },
    {
        "Postcode": "40160",
        "Location": "Jalan Brp 10/2A",
        "Post_Office": "Sungai Buloh",
        "State": "Selangor"
    },
    {
        "Postcode": "40160",
        "Location": "Denai Alam",
        "Post_Office": "Shah Alam",
        "State": "Selangor"
    },
    {
        "Postcode": "40160",
        "Location": "Ascot Hill",
        "Post_Office": "Shah Alam",
        "State": "Selangor"
    },
    {
        "Postcode": "40160",
        "Location": "Bandar Baru Sungai Buloh",
        "Post_Office": "Shah Alam",
        "State": "Selangor"
    },
    {
        "Postcode": "40160",
        "Location": "Bukit Rahman Putra",
        "Post_Office": "Shah Alam",
        "State": "Selangor"
    },
    {
        "Postcode": "40160",
        "Location": "Desa Moccis",
        "Post_Office": "Shah Alam",
        "State": "Selangor"
    },
    {
        "Postcode": "40160",
        "Location": "Elmina East",
        "Post_Office": "Shah Alam",
        "State": "Selangor"
    },
    {
        "Postcode": "40160",
        "Location": "Jalan 2/2A",
        "Post_Office": "Shah Alam",
        "State": "Selangor"
    },
    {
        "Postcode": "40160",
        "Location": "Jalan Balai Polis",
        "Post_Office": "Shah Alam",
        "State": "Selangor"
    },
    {
        "Postcode": "40160",
        "Location": "Jalan Baru Sungai Buloh",
        "Post_Office": "Shah Alam",
        "State": "Selangor"
    },
    {
        "Postcode": "40160",
        "Location": "Jalan Besar Subang",
        "Post_Office": "Shah Alam",
        "State": "Selangor"
    },
    {
        "Postcode": "40160",
        "Location": "Jalan Brp 1/10A",
        "Post_Office": "Sungai Buloh",
        "State": "Selangor"
    },
    {
        "Postcode": "40160",
        "Location": "Jalan Bukit Jugra U17/23 ",
        "Post_Office": "Shah Alam",
        "State": "Selangor"
    },
    {
        "Postcode": "40160",
        "Location": "Jalan Bukit Melawati B U17/B",
        "Post_Office": "Shah Alam",
        "State": "Selangor"
    },
    {
        "Postcode": "40160",
        "Location": "Jalan Bukit Melawati C U17/C",
        "Post_Office": "Shah Alam",
        "State": "Selangor"
    },
    {
        "Postcode": "40160",
        "Location": "Jalan Dm 1",
        "Post_Office": "Shah Alam",
        "State": "Selangor"
    },
    {
        "Postcode": "40160",
        "Location": "Jalan Dm 1A",
        "Post_Office": "Shah Alam",
        "State": "Selangor"
    },
    {
        "Postcode": "40160",
        "Location": "Jalan Dm 1B",
        "Post_Office": "Shah Alam",
        "State": "Selangor"
    },
    {
        "Postcode": "40160",
        "Location": "Jalan Dm 2",
        "Post_Office": "Shah Alam",
        "State": "Selangor"
    },
    {
        "Postcode": "40160",
        "Location": "Jalan Forest",
        "Post_Office": "Shah Alam",
        "State": "Selangor"
    },
    {
        "Postcode": "40160",
        "Location": "Jalan Gantang U19/2A",
        "Post_Office": "Shah Alam",
        "State": "Selangor"
    },
    {
        "Postcode": "40160",
        "Location": "Jalan Hillview",
        "Post_Office": "Shah Alam",
        "State": "Selangor"
    },
    {
        "Postcode": "40160",
        "Location": "Jalan Idris ",
        "Post_Office": "Shah Alam",
        "State": "Selangor"
    },
    {
        "Postcode": "40160",
        "Location": "Jalan Jambu",
        "Post_Office": "Shah Alam",
        "State": "Selangor"
    },
    {
        "Postcode": "40160",
        "Location": "Jalan Kampung Baru",
        "Post_Office": "Shah Alam",
        "State": "Selangor"
    },
    {
        "Postcode": "40160",
        "Location": "Jalan Kebun Teh",
        "Post_Office": "Shah Alam",
        "State": "Selangor"
    },
    {
        "Postcode": "40160",
        "Location": "Jalan Kuala Selangor",
        "Post_Office": "Shah Alam",
        "State": "Selangor"
    },
    {
        "Postcode": "40160",
        "Location": "Jalan Ladang Elmina",
        "Post_Office": "Shah Alam",
        "State": "Selangor"
    },
    {
        "Postcode": "40160",
        "Location": "Jalan Love Lane",
        "Post_Office": "Shah Alam",
        "State": "Selangor"
    },
    {
        "Postcode": "40160",
        "Location": "Jalan Manggis",
        "Post_Office": "Shah Alam",
        "State": "Selangor"
    },
    {
        "Postcode": "40160",
        "Location": "Jalan Middie",
        "Post_Office": "Shah Alam",
        "State": "Selangor"
    },
    {
        "Postcode": "40160",
        "Location": "Jalan Nangka",
        "Post_Office": "Shah Alam",
        "State": "Selangor"
    },
    {
        "Postcode": "40160",
        "Location": "Jalan Paya Jaras Hilir",
        "Post_Office": "Shah Alam",
        "State": "Selangor"
    },
    {
        "Postcode": "40160",
        "Location": "Jalan Peace Avenue",
        "Post_Office": "Shah Alam",
        "State": "Selangor"
    },
    {
        "Postcode": "40160",
        "Location": "Jalan Perkhidmatan",
        "Post_Office": "Shah Alam",
        "State": "Selangor"
    },
    {
        "Postcode": "40160",
        "Location": "Jalan Public",
        "Post_Office": "Shah Alam",
        "State": "Selangor"
    },
    {
        "Postcode": "40160",
        "Location": "Jalan Sungai Buloh",
        "Post_Office": "Shah Alam",
        "State": "Selangor"
    },
    {
        "Postcode": "40160",
        "Location": "Jalan Tangsang",
        "Post_Office": "Shah Alam",
        "State": "Selangor"
    },
    {
        "Postcode": "40160",
        "Location": "Jalan Tengah",
        "Post_Office": "Shah Alam",
        "State": "Selangor"
    },
    {
        "Postcode": "40160",
        "Location": "Jalan Tiong Seng",
        "Post_Office": "Shah Alam",
        "State": "Selangor"
    },
    {
        "Postcode": "40160",
        "Location": "Jalan Union",
        "Post_Office": "Shah Alam",
        "State": "Selangor"
    },
    {
        "Postcode": "40160",
        "Location": "Jalan Welfare",
        "Post_Office": "Shah Alam",
        "State": "Selangor"
    },
    {
        "Postcode": "40160",
        "Location": "Kampung Baru",
        "Post_Office": "Shah Alam",
        "State": "Selangor"
    },
    {
        "Postcode": "40160",
        "Location": "Kampung Baru Cina",
        "Post_Office": "Shah Alam",
        "State": "Selangor"
    },
    {
        "Postcode": "40160",
        "Location": "Kampung Baru Elmina",
        "Post_Office": "Shah Alam",
        "State": "Selangor"
    },
    {
        "Postcode": "40160",
        "Location": "Kampung Baru Sungai Buloh",
        "Post_Office": "Shah Alam",
        "State": "Selangor"
    },
    {
        "Postcode": "40160",
        "Location": "Kampung Bujong",
        "Post_Office": "Shah Alam",
        "State": "Selangor"
    },
    {
        "Postcode": "40160",
        "Location": "Kampung Gopal",
        "Post_Office": "Shah Alam",
        "State": "Selangor"
    },
    {
        "Postcode": "40160",
        "Location": "Kampung Kubit",
        "Post_Office": "Shah Alam",
        "State": "Selangor"
    },
    {
        "Postcode": "40160",
        "Location": "Kampung Kubu Gajah",
        "Post_Office": "Shah Alam",
        "State": "Selangor"
    },
    {
        "Postcode": "40160",
        "Location": "Kampung Kubu Gajah Dalam",
        "Post_Office": "Shah Alam",
        "State": "Selangor"
    },
    {
        "Postcode": "40160",
        "Location": "Kampung Kubu Gajah Luar",
        "Post_Office": "Shah Alam",
        "State": "Selangor"
    },
    {
        "Postcode": "40160",
        "Location": "Kampung Masjid",
        "Post_Office": "Shah Alam",
        "State": "Selangor"
    },
    {
        "Postcode": "40160",
        "Location": "Kampung Merbau Sempak",
        "Post_Office": "Shah Alam",
        "State": "Selangor"
    },
    {
        "Postcode": "40160",
        "Location": "Kampung Merbau Sempak Tambahan",
        "Post_Office": "Shah Alam",
        "State": "Selangor"
    },
    {
        "Postcode": "40160",
        "Location": "Kampung Paya Jaras",
        "Post_Office": "Shah Alam",
        "State": "Selangor"
    },
    {
        "Postcode": "40160",
        "Location": "Kampung Paya Jaras Dalam",
        "Post_Office": "Shah Alam",
        "State": "Selangor"
    },
    {
        "Postcode": "40160",
        "Location": "Kampung Paya Jaras Hilir",
        "Post_Office": "Shah Alam",
        "State": "Selangor"
    },
    {
        "Postcode": "40160",
        "Location": "Kampung Paya Jaras Hulu",
        "Post_Office": "Shah Alam",
        "State": "Selangor"
    },
    {
        "Postcode": "40160",
        "Location": "Kampung Paya Jaras Luar",
        "Post_Office": "Shah Alam",
        "State": "Selangor"
    },
    {
        "Postcode": "40160",
        "Location": "Kampung Paya Jaras Tengah",
        "Post_Office": "Shah Alam",
        "State": "Selangor"
    },
    {
        "Postcode": "40160",
        "Location": "Kampung Selamat",
        "Post_Office": "Shah Alam",
        "State": "Selangor"
    },
    {
        "Postcode": "40160",
        "Location": "Kampung Sungai Pelong",
        "Post_Office": "Shah Alam",
        "State": "Selangor"
    },
    {
        "Postcode": "40160",
        "Location": "Kompleks Islam Ar-Rahman",
        "Post_Office": "Shah Alam",
        "State": "Selangor"
    },
    {
        "Postcode": "40160",
        "Location": "Ladang Bujung",
        "Post_Office": "Shah Alam",
        "State": "Selangor"
    },
    {
        "Postcode": "40160",
        "Location": "Lorong Haji Balong",
        "Post_Office": "Shah Alam",
        "State": "Selangor"
    },
    {
        "Postcode": "40160",
        "Location": "Lorong Kecil",
        "Post_Office": "Shah Alam",
        "State": "Selangor"
    },
    {
        "Postcode": "40160",
        "Location": "Lorong Rahidin",
        "Post_Office": "Shah Alam",
        "State": "Selangor"
    },
    {
        "Postcode": "40160",
        "Location": "Lorong Teratai",
        "Post_Office": "Shah Alam",
        "State": "Selangor"
    },
    {
        "Postcode": "40160",
        "Location": "Persiaran Elmina",
        "Post_Office": "Shah Alam",
        "State": "Selangor"
    },
    {
        "Postcode": "40160",
        "Location": "Persiaran Saujana",
        "Post_Office": "Shah Alam",
        "State": "Selangor"
    },
    {
        "Postcode": "40160",
        "Location": "Rrim",
        "Post_Office": "Shah Alam",
        "State": "Selangor"
    },
    {
        "Postcode": "40160",
        "Location": "Rumah Murah Kampung Ladang Baru",
        "Post_Office": "Shah Alam",
        "State": "Selangor"
    },
    {
        "Postcode": "40160",
        "Location": "Seksyen U20",
        "Post_Office": "Shah Alam",
        "State": "Selangor"
    },
    {
        "Postcode": "40160",
        "Location": "Sungai Pelong",
        "Post_Office": "Shah Alam",
        "State": "Selangor"
    },
    {
        "Postcode": "40160",
        "Location": "Sunway Rahman Putra",
        "Post_Office": "Shah Alam",
        "State": "Selangor"
    },
    {
        "Postcode": "40160",
        "Location": "Taman Bukit Jugra",
        "Post_Office": "Shah Alam",
        "State": "Selangor"
    },
    {
        "Postcode": "40160",
        "Location": "Taman Desa Moccis Merbau",
        "Post_Office": "Shah Alam",
        "State": "Selangor"
    },
    {
        "Postcode": "40160",
        "Location": "Taman Emkay",
        "Post_Office": "Shah Alam",
        "State": "Selangor"
    },
    {
        "Postcode": "40160",
        "Location": "Taman Medan Mas",
        "Post_Office": "Shah Alam",
        "State": "Selangor"
    },
    {
        "Postcode": "40160",
        "Location": "Taman Paya Jaras Permai",
        "Post_Office": "Shah Alam",
        "State": "Selangor"
    },
    {
        "Postcode": "40160",
        "Location": "Taman Sri Buloh",
        "Post_Office": "Shah Alam",
        "State": "Selangor"
    },
    {
        "Postcode": "40160",
        "Location": "Tsb Commercial Centre",
        "Post_Office": "Shah Alam",
        "State": "Selangor"
    },
    {
        "Postcode": "40160",
        "Location": "Jalan Citizen ",
        "Post_Office": "Shah Alam",
        "State": "Selangor "
    },
    {
        "Postcode": "40160",
        "Location": "Jalan Gajah Utama",
        "Post_Office": "Shah Alam",
        "State": "Selangor "
    },
    {
        "Postcode": "40160",
        "Location": "Seksyen U19",
        "Post_Office": "Shah Alam",
        "State": "Selangor"
    },
    {
        "Postcode": "40160",
        "Location": "Jalan Elektron U16/100",
        "Post_Office": "Shah Alam",
        "State": "Selangor"
    },
    {
        "Postcode": "40160",
        "Location": "Jalan Elektron U16/33",
        "Post_Office": "Shah Alam",
        "State": "Selangor"
    },
    {
        "Postcode": "40160",
        "Location": "Jalan Elektron U16/33A",
        "Post_Office": "Shah Alam",
        "State": "Selangor"
    },
    {
        "Postcode": "40160",
        "Location": "Jalan Elektron U16/34",
        "Post_Office": "Shah Alam",
        "State": "Selangor"
    },
    {
        "Postcode": "40160",
        "Location": "Jalan Elektron U16/35",
        "Post_Office": "Shah Alam",
        "State": "Selangor"
    },
    {
        "Postcode": "40160",
        "Location": "Jalan Elektron U16/36",
        "Post_Office": "Shah Alam",
        "State": "Selangor"
    },
    {
        "Postcode": "40160",
        "Location": "Jalan Elektron U16/39",
        "Post_Office": "Shah Alam",
        "State": "Selangor"
    },
    {
        "Postcode": "40160",
        "Location": "Jalan Elektron U16/39A",
        "Post_Office": "Shah Alam",
        "State": "Selangor"
    },
    {
        "Postcode": "40160",
        "Location": "Jalan Elektron U16/45",
        "Post_Office": "Shah Alam",
        "State": "Selangor"
    },
    {
        "Postcode": "40160",
        "Location": "Jalan Elektron U16/46",
        "Post_Office": "Shah Alam",
        "State": "Selangor"
    },
    {
        "Postcode": "40160",
        "Location": "Jalan Elektron U16/47",
        "Post_Office": "Shah Alam",
        "State": "Selangor"
    },
    {
        "Postcode": "40160",
        "Location": "Jalan Elektron U16/48",
        "Post_Office": "Shah Alam",
        "State": "Selangor"
    },
    {
        "Postcode": "40160",
        "Location": "Jalan Elektron U16/49",
        "Post_Office": "Shah Alam",
        "State": "Selangor"
    },
    {
        "Postcode": "40160",
        "Location": "Jalan Elektron U16/50",
        "Post_Office": "Shah Alam",
        "State": "Selangor"
    },
    {
        "Postcode": "40160",
        "Location": "Jalan Elektron U16/50A",
        "Post_Office": "Shah Alam",
        "State": "Selangor"
    },
    {
        "Postcode": "40160",
        "Location": "Jalan Elektron U16/50B",
        "Post_Office": "Shah Alam",
        "State": "Selangor"
    },
    {
        "Postcode": "40160",
        "Location": "Jalan Elektron U16/50C",
        "Post_Office": "Shah Alam",
        "State": "Selangor"
    },
    {
        "Postcode": "40160",
        "Location": "Jalan Elektron U16/50D",
        "Post_Office": "Shah Alam",
        "State": "Selangor"
    },
    {
        "Postcode": "40160",
        "Location": "Jalan Elektron U16/50E",
        "Post_Office": "Shah Alam",
        "State": "Selangor"
    },
    {
        "Postcode": "40160",
        "Location": "Jalan Elektron U16/50F",
        "Post_Office": "Shah Alam",
        "State": "Selangor"
    },
    {
        "Postcode": "40160",
        "Location": "Jalan Elektron U16/50G",
        "Post_Office": "Shah Alam",
        "State": "Selangor"
    },
    {
        "Postcode": "40160",
        "Location": "Jalan Elektron U16/50H",
        "Post_Office": "Shah Alam",
        "State": "Selangor"
    },
    {
        "Postcode": "40160",
        "Location": "Jalan Elektron U16/51",
        "Post_Office": "Shah Alam",
        "State": "Selangor"
    },
    {
        "Postcode": "40160",
        "Location": "Jalan Elektron U16/52",
        "Post_Office": "Shah Alam",
        "State": "Selangor"
    },
    {
        "Postcode": "40160",
        "Location": "Jalan Elektron U16/52A",
        "Post_Office": "Shah Alam",
        "State": "Selangor"
    },
    {
        "Postcode": "40160",
        "Location": "Jalan Elektron U16/52B",
        "Post_Office": "Shah Alam",
        "State": "Selangor"
    },
    {
        "Postcode": "40160",
        "Location": "Jalan Elektron U16/52C",
        "Post_Office": "Shah Alam",
        "State": "Selangor"
    },
    {
        "Postcode": "40160",
        "Location": "Jalan Elektron U16/52D",
        "Post_Office": "Shah Alam",
        "State": "Selangor"
    },
    {
        "Postcode": "40160",
        "Location": "Jalan Elektron U16/52E",
        "Post_Office": "Shah Alam",
        "State": "Selangor"
    },
    {
        "Postcode": "40160",
        "Location": "Jalan Elektron U16/52F",
        "Post_Office": "Shah Alam",
        "State": "Selangor"
    },
    {
        "Postcode": "40160",
        "Location": "Jalan Elektron U16/53",
        "Post_Office": "Shah Alam",
        "State": "Selangor"
    },
    {
        "Postcode": "40160",
        "Location": "Jalan Elektron U16/54A",
        "Post_Office": "Shah Alam",
        "State": "Selangor"
    },
    {
        "Postcode": "40160",
        "Location": "Jalan Elektron U16/54B",
        "Post_Office": "Shah Alam",
        "State": "Selangor"
    },
    {
        "Postcode": "40160",
        "Location": "Jalan Elektron U16/54C",
        "Post_Office": "Shah Alam",
        "State": "Selangor"
    },
    {
        "Postcode": "40160",
        "Location": "Jalan Elektron U16/55A",
        "Post_Office": "Shah Alam",
        "State": "Selangor"
    },
    {
        "Postcode": "40160",
        "Location": "Jalan Elektron U16/56",
        "Post_Office": "Shah Alam",
        "State": "Selangor"
    },
    {
        "Postcode": "40160",
        "Location": "Jalan Elektron U16/57",
        "Post_Office": "Shah Alam",
        "State": "Selangor"
    },
    {
        "Postcode": "40160",
        "Location": "Jalan Elektron U16/58A",
        "Post_Office": "Shah Alam",
        "State": "Selangor"
    },
    {
        "Postcode": "40160",
        "Location": "Jalan Elektron U16/58B",
        "Post_Office": "Shah Alam",
        "State": "Selangor"
    },
    {
        "Postcode": "40160",
        "Location": "Jalan Elektron U16/58C",
        "Post_Office": "Shah Alam",
        "State": "Selangor"
    },
    {
        "Postcode": "40160",
        "Location": "Jalan Elektron U16/58D",
        "Post_Office": "Shah Alam",
        "State": "Selangor"
    },
    {
        "Postcode": "40160",
        "Location": "Jalan Elektron U16/58E",
        "Post_Office": "Shah Alam",
        "State": "Selangor"
    },
    {
        "Postcode": "40160",
        "Location": "Jalan Elektron U16/58F",
        "Post_Office": "Shah Alam",
        "State": "Selangor"
    },
    {
        "Postcode": "40160",
        "Location": "Jalan Elektron U16/59",
        "Post_Office": "Shah Alam",
        "State": "Selangor"
    },
    {
        "Postcode": "40160",
        "Location": "Jalan Elektron U16/60",
        "Post_Office": "Shah Alam",
        "State": "Selangor"
    },
    {
        "Postcode": "40160",
        "Location": "Jalan Elektron U16/61",
        "Post_Office": "Shah Alam",
        "State": "Selangor"
    },
    {
        "Postcode": "40160",
        "Location": "Jalan Elektron U16/62",
        "Post_Office": "Shah Alam",
        "State": "Selangor"
    },
    {
        "Postcode": "40160",
        "Location": "Jalan Elektron U16/63",
        "Post_Office": "Shah Alam",
        "State": "Selangor"
    },
    {
        "Postcode": "40160",
        "Location": "Jalan Elektron U16/64",
        "Post_Office": "Shah Alam",
        "State": "Selangor"
    },
    {
        "Postcode": "40160",
        "Location": "Jalan Elektron U16/65",
        "Post_Office": "Shah Alam",
        "State": "Selangor"
    },
    {
        "Postcode": "40160",
        "Location": "Jalan Elektron U16/66",
        "Post_Office": "Shah Alam",
        "State": "Selangor"
    },
    {
        "Postcode": "40160",
        "Location": "Jalan Elektron U16/66A",
        "Post_Office": "Shah Alam",
        "State": "Selangor"
    },
    {
        "Postcode": "40160",
        "Location": "Jalan Elektron U16/66B",
        "Post_Office": "Shah Alam",
        "State": "Selangor"
    },
    {
        "Postcode": "40160",
        "Location": "Jalan Elektron U16/67",
        "Post_Office": "Shah Alam",
        "State": "Selangor"
    },
    {
        "Postcode": "40160",
        "Location": "Jalan Elektron U16/68",
        "Post_Office": "Shah Alam",
        "State": "Selangor"
    },
    {
        "Postcode": "40160",
        "Location": "Jalan Elektron U16/69",
        "Post_Office": "Shah Alam",
        "State": "Selangor"
    },
    {
        "Postcode": "40160",
        "Location": "Jalan Elektron U16/70",
        "Post_Office": "Shah Alam",
        "State": "Selangor"
    },
    {
        "Postcode": "40160",
        "Location": "Jalan Elektron U16/71",
        "Post_Office": "Shah Alam",
        "State": "Selangor"
    },
    {
        "Postcode": "40160",
        "Location": "Jalan Elektron U16/72",
        "Post_Office": "Shah Alam",
        "State": "Selangor"
    },
    {
        "Postcode": "40160",
        "Location": "Jalan Elektron U16/72A",
        "Post_Office": "Shah Alam",
        "State": "Selangor"
    },
    {
        "Postcode": "40160",
        "Location": "Jalan Elektron U16/73",
        "Post_Office": "Shah Alam",
        "State": "Selangor"
    },
    {
        "Postcode": "40160",
        "Location": "Jalan Elektron U16/73A",
        "Post_Office": "Shah Alam",
        "State": "Selangor"
    },
    {
        "Postcode": "40160",
        "Location": "Jalan Elektron U16/74",
        "Post_Office": "Shah Alam",
        "State": "Selangor"
    },
    {
        "Postcode": "40160",
        "Location": "Jalan Elektron U16/74A",
        "Post_Office": "Shah Alam",
        "State": "Selangor"
    },
    {
        "Postcode": "40160",
        "Location": "Jalan Elektron U16/74B",
        "Post_Office": "Shah Alam",
        "State": "Selangor"
    },
    {
        "Postcode": "40160",
        "Location": "Jalan Elektron U16/74C",
        "Post_Office": "Shah Alam",
        "State": "Selangor"
    },
    {
        "Postcode": "40160",
        "Location": "Jalan Elektron U16/75",
        "Post_Office": "Shah Alam",
        "State": "Selangor"
    },
    {
        "Postcode": "40160",
        "Location": "Jalan Elektron U16/76",
        "Post_Office": "Shah Alam",
        "State": "Selangor"
    },
    {
        "Postcode": "40160",
        "Location": "Jalan Elektron U16/76A",
        "Post_Office": "Shah Alam",
        "State": "Selangor"
    },
    {
        "Postcode": "40160",
        "Location": "Jalan Elektron U16/76B",
        "Post_Office": "Shah Alam",
        "State": "Selangor"
    },
    {
        "Postcode": "40160",
        "Location": "Jalan Elektron U16/77",
        "Post_Office": "Shah Alam",
        "State": "Selangor"
    },
    {
        "Postcode": "40160",
        "Location": "Jalan Elektron U16/77A",
        "Post_Office": "Shah Alam",
        "State": "Selangor"
    },
    {
        "Postcode": "40160",
        "Location": "Jalan Elektron U16/77B",
        "Post_Office": "Shah Alam",
        "State": "Selangor"
    },
    {
        "Postcode": "40160",
        "Location": "Jalan Elektron U16/77C",
        "Post_Office": "Shah Alam",
        "State": "Selangor"
    },
    {
        "Postcode": "40160",
        "Location": "Jalan Elektron U16/77D",
        "Post_Office": "Shah Alam",
        "State": "Selangor"
    },
    {
        "Postcode": "40160",
        "Location": "Jalan Elektron U16/77E",
        "Post_Office": "Shah Alam",
        "State": "Selangor"
    },
    {
        "Postcode": "40160",
        "Location": "Jalan Elektron U16/78",
        "Post_Office": "Shah Alam",
        "State": "Selangor"
    },
    {
        "Postcode": "40160",
        "Location": "Jalan Elektron U16/79",
        "Post_Office": "Shah Alam",
        "State": "Selangor"
    },
    {
        "Postcode": "40160",
        "Location": "Jalan Elektron U16/80",
        "Post_Office": "Shah Alam",
        "State": "Selangor"
    },
    {
        "Postcode": "40160",
        "Location": "Jalan Elektron U16/80A",
        "Post_Office": "Shah Alam",
        "State": "Selangor"
    },
    {
        "Postcode": "40160",
        "Location": "Jalan Elektron U16/80B",
        "Post_Office": "Shah Alam",
        "State": "Selangor"
    },
    {
        "Postcode": "40160",
        "Location": "Jalan Elektron U16/80C",
        "Post_Office": "Shah Alam",
        "State": "Selangor"
    },
    {
        "Postcode": "40160",
        "Location": "Jalan Elektron U16/80D",
        "Post_Office": "Shah Alam",
        "State": "Selangor"
    },
    {
        "Postcode": "40160",
        "Location": "Jalan Elektron U16/80E",
        "Post_Office": "Shah Alam",
        "State": "Selangor"
    },
    {
        "Postcode": "40160",
        "Location": "Jalan Elektron U16/81",
        "Post_Office": "Shah Alam",
        "State": "Selangor"
    },
    {
        "Postcode": "40160",
        "Location": "Jalan Elektron U16/81A",
        "Post_Office": "Shah Alam",
        "State": "Selangor"
    },
    {
        "Postcode": "40160",
        "Location": "Jalan Elektron U16/83",
        "Post_Office": "Shah Alam",
        "State": "Selangor"
    },
    {
        "Postcode": "40160",
        "Location": "Jalan Elektron U16/83A",
        "Post_Office": "Shah Alam",
        "State": "Selangor"
    },
    {
        "Postcode": "40160",
        "Location": "Jalan Elektron U16/84",
        "Post_Office": "Shah Alam",
        "State": "Selangor"
    },
    {
        "Postcode": "40160",
        "Location": "Jalan Elektron U16/85",
        "Post_Office": "Shah Alam",
        "State": "Selangor"
    },
    {
        "Postcode": "40160",
        "Location": "Jalan Elektron U16/86",
        "Post_Office": "Shah Alam",
        "State": "Selangor"
    },
    {
        "Postcode": "40160",
        "Location": "Jalan Elektron U16/87",
        "Post_Office": "Shah Alam",
        "State": "Selangor"
    },
    {
        "Postcode": "40160",
        "Location": "Jalan Elektron U16/88",
        "Post_Office": "Shah Alam",
        "State": "Selangor"
    },
    {
        "Postcode": "40160",
        "Location": "Jalan Elektron U16/89",
        "Post_Office": "Shah Alam",
        "State": "Selangor"
    },
    {
        "Postcode": "40160",
        "Location": "Jalan Elektron U16/90",
        "Post_Office": "Shah Alam",
        "State": "Selangor"
    },
    {
        "Postcode": "40160",
        "Location": "Jalan Elektron U16/91",
        "Post_Office": "Shah Alam",
        "State": "Selangor"
    },
    {
        "Postcode": "40160",
        "Location": "Jalan Elektron U16/92",
        "Post_Office": "Shah Alam",
        "State": "Selangor"
    },
    {
        "Postcode": "40160",
        "Location": "Jalan Elektron U16/93",
        "Post_Office": "Shah Alam",
        "State": "Selangor"
    },
    {
        "Postcode": "40160",
        "Location": "Jalan Elektron U16/94",
        "Post_Office": "Shah Alam",
        "State": "Selangor"
    },
    {
        "Postcode": "40160",
        "Location": "Jalan Elektron U16/95",
        "Post_Office": "Shah Alam",
        "State": "Selangor"
    },
    {
        "Postcode": "40160",
        "Location": "Jalan Elektron U16/96A",
        "Post_Office": "Shah Alam",
        "State": "Selangor"
    },
    {
        "Postcode": "40160",
        "Location": "Jalan Elektron U16/96B",
        "Post_Office": "Shah Alam",
        "State": "Selangor"
    },
    {
        "Postcode": "40160",
        "Location": "Jalan Elektron U16/96C",
        "Post_Office": "Shah Alam",
        "State": "Selangor"
    },
    {
        "Postcode": "40160",
        "Location": "Jalan Elektron U16/96D",
        "Post_Office": "Shah Alam",
        "State": "Selangor"
    },
    {
        "Postcode": "40160",
        "Location": "Jalan Elektron U16/96E",
        "Post_Office": "Shah Alam",
        "State": "Selangor"
    },
    {
        "Postcode": "40160",
        "Location": "Jalan Elektron U16/96F",
        "Post_Office": "Shah Alam",
        "State": "Selangor"
    },
    {
        "Postcode": "40160",
        "Location": "Jalan Elektron U16/96G",
        "Post_Office": "Shah Alam",
        "State": "Selangor"
    },
    {
        "Postcode": "40160",
        "Location": "Jalan Elektron U16/97A",
        "Post_Office": "Shah Alam",
        "State": "Selangor"
    },
    {
        "Postcode": "40160",
        "Location": "Jalan Elektron U16/97B",
        "Post_Office": "Shah Alam",
        "State": "Selangor"
    },
    {
        "Postcode": "40160",
        "Location": "Jalan Elektron U16/97C",
        "Post_Office": "Shah Alam",
        "State": "Selangor"
    },
    {
        "Postcode": "40160",
        "Location": "Jalan Elektron U16/99",
        "Post_Office": "Shah Alam",
        "State": "Selangor"
    },
    {
        "Postcode": "40160",
        "Location": "Jalan Metafasa A U16/A",
        "Post_Office": "Shah Alam",
        "State": "Selangor"
    },
    {
        "Postcode": "40160",
        "Location": "Jalan Metafasa B U16/B",
        "Post_Office": "Shah Alam",
        "State": "Selangor"
    },
    {
        "Postcode": "40160",
        "Location": "Jalan Metafasa C U16/C",
        "Post_Office": "Shah Alam",
        "State": "Selangor"
    },
    {
        "Postcode": "40160",
        "Location": "Seksyen U16",
        "Post_Office": "Shah Alam",
        "State": "Selangor"
    },
    {
        "Postcode": "40160",
        "Location": "Aman Puteri",
        "Post_Office": "Shah Alam",
        "State": "Selangor"
    },
    {
        "Postcode": "40160",
        "Location": "Avanti Residences",
        "Post_Office": "Shah Alam",
        "State": "Selangor"
    },
    {
        "Postcode": "40160",
        "Location": "E - Boulevard",
        "Post_Office": "Shah Alam",
        "State": "Selangor"
    },
    {
        "Postcode": "40160",
        "Location": "Elmina",
        "Post_Office": "Shah Alam",
        "State": "Selangor"
    },
    {
        "Postcode": "40160",
        "Location": "Elmina South",
        "Post_Office": "Shah Alam",
        "State": "Selangor"
    },
    {
        "Postcode": "40160",
        "Location": "Elmina West",
        "Post_Office": "Shah Alam",
        "State": "Selangor"
    },
    {
        "Postcode": "40160",
        "Location": "Kem Paya Jaras",
        "Post_Office": "Shah Alam",
        "State": "Selangor"
    },
    {
        "Postcode": "40160",
        "Location": "Kem Sungai Buloh",
        "Post_Office": "Shah Alam",
        "State": "Selangor"
    },
    {
        "Postcode": "40160",
        "Location": "Taman Aman Putri",
        "Post_Office": "Shah Alam",
        "State": "Selangor"
    },
    {
        "Postcode": "40160",
        "Location": "Jalan Cempedak",
        "Post_Office": "Shah Alam",
        "State": "Selangor"
    },
    {
        "Postcode": "40160",
        "Location": "Jalan Durian",
        "Post_Office": "Shah Alam",
        "State": "Selangor"
    },
    {
        "Postcode": "40160",
        "Location": "Jalan Mangga",
        "Post_Office": "Shah Alam",
        "State": "Selangor"
    },
    {
        "Postcode": "40160",
        "Location": "Jalan Rambutan",
        "Post_Office": "Shah Alam",
        "State": "Selangor"
    },
    {
        "Postcode": "40160",
        "Location": "Jalan Taiping",
        "Post_Office": "Shah Alam",
        "State": "Selangor"
    },
    {
        "Postcode": "40160",
        "Location": "Kampung Bersatu",
        "Post_Office": "Shah Alam",
        "State": "Selangor"
    },
    {
        "Postcode": "40160",
        "Location": "Seksyen U17",
        "Post_Office": "Shah Alam",
        "State": "Selangor"
    },
    {
        "Postcode": "40160",
        "Location": "Bandar Saujana Permai",
        "Post_Office": "Shah Alam",
        "State": "Selangor"
    },
    {
        "Postcode": "40160",
        "Location": "Jalan Elmina Ilham 6",
        "Post_Office": "Shah Alam",
        "State": "Selangor"
    },
    {
        "Postcode": "40160",
        "Location": "Jalan Elmina Ilham 15",
        "Post_Office": "Shah Alam",
        "State": "Selangor"
    },
    {
        "Postcode": "40160",
        "Location": "Jalan Eserina Y U16/Y",
        "Post_Office": "Shah Alam",
        "State": "Selangor"
    },
    {
        "Postcode": "40160",
        "Location": "Jalan Kampung",
        "Post_Office": "Shah Alam",
        "State": "Selangor"
    }
]
