[
    {
        "Postcode": "40170",
        "Location": "Jalan Gunung Nuang U11/9A",
        "Post_Office": "Shah Alam",
        "State": "Selangor"
    },
    {
        "Postcode": "40170",
        "Location": "Jalan Gunung Nuang U11/9B",
        "Post_Office": "Shah Alam",
        "State": "Selangor"
    },
    {
        "Postcode": "40170",
        "Location": "Jalan Gunung Nuang U11/9C",
        "Post_Office": "Shah Alam",
        "State": "Selangor"
    },
    {
        "Postcode": "40170",
        "Location": "Jalan Gunung Nuang U11/9D",
        "Post_Office": "Shah Alam",
        "State": "Selangor"
    },
    {
        "Postcode": "40170",
        "Location": "Jalan Gunung Tahan U11/1",
        "Post_Office": "Shah Alam",
        "State": "Selangor"
    },
    {
        "Postcode": "40170",
        "Location": "Jalan Gunung Tahan U11/1A",
        "Post_Office": "Shah Alam",
        "State": "Selangor"
    },
    {
        "Postcode": "40170",
        "Location": "Jalan Gunung Tahan U11/1B",
        "Post_Office": "Shah Alam",
        "State": "Selangor"
    },
    {
        "Postcode": "40170",
        "Location": "Jalan Gunung Tahan U11/1C",
        "Post_Office": "Shah Alam",
        "State": "Selangor"
    },
    {
        "Postcode": "40170",
        "Location": "Jalan Gunung Tahan U11/1D",
        "Post_Office": "Shah Alam",
        "State": "Selangor"
    },
    {
        "Postcode": "40170",
        "Location": "Jalan Gunung Tahan U11/1E",
        "Post_Office": "Shah Alam",
        "State": "Selangor"
    },
    {
        "Postcode": "40170",
        "Location": "Jalan Gunung Tahan U11/2",
        "Post_Office": "Shah Alam",
        "State": "Selangor"
    },
    {
        "Postcode": "40170",
        "Location": "Jalan Gunung Tahan U11/39",
        "Post_Office": "Shah Alam",
        "State": "Selangor"
    },
    {
        "Postcode": "40170",
        "Location": "Jalan Pegaga U12/1",
        "Post_Office": "Shah Alam",
        "State": "Selangor"
    },
    {
        "Postcode": "40170",
        "Location": "Jalan Pegaga U12/10",
        "Post_Office": "Shah Alam",
        "State": "Selangor"
    },
    {
        "Postcode": "40170",
        "Location": "Jalan Pegaga U12/11",
        "Post_Office": "Shah Alam",
        "State": "Selangor"
    },
    {
        "Postcode": "40170",
        "Location": "Jalan Pegaga U12/12",
        "Post_Office": "Shah Alam",
        "State": "Selangor"
    },
    {
        "Postcode": "40170",
        "Location": "Jalan Pegaga U12/2",
        "Post_Office": "Shah Alam",
        "State": "Selangor"
    },
    {
        "Postcode": "40170",
        "Location": "Jalan Pegaga U12/2A",
        "Post_Office": "Shah Alam",
        "State": "Selangor"
    },
    {
        "Postcode": "40170",
        "Location": "Jalan Pegaga U12/2B",
        "Post_Office": "Shah Alam",
        "State": "Selangor"
    },
    {
        "Postcode": "40170",
        "Location": "Jalan Pegaga U12/2C",
        "Post_Office": "Shah Alam",
        "State": "Selangor"
    },
    {
        "Postcode": "40170",
        "Location": "Jalan Pegaga U12/3",
        "Post_Office": "Shah Alam",
        "State": "Selangor"
    },
    {
        "Postcode": "40170",
        "Location": "Jalan Pegaga U12/4",
        "Post_Office": "Shah Alam",
        "State": "Selangor"
    },
    {
        "Postcode": "40170",
        "Location": "Jalan Pegaga U12/5",
        "Post_Office": "Shah Alam",
        "State": "Selangor"
    },
    {
        "Postcode": "40170",
        "Location": "Jalan Pegaga U12/6",
        "Post_Office": "Shah Alam",
        "State": "Selangor"
    },
    {
        "Postcode": "40170",
        "Location": "Jalan Pegaga U12/6A",
        "Post_Office": "Shah Alam",
        "State": "Selangor"
    },
    {
        "Postcode": "40170",
        "Location": "Jalan Pegaga U12/7",
        "Post_Office": "Shah Alam",
        "State": "Selangor"
    },
    {
        "Postcode": "40170",
        "Location": "Jalan Pegaga U12/7A",
        "Post_Office": "Shah Alam",
        "State": "Selangor"
    },
    {
        "Postcode": "40170",
        "Location": "Jalan Pegaga U12/8",
        "Post_Office": "Shah Alam",
        "State": "Selangor"
    },
    {
        "Postcode": "40170",
        "Location": "Jalan Pegaga U12/9",
        "Post_Office": "Shah Alam",
        "State": "Selangor"
    },
    {
        "Postcode": "40170",
        "Location": "Jalan Pegaga U12/9A",
        "Post_Office": "Shah Alam",
        "State": "Selangor"
    },
    {
        "Postcode": "40170",
        "Location": "Jalan Pegaga U12/9B",
        "Post_Office": "Shah Alam",
        "State": "Selangor"
    },
    {
        "Postcode": "40170",
        "Location": "Jalan Pegaga U12/9C",
        "Post_Office": "Shah Alam",
        "State": "Selangor"
    },
    {
        "Postcode": "40170",
        "Location": "Jalan Pegaga U12/9D",
        "Post_Office": "Shah Alam",
        "State": "Selangor"
    },
    {
        "Postcode": "40170",
        "Location": "Jalan Pegaga U12/9E",
        "Post_Office": "Shah Alam",
        "State": "Selangor"
    },
    {
        "Postcode": "40170",
        "Location": "Jalan Pegaga U12/9F",
        "Post_Office": "Shah Alam",
        "State": "Selangor"
    },
    {
        "Postcode": "40170",
        "Location": "Jalan Pulau Angsa U10/1",
        "Post_Office": "Shah Alam",
        "State": "Selangor"
    },
    {
        "Postcode": "40170",
        "Location": "Jalan Pulau Angsa U10/10",
        "Post_Office": "Shah Alam",
        "State": "Selangor"
    },
    {
        "Postcode": "40170",
        "Location": "Jalan Pulau Angsa U10/11",
        "Post_Office": "Shah Alam",
        "State": "Selangor"
    },
    {
        "Postcode": "40170",
        "Location": "Jalan Pulau Angsa U10/12",
        "Post_Office": "Shah Alam",
        "State": "Selangor"
    },
    {
        "Postcode": "40170",
        "Location": "Jalan Pulau Angsa U10/12A",
        "Post_Office": "Shah Alam",
        "State": "Selangor"
    },
    {
        "Postcode": "40170",
        "Location": "Jalan Pulau Angsa U10/12B",
        "Post_Office": "Shah Alam",
        "State": "Selangor"
    },
    {
        "Postcode": "40170",
        "Location": "Jalan Pulau Angsa U10/12C",
        "Post_Office": "Shah Alam",
        "State": "Selangor"
    },
    {
        "Postcode": "40170",
        "Location": "Jalan Pulau Angsa U10/12D",
        "Post_Office": "Shah Alam",
        "State": "Selangor"
    },
    {
        "Postcode": "40170",
        "Location": "Jalan Pulau Angsa U10/12E",
        "Post_Office": "Shah Alam",
        "State": "Selangor"
    },
    {
        "Postcode": "40170",
        "Location": "Jalan Pulau Angsa U10/12F",
        "Post_Office": "Shah Alam",
        "State": "Selangor"
    },
    {
        "Postcode": "40170",
        "Location": "Jalan Pulau Angsa U10/13",
        "Post_Office": "Shah Alam",
        "State": "Selangor"
    },
    {
        "Postcode": "40170",
        "Location": "Jalan Pulau Angsa U10/14",
        "Post_Office": "Shah Alam",
        "State": "Selangor"
    },
    {
        "Postcode": "40170",
        "Location": "Jalan Pulau Angsa U10/15",
        "Post_Office": "Shah Alam",
        "State": "Selangor"
    },
    {
        "Postcode": "40170",
        "Location": "Jalan Pulau Angsa U10/16",
        "Post_Office": "Shah Alam",
        "State": "Selangor"
    },
    {
        "Postcode": "40170",
        "Location": "Jalan Pulau Angsa U10/17",
        "Post_Office": "Shah Alam",
        "State": "Selangor"
    },
    {
        "Postcode": "40170",
        "Location": "Jalan Pulau Angsa U10/18",
        "Post_Office": "Shah Alam",
        "State": "Selangor"
    },
    {
        "Postcode": "40170",
        "Location": "Jalan Pulau Angsa U10/19",
        "Post_Office": "Shah Alam",
        "State": "Selangor"
    },
    {
        "Postcode": "40170",
        "Location": "Jalan Pulau Angsa U10/1A",
        "Post_Office": "Shah Alam",
        "State": "Selangor"
    },
    {
        "Postcode": "40170",
        "Location": "Jalan Pulau Angsa U10/1B",
        "Post_Office": "Shah Alam",
        "State": "Selangor"
    },
    {
        "Postcode": "40170",
        "Location": "Jalan Pulau Angsa U10/1C",
        "Post_Office": "Shah Alam",
        "State": "Selangor"
    },
    {
        "Postcode": "40170",
        "Location": "Jalan Pulau Angsa U10/1D",
        "Post_Office": "Shah Alam",
        "State": "Selangor"
    },
    {
        "Postcode": "40170",
        "Location": "Jalan Pulau Angsa U10/1E",
        "Post_Office": "Shah Alam",
        "State": "Selangor"
    },
    {
        "Postcode": "40170",
        "Location": "Jalan Pulau Angsa U10/1F",
        "Post_Office": "Shah Alam",
        "State": "Selangor"
    },
    {
        "Postcode": "40170",
        "Location": "Jalan Pulau Angsa U10/1G",
        "Post_Office": "Shah Alam",
        "State": "Selangor"
    },
    {
        "Postcode": "40170",
        "Location": "Jalan Pulau Angsa U10/1H",
        "Post_Office": "Shah Alam",
        "State": "Selangor"
    },
    {
        "Postcode": "40170",
        "Location": "Jalan Pulau Angsa U10/20",
        "Post_Office": "Shah Alam",
        "State": "Selangor"
    },
    {
        "Postcode": "40170",
        "Location": "Jalan Pulau Angsa U10/21",
        "Post_Office": "Shah Alam",
        "State": "Selangor"
    },
    {
        "Postcode": "40170",
        "Location": "Jalan Pulau Angsa U10/22",
        "Post_Office": "Shah Alam",
        "State": "Selangor"
    },
    {
        "Postcode": "40170",
        "Location": "Jalan Pulau Angsa U10/23",
        "Post_Office": "Shah Alam",
        "State": "Selangor"
    },
    {
        "Postcode": "40170",
        "Location": "Jalan Pulau Angsa U10/26",
        "Post_Office": "Shah Alam",
        "State": "Selangor"
    },
    {
        "Postcode": "40170",
        "Location": "Jalan Pulau Angsa U10/27",
        "Post_Office": "Shah Alam",
        "State": "Selangor"
    },
    {
        "Postcode": "40170",
        "Location": "Jalan Pulau Angsa U10/28",
        "Post_Office": "Shah Alam",
        "State": "Selangor"
    },
    {
        "Postcode": "40170",
        "Location": "Jalan Pulau Angsa U10/29",
        "Post_Office": "Shah Alam",
        "State": "Selangor"
    },
    {
        "Postcode": "40170",
        "Location": "Jalan Pulau Angsa U10/3",
        "Post_Office": "Shah Alam",
        "State": "Selangor"
    },
    {
        "Postcode": "40170",
        "Location": "Jalan Pulau Angsa U10/31",
        "Post_Office": "Shah Alam",
        "State": "Selangor"
    },
    {
        "Postcode": "40170",
        "Location": "Jalan Pulau Angsa U10/32",
        "Post_Office": "Shah Alam",
        "State": "Selangor"
    },
    {
        "Postcode": "40170",
        "Location": "Jalan Pulau Angsa U10/32A",
        "Post_Office": "Shah Alam",
        "State": "Selangor"
    },
    {
        "Postcode": "40170",
        "Location": "Jalan Pulau Angsa U10/32B",
        "Post_Office": "Shah Alam",
        "State": "Selangor"
    },
    {
        "Postcode": "40170",
        "Location": "Jalan Pulau Angsa U10/32C",
        "Post_Office": "Shah Alam",
        "State": "Selangor"
    },
    {
        "Postcode": "40170",
        "Location": "Jalan Pulau Angsa U10/32D",
        "Post_Office": "Shah Alam",
        "State": "Selangor"
    },
    {
        "Postcode": "40170",
        "Location": "Jalan Pulau Angsa U10/32E",
        "Post_Office": "Shah Alam",
        "State": "Selangor"
    },
    {
        "Postcode": "40170",
        "Location": "Jalan Pulau Angsa U10/32F",
        "Post_Office": "Shah Alam",
        "State": "Selangor"
    },
    {
        "Postcode": "40170",
        "Location": "Jalan Pulau Angsa U10/32G",
        "Post_Office": "Shah Alam",
        "State": "Selangor"
    },
    {
        "Postcode": "40170",
        "Location": "Jalan Pulau Angsa U10/32H",
        "Post_Office": "Shah Alam",
        "State": "Selangor"
    },
    {
        "Postcode": "40170",
        "Location": "Jalan Pulau Angsa U10/32I",
        "Post_Office": "Shah Alam",
        "State": "Selangor"
    },
    {
        "Postcode": "40170",
        "Location": "Jalan Pulau Angsa U10/32J",
        "Post_Office": "Shah Alam",
        "State": "Selangor"
    },
    {
        "Postcode": "40170",
        "Location": "Jalan Pulau Angsa U10/32K",
        "Post_Office": "Shah Alam",
        "State": "Selangor"
    },
    {
        "Postcode": "40170",
        "Location": "Jalan Pulau Angsa U10/33",
        "Post_Office": "Shah Alam",
        "State": "Selangor"
    },
    {
        "Postcode": "40170",
        "Location": "Jalan Pulau Angsa U10/33A",
        "Post_Office": "Shah Alam",
        "State": "Selangor"
    },
    {
        "Postcode": "40170",
        "Location": "Jalan Pulau Angsa U10/33B",
        "Post_Office": "Shah Alam",
        "State": "Selangor"
    },
    {
        "Postcode": "40170",
        "Location": "Jalan Pulau Angsa U10/33C",
        "Post_Office": "Shah Alam",
        "State": "Selangor"
    },
    {
        "Postcode": "40170",
        "Location": "Jalan Pulau Angsa U10/33D",
        "Post_Office": "Shah Alam",
        "State": "Selangor"
    },
    {
        "Postcode": "40170",
        "Location": "Jalan Pulau Angsa U10/33E",
        "Post_Office": "Shah Alam",
        "State": "Selangor"
    },
    {
        "Postcode": "40170",
        "Location": "Jalan Pulau Angsa U10/33F",
        "Post_Office": "Shah Alam",
        "State": "Selangor"
    },
    {
        "Postcode": "40170",
        "Location": "Jalan Pulau Angsa U10/33G",
        "Post_Office": "Shah Alam",
        "State": "Selangor"
    },
    {
        "Postcode": "40170",
        "Location": "Jalan Pulau Angsa U10/34",
        "Post_Office": "Shah Alam",
        "State": "Selangor"
    },
    {
        "Postcode": "40170",
        "Location": "Jalan Pulau Angsa U10/34A",
        "Post_Office": "Shah Alam",
        "State": "Selangor"
    },
    {
        "Postcode": "40170",
        "Location": "Jalan Pulau Angsa U10/34B",
        "Post_Office": "Shah Alam",
        "State": "Selangor"
    },
    {
        "Postcode": "40170",
        "Location": "Jalan Pulau Angsa U10/34C",
        "Post_Office": "Shah Alam",
        "State": "Selangor"
    },
    {
        "Postcode": "40170",
        "Location": "Jalan Pulau Angsa U10/34D",
        "Post_Office": "Shah Alam",
        "State": "Selangor"
    },
    {
        "Postcode": "40170",
        "Location": "Jalan Pulau Angsa U10/34E",
        "Post_Office": "Shah Alam",
        "State": "Selangor"
    },
    {
        "Postcode": "40170",
        "Location": "Jalan Pulau Angsa U10/34F",
        "Post_Office": "Shah Alam",
        "State": "Selangor"
    },
    {
        "Postcode": "40170",
        "Location": "Jalan Pulau Angsa U10/34G",
        "Post_Office": "Shah Alam",
        "State": "Selangor"
    },
    {
        "Postcode": "40170",
        "Location": "Jalan Pulau Angsa U10/34H",
        "Post_Office": "Shah Alam",
        "State": "Selangor"
    },
    {
        "Postcode": "40170",
        "Location": "Jalan Pulau Angsa U10/35",
        "Post_Office": "Shah Alam",
        "State": "Selangor"
    },
    {
        "Postcode": "40170",
        "Location": "Jalan Pulau Angsa U10/36A",
        "Post_Office": "Shah Alam",
        "State": "Selangor"
    },
    {
        "Postcode": "40170",
        "Location": "Jalan Pulau Angsa U10/36B",
        "Post_Office": "Shah Alam",
        "State": "Selangor"
    },
    {
        "Postcode": "40170",
        "Location": "Jalan Pulau Angsa U10/36C",
        "Post_Office": "Shah Alam",
        "State": "Selangor"
    },
    {
        "Postcode": "40170",
        "Location": "Jalan Pulau Angsa U10/36D",
        "Post_Office": "Shah Alam",
        "State": "Selangor"
    },
    {
        "Postcode": "40170",
        "Location": "Jalan Pulau Angsa U10/36E",
        "Post_Office": "Shah Alam",
        "State": "Selangor"
    },
    {
        "Postcode": "40170",
        "Location": "Jalan Pulau Angsa U10/38A",
        "Post_Office": "Shah Alam",
        "State": "Selangor"
    },
    {
        "Postcode": "40170",
        "Location": "Jalan Pulau Angsa U10/38B",
        "Post_Office": "Shah Alam",
        "State": "Selangor"
    },
    {
        "Postcode": "40170",
        "Location": "Jalan Pulau Angsa U10/38C",
        "Post_Office": "Shah Alam",
        "State": "Selangor"
    },
    {
        "Postcode": "40170",
        "Location": "Jalan Pulau Angsa U10/38D",
        "Post_Office": "Shah Alam",
        "State": "Selangor"
    },
    {
        "Postcode": "40170",
        "Location": "Jalan Pulau Angsa U10/38E",
        "Post_Office": "Shah Alam",
        "State": "Selangor"
    },
    {
        "Postcode": "40170",
        "Location": "Jalan Pulau Angsa U10/38F",
        "Post_Office": "Shah Alam",
        "State": "Selangor"
    },
    {
        "Postcode": "40170",
        "Location": "Jalan Pulau Angsa U10/38G",
        "Post_Office": "Shah Alam",
        "State": "Selangor"
    },
    {
        "Postcode": "40170",
        "Location": "Jalan Pulau Angsa U10/38H",
        "Post_Office": "Shah Alam",
        "State": "Selangor"
    },
    {
        "Postcode": "40170",
        "Location": "Jalan Pulau Angsa U10/38I",
        "Post_Office": "Shah Alam",
        "State": "Selangor"
    },
    {
        "Postcode": "40170",
        "Location": "Jalan Pulau Angsa U10/38J",
        "Post_Office": "Shah Alam",
        "State": "Selangor"
    },
    {
        "Postcode": "40170",
        "Location": "Jalan Pulau Angsa U10/3A",
        "Post_Office": "Shah Alam",
        "State": "Selangor"
    },
    {
        "Postcode": "40170",
        "Location": "Jalan Pulau Angsa U10/3B",
        "Post_Office": "Shah Alam",
        "State": "Selangor"
    },
    {
        "Postcode": "40170",
        "Location": "Jalan Pulau Angsa U10/3C",
        "Post_Office": "Shah Alam",
        "State": "Selangor"
    },
    {
        "Postcode": "40170",
        "Location": "Jalan Pulau Angsa U10/4",
        "Post_Office": "Shah Alam",
        "State": "Selangor"
    },
    {
        "Postcode": "40170",
        "Location": "Jalan Pulau Angsa U10/40",
        "Post_Office": "Shah Alam",
        "State": "Selangor"
    },
    {
        "Postcode": "40170",
        "Location": "Jalan Pulau Angsa U10/41",
        "Post_Office": "Shah Alam",
        "State": "Selangor"
    },
    {
        "Postcode": "40170",
        "Location": "Jalan Pulau Angsa U10/41A",
        "Post_Office": "Shah Alam",
        "State": "Selangor"
    },
    {
        "Postcode": "40170",
        "Location": "Jalan Pulau Angsa U10/41B",
        "Post_Office": "Shah Alam",
        "State": "Selangor"
    },
    {
        "Postcode": "40170",
        "Location": "Jalan Pulau Angsa U10/41C",
        "Post_Office": "Shah Alam",
        "State": "Selangor"
    },
    {
        "Postcode": "40170",
        "Location": "Jalan Pulau Angsa U10/41D",
        "Post_Office": "Shah Alam",
        "State": "Selangor"
    },
    {
        "Postcode": "40170",
        "Location": "Jalan Pulau Angsa U10/41E",
        "Post_Office": "Shah Alam",
        "State": "Selangor"
    },
    {
        "Postcode": "40170",
        "Location": "Jalan Pulau Angsa U10/41F",
        "Post_Office": "Shah Alam",
        "State": "Selangor"
    },
    {
        "Postcode": "40170",
        "Location": "Jalan Pulau Angsa U10/42",
        "Post_Office": "Shah Alam",
        "State": "Selangor"
    },
    {
        "Postcode": "40170",
        "Location": "Jalan Pulau Angsa U10/43",
        "Post_Office": "Shah Alam",
        "State": "Selangor"
    },
    {
        "Postcode": "40170",
        "Location": "Jalan Pulau Angsa U10/43A",
        "Post_Office": "Shah Alam",
        "State": "Selangor"
    },
    {
        "Postcode": "40170",
        "Location": "Jalan Pulau Angsa U10/43B",
        "Post_Office": "Shah Alam",
        "State": "Selangor"
    },
    {
        "Postcode": "40170",
        "Location": "Jalan Pulau Angsa U10/43C",
        "Post_Office": "Shah Alam",
        "State": "Selangor"
    },
    {
        "Postcode": "40170",
        "Location": "Jalan Pulau Angsa U10/44",
        "Post_Office": "Shah Alam",
        "State": "Selangor"
    },
    {
        "Postcode": "40170",
        "Location": "Jalan Pulau Angsa U10/45",
        "Post_Office": "Shah Alam",
        "State": "Selangor"
    },
    {
        "Postcode": "40170",
        "Location": "Jalan Pulau Angsa U10/46",
        "Post_Office": "Shah Alam",
        "State": "Selangor"
    },
    {
        "Postcode": "40170",
        "Location": "Jalan Pulau Angsa U10/47",
        "Post_Office": "Shah Alam",
        "State": "Selangor"
    },
    {
        "Postcode": "40170",
        "Location": "Jalan Pulau Angsa U10/48",
        "Post_Office": "Shah Alam",
        "State": "Selangor"
    },
    {
        "Postcode": "40170",
        "Location": "Jalan Pulau Angsa U10/49",
        "Post_Office": "Shah Alam",
        "State": "Selangor"
    },
    {
        "Postcode": "40170",
        "Location": "Jalan Pulau Angsa U10/5",
        "Post_Office": "Shah Alam",
        "State": "Selangor"
    },
    {
        "Postcode": "40170",
        "Location": "Jalan Pulau Angsa U10/50",
        "Post_Office": "Shah Alam",
        "State": "Selangor"
    },
    {
        "Postcode": "40170",
        "Location": "Jalan Pulau Angsa U10/6",
        "Post_Office": "Shah Alam",
        "State": "Selangor"
    },
    {
        "Postcode": "40170",
        "Location": "Jalan Pulau Angsa U10/6A",
        "Post_Office": "Shah Alam",
        "State": "Selangor"
    },
    {
        "Postcode": "40170",
        "Location": "Jalan Pulau Angsa U10/6B",
        "Post_Office": "Shah Alam",
        "State": "Selangor"
    },
    {
        "Postcode": "40170",
        "Location": "Jalan Pulau Angsa U10/7",
        "Post_Office": "Shah Alam",
        "State": "Selangor"
    },
    {
        "Postcode": "40170",
        "Location": "Jalan Pulau Angsa U10/8A",
        "Post_Office": "Shah Alam",
        "State": "Selangor"
    },
    {
        "Postcode": "40170",
        "Location": "Jalan Pulau Angsa U10/8B",
        "Post_Office": "Shah Alam",
        "State": "Selangor"
    },
    {
        "Postcode": "40170",
        "Location": "Jalan Pulau Angsa U10/9",
        "Post_Office": "Shah Alam",
        "State": "Selangor"
    },
    {
        "Postcode": "40170",
        "Location": "Jalan Pulau Angsa U10/A",
        "Post_Office": "Shah Alam",
        "State": "Selangor"
    },
    {
        "Postcode": "40170",
        "Location": "Jalan Pulau Indah U10/54A",
        "Post_Office": "Shah Alam",
        "State": "Selangor"
    },
    {
        "Postcode": "40170",
        "Location": "Jalan Pulau Indah U10/54B",
        "Post_Office": "Shah Alam",
        "State": "Selangor"
    },
    {
        "Postcode": "40170",
        "Location": "Jalan Pulau Indah U10/54C",
        "Post_Office": "Shah Alam",
        "State": "Selangor"
    },
    {
        "Postcode": "40170",
        "Location": "Jalan Pulau Indah U10/55",
        "Post_Office": "Shah Alam",
        "State": "Selangor"
    },
    {
        "Postcode": "40170",
        "Location": "Jalan Pulau Indah U10/56",
        "Post_Office": "Shah Alam",
        "State": "Selangor"
    },
    {
        "Postcode": "40170",
        "Location": "Jalan Pulau Indah U10/56A",
        "Post_Office": "Shah Alam",
        "State": "Selangor"
    },
    {
        "Postcode": "40170",
        "Location": "Jalan Pulau Indah U10/56B",
        "Post_Office": "Shah Alam",
        "State": "Selangor"
    },
    {
        "Postcode": "40170",
        "Location": "Jalan Pulau Ketam U10/60",
        "Post_Office": "Shah Alam",
        "State": "Selangor"
    },
    {
        "Postcode": "40170",
        "Location": "Jalan Pulau Ketam U10/61",
        "Post_Office": "Shah Alam",
        "State": "Selangor"
    },
    {
        "Postcode": "40170",
        "Location": "Jalan Pulau Ketam U10/61A",
        "Post_Office": "Shah Alam",
        "State": "Selangor"
    },
    {
        "Postcode": "40170",
        "Location": "Jalan Pulau Ketam U10/61B",
        "Post_Office": "Shah Alam",
        "State": "Selangor"
    },
    {
        "Postcode": "40170",
        "Location": "Jalan Pulau Ketam U10/61C",
        "Post_Office": "Shah Alam",
        "State": "Selangor"
    },
    {
        "Postcode": "40170",
        "Location": "Jalan Pulau Ketam U10/61D",
        "Post_Office": "Shah Alam",
        "State": "Selangor"
    },
    {
        "Postcode": "40170",
        "Location": "Jalan Pulau Ketam U10/62",
        "Post_Office": "Shah Alam",
        "State": "Selangor"
    },
    {
        "Postcode": "40170",
        "Location": "Jalan Pulau Lumut P U10/P",
        "Post_Office": "Shah Alam",
        "State": "Selangor"
    },
    {
        "Postcode": "40170",
        "Location": "Jalan Pulau Lumut Q U10/Q",
        "Post_Office": "Shah Alam",
        "State": "Selangor"
    },
    {
        "Postcode": "40170",
        "Location": "Jalan Pulau Lumut U10/68",
        "Post_Office": "Shah Alam",
        "State": "Selangor"
    },
    {
        "Postcode": "40170",
        "Location": "Jalan Pulau Lumut U10/69",
        "Post_Office": "Shah Alam",
        "State": "Selangor"
    },
    {
        "Postcode": "40170",
        "Location": "Jalan Pulau Lumut U10/69A",
        "Post_Office": "Shah Alam",
        "State": "Selangor"
    },
    {
        "Postcode": "40170",
        "Location": "Jalan Pulau Lumut U10/69B",
        "Post_Office": "Shah Alam",
        "State": "Selangor"
    },
    {
        "Postcode": "40170",
        "Location": "Jalan Pulau Lumut U10/70",
        "Post_Office": "Shah Alam",
        "State": "Selangor"
    },
    {
        "Postcode": "40170",
        "Location": "Jalan Pulau Lumut U10/71",
        "Post_Office": "Shah Alam",
        "State": "Selangor"
    },
    {
        "Postcode": "40170",
        "Location": "Jalan Pulau Lumut U10/72",
        "Post_Office": "Shah Alam",
        "State": "Selangor"
    },
    {
        "Postcode": "40170",
        "Location": "Jalan Pulau Lumut U10/73",
        "Post_Office": "Shah Alam",
        "State": "Selangor"
    },
    {
        "Postcode": "40170",
        "Location": "Jalan Pulau Lumut U10/73A",
        "Post_Office": "Shah Alam",
        "State": "Selangor"
    },
    {
        "Postcode": "40170",
        "Location": "Jalan Pulau Lumut U10/73B",
        "Post_Office": "Shah Alam",
        "State": "Selangor"
    },
    {
        "Postcode": "40170",
        "Location": "Jalan Pulau Lumut U10/74",
        "Post_Office": "Shah Alam",
        "State": "Selangor"
    },
    {
        "Postcode": "40170",
        "Location": "Jalan Pulau Lumut U10/75",
        "Post_Office": "Shah Alam",
        "State": "Selangor"
    },
    {
        "Postcode": "40170",
        "Location": "Jalan Pulau Lumut U10/75A",
        "Post_Office": "Shah Alam",
        "State": "Selangor"
    },
    {
        "Postcode": "40170",
        "Location": "Jalan Pulau Lumut U10/75B",
        "Post_Office": "Shah Alam",
        "State": "Selangor"
    },
    {
        "Postcode": "40170",
        "Location": "Jalan Pulau Lumut U10/76",
        "Post_Office": "Shah Alam",
        "State": "Selangor"
    },
    {
        "Postcode": "40170",
        "Location": "Jalan Pulau Lumut U10/76A",
        "Post_Office": "Shah Alam",
        "State": "Selangor"
    },
    {
        "Postcode": "40170",
        "Location": "Jalan Pulau Lumut U10/76B",
        "Post_Office": "Shah Alam",
        "State": "Selangor"
    },
    {
        "Postcode": "40170",
        "Location": "Jalan Pulau Lumut U10/76C",
        "Post_Office": "Shah Alam",
        "State": "Selangor"
    },
    {
        "Postcode": "40170",
        "Location": "Jalan Pulau Lumut U10/76D",
        "Post_Office": "Shah Alam",
        "State": "Selangor"
    },
    {
        "Postcode": "40170",
        "Location": "Jalan Pulau Lumut U10/76E",
        "Post_Office": "Shah Alam",
        "State": "Selangor"
    },
    {
        "Postcode": "40170",
        "Location": "Jalan Pulau Lumut U10/76F",
        "Post_Office": "Shah Alam",
        "State": "Selangor"
    },
    {
        "Postcode": "40170",
        "Location": "Jalan Pulau Lumut U10/76G",
        "Post_Office": "Shah Alam",
        "State": "Selangor"
    },
    {
        "Postcode": "40170",
        "Location": "Jalan Pulau Lumut U10/76H",
        "Post_Office": "Shah Alam",
        "State": "Selangor"
    },
    {
        "Postcode": "40170",
        "Location": "Jalan Pulau Lumut U10/77",
        "Post_Office": "Shah Alam",
        "State": "Selangor"
    },
    {
        "Postcode": "40170",
        "Location": "Jalan Pulau Sibu U10/78",
        "Post_Office": "Shah Alam",
        "State": "Selangor"
    },
    {
        "Postcode": "40170",
        "Location": "Jalan Pulau Sibu U10/79",
        "Post_Office": "Shah Alam",
        "State": "Selangor"
    },
    {
        "Postcode": "40170",
        "Location": "Jalan Pulau Sibu U10/80",
        "Post_Office": "Shah Alam",
        "State": "Selangor"
    },
    {
        "Postcode": "40170",
        "Location": "Jalan Pulau Sibu U10/81",
        "Post_Office": "Shah Alam",
        "State": "Selangor"
    },
    {
        "Postcode": "40170",
        "Location": "Jalan Pulau Sibu U10/82",
        "Post_Office": "Shah Alam",
        "State": "Selangor"
    },
    {
        "Postcode": "40170",
        "Location": "Jalan Pulau Sibu U10/82A",
        "Post_Office": "Shah Alam",
        "State": "Selangor"
    },
    {
        "Postcode": "40170",
        "Location": "Jalan Pulau Sibu U10/82B",
        "Post_Office": "Shah Alam",
        "State": "Selangor"
    },
    {
        "Postcode": "40170",
        "Location": "Jalan Pulau Sibu U10/82C",
        "Post_Office": "Shah Alam",
        "State": "Selangor"
    },
    {
        "Postcode": "40170",
        "Location": "Jalan Pulau Sipadan U10/87",
        "Post_Office": "Shah Alam",
        "State": "Selangor"
    },
    {
        "Postcode": "40170",
        "Location": "Jalan Pulau Sipadan U10/88",
        "Post_Office": "Shah Alam",
        "State": "Selangor"
    },
    {
        "Postcode": "40170",
        "Location": "Jalan Pulau Sipadan U10/89",
        "Post_Office": "Shah Alam",
        "State": "Selangor"
    },
    {
        "Postcode": "40170",
        "Location": "Jalan Pulau Sipadan U10/90",
        "Post_Office": "Shah Alam",
        "State": "Selangor"
    },
    {
        "Postcode": "40170",
        "Location": "Jalan Pulau Sipadan U10/90A",
        "Post_Office": "Shah Alam",
        "State": "Selangor"
    },
    {
        "Postcode": "40170",
        "Location": "Jalan Pulau Sipadan U10/91",
        "Post_Office": "Shah Alam",
        "State": "Selangor"
    },
    {
        "Postcode": "40170",
        "Location": "Jalan Pulau Sipadan U10/92",
        "Post_Office": "Shah Alam",
        "State": "Selangor"
    },
    {
        "Postcode": "40170",
        "Location": "Jalan Pulau Sipadan U10/92A",
        "Post_Office": "Shah Alam",
        "State": "Selangor"
    },
    {
        "Postcode": "40170",
        "Location": "Jalan Pulau Sipadan U10/92B",
        "Post_Office": "Shah Alam",
        "State": "Selangor"
    },
    {
        "Postcode": "40170",
        "Location": "Jalan Pulau Sipadan U10/92C",
        "Post_Office": "Shah Alam",
        "State": "Selangor"
    },
    {
        "Postcode": "40170",
        "Location": "Jalan Pulau Tioman U10/95",
        "Post_Office": "Shah Alam",
        "State": "Selangor"
    },
    {
        "Postcode": "40170",
        "Location": "Jalan Pulau Tioman U10/96",
        "Post_Office": "Shah Alam",
        "State": "Selangor"
    },
    {
        "Postcode": "40170",
        "Location": "Jalan Pulau Tioman U10/97",
        "Post_Office": "Shah Alam",
        "State": "Selangor"
    },
    {
        "Postcode": "40170",
        "Location": "Jalan Pulau Undan U10/57",
        "Post_Office": "Shah Alam",
        "State": "Selangor"
    },
    {
        "Postcode": "40170",
        "Location": "Jalan Pulau Undan U10/57A",
        "Post_Office": "Shah Alam",
        "State": "Selangor"
    },
    {
        "Postcode": "40170",
        "Location": "Jalan Pulau Undan U10/58",
        "Post_Office": "Shah Alam",
        "State": "Selangor"
    },
    {
        "Postcode": "40170",
        "Location": "Jalan Pulau Undan U10/58A",
        "Post_Office": "Shah Alam",
        "State": "Selangor"
    },
    {
        "Postcode": "40170",
        "Location": "Jalan Pulau Undan U10/59",
        "Post_Office": "Shah Alam",
        "State": "Selangor"
    },
    {
        "Postcode": "40170",
        "Location": "Jalan Selasih H U12/H",
        "Post_Office": "Shah Alam",
        "State": "Selangor"
    },
    {
        "Postcode": "40170",
        "Location": "Jalan Selasih I U12/I",
        "Post_Office": "Shah Alam",
        "State": "Selangor"
    },
    {
        "Postcode": "40170",
        "Location": "Jalan Selasih J U12/J",
        "Post_Office": "Shah Alam",
        "State": "Selangor"
    },
    {
        "Postcode": "40170",
        "Location": "Jalan Selasih K U12/K",
        "Post_Office": "Shah Alam",
        "State": "Selangor"
    },
    {
        "Postcode": "40170",
        "Location": "Jalan Selasih U12/13",
        "Post_Office": "Shah Alam",
        "State": "Selangor"
    },
    {
        "Postcode": "40170",
        "Location": "Jalan Selasih U12/13A",
        "Post_Office": "Shah Alam",
        "State": "Selangor"
    },
    {
        "Postcode": "40170",
        "Location": "Jalan Selasih U12/13B",
        "Post_Office": "Shah Alam",
        "State": "Selangor"
    },
    {
        "Postcode": "40170",
        "Location": "Jalan Selasih U12/14A",
        "Post_Office": "Shah Alam",
        "State": "Selangor"
    },
    {
        "Postcode": "40170",
        "Location": "Jalan Selasih U12/14B",
        "Post_Office": "Shah Alam",
        "State": "Selangor"
    },
    {
        "Postcode": "40170",
        "Location": "Jalan Selasih U12/14C",
        "Post_Office": "Shah Alam",
        "State": "Selangor"
    },
    {
        "Postcode": "40170",
        "Location": "Jalan Selasih U12/15",
        "Post_Office": "Shah Alam",
        "State": "Selangor"
    },
    {
        "Postcode": "40170",
        "Location": "Jalan Selasih U12/15A",
        "Post_Office": "Shah Alam",
        "State": "Selangor"
    },
    {
        "Postcode": "40170",
        "Location": "Jalan Selasih U12/17A",
        "Post_Office": "Shah Alam",
        "State": "Selangor"
    },
    {
        "Postcode": "40170",
        "Location": "Jalan Selasih U12/18A",
        "Post_Office": "Shah Alam",
        "State": "Selangor"
    },
    {
        "Postcode": "40170",
        "Location": "Jalan Selasih U12/18B",
        "Post_Office": "Shah Alam",
        "State": "Selangor"
    },
    {
        "Postcode": "40170",
        "Location": "Jalan Selasih U12/18C",
        "Post_Office": "Shah Alam",
        "State": "Selangor"
    },
    {
        "Postcode": "40170",
        "Location": "Jalan Selasih U12/18D",
        "Post_Office": "Shah Alam",
        "State": "Selangor"
    },
    {
        "Postcode": "40170",
        "Location": "Jalan Selasih U12/18E",
        "Post_Office": "Shah Alam",
        "State": "Selangor"
    },
    {
        "Postcode": "40170",
        "Location": "Jalan Selasih U12/20A",
        "Post_Office": "Shah Alam",
        "State": "Selangor"
    },
    {
        "Postcode": "40170",
        "Location": "Jalan Selasih U12/20B",
        "Post_Office": "Shah Alam",
        "State": "Selangor"
    },
    {
        "Postcode": "40170",
        "Location": "Jalan Selasih U12/20C",
        "Post_Office": "Shah Alam",
        "State": "Selangor"
    },
    {
        "Postcode": "40170",
        "Location": "Jalan Selasih U12/21A",
        "Post_Office": "Shah Alam",
        "State": "Selangor"
    },
    {
        "Postcode": "40170",
        "Location": "Jalan Selasih U12/21B",
        "Post_Office": "Shah Alam",
        "State": "Selangor"
    },
    {
        "Postcode": "40170",
        "Location": "Jalan Selasih U12/21C",
        "Post_Office": "Shah Alam",
        "State": "Selangor"
    },
    {
        "Postcode": "40170",
        "Location": "Jalan Selasih U12/21D",
        "Post_Office": "Shah Alam",
        "State": "Selangor"
    },
    {
        "Postcode": "40170",
        "Location": "Jalan Selasih U12/21E",
        "Post_Office": "Shah Alam",
        "State": "Selangor"
    },
    {
        "Postcode": "40170",
        "Location": "Jalan Selasih U12/23A",
        "Post_Office": "Shah Alam",
        "State": "Selangor"
    },
    {
        "Postcode": "40170",
        "Location": "Jalan Selasih U12/23B",
        "Post_Office": "Shah Alam",
        "State": "Selangor"
    },
    {
        "Postcode": "40170",
        "Location": "Jalan Selasih U12/23C",
        "Post_Office": "Shah Alam",
        "State": "Selangor"
    },
    {
        "Postcode": "40170",
        "Location": "Jalan Selasih U12/23D",
        "Post_Office": "Shah Alam",
        "State": "Selangor"
    },
    {
        "Postcode": "40170",
        "Location": "Jalan Selasih U12/24",
        "Post_Office": "Shah Alam",
        "State": "Selangor"
    },
    {
        "Postcode": "40170",
        "Location": "Jalan Selasih U12/26",
        "Post_Office": "Shah Alam",
        "State": "Selangor"
    },
    {
        "Postcode": "40170",
        "Location": "Jalan Selasih U12/26A",
        "Post_Office": "Shah Alam",
        "State": "Selangor"
    },
    {
        "Postcode": "40170",
        "Location": "Jalan Selasih U12/26B",
        "Post_Office": "Shah Alam",
        "State": "Selangor"
    },
    {
        "Postcode": "40170",
        "Location": "Jalan Selasih U12/26C",
        "Post_Office": "Shah Alam",
        "State": "Selangor"
    },
    {
        "Postcode": "40170",
        "Location": "Jalan Selasih U12/26D",
        "Post_Office": "Shah Alam",
        "State": "Selangor"
    },
    {
        "Postcode": "40170",
        "Location": "Jalan Selasih U12/27",
        "Post_Office": "Shah Alam",
        "State": "Selangor"
    },
    {
        "Postcode": "40170",
        "Location": "Jalan Selasih U12/27A",
        "Post_Office": "Shah Alam",
        "State": "Selangor"
    },
    {
        "Postcode": "40170",
        "Location": "Jalan Selasih U12/27B",
        "Post_Office": "Shah Alam",
        "State": "Selangor"
    },
    {
        "Postcode": "40170",
        "Location": "Jalan Selasih U12/27C",
        "Post_Office": "Shah Alam",
        "State": "Selangor"
    },
    {
        "Postcode": "40170",
        "Location": "Jalan Selasih U12/29",
        "Post_Office": "Shah Alam",
        "State": "Selangor"
    },
    {
        "Postcode": "40170",
        "Location": "Jalan Selasih U12/29A",
        "Post_Office": "Shah Alam",
        "State": "Selangor"
    },
    {
        "Postcode": "40170",
        "Location": "Jalan Selasih U12/30A",
        "Post_Office": "Shah Alam",
        "State": "Selangor"
    },
    {
        "Postcode": "40170",
        "Location": "Jalan Setia Damai U13/14",
        "Post_Office": "Shah Alam",
        "State": "Selangor"
    },
    {
        "Postcode": "40170",
        "Location": "Jalan Setia Damai U13/14A",
        "Post_Office": "Shah Alam",
        "State": "Selangor"
    },
    {
        "Postcode": "40170",
        "Location": "Jalan Setia Damai U13/14B",
        "Post_Office": "Shah Alam",
        "State": "Selangor"
    },
    {
        "Postcode": "40170",
        "Location": "Jalan Setia Damai U13/14C",
        "Post_Office": "Shah Alam",
        "State": "Selangor"
    },
    {
        "Postcode": "40170",
        "Location": "Jalan Setia Damai U13/14D",
        "Post_Office": "Shah Alam",
        "State": "Selangor"
    },
    {
        "Postcode": "40170",
        "Location": "Jalan Setia Damai U13/14E",
        "Post_Office": "Shah Alam",
        "State": "Selangor"
    },
    {
        "Postcode": "40170",
        "Location": "Jalan Setia Damai U13/14F",
        "Post_Office": "Shah Alam",
        "State": "Selangor"
    },
    {
        "Postcode": "40170",
        "Location": "Jalan Setia Damai U13/14G",
        "Post_Office": "Shah Alam",
        "State": "Selangor"
    },
    {
        "Postcode": "40170",
        "Location": "Jalan Setia Damai U13/14H",
        "Post_Office": "Shah Alam",
        "State": "Selangor"
    },
    {
        "Postcode": "40170",
        "Location": "Jalan Setia Damai U13/14I",
        "Post_Office": "Shah Alam",
        "State": "Selangor"
    },
    {
        "Postcode": "40170",
        "Location": "Jalan Setia Damai U13/14J",
        "Post_Office": "Shah Alam",
        "State": "Selangor"
    },
    {
        "Postcode": "40170",
        "Location": "Jalan Setia Damai U13/14K",
        "Post_Office": "Shah Alam",
        "State": "Selangor"
    },
    {
        "Postcode": "40170",
        "Location": "Jalan Setia Damai U13/14L",
        "Post_Office": "Shah Alam",
        "State": "Selangor"
    },
    {
        "Postcode": "40170",
        "Location": "Jalan Setia Damai U13/15",
        "Post_Office": "Shah Alam",
        "State": "Selangor"
    },
    {
        "Postcode": "40170",
        "Location": "Jalan Setia Damai U13/15A",
        "Post_Office": "Shah Alam",
        "State": "Selangor"
    },
    {
        "Postcode": "40170",
        "Location": "Jalan Setia Damai U13/15B",
        "Post_Office": "Shah Alam",
        "State": "Selangor"
    },
    {
        "Postcode": "40170",
        "Location": "Jalan Setia Damai U13/15C",
        "Post_Office": "Shah Alam",
        "State": "Selangor"
    },
    {
        "Postcode": "40170",
        "Location": "Jalan Setia Damai U13/15D",
        "Post_Office": "Shah Alam",
        "State": "Selangor"
    },
    {
        "Postcode": "40170",
        "Location": "Jalan Setia Damai U13/15E",
        "Post_Office": "Shah Alam",
        "State": "Selangor"
    },
    {
        "Postcode": "40170",
        "Location": "Jalan Setia Damai U13/15F",
        "Post_Office": "Shah Alam",
        "State": "Selangor"
    },
    {
        "Postcode": "40170",
        "Location": "Jalan Setia Damai U13/15G",
        "Post_Office": "Shah Alam",
        "State": "Selangor"
    },
    {
        "Postcode": "40170",
        "Location": "Jalan Setia Damai U13/15H",
        "Post_Office": "Shah Alam",
        "State": "Selangor"
    },
    {
        "Postcode": "40170",
        "Location": "Jalan Setia Damai U13/15I",
        "Post_Office": "Shah Alam",
        "State": "Selangor"
    },
    {
        "Postcode": "40170",
        "Location": "Jalan Setia Damai U13/15J",
        "Post_Office": "Shah Alam",
        "State": "Selangor"
    },
    {
        "Postcode": "40170",
        "Location": "Jalan Setia Damai U13/16",
        "Post_Office": "Shah Alam",
        "State": "Selangor"
    },
    {
        "Postcode": "40170",
        "Location": "Jalan Setia Damai U13/16A",
        "Post_Office": "Shah Alam",
        "State": "Selangor"
    },
    {
        "Postcode": "40170",
        "Location": "Jalan Setia Damai U13/16B",
        "Post_Office": "Shah Alam",
        "State": "Selangor"
    },
    {
        "Postcode": "40170",
        "Location": "Jalan Setia Damai U13/16C",
        "Post_Office": "Shah Alam",
        "State": "Selangor"
    },
    {
        "Postcode": "40170",
        "Location": "Jalan Setia Damai U13/16D",
        "Post_Office": "Shah Alam",
        "State": "Selangor"
    },
    {
        "Postcode": "40170",
        "Location": "Jalan Setia Damai U13/16E",
        "Post_Office": "Shah Alam",
        "State": "Selangor"
    },
    {
        "Postcode": "40170",
        "Location": "Jalan Setia Damai U13/16F",
        "Post_Office": "Shah Alam",
        "State": "Selangor"
    },
    {
        "Postcode": "40170",
        "Location": "Jalan Setia Damai U13/16G",
        "Post_Office": "Shah Alam",
        "State": "Selangor"
    },
    {
        "Postcode": "40170",
        "Location": "Jalan Setia Damai U13/16H",
        "Post_Office": "Shah Alam",
        "State": "Selangor"
    },
    {
        "Postcode": "40170",
        "Location": "Jalan Setia Damai U13/16I",
        "Post_Office": "Shah Alam",
        "State": "Selangor"
    },
    {
        "Postcode": "40170",
        "Location": "Jalan Setia Damai U13/16J",
        "Post_Office": "Shah Alam",
        "State": "Selangor"
    },
    {
        "Postcode": "40170",
        "Location": "Jalan Setia Damai U13/16K",
        "Post_Office": "Shah Alam",
        "State": "Selangor"
    },
    {
        "Postcode": "40170",
        "Location": "Jalan Setia Damai U13/16L",
        "Post_Office": "Shah Alam",
        "State": "Selangor"
    },
    {
        "Postcode": "40170",
        "Location": "Jalan Setia Damai U13/16M",
        "Post_Office": "Shah Alam",
        "State": "Selangor"
    },
    {
        "Postcode": "40170",
        "Location": "Jalan Setia Damai U13/16N",
        "Post_Office": "Shah Alam",
        "State": "Selangor"
    },
    {
        "Postcode": "40170",
        "Location": "Jalan Setia Damai U13/16O",
        "Post_Office": "Shah Alam",
        "State": "Selangor"
    },
    {
        "Postcode": "40170",
        "Location": "Jalan Setia Damai U13/16P",
        "Post_Office": "Shah Alam",
        "State": "Selangor"
    },
    {
        "Postcode": "40170",
        "Location": "Jalan Setia Damai U13/16Q",
        "Post_Office": "Shah Alam",
        "State": "Selangor"
    },
    {
        "Postcode": "40170",
        "Location": "Jalan Setia Impian U13/1",
        "Post_Office": "Shah Alam",
        "State": "Selangor"
    },
    {
        "Postcode": "40170",
        "Location": "Jalan Setia Impian U13/2",
        "Post_Office": "Shah Alam",
        "State": "Selangor"
    },
    {
        "Postcode": "40170",
        "Location": "Jalan Setia Impian U13/2A",
        "Post_Office": "Shah Alam",
        "State": "Selangor"
    },
    {
        "Postcode": "40170",
        "Location": "Jalan Setia Impian U13/2B",
        "Post_Office": "Shah Alam",
        "State": "Selangor"
    },
    {
        "Postcode": "40170",
        "Location": "Jalan Setia Impian U13/2C",
        "Post_Office": "Shah Alam",
        "State": "Selangor"
    },
    {
        "Postcode": "40170",
        "Location": "Jalan Setia Impian U13/2D",
        "Post_Office": "Shah Alam",
        "State": "Selangor"
    },
    {
        "Postcode": "40170",
        "Location": "Jalan Setia Impian U13/2E",
        "Post_Office": "Shah Alam",
        "State": "Selangor"
    },
    {
        "Postcode": "40170",
        "Location": "Jalan Setia Impian U13/2F",
        "Post_Office": "Shah Alam",
        "State": "Selangor"
    },
    {
        "Postcode": "40170",
        "Location": "Jalan Setia Impian U13/2G",
        "Post_Office": "Shah Alam",
        "State": "Selangor"
    },
    {
        "Postcode": "40170",
        "Location": "Jalan Setia Impian U13/2H",
        "Post_Office": "Shah Alam",
        "State": "Selangor"
    },
    {
        "Postcode": "40170",
        "Location": "Jalan Setia Impian U13/2I",
        "Post_Office": "Shah Alam",
        "State": "Selangor"
    },
    {
        "Postcode": "40170",
        "Location": "Jalan Setia Impian U13/2J",
        "Post_Office": "Shah Alam",
        "State": "Selangor"
    },
    {
        "Postcode": "40170",
        "Location": "Jalan Setia Impian U13/2K",
        "Post_Office": "Shah Alam",
        "State": "Selangor"
    },
    {
        "Postcode": "40170",
        "Location": "Jalan Setia Impian U13/2L",
        "Post_Office": "Shah Alam",
        "State": "Selangor"
    },
    {
        "Postcode": "40170",
        "Location": "Jalan Setia Impian U13/2M",
        "Post_Office": "Shah Alam",
        "State": "Selangor"
    },
    {
        "Postcode": "40170",
        "Location": "Jalan Setia Impian U13/2N",
        "Post_Office": "Shah Alam",
        "State": "Selangor"
    },
    {
        "Postcode": "40170",
        "Location": "Jalan Setia Impian U13/2O",
        "Post_Office": "Shah Alam",
        "State": "Selangor"
    },
    {
        "Postcode": "40170",
        "Location": "Jalan Setia Impian U13/2P",
        "Post_Office": "Shah Alam",
        "State": "Selangor"
    },
    {
        "Postcode": "40170",
        "Location": "Jalan Setia Impian U13/2Q",
        "Post_Office": "Shah Alam",
        "State": "Selangor"
    },
    {
        "Postcode": "40170",
        "Location": "Jalan Setia Impian U13/2R",
        "Post_Office": "Shah Alam",
        "State": "Selangor"
    },
    {
        "Postcode": "40170",
        "Location": "Jalan Setia Impian U13/3",
        "Post_Office": "Shah Alam",
        "State": "Selangor"
    },
    {
        "Postcode": "40170",
        "Location": "Jalan Setia Impian U13/3A",
        "Post_Office": "Shah Alam",
        "State": "Selangor"
    },
    {
        "Postcode": "40170",
        "Location": "Jalan Setia Impian U13/3B",
        "Post_Office": "Shah Alam",
        "State": "Selangor"
    },
    {
        "Postcode": "40170",
        "Location": "Jalan Setia Impian U13/3C",
        "Post_Office": "Shah Alam",
        "State": "Selangor"
    },
    {
        "Postcode": "40170",
        "Location": "Jalan Setia Impian U13/3D",
        "Post_Office": "Shah Alam",
        "State": "Selangor"
    },
    {
        "Postcode": "40170",
        "Location": "Jalan Setia Impian U13/3E",
        "Post_Office": "Shah Alam",
        "State": "Selangor"
    },
    {
        "Postcode": "40170",
        "Location": "Jalan Setia Impian U13/3F",
        "Post_Office": "Shah Alam",
        "State": "Selangor"
    },
    {
        "Postcode": "40170",
        "Location": "Jalan Setia Impian U13/3G",
        "Post_Office": "Shah Alam",
        "State": "Selangor"
    },
    {
        "Postcode": "40170",
        "Location": "Jalan Setia Impian U13/3H",
        "Post_Office": "Shah Alam",
        "State": "Selangor"
    },
    {
        "Postcode": "40170",
        "Location": "Jalan Setia Impian U13/3I",
        "Post_Office": "Shah Alam",
        "State": "Selangor"
    },
    {
        "Postcode": "40170",
        "Location": "Jalan Setia Impian U13/3J",
        "Post_Office": "Shah Alam",
        "State": "Selangor"
    },
    {
        "Postcode": "40170",
        "Location": "Jalan Setia Impian U13/3K",
        "Post_Office": "Shah Alam",
        "State": "Selangor"
    },
    {
        "Postcode": "40170",
        "Location": "Jalan Setia Impian U13/3L",
        "Post_Office": "Shah Alam",
        "State": "Selangor"
    },
    {
        "Postcode": "40170",
        "Location": "Jalan Setia Impian U13/3M",
        "Post_Office": "Shah Alam",
        "State": "Selangor"
    },
    {
        "Postcode": "40170",
        "Location": "Jalan Setia Impian U13/3N",
        "Post_Office": "Shah Alam",
        "State": "Selangor"
    },
    {
        "Postcode": "40170",
        "Location": "Jalan Setia Impian U13/3O",
        "Post_Office": "Shah Alam",
        "State": "Selangor"
    },
    {
        "Postcode": "40170",
        "Location": "Jalan Setia Impian U13/3P",
        "Post_Office": "Shah Alam",
        "State": "Selangor"
    },
    {
        "Postcode": "40170",
        "Location": "Jalan Setia Impian U13/3Q",
        "Post_Office": "Shah Alam",
        "State": "Selangor"
    },
    {
        "Postcode": "40170",
        "Location": "Jalan Setia Impian U13/3R",
        "Post_Office": "Shah Alam",
        "State": "Selangor"
    },
    {
        "Postcode": "40170",
        "Location": "Jalan Setia Impian U13/3S",
        "Post_Office": "Shah Alam",
        "State": "Selangor"
    },
    {
        "Postcode": "40170",
        "Location": "Jalan Setia Impian U13/3T",
        "Post_Office": "Shah Alam",
        "State": "Selangor"
    },
    {
        "Postcode": "40170",
        "Location": "Jalan Setia Impian U13/4",
        "Post_Office": "Shah Alam",
        "State": "Selangor"
    },
    {
        "Postcode": "40170",
        "Location": "Jalan Setia Impian U13/4A",
        "Post_Office": "Shah Alam",
        "State": "Selangor"
    },
    {
        "Postcode": "40170",
        "Location": "Jalan Setia Impian U13/4B",
        "Post_Office": "Shah Alam",
        "State": "Selangor"
    },
    {
        "Postcode": "40170",
        "Location": "Jalan Setia Impian U13/4C",
        "Post_Office": "Shah Alam",
        "State": "Selangor"
    },
    {
        "Postcode": "40170",
        "Location": "Jalan Setia Impian U13/4D",
        "Post_Office": "Shah Alam",
        "State": "Selangor"
    },
    {
        "Postcode": "40170",
        "Location": "Jalan Setia Impian U13/4E",
        "Post_Office": "Shah Alam",
        "State": "Selangor"
    },
    {
        "Postcode": "40170",
        "Location": "Jalan Setia Impian U13/4F",
        "Post_Office": "Shah Alam",
        "State": "Selangor"
    },
    {
        "Postcode": "40170",
        "Location": "Jalan Setia Impian U13/4G",
        "Post_Office": "Shah Alam",
        "State": "Selangor"
    },
    {
        "Postcode": "40170",
        "Location": "Jalan Setia Impian U13/4H",
        "Post_Office": "Shah Alam",
        "State": "Selangor"
    },
    {
        "Postcode": "40170",
        "Location": "Jalan Setia Impian U13/4I",
        "Post_Office": "Shah Alam",
        "State": "Selangor"
    },
    {
        "Postcode": "40170",
        "Location": "Jalan Setia Impian U13/4J",
        "Post_Office": "Shah Alam",
        "State": "Selangor"
    },
    {
        "Postcode": "40170",
        "Location": "Jalan Setia Impian U13/4K",
        "Post_Office": "Shah Alam",
        "State": "Selangor"
    },
    {
        "Postcode": "40170",
        "Location": "Jalan Setia Impian U13/4L",
        "Post_Office": "Shah Alam",
        "State": "Selangor"
    },
    {
        "Postcode": "40170",
        "Location": "Jalan Setia Impian U13/4M",
        "Post_Office": "Shah Alam",
        "State": "Selangor"
    },
    {
        "Postcode": "40170",
        "Location": "Jalan Setia Impian U13/4N",
        "Post_Office": "Shah Alam",
        "State": "Selangor"
    },
    {
        "Postcode": "40170",
        "Location": "Jalan Setia Impian U13/4O",
        "Post_Office": "Shah Alam",
        "State": "Selangor"
    },
    {
        "Postcode": "40170",
        "Location": "Jalan Setia Impian U13/4P",
        "Post_Office": "Shah Alam",
        "State": "Selangor"
    },
    {
        "Postcode": "40170",
        "Location": "Jalan Setia Impian U13/4Q",
        "Post_Office": "Shah Alam",
        "State": "Selangor"
    },
    {
        "Postcode": "40170",
        "Location": "Jalan Setia Impian U13/4R",
        "Post_Office": "Shah Alam",
        "State": "Selangor"
    },
    {
        "Postcode": "40170",
        "Location": "Jalan Setia Impian U13/5",
        "Post_Office": "Shah Alam",
        "State": "Selangor"
    },
    {
        "Postcode": "40170",
        "Location": "Jalan Setia Impian U13/5A",
        "Post_Office": "Shah Alam",
        "State": "Selangor"
    },
    {
        "Postcode": "40170",
        "Location": "Jalan Setia Impian U13/5B",
        "Post_Office": "Shah Alam",
        "State": "Selangor"
    },
    {
        "Postcode": "40170",
        "Location": "Jalan Setia Impian U13/5C",
        "Post_Office": "Shah Alam",
        "State": "Selangor"
    },
    {
        "Postcode": "40170",
        "Location": "Jalan Setia Impian U13/5D",
        "Post_Office": "Shah Alam",
        "State": "Selangor"
    },
    {
        "Postcode": "40170",
        "Location": "Jalan Setia Impian U13/5E",
        "Post_Office": "Shah Alam",
        "State": "Selangor"
    },
    {
        "Postcode": "40170",
        "Location": "Jalan Setia Impian U13/5F",
        "Post_Office": "Shah Alam",
        "State": "Selangor"
    },
    {
        "Postcode": "40170",
        "Location": "Jalan Setia Impian U13/5G",
        "Post_Office": "Shah Alam",
        "State": "Selangor"
    },
    {
        "Postcode": "40170",
        "Location": "Jalan Setia Impian U13/5H",
        "Post_Office": "Shah Alam",
        "State": "Selangor"
    },
    {
        "Postcode": "40170",
        "Location": "Jalan Setia Impian U13/5I",
        "Post_Office": "Shah Alam",
        "State": "Selangor"
    },
    {
        "Postcode": "40170",
        "Location": "Jalan Setia Impian U13/5J",
        "Post_Office": "Shah Alam",
        "State": "Selangor"
    },
    {
        "Postcode": "40170",
        "Location": "Jalan Setia Impian U13/5K",
        "Post_Office": "Shah Alam",
        "State": "Selangor"
    },
    {
        "Postcode": "40170",
        "Location": "Jalan Setia Impian U13/5L",
        "Post_Office": "Shah Alam",
        "State": "Selangor"
    },
    {
        "Postcode": "40170",
        "Location": "Jalan Setia Impian U13/5M",
        "Post_Office": "Shah Alam",
        "State": "Selangor"
    },
    {
        "Postcode": "40170",
        "Location": "Jalan Setia Impian U13/5N",
        "Post_Office": "Shah Alam",
        "State": "Selangor"
    },
    {
        "Postcode": "40170",
        "Location": "Jalan Setia Impian U13/5O",
        "Post_Office": "Shah Alam",
        "State": "Selangor"
    },
    {
        "Postcode": "40170",
        "Location": "Jalan Setia Impian U13/5P",
        "Post_Office": "Shah Alam",
        "State": "Selangor"
    },
    {
        "Postcode": "40170",
        "Location": "Jalan Setia Impian U13/5Q",
        "Post_Office": "Shah Alam",
        "State": "Selangor"
    },
    {
        "Postcode": "40170",
        "Location": "Jalan Setia Impian U13/5R",
        "Post_Office": "Shah Alam",
        "State": "Selangor"
    },
    {
        "Postcode": "40170",
        "Location": "Jalan Setia Impian U13/6",
        "Post_Office": "Shah Alam",
        "State": "Selangor"
    },
    {
        "Postcode": "40170",
        "Location": "Jalan Setia Impian U13/6A",
        "Post_Office": "Shah Alam",
        "State": "Selangor"
    },
    {
        "Postcode": "40170",
        "Location": "Jalan Setia Impian U13/6B",
        "Post_Office": "Shah Alam",
        "State": "Selangor"
    },
    {
        "Postcode": "40170",
        "Location": "Jalan Setia Impian U13/6C",
        "Post_Office": "Shah Alam",
        "State": "Selangor"
    },
    {
        "Postcode": "40170",
        "Location": "Jalan Setia Impian U13/6D",
        "Post_Office": "Shah Alam",
        "State": "Selangor"
    },
    {
        "Postcode": "40170",
        "Location": "Jalan Setia Impian U13/6E",
        "Post_Office": "Shah Alam",
        "State": "Selangor"
    },
    {
        "Postcode": "40170",
        "Location": "Jalan Setia Impian U13/6F",
        "Post_Office": "Shah Alam",
        "State": "Selangor"
    },
    {
        "Postcode": "40170",
        "Location": "Jalan Setia Impian U13/6G",
        "Post_Office": "Shah Alam",
        "State": "Selangor"
    },
    {
        "Postcode": "40170",
        "Location": "Jalan Setia Impian U13/6H",
        "Post_Office": "Shah Alam",
        "State": "Selangor"
    },
    {
        "Postcode": "40170",
        "Location": "Jalan Setia Impian U13/6I",
        "Post_Office": "Shah Alam",
        "State": "Selangor"
    },
    {
        "Postcode": "40170",
        "Location": "Jalan Setia Impian U13/6J",
        "Post_Office": "Shah Alam",
        "State": "Selangor"
    },
    {
        "Postcode": "40170",
        "Location": "Jalan Setia Impian U13/6K",
        "Post_Office": "Shah Alam",
        "State": "Selangor"
    },
    {
        "Postcode": "40170",
        "Location": "Jalan Setia Impian U13/6L",
        "Post_Office": "Shah Alam",
        "State": "Selangor"
    },
    {
        "Postcode": "40170",
        "Location": "Jalan Setia Impian U13/6M",
        "Post_Office": "Shah Alam",
        "State": "Selangor"
    },
    {
        "Postcode": "40170",
        "Location": "Jalan Setia Impian U13/6N",
        "Post_Office": "Shah Alam",
        "State": "Selangor"
    },
    {
        "Postcode": "40170",
        "Location": "Jalan Setia Impian U13/6O",
        "Post_Office": "Shah Alam",
        "State": "Selangor"
    },
    {
        "Postcode": "40170",
        "Location": "Jalan Setia Impian U13/6P",
        "Post_Office": "Shah Alam",
        "State": "Selangor"
    },
    {
        "Postcode": "40170",
        "Location": "Jalan Setia Impian U13/6Q",
        "Post_Office": "Shah Alam",
        "State": "Selangor"
    },
    {
        "Postcode": "40170",
        "Location": "Jalan Setia Impian U13/7",
        "Post_Office": "Shah Alam",
        "State": "Selangor"
    },
    {
        "Postcode": "40170",
        "Location": "Jalan Setia Impian U13/7A",
        "Post_Office": "Shah Alam",
        "State": "Selangor"
    },
    {
        "Postcode": "40170",
        "Location": "Jalan Setia Impian U13/7B",
        "Post_Office": "Shah Alam",
        "State": "Selangor"
    },
    {
        "Postcode": "40170",
        "Location": "Jalan Setia Impian U13/7C",
        "Post_Office": "Shah Alam",
        "State": "Selangor"
    },
    {
        "Postcode": "40170",
        "Location": "Jalan Setia Impian U13/7D",
        "Post_Office": "Shah Alam",
        "State": "Selangor"
    },
    {
        "Postcode": "40170",
        "Location": "Jalan Setia Impian U13/7E",
        "Post_Office": "Shah Alam",
        "State": "Selangor"
    },
    {
        "Postcode": "40170",
        "Location": "Jalan Setia Impian U13/7F",
        "Post_Office": "Shah Alam",
        "State": "Selangor"
    },
    {
        "Postcode": "40170",
        "Location": "Jalan Setia Impian U13/7G",
        "Post_Office": "Shah Alam",
        "State": "Selangor"
    },
    {
        "Postcode": "40170",
        "Location": "Jalan Setia Impian U13/7H",
        "Post_Office": "Shah Alam",
        "State": "Selangor"
    },
    {
        "Postcode": "40170",
        "Location": "Jalan Setia Impian U13/7I",
        "Post_Office": "Shah Alam",
        "State": "Selangor"
    },
    {
        "Postcode": "40170",
        "Location": "Jalan Setia Impian U13/7J",
        "Post_Office": "Shah Alam",
        "State": "Selangor"
    },
    {
        "Postcode": "40170",
        "Location": "Jalan Setia Impian U13/7K",
        "Post_Office": "Shah Alam",
        "State": "Selangor"
    },
    {
        "Postcode": "40170",
        "Location": "Jalan Setia Impian U13/7L",
        "Post_Office": "Shah Alam",
        "State": "Selangor"
    },
    {
        "Postcode": "40170",
        "Location": "Jalan Setia Impian U13/7M",
        "Post_Office": "Shah Alam",
        "State": "Selangor"
    },
    {
        "Postcode": "40170",
        "Location": "Jalan Setia Impian U13/7N",
        "Post_Office": "Shah Alam",
        "State": "Selangor"
    },
    {
        "Postcode": "40170",
        "Location": "Jalan Setia Impian U13/8",
        "Post_Office": "Shah Alam",
        "State": "Selangor"
    },
    {
        "Postcode": "40170",
        "Location": "Jalan Setia Impian U13/8A",
        "Post_Office": "Shah Alam",
        "State": "Selangor"
    },
    {
        "Postcode": "40170",
        "Location": "Jalan Setia Impian U13/8B",
        "Post_Office": "Shah Alam",
        "State": "Selangor"
    },
    {
        "Postcode": "40170",
        "Location": "Jalan Setia Impian U13/8C",
        "Post_Office": "Shah Alam",
        "State": "Selangor"
    },
    {
        "Postcode": "40170",
        "Location": "Jalan Setia Impian U13/8D",
        "Post_Office": "Shah Alam",
        "State": "Selangor"
    },
    {
        "Postcode": "40170",
        "Location": "Jalan Setia Impian U13/8E",
        "Post_Office": "Shah Alam",
        "State": "Selangor"
    },
    {
        "Postcode": "40170",
        "Location": "Jalan Setia Impian U13/8F",
        "Post_Office": "Shah Alam",
        "State": "Selangor"
    },
    {
        "Postcode": "40170",
        "Location": "Jalan Setia Impian U13/8G",
        "Post_Office": "Shah Alam",
        "State": "Selangor"
    },
    {
        "Postcode": "40170",
        "Location": "Jalan Setia Impian U13/8H",
        "Post_Office": "Shah Alam",
        "State": "Selangor"
    },
    {
        "Postcode": "40170",
        "Location": "Jalan Setia Impian U13/8I",
        "Post_Office": "Shah Alam",
        "State": "Selangor"
    },
    {
        "Postcode": "40170",
        "Location": "Jalan Setia Impian U13/8J",
        "Post_Office": "Shah Alam",
        "State": "Selangor"
    },
    {
        "Postcode": "40170",
        "Location": "Jalan Setia Indah Ab U13/Ab",
        "Post_Office": "Shah Alam",
        "State": "Selangor"
    },
    {
        "Postcode": "40170",
        "Location": "Jalan Setia Indah Ac U13/Ac",
        "Post_Office": "Shah Alam",
        "State": "Selangor"
    },
    {
        "Postcode": "40170",
        "Location": "Jalan Setia Indah Ad U13/Ad",
        "Post_Office": "Shah Alam",
        "State": "Selangor"
    },
    {
        "Postcode": "40170",
        "Location": "Jalan Setia Indah Ae U13/Ae",
        "Post_Office": "Shah Alam",
        "State": "Selangor"
    },
    {
        "Postcode": "40170",
        "Location": "Jalan Setia Indah U13/10",
        "Post_Office": "Shah Alam",
        "State": "Selangor"
    },
    {
        "Postcode": "40170",
        "Location": "Jalan Setia Indah U13/10A",
        "Post_Office": "Shah Alam",
        "State": "Selangor"
    },
    {
        "Postcode": "40170",
        "Location": "Jalan Setia Indah U13/10B",
        "Post_Office": "Shah Alam",
        "State": "Selangor"
    },
    {
        "Postcode": "40170",
        "Location": "Jalan Setia Indah U13/10C",
        "Post_Office": "Shah Alam",
        "State": "Selangor"
    },
    {
        "Postcode": "40170",
        "Location": "Jalan Setia Indah U13/10D",
        "Post_Office": "Shah Alam",
        "State": "Selangor"
    },
    {
        "Postcode": "40170",
        "Location": "Jalan Setia Indah U13/10E",
        "Post_Office": "Shah Alam",
        "State": "Selangor"
    },
    {
        "Postcode": "40170",
        "Location": "Jalan Setia Indah U13/10F",
        "Post_Office": "Shah Alam",
        "State": "Selangor"
    },
    {
        "Postcode": "40170",
        "Location": "Jalan Setia Indah U13/10G",
        "Post_Office": "Shah Alam",
        "State": "Selangor"
    },
    {
        "Postcode": "40170",
        "Location": "Jalan Setia Indah U13/11",
        "Post_Office": "Shah Alam",
        "State": "Selangor"
    },
    {
        "Postcode": "40170",
        "Location": "Jalan Setia Indah U13/11A",
        "Post_Office": "Shah Alam",
        "State": "Selangor"
    },
    {
        "Postcode": "40170",
        "Location": "Jalan Setia Indah U13/11B",
        "Post_Office": "Shah Alam",
        "State": "Selangor"
    },
    {
        "Postcode": "40170",
        "Location": "Jalan Setia Indah U13/11C",
        "Post_Office": "Shah Alam",
        "State": "Selangor"
    },
    {
        "Postcode": "40170",
        "Location": "Jalan Setia Indah U13/11D",
        "Post_Office": "Shah Alam",
        "State": "Selangor"
    },
    {
        "Postcode": "40170",
        "Location": "Jalan Setia Indah U13/11E",
        "Post_Office": "Shah Alam",
        "State": "Selangor"
    },
    {
        "Postcode": "40170",
        "Location": "Jalan Setia Indah U13/11F",
        "Post_Office": "Shah Alam",
        "State": "Selangor"
    },
    {
        "Postcode": "40170",
        "Location": "Jalan Setia Indah U13/11G",
        "Post_Office": "Shah Alam",
        "State": "Selangor"
    },
    {
        "Postcode": "40170",
        "Location": "Jalan Setia Indah U13/11H",
        "Post_Office": "Shah Alam",
        "State": "Selangor"
    },
    {
        "Postcode": "40170",
        "Location": "Jalan Setia Indah U13/11I",
        "Post_Office": "Shah Alam",
        "State": "Selangor"
    },
    {
        "Postcode": "40170",
        "Location": "Jalan Setia Indah U13/11J",
        "Post_Office": "Shah Alam",
        "State": "Selangor"
    },
    {
        "Postcode": "40170",
        "Location": "Jalan Setia Indah U13/11K",
        "Post_Office": "Shah Alam",
        "State": "Selangor"
    },
    {
        "Postcode": "40170",
        "Location": "Jalan Setia Indah U13/11L",
        "Post_Office": "Shah Alam",
        "State": "Selangor"
    },
    {
        "Postcode": "40170",
        "Location": "Jalan Setia Indah U13/11M",
        "Post_Office": "Shah Alam",
        "State": "Selangor"
    },
    {
        "Postcode": "40170",
        "Location": "Jalan Setia Indah U13/11N",
        "Post_Office": "Shah Alam",
        "State": "Selangor"
    },
    {
        "Postcode": "40170",
        "Location": "Jalan Setia Indah U13/11O",
        "Post_Office": "Shah Alam",
        "State": "Selangor"
    },
    {
        "Postcode": "40170",
        "Location": "Jalan Setia Indah U13/11P",
        "Post_Office": "Shah Alam",
        "State": "Selangor"
    },
    {
        "Postcode": "40170",
        "Location": "Jalan Setia Indah U13/11Q",
        "Post_Office": "Shah Alam",
        "State": "Selangor"
    },
    {
        "Postcode": "40170",
        "Location": "Jalan Setia Indah U13/11R",
        "Post_Office": "Shah Alam",
        "State": "Selangor"
    },
    {
        "Postcode": "40170",
        "Location": "Jalan Setia Indah U13/11S",
        "Post_Office": "Shah Alam",
        "State": "Selangor"
    },
    {
        "Postcode": "40170",
        "Location": "Jalan Setia Indah U13/11T",
        "Post_Office": "Shah Alam",
        "State": "Selangor"
    },
    {
        "Postcode": "40170",
        "Location": "Jalan Setia Indah U13/11U",
        "Post_Office": "Shah Alam",
        "State": "Selangor"
    },
    {
        "Postcode": "40170",
        "Location": "Jalan Setia Indah U13/11V",
        "Post_Office": "Shah Alam",
        "State": "Selangor"
    },
    {
        "Postcode": "40170",
        "Location": "Jalan Setia Indah U13/11W",
        "Post_Office": "Shah Alam",
        "State": "Selangor"
    },
    {
        "Postcode": "40170",
        "Location": "Jalan Setia Indah U13/12",
        "Post_Office": "Shah Alam",
        "State": "Selangor"
    },
    {
        "Postcode": "40170",
        "Location": "Jalan Setia Indah U13/12A",
        "Post_Office": "Shah Alam",
        "State": "Selangor"
    },
    {
        "Postcode": "40170",
        "Location": "Jalan Setia Indah U13/12B",
        "Post_Office": "Shah Alam",
        "State": "Selangor"
    },
    {
        "Postcode": "40170",
        "Location": "Jalan Setia Indah U13/12C",
        "Post_Office": "Shah Alam",
        "State": "Selangor"
    },
    {
        "Postcode": "40170",
        "Location": "Jalan Setia Indah U13/12D",
        "Post_Office": "Shah Alam",
        "State": "Selangor"
    },
    {
        "Postcode": "40170",
        "Location": "Jalan Setia Indah U13/12E",
        "Post_Office": "Shah Alam",
        "State": "Selangor"
    },
    {
        "Postcode": "40170",
        "Location": "Jalan Setia Indah U13/12F",
        "Post_Office": "Shah Alam",
        "State": "Selangor"
    },
    {
        "Postcode": "40170",
        "Location": "Jalan Setia Indah U13/12G",
        "Post_Office": "Shah Alam",
        "State": "Selangor"
    },
    {
        "Postcode": "40170",
        "Location": "Jalan Setia Indah U13/12H",
        "Post_Office": "Shah Alam",
        "State": "Selangor"
    },
    {
        "Postcode": "40170",
        "Location": "Jalan Setia Indah U13/12I",
        "Post_Office": "Shah Alam",
        "State": "Selangor"
    },
    {
        "Postcode": "40170",
        "Location": "Jalan Setia Indah U13/12J",
        "Post_Office": "Shah Alam",
        "State": "Selangor"
    },
    {
        "Postcode": "40170",
        "Location": "Jalan Setia Indah U13/12K",
        "Post_Office": "Shah Alam",
        "State": "Selangor"
    },
    {
        "Postcode": "40170",
        "Location": "Jalan Setia Indah U13/12L",
        "Post_Office": "Shah Alam",
        "State": "Selangor"
    },
    {
        "Postcode": "40170",
        "Location": "Jalan Setia Indah U13/12M",
        "Post_Office": "Shah Alam",
        "State": "Selangor"
    },
    {
        "Postcode": "40170",
        "Location": "Jalan Setia Indah U13/12N",
        "Post_Office": "Shah Alam",
        "State": "Selangor"
    },
    {
        "Postcode": "40170",
        "Location": "Jalan Setia Indah U13/12O",
        "Post_Office": "Shah Alam",
        "State": "Selangor"
    },
    {
        "Postcode": "40170",
        "Location": "Jalan Setia Indah U13/12P",
        "Post_Office": "Shah Alam",
        "State": "Selangor"
    },
    {
        "Postcode": "40170",
        "Location": "Jalan Setia Indah U13/12Q",
        "Post_Office": "Shah Alam",
        "State": "Selangor"
    },
    {
        "Postcode": "40170",
        "Location": "Jalan Setia Indah U13/12R",
        "Post_Office": "Shah Alam",
        "State": "Selangor"
    },
    {
        "Postcode": "40170",
        "Location": "Jalan Setia Indah U13/12S",
        "Post_Office": "Shah Alam",
        "State": "Selangor"
    },
    {
        "Postcode": "40170",
        "Location": "Jalan Setia Indah U13/12T",
        "Post_Office": "Shah Alam",
        "State": "Selangor"
    },
    {
        "Postcode": "40170",
        "Location": "Jalan Setia Indah U13/13",
        "Post_Office": "Shah Alam",
        "State": "Selangor"
    },
    {
        "Postcode": "40170",
        "Location": "Jalan Setia Indah U13/13A",
        "Post_Office": "Shah Alam",
        "State": "Selangor"
    },
    {
        "Postcode": "40170",
        "Location": "Jalan Setia Indah U13/13B",
        "Post_Office": "Shah Alam",
        "State": "Selangor"
    },
    {
        "Postcode": "40170",
        "Location": "Jalan Setia Indah U13/13D",
        "Post_Office": "Shah Alam",
        "State": "Selangor"
    },
    {
        "Postcode": "40170",
        "Location": "Jalan Setia Indah U13/13E",
        "Post_Office": "Shah Alam",
        "State": "Selangor"
    },
    {
        "Postcode": "40170",
        "Location": "Jalan Setia Indah U13/13H",
        "Post_Office": "Shah Alam",
        "State": "Selangor"
    },
    {
        "Postcode": "40170",
        "Location": "Jalan Setia Indah U13/13J",
        "Post_Office": "Shah Alam",
        "State": "Selangor"
    },
    {
        "Postcode": "40170",
        "Location": "Jalan Setia Indah U13/13K",
        "Post_Office": "Shah Alam",
        "State": "Selangor"
    },
    {
        "Postcode": "40170",
        "Location": "Jalan Setia Indah U13/13L",
        "Post_Office": "Shah Alam",
        "State": "Selangor"
    },
    {
        "Postcode": "40170",
        "Location": "Jalan Setia Indah U13/13M",
        "Post_Office": "Shah Alam",
        "State": "Selangor"
    },
    {
        "Postcode": "40170",
        "Location": "Jalan Setia Indah U13/13N",
        "Post_Office": "Shah Alam",
        "State": "Selangor"
    },
    {
        "Postcode": "40170",
        "Location": "Jalan Setia Indah U13/13O",
        "Post_Office": "Shah Alam",
        "State": "Selangor"
    },
    {
        "Postcode": "40170",
        "Location": "Jalan Setia Indah U13/13P",
        "Post_Office": "Shah Alam",
        "State": "Selangor"
    },
    {
        "Postcode": "40170",
        "Location": "Jalan Setia Indah U13/9",
        "Post_Office": "Shah Alam",
        "State": "Selangor"
    },
    {
        "Postcode": "40170",
        "Location": "Jalan Setia Indah U13/9A",
        "Post_Office": "Shah Alam",
        "State": "Selangor"
    },
    {
        "Postcode": "40170",
        "Location": "Jalan Setia Indah U13/9B",
        "Post_Office": "Shah Alam",
        "State": "Selangor"
    },
    {
        "Postcode": "40170",
        "Location": "Jalan Setia Indah U13/9C",
        "Post_Office": "Shah Alam",
        "State": "Selangor"
    },
    {
        "Postcode": "40170",
        "Location": "Jalan Setia Indah U13/9D",
        "Post_Office": "Shah Alam",
        "State": "Selangor"
    },
    {
        "Postcode": "40170",
        "Location": "Jalan Setia Indah U13/9E",
        "Post_Office": "Shah Alam",
        "State": "Selangor"
    },
    {
        "Postcode": "40170",
        "Location": "Jalan Setia Indah U13/9F",
        "Post_Office": "Shah Alam",
        "State": "Selangor"
    },
    {
        "Postcode": "40170",
        "Location": "Jalan Setia Indah U13/9G",
        "Post_Office": "Shah Alam",
        "State": "Selangor"
    },
    {
        "Postcode": "40170",
        "Location": "Jalan Setia Indah U13/9H",
        "Post_Office": "Shah Alam",
        "State": "Selangor"
    },
    {
        "Postcode": "40170",
        "Location": "Jalan Setia Indah U13/9I",
        "Post_Office": "Shah Alam",
        "State": "Selangor"
    },
    {
        "Postcode": "40170",
        "Location": "Jalan Setia Indah U13/9J",
        "Post_Office": "Shah Alam",
        "State": "Selangor"
    },
    {
        "Postcode": "40170",
        "Location": "Jalan Setia Indah U13/9K",
        "Post_Office": "Shah Alam",
        "State": "Selangor"
    },
    {
        "Postcode": "40170",
        "Location": "Jalan Setia Indah U13/9L",
        "Post_Office": "Shah Alam",
        "State": "Selangor"
    },
    {
        "Postcode": "40170",
        "Location": "Jalan Setia Indah U13/9M",
        "Post_Office": "Shah Alam",
        "State": "Selangor"
    },
    {
        "Postcode": "40170",
        "Location": "Jalan Setia Indah U13/9N",
        "Post_Office": "Shah Alam",
        "State": "Selangor"
    },
    {
        "Postcode": "40170",
        "Location": "Jalan Setia Indah U13/9O",
        "Post_Office": "Shah Alam",
        "State": "Selangor"
    },
    {
        "Postcode": "40170",
        "Location": "Jalan Setia Indah U13/9P",
        "Post_Office": "Shah Alam",
        "State": "Selangor"
    },
    {
        "Postcode": "40170",
        "Location": "Jalan Setia Indah U13/9Q",
        "Post_Office": "Shah Alam",
        "State": "Selangor"
    },
    {
        "Postcode": "40170",
        "Location": "Jalan Setia Indah U13/9R",
        "Post_Office": "Shah Alam",
        "State": "Selangor"
    },
    {
        "Postcode": "40170",
        "Location": "Jalan Setia Indah U13/9S",
        "Post_Office": "Shah Alam",
        "State": "Selangor"
    },
    {
        "Postcode": "40170",
        "Location": "Jalan Setia Indah U13/9T",
        "Post_Office": "Shah Alam",
        "State": "Selangor"
    },
    {
        "Postcode": "40170",
        "Location": "Jalan Setia Indah U13/9U",
        "Post_Office": "Shah Alam",
        "State": "Selangor"
    },
    {
        "Postcode": "40170",
        "Location": "Jalan Setia Indah U13/9V",
        "Post_Office": "Shah Alam",
        "State": "Selangor"
    },
    {
        "Postcode": "40170",
        "Location": "Jalan Setia Indah U13/9W",
        "Post_Office": "Shah Alam",
        "State": "Selangor"
    },
    {
        "Postcode": "40170",
        "Location": "Jalan Setia Indah U13/9X",
        "Post_Office": "Shah Alam",
        "State": "Selangor"
    },
    {
        "Postcode": "40170",
        "Location": "Jalan Setia Prima A U13/A",
        "Post_Office": "Shah Alam",
        "State": "Selangor"
    },
    {
        "Postcode": "40170",
        "Location": "Jalan Setia Prima B U13/B",
        "Post_Office": "Shah Alam",
        "State": "Selangor"
    },
    {
        "Postcode": "40170",
        "Location": "Jalan Setia Prima C U13/C",
        "Post_Office": "Shah Alam",
        "State": "Selangor"
    },
    {
        "Postcode": "40170",
        "Location": "Jalan Setia Prima D U13/D",
        "Post_Office": "Shah Alam",
        "State": "Selangor"
    },
    {
        "Postcode": "40170",
        "Location": "Jalan Setia Prima E U13/E",
        "Post_Office": "Shah Alam",
        "State": "Selangor"
    },
    {
        "Postcode": "40170",
        "Location": "Jalan Setia Prima F U13/F",
        "Post_Office": "Shah Alam",
        "State": "Selangor"
    },
    {
        "Postcode": "40170",
        "Location": "Jalan Setia Prima G U13/G",
        "Post_Office": "Shah Alam",
        "State": "Selangor"
    },
    {
        "Postcode": "40170",
        "Location": "Jalan Setia Prima H U13/H",
        "Post_Office": "Shah Alam",
        "State": "Selangor"
    },
    {
        "Postcode": "40170",
        "Location": "Jalan Setia Prima I U13/I",
        "Post_Office": "Shah Alam",
        "State": "Selangor"
    },
    {
        "Postcode": "40170",
        "Location": "Jalan Setia Prima J U13/J",
        "Post_Office": "Shah Alam",
        "State": "Selangor"
    },
    {
        "Postcode": "40170",
        "Location": "Jalan Setia Prima K U13/K",
        "Post_Office": "Shah Alam",
        "State": "Selangor"
    },
    {
        "Postcode": "40170",
        "Location": "Jalan Setia Prima L U13/L",
        "Post_Office": "Shah Alam",
        "State": "Selangor"
    },
    {
        "Postcode": "40170",
        "Location": "Jalan Setia Prima M U13/M",
        "Post_Office": "Shah Alam",
        "State": "Selangor"
    },
    {
        "Postcode": "40170",
        "Location": "Jalan Setia Prima N U13/N",
        "Post_Office": "Shah Alam",
        "State": "Selangor"
    },
    {
        "Postcode": "40170",
        "Location": "Jalan Setia Prima O U13/O",
        "Post_Office": "Shah Alam",
        "State": "Selangor"
    },
    {
        "Postcode": "40170",
        "Location": "Jalan Setia Prima P U13/P",
        "Post_Office": "Shah Alam",
        "State": "Selangor"
    },
    {
        "Postcode": "40170",
        "Location": "Jalan Setia Prima Q U13/Q",
        "Post_Office": "Shah Alam",
        "State": "Selangor"
    },
    {
        "Postcode": "40170",
        "Location": "Jalan Setia Prima R U13/R",
        "Post_Office": "Shah Alam",
        "State": "Selangor"
    },
    {
        "Postcode": "40170",
        "Location": "Jalan Setia Prima S U13/S",
        "Post_Office": "Shah Alam",
        "State": "Selangor"
    },
    {
        "Postcode": "40170",
        "Location": "Jalan Setia Prima T U13/T",
        "Post_Office": "Shah Alam",
        "State": "Selangor"
    },
    {
        "Postcode": "40170",
        "Location": "Jalan Setia Prima U U13/U",
        "Post_Office": "Shah Alam",
        "State": "Selangor"
    },
    {
        "Postcode": "40170",
        "Location": "Jalan Setia Prima V U13/V",
        "Post_Office": "Shah Alam",
        "State": "Selangor"
    },
    {
        "Postcode": "40170",
        "Location": "Seksyen U10",
        "Post_Office": "Shah Alam",
        "State": "Selangor"
    },
    {
        "Postcode": "40170",
        "Location": "Seksyen U11",
        "Post_Office": "Shah Alam",
        "State": "Selangor"
    },
    {
        "Postcode": "40170",
        "Location": "Seksyen U12",
        "Post_Office": "Shah Alam",
        "State": "Selangor"
    },
    {
        "Postcode": "40170",
        "Location": "Seksyen U14",
        "Post_Office": "Shah Alam",
        "State": "Selangor"
    },
    {
        "Postcode": "40170",
        "Location": "Seksyen U15",
        "Post_Office": "Shah Alam",
        "State": "Selangor"
    },
    {
        "Postcode": "40170",
        "Location": "Bukit Bandaraya ",
        "Post_Office": "Shah Alam",
        "State": "Selangor"
    },
    {
        "Postcode": "40170",
        "Location": "Perdana Heights",
        "Post_Office": "Shah Alam",
        "State": "Selangor"
    },
    {
        "Postcode": "40170",
        "Location": "Setia Alam",
        "Post_Office": "Shah Alam",
        "State": "Selangor"
    },
    {
        "Postcode": "40170",
        "Location": "Jalan Datin Hajah Khatijah U10/83",
        "Post_Office": "Shah Alam",
        "State": "Selangor"
    },
    {
        "Postcode": "40170",
        "Location": "Jalan Dato' Azhar Muhammad U10/86",
        "Post_Office": "Shah Alam",
        "State": "Selangor"
    },
    {
        "Postcode": "40170",
        "Location": "Jalan Dato' Azhar Muhammad U10/86A",
        "Post_Office": "Shah Alam",
        "State": "Selangor"
    },
    {
        "Postcode": "40170",
        "Location": "Jalan Dato' Azhar Muhammad U10/86B",
        "Post_Office": "Shah Alam",
        "State": "Selangor"
    },
    {
        "Postcode": "40170",
        "Location": "Jalan Gunung Nuang U11/36A",
        "Post_Office": "Shah Alam",
        "State": "Selangor"
    },
    {
        "Postcode": "40170",
        "Location": "Jalan Gunung Tahan U11/2A",
        "Post_Office": "Shah Alam",
        "State": "Selangor"
    },
    {
        "Postcode": "40170",
        "Location": "Jalan Hamzah",
        "Post_Office": "Shah Alam",
        "State": "Selangor"
    },
    {
        "Postcode": "40170",
        "Location": "Jalan Pegaga U12/12A",
        "Post_Office": "Shah Alam",
        "State": "Selangor"
    },
    {
        "Postcode": "40170",
        "Location": "Jalan Pulau Angsa U10/18A",
        "Post_Office": "Shah Alam",
        "State": "Selangor"
    },
    {
        "Postcode": "40170",
        "Location": "Jalan Pulau Angsa U10/2A",
        "Post_Office": "Shah Alam",
        "State": "Selangor"
    },
    {
        "Postcode": "40170",
        "Location": "Jalan Pulau Angsa U10/35A",
        "Post_Office": "Shah Alam",
        "State": "Selangor"
    },
    {
        "Postcode": "40170",
        "Location": "Jalan Pulau Angsa U10/4A",
        "Post_Office": "Shah Alam",
        "State": "Selangor"
    },
    {
        "Postcode": "40170",
        "Location": "Jalan Pulau Lumut U10/74A",
        "Post_Office": "Shah Alam",
        "State": "Selangor"
    },
    {
        "Postcode": "40170",
        "Location": "Jalan Pulau Sibu U10/79A",
        "Post_Office": "Shah Alam",
        "State": "Selangor"
    },
    {
        "Postcode": "40170",
        "Location": "Jalan Pulau Sipadan U10/87A",
        "Post_Office": "Shah Alam",
        "State": "Selangor"
    },
    {
        "Postcode": "40170",
        "Location": "Jalan Pulau Undan N U10/N",
        "Post_Office": "Shah Alam",
        "State": "Selangor"
    },
    {
        "Postcode": "40170",
        "Location": "Greenhill Impian",
        "Post_Office": "Shah Alam",
        "State": "Selangor"
    },
    {
        "Postcode": "40170",
        "Location": "Jalan Pulau Tioman U10/94",
        "Post_Office": "Shah Alam",
        "State": "Selangor"
    },
    {
        "Postcode": "40170",
        "Location": "Jalan Pulau Tioman U10/94A",
        "Post_Office": "Shah Alam",
        "State": "Selangor"
    },
    {
        "Postcode": "40170",
        "Location": "Jalan Pulau Tioman U10/95A",
        "Post_Office": "Shah Alam",
        "State": "Selangor"
    },
    {
        "Postcode": "40170",
        "Location": "Jalan Pulau Angsa U10/2",
        "Post_Office": "Shah Alam",
        "State": "Selangor"
    },
    {
        "Postcode": "40170",
        "Location": "Huni Residence",
        "Post_Office": "Shah Alam",
        "State": "Selangor"
    },
    {
        "Postcode": "40170",
        "Location": "Huni Square",
        "Post_Office": "Shah Alam",
        "State": "Selangor"
    },
    {
        "Postcode": "40170",
        "Location": "Persiaran Setia Damai ",
        "Post_Office": "Shah Alam",
        "State": "Selangor"
    },
    {
        "Postcode": "40170",
        "Location": "Jalan Setia Dagang Ah U13/Ah",
        "Post_Office": "Shah Alam",
        "State": "Selangor"
    },
    {
        "Postcode": "40170",
        "Location": "Residensi Alam Awana",
        "Post_Office": "Shah Alam",
        "State": "Selangor"
    },
    {
        "Postcode": "40170",
        "Location": "Eco Ardence",
        "Post_Office": "Shah Alam",
        "State": "Selangor"
    },
    {
        "Postcode": "40170",
        "Location": "Seksyen U13",
        "Post_Office": "Shah Alam",
        "State": "Selangor"
    },
    {
        "Postcode": "40170",
        "Location": "Laman Budiman",
        "Post_Office": "Shah Alam",
        "State": "Selangor"
    },
    {
        "Postcode": "40170",
        "Location": "Taman Desa Tropika",
        "Post_Office": "Shah Alam",
        "State": "Selangor"
    },
    {
        "Postcode": "40170",
        "Location": "Bandar Nusa Rhu",
        "Post_Office": "Shah Alam",
        "State": "Selangor"
    },
    {
        "Postcode": "40170",
        "Location": "Desa Alam",
        "Post_Office": "Shah Alam",
        "State": "Selangor"
    },
    {
        "Postcode": "40170",
        "Location": "Taman Sandaran Permai",
        "Post_Office": "Shah Alam",
        "State": "Selangor"
    },
    {
        "Postcode": "40170",
        "Location": "Taman Subang Impian",
        "Post_Office": "Shah Alam",
        "State": "Selangor"
    },
    {
        "Postcode": "40170",
        "Location": "Aria Rimba",
        "Post_Office": "Shah Alam",
        "State": "Selangor"
    },
    {
        "Postcode": "40170",
        "Location": "Jalan Pulau Tioman U10/93",
        "Post_Office": "Shah Alam",
        "State": "Selangor"
    },
    {
        "Postcode": "40170",
        "Location": "Taman Greenhill ",
        "Post_Office": "Shah Alam",
        "State": "Selangor"
    },
    {
        "Postcode": "40170",
        "Location": "Jalan Setia Nusantara U13/19",
        "Post_Office": "Shah Alam",
        "State": "Selangor"
    },
    {
        "Postcode": "40170",
        "Location": "Setia Eco Park",
        "Post_Office": "Shah Alam",
        "State": "Selangor"
    },
    {
        "Postcode": "40170",
        "Location": "Bukit Bayu",
        "Post_Office": "Shah Alam",
        "State": "Selangor"
    },
    {
        "Postcode": "40170",
        "Location": "Jalan Setia Dagang Ag U13/Ag",
        "Post_Office": "Shah Alam",
        "State": "Selangor"
    },
    {
        "Postcode": "40170",
        "Location": "Jalan Setia Perdana U13/25E",
        "Post_Office": "Shah Alam",
        "State": "Selangor"
    },
    {
        "Postcode": "40170",
        "Location": "Jalan Kelip-kelip U15/7",
        "Post_Office": "Shah Alam",
        "State": "Selangor"
    },
    {
        "Postcode": "40170",
        "Location": "Residensi Idaman Cahaya 1",
        "Post_Office": "Shah Alam",
        "State": "Selangor"
    },
    {
        "Postcode": "40170",
        "Location": "Jalan Padi U12/41",
        "Post_Office": "Shah Alam",
        "State": "Selangor"
    },
    {
        "Postcode": "40170",
        "Location": "Kondominium Tuai Timur",
        "Post_Office": "Shah Alam",
        "State": "Selangor"
    },
    {
        "Postcode": "40170",
        "Location": "Laman Cherakah",
        "Post_Office": "Shah Alam",
        "State": "Selangor"
    },
    {
        "Postcode": "40170",
        "Location": "Laman Sutera",
        "Post_Office": "Shah Alam",
        "State": "Selangor"
    },
    {
        "Postcode": "40170",
        "Location": "Alam Budiman",
        "Post_Office": "Shah Alam",
        "State": "Selangor"
    },
    {
        "Postcode": "40170",
        "Location": "Jalan Setia Prima Su 13/S",
        "Post_Office": "Shah Alam",
        "State": "Selangor"
    },
    {
        "Postcode": "40170",
        "Location": "Kampung Bukit Cerakah",
        "Post_Office": "Shah Alam",
        "State": "Selangor"
    },
    {
        "Postcode": "40170",
        "Location": "Setia Prima ",
        "Post_Office": "Shah Alam",
        "State": "Selangor"
    },
    {
        "Postcode": "40170",
        "Location": "Sunway Alam Suria ",
        "Post_Office": "Shah Alam",
        "State": "Selangor"
    },
    {
        "Postcode": "40170",
        "Location": "Taman Alam Budiman ",
        "Post_Office": "Shah Alam",
        "State": "Selangor"
    },
    {
        "Postcode": "40170",
        "Location": "Taman Cahaya Alam ",
        "Post_Office": "Shah Alam",
        "State": "Selangor"
    },
    {
        "Postcode": "40170",
        "Location": "Taman Desa Rhu",
        "Post_Office": "Shah Alam",
        "State": "Selangor"
    },
    {
        "Postcode": "40170",
        "Location": "Taman Puncak Perdana",
        "Post_Office": "Shah Alam",
        "State": "Selangor"
    },
    {
        "Postcode": "40170",
        "Location": "Taman Seri Buloh",
        "Post_Office": "Shah Alam",
        "State": "Selangor"
    },
    {
        "Postcode": "40170",
        "Location": "Taman Sunway Suria ",
        "Post_Office": "Shah Alam",
        "State": "Selangor"
    },
    {
        "Postcode": "40170",
        "Location": "Taman Suria Alam ",
        "Post_Office": "Shah Alam",
        "State": "Selangor"
    }
]
