[
    {
        "Postcode": "40200",
        "Location": "Lorong Lembah 1",
        "Post_Office": "Shah Alam",
        "State": "Selangor"
    },
    {
        "Postcode": "40200",
        "Location": "Lorong Lembah 2",
        "Post_Office": "Shah Alam",
        "State": "Selangor"
    },
    {
        "Postcode": "40200",
        "Location": "Jalan Tukul Q 15/Q",
        "Post_Office": "Shah Alam",
        "State": "Selangor"
    },
    {
        "Postcode": "40200",
        "Location": "Jalan Berangan 1",
        "Post_Office": "Shah Alam",
        "State": "Selangor"
    },
    {
        "Postcode": "40200",
        "Location": "Jalan Kundang 2",
        "Post_Office": "Shah Alam",
        "State": "Selangor"
    },
    {
        "Postcode": "40200",
        "Location": "Jalan Kundang 3",
        "Post_Office": "Shah Alam",
        "State": "Selangor"
    },
    {
        "Postcode": "40200",
        "Location": "Jalan Lengkuas 16/18",
        "Post_Office": "Shah Alam",
        "State": "Selangor"
    },
    {
        "Postcode": "40200",
        "Location": "Jalan Lengkuas 16/19",
        "Post_Office": "Shah Alam",
        "State": "Selangor"
    },
    {
        "Postcode": "40200",
        "Location": "Jalan Lengkuas 16/19A",
        "Post_Office": "Shah Alam",
        "State": "Selangor"
    },
    {
        "Postcode": "40200",
        "Location": "Jalan Lengkuas 16/20",
        "Post_Office": "Shah Alam",
        "State": "Selangor"
    },
    {
        "Postcode": "40200",
        "Location": "Jalan Lengkuas 16/21",
        "Post_Office": "Shah Alam",
        "State": "Selangor"
    },
    {
        "Postcode": "40200",
        "Location": "Jalan Lengkuas 16/21A",
        "Post_Office": "Shah Alam",
        "State": "Selangor"
    },
    {
        "Postcode": "40200",
        "Location": "Jalan Lengkuas 16/22",
        "Post_Office": "Shah Alam",
        "State": "Selangor"
    },
    {
        "Postcode": "40200",
        "Location": "Jalan Lengkuas 16/22A",
        "Post_Office": "Shah Alam",
        "State": "Selangor"
    },
    {
        "Postcode": "40200",
        "Location": "Jalan Lengkuas 16/23",
        "Post_Office": "Shah Alam",
        "State": "Selangor"
    },
    {
        "Postcode": "40200",
        "Location": "Jalan Lengkuas 16/23A",
        "Post_Office": "Shah Alam",
        "State": "Selangor"
    },
    {
        "Postcode": "40200",
        "Location": "Jalan Lengkuas 16/24",
        "Post_Office": "Shah Alam",
        "State": "Selangor"
    },
    {
        "Postcode": "40200",
        "Location": "Jalan Lengkuas A 16/A",
        "Post_Office": "Shah Alam",
        "State": "Selangor"
    },
    {
        "Postcode": "40200",
        "Location": "Jalan Lengkuas B 16/B",
        "Post_Office": "Shah Alam",
        "State": "Selangor"
    },
    {
        "Postcode": "40200",
        "Location": "Jalan Lengkuas C 16/C",
        "Post_Office": "Shah Alam",
        "State": "Selangor"
    },
    {
        "Postcode": "40200",
        "Location": "Jalan Lengkuas D 16/D",
        "Post_Office": "Shah Alam",
        "State": "Selangor"
    },
    {
        "Postcode": "40200",
        "Location": "Jalan Lengkuas E 16/E",
        "Post_Office": "Shah Alam",
        "State": "Selangor"
    },
    {
        "Postcode": "40200",
        "Location": "Jalan Muhibbah 1",
        "Post_Office": "Shah Alam",
        "State": "Selangor"
    },
    {
        "Postcode": "40200",
        "Location": "Lorong Bali",
        "Post_Office": "Shah Alam",
        "State": "Selangor"
    },
    {
        "Postcode": "40200",
        "Location": "Lorong Melur",
        "Post_Office": "Shah Alam",
        "State": "Selangor"
    },
    {
        "Postcode": "40200",
        "Location": "Seksyen 16",
        "Post_Office": "Shah Alam",
        "State": "Selangor"
    },
    {
        "Postcode": "40200",
        "Location": "Jalan Cendana",
        "Post_Office": "Shah Alam",
        "State": "Selangor"
    },
    {
        "Postcode": "40200",
        "Location": "Dataran Otomobil",
        "Post_Office": "Shah Alam",
        "State": "Selangor"
    },
    {
        "Postcode": "40200",
        "Location": "Taman Perindustrian Tiong Nam",
        "Post_Office": "Shah Alam",
        "State": "Selangor"
    },
    {
        "Postcode": "40200",
        "Location": "Sungai Rasau",
        "Post_Office": "Shah Alam",
        "State": "Selangor"
    },
    {
        "Postcode": "40200",
        "Location": "Seksyen 15",
        "Post_Office": "Shah Alam",
        "State": "Selangor"
    },
    {
        "Postcode": "40200",
        "Location": "Seksyen 17",
        "Post_Office": "Shah Alam",
        "State": "Selangor"
    },
    {
        "Postcode": "40200",
        "Location": "Seksyen 18",
        "Post_Office": "Shah Alam",
        "State": "Selangor"
    },
    {
        "Postcode": "40200",
        "Location": "Jalan Kunci Air",
        "Post_Office": "Shah Alam",
        "State": "Selangor"
    },
    {
        "Postcode": "40200",
        "Location": "Jalan Masjid",
        "Post_Office": "Shah Alam",
        "State": "Selangor"
    },
    {
        "Postcode": "40200",
        "Location": "Jalan Asam Jawa 16/15",
        "Post_Office": "Shah Alam",
        "State": "Selangor"
    },
    {
        "Postcode": "40200",
        "Location": "Jalan Asam Paya 18/38",
        "Post_Office": "Shah Alam",
        "State": "Selangor"
    },
    {
        "Postcode": "40200",
        "Location": "Jalan Bakap 17/36",
        "Post_Office": "Shah Alam",
        "State": "Selangor"
    },
    {
        "Postcode": "40200",
        "Location": "Jalan Baung 17/22",
        "Post_Office": "Shah Alam",
        "State": "Selangor"
    },
    {
        "Postcode": "40200",
        "Location": "Jalan Bawal 17/3",
        "Post_Office": "Shah Alam",
        "State": "Selangor"
    },
    {
        "Postcode": "40200",
        "Location": "Jalan Bawal Dua 17/3B",
        "Post_Office": "Shah Alam",
        "State": "Selangor"
    },
    {
        "Postcode": "40200",
        "Location": "Jalan Bawal Empat 17/3D",
        "Post_Office": "Shah Alam",
        "State": "Selangor"
    },
    {
        "Postcode": "40200",
        "Location": "Jalan Bawal Enam 17/3F",
        "Post_Office": "Shah Alam",
        "State": "Selangor"
    },
    {
        "Postcode": "40200",
        "Location": "Jalan Bawal Lapan 17/3H",
        "Post_Office": "Shah Alam",
        "State": "Selangor"
    },
    {
        "Postcode": "40200",
        "Location": "Jalan Bawal Lima 17/3E",
        "Post_Office": "Shah Alam",
        "State": "Selangor"
    },
    {
        "Postcode": "40200",
        "Location": "Jalan Bawal Satu 17/3A",
        "Post_Office": "Shah Alam",
        "State": "Selangor"
    },
    {
        "Postcode": "40200",
        "Location": "Jalan Bawal Sembilan 17/3J",
        "Post_Office": "Shah Alam",
        "State": "Selangor"
    },
    {
        "Postcode": "40200",
        "Location": "Jalan Bawal Tiga 17/3C",
        "Post_Office": "Shah Alam",
        "State": "Selangor"
    },
    {
        "Postcode": "40200",
        "Location": "Jalan Bawal Tujuh 17/3G",
        "Post_Office": "Shah Alam",
        "State": "Selangor"
    },
    {
        "Postcode": "40200",
        "Location": "Jalan Bayas 18/14",
        "Post_Office": "Shah Alam",
        "State": "Selangor"
    },
    {
        "Postcode": "40200",
        "Location": "Jalan Bayas Satu 18/14A",
        "Post_Office": "Shah Alam",
        "State": "Selangor"
    },
    {
        "Postcode": "40200",
        "Location": "Jalan Belanak 17/43",
        "Post_Office": "Shah Alam",
        "State": "Selangor"
    },
    {
        "Postcode": "40200",
        "Location": "Jalan Belida 17/5",
        "Post_Office": "Shah Alam",
        "State": "Selangor"
    },
    {
        "Postcode": "40200",
        "Location": "Jalan Beliung 15/11",
        "Post_Office": "Shah Alam",
        "State": "Selangor"
    },
    {
        "Postcode": "40200",
        "Location": "Jalan Berangan",
        "Post_Office": "Shah Alam",
        "State": "Selangor"
    },
    {
        "Postcode": "40200",
        "Location": "Jalan Beremban 15/12",
        "Post_Office": "Shah Alam",
        "State": "Selangor"
    },
    {
        "Postcode": "40200",
        "Location": "Jalan Bertam 18/8",
        "Post_Office": "Shah Alam",
        "State": "Selangor"
    },
    {
        "Postcode": "40200",
        "Location": "Jalan Bertam Dua 18/8B",
        "Post_Office": "Shah Alam",
        "State": "Selangor"
    },
    {
        "Postcode": "40200",
        "Location": "Jalan Bertam Satu 18/8A",
        "Post_Office": "Shah Alam",
        "State": "Selangor"
    },
    {
        "Postcode": "40200",
        "Location": "Jalan Bertam Tahan 18/7",
        "Post_Office": "Shah Alam",
        "State": "Selangor"
    },
    {
        "Postcode": "40200",
        "Location": "Jalan Bertam Tiga 18/8C",
        "Post_Office": "Shah Alam",
        "State": "Selangor"
    },
    {
        "Postcode": "40200",
        "Location": "Jalan Betuk 17/30",
        "Post_Office": "Shah Alam",
        "State": "Selangor"
    },
    {
        "Postcode": "40200",
        "Location": "Jalan Betuk Satu 17/30A",
        "Post_Office": "Shah Alam",
        "State": "Selangor"
    },
    {
        "Postcode": "40200",
        "Location": "Jalan Bicu 15/6",
        "Post_Office": "Shah Alam",
        "State": "Selangor"
    },
    {
        "Postcode": "40200",
        "Location": "Jalan Bilal Wondor",
        "Post_Office": "Shah Alam",
        "State": "Selangor"
    },
    {
        "Postcode": "40200",
        "Location": "Jalan Bilis 17/47",
        "Post_Office": "Shah Alam",
        "State": "Selangor"
    },
    {
        "Postcode": "40200",
        "Location": "Jalan Bilis Dua 17/47B",
        "Post_Office": "Shah Alam",
        "State": "Selangor"
    },
    {
        "Postcode": "40200",
        "Location": "Jalan Bilis Satu 17/47A",
        "Post_Office": "Shah Alam",
        "State": "Selangor"
    },
    {
        "Postcode": "40200",
        "Location": "Jalan Bilis Tiga 17/47C",
        "Post_Office": "Shah Alam",
        "State": "Selangor"
    },
    {
        "Postcode": "40200",
        "Location": "Jalan Cencaru 17/11",
        "Post_Office": "Shah Alam",
        "State": "Selangor"
    },
    {
        "Postcode": "40200",
        "Location": "Jalan Cengkih 16/10",
        "Post_Office": "Shah Alam",
        "State": "Selangor"
    },
    {
        "Postcode": "40200",
        "Location": "Jalan Cetak 16/3",
        "Post_Office": "Shah Alam",
        "State": "Selangor"
    },
    {
        "Postcode": "40200",
        "Location": "Jalan Cucur 18/13",
        "Post_Office": "Shah Alam",
        "State": "Selangor"
    },
    {
        "Postcode": "40200",
        "Location": "Jalan Cucur Kabot 18/12",
        "Post_Office": "Shah Alam",
        "State": "Selangor"
    },
    {
        "Postcode": "40200",
        "Location": "Jalan Cucur Satu 18/13A",
        "Post_Office": "Shah Alam",
        "State": "Selangor"
    },
    {
        "Postcode": "40200",
        "Location": "Jalan Dangsa 18/39",
        "Post_Office": "Shah Alam",
        "State": "Selangor"
    },
    {
        "Postcode": "40200",
        "Location": "Jalan Daun Payung 18/11",
        "Post_Office": "Shah Alam",
        "State": "Selangor"
    },
    {
        "Postcode": "40200",
        "Location": "Jalan Daun Sal 18/5",
        "Post_Office": "Shah Alam",
        "State": "Selangor"
    },
    {
        "Postcode": "40200",
        "Location": "Jalan Daun Sal Satu 18/5A",
        "Post_Office": "Shah Alam",
        "State": "Selangor"
    },
    {
        "Postcode": "40200",
        "Location": "Jalan Dawai 16/2",
        "Post_Office": "Shah Alam",
        "State": "Selangor"
    },
    {
        "Postcode": "40200",
        "Location": "Jalan Dawai Satu 16/2A",
        "Post_Office": "Shah Alam",
        "State": "Selangor"
    },
    {
        "Postcode": "40200",
        "Location": "Jalan Dengkis 17/42",
        "Post_Office": "Shah Alam",
        "State": "Selangor"
    },
    {
        "Postcode": "40200",
        "Location": "Jalan Enau 18/33",
        "Post_Office": "Shah Alam",
        "State": "Selangor"
    },
    {
        "Postcode": "40200",
        "Location": "Jalan Gebang 18/16",
        "Post_Office": "Shah Alam",
        "State": "Selangor"
    },
    {
        "Postcode": "40200",
        "Location": "Jalan Gebang Dua 18/16B",
        "Post_Office": "Shah Alam",
        "State": "Selangor"
    },
    {
        "Postcode": "40200",
        "Location": "Jalan Gebang Satu 18/16A",
        "Post_Office": "Shah Alam",
        "State": "Selangor"
    },
    {
        "Postcode": "40200",
        "Location": "Jalan Gebang Tiga 18/16C",
        "Post_Office": "Shah Alam",
        "State": "Selangor"
    },
    {
        "Postcode": "40200",
        "Location": "Jalan Gelama 17/24",
        "Post_Office": "Shah Alam",
        "State": "Selangor"
    },
    {
        "Postcode": "40200",
        "Location": "Jalan Gergaji 15/14",
        "Post_Office": "Shah Alam",
        "State": "Selangor"
    },
    {
        "Postcode": "40200",
        "Location": "Jalan Gerudi 15/4",
        "Post_Office": "Shah Alam",
        "State": "Selangor"
    },
    {
        "Postcode": "40200",
        "Location": "Jalan Gudang 16/9",
        "Post_Office": "Shah Alam",
        "State": "Selangor"
    },
    {
        "Postcode": "40200",
        "Location": "Jalan Gurami 17/29",
        "Post_Office": "Shah Alam",
        "State": "Selangor"
    },
    {
        "Postcode": "40200",
        "Location": "Jalan Halba 16/16",
        "Post_Office": "Shah Alam",
        "State": "Selangor"
    },
    {
        "Postcode": "40200",
        "Location": "Jalan Halba Satu 16/16A",
        "Post_Office": "Shah Alam",
        "State": "Selangor"
    },
    {
        "Postcode": "40200",
        "Location": "Jalan Halia 16/8",
        "Post_Office": "Shah Alam",
        "State": "Selangor"
    },
    {
        "Postcode": "40200",
        "Location": "Jalan Haruan 17/35",
        "Post_Office": "Shah Alam",
        "State": "Selangor"
    },
    {
        "Postcode": "40200",
        "Location": "Jalan Haruan Dua 17/35B",
        "Post_Office": "Shah Alam",
        "State": "Selangor"
    },
    {
        "Postcode": "40200",
        "Location": "Jalan Haruan Satu 17/35A",
        "Post_Office": "Shah Alam",
        "State": "Selangor"
    },
    {
        "Postcode": "40200",
        "Location": "Jalan Ibus 18/40",
        "Post_Office": "Shah Alam",
        "State": "Selangor"
    },
    {
        "Postcode": "40200",
        "Location": "Jalan Ibus Dua 18/40B",
        "Post_Office": "Shah Alam",
        "State": "Selangor"
    },
    {
        "Postcode": "40200",
        "Location": "Jalan Ibus Satu 18/40A",
        "Post_Office": "Shah Alam",
        "State": "Selangor"
    },
    {
        "Postcode": "40200",
        "Location": "Jalan Jelawat 17/1",
        "Post_Office": "Shah Alam",
        "State": "Selangor"
    },
    {
        "Postcode": "40200",
        "Location": "Jalan Jelawat Dua 17/1B",
        "Post_Office": "Shah Alam",
        "State": "Selangor"
    },
    {
        "Postcode": "40200",
        "Location": "Jalan Jelawat Satu 17/1A",
        "Post_Office": "Shah Alam",
        "State": "Selangor"
    },
    {
        "Postcode": "40200",
        "Location": "Jalan Jemuju 16/13",
        "Post_Office": "Shah Alam",
        "State": "Selangor"
    },
    {
        "Postcode": "40200",
        "Location": "Jalan Jemuju Dua 16/13B",
        "Post_Office": "Shah Alam",
        "State": "Selangor"
    },
    {
        "Postcode": "40200",
        "Location": "Jalan Jemuju Empat 16/13D",
        "Post_Office": "Shah Alam",
        "State": "Selangor"
    },
    {
        "Postcode": "40200",
        "Location": "Jalan Jemuju Lima 16/13E",
        "Post_Office": "Shah Alam",
        "State": "Selangor"
    },
    {
        "Postcode": "40200",
        "Location": "Jalan Jemuju Satu 16/13A",
        "Post_Office": "Shah Alam",
        "State": "Selangor"
    },
    {
        "Postcode": "40200",
        "Location": "Jalan Jemuju Tiga 16/13C",
        "Post_Office": "Shah Alam",
        "State": "Selangor"
    },
    {
        "Postcode": "40200",
        "Location": "Jalan Jenahak 17/50",
        "Post_Office": "Shah Alam",
        "State": "Selangor"
    },
    {
        "Postcode": "40200",
        "Location": "Jalan Jenulung 17/21",
        "Post_Office": "Shah Alam",
        "State": "Selangor"
    },
    {
        "Postcode": "40200",
        "Location": "Jalan Jintan Manis 16/10B",
        "Post_Office": "Shah Alam",
        "State": "Selangor"
    },
    {
        "Postcode": "40200",
        "Location": "Jalan Jintan Putih 16/10C",
        "Post_Office": "Shah Alam",
        "State": "Selangor"
    },
    {
        "Postcode": "40200",
        "Location": "Jalan Kabung 18/37",
        "Post_Office": "Shah Alam",
        "State": "Selangor"
    },
    {
        "Postcode": "40200",
        "Location": "Jalan Kaloi 17/17",
        "Post_Office": "Shah Alam",
        "State": "Selangor"
    },
    {
        "Postcode": "40200",
        "Location": "Jalan Kaloi Dua 17/17B",
        "Post_Office": "Shah Alam",
        "State": "Selangor"
    },
    {
        "Postcode": "40200",
        "Location": "Jalan Kaloi Empat 17/17D",
        "Post_Office": "Shah Alam",
        "State": "Selangor"
    },
    {
        "Postcode": "40200",
        "Location": "Jalan Kaloi Satu 17/17A",
        "Post_Office": "Shah Alam",
        "State": "Selangor"
    },
    {
        "Postcode": "40200",
        "Location": "Jalan Kaloi Tiga 17/17C",
        "Post_Office": "Shah Alam",
        "State": "Selangor"
    },
    {
        "Postcode": "40200",
        "Location": "Jalan Katla 17/49",
        "Post_Office": "Shah Alam",
        "State": "Selangor"
    },
    {
        "Postcode": "40200",
        "Location": "Jalan Kawat 15/18",
        "Post_Office": "Shah Alam",
        "State": "Selangor"
    },
    {
        "Postcode": "40200",
        "Location": "Jalan Kayu Manis 16/10A",
        "Post_Office": "Shah Alam",
        "State": "Selangor"
    },
    {
        "Postcode": "40200",
        "Location": "Jalan Kekek 17/32",
        "Post_Office": "Shah Alam",
        "State": "Selangor"
    },
    {
        "Postcode": "40200",
        "Location": "Jalan Kelah 17/37",
        "Post_Office": "Shah Alam",
        "State": "Selangor"
    },
    {
        "Postcode": "40200",
        "Location": "Jalan Kelapa 18/42",
        "Post_Office": "Shah Alam",
        "State": "Selangor"
    },
    {
        "Postcode": "40200",
        "Location": "Jalan Kelapa Bali 18/43",
        "Post_Office": "Shah Alam",
        "State": "Selangor"
    },
    {
        "Postcode": "40200",
        "Location": "Jalan Kelapa Gading 18/45",
        "Post_Office": "Shah Alam",
        "State": "Selangor"
    },
    {
        "Postcode": "40200",
        "Location": "Jalan Kelapa Mawar 18/44",
        "Post_Office": "Shah Alam",
        "State": "Selangor"
    },
    {
        "Postcode": "40200",
        "Location": "Jalan Kelesa 17/4",
        "Post_Office": "Shah Alam",
        "State": "Selangor"
    },
    {
        "Postcode": "40200",
        "Location": "Jalan Keli 17/46",
        "Post_Office": "Shah Alam",
        "State": "Selangor"
    },
    {
        "Postcode": "40200",
        "Location": "Jalan Keluli 15/16",
        "Post_Office": "Shah Alam",
        "State": "Selangor"
    },
    {
        "Postcode": "40200",
        "Location": "Jalan Kemajuan Satu 16/17A",
        "Post_Office": "Shah Alam",
        "State": "Selangor"
    },
    {
        "Postcode": "40200",
        "Location": "Jalan Kemudi Dua 19/38B",
        "Post_Office": "Shah Alam",
        "State": "Selangor"
    },
    {
        "Postcode": "40200",
        "Location": "Jalan Kepau 18/4",
        "Post_Office": "Shah Alam",
        "State": "Selangor"
    },
    {
        "Postcode": "40200",
        "Location": "Jalan Kepau Dua 18/4B",
        "Post_Office": "Shah Alam",
        "State": "Selangor"
    },
    {
        "Postcode": "40200",
        "Location": "Jalan Kepau Satu 18/4A",
        "Post_Office": "Shah Alam",
        "State": "Selangor"
    },
    {
        "Postcode": "40200",
        "Location": "Jalan Kerai 17/38",
        "Post_Office": "Shah Alam",
        "State": "Selangor"
    },
    {
        "Postcode": "40200",
        "Location": "Jalan Kerapu 17/52",
        "Post_Office": "Shah Alam",
        "State": "Selangor"
    },
    {
        "Postcode": "40200",
        "Location": "Jalan Kerapu Satu 17/52A",
        "Post_Office": "Shah Alam",
        "State": "Selangor"
    },
    {
        "Postcode": "40200",
        "Location": "Jalan Kerisi 17/25",
        "Post_Office": "Shah Alam",
        "State": "Selangor"
    },
    {
        "Postcode": "40200",
        "Location": "Jalan Kerisi Satu 17/25A",
        "Post_Office": "Shah Alam",
        "State": "Selangor"
    },
    {
        "Postcode": "40200",
        "Location": "Jalan Kikir 15/10",
        "Post_Office": "Shah Alam",
        "State": "Selangor"
    },
    {
        "Postcode": "40200",
        "Location": "Jalan Kundang",
        "Post_Office": "Shah Alam",
        "State": "Selangor"
    },
    {
        "Postcode": "40200",
        "Location": "Jalan Kurau 17/13",
        "Post_Office": "Shah Alam",
        "State": "Selangor"
    },
    {
        "Postcode": "40200",
        "Location": "Jalan Kurau Dua 17/13B",
        "Post_Office": "Shah Alam",
        "State": "Selangor"
    },
    {
        "Postcode": "40200",
        "Location": "Jalan Kurau Satu 17/3A",
        "Post_Office": "Shah Alam",
        "State": "Selangor"
    },
    {
        "Postcode": "40200",
        "Location": "Jalan Kurau Tiga 17/13C",
        "Post_Office": "Shah Alam",
        "State": "Selangor"
    },
    {
        "Postcode": "40200",
        "Location": "Jalan Lada 16/10D",
        "Post_Office": "Shah Alam",
        "State": "Selangor"
    },
    {
        "Postcode": "40200",
        "Location": "Jalan Lada Hitam 16/12",
        "Post_Office": "Shah Alam",
        "State": "Selangor"
    },
    {
        "Postcode": "40200",
        "Location": "Jalan Lada Hitam Satu 16/12A",
        "Post_Office": "Shah Alam",
        "State": "Selangor"
    },
    {
        "Postcode": "40200",
        "Location": "Jalan Lada Sulah 16/11",
        "Post_Office": "Shah Alam",
        "State": "Selangor"
    },
    {
        "Postcode": "40200",
        "Location": "Jalan Lampam Jawa 17/55",
        "Post_Office": "Shah Alam",
        "State": "Selangor"
    },
    {
        "Postcode": "40200",
        "Location": "Jalan Langkap 18/6",
        "Post_Office": "Shah Alam",
        "State": "Selangor"
    },
    {
        "Postcode": "40200",
        "Location": "Jalan Langkap Dua 18/6B",
        "Post_Office": "Shah Alam",
        "State": "Selangor"
    },
    {
        "Postcode": "40200",
        "Location": "Jalan Langkap Satu 18/6A",
        "Post_Office": "Shah Alam",
        "State": "Selangor"
    },
    {
        "Postcode": "40200",
        "Location": "Jalan Legung 18/9",
        "Post_Office": "Shah Alam",
        "State": "Selangor"
    },
    {
        "Postcode": "40200",
        "Location": "Jalan Limbat 17/20",
        "Post_Office": "Shah Alam",
        "State": "Selangor"
    },
    {
        "Postcode": "40200",
        "Location": "Jalan Lumpit 18/35",
        "Post_Office": "Shah Alam",
        "State": "Selangor"
    },
    {
        "Postcode": "40200",
        "Location": "Jalan Lumpit Dua 18/35B",
        "Post_Office": "Shah Alam",
        "State": "Selangor"
    },
    {
        "Postcode": "40200",
        "Location": "Jalan Lumpit Satu 18/35A",
        "Post_Office": "Shah Alam",
        "State": "Selangor"
    },
    {
        "Postcode": "40200",
        "Location": "Jalan Lumpit Tiga 16/35C",
        "Post_Office": "Shah Alam",
        "State": "Selangor"
    },
    {
        "Postcode": "40200",
        "Location": "Jalan Malung 17/19",
        "Post_Office": "Shah Alam",
        "State": "Selangor"
    },
    {
        "Postcode": "40200",
        "Location": "Jalan Mat Raji",
        "Post_Office": "Shah Alam",
        "State": "Selangor"
    },
    {
        "Postcode": "40200",
        "Location": "Jalan Muhibbah",
        "Post_Office": "Shah Alam",
        "State": "Selangor"
    },
    {
        "Postcode": "40200",
        "Location": "Jalan Niaga 16/3A",
        "Post_Office": "Shah Alam",
        "State": "Selangor"
    },
    {
        "Postcode": "40200",
        "Location": "Jalan Nibung 18/36",
        "Post_Office": "Shah Alam",
        "State": "Selangor"
    },
    {
        "Postcode": "40200",
        "Location": "Jalan Nibung Satu 18/36A",
        "Post_Office": "Shah Alam",
        "State": "Selangor"
    },
    {
        "Postcode": "40200",
        "Location": "Jalan Nipah 18/32",
        "Post_Office": "Shah Alam",
        "State": "Selangor"
    },
    {
        "Postcode": "40200",
        "Location": "Jalan Nyiur 18/41",
        "Post_Office": "Shah Alam",
        "State": "Selangor"
    },
    {
        "Postcode": "40200",
        "Location": "Jalan Nyiur Dua 18/41B",
        "Post_Office": "Shah Alam",
        "State": "Selangor"
    },
    {
        "Postcode": "40200",
        "Location": "Jalan Nyiur Empat 18/41D",
        "Post_Office": "Shah Alam",
        "State": "Selangor"
    },
    {
        "Postcode": "40200",
        "Location": "Jalan Nyiur Satu 18/41A",
        "Post_Office": "Shah Alam",
        "State": "Selangor"
    },
    {
        "Postcode": "40200",
        "Location": "Jalan Nyiur Tiga 18/41C",
        "Post_Office": "Shah Alam",
        "State": "Selangor"
    },
    {
        "Postcode": "40200",
        "Location": "Jalan Padang",
        "Post_Office": "Shah Alam",
        "State": "Selangor"
    },
    {
        "Postcode": "40200",
        "Location": "Jalan Pahat 16/8A",
        "Post_Office": "Shah Alam",
        "State": "Selangor"
    },
    {
        "Postcode": "40200",
        "Location": "Jalan Paku 16/6",
        "Post_Office": "Shah Alam",
        "State": "Selangor"
    },
    {
        "Postcode": "40200",
        "Location": "Jalan Palas 18/46",
        "Post_Office": "Shah Alam",
        "State": "Selangor"
    },
    {
        "Postcode": "40200",
        "Location": "Jalan Palas Dua 18/46B",
        "Post_Office": "Shah Alam",
        "State": "Selangor"
    },
    {
        "Postcode": "40200",
        "Location": "Jalan Palas Empat 18/46D",
        "Post_Office": "Shah Alam",
        "State": "Selangor"
    },
    {
        "Postcode": "40200",
        "Location": "Jalan Palas Satu 18/46A",
        "Post_Office": "Shah Alam",
        "State": "Selangor"
    },
    {
        "Postcode": "40200",
        "Location": "Jalan Palas Tiga 18/46C",
        "Post_Office": "Shah Alam",
        "State": "Selangor"
    },
    {
        "Postcode": "40200",
        "Location": "Jalan Palma 18/48",
        "Post_Office": "Shah Alam",
        "State": "Selangor"
    },
    {
        "Postcode": "40200",
        "Location": "Jalan Palma Dua 18/48B",
        "Post_Office": "Shah Alam",
        "State": "Selangor"
    },
    {
        "Postcode": "40200",
        "Location": "Jalan Palma Empat 18/48D",
        "Post_Office": "Shah Alam",
        "State": "Selangor"
    },
    {
        "Postcode": "40200",
        "Location": "Jalan Palma Satu 18/48A",
        "Post_Office": "Shah Alam",
        "State": "Selangor"
    },
    {
        "Postcode": "40200",
        "Location": "Jalan Palma Tiga 18/48C",
        "Post_Office": "Shah Alam",
        "State": "Selangor"
    },
    {
        "Postcode": "40200",
        "Location": "Jalan Pangsa 16/2A",
        "Post_Office": "Shah Alam",
        "State": "Selangor"
    },
    {
        "Postcode": "40200",
        "Location": "Jalan Pari 17/16",
        "Post_Office": "Shah Alam",
        "State": "Selangor"
    },
    {
        "Postcode": "40200",
        "Location": "Jalan Pasak 15/8",
        "Post_Office": "Shah Alam",
        "State": "Selangor"
    },
    {
        "Postcode": "40200",
        "Location": "Jalan Patin 17/48",
        "Post_Office": "Shah Alam",
        "State": "Selangor"
    },
    {
        "Postcode": "40200",
        "Location": "Jalan Pelaga 17/14",
        "Post_Office": "Shah Alam",
        "State": "Selangor"
    },
    {
        "Postcode": "40200",
        "Location": "Jalan Pelaga Satu 17/14A",
        "Post_Office": "Shah Alam",
        "State": "Selangor"
    },
    {
        "Postcode": "40200",
        "Location": "Jalan Pelata 17/7",
        "Post_Office": "Shah Alam",
        "State": "Selangor"
    },
    {
        "Postcode": "40200",
        "Location": "Jalan Pengapit 15/19",
        "Post_Office": "Shah Alam",
        "State": "Selangor"
    },
    {
        "Postcode": "40200",
        "Location": "Jalan Pengasah 15/13",
        "Post_Office": "Shah Alam",
        "State": "Selangor"
    },
    {
        "Postcode": "40200",
        "Location": "Jalan Pengisar 15/9",
        "Post_Office": "Shah Alam",
        "State": "Selangor"
    },
    {
        "Postcode": "40200",
        "Location": "Jalan Pinang 18/1",
        "Post_Office": "Shah Alam",
        "State": "Selangor"
    },
    {
        "Postcode": "40200",
        "Location": "Jalan Pinang A 18/A",
        "Post_Office": "Shah Alam",
        "State": "Selangor"
    },
    {
        "Postcode": "40200",
        "Location": "Jalan Pinang B 18/B",
        "Post_Office": "Shah Alam",
        "State": "Selangor"
    },
    {
        "Postcode": "40200",
        "Location": "Jalan Pinang C 18/C",
        "Post_Office": "Shah Alam",
        "State": "Selangor"
    },
    {
        "Postcode": "40200",
        "Location": "Jalan Pinang D 18/D",
        "Post_Office": "Shah Alam",
        "State": "Selangor"
    },
    {
        "Postcode": "40200",
        "Location": "Jalan Pinang E 18/E",
        "Post_Office": "Shah Alam",
        "State": "Selangor"
    },
    {
        "Postcode": "40200",
        "Location": "Jalan Pinang F 18/F",
        "Post_Office": "Shah Alam",
        "State": "Selangor"
    },
    {
        "Postcode": "40200",
        "Location": "Jalan Pinang Raja 18/2",
        "Post_Office": "Shah Alam",
        "State": "Selangor"
    },
    {
        "Postcode": "40200",
        "Location": "Jalan Pinang Siri 18/3",
        "Post_Office": "Shah Alam",
        "State": "Selangor"
    },
    {
        "Postcode": "40200",
        "Location": "Jalan Playar 15/1",
        "Post_Office": "Shah Alam",
        "State": "Selangor"
    },
    {
        "Postcode": "40200",
        "Location": "Jalan Puput 17/51",
        "Post_Office": "Shah Alam",
        "State": "Selangor"
    },
    {
        "Postcode": "40200",
        "Location": "Jalan Puyu 17/8",
        "Post_Office": "Shah Alam",
        "State": "Selangor"
    },
    {
        "Postcode": "40200",
        "Location": "Jalan Ragum 15/17",
        "Post_Office": "Shah Alam",
        "State": "Selangor"
    },
    {
        "Postcode": "40200",
        "Location": "Jalan Relau 16/1",
        "Post_Office": "Shah Alam",
        "State": "Selangor"
    },
    {
        "Postcode": "40200",
        "Location": "Jalan Renggam 15/5",
        "Post_Office": "Shah Alam",
        "State": "Selangor"
    },
    {
        "Postcode": "40200",
        "Location": "Jalan Rinting 18/29",
        "Post_Office": "Shah Alam",
        "State": "Selangor"
    },
    {
        "Postcode": "40200",
        "Location": "Jalan Rivet 15/15",
        "Post_Office": "Shah Alam",
        "State": "Selangor"
    },
    {
        "Postcode": "40200",
        "Location": "Jalan Rotan Air 18/20",
        "Post_Office": "Shah Alam",
        "State": "Selangor"
    },
    {
        "Postcode": "40200",
        "Location": "Jalan Rotan Dahan 18/21",
        "Post_Office": "Shah Alam",
        "State": "Selangor"
    },
    {
        "Postcode": "40200",
        "Location": "Jalan Rotan Gajah 18/22",
        "Post_Office": "Shah Alam",
        "State": "Selangor"
    },
    {
        "Postcode": "40200",
        "Location": "Jalan Rotan Getah 18/23",
        "Post_Office": "Shah Alam",
        "State": "Selangor"
    },
    {
        "Postcode": "40200",
        "Location": "Jalan Rotan Kertung 18/24",
        "Post_Office": "Shah Alam",
        "State": "Selangor"
    },
    {
        "Postcode": "40200",
        "Location": "Jalan Rotan Kertung Satu 18/24A",
        "Post_Office": "Shah Alam",
        "State": "Selangor"
    },
    {
        "Postcode": "40200",
        "Location": "Jalan Rotan Manau 18/25",
        "Post_Office": "Shah Alam",
        "State": "Selangor"
    },
    {
        "Postcode": "40200",
        "Location": "Jalan Rotan Sega 18/26",
        "Post_Office": "Shah Alam",
        "State": "Selangor"
    },
    {
        "Postcode": "40200",
        "Location": "Jalan Rotan Sega Dua 18/26B",
        "Post_Office": "Shah Alam",
        "State": "Selangor"
    },
    {
        "Postcode": "40200",
        "Location": "Jalan Rotan Sega Satu 18/26A",
        "Post_Office": "Shah Alam",
        "State": "Selangor"
    },
    {
        "Postcode": "40200",
        "Location": "Jalan Rotan Semambu 18/27",
        "Post_Office": "Shah Alam",
        "State": "Selangor"
    },
    {
        "Postcode": "40200",
        "Location": "Jalan Rotan Semut 18/28",
        "Post_Office": "Shah Alam",
        "State": "Selangor"
    },
    {
        "Postcode": "40200",
        "Location": "Jalan Rumbia 18/19",
        "Post_Office": "Shah Alam",
        "State": "Selangor"
    },
    {
        "Postcode": "40200",
        "Location": "Jalan Rumbia Dua 18/19B",
        "Post_Office": "Shah Alam",
        "State": "Selangor"
    },
    {
        "Postcode": "40200",
        "Location": "Jalan Rumbia Satu 18/19A",
        "Post_Office": "Shah Alam",
        "State": "Selangor"
    },
    {
        "Postcode": "40200",
        "Location": "Jalan Ruyung 18/31",
        "Post_Office": "Shah Alam",
        "State": "Selangor"
    },
    {
        "Postcode": "40200",
        "Location": "Jalan Sagu 18/17",
        "Post_Office": "Shah Alam",
        "State": "Selangor"
    },
    {
        "Postcode": "40200",
        "Location": "Jalan Salak 18/18",
        "Post_Office": "Shah Alam",
        "State": "Selangor"
    },
    {
        "Postcode": "40200",
        "Location": "Jalan Sebarau 17/6",
        "Post_Office": "Shah Alam",
        "State": "Selangor"
    },
    {
        "Postcode": "40200",
        "Location": "Jalan Selangat 17/27",
        "Post_Office": "Shah Alam",
        "State": "Selangor"
    },
    {
        "Postcode": "40200",
        "Location": "Jalan Selar 17/26",
        "Post_Office": "Shah Alam",
        "State": "Selangor"
    },
    {
        "Postcode": "40200",
        "Location": "Jalan Seluang 17/53",
        "Post_Office": "Shah Alam",
        "State": "Selangor"
    },
    {
        "Postcode": "40200",
        "Location": "Jalan Sembilang 17/31",
        "Post_Office": "Shah Alam",
        "State": "Selangor"
    },
    {
        "Postcode": "40200",
        "Location": "Jalan Sempadan 16/7",
        "Post_Office": "Shah Alam",
        "State": "Selangor"
    },
    {
        "Postcode": "40200",
        "Location": "Jalan Senangin 17/2",
        "Post_Office": "Shah Alam",
        "State": "Selangor"
    },
    {
        "Postcode": "40200",
        "Location": "Jalan Senangin Satu 17/2A",
        "Post_Office": "Shah Alam",
        "State": "Selangor"
    },
    {
        "Postcode": "40200",
        "Location": "Jalan Senohong 17/44",
        "Post_Office": "Shah Alam",
        "State": "Selangor"
    },
    {
        "Postcode": "40200",
        "Location": "Jalan Sepana 15/3",
        "Post_Office": "Shah Alam",
        "State": "Selangor"
    },
    {
        "Postcode": "40200",
        "Location": "Jalan Sepat 17/57",
        "Post_Office": "Shah Alam",
        "State": "Selangor"
    },
    {
        "Postcode": "40200",
        "Location": "Jalan Sepat Satu 17/57A",
        "Post_Office": "Shah Alam",
        "State": "Selangor"
    },
    {
        "Postcode": "40200",
        "Location": "Jalan Serdang 18/15",
        "Post_Office": "Shah Alam",
        "State": "Selangor"
    },
    {
        "Postcode": "40200",
        "Location": "Jalan Serdang Batu 18/47",
        "Post_Office": "Shah Alam",
        "State": "Selangor"
    },
    {
        "Postcode": "40200",
        "Location": "Jalan Serdang Dua 18/15B",
        "Post_Office": "Shah Alam",
        "State": "Selangor"
    },
    {
        "Postcode": "40200",
        "Location": "Jalan Serdang Satu 18/15A",
        "Post_Office": "Shah Alam",
        "State": "Selangor"
    },
    {
        "Postcode": "40200",
        "Location": "Jalan Serdang Tahan 18/10",
        "Post_Office": "Shah Alam",
        "State": "Selangor"
    },
    {
        "Postcode": "40200",
        "Location": "Jalan Serdang Tiga 18/15C",
        "Post_Office": "Shah Alam",
        "State": "Selangor"
    },
    {
        "Postcode": "40200",
        "Location": "Jalan Sesiku 15/2",
        "Post_Office": "Shah Alam",
        "State": "Selangor"
    },
    {
        "Postcode": "40200",
        "Location": "Jalan Siakap 17/39",
        "Post_Office": "Shah Alam",
        "State": "Selangor"
    },
    {
        "Postcode": "40200",
        "Location": "Jalan Siakap Dua 17/39B",
        "Post_Office": "Shah Alam",
        "State": "Selangor"
    },
    {
        "Postcode": "40200",
        "Location": "Jalan Siakap Empat 17/39D",
        "Post_Office": "Shah Alam",
        "State": "Selangor"
    },
    {
        "Postcode": "40200",
        "Location": "Jalan Siakap Satu 17/39A",
        "Post_Office": "Shah Alam",
        "State": "Selangor"
    },
    {
        "Postcode": "40200",
        "Location": "Jalan Siakap Tiga 17/39C",
        "Post_Office": "Shah Alam",
        "State": "Selangor"
    },
    {
        "Postcode": "40200",
        "Location": "Jalan Soket 15/20",
        "Post_Office": "Shah Alam",
        "State": "Selangor"
    },
    {
        "Postcode": "40200",
        "Location": "Jalan Sungai Rasa",
        "Post_Office": "Shah Alam",
        "State": "Selangor"
    },
    {
        "Postcode": "40200",
        "Location": "Jalan Sungai Rasau Lama",
        "Post_Office": "Shah Alam",
        "State": "Selangor"
    },
    {
        "Postcode": "40200",
        "Location": "Jalan Takal 15/21",
        "Post_Office": "Shah Alam",
        "State": "Selangor"
    },
    {
        "Postcode": "40200",
        "Location": "Jalan Talang 17/15",
        "Post_Office": "Shah Alam",
        "State": "Selangor"
    },
    {
        "Postcode": "40200",
        "Location": "Jalan Talapia 17/40",
        "Post_Office": "Shah Alam",
        "State": "Selangor"
    },
    {
        "Postcode": "40200",
        "Location": "Jalan Tamban 17/10",
        "Post_Office": "Shah Alam",
        "State": "Selangor"
    },
    {
        "Postcode": "40200",
        "Location": "Jalan Tegas",
        "Post_Office": "Shah Alam",
        "State": "Selangor"
    },
    {
        "Postcode": "40200",
        "Location": "Jalan Temakung 17/54",
        "Post_Office": "Shah Alam",
        "State": "Selangor"
    },
    {
        "Postcode": "40200",
        "Location": "Jalan Tembakul 17/45",
        "Post_Office": "Shah Alam",
        "State": "Selangor"
    },
    {
        "Postcode": "40200",
        "Location": "Jalan Tembakul Dua 17/45B",
        "Post_Office": "Shah Alam",
        "State": "Selangor"
    },
    {
        "Postcode": "40200",
        "Location": "Jalan Tembakul Satu 17/45A",
        "Post_Office": "Shah Alam",
        "State": "Selangor"
    },
    {
        "Postcode": "40200",
        "Location": "Jalan Tembakul Tiga 17/45C",
        "Post_Office": "Shah Alam",
        "State": "Selangor"
    },
    {
        "Postcode": "40200",
        "Location": "Jalan Tengas 17/56",
        "Post_Office": "Shah Alam",
        "State": "Selangor"
    },
    {
        "Postcode": "40200",
        "Location": "Jalan Tenggiri 17/23",
        "Post_Office": "Shah Alam",
        "State": "Selangor"
    },
    {
        "Postcode": "40200",
        "Location": "Jalan Terubuk 17/33",
        "Post_Office": "Shah Alam",
        "State": "Selangor"
    },
    {
        "Postcode": "40200",
        "Location": "Jalan Terubuk Dua 17/33B",
        "Post_Office": "Shah Alam",
        "State": "Selangor"
    },
    {
        "Postcode": "40200",
        "Location": "Jalan Terubuk Satu 17/33A",
        "Post_Office": "Shah Alam",
        "State": "Selangor"
    },
    {
        "Postcode": "40200",
        "Location": "Jalan Terubuk Tiga 17/33C",
        "Post_Office": "Shah Alam",
        "State": "Selangor"
    },
    {
        "Postcode": "40200",
        "Location": "Jalan Tilau 17/41",
        "Post_Office": "Shah Alam",
        "State": "Selangor"
    },
    {
        "Postcode": "40200",
        "Location": "Jalan Tinggang 17/28",
        "Post_Office": "Shah Alam",
        "State": "Selangor"
    },
    {
        "Postcode": "40200",
        "Location": "Jalan Todak 17/12",
        "Post_Office": "Shah Alam",
        "State": "Selangor"
    },
    {
        "Postcode": "40200",
        "Location": "Jalan Toman 17/58",
        "Post_Office": "Shah Alam",
        "State": "Selangor"
    },
    {
        "Postcode": "40200",
        "Location": "Jalan Toman Dua 17/58B",
        "Post_Office": "Shah Alam",
        "State": "Selangor"
    },
    {
        "Postcode": "40200",
        "Location": "Jalan Toman Empat 17/58D",
        "Post_Office": "Shah Alam",
        "State": "Selangor"
    },
    {
        "Postcode": "40200",
        "Location": "Jalan Toman Satu 17/58A",
        "Post_Office": "Shah Alam",
        "State": "Selangor"
    },
    {
        "Postcode": "40200",
        "Location": "Jalan Toman Tiga 17/58C",
        "Post_Office": "Shah Alam",
        "State": "Selangor"
    },
    {
        "Postcode": "40200",
        "Location": "Jalan Tongkol 17/34",
        "Post_Office": "Shah Alam",
        "State": "Selangor"
    },
    {
        "Postcode": "40200",
        "Location": "Jalan Tongsan 17/18",
        "Post_Office": "Shah Alam",
        "State": "Selangor"
    },
    {
        "Postcode": "40200",
        "Location": "Jalan Tuka 17/9",
        "Post_Office": "Shah Alam",
        "State": "Selangor"
    },
    {
        "Postcode": "40200",
        "Location": "Jalan Tukang 16/4",
        "Post_Office": "Shah Alam",
        "State": "Selangor"
    },
    {
        "Postcode": "40200",
        "Location": "Jalan Tukas 18/34",
        "Post_Office": "Shah Alam",
        "State": "Selangor"
    },
    {
        "Postcode": "40200",
        "Location": "Jalan Tukas Dua 18/34B",
        "Post_Office": "Shah Alam",
        "State": "Selangor"
    },
    {
        "Postcode": "40200",
        "Location": "Jalan Tukas Empat 18/34D",
        "Post_Office": "Shah Alam",
        "State": "Selangor"
    },
    {
        "Postcode": "40200",
        "Location": "Jalan Tukas Satu 18/34A",
        "Post_Office": "Shah Alam",
        "State": "Selangor"
    },
    {
        "Postcode": "40200",
        "Location": "Jalan Tukas Tiga 18/34C",
        "Post_Office": "Shah Alam",
        "State": "Selangor"
    },
    {
        "Postcode": "40200",
        "Location": "Jalan Tukul 16/5",
        "Post_Office": "Shah Alam",
        "State": "Selangor"
    },
    {
        "Postcode": "40200",
        "Location": "Jalan Turi 18/30",
        "Post_Office": "Shah Alam",
        "State": "Selangor"
    },
    {
        "Postcode": "40200",
        "Location": "Jalan Utas 15/7",
        "Post_Office": "Shah Alam",
        "State": "Selangor"
    },
    {
        "Postcode": "40200",
        "Location": "Jalan Utas A 15/A",
        "Post_Office": "Shah Alam",
        "State": "Selangor"
    },
    {
        "Postcode": "40200",
        "Location": "Jalan Utas B 15/B",
        "Post_Office": "Shah Alam",
        "State": "Selangor"
    },
    {
        "Postcode": "40200",
        "Location": "Jalan Utas C 15/C",
        "Post_Office": "Shah Alam",
        "State": "Selangor"
    },
    {
        "Postcode": "40200",
        "Location": "Jalan Utas D 15/D",
        "Post_Office": "Shah Alam",
        "State": "Selangor"
    },
    {
        "Postcode": "40200",
        "Location": "Kampung Air Kuning ",
        "Post_Office": "Shah Alam",
        "State": "Selangor"
    },
    {
        "Postcode": "40200",
        "Location": "Kampung Karuppiah",
        "Post_Office": "Shah Alam",
        "State": "Selangor"
    },
    {
        "Postcode": "40200",
        "Location": "Kampung Muhibbah",
        "Post_Office": "Shah Alam",
        "State": "Selangor"
    },
    {
        "Postcode": "40200",
        "Location": "Kampung Padang Jawa",
        "Post_Office": "Shah Alam",
        "State": "Selangor"
    },
    {
        "Postcode": "40200",
        "Location": "Kampung Rambutan",
        "Post_Office": "Shah Alam",
        "State": "Selangor"
    },
    {
        "Postcode": "40200",
        "Location": "Kampung Rimba Jaya",
        "Post_Office": "Shah Alam",
        "State": "Selangor"
    },
    {
        "Postcode": "40200",
        "Location": "Ladang Midlands",
        "Post_Office": "Shah Alam",
        "State": "Selangor"
    },
    {
        "Postcode": "40200",
        "Location": "Lorong Cendana",
        "Post_Office": "Shah Alam",
        "State": "Selangor"
    },
    {
        "Postcode": "40200",
        "Location": "Lorong Sri Aman",
        "Post_Office": "Shah Alam",
        "State": "Selangor"
    },
    {
        "Postcode": "40200",
        "Location": "Padang Jawa",
        "Post_Office": "Shah Alam",
        "State": "Selangor"
    },
    {
        "Postcode": "40200",
        "Location": "Persiaran Kemajuan",
        "Post_Office": "Shah Alam",
        "State": "Selangor"
    },
    {
        "Postcode": "40200",
        "Location": "Persiaran Raja Muda",
        "Post_Office": "Shah Alam",
        "State": "Selangor"
    },
    {
        "Postcode": "40200",
        "Location": "Persiaran Selangor",
        "Post_Office": "Shah Alam",
        "State": "Selangor"
    },
    {
        "Postcode": "40200",
        "Location": "Persiaran Sultan",
        "Post_Office": "Shah Alam",
        "State": "Selangor"
    },
    {
        "Postcode": "40200",
        "Location": "Taman Ganesan",
        "Post_Office": "Shah Alam",
        "State": "Selangor"
    },
    {
        "Postcode": "40200",
        "Location": "Taman Karupiah",
        "Post_Office": "Shah Alam",
        "State": "Selangor"
    },
    {
        "Postcode": "40200",
        "Location": "Taman Marimaran",
        "Post_Office": "Shah Alam",
        "State": "Selangor"
    }
]
