[
    {
        "Postcode": "40300",
        "Location": "Jalan Subang Utama 2",
        "Post_Office": "Shah Alam",
        "State": "Selangor"
    },
    {
        "Postcode": "40300",
        "Location": "Jalan Subang Utama 3",
        "Post_Office": "Shah Alam",
        "State": "Selangor"
    },
    {
        "Postcode": "40300",
        "Location": "Jalan Subang Utama 4",
        "Post_Office": "Shah Alam",
        "State": "Selangor"
    },
    {
        "Postcode": "40300",
        "Location": "Jalan Subang Utama 5",
        "Post_Office": "Shah Alam",
        "State": "Selangor"
    },
    {
        "Postcode": "40300",
        "Location": "Jalan Subang Utama 6",
        "Post_Office": "Shah Alam",
        "State": "Selangor"
    },
    {
        "Postcode": "40300",
        "Location": "Jalan Subang Utama 7",
        "Post_Office": "Shah Alam",
        "State": "Selangor"
    },
    {
        "Postcode": "40300",
        "Location": "Jalan Subang Utama 8",
        "Post_Office": "Shah Alam",
        "State": "Selangor"
    },
    {
        "Postcode": "40300",
        "Location": "Seksyen 20",
        "Post_Office": "Shah Alam",
        "State": "Selangor"
    },
    {
        "Postcode": "40300",
        "Location": "Seksyen 21",
        "Post_Office": "Shah Alam",
        "State": "Selangor"
    },
    {
        "Postcode": "40300",
        "Location": "Seksyen 23",
        "Post_Office": "Shah Alam",
        "State": "Selangor"
    },
    {
        "Postcode": "40300",
        "Location": "Seksyen 24",
        "Post_Office": "Shah Alam",
        "State": "Selangor"
    },
    {
        "Postcode": "40300",
        "Location": "Persiaran Jubli Perak",
        "Post_Office": "Shah Alam",
        "State": "Selangor"
    },
    {
        "Postcode": "40300",
        "Location": "Jalan Sawi Empat 24/18D",
        "Post_Office": "Shah Alam",
        "State": "Selangor"
    },
    {
        "Postcode": "40300",
        "Location": "Jalan Sawi Lima 24/18E",
        "Post_Office": "Shah Alam",
        "State": "Selangor"
    },
    {
        "Postcode": "40300",
        "Location": "Jalan Sawi Satu 24/18A",
        "Post_Office": "Shah Alam",
        "State": "Selangor"
    },
    {
        "Postcode": "40300",
        "Location": "Jalan Sawi Tiga 24/18C",
        "Post_Office": "Shah Alam",
        "State": "Selangor"
    },
    {
        "Postcode": "40300",
        "Location": "Jalan Sengkuang 24/23",
        "Post_Office": "Shah Alam",
        "State": "Selangor"
    },
    {
        "Postcode": "40300",
        "Location": "Jalan Serigala 20/20",
        "Post_Office": "Shah Alam",
        "State": "Selangor"
    },
    {
        "Postcode": "40300",
        "Location": "Jalan Serkap 19/42",
        "Post_Office": "Shah Alam",
        "State": "Selangor"
    },
    {
        "Postcode": "40300",
        "Location": "Jalan Singa  A 20/A",
        "Post_Office": "Shah Alam",
        "State": "Selangor"
    },
    {
        "Postcode": "40300",
        "Location": "Jalan Singa  B 20/B",
        "Post_Office": "Shah Alam",
        "State": "Selangor"
    },
    {
        "Postcode": "40300",
        "Location": "Jalan Singa  C 20/C",
        "Post_Office": "Shah Alam",
        "State": "Selangor"
    },
    {
        "Postcode": "40300",
        "Location": "Jalan Singa  D 20/D",
        "Post_Office": "Shah Alam",
        "State": "Selangor"
    },
    {
        "Postcode": "40300",
        "Location": "Jalan Singa  E 20/E",
        "Post_Office": "Shah Alam",
        "State": "Selangor"
    },
    {
        "Postcode": "40300",
        "Location": "Jalan Singa  F 20/F",
        "Post_Office": "Shah Alam",
        "State": "Selangor"
    },
    {
        "Postcode": "40300",
        "Location": "Jalan Singa  G 20/G",
        "Post_Office": "Shah Alam",
        "State": "Selangor"
    },
    {
        "Postcode": "40300",
        "Location": "Jalan Singa 20/1",
        "Post_Office": "Shah Alam",
        "State": "Selangor"
    },
    {
        "Postcode": "40300",
        "Location": "Jalan Sulam 19/14",
        "Post_Office": "Shah Alam",
        "State": "Selangor"
    },
    {
        "Postcode": "40300",
        "Location": "Jalan Sulam Dua 19/14B",
        "Post_Office": "Shah Alam",
        "State": "Selangor"
    },
    {
        "Postcode": "40300",
        "Location": "Jalan Sulam Empat 19/14D",
        "Post_Office": "Shah Alam",
        "State": "Selangor"
    },
    {
        "Postcode": "40300",
        "Location": "Jalan Sulam Satu 19/14A",
        "Post_Office": "Shah Alam",
        "State": "Selangor"
    },
    {
        "Postcode": "40300",
        "Location": "Jalan Sulam Tiga 19/14C",
        "Post_Office": "Shah Alam",
        "State": "Selangor"
    },
    {
        "Postcode": "40300",
        "Location": "Jalan Tajak 19/4",
        "Post_Office": "Shah Alam",
        "State": "Selangor"
    },
    {
        "Postcode": "40300",
        "Location": "Jalan Tajak Dua 19/4B",
        "Post_Office": "Shah Alam",
        "State": "Selangor"
    },
    {
        "Postcode": "40300",
        "Location": "Jalan Tajak Empat 19/4D",
        "Post_Office": "Shah Alam",
        "State": "Selangor"
    },
    {
        "Postcode": "40300",
        "Location": "Jalan Tajak Satu 19/4A",
        "Post_Office": "Shah Alam",
        "State": "Selangor"
    },
    {
        "Postcode": "40300",
        "Location": "Jalan Tajak Tiga 19/4C",
        "Post_Office": "Shah Alam",
        "State": "Selangor"
    },
    {
        "Postcode": "40300",
        "Location": "Jalan Tambatan 19/16",
        "Post_Office": "Shah Alam",
        "State": "Selangor"
    },
    {
        "Postcode": "40300",
        "Location": "Jalan Tangguk 19/36",
        "Post_Office": "Shah Alam",
        "State": "Selangor"
    },
    {
        "Postcode": "40300",
        "Location": "Jalan Tangkul 19/21",
        "Post_Office": "Shah Alam",
        "State": "Selangor"
    },
    {
        "Postcode": "40300",
        "Location": "Jalan Tangsi 19/25",
        "Post_Office": "Shah Alam",
        "State": "Selangor"
    },
    {
        "Postcode": "40300",
        "Location": "Jalan Tapir 20/3",
        "Post_Office": "Shah Alam",
        "State": "Selangor"
    },
    {
        "Postcode": "40300",
        "Location": "Jalan Tenggala 19/10",
        "Post_Office": "Shah Alam",
        "State": "Selangor"
    },
    {
        "Postcode": "40300",
        "Location": "Jalan Tenggiling 20/4",
        "Post_Office": "Shah Alam",
        "State": "Selangor"
    },
    {
        "Postcode": "40300",
        "Location": "Jalan Tenun 19/19",
        "Post_Office": "Shah Alam",
        "State": "Selangor"
    },
    {
        "Postcode": "40300",
        "Location": "Jalan Timun 24/1",
        "Post_Office": "Shah Alam",
        "State": "Selangor"
    },
    {
        "Postcode": "40300",
        "Location": "Jalan Timun A 24/A",
        "Post_Office": "Shah Alam",
        "State": "Selangor"
    },
    {
        "Postcode": "40300",
        "Location": "Jalan Timun B 24/B",
        "Post_Office": "Shah Alam",
        "State": "Selangor"
    },
    {
        "Postcode": "40300",
        "Location": "Jalan Timun C 24/C",
        "Post_Office": "Shah Alam",
        "State": "Selangor"
    },
    {
        "Postcode": "40300",
        "Location": "Jalan Timun D 24/D",
        "Post_Office": "Shah Alam",
        "State": "Selangor"
    },
    {
        "Postcode": "40300",
        "Location": "Jalan Timun E 24/E",
        "Post_Office": "Shah Alam",
        "State": "Selangor"
    },
    {
        "Postcode": "40300",
        "Location": "Jalan Timun F 24/F",
        "Post_Office": "Shah Alam",
        "State": "Selangor"
    },
    {
        "Postcode": "40300",
        "Location": "Jalan Timun Satu 24/1A",
        "Post_Office": "Shah Alam",
        "State": "Selangor"
    },
    {
        "Postcode": "40300",
        "Location": "Jalan Tomato 24/5",
        "Post_Office": "Shah Alam",
        "State": "Selangor"
    },
    {
        "Postcode": "40300",
        "Location": "Jalan Tuntung 20/11",
        "Post_Office": "Shah Alam",
        "State": "Selangor"
    },
    {
        "Postcode": "40300",
        "Location": "Jalan Tuntung Dua 20/11B",
        "Post_Office": "Shah Alam",
        "State": "Selangor"
    },
    {
        "Postcode": "40300",
        "Location": "Jalan Tuntung Satu 20/11A",
        "Post_Office": "Shah Alam",
        "State": "Selangor"
    },
    {
        "Postcode": "40300",
        "Location": "Jalan Tuntung Tiga 20/11C",
        "Post_Office": "Shah Alam",
        "State": "Selangor"
    },
    {
        "Postcode": "40300",
        "Location": "Jalan Tupai 20/16",
        "Post_Office": "Shah Alam",
        "State": "Selangor"
    },
    {
        "Postcode": "40300",
        "Location": "Jalan Tupai Satu 20/16A",
        "Post_Office": "Shah Alam",
        "State": "Selangor"
    },
    {
        "Postcode": "40300",
        "Location": "Jalan Umbut 24/22",
        "Post_Office": "Shah Alam",
        "State": "Selangor"
    },
    {
        "Postcode": "40300",
        "Location": "Kampung Sungai Nipah (Batu 3)",
        "Post_Office": "Shah Alam",
        "State": "Selangor"
    },
    {
        "Postcode": "40300",
        "Location": "Persiaran Perkilangan",
        "Post_Office": "Shah Alam",
        "State": "Selangor"
    },
    {
        "Postcode": "40300",
        "Location": "Persiaran Perusahaan",
        "Post_Office": "Shah Alam",
        "State": "Selangor"
    },
    {
        "Postcode": "40300",
        "Location": "Jalan Analisis 23/13",
        "Post_Office": "Shah Alam",
        "State": "Selangor"
    },
    {
        "Postcode": "40300",
        "Location": "Jalan Analisis Dua 23/13B",
        "Post_Office": "Shah Alam",
        "State": "Selangor"
    },
    {
        "Postcode": "40300",
        "Location": "Jalan Analisis Satu 23/13A",
        "Post_Office": "Shah Alam",
        "State": "Selangor"
    },
    {
        "Postcode": "40300",
        "Location": "Jalan Belalang Enam 20/7F",
        "Post_Office": "Shah Alam",
        "State": "Selangor"
    },
    {
        "Postcode": "40300",
        "Location": "Jalan Belalang Tujuh 20/7G",
        "Post_Office": "Shah Alam",
        "State": "Selangor"
    },
    {
        "Postcode": "40300",
        "Location": "Jalan Belanja 23/10",
        "Post_Office": "Shah Alam",
        "State": "Selangor"
    },
    {
        "Postcode": "40300",
        "Location": "Jalan Bonus 23/7",
        "Post_Office": "Shah Alam",
        "State": "Selangor"
    },
    {
        "Postcode": "40300",
        "Location": "Jalan Bonus Satu 23/7A",
        "Post_Office": "Shah Alam",
        "State": "Selangor"
    },
    {
        "Postcode": "40300",
        "Location": "Jalan Budiman 22/3",
        "Post_Office": "Shah Alam",
        "State": "Selangor"
    },
    {
        "Postcode": "40300",
        "Location": "Jalan Dividen 23/6",
        "Post_Office": "Shah Alam",
        "State": "Selangor"
    },
    {
        "Postcode": "40300",
        "Location": "Jalan Dividen Dua 23/6B",
        "Post_Office": "Shah Alam",
        "State": "Selangor"
    },
    {
        "Postcode": "40300",
        "Location": "Jalan Dividen Satu 23/6A",
        "Post_Office": "Shah Alam",
        "State": "Selangor"
    },
    {
        "Postcode": "40300",
        "Location": "Jalan Dividen Tiga 23/6C",
        "Post_Office": "Shah Alam",
        "State": "Selangor"
    },
    {
        "Postcode": "40300",
        "Location": "Jalan Laba 23/14",
        "Post_Office": "Shah Alam",
        "State": "Selangor"
    },
    {
        "Postcode": "40300",
        "Location": "Jalan Laba Dua 23/14B",
        "Post_Office": "Shah Alam",
        "State": "Selangor"
    },
    {
        "Postcode": "40300",
        "Location": "Jalan Laba Satu 23/14A",
        "Post_Office": "Shah Alam",
        "State": "Selangor"
    },
    {
        "Postcode": "40300",
        "Location": "Jalan Laba Tiga 23/14C",
        "Post_Office": "Shah Alam",
        "State": "Selangor"
    },
    {
        "Postcode": "40300",
        "Location": "Jalan Lobak 24/19",
        "Post_Office": "Shah Alam",
        "State": "Selangor"
    },
    {
        "Postcode": "40300",
        "Location": "Jalan Pakis 24/37",
        "Post_Office": "Shah Alam",
        "State": "Selangor"
    },
    {
        "Postcode": "40300",
        "Location": "Jalan Pakis 24/37A",
        "Post_Office": "Shah Alam",
        "State": "Selangor"
    },
    {
        "Postcode": "40300",
        "Location": "Jalan Pakis 24/37B",
        "Post_Office": "Shah Alam",
        "State": "Selangor"
    },
    {
        "Postcode": "40300",
        "Location": "Jalan Pakis 24/38",
        "Post_Office": "Shah Alam",
        "State": "Selangor"
    },
    {
        "Postcode": "40300",
        "Location": "Jalan Pakis 24/38B",
        "Post_Office": "Shah Alam",
        "State": "Selangor"
    },
    {
        "Postcode": "40300",
        "Location": "Jalan Parang Dua 19/8B",
        "Post_Office": "Shah Alam",
        "State": "Selangor"
    },
    {
        "Postcode": "40300",
        "Location": "Jalan Parang Empat 19/8D",
        "Post_Office": "Shah Alam",
        "State": "Selangor"
    },
    {
        "Postcode": "40300",
        "Location": "Jalan Parang Satu 19/8A",
        "Post_Office": "Shah Alam",
        "State": "Selangor"
    },
    {
        "Postcode": "40300",
        "Location": "Jalan Parang Tiga 19/8C",
        "Post_Office": "Shah Alam",
        "State": "Selangor"
    },
    {
        "Postcode": "40300",
        "Location": "Jalan Pelabur A 23/A",
        "Post_Office": "Shah Alam",
        "State": "Selangor"
    },
    {
        "Postcode": "40300",
        "Location": "Jalan Pelabur B 23/B",
        "Post_Office": "Shah Alam",
        "State": "Selangor"
    },
    {
        "Postcode": "40300",
        "Location": "Jalan Perdagangan 22/2",
        "Post_Office": "Shah Alam",
        "State": "Selangor"
    },
    {
        "Postcode": "40300",
        "Location": "Jalan Pusara 21/1",
        "Post_Office": "Shah Alam",
        "State": "Selangor"
    },
    {
        "Postcode": "40300",
        "Location": "Jalan Pusara Dua 21/1B",
        "Post_Office": "Shah Alam",
        "State": "Selangor"
    },
    {
        "Postcode": "40300",
        "Location": "Jalan Pusara Empat 21/1D",
        "Post_Office": "Shah Alam",
        "State": "Selangor"
    },
    {
        "Postcode": "40300",
        "Location": "Jalan Pusara Satu 21/1A",
        "Post_Office": "Shah Alam",
        "State": "Selangor"
    },
    {
        "Postcode": "40300",
        "Location": "Jalan Pusara Tiga 21/1C",
        "Post_Office": "Shah Alam",
        "State": "Selangor"
    },
    {
        "Postcode": "40300",
        "Location": "Jalan Ringgit 23/11",
        "Post_Office": "Shah Alam",
        "State": "Selangor"
    },
    {
        "Postcode": "40300",
        "Location": "Jalan Sawi Enam 24/18F",
        "Post_Office": "Shah Alam",
        "State": "Selangor"
    },
    {
        "Postcode": "40300",
        "Location": "Jalan Subang Utama 6A",
        "Post_Office": "Shah Alam",
        "State": "Selangor"
    },
    {
        "Postcode": "40300",
        "Location": "Jalan Subang Utama 8A",
        "Post_Office": "Shah Alam",
        "State": "Selangor"
    },
    {
        "Postcode": "40300",
        "Location": "Jalan Tajak Lima 19/4E",
        "Post_Office": "Shah Alam",
        "State": "Selangor"
    },
    {
        "Postcode": "40300",
        "Location": "Jalan Tarif 23/8",
        "Post_Office": "Shah Alam",
        "State": "Selangor"
    },
    {
        "Postcode": "40300",
        "Location": "Jalan Tarif Dua 23/8B",
        "Post_Office": "Shah Alam",
        "State": "Selangor"
    },
    {
        "Postcode": "40300",
        "Location": "Jalan Tarif Empat 23/8D",
        "Post_Office": "Shah Alam",
        "State": "Selangor"
    },
    {
        "Postcode": "40300",
        "Location": "Jalan Tarif Satu 23/8A",
        "Post_Office": "Shah Alam",
        "State": "Selangor"
    },
    {
        "Postcode": "40300",
        "Location": "Jalan Tarif Tiga 23/8C",
        "Post_Office": "Shah Alam",
        "State": "Selangor"
    },
    {
        "Postcode": "40300",
        "Location": "Jalan Kancil 20/17",
        "Post_Office": "Shah Alam",
        "State": "Selangor"
    },
    {
        "Postcode": "40300",
        "Location": "Jalan Kemajuan 22/4",
        "Post_Office": "Shah Alam",
        "State": "Selangor"
    },
    {
        "Postcode": "40300",
        "Location": "V Residensi 2",
        "Post_Office": "Shah Alam",
        "State": "Selangor"
    },
    {
        "Postcode": "40300",
        "Location": "Seksyen 19",
        "Post_Office": "Shah Alam",
        "State": "Selangor"
    },
    {
        "Postcode": "40300",
        "Location": "Jalan Labu 24/10",
        "Post_Office": "Shah Alam",
        "State": "Selangor"
    },
    {
        "Postcode": "40300",
        "Location": "Jalan Asparagus 24/11",
        "Post_Office": "Shah Alam",
        "State": "Selangor"
    },
    {
        "Postcode": "40300",
        "Location": "Jalan Bahara 23/47",
        "Post_Office": "Shah Alam",
        "State": "Selangor"
    },
    {
        "Postcode": "40300",
        "Location": "Jalan Bahas 23/15",
        "Post_Office": "Shah Alam",
        "State": "Selangor"
    },
    {
        "Postcode": "40300",
        "Location": "Jalan Bakul 19/39",
        "Post_Office": "Shah Alam",
        "State": "Selangor"
    },
    {
        "Postcode": "40300",
        "Location": "Jalan Batas 19/6",
        "Post_Office": "Shah Alam",
        "State": "Selangor"
    },
    {
        "Postcode": "40300",
        "Location": "Jalan Batas Dua 19/6B",
        "Post_Office": "Shah Alam",
        "State": "Selangor"
    },
    {
        "Postcode": "40300",
        "Location": "Jalan Batas Satu 19/6A",
        "Post_Office": "Shah Alam",
        "State": "Selangor"
    },
    {
        "Postcode": "40300",
        "Location": "Jalan Bawang 24/33",
        "Post_Office": "Shah Alam",
        "State": "Selangor"
    },
    {
        "Postcode": "40300",
        "Location": "Jalan Bawang Besar 24/35",
        "Post_Office": "Shah Alam",
        "State": "Selangor"
    },
    {
        "Postcode": "40300",
        "Location": "Jalan Bawang Dua 24/33B",
        "Post_Office": "Shah Alam",
        "State": "Selangor"
    },
    {
        "Postcode": "40300",
        "Location": "Jalan Bawang Merah 24/36",
        "Post_Office": "Shah Alam",
        "State": "Selangor"
    },
    {
        "Postcode": "40300",
        "Location": "Jalan Bawang Putih 24/34",
        "Post_Office": "Shah Alam",
        "State": "Selangor"
    },
    {
        "Postcode": "40300",
        "Location": "Jalan Bawang Satu 24/33A",
        "Post_Office": "Shah Alam",
        "State": "Selangor"
    },
    {
        "Postcode": "40300",
        "Location": "Jalan Bawang Tiga 24/33C",
        "Post_Office": "Shah Alam",
        "State": "Selangor"
    },
    {
        "Postcode": "40300",
        "Location": "Jalan Bayam 24/3",
        "Post_Office": "Shah Alam",
        "State": "Selangor"
    },
    {
        "Postcode": "40300",
        "Location": "Jalan Bayam Dua 24/3B",
        "Post_Office": "Shah Alam",
        "State": "Selangor"
    },
    {
        "Postcode": "40300",
        "Location": "Jalan Bayam Empat 24/3D",
        "Post_Office": "Shah Alam",
        "State": "Selangor"
    },
    {
        "Postcode": "40300",
        "Location": "Jalan Bayam Merah 24/2",
        "Post_Office": "Shah Alam",
        "State": "Selangor"
    },
    {
        "Postcode": "40300",
        "Location": "Jalan Bayam Pasir 24/4",
        "Post_Office": "Shah Alam",
        "State": "Selangor"
    },
    {
        "Postcode": "40300",
        "Location": "Jalan Bayam Satu 24/3A",
        "Post_Office": "Shah Alam",
        "State": "Selangor"
    },
    {
        "Postcode": "40300",
        "Location": "Jalan Bayam Tiga 24/3C",
        "Post_Office": "Shah Alam",
        "State": "Selangor"
    },
    {
        "Postcode": "40300",
        "Location": "Jalan Belalang 20/7",
        "Post_Office": "Shah Alam",
        "State": "Selangor"
    },
    {
        "Postcode": "40300",
        "Location": "Jalan Belalang Dua 20/7B",
        "Post_Office": "Shah Alam",
        "State": "Selangor"
    },
    {
        "Postcode": "40300",
        "Location": "Jalan Belalang Empat 20/7D",
        "Post_Office": "Shah Alam",
        "State": "Selangor"
    },
    {
        "Postcode": "40300",
        "Location": "Jalan Belalang Lima 20/7E",
        "Post_Office": "Shah Alam",
        "State": "Selangor"
    },
    {
        "Postcode": "40300",
        "Location": "Jalan Belalang Satu 20/7A",
        "Post_Office": "Shah Alam",
        "State": "Selangor"
    },
    {
        "Postcode": "40300",
        "Location": "Jalan Belalang Tiga 20/7C",
        "Post_Office": "Shah Alam",
        "State": "Selangor"
    },
    {
        "Postcode": "40300",
        "Location": "Jalan Belat 19/32",
        "Post_Office": "Shah Alam",
        "State": "Selangor"
    },
    {
        "Postcode": "40300",
        "Location": "Jalan Belat Dua 19/32B",
        "Post_Office": "Shah Alam",
        "State": "Selangor"
    },
    {
        "Postcode": "40300",
        "Location": "Jalan Belat Satu 19/32A",
        "Post_Office": "Shah Alam",
        "State": "Selangor"
    },
    {
        "Postcode": "40300",
        "Location": "Jalan Belat Tiga 19/32C",
        "Post_Office": "Shah Alam",
        "State": "Selangor"
    },
    {
        "Postcode": "40300",
        "Location": "Jalan Bendi 24/15",
        "Post_Office": "Shah Alam",
        "State": "Selangor"
    },
    {
        "Postcode": "40300",
        "Location": "Jalan Bendi Dua 24/15B",
        "Post_Office": "Shah Alam",
        "State": "Selangor"
    },
    {
        "Postcode": "40300",
        "Location": "Jalan Bendi Satu 24/15A",
        "Post_Office": "Shah Alam",
        "State": "Selangor"
    },
    {
        "Postcode": "40300",
        "Location": "Jalan Biapuh 20/10",
        "Post_Office": "Shah Alam",
        "State": "Selangor"
    },
    {
        "Postcode": "40300",
        "Location": "Jalan Biduk 19/34",
        "Post_Office": "Shah Alam",
        "State": "Selangor"
    },
    {
        "Postcode": "40300",
        "Location": "Jalan Bingka 22/1",
        "Post_Office": "Shah Alam",
        "State": "Selangor"
    },
    {
        "Postcode": "40300",
        "Location": "Jalan Bubu 19/27",
        "Post_Office": "Shah Alam",
        "State": "Selangor"
    },
    {
        "Postcode": "40300",
        "Location": "Jalan Bursa 23/4",
        "Post_Office": "Shah Alam",
        "State": "Selangor"
    },
    {
        "Postcode": "40300",
        "Location": "Jalan Cangkul 19/3",
        "Post_Office": "Shah Alam",
        "State": "Selangor"
    },
    {
        "Postcode": "40300",
        "Location": "Jalan Cekur Manis 24/12",
        "Post_Office": "Shah Alam",
        "State": "Selangor"
    },
    {
        "Postcode": "40300",
        "Location": "Jalan Chengkerek Satu 20/43A",
        "Post_Office": "Shah Alam",
        "State": "Selangor"
    },
    {
        "Postcode": "40300",
        "Location": "Jalan Cili 24/28",
        "Post_Office": "Shah Alam",
        "State": "Selangor"
    },
    {
        "Postcode": "40300",
        "Location": "Jalan Cili Bunga 24/25",
        "Post_Office": "Shah Alam",
        "State": "Selangor"
    },
    {
        "Postcode": "40300",
        "Location": "Jalan Cili Dua 24/28B",
        "Post_Office": "Shah Alam",
        "State": "Selangor"
    },
    {
        "Postcode": "40300",
        "Location": "Jalan Cili Empat 24/28D",
        "Post_Office": "Shah Alam",
        "State": "Selangor"
    },
    {
        "Postcode": "40300",
        "Location": "Jalan Cili Enam 24/28F",
        "Post_Office": "Shah Alam",
        "State": "Selangor"
    },
    {
        "Postcode": "40300",
        "Location": "Jalan Cili Hijau 24/27",
        "Post_Office": "Shah Alam",
        "State": "Selangor"
    },
    {
        "Postcode": "40300",
        "Location": "Jalan Cili Lima 24/28E",
        "Post_Office": "Shah Alam",
        "State": "Selangor"
    },
    {
        "Postcode": "40300",
        "Location": "Jalan Cili Merah 24/26",
        "Post_Office": "Shah Alam",
        "State": "Selangor"
    },
    {
        "Postcode": "40300",
        "Location": "Jalan Cili Padi 24/24",
        "Post_Office": "Shah Alam",
        "State": "Selangor"
    },
    {
        "Postcode": "40300",
        "Location": "Jalan Cili Satu 24/28A",
        "Post_Office": "Shah Alam",
        "State": "Selangor"
    },
    {
        "Postcode": "40300",
        "Location": "Jalan Cili Tiga 24/28C",
        "Post_Office": "Shah Alam",
        "State": "Selangor"
    },
    {
        "Postcode": "40300",
        "Location": "Jalan Cuban 19/20",
        "Post_Office": "Shah Alam",
        "State": "Selangor"
    },
    {
        "Postcode": "40300",
        "Location": "Jalan Dagangan 23/12",
        "Post_Office": "Shah Alam",
        "State": "Selangor"
    },
    {
        "Postcode": "40300",
        "Location": "Jalan Dayung 19/40",
        "Post_Office": "Shah Alam",
        "State": "Selangor"
    },
    {
        "Postcode": "40300",
        "Location": "Jalan Gajah 20/21",
        "Post_Office": "Shah Alam",
        "State": "Selangor"
    },
    {
        "Postcode": "40300",
        "Location": "Jalan Gelora 19/46",
        "Post_Office": "Shah Alam",
        "State": "Selangor"
    },
    {
        "Postcode": "40300",
        "Location": "Jalan Gembala 19/9",
        "Post_Office": "Shah Alam",
        "State": "Selangor"
    },
    {
        "Postcode": "40300",
        "Location": "Jalan Gembala Dua 19/9B",
        "Post_Office": "Shah Alam",
        "State": "Selangor"
    },
    {
        "Postcode": "40300",
        "Location": "Jalan Gembala Empat 19/9D",
        "Post_Office": "Shah Alam",
        "State": "Selangor"
    },
    {
        "Postcode": "40300",
        "Location": "Jalan Gembala Lima 19/9E",
        "Post_Office": "Shah Alam",
        "State": "Selangor"
    },
    {
        "Postcode": "40300",
        "Location": "Jalan Gembala Satu 19/9A",
        "Post_Office": "Shah Alam",
        "State": "Selangor"
    },
    {
        "Postcode": "40300",
        "Location": "Jalan Gembala Tiga 19/9C",
        "Post_Office": "Shah Alam",
        "State": "Selangor"
    },
    {
        "Postcode": "40300",
        "Location": "Jalan Geti 24/16",
        "Post_Office": "Shah Alam",
        "State": "Selangor"
    },
    {
        "Postcode": "40300",
        "Location": "Jalan Haluan 19/47",
        "Post_Office": "Shah Alam",
        "State": "Selangor"
    },
    {
        "Postcode": "40300",
        "Location": "Jalan Jala 19/17",
        "Post_Office": "Shah Alam",
        "State": "Selangor"
    },
    {
        "Postcode": "40300",
        "Location": "Jalan Jaring 19/37",
        "Post_Office": "Shah Alam",
        "State": "Selangor"
    },
    {
        "Postcode": "40300",
        "Location": "Jalan Jong 19/49",
        "Post_Office": "Shah Alam",
        "State": "Selangor"
    },
    {
        "Postcode": "40300",
        "Location": "Jalan Joran 19/24",
        "Post_Office": "Shah Alam",
        "State": "Selangor"
    },
    {
        "Postcode": "40300",
        "Location": "Jalan Joran Dua 19/24B",
        "Post_Office": "Shah Alam",
        "State": "Selangor"
    },
    {
        "Postcode": "40300",
        "Location": "Jalan Joran Empat 19/24D",
        "Post_Office": "Shah Alam",
        "State": "Selangor"
    },
    {
        "Postcode": "40300",
        "Location": "Jalan Joran Satu 19/24A",
        "Post_Office": "Shah Alam",
        "State": "Selangor"
    },
    {
        "Postcode": "40300",
        "Location": "Jalan Joran Tiga 19/24C",
        "Post_Office": "Shah Alam",
        "State": "Selangor"
    },
    {
        "Postcode": "40300",
        "Location": "Jalan Jubli Perak 22/1",
        "Post_Office": "Shah Alam",
        "State": "Selangor"
    },
    {
        "Postcode": "40300",
        "Location": "Jalan Kail 19/33",
        "Post_Office": "Shah Alam",
        "State": "Selangor"
    },
    {
        "Postcode": "40300",
        "Location": "Jalan Kail Satu 19/33A",
        "Post_Office": "Shah Alam",
        "State": "Selangor"
    },
    {
        "Postcode": "40300",
        "Location": "Jalan Kangkong 24/6",
        "Post_Office": "Shah Alam",
        "State": "Selangor"
    },
    {
        "Postcode": "40300",
        "Location": "Jalan Kangkong Puteri 24/7",
        "Post_Office": "Shah Alam",
        "State": "Selangor"
    },
    {
        "Postcode": "40300",
        "Location": "Jalan Kangkung Puteri Dua 24/7B",
        "Post_Office": "Shah Alam",
        "State": "Selangor"
    },
    {
        "Postcode": "40300",
        "Location": "Jalan Kangkung Puteri Satu 24/7A",
        "Post_Office": "Shah Alam",
        "State": "Selangor"
    },
    {
        "Postcode": "40300",
        "Location": "Jalan Kemudi 19/38",
        "Post_Office": "Shah Alam",
        "State": "Selangor"
    },
    {
        "Postcode": "40300",
        "Location": "Jalan Kemudi Satu 19/38A",
        "Post_Office": "Shah Alam",
        "State": "Selangor"
    },
    {
        "Postcode": "40300",
        "Location": "Jalan Kepuk 19/2",
        "Post_Office": "Shah Alam",
        "State": "Selangor"
    },
    {
        "Postcode": "40300",
        "Location": "Jalan Kepuk Dua 19/2B",
        "Post_Office": "Shah Alam",
        "State": "Selangor"
    },
    {
        "Postcode": "40300",
        "Location": "Jalan Kepuk Empat 19/2D",
        "Post_Office": "Shah Alam",
        "State": "Selangor"
    },
    {
        "Postcode": "40300",
        "Location": "Jalan Kepuk Lima 19/2E",
        "Post_Office": "Shah Alam",
        "State": "Selangor"
    },
    {
        "Postcode": "40300",
        "Location": "Jalan Kepuk Satu 19/2A",
        "Post_Office": "Shah Alam",
        "State": "Selangor"
    },
    {
        "Postcode": "40300",
        "Location": "Jalan Kepuk Tiga 19/2C",
        "Post_Office": "Shah Alam",
        "State": "Selangor"
    },
    {
        "Postcode": "40300",
        "Location": "Jalan Kesum 24/17",
        "Post_Office": "Shah Alam",
        "State": "Selangor"
    },
    {
        "Postcode": "40300",
        "Location": "Jalan Kesum Dua 24/17B",
        "Post_Office": "Shah Alam",
        "State": "Selangor"
    },
    {
        "Postcode": "40300",
        "Location": "Jalan Kesum Satu 24/17A",
        "Post_Office": "Shah Alam",
        "State": "Selangor"
    },
    {
        "Postcode": "40300",
        "Location": "Jalan Kijang 20/5",
        "Post_Office": "Shah Alam",
        "State": "Selangor"
    },
    {
        "Postcode": "40300",
        "Location": "Jalan Kijang Dua 20/5B",
        "Post_Office": "Shah Alam",
        "State": "Selangor"
    },
    {
        "Postcode": "40300",
        "Location": "Jalan Kijang Satu 20/5A",
        "Post_Office": "Shah Alam",
        "State": "Selangor"
    },
    {
        "Postcode": "40300",
        "Location": "Jalan Kobis Bunga 24/29",
        "Post_Office": "Shah Alam",
        "State": "Selangor"
    },
    {
        "Postcode": "40300",
        "Location": "Jalan Kolek 19/29",
        "Post_Office": "Shah Alam",
        "State": "Selangor"
    },
    {
        "Postcode": "40300",
        "Location": "Jalan Kubis 24/30",
        "Post_Office": "Shah Alam",
        "State": "Selangor"
    },
    {
        "Postcode": "40300",
        "Location": "Jalan Kubis Dua 24/30B",
        "Post_Office": "Shah Alam",
        "State": "Selangor"
    },
    {
        "Postcode": "40300",
        "Location": "Jalan Kubis Empat 24/30D",
        "Post_Office": "Shah Alam",
        "State": "Selangor"
    },
    {
        "Postcode": "40300",
        "Location": "Jalan Kubis Satu 24/30A",
        "Post_Office": "Shah Alam",
        "State": "Selangor"
    },
    {
        "Postcode": "40300",
        "Location": "Jalan Kubis Tiga 24/30C",
        "Post_Office": "Shah Alam",
        "State": "Selangor"
    },
    {
        "Postcode": "40300",
        "Location": "Jalan Kuda 20/14",
        "Post_Office": "Shah Alam",
        "State": "Selangor"
    },
    {
        "Postcode": "40300",
        "Location": "Jalan Kuda Dua 20/14B",
        "Post_Office": "Shah Alam",
        "State": "Selangor"
    },
    {
        "Postcode": "40300",
        "Location": "Jalan Kuda Satu 20/14A",
        "Post_Office": "Shah Alam",
        "State": "Selangor"
    },
    {
        "Postcode": "40300",
        "Location": "Jalan Kunang-Kunang 20/8",
        "Post_Office": "Shah Alam",
        "State": "Selangor"
    },
    {
        "Postcode": "40300",
        "Location": "Jalan Labah-Labah 20/15",
        "Post_Office": "Shah Alam",
        "State": "Selangor"
    },
    {
        "Postcode": "40300",
        "Location": "Jalan Labu Air 24/9",
        "Post_Office": "Shah Alam",
        "State": "Selangor"
    },
    {
        "Postcode": "40300",
        "Location": "Jalan Labu Dua 24/10B",
        "Post_Office": "Shah Alam",
        "State": "Selangor"
    },
    {
        "Postcode": "40300",
        "Location": "Jalan Labu Empat 24/10D",
        "Post_Office": "Shah Alam",
        "State": "Selangor"
    },
    {
        "Postcode": "40300",
        "Location": "Jalan Labu Lima 24/10E",
        "Post_Office": "Shah Alam",
        "State": "Selangor"
    },
    {
        "Postcode": "40300",
        "Location": "Jalan Labu Satu 24/10A",
        "Post_Office": "Shah Alam",
        "State": "Selangor"
    },
    {
        "Postcode": "40300",
        "Location": "Jalan Labu Tiga 24/10C",
        "Post_Office": "Shah Alam",
        "State": "Selangor"
    },
    {
        "Postcode": "40300",
        "Location": "Jalan Lading 19/45",
        "Post_Office": "Shah Alam",
        "State": "Selangor"
    },
    {
        "Postcode": "40300",
        "Location": "Jalan Ladung 19/28",
        "Post_Office": "Shah Alam",
        "State": "Selangor"
    },
    {
        "Postcode": "40300",
        "Location": "Jalan Landak 20/13",
        "Post_Office": "Shah Alam",
        "State": "Selangor"
    },
    {
        "Postcode": "40300",
        "Location": "Jalan Landak Dua 20/13B",
        "Post_Office": "Shah Alam",
        "State": "Selangor"
    },
    {
        "Postcode": "40300",
        "Location": "Jalan Landak Empat 20/13D",
        "Post_Office": "Shah Alam",
        "State": "Selangor"
    },
    {
        "Postcode": "40300",
        "Location": "Jalan Landak Enam 20/13F",
        "Post_Office": "Shah Alam",
        "State": "Selangor"
    },
    {
        "Postcode": "40300",
        "Location": "Jalan Landak Lima 20/13E",
        "Post_Office": "Shah Alam",
        "State": "Selangor"
    },
    {
        "Postcode": "40300",
        "Location": "Jalan Landak Satu 20/13A",
        "Post_Office": "Shah Alam",
        "State": "Selangor"
    },
    {
        "Postcode": "40300",
        "Location": "Jalan Landak Tiga 20/13C",
        "Post_Office": "Shah Alam",
        "State": "Selangor"
    },
    {
        "Postcode": "40300",
        "Location": "Jalan Layar 19/35",
        "Post_Office": "Shah Alam",
        "State": "Selangor"
    },
    {
        "Postcode": "40300",
        "Location": "Jalan Layar Dua 19/35B",
        "Post_Office": "Shah Alam",
        "State": "Selangor"
    },
    {
        "Postcode": "40300",
        "Location": "Jalan Layar Satu 19/35A",
        "Post_Office": "Shah Alam",
        "State": "Selangor"
    },
    {
        "Postcode": "40300",
        "Location": "Jalan Lesung 19/18",
        "Post_Office": "Shah Alam",
        "State": "Selangor"
    },
    {
        "Postcode": "40300",
        "Location": "Jalan Lobak Merah 24/20",
        "Post_Office": "Shah Alam",
        "State": "Selangor"
    },
    {
        "Postcode": "40300",
        "Location": "Jalan Lobak Putih 24/21",
        "Post_Office": "Shah Alam",
        "State": "Selangor"
    },
    {
        "Postcode": "40300",
        "Location": "Jalan Lukah 19/22",
        "Post_Office": "Shah Alam",
        "State": "Selangor"
    },
    {
        "Postcode": "40300",
        "Location": "Jalan Memerang 20/18",
        "Post_Office": "Shah Alam",
        "State": "Selangor"
    },
    {
        "Postcode": "40300",
        "Location": "Jalan Modal 23/2",
        "Post_Office": "Shah Alam",
        "State": "Selangor"
    },
    {
        "Postcode": "40300",
        "Location": "Jalan Napuh 20/10",
        "Post_Office": "Shah Alam",
        "State": "Selangor"
    },
    {
        "Postcode": "40300",
        "Location": "Jalan Nelayan 19/15",
        "Post_Office": "Shah Alam",
        "State": "Selangor"
    },
    {
        "Postcode": "40300",
        "Location": "Jalan Nelayan A 19/A",
        "Post_Office": "Shah Alam",
        "State": "Selangor"
    },
    {
        "Postcode": "40300",
        "Location": "Jalan Nelayan B 19/B",
        "Post_Office": "Shah Alam",
        "State": "Selangor"
    },
    {
        "Postcode": "40300",
        "Location": "Jalan Nelayan C 19/C",
        "Post_Office": "Shah Alam",
        "State": "Selangor"
    },
    {
        "Postcode": "40300",
        "Location": "Jalan Nelayan D 19/D",
        "Post_Office": "Shah Alam",
        "State": "Selangor"
    },
    {
        "Postcode": "40300",
        "Location": "Jalan Nelayan E 19/E",
        "Post_Office": "Shah Alam",
        "State": "Selangor"
    },
    {
        "Postcode": "40300",
        "Location": "Jalan Nelayan F 19/F",
        "Post_Office": "Shah Alam",
        "State": "Selangor"
    },
    {
        "Postcode": "40300",
        "Location": "Jalan Nyiru 19/5",
        "Post_Office": "Shah Alam",
        "State": "Selangor"
    },
    {
        "Postcode": "40300",
        "Location": "Jalan Nyiru Dua 19/5B",
        "Post_Office": "Shah Alam",
        "State": "Selangor"
    },
    {
        "Postcode": "40300",
        "Location": "Jalan Nyiru Satu 19/5A",
        "Post_Office": "Shah Alam",
        "State": "Selangor"
    },
    {
        "Postcode": "40300",
        "Location": "Jalan Pakanira Satu 23/12A",
        "Post_Office": "Shah Alam",
        "State": "Selangor"
    },
    {
        "Postcode": "40300",
        "Location": "Jalan Pangkalan 19/50",
        "Post_Office": "Shah Alam",
        "State": "Selangor"
    },
    {
        "Postcode": "40300",
        "Location": "Jalan Pangkalan Dua 19/50B",
        "Post_Office": "Shah Alam",
        "State": "Selangor"
    },
    {
        "Postcode": "40300",
        "Location": "Jalan Pangkalan Satu 19/50A",
        "Post_Office": "Shah Alam",
        "State": "Selangor"
    },
    {
        "Postcode": "40300",
        "Location": "Jalan Parang 19/8",
        "Post_Office": "Shah Alam",
        "State": "Selangor"
    },
    {
        "Postcode": "40300",
        "Location": "Jalan Pasaran 23/5",
        "Post_Office": "Shah Alam",
        "State": "Selangor"
    },
    {
        "Postcode": "40300",
        "Location": "Jalan Pedati 19/13",
        "Post_Office": "Shah Alam",
        "State": "Selangor"
    },
    {
        "Postcode": "40300",
        "Location": "Jalan Pedati Satu 19/13A",
        "Post_Office": "Shah Alam",
        "State": "Selangor"
    },
    {
        "Postcode": "40300",
        "Location": "Jalan Pegaga 24/31",
        "Post_Office": "Shah Alam",
        "State": "Selangor"
    },
    {
        "Postcode": "40300",
        "Location": "Jalan Pelabur 23/1",
        "Post_Office": "Shah Alam",
        "State": "Selangor"
    },
    {
        "Postcode": "40300",
        "Location": "Jalan Pelampung 19/26",
        "Post_Office": "Shah Alam",
        "State": "Selangor"
    },
    {
        "Postcode": "40300",
        "Location": "Jalan Pelanduk 20/19",
        "Post_Office": "Shah Alam",
        "State": "Selangor"
    },
    {
        "Postcode": "40300",
        "Location": "Jalan Pencakar 19/11",
        "Post_Office": "Shah Alam",
        "State": "Selangor"
    },
    {
        "Postcode": "40300",
        "Location": "Jalan Pengetam 19/12",
        "Post_Office": "Shah Alam",
        "State": "Selangor"
    },
    {
        "Postcode": "40300",
        "Location": "Jalan Penyu 20/6",
        "Post_Office": "Shah Alam",
        "State": "Selangor"
    },
    {
        "Postcode": "40300",
        "Location": "Jalan Perahu 19/30",
        "Post_Office": "Shah Alam",
        "State": "Selangor"
    },
    {
        "Postcode": "40300",
        "Location": "Jalan Peria 24/14",
        "Post_Office": "Shah Alam",
        "State": "Selangor"
    },
    {
        "Postcode": "40300",
        "Location": "Jalan Peria Dua 24/14B",
        "Post_Office": "Shah Alam",
        "State": "Selangor"
    },
    {
        "Postcode": "40300",
        "Location": "Jalan Peria Satu 24/14A",
        "Post_Office": "Shah Alam",
        "State": "Selangor"
    },
    {
        "Postcode": "40300",
        "Location": "Jalan Peria Tiga 24/14C",
        "Post_Office": "Shah Alam",
        "State": "Selangor"
    },
    {
        "Postcode": "40300",
        "Location": "Jalan Petani 19/1",
        "Post_Office": "Shah Alam",
        "State": "Selangor"
    },
    {
        "Postcode": "40300",
        "Location": "Jalan Petola Dua 24/8B",
        "Post_Office": "Shah Alam",
        "State": "Selangor"
    },
    {
        "Postcode": "40300",
        "Location": "Jalan Petola Empat 24/8D",
        "Post_Office": "Shah Alam",
        "State": "Selangor"
    },
    {
        "Postcode": "40300",
        "Location": "Jalan Petola Satu 24/8A",
        "Post_Office": "Shah Alam",
        "State": "Selangor"
    },
    {
        "Postcode": "40300",
        "Location": "Jalan Pukat 19/23",
        "Post_Office": "Shah Alam",
        "State": "Selangor"
    },
    {
        "Postcode": "40300",
        "Location": "Jalan Pukat Dua 19/23B",
        "Post_Office": "Shah Alam",
        "State": "Selangor"
    },
    {
        "Postcode": "40300",
        "Location": "Jalan Pukat Satu 19/23A",
        "Post_Office": "Shah Alam",
        "State": "Selangor"
    },
    {
        "Postcode": "40300",
        "Location": "Jalan Rakit 19/48",
        "Post_Office": "Shah Alam",
        "State": "Selangor"
    },
    {
        "Postcode": "40300",
        "Location": "Jalan Rama-Rama 20/2",
        "Post_Office": "Shah Alam",
        "State": "Selangor"
    },
    {
        "Postcode": "40300",
        "Location": "Jalan Rama-Rama Dua 20/2B",
        "Post_Office": "Shah Alam",
        "State": "Selangor"
    },
    {
        "Postcode": "40300",
        "Location": "Jalan Rama-Rama Empat 20/2D",
        "Post_Office": "Shah Alam",
        "State": "Selangor"
    },
    {
        "Postcode": "40300",
        "Location": "Jalan Rama-Rama Enam 20/2F",
        "Post_Office": "Shah Alam",
        "State": "Selangor"
    },
    {
        "Postcode": "40300",
        "Location": "Jalan Rama-Rama Lima 20/2E",
        "Post_Office": "Shah Alam",
        "State": "Selangor"
    },
    {
        "Postcode": "40300",
        "Location": "Jalan Rama-Rama Satu 20/2A",
        "Post_Office": "Shah Alam",
        "State": "Selangor"
    },
    {
        "Postcode": "40300",
        "Location": "Jalan Rama-Rama Tiga 20/2C",
        "Post_Office": "Shah Alam",
        "State": "Selangor"
    },
    {
        "Postcode": "40300",
        "Location": "Jalan Rama-Rama Tujuh 20/2G",
        "Post_Office": "Shah Alam",
        "State": "Selangor"
    },
    {
        "Postcode": "40300",
        "Location": "Jalan Rawai 19/41",
        "Post_Office": "Shah Alam",
        "State": "Selangor"
    },
    {
        "Postcode": "40300",
        "Location": "Jalan Rebung 24/13",
        "Post_Office": "Shah Alam",
        "State": "Selangor"
    },
    {
        "Postcode": "40300",
        "Location": "Jalan Relung 19/44",
        "Post_Office": "Shah Alam",
        "State": "Selangor"
    },
    {
        "Postcode": "40300",
        "Location": "Jalan Relung Dua 19/44B",
        "Post_Office": "Shah Alam",
        "State": "Selangor"
    },
    {
        "Postcode": "40300",
        "Location": "Jalan Relung Satu 19/44A",
        "Post_Office": "Shah Alam",
        "State": "Selangor"
    },
    {
        "Postcode": "40300",
        "Location": "Jalan Relung Tiga 19/44C",
        "Post_Office": "Shah Alam",
        "State": "Selangor"
    },
    {
        "Postcode": "40300",
        "Location": "Jalan Riang-Riang 20/12",
        "Post_Office": "Shah Alam",
        "State": "Selangor"
    },
    {
        "Postcode": "40300",
        "Location": "Jalan Rusa 20/9",
        "Post_Office": "Shah Alam",
        "State": "Selangor"
    },
    {
        "Postcode": "40300",
        "Location": "Jalan Saham 23/3",
        "Post_Office": "Shah Alam",
        "State": "Selangor"
    },
    {
        "Postcode": "40300",
        "Location": "Jalan Salad 24/32",
        "Post_Office": "Shah Alam",
        "State": "Selangor"
    },
    {
        "Postcode": "40300",
        "Location": "Jalan Sampan 19/31",
        "Post_Office": "Shah Alam",
        "State": "Selangor"
    },
    {
        "Postcode": "40300",
        "Location": "Jalan Sangkar 19/7",
        "Post_Office": "Shah Alam",
        "State": "Selangor"
    },
    {
        "Postcode": "40300",
        "Location": "Jalan Sangkar Dua 19/7B",
        "Post_Office": "Shah Alam",
        "State": "Selangor"
    },
    {
        "Postcode": "40300",
        "Location": "Jalan Sangkar Satu 19/7A",
        "Post_Office": "Shah Alam",
        "State": "Selangor"
    },
    {
        "Postcode": "40300",
        "Location": "Jalan Sauh 19/43",
        "Post_Office": "Shah Alam",
        "State": "Selangor"
    },
    {
        "Postcode": "40300",
        "Location": "Jalan Sawi 24/18",
        "Post_Office": "Shah Alam",
        "State": "Selangor"
    },
    {
        "Postcode": "40300",
        "Location": "Jalan Sawi Dua 24/18B",
        "Post_Office": "Shah Alam",
        "State": "Selangor"
    }
]
