[
    {
        "Postcode": "40400",
        "Location": "Jalan Bunga Tanjung 1",
        "Post_Office": "Shah Alam",
        "State": "Selangor"
    },
    {
        "Postcode": "40400",
        "Location": "Jalan Bunga Tanjung 2",
        "Post_Office": "Shah Alam",
        "State": "Selangor"
    },
    {
        "Postcode": "40400",
        "Location": "Jalan Bunga Tanjung 3",
        "Post_Office": "Shah Alam",
        "State": "Selangor"
    },
    {
        "Postcode": "40400",
        "Location": "Jalan Bunga Tanjung 4",
        "Post_Office": "Shah Alam",
        "State": "Selangor"
    },
    {
        "Postcode": "40400",
        "Location": "Jalan Bunga Tanjung 5",
        "Post_Office": "Shah Alam",
        "State": "Selangor"
    },
    {
        "Postcode": "40400",
        "Location": "Jalan Nilam 1/1",
        "Post_Office": "Shah Alam",
        "State": "Selangor"
    },
    {
        "Postcode": "40400",
        "Location": "Jalan Nilam 1/2",
        "Post_Office": "Shah Alam",
        "State": "Selangor"
    },
    {
        "Postcode": "40400",
        "Location": "Jalan Nilam 1/3",
        "Post_Office": "Shah Alam",
        "State": "Selangor"
    },
    {
        "Postcode": "40400",
        "Location": "Jalan Nilam 1/4",
        "Post_Office": "Shah Alam",
        "State": "Selangor"
    },
    {
        "Postcode": "40400",
        "Location": "Jalan Nilam 1/5",
        "Post_Office": "Shah Alam",
        "State": "Selangor"
    },
    {
        "Postcode": "40400",
        "Location": "Jalan Nilam 1/6",
        "Post_Office": "Shah Alam",
        "State": "Selangor"
    },
    {
        "Postcode": "40400",
        "Location": "Jalan Nilam 1/7",
        "Post_Office": "Shah Alam",
        "State": "Selangor"
    },
    {
        "Postcode": "40400",
        "Location": "Jalan Nilam 1/8",
        "Post_Office": "Shah Alam",
        "State": "Selangor"
    },
    {
        "Postcode": "40400",
        "Location": "Jalan Nilam 1/9",
        "Post_Office": "Shah Alam",
        "State": "Selangor"
    },
    {
        "Postcode": "40400",
        "Location": "Jalan Su 5",
        "Post_Office": "Shah Alam",
        "State": "Selangor"
    },
    {
        "Postcode": "40400",
        "Location": "Jalan Su 6",
        "Post_Office": "Shah Alam",
        "State": "Selangor"
    },
    {
        "Postcode": "40400",
        "Location": "Jalan Su 7",
        "Post_Office": "Shah Alam",
        "State": "Selangor"
    },
    {
        "Postcode": "40400",
        "Location": "Jalan Su 8",
        "Post_Office": "Shah Alam",
        "State": "Selangor"
    },
    {
        "Postcode": "40400",
        "Location": "Jalan Tp 7/1",
        "Post_Office": "Shah Alam",
        "State": "Selangor"
    },
    {
        "Postcode": "40400",
        "Location": "Jalan Tp 7/2",
        "Post_Office": "Shah Alam",
        "State": "Selangor"
    },
    {
        "Postcode": "40400",
        "Location": "Jalan Tp 7/3",
        "Post_Office": "Shah Alam",
        "State": "Selangor"
    },
    {
        "Postcode": "40400",
        "Location": "Jalan Tp 7/4",
        "Post_Office": "Shah Alam",
        "State": "Selangor"
    },
    {
        "Postcode": "40400",
        "Location": "Jalan Tp 7/5",
        "Post_Office": "Shah Alam",
        "State": "Selangor"
    },
    {
        "Postcode": "40400",
        "Location": "Jalan Tp 7/6",
        "Post_Office": "Shah Alam",
        "State": "Selangor"
    },
    {
        "Postcode": "40400",
        "Location": "Jalan Tp 7/7",
        "Post_Office": "Shah Alam",
        "State": "Selangor"
    },
    {
        "Postcode": "40400",
        "Location": "Jalan Tp 7/8",
        "Post_Office": "Shah Alam",
        "State": "Selangor"
    },
    {
        "Postcode": "40400",
        "Location": "Seksyen 25",
        "Post_Office": "Shah Alam",
        "State": "Selangor"
    },
    {
        "Postcode": "40400",
        "Location": "Seksyen 26",
        "Post_Office": "Shah Alam",
        "State": "Selangor"
    },
    {
        "Postcode": "40400",
        "Location": "Seksyen 27",
        "Post_Office": "Shah Alam",
        "State": "Selangor"
    },
    {
        "Postcode": "40400",
        "Location": "Seksyen 28",
        "Post_Office": "Shah Alam",
        "State": "Selangor"
    },
    {
        "Postcode": "40400",
        "Location": "Seksyen 33",
        "Post_Office": "Shah Alam",
        "State": "Selangor"
    },
    {
        "Postcode": "40400",
        "Location": "Pesona Kemuning",
        "Post_Office": "Shah Alam",
        "State": "Selangor"
    },
    {
        "Postcode": "40400",
        "Location": "Taman Iswara",
        "Post_Office": "Shah Alam",
        "State": "Selangor"
    },
    {
        "Postcode": "40400",
        "Location": "Taman Mutiara Kemuning",
        "Post_Office": "Shah Alam",
        "State": "Selangor"
    },
    {
        "Postcode": "40400",
        "Location": "Taman Sri Muda",
        "Post_Office": "Shah Alam",
        "State": "Selangor"
    },
    {
        "Postcode": "40400",
        "Location": "Jalan Abadi 25/58",
        "Post_Office": "Shah Alam",
        "State": "Selangor"
    },
    {
        "Postcode": "40400",
        "Location": "Jalan Adil 25/10",
        "Post_Office": "Shah Alam",
        "State": "Selangor"
    },
    {
        "Postcode": "40400",
        "Location": "Jalan Air  Hitam 27/63",
        "Post_Office": "Shah Alam",
        "State": "Selangor"
    },
    {
        "Postcode": "40400",
        "Location": "Jalan Amal 25/68",
        "Post_Office": "Shah Alam",
        "State": "Selangor"
    },
    {
        "Postcode": "40400",
        "Location": "Jalan Amanah 25/26",
        "Post_Office": "Shah Alam",
        "State": "Selangor"
    },
    {
        "Postcode": "40400",
        "Location": "Jalan Ampang 27/20",
        "Post_Office": "Shah Alam",
        "State": "Selangor"
    },
    {
        "Postcode": "40400",
        "Location": "Jalan Ampang Dua 27/20B",
        "Post_Office": "Shah Alam",
        "State": "Selangor"
    },
    {
        "Postcode": "40400",
        "Location": "Jalan Ampang Empat 27/20D",
        "Post_Office": "Shah Alam",
        "State": "Selangor"
    },
    {
        "Postcode": "40400",
        "Location": "Jalan Ampang Satu 27/20A",
        "Post_Office": "Shah Alam",
        "State": "Selangor"
    },
    {
        "Postcode": "40400",
        "Location": "Jalan Ampang Tenar 28/27",
        "Post_Office": "Shah Alam",
        "State": "Selangor"
    },
    {
        "Postcode": "40400",
        "Location": "Jalan Ampang Tiga 27/20C",
        "Post_Office": "Shah Alam",
        "State": "Selangor"
    },
    {
        "Postcode": "40400",
        "Location": "Jalan Anggun 25/115",
        "Post_Office": "Shah Alam",
        "State": "Selangor"
    },
    {
        "Postcode": "40400",
        "Location": "Jalan Anugerah 25/80",
        "Post_Office": "Shah Alam",
        "State": "Selangor"
    },
    {
        "Postcode": "40400",
        "Location": "Jalan Anugerah Dua 25/80B",
        "Post_Office": "Shah Alam",
        "State": "Selangor"
    },
    {
        "Postcode": "40400",
        "Location": "Jalan Anugerah Empat 25/80D",
        "Post_Office": "Shah Alam",
        "State": "Selangor"
    },
    {
        "Postcode": "40400",
        "Location": "Jalan Anugerah Satu 25/80A",
        "Post_Office": "Shah Alam",
        "State": "Selangor"
    },
    {
        "Postcode": "40400",
        "Location": "Jalan Anugerah Tiga 25/80C",
        "Post_Office": "Shah Alam",
        "State": "Selangor"
    },
    {
        "Postcode": "40400",
        "Location": "Jalan Api-Api 26/1",
        "Post_Office": "Shah Alam",
        "State": "Selangor"
    },
    {
        "Postcode": "40400",
        "Location": "Jalan Asahan 26/27",
        "Post_Office": "Shah Alam",
        "State": "Selangor"
    },
    {
        "Postcode": "40400",
        "Location": "Jalan Asahan Dua 26/27B",
        "Post_Office": "Shah Alam",
        "State": "Selangor"
    },
    {
        "Postcode": "40400",
        "Location": "Jalan Asahan Empat 26/27D",
        "Post_Office": "Shah Alam",
        "State": "Selangor"
    },
    {
        "Postcode": "40400",
        "Location": "Jalan Asahan Lima 26/27E",
        "Post_Office": "Shah Alam",
        "State": "Selangor"
    },
    {
        "Postcode": "40400",
        "Location": "Jalan Asahan Satu 26/27A",
        "Post_Office": "Shah Alam",
        "State": "Selangor"
    },
    {
        "Postcode": "40400",
        "Location": "Jalan Asahan Tiga 26/27C",
        "Post_Office": "Shah Alam",
        "State": "Selangor"
    },
    {
        "Postcode": "40400",
        "Location": "Jalan Azam 25/23",
        "Post_Office": "Shah Alam",
        "State": "Selangor"
    },
    {
        "Postcode": "40400",
        "Location": "Jalan Azam Satu 25/23A",
        "Post_Office": "Shah Alam",
        "State": "Selangor"
    },
    {
        "Postcode": "40400",
        "Location": "Jalan Bagan Nira 26/8",
        "Post_Office": "Shah Alam",
        "State": "Selangor"
    },
    {
        "Postcode": "40400",
        "Location": "Jalan Bagan Terap 26/11",
        "Post_Office": "Shah Alam",
        "State": "Selangor"
    },
    {
        "Postcode": "40400",
        "Location": "Jalan Bahagia 25/17",
        "Post_Office": "Shah Alam",
        "State": "Selangor"
    },
    {
        "Postcode": "40400",
        "Location": "Jalan Bahau  26/174",
        "Post_Office": "Shah Alam",
        "State": "Selangor"
    },
    {
        "Postcode": "40400",
        "Location": "Jalan Bakau 27/79",
        "Post_Office": "Shah Alam",
        "State": "Selangor"
    },
    {
        "Postcode": "40400",
        "Location": "Jalan Bakti 25/15",
        "Post_Office": "Shah Alam",
        "State": "Selangor"
    },
    {
        "Postcode": "40400",
        "Location": "Jalan Bakti Dua 25/15B",
        "Post_Office": "Shah Alam",
        "State": "Selangor"
    },
    {
        "Postcode": "40400",
        "Location": "Jalan Bakti Empat 25/15D",
        "Post_Office": "Shah Alam",
        "State": "Selangor"
    },
    {
        "Postcode": "40400",
        "Location": "Jalan Bakti Satu 25/15A",
        "Post_Office": "Shah Alam",
        "State": "Selangor"
    },
    {
        "Postcode": "40400",
        "Location": "Jalan Bakti Tiga 25/15C",
        "Post_Office": "Shah Alam",
        "State": "Selangor"
    },
    {
        "Postcode": "40400",
        "Location": "Jalan Balakung 27/7",
        "Post_Office": "Shah Alam",
        "State": "Selangor"
    },
    {
        "Postcode": "40400",
        "Location": "Jalan Bandang 28/12",
        "Post_Office": "Shah Alam",
        "State": "Selangor"
    },
    {
        "Postcode": "40400",
        "Location": "Jalan Bangga 25/108",
        "Post_Office": "Shah Alam",
        "State": "Selangor"
    },
    {
        "Postcode": "40400",
        "Location": "Jalan Bangsi 33/18",
        "Post_Office": "Shah Alam",
        "State": "Selangor"
    },
    {
        "Postcode": "40400",
        "Location": "Jalan Batang Arang 27/28",
        "Post_Office": "Shah Alam",
        "State": "Selangor"
    },
    {
        "Postcode": "40400",
        "Location": "Jalan Batang Kali",
        "Post_Office": "Shah Alam",
        "State": "Selangor"
    },
    {
        "Postcode": "40400",
        "Location": "Jalan Batang Kelang 27/40",
        "Post_Office": "Shah Alam",
        "State": "Selangor"
    },
    {
        "Postcode": "40400",
        "Location": "Jalan Batu Arang 27/28",
        "Post_Office": "Shah Alam",
        "State": "Selangor"
    },
    {
        "Postcode": "40400",
        "Location": "Jalan Batu Belah 27/96",
        "Post_Office": "Shah Alam",
        "State": "Selangor"
    },
    {
        "Postcode": "40400",
        "Location": "Jalan Batu Caves 27/67",
        "Post_Office": "Shah Alam",
        "State": "Selangor"
    },
    {
        "Postcode": "40400",
        "Location": "Jalan Batu Condong 27/44",
        "Post_Office": "Shah Alam",
        "State": "Selangor"
    },
    {
        "Postcode": "40400",
        "Location": "Jalan Batu Kelang 27/40",
        "Post_Office": "Shah Alam",
        "State": "Selangor"
    },
    {
        "Postcode": "40400",
        "Location": "Jalan Batu Laut 28/5",
        "Post_Office": "Shah Alam",
        "State": "Selangor"
    },
    {
        "Postcode": "40400",
        "Location": "Jalan Batu Mandi 26/29",
        "Post_Office": "Shah Alam",
        "State": "Selangor"
    },
    {
        "Postcode": "40400",
        "Location": "Jalan Batu Mandi Dua 26/29B",
        "Post_Office": "Shah Alam",
        "State": "Selangor"
    },
    {
        "Postcode": "40400",
        "Location": "Jalan Batu Mandi Satu 26/29A",
        "Post_Office": "Shah Alam",
        "State": "Selangor"
    },
    {
        "Postcode": "40400",
        "Location": "Jalan Bawal Lepas 26/19",
        "Post_Office": "Shah Alam",
        "State": "Selangor"
    },
    {
        "Postcode": "40400",
        "Location": "Jalan Bayan Lepas 26/19",
        "Post_Office": "Shah Alam",
        "State": "Selangor"
    },
    {
        "Postcode": "40400",
        "Location": "Jalan Bedena 26/78",
        "Post_Office": "Shah Alam",
        "State": "Selangor"
    },
    {
        "Postcode": "40400",
        "Location": "Jalan Bemban 26/107",
        "Post_Office": "Shah Alam",
        "State": "Selangor"
    },
    {
        "Postcode": "40400",
        "Location": "Jalan Benta Satu 26/138A",
        "Post_Office": "Shah Alam",
        "State": "Selangor"
    },
    {
        "Postcode": "40400",
        "Location": "Jalan Beranang 27/14",
        "Post_Office": "Shah Alam",
        "State": "Selangor"
    },
    {
        "Postcode": "40400",
        "Location": "Jalan Beranang Dua 27/14B",
        "Post_Office": "Shah Alam",
        "State": "Selangor"
    },
    {
        "Postcode": "40400",
        "Location": "Jalan Beranang Empat 27/14D",
        "Post_Office": "Shah Alam",
        "State": "Selangor"
    },
    {
        "Postcode": "40400",
        "Location": "Jalan Beranang Enam 27/14F",
        "Post_Office": "Shah Alam",
        "State": "Selangor"
    },
    {
        "Postcode": "40400",
        "Location": "Jalan Beranang Lapan 27/14H",
        "Post_Office": "Shah Alam",
        "State": "Selangor"
    },
    {
        "Postcode": "40400",
        "Location": "Jalan Beranang Lima 27/14E",
        "Post_Office": "Shah Alam",
        "State": "Selangor"
    },
    {
        "Postcode": "40400",
        "Location": "Jalan Beranang Satu 27/14A",
        "Post_Office": "Shah Alam",
        "State": "Selangor"
    },
    {
        "Postcode": "40400",
        "Location": "Jalan Beranang Sembilan 27/14J",
        "Post_Office": "Shah Alam",
        "State": "Selangor"
    },
    {
        "Postcode": "40400",
        "Location": "Jalan Beranang Sepuluh 27/14K",
        "Post_Office": "Shah Alam",
        "State": "Selangor"
    },
    {
        "Postcode": "40400",
        "Location": "Jalan Beranang Tiga 27/14C",
        "Post_Office": "Shah Alam",
        "State": "Selangor"
    },
    {
        "Postcode": "40400",
        "Location": "Jalan Beranang Tujuh 27/14G",
        "Post_Office": "Shah Alam",
        "State": "Selangor"
    },
    {
        "Postcode": "40400",
        "Location": "Jalan Berani 25/101",
        "Post_Office": "Shah Alam",
        "State": "Selangor"
    },
    {
        "Postcode": "40400",
        "Location": "Jalan Berembang 27/43",
        "Post_Office": "Shah Alam",
        "State": "Selangor"
    },
    {
        "Postcode": "40400",
        "Location": "Jalan Berjaya 25/4",
        "Post_Office": "Shah Alam",
        "State": "Selangor"
    },
    {
        "Postcode": "40400",
        "Location": "Jalan Berjaya Satu 25/4A",
        "Post_Office": "Shah Alam",
        "State": "Selangor"
    },
    {
        "Postcode": "40400",
        "Location": "Jalan Berkat 25/70",
        "Post_Office": "Shah Alam",
        "State": "Selangor"
    },
    {
        "Postcode": "40400",
        "Location": "Jalan Bernam 24/29",
        "Post_Office": "Shah Alam",
        "State": "Selangor"
    },
    {
        "Postcode": "40400",
        "Location": "Jalan Bersatu 25/9",
        "Post_Office": "Shah Alam",
        "State": "Selangor"
    },
    {
        "Postcode": "40400",
        "Location": "Jalan Biola 33/1",
        "Post_Office": "Shah Alam",
        "State": "Selangor"
    },
    {
        "Postcode": "40400",
        "Location": "Jalan Biola Satu 33/1A",
        "Post_Office": "Shah Alam",
        "State": "Selangor"
    },
    {
        "Postcode": "40400",
        "Location": "Jalan Biyuku 27/64",
        "Post_Office": "Shah Alam",
        "State": "Selangor"
    },
    {
        "Postcode": "40400",
        "Location": "Jalan Buana 25/89",
        "Post_Office": "Shah Alam",
        "State": "Selangor"
    },
    {
        "Postcode": "40400",
        "Location": "Jalan Budi 25/21",
        "Post_Office": "Shah Alam",
        "State": "Selangor"
    },
    {
        "Postcode": "40400",
        "Location": "Jalan Budi Dua 25/21B",
        "Post_Office": "Shah Alam",
        "State": "Selangor"
    },
    {
        "Postcode": "40400",
        "Location": "Jalan Budi Satu 25/21A",
        "Post_Office": "Shah Alam",
        "State": "Selangor"
    },
    {
        "Postcode": "40400",
        "Location": "Jalan Bukit Badung 26/4",
        "Post_Office": "Shah Alam",
        "State": "Selangor"
    },
    {
        "Postcode": "40400",
        "Location": "Jalan Bukit Candang 28/9",
        "Post_Office": "Shah Alam",
        "State": "Selangor"
    },
    {
        "Postcode": "40400",
        "Location": "Jalan Bukit Ceding 28/4",
        "Post_Office": "Shah Alam",
        "State": "Selangor"
    },
    {
        "Postcode": "40400",
        "Location": "Jalan Bukit Dukung 27/16",
        "Post_Office": "Shah Alam",
        "State": "Selangor"
    },
    {
        "Postcode": "40400",
        "Location": "Jalan Bukit Hijau 26/24",
        "Post_Office": "Shah Alam",
        "State": "Selangor"
    },
    {
        "Postcode": "40400",
        "Location": "Jalan Bukit Hijau Dua 26/24B",
        "Post_Office": "Shah Alam",
        "State": "Selangor"
    },
    {
        "Postcode": "40400",
        "Location": "Jalan Bukit Hijau Satu 26/24A",
        "Post_Office": "Shah Alam",
        "State": "Selangor"
    },
    {
        "Postcode": "40400",
        "Location": "Jalan Bukit Hijau Tiga 26/24C",
        "Post_Office": "Shah Alam",
        "State": "Selangor"
    },
    {
        "Postcode": "40400",
        "Location": "Jalan Bukit Mayung 26/30",
        "Post_Office": "Shah Alam",
        "State": "Selangor"
    },
    {
        "Postcode": "40400",
        "Location": "Jalan Bukit Merbau 27/87",
        "Post_Office": "Shah Alam",
        "State": "Selangor"
    },
    {
        "Postcode": "40400",
        "Location": "Jalan Bukit Raya 27/6",
        "Post_Office": "Shah Alam",
        "State": "Selangor"
    },
    {
        "Postcode": "40400",
        "Location": "Jalan Bukit Tempurung 27/85",
        "Post_Office": "Shah Alam",
        "State": "Selangor"
    },
    {
        "Postcode": "40400",
        "Location": "Jalan Bunga Buah 27/38",
        "Post_Office": "Shah Alam",
        "State": "Selangor"
    },
    {
        "Postcode": "40400",
        "Location": "Jalan Bunga Raya 28/43",
        "Post_Office": "Shah Alam",
        "State": "Selangor"
    },
    {
        "Postcode": "40400",
        "Location": "Jalan Canggih 25/103",
        "Post_Office": "Shah Alam",
        "State": "Selangor"
    },
    {
        "Postcode": "40400",
        "Location": "Jalan Cekal 25/34",
        "Post_Office": "Shah Alam",
        "State": "Selangor"
    },
    {
        "Postcode": "40400",
        "Location": "Jalan Cekap 25/45",
        "Post_Office": "Shah Alam",
        "State": "Selangor"
    },
    {
        "Postcode": "40400",
        "Location": "Jalan Cerdas 25/46",
        "Post_Office": "Shah Alam",
        "State": "Selangor"
    },
    {
        "Postcode": "40400",
        "Location": "Jalan Cerdas Satu 25/46A",
        "Post_Office": "Shah Alam",
        "State": "Selangor"
    },
    {
        "Postcode": "40400",
        "Location": "Jalan Ceria 25/113",
        "Post_Office": "Shah Alam",
        "State": "Selangor"
    },
    {
        "Postcode": "40400",
        "Location": "Jalan Cermat 25/36",
        "Post_Office": "Shah Alam",
        "State": "Selangor"
    },
    {
        "Postcode": "40400",
        "Location": "Jalan Cita 25/96",
        "Post_Office": "Shah Alam",
        "State": "Selangor"
    },
    {
        "Postcode": "40400",
        "Location": "Jalan Cul Tinggi 27/59",
        "Post_Office": "Shah Alam",
        "State": "Selangor"
    },
    {
        "Postcode": "40400",
        "Location": "Jalan Damai 25/60",
        "Post_Office": "Shah Alam",
        "State": "Selangor"
    },
    {
        "Postcode": "40400",
        "Location": "Jalan Dengkil 28/21",
        "Post_Office": "Shah Alam",
        "State": "Selangor"
    },
    {
        "Postcode": "40400",
        "Location": "Jalan Dengkil Satu 28/21A",
        "Post_Office": "Shah Alam",
        "State": "Selangor"
    },
    {
        "Postcode": "40400",
        "Location": "Jalan Dermawan 25/89",
        "Post_Office": "Shah Alam",
        "State": "Selangor"
    },
    {
        "Postcode": "40400",
        "Location": "Jalan Dusun Kubung 27/83",
        "Post_Office": "Shah Alam",
        "State": "Selangor"
    },
    {
        "Postcode": "40400",
        "Location": "Jalan Dusun Tua 27/9",
        "Post_Office": "Shah Alam",
        "State": "Selangor"
    },
    {
        "Postcode": "40400",
        "Location": "Jalan Elite Industry 27/102",
        "Post_Office": "Shah Alam",
        "State": "Selangor"
    },
    {
        "Postcode": "40400",
        "Location": "Jalan Elite Industry 27/99A",
        "Post_Office": "Shah Alam",
        "State": "Selangor"
    },
    {
        "Postcode": "40400",
        "Location": "Jalan Elite Industry Dua 27/102",
        "Post_Office": "Shah Alam",
        "State": "Selangor"
    },
    {
        "Postcode": "40400",
        "Location": "Jalan Elite Industry Satu 27/99",
        "Post_Office": "Shah Alam",
        "State": "Selangor"
    },
    {
        "Postcode": "40400",
        "Location": "Jalan Faedah 25/86",
        "Post_Office": "Shah Alam",
        "State": "Selangor"
    },
    {
        "Postcode": "40400",
        "Location": "Jalan Flut 33/9",
        "Post_Office": "Shah Alam",
        "State": "Selangor"
    },
    {
        "Postcode": "40400",
        "Location": "Jalan Gabai 27/3",
        "Post_Office": "Shah Alam",
        "State": "Selangor"
    },
    {
        "Postcode": "40400",
        "Location": "Jalan Gagah 25/99",
        "Post_Office": "Shah Alam",
        "State": "Selangor"
    },
    {
        "Postcode": "40400",
        "Location": "Jalan Gambus 33/4",
        "Post_Office": "Shah Alam",
        "State": "Selangor"
    },
    {
        "Postcode": "40400",
        "Location": "Jalan Gambus Satu 33/4A",
        "Post_Office": "Shah Alam",
        "State": "Selangor"
    },
    {
        "Postcode": "40400",
        "Location": "Jalan Gedangsa 26/20",
        "Post_Office": "Shah Alam",
        "State": "Selangor"
    },
    {
        "Postcode": "40400",
        "Location": "Jalan Geliga 25/12",
        "Post_Office": "Shah Alam",
        "State": "Selangor"
    },
    {
        "Postcode": "40400",
        "Location": "Jalan Gembira 25/105",
        "Post_Office": "Shah Alam",
        "State": "Selangor"
    },
    {
        "Postcode": "40400",
        "Location": "Jalan Gemilang 25/1",
        "Post_Office": "Shah Alam",
        "State": "Selangor"
    },
    {
        "Postcode": "40400",
        "Location": "Jalan Gersik Satu 26/160A",
        "Post_Office": "Shah Alam",
        "State": "Selangor"
    },
    {
        "Postcode": "40400",
        "Location": "Jalan Geruda Lima 6/6E",
        "Post_Office": "Shah Alam",
        "State": "Selangor"
    },
    {
        "Postcode": "40400",
        "Location": "Jalan Gicing Hulu 28/33",
        "Post_Office": "Shah Alam",
        "State": "Selangor"
    },
    {
        "Postcode": "40400",
        "Location": "Jalan Gigih 25/41",
        "Post_Office": "Shah Alam",
        "State": "Selangor"
    },
    {
        "Postcode": "40400",
        "Location": "Jalan Girang 25/106",
        "Post_Office": "Shah Alam",
        "State": "Selangor"
    },
    {
        "Postcode": "40400",
        "Location": "Jalan Gitar 33/3",
        "Post_Office": "Shah Alam",
        "State": "Selangor"
    },
    {
        "Postcode": "40400",
        "Location": "Jalan Gombak Setia 27/65",
        "Post_Office": "Shah Alam",
        "State": "Selangor"
    },
    {
        "Postcode": "40400",
        "Location": "Jalan Gombak Utara 27/50",
        "Post_Office": "Shah Alam",
        "State": "Selangor"
    },
    {
        "Postcode": "40400",
        "Location": "Jalan Gunggur 28/30",
        "Post_Office": "Shah Alam",
        "State": "Selangor"
    },
    {
        "Postcode": "40400",
        "Location": "Jalan Harapan 25/29",
        "Post_Office": "Shah Alam",
        "State": "Selangor"
    },
    {
        "Postcode": "40400",
        "Location": "Jalan Harmoni 25/37",
        "Post_Office": "Shah Alam",
        "State": "Selangor"
    },
    {
        "Postcode": "40400",
        "Location": "Jalan Harum 25/49",
        "Post_Office": "Shah Alam",
        "State": "Selangor"
    },
    {
        "Postcode": "40400",
        "Location": "Jalan Hasrat 25/79",
        "Post_Office": "Shah Alam",
        "State": "Selangor"
    },
    {
        "Postcode": "40400",
        "Location": "Jalan Hemah 25/69",
        "Post_Office": "Shah Alam",
        "State": "Selangor"
    },
    {
        "Postcode": "40400",
        "Location": "Jalan Hidayat 25/85",
        "Post_Office": "Shah Alam",
        "State": "Selangor"
    },
    {
        "Postcode": "40400",
        "Location": "Jalan Hikmat 25/82",
        "Post_Office": "Shah Alam",
        "State": "Selangor"
    },
    {
        "Postcode": "40400",
        "Location": "Jalan Hikmat Dua 25/82B",
        "Post_Office": "Shah Alam",
        "State": "Selangor"
    },
    {
        "Postcode": "40400",
        "Location": "Jalan Hikmat Satu 25/82A",
        "Post_Office": "Shah Alam",
        "State": "Selangor"
    },
    {
        "Postcode": "40400",
        "Location": "Jalan Hikmat Tiga 25/82C",
        "Post_Office": "Shah Alam",
        "State": "Selangor"
    },
    {
        "Postcode": "40400",
        "Location": "Jalan Hormat 25/48",
        "Post_Office": "Shah Alam",
        "State": "Selangor"
    },
    {
        "Postcode": "40400",
        "Location": "Jalan Hujung Permatang 26/25",
        "Post_Office": "Shah Alam",
        "State": "Selangor"
    },
    {
        "Postcode": "40400",
        "Location": "Jalan Hulu Kelang 27/46",
        "Post_Office": "Shah Alam",
        "State": "Selangor"
    },
    {
        "Postcode": "40400",
        "Location": "Jalan Hulu Rumput 27/39",
        "Post_Office": "Shah Alam",
        "State": "Selangor"
    },
    {
        "Postcode": "40400",
        "Location": "Jalan Hulu Teris 28/31",
        "Post_Office": "Shah Alam",
        "State": "Selangor"
    },
    {
        "Postcode": "40400",
        "Location": "Jalan Hulu Tinggi 26/6",
        "Post_Office": "Shah Alam",
        "State": "Selangor"
    },
    {
        "Postcode": "40400",
        "Location": "Jalan Ihsan 25/72",
        "Post_Office": "Shah Alam",
        "State": "Selangor"
    },
    {
        "Postcode": "40400",
        "Location": "Jalan Ijok 26/5",
        "Post_Office": "Shah Alam",
        "State": "Selangor"
    },
    {
        "Postcode": "40400",
        "Location": "Jalan Ikhlas 25/38",
        "Post_Office": "Shah Alam",
        "State": "Selangor"
    },
    {
        "Postcode": "40400",
        "Location": "Jalan Ilham 25/53",
        "Post_Office": "Shah Alam",
        "State": "Selangor"
    },
    {
        "Postcode": "40400",
        "Location": "Jalan Impian 25/33",
        "Post_Office": "Shah Alam",
        "State": "Selangor"
    },
    {
        "Postcode": "40400",
        "Location": "Jalan Impian Dua 25/33B",
        "Post_Office": "Shah Alam",
        "State": "Selangor"
    },
    {
        "Postcode": "40400",
        "Location": "Jalan Impian Empat 25/33D",
        "Post_Office": "Shah Alam",
        "State": "Selangor"
    },
    {
        "Postcode": "40400",
        "Location": "Jalan Impian Satu 25/33A",
        "Post_Office": "Shah Alam",
        "State": "Selangor"
    },
    {
        "Postcode": "40400",
        "Location": "Jalan Impian Tiga 25/33C",
        "Post_Office": "Shah Alam",
        "State": "Selangor"
    },
    {
        "Postcode": "40400",
        "Location": "Jalan Janggur  Satu 28/42A",
        "Post_Office": "Shah Alam",
        "State": "Selangor"
    },
    {
        "Postcode": "40400",
        "Location": "Jalan Janggur 28/43",
        "Post_Office": "Shah Alam",
        "State": "Selangor"
    },
    {
        "Postcode": "40400",
        "Location": "Jalan Jasa 25/27",
        "Post_Office": "Shah Alam",
        "State": "Selangor"
    },
    {
        "Postcode": "40400",
        "Location": "Jalan Jasa Dua 25/27B",
        "Post_Office": "Shah Alam",
        "State": "Selangor"
    },
    {
        "Postcode": "40400",
        "Location": "Jalan Jasa Empat 25/27D",
        "Post_Office": "Shah Alam",
        "State": "Selangor"
    },
    {
        "Postcode": "40400",
        "Location": "Jalan Jasa Satu 25/27A",
        "Post_Office": "Shah Alam",
        "State": "Selangor"
    },
    {
        "Postcode": "40400",
        "Location": "Jalan Jasa Tiga 25/27C",
        "Post_Office": "Shah Alam",
        "State": "Selangor"
    },
    {
        "Postcode": "40400",
        "Location": "Jalan Jaya 25/95",
        "Post_Office": "Shah Alam",
        "State": "Selangor"
    },
    {
        "Postcode": "40400",
        "Location": "Jalan Jaya Setia 26/3",
        "Post_Office": "Shah Alam",
        "State": "Selangor"
    },
    {
        "Postcode": "40400",
        "Location": "Jalan Jenang 28/25",
        "Post_Office": "Shah Alam",
        "State": "Selangor"
    },
    {
        "Postcode": "40400",
        "Location": "Jalan Jenang Satu 28/25A",
        "Post_Office": "Shah Alam",
        "State": "Selangor"
    },
    {
        "Postcode": "40400",
        "Location": "Jalan Jenderam 28/22",
        "Post_Office": "Shah Alam",
        "State": "Selangor"
    },
    {
        "Postcode": "40400",
        "Location": "Jalan Jenjarum 28/39",
        "Post_Office": "Shah Alam",
        "State": "Selangor"
    },
    {
        "Postcode": "40400",
        "Location": "Jalan Jenjarum Satu 28/39A",
        "Post_Office": "Shah Alam",
        "State": "Selangor"
    },
    {
        "Postcode": "40400",
        "Location": "Jalan Jerang Belanga 26/14",
        "Post_Office": "Shah Alam",
        "State": "Selangor"
    },
    {
        "Postcode": "40400",
        "Location": "Jalan Jerantut 26/128",
        "Post_Office": "Shah Alam",
        "State": "Selangor"
    },
    {
        "Postcode": "40400",
        "Location": "Jalan Jijan 28/35",
        "Post_Office": "Shah Alam",
        "State": "Selangor"
    },
    {
        "Postcode": "40400",
        "Location": "Jalan Jimat 25/87",
        "Post_Office": "Shah Alam",
        "State": "Selangor"
    },
    {
        "Postcode": "40400",
        "Location": "Jalan Jinjang 27/55",
        "Post_Office": "Shah Alam",
        "State": "Selangor"
    },
    {
        "Postcode": "40400",
        "Location": "Jalan Jiran 25/57",
        "Post_Office": "Shah Alam",
        "State": "Selangor"
    },
    {
        "Postcode": "40400",
        "Location": "Jalan Johan 25/121",
        "Post_Office": "Shah Alam",
        "State": "Selangor"
    },
    {
        "Postcode": "40400",
        "Location": "Jalan Juara 25/122",
        "Post_Office": "Shah Alam",
        "State": "Selangor"
    },
    {
        "Postcode": "40400",
        "Location": "Jalan Juara Satu 25/122A",
        "Post_Office": "Shah Alam",
        "State": "Selangor"
    },
    {
        "Postcode": "40400",
        "Location": "Jalan Jujur 25/30",
        "Post_Office": "Shah Alam",
        "State": "Selangor"
    },
    {
        "Postcode": "40400",
        "Location": "Jalan Jujur Dua 25/30B",
        "Post_Office": "Shah Alam",
        "State": "Selangor"
    },
    {
        "Postcode": "40400",
        "Location": "Jalan Jujur Satu 25/30A",
        "Post_Office": "Shah Alam",
        "State": "Selangor"
    },
    {
        "Postcode": "40400",
        "Location": "Jalan Kajang 27/1",
        "Post_Office": "Shah Alam",
        "State": "Selangor"
    },
    {
        "Postcode": "40400",
        "Location": "Jalan Kampung Pasir 27/82",
        "Post_Office": "Shah Alam",
        "State": "Selangor"
    },
    {
        "Postcode": "40400",
        "Location": "Jalan Kampung Rajah 27/86",
        "Post_Office": "Shah Alam",
        "State": "Selangor"
    },
    {
        "Postcode": "40400",
        "Location": "Jalan Kampung Stesen 27/77",
        "Post_Office": "Shah Alam",
        "State": "Selangor"
    },
    {
        "Postcode": "40400",
        "Location": "Jalan Kampung Tengah 27/48",
        "Post_Office": "Shah Alam",
        "State": "Selangor"
    },
    {
        "Postcode": "40400",
        "Location": "Jalan Kanchung Darat 28/7",
        "Post_Office": "Shah Alam",
        "State": "Selangor"
    },
    {
        "Postcode": "40400",
        "Location": "Jalan Kancung Darat 28/21",
        "Post_Office": "Shah Alam",
        "State": "Selangor"
    },
    {
        "Postcode": "40400",
        "Location": "Jalan Kancung Darat 28/7",
        "Post_Office": "Shah Alam",
        "State": "Selangor"
    },
    {
        "Postcode": "40400",
        "Location": "Jalan Kancung Laut 28/20",
        "Post_Office": "Shah Alam",
        "State": "Selangor"
    },
    {
        "Postcode": "40400",
        "Location": "Jalan Kapar 27/89",
        "Post_Office": "Shah Alam",
        "State": "Selangor"
    },
    {
        "Postcode": "40400",
        "Location": "Jalan Katung 28/11",
        "Post_Office": "Shah Alam",
        "State": "Selangor"
    },
    {
        "Postcode": "40400",
        "Location": "Jalan Kayu Ara Satu 26/19A",
        "Post_Office": "Shah Alam",
        "State": "Selangor"
    },
    {
        "Postcode": "40400",
        "Location": "Jalan Kebajikan 25/76",
        "Post_Office": "Shah Alam",
        "State": "Selangor"
    },
    {
        "Postcode": "40400",
        "Location": "Jalan Kebajikan Satu 25/76A",
        "Post_Office": "Shah Alam",
        "State": "Selangor"
    },
    {
        "Postcode": "40400",
        "Location": "Jalan Kecapi 33/2",
        "Post_Office": "Shah Alam",
        "State": "Selangor"
    },
    {
        "Postcode": "40400",
        "Location": "Jalan Kelanang 28/14",
        "Post_Office": "Shah Alam",
        "State": "Selangor"
    },
    {
        "Postcode": "40400",
        "Location": "Jalan Kelasa 27/56",
        "Post_Office": "Shah Alam",
        "State": "Selangor"
    },
    {
        "Postcode": "40400",
        "Location": "Jalan Kelasa 27/57",
        "Post_Office": "Shah Alam",
        "State": "Selangor"
    },
    {
        "Postcode": "40400",
        "Location": "Jalan Kelumpang 27/41",
        "Post_Office": "Shah Alam",
        "State": "Selangor"
    },
    {
        "Postcode": "40400",
        "Location": "Jalan Kelumpang Dua 27/41B",
        "Post_Office": "Shah Alam",
        "State": "Selangor"
    },
    {
        "Postcode": "40400",
        "Location": "Jalan Kelumpang Satu 27/41A",
        "Post_Office": "Shah Alam",
        "State": "Selangor"
    },
    {
        "Postcode": "40400",
        "Location": "Jalan Kemensah 27/53",
        "Post_Office": "Shah Alam",
        "State": "Selangor"
    },
    {
        "Postcode": "40400",
        "Location": "Jalan Kemensah Satu 27/53A",
        "Post_Office": "Shah Alam",
        "State": "Selangor"
    },
    {
        "Postcode": "40400",
        "Location": "Jalan Kerak Ampang 27/47",
        "Post_Office": "Shah Alam",
        "State": "Selangor"
    },
    {
        "Postcode": "40400",
        "Location": "Jalan Khidmat 25/35",
        "Post_Office": "Shah Alam",
        "State": "Selangor"
    },
    {
        "Postcode": "40400",
        "Location": "Jalan Khidmat Dua 25/35B",
        "Post_Office": "Shah Alam",
        "State": "Selangor"
    },
    {
        "Postcode": "40400",
        "Location": "Jalan Khidmat Satu 25/35A",
        "Post_Office": "Shah Alam",
        "State": "Selangor"
    },
    {
        "Postcode": "40400",
        "Location": "Jalan Klang Gate 27/45",
        "Post_Office": "Shah Alam",
        "State": "Selangor"
    },
    {
        "Postcode": "40400",
        "Location": "Jalan Klarinet 33/16",
        "Post_Office": "Shah Alam",
        "State": "Selangor"
    },
    {
        "Postcode": "40400",
        "Location": "Jalan Kota Raja A 27/A",
        "Post_Office": "Shah Alam",
        "State": "Selangor"
    },
    {
        "Postcode": "40400",
        "Location": "Jalan Kota Raja B 27/B",
        "Post_Office": "Shah Alam",
        "State": "Selangor"
    },
    {
        "Postcode": "40400",
        "Location": "Jalan Kota Raja C 27/C",
        "Post_Office": "Shah Alam",
        "State": "Selangor"
    },
    {
        "Postcode": "40400",
        "Location": "Jalan Kota Raja D 27/D",
        "Post_Office": "Shah Alam",
        "State": "Selangor"
    },
    {
        "Postcode": "40400",
        "Location": "Jalan Kota Raja E 27/E",
        "Post_Office": "Shah Alam",
        "State": "Selangor"
    },
    {
        "Postcode": "40400",
        "Location": "Jalan Kota Raja F 27/F",
        "Post_Office": "Shah Alam",
        "State": "Selangor"
    },
    {
        "Postcode": "40400",
        "Location": "Jalan Kota Raja G 27/G",
        "Post_Office": "Shah Alam",
        "State": "Selangor"
    },
    {
        "Postcode": "40400",
        "Location": "Jalan Kota Raja H 27/H",
        "Post_Office": "Shah Alam",
        "State": "Selangor"
    },
    {
        "Postcode": "40400",
        "Location": "Jalan Kota Raja J 27/J",
        "Post_Office": "Shah Alam",
        "State": "Selangor"
    },
    {
        "Postcode": "40400",
        "Location": "Jalan Kota Raja K 27/K",
        "Post_Office": "Shah Alam",
        "State": "Selangor"
    },
    {
        "Postcode": "40400",
        "Location": "Jalan Kota Raja L 27/L",
        "Post_Office": "Shah Alam",
        "State": "Selangor"
    },
    {
        "Postcode": "40400",
        "Location": "Jalan Kota Raja M 27/M",
        "Post_Office": "Shah Alam",
        "State": "Selangor"
    },
    {
        "Postcode": "40400",
        "Location": "Jalan Kuala Perdik 27/5",
        "Post_Office": "Shah Alam",
        "State": "Selangor"
    },
    {
        "Postcode": "40400",
        "Location": "Jalan Kudus 25/114",
        "Post_Office": "Shah Alam",
        "State": "Selangor"
    },
    {
        "Postcode": "40400",
        "Location": "Jalan Kukuh 25/42",
        "Post_Office": "Shah Alam",
        "State": "Selangor"
    },
    {
        "Postcode": "40400",
        "Location": "Jalan Kurnia 25/74",
        "Post_Office": "Shah Alam",
        "State": "Selangor"
    },
    {
        "Postcode": "40400",
        "Location": "Jalan Labu 28/23",
        "Post_Office": "Shah Alam",
        "State": "Selangor"
    },
    {
        "Postcode": "40400",
        "Location": "Jalan Labuan Dagang 28/16",
        "Post_Office": "Shah Alam",
        "State": "Selangor"
    },
    {
        "Postcode": "40400",
        "Location": "Jalan Lagong 27/84",
        "Post_Office": "Shah Alam",
        "State": "Selangor"
    },
    {
        "Postcode": "40400",
        "Location": "Jalan Lembah Keramat 27/34",
        "Post_Office": "Shah Alam",
        "State": "Selangor"
    },
    {
        "Postcode": "40400",
        "Location": "Jalan Linau 28/34",
        "Post_Office": "Shah Alam",
        "State": "Selangor"
    },
    {
        "Postcode": "40400",
        "Location": "Jalan Lingga 26/26",
        "Post_Office": "Shah Alam",
        "State": "Selangor"
    },
    {
        "Postcode": "40400",
        "Location": "Jalan Linggi 26/175",
        "Post_Office": "Shah Alam",
        "State": "Selangor"
    },
    {
        "Postcode": "40400",
        "Location": "Jalan Luhur 25/31",
        "Post_Office": "Shah Alam",
        "State": "Selangor"
    },
    {
        "Postcode": "40400",
        "Location": "Jalan Lunak 25/118",
        "Post_Office": "Shah Alam",
        "State": "Selangor"
    },
    {
        "Postcode": "40400",
        "Location": "Jalan Lunak Dua 25/118B",
        "Post_Office": "Shah Alam",
        "State": "Selangor"
    },
    {
        "Postcode": "40400",
        "Location": "Jalan Lunak Satu 25/118A",
        "Post_Office": "Shah Alam",
        "State": "Selangor"
    },
    {
        "Postcode": "40400",
        "Location": "Jalan Mahir 25/44",
        "Post_Office": "Shah Alam",
        "State": "Selangor"
    },
    {
        "Postcode": "40400",
        "Location": "Jalan Mahir Dua 25/44B",
        "Post_Office": "Shah Alam",
        "State": "Selangor"
    },
    {
        "Postcode": "40400",
        "Location": "Jalan Mahir Empat 25/44D",
        "Post_Office": "Shah Alam",
        "State": "Selangor"
    },
    {
        "Postcode": "40400",
        "Location": "Jalan Mahir Satu 25/44A",
        "Post_Office": "Shah Alam",
        "State": "Selangor"
    },
    {
        "Postcode": "40400",
        "Location": "Jalan Mahir Tiga 25/44C",
        "Post_Office": "Shah Alam",
        "State": "Selangor"
    },
    {
        "Postcode": "40400",
        "Location": "Jalan Maju 25/94",
        "Post_Office": "Shah Alam",
        "State": "Selangor"
    },
    {
        "Postcode": "40400",
        "Location": "Jalan Makmur 25/64",
        "Post_Office": "Shah Alam",
        "State": "Selangor"
    },
    {
        "Postcode": "40400",
        "Location": "Jalan Mandolin 33/5",
        "Post_Office": "Shah Alam",
        "State": "Selangor"
    },
    {
        "Postcode": "40400",
        "Location": "Jalan Manja 25/111",
        "Post_Office": "Shah Alam",
        "State": "Selangor"
    },
    {
        "Postcode": "40400",
        "Location": "Jalan Masyhur 25/50",
        "Post_Office": "Shah Alam",
        "State": "Selangor"
    },
    {
        "Postcode": "40400",
        "Location": "Jalan Masyhur Dua 25/50B",
        "Post_Office": "Shah Alam",
        "State": "Selangor"
    },
    {
        "Postcode": "40400",
        "Location": "Jalan Masyhur Satu 25/50A",
        "Post_Office": "Shah Alam",
        "State": "Selangor"
    },
    {
        "Postcode": "40400",
        "Location": "Jalan Matang Pagar 27/80",
        "Post_Office": "Shah Alam",
        "State": "Selangor"
    },
    {
        "Postcode": "40400",
        "Location": "Jalan Megah 25/109",
        "Post_Office": "Shah Alam",
        "State": "Selangor"
    },
    {
        "Postcode": "40400",
        "Location": "Jalan Mekoi 28/32",
        "Post_Office": "Shah Alam",
        "State": "Selangor"
    },
    {
        "Postcode": "40400",
        "Location": "Jalan Melut 28/38",
        "Post_Office": "Shah Alam",
        "State": "Selangor"
    },
    {
        "Postcode": "40400",
        "Location": "Jalan Mercu 25/3",
        "Post_Office": "Shah Alam",
        "State": "Selangor"
    },
    {
        "Postcode": "40400",
        "Location": "Jalan Merdu 25/119",
        "Post_Office": "Shah Alam",
        "State": "Selangor"
    },
    {
        "Postcode": "40400",
        "Location": "Jalan Mesra 25/66",
        "Post_Office": "Shah Alam",
        "State": "Selangor"
    },
    {
        "Postcode": "40400",
        "Location": "Jalan Mewah 25/63",
        "Post_Office": "Shah Alam",
        "State": "Selangor"
    },
    {
        "Postcode": "40400",
        "Location": "Jalan Molek 25/112",
        "Post_Office": "Shah Alam",
        "State": "Selangor"
    },
    {
        "Postcode": "40400",
        "Location": "Jalan Monsun Satu 8/6A",
        "Post_Office": "Shah Alam",
        "State": "Selangor"
    },
    {
        "Postcode": "40400",
        "Location": "Jalan Morib 28/6",
        "Post_Office": "Shah Alam",
        "State": "Selangor"
    },
    {
        "Postcode": "40400",
        "Location": "Jalan Muar Satu 26/142A",
        "Post_Office": "Shah Alam",
        "State": "Selangor"
    },
    {
        "Postcode": "40400",
        "Location": "Jalan Muhibah 25/7",
        "Post_Office": "Shah Alam",
        "State": "Selangor"
    },
    {
        "Postcode": "40400",
        "Location": "Jalan Mulia 25/73",
        "Post_Office": "Shah Alam",
        "State": "Selangor"
    },
    {
        "Postcode": "40400",
        "Location": "Jalan Murni 25/61",
        "Post_Office": "Shah Alam",
        "State": "Selangor"
    },
    {
        "Postcode": "40400",
        "Location": "Jalan Nikmat 25/47",
        "Post_Office": "Shah Alam",
        "State": "Selangor"
    },
    {
        "Postcode": "40400",
        "Location": "Jalan Nusa 25/59",
        "Post_Office": "Shah Alam",
        "State": "Selangor"
    },
    {
        "Postcode": "40400",
        "Location": "Jalan Nusa Dua 25/59B",
        "Post_Office": "Shah Alam",
        "State": "Selangor"
    },
    {
        "Postcode": "40400",
        "Location": "Jalan Nusa Satu 25/59A",
        "Post_Office": "Shah Alam",
        "State": "Selangor"
    },
    {
        "Postcode": "40400",
        "Location": "Jalan Nusa Tiga 25/59C",
        "Post_Office": "Shah Alam",
        "State": "Selangor"
    },
    {
        "Postcode": "40400",
        "Location": "Jalan Nyaman 25/20",
        "Post_Office": "Shah Alam",
        "State": "Selangor"
    },
    {
        "Postcode": "40400",
        "Location": "Jalan Nyiru Tiga 19/5C",
        "Post_Office": "Shah Alam",
        "State": "Selangor"
    },
    {
        "Postcode": "40400",
        "Location": "Jalan Obo 33/17",
        "Post_Office": "Shah Alam",
        "State": "Selangor"
    },
    {
        "Postcode": "40400",
        "Location": "Jalan Olak Lempit 28/41",
        "Post_Office": "Shah Alam",
        "State": "Selangor"
    },
    {
        "Postcode": "40400",
        "Location": "Jalan Palembang 28/26",
        "Post_Office": "Shah Alam",
        "State": "Selangor"
    },
    {
        "Postcode": "40400",
        "Location": "Jalan Pangkalan Kundang 27/30",
        "Post_Office": "Shah Alam",
        "State": "Selangor"
    },
    {
        "Postcode": "40400",
        "Location": "Jalan Pangsun 27/12",
        "Post_Office": "Shah Alam",
        "State": "Selangor"
    },
    {
        "Postcode": "40400",
        "Location": "Jalan Pangsun Dua 27/12B",
        "Post_Office": "Shah Alam",
        "State": "Selangor"
    },
    {
        "Postcode": "40400",
        "Location": "Jalan Pangsun Empat 27/12D",
        "Post_Office": "Shah Alam",
        "State": "Selangor"
    },
    {
        "Postcode": "40400",
        "Location": "Jalan Pangsun Satu 27/12A",
        "Post_Office": "Shah Alam",
        "State": "Selangor"
    },
    {
        "Postcode": "40400",
        "Location": "Jalan Pangsun Tiga 27/12C",
        "Post_Office": "Shah Alam",
        "State": "Selangor"
    },
    {
        "Postcode": "40400",
        "Location": "Jalan Parit Mahang 26/28",
        "Post_Office": "Shah Alam",
        "State": "Selangor"
    },
    {
        "Postcode": "40400",
        "Location": "Jalan Patuh 25/97",
        "Post_Office": "Shah Alam",
        "State": "Selangor"
    },
    {
        "Postcode": "40400",
        "Location": "Jalan Paya Cengal 26/33",
        "Post_Office": "Shah Alam",
        "State": "Selangor"
    },
    {
        "Postcode": "40400",
        "Location": "Jalan Paya Lebar 27/10",
        "Post_Office": "Shah Alam",
        "State": "Selangor"
    },
    {
        "Postcode": "40400",
        "Location": "Jalan Pedoman 25/88",
        "Post_Office": "Shah Alam",
        "State": "Selangor"
    },
    {
        "Postcode": "40400",
        "Location": "Jalan Pelembang 28/26",
        "Post_Office": "Shah Alam",
        "State": "Selangor"
    },
    {
        "Postcode": "40400",
        "Location": "Jalan Pendamar 27/90",
        "Post_Office": "Shah Alam",
        "State": "Selangor"
    },
    {
        "Postcode": "40400",
        "Location": "Jalan Perai 26/18",
        "Post_Office": "Shah Alam",
        "State": "Selangor"
    },
    {
        "Postcode": "40400",
        "Location": "Jalan Perbahan 26/2",
        "Post_Office": "Shah Alam",
        "State": "Selangor"
    },
    {
        "Postcode": "40400",
        "Location": "Jalan Perbahan Satu 26/2A",
        "Post_Office": "Shah Alam",
        "State": "Selangor"
    },
    {
        "Postcode": "40400",
        "Location": "Jalan Perepat 27/95",
        "Post_Office": "Shah Alam",
        "State": "Selangor"
    },
    {
        "Postcode": "40400",
        "Location": "Jalan Perimbun 27/11",
        "Post_Office": "Shah Alam",
        "State": "Selangor"
    },
    {
        "Postcode": "40400",
        "Location": "Jalan Perkasa 25/16",
        "Post_Office": "Shah Alam",
        "State": "Selangor"
    },
    {
        "Postcode": "40400",
        "Location": "Jalan Perkasa Satu 25/16A",
        "Post_Office": "Shah Alam",
        "State": "Selangor"
    },
    {
        "Postcode": "40400",
        "Location": "Jalan Permatang Cabang 26/31",
        "Post_Office": "Shah Alam",
        "State": "Selangor"
    },
    {
        "Postcode": "40400",
        "Location": "Jalan Permatang Kandis 26/34",
        "Post_Office": "Shah Alam",
        "State": "Selangor"
    },
    {
        "Postcode": "40400",
        "Location": "Jalan Pertiwi 25/5",
        "Post_Office": "Shah Alam",
        "State": "Selangor"
    },
    {
        "Postcode": "40400",
        "Location": "Jalan Pesona 25/116",
        "Post_Office": "Shah Alam",
        "State": "Selangor"
    },
    {
        "Postcode": "40400",
        "Location": "Jalan Petola 24/8",
        "Post_Office": "Shah Alam",
        "State": "Selangor"
    },
    {
        "Postcode": "40400",
        "Location": "Jalan Petola Tiga 24/8C",
        "Post_Office": "Shah Alam",
        "State": "Selangor"
    },
    {
        "Postcode": "40400",
        "Location": "Jalan Petua 25/92",
        "Post_Office": "Shah Alam",
        "State": "Selangor"
    },
    {
        "Postcode": "40400",
        "Location": "Jalan Pikolo 33/14",
        "Post_Office": "Shah Alam",
        "State": "Selangor"
    },
    {
        "Postcode": "40400",
        "Location": "Jalan Pilus 27/24",
        "Post_Office": "Shah Alam",
        "State": "Selangor"
    },
    {
        "Postcode": "40400",
        "Location": "Jalan Pilus Dua 27/24B",
        "Post_Office": "Shah Alam",
        "State": "Selangor"
    },
    {
        "Postcode": "40400",
        "Location": "Jalan Pilus Satu 27/24A",
        "Post_Office": "Shah Alam",
        "State": "Selangor"
    },
    {
        "Postcode": "40400",
        "Location": "Jalan Pilus Tiga 27/24C",
        "Post_Office": "Shah Alam",
        "State": "Selangor"
    },
    {
        "Postcode": "40400",
        "Location": "Jalan Puji 25/120",
        "Post_Office": "Shah Alam",
        "State": "Selangor"
    },
    {
        "Postcode": "40400",
        "Location": "Jalan Puji Dua 25/120B",
        "Post_Office": "Shah Alam",
        "State": "Selangor"
    },
    {
        "Postcode": "40400",
        "Location": "Jalan Puji Satu 25/120A",
        "Post_Office": "Shah Alam",
        "State": "Selangor"
    },
    {
        "Postcode": "40400",
        "Location": "Jalan Pulau Kempas 28/3",
        "Post_Office": "Shah Alam",
        "State": "Selangor"
    },
    {
        "Postcode": "40400",
        "Location": "Jalan Pulau Sebak 28/29",
        "Post_Office": "Shah Alam",
        "State": "Selangor"
    },
    {
        "Postcode": "40400",
        "Location": "Jalan Rahmat 25/75",
        "Post_Office": "Shah Alam",
        "State": "Selangor"
    },
    {
        "Postcode": "40400",
        "Location": "Jalan Rantau Panjang 27/98",
        "Post_Office": "Shah Alam",
        "State": "Selangor"
    },
    {
        "Postcode": "40400",
        "Location": "Jalan Rawang 27/35",
        "Post_Office": "Shah Alam",
        "State": "Selangor"
    },
    {
        "Postcode": "40400",
        "Location": "Jalan Rawang Dua 27/35B",
        "Post_Office": "Shah Alam",
        "State": "Selangor"
    },
    {
        "Postcode": "40400",
        "Location": "Jalan Rawang Satu 27/35A",
        "Post_Office": "Shah Alam",
        "State": "Selangor"
    },
    {
        "Postcode": "40400",
        "Location": "Jalan Rekoder 33/12",
        "Post_Office": "Shah Alam",
        "State": "Selangor"
    },
    {
        "Postcode": "40400",
        "Location": "Jalan Rengit 26/162",
        "Post_Office": "Shah Alam",
        "State": "Selangor"
    },
    {
        "Postcode": "40400",
        "Location": "Jalan Restu 25/91",
        "Post_Office": "Shah Alam",
        "State": "Selangor"
    },
    {
        "Postcode": "40400",
        "Location": "Jalan Ria 25/62",
        "Post_Office": "Shah Alam",
        "State": "Selangor"
    },
    {
        "Postcode": "40400",
        "Location": "Jalan Riang 25/117",
        "Post_Office": "Shah Alam",
        "State": "Selangor"
    },
    {
        "Postcode": "40400",
        "Location": "Jalan Riang Dua 25/117B",
        "Post_Office": "Shah Alam",
        "State": "Selangor"
    },
    {
        "Postcode": "40400",
        "Location": "Jalan Riang Satu 25/117A",
        "Post_Office": "Shah Alam",
        "State": "Selangor"
    },
    {
        "Postcode": "40400",
        "Location": "Jalan Riang Tiga 25/117C",
        "Post_Office": "Shah Alam",
        "State": "Selangor"
    },
    {
        "Postcode": "40400",
        "Location": "Jalan Ricing Hulu 28/33",
        "Post_Office": "Shah Alam",
        "State": "Selangor"
    },
    {
        "Postcode": "40400",
        "Location": "Jalan Rincing 27/13",
        "Post_Office": "Shah Alam",
        "State": "Selangor"
    },
    {
        "Postcode": "40400",
        "Location": "Jalan Sabar 25/83",
        "Post_Office": "Shah Alam",
        "State": "Selangor"
    },
    {
        "Postcode": "40400",
        "Location": "Jalan Sahih 25/55",
        "Post_Office": "Shah Alam",
        "State": "Selangor"
    },
    {
        "Postcode": "40400",
        "Location": "Jalan Saksafon 33/15",
        "Post_Office": "Shah Alam",
        "State": "Selangor"
    },
    {
        "Postcode": "40400",
        "Location": "Jalan Saksama 25/39",
        "Post_Office": "Shah Alam",
        "State": "Selangor"
    },
    {
        "Postcode": "40400",
        "Location": "Jalan Salak Tinggi 28/24",
        "Post_Office": "Shah Alam",
        "State": "Selangor"
    },
    {
        "Postcode": "40400",
        "Location": "Jalan Sampoton 33/11",
        "Post_Office": "Shah Alam",
        "State": "Selangor"
    },
    {
        "Postcode": "40400",
        "Location": "Jalan Sampoton A 33/1",
        "Post_Office": "Shah Alam",
        "State": "Selangor"
    },
    {
        "Postcode": "40400",
        "Location": "Jalan Sampoton B 33/B",
        "Post_Office": "Shah Alam",
        "State": "Selangor"
    },
    {
        "Postcode": "40400",
        "Location": "Jalan Sandakan 26/3",
        "Post_Office": "Shah Alam",
        "State": "Selangor"
    },
    {
        "Postcode": "40400",
        "Location": "Jalan Sapir 33/7",
        "Post_Office": "Shah Alam",
        "State": "Selangor"
    },
    {
        "Postcode": "40400",
        "Location": "Jalan Sasa 25/102",
        "Post_Office": "Shah Alam",
        "State": "Selangor"
    },
    {
        "Postcode": "40400",
        "Location": "Jalan Sasa 25/102A",
        "Post_Office": "Shah Alam",
        "State": "Selangor"
    },
    {
        "Postcode": "40400",
        "Location": "Jalan Sasa Satu 25/102A",
        "Post_Office": "Shah Alam",
        "State": "Selangor"
    },
    {
        "Postcode": "40400",
        "Location": "Jalan Sayang 25/110",
        "Post_Office": "Shah Alam",
        "State": "Selangor"
    },
    {
        "Postcode": "40400",
        "Location": "Jalan Segamat Satu 26/146A",
        "Post_Office": "Shah Alam",
        "State": "Selangor"
    },
    {
        "Postcode": "40400",
        "Location": "Jalan Sejahtera 25/124",
        "Post_Office": "Shah Alam",
        "State": "Selangor"
    },
    {
        "Postcode": "40400",
        "Location": "Jalan Sekamat 27/18",
        "Post_Office": "Shah Alam",
        "State": "Selangor"
    },
    {
        "Postcode": "40400",
        "Location": "Jalan Sekamat Satu 27/18A",
        "Post_Office": "Shah Alam",
        "State": "Selangor"
    },
    {
        "Postcode": "40400",
        "Location": "Jalan Sekendi 26/16",
        "Post_Office": "Shah Alam",
        "State": "Selangor"
    },
    {
        "Postcode": "40400",
        "Location": "Jalan Sekincan 26/9",
        "Post_Office": "Shah Alam",
        "State": "Selangor"
    },
    {
        "Postcode": "40400",
        "Location": "Jalan Selamat 25/93",
        "Post_Office": "Shah Alam",
        "State": "Selangor"
    },
    {
        "Postcode": "40400",
        "Location": "Jalan Selaru 26/22",
        "Post_Office": "Shah Alam",
        "State": "Selangor"
    },
    {
        "Postcode": "40400",
        "Location": "Jalan Selayang 27/27",
        "Post_Office": "Shah Alam",
        "State": "Selangor"
    },
    {
        "Postcode": "40400",
        "Location": "Jalan Selayang Baru 27/69",
        "Post_Office": "Shah Alam",
        "State": "Selangor"
    },
    {
        "Postcode": "40400",
        "Location": "Jalan Selayang Pandang 27/68",
        "Post_Office": "Shah Alam",
        "State": "Selangor"
    },
    {
        "Postcode": "40400",
        "Location": "Jalan Selayang Satu 27/27A",
        "Post_Office": "Shah Alam",
        "State": "Selangor"
    },
    {
        "Postcode": "40400",
        "Location": "Jalan Selesa 25/107",
        "Post_Office": "Shah Alam",
        "State": "Selangor"
    },
    {
        "Postcode": "40400",
        "Location": "Jalan Selih 27/52",
        "Post_Office": "Shah Alam",
        "State": "Selangor"
    },
    {
        "Postcode": "40400",
        "Location": "Jalan Selih Satu 27/52A",
        "Post_Office": "Shah Alam",
        "State": "Selangor"
    },
    {
        "Postcode": "40400",
        "Location": "Jalan Selisik 26/21",
        "Post_Office": "Shah Alam",
        "State": "Selangor"
    },
    {
        "Postcode": "40400",
        "Location": "Jalan Semangat 25/8",
        "Post_Office": "Shah Alam",
        "State": "Selangor"
    },
    {
        "Postcode": "40400",
        "Location": "Jalan Sementa 27/91",
        "Post_Office": "Shah Alam",
        "State": "Selangor"
    },
    {
        "Postcode": "40400",
        "Location": "Jalan Semenyih 27/2",
        "Post_Office": "Shah Alam",
        "State": "Selangor"
    },
    {
        "Postcode": "40400",
        "Location": "Jalan Sempurna 25/81",
        "Post_Office": "Shah Alam",
        "State": "Selangor"
    },
    {
        "Postcode": "40400",
        "Location": "Jalan Senang 25/104",
        "Post_Office": "Shah Alam",
        "State": "Selangor"
    },
    {
        "Postcode": "40400",
        "Location": "Jalan Sentosa 25/56",
        "Post_Office": "Shah Alam",
        "State": "Selangor"
    },
    {
        "Postcode": "40400",
        "Location": "Jalan Sepadu 25/123",
        "Post_Office": "Shah Alam",
        "State": "Selangor"
    },
    {
        "Postcode": "40400",
        "Location": "Jalan Sepadu A 25/A",
        "Post_Office": "Shah Alam",
        "State": "Selangor"
    },
    {
        "Postcode": "40400",
        "Location": "Jalan Sepadu B 25/B",
        "Post_Office": "Shah Alam",
        "State": "Selangor"
    },
    {
        "Postcode": "40400",
        "Location": "Jalan Sepadu C 25/C",
        "Post_Office": "Shah Alam",
        "State": "Selangor"
    },
    {
        "Postcode": "40400",
        "Location": "Jalan Sepadu D 25/D",
        "Post_Office": "Shah Alam",
        "State": "Selangor"
    },
    {
        "Postcode": "40400",
        "Location": "Jalan Sepakat 25/51",
        "Post_Office": "Shah Alam",
        "State": "Selangor"
    },
    {
        "Postcode": "40400",
        "Location": "Jalan Sepang Jaya 28/36",
        "Post_Office": "Shah Alam",
        "State": "Selangor"
    },
    {
        "Postcode": "40400",
        "Location": "Jalan Sepintas 26/13",
        "Post_Office": "Shah Alam",
        "State": "Selangor"
    },
    {
        "Postcode": "40400",
        "Location": "Jalan Serendah 26/17",
        "Post_Office": "Shah Alam",
        "State": "Selangor"
    },
    {
        "Postcode": "40400",
        "Location": "Jalan Seri Gombak 27/66",
        "Post_Office": "Shah Alam",
        "State": "Selangor"
    },
    {
        "Postcode": "40400",
        "Location": "Jalan Sesapan Kelubi 27/21",
        "Post_Office": "Shah Alam",
        "State": "Selangor"
    },
    {
        "Postcode": "40400",
        "Location": "Jalan Setapak 27/41",
        "Post_Office": "Shah Alam",
        "State": "Selangor"
    },
    {
        "Postcode": "40400",
        "Location": "Jalan Setapak Dua 27/41B",
        "Post_Office": "Shah Alam",
        "State": "Selangor"
    },
    {
        "Postcode": "40400",
        "Location": "Jalan Setapak Satu 26/63A",
        "Post_Office": "Shah Alam",
        "State": "Selangor"
    },
    {
        "Postcode": "40400",
        "Location": "Jalan Setapak Satu 27/41A",
        "Post_Office": "Shah Alam",
        "State": "Selangor"
    },
    {
        "Postcode": "40400",
        "Location": "Jalan Setia 25/65",
        "Post_Office": "Shah Alam",
        "State": "Selangor"
    },
    {
        "Postcode": "40400",
        "Location": "Jalan Sijangkang 28/17",
        "Post_Office": "Shah Alam",
        "State": "Selangor"
    },
    {
        "Postcode": "40400",
        "Location": "Jalan Sijangkang Satu 28/17A",
        "Post_Office": "Shah Alam",
        "State": "Selangor"
    },
    {
        "Postcode": "40400",
        "Location": "Jalan Simpang Tiga 27/49",
        "Post_Office": "Shah Alam",
        "State": "Selangor"
    },
    {
        "Postcode": "40400",
        "Location": "Jalan Sitar 33/6",
        "Post_Office": "Shah Alam",
        "State": "Selangor"
    },
    {
        "Postcode": "40400",
        "Location": "Jalan Songlai 27/42",
        "Post_Office": "Shah Alam",
        "State": "Selangor"
    },
    {
        "Postcode": "40400",
        "Location": "Jalan Sorna 27/51",
        "Post_Office": "Shah Alam",
        "State": "Selangor"
    },
    {
        "Postcode": "40400",
        "Location": "Jalan Srikandi 25/14",
        "Post_Office": "Shah Alam",
        "State": "Selangor"
    },
    {
        "Postcode": "40400",
        "Location": "Jalan Subuh 25/92",
        "Post_Office": "Shah Alam",
        "State": "Selangor"
    },
    {
        "Postcode": "40400",
        "Location": "Jalan Suci 25/90",
        "Post_Office": "Shah Alam",
        "State": "Selangor"
    },
    {
        "Postcode": "40400",
        "Location": "Jalan Sungai Aur 26/32",
        "Post_Office": "Shah Alam",
        "State": "Selangor"
    },
    {
        "Postcode": "40400",
        "Location": "Jalan Sungai Batu 27/72",
        "Post_Office": "Shah Alam",
        "State": "Selangor"
    },
    {
        "Postcode": "40400",
        "Location": "Jalan Sungai Besar 26/7",
        "Post_Office": "Shah Alam",
        "State": "Selangor"
    },
    {
        "Postcode": "40400",
        "Location": "Jalan Sungai Besi 26/80",
        "Post_Office": "Shah Alam",
        "State": "Selangor"
    },
    {
        "Postcode": "40400",
        "Location": "Jalan Sungai Binjai 27/97",
        "Post_Office": "Shah Alam",
        "State": "Selangor"
    },
    {
        "Postcode": "40400",
        "Location": "Jalan Sungai Buluh 27/31",
        "Post_Office": "Shah Alam",
        "State": "Selangor"
    },
    {
        "Postcode": "40400",
        "Location": "Jalan Sungai Chik 27/74",
        "Post_Office": "Shah Alam",
        "State": "Selangor"
    },
    {
        "Postcode": "40400",
        "Location": "Jalan Sungai Cincin 27/57",
        "Post_Office": "Shah Alam",
        "State": "Selangor"
    },
    {
        "Postcode": "40400",
        "Location": "Jalan Sungai Cincin 27/58",
        "Post_Office": "Shah Alam",
        "State": "Selangor"
    },
    {
        "Postcode": "40400",
        "Location": "Jalan Sungai Cincin Dua 27/57B",
        "Post_Office": "Shah Alam",
        "State": "Selangor"
    },
    {
        "Postcode": "40400",
        "Location": "Jalan Sungai Cincin Dua 27/58B",
        "Post_Office": "Shah Alam",
        "State": "Selangor"
    },
    {
        "Postcode": "40400",
        "Location": "Jalan Sungai Cincin Satu 27/57A",
        "Post_Office": "Shah Alam",
        "State": "Selangor"
    },
    {
        "Postcode": "40400",
        "Location": "Jalan Sungai Cincin Satu 27/58A",
        "Post_Office": "Shah Alam",
        "State": "Selangor"
    },
    {
        "Postcode": "40400",
        "Location": "Jalan Sungai Gapis 27/71",
        "Post_Office": "Shah Alam",
        "State": "Selangor"
    },
    {
        "Postcode": "40400",
        "Location": "Jalan Sungai Garing 27/61",
        "Post_Office": "Shah Alam",
        "State": "Selangor"
    },
    {
        "Postcode": "40400",
        "Location": "Jalan Sungai Garing 27/62",
        "Post_Office": "Shah Alam",
        "State": "Selangor"
    },
    {
        "Postcode": "40400",
        "Location": "Jalan Sungai Gombak 27/62",
        "Post_Office": "Shah Alam",
        "State": "Selangor"
    },
    {
        "Postcode": "40400",
        "Location": "Jalan Sungai Gong 27/78",
        "Post_Office": "Shah Alam",
        "State": "Selangor"
    },
    {
        "Postcode": "40400",
        "Location": "Jalan Sungai Jai 27/15",
        "Post_Office": "Shah Alam",
        "State": "Selangor"
    },
    {
        "Postcode": "40400",
        "Location": "Jalan Sungai Judah 28/13",
        "Post_Office": "Shah Alam",
        "State": "Selangor"
    },
    {
        "Postcode": "40400",
        "Location": "Jalan Sungai Kandis 27/92",
        "Post_Office": "Shah Alam",
        "State": "Selangor"
    },
    {
        "Postcode": "40400",
        "Location": "Jalan Sungai Keruh 27/73",
        "Post_Office": "Shah Alam",
        "State": "Selangor"
    },
    {
        "Postcode": "40400",
        "Location": "Jalan Sungai Lalang 27/19",
        "Post_Office": "Shah Alam",
        "State": "Selangor"
    },
    {
        "Postcode": "40400",
        "Location": "Jalan Sungai Manau 27/76",
        "Post_Office": "Shah Alam",
        "State": "Selangor"
    },
    {
        "Postcode": "40400",
        "Location": "Jalan Sungai Masai 27/25",
        "Post_Office": "Shah Alam",
        "State": "Selangor"
    },
    {
        "Postcode": "40400",
        "Location": "Jalan Sungai Merab 28/28",
        "Post_Office": "Shah Alam",
        "State": "Selangor"
    },
    {
        "Postcode": "40400",
        "Location": "Jalan Sungai Nirih 26/15",
        "Post_Office": "Shah Alam",
        "State": "Selangor"
    },
    {
        "Postcode": "40400",
        "Location": "Jalan Sungai Pajam 27/58",
        "Post_Office": "Shah Alam",
        "State": "Selangor"
    },
    {
        "Postcode": "40400",
        "Location": "Jalan Sungai Pusu 27/32",
        "Post_Office": "Shah Alam",
        "State": "Selangor"
    },
    {
        "Postcode": "40400",
        "Location": "Jalan Sungai Rangkap 27/26",
        "Post_Office": "Shah Alam",
        "State": "Selangor"
    },
    {
        "Postcode": "40400",
        "Location": "Jalan Sungai Sanglai 27/70",
        "Post_Office": "Shah Alam",
        "State": "Selangor"
    },
    {
        "Postcode": "40400",
        "Location": "Jalan Sungai Serai 27/22",
        "Post_Office": "Shah Alam",
        "State": "Selangor"
    },
    {
        "Postcode": "40400",
        "Location": "Jalan Sungai Takuk 27/74",
        "Post_Office": "Shah Alam",
        "State": "Selangor"
    },
    {
        "Postcode": "40400",
        "Location": "Jalan Sungai Tekali 27/17",
        "Post_Office": "Shah Alam",
        "State": "Selangor"
    },
    {
        "Postcode": "40400",
        "Location": "Jalan Sungai Terentang 27/75",
        "Post_Office": "Shah Alam",
        "State": "Selangor"
    },
    {
        "Postcode": "40400",
        "Location": "Jalan Sungai Tua 27/37",
        "Post_Office": "Shah Alam",
        "State": "Selangor"
    },
    {
        "Postcode": "40400",
        "Location": "Jalan Syukur 25/78",
        "Post_Office": "Shah Alam",
        "State": "Selangor"
    },
    {
        "Postcode": "40400",
        "Location": "Jalan Syukur Satu 25/78A",
        "Post_Office": "Shah Alam",
        "State": "Selangor"
    },
    {
        "Postcode": "40400",
        "Location": "Jalan Tabah 25/25",
        "Post_Office": "Shah Alam",
        "State": "Selangor"
    },
    {
        "Postcode": "40400",
        "Location": "Jalan Tadum 28/41",
        "Post_Office": "Shah Alam",
        "State": "Selangor"
    },
    {
        "Postcode": "40400",
        "Location": "Jalan Tadum 28/42",
        "Post_Office": "Shah Alam",
        "State": "Selangor"
    },
    {
        "Postcode": "40400",
        "Location": "Jalan Tadun 27/81",
        "Post_Office": "Shah Alam",
        "State": "Selangor"
    },
    {
        "Postcode": "40400",
        "Location": "Jalan Tajuh 27/29",
        "Post_Office": "Shah Alam",
        "State": "Selangor"
    },
    {
        "Postcode": "40400",
        "Location": "Jalan Tajuh Satu 27/29A",
        "Post_Office": "Shah Alam",
        "State": "Selangor"
    },
    {
        "Postcode": "40400",
        "Location": "Jalan Takwa 25/77",
        "Post_Office": "Shah Alam",
        "State": "Selangor"
    },
    {
        "Postcode": "40400",
        "Location": "Jalan Taman Keramat 27/33",
        "Post_Office": "Shah Alam",
        "State": "Selangor"
    },
    {
        "Postcode": "40400",
        "Location": "Jalan Taman Melawati 27/36",
        "Post_Office": "Shah Alam",
        "State": "Selangor"
    },
    {
        "Postcode": "40400",
        "Location": "Jalan Tampin 26/113",
        "Post_Office": "Shah Alam",
        "State": "Selangor"
    },
    {
        "Postcode": "40400",
        "Location": "Jalan Tanah Liat 28/37",
        "Post_Office": "Shah Alam",
        "State": "Selangor"
    },
    {
        "Postcode": "40400",
        "Location": "Jalan Tangkas 25/100",
        "Post_Office": "Shah Alam",
        "State": "Selangor"
    },
    {
        "Postcode": "40400",
        "Location": "Jalan Tangkas Satu 25/100A",
        "Post_Office": "Shah Alam",
        "State": "Selangor"
    },
    {
        "Postcode": "40400",
        "Location": "Jalan Tanjung 25/97",
        "Post_Office": "Shah Alam",
        "State": "Selangor"
    },
    {
        "Postcode": "40400",
        "Location": "Jalan Tanjung Jinti 28/20",
        "Post_Office": "Shah Alam",
        "State": "Selangor"
    },
    {
        "Postcode": "40400",
        "Location": "Jalan Tanjung Keramat 26/35",
        "Post_Office": "Shah Alam",
        "State": "Selangor"
    },
    {
        "Postcode": "40400",
        "Location": "Jalan Tanjung Layang 28/19",
        "Post_Office": "Shah Alam",
        "State": "Selangor"
    },
    {
        "Postcode": "40400",
        "Location": "Jalan Tanjung Medan 26/12",
        "Post_Office": "Shah Alam",
        "State": "Selangor"
    },
    {
        "Postcode": "40400",
        "Location": "Jalan Tanjung Pauh 27/4",
        "Post_Office": "Shah Alam",
        "State": "Selangor"
    },
    {
        "Postcode": "40400",
        "Location": "Jalan Tanjung Rabuk 28/2",
        "Post_Office": "Shah Alam",
        "State": "Selangor"
    },
    {
        "Postcode": "40400",
        "Location": "Jalan Tanjung Sepat 26/98",
        "Post_Office": "Shah Alam",
        "State": "Selangor"
    },
    {
        "Postcode": "40400",
        "Location": "Jalan Tanjung Sepat 28/10",
        "Post_Office": "Shah Alam",
        "State": "Selangor"
    },
    {
        "Postcode": "40400",
        "Location": "Jalan Tarun 27/23",
        "Post_Office": "Shah Alam",
        "State": "Selangor"
    },
    {
        "Postcode": "40400",
        "Location": "Jalan Tarun Satu 27/23A",
        "Post_Office": "Shah Alam",
        "State": "Selangor"
    },
    {
        "Postcode": "40400",
        "Location": "Jalan Tegap 25/98",
        "Post_Office": "Shah Alam",
        "State": "Selangor"
    },
    {
        "Postcode": "40400",
        "Location": "Jalan Tegap Dua 25/98B",
        "Post_Office": "Shah Alam",
        "State": "Selangor"
    },
    {
        "Postcode": "40400",
        "Location": "Jalan Tegap Satu 25/98A",
        "Post_Office": "Shah Alam",
        "State": "Selangor"
    },
    {
        "Postcode": "40400",
        "Location": "Jalan Tegap Tiga 25/98C",
        "Post_Office": "Shah Alam",
        "State": "Selangor"
    },
    {
        "Postcode": "40400",
        "Location": "Jalan Tekun 24/43",
        "Post_Office": "Shah Alam",
        "State": "Selangor"
    },
    {
        "Postcode": "40400",
        "Location": "Jalan Teladan 25/22",
        "Post_Office": "Shah Alam",
        "State": "Selangor"
    },
    {
        "Postcode": "40400",
        "Location": "Jalan Teladan Dua 25/22B",
        "Post_Office": "Shah Alam",
        "State": "Selangor"
    },
    {
        "Postcode": "40400",
        "Location": "Jalan Teladan Satu 25/22A",
        "Post_Office": "Shah Alam",
        "State": "Selangor"
    },
    {
        "Postcode": "40400",
        "Location": "Jalan Telok Panglima Garang 28/1",
        "Post_Office": "Shah Alam",
        "State": "Selangor"
    },
    {
        "Postcode": "40400",
        "Location": "Jalan Teluk Datai 28/40",
        "Post_Office": "Shah Alam",
        "State": "Selangor"
    },
    {
        "Postcode": "40400",
        "Location": "Jalan Teluk Gadong 27/93",
        "Post_Office": "Shah Alam",
        "State": "Selangor"
    },
    {
        "Postcode": "40400",
        "Location": "Jalan Teluk Kapas 27/94",
        "Post_Office": "Shah Alam",
        "State": "Selangor"
    },
    {
        "Postcode": "40400",
        "Location": "Jalan Teluk Mengkuang 28/15",
        "Post_Office": "Shah Alam",
        "State": "Selangor"
    },
    {
        "Postcode": "40400",
        "Location": "Jalan Teluk Pulai 27/88",
        "Post_Office": "Shah Alam",
        "State": "Selangor"
    },
    {
        "Postcode": "40400",
        "Location": "Jalan Teluk Ru Empat 25/11D",
        "Post_Office": "Shah Alam",
        "State": "Selangor"
    },
    {
        "Postcode": "40400",
        "Location": "Jalan Tembaga 27/55",
        "Post_Office": "Shah Alam",
        "State": "Selangor"
    },
    {
        "Postcode": "40400",
        "Location": "Jalan Tembaga 27/56",
        "Post_Office": "Shah Alam",
        "State": "Selangor"
    },
    {
        "Postcode": "40400",
        "Location": "Jalan Templer Park 27/70",
        "Post_Office": "Shah Alam",
        "State": "Selangor"
    },
    {
        "Postcode": "40400",
        "Location": "Jalan Tenang 25/54",
        "Post_Office": "Shah Alam",
        "State": "Selangor"
    },
    {
        "Postcode": "40400",
        "Location": "Jalan Tenang Dua 25/54B",
        "Post_Office": "Shah Alam",
        "State": "Selangor"
    },
    {
        "Postcode": "40400",
        "Location": "Jalan Tenang Satu 25/54A",
        "Post_Office": "Shah Alam",
        "State": "Selangor"
    },
    {
        "Postcode": "40400",
        "Location": "Jalan Tenteram 25/84",
        "Post_Office": "Shah Alam",
        "State": "Selangor"
    },
    {
        "Postcode": "40400",
        "Location": "Jalan Teraju 25/67",
        "Post_Office": "Shah Alam",
        "State": "Selangor"
    },
    {
        "Postcode": "40400",
        "Location": "Jalan Teras Jernang 27/26",
        "Post_Office": "Shah Alam",
        "State": "Selangor"
    },
    {
        "Postcode": "40400",
        "Location": "Jalan Teras Jernang 27/8",
        "Post_Office": "Shah Alam",
        "State": "Selangor"
    },
    {
        "Postcode": "40400",
        "Location": "Jalan Terendak 26/106",
        "Post_Office": "Shah Alam",
        "State": "Selangor"
    },
    {
        "Postcode": "40400",
        "Location": "Jalan Tertib 25/32",
        "Post_Office": "Shah Alam",
        "State": "Selangor"
    },
    {
        "Postcode": "40400",
        "Location": "Jalan Tiram Jaya 26/37",
        "Post_Office": "Shah Alam",
        "State": "Selangor"
    },
    {
        "Postcode": "40400",
        "Location": "Jalan Titib 28/8",
        "Post_Office": "Shah Alam",
        "State": "Selangor"
    },
    {
        "Postcode": "40400",
        "Location": "Jalan Tokoh 25/28",
        "Post_Office": "Shah Alam",
        "State": "Selangor"
    },
    {
        "Postcode": "40400",
        "Location": "Jalan Tokoh Dua 25/28B",
        "Post_Office": "Shah Alam",
        "State": "Selangor"
    },
    {
        "Postcode": "40400",
        "Location": "Jalan Tokoh Satu 25/28A",
        "Post_Office": "Shah Alam",
        "State": "Selangor"
    },
    {
        "Postcode": "40400",
        "Location": "Jalan Trombon 33/10",
        "Post_Office": "Shah Alam",
        "State": "Selangor"
    },
    {
        "Postcode": "40400",
        "Location": "Jalan Trompet 33/8",
        "Post_Office": "Shah Alam",
        "State": "Selangor"
    },
    {
        "Postcode": "40400",
        "Location": "Jalan Tulus 25/71",
        "Post_Office": "Shah Alam",
        "State": "Selangor"
    },
    {
        "Postcode": "40400",
        "Location": "Jalan Unggul 25/40",
        "Post_Office": "Shah Alam",
        "State": "Selangor"
    },
    {
        "Postcode": "40400",
        "Location": "Jalan Unyang 27/60",
        "Post_Office": "Shah Alam",
        "State": "Selangor"
    },
    {
        "Postcode": "40400",
        "Location": "Jalan Usaha 25/2",
        "Post_Office": "Shah Alam",
        "State": "Selangor"
    },
    {
        "Postcode": "40400",
        "Location": "Jalan Usaha Satu 25/2A",
        "Post_Office": "Shah Alam",
        "State": "Selangor"
    },
    {
        "Postcode": "40400",
        "Location": "Jalan Waja 25/13",
        "Post_Office": "Shah Alam",
        "State": "Selangor"
    },
    {
        "Postcode": "40400",
        "Location": "Jalan Waja Dua 25/13B",
        "Post_Office": "Shah Alam",
        "State": "Selangor"
    },
    {
        "Postcode": "40400",
        "Location": "Jalan Waja Satu 25/13A",
        "Post_Office": "Shah Alam",
        "State": "Selangor"
    },
    {
        "Postcode": "40400",
        "Location": "Jalan Wangi 25/19",
        "Post_Office": "Shah Alam",
        "State": "Selangor"
    },
    {
        "Postcode": "40400",
        "Location": "Jalan Waspada 25/52",
        "Post_Office": "Shah Alam",
        "State": "Selangor"
    },
    {
        "Postcode": "40400",
        "Location": "Jalan Watan 25/6",
        "Post_Office": "Shah Alam",
        "State": "Selangor"
    },
    {
        "Postcode": "40400",
        "Location": "Jalan Wira 25/18",
        "Post_Office": "Shah Alam",
        "State": "Selangor"
    },
    {
        "Postcode": "40400",
        "Location": "Jalan Wira Satu 25/18A",
        "Post_Office": "Shah Alam",
        "State": "Selangor"
    },
    {
        "Postcode": "40400",
        "Location": "Jalan Yakin 25/11",
        "Post_Office": "Shah Alam",
        "State": "Selangor"
    },
    {
        "Postcode": "40400",
        "Location": "Kampung Baru Hicom",
        "Post_Office": "Shah Alam",
        "State": "Selangor"
    },
    {
        "Postcode": "40400",
        "Location": "Kampung Bukit Lanchong",
        "Post_Office": "Shah Alam",
        "State": "Selangor"
    },
    {
        "Postcode": "40400",
        "Location": "Kampung Kebun Bunga",
        "Post_Office": "Shah Alam",
        "State": "Selangor"
    },
    {
        "Postcode": "40400",
        "Location": "Kampung Lancong Jaya",
        "Post_Office": "Shah Alam",
        "State": "Selangor"
    },
    {
        "Postcode": "40400",
        "Location": "Kampung Sungai Nipah",
        "Post_Office": "Shah Alam",
        "State": "Selangor"
    },
    {
        "Postcode": "40400",
        "Location": "Ladang Seafield",
        "Post_Office": "Shah Alam",
        "State": "Selangor"
    },
    {
        "Postcode": "40400",
        "Location": "Persiaran Kuala Langat 28/24",
        "Post_Office": "Shah Alam",
        "State": "Selangor"
    },
    {
        "Postcode": "40400",
        "Location": "Persiaran Kuala Selangor",
        "Post_Office": "Shah Alam",
        "State": "Selangor"
    },
    {
        "Postcode": "40400",
        "Location": "Taman Alam Megah",
        "Post_Office": "Shah Alam",
        "State": "Selangor"
    },
    {
        "Postcode": "40400",
        "Location": "Taman Berlian",
        "Post_Office": "Shah Alam",
        "State": "Selangor"
    },
    {
        "Postcode": "40400",
        "Location": "Taman Subang Utara",
        "Post_Office": "Shah Alam",
        "State": "Selangor"
    },
    {
        "Postcode": "40400",
        "Location": "Taman Kemuning Harmoni",
        "Post_Office": "Shah Alam",
        "State": "Selangor"
    },
    {
        "Postcode": "40400",
        "Location": "Taman Alam Indah",
        "Post_Office": "Shah Alam",
        "State": "Selangor"
    },
    {
        "Postcode": "40400",
        "Location": "Taman Sri Lembayung",
        "Post_Office": "Shah Alam",
        "State": "Selangor"
    },
    {
        "Postcode": "40400",
        "Location": "Taman Perindustrian Uep",
        "Post_Office": "Shah Alam",
        "State": "Selangor"
    },
    {
        "Postcode": "40400",
        "Location": "Estate Hicom Industrial",
        "Post_Office": "Shah Alam",
        "State": "Selangor"
    },
    {
        "Postcode": "40400",
        "Location": "Kampung Kebun Bunga Tambahan",
        "Post_Office": "Shah Alam",
        "State": "Selangor"
    },
    {
        "Postcode": "40400",
        "Location": "Kampung Lanchong Jaya",
        "Post_Office": "Shah Alam",
        "State": "Selangor"
    },
    {
        "Postcode": "40400",
        "Location": "Kemuning Utama",
        "Post_Office": "Shah Alam",
        "State": "Selangor"
    },
    {
        "Postcode": "40400",
        "Location": "Kota Harmoni",
        "Post_Office": "Shah Alam",
        "State": "Selangor"
    },
    {
        "Postcode": "40400",
        "Location": "Park Lion Industrial",
        "Post_Office": "Shah Alam",
        "State": "Selangor"
    },
    {
        "Postcode": "40400",
        "Location": "Taman Bukit Saga",
        "Post_Office": "Shah Alam",
        "State": "Selangor"
    },
    {
        "Postcode": "40400",
        "Location": "Taman Bunga Negara",
        "Post_Office": "Shah Alam",
        "State": "Selangor"
    },
    {
        "Postcode": "40400",
        "Location": "Taman Perindustrian Axis",
        "Post_Office": "Shah Alam",
        "State": "Selangor"
    },
    {
        "Postcode": "40400",
        "Location": "Jalan Angklung 33/20",
        "Post_Office": "Shah Alam",
        "State": "Selangor"
    },
    {
        "Postcode": "40400",
        "Location": "Jalan Arif 25/130",
        "Post_Office": "Shah Alam",
        "State": "Selangor"
    },
    {
        "Postcode": "40400",
        "Location": "Jalan Arif 25/131",
        "Post_Office": "Shah Alam",
        "State": "Selangor"
    },
    {
        "Postcode": "40400",
        "Location": "Jalan Bukit Belimbing 26/38",
        "Post_Office": "Shah Alam",
        "State": "Selangor"
    },
    {
        "Postcode": "40400",
        "Location": "Jalan Bukit Candang 27/67",
        "Post_Office": "Shah Alam",
        "State": "Selangor"
    },
    {
        "Postcode": "40400",
        "Location": "Jalan Bukit Kerayung 26/26",
        "Post_Office": "Shah Alam",
        "State": "Selangor"
    },
    {
        "Postcode": "40400",
        "Location": "Jalan Bukit Rasa 27/81",
        "Post_Office": "Shah Alam",
        "State": "Selangor"
    },
    {
        "Postcode": "40400",
        "Location": "Jalan Bunga Melor",
        "Post_Office": "Shah Alam",
        "State": "Selangor"
    },
    {
        "Postcode": "40400",
        "Location": "Jalan Hikmah 25/132",
        "Post_Office": "Shah Alam",
        "State": "Selangor"
    },
    {
        "Postcode": "40400",
        "Location": "Jalan Hikmah Dua 25/132B",
        "Post_Office": "Shah Alam",
        "State": "Selangor"
    },
    {
        "Postcode": "40400",
        "Location": "Jalan Hikmah Empat 25/132D",
        "Post_Office": "Shah Alam",
        "State": "Selangor"
    },
    {
        "Postcode": "40400",
        "Location": "Jalan Hikmah Enam 25/132F",
        "Post_Office": "Shah Alam",
        "State": "Selangor"
    },
    {
        "Postcode": "40400",
        "Location": "Jalan Hikmah Lapan 25/132H",
        "Post_Office": "Shah Alam",
        "State": "Selangor"
    },
    {
        "Postcode": "40400",
        "Location": "Jalan Hikmah Lima 25/132E",
        "Post_Office": "Shah Alam",
        "State": "Selangor"
    },
    {
        "Postcode": "40400",
        "Location": "Jalan Hikmah Satu 25/132A",
        "Post_Office": "Shah Alam",
        "State": "Selangor"
    },
    {
        "Postcode": "40400",
        "Location": "Jalan Hikmah Tiga 25/132C",
        "Post_Office": "Shah Alam",
        "State": "Selangor"
    },
    {
        "Postcode": "40400",
        "Location": "Jalan Hikmah Tujuh 25/132G",
        "Post_Office": "Shah Alam",
        "State": "Selangor"
    },
    {
        "Postcode": "40400",
        "Location": "Jalan Hujung Permatang Satu 26/25A",
        "Post_Office": "Shah Alam",
        "State": "Selangor"
    },
    {
        "Postcode": "40400",
        "Location": "Jalan Jasa 25/102",
        "Post_Office": "Shah Alam",
        "State": "Selangor"
    },
    {
        "Postcode": "40400",
        "Location": "Jalan Jasa 25/102A",
        "Post_Office": "Shah Alam",
        "State": "Selangor"
    },
    {
        "Postcode": "40400",
        "Location": "Jalan Jitu 25/125",
        "Post_Office": "Shah Alam",
        "State": "Selangor"
    },
    {
        "Postcode": "40400",
        "Location": "Jalan Kayu Ara 26/19",
        "Post_Office": "Shah Alam",
        "State": "Selangor"
    },
    {
        "Postcode": "40400",
        "Location": "Jalan Kemuning Bayu 33/29",
        "Post_Office": "Shah Alam",
        "State": "Selangor"
    },
    {
        "Postcode": "40400",
        "Location": "Jalan Kemuning Bayu 33/30",
        "Post_Office": "Shah Alam",
        "State": "Selangor"
    },
    {
        "Postcode": "40400",
        "Location": "Jalan Kemuning Bayu 33/30A",
        "Post_Office": "Shah Alam",
        "State": "Selangor"
    },
    {
        "Postcode": "40400",
        "Location": "Jalan Kemuning Bayu 33/30B",
        "Post_Office": "Shah Alam",
        "State": "Selangor"
    },
    {
        "Postcode": "40400",
        "Location": "Jalan Kemuning Bayu 33/30C",
        "Post_Office": "Shah Alam",
        "State": "Selangor"
    },
    {
        "Postcode": "40400",
        "Location": "Jalan Kemuning Bayu 33/30D",
        "Post_Office": "Shah Alam",
        "State": "Selangor"
    },
    {
        "Postcode": "40400",
        "Location": "Jalan Kemuning Bayu 33/30E",
        "Post_Office": "Shah Alam",
        "State": "Selangor"
    },
    {
        "Postcode": "40400",
        "Location": "Jalan Kemuning Bayu 33/30F",
        "Post_Office": "Shah Alam",
        "State": "Selangor"
    },
    {
        "Postcode": "40400",
        "Location": "Jalan Kemuning Bayu 33/30G",
        "Post_Office": "Shah Alam",
        "State": "Selangor"
    },
    {
        "Postcode": "40400",
        "Location": "Jalan Kemuning Bayu 33/30H",
        "Post_Office": "Shah Alam",
        "State": "Selangor"
    },
    {
        "Postcode": "40400",
        "Location": "Jalan Kemuning Bayu 33/30J",
        "Post_Office": "Shah Alam",
        "State": "Selangor"
    },
    {
        "Postcode": "40400",
        "Location": "Jalan Kemuning Bayu 33/31",
        "Post_Office": "Shah Alam",
        "State": "Selangor"
    },
    {
        "Postcode": "40400",
        "Location": "Jalan Kemuning Bayu 33/31A",
        "Post_Office": "Shah Alam",
        "State": "Selangor"
    },
    {
        "Postcode": "40400",
        "Location": "Jalan Kemuning Bayu 33/31B",
        "Post_Office": "Shah Alam",
        "State": "Selangor"
    },
    {
        "Postcode": "40400",
        "Location": "Jalan Kemuning Bayu 33/31C",
        "Post_Office": "Shah Alam",
        "State": "Selangor"
    },
    {
        "Postcode": "40400",
        "Location": "Jalan Kemuning Bayu 33/31D",
        "Post_Office": "Shah Alam",
        "State": "Selangor"
    },
    {
        "Postcode": "40400",
        "Location": "Jalan Kemuning Bayu 33/31E",
        "Post_Office": "Shah Alam",
        "State": "Selangor"
    },
    {
        "Postcode": "40400",
        "Location": "Jalan Kemuning Bayu 33/32",
        "Post_Office": "Shah Alam",
        "State": "Selangor"
    },
    {
        "Postcode": "40400",
        "Location": "Jalan Kemuning Bayu 33/32A",
        "Post_Office": "Shah Alam",
        "State": "Selangor"
    },
    {
        "Postcode": "40400",
        "Location": "Jalan Kemuning Bayu 33/32B",
        "Post_Office": "Shah Alam",
        "State": "Selangor"
    },
    {
        "Postcode": "40400",
        "Location": "Jalan Kemuning Bayu 33/32C",
        "Post_Office": "Shah Alam",
        "State": "Selangor"
    },
    {
        "Postcode": "40400",
        "Location": "Jalan Kemuning Bayu 33/32D",
        "Post_Office": "Shah Alam",
        "State": "Selangor"
    },
    {
        "Postcode": "40400",
        "Location": "Jalan Kemuning Bayu 33/32E",
        "Post_Office": "Shah Alam",
        "State": "Selangor"
    },
    {
        "Postcode": "40400",
        "Location": "Jalan Kemuning Bayu 33/32F",
        "Post_Office": "Shah Alam",
        "State": "Selangor"
    },
    {
        "Postcode": "40400",
        "Location": "Jalan Kemuning Bayu 33/32G",
        "Post_Office": "Shah Alam",
        "State": "Selangor"
    },
    {
        "Postcode": "40400",
        "Location": "Jalan Kemuning Bayu 33/32H",
        "Post_Office": "Shah Alam",
        "State": "Selangor"
    },
    {
        "Postcode": "40400",
        "Location": "Jalan Kemuning Bayu 33/32J",
        "Post_Office": "Shah Alam",
        "State": "Selangor"
    },
    {
        "Postcode": "40400",
        "Location": "Jalan Kemuning Bayu 33/32K",
        "Post_Office": "Shah Alam",
        "State": "Selangor"
    },
    {
        "Postcode": "40400",
        "Location": "Jalan Kemuning Bayu 33/32L",
        "Post_Office": "Shah Alam",
        "State": "Selangor"
    },
    {
        "Postcode": "40400",
        "Location": "Jalan Kemuning Bayu 33/32M",
        "Post_Office": "Shah Alam",
        "State": "Selangor"
    },
    {
        "Postcode": "40400",
        "Location": "Jalan Kemuning Bayu 33/32N",
        "Post_Office": "Shah Alam",
        "State": "Selangor"
    },
    {
        "Postcode": "40400",
        "Location": "Jalan Kemuning Bayu 33/33",
        "Post_Office": "Shah Alam",
        "State": "Selangor"
    },
    {
        "Postcode": "40400",
        "Location": "Jalan Kemuning Bayu 33/33A",
        "Post_Office": "Shah Alam",
        "State": "Selangor"
    },
    {
        "Postcode": "40400",
        "Location": "Jalan Kemuning Bayu 33/33B",
        "Post_Office": "Shah Alam",
        "State": "Selangor"
    },
    {
        "Postcode": "40400",
        "Location": "Jalan Kemuning Bayu 33/33C",
        "Post_Office": "Shah Alam",
        "State": "Selangor"
    },
    {
        "Postcode": "40400",
        "Location": "Jalan Kemuning Palma 33/34",
        "Post_Office": "Shah Alam",
        "State": "Selangor"
    },
    {
        "Postcode": "40400",
        "Location": "Jalan Kemuning Palma 33/35",
        "Post_Office": "Shah Alam",
        "State": "Selangor"
    },
    {
        "Postcode": "40400",
        "Location": "Jalan Kemuning Palma 33/36",
        "Post_Office": "Shah Alam",
        "State": "Selangor"
    },
    {
        "Postcode": "40400",
        "Location": "Jalan Kemuning Palma 33/37",
        "Post_Office": "Shah Alam",
        "State": "Selangor"
    },
    {
        "Postcode": "40400",
        "Location": "Jalan Kemuning Palma 33/37A",
        "Post_Office": "Shah Alam",
        "State": "Selangor"
    },
    {
        "Postcode": "40400",
        "Location": "Jalan Kemuning Palma 33/37B",
        "Post_Office": "Shah Alam",
        "State": "Selangor"
    },
    {
        "Postcode": "40400",
        "Location": "Jalan Kemuning Palma 33/37C",
        "Post_Office": "Shah Alam",
        "State": "Selangor"
    },
    {
        "Postcode": "40400",
        "Location": "Jalan Kemuning Palma 33/37D",
        "Post_Office": "Shah Alam",
        "State": "Selangor"
    },
    {
        "Postcode": "40400",
        "Location": "Jalan Kemuning Palma 33/37E",
        "Post_Office": "Shah Alam",
        "State": "Selangor"
    },
    {
        "Postcode": "40400",
        "Location": "Jalan Kemuning Palma 33/37F",
        "Post_Office": "Shah Alam",
        "State": "Selangor"
    },
    {
        "Postcode": "40400",
        "Location": "Jalan Kemuning Palma 33/38",
        "Post_Office": "Shah Alam",
        "State": "Selangor"
    },
    {
        "Postcode": "40400",
        "Location": "Jalan Kemuning Palma 33/39",
        "Post_Office": "Shah Alam",
        "State": "Selangor"
    },
    {
        "Postcode": "40400",
        "Location": "Jalan Kemuning Palma 33/39A",
        "Post_Office": "Shah Alam",
        "State": "Selangor"
    },
    {
        "Postcode": "40400",
        "Location": "Jalan Kemuning Palma 33/39B",
        "Post_Office": "Shah Alam",
        "State": "Selangor"
    },
    {
        "Postcode": "40400",
        "Location": "Jalan Kemuning Palma 33/39C",
        "Post_Office": "Shah Alam",
        "State": "Selangor"
    },
    {
        "Postcode": "40400",
        "Location": "Jalan Kemuning Palma 33/39D",
        "Post_Office": "Shah Alam",
        "State": "Selangor"
    },
    {
        "Postcode": "40400",
        "Location": "Jalan Kemuning Palma 33/39E",
        "Post_Office": "Shah Alam",
        "State": "Selangor"
    },
    {
        "Postcode": "40400",
        "Location": "Jalan Kemuning Permai 33/40",
        "Post_Office": "Shah Alam",
        "State": "Selangor"
    },
    {
        "Postcode": "40400",
        "Location": "Jalan Kemuning Permai 33/41",
        "Post_Office": "Shah Alam",
        "State": "Selangor"
    },
    {
        "Postcode": "40400",
        "Location": "Jalan Kemuning Permai 33/42",
        "Post_Office": "Shah Alam",
        "State": "Selangor"
    },
    {
        "Postcode": "40400",
        "Location": "Jalan Kemuning Permai 33/42A",
        "Post_Office": "Shah Alam",
        "State": "Selangor"
    },
    {
        "Postcode": "40400",
        "Location": "Jalan Kemuning Permai 33/42B",
        "Post_Office": "Shah Alam",
        "State": "Selangor"
    },
    {
        "Postcode": "40400",
        "Location": "Jalan Kemuning Permai 33/42C",
        "Post_Office": "Shah Alam",
        "State": "Selangor"
    },
    {
        "Postcode": "40400",
        "Location": "Jalan Kemuning Permai 33/42D",
        "Post_Office": "Shah Alam",
        "State": "Selangor"
    },
    {
        "Postcode": "40400",
        "Location": "Jalan Kemuning Permai 33/43",
        "Post_Office": "Shah Alam",
        "State": "Selangor"
    },
    {
        "Postcode": "40400",
        "Location": "Jalan Kemuning Permai 33/44",
        "Post_Office": "Shah Alam",
        "State": "Selangor"
    },
    {
        "Postcode": "40400",
        "Location": "Jalan Kemuning Prima 33/45",
        "Post_Office": "Shah Alam",
        "State": "Selangor"
    },
    {
        "Postcode": "40400",
        "Location": "Jalan Kemuning Prima 33/46",
        "Post_Office": "Shah Alam",
        "State": "Selangor"
    },
    {
        "Postcode": "40400",
        "Location": "Jalan Kemuning Prima 33/47",
        "Post_Office": "Shah Alam",
        "State": "Selangor"
    },
    {
        "Postcode": "40400",
        "Location": "Jalan Kemuning Prima 33/48",
        "Post_Office": "Shah Alam",
        "State": "Selangor"
    },
    {
        "Postcode": "40400",
        "Location": "Jalan Kemuning Prima 33/49",
        "Post_Office": "Shah Alam",
        "State": "Selangor"
    },
    {
        "Postcode": "40400",
        "Location": "Jalan Kemuning Prima 33/50",
        "Post_Office": "Shah Alam",
        "State": "Selangor"
    },
    {
        "Postcode": "40400",
        "Location": "Jalan Kemuning Prima 33/51",
        "Post_Office": "Shah Alam",
        "State": "Selangor"
    },
    {
        "Postcode": "40400",
        "Location": "Jalan Kemuning Prima 33/51A",
        "Post_Office": "Shah Alam",
        "State": "Selangor"
    },
    {
        "Postcode": "40400",
        "Location": "Jalan Kemuning Prima 33/51B",
        "Post_Office": "Shah Alam",
        "State": "Selangor"
    },
    {
        "Postcode": "40400",
        "Location": "Jalan Kemuning Prima 33/51C",
        "Post_Office": "Shah Alam",
        "State": "Selangor"
    },
    {
        "Postcode": "40400",
        "Location": "Jalan Kemuning Prima 33/51D",
        "Post_Office": "Shah Alam",
        "State": "Selangor"
    },
    {
        "Postcode": "40400",
        "Location": "Jalan Kemuning Prima 33/51E",
        "Post_Office": "Shah Alam",
        "State": "Selangor"
    },
    {
        "Postcode": "40400",
        "Location": "Jalan Kemuning Prima A 33/A",
        "Post_Office": "Shah Alam",
        "State": "Selangor"
    },
    {
        "Postcode": "40400",
        "Location": "Jalan Keruh Satu 27/73",
        "Post_Office": "Shah Alam",
        "State": "Selangor"
    },
    {
        "Postcode": "40400",
        "Location": "Jalan Klarinet 33/16A",
        "Post_Office": "Shah Alam",
        "State": "Selangor"
    },
    {
        "Postcode": "40400",
        "Location": "Jalan Klarinet 33/16B",
        "Post_Office": "Shah Alam",
        "State": "Selangor"
    },
    {
        "Postcode": "40400",
        "Location": "Jalan Klarinet 33/16C",
        "Post_Office": "Shah Alam",
        "State": "Selangor"
    },
    {
        "Postcode": "40400",
        "Location": "Jalan Klarinet 33/16D",
        "Post_Office": "Shah Alam",
        "State": "Selangor"
    },
    {
        "Postcode": "40400",
        "Location": "Jalan Klarinet 33/16E",
        "Post_Office": "Shah Alam",
        "State": "Selangor"
    },
    {
        "Postcode": "40400",
        "Location": "Jalan Kuala Kulai 26/18",
        "Post_Office": "Shah Alam",
        "State": "Selangor"
    },
    {
        "Postcode": "40400",
        "Location": "Jalan Tebuk Pulai 26/10",
        "Post_Office": "Shah Alam",
        "State": "Selangor"
    },
    {
        "Postcode": "40400",
        "Location": "Jalan Mantap 25/140",
        "Post_Office": "Shah Alam",
        "State": "Selangor"
    },
    {
        "Postcode": "40400",
        "Location": "Jalan Mara 25/126",
        "Post_Office": "Shah Alam",
        "State": "Selangor"
    },
    {
        "Postcode": "40400",
        "Location": "Jalan Padu 25/127",
        "Post_Office": "Shah Alam",
        "State": "Selangor"
    },
    {
        "Postcode": "40400",
        "Location": "Jalan Paya Lebar Satu 27/10A",
        "Post_Office": "Shah Alam",
        "State": "Selangor"
    },
    {
        "Postcode": "40400",
        "Location": "Jalan Pekerti 25/133",
        "Post_Office": "Shah Alam",
        "State": "Selangor"
    },
    {
        "Postcode": "40400",
        "Location": "Jalan Pekerti 25/133A",
        "Post_Office": "Shah Alam",
        "State": "Selangor"
    },
    {
        "Postcode": "40400",
        "Location": "Jalan Pekerti 25/133B",
        "Post_Office": "Shah Alam",
        "State": "Selangor"
    },
    {
        "Postcode": "40400",
        "Location": "Jalan Pekerti 25/133C",
        "Post_Office": "Shah Alam",
        "State": "Selangor"
    },
    {
        "Postcode": "40400",
        "Location": "Jalan Pekerti 25/133D",
        "Post_Office": "Shah Alam",
        "State": "Selangor"
    },
    {
        "Postcode": "40400",
        "Location": "Jalan Salung 33/26",
        "Post_Office": "Shah Alam",
        "State": "Selangor"
    },
    {
        "Postcode": "40400",
        "Location": "Jalan Selayang Dua 27/27B",
        "Post_Office": "Shah Alam",
        "State": "Selangor"
    },
    {
        "Postcode": "40400",
        "Location": "Jalan Selayang Empat 27/27D",
        "Post_Office": "Shah Alam",
        "State": "Selangor"
    },
    {
        "Postcode": "40400",
        "Location": "Jalan Selayang Tiga 27/27C",
        "Post_Office": "Shah Alam",
        "State": "Selangor"
    },
    {
        "Postcode": "40400",
        "Location": "Jalan Selukar 33/27",
        "Post_Office": "Shah Alam",
        "State": "Selangor"
    },
    {
        "Postcode": "40400",
        "Location": "Jalan Sentosa 25/128",
        "Post_Office": "Shah Alam",
        "State": "Selangor"
    },
    {
        "Postcode": "40400",
        "Location": "Jalan Sentosa 25/129",
        "Post_Office": "Shah Alam",
        "State": "Selangor"
    },
    {
        "Postcode": "40400",
        "Location": "Jalan Sungai Limau 26/36",
        "Post_Office": "Shah Alam",
        "State": "Selangor"
    },
    {
        "Postcode": "40400",
        "Location": "Jalan Tabla 33/21",
        "Post_Office": "Shah Alam",
        "State": "Selangor"
    },
    {
        "Postcode": "40400",
        "Location": "Jalan Taboh 33/22",
        "Post_Office": "Shah Alam",
        "State": "Selangor"
    },
    {
        "Postcode": "40400",
        "Location": "Jalan Tamborin 33/23",
        "Post_Office": "Shah Alam",
        "State": "Selangor"
    },
    {
        "Postcode": "40400",
        "Location": "Jalan Tambur 33/19",
        "Post_Office": "Shah Alam",
        "State": "Selangor"
    },
    {
        "Postcode": "40400",
        "Location": "Jalan Tawak 33/24",
        "Post_Office": "Shah Alam",
        "State": "Selangor"
    },
    {
        "Postcode": "40400",
        "Location": "Jalan Tegas 25/134",
        "Post_Office": "Shah Alam",
        "State": "Selangor"
    },
    {
        "Postcode": "40400",
        "Location": "Jalan Tegas 25/135",
        "Post_Office": "Shah Alam",
        "State": "Selangor"
    },
    {
        "Postcode": "40400",
        "Location": "Jalan Tegas 25/136",
        "Post_Office": "Shah Alam",
        "State": "Selangor"
    },
    {
        "Postcode": "40400",
        "Location": "Jalan Tegas 25/137",
        "Post_Office": "Shah Alam",
        "State": "Selangor"
    },
    {
        "Postcode": "40400",
        "Location": "Jalan Tegas E 25/E",
        "Post_Office": "Shah Alam",
        "State": "Selangor"
    },
    {
        "Postcode": "40400",
        "Location": "Jalan Teguh 25/25",
        "Post_Office": "Shah Alam",
        "State": "Selangor"
    },
    {
        "Postcode": "40400",
        "Location": "Jalan Titir 33/25",
        "Post_Office": "Shah Alam",
        "State": "Selangor"
    },
    {
        "Postcode": "40400",
        "Location": "Taman Bukit Lanchong",
        "Post_Office": "Shah Alam",
        "State": "Selangor"
    },
    {
        "Postcode": "40400",
        "Location": "Persiaran Sepang",
        "Post_Office": "Shah Alam",
        "State": "Selangor"
    },
    {
        "Postcode": "40400",
        "Location": "Seksyen 22",
        "Post_Office": "Shah Alam",
        "State": "Selangor"
    },
    {
        "Postcode": "40400",
        "Location": "Pusat Perniagaan Sekitar 26",
        "Post_Office": "Shah Alam",
        "State": "Selangor"
    }
]
