[
    {
        "Postcode": "40450",
        "Location": "Jalan Akal 1/12A",
        "Post_Office": "Shah Alam",
        "State": "Selangor"
    },
    {
        "Postcode": "40450",
        "Location": "Jalan Arif 1/8A",
        "Post_Office": "Shah Alam",
        "State": "Selangor"
    },
    {
        "Postcode": "40450",
        "Location": "Jalan Bestari 1/3A",
        "Post_Office": "Shah Alam",
        "State": "Selangor"
    },
    {
        "Postcode": "40450",
        "Location": "Jalan Bestari 1/3B",
        "Post_Office": "Shah Alam",
        "State": "Selangor"
    },
    {
        "Postcode": "40450",
        "Location": "Jalan Bestari 1/3C",
        "Post_Office": "Shah Alam",
        "State": "Selangor"
    },
    {
        "Postcode": "40450",
        "Location": "Jalan Bijak 1/22",
        "Post_Office": "Shah Alam",
        "State": "Selangor"
    },
    {
        "Postcode": "40450",
        "Location": "Jalan Bijak 1/22A",
        "Post_Office": "Shah Alam",
        "State": "Selangor"
    },
    {
        "Postcode": "40450",
        "Location": "Jalan Bijak 1/22B",
        "Post_Office": "Shah Alam",
        "State": "Selangor"
    },
    {
        "Postcode": "40450",
        "Location": "Jalan Cemerlang 1/19",
        "Post_Office": "Shah Alam",
        "State": "Selangor"
    },
    {
        "Postcode": "40450",
        "Location": "Jalan Cemerlang 1/19A",
        "Post_Office": "Shah Alam",
        "State": "Selangor"
    },
    {
        "Postcode": "40450",
        "Location": "Jalan Cemerlang 1/19B",
        "Post_Office": "Shah Alam",
        "State": "Selangor"
    },
    {
        "Postcode": "40450",
        "Location": "Jalan Cerdik 1/11A",
        "Post_Office": "Shah Alam",
        "State": "Selangor"
    },
    {
        "Postcode": "40450",
        "Location": "Jalan Cergas 1/7A",
        "Post_Office": "Shah Alam",
        "State": "Selangor"
    },
    {
        "Postcode": "40450",
        "Location": "Jalan Fikir 1/4A",
        "Post_Office": "Shah Alam",
        "State": "Selangor"
    },
    {
        "Postcode": "40450",
        "Location": "Jalan Graduan 1/23",
        "Post_Office": "Shah Alam",
        "State": "Selangor"
    },
    {
        "Postcode": "40450",
        "Location": "Jalan Hikmah 1/6A",
        "Post_Office": "Shah Alam",
        "State": "Selangor"
    },
    {
        "Postcode": "40450",
        "Location": "Jalan Ikhtiar 1/18A",
        "Post_Office": "Shah Alam",
        "State": "Selangor"
    },
    {
        "Postcode": "40450",
        "Location": "Jalan Ilmu 1/1",
        "Post_Office": "Shah Alam",
        "State": "Selangor"
    },
    {
        "Postcode": "40450",
        "Location": "Jalan Kreatif 1/5A",
        "Post_Office": "Shah Alam",
        "State": "Selangor"
    },
    {
        "Postcode": "40450",
        "Location": "Jalan Pintar 1/21A",
        "Post_Office": "Shah Alam",
        "State": "Selangor"
    },
    {
        "Postcode": "40450",
        "Location": "Jalan Pintar 1/21B",
        "Post_Office": "Shah Alam",
        "State": "Selangor"
    },
    {
        "Postcode": "40450",
        "Location": "Jalan Riadah 1/20A",
        "Post_Office": "Shah Alam",
        "State": "Selangor"
    },
    {
        "Postcode": "40450",
        "Location": "Jalan Sarjana 1/2",
        "Post_Office": "Shah Alam",
        "State": "Selangor"
    },
    {
        "Postcode": "40450",
        "Location": "Jalan Tegas 1/16",
        "Post_Office": "Shah Alam",
        "State": "Selangor"
    },
    {
        "Postcode": "40450",
        "Location": "Universiti Teknologi Mara (Uitm) Shah Alam",
        "Post_Office": "Shah Alam",
        "State": "Selangor"
    },
    {
        "Postcode": "40450",
        "Location": "Seksyen 1",
        "Post_Office": "Shah Alam",
        "State": "Selangor"
    },
    {
        "Postcode": "40450",
        "Location": "Jalan Bernas 1/10",
        "Post_Office": "Shah Alam",
        "State": "Selangor"
    },
    {
        "Postcode": "40450",
        "Location": "Jalan Bernas 1/10A",
        "Post_Office": "Shah Alam",
        "State": "Selangor"
    },
    {
        "Postcode": "40450",
        "Location": "Jalan Bernas 1/10B",
        "Post_Office": "Shah Alam",
        "State": "Selangor"
    },
    {
        "Postcode": "40450",
        "Location": "Jalan Bernas 1/10C",
        "Post_Office": "Shah Alam",
        "State": "Selangor"
    },
    {
        "Postcode": "40450",
        "Location": "Jalan Bernas 1/10D",
        "Post_Office": "Shah Alam",
        "State": "Selangor"
    },
    {
        "Postcode": "40450",
        "Location": "Jalan Santun 1/13A",
        "Post_Office": "Shah Alam",
        "State": "Selangor"
    },
    {
        "Postcode": "40450",
        "Location": "Jalan Tegas 1/16D",
        "Post_Office": "Shah Alam",
        "State": "Selangor"
    },
    {
        "Postcode": "40450",
        "Location": "Jalan Usahawan 1/9",
        "Post_Office": "Shah Alam",
        "State": "Selangor"
    }
]
