[
    {
        "Postcode": "40460",
        "Location": "Jalan Anggerik Aranda 31/1",
        "Post_Office": "Shah Alam",
        "State": "Selangor"
    },
    {
        "Postcode": "40460",
        "Location": "Jalan Anggerik Aranda 31/10",
        "Post_Office": "Shah Alam",
        "State": "Selangor"
    },
    {
        "Postcode": "40460",
        "Location": "Jalan Anggerik Aranda 31/11",
        "Post_Office": "Shah Alam",
        "State": "Selangor"
    },
    {
        "Postcode": "40460",
        "Location": "Jalan Anggerik Aranda 31/12",
        "Post_Office": "Shah Alam",
        "State": "Selangor"
    },
    {
        "Postcode": "40460",
        "Location": "Jalan Anggerik Aranda 31/13",
        "Post_Office": "Shah Alam",
        "State": "Selangor"
    },
    {
        "Postcode": "40460",
        "Location": "Jalan Anggerik Aranda 31/14",
        "Post_Office": "Shah Alam",
        "State": "Selangor"
    },
    {
        "Postcode": "40460",
        "Location": "Jalan Anggerik Aranda 31/15",
        "Post_Office": "Shah Alam",
        "State": "Selangor"
    },
    {
        "Postcode": "40460",
        "Location": "Jalan Anggerik Aranda 31/16",
        "Post_Office": "Shah Alam",
        "State": "Selangor"
    },
    {
        "Postcode": "40460",
        "Location": "Jalan Anggerik Aranda 31/17",
        "Post_Office": "Shah Alam",
        "State": "Selangor"
    },
    {
        "Postcode": "40460",
        "Location": "Jalan Anggerik Aranda 31/170",
        "Post_Office": "Shah Alam",
        "State": "Selangor"
    },
    {
        "Postcode": "40460",
        "Location": "Jalan Anggerik Aranda 31/171",
        "Post_Office": "Shah Alam",
        "State": "Selangor"
    },
    {
        "Postcode": "40460",
        "Location": "Jalan Anggerik Aranda 31/18",
        "Post_Office": "Shah Alam",
        "State": "Selangor"
    },
    {
        "Postcode": "40460",
        "Location": "Jalan Anggerik Aranda 31/19",
        "Post_Office": "Shah Alam",
        "State": "Selangor"
    },
    {
        "Postcode": "40460",
        "Location": "Jalan Anggerik Aranda 31/2",
        "Post_Office": "Shah Alam",
        "State": "Selangor"
    },
    {
        "Postcode": "40460",
        "Location": "Jalan Anggerik Aranda 31/20",
        "Post_Office": "Shah Alam",
        "State": "Selangor"
    },
    {
        "Postcode": "40460",
        "Location": "Jalan Anggerik Aranda 31/21",
        "Post_Office": "Shah Alam",
        "State": "Selangor"
    },
    {
        "Postcode": "40460",
        "Location": "Jalan Anggerik Aranda 31/22",
        "Post_Office": "Shah Alam",
        "State": "Selangor"
    },
    {
        "Postcode": "40460",
        "Location": "Jalan Anggerik Aranda 31/23",
        "Post_Office": "Shah Alam",
        "State": "Selangor"
    },
    {
        "Postcode": "40460",
        "Location": "Jalan Anggerik Aranda 31/24",
        "Post_Office": "Shah Alam",
        "State": "Selangor"
    },
    {
        "Postcode": "40460",
        "Location": "Jalan Anggerik Aranda 31/25",
        "Post_Office": "Shah Alam",
        "State": "Selangor"
    },
    {
        "Postcode": "40460",
        "Location": "Jalan Anggerik Aranda 31/26",
        "Post_Office": "Shah Alam",
        "State": "Selangor"
    },
    {
        "Postcode": "40460",
        "Location": "Jalan Anggerik Aranda 31/27",
        "Post_Office": "Shah Alam",
        "State": "Selangor"
    },
    {
        "Postcode": "40460",
        "Location": "Jalan Anggerik Aranda 31/28",
        "Post_Office": "Shah Alam",
        "State": "Selangor"
    },
    {
        "Postcode": "40460",
        "Location": "Jalan Anggerik Aranda 31/29",
        "Post_Office": "Shah Alam",
        "State": "Selangor"
    },
    {
        "Postcode": "40460",
        "Location": "Jalan Anggerik Aranda 31/3",
        "Post_Office": "Shah Alam",
        "State": "Selangor"
    },
    {
        "Postcode": "40460",
        "Location": "Jalan Anggerik Aranda 31/30",
        "Post_Office": "Shah Alam",
        "State": "Selangor"
    },
    {
        "Postcode": "40460",
        "Location": "Jalan Anggerik Aranda 31/31",
        "Post_Office": "Shah Alam",
        "State": "Selangor"
    },
    {
        "Postcode": "40460",
        "Location": "Jalan Anggerik Aranda 31/32",
        "Post_Office": "Shah Alam",
        "State": "Selangor"
    },
    {
        "Postcode": "40460",
        "Location": "Jalan Anggerik Aranda 31/33",
        "Post_Office": "Shah Alam",
        "State": "Selangor"
    },
    {
        "Postcode": "40460",
        "Location": "Jalan Anggerik Aranda 31/34",
        "Post_Office": "Shah Alam",
        "State": "Selangor"
    },
    {
        "Postcode": "40460",
        "Location": "Jalan Anggerik Aranda 31/35",
        "Post_Office": "Shah Alam",
        "State": "Selangor"
    },
    {
        "Postcode": "40460",
        "Location": "Jalan Anggerik Aranda 31/36",
        "Post_Office": "Shah Alam",
        "State": "Selangor"
    },
    {
        "Postcode": "40460",
        "Location": "Jalan Anggerik Aranda 31/37",
        "Post_Office": "Shah Alam",
        "State": "Selangor"
    },
    {
        "Postcode": "40460",
        "Location": "Jalan Anggerik Aranda 31/38",
        "Post_Office": "Shah Alam",
        "State": "Selangor"
    },
    {
        "Postcode": "40460",
        "Location": "Jalan Anggerik Aranda 31/39",
        "Post_Office": "Shah Alam",
        "State": "Selangor"
    },
    {
        "Postcode": "40460",
        "Location": "Jalan Anggerik Aranda 31/4",
        "Post_Office": "Shah Alam",
        "State": "Selangor"
    },
    {
        "Postcode": "40460",
        "Location": "Jalan Anggerik Aranda 31/41",
        "Post_Office": "Shah Alam",
        "State": "Selangor"
    },
    {
        "Postcode": "40460",
        "Location": "Jalan Anggerik Aranda 31/42",
        "Post_Office": "Shah Alam",
        "State": "Selangor"
    },
    {
        "Postcode": "40460",
        "Location": "Jalan Anggerik Aranda 31/43",
        "Post_Office": "Shah Alam",
        "State": "Selangor"
    },
    {
        "Postcode": "40460",
        "Location": "Taman Tulip 5",
        "Post_Office": "Shah Alam",
        "State": "Selangor"
    },
    {
        "Postcode": "40460",
        "Location": "Taman Khalid Al Walid",
        "Post_Office": "Shah Alam",
        "State": "Selangor"
    },
    {
        "Postcode": "40460",
        "Location": "Taman Impian Sutera 4",
        "Post_Office": "Shah Alam",
        "State": "Selangor"
    },
    {
        "Postcode": "40460",
        "Location": "Jalan Tanjung Resang 30/279",
        "Post_Office": "Shah Alam",
        "State": "Selangor"
    },
    {
        "Postcode": "40460",
        "Location": "Jalan Tanjung Karang 30/283",
        "Post_Office": "Shah Alam",
        "State": "Selangor"
    },
    {
        "Postcode": "40460",
        "Location": "Taman Hijjaz Mulia 6",
        "Post_Office": "Shah Alam",
        "State": "Selangor"
    },
    {
        "Postcode": "40460",
        "Location": "Taman Idaman Kalbu",
        "Post_Office": "Shah Alam",
        "State": "Selangor"
    },
    {
        "Postcode": "40460",
        "Location": "Taman Hijjaz Mulia 4 ",
        "Post_Office": "Shah Alam",
        "State": "Selangor"
    },
    {
        "Postcode": "40460",
        "Location": "Jalan Lombong Emas 29/81",
        "Post_Office": "Shah Alam",
        "State": "Selangor"
    },
    {
        "Postcode": "40460",
        "Location": "Jalan Lombong Emas 29/68",
        "Post_Office": "Shah Alam",
        "State": "Selangor"
    },
    {
        "Postcode": "40460",
        "Location": "Jalan Lombong Perak 29/68",
        "Post_Office": "Shah Alam",
        "State": "Selangor"
    },
    {
        "Postcode": "40460",
        "Location": "Taman Melati 3",
        "Post_Office": "Shah Alam",
        "State": "Selangor"
    },
    {
        "Postcode": "40460",
        "Location": "Taman Melati 2",
        "Post_Office": "Shah Alam",
        "State": "Selangor"
    },
    {
        "Postcode": "40460",
        "Location": "Taman Mawar 4",
        "Post_Office": "Shah Alam",
        "State": "Selangor"
    },
    {
        "Postcode": "40460",
        "Location": "Jalan Anggerik Aranda 31/5",
        "Post_Office": "Shah Alam",
        "State": "Selangor"
    },
    {
        "Postcode": "40460",
        "Location": "Jalan Anggerik Aranda 31/6",
        "Post_Office": "Shah Alam",
        "State": "Selangor"
    },
    {
        "Postcode": "40460",
        "Location": "Jalan Anggerik Aranda 31/7",
        "Post_Office": "Shah Alam",
        "State": "Selangor"
    },
    {
        "Postcode": "40460",
        "Location": "Jalan Anggerik Aranda 31/7A",
        "Post_Office": "Shah Alam",
        "State": "Selangor"
    },
    {
        "Postcode": "40460",
        "Location": "Jalan Anggerik Aranda 31/7B",
        "Post_Office": "Shah Alam",
        "State": "Selangor"
    },
    {
        "Postcode": "40460",
        "Location": "Jalan Anggerik Aranda 31/8",
        "Post_Office": "Shah Alam",
        "State": "Selangor"
    },
    {
        "Postcode": "40460",
        "Location": "Jalan Anggerik Doritis 31/124",
        "Post_Office": "Shah Alam",
        "State": "Selangor"
    },
    {
        "Postcode": "40460",
        "Location": "Jalan Anggerik Doritis 31/125",
        "Post_Office": "Shah Alam",
        "State": "Selangor"
    },
    {
        "Postcode": "40460",
        "Location": "Jalan Anggerik Doritis 31/126",
        "Post_Office": "Shah Alam",
        "State": "Selangor"
    },
    {
        "Postcode": "40460",
        "Location": "Jalan Anggerik Doritis 31/127",
        "Post_Office": "Shah Alam",
        "State": "Selangor"
    },
    {
        "Postcode": "40460",
        "Location": "Jalan Anggerik Doritis 31/128",
        "Post_Office": "Shah Alam",
        "State": "Selangor"
    },
    {
        "Postcode": "40460",
        "Location": "Jalan Anggerik Doritis 31/129",
        "Post_Office": "Shah Alam",
        "State": "Selangor"
    },
    {
        "Postcode": "40460",
        "Location": "Jalan Anggerik Doritis 31/130",
        "Post_Office": "Shah Alam",
        "State": "Selangor"
    },
    {
        "Postcode": "40460",
        "Location": "Jalan Anggerik Doritis 31/131",
        "Post_Office": "Shah Alam",
        "State": "Selangor"
    },
    {
        "Postcode": "40460",
        "Location": "Jalan Anggerik Doritis 31/133",
        "Post_Office": "Shah Alam",
        "State": "Selangor"
    },
    {
        "Postcode": "40460",
        "Location": "Jalan Anggerik Doritis 31/134",
        "Post_Office": "Shah Alam",
        "State": "Selangor"
    },
    {
        "Postcode": "40460",
        "Location": "Jalan Anggerik Doritis 31/135",
        "Post_Office": "Shah Alam",
        "State": "Selangor"
    },
    {
        "Postcode": "40460",
        "Location": "Jalan Anggerik Doritis 31/136",
        "Post_Office": "Shah Alam",
        "State": "Selangor"
    },
    {
        "Postcode": "40460",
        "Location": "Jalan Anggerik Doritis 31/137",
        "Post_Office": "Shah Alam",
        "State": "Selangor"
    },
    {
        "Postcode": "40460",
        "Location": "Jalan Anggerik Doritis 31/138",
        "Post_Office": "Shah Alam",
        "State": "Selangor"
    },
    {
        "Postcode": "40460",
        "Location": "Jalan Anggerik Doritis 31/139",
        "Post_Office": "Shah Alam",
        "State": "Selangor"
    },
    {
        "Postcode": "40460",
        "Location": "Jalan Anggerik Doritis 31/140",
        "Post_Office": "Shah Alam",
        "State": "Selangor"
    },
    {
        "Postcode": "40460",
        "Location": "Jalan Anggerik Doritis 31/141",
        "Post_Office": "Shah Alam",
        "State": "Selangor"
    },
    {
        "Postcode": "40460",
        "Location": "Jalan Anggerik Doritis 31/142",
        "Post_Office": "Shah Alam",
        "State": "Selangor"
    },
    {
        "Postcode": "40460",
        "Location": "Jalan Anggerik Doritis 31/143",
        "Post_Office": "Shah Alam",
        "State": "Selangor"
    },
    {
        "Postcode": "40460",
        "Location": "Jalan Anggerik Doritis 31/154",
        "Post_Office": "Shah Alam",
        "State": "Selangor"
    },
    {
        "Postcode": "40460",
        "Location": "Jalan Anggerik Doritis 31/155",
        "Post_Office": "Shah Alam",
        "State": "Selangor"
    },
    {
        "Postcode": "40460",
        "Location": "Jalan Anggerik Doritis 31/156",
        "Post_Office": "Shah Alam",
        "State": "Selangor"
    },
    {
        "Postcode": "40460",
        "Location": "Jalan Anggerik Doritis 31/157",
        "Post_Office": "Shah Alam",
        "State": "Selangor"
    },
    {
        "Postcode": "40460",
        "Location": "Jalan Anggerik Doritis 31/158",
        "Post_Office": "Shah Alam",
        "State": "Selangor"
    },
    {
        "Postcode": "40460",
        "Location": "Jalan Anggerik Doritis 31/159",
        "Post_Office": "Shah Alam",
        "State": "Selangor"
    },
    {
        "Postcode": "40460",
        "Location": "Jalan Anggerik Doritis 31/160",
        "Post_Office": "Shah Alam",
        "State": "Selangor"
    },
    {
        "Postcode": "40460",
        "Location": "Jalan Anggerik Doritis 31/161",
        "Post_Office": "Shah Alam",
        "State": "Selangor"
    },
    {
        "Postcode": "40460",
        "Location": "Jalan Anggerik Doritis 31/162",
        "Post_Office": "Shah Alam",
        "State": "Selangor"
    },
    {
        "Postcode": "40460",
        "Location": "Jalan Anggerik Doritis 31/163",
        "Post_Office": "Shah Alam",
        "State": "Selangor"
    },
    {
        "Postcode": "40460",
        "Location": "Jalan Anggerik Doritis 31/164",
        "Post_Office": "Shah Alam",
        "State": "Selangor"
    },
    {
        "Postcode": "40460",
        "Location": "Jalan Anggerik Doritis 31/165",
        "Post_Office": "Shah Alam",
        "State": "Selangor"
    },
    {
        "Postcode": "40460",
        "Location": "Jalan Anggerik Liparis 31/144",
        "Post_Office": "Shah Alam",
        "State": "Selangor"
    },
    {
        "Postcode": "40460",
        "Location": "Jalan Anggerik Liparis 31/145",
        "Post_Office": "Shah Alam",
        "State": "Selangor"
    },
    {
        "Postcode": "40460",
        "Location": "Jalan Anggerik Liparis 31/146",
        "Post_Office": "Shah Alam",
        "State": "Selangor"
    },
    {
        "Postcode": "40460",
        "Location": "Jalan Anggerik Liparis 31/147",
        "Post_Office": "Shah Alam",
        "State": "Selangor"
    },
    {
        "Postcode": "40460",
        "Location": "Jalan Anggerik Liparis 31/148",
        "Post_Office": "Shah Alam",
        "State": "Selangor"
    },
    {
        "Postcode": "40460",
        "Location": "Jalan Anggerik Liparis 31/149",
        "Post_Office": "Shah Alam",
        "State": "Selangor"
    },
    {
        "Postcode": "40460",
        "Location": "Jalan Anggerik Liparis 31/150",
        "Post_Office": "Shah Alam",
        "State": "Selangor"
    },
    {
        "Postcode": "40460",
        "Location": "Jalan Anggerik Liparis 31/151",
        "Post_Office": "Shah Alam",
        "State": "Selangor"
    },
    {
        "Postcode": "40460",
        "Location": "Jalan Anggerik Liparis 31/152",
        "Post_Office": "Shah Alam",
        "State": "Selangor"
    },
    {
        "Postcode": "40460",
        "Location": "Jalan Anggerik Liparis 31/153",
        "Post_Office": "Shah Alam",
        "State": "Selangor"
    },
    {
        "Postcode": "40460",
        "Location": "Jalan Anggerik Mokara 31/44",
        "Post_Office": "Shah Alam",
        "State": "Selangor"
    },
    {
        "Postcode": "40460",
        "Location": "Jalan Anggerik Mokara 31/45",
        "Post_Office": "Shah Alam",
        "State": "Selangor"
    },
    {
        "Postcode": "40460",
        "Location": "Jalan Anggerik Mokara 31/46",
        "Post_Office": "Shah Alam",
        "State": "Selangor"
    },
    {
        "Postcode": "40460",
        "Location": "Jalan Anggerik Mokara 31/47",
        "Post_Office": "Shah Alam",
        "State": "Selangor"
    },
    {
        "Postcode": "40460",
        "Location": "Jalan Anggerik Mokara 31/48",
        "Post_Office": "Shah Alam",
        "State": "Selangor"
    },
    {
        "Postcode": "40460",
        "Location": "Jalan Anggerik Mokara 31/49",
        "Post_Office": "Shah Alam",
        "State": "Selangor"
    },
    {
        "Postcode": "40460",
        "Location": "Jalan Anggerik Mokara 31/50",
        "Post_Office": "Shah Alam",
        "State": "Selangor"
    },
    {
        "Postcode": "40460",
        "Location": "Jalan Anggerik Mokara 31/51",
        "Post_Office": "Shah Alam",
        "State": "Selangor"
    },
    {
        "Postcode": "40460",
        "Location": "Jalan Anggerik Mokara 31/52",
        "Post_Office": "Shah Alam",
        "State": "Selangor"
    },
    {
        "Postcode": "40460",
        "Location": "Jalan Anggerik Mokara 31/53",
        "Post_Office": "Shah Alam",
        "State": "Selangor"
    },
    {
        "Postcode": "40460",
        "Location": "Jalan Anggerik Mokara 31/54",
        "Post_Office": "Shah Alam",
        "State": "Selangor"
    },
    {
        "Postcode": "40460",
        "Location": "Jalan Anggerik Mokara 31/55",
        "Post_Office": "Shah Alam",
        "State": "Selangor"
    },
    {
        "Postcode": "40460",
        "Location": "Jalan Anggerik Mokara 31/56",
        "Post_Office": "Shah Alam",
        "State": "Selangor"
    },
    {
        "Postcode": "40460",
        "Location": "Jalan Anggerik Mokara 31/57",
        "Post_Office": "Shah Alam",
        "State": "Selangor"
    },
    {
        "Postcode": "40460",
        "Location": "Jalan Anggerik Mokara 31/58",
        "Post_Office": "Shah Alam",
        "State": "Selangor"
    },
    {
        "Postcode": "40460",
        "Location": "Jalan Anggerik Mokara 31/59",
        "Post_Office": "Shah Alam",
        "State": "Selangor"
    },
    {
        "Postcode": "40460",
        "Location": "Jalan Anggerik Mokara 31/60",
        "Post_Office": "Shah Alam",
        "State": "Selangor"
    },
    {
        "Postcode": "40460",
        "Location": "Jalan Anggerik Mokara 31/61",
        "Post_Office": "Shah Alam",
        "State": "Selangor"
    },
    {
        "Postcode": "40460",
        "Location": "Jalan Anggerik Mokara 31/62",
        "Post_Office": "Shah Alam",
        "State": "Selangor"
    },
    {
        "Postcode": "40460",
        "Location": "Jalan Anggerik Mokara 31/63",
        "Post_Office": "Shah Alam",
        "State": "Selangor"
    },
    {
        "Postcode": "40460",
        "Location": "Jalan Anggerik Mokara 31/64",
        "Post_Office": "Shah Alam",
        "State": "Selangor"
    },
    {
        "Postcode": "40460",
        "Location": "Jalan Anggerik Norvilla 31/164",
        "Post_Office": "Shah Alam",
        "State": "Selangor"
    },
    {
        "Postcode": "40460",
        "Location": "Jalan Anggerik Norvilla 31/165",
        "Post_Office": "Shah Alam",
        "State": "Selangor"
    },
    {
        "Postcode": "40460",
        "Location": "Jalan Anggerik Norvilla 31/166",
        "Post_Office": "Shah Alam",
        "State": "Selangor"
    },
    {
        "Postcode": "40460",
        "Location": "Jalan Anggerik Oncidium 31/67",
        "Post_Office": "Shah Alam",
        "State": "Selangor"
    },
    {
        "Postcode": "40460",
        "Location": "Jalan Anggerik Oncidium 31/68",
        "Post_Office": "Shah Alam",
        "State": "Selangor"
    },
    {
        "Postcode": "40460",
        "Location": "Jalan Anggerik Oncidium 31/69",
        "Post_Office": "Shah Alam",
        "State": "Selangor"
    },
    {
        "Postcode": "40460",
        "Location": "Jalan Anggerik Oncidium 31/70",
        "Post_Office": "Shah Alam",
        "State": "Selangor"
    },
    {
        "Postcode": "40460",
        "Location": "Jalan Anggerik Oncidium 31/71",
        "Post_Office": "Shah Alam",
        "State": "Selangor"
    },
    {
        "Postcode": "40460",
        "Location": "Jalan Anggerik Oncidium 31/72",
        "Post_Office": "Shah Alam",
        "State": "Selangor"
    },
    {
        "Postcode": "40460",
        "Location": "Jalan Anggerik Oncidium 31/73",
        "Post_Office": "Shah Alam",
        "State": "Selangor"
    },
    {
        "Postcode": "40460",
        "Location": "Jalan Anggerik Oncidium 31/74",
        "Post_Office": "Shah Alam",
        "State": "Selangor"
    },
    {
        "Postcode": "40460",
        "Location": "Jalan Anggerik Oncidium 31/75",
        "Post_Office": "Shah Alam",
        "State": "Selangor"
    },
    {
        "Postcode": "40460",
        "Location": "Jalan Anggerik Oncidium 31/76",
        "Post_Office": "Shah Alam",
        "State": "Selangor"
    },
    {
        "Postcode": "40460",
        "Location": "Jalan Anggerik Oncidium 31/77",
        "Post_Office": "Shah Alam",
        "State": "Selangor"
    },
    {
        "Postcode": "40460",
        "Location": "Jalan Anggerik Oncidium 31/78",
        "Post_Office": "Shah Alam",
        "State": "Selangor"
    },
    {
        "Postcode": "40460",
        "Location": "Jalan Anggerik Oncidium 31/79",
        "Post_Office": "Shah Alam",
        "State": "Selangor"
    },
    {
        "Postcode": "40460",
        "Location": "Jalan Anggerik Oncidium 31/80",
        "Post_Office": "Shah Alam",
        "State": "Selangor"
    },
    {
        "Postcode": "40460",
        "Location": "Jalan Anggerik Renantanda 31/101",
        "Post_Office": "Shah Alam",
        "State": "Selangor"
    },
    {
        "Postcode": "40460",
        "Location": "Jalan Anggerik Renantanda 31/102",
        "Post_Office": "Shah Alam",
        "State": "Selangor"
    },
    {
        "Postcode": "40460",
        "Location": "Jalan Anggerik Renantanda 31/103",
        "Post_Office": "Shah Alam",
        "State": "Selangor"
    },
    {
        "Postcode": "40460",
        "Location": "Jalan Anggerik Renantanda 31/104",
        "Post_Office": "Shah Alam",
        "State": "Selangor"
    },
    {
        "Postcode": "40460",
        "Location": "Jalan Anggerik Renantanda 31/105",
        "Post_Office": "Shah Alam",
        "State": "Selangor"
    },
    {
        "Postcode": "40460",
        "Location": "Jalan Anggerik Renantanda 31/106",
        "Post_Office": "Shah Alam",
        "State": "Selangor"
    },
    {
        "Postcode": "40460",
        "Location": "Jalan Anggerik Renantanda 31/107",
        "Post_Office": "Shah Alam",
        "State": "Selangor"
    },
    {
        "Postcode": "40460",
        "Location": "Jalan Anggerik Renantanda 31/108",
        "Post_Office": "Shah Alam",
        "State": "Selangor"
    },
    {
        "Postcode": "40460",
        "Location": "Jalan Anggerik Renantanda 31/109",
        "Post_Office": "Shah Alam",
        "State": "Selangor"
    },
    {
        "Postcode": "40460",
        "Location": "Jalan Anggerik Renantanda 31/110",
        "Post_Office": "Shah Alam",
        "State": "Selangor"
    },
    {
        "Postcode": "40460",
        "Location": "Jalan Anggerik Renantanda 31/111",
        "Post_Office": "Shah Alam",
        "State": "Selangor"
    },
    {
        "Postcode": "40460",
        "Location": "Jalan Anggerik Tania 31/112",
        "Post_Office": "Shah Alam",
        "State": "Selangor"
    },
    {
        "Postcode": "40460",
        "Location": "Jalan Anggerik Tania 31/113",
        "Post_Office": "Shah Alam",
        "State": "Selangor"
    },
    {
        "Postcode": "40460",
        "Location": "Jalan Desa Putera 1 ",
        "Post_Office": "Shah Alam",
        "State": "Selangor"
    },
    {
        "Postcode": "40460",
        "Location": "Taman Desa Putera",
        "Post_Office": "Shah Alam",
        "State": "Selangor"
    },
    {
        "Postcode": "40460",
        "Location": "Jalan Anggerik Doritis",
        "Post_Office": "Shah Alam",
        "State": "Selangor"
    },
    {
        "Postcode": "40460",
        "Location": "Taman Kota Kemuning",
        "Post_Office": "Shah Alam",
        "State": "Selangor"
    },
    {
        "Postcode": "40460",
        "Location": "Bukit Kemuning",
        "Post_Office": "Shah Alam",
        "State": "Selangor"
    },
    {
        "Postcode": "40460",
        "Location": "Jalan Bakri",
        "Post_Office": "Shah Alam",
        "State": "Selangor"
    },
    {
        "Postcode": "40460",
        "Location": "Jalan Bateri",
        "Post_Office": "Shah Alam",
        "State": "Selangor"
    },
    {
        "Postcode": "40460",
        "Location": "Jalan Batu Bata",
        "Post_Office": "Shah Alam",
        "State": "Selangor"
    },
    {
        "Postcode": "40460",
        "Location": "Jalan Buah Melaka",
        "Post_Office": "Shah Alam",
        "State": "Selangor"
    },
    {
        "Postcode": "40460",
        "Location": "Jalan Bukit Kemuning",
        "Post_Office": "Shah Alam",
        "State": "Selangor"
    },
    {
        "Postcode": "40460",
        "Location": "Jalan Bukit Naga",
        "Post_Office": "Shah Alam",
        "State": "Selangor"
    },
    {
        "Postcode": "40460",
        "Location": "Jalan Bukit Rimau",
        "Post_Office": "Shah Alam",
        "State": "Selangor"
    },
    {
        "Postcode": "40460",
        "Location": "Jalan Ceb Bukit Badak",
        "Post_Office": "Shah Alam",
        "State": "Selangor"
    },
    {
        "Postcode": "40460",
        "Location": "Jalan Haji Abdul Aziz",
        "Post_Office": "Shah Alam",
        "State": "Selangor"
    },
    {
        "Postcode": "40460",
        "Location": "Jalan Haji Hussien",
        "Post_Office": "Shah Alam",
        "State": "Selangor"
    },
    {
        "Postcode": "40460",
        "Location": "Jalan Hikmah ",
        "Post_Office": "Shah Alam",
        "State": "Selangor"
    },
    {
        "Postcode": "40460",
        "Location": "Jalan Hon",
        "Post_Office": "Shah Alam",
        "State": "Selangor"
    },
    {
        "Postcode": "40460",
        "Location": "Jalan Injap",
        "Post_Office": "Shah Alam",
        "State": "Selangor"
    },
    {
        "Postcode": "40460",
        "Location": "Jalan Jambu",
        "Post_Office": "Shah Alam",
        "State": "Selangor"
    },
    {
        "Postcode": "40460",
        "Location": "Jalan Karas",
        "Post_Office": "Shah Alam",
        "State": "Selangor"
    },
    {
        "Postcode": "40460",
        "Location": "Jalan Karburator",
        "Post_Office": "Shah Alam",
        "State": "Selangor"
    },
    {
        "Postcode": "40460",
        "Location": "Jalan Kebun",
        "Post_Office": "Shah Alam",
        "State": "Selangor"
    },
    {
        "Postcode": "40460",
        "Location": "Jalan Kota Raja Batu 3 - 5",
        "Post_Office": "Shah Alam",
        "State": "Selangor"
    },
    {
        "Postcode": "40460",
        "Location": "Jalan Madani",
        "Post_Office": "Shah Alam",
        "State": "Selangor"
    },
    {
        "Postcode": "40460",
        "Location": "Jalan Nagasari 36",
        "Post_Office": "Shah Alam",
        "State": "Selangor"
    },
    {
        "Postcode": "40460",
        "Location": "Jalan Rim",
        "Post_Office": "Shah Alam",
        "State": "Selangor"
    },
    {
        "Postcode": "40460",
        "Location": "Jalan Rizab Buang",
        "Post_Office": "Shah Alam",
        "State": "Selangor"
    },
    {
        "Postcode": "40460",
        "Location": "Jalan Selathewan",
        "Post_Office": "Shah Alam",
        "State": "Selangor"
    },
    {
        "Postcode": "40460",
        "Location": "Jalan Serimuka 22/2",
        "Post_Office": "Shah Alam",
        "State": "Selangor"
    },
    {
        "Postcode": "40460",
        "Location": "Jalan Serimuka 36/2",
        "Post_Office": "Shah Alam",
        "State": "Selangor"
    },
    {
        "Postcode": "40460",
        "Location": "Jalan Serimuka 36/H",
        "Post_Office": "Shah Alam",
        "State": "Selangor"
    },
    {
        "Postcode": "40460",
        "Location": "Jalan Serimuka Dua 22/2B",
        "Post_Office": "Shah Alam",
        "State": "Selangor"
    },
    {
        "Postcode": "40460",
        "Location": "Jalan Serimuka Dua 36/2B",
        "Post_Office": "Shah Alam",
        "State": "Selangor"
    },
    {
        "Postcode": "40460",
        "Location": "Jalan Serimuka Empat 22/2D",
        "Post_Office": "Shah Alam",
        "State": "Selangor"
    },
    {
        "Postcode": "40460",
        "Location": "Jalan Serimuka Empat 36/2D",
        "Post_Office": "Shah Alam",
        "State": "Selangor"
    },
    {
        "Postcode": "40460",
        "Location": "Jalan Serimuka Enam 22/2F",
        "Post_Office": "Shah Alam",
        "State": "Selangor"
    },
    {
        "Postcode": "40460",
        "Location": "Jalan Serimuka Enam 36/2F",
        "Post_Office": "Shah Alam",
        "State": "Selangor"
    },
    {
        "Postcode": "40460",
        "Location": "Jalan Serimuka Lima 22/2E",
        "Post_Office": "Shah Alam",
        "State": "Selangor"
    },
    {
        "Postcode": "40460",
        "Location": "Jalan Serimuka Lima 36/2E",
        "Post_Office": "Shah Alam",
        "State": "Selangor"
    },
    {
        "Postcode": "40460",
        "Location": "Jalan Serimuka Satu 22/2A",
        "Post_Office": "Shah Alam",
        "State": "Selangor"
    },
    {
        "Postcode": "40460",
        "Location": "Jalan Serimuka Satu 36/2A",
        "Post_Office": "Shah Alam",
        "State": "Selangor"
    },
    {
        "Postcode": "40460",
        "Location": "Jalan Serimuka Tiga 22/2C",
        "Post_Office": "Shah Alam",
        "State": "Selangor"
    },
    {
        "Postcode": "40460",
        "Location": "Jalan Serimuka Tiga 36/2C",
        "Post_Office": "Shah Alam",
        "State": "Selangor"
    },
    {
        "Postcode": "40460",
        "Location": "Jalan Sri Gambut",
        "Post_Office": "Shah Alam",
        "State": "Selangor"
    },
    {
        "Postcode": "40460",
        "Location": "Jalan Stereng",
        "Post_Office": "Shah Alam",
        "State": "Selangor"
    },
    {
        "Postcode": "40460",
        "Location": "Jalan Tayar",
        "Post_Office": "Shah Alam",
        "State": "Selangor"
    },
    {
        "Postcode": "40460",
        "Location": "Jalan Tegas",
        "Post_Office": "Shah Alam",
        "State": "Selangor"
    },
    {
        "Postcode": "40460",
        "Location": "Jalan Teluk Batu",
        "Post_Office": "Shah Alam",
        "State": "Selangor"
    },
    {
        "Postcode": "40460",
        "Location": "Jalan Teluk Batu 9",
        "Post_Office": "Shah Alam",
        "State": "Selangor"
    },
    {
        "Postcode": "40460",
        "Location": "Jalan Termostat",
        "Post_Office": "Shah Alam",
        "State": "Selangor"
    },
    {
        "Postcode": "40460",
        "Location": "Lorong Firdaus",
        "Post_Office": "Shah Alam",
        "State": "Selangor"
    },
    {
        "Postcode": "40460",
        "Location": "Lorong Haji Abu Bakar",
        "Post_Office": "Shah Alam",
        "State": "Selangor"
    },
    {
        "Postcode": "40460",
        "Location": "Lorong Haji Kasim",
        "Post_Office": "Shah Alam",
        "State": "Selangor"
    },
    {
        "Postcode": "40460",
        "Location": "Lorong Haji Mastam",
        "Post_Office": "Shah Alam",
        "State": "Selangor"
    },
    {
        "Postcode": "40460",
        "Location": "Lorong Haji Moghni",
        "Post_Office": "Shah Alam",
        "State": "Selangor"
    },
    {
        "Postcode": "40460",
        "Location": "Lorong Haji Said",
        "Post_Office": "Shah Alam",
        "State": "Selangor"
    },
    {
        "Postcode": "40460",
        "Location": "Lorong Haji Sakaran",
        "Post_Office": "Shah Alam",
        "State": "Selangor"
    },
    {
        "Postcode": "40460",
        "Location": "Lorong Haji Shoib",
        "Post_Office": "Shah Alam",
        "State": "Selangor"
    },
    {
        "Postcode": "40460",
        "Location": "Lorong Haji Tahir",
        "Post_Office": "Shah Alam",
        "State": "Selangor"
    },
    {
        "Postcode": "40460",
        "Location": "Lorong Haji Taib",
        "Post_Office": "Shah Alam",
        "State": "Selangor"
    },
    {
        "Postcode": "40460",
        "Location": "Lorong Haji Yusof",
        "Post_Office": "Shah Alam",
        "State": "Selangor"
    },
    {
        "Postcode": "40460",
        "Location": "Lorong Jannah",
        "Post_Office": "Shah Alam",
        "State": "Selangor"
    },
    {
        "Postcode": "40460",
        "Location": "Lorong Syazwan",
        "Post_Office": "Shah Alam",
        "State": "Selangor"
    },
    {
        "Postcode": "40460",
        "Location": "Pangsapuri Seri Suria",
        "Post_Office": "Shah Alam",
        "State": "Selangor"
    },
    {
        "Postcode": "40460",
        "Location": "Sungai Congkak",
        "Post_Office": "Shah Alam",
        "State": "Selangor"
    },
    {
        "Postcode": "40460",
        "Location": "Taman Aisyah",
        "Post_Office": "Shah Alam",
        "State": "Selangor"
    },
    {
        "Postcode": "40460",
        "Location": "Taman Andaman 1",
        "Post_Office": "Shah Alam",
        "State": "Selangor"
    },
    {
        "Postcode": "40460",
        "Location": "Taman Andaman 2",
        "Post_Office": "Shah Alam",
        "State": "Selangor"
    },
    {
        "Postcode": "40460",
        "Location": "Taman Asma",
        "Post_Office": "Shah Alam",
        "State": "Selangor"
    },
    {
        "Postcode": "40460",
        "Location": "Taman Bukit Kemuning",
        "Post_Office": "Shah Alam",
        "State": "Selangor"
    },
    {
        "Postcode": "40460",
        "Location": "Taman Bunga Indah",
        "Post_Office": "Shah Alam",
        "State": "Selangor"
    },
    {
        "Postcode": "40460",
        "Location": "Taman Desa Kemuning",
        "Post_Office": "Shah Alam",
        "State": "Selangor"
    },
    {
        "Postcode": "40460",
        "Location": "Taman Jaya Indah",
        "Post_Office": "Shah Alam",
        "State": "Selangor"
    },
    {
        "Postcode": "40460",
        "Location": "Taman Kemuning Indah",
        "Post_Office": "Shah Alam",
        "State": "Selangor"
    },
    {
        "Postcode": "40460",
        "Location": "Taman Mutu",
        "Post_Office": "Shah Alam",
        "State": "Selangor"
    },
    {
        "Postcode": "40460",
        "Location": "Jalan Tanjung Balai 30/287A",
        "Post_Office": "Shah Alam",
        "State": "Selangor"
    },
    {
        "Postcode": "40460",
        "Location": "Taman Maya 3",
        "Post_Office": "Shah Alam",
        "State": "Selangor"
    },
    {
        "Postcode": "40460",
        "Location": "Pusat Perindustrian Impian",
        "Post_Office": "Shah Alam",
        "State": "Selangor"
    },
    {
        "Postcode": "40460",
        "Location": "Taman Wira Permai 2",
        "Post_Office": "Shah Alam",
        "State": "Selangor"
    },
    {
        "Postcode": "40460",
        "Location": "Bandar Alam Kemuning",
        "Post_Office": "Shah Alam",
        "State": "Selangor"
    },
    {
        "Postcode": "40460",
        "Location": "Taman Tulip 1",
        "Post_Office": "Shah Alam",
        "State": "Selangor"
    },
    {
        "Postcode": "40460",
        "Location": "Taman Hijaz Mulia 3",
        "Post_Office": "Shah Alam",
        "State": "Selangor"
    },
    {
        "Postcode": "40460",
        "Location": "Taman Sutera 4",
        "Post_Office": "Shah Alam",
        "State": "Selangor"
    },
    {
        "Postcode": "40460",
        "Location": "Taman Wira Permai 3",
        "Post_Office": "Shah Alam",
        "State": "Selangor"
    },
    {
        "Postcode": "40460",
        "Location": "Taman Wira Permai 4",
        "Post_Office": "Shah Alam",
        "State": "Selangor"
    },
    {
        "Postcode": "40460",
        "Location": "Taman Melur 3",
        "Post_Office": "Shah Alam",
        "State": "Selangor"
    },
    {
        "Postcode": "40460",
        "Location": "Taman Orkid Maju 3",
        "Post_Office": "Shah Alam",
        "State": "Selangor"
    },
    {
        "Postcode": "40460",
        "Location": "Taman Seri Pagi 4",
        "Post_Office": "Shah Alam",
        "State": "Selangor"
    },
    {
        "Postcode": "40460",
        "Location": "Taman Teratai 4",
        "Post_Office": "Shah Alam",
        "State": "Selangor"
    },
    {
        "Postcode": "40460",
        "Location": "Taman Dahlia 3",
        "Post_Office": "Shah Alam",
        "State": "Selangor"
    },
    {
        "Postcode": "40460",
        "Location": "Taman Mawar 3",
        "Post_Office": "Shah Alam",
        "State": "Selangor"
    },
    {
        "Postcode": "40460",
        "Location": "Kampung Jawa (Batu 4)",
        "Post_Office": "Shah Alam",
        "State": "Selangor"
    },
    {
        "Postcode": "40460",
        "Location": "Seksyen 34",
        "Post_Office": "Shah Alam",
        "State": "Selangor"
    },
    {
        "Postcode": "40460",
        "Location": "Taman Citra Mustika 3",
        "Post_Office": "Shah Alam",
        "State": "Selangor"
    },
    {
        "Postcode": "40460",
        "Location": "Taman Jati Indah",
        "Post_Office": "Shah Alam",
        "State": "Selangor"
    },
    {
        "Postcode": "40460",
        "Location": "Kampung Bukit Naga",
        "Post_Office": "Shah Alam",
        "State": "Selangor"
    },
    {
        "Postcode": "40460",
        "Location": "Kampung Jalan Kebun",
        "Post_Office": "Shah Alam",
        "State": "Selangor"
    },
    {
        "Postcode": "40460",
        "Location": "Kampung Lombong",
        "Post_Office": "Shah Alam",
        "State": "Selangor"
    },
    {
        "Postcode": "40460",
        "Location": "Kampung Sri Gambut",
        "Post_Office": "Shah Alam",
        "State": "Selangor"
    },
    {
        "Postcode": "40460",
        "Location": "Kota Kemuning",
        "Post_Office": "Shah Alam",
        "State": "Selangor"
    },
    {
        "Postcode": "40460",
        "Location": "Taman Alam Permai",
        "Post_Office": "Shah Alam",
        "State": "Selangor"
    },
    {
        "Postcode": "40460",
        "Location": "Taman Amir Shafiqah",
        "Post_Office": "Shah Alam",
        "State": "Selangor"
    },
    {
        "Postcode": "40460",
        "Location": "Taman Bunga Raya",
        "Post_Office": "Shah Alam",
        "State": "Selangor"
    },
    {
        "Postcode": "40460",
        "Location": "Taman Kencana Indah",
        "Post_Office": "Shah Alam",
        "State": "Selangor"
    },
    {
        "Postcode": "40460",
        "Location": "Taman Kota Warisan",
        "Post_Office": "Shah Alam",
        "State": "Selangor"
    },
    {
        "Postcode": "40460",
        "Location": "Taman Malindo",
        "Post_Office": "Shah Alam",
        "State": "Selangor"
    },
    {
        "Postcode": "40460",
        "Location": "Taman Muhammad 2",
        "Post_Office": "Shah Alam",
        "State": "Selangor"
    },
    {
        "Postcode": "40460",
        "Location": "Taman Palma",
        "Post_Office": "Shah Alam",
        "State": "Selangor"
    },
    {
        "Postcode": "40460",
        "Location": "Taman Perindustrian Berjaya",
        "Post_Office": "Shah Alam",
        "State": "Selangor"
    },
    {
        "Postcode": "40460",
        "Location": "Taman Seri Kemuning",
        "Post_Office": "Shah Alam",
        "State": "Selangor"
    },
    {
        "Postcode": "40460",
        "Location": "Taman Sri Orkid",
        "Post_Office": "Shah Alam",
        "State": "Selangor"
    },
    {
        "Postcode": "40460",
        "Location": "Taman Tanjung Rhu",
        "Post_Office": "Shah Alam",
        "State": "Selangor"
    },
    {
        "Postcode": "40460",
        "Location": "Taman Tulip 2",
        "Post_Office": "Shah Alam",
        "State": "Selangor"
    },
    {
        "Postcode": "40460",
        "Location": "Taman Wira Permai 5",
        "Post_Office": "Shah Alam",
        "State": "Selangor"
    },
    {
        "Postcode": "40460",
        "Location": "Taman Dahlia 4",
        "Post_Office": "Shah Alam",
        "State": "Selangor"
    },
    {
        "Postcode": "40460",
        "Location": "Taman Kebun Setawar 2",
        "Post_Office": "Shah Alam",
        "State": "Selangor"
    },
    {
        "Postcode": "40460",
        "Location": "Taman Rafflesia",
        "Post_Office": "Shah Alam",
        "State": "Selangor"
    },
    {
        "Postcode": "40460",
        "Location": "Taman Berjaya",
        "Post_Office": "Shah Alam",
        "State": "Selangor"
    },
    {
        "Postcode": "40460",
        "Location": "Taman Mutiara",
        "Post_Office": "Shah Alam",
        "State": "Selangor"
    },
    {
        "Postcode": "40460",
        "Location": "Taman Sri Bayu ",
        "Post_Office": "Shah Alam",
        "State": "Selangor"
    },
    {
        "Postcode": "40460",
        "Location": "Jalan Anggerik Aranda A 31/A",
        "Post_Office": "Shah Alam",
        "State": "Selangor"
    },
    {
        "Postcode": "40460",
        "Location": "Jalan Anggerik Aranda B 31/B",
        "Post_Office": "Shah Alam",
        "State": "Selangor"
    },
    {
        "Postcode": "40460",
        "Location": "Jalan Anggerik Aranda C 31/C",
        "Post_Office": "Shah Alam",
        "State": "Selangor"
    },
    {
        "Postcode": "40460",
        "Location": "Jalan Anggerik Aranda D 31/D",
        "Post_Office": "Shah Alam",
        "State": "Selangor"
    },
    {
        "Postcode": "40460",
        "Location": "Jalan Anggerik Mokara E 31/E",
        "Post_Office": "Shah Alam",
        "State": "Selangor"
    },
    {
        "Postcode": "40460",
        "Location": "Jalan Anggerik Mokara F 31/F",
        "Post_Office": "Shah Alam",
        "State": "Selangor"
    },
    {
        "Postcode": "40460",
        "Location": "Jalan Anggerik Mokara G 31/G",
        "Post_Office": "Shah Alam",
        "State": "Selangor"
    },
    {
        "Postcode": "40460",
        "Location": "Jalan Anggerik Mokara H 31/H",
        "Post_Office": "Shah Alam",
        "State": "Selangor"
    },
    {
        "Postcode": "40460",
        "Location": "Jalan Anggerik Mokara J 31/J",
        "Post_Office": "Shah Alam",
        "State": "Selangor"
    },
    {
        "Postcode": "40460",
        "Location": "Jalan Kampung Batu 7",
        "Post_Office": "Shah Alam",
        "State": "Selangor"
    },
    {
        "Postcode": "40460",
        "Location": "Jalan Kampung Lombong",
        "Post_Office": "Shah Alam",
        "State": "Selangor"
    },
    {
        "Postcode": "40460",
        "Location": "Jalan Segambut",
        "Post_Office": "Shah Alam",
        "State": "Selangor"
    },
    {
        "Postcode": "40460",
        "Location": "Jalan Sungai Keranji K 32/K",
        "Post_Office": "Shah Alam",
        "State": "Selangor"
    },
    {
        "Postcode": "40460",
        "Location": "Jalan Sungai Keranji L 32/L",
        "Post_Office": "Shah Alam",
        "State": "Selangor"
    },
    {
        "Postcode": "40460",
        "Location": "Jalan Sungai Keranji M 32/M",
        "Post_Office": "Shah Alam",
        "State": "Selangor"
    },
    {
        "Postcode": "40460",
        "Location": "Jalan Sungai Keranji N 32/N",
        "Post_Office": "Shah Alam",
        "State": "Selangor"
    },
    {
        "Postcode": "40460",
        "Location": "Jalan Sungai Keranji P 32/P",
        "Post_Office": "Shah Alam",
        "State": "Selangor"
    },
    {
        "Postcode": "40460",
        "Location": "Jalan Sungai Keranji Q 32/Q",
        "Post_Office": "Shah Alam",
        "State": "Selangor"
    },
    {
        "Postcode": "40460",
        "Location": "Jalan Sungai Long 32/113",
        "Post_Office": "Shah Alam",
        "State": "Selangor"
    },
    {
        "Postcode": "40460",
        "Location": "Jalan Tanjung Agas 30/32A",
        "Post_Office": "Shah Alam",
        "State": "Selangor"
    },
    {
        "Postcode": "40460",
        "Location": "Jalan Tanjung Gelang 30/4",
        "Post_Office": "Shah Alam",
        "State": "Selangor"
    },
    {
        "Postcode": "40460",
        "Location": "Jalan Tanjung Tuan 30/30A",
        "Post_Office": "Shah Alam",
        "State": "Selangor"
    },
    {
        "Postcode": "40460",
        "Location": "Lengkuk Bukit Rimau 1",
        "Post_Office": "Shah Alam",
        "State": "Selangor"
    },
    {
        "Postcode": "40460",
        "Location": "Lorong Abdullah",
        "Post_Office": "Shah Alam",
        "State": "Selangor"
    },
    {
        "Postcode": "40460",
        "Location": "Lorong Mastam",
        "Post_Office": "Shah Alam",
        "State": "Selangor"
    },
    {
        "Postcode": "40460",
        "Location": "Lorong Rabingan",
        "Post_Office": "Shah Alam",
        "State": "Selangor"
    },
    {
        "Postcode": "40460",
        "Location": "Lorong Sarkawi",
        "Post_Office": "Shah Alam",
        "State": "Selangor"
    },
    {
        "Postcode": "40460",
        "Location": "Lorong Universiti",
        "Post_Office": "Shah Alam",
        "State": "Selangor"
    },
    {
        "Postcode": "40460",
        "Location": "Taman Impian Sutera",
        "Post_Office": "Shah Alam",
        "State": "Selangor"
    },
    {
        "Postcode": "40460",
        "Location": "Taman Desa Impian",
        "Post_Office": "Shah Alam",
        "State": "Selangor"
    },
    {
        "Postcode": "40460",
        "Location": "Taman Wira Permai",
        "Post_Office": "Shah Alam",
        "State": "Selangor"
    },
    {
        "Postcode": "40460",
        "Location": "Taman Hijjaz Mulia",
        "Post_Office": "Shah Alam",
        "State": "Selangor"
    },
    {
        "Postcode": "40460",
        "Location": "Taman Anggerik Permai 2",
        "Post_Office": "Shah Alam",
        "State": "Selangor"
    },
    {
        "Postcode": "40460",
        "Location": "Taman Impian Sutera 2",
        "Post_Office": "Shah Alam",
        "State": "Selangor"
    },
    {
        "Postcode": "40460",
        "Location": "Taman Mesra Indah",
        "Post_Office": "Shah Alam",
        "State": "Selangor"
    },
    {
        "Postcode": "40460",
        "Location": "Taman Platinium",
        "Post_Office": "Shah Alam",
        "State": "Selangor"
    },
    {
        "Postcode": "40460",
        "Location": "Taman Cempaka Permai",
        "Post_Office": "Shah Alam",
        "State": "Selangor"
    },
    {
        "Postcode": "40460",
        "Location": "Taman Dahlia",
        "Post_Office": "Shah Alam",
        "State": "Selangor"
    },
    {
        "Postcode": "40460",
        "Location": "Taman Impian Sutera 3",
        "Post_Office": "Shah Alam",
        "State": "Selangor"
    },
    {
        "Postcode": "40460",
        "Location": "Taman Hijjaz Mulia 2",
        "Post_Office": "Shah Alam",
        "State": "Selangor"
    },
    {
        "Postcode": "40460",
        "Location": "Taman Kebun Setawar 3",
        "Post_Office": "Shah Alam",
        "State": "Selangor"
    },
    {
        "Postcode": "40460",
        "Location": "Lorong Ehsan",
        "Post_Office": "Shah Alam",
        "State": "Selangor"
    },
    {
        "Postcode": "40460",
        "Location": "Taman Citra Wawasan",
        "Post_Office": "Shah Alam",
        "State": "Selangor"
    },
    {
        "Postcode": "40460",
        "Location": "Taman Seri Pagi 5",
        "Post_Office": "Shah Alam",
        "State": "Selangor"
    },
    {
        "Postcode": "40460",
        "Location": "Taman Wira Permai 6",
        "Post_Office": "Shah Alam",
        "State": "Selangor"
    },
    {
        "Postcode": "40460",
        "Location": "Seksyen 32",
        "Post_Office": "Shah Alam",
        "State": "Selangor"
    },
    {
        "Postcode": "40460",
        "Location": "Taman Idaman Jiwa 1",
        "Post_Office": "Shah Alam",
        "State": "Selangor"
    },
    {
        "Postcode": "40460",
        "Location": "Taman Idaman Jiwa 2",
        "Post_Office": "Shah Alam",
        "State": "Selangor"
    },
    {
        "Postcode": "40460",
        "Location": "Taman Hijaz Mulia 7",
        "Post_Office": "Shah Alam",
        "State": "Selangor"
    },
    {
        "Postcode": "40460",
        "Location": "Jalan Tanjung Gelang 30/192",
        "Post_Office": "Shah Alam",
        "State": "Selangor"
    },
    {
        "Postcode": "40460",
        "Location": "Taman Orkid Maju 2",
        "Post_Office": "Shah Alam",
        "State": "Selangor"
    },
    {
        "Postcode": "40460",
        "Location": "Taman Reflesia 2",
        "Post_Office": "Shah Alam",
        "State": "Selangor"
    },
    {
        "Postcode": "40460",
        "Location": "Pusat Perniagaan Alam Kemuning",
        "Post_Office": "Shah Alam",
        "State": "Selangor"
    },
    {
        "Postcode": "40460",
        "Location": "Taman Idaman Nurani 1",
        "Post_Office": "Shah Alam",
        "State": "Selangor"
    },
    {
        "Postcode": "40460",
        "Location": "Taman Seri Pagi 1",
        "Post_Office": "Shah Alam",
        "State": "Selangor"
    },
    {
        "Postcode": "40460",
        "Location": "Taman Anggerik Permai 3",
        "Post_Office": "Shah Alam",
        "State": "Selangor"
    },
    {
        "Postcode": "40460",
        "Location": "Taman Melur 2",
        "Post_Office": "Shah Alam",
        "State": "Selangor"
    },
    {
        "Postcode": "40460",
        "Location": "Taman Seri Pagi 2",
        "Post_Office": "Shah Alam",
        "State": "Selangor"
    },
    {
        "Postcode": "40460",
        "Location": "Taman Dahlia 2",
        "Post_Office": "Shah Alam",
        "State": "Selangor"
    },
    {
        "Postcode": "40460",
        "Location": "Taman Seri Pagi 3",
        "Post_Office": "Shah Alam",
        "State": "Selangor"
    },
    {
        "Postcode": "40460",
        "Location": "Jalan Lombong Besi 29/79",
        "Post_Office": "Shah Alam",
        "State": "Selangor"
    },
    {
        "Postcode": "40460",
        "Location": "Jalan Tanjung Api-Api 30/245",
        "Post_Office": "Shah Alam ",
        "State": "Selangor"
    },
    {
        "Postcode": "40460",
        "Location": "Taman Anggerik Permai",
        "Post_Office": "Shah Alam",
        "State": "Selangor"
    },
    {
        "Postcode": "40460",
        "Location": "Taman Dahlia 5",
        "Post_Office": "Shah Alam",
        "State": "Selangor"
    },
    {
        "Postcode": "40460",
        "Location": "Taman Dahlia 6",
        "Post_Office": "Shah Alam",
        "State": "Selangor"
    },
    {
        "Postcode": "40460",
        "Location": "Taman Seri Pagi 6",
        "Post_Office": "Shah Alam",
        "State": "Selangor"
    },
    {
        "Postcode": "40460",
        "Location": "Taman Maya 2",
        "Post_Office": "Shah Alam",
        "State": "Selangor"
    },
    {
        "Postcode": "40460",
        "Location": "Taman Impian Murni 2",
        "Post_Office": "Shah Alam",
        "State": "Selangor"
    },
    {
        "Postcode": "40460",
        "Location": "Taman Impian Murni 3",
        "Post_Office": "Shah Alam",
        "State": "Selangor"
    },
    {
        "Postcode": "40460",
        "Location": "Taman Impian Murni 1",
        "Post_Office": "Shah Alam",
        "State": "Selangor"
    },
    {
        "Postcode": "40460",
        "Location": "Taman Seri Pagi 7",
        "Post_Office": "Shah Alam",
        "State": "Selangor"
    },
    {
        "Postcode": "40460",
        "Location": "Pangsapuri Gaya",
        "Post_Office": "Shah Alam",
        "State": "Selangor"
    },
    {
        "Postcode": "40460",
        "Location": "Taman Kebun Setawar 3",
        "Post_Office": "Shah Alam",
        "State": "Selangor"
    },
    {
        "Postcode": "40460",
        "Location": "Taman Citra Wawasan",
        "Post_Office": "Shah Alam",
        "State": "Selangor"
    },
    {
        "Postcode": "40460",
        "Location": "Taman Seri Pagi 5",
        "Post_Office": "Shah Alam",
        "State": "Selangor"
    },
    {
        "Postcode": "40460",
        "Location": "Taman Wira Permai 6",
        "Post_Office": "Shah Alam",
        "State": "Selangor"
    },
    {
        "Postcode": "40460",
        "Location": "Taman Dahlia 5",
        "Post_Office": "Shah Alam",
        "State": "Selangor"
    },
    {
        "Postcode": "40460",
        "Location": "Jalan Klinik",
        "Post_Office": "Shah Alam",
        "State": "Selangor"
    },
    {
        "Postcode": "40460",
        "Location": "Jalan Anggerik Tania 31/114",
        "Post_Office": "Shah Alam",
        "State": "Selangor"
    },
    {
        "Postcode": "40460",
        "Location": "Jalan Anggerik Tania 31/115",
        "Post_Office": "Shah Alam",
        "State": "Selangor"
    },
    {
        "Postcode": "40460",
        "Location": "Jalan Anggerik Tania 31/116",
        "Post_Office": "Shah Alam",
        "State": "Selangor"
    },
    {
        "Postcode": "40460",
        "Location": "Jalan Anggerik Tania 31/117",
        "Post_Office": "Shah Alam",
        "State": "Selangor"
    },
    {
        "Postcode": "40460",
        "Location": "Jalan Anggerik Tania 31/118",
        "Post_Office": "Shah Alam",
        "State": "Selangor"
    },
    {
        "Postcode": "40460",
        "Location": "Jalan Anggerik Tania 31/119",
        "Post_Office": "Shah Alam",
        "State": "Selangor"
    },
    {
        "Postcode": "40460",
        "Location": "Jalan Anggerik Tania 31/120",
        "Post_Office": "Shah Alam",
        "State": "Selangor"
    },
    {
        "Postcode": "40460",
        "Location": "Jalan Anggerik Tania 31/121",
        "Post_Office": "Shah Alam",
        "State": "Selangor"
    },
    {
        "Postcode": "40460",
        "Location": "Jalan Anggerik Tania 31/122",
        "Post_Office": "Shah Alam",
        "State": "Selangor"
    },
    {
        "Postcode": "40460",
        "Location": "Jalan Anggerik Tania 31/123",
        "Post_Office": "Shah Alam",
        "State": "Selangor"
    },
    {
        "Postcode": "40460",
        "Location": "Jalan Anggerik Vanda 31/167",
        "Post_Office": "Shah Alam",
        "State": "Selangor"
    },
    {
        "Postcode": "40460",
        "Location": "Jalan Anggerik Vanda 31/168",
        "Post_Office": "Shah Alam",
        "State": "Selangor"
    },
    {
        "Postcode": "40460",
        "Location": "Jalan Anggerik Vanda 31/169",
        "Post_Office": "Shah Alam",
        "State": "Selangor"
    },
    {
        "Postcode": "40460",
        "Location": "Jalan Anggerik Vanilla 31/100",
        "Post_Office": "Shah Alam",
        "State": "Selangor"
    },
    {
        "Postcode": "40460",
        "Location": "Jalan Anggerik Vanilla 31/92",
        "Post_Office": "Shah Alam",
        "State": "Selangor"
    },
    {
        "Postcode": "40460",
        "Location": "Jalan Anggerik Vanilla 31/93",
        "Post_Office": "Shah Alam",
        "State": "Selangor"
    },
    {
        "Postcode": "40460",
        "Location": "Jalan Anggerik Vanilla 31/94",
        "Post_Office": "Shah Alam",
        "State": "Selangor"
    },
    {
        "Postcode": "40460",
        "Location": "Jalan Anggerik Vanilla 31/95",
        "Post_Office": "Shah Alam",
        "State": "Selangor"
    },
    {
        "Postcode": "40460",
        "Location": "Jalan Anggerik Vanilla 31/96",
        "Post_Office": "Shah Alam",
        "State": "Selangor"
    },
    {
        "Postcode": "40460",
        "Location": "Jalan Anggerik Vanilla 31/97",
        "Post_Office": "Shah Alam",
        "State": "Selangor"
    },
    {
        "Postcode": "40460",
        "Location": "Jalan Anggerik Vanilla 31/98",
        "Post_Office": "Shah Alam",
        "State": "Selangor"
    },
    {
        "Postcode": "40460",
        "Location": "Jalan Anggerik Vanilla 31/99",
        "Post_Office": "Shah Alam",
        "State": "Selangor"
    },
    {
        "Postcode": "40460",
        "Location": "Jalan Buah Melaka 36/13",
        "Post_Office": "Shah Alam",
        "State": "Selangor"
    },
    {
        "Postcode": "40460",
        "Location": "Jalan Buah Melaka 36/14",
        "Post_Office": "Shah Alam",
        "State": "Selangor"
    },
    {
        "Postcode": "40460",
        "Location": "Jalan Buah Melaka 36/15",
        "Post_Office": "Shah Alam",
        "State": "Selangor"
    },
    {
        "Postcode": "40460",
        "Location": "Jalan Buah Melaka 36/16",
        "Post_Office": "Shah Alam",
        "State": "Selangor"
    },
    {
        "Postcode": "40460",
        "Location": "Jalan Buah Melaka 36/17",
        "Post_Office": "Shah Alam",
        "State": "Selangor"
    },
    {
        "Postcode": "40460",
        "Location": "Jalan Bukit Rimau 1",
        "Post_Office": "Shah Alam",
        "State": "Selangor"
    },
    {
        "Postcode": "40460",
        "Location": "Jalan Bukit Rimau 2",
        "Post_Office": "Shah Alam",
        "State": "Selangor"
    },
    {
        "Postcode": "40460",
        "Location": "Jalan Bukit Rimau 3",
        "Post_Office": "Shah Alam",
        "State": "Selangor"
    },
    {
        "Postcode": "40460",
        "Location": "Jalan Bukit Rimau 4",
        "Post_Office": "Shah Alam",
        "State": "Selangor"
    },
    {
        "Postcode": "40460",
        "Location": "Jalan Desa Kemandol 1",
        "Post_Office": "Shah Alam",
        "State": "Selangor"
    },
    {
        "Postcode": "40460",
        "Location": "Jalan Desa Kemandol 10",
        "Post_Office": "Shah Alam",
        "State": "Selangor"
    },
    {
        "Postcode": "40460",
        "Location": "Jalan Desa Kemandol 11",
        "Post_Office": "Shah Alam",
        "State": "Selangor"
    },
    {
        "Postcode": "40460",
        "Location": "Jalan Desa Kemandol 12",
        "Post_Office": "Shah Alam",
        "State": "Selangor"
    },
    {
        "Postcode": "40460",
        "Location": "Jalan Desa Kemandol 13",
        "Post_Office": "Shah Alam",
        "State": "Selangor"
    },
    {
        "Postcode": "40460",
        "Location": "Jalan Desa Kemandol 14",
        "Post_Office": "Shah Alam",
        "State": "Selangor"
    },
    {
        "Postcode": "40460",
        "Location": "Jalan Desa Kemandol 15",
        "Post_Office": "Shah Alam",
        "State": "Selangor"
    },
    {
        "Postcode": "40460",
        "Location": "Jalan Desa Kemandol 16",
        "Post_Office": "Shah Alam",
        "State": "Selangor"
    },
    {
        "Postcode": "40460",
        "Location": "Jalan Desa Kemandol 17",
        "Post_Office": "Shah Alam",
        "State": "Selangor"
    },
    {
        "Postcode": "40460",
        "Location": "Jalan Desa Kemandol 18",
        "Post_Office": "Shah Alam",
        "State": "Selangor"
    },
    {
        "Postcode": "40460",
        "Location": "Jalan Desa Kemandol 19",
        "Post_Office": "Shah Alam",
        "State": "Selangor"
    },
    {
        "Postcode": "40460",
        "Location": "Jalan Desa Kemandol 2",
        "Post_Office": "Shah Alam",
        "State": "Selangor"
    },
    {
        "Postcode": "40460",
        "Location": "Jalan Desa Kemandol 3",
        "Post_Office": "Shah Alam",
        "State": "Selangor"
    },
    {
        "Postcode": "40460",
        "Location": "Jalan Desa Kemandol 4",
        "Post_Office": "Shah Alam",
        "State": "Selangor"
    },
    {
        "Postcode": "40460",
        "Location": "Jalan Desa Kemandol 5",
        "Post_Office": "Shah Alam",
        "State": "Selangor"
    },
    {
        "Postcode": "40460",
        "Location": "Jalan Desa Kemandol 6",
        "Post_Office": "Shah Alam",
        "State": "Selangor"
    },
    {
        "Postcode": "40460",
        "Location": "Jalan Desa Kemandol 7",
        "Post_Office": "Shah Alam",
        "State": "Selangor"
    },
    {
        "Postcode": "40460",
        "Location": "Jalan Desa Kemandol 8",
        "Post_Office": "Shah Alam",
        "State": "Selangor"
    },
    {
        "Postcode": "40460",
        "Location": "Jalan Desa Kemandol 9",
        "Post_Office": "Shah Alam",
        "State": "Selangor"
    },
    {
        "Postcode": "40460",
        "Location": "Jalan Kemuning Damai 32/148",
        "Post_Office": "Shah Alam",
        "State": "Selangor"
    },
    {
        "Postcode": "40460",
        "Location": "Jalan Kemuning Damai 32/149",
        "Post_Office": "Shah Alam",
        "State": "Selangor"
    },
    {
        "Postcode": "40460",
        "Location": "Jalan Kemuning Damai 32/150",
        "Post_Office": "Shah Alam",
        "State": "Selangor"
    },
    {
        "Postcode": "40460",
        "Location": "Jalan Kemuning Damai 32/151",
        "Post_Office": "Shah Alam",
        "State": "Selangor"
    },
    {
        "Postcode": "40460",
        "Location": "Jalan Kemuning Damai 32/152",
        "Post_Office": "Shah Alam",
        "State": "Selangor"
    },
    {
        "Postcode": "40460",
        "Location": "Jalan Kemuning Damai 32/153",
        "Post_Office": "Shah Alam",
        "State": "Selangor"
    },
    {
        "Postcode": "40460",
        "Location": "Jalan Kemuning Damai 32/154",
        "Post_Office": "Shah Alam",
        "State": "Selangor"
    },
    {
        "Postcode": "40460",
        "Location": "Jalan Kemuning Damai 32/155",
        "Post_Office": "Shah Alam",
        "State": "Selangor"
    },
    {
        "Postcode": "40460",
        "Location": "Jalan Kemuning Damai 32/156",
        "Post_Office": "Shah Alam",
        "State": "Selangor"
    },
    {
        "Postcode": "40460",
        "Location": "Jalan Kemuning Damai 32/157",
        "Post_Office": "Shah Alam",
        "State": "Selangor"
    },
    {
        "Postcode": "40460",
        "Location": "Jalan Kemuning Damai 32/158",
        "Post_Office": "Shah Alam",
        "State": "Selangor"
    },
    {
        "Postcode": "40460",
        "Location": "Jalan Kemuning Damai 32/159",
        "Post_Office": "Shah Alam",
        "State": "Selangor"
    },
    {
        "Postcode": "40460",
        "Location": "Jalan Kemuning Damai 32/160",
        "Post_Office": "Shah Alam",
        "State": "Selangor"
    },
    {
        "Postcode": "40460",
        "Location": "Jalan Kemuning Damai 32/161",
        "Post_Office": "Shah Alam",
        "State": "Selangor"
    },
    {
        "Postcode": "40460",
        "Location": "Jalan Kemuning Damai 32/162",
        "Post_Office": "Shah Alam",
        "State": "Selangor"
    },
    {
        "Postcode": "40460",
        "Location": "Jalan Kemuning Damai 32/163",
        "Post_Office": "Shah Alam",
        "State": "Selangor"
    },
    {
        "Postcode": "40460",
        "Location": "Jalan Kemuning Damai 32/164",
        "Post_Office": "Shah Alam",
        "State": "Selangor"
    },
    {
        "Postcode": "40460",
        "Location": "Jalan Kemuning Damai 32/165",
        "Post_Office": "Shah Alam",
        "State": "Selangor"
    },
    {
        "Postcode": "40460",
        "Location": "Jalan Kemuning Indah 32/134",
        "Post_Office": "Shah Alam",
        "State": "Selangor"
    },
    {
        "Postcode": "40460",
        "Location": "Jalan Kemuning Indah 32/135",
        "Post_Office": "Shah Alam",
        "State": "Selangor"
    },
    {
        "Postcode": "40460",
        "Location": "Jalan Kemuning Indah 32/136",
        "Post_Office": "Shah Alam",
        "State": "Selangor"
    },
    {
        "Postcode": "40460",
        "Location": "Jalan Kemuning Indah 32/137",
        "Post_Office": "Shah Alam",
        "State": "Selangor"
    },
    {
        "Postcode": "40460",
        "Location": "Jalan Kemuning Indah 32/138",
        "Post_Office": "Shah Alam",
        "State": "Selangor"
    },
    {
        "Postcode": "40460",
        "Location": "Jalan Kemuning Indah 32/139",
        "Post_Office": "Shah Alam",
        "State": "Selangor"
    },
    {
        "Postcode": "40460",
        "Location": "Jalan Kemuning Indah 32/140",
        "Post_Office": "Shah Alam",
        "State": "Selangor"
    },
    {
        "Postcode": "40460",
        "Location": "Jalan Kemuning Indah 32/141",
        "Post_Office": "Shah Alam",
        "State": "Selangor"
    },
    {
        "Postcode": "40460",
        "Location": "Jalan Kemuning Indah 32/142",
        "Post_Office": "Shah Alam",
        "State": "Selangor"
    },
    {
        "Postcode": "40460",
        "Location": "Jalan Kemuning Indah 32/143",
        "Post_Office": "Shah Alam",
        "State": "Selangor"
    },
    {
        "Postcode": "40460",
        "Location": "Jalan Kemuning Indah 32/144",
        "Post_Office": "Shah Alam",
        "State": "Selangor"
    },
    {
        "Postcode": "40460",
        "Location": "Jalan Kemuning Indah 32/145",
        "Post_Office": "Shah Alam",
        "State": "Selangor"
    },
    {
        "Postcode": "40460",
        "Location": "Jalan Kemuning Indah 32/146",
        "Post_Office": "Shah Alam",
        "State": "Selangor"
    },
    {
        "Postcode": "40460",
        "Location": "Jalan Kemuning Indah 32/147",
        "Post_Office": "Shah Alam",
        "State": "Selangor"
    },
    {
        "Postcode": "40460",
        "Location": "Jalan Sungai Beranang 32/56",
        "Post_Office": "Shah Alam",
        "State": "Selangor"
    },
    {
        "Postcode": "40460",
        "Location": "Jalan Sungai Beranang 32/57",
        "Post_Office": "Shah Alam",
        "State": "Selangor"
    },
    {
        "Postcode": "40460",
        "Location": "Jalan Sungai Beranang 32/58",
        "Post_Office": "Shah Alam",
        "State": "Selangor"
    },
    {
        "Postcode": "40460",
        "Location": "Jalan Sungai Beranang 32/59",
        "Post_Office": "Shah Alam",
        "State": "Selangor"
    },
    {
        "Postcode": "40460",
        "Location": "Jalan Sungai Beranang 32/60",
        "Post_Office": "Shah Alam",
        "State": "Selangor"
    },
    {
        "Postcode": "40460",
        "Location": "Jalan Sungai Beranang 32/61",
        "Post_Office": "Shah Alam",
        "State": "Selangor"
    },
    {
        "Postcode": "40460",
        "Location": "Jalan Sungai Burung 32/66",
        "Post_Office": "Shah Alam",
        "State": "Selangor"
    },
    {
        "Postcode": "40460",
        "Location": "Jalan Sungai Burung 32/67",
        "Post_Office": "Shah Alam",
        "State": "Selangor"
    },
    {
        "Postcode": "40460",
        "Location": "Jalan Sungai Burung 32/68",
        "Post_Office": "Shah Alam",
        "State": "Selangor"
    },
    {
        "Postcode": "40460",
        "Location": "Jalan Sungai Burung 32/69",
        "Post_Office": "Shah Alam",
        "State": "Selangor"
    },
    {
        "Postcode": "40460",
        "Location": "Jalan Sungai Burung 32/70",
        "Post_Office": "Shah Alam",
        "State": "Selangor"
    },
    {
        "Postcode": "40460",
        "Location": "Jalan Sungai Burung 32/71",
        "Post_Office": "Shah Alam",
        "State": "Selangor"
    },
    {
        "Postcode": "40460",
        "Location": "Jalan Sungai Burung 32/72",
        "Post_Office": "Shah Alam",
        "State": "Selangor"
    },
    {
        "Postcode": "40460",
        "Location": "Jalan Sungai Burung 32/73",
        "Post_Office": "Shah Alam",
        "State": "Selangor"
    },
    {
        "Postcode": "40460",
        "Location": "Jalan Sungai Congkak 32/41",
        "Post_Office": "Shah Alam",
        "State": "Selangor"
    },
    {
        "Postcode": "40460",
        "Location": "Jalan Sungai Congkak 32/42",
        "Post_Office": "Shah Alam",
        "State": "Selangor"
    },
    {
        "Postcode": "40460",
        "Location": "Jalan Sungai Congkak 32/43",
        "Post_Office": "Shah Alam",
        "State": "Selangor"
    },
    {
        "Postcode": "40460",
        "Location": "Jalan Sungai Congkak 32/44",
        "Post_Office": "Shah Alam",
        "State": "Selangor"
    },
    {
        "Postcode": "40460",
        "Location": "Jalan Sungai Congkak 32/45",
        "Post_Office": "Shah Alam",
        "State": "Selangor"
    },
    {
        "Postcode": "40460",
        "Location": "Jalan Sungai Congkak 32/46",
        "Post_Office": "Shah Alam",
        "State": "Selangor"
    },
    {
        "Postcode": "40460",
        "Location": "Jalan Sungai Congkak 32/47",
        "Post_Office": "Shah Alam",
        "State": "Selangor"
    },
    {
        "Postcode": "40460",
        "Location": "Jalan Sungai Congkak 32/48",
        "Post_Office": "Shah Alam",
        "State": "Selangor"
    },
    {
        "Postcode": "40460",
        "Location": "Jalan Sungai Congkak 32/49",
        "Post_Office": "Shah Alam",
        "State": "Selangor"
    },
    {
        "Postcode": "40460",
        "Location": "Jalan Sungai Congkak 32/50",
        "Post_Office": "Shah Alam",
        "State": "Selangor"
    },
    {
        "Postcode": "40460",
        "Location": "Jalan Sungai Congkak 32/51",
        "Post_Office": "Shah Alam",
        "State": "Selangor"
    },
    {
        "Postcode": "40460",
        "Location": "Jalan Sungai Damansara 32/1",
        "Post_Office": "Shah Alam",
        "State": "Selangor"
    },
    {
        "Postcode": "40460",
        "Location": "Jalan Sungai Damansara 32/2",
        "Post_Office": "Shah Alam",
        "State": "Selangor"
    },
    {
        "Postcode": "40460",
        "Location": "Jalan Sungai Kayu Ara 32/31",
        "Post_Office": "Shah Alam",
        "State": "Selangor"
    },
    {
        "Postcode": "40460",
        "Location": "Jalan Sungai Kayu Ara 32/32",
        "Post_Office": "Shah Alam",
        "State": "Selangor"
    },
    {
        "Postcode": "40460",
        "Location": "Jalan Sungai Kayu Ara 32/33",
        "Post_Office": "Shah Alam",
        "State": "Selangor"
    },
    {
        "Postcode": "40460",
        "Location": "Jalan Sungai Kayu Ara 32/34",
        "Post_Office": "Shah Alam",
        "State": "Selangor"
    },
    {
        "Postcode": "40460",
        "Location": "Jalan Sungai Kayu Ara 32/35",
        "Post_Office": "Shah Alam",
        "State": "Selangor"
    },
    {
        "Postcode": "40460",
        "Location": "Jalan Sungai Kayu Ara 32/36",
        "Post_Office": "Shah Alam",
        "State": "Selangor"
    },
    {
        "Postcode": "40460",
        "Location": "Jalan Sungai Kayu Ara 32/37",
        "Post_Office": "Shah Alam",
        "State": "Selangor"
    },
    {
        "Postcode": "40460",
        "Location": "Jalan Sungai Kayu Ara 32/38",
        "Post_Office": "Shah Alam",
        "State": "Selangor"
    },
    {
        "Postcode": "40460",
        "Location": "Jalan Sungai Kayu Ara 32/39",
        "Post_Office": "Shah Alam",
        "State": "Selangor"
    },
    {
        "Postcode": "40460",
        "Location": "Jalan Sungai Kayu Ara 32/40",
        "Post_Office": "Shah Alam",
        "State": "Selangor"
    },
    {
        "Postcode": "40460",
        "Location": "Jalan Sungai Kelubi 32/101",
        "Post_Office": "Shah Alam",
        "State": "Selangor"
    },
    {
        "Postcode": "40460",
        "Location": "Jalan Sungai Kelubi 32/102",
        "Post_Office": "Shah Alam",
        "State": "Selangor"
    },
    {
        "Postcode": "40460",
        "Location": "Jalan Sungai Kelubi 32/103",
        "Post_Office": "Shah Alam",
        "State": "Selangor"
    },
    {
        "Postcode": "40460",
        "Location": "Jalan Sungai Kelubi 32/104",
        "Post_Office": "Shah Alam",
        "State": "Selangor"
    },
    {
        "Postcode": "40460",
        "Location": "Jalan Sungai Kelubi 32/105",
        "Post_Office": "Shah Alam",
        "State": "Selangor"
    },
    {
        "Postcode": "40460",
        "Location": "Jalan Sungai Kelubi 32/106",
        "Post_Office": "Shah Alam",
        "State": "Selangor"
    },
    {
        "Postcode": "40460",
        "Location": "Jalan Sungai Kelubi 32/107",
        "Post_Office": "Shah Alam",
        "State": "Selangor"
    },
    {
        "Postcode": "40460",
        "Location": "Jalan Sungai Kelubi 32/108",
        "Post_Office": "Shah Alam",
        "State": "Selangor"
    },
    {
        "Postcode": "40460",
        "Location": "Jalan Sungai Kelubi 32/109",
        "Post_Office": "Shah Alam",
        "State": "Selangor"
    },
    {
        "Postcode": "40460",
        "Location": "Jalan Sungai Kelubi 32/110",
        "Post_Office": "Shah Alam",
        "State": "Selangor"
    },
    {
        "Postcode": "40460",
        "Location": "Jalan Sungai Kelubi 32/111",
        "Post_Office": "Shah Alam",
        "State": "Selangor"
    },
    {
        "Postcode": "40460",
        "Location": "Jalan Sungai Kelubi 32/112",
        "Post_Office": "Shah Alam",
        "State": "Selangor"
    },
    {
        "Postcode": "40460",
        "Location": "Jalan Sungai Klang 32/14",
        "Post_Office": "Shah Alam",
        "State": "Selangor"
    },
    {
        "Postcode": "40460",
        "Location": "Jalan Sungai Klang 32/15",
        "Post_Office": "Shah Alam",
        "State": "Selangor"
    },
    {
        "Postcode": "40460",
        "Location": "Jalan Sungai Klang 32/16",
        "Post_Office": "Shah Alam",
        "State": "Selangor"
    },
    {
        "Postcode": "40460",
        "Location": "Jalan Sungai Klang 32/17",
        "Post_Office": "Shah Alam",
        "State": "Selangor"
    },
    {
        "Postcode": "40460",
        "Location": "Jalan Sungai Klang 32/18",
        "Post_Office": "Shah Alam",
        "State": "Selangor"
    },
    {
        "Postcode": "40460",
        "Location": "Jalan Sungai Klang 32/19",
        "Post_Office": "Shah Alam",
        "State": "Selangor"
    },
    {
        "Postcode": "40460",
        "Location": "Jalan Sungai Klang 32/20",
        "Post_Office": "Shah Alam",
        "State": "Selangor"
    },
    {
        "Postcode": "40460",
        "Location": "Jalan Sungai Klang 32/21",
        "Post_Office": "Shah Alam",
        "State": "Selangor"
    },
    {
        "Postcode": "40460",
        "Location": "Jalan Sungai Merbau 32/100",
        "Post_Office": "Shah Alam",
        "State": "Selangor"
    },
    {
        "Postcode": "40460",
        "Location": "Jalan Sungai Merbau 32/76",
        "Post_Office": "Shah Alam",
        "State": "Selangor"
    },
    {
        "Postcode": "40460",
        "Location": "Jalan Sungai Merbau 32/77",
        "Post_Office": "Shah Alam",
        "State": "Selangor"
    },
    {
        "Postcode": "40460",
        "Location": "Jalan Sungai Merbau 32/78",
        "Post_Office": "Shah Alam",
        "State": "Selangor"
    },
    {
        "Postcode": "40460",
        "Location": "Jalan Sungai Merbau 32/79",
        "Post_Office": "Shah Alam",
        "State": "Selangor"
    },
    {
        "Postcode": "40460",
        "Location": "Jalan Sungai Merbau 32/80",
        "Post_Office": "Shah Alam",
        "State": "Selangor"
    },
    {
        "Postcode": "40460",
        "Location": "Jalan Sungai Merbau 32/81",
        "Post_Office": "Shah Alam",
        "State": "Selangor"
    },
    {
        "Postcode": "40460",
        "Location": "Jalan Sungai Merbau 32/82",
        "Post_Office": "Shah Alam",
        "State": "Selangor"
    },
    {
        "Postcode": "40460",
        "Location": "Jalan Sungai Merbau 32/83",
        "Post_Office": "Shah Alam",
        "State": "Selangor"
    },
    {
        "Postcode": "40460",
        "Location": "Jalan Sungai Merbau 32/84",
        "Post_Office": "Shah Alam",
        "State": "Selangor"
    },
    {
        "Postcode": "40460",
        "Location": "Jalan Sungai Merbau 32/85",
        "Post_Office": "Shah Alam",
        "State": "Selangor"
    },
    {
        "Postcode": "40460",
        "Location": "Jalan Sungai Merbau 32/86",
        "Post_Office": "Shah Alam",
        "State": "Selangor"
    },
    {
        "Postcode": "40460",
        "Location": "Jalan Sungai Merbau 32/87",
        "Post_Office": "Shah Alam",
        "State": "Selangor"
    },
    {
        "Postcode": "40460",
        "Location": "Jalan Sungai Merbau 32/88",
        "Post_Office": "Shah Alam",
        "State": "Selangor"
    },
    {
        "Postcode": "40460",
        "Location": "Jalan Sungai Merbau 32/89",
        "Post_Office": "Shah Alam",
        "State": "Selangor"
    },
    {
        "Postcode": "40460",
        "Location": "Jalan Sungai Merbau 32/90",
        "Post_Office": "Shah Alam",
        "State": "Selangor"
    },
    {
        "Postcode": "40460",
        "Location": "Jalan Sungai Merbau 32/91",
        "Post_Office": "Shah Alam",
        "State": "Selangor"
    },
    {
        "Postcode": "40460",
        "Location": "Jalan Sungai Merbau 32/92",
        "Post_Office": "Shah Alam",
        "State": "Selangor"
    },
    {
        "Postcode": "40460",
        "Location": "Jalan Sungai Merbau 32/93",
        "Post_Office": "Shah Alam",
        "State": "Selangor"
    },
    {
        "Postcode": "40460",
        "Location": "Jalan Sungai Merbau 32/94",
        "Post_Office": "Shah Alam",
        "State": "Selangor"
    },
    {
        "Postcode": "40460",
        "Location": "Jalan Sungai Merbau 32/95",
        "Post_Office": "Shah Alam",
        "State": "Selangor"
    },
    {
        "Postcode": "40460",
        "Location": "Jalan Sungai Merbau 32/96",
        "Post_Office": "Shah Alam",
        "State": "Selangor"
    },
    {
        "Postcode": "40460",
        "Location": "Jalan Sungai Merbau 32/97",
        "Post_Office": "Shah Alam",
        "State": "Selangor"
    },
    {
        "Postcode": "40460",
        "Location": "Jalan Sungai Merbau 32/98",
        "Post_Office": "Shah Alam",
        "State": "Selangor"
    },
    {
        "Postcode": "40460",
        "Location": "Jalan Sungai Merbau 32/99",
        "Post_Office": "Shah Alam",
        "State": "Selangor"
    },
    {
        "Postcode": "40460",
        "Location": "Jalan Sungai Ramal 32/53",
        "Post_Office": "Shah Alam",
        "State": "Selangor"
    },
    {
        "Postcode": "40460",
        "Location": "Jalan Sungai Ramal 32/54",
        "Post_Office": "Shah Alam",
        "State": "Selangor"
    },
    {
        "Postcode": "40460",
        "Location": "Jalan Sungai Ramal 32/55",
        "Post_Office": "Shah Alam",
        "State": "Selangor"
    },
    {
        "Postcode": "40460",
        "Location": "Jalan Sungai Rasau 32/22",
        "Post_Office": "Shah Alam",
        "State": "Selangor"
    },
    {
        "Postcode": "40460",
        "Location": "Jalan Sungai Rasau 32/23",
        "Post_Office": "Shah Alam",
        "State": "Selangor"
    },
    {
        "Postcode": "40460",
        "Location": "Jalan Sungai Rasau 32/24",
        "Post_Office": "Shah Alam",
        "State": "Selangor"
    },
    {
        "Postcode": "40460",
        "Location": "Jalan Sungai Rasau 32/25",
        "Post_Office": "Shah Alam",
        "State": "Selangor"
    },
    {
        "Postcode": "40460",
        "Location": "Jalan Sungai Rasau 32/26",
        "Post_Office": "Shah Alam",
        "State": "Selangor"
    },
    {
        "Postcode": "40460",
        "Location": "Jalan Sungai Rasau 32/27",
        "Post_Office": "Shah Alam",
        "State": "Selangor"
    },
    {
        "Postcode": "40460",
        "Location": "Jalan Sungai Rasau 32/28",
        "Post_Office": "Shah Alam",
        "State": "Selangor"
    },
    {
        "Postcode": "40460",
        "Location": "Jalan Sungai Rasau 32/29",
        "Post_Office": "Shah Alam",
        "State": "Selangor"
    },
    {
        "Postcode": "40460",
        "Location": "Jalan Sungai Rasau 32/30",
        "Post_Office": "Shah Alam",
        "State": "Selangor"
    },
    {
        "Postcode": "40460",
        "Location": "Jalan Sungai Renggam 32/10",
        "Post_Office": "Shah Alam",
        "State": "Selangor"
    },
    {
        "Postcode": "40460",
        "Location": "Jalan Sungai Renggam 32/11",
        "Post_Office": "Shah Alam",
        "State": "Selangor"
    },
    {
        "Postcode": "40460",
        "Location": "Jalan Sungai Renggam 32/12",
        "Post_Office": "Shah Alam",
        "State": "Selangor"
    },
    {
        "Postcode": "40460",
        "Location": "Jalan Sungai Renggam 32/13",
        "Post_Office": "Shah Alam",
        "State": "Selangor"
    },
    {
        "Postcode": "40460",
        "Location": "Jalan Sungai Renggam 32/4",
        "Post_Office": "Shah Alam",
        "State": "Selangor"
    },
    {
        "Postcode": "40460",
        "Location": "Jalan Sungai Renggam 32/5",
        "Post_Office": "Shah Alam",
        "State": "Selangor"
    },
    {
        "Postcode": "40460",
        "Location": "Jalan Sungai Renggam 32/6",
        "Post_Office": "Shah Alam",
        "State": "Selangor"
    },
    {
        "Postcode": "40460",
        "Location": "Jalan Sungai Renggam 32/7",
        "Post_Office": "Shah Alam",
        "State": "Selangor"
    },
    {
        "Postcode": "40460",
        "Location": "Jalan Sungai Renggam 32/8",
        "Post_Office": "Shah Alam",
        "State": "Selangor"
    },
    {
        "Postcode": "40460",
        "Location": "Jalan Sungai Renggam 32/9",
        "Post_Office": "Shah Alam",
        "State": "Selangor"
    },
    {
        "Postcode": "40460",
        "Location": "Jalan Sungai Rincing 32/62",
        "Post_Office": "Shah Alam",
        "State": "Selangor"
    },
    {
        "Postcode": "40460",
        "Location": "Jalan Sungai Rincing 32/63",
        "Post_Office": "Shah Alam",
        "State": "Selangor"
    },
    {
        "Postcode": "40460",
        "Location": "Jalan Sungai Rincing 32/64",
        "Post_Office": "Shah Alam",
        "State": "Selangor"
    },
    {
        "Postcode": "40460",
        "Location": "Jalan Sungai Rincing 32/65",
        "Post_Office": "Shah Alam",
        "State": "Selangor"
    },
    {
        "Postcode": "40460",
        "Location": "Jalan Sungai Rincing 32/65A",
        "Post_Office": "Shah Alam",
        "State": "Selangor"
    },
    {
        "Postcode": "40460",
        "Location": "Seksyen 29",
        "Post_Office": "Shah Alam",
        "State": "Selangor"
    },
    {
        "Postcode": "40460",
        "Location": "Seksyen 30",
        "Post_Office": "Shah Alam",
        "State": "Selangor"
    },
    {
        "Postcode": "40460",
        "Location": "Seksyen 31",
        "Post_Office": "Shah Alam",
        "State": "Selangor"
    },
    {
        "Postcode": "40460",
        "Location": "Taman Villa 22 Bukit Rimau",
        "Post_Office": "Shah Alam",
        "State": "Selangor"
    },
    {
        "Postcode": "40460",
        "Location": "Jalan Tanjung Api-Api 30/291",
        "Post_Office": "Shah Alam",
        "State": "Selangor"
    },
    {
        "Postcode": "40460",
        "Location": "Taman Khalid Al-Walid 3",
        "Post_Office": "Shah Alam",
        "State": "Selangor"
    }
]
