[
    {
        "Postcode": "40470",
        "Location": "Bukit Jkr Jalan Batu 3 Lama",
        "Post_Office": "Shah Alam",
        "State": "Selangor"
    },
    {
        "Postcode": "40470",
        "Location": "Desa Latania",
        "Post_Office": "Shah Alam",
        "State": "Selangor"
    },
    {
        "Postcode": "40470",
        "Location": "Jalan 34/7",
        "Post_Office": "Shah Alam",
        "State": "Selangor"
    },
    {
        "Postcode": "40470",
        "Location": "Jalan Bateri 34/5",
        "Post_Office": "Shah Alam",
        "State": "Selangor"
    },
    {
        "Postcode": "40470",
        "Location": "Jalan Brek 34/10",
        "Post_Office": "Shah Alam",
        "State": "Selangor"
    },
    {
        "Postcode": "40470",
        "Location": "Jalan Dato' Dol Said 35/6",
        "Post_Office": "Shah Alam",
        "State": "Selangor"
    },
    {
        "Postcode": "40470",
        "Location": "Jalan Dato' Naning 35/7",
        "Post_Office": "Shah Alam",
        "State": "Selangor"
    },
    {
        "Postcode": "40470",
        "Location": "Jalan Enjin 34/3",
        "Post_Office": "Shah Alam",
        "State": "Selangor"
    },
    {
        "Postcode": "40470",
        "Location": "Jalan Gasket 34/2",
        "Post_Office": "Shah Alam",
        "State": "Selangor"
    },
    {
        "Postcode": "40470",
        "Location": "Jalan Gear 34/9",
        "Post_Office": "Shah Alam",
        "State": "Selangor"
    },
    {
        "Postcode": "40470",
        "Location": "Jalan Hang Jebat 35/2",
        "Post_Office": "Shah Alam",
        "State": "Selangor"
    },
    {
        "Postcode": "40470",
        "Location": "Jalan Hang Kasturi 35/5",
        "Post_Office": "Shah Alam",
        "State": "Selangor"
    },
    {
        "Postcode": "40470",
        "Location": "Jalan Hang Lekir 35/4",
        "Post_Office": "Shah Alam",
        "State": "Selangor"
    },
    {
        "Postcode": "40470",
        "Location": "Jalan Hang Lekiu 35/3",
        "Post_Office": "Shah Alam",
        "State": "Selangor"
    },
    {
        "Postcode": "40470",
        "Location": "Jalan Hang Tuah 35/1",
        "Post_Office": "Shah Alam",
        "State": "Selangor"
    },
    {
        "Postcode": "40470",
        "Location": "Jalan Injap 34/4",
        "Post_Office": "Shah Alam",
        "State": "Selangor"
    },
    {
        "Postcode": "40470",
        "Location": "Jalan Kipas 34/8",
        "Post_Office": "Shah Alam",
        "State": "Selangor"
    },
    {
        "Postcode": "40470",
        "Location": "Jalan Omboh 34/1",
        "Post_Office": "Shah Alam",
        "State": "Selangor"
    },
    {
        "Postcode": "40470",
        "Location": "Jalan Omboh Dua 34/1B",
        "Post_Office": "Shah Alam",
        "State": "Selangor"
    },
    {
        "Postcode": "40470",
        "Location": "Jalan Omboh Satu 34/1A",
        "Post_Office": "Shah Alam",
        "State": "Selangor"
    },
    {
        "Postcode": "40470",
        "Location": "Jalan Raja Lumu 35/131",
        "Post_Office": "Shah Alam",
        "State": "Selangor"
    },
    {
        "Postcode": "40470",
        "Location": "Jalan Rim 34/11",
        "Post_Office": "Shah Alam",
        "State": "Selangor"
    },
    {
        "Postcode": "40470",
        "Location": "Jalan Stereng 34/6",
        "Post_Office": "Shah Alam",
        "State": "Selangor"
    },
    {
        "Postcode": "40470",
        "Location": "Jalan Tayar 34/12",
        "Post_Office": "Shah Alam",
        "State": "Selangor"
    },
    {
        "Postcode": "40470",
        "Location": "Jalan Tun Ali 35/9",
        "Post_Office": "Shah Alam",
        "State": "Selangor"
    },
    {
        "Postcode": "40470",
        "Location": "Jalan Tun Ali A 35/A",
        "Post_Office": "Shah Alam",
        "State": "Selangor"
    },
    {
        "Postcode": "40470",
        "Location": "Jalan Tun Perak 35/8",
        "Post_Office": "Shah Alam",
        "State": "Selangor"
    },
    {
        "Postcode": "40470",
        "Location": "Kampung Cbps (Cannaught Bridge)",
        "Post_Office": "Shah Alam",
        "State": "Selangor"
    },
    {
        "Postcode": "40470",
        "Location": "Taman Amj",
        "Post_Office": "Shah Alam",
        "State": "Selangor"
    },
    {
        "Postcode": "40470",
        "Location": "Jalan Palam 34/18A",
        "Post_Office": "Shah Alam",
        "State": "Selangor"
    },
    {
        "Postcode": "40470",
        "Location": "Taman Perindustrian Pak Chun",
        "Post_Office": "Shah Alam",
        "State": "Selangor"
    },
    {
        "Postcode": "40470",
        "Location": "Taman Impian Tropika",
        "Post_Office": "Shah Alam",
        "State": "Selangor"
    },
    {
        "Postcode": "40470",
        "Location": "Alam Impian",
        "Post_Office": "Shah Alam",
        "State": "Selangor"
    },
    {
        "Postcode": "40470",
        "Location": "Kampung Sungai Kandis",
        "Post_Office": "Shah Alam",
        "State": "Selangor"
    },
    {
        "Postcode": "40470",
        "Location": "Kampung Teluk Menegun",
        "Post_Office": "Shah Alam",
        "State": "Selangor"
    },
    {
        "Postcode": "40470",
        "Location": "Taman Alam Nyata",
        "Post_Office": "Shah Alam",
        "State": "Selangor"
    },
    {
        "Postcode": "40470",
        "Location": "Taman Perindustrian Amj",
        "Post_Office": "Shah Alam",
        "State": "Selangor"
    },
    {
        "Postcode": "40470",
        "Location": "Kampung Bukit Badak",
        "Post_Office": "Shah Alam",
        "State": "Selangor"
    },
    {
        "Postcode": "40470",
        "Location": "Taman Belina",
        "Post_Office": "Shah Alam",
        "State": "Selangor"
    },
    {
        "Postcode": "40470",
        "Location": "Taman Menegun Indah",
        "Post_Office": "Shah Alam",
        "State": "Selangor"
    },
    {
        "Postcode": "40470",
        "Location": "Taman Sri Wangi",
        "Post_Office": "Shah Alam",
        "State": "Selangor"
    },
    {
        "Postcode": "40470",
        "Location": "Seksyen 35",
        "Post_Office": "Shah Alam",
        "State": "Selangor"
    },
    {
        "Postcode": "40470",
        "Location": "Seksyen 36",
        "Post_Office": "Shah Alam",
        "State": "Selangor"
    }
]
