[
    {
        "Postcode": "13000",
        "Location": "Solok Beringin 1",
        "Post_Office": "Butterworth",
        "State": "Pulau Pinang"
    },
    {
        "Postcode": "13000",
        "Location": "Solok Beringin 2",
        "Post_Office": "Butterworth",
        "State": "Pulau Pinang"
    },
    {
        "Postcode": "13000",
        "Location": "Tingkat Bulan 2",
        "Post_Office": "Butterworth",
        "State": "Pulau Pinang"
    },
    {
        "Postcode": "13000",
        "Location": "Tingkat Bulan 3",
        "Post_Office": "Butterworth",
        "State": "Pulau Pinang"
    },
    {
        "Postcode": "13000",
        "Location": "Tingkat Bulan 4",
        "Post_Office": "Butterworth",
        "State": "Pulau Pinang"
    },
    {
        "Postcode": "13000",
        "Location": "Tingkat Bunga Rambai 1",
        "Post_Office": "Butterworth",
        "State": "Pulau Pinang"
    },
    {
        "Postcode": "13000",
        "Location": "Tingkat Bunga Rambai 2",
        "Post_Office": "Butterworth",
        "State": "Pulau Pinang"
    },
    {
        "Postcode": "13000",
        "Location": "Tingkat Masjid 1",
        "Post_Office": "Butterworth",
        "State": "Pulau Pinang"
    },
    {
        "Postcode": "13000",
        "Location": "Tingkat Masjid 2",
        "Post_Office": "Butterworth",
        "State": "Pulau Pinang"
    },
    {
        "Postcode": "13000",
        "Location": "Tingkat Meranti 2",
        "Post_Office": "Butterworth",
        "State": "Pulau Pinang"
    },
    {
        "Postcode": "13000",
        "Location": "Tingkat Meranti 3",
        "Post_Office": "Butterworth",
        "State": "Pulau Pinang"
    },
    {
        "Postcode": "13000",
        "Location": "Tingkat Meranti 4",
        "Post_Office": "Butterworth",
        "State": "Pulau Pinang"
    },
    {
        "Postcode": "13000",
        "Location": "Tingkat Sena 1",
        "Post_Office": "Butterworth",
        "State": "Pulau Pinang"
    },
    {
        "Postcode": "13000",
        "Location": "Tingkat Sena 2",
        "Post_Office": "Butterworth",
        "State": "Pulau Pinang"
    },
    {
        "Postcode": "13000",
        "Location": "Happy Garden",
        "Post_Office": "Butterworth",
        "State": "Pulau Pinang"
    },
    {
        "Postcode": "13000",
        "Location": "Jalan Bintang",
        "Post_Office": "Butterworth",
        "State": "Pulau Pinang"
    },
    {
        "Postcode": "13000",
        "Location": "Jalan Delima",
        "Post_Office": "Butterworth",
        "State": "Pulau Pinang"
    },
    {
        "Postcode": "13000",
        "Location": "Jalan Teratai",
        "Post_Office": "Butterworth",
        "State": "Pulau Pinang"
    },
    {
        "Postcode": "13000",
        "Location": "Lorong Bintang",
        "Post_Office": "Butterworth",
        "State": "Pulau Pinang"
    },
    {
        "Postcode": "13000",
        "Location": "Permatang Tengah",
        "Post_Office": "Butterworth",
        "State": "Pulau Pinang"
    },
    {
        "Postcode": "13000",
        "Location": "Taman Gemilang",
        "Post_Office": "Butterworth",
        "State": "Pulau Pinang"
    },
    {
        "Postcode": "13000",
        "Location": "Taman Jaya",
        "Post_Office": "Butterworth",
        "State": "Pulau Pinang"
    },
    {
        "Postcode": "13000",
        "Location": "Taman Orkid",
        "Post_Office": "Butterworth",
        "State": "Pulau Pinang"
    },
    {
        "Postcode": "13000",
        "Location": "Tingkat Bintang 1",
        "Post_Office": "Butterworth",
        "State": "Pulau Pinang"
    },
    {
        "Postcode": "13000",
        "Location": "Tingkat Bintang 2",
        "Post_Office": "Butterworth",
        "State": "Pulau Pinang"
    },
    {
        "Postcode": "13000",
        "Location": "Lebuhraya Lingkaran Luar Bworth",
        "Post_Office": "Butterworth",
        "State": "Pulau Pinang"
    },
    {
        "Postcode": "13000",
        "Location": "Bagan Lebai Tahir",
        "Post_Office": "Butterworth",
        "State": "Pulau Pinang"
    },
    {
        "Postcode": "13000",
        "Location": "Taman Lucky",
        "Post_Office": "Butterworth",
        "State": "Pulau Pinang"
    },
    {
        "Postcode": "13000",
        "Location": "Taman Meranti Indah",
        "Post_Office": "Butterworth",
        "State": "Pulau Pinang"
    },
    {
        "Postcode": "13000",
        "Location": "Taman Seri Aked",
        "Post_Office": "Butterworth",
        "State": "Pulau Pinang"
    },
    {
        "Postcode": "13000",
        "Location": "Taman Sungai Puyu",
        "Post_Office": "Butterworth",
        "State": "Pulau Pinang"
    },
    {
        "Postcode": "13000",
        "Location": "Taman Zamrud",
        "Post_Office": "Butterworth",
        "State": "Pulau Pinang"
    },
    {
        "Postcode": "13000",
        "Location": "Jalan Bulan",
        "Post_Office": "Butterworth",
        "State": "Pulau Pinang"
    },
    {
        "Postcode": "13000",
        "Location": "Jalan Gangsa",
        "Post_Office": "Butterworth",
        "State": "Pulau Pinang"
    },
    {
        "Postcode": "13000",
        "Location": "Jalan Meranti",
        "Post_Office": "Butterworth",
        "State": "Pulau Pinang"
    },
    {
        "Postcode": "13000",
        "Location": "Jalan Merbau",
        "Post_Office": "Butterworth",
        "State": "Pulau Pinang"
    },
    {
        "Postcode": "13000",
        "Location": "Jalan Molek",
        "Post_Office": "Butterworth",
        "State": "Pulau Pinang"
    },
    {
        "Postcode": "13000",
        "Location": "Taman Bunga Raya",
        "Post_Office": "Butterworth",
        "State": "Pulau Pinang"
    },
    {
        "Postcode": "13000",
        "Location": "Taman Emas",
        "Post_Office": "Butterworth",
        "State": "Pulau Pinang"
    },
    {
        "Postcode": "13000",
        "Location": "Taman Meranti",
        "Post_Office": "Butterworth",
        "State": "Pulau Pinang"
    },
    {
        "Postcode": "13000",
        "Location": "Taman Merbau Jaya",
        "Post_Office": "Butterworth",
        "State": "Pulau Pinang"
    },
    {
        "Postcode": "13000",
        "Location": "Jalan Bagan Lalang 1",
        "Post_Office": "Butterworth",
        "State": "Pulau Pinang"
    },
    {
        "Postcode": "13000",
        "Location": "Jalan Bagan Lalang 10",
        "Post_Office": "Butterworth",
        "State": "Pulau Pinang"
    },
    {
        "Postcode": "13000",
        "Location": "Jalan Bagan Lalang 11",
        "Post_Office": "Butterworth",
        "State": "Pulau Pinang"
    },
    {
        "Postcode": "13000",
        "Location": "Jalan Bagan Lalang 12",
        "Post_Office": "Butterworth",
        "State": "Pulau Pinang"
    },
    {
        "Postcode": "13000",
        "Location": "Jalan Bagan Lalang 13",
        "Post_Office": "Butterworth",
        "State": "Pulau Pinang"
    },
    {
        "Postcode": "13000",
        "Location": "Jalan Bagan Lalang 14",
        "Post_Office": "Butterworth",
        "State": "Pulau Pinang"
    },
    {
        "Postcode": "13000",
        "Location": "Jalan Bagan Lalang 15",
        "Post_Office": "Butterworth",
        "State": "Pulau Pinang"
    },
    {
        "Postcode": "13000",
        "Location": "Jalan Bagan Lalang 16",
        "Post_Office": "Butterworth",
        "State": "Pulau Pinang"
    },
    {
        "Postcode": "13000",
        "Location": "Jalan Bagan Lalang 17",
        "Post_Office": "Butterworth",
        "State": "Pulau Pinang"
    },
    {
        "Postcode": "13000",
        "Location": "Jalan Bagan Lalang 18",
        "Post_Office": "Butterworth",
        "State": "Pulau Pinang"
    },
    {
        "Postcode": "13000",
        "Location": "Jalan Bagan Lalang 19",
        "Post_Office": "Butterworth",
        "State": "Pulau Pinang"
    },
    {
        "Postcode": "13000",
        "Location": "Jalan Bagan Lalang 2",
        "Post_Office": "Butterworth",
        "State": "Pulau Pinang"
    },
    {
        "Postcode": "13000",
        "Location": "Jalan Bagan Lalang 20",
        "Post_Office": "Butterworth",
        "State": "Pulau Pinang"
    },
    {
        "Postcode": "13000",
        "Location": "Jalan Bagan Lalang 21",
        "Post_Office": "Butterworth",
        "State": "Pulau Pinang"
    },
    {
        "Postcode": "13000",
        "Location": "Jalan Bagan Lalang 22",
        "Post_Office": "Butterworth",
        "State": "Pulau Pinang"
    },
    {
        "Postcode": "13000",
        "Location": "Jalan Bagan Lalang 23",
        "Post_Office": "Butterworth",
        "State": "Pulau Pinang"
    },
    {
        "Postcode": "13000",
        "Location": "Jalan Bagan Lalang 24",
        "Post_Office": "Butterworth",
        "State": "Pulau Pinang"
    },
    {
        "Postcode": "13000",
        "Location": "Jalan Bagan Lalang 25",
        "Post_Office": "Butterworth",
        "State": "Pulau Pinang"
    },
    {
        "Postcode": "13000",
        "Location": "Jalan Bagan Lalang 3",
        "Post_Office": "Butterworth",
        "State": "Pulau Pinang"
    },
    {
        "Postcode": "13000",
        "Location": "Jalan Bagan Lalang 4",
        "Post_Office": "Butterworth",
        "State": "Pulau Pinang"
    },
    {
        "Postcode": "13000",
        "Location": "Jalan Bagan Lalang 5",
        "Post_Office": "Butterworth",
        "State": "Pulau Pinang"
    },
    {
        "Postcode": "13000",
        "Location": "Jalan Bagan Lalang 6",
        "Post_Office": "Butterworth",
        "State": "Pulau Pinang"
    },
    {
        "Postcode": "13000",
        "Location": "Jalan Bagan Lalang 7",
        "Post_Office": "Butterworth",
        "State": "Pulau Pinang"
    },
    {
        "Postcode": "13000",
        "Location": "Jalan Bagan Lalang 8",
        "Post_Office": "Butterworth",
        "State": "Pulau Pinang"
    },
    {
        "Postcode": "13000",
        "Location": "Jalan Bagan Lalang 9",
        "Post_Office": "Butterworth",
        "State": "Pulau Pinang"
    },
    {
        "Postcode": "13000",
        "Location": "Jalan Belian 1",
        "Post_Office": "Butterworth",
        "State": "Pulau Pinang"
    },
    {
        "Postcode": "13000",
        "Location": "Jalan Belian 2",
        "Post_Office": "Butterworth",
        "State": "Pulau Pinang"
    },
    {
        "Postcode": "13000",
        "Location": "Jalan Bunga Raya 1",
        "Post_Office": "Butterworth",
        "State": "Pulau Pinang"
    },
    {
        "Postcode": "13000",
        "Location": "Jalan Bunga Raya 2",
        "Post_Office": "Butterworth",
        "State": "Pulau Pinang"
    },
    {
        "Postcode": "13000",
        "Location": "Jalan Bunga Raya Merah 2",
        "Post_Office": "Butterworth",
        "State": "Pulau Pinang"
    },
    {
        "Postcode": "13000",
        "Location": "Jalan Bunga Raya Merah 3",
        "Post_Office": "Butterworth",
        "State": "Pulau Pinang"
    },
    {
        "Postcode": "13000",
        "Location": "Lorong Beringin 1",
        "Post_Office": "Butterworth",
        "State": "Pulau Pinang"
    },
    {
        "Postcode": "13000",
        "Location": "Lorong Beringin 2",
        "Post_Office": "Butterworth",
        "State": "Pulau Pinang"
    },
    {
        "Postcode": "13000",
        "Location": "Lorong Bunga Raya 10",
        "Post_Office": "Butterworth",
        "State": "Pulau Pinang"
    },
    {
        "Postcode": "13000",
        "Location": "Lorong Bunga Raya 11",
        "Post_Office": "Butterworth",
        "State": "Pulau Pinang"
    },
    {
        "Postcode": "13000",
        "Location": "Lorong Bunga Raya 12",
        "Post_Office": "Butterworth",
        "State": "Pulau Pinang"
    },
    {
        "Postcode": "13000",
        "Location": "Lorong Bunga Raya 13",
        "Post_Office": "Butterworth",
        "State": "Pulau Pinang"
    },
    {
        "Postcode": "13000",
        "Location": "Lorong Bunga Raya 14",
        "Post_Office": "Butterworth",
        "State": "Pulau Pinang"
    },
    {
        "Postcode": "13000",
        "Location": "Lorong Bunga Raya 15",
        "Post_Office": "Butterworth",
        "State": "Pulau Pinang"
    },
    {
        "Postcode": "13000",
        "Location": "Lorong Bunga Raya 16",
        "Post_Office": "Butterworth",
        "State": "Pulau Pinang"
    },
    {
        "Postcode": "13000",
        "Location": "Lorong Bunga Raya 17",
        "Post_Office": "Butterworth",
        "State": "Pulau Pinang"
    },
    {
        "Postcode": "13000",
        "Location": "Lorong Bunga Raya 18",
        "Post_Office": "Butterworth",
        "State": "Pulau Pinang"
    },
    {
        "Postcode": "13000",
        "Location": "Lorong Bunga Raya 19",
        "Post_Office": "Butterworth",
        "State": "Pulau Pinang"
    },
    {
        "Postcode": "13000",
        "Location": "Lorong Bunga Raya 2",
        "Post_Office": "Butterworth",
        "State": "Pulau Pinang"
    },
    {
        "Postcode": "13000",
        "Location": "Lorong Bunga Raya 20",
        "Post_Office": "Butterworth",
        "State": "Pulau Pinang"
    },
    {
        "Postcode": "13000",
        "Location": "Lorong Bunga Raya 3",
        "Post_Office": "Butterworth",
        "State": "Pulau Pinang"
    },
    {
        "Postcode": "13000",
        "Location": "Lorong Bunga Raya 4",
        "Post_Office": "Butterworth",
        "State": "Pulau Pinang"
    },
    {
        "Postcode": "13000",
        "Location": "Lorong Bunga Raya 5",
        "Post_Office": "Butterworth",
        "State": "Pulau Pinang"
    },
    {
        "Postcode": "13000",
        "Location": "Lorong Bunga Raya 6",
        "Post_Office": "Butterworth",
        "State": "Pulau Pinang"
    },
    {
        "Postcode": "13000",
        "Location": "Lorong Bunga Raya 7",
        "Post_Office": "Butterworth",
        "State": "Pulau Pinang"
    },
    {
        "Postcode": "13000",
        "Location": "Lorong Bunga Raya 8",
        "Post_Office": "Butterworth",
        "State": "Pulau Pinang"
    },
    {
        "Postcode": "13000",
        "Location": "Lorong Bunga Raya 9",
        "Post_Office": "Butterworth",
        "State": "Pulau Pinang"
    },
    {
        "Postcode": "13000",
        "Location": "Lorong Masjid 1",
        "Post_Office": "Butterworth",
        "State": "Pulau Pinang"
    },
    {
        "Postcode": "13000",
        "Location": "Lorong Masjid 2",
        "Post_Office": "Butterworth",
        "State": "Pulau Pinang"
    },
    {
        "Postcode": "13000",
        "Location": "Lorong Meranti 1",
        "Post_Office": "Butterworth",
        "State": "Pulau Pinang"
    },
    {
        "Postcode": "13000",
        "Location": "Lorong Meranti 10",
        "Post_Office": "Butterworth",
        "State": "Pulau Pinang"
    },
    {
        "Postcode": "13000",
        "Location": "Lorong Meranti 11",
        "Post_Office": "Butterworth",
        "State": "Pulau Pinang"
    },
    {
        "Postcode": "13000",
        "Location": "Lorong Meranti 12",
        "Post_Office": "Butterworth",
        "State": "Pulau Pinang"
    },
    {
        "Postcode": "13000",
        "Location": "Lorong Meranti 13",
        "Post_Office": "Butterworth",
        "State": "Pulau Pinang"
    },
    {
        "Postcode": "13000",
        "Location": "Lorong Meranti 14",
        "Post_Office": "Butterworth",
        "State": "Pulau Pinang"
    },
    {
        "Postcode": "13000",
        "Location": "Lorong Meranti 15",
        "Post_Office": "Butterworth",
        "State": "Pulau Pinang"
    },
    {
        "Postcode": "13000",
        "Location": "Lorong Meranti 16",
        "Post_Office": "Butterworth",
        "State": "Pulau Pinang"
    },
    {
        "Postcode": "13000",
        "Location": "Lorong Meranti 17",
        "Post_Office": "Butterworth",
        "State": "Pulau Pinang"
    },
    {
        "Postcode": "13000",
        "Location": "Lorong Meranti 2",
        "Post_Office": "Butterworth",
        "State": "Pulau Pinang"
    },
    {
        "Postcode": "13000",
        "Location": "Lorong Meranti 3",
        "Post_Office": "Butterworth",
        "State": "Pulau Pinang"
    },
    {
        "Postcode": "13000",
        "Location": "Lorong Meranti 4",
        "Post_Office": "Butterworth",
        "State": "Pulau Pinang"
    },
    {
        "Postcode": "13000",
        "Location": "Lorong Meranti 5",
        "Post_Office": "Butterworth",
        "State": "Pulau Pinang"
    },
    {
        "Postcode": "13000",
        "Location": "Lorong Meranti 6",
        "Post_Office": "Butterworth",
        "State": "Pulau Pinang"
    },
    {
        "Postcode": "13000",
        "Location": "Lorong Meranti 7",
        "Post_Office": "Butterworth",
        "State": "Pulau Pinang"
    },
    {
        "Postcode": "13000",
        "Location": "Lorong Meranti 8",
        "Post_Office": "Butterworth",
        "State": "Pulau Pinang"
    },
    {
        "Postcode": "13000",
        "Location": "Lorong Meranti 9",
        "Post_Office": "Butterworth",
        "State": "Pulau Pinang"
    },
    {
        "Postcode": "13000",
        "Location": "Lorong Meranti Indah 1",
        "Post_Office": "Butterworth",
        "State": "Pulau Pinang"
    },
    {
        "Postcode": "13000",
        "Location": "Lorong Meranti Indah 2",
        "Post_Office": "Butterworth",
        "State": "Pulau Pinang"
    },
    {
        "Postcode": "13000",
        "Location": "Lorong Merbau 1",
        "Post_Office": "Butterworth",
        "State": "Pulau Pinang"
    },
    {
        "Postcode": "13000",
        "Location": "Lorong Merbau 2",
        "Post_Office": "Butterworth",
        "State": "Pulau Pinang"
    },
    {
        "Postcode": "13000",
        "Location": "Lorong Merbau 3",
        "Post_Office": "Butterworth",
        "State": "Pulau Pinang"
    },
    {
        "Postcode": "13000",
        "Location": "Lorong Merbau 4",
        "Post_Office": "Butterworth",
        "State": "Pulau Pinang"
    },
    {
        "Postcode": "13000",
        "Location": "Lorong Merbau 5",
        "Post_Office": "Butterworth",
        "State": "Pulau Pinang"
    },
    {
        "Postcode": "13000",
        "Location": "Lorong Molek 1",
        "Post_Office": "Butterworth",
        "State": "Pulau Pinang"
    },
    {
        "Postcode": "13000",
        "Location": "Lorong Molek 2",
        "Post_Office": "Butterworth",
        "State": "Pulau Pinang"
    },
    {
        "Postcode": "13000",
        "Location": "Lorong Molek 3",
        "Post_Office": "Butterworth",
        "State": "Pulau Pinang"
    },
    {
        "Postcode": "13000",
        "Location": "Lorong Perkasa 1",
        "Post_Office": "Butterworth",
        "State": "Pulau Pinang"
    },
    {
        "Postcode": "13000",
        "Location": "Lorong Perkasa 10",
        "Post_Office": "Butterworth",
        "State": "Pulau Pinang"
    },
    {
        "Postcode": "13000",
        "Location": "Lorong Perkasa 11",
        "Post_Office": "Butterworth",
        "State": "Pulau Pinang"
    },
    {
        "Postcode": "13000",
        "Location": "Lorong Perkasa 2",
        "Post_Office": "Butterworth",
        "State": "Pulau Pinang"
    },
    {
        "Postcode": "13000",
        "Location": "Lorong Perkasa 3",
        "Post_Office": "Butterworth",
        "State": "Pulau Pinang"
    },
    {
        "Postcode": "13000",
        "Location": "Lorong Perkasa 4",
        "Post_Office": "Butterworth",
        "State": "Pulau Pinang"
    },
    {
        "Postcode": "13000",
        "Location": "Lorong Perkasa 5",
        "Post_Office": "Butterworth",
        "State": "Pulau Pinang"
    },
    {
        "Postcode": "13000",
        "Location": "Lorong Perkasa 6",
        "Post_Office": "Butterworth",
        "State": "Pulau Pinang"
    },
    {
        "Postcode": "13000",
        "Location": "Lorong Perkasa 7",
        "Post_Office": "Butterworth",
        "State": "Pulau Pinang"
    },
    {
        "Postcode": "13000",
        "Location": "Lorong Perkasa 8",
        "Post_Office": "Butterworth",
        "State": "Pulau Pinang"
    },
    {
        "Postcode": "13000",
        "Location": "Lorong Perkasa 9",
        "Post_Office": "Butterworth",
        "State": "Pulau Pinang"
    },
    {
        "Postcode": "13000",
        "Location": "Lorong Sena 1",
        "Post_Office": "Butterworth",
        "State": "Pulau Pinang"
    },
    {
        "Postcode": "13000",
        "Location": "Lorong Sena 2",
        "Post_Office": "Butterworth",
        "State": "Pulau Pinang"
    },
    {
        "Postcode": "13000",
        "Location": "Bagan Ajam",
        "Post_Office": "Butterworth",
        "State": "Pulau Pinang"
    },
    {
        "Postcode": "13000",
        "Location": "Jalan Ara",
        "Post_Office": "Butterworth",
        "State": "Pulau Pinang"
    },
    {
        "Postcode": "13000",
        "Location": "Jalan Bagan Ajam",
        "Post_Office": "Butterworth",
        "State": "Pulau Pinang"
    },
    {
        "Postcode": "13000",
        "Location": "Jalan Intan",
        "Post_Office": "Butterworth",
        "State": "Pulau Pinang"
    },
    {
        "Postcode": "13000",
        "Location": "Jalan Intan 1, Taman Intan",
        "Post_Office": "Butterworth",
        "State": "Pulau Pinang"
    },
    {
        "Postcode": "13000",
        "Location": "Jalan Kenanga",
        "Post_Office": "Butterworth",
        "State": "Pulau Pinang"
    },
    {
        "Postcode": "13000",
        "Location": "Jalan Kiambang",
        "Post_Office": "Butterworth",
        "State": "Pulau Pinang"
    },
    {
        "Postcode": "13000",
        "Location": "Jalan Melati",
        "Post_Office": "Butterworth",
        "State": "Pulau Pinang"
    },
    {
        "Postcode": "13000",
        "Location": "Jalan Nilam",
        "Post_Office": "Butterworth",
        "State": "Pulau Pinang"
    },
    {
        "Postcode": "13000",
        "Location": "Jalan Paku Lima",
        "Post_Office": "Butterworth",
        "State": "Pulau Pinang"
    },
    {
        "Postcode": "13000",
        "Location": "Jalan Pantai Bersih",
        "Post_Office": "Butterworth",
        "State": "Pulau Pinang"
    },
    {
        "Postcode": "13000",
        "Location": "Jalan Sena",
        "Post_Office": "Butterworth",
        "State": "Pulau Pinang"
    },
    {
        "Postcode": "13000",
        "Location": "Jalan Tamby Kechil",
        "Post_Office": "Butterworth",
        "State": "Pulau Pinang"
    },
    {
        "Postcode": "13000",
        "Location": "Jalan Terbilang",
        "Post_Office": "Butterworth",
        "State": "Pulau Pinang"
    },
    {
        "Postcode": "13000",
        "Location": "Jalan Tokong Naga",
        "Post_Office": "Butterworth",
        "State": "Pulau Pinang"
    },
    {
        "Postcode": "13000",
        "Location": "Jalan Zamrud",
        "Post_Office": "Butterworth",
        "State": "Pulau Pinang"
    },
    {
        "Postcode": "13000",
        "Location": "Kampung Bagan Lebai Tahir",
        "Post_Office": "Butterworth",
        "State": "Pulau Pinang"
    },
    {
        "Postcode": "13000",
        "Location": "Kampung Permatang Tengah",
        "Post_Office": "Butterworth",
        "State": "Pulau Pinang"
    },
    {
        "Postcode": "13000",
        "Location": "Lintang Bulan",
        "Post_Office": "Butterworth",
        "State": "Pulau Pinang"
    },
    {
        "Postcode": "13000",
        "Location": "Lintang Bunga Raya",
        "Post_Office": "Butterworth",
        "State": "Pulau Pinang"
    },
    {
        "Postcode": "13000",
        "Location": "Lintang Kenanga",
        "Post_Office": "Butterworth",
        "State": "Pulau Pinang"
    },
    {
        "Postcode": "13000",
        "Location": "Lintang Molek",
        "Post_Office": "Butterworth",
        "State": "Pulau Pinang"
    },
    {
        "Postcode": "13000",
        "Location": "Lorong Bulan",
        "Post_Office": "Butterworth",
        "State": "Pulau Pinang"
    },
    {
        "Postcode": "13000",
        "Location": "Lorong Bulan 1",
        "Post_Office": "Butterworth",
        "State": "Pulau Pinang"
    },
    {
        "Postcode": "13000",
        "Location": "Lorong Emas 1",
        "Post_Office": "Butterworth",
        "State": "Pulau Pinang"
    },
    {
        "Postcode": "13000",
        "Location": "Lorong Kenanga",
        "Post_Office": "Butterworth",
        "State": "Pulau Pinang"
    },
    {
        "Postcode": "13000",
        "Location": "Lorong Kiambang",
        "Post_Office": "Butterworth",
        "State": "Pulau Pinang"
    },
    {
        "Postcode": "13000",
        "Location": "Lorong Masjid",
        "Post_Office": "Butterworth",
        "State": "Pulau Pinang"
    },
    {
        "Postcode": "13000",
        "Location": "Lorong Zamrud",
        "Post_Office": "Butterworth",
        "State": "Pulau Pinang"
    },
    {
        "Postcode": "13000",
        "Location": "Lucky Park Raja Uda",
        "Post_Office": "Butterworth",
        "State": "Pulau Pinang"
    },
    {
        "Postcode": "13000",
        "Location": "Solok Bulan",
        "Post_Office": "Butterworth",
        "State": "Pulau Pinang"
    },
    {
        "Postcode": "13000",
        "Location": "Solok Molek",
        "Post_Office": "Butterworth",
        "State": "Pulau Pinang"
    },
    {
        "Postcode": "13000",
        "Location": "Taman Arked",
        "Post_Office": "Butterworth",
        "State": "Pulau Pinang"
    },
    {
        "Postcode": "13000",
        "Location": "Taman Ayer Puteh",
        "Post_Office": "Butterworth",
        "State": "Pulau Pinang"
    },
    {
        "Postcode": "13000",
        "Location": "Taman Bagan Ajam",
        "Post_Office": "Butterworth",
        "State": "Pulau Pinang"
    },
    {
        "Postcode": "13000",
        "Location": "Taman Intan",
        "Post_Office": "Butterworth",
        "State": "Pulau Pinang"
    },
    {
        "Postcode": "13000",
        "Location": "Taman Kekaya",
        "Post_Office": "Butterworth",
        "State": "Pulau Pinang"
    },
    {
        "Postcode": "13000",
        "Location": "Taman Merbau",
        "Post_Office": "Butterworth",
        "State": "Pulau Pinang"
    },
    {
        "Postcode": "13000",
        "Location": "Taman Molek",
        "Post_Office": "Butterworth",
        "State": "Pulau Pinang"
    },
    {
        "Postcode": "13000",
        "Location": "Taman Perkasa",
        "Post_Office": "Butterworth",
        "State": "Pulau Pinang"
    },
    {
        "Postcode": "13000",
        "Location": "Taman Sena",
        "Post_Office": "Butterworth",
        "State": "Pulau Pinang"
    },
    {
        "Postcode": "13000",
        "Location": "Taman Sungai Kekaya",
        "Post_Office": "Butterworth",
        "State": "Pulau Pinang"
    },
    {
        "Postcode": "13000",
        "Location": "Taman Terbilang",
        "Post_Office": "Butterworth",
        "State": "Pulau Pinang"
    },
    {
        "Postcode": "13000",
        "Location": "Taman Tun Dr Awang",
        "Post_Office": "Butterworth",
        "State": "Pulau Pinang"
    },
    {
        "Postcode": "13000",
        "Location": "Taman Udara",
        "Post_Office": "Butterworth",
        "State": "Pulau Pinang"
    },
    {
        "Postcode": "13000",
        "Location": "Tingkat Bunga Raya",
        "Post_Office": "Butterworth",
        "State": "Pulau Pinang"
    },
    {
        "Postcode": "13000",
        "Location": "Tingkat Emas",
        "Post_Office": "Butterworth",
        "State": "Pulau Pinang"
    },
    {
        "Postcode": "13000",
        "Location": "Tingkat Kenanga",
        "Post_Office": "Butterworth",
        "State": "Pulau Pinang"
    },
    {
        "Postcode": "13000",
        "Location": "Tingkat Merbau",
        "Post_Office": "Butterworth",
        "State": "Pulau Pinang"
    },
    {
        "Postcode": "13000",
        "Location": "Tingkat Molek",
        "Post_Office": "Butterworth",
        "State": "Pulau Pinang"
    }
]
