[
    {
        "Postcode": "13050",
        "Location": "Lebuh Nakhoda 1",
        "Post_Office": "Butterworth",
        "State": "Pulau Pinang"
    },
    {
        "Postcode": "13050",
        "Location": "Lebuh Nakhoda 2",
        "Post_Office": "Butterworth",
        "State": "Pulau Pinang"
    },
    {
        "Postcode": "13050",
        "Location": "Lebuh Nakhoda 3",
        "Post_Office": "Butterworth",
        "State": "Pulau Pinang"
    },
    {
        "Postcode": "13050",
        "Location": "Lebuh Nakhoda 4",
        "Post_Office": "Butterworth",
        "State": "Pulau Pinang"
    },
    {
        "Postcode": "13050",
        "Location": "Lebuh Nakhoda 5",
        "Post_Office": "Butterworth",
        "State": "Pulau Pinang"
    },
    {
        "Postcode": "13050",
        "Location": "Lorong Air Tawar Indah 1",
        "Post_Office": "Butterworth",
        "State": "Pulau Pinang"
    },
    {
        "Postcode": "13050",
        "Location": "Lorong Air Tawar Indah 10",
        "Post_Office": "Butterworth",
        "State": "Pulau Pinang"
    },
    {
        "Postcode": "13050",
        "Location": "Lorong Air Tawar Indah 11",
        "Post_Office": "Butterworth",
        "State": "Pulau Pinang"
    },
    {
        "Postcode": "13050",
        "Location": "Lorong Air Tawar Indah 2",
        "Post_Office": "Butterworth",
        "State": "Pulau Pinang"
    },
    {
        "Postcode": "13050",
        "Location": "Lorong Air Tawar Indah 3",
        "Post_Office": "Butterworth",
        "State": "Pulau Pinang"
    },
    {
        "Postcode": "13050",
        "Location": "Lorong Air Tawar Indah 4",
        "Post_Office": "Butterworth",
        "State": "Pulau Pinang"
    },
    {
        "Postcode": "13050",
        "Location": "Lorong Air Tawar Indah 5",
        "Post_Office": "Butterworth",
        "State": "Pulau Pinang"
    },
    {
        "Postcode": "13050",
        "Location": "Lorong Air Tawar Indah 6",
        "Post_Office": "Butterworth",
        "State": "Pulau Pinang"
    },
    {
        "Postcode": "13050",
        "Location": "Lorong Air Tawar Indah 7",
        "Post_Office": "Butterworth",
        "State": "Pulau Pinang"
    },
    {
        "Postcode": "13050",
        "Location": "Lorong Air Tawar Indah 8",
        "Post_Office": "Butterworth",
        "State": "Pulau Pinang"
    },
    {
        "Postcode": "13050",
        "Location": "Lorong Air Tawar Indah 9",
        "Post_Office": "Butterworth",
        "State": "Pulau Pinang"
    },
    {
        "Postcode": "13050",
        "Location": "Lorong Aman 1",
        "Post_Office": "Butterworth",
        "State": "Pulau Pinang"
    },
    {
        "Postcode": "13050",
        "Location": "Lorong Aman 3",
        "Post_Office": "Butterworth",
        "State": "Pulau Pinang"
    },
    {
        "Postcode": "13050",
        "Location": "Lorong Aman 5",
        "Post_Office": "Butterworth",
        "State": "Pulau Pinang"
    },
    {
        "Postcode": "13050",
        "Location": "Lorong Aman 7",
        "Post_Office": "Butterworth",
        "State": "Pulau Pinang"
    },
    {
        "Postcode": "13050",
        "Location": "Lorong Laksamana 1",
        "Post_Office": "Butterworth",
        "State": "Pulau Pinang"
    },
    {
        "Postcode": "13050",
        "Location": "Lorong Laksamana 10",
        "Post_Office": "Butterworth",
        "State": "Pulau Pinang"
    },
    {
        "Postcode": "13050",
        "Location": "Lorong Laksamana 11",
        "Post_Office": "Butterworth",
        "State": "Pulau Pinang"
    },
    {
        "Postcode": "13050",
        "Location": "Lorong Laksamana 2",
        "Post_Office": "Butterworth",
        "State": "Pulau Pinang"
    },
    {
        "Postcode": "13050",
        "Location": "Lorong Laksamana 3",
        "Post_Office": "Butterworth",
        "State": "Pulau Pinang"
    },
    {
        "Postcode": "13050",
        "Location": "Lorong Laksamana 4",
        "Post_Office": "Butterworth",
        "State": "Pulau Pinang"
    },
    {
        "Postcode": "13050",
        "Location": "Lorong Laksamana 5",
        "Post_Office": "Butterworth",
        "State": "Pulau Pinang"
    },
    {
        "Postcode": "13050",
        "Location": "Lorong Laksamana 6",
        "Post_Office": "Butterworth",
        "State": "Pulau Pinang"
    },
    {
        "Postcode": "13050",
        "Location": "Lorong Laksamana 7",
        "Post_Office": "Butterworth",
        "State": "Pulau Pinang"
    },
    {
        "Postcode": "13050",
        "Location": "Lorong Laksamana 8",
        "Post_Office": "Butterworth",
        "State": "Pulau Pinang"
    },
    {
        "Postcode": "13050",
        "Location": "Lorong Laksamana 9",
        "Post_Office": "Butterworth",
        "State": "Pulau Pinang"
    },
    {
        "Postcode": "13050",
        "Location": "Lorong Nakhoda 1",
        "Post_Office": "Butterworth",
        "State": "Pulau Pinang"
    },
    {
        "Postcode": "13050",
        "Location": "Lorong Nakhoda 2",
        "Post_Office": "Butterworth",
        "State": "Pulau Pinang"
    },
    {
        "Postcode": "13050",
        "Location": "Lorong Nakhoda 3",
        "Post_Office": "Butterworth",
        "State": "Pulau Pinang"
    },
    {
        "Postcode": "13050",
        "Location": "Lorong Nakhoda 4",
        "Post_Office": "Butterworth",
        "State": "Pulau Pinang"
    },
    {
        "Postcode": "13050",
        "Location": "Lorong Nakhoda 5",
        "Post_Office": "Butterworth",
        "State": "Pulau Pinang"
    },
    {
        "Postcode": "13050",
        "Location": "Lorong Pahlawan 3",
        "Post_Office": "Butterworth",
        "State": "Pulau Pinang"
    },
    {
        "Postcode": "13050",
        "Location": "Lorong Pahlawan 5",
        "Post_Office": "Butterworth",
        "State": "Pulau Pinang"
    },
    {
        "Postcode": "13050",
        "Location": "Lorong Sejahtera Indah 1",
        "Post_Office": "Butterworth",
        "State": "Pulau Pinang"
    },
    {
        "Postcode": "13050",
        "Location": "Lorong Sejahtera Indah 2",
        "Post_Office": "Butterworth",
        "State": "Pulau Pinang"
    },
    {
        "Postcode": "13050",
        "Location": "Lorong Sejahtera Indah 3",
        "Post_Office": "Butterworth",
        "State": "Pulau Pinang"
    },
    {
        "Postcode": "13050",
        "Location": "Lorong Sejahtera Indah 4",
        "Post_Office": "Butterworth",
        "State": "Pulau Pinang"
    },
    {
        "Postcode": "13050",
        "Location": "Lorong Sejahtera Indah 5",
        "Post_Office": "Butterworth",
        "State": "Pulau Pinang"
    },
    {
        "Postcode": "13050",
        "Location": "Lorong Sejahtera Indah 6",
        "Post_Office": "Butterworth",
        "State": "Pulau Pinang"
    },
    {
        "Postcode": "13050",
        "Location": "Lorong Sejahtera Indah 7",
        "Post_Office": "Butterworth",
        "State": "Pulau Pinang"
    },
    {
        "Postcode": "13050",
        "Location": "Lorong Sejahtera Indah 8",
        "Post_Office": "Butterworth",
        "State": "Pulau Pinang"
    },
    {
        "Postcode": "13050",
        "Location": "Lorong Sejahtera Indah 9",
        "Post_Office": "Butterworth",
        "State": "Pulau Pinang"
    },
    {
        "Postcode": "13050",
        "Location": "Lorong Seri Senangan 1",
        "Post_Office": "Butterworth",
        "State": "Pulau Pinang"
    },
    {
        "Postcode": "13050",
        "Location": "Lorong Seri Senangan 2",
        "Post_Office": "Butterworth",
        "State": "Pulau Pinang"
    },
    {
        "Postcode": "13050",
        "Location": "Lorong Seri Senangan 3",
        "Post_Office": "Butterworth",
        "State": "Pulau Pinang"
    },
    {
        "Postcode": "13050",
        "Location": "Lorong Seri Senangan 4",
        "Post_Office": "Butterworth",
        "State": "Pulau Pinang"
    },
    {
        "Postcode": "13050",
        "Location": "Lorong Teluk Air Tawar Indah 1",
        "Post_Office": "Butterworth",
        "State": "Pulau Pinang"
    },
    {
        "Postcode": "13050",
        "Location": "Lorong Teluk Air Tawar Indah 10",
        "Post_Office": "Butterworth",
        "State": "Pulau Pinang"
    },
    {
        "Postcode": "13050",
        "Location": "Lorong Teluk Air Tawar Indah 11",
        "Post_Office": "Butterworth",
        "State": "Pulau Pinang"
    },
    {
        "Postcode": "13050",
        "Location": "Lorong Teluk Air Tawar Indah 2",
        "Post_Office": "Butterworth",
        "State": "Pulau Pinang"
    },
    {
        "Postcode": "13050",
        "Location": "Lorong Teluk Air Tawar Indah 3",
        "Post_Office": "Butterworth",
        "State": "Pulau Pinang"
    },
    {
        "Postcode": "13050",
        "Location": "Lorong Teluk Air Tawar Indah 4",
        "Post_Office": "Butterworth",
        "State": "Pulau Pinang"
    },
    {
        "Postcode": "13050",
        "Location": "Lorong Teluk Air Tawar Indah 5",
        "Post_Office": "Butterworth",
        "State": "Pulau Pinang"
    },
    {
        "Postcode": "13050",
        "Location": "Lorong Teluk Air Tawar Indah 6",
        "Post_Office": "Butterworth",
        "State": "Pulau Pinang"
    },
    {
        "Postcode": "13050",
        "Location": "Lorong Teluk Air Tawar Indah 7",
        "Post_Office": "Butterworth",
        "State": "Pulau Pinang"
    },
    {
        "Postcode": "13050",
        "Location": "Lorong Teluk Air Tawar Indah 8",
        "Post_Office": "Butterworth",
        "State": "Pulau Pinang"
    },
    {
        "Postcode": "13050",
        "Location": "Lorong Teluk Air Tawar Indah 9",
        "Post_Office": "Butterworth",
        "State": "Pulau Pinang"
    },
    {
        "Postcode": "13050",
        "Location": "Lorong Teluk Permai 1",
        "Post_Office": "Butterworth",
        "State": "Pulau Pinang"
    },
    {
        "Postcode": "13050",
        "Location": "Lorong Teluk Permai 2",
        "Post_Office": "Butterworth",
        "State": "Pulau Pinang"
    },
    {
        "Postcode": "13050",
        "Location": "Taman Aman 2",
        "Post_Office": "Butterworth",
        "State": "Pulau Pinang"
    },
    {
        "Postcode": "13050",
        "Location": "Taman Aman 4",
        "Post_Office": "Butterworth",
        "State": "Pulau Pinang"
    },
    {
        "Postcode": "13050",
        "Location": "Tingkat Aman 2",
        "Post_Office": "Butterworth",
        "State": "Pulau Pinang"
    },
    {
        "Postcode": "13050",
        "Location": "Tingkat Aman 4",
        "Post_Office": "Butterworth",
        "State": "Pulau Pinang"
    },
    {
        "Postcode": "13050",
        "Location": "Tingkat Laksamana 2",
        "Post_Office": "Butterworth",
        "State": "Pulau Pinang"
    },
    {
        "Postcode": "13050",
        "Location": "Tingkat Laksamana 3",
        "Post_Office": "Butterworth",
        "State": "Pulau Pinang"
    },
    {
        "Postcode": "13050",
        "Location": "Tingkat Laksamana 4",
        "Post_Office": "Butterworth",
        "State": "Pulau Pinang"
    },
    {
        "Postcode": "13050",
        "Location": "Tingkat Laksamana 5",
        "Post_Office": "Butterworth",
        "State": "Pulau Pinang"
    },
    {
        "Postcode": "13050",
        "Location": "Tingkat Laksamana 6",
        "Post_Office": "Butterworth",
        "State": "Pulau Pinang"
    },
    {
        "Postcode": "13050",
        "Location": "Tingkat Nakhoda 1",
        "Post_Office": "Butterworth",
        "State": "Pulau Pinang"
    },
    {
        "Postcode": "13050",
        "Location": "Tingkat Nakhoda 2",
        "Post_Office": "Butterworth",
        "State": "Pulau Pinang"
    },
    {
        "Postcode": "13050",
        "Location": "Tingkat Nakhoda 3",
        "Post_Office": "Butterworth",
        "State": "Pulau Pinang"
    },
    {
        "Postcode": "13050",
        "Location": "Tingkat Pahlawan 10",
        "Post_Office": "Butterworth",
        "State": "Pulau Pinang"
    },
    {
        "Postcode": "13050",
        "Location": "Tingkat Pahlawan 11",
        "Post_Office": "Butterworth",
        "State": "Pulau Pinang"
    },
    {
        "Postcode": "13050",
        "Location": "Tingkat Pahlawan 12",
        "Post_Office": "Butterworth",
        "State": "Pulau Pinang"
    },
    {
        "Postcode": "13050",
        "Location": "Tingkat Pahlawan 13",
        "Post_Office": "Butterworth",
        "State": "Pulau Pinang"
    },
    {
        "Postcode": "13050",
        "Location": "Tingkat Pahlawan 14",
        "Post_Office": "Butterworth",
        "State": "Pulau Pinang"
    },
    {
        "Postcode": "13050",
        "Location": "Tingkat Pahlawan 15",
        "Post_Office": "Butterworth",
        "State": "Pulau Pinang"
    },
    {
        "Postcode": "13050",
        "Location": "Tingkat Pahlawan 16",
        "Post_Office": "Butterworth",
        "State": "Pulau Pinang"
    },
    {
        "Postcode": "13050",
        "Location": "Tingkat Pahlawan 2",
        "Post_Office": "Butterworth",
        "State": "Pulau Pinang"
    },
    {
        "Postcode": "13050",
        "Location": "Tingkat Pahlawan 3",
        "Post_Office": "Butterworth",
        "State": "Pulau Pinang"
    },
    {
        "Postcode": "13050",
        "Location": "Tingkat Pahlawan 4",
        "Post_Office": "Butterworth",
        "State": "Pulau Pinang"
    },
    {
        "Postcode": "13050",
        "Location": "Tingkat Pahlawan 5",
        "Post_Office": "Butterworth",
        "State": "Pulau Pinang"
    },
    {
        "Postcode": "13050",
        "Location": "Tingkat Pahlawan 6",
        "Post_Office": "Butterworth",
        "State": "Pulau Pinang"
    },
    {
        "Postcode": "13050",
        "Location": "Tingkat Pahlawan 7",
        "Post_Office": "Butterworth",
        "State": "Pulau Pinang"
    },
    {
        "Postcode": "13050",
        "Location": "Tingkat Pahlawan 8",
        "Post_Office": "Butterworth",
        "State": "Pulau Pinang"
    },
    {
        "Postcode": "13050",
        "Location": "Tingkat Pahlawan 9",
        "Post_Office": "Butterworth",
        "State": "Pulau Pinang"
    },
    {
        "Postcode": "13050",
        "Location": "Tingkat Perwira 1",
        "Post_Office": "Butterworth",
        "State": "Pulau Pinang"
    },
    {
        "Postcode": "13050",
        "Location": "Tingkat Perwira 2",
        "Post_Office": "Butterworth",
        "State": "Pulau Pinang"
    },
    {
        "Postcode": "13050",
        "Location": "Kampung Tersusun ",
        "Post_Office": "Butterworth",
        "State": "Pulau Pinang"
    },
    {
        "Postcode": "13050",
        "Location": "Lorong Bendahara 1",
        "Post_Office": "Butterworth",
        "State": "Pulau Pinang"
    },
    {
        "Postcode": "13050",
        "Location": "Lorong Bendahara 2",
        "Post_Office": "Butterworth",
        "State": "Pulau Pinang"
    },
    {
        "Postcode": "13050",
        "Location": "Taman Melati",
        "Post_Office": "Butterworth",
        "State": "Pulau Pinang"
    },
    {
        "Postcode": "13050",
        "Location": "Taman Sejahtera",
        "Post_Office": "Butterworth\r\n",
        "State": "Pulau Pinang"
    },
    {
        "Postcode": "13050",
        "Location": "Kampung Bagan Belat",
        "Post_Office": "Butterworth",
        "State": "Pulau Pinang"
    },
    {
        "Postcode": "13050",
        "Location": "Kampung Bagan Tambang",
        "Post_Office": "Butterworth",
        "State": "Pulau Pinang"
    },
    {
        "Postcode": "13050",
        "Location": "Taman Air Tawar Indah",
        "Post_Office": "Butterworth",
        "State": "Pulau Pinang"
    },
    {
        "Postcode": "13050",
        "Location": "Taman Kgn",
        "Post_Office": "Butterworth",
        "State": "Pulau Pinang"
    },
    {
        "Postcode": "13050",
        "Location": "Taman Seri Senangan",
        "Post_Office": "Butterworth",
        "State": "Pulau Pinang"
    },
    {
        "Postcode": "13050",
        "Location": "Telok Air Tawar",
        "Post_Office": "Butterworth",
        "State": "Pulau Pinang"
    },
    {
        "Postcode": "13050",
        "Location": "Teluk Air Tawar",
        "Post_Office": "Butterworth",
        "State": "Pulau Pinang"
    },
    {
        "Postcode": "13050",
        "Location": "Lorong Bendahara 3",
        "Post_Office": "Butterworth",
        "State": "Pulau Pinang"
    },
    {
        "Postcode": "13050",
        "Location": "Jalan Aman",
        "Post_Office": "Butterworth",
        "State": "Pulau Pinang"
    },
    {
        "Postcode": "13050",
        "Location": "Jalan Sejahtera Indah",
        "Post_Office": "Butterworth",
        "State": "Pulau Pinang"
    },
    {
        "Postcode": "13050",
        "Location": "Kampung Setol",
        "Post_Office": "Butterworth",
        "State": "Pulau Pinang"
    },
    {
        "Postcode": "13050",
        "Location": "Lorong Bendahara 4",
        "Post_Office": "Butterworth",
        "State": "Pulau Pinang"
    },
    {
        "Postcode": "13050",
        "Location": "Pekan Baru",
        "Post_Office": "Butterworth",
        "State": "Pulau Pinang"
    },
    {
        "Postcode": "13050",
        "Location": "Permatang Berah",
        "Post_Office": "Butterworth",
        "State": "Pulau Pinang"
    },
    {
        "Postcode": "13050",
        "Location": "Taman Sejahtera Indah",
        "Post_Office": "Butterworth",
        "State": "Pulau Pinang"
    },
    {
        "Postcode": "13050",
        "Location": "Jalan Bagan Belat",
        "Post_Office": "Butterworth",
        "State": "Pulau Pinang"
    },
    {
        "Postcode": "13050",
        "Location": "Jalan Bagan Lebai Tahir",
        "Post_Office": "Butterworth",
        "State": "Pulau Pinang"
    },
    {
        "Postcode": "13050",
        "Location": "Jalan Bagan Tambang",
        "Post_Office": "Butterworth",
        "State": "Pulau Pinang"
    },
    {
        "Postcode": "13050",
        "Location": "Jalan Bendahara",
        "Post_Office": "Butterworth",
        "State": "Pulau Pinang"
    },
    {
        "Postcode": "13050",
        "Location": "Jalan Laksamana",
        "Post_Office": "Butterworth",
        "State": "Pulau Pinang"
    },
    {
        "Postcode": "13050",
        "Location": "Jalan Nakhoda",
        "Post_Office": "Butterworth",
        "State": "Pulau Pinang"
    },
    {
        "Postcode": "13050",
        "Location": "Jalan Padang Benggali",
        "Post_Office": "Butterworth",
        "State": "Pulau Pinang"
    },
    {
        "Postcode": "13050",
        "Location": "Jalan Pahlawan",
        "Post_Office": "Butterworth",
        "State": "Pulau Pinang"
    },
    {
        "Postcode": "13050",
        "Location": "Jalan Permatang Kuching",
        "Post_Office": "Butterworth",
        "State": "Pulau Pinang"
    },
    {
        "Postcode": "13050",
        "Location": "Jalan Sejahtera Indah 1",
        "Post_Office": "Butterworth",
        "State": "Pulau Pinang"
    },
    {
        "Postcode": "13050",
        "Location": "Jalan Shaikh Madar",
        "Post_Office": "Butterworth",
        "State": "Pulau Pinang"
    },
    {
        "Postcode": "13050",
        "Location": "Jalan Sungai Abdul",
        "Post_Office": "Butterworth",
        "State": "Pulau Pinang"
    },
    {
        "Postcode": "13050",
        "Location": "Jalan Teluk Ayer Tawar",
        "Post_Office": "Butterworth",
        "State": "Pulau Pinang"
    },
    {
        "Postcode": "13050",
        "Location": "Jalan Tengku Putra",
        "Post_Office": "Butterworth",
        "State": "Pulau Pinang"
    },
    {
        "Postcode": "13050",
        "Location": "Jalan Titi Mukim",
        "Post_Office": "Butterworth",
        "State": "Pulau Pinang"
    },
    {
        "Postcode": "13050",
        "Location": "Kampung Benggali (Telok Ayer Tawar)",
        "Post_Office": "Butterworth",
        "State": "Pulau Pinang"
    },
    {
        "Postcode": "13050",
        "Location": "Kampung Setol (Teluk Air Tawar )",
        "Post_Office": "Butterworth",
        "State": "Pulau Pinang"
    },
    {
        "Postcode": "13050",
        "Location": "Kuala Bekah",
        "Post_Office": "Butterworth",
        "State": "Pulau Pinang"
    },
    {
        "Postcode": "13050",
        "Location": "Lebuh Nakhoda",
        "Post_Office": "Butterworth",
        "State": "Pulau Pinang"
    },
    {
        "Postcode": "13050",
        "Location": "Lorong Beringin",
        "Post_Office": "Butterworth",
        "State": "Pulau Pinang"
    },
    {
        "Postcode": "13050",
        "Location": "Lorong Nakhoda",
        "Post_Office": "Butterworth",
        "State": "Pulau Pinang"
    },
    {
        "Postcode": "13050",
        "Location": "Lorong Pahlawan",
        "Post_Office": "Butterworth",
        "State": "Pulau Pinang"
    },
    {
        "Postcode": "13050",
        "Location": "Lorong Perwira",
        "Post_Office": "Butterworth",
        "State": "Pulau Pinang"
    },
    {
        "Postcode": "13050",
        "Location": "Lorong Sungai Abdul",
        "Post_Office": "Butterworth",
        "State": "Pulau Pinang"
    },
    {
        "Postcode": "13050",
        "Location": "Lorong Teluk Air Tawar",
        "Post_Office": "Butterworth",
        "State": "Pulau Pinang"
    },
    {
        "Postcode": "13050",
        "Location": "Pangsapuri Titi Mukim",
        "Post_Office": "Butterworth",
        "State": "Pulau Pinang"
    },
    {
        "Postcode": "13050",
        "Location": "Pengkalan Tentera Udara",
        "Post_Office": "Butterworth",
        "State": "Pulau Pinang"
    },
    {
        "Postcode": "13050",
        "Location": "Permatang Kanchut",
        "Post_Office": "Butterworth",
        "State": "Pulau Pinang"
    },
    {
        "Postcode": "13050",
        "Location": "Permatang Kuching",
        "Post_Office": "Butterworth",
        "State": "Pulau Pinang"
    },
    {
        "Postcode": "13050",
        "Location": "Persiaran Bendahara",
        "Post_Office": "Butterworth",
        "State": "Pulau Pinang"
    },
    {
        "Postcode": "13050",
        "Location": "Persiaran Nakhoda",
        "Post_Office": "Butterworth",
        "State": "Pulau Pinang"
    },
    {
        "Postcode": "13050",
        "Location": "Solok Bendahara",
        "Post_Office": "Butterworth",
        "State": "Pulau Pinang"
    },
    {
        "Postcode": "13050",
        "Location": "Solok Nakhoda",
        "Post_Office": "Butterworth",
        "State": "Pulau Pinang"
    },
    {
        "Postcode": "13050",
        "Location": "Taman Bintang",
        "Post_Office": "Butterworth",
        "State": "Pulau Pinang"
    },
    {
        "Postcode": "13050",
        "Location": "Taman Kampung",
        "Post_Office": "Butterworth",
        "State": "Pulau Pinang"
    },
    {
        "Postcode": "13050",
        "Location": "Taman Rathna",
        "Post_Office": "Butterworth",
        "State": "Pulau Pinang"
    },
    {
        "Postcode": "13050",
        "Location": "Taman Robina",
        "Post_Office": "Butterworth",
        "State": "Pulau Pinang"
    },
    {
        "Postcode": "13050",
        "Location": "Taman Senangan",
        "Post_Office": "Butterworth",
        "State": "Pulau Pinang"
    },
    {
        "Postcode": "13050",
        "Location": "Taman Senangan Jaya",
        "Post_Office": "Butterworth",
        "State": "Pulau Pinang"
    },
    {
        "Postcode": "13050",
        "Location": "Taman Telok Air Tawar Indah",
        "Post_Office": "Butterworth",
        "State": "Pulau Pinang"
    },
    {
        "Postcode": "13050",
        "Location": "Taman Teluk Molek",
        "Post_Office": "Butterworth",
        "State": "Pulau Pinang"
    },
    {
        "Postcode": "13050",
        "Location": "Taman Teluk Permai",
        "Post_Office": "Butterworth",
        "State": "Pulau Pinang"
    },
    {
        "Postcode": "13050",
        "Location": "Taman Wira",
        "Post_Office": "Butterworth",
        "State": "Pulau Pinang"
    },
    {
        "Postcode": "13050",
        "Location": "Teluk Ayer Tawar",
        "Post_Office": "Butterworth",
        "State": "Pulau Pinang"
    },
    {
        "Postcode": "13050",
        "Location": "Tingkat Perwira Dua",
        "Post_Office": "Butterworth",
        "State": "Pulau Pinang"
    },
    {
        "Postcode": "13050",
        "Location": "Titi Mukim",
        "Post_Office": "Butterworth",
        "State": "Pulau Pinang"
    }
]
