[
    {
        "Postcode": "13100",
        "Location": "Jalan Penaga 1",
        "Post_Office": "Penaga",
        "State": "Pulau Pinang"
    },
    {
        "Postcode": "13100",
        "Location": "Jalan Penaga 2",
        "Post_Office": "Penaga",
        "State": "Pulau Pinang"
    },
    {
        "Postcode": "13100",
        "Location": "Lintang Sintok 3",
        "Post_Office": "Penaga",
        "State": "Pulau Pinang"
    },
    {
        "Postcode": "13100",
        "Location": "Lintang Sintok 4",
        "Post_Office": "Penaga",
        "State": "Pulau Pinang"
    },
    {
        "Postcode": "13100",
        "Location": "Lorong Bekah Indah 1",
        "Post_Office": "Penaga",
        "State": "Pulau Pinang"
    },
    {
        "Postcode": "13100",
        "Location": "Lorong Bekah Indah 2",
        "Post_Office": "Penaga",
        "State": "Pulau Pinang"
    },
    {
        "Postcode": "13100",
        "Location": "Lorong Bekah Indah 3",
        "Post_Office": "Penaga",
        "State": "Pulau Pinang"
    },
    {
        "Postcode": "13100",
        "Location": "Lorong Kuala Bekah 1",
        "Post_Office": "Penaga",
        "State": "Pulau Pinang"
    },
    {
        "Postcode": "13100",
        "Location": "Lorong Kuala Bekah 1/1 ",
        "Post_Office": "Penaga",
        "State": "Pulau Pinang"
    },
    {
        "Postcode": "13100",
        "Location": "Lorong Kuala Bekah 2",
        "Post_Office": "Penaga",
        "State": "Pulau Pinang"
    },
    {
        "Postcode": "13100",
        "Location": "Lorong Kuala Bekah 3",
        "Post_Office": "Penaga",
        "State": "Pulau Pinang"
    },
    {
        "Postcode": "13100",
        "Location": "Lorong Kuala Bekah 4",
        "Post_Office": "Penaga",
        "State": "Pulau Pinang"
    },
    {
        "Postcode": "13100",
        "Location": "Lorong Kuala Bekah 5",
        "Post_Office": "Penaga",
        "State": "Pulau Pinang"
    },
    {
        "Postcode": "13100",
        "Location": "Lorong Kuala Bekah 5/2",
        "Post_Office": "Penaga",
        "State": "Pulau Pinang"
    },
    {
        "Postcode": "13100",
        "Location": "Lorong Penaga 1",
        "Post_Office": "Penaga",
        "State": "Pulau Pinang"
    },
    {
        "Postcode": "13100",
        "Location": "Lorong Penaga 10",
        "Post_Office": "Penaga",
        "State": "Pulau Pinang"
    },
    {
        "Postcode": "13100",
        "Location": "Lorong Penaga 11",
        "Post_Office": "Penaga",
        "State": "Pulau Pinang"
    },
    {
        "Postcode": "13100",
        "Location": "Lorong Penaga 12",
        "Post_Office": "Penaga",
        "State": "Pulau Pinang"
    },
    {
        "Postcode": "13100",
        "Location": "Lorong Penaga 13",
        "Post_Office": "Penaga",
        "State": "Pulau Pinang"
    },
    {
        "Postcode": "13100",
        "Location": "Lorong Penaga 14",
        "Post_Office": "Penaga",
        "State": "Pulau Pinang"
    },
    {
        "Postcode": "13100",
        "Location": "Lorong Penaga 15",
        "Post_Office": "Penaga",
        "State": "Pulau Pinang"
    },
    {
        "Postcode": "13100",
        "Location": "Lorong Penaga 16",
        "Post_Office": "Penaga",
        "State": "Pulau Pinang"
    },
    {
        "Postcode": "13100",
        "Location": "Lorong Penaga 17",
        "Post_Office": "Penaga",
        "State": "Pulau Pinang"
    },
    {
        "Postcode": "13100",
        "Location": "Lorong Penaga 18",
        "Post_Office": "Penaga",
        "State": "Pulau Pinang"
    },
    {
        "Postcode": "13100",
        "Location": "Lorong Penaga 19",
        "Post_Office": "Penaga",
        "State": "Pulau Pinang"
    },
    {
        "Postcode": "13100",
        "Location": "Lorong Penaga 2",
        "Post_Office": "Penaga",
        "State": "Pulau Pinang"
    },
    {
        "Postcode": "13100",
        "Location": "Lorong Penaga 20",
        "Post_Office": "Penaga",
        "State": "Pulau Pinang"
    },
    {
        "Postcode": "13100",
        "Location": "Lorong Penaga 21",
        "Post_Office": "Penaga",
        "State": "Pulau Pinang"
    },
    {
        "Postcode": "13100",
        "Location": "Lorong Penaga 22",
        "Post_Office": "Penaga",
        "State": "Pulau Pinang"
    },
    {
        "Postcode": "13100",
        "Location": "Lorong Penaga 23",
        "Post_Office": "Penaga",
        "State": "Pulau Pinang"
    },
    {
        "Postcode": "13100",
        "Location": "Lorong Penaga 24",
        "Post_Office": "Penaga",
        "State": "Pulau Pinang"
    },
    {
        "Postcode": "13100",
        "Location": "Lorong Penaga 25",
        "Post_Office": "Penaga",
        "State": "Pulau Pinang"
    },
    {
        "Postcode": "13100",
        "Location": "Lorong Penaga 26",
        "Post_Office": "Penaga",
        "State": "Pulau Pinang"
    },
    {
        "Postcode": "13100",
        "Location": "Lorong Penaga 27",
        "Post_Office": "Penaga",
        "State": "Pulau Pinang"
    },
    {
        "Postcode": "13100",
        "Location": "Lorong Penaga 28",
        "Post_Office": "Penaga",
        "State": "Pulau Pinang"
    },
    {
        "Postcode": "13100",
        "Location": "Lorong Penaga 29",
        "Post_Office": "Penaga",
        "State": "Pulau Pinang"
    },
    {
        "Postcode": "13100",
        "Location": "Lorong Penaga 3",
        "Post_Office": "Penaga",
        "State": "Pulau Pinang"
    },
    {
        "Postcode": "13100",
        "Location": "Lorong Penaga 30",
        "Post_Office": "Penaga",
        "State": "Pulau Pinang"
    },
    {
        "Postcode": "13100",
        "Location": "Lorong Penaga 4",
        "Post_Office": "Penaga",
        "State": "Pulau Pinang"
    },
    {
        "Postcode": "13100",
        "Location": "Lorong Penaga 5",
        "Post_Office": "Penaga",
        "State": "Pulau Pinang"
    },
    {
        "Postcode": "13100",
        "Location": "Lorong Penaga 6",
        "Post_Office": "Penaga",
        "State": "Pulau Pinang"
    },
    {
        "Postcode": "13100",
        "Location": "Lorong Penaga 7",
        "Post_Office": "Penaga",
        "State": "Pulau Pinang"
    },
    {
        "Postcode": "13100",
        "Location": "Lorong Penaga 8",
        "Post_Office": "Penaga",
        "State": "Pulau Pinang"
    },
    {
        "Postcode": "13100",
        "Location": "Lorong Penaga 9",
        "Post_Office": "Penaga",
        "State": "Pulau Pinang"
    },
    {
        "Postcode": "13100",
        "Location": "Lorong Penaga Impian 1",
        "Post_Office": "Penaga",
        "State": "Pulau Pinang"
    },
    {
        "Postcode": "13100",
        "Location": "Lorong Penaga Impian 10",
        "Post_Office": "Penaga",
        "State": "Pulau Pinang"
    },
    {
        "Postcode": "13100",
        "Location": "Lorong Penaga Impian 11",
        "Post_Office": "Penaga",
        "State": "Pulau Pinang"
    },
    {
        "Postcode": "13100",
        "Location": "Lorong Penaga Impian 12",
        "Post_Office": "Penaga",
        "State": "Pulau Pinang"
    },
    {
        "Postcode": "13100",
        "Location": "Lorong Penaga Impian 13",
        "Post_Office": "Penaga",
        "State": "Pulau Pinang"
    },
    {
        "Postcode": "13100",
        "Location": "Lorong Penaga Impian 14",
        "Post_Office": "Penaga",
        "State": "Pulau Pinang"
    },
    {
        "Postcode": "13100",
        "Location": "Lorong Penaga Impian 15",
        "Post_Office": "Penaga",
        "State": "Pulau Pinang"
    },
    {
        "Postcode": "13100",
        "Location": "Lorong Penaga Impian 16",
        "Post_Office": "Penaga",
        "State": "Pulau Pinang"
    },
    {
        "Postcode": "13100",
        "Location": "Lorong Penaga Impian 17",
        "Post_Office": "Penaga",
        "State": "Pulau Pinang"
    },
    {
        "Postcode": "13100",
        "Location": "Lorong Penaga Impian 18",
        "Post_Office": "Penaga",
        "State": "Pulau Pinang"
    },
    {
        "Postcode": "13100",
        "Location": "Lorong Penaga Impian 19",
        "Post_Office": "Penaga",
        "State": "Pulau Pinang"
    },
    {
        "Postcode": "13100",
        "Location": "Lorong Penaga Impian 2",
        "Post_Office": "Penaga",
        "State": "Pulau Pinang"
    },
    {
        "Postcode": "13100",
        "Location": "Lorong Penaga Impian 20",
        "Post_Office": "Penaga",
        "State": "Pulau Pinang"
    },
    {
        "Postcode": "13100",
        "Location": "Lorong Penaga Impian 21",
        "Post_Office": "Penaga",
        "State": "Pulau Pinang"
    },
    {
        "Postcode": "13100",
        "Location": "Lorong Penaga Impian 22",
        "Post_Office": "Penaga",
        "State": "Pulau Pinang"
    },
    {
        "Postcode": "13100",
        "Location": "Lorong Penaga Impian 23",
        "Post_Office": "Penaga",
        "State": "Pulau Pinang"
    },
    {
        "Postcode": "13100",
        "Location": "Lorong Penaga Impian 24",
        "Post_Office": "Penaga",
        "State": "Pulau Pinang"
    },
    {
        "Postcode": "13100",
        "Location": "Lorong Penaga Impian 25",
        "Post_Office": "Penaga",
        "State": "Pulau Pinang"
    },
    {
        "Postcode": "13100",
        "Location": "Lorong Penaga Impian 26",
        "Post_Office": "Penaga",
        "State": "Pulau Pinang"
    },
    {
        "Postcode": "13100",
        "Location": "Lorong Penaga Impian 3",
        "Post_Office": "Penaga",
        "State": "Pulau Pinang"
    },
    {
        "Postcode": "13100",
        "Location": "Lorong Penaga Impian 4",
        "Post_Office": "Penaga",
        "State": "Pulau Pinang"
    },
    {
        "Postcode": "13100",
        "Location": "Lorong Penaga Impian 5",
        "Post_Office": "Penaga",
        "State": "Pulau Pinang"
    },
    {
        "Postcode": "13100",
        "Location": "Lorong Penaga Impian 6",
        "Post_Office": "Penaga",
        "State": "Pulau Pinang"
    },
    {
        "Postcode": "13100",
        "Location": "Lorong Penaga Impian 7",
        "Post_Office": "Penaga",
        "State": "Pulau Pinang"
    },
    {
        "Postcode": "13100",
        "Location": "Lorong Penaga Impian 8",
        "Post_Office": "Penaga",
        "State": "Pulau Pinang"
    },
    {
        "Postcode": "13100",
        "Location": "Lorong Penaga Impian 9",
        "Post_Office": "Penaga",
        "State": "Pulau Pinang"
    },
    {
        "Postcode": "13100",
        "Location": "Lorong Penaga Permai 1",
        "Post_Office": "Penaga",
        "State": "Pulau Pinang"
    },
    {
        "Postcode": "13100",
        "Location": "Lorong Penaga Permai 10",
        "Post_Office": "Penaga",
        "State": "Pulau Pinang"
    },
    {
        "Postcode": "13100",
        "Location": "Lorong Penaga Permai 11",
        "Post_Office": "Penaga",
        "State": "Pulau Pinang"
    },
    {
        "Postcode": "13100",
        "Location": "Lorong Penaga Permai 12",
        "Post_Office": "Penaga",
        "State": "Pulau Pinang"
    },
    {
        "Postcode": "13100",
        "Location": "Lorong Penaga Permai 13",
        "Post_Office": "Penaga",
        "State": "Pulau Pinang"
    },
    {
        "Postcode": "13100",
        "Location": "Lorong Penaga Permai 14",
        "Post_Office": "Penaga",
        "State": "Pulau Pinang"
    },
    {
        "Postcode": "13100",
        "Location": "Lorong Penaga Permai 15",
        "Post_Office": "Penaga",
        "State": "Pulau Pinang"
    },
    {
        "Postcode": "13100",
        "Location": "Lorong Penaga Permai 16",
        "Post_Office": "Penaga",
        "State": "Pulau Pinang"
    },
    {
        "Postcode": "13100",
        "Location": "Lorong Penaga Permai 17",
        "Post_Office": "Penaga",
        "State": "Pulau Pinang"
    },
    {
        "Postcode": "13100",
        "Location": "Lorong Penaga Permai 18",
        "Post_Office": "Penaga",
        "State": "Pulau Pinang"
    },
    {
        "Postcode": "13100",
        "Location": "Lorong Penaga Permai 19",
        "Post_Office": "Penaga",
        "State": "Pulau Pinang"
    },
    {
        "Postcode": "13100",
        "Location": "Lorong Penaga Permai 2",
        "Post_Office": "Penaga",
        "State": "Pulau Pinang"
    },
    {
        "Postcode": "13100",
        "Location": "Lorong Penaga Permai 20",
        "Post_Office": "Penaga",
        "State": "Pulau Pinang"
    },
    {
        "Postcode": "13100",
        "Location": "Lorong Penaga Permai 21",
        "Post_Office": "Penaga",
        "State": "Pulau Pinang"
    },
    {
        "Postcode": "13100",
        "Location": "Lorong Penaga Permai 22",
        "Post_Office": "Penaga",
        "State": "Pulau Pinang"
    },
    {
        "Postcode": "13100",
        "Location": "Lorong Penaga Permai 23",
        "Post_Office": "Penaga",
        "State": "Pulau Pinang"
    },
    {
        "Postcode": "13100",
        "Location": "Lorong Penaga Permai 24",
        "Post_Office": "Penaga",
        "State": "Pulau Pinang"
    },
    {
        "Postcode": "13100",
        "Location": "Lorong Penaga Permai 25",
        "Post_Office": "Penaga",
        "State": "Pulau Pinang"
    },
    {
        "Postcode": "13100",
        "Location": "Lorong Penaga Permai 26",
        "Post_Office": "Penaga",
        "State": "Pulau Pinang"
    },
    {
        "Postcode": "13100",
        "Location": "Lorong Penaga Permai 3",
        "Post_Office": "Penaga",
        "State": "Pulau Pinang"
    },
    {
        "Postcode": "13100",
        "Location": "Lorong Penaga Permai 4",
        "Post_Office": "Penaga",
        "State": "Pulau Pinang"
    },
    {
        "Postcode": "13100",
        "Location": "Lorong Penaga Permai 5",
        "Post_Office": "Penaga",
        "State": "Pulau Pinang"
    },
    {
        "Postcode": "13100",
        "Location": "Lorong Penaga Permai 6",
        "Post_Office": "Penaga",
        "State": "Pulau Pinang"
    },
    {
        "Postcode": "13100",
        "Location": "Lorong Penaga Permai 7",
        "Post_Office": "Penaga",
        "State": "Pulau Pinang"
    },
    {
        "Postcode": "13100",
        "Location": "Lorong Penaga Permai 8",
        "Post_Office": "Penaga",
        "State": "Pulau Pinang"
    },
    {
        "Postcode": "13100",
        "Location": "Lorong Penaga Permai 9",
        "Post_Office": "Penaga",
        "State": "Pulau Pinang"
    },
    {
        "Postcode": "13100",
        "Location": "Kampung Baru",
        "Post_Office": "Penaga",
        "State": "Pulau Pinang"
    },
    {
        "Postcode": "13100",
        "Location": "Kampung Tengah",
        "Post_Office": "Penaga",
        "State": "Pulau Pinang"
    },
    {
        "Postcode": "13100",
        "Location": "Lorong Muda",
        "Post_Office": "Penaga",
        "State": "Pulau Pinang"
    },
    {
        "Postcode": "13100",
        "Location": "Permatang Janggus",
        "Post_Office": "Penaga",
        "State": "Pulau Pinang"
    },
    {
        "Postcode": "13100",
        "Location": "Taman Sejahtera Rakyat",
        "Post_Office": "Penaga",
        "State": "Pulau Pinang"
    },
    {
        "Postcode": "13100",
        "Location": "Bakar Kapor",
        "Post_Office": "Penaga",
        "State": "Pulau Pinang"
    },
    {
        "Postcode": "13100",
        "Location": "Bakau Tua",
        "Post_Office": "Penaga",
        "State": "Pulau Pinang"
    },
    {
        "Postcode": "13100",
        "Location": "Kampung Dua Puluh",
        "Post_Office": "Penaga",
        "State": "Pulau Pinang"
    },
    {
        "Postcode": "13100",
        "Location": "Sungai Kedak",
        "Post_Office": "Penaga",
        "State": "Pulau Pinang"
    },
    {
        "Postcode": "13100",
        "Location": "Taman Penaga Jaya",
        "Post_Office": "Penaga",
        "State": "Pulau Pinang"
    },
    {
        "Postcode": "13100",
        "Location": "Taman Perda",
        "Post_Office": "Penaga",
        "State": "Pulau Pinang"
    },
    {
        "Postcode": "13100",
        "Location": "Jalan Bawah",
        "Post_Office": "Penaga",
        "State": "Pulau Pinang"
    },
    {
        "Postcode": "13100",
        "Location": "Kampung Aman ",
        "Post_Office": "Penaga",
        "State": "Pulau Pinang"
    },
    {
        "Postcode": "13100",
        "Location": "Taman Belibis",
        "Post_Office": "Penaga",
        "State": "Pulau Pinang"
    },
    {
        "Postcode": "13100",
        "Location": "Kampung Kuala Muda",
        "Post_Office": "Penaga",
        "State": "Pulau Pinang"
    },
    {
        "Postcode": "13100",
        "Location": "Kampung Permatang Pauh",
        "Post_Office": "Penaga",
        "State": "Pulau Pinang"
    },
    {
        "Postcode": "13100",
        "Location": "Permatang Berah",
        "Post_Office": "Penaga",
        "State": "Pulau Pinang"
    },
    {
        "Postcode": "13100",
        "Location": "Permatang Rambai",
        "Post_Office": "Penaga",
        "State": "Pulau Pinang"
    },
    {
        "Postcode": "13100",
        "Location": "Guar Tuan Syed",
        "Post_Office": "Penaga",
        "State": "Pulau Pinang"
    },
    {
        "Postcode": "13100",
        "Location": "Jalan Bawah Penaga",
        "Post_Office": "Penaga",
        "State": "Pulau Pinang"
    },
    {
        "Postcode": "13100",
        "Location": "Jalan Bawah Taman Penaga",
        "Post_Office": "Penaga",
        "State": "Pulau Pinang"
    },
    {
        "Postcode": "13100",
        "Location": "Jalan Besar Penaga",
        "Post_Office": "Penaga",
        "State": "Pulau Pinang"
    },
    {
        "Postcode": "13100",
        "Location": "Jalan Haji Hashim",
        "Post_Office": "Penaga",
        "State": "Pulau Pinang"
    },
    {
        "Postcode": "13100",
        "Location": "Jalan Kuala Bekah",
        "Post_Office": "Penaga",
        "State": "Pulau Pinang"
    },
    {
        "Postcode": "13100",
        "Location": "Jalan Kuala Bekah 1",
        "Post_Office": "Penaga",
        "State": "Pulau Pinang"
    },
    {
        "Postcode": "13100",
        "Location": "Jalan Kuala Bekah 5/2",
        "Post_Office": "Penaga",
        "State": "Pulau Pinang"
    },
    {
        "Postcode": "13100",
        "Location": "Jalan Permatang Berah",
        "Post_Office": "Penaga",
        "State": "Pulau Pinang"
    },
    {
        "Postcode": "13100",
        "Location": "Jalan Permatang Pak Maras",
        "Post_Office": "Penaga",
        "State": "Pulau Pinang"
    },
    {
        "Postcode": "13100",
        "Location": "Jalan Sintok 1",
        "Post_Office": "Penaga",
        "State": "Pulau Pinang"
    },
    {
        "Postcode": "13100",
        "Location": "Kampung Baru Penaga",
        "Post_Office": "Penaga",
        "State": "Pulau Pinang"
    },
    {
        "Postcode": "13100",
        "Location": "Kampung Guar Tuan Syed",
        "Post_Office": "Penaga",
        "State": "Pulau Pinang"
    },
    {
        "Postcode": "13100",
        "Location": "Kampung Lembah",
        "Post_Office": "Penaga",
        "State": "Pulau Pinang"
    },
    {
        "Postcode": "13100",
        "Location": "Kampung Muyu",
        "Post_Office": "Penaga",
        "State": "Pulau Pinang"
    },
    {
        "Postcode": "13100",
        "Location": "Lahar Ending",
        "Post_Office": "Penaga",
        "State": "Pulau Pinang"
    },
    {
        "Postcode": "13100",
        "Location": "Lahar Tabut",
        "Post_Office": "Penaga",
        "State": "Pulau Pinang"
    },
    {
        "Postcode": "13100",
        "Location": "Lorong Penaga 34",
        "Post_Office": "Penaga",
        "State": "Pulau Pinang"
    },
    {
        "Postcode": "13100",
        "Location": "Padang Tembusu",
        "Post_Office": "Penaga",
        "State": "Pulau Pinang"
    },
    {
        "Postcode": "13100",
        "Location": "Pekan Permatang Sintok",
        "Post_Office": "Penaga",
        "State": "Pulau Pinang"
    },
    {
        "Postcode": "13100",
        "Location": "Penaga",
        "Post_Office": "Penaga",
        "State": "Pulau Pinang"
    },
    {
        "Postcode": "13100",
        "Location": "Penaga Dua",
        "Post_Office": "Penaga",
        "State": "Pulau Pinang"
    },
    {
        "Postcode": "13100",
        "Location": "Pengkalan Sena",
        "Post_Office": "Penaga",
        "State": "Pulau Pinang"
    },
    {
        "Postcode": "13100",
        "Location": "Permatang Binjai",
        "Post_Office": "Penaga",
        "State": "Pulau Pinang"
    },
    {
        "Postcode": "13100",
        "Location": "Permatang Bogak",
        "Post_Office": "Penaga",
        "State": "Pulau Pinang"
    },
    {
        "Postcode": "13100",
        "Location": "Permatang Kabu",
        "Post_Office": "Penaga",
        "State": "Pulau Pinang"
    },
    {
        "Postcode": "13100",
        "Location": "Permatang Kuala",
        "Post_Office": "Penaga",
        "State": "Pulau Pinang"
    },
    {
        "Postcode": "13100",
        "Location": "Permatang Kuang",
        "Post_Office": "Penaga",
        "State": "Pulau Pinang"
    },
    {
        "Postcode": "13100",
        "Location": "Permatang Pak Elong",
        "Post_Office": "Penaga",
        "State": "Pulau Pinang"
    },
    {
        "Postcode": "13100",
        "Location": "Permatang Pak Maras",
        "Post_Office": "Penaga",
        "State": "Pulau Pinang"
    },
    {
        "Postcode": "13100",
        "Location": "Permatang Rawa",
        "Post_Office": "Penaga",
        "State": "Pulau Pinang"
    },
    {
        "Postcode": "13100",
        "Location": "Permatang Sintok",
        "Post_Office": "Penaga",
        "State": "Pulau Pinang"
    },
    {
        "Postcode": "13100",
        "Location": "Permatang Tiga",
        "Post_Office": "Penaga",
        "State": "Pulau Pinang"
    },
    {
        "Postcode": "13100",
        "Location": "Permatang Tok Gelam",
        "Post_Office": "Penaga",
        "State": "Pulau Pinang"
    },
    {
        "Postcode": "13100",
        "Location": "Permatang Tok Loba",
        "Post_Office": "Penaga",
        "State": "Pulau Pinang"
    },
    {
        "Postcode": "13100",
        "Location": "Pprt",
        "Post_Office": "Penaga",
        "State": "Pulau Pinang"
    },
    {
        "Postcode": "13100",
        "Location": "Taman Bekah Indah",
        "Post_Office": "Penaga",
        "State": "Pulau Pinang"
    },
    {
        "Postcode": "13100",
        "Location": "Taman Berkat",
        "Post_Office": "Penaga",
        "State": "Pulau Pinang"
    },
    {
        "Postcode": "13100",
        "Location": "Taman Kuala Bekah",
        "Post_Office": "Penaga",
        "State": "Pulau Pinang"
    },
    {
        "Postcode": "13100",
        "Location": "Taman Kuala Muda",
        "Post_Office": "Penaga",
        "State": "Pulau Pinang"
    },
    {
        "Postcode": "13100",
        "Location": "Taman Penaga",
        "Post_Office": "Penaga",
        "State": "Pulau Pinang"
    },
    {
        "Postcode": "13100",
        "Location": "Taman Penaga Impian",
        "Post_Office": "Penaga",
        "State": "Pulau Pinang"
    },
    {
        "Postcode": "13100",
        "Location": "Taman Penaga Permai",
        "Post_Office": "Penaga",
        "State": "Pulau Pinang"
    },
    {
        "Postcode": "13100",
        "Location": "Taman Permatang Sintok",
        "Post_Office": "Penaga",
        "State": "Pulau Pinang"
    }
]
