[
    {
        "Postcode": "13110",
        "Location": "Lorong Desa Kuala Muda 1",
        "Post_Office": "Penaga",
        "State": "Pulau Pinang"
    },
    {
        "Postcode": "13110",
        "Location": "Lorong Desa Kuala Muda 10",
        "Post_Office": "Penaga",
        "State": "Pulau Pinang"
    },
    {
        "Postcode": "13110",
        "Location": "Lorong Desa Kuala Muda 11",
        "Post_Office": "Penaga",
        "State": "Pulau Pinang"
    },
    {
        "Postcode": "13110",
        "Location": "Lorong Desa Kuala Muda 12",
        "Post_Office": "Penaga",
        "State": "Pulau Pinang"
    },
    {
        "Postcode": "13110",
        "Location": "Lorong Desa Kuala Muda 13",
        "Post_Office": "Penaga",
        "State": "Pulau Pinang"
    },
    {
        "Postcode": "13110",
        "Location": "Lorong Desa Kuala Muda 14",
        "Post_Office": "Penaga",
        "State": "Pulau Pinang"
    },
    {
        "Postcode": "13110",
        "Location": "Lorong Desa Kuala Muda 15",
        "Post_Office": "Penaga",
        "State": "Pulau Pinang"
    },
    {
        "Postcode": "13110",
        "Location": "Lorong Desa Kuala Muda 16",
        "Post_Office": "Penaga",
        "State": "Pulau Pinang"
    },
    {
        "Postcode": "13110",
        "Location": "Lorong Desa Kuala Muda 17",
        "Post_Office": "Penaga",
        "State": "Pulau Pinang"
    },
    {
        "Postcode": "13110",
        "Location": "Lorong Desa Kuala Muda 18",
        "Post_Office": "Penaga",
        "State": "Pulau Pinang"
    },
    {
        "Postcode": "13110",
        "Location": "Lorong Desa Kuala Muda 19",
        "Post_Office": "Penaga",
        "State": "Pulau Pinang"
    },
    {
        "Postcode": "13110",
        "Location": "Lorong Desa Kuala Muda 2",
        "Post_Office": "Penaga",
        "State": "Pulau Pinang"
    },
    {
        "Postcode": "13110",
        "Location": "Lorong Desa Kuala Muda 20",
        "Post_Office": "Penaga",
        "State": "Pulau Pinang"
    },
    {
        "Postcode": "13110",
        "Location": "Lorong Desa Kuala Muda 21",
        "Post_Office": "Penaga",
        "State": "Pulau Pinang"
    },
    {
        "Postcode": "13110",
        "Location": "Lorong Desa Kuala Muda 22",
        "Post_Office": "Penaga",
        "State": "Pulau Pinang"
    },
    {
        "Postcode": "13110",
        "Location": "Lorong Desa Kuala Muda 23",
        "Post_Office": "Penaga",
        "State": "Pulau Pinang"
    },
    {
        "Postcode": "13110",
        "Location": "Lorong Desa Kuala Muda 24",
        "Post_Office": "Penaga",
        "State": "Pulau Pinang"
    },
    {
        "Postcode": "13110",
        "Location": "Lorong Desa Kuala Muda 25",
        "Post_Office": "Penaga",
        "State": "Pulau Pinang"
    },
    {
        "Postcode": "13110",
        "Location": "Lorong Desa Kuala Muda 26",
        "Post_Office": "Penaga",
        "State": "Pulau Pinang"
    },
    {
        "Postcode": "13110",
        "Location": "Lorong Desa Kuala Muda 27",
        "Post_Office": "Penaga",
        "State": "Pulau Pinang"
    },
    {
        "Postcode": "13110",
        "Location": "Lorong Desa Kuala Muda 28",
        "Post_Office": "Penaga",
        "State": "Pulau Pinang"
    },
    {
        "Postcode": "13110",
        "Location": "Lorong Desa Kuala Muda 29",
        "Post_Office": "Penaga",
        "State": "Pulau Pinang"
    },
    {
        "Postcode": "13110",
        "Location": "Lorong Desa Kuala Muda 3",
        "Post_Office": "Penaga",
        "State": "Pulau Pinang"
    },
    {
        "Postcode": "13110",
        "Location": "Lorong Desa Kuala Muda 30",
        "Post_Office": "Penaga",
        "State": "Pulau Pinang"
    },
    {
        "Postcode": "13110",
        "Location": "Lorong Desa Kuala Muda 31",
        "Post_Office": "Penaga",
        "State": "Pulau Pinang"
    },
    {
        "Postcode": "13110",
        "Location": "Lorong Desa Kuala Muda 32",
        "Post_Office": "Penaga",
        "State": "Pulau Pinang"
    },
    {
        "Postcode": "13110",
        "Location": "Lorong Desa Kuala Muda 33",
        "Post_Office": "Penaga",
        "State": "Pulau Pinang"
    },
    {
        "Postcode": "13110",
        "Location": "Lorong Desa Kuala Muda 34",
        "Post_Office": "Penaga",
        "State": "Pulau Pinang"
    },
    {
        "Postcode": "13110",
        "Location": "Lorong Desa Kuala Muda 35",
        "Post_Office": "Penaga",
        "State": "Pulau Pinang"
    },
    {
        "Postcode": "13110",
        "Location": "Lorong Desa Kuala Muda 36",
        "Post_Office": "Penaga",
        "State": "Pulau Pinang"
    },
    {
        "Postcode": "13110",
        "Location": "Lorong Desa Kuala Muda 37",
        "Post_Office": "Penaga",
        "State": "Pulau Pinang"
    },
    {
        "Postcode": "13110",
        "Location": "Lorong Desa Kuala Muda 38",
        "Post_Office": "Penaga",
        "State": "Pulau Pinang"
    },
    {
        "Postcode": "13110",
        "Location": "Lorong Desa Kuala Muda 39",
        "Post_Office": "Penaga",
        "State": "Pulau Pinang"
    },
    {
        "Postcode": "13110",
        "Location": "Lorong Desa Kuala Muda 4",
        "Post_Office": "Penaga",
        "State": "Pulau Pinang"
    },
    {
        "Postcode": "13110",
        "Location": "Lorong Desa Kuala Muda 40",
        "Post_Office": "Penaga",
        "State": "Pulau Pinang"
    },
    {
        "Postcode": "13110",
        "Location": "Lorong Desa Kuala Muda 41",
        "Post_Office": "Penaga",
        "State": "Pulau Pinang"
    },
    {
        "Postcode": "13110",
        "Location": "Lorong Desa Kuala Muda 42",
        "Post_Office": "Penaga",
        "State": "Pulau Pinang"
    },
    {
        "Postcode": "13110",
        "Location": "Lorong Desa Kuala Muda 5",
        "Post_Office": "Penaga",
        "State": "Pulau Pinang"
    },
    {
        "Postcode": "13110",
        "Location": "Lorong Desa Kuala Muda 6",
        "Post_Office": "Penaga",
        "State": "Pulau Pinang"
    },
    {
        "Postcode": "13110",
        "Location": "Lorong Desa Kuala Muda 7",
        "Post_Office": "Penaga",
        "State": "Pulau Pinang"
    },
    {
        "Postcode": "13110",
        "Location": "Lorong Desa Kuala Muda 8",
        "Post_Office": "Penaga",
        "State": "Pulau Pinang"
    },
    {
        "Postcode": "13110",
        "Location": "Lorong Desa Kuala Muda 9",
        "Post_Office": "Penaga",
        "State": "Pulau Pinang"
    },
    {
        "Postcode": "13110",
        "Location": "Lorong Muda 1",
        "Post_Office": "Penaga",
        "State": "Pulau Pinang"
    },
    {
        "Postcode": "13110",
        "Location": "Lorong Muda 10",
        "Post_Office": "Penaga",
        "State": "Pulau Pinang"
    },
    {
        "Postcode": "13110",
        "Location": "Lorong Muda 11",
        "Post_Office": "Penaga",
        "State": "Pulau Pinang"
    },
    {
        "Postcode": "13110",
        "Location": "Lorong Muda 12",
        "Post_Office": "Penaga",
        "State": "Pulau Pinang"
    },
    {
        "Postcode": "13110",
        "Location": "Lorong Muda 13",
        "Post_Office": "Penaga",
        "State": "Pulau Pinang"
    },
    {
        "Postcode": "13110",
        "Location": "Lorong Muda 2",
        "Post_Office": "Penaga",
        "State": "Pulau Pinang"
    },
    {
        "Postcode": "13110",
        "Location": "Lorong Muda 3",
        "Post_Office": "Penaga",
        "State": "Pulau Pinang"
    },
    {
        "Postcode": "13110",
        "Location": "Lorong Muda 4",
        "Post_Office": "Penaga",
        "State": "Pulau Pinang"
    },
    {
        "Postcode": "13110",
        "Location": "Lorong Muda 5",
        "Post_Office": "Penaga",
        "State": "Pulau Pinang"
    },
    {
        "Postcode": "13110",
        "Location": "Lorong Muda 6",
        "Post_Office": "Penaga",
        "State": "Pulau Pinang"
    },
    {
        "Postcode": "13110",
        "Location": "Lorong Muda 7",
        "Post_Office": "Penaga",
        "State": "Pulau Pinang"
    },
    {
        "Postcode": "13110",
        "Location": "Lorong Muda 8",
        "Post_Office": "Penaga",
        "State": "Pulau Pinang"
    },
    {
        "Postcode": "13110",
        "Location": "Lorong Muda 9",
        "Post_Office": "Penaga",
        "State": "Pulau Pinang"
    },
    {
        "Postcode": "13110",
        "Location": "Kampung Gurun",
        "Post_Office": "Penaga",
        "State": "Pulau Pinang"
    },
    {
        "Postcode": "13110",
        "Location": "Kampung Tok Otek",
        "Post_Office": "Penaga",
        "State": "Pulau Pinang"
    },
    {
        "Postcode": "13110",
        "Location": "Desa Kuala Muda",
        "Post_Office": "Penaga",
        "State": "Pulau Pinang"
    },
    {
        "Postcode": "13110",
        "Location": "Jalan Atas Bakar Kapor",
        "Post_Office": "Penaga",
        "State": "Pulau Pinang"
    },
    {
        "Postcode": "13110",
        "Location": "Jalan Bawah Bakar Kapor",
        "Post_Office": "Penaga",
        "State": "Pulau Pinang"
    },
    {
        "Postcode": "13110",
        "Location": "Jalan Kuala Muda",
        "Post_Office": "Penaga",
        "State": "Pulau Pinang"
    },
    {
        "Postcode": "13110",
        "Location": "Kampung Baru Kuala Muda",
        "Post_Office": "Penaga",
        "State": "Pulau Pinang"
    },
    {
        "Postcode": "13110",
        "Location": "Kampung Kancut",
        "Post_Office": "Penaga",
        "State": "Pulau Pinang"
    },
    {
        "Postcode": "13110",
        "Location": "Kampung Lembah (Kuala Muda)",
        "Post_Office": "Penaga",
        "State": "Pulau Pinang"
    },
    {
        "Postcode": "13110",
        "Location": "Pasir Gebu",
        "Post_Office": "Penaga",
        "State": "Pulau Pinang"
    },
    {
        "Postcode": "13110",
        "Location": "Permatang Bendahari",
        "Post_Office": "Penaga",
        "State": "Pulau Pinang"
    },
    {
        "Postcode": "13110",
        "Location": "Permatang Keriang",
        "Post_Office": "Penaga",
        "State": "Pulau Pinang"
    },
    {
        "Postcode": "13110",
        "Location": "Permatang Tok Brain",
        "Post_Office": "Penaga",
        "State": "Pulau Pinang"
    },
    {
        "Postcode": "13110",
        "Location": "Permatang Tok Labu",
        "Post_Office": "Penaga",
        "State": "Pulau Pinang"
    },
    {
        "Postcode": "13110",
        "Location": "Pulau Mertajam",
        "Post_Office": "Penaga",
        "State": "Pulau Pinang"
    },
    {
        "Postcode": "13110",
        "Location": "Rumah Murah Bakar Kapor",
        "Post_Office": "Penaga",
        "State": "Pulau Pinang"
    },
    {
        "Postcode": "13110",
        "Location": "Taman Berkat Bakar Kapor",
        "Post_Office": "Penaga",
        "State": "Pulau Pinang"
    },
    {
        "Postcode": "13110",
        "Location": "Taman Perda Kuala Muda",
        "Post_Office": "Penaga",
        "State": "Pulau Pinang"
    },
    {
        "Postcode": "13110",
        "Location": "Telok Manan",
        "Post_Office": "Penaga",
        "State": "Pulau Pinang"
    }
]
