[
    {
        "Postcode": "13200",
        "Location": "Jalan Bertam Indah 2",
        "Post_Office": "Kepala Batas",
        "State": "Pulau Pinang"
    },
    {
        "Postcode": "13200",
        "Location": "Jalan Bertam Indah 3",
        "Post_Office": "Kepala Batas",
        "State": "Pulau Pinang"
    },
    {
        "Postcode": "13200",
        "Location": "Jalan Bertam Indah 4",
        "Post_Office": "Kepala Batas",
        "State": "Pulau Pinang"
    },
    {
        "Postcode": "13200",
        "Location": "Jalan Budi 1",
        "Post_Office": "Kepala Batas",
        "State": "Pulau Pinang"
    },
    {
        "Postcode": "13200",
        "Location": "Jalan Budi 2",
        "Post_Office": "Kepala Batas",
        "State": "Pulau Pinang"
    },
    {
        "Postcode": "13200",
        "Location": "Jalan Dagangan 1",
        "Post_Office": "Kepala Batas",
        "State": "Pulau Pinang"
    },
    {
        "Postcode": "13200",
        "Location": "Jalan Dagangan 2",
        "Post_Office": "Kepala Batas",
        "State": "Pulau Pinang"
    },
    {
        "Postcode": "13200",
        "Location": "Jalan Dagangan 3",
        "Post_Office": "Kepala Batas",
        "State": "Pulau Pinang"
    },
    {
        "Postcode": "13200",
        "Location": "Jalan Dagangan 4",
        "Post_Office": "Kepala Batas",
        "State": "Pulau Pinang"
    },
    {
        "Postcode": "13200",
        "Location": "Jalan Panglima 1",
        "Post_Office": "Kepala Batas",
        "State": "Pulau Pinang"
    },
    {
        "Postcode": "13200",
        "Location": "Jalan Panglima 3",
        "Post_Office": "Kepala Batas",
        "State": "Pulau Pinang"
    },
    {
        "Postcode": "13200",
        "Location": "Jalan Paya Keladi 1",
        "Post_Office": "Kepala Batas",
        "State": "Pulau Pinang"
    },
    {
        "Postcode": "13200",
        "Location": "Jalan Paya Keladi 2",
        "Post_Office": "Kepala Batas",
        "State": "Pulau Pinang"
    },
    {
        "Postcode": "13200",
        "Location": "Jalan Seri Serdang 3",
        "Post_Office": "Kepala Batas",
        "State": "Pulau Pinang"
    },
    {
        "Postcode": "13200",
        "Location": "Jalan Seri Serdang 4",
        "Post_Office": "Kepala Batas",
        "State": "Pulau Pinang"
    },
    {
        "Postcode": "13200",
        "Location": "Jalan Seri Serdang 5",
        "Post_Office": "Kepala Batas",
        "State": "Pulau Pinang"
    },
    {
        "Postcode": "13200",
        "Location": "Jalan Usahawan 1",
        "Post_Office": "Kepala Batas",
        "State": "Pulau Pinang"
    },
    {
        "Postcode": "13200",
        "Location": "Jalan Usahawan 2",
        "Post_Office": "Kepala Batas",
        "State": "Pulau Pinang"
    },
    {
        "Postcode": "13200",
        "Location": "Jalan Usahawan 3",
        "Post_Office": "Kepala Batas",
        "State": "Pulau Pinang"
    },
    {
        "Postcode": "13200",
        "Location": "Jalan Usahawan 4",
        "Post_Office": "Kepala Batas",
        "State": "Pulau Pinang"
    },
    {
        "Postcode": "13200",
        "Location": "Jalan Usahawan 5",
        "Post_Office": "Kepala Batas",
        "State": "Pulau Pinang"
    },
    {
        "Postcode": "13200",
        "Location": "Jalan Usahawan 6",
        "Post_Office": "Kepala Batas",
        "State": "Pulau Pinang"
    },
    {
        "Postcode": "13200",
        "Location": "Jalan Usahawan 7",
        "Post_Office": "Kepala Batas",
        "State": "Pulau Pinang"
    },
    {
        "Postcode": "13200",
        "Location": "Lintang Bertam Indah 1",
        "Post_Office": "Kepala Batas",
        "State": "Pulau Pinang"
    },
    {
        "Postcode": "13200",
        "Location": "Lintang Bertam Indah 3",
        "Post_Office": "Kepala Batas",
        "State": "Pulau Pinang"
    },
    {
        "Postcode": "13200",
        "Location": "Lintang Bertam Indah 5",
        "Post_Office": "Kepala Batas",
        "State": "Pulau Pinang"
    },
    {
        "Postcode": "13200",
        "Location": "Lorong Aman Putera 1",
        "Post_Office": "Kepala Batas",
        "State": "Pulau Pinang"
    },
    {
        "Postcode": "13200",
        "Location": "Lorong Aman Putera 2",
        "Post_Office": "Kepala Batas",
        "State": "Pulau Pinang"
    },
    {
        "Postcode": "13200",
        "Location": "Lorong Aman Putera 3",
        "Post_Office": "Kepala Batas",
        "State": "Pulau Pinang"
    },
    {
        "Postcode": "13200",
        "Location": "Lorong Aman Putera 4",
        "Post_Office": "Kepala Batas",
        "State": "Pulau Pinang"
    },
    {
        "Postcode": "13200",
        "Location": "Lorong Aman Putera 5",
        "Post_Office": "Kepala Batas",
        "State": "Pulau Pinang"
    },
    {
        "Postcode": "13200",
        "Location": "Lorong Bendahara 10",
        "Post_Office": "Kepala Batas",
        "State": "Pulau Pinang"
    },
    {
        "Postcode": "13200",
        "Location": "Lorong Bendahara 11",
        "Post_Office": "Kepala Batas",
        "State": "Pulau Pinang"
    },
    {
        "Postcode": "13200",
        "Location": "Lorong Bendahara 5",
        "Post_Office": "Kepala Batas",
        "State": "Pulau Pinang"
    },
    {
        "Postcode": "13200",
        "Location": "Lorong Bendahara 6",
        "Post_Office": "Kepala Batas",
        "State": "Pulau Pinang"
    },
    {
        "Postcode": "13200",
        "Location": "Lorong Bendahara 7",
        "Post_Office": "Kepala Batas",
        "State": "Pulau Pinang"
    },
    {
        "Postcode": "13200",
        "Location": "Lorong Bendahara 8",
        "Post_Office": "Kepala Batas",
        "State": "Pulau Pinang"
    },
    {
        "Postcode": "13200",
        "Location": "Lorong Bendahara 9",
        "Post_Office": "Kepala Batas",
        "State": "Pulau Pinang"
    },
    {
        "Postcode": "13200",
        "Location": "Lorong Bentara 1",
        "Post_Office": "Kepala Batas",
        "State": "Pulau Pinang"
    },
    {
        "Postcode": "13200",
        "Location": "Lorong Bentara 10",
        "Post_Office": "Kepala Batas",
        "State": "Pulau Pinang"
    },
    {
        "Postcode": "13200",
        "Location": "Lorong Bentara 11",
        "Post_Office": "Kepala Batas",
        "State": "Pulau Pinang"
    },
    {
        "Postcode": "13200",
        "Location": "Lorong Bentara 12",
        "Post_Office": "Kepala Batas",
        "State": "Pulau Pinang"
    },
    {
        "Postcode": "13200",
        "Location": "Lorong Bentara 13",
        "Post_Office": "Kepala Batas",
        "State": "Pulau Pinang"
    },
    {
        "Postcode": "13200",
        "Location": "Lorong Bentara 14",
        "Post_Office": "Kepala Batas",
        "State": "Pulau Pinang"
    },
    {
        "Postcode": "13200",
        "Location": "Lorong Bentara 15",
        "Post_Office": "Kepala Batas",
        "State": "Pulau Pinang"
    },
    {
        "Postcode": "13200",
        "Location": "Lorong Bentara 16",
        "Post_Office": "Kepala Batas",
        "State": "Pulau Pinang"
    },
    {
        "Postcode": "13200",
        "Location": "Lorong Bentara 17",
        "Post_Office": "Kepala Batas",
        "State": "Pulau Pinang"
    },
    {
        "Postcode": "13200",
        "Location": "Lorong Bentara 18",
        "Post_Office": "Kepala Batas",
        "State": "Pulau Pinang"
    },
    {
        "Postcode": "13200",
        "Location": "Lorong Bentara 19",
        "Post_Office": "Kepala Batas",
        "State": "Pulau Pinang"
    },
    {
        "Postcode": "13200",
        "Location": "Lorong Bentara 2",
        "Post_Office": "Kepala Batas",
        "State": "Pulau Pinang"
    },
    {
        "Postcode": "13200",
        "Location": "Lorong Bentara 20",
        "Post_Office": "Kepala Batas",
        "State": "Pulau Pinang"
    },
    {
        "Postcode": "13200",
        "Location": "Lorong Bentara 21",
        "Post_Office": "Kepala Batas",
        "State": "Pulau Pinang"
    },
    {
        "Postcode": "13200",
        "Location": "Lorong Bentara 22",
        "Post_Office": "Kepala Batas",
        "State": "Pulau Pinang"
    },
    {
        "Postcode": "13200",
        "Location": "Lorong Bentara 23",
        "Post_Office": "Kepala Batas",
        "State": "Pulau Pinang"
    },
    {
        "Postcode": "13200",
        "Location": "Lorong Bentara 24",
        "Post_Office": "Kepala Batas",
        "State": "Pulau Pinang"
    },
    {
        "Postcode": "13200",
        "Location": "Lorong Bentara 25",
        "Post_Office": "Kepala Batas",
        "State": "Pulau Pinang"
    },
    {
        "Postcode": "13200",
        "Location": "Lorong Bentara 3",
        "Post_Office": "Kepala Batas",
        "State": "Pulau Pinang"
    },
    {
        "Postcode": "13200",
        "Location": "Lorong Bentara 4",
        "Post_Office": "Kepala Batas",
        "State": "Pulau Pinang"
    },
    {
        "Postcode": "13200",
        "Location": "Lorong Bentara 5",
        "Post_Office": "Kepala Batas",
        "State": "Pulau Pinang"
    },
    {
        "Postcode": "13200",
        "Location": "Lorong Bentara 6",
        "Post_Office": "Kepala Batas",
        "State": "Pulau Pinang"
    },
    {
        "Postcode": "13200",
        "Location": "Lorong Bentara 7",
        "Post_Office": "Kepala Batas",
        "State": "Pulau Pinang"
    },
    {
        "Postcode": "13200",
        "Location": "Lorong Bentara 8",
        "Post_Office": "Kepala Batas",
        "State": "Pulau Pinang"
    },
    {
        "Postcode": "13200",
        "Location": "Lorong Bentara 9",
        "Post_Office": "Kepala Batas",
        "State": "Pulau Pinang"
    },
    {
        "Postcode": "13200",
        "Location": "Lorong Bertam 26",
        "Post_Office": "Kepala Batas",
        "State": "Pulau Pinang"
    },
    {
        "Postcode": "13200",
        "Location": "Lorong Bertam 27",
        "Post_Office": "Kepala Batas",
        "State": "Pulau Pinang"
    },
    {
        "Postcode": "13200",
        "Location": "Lorong Bertam 28",
        "Post_Office": "Kepala Batas",
        "State": "Pulau Pinang"
    },
    {
        "Postcode": "13200",
        "Location": "Lorong Bertam 29",
        "Post_Office": "Kepala Batas",
        "State": "Pulau Pinang"
    },
    {
        "Postcode": "13200",
        "Location": "Lorong Bertam Indah 1",
        "Post_Office": "Kepala Batas",
        "State": "Pulau Pinang"
    },
    {
        "Postcode": "13200",
        "Location": "Lorong Bertam Indah 10",
        "Post_Office": "Kepala Batas",
        "State": "Pulau Pinang"
    },
    {
        "Postcode": "13200",
        "Location": "Lorong Bertam Indah 11",
        "Post_Office": "Kepala Batas",
        "State": "Pulau Pinang"
    },
    {
        "Postcode": "13200",
        "Location": "Lorong Bertam Indah 12",
        "Post_Office": "Kepala Batas",
        "State": "Pulau Pinang"
    },
    {
        "Postcode": "13200",
        "Location": "Lorong Bertam Indah 13",
        "Post_Office": "Kepala Batas",
        "State": "Pulau Pinang"
    },
    {
        "Postcode": "13200",
        "Location": "Lorong Bertam Indah 14",
        "Post_Office": "Kepala Batas",
        "State": "Pulau Pinang"
    },
    {
        "Postcode": "13200",
        "Location": "Lorong Bertam Indah 15",
        "Post_Office": "Kepala Batas",
        "State": "Pulau Pinang"
    },
    {
        "Postcode": "13200",
        "Location": "Lorong Bertam Indah 16",
        "Post_Office": "Kepala Batas",
        "State": "Pulau Pinang"
    },
    {
        "Postcode": "13200",
        "Location": "Lorong Bertam Indah 17",
        "Post_Office": "Kepala Batas",
        "State": "Pulau Pinang"
    },
    {
        "Postcode": "13200",
        "Location": "Lorong Bertam Indah 18",
        "Post_Office": "Kepala Batas",
        "State": "Pulau Pinang"
    },
    {
        "Postcode": "13200",
        "Location": "Lorong Bertam Indah 19",
        "Post_Office": "Kepala Batas",
        "State": "Pulau Pinang"
    },
    {
        "Postcode": "13200",
        "Location": "Lorong Bertam Indah 2",
        "Post_Office": "Kepala Batas",
        "State": "Pulau Pinang"
    },
    {
        "Postcode": "13200",
        "Location": "Lorong Bertam Indah 20",
        "Post_Office": "Kepala Batas",
        "State": "Pulau Pinang"
    },
    {
        "Postcode": "13200",
        "Location": "Lorong Bertam Indah 21",
        "Post_Office": "Kepala Batas",
        "State": "Pulau Pinang"
    },
    {
        "Postcode": "13200",
        "Location": "Lorong Bertam Indah 22",
        "Post_Office": "Kepala Batas",
        "State": "Pulau Pinang"
    },
    {
        "Postcode": "13200",
        "Location": "Lorong Bertam Indah 23",
        "Post_Office": "Kepala Batas",
        "State": "Pulau Pinang"
    },
    {
        "Postcode": "13200",
        "Location": "Lorong Bertam Indah 24",
        "Post_Office": "Kepala Batas",
        "State": "Pulau Pinang"
    },
    {
        "Postcode": "13200",
        "Location": "Lorong Bertam Indah 25",
        "Post_Office": "Kepala Batas",
        "State": "Pulau Pinang"
    },
    {
        "Postcode": "13200",
        "Location": "Lorong Bertam Indah 26",
        "Post_Office": "Kepala Batas",
        "State": "Pulau Pinang"
    },
    {
        "Postcode": "13200",
        "Location": "Lorong Bertam Indah 27",
        "Post_Office": "Kepala Batas",
        "State": "Pulau Pinang"
    },
    {
        "Postcode": "13200",
        "Location": "Lorong Bertam Indah 28",
        "Post_Office": "Kepala Batas",
        "State": "Pulau Pinang"
    },
    {
        "Postcode": "13200",
        "Location": "Lorong Bertam Indah 29",
        "Post_Office": "Kepala Batas",
        "State": "Pulau Pinang"
    },
    {
        "Postcode": "13200",
        "Location": "Lorong Bertam Indah 3",
        "Post_Office": "Kepala Batas",
        "State": "Pulau Pinang"
    },
    {
        "Postcode": "13200",
        "Location": "Lorong Bertam Indah 30",
        "Post_Office": "Kepala Batas",
        "State": "Pulau Pinang"
    },
    {
        "Postcode": "13200",
        "Location": "Lorong Bertam Indah 31",
        "Post_Office": "Kepala Batas",
        "State": "Pulau Pinang"
    },
    {
        "Postcode": "13200",
        "Location": "Lorong Bertam Indah 32",
        "Post_Office": "Kepala Batas",
        "State": "Pulau Pinang"
    },
    {
        "Postcode": "13200",
        "Location": "Lorong Bertam Indah 33",
        "Post_Office": "Kepala Batas",
        "State": "Pulau Pinang"
    },
    {
        "Postcode": "13200",
        "Location": "Lorong Bertam Indah 34",
        "Post_Office": "Kepala Batas",
        "State": "Pulau Pinang"
    },
    {
        "Postcode": "13200",
        "Location": "Lorong Bertam Indah 35",
        "Post_Office": "Kepala Batas",
        "State": "Pulau Pinang"
    },
    {
        "Postcode": "13200",
        "Location": "Lorong Bertam Indah 36",
        "Post_Office": "Kepala Batas",
        "State": "Pulau Pinang"
    },
    {
        "Postcode": "13200",
        "Location": "Lorong Bertam Indah 37",
        "Post_Office": "Kepala Batas",
        "State": "Pulau Pinang"
    },
    {
        "Postcode": "13200",
        "Location": "Lorong Bertam Indah 38",
        "Post_Office": "Kepala Batas",
        "State": "Pulau Pinang"
    },
    {
        "Postcode": "13200",
        "Location": "Lorong Bertam Indah 39",
        "Post_Office": "Kepala Batas",
        "State": "Pulau Pinang"
    },
    {
        "Postcode": "13200",
        "Location": "Lorong Bertam Indah 4",
        "Post_Office": "Kepala Batas",
        "State": "Pulau Pinang"
    },
    {
        "Postcode": "13200",
        "Location": "Lorong Bertam Indah 40",
        "Post_Office": "Kepala Batas",
        "State": "Pulau Pinang"
    },
    {
        "Postcode": "13200",
        "Location": "Lorong Bertam Indah 41",
        "Post_Office": "Kepala Batas",
        "State": "Pulau Pinang"
    },
    {
        "Postcode": "13200",
        "Location": "Lorong Bertam Indah 42",
        "Post_Office": "Kepala Batas",
        "State": "Pulau Pinang"
    },
    {
        "Postcode": "13200",
        "Location": "Lorong Bertam Indah 43",
        "Post_Office": "Kepala Batas",
        "State": "Pulau Pinang"
    },
    {
        "Postcode": "13200",
        "Location": "Lorong Bertam Indah 44",
        "Post_Office": "Kepala Batas",
        "State": "Pulau Pinang"
    },
    {
        "Postcode": "13200",
        "Location": "Lorong Bertam Indah 45",
        "Post_Office": "Kepala Batas",
        "State": "Pulau Pinang"
    },
    {
        "Postcode": "13200",
        "Location": "Lorong Bertam Indah 46",
        "Post_Office": "Kepala Batas",
        "State": "Pulau Pinang"
    },
    {
        "Postcode": "13200",
        "Location": "Lorong Bertam Indah 47",
        "Post_Office": "Kepala Batas",
        "State": "Pulau Pinang"
    },
    {
        "Postcode": "13200",
        "Location": "Lorong Bertam Indah 48",
        "Post_Office": "Kepala Batas",
        "State": "Pulau Pinang"
    },
    {
        "Postcode": "13200",
        "Location": "Lorong Bertam Indah 49",
        "Post_Office": "Kepala Batas",
        "State": "Pulau Pinang"
    },
    {
        "Postcode": "13200",
        "Location": "Lorong Bertam Indah 5",
        "Post_Office": "Kepala Batas",
        "State": "Pulau Pinang"
    },
    {
        "Postcode": "13200",
        "Location": "Lorong Bertam Indah 6",
        "Post_Office": "Kepala Batas",
        "State": "Pulau Pinang"
    },
    {
        "Postcode": "13200",
        "Location": "Lorong Bertam Indah 7",
        "Post_Office": "Kepala Batas",
        "State": "Pulau Pinang"
    },
    {
        "Postcode": "13200",
        "Location": "Lorong Bertam Indah 8",
        "Post_Office": "Kepala Batas",
        "State": "Pulau Pinang"
    },
    {
        "Postcode": "13200",
        "Location": "Lorong Bertam Indah 9",
        "Post_Office": "Kepala Batas",
        "State": "Pulau Pinang"
    },
    {
        "Postcode": "13200",
        "Location": "Lorong Bertam Permai 1",
        "Post_Office": "Kepala Batas",
        "State": "Pulau Pinang"
    },
    {
        "Postcode": "13200",
        "Location": "Lorong Bertam Permai 10",
        "Post_Office": "Kepala Batas",
        "State": "Pulau Pinang"
    },
    {
        "Postcode": "13200",
        "Location": "Lorong Bertam Permai 2",
        "Post_Office": "Kepala Batas",
        "State": "Pulau Pinang"
    },
    {
        "Postcode": "13200",
        "Location": "Lorong Bertam Permai 3",
        "Post_Office": "Kepala Batas",
        "State": "Pulau Pinang"
    },
    {
        "Postcode": "13200",
        "Location": "Lorong Bertam Permai 4",
        "Post_Office": "Kepala Batas",
        "State": "Pulau Pinang"
    },
    {
        "Postcode": "13200",
        "Location": "Lorong Bertam Permai 5",
        "Post_Office": "Kepala Batas",
        "State": "Pulau Pinang"
    },
    {
        "Postcode": "13200",
        "Location": "Lorong Bertam Permai 6",
        "Post_Office": "Kepala Batas",
        "State": "Pulau Pinang"
    },
    {
        "Postcode": "13200",
        "Location": "Lorong Bertam Permai 7",
        "Post_Office": "Kepala Batas",
        "State": "Pulau Pinang"
    },
    {
        "Postcode": "13200",
        "Location": "Lorong Bertam Permai 8",
        "Post_Office": "Kepala Batas",
        "State": "Pulau Pinang"
    },
    {
        "Postcode": "13200",
        "Location": "Lorong Bertam Permai 9",
        "Post_Office": "Kepala Batas",
        "State": "Pulau Pinang"
    },
    {
        "Postcode": "13200",
        "Location": "Lorong Bertam Ria 2",
        "Post_Office": "Kepala Batas",
        "State": "Pulau Pinang"
    },
    {
        "Postcode": "13200",
        "Location": "Lorong Bertam Ria 3",
        "Post_Office": "Kepala Batas",
        "State": "Pulau Pinang"
    },
    {
        "Postcode": "13200",
        "Location": "Lorong Bertam Ria 4",
        "Post_Office": "Kepala Batas",
        "State": "Pulau Pinang"
    },
    {
        "Postcode": "13200",
        "Location": "Lorong Hulubalang 1",
        "Post_Office": "Kepala Batas",
        "State": "Pulau Pinang"
    },
    {
        "Postcode": "13200",
        "Location": "Lorong Hulubalang 10",
        "Post_Office": "Kepala Batas",
        "State": "Pulau Pinang"
    },
    {
        "Postcode": "13200",
        "Location": "Lorong Hulubalang 11",
        "Post_Office": "Kepala Batas",
        "State": "Pulau Pinang"
    },
    {
        "Postcode": "13200",
        "Location": "Lorong Hulubalang 12",
        "Post_Office": "Kepala Batas",
        "State": "Pulau Pinang"
    },
    {
        "Postcode": "13200",
        "Location": "Lorong Hulubalang 13",
        "Post_Office": "Kepala Batas",
        "State": "Pulau Pinang"
    },
    {
        "Postcode": "13200",
        "Location": "Lorong Hulubalang 2",
        "Post_Office": "Kepala Batas",
        "State": "Pulau Pinang"
    },
    {
        "Postcode": "13200",
        "Location": "Lorong Hulubalang 3",
        "Post_Office": "Kepala Batas",
        "State": "Pulau Pinang"
    },
    {
        "Postcode": "13200",
        "Location": "Lorong Hulubalang 4",
        "Post_Office": "Kepala Batas",
        "State": "Pulau Pinang"
    },
    {
        "Postcode": "13200",
        "Location": "Lorong Hulubalang 5",
        "Post_Office": "Kepala Batas",
        "State": "Pulau Pinang"
    },
    {
        "Postcode": "13200",
        "Location": "Lorong Hulubalang 6",
        "Post_Office": "Kepala Batas",
        "State": "Pulau Pinang"
    },
    {
        "Postcode": "13200",
        "Location": "Lorong Hulubalang 7",
        "Post_Office": "Kepala Batas",
        "State": "Pulau Pinang"
    },
    {
        "Postcode": "13200",
        "Location": "Kampung Baru",
        "Post_Office": "Kepala Batas",
        "State": "Pulau Pinang"
    },
    {
        "Postcode": "13200",
        "Location": "Kampung Paya",
        "Post_Office": "Kepala Batas",
        "State": "Pulau Pinang"
    },
    {
        "Postcode": "13200",
        "Location": "Kampung Rantau Panjang",
        "Post_Office": "Kepala Batas",
        "State": "Pulau Pinang"
    },
    {
        "Postcode": "13200",
        "Location": "Kampung Telok",
        "Post_Office": "Kepala Batas",
        "State": "Pulau Pinang"
    },
    {
        "Postcode": "13200",
        "Location": "Lorong Bendahara 1",
        "Post_Office": "Kepala Batas",
        "State": "Pulau Pinang"
    },
    {
        "Postcode": "13200",
        "Location": "Lorong Bendahara 2",
        "Post_Office": "Kepala Batas",
        "State": "Pulau Pinang"
    },
    {
        "Postcode": "13200",
        "Location": "Permatang Sungai Dua",
        "Post_Office": "Kepala Batas",
        "State": "Pulau Pinang"
    },
    {
        "Postcode": "13200",
        "Location": "Taman Orkid",
        "Post_Office": "Kepala Batas",
        "State": "Pulau Pinang"
    },
    {
        "Postcode": "13200",
        "Location": "Taman Seri Indah",
        "Post_Office": "Kepala Batas",
        "State": "Pulau Pinang"
    },
    {
        "Postcode": "13200",
        "Location": "Jalan Orkid Permai",
        "Post_Office": "Kepala Batas",
        "State": "Pulau Pinang"
    },
    {
        "Postcode": "13200",
        "Location": "Jalan Persiaran Pendidikan Bertam Pedana",
        "Post_Office": "Kepala Batas",
        "State": "Pulau Pinang"
    },
    {
        "Postcode": "13200",
        "Location": "Lebuh Bertam Perdana",
        "Post_Office": "Kepala Batas",
        "State": "Pulau Pinang"
    },
    {
        "Postcode": "13200",
        "Location": "Persiaran Bertam Perdana 7",
        "Post_Office": "Kepala Batas",
        "State": "Pulau Pinang"
    },
    {
        "Postcode": "13200",
        "Location": "Persiaran Perindustrian Bertam Pedana",
        "Post_Office": "Kepala Batas",
        "State": "Pulau Pinang"
    },
    {
        "Postcode": "13200",
        "Location": "Pusat Bandar Bertam Perdana",
        "Post_Office": "Kepala Batas",
        "State": "Pulau Pinang"
    },
    {
        "Postcode": "13200",
        "Location": "Taman Orkid Permai",
        "Post_Office": "Kepala Batas",
        "State": "Pulau Pinang"
    },
    {
        "Postcode": "13200",
        "Location": "Taman Pendidikkan Bertam Perdana",
        "Post_Office": "Kepala Batas",
        "State": "Pulau Pinang"
    },
    {
        "Postcode": "13200",
        "Location": "Taman Perindustrian Bertam Perdana",
        "Post_Office": "Kepala Batas",
        "State": "Pulau Pinang"
    },
    {
        "Postcode": "13200",
        "Location": "Lorong Hulubalang 8",
        "Post_Office": "Kepala Batas",
        "State": "Pulau Pinang"
    },
    {
        "Postcode": "13200",
        "Location": "Lorong Hulubalang 9",
        "Post_Office": "Kepala Batas",
        "State": "Pulau Pinang"
    },
    {
        "Postcode": "13200",
        "Location": "Lorong Indera Putra 1",
        "Post_Office": "Kepala Batas",
        "State": "Pulau Pinang"
    },
    {
        "Postcode": "13200",
        "Location": "Lorong Indera Putra 10",
        "Post_Office": "Kepala Batas",
        "State": "Pulau Pinang"
    },
    {
        "Postcode": "13200",
        "Location": "Lorong Indera Putra 11",
        "Post_Office": "Kepala Batas",
        "State": "Pulau Pinang"
    },
    {
        "Postcode": "13200",
        "Location": "Lorong Indera Putra 12",
        "Post_Office": "Kepala Batas",
        "State": "Pulau Pinang"
    },
    {
        "Postcode": "13200",
        "Location": "Lorong Indera Putra 2",
        "Post_Office": "Kepala Batas",
        "State": "Pulau Pinang"
    },
    {
        "Postcode": "13200",
        "Location": "Lorong Indera Putra 3",
        "Post_Office": "Kepala Batas",
        "State": "Pulau Pinang"
    },
    {
        "Postcode": "13200",
        "Location": "Lorong Indera Putra 4",
        "Post_Office": "Kepala Batas",
        "State": "Pulau Pinang"
    },
    {
        "Postcode": "13200",
        "Location": "Lorong Indera Putra 5",
        "Post_Office": "Kepala Batas",
        "State": "Pulau Pinang"
    },
    {
        "Postcode": "13200",
        "Location": "Lorong Indera Putra 6",
        "Post_Office": "Kepala Batas",
        "State": "Pulau Pinang"
    },
    {
        "Postcode": "13200",
        "Location": "Lorong Indera Putra 7",
        "Post_Office": "Kepala Batas",
        "State": "Pulau Pinang"
    },
    {
        "Postcode": "13200",
        "Location": "Lorong Indera Putra 8",
        "Post_Office": "Kepala Batas",
        "State": "Pulau Pinang"
    },
    {
        "Postcode": "13200",
        "Location": "Lorong Indera Putra 9",
        "Post_Office": "Kepala Batas",
        "State": "Pulau Pinang"
    },
    {
        "Postcode": "13200",
        "Location": "Lorong Maju 1",
        "Post_Office": "Kepala Batas",
        "State": "Pulau Pinang"
    },
    {
        "Postcode": "13200",
        "Location": "Lorong Maju 2",
        "Post_Office": "Kepala Batas",
        "State": "Pulau Pinang"
    },
    {
        "Postcode": "13200",
        "Location": "Lorong Maju 3",
        "Post_Office": "Kepala Batas",
        "State": "Pulau Pinang"
    },
    {
        "Postcode": "13200",
        "Location": "Lorong Maju 4",
        "Post_Office": "Kepala Batas",
        "State": "Pulau Pinang"
    },
    {
        "Postcode": "13200",
        "Location": "Lorong Maju 5",
        "Post_Office": "Kepala Batas",
        "State": "Pulau Pinang"
    },
    {
        "Postcode": "13200",
        "Location": "Lorong Malinja 1",
        "Post_Office": "Kepala Batas",
        "State": "Pulau Pinang"
    },
    {
        "Postcode": "13200",
        "Location": "Lorong Malinja 2",
        "Post_Office": "Kepala Batas",
        "State": "Pulau Pinang"
    },
    {
        "Postcode": "13200",
        "Location": "Lorong Panglima 10",
        "Post_Office": "Kepala Batas",
        "State": "Pulau Pinang"
    },
    {
        "Postcode": "13200",
        "Location": "Lorong Panglima 11",
        "Post_Office": "Kepala Batas",
        "State": "Pulau Pinang"
    },
    {
        "Postcode": "13200",
        "Location": "Lorong Panglima 12",
        "Post_Office": "Kepala Batas",
        "State": "Pulau Pinang"
    },
    {
        "Postcode": "13200",
        "Location": "Lorong Panglima 13",
        "Post_Office": "Kepala Batas",
        "State": "Pulau Pinang"
    },
    {
        "Postcode": "13200",
        "Location": "Lorong Panglima 14",
        "Post_Office": "Kepala Batas",
        "State": "Pulau Pinang"
    },
    {
        "Postcode": "13200",
        "Location": "Lorong Panglima 15",
        "Post_Office": "Kepala Batas",
        "State": "Pulau Pinang"
    },
    {
        "Postcode": "13200",
        "Location": "Lorong Panglima 16",
        "Post_Office": "Kepala Batas",
        "State": "Pulau Pinang"
    },
    {
        "Postcode": "13200",
        "Location": "Lorong Panglima 17",
        "Post_Office": "Kepala Batas",
        "State": "Pulau Pinang"
    },
    {
        "Postcode": "13200",
        "Location": "Lorong Panglima 18",
        "Post_Office": "Kepala Batas",
        "State": "Pulau Pinang"
    },
    {
        "Postcode": "13200",
        "Location": "Lorong Panglima 19",
        "Post_Office": "Kepala Batas",
        "State": "Pulau Pinang"
    },
    {
        "Postcode": "13200",
        "Location": "Lorong Panglima 2",
        "Post_Office": "Kepala Batas",
        "State": "Pulau Pinang"
    },
    {
        "Postcode": "13200",
        "Location": "Lorong Panglima 20",
        "Post_Office": "Kepala Batas",
        "State": "Pulau Pinang"
    },
    {
        "Postcode": "13200",
        "Location": "Lorong Panglima 21",
        "Post_Office": "Kepala Batas",
        "State": "Pulau Pinang"
    },
    {
        "Postcode": "13200",
        "Location": "Lorong Panglima 22",
        "Post_Office": "Kepala Batas",
        "State": "Pulau Pinang"
    },
    {
        "Postcode": "13200",
        "Location": "Lorong Panglima 23",
        "Post_Office": "Kepala Batas",
        "State": "Pulau Pinang"
    },
    {
        "Postcode": "13200",
        "Location": "Lorong Panglima 24",
        "Post_Office": "Kepala Batas",
        "State": "Pulau Pinang"
    },
    {
        "Postcode": "13200",
        "Location": "Lorong Panglima 25",
        "Post_Office": "Kepala Batas",
        "State": "Pulau Pinang"
    },
    {
        "Postcode": "13200",
        "Location": "Lorong Panglima 26",
        "Post_Office": "Kepala Batas",
        "State": "Pulau Pinang"
    },
    {
        "Postcode": "13200",
        "Location": "Lorong Panglima 27",
        "Post_Office": "Kepala Batas",
        "State": "Pulau Pinang"
    },
    {
        "Postcode": "13200",
        "Location": "Lorong Panglima 28",
        "Post_Office": "Kepala Batas",
        "State": "Pulau Pinang"
    },
    {
        "Postcode": "13200",
        "Location": "Lorong Panglima 3",
        "Post_Office": "Kepala Batas",
        "State": "Pulau Pinang"
    },
    {
        "Postcode": "13200",
        "Location": "Lorong Panglima 4",
        "Post_Office": "Kepala Batas",
        "State": "Pulau Pinang"
    },
    {
        "Postcode": "13200",
        "Location": "Lorong Panglima 5",
        "Post_Office": "Kepala Batas",
        "State": "Pulau Pinang"
    },
    {
        "Postcode": "13200",
        "Location": "Lorong Panglima 6",
        "Post_Office": "Kepala Batas",
        "State": "Pulau Pinang"
    },
    {
        "Postcode": "13200",
        "Location": "Lorong Panglima 7",
        "Post_Office": "Kepala Batas",
        "State": "Pulau Pinang"
    },
    {
        "Postcode": "13200",
        "Location": "Lorong Panglima 8",
        "Post_Office": "Kepala Batas",
        "State": "Pulau Pinang"
    },
    {
        "Postcode": "13200",
        "Location": "Lorong Panglima 9",
        "Post_Office": "Kepala Batas",
        "State": "Pulau Pinang"
    },
    {
        "Postcode": "13200",
        "Location": "Lorong Paya Keladi 2",
        "Post_Office": "Kepala Batas",
        "State": "Pulau Pinang"
    },
    {
        "Postcode": "13200",
        "Location": "Lorong Paya Keladi 3",
        "Post_Office": "Kepala Batas",
        "State": "Pulau Pinang"
    },
    {
        "Postcode": "13200",
        "Location": "Lorong Paya Keladi 4",
        "Post_Office": "Kepala Batas",
        "State": "Pulau Pinang"
    },
    {
        "Postcode": "13200",
        "Location": "Lorong Paya Keladi 5",
        "Post_Office": "Kepala Batas",
        "State": "Pulau Pinang"
    },
    {
        "Postcode": "13200",
        "Location": "Lorong Rupawan 1",
        "Post_Office": "Kepala Batas",
        "State": "Pulau Pinang"
    },
    {
        "Postcode": "13200",
        "Location": "Lorong Rupawan 2",
        "Post_Office": "Kepala Batas",
        "State": "Pulau Pinang"
    },
    {
        "Postcode": "13200",
        "Location": "Lorong Rupawan 3",
        "Post_Office": "Kepala Batas",
        "State": "Pulau Pinang"
    },
    {
        "Postcode": "13200",
        "Location": "Lorong Rupawan 4",
        "Post_Office": "Kepala Batas",
        "State": "Pulau Pinang"
    },
    {
        "Postcode": "13200",
        "Location": "Lorong Rupawan 5",
        "Post_Office": "Kepala Batas",
        "State": "Pulau Pinang"
    },
    {
        "Postcode": "13200",
        "Location": "Lorong Rupawan 6",
        "Post_Office": "Kepala Batas",
        "State": "Pulau Pinang"
    },
    {
        "Postcode": "13200",
        "Location": "Lorong Rupawan 7",
        "Post_Office": "Kepala Batas",
        "State": "Pulau Pinang"
    },
    {
        "Postcode": "13200",
        "Location": "Lorong Seri Bertam 2",
        "Post_Office": "Kepala Batas",
        "State": "Pulau Pinang"
    },
    {
        "Postcode": "13200",
        "Location": "Lorong Seri Bertam 3",
        "Post_Office": "Kepala Batas",
        "State": "Pulau Pinang"
    },
    {
        "Postcode": "13200",
        "Location": "Lorong Seri Bertam 4",
        "Post_Office": "Kepala Batas",
        "State": "Pulau Pinang"
    },
    {
        "Postcode": "13200",
        "Location": "Lorong Seri Bertam 5",
        "Post_Office": "Kepala Batas",
        "State": "Pulau Pinang"
    },
    {
        "Postcode": "13200",
        "Location": "Lorong Seri Bertam 6",
        "Post_Office": "Kepala Batas",
        "State": "Pulau Pinang"
    },
    {
        "Postcode": "13200",
        "Location": "Lorong Seri Indah 1",
        "Post_Office": "Kepala Batas",
        "State": "Pulau Pinang"
    },
    {
        "Postcode": "13200",
        "Location": "Lorong Seri Indah 10",
        "Post_Office": "Kepala Batas",
        "State": "Pulau Pinang"
    },
    {
        "Postcode": "13200",
        "Location": "Lorong Seri Indah 2",
        "Post_Office": "Kepala Batas",
        "State": "Pulau Pinang"
    },
    {
        "Postcode": "13200",
        "Location": "Lorong Seri Indah 3",
        "Post_Office": "Kepala Batas",
        "State": "Pulau Pinang"
    },
    {
        "Postcode": "13200",
        "Location": "Lorong Seri Indah 4",
        "Post_Office": "Kepala Batas",
        "State": "Pulau Pinang"
    },
    {
        "Postcode": "13200",
        "Location": "Lorong Seri Indah 5",
        "Post_Office": "Kepala Batas",
        "State": "Pulau Pinang"
    },
    {
        "Postcode": "13200",
        "Location": "Lorong Seri Indah 6",
        "Post_Office": "Kepala Batas",
        "State": "Pulau Pinang"
    },
    {
        "Postcode": "13200",
        "Location": "Lorong Seri Indah 7",
        "Post_Office": "Kepala Batas",
        "State": "Pulau Pinang"
    },
    {
        "Postcode": "13200",
        "Location": "Lorong Seri Indah 8",
        "Post_Office": "Kepala Batas",
        "State": "Pulau Pinang"
    },
    {
        "Postcode": "13200",
        "Location": "Lorong Seri Indah 9",
        "Post_Office": "Kepala Batas",
        "State": "Pulau Pinang"
    },
    {
        "Postcode": "13200",
        "Location": "Lorong Seri Serdang 1/1 ",
        "Post_Office": "Kepala Batas",
        "State": "Pulau Pinang"
    },
    {
        "Postcode": "13200",
        "Location": "Lorong Seri Serdang 4/11",
        "Post_Office": "Kepala Batas",
        "State": "Pulau Pinang"
    },
    {
        "Postcode": "13200",
        "Location": "Lorong Shahbandar 1",
        "Post_Office": "Kepala Batas",
        "State": "Pulau Pinang"
    },
    {
        "Postcode": "13200",
        "Location": "Lorong Shahbandar 10",
        "Post_Office": "Kepala Batas",
        "State": "Pulau Pinang"
    },
    {
        "Postcode": "13200",
        "Location": "Lorong Shahbandar 11",
        "Post_Office": "Kepala Batas",
        "State": "Pulau Pinang"
    },
    {
        "Postcode": "13200",
        "Location": "Lorong Shahbandar 12",
        "Post_Office": "Kepala Batas",
        "State": "Pulau Pinang"
    },
    {
        "Postcode": "13200",
        "Location": "Lorong Shahbandar 13",
        "Post_Office": "Kepala Batas",
        "State": "Pulau Pinang"
    },
    {
        "Postcode": "13200",
        "Location": "Lorong Shahbandar 14",
        "Post_Office": "Kepala Batas",
        "State": "Pulau Pinang"
    },
    {
        "Postcode": "13200",
        "Location": "Lorong Shahbandar 15",
        "Post_Office": "Kepala Batas",
        "State": "Pulau Pinang"
    },
    {
        "Postcode": "13200",
        "Location": "Lorong Shahbandar 16",
        "Post_Office": "Kepala Batas",
        "State": "Pulau Pinang"
    },
    {
        "Postcode": "13200",
        "Location": "Lorong Shahbandar 17",
        "Post_Office": "Kepala Batas",
        "State": "Pulau Pinang"
    },
    {
        "Postcode": "13200",
        "Location": "Lorong Shahbandar 18",
        "Post_Office": "Kepala Batas",
        "State": "Pulau Pinang"
    },
    {
        "Postcode": "13200",
        "Location": "Lorong Shahbandar 19",
        "Post_Office": "Kepala Batas",
        "State": "Pulau Pinang"
    },
    {
        "Postcode": "13200",
        "Location": "Lorong Shahbandar 2",
        "Post_Office": "Kepala Batas",
        "State": "Pulau Pinang"
    },
    {
        "Postcode": "13200",
        "Location": "Lorong Shahbandar 20",
        "Post_Office": "Kepala Batas",
        "State": "Pulau Pinang"
    },
    {
        "Postcode": "13200",
        "Location": "Lorong Shahbandar 21",
        "Post_Office": "Kepala Batas",
        "State": "Pulau Pinang"
    },
    {
        "Postcode": "13200",
        "Location": "Lorong Shahbandar 22",
        "Post_Office": "Kepala Batas",
        "State": "Pulau Pinang"
    },
    {
        "Postcode": "13200",
        "Location": "Lorong Shahbandar 23",
        "Post_Office": "Kepala Batas",
        "State": "Pulau Pinang"
    },
    {
        "Postcode": "13200",
        "Location": "Lorong Shahbandar 24",
        "Post_Office": "Kepala Batas",
        "State": "Pulau Pinang"
    },
    {
        "Postcode": "13200",
        "Location": "Lorong Shahbandar 25",
        "Post_Office": "Kepala Batas",
        "State": "Pulau Pinang"
    },
    {
        "Postcode": "13200",
        "Location": "Lorong Shahbandar 26",
        "Post_Office": "Kepala Batas",
        "State": "Pulau Pinang"
    },
    {
        "Postcode": "13200",
        "Location": "Lorong Shahbandar 27",
        "Post_Office": "Kepala Batas",
        "State": "Pulau Pinang"
    },
    {
        "Postcode": "13200",
        "Location": "Lorong Shahbandar 28",
        "Post_Office": "Kepala Batas",
        "State": "Pulau Pinang"
    },
    {
        "Postcode": "13200",
        "Location": "Lorong Shahbandar 29",
        "Post_Office": "Kepala Batas",
        "State": "Pulau Pinang"
    },
    {
        "Postcode": "13200",
        "Location": "Lorong Shahbandar 3",
        "Post_Office": "Kepala Batas",
        "State": "Pulau Pinang"
    },
    {
        "Postcode": "13200",
        "Location": "Lorong Shahbandar 30",
        "Post_Office": "Kepala Batas",
        "State": "Pulau Pinang"
    },
    {
        "Postcode": "13200",
        "Location": "Lorong Shahbandar 31",
        "Post_Office": "Kepala Batas",
        "State": "Pulau Pinang"
    },
    {
        "Postcode": "13200",
        "Location": "Lorong Shahbandar 32",
        "Post_Office": "Kepala Batas",
        "State": "Pulau Pinang"
    },
    {
        "Postcode": "13200",
        "Location": "Lorong Shahbandar 33",
        "Post_Office": "Kepala Batas",
        "State": "Pulau Pinang"
    },
    {
        "Postcode": "13200",
        "Location": "Lorong Shahbandar 34",
        "Post_Office": "Kepala Batas",
        "State": "Pulau Pinang"
    },
    {
        "Postcode": "13200",
        "Location": "Lorong Shahbandar 35",
        "Post_Office": "Kepala Batas",
        "State": "Pulau Pinang"
    },
    {
        "Postcode": "13200",
        "Location": "Lorong Shahbandar 36",
        "Post_Office": "Kepala Batas",
        "State": "Pulau Pinang"
    },
    {
        "Postcode": "13200",
        "Location": "Lorong Shahbandar 37",
        "Post_Office": "Kepala Batas",
        "State": "Pulau Pinang"
    },
    {
        "Postcode": "13200",
        "Location": "Lorong Shahbandar 38",
        "Post_Office": "Kepala Batas",
        "State": "Pulau Pinang"
    },
    {
        "Postcode": "13200",
        "Location": "Lorong Shahbandar 39",
        "Post_Office": "Kepala Batas",
        "State": "Pulau Pinang"
    },
    {
        "Postcode": "13200",
        "Location": "Lorong Shahbandar 4",
        "Post_Office": "Kepala Batas",
        "State": "Pulau Pinang"
    },
    {
        "Postcode": "13200",
        "Location": "Lorong Shahbandar 40",
        "Post_Office": "Kepala Batas",
        "State": "Pulau Pinang"
    },
    {
        "Postcode": "13200",
        "Location": "Lorong Shahbandar 41",
        "Post_Office": "Kepala Batas",
        "State": "Pulau Pinang"
    },
    {
        "Postcode": "13200",
        "Location": "Lorong Shahbandar 42",
        "Post_Office": "Kepala Batas",
        "State": "Pulau Pinang"
    },
    {
        "Postcode": "13200",
        "Location": "Lorong Shahbandar 43",
        "Post_Office": "Kepala Batas",
        "State": "Pulau Pinang"
    },
    {
        "Postcode": "13200",
        "Location": "Lorong Shahbandar 5",
        "Post_Office": "Kepala Batas",
        "State": "Pulau Pinang"
    },
    {
        "Postcode": "13200",
        "Location": "Lorong Shahbandar 6",
        "Post_Office": "Kepala Batas",
        "State": "Pulau Pinang"
    },
    {
        "Postcode": "13200",
        "Location": "Lorong Shahbandar 7",
        "Post_Office": "Kepala Batas",
        "State": "Pulau Pinang"
    },
    {
        "Postcode": "13200",
        "Location": "Lorong Shahbandar 8",
        "Post_Office": "Kepala Batas",
        "State": "Pulau Pinang"
    },
    {
        "Postcode": "13200",
        "Location": "Lorong Shahbandar 9",
        "Post_Office": "Kepala Batas",
        "State": "Pulau Pinang"
    },
    {
        "Postcode": "13200",
        "Location": "Lorong Tanjung 1",
        "Post_Office": "Kepala Batas",
        "State": "Pulau Pinang"
    },
    {
        "Postcode": "13200",
        "Location": "Lorong Tanjung 2",
        "Post_Office": "Kepala Batas",
        "State": "Pulau Pinang"
    },
    {
        "Postcode": "13200",
        "Location": "Lorong Tanjung 3",
        "Post_Office": "Kepala Batas",
        "State": "Pulau Pinang"
    },
    {
        "Postcode": "13200",
        "Location": "Lorong Tanjung 4",
        "Post_Office": "Kepala Batas",
        "State": "Pulau Pinang"
    },
    {
        "Postcode": "13200",
        "Location": "Lorong Tanjung 5",
        "Post_Office": "Kepala Batas",
        "State": "Pulau Pinang"
    },
    {
        "Postcode": "13200",
        "Location": "Lorong Tanjung 6",
        "Post_Office": "Kepala Batas",
        "State": "Pulau Pinang"
    },
    {
        "Postcode": "13200",
        "Location": "Lorong Tanjung 7",
        "Post_Office": "Kepala Batas",
        "State": "Pulau Pinang"
    },
    {
        "Postcode": "13200",
        "Location": "Medan Maju 6",
        "Post_Office": "Kepala Batas",
        "State": "Pulau Pinang"
    },
    {
        "Postcode": "13200",
        "Location": "Medan Maju 7",
        "Post_Office": "Kepala Batas",
        "State": "Pulau Pinang"
    },
    {
        "Postcode": "13200",
        "Location": "Permatang Tinggi A",
        "Post_Office": "Kepala Batas",
        "State": "Pulau Pinang"
    },
    {
        "Postcode": "13200",
        "Location": "Permatang Tinggi B",
        "Post_Office": "Kepala Batas",
        "State": "Pulau Pinang"
    },
    {
        "Postcode": "13200",
        "Location": "Permatang Tinggi C",
        "Post_Office": "Kepala Batas",
        "State": "Pulau Pinang"
    },
    {
        "Postcode": "13200",
        "Location": "Persiaran Bertam 1",
        "Post_Office": "Kepala Batas",
        "State": "Pulau Pinang"
    },
    {
        "Postcode": "13200",
        "Location": "Persiaran Bertam 2",
        "Post_Office": "Kepala Batas",
        "State": "Pulau Pinang"
    },
    {
        "Postcode": "13200",
        "Location": "Persiaran Bertam 3",
        "Post_Office": "Kepala Batas",
        "State": "Pulau Pinang"
    },
    {
        "Postcode": "13200",
        "Location": "Persiaran Bertam 4",
        "Post_Office": "Kepala Batas",
        "State": "Pulau Pinang"
    },
    {
        "Postcode": "13200",
        "Location": "Persiaran Bertam 5",
        "Post_Office": "Kepala Batas",
        "State": "Pulau Pinang"
    },
    {
        "Postcode": "13200",
        "Location": "Persiaran Bertam 6",
        "Post_Office": "Kepala Batas",
        "State": "Pulau Pinang"
    },
    {
        "Postcode": "13200",
        "Location": "Persiaran Bertam 7",
        "Post_Office": "Kepala Batas",
        "State": "Pulau Pinang"
    },
    {
        "Postcode": "13200",
        "Location": "Persiaran Bertam 8",
        "Post_Office": "Kepala Batas",
        "State": "Pulau Pinang"
    },
    {
        "Postcode": "13200",
        "Location": "Persiaran Bertam 9",
        "Post_Office": "Kepala Batas",
        "State": "Pulau Pinang"
    },
    {
        "Postcode": "13200",
        "Location": "Persiaran Seksyen 2/1",
        "Post_Office": "Kepala Batas",
        "State": "Pulau Pinang"
    },
    {
        "Postcode": "13200",
        "Location": "Persiaran Seksyen 2/2",
        "Post_Office": "Kepala Batas",
        "State": "Pulau Pinang"
    },
    {
        "Postcode": "13200",
        "Location": "Persiaran Seksyen 2/3",
        "Post_Office": "Kepala Batas",
        "State": "Pulau Pinang"
    },
    {
        "Postcode": "13200",
        "Location": "Persiaran Seksyen 2/4",
        "Post_Office": "Kepala Batas",
        "State": "Pulau Pinang"
    },
    {
        "Postcode": "13200",
        "Location": "Persiaran Seksyen 2/5",
        "Post_Office": "Kepala Batas",
        "State": "Pulau Pinang"
    },
    {
        "Postcode": "13200",
        "Location": "Persiaran Seksyen 2/6",
        "Post_Office": "Kepala Batas",
        "State": "Pulau Pinang"
    },
    {
        "Postcode": "13200",
        "Location": "Persiaran Seksyen 2/7",
        "Post_Office": "Kepala Batas",
        "State": "Pulau Pinang"
    },
    {
        "Postcode": "13200",
        "Location": "Persiaran Seksyen 2/8",
        "Post_Office": "Kepala Batas",
        "State": "Pulau Pinang"
    },
    {
        "Postcode": "13200",
        "Location": "Persiaran Seksyen 2/9",
        "Post_Office": "Kepala Batas",
        "State": "Pulau Pinang"
    },
    {
        "Postcode": "13200",
        "Location": "Persiaran Seksyen 2/10",
        "Post_Office": "Kepala Batas",
        "State": "Pulau Pinang"
    },
    {
        "Postcode": "13200",
        "Location": "Persiaran Seksyen 2/11",
        "Post_Office": "Kepala Batas",
        "State": "Pulau Pinang"
    },
    {
        "Postcode": "13200",
        "Location": "Persiaran Seksyen 2/12",
        "Post_Office": "Kepala Batas",
        "State": "Pulau Pinang"
    },
    {
        "Postcode": "13200",
        "Location": "Persiaran Seksyen 2/13",
        "Post_Office": "Kepala Batas",
        "State": "Pulau Pinang"
    },
    {
        "Postcode": "13200",
        "Location": "Persiaran Seksyen 2/14",
        "Post_Office": "Kepala Batas",
        "State": "Pulau Pinang"
    },
    {
        "Postcode": "13200",
        "Location": "Persiaran Seksyen 2/15",
        "Post_Office": "Kepala Batas",
        "State": "Pulau Pinang"
    },
    {
        "Postcode": "13200",
        "Location": "Persiaran Seksyen 3/1",
        "Post_Office": "Kepala Batas",
        "State": "Pulau Pinang"
    },
    {
        "Postcode": "13200",
        "Location": "Persiaran Seksyen 3/2",
        "Post_Office": "Kepala Batas",
        "State": "Pulau Pinang"
    },
    {
        "Postcode": "13200",
        "Location": "Persiaran Seksyen 3/3",
        "Post_Office": "Kepala Batas",
        "State": "Pulau Pinang"
    },
    {
        "Postcode": "13200",
        "Location": "Persiaran Seksyen 3/4",
        "Post_Office": "Kepala Batas",
        "State": "Pulau Pinang"
    },
    {
        "Postcode": "13200",
        "Location": "Persiaran Seksyen 3/5",
        "Post_Office": "Kepala Batas",
        "State": "Pulau Pinang"
    },
    {
        "Postcode": "13200",
        "Location": "Persiaran Seksyen 3/6",
        "Post_Office": "Kepala Batas",
        "State": "Pulau Pinang"
    },
    {
        "Postcode": "13200",
        "Location": "Persiaran Seksyen 3/7",
        "Post_Office": "Kepala Batas",
        "State": "Pulau Pinang"
    },
    {
        "Postcode": "13200",
        "Location": "Persiaran Seksyen 3/8",
        "Post_Office": "Kepala Batas",
        "State": "Pulau Pinang"
    },
    {
        "Postcode": "13200",
        "Location": "Persiaran Seksyen 3/9",
        "Post_Office": "Kepala Batas",
        "State": "Pulau Pinang"
    },
    {
        "Postcode": "13200",
        "Location": "Persiaran Seksyen 3/10",
        "Post_Office": "Kepala Batas",
        "State": "Pulau Pinang"
    },
    {
        "Postcode": "13200",
        "Location": "Persiaran Seksyen 3/11",
        "Post_Office": "Kepala Batas",
        "State": "Pulau Pinang"
    },
    {
        "Postcode": "13200",
        "Location": "Persiaran Seksyen 3/12",
        "Post_Office": "Kepala Batas",
        "State": "Pulau Pinang"
    },
    {
        "Postcode": "13200",
        "Location": "Persiaran Seksyen 3/13",
        "Post_Office": "Kepala Batas",
        "State": "Pulau Pinang"
    },
    {
        "Postcode": "13200",
        "Location": "Persiaran Seksyen 3/14",
        "Post_Office": "Kepala Batas",
        "State": "Pulau Pinang"
    },
    {
        "Postcode": "13200",
        "Location": "Persiaran Seksyen 3/15",
        "Post_Office": "Kepala Batas",
        "State": "Pulau Pinang"
    },
    {
        "Postcode": "13200",
        "Location": "Persiaran Seksyen 3/16",
        "Post_Office": "Kepala Batas",
        "State": "Pulau Pinang"
    },
    {
        "Postcode": "13200",
        "Location": "Persiaran Seksyen 3/17",
        "Post_Office": "Kepala Batas",
        "State": "Pulau Pinang"
    },
    {
        "Postcode": "13200",
        "Location": "Persiaran Seksyen 3/18",
        "Post_Office": "Kepala Batas",
        "State": "Pulau Pinang"
    },
    {
        "Postcode": "13200",
        "Location": "Persiaran Seksyen 3/19",
        "Post_Office": "Kepala Batas",
        "State": "Pulau Pinang"
    },
    {
        "Postcode": "13200",
        "Location": "Persiaran Seksyen 3/20",
        "Post_Office": "Kepala Batas",
        "State": "Pulau Pinang"
    },
    {
        "Postcode": "13200",
        "Location": "Persiaran Seksyen 4/1",
        "Post_Office": "Kepala Batas",
        "State": "Pulau Pinang"
    },
    {
        "Postcode": "13200",
        "Location": "Persiaran Seksyen 4/2",
        "Post_Office": "Kepala Batas",
        "State": "Pulau Pinang"
    },
    {
        "Postcode": "13200",
        "Location": "Persiaran Seksyen 4/3",
        "Post_Office": "Kepala Batas",
        "State": "Pulau Pinang"
    },
    {
        "Postcode": "13200",
        "Location": "Persiaran Seksyen 4/4",
        "Post_Office": "Kepala Batas",
        "State": "Pulau Pinang"
    },
    {
        "Postcode": "13200",
        "Location": "Persiaran Seksyen 4/5",
        "Post_Office": "Kepala Batas",
        "State": "Pulau Pinang"
    },
    {
        "Postcode": "13200",
        "Location": "Persiaran Seksyen 4/6",
        "Post_Office": "Kepala Batas",
        "State": "Pulau Pinang"
    },
    {
        "Postcode": "13200",
        "Location": "Persiaran Seksyen 4/7",
        "Post_Office": "Kepala Batas",
        "State": "Pulau Pinang"
    },
    {
        "Postcode": "13200",
        "Location": "Persiaran Seksyen 4/8",
        "Post_Office": "Kepala Batas",
        "State": "Pulau Pinang"
    },
    {
        "Postcode": "13200",
        "Location": "Persiaran Seksyen 4/9",
        "Post_Office": "Kepala Batas",
        "State": "Pulau Pinang"
    },
    {
        "Postcode": "13200",
        "Location": "Persiaran Seksyen 4/10",
        "Post_Office": "Kepala Batas",
        "State": "Pulau Pinang"
    },
    {
        "Postcode": "13200",
        "Location": "Persiaran Seksyen 4/12",
        "Post_Office": "Kepala Batas",
        "State": "Pulau Pinang"
    },
    {
        "Postcode": "13200",
        "Location": "Persiaran Seksyen 4/14",
        "Post_Office": "Kepala Batas",
        "State": "Pulau Pinang"
    },
    {
        "Postcode": "13200",
        "Location": "Persiaran Seksyen 4/16",
        "Post_Office": "Kepala Batas",
        "State": "Pulau Pinang"
    },
    {
        "Postcode": "13200",
        "Location": "Persiaran Seksyen 4/18",
        "Post_Office": "Kepala Batas",
        "State": "Pulau Pinang"
    },
    {
        "Postcode": "13200",
        "Location": "Persiaran Seksyen 5/1",
        "Post_Office": "Kepala Batas",
        "State": "Pulau Pinang"
    },
    {
        "Postcode": "13200",
        "Location": "Persiaran Seksyen 5/2",
        "Post_Office": "Kepala Batas",
        "State": "Pulau Pinang"
    },
    {
        "Postcode": "13200",
        "Location": "Persiaran Seksyen 5/3",
        "Post_Office": "Kepala Batas",
        "State": "Pulau Pinang"
    },
    {
        "Postcode": "13200",
        "Location": "Persiaran Seksyen 5/4",
        "Post_Office": "Kepala Batas",
        "State": "Pulau Pinang"
    },
    {
        "Postcode": "13200",
        "Location": "Persiaran Seksyen 5/5",
        "Post_Office": "Kepala Batas",
        "State": "Pulau Pinang"
    },
    {
        "Postcode": "13200",
        "Location": "Persiaran Seksyen 5/6",
        "Post_Office": "Kepala Batas",
        "State": "Pulau Pinang"
    },
    {
        "Postcode": "13200",
        "Location": "Persiaran Seksyen 5/7",
        "Post_Office": "Kepala Batas",
        "State": "Pulau Pinang"
    },
    {
        "Postcode": "13200",
        "Location": "Persiaran Seksyen 5/8",
        "Post_Office": "Kepala Batas",
        "State": "Pulau Pinang"
    },
    {
        "Postcode": "13200",
        "Location": "Persiaran Seksyen 5/9",
        "Post_Office": "Kepala Batas",
        "State": "Pulau Pinang"
    },
    {
        "Postcode": "13200",
        "Location": "Persiaran Seksyen 5/10",
        "Post_Office": "Kepala Batas",
        "State": "Pulau Pinang"
    },
    {
        "Postcode": "13200",
        "Location": "Persiaran Seksyen 5/11",
        "Post_Office": "Kepala Batas",
        "State": "Pulau Pinang"
    },
    {
        "Postcode": "13200",
        "Location": "Persiaran Seksyen 5/12",
        "Post_Office": "Kepala Batas",
        "State": "Pulau Pinang"
    },
    {
        "Postcode": "13200",
        "Location": "Persiaran Seksyen 5/13",
        "Post_Office": "Kepala Batas",
        "State": "Pulau Pinang"
    },
    {
        "Postcode": "13200",
        "Location": "Persiaran Seksyen 5/14",
        "Post_Office": "Kepala Batas",
        "State": "Pulau Pinang"
    },
    {
        "Postcode": "13200",
        "Location": "Persiaran Seksyen 5/15",
        "Post_Office": "Kepala Batas",
        "State": "Pulau Pinang"
    },
    {
        "Postcode": "13200",
        "Location": "Persiaran Seksyen 6/1",
        "Post_Office": "Kepala Batas",
        "State": "Pulau Pinang"
    },
    {
        "Postcode": "13200",
        "Location": "Persiaran Seksyen 6/2",
        "Post_Office": "Kepala Batas",
        "State": "Pulau Pinang"
    },
    {
        "Postcode": "13200",
        "Location": "Persiaran Seksyen 6/4",
        "Post_Office": "Kepala Batas",
        "State": "Pulau Pinang"
    },
    {
        "Postcode": "13200",
        "Location": "Persiaran Seksyen 6/5",
        "Post_Office": "Kepala Batas",
        "State": "Pulau Pinang"
    },
    {
        "Postcode": "13200",
        "Location": "Persiaran Seksyen 6/6",
        "Post_Office": "Kepala Batas",
        "State": "Pulau Pinang"
    },
    {
        "Postcode": "13200",
        "Location": "Persiaran Seksyen 6/7",
        "Post_Office": "Kepala Batas",
        "State": "Pulau Pinang"
    },
    {
        "Postcode": "13200",
        "Location": "Persiaran Seksyen 6/8",
        "Post_Office": "Kepala Batas",
        "State": "Pulau Pinang"
    },
    {
        "Postcode": "13200",
        "Location": "Persiaran Seksyen 6/9",
        "Post_Office": "Kepala Batas",
        "State": "Pulau Pinang"
    },
    {
        "Postcode": "13200",
        "Location": "Persiaran Seksyen 6/10",
        "Post_Office": "Kepala Batas",
        "State": "Pulau Pinang"
    },
    {
        "Postcode": "13200",
        "Location": "Persiaran Seksyen 6/12",
        "Post_Office": "Kepala Batas",
        "State": "Pulau Pinang"
    },
    {
        "Postcode": "13200",
        "Location": "Persiaran Seksyen 6/13",
        "Post_Office": "Kepala Batas",
        "State": "Pulau Pinang"
    },
    {
        "Postcode": "13200",
        "Location": "Persiaran Seksyen 6/14",
        "Post_Office": "Kepala Batas",
        "State": "Pulau Pinang"
    },
    {
        "Postcode": "13200",
        "Location": "Persiaran Seksyen 6/15",
        "Post_Office": "Kepala Batas",
        "State": "Pulau Pinang"
    },
    {
        "Postcode": "13200",
        "Location": "Persiaran Seksyen 6/16",
        "Post_Office": "Kepala Batas",
        "State": "Pulau Pinang"
    },
    {
        "Postcode": "13200",
        "Location": "Persiaran Seksyen 6/18",
        "Post_Office": "Kepala Batas",
        "State": "Pulau Pinang"
    },
    {
        "Postcode": "13200",
        "Location": "Persiaran Seksyen 6/20",
        "Post_Office": "Kepala Batas",
        "State": "Pulau Pinang"
    },
    {
        "Postcode": "13200",
        "Location": "Persiaran Seksyen 6/22",
        "Post_Office": "Kepala Batas",
        "State": "Pulau Pinang"
    },
    {
        "Postcode": "13200",
        "Location": "Persiaran Seksyen 6/24",
        "Post_Office": "Kepala Batas",
        "State": "Pulau Pinang"
    },
    {
        "Postcode": "13200",
        "Location": "Persiaran Seksyen 6/26",
        "Post_Office": "Kepala Batas",
        "State": "Pulau Pinang"
    },
    {
        "Postcode": "13200",
        "Location": "Persiaran Seksyen 6/28",
        "Post_Office": "Kepala Batas",
        "State": "Pulau Pinang"
    },
    {
        "Postcode": "13200",
        "Location": "Persiaran Seksyen 6/30",
        "Post_Office": "Kepala Batas",
        "State": "Pulau Pinang"
    },
    {
        "Postcode": "13200",
        "Location": "Persiaran Seksyen 6/32",
        "Post_Office": "Kepala Batas",
        "State": "Pulau Pinang"
    },
    {
        "Postcode": "13200",
        "Location": "Persiaran Seksyen 6/34",
        "Post_Office": "Kepala Batas",
        "State": "Pulau Pinang"
    },
    {
        "Postcode": "13200",
        "Location": "Persiaran Seksyen 6/36",
        "Post_Office": "Kepala Batas",
        "State": "Pulau Pinang"
    },
    {
        "Postcode": "13200",
        "Location": "Persiaran Seksyen 6/38",
        "Post_Office": "Kepala Batas",
        "State": "Pulau Pinang"
    },
    {
        "Postcode": "13200",
        "Location": "Persiaran Seksyen 6/40",
        "Post_Office": "Kepala Batas",
        "State": "Pulau Pinang"
    },
    {
        "Postcode": "13200",
        "Location": "Taman Persiaran Pendidikan Bertam Perdana",
        "Post_Office": "Kepala Batas",
        "State": "Pulau Pinang"
    },
    {
        "Postcode": "13200",
        "Location": "Bandar Setia Fontaines",
        "Post_Office": "Kepala Batas",
        "State": "Pulau Pinang"
    },
    {
        "Postcode": "13200",
        "Location": "Persiaran Setia",
        "Post_Office": "Kepala Batas",
        "State": "Pulau Pinang"
    },
    {
        "Postcode": "13200",
        "Location": "Persiaran Setia Utara",
        "Post_Office": "Kepala Batas",
        "State": "Pulau Pinang"
    },
    {
        "Postcode": "13200",
        "Location": "Persiaran Setia Selatan",
        "Post_Office": "Kepala Batas",
        "State": "Pulau Pinang"
    },
    {
        "Postcode": "13200",
        "Location": "Persiaran Setia Timur",
        "Post_Office": "Kepala Batas",
        "State": "Pulau Pinang"
    },
    {
        "Postcode": "13200",
        "Location": "Persiaran Setia Barat",
        "Post_Office": "Kepala Batas",
        "State": "Pulau Pinang"
    },
    {
        "Postcode": "13200",
        "Location": "Persiaran Setia Barat 1",
        "Post_Office": "Kepala Batas",
        "State": "Pulau Pinang"
    },
    {
        "Postcode": "13200",
        "Location": "Lingkaran Setia",
        "Post_Office": "Kepala Batas",
        "State": "Pulau Pinang"
    },
    {
        "Postcode": "13200",
        "Location": "Jalan Setia Utara",
        "Post_Office": "Kepala Batas",
        "State": "Pulau Pinang"
    },
    {
        "Postcode": "13200",
        "Location": "Jalan Setia Utara 1",
        "Post_Office": "Kepala Batas",
        "State": "Pulau Pinang"
    },
    {
        "Postcode": "13200",
        "Location": "Jalan Setia Timur",
        "Post_Office": "Kepala Batas",
        "State": "Pulau Pinang"
    },
    {
        "Postcode": "13200",
        "Location": "Jalan Setia Timur 1",
        "Post_Office": "Kepala Batas",
        "State": "Pulau Pinang"
    },
    {
        "Postcode": "13200",
        "Location": "Jalan Setia Selatan",
        "Post_Office": "Kepala Batas",
        "State": "Pulau Pinang"
    },
    {
        "Postcode": "13200",
        "Location": "Bandar Putra Bertam",
        "Post_Office": "Kepala Batas",
        "State": "Pulau Pinang"
    },
    {
        "Postcode": "13200",
        "Location": "Kampung Baru Pokok Sena",
        "Post_Office": "Kepala Batas",
        "State": "Pulau Pinang"
    },
    {
        "Postcode": "13200",
        "Location": "Kampung Pokok Simpor",
        "Post_Office": "Kepala Batas",
        "State": "Pulau Pinang"
    },
    {
        "Postcode": "13200",
        "Location": "Lahar Minyak",
        "Post_Office": "Kepala Batas",
        "State": "Pulau Pinang"
    },
    {
        "Postcode": "13200",
        "Location": "Permatang Setar",
        "Post_Office": "Kepala Batas",
        "State": "Pulau Pinang"
    },
    {
        "Postcode": "13200",
        "Location": "Taman Alamanda",
        "Post_Office": "Kepala Batas",
        "State": "Pulau Pinang"
    },
    {
        "Postcode": "13200",
        "Location": "Taman Bank Persatuan",
        "Post_Office": "Kepala Batas",
        "State": "Pulau Pinang"
    },
    {
        "Postcode": "13200",
        "Location": "Taman Bertam Permai",
        "Post_Office": "Kepala Batas",
        "State": "Pulau Pinang"
    },
    {
        "Postcode": "13200",
        "Location": "Taman Haji Ahmad Badawi",
        "Post_Office": "Kepala Batas",
        "State": "Pulau Pinang"
    },
    {
        "Postcode": "13200",
        "Location": "Taman Seri Bertam",
        "Post_Office": "Kepala Batas",
        "State": "Pulau Pinang"
    },
    {
        "Postcode": "13200",
        "Location": "Taman Seri Serdang 4",
        "Post_Office": "Kepala Batas",
        "State": "Pulau Pinang"
    },
    {
        "Postcode": "13200",
        "Location": "Persiaran Seksyen 6/42",
        "Post_Office": "Kepala Batas",
        "State": "Pulau Pinang"
    },
    {
        "Postcode": "13200",
        "Location": "Lorong Bendahara 3",
        "Post_Office": "Kepala Batas",
        "State": "Pulau Pinang"
    },
    {
        "Postcode": "13200",
        "Location": "Jalan Bahagia",
        "Post_Office": "Kepala Batas",
        "State": "Pulau Pinang"
    },
    {
        "Postcode": "13200",
        "Location": "Jalan Kedah",
        "Post_Office": "Kepala Batas",
        "State": "Pulau Pinang"
    },
    {
        "Postcode": "13200",
        "Location": "Jalan Maju",
        "Post_Office": "Kepala Batas",
        "State": "Pulau Pinang"
    },
    {
        "Postcode": "13200",
        "Location": "Jalan Sekolah",
        "Post_Office": "Kepala Batas",
        "State": "Pulau Pinang"
    },
    {
        "Postcode": "13200",
        "Location": "Kampung Padang",
        "Post_Office": "Kepala Batas",
        "State": "Pulau Pinang"
    },
    {
        "Postcode": "13200",
        "Location": "Taman Kota Permai",
        "Post_Office": "Kepala Batas",
        "State": "Pulau Pinang"
    },
    {
        "Postcode": "13200",
        "Location": "Taman Nilam Tanjung",
        "Post_Office": "Kepala Batas",
        "State": "Pulau Pinang"
    },
    {
        "Postcode": "13200",
        "Location": "Kampung Setol",
        "Post_Office": "Kepala Batas",
        "State": "Pulau Pinang"
    },
    {
        "Postcode": "13200",
        "Location": "Kampung Pengkalan Tambang",
        "Post_Office": "Kepala Batas",
        "State": "Pulau Pinang"
    },
    {
        "Postcode": "13200",
        "Location": "Kampung Permatang Manggis",
        "Post_Office": "Kepala Batas",
        "State": "Pulau Pinang"
    },
    {
        "Postcode": "13200",
        "Location": "Lorong Bendahara 4",
        "Post_Office": "Kepala Batas",
        "State": "Pulau Pinang"
    },
    {
        "Postcode": "13200",
        "Location": "Lorong Dahlia 1",
        "Post_Office": "Kepala Batas",
        "State": "Pulau Pinang"
    },
    {
        "Postcode": "13200",
        "Location": "Lorong Dahlia 2",
        "Post_Office": "Kepala Batas",
        "State": "Pulau Pinang"
    },
    {
        "Postcode": "13200",
        "Location": "Lorong Dahlia 3",
        "Post_Office": "Kepala Batas",
        "State": "Pulau Pinang"
    },
    {
        "Postcode": "13200",
        "Location": "Lorong Dahlia 4",
        "Post_Office": "Kepala Batas",
        "State": "Pulau Pinang"
    },
    {
        "Postcode": "13200",
        "Location": "Padang Beka",
        "Post_Office": "Kepala Batas",
        "State": "Pulau Pinang"
    },
    {
        "Postcode": "13200",
        "Location": "Permatang Buluh",
        "Post_Office": "Kepala Batas",
        "State": "Pulau Pinang"
    },
    {
        "Postcode": "13200",
        "Location": "Pinang Tunggal",
        "Post_Office": "Kepala Batas",
        "State": "Pulau Pinang"
    },
    {
        "Postcode": "13200",
        "Location": "Pokok Sena",
        "Post_Office": "Kepala Batas",
        "State": "Pulau Pinang"
    },
    {
        "Postcode": "13200",
        "Location": "Taman Dahlia",
        "Post_Office": "Kepala Batas",
        "State": "Pulau Pinang"
    },
    {
        "Postcode": "13200",
        "Location": "Taman Koskam",
        "Post_Office": "Kepala Batas",
        "State": "Pulau Pinang"
    },
    {
        "Postcode": "13200",
        "Location": "Taman Sepakat",
        "Post_Office": "Kepala Batas",
        "State": "Pulau Pinang"
    },
    {
        "Postcode": "13200",
        "Location": "Bertam Jaya",
        "Post_Office": "Kepala Batas",
        "State": "Pulau Pinang"
    },
    {
        "Postcode": "13200",
        "Location": "Bertam Perdana",
        "Post_Office": "Kepala Batas",
        "State": "Pulau Pinang"
    },
    {
        "Postcode": "13200",
        "Location": "Bertam Perdana 3",
        "Post_Office": "Kepala Batas",
        "State": "Pulau Pinang"
    },
    {
        "Postcode": "13200",
        "Location": "Bertam Putra",
        "Post_Office": "Kepala Batas",
        "State": "Pulau Pinang"
    },
    {
        "Postcode": "13200",
        "Location": "Bumbong Lima",
        "Post_Office": "Kepala Batas",
        "State": "Pulau Pinang"
    },
    {
        "Postcode": "13200",
        "Location": "Dusun Lada",
        "Post_Office": "Kepala Batas",
        "State": "Pulau Pinang"
    },
    {
        "Postcode": "13200",
        "Location": "Gerai Bertam Permai",
        "Post_Office": "Kepala Batas",
        "State": "Pulau Pinang"
    },
    {
        "Postcode": "13200",
        "Location": "Guar Bertam Permai",
        "Post_Office": "Kepala Batas",
        "State": "Pulau Pinang"
    },
    {
        "Postcode": "13200",
        "Location": "Guar Kepah",
        "Post_Office": "Kepala Batas",
        "State": "Pulau Pinang"
    },
    {
        "Postcode": "13200",
        "Location": "Jalan Bertam",
        "Post_Office": "Kepala Batas",
        "State": "Pulau Pinang"
    },
    {
        "Postcode": "13200",
        "Location": "Jalan Bertam 1",
        "Post_Office": "Kepala Batas",
        "State": "Pulau Pinang"
    },
    {
        "Postcode": "13200",
        "Location": "Jalan Bertam Permai",
        "Post_Office": "Kepala Batas",
        "State": "Pulau Pinang"
    },
    {
        "Postcode": "13200",
        "Location": "Jalan Bertam Permai 1",
        "Post_Office": "Kepala Batas",
        "State": "Pulau Pinang"
    },
    {
        "Postcode": "13200",
        "Location": "Jalan Butterworth",
        "Post_Office": "Kepala Batas",
        "State": "Pulau Pinang"
    },
    {
        "Postcode": "13200",
        "Location": "Jalan Dato Haji Ahmad Badawi",
        "Post_Office": "Kepala Batas",
        "State": "Pulau Pinang"
    },
    {
        "Postcode": "13200",
        "Location": "Jalan Kasa",
        "Post_Office": "Kepala Batas",
        "State": "Pulau Pinang"
    },
    {
        "Postcode": "13200",
        "Location": "Jalan Klinik Lama",
        "Post_Office": "Kepala Batas",
        "State": "Pulau Pinang"
    },
    {
        "Postcode": "13200",
        "Location": "Jalan Malinja",
        "Post_Office": "Kepala Batas",
        "State": "Pulau Pinang"
    },
    {
        "Postcode": "13200",
        "Location": "Jalan Paya Keladi",
        "Post_Office": "Kepala Batas",
        "State": "Pulau Pinang"
    },
    {
        "Postcode": "13200",
        "Location": "Jalan Permatang Bertam",
        "Post_Office": "Kepala Batas",
        "State": "Pulau Pinang"
    },
    {
        "Postcode": "13200",
        "Location": "Jalan Permatang Tinggi Bakar Bata",
        "Post_Office": "Kepala Batas",
        "State": "Pulau Pinang"
    },
    {
        "Postcode": "13200",
        "Location": "Jalan Pongsu Seribu",
        "Post_Office": "Kepala Batas",
        "State": "Pulau Pinang"
    },
    {
        "Postcode": "13200",
        "Location": "Jalan Serdang 3",
        "Post_Office": "Kepala Batas",
        "State": "Pulau Pinang"
    },
    {
        "Postcode": "13200",
        "Location": "Jalan Sri Indah",
        "Post_Office": "Kepala Batas",
        "State": "Pulau Pinang"
    },
    {
        "Postcode": "13200",
        "Location": "Jalan Sri Serdang",
        "Post_Office": "Kepala Batas",
        "State": "Pulau Pinang"
    },
    {
        "Postcode": "13200",
        "Location": "Jalan Tiga",
        "Post_Office": "Kepala Batas",
        "State": "Pulau Pinang"
    },
    {
        "Postcode": "13200",
        "Location": "Kampung Baru Pajak Song",
        "Post_Office": "Kepala Batas",
        "State": "Pulau Pinang"
    },
    {
        "Postcode": "13200",
        "Location": "Kampung Datuk",
        "Post_Office": "Kepala Batas",
        "State": "Pulau Pinang"
    },
    {
        "Postcode": "13200",
        "Location": "Kampung Lahar Ikan Mati",
        "Post_Office": "Kepala Batas",
        "State": "Pulau Pinang"
    },
    {
        "Postcode": "13200",
        "Location": "Kampung Lahar Kepar",
        "Post_Office": "Kepala Batas",
        "State": "Pulau Pinang"
    },
    {
        "Postcode": "13200",
        "Location": "Kampung Lahar Tiang",
        "Post_Office": "Kepala Batas",
        "State": "Pulau Pinang"
    },
    {
        "Postcode": "13200",
        "Location": "Kampung Lama",
        "Post_Office": "Kepala Batas",
        "State": "Pulau Pinang"
    },
    {
        "Postcode": "13200",
        "Location": "Kampung Pengkalan Bongor",
        "Post_Office": "Kepala Batas",
        "State": "Pulau Pinang"
    },
    {
        "Postcode": "13200",
        "Location": "Kampung Permatang Tinggi B",
        "Post_Office": "Kepala Batas",
        "State": "Pulau Pinang"
    },
    {
        "Postcode": "13200",
        "Location": "Kampung Pongsu Seribu",
        "Post_Office": "Kepala Batas",
        "State": "Pulau Pinang"
    },
    {
        "Postcode": "13200",
        "Location": "Kampung Tersusun Pongsu Seribu",
        "Post_Office": "Kepala Batas",
        "State": "Pulau Pinang"
    },
    {
        "Postcode": "13200",
        "Location": "Kampung Titi Merdeka",
        "Post_Office": "Kepala Batas",
        "State": "Pulau Pinang"
    },
    {
        "Postcode": "13200",
        "Location": "Kepala Batas",
        "Post_Office": "Kepala Batas",
        "State": "Pulau Pinang"
    },
    {
        "Postcode": "13200",
        "Location": "Komplek Dato Khailan",
        "Post_Office": "Kepala Batas",
        "State": "Pulau Pinang"
    },
    {
        "Postcode": "13200",
        "Location": "Komplek Kepala Batas",
        "Post_Office": "Kepala Batas",
        "State": "Pulau Pinang"
    },
    {
        "Postcode": "13200",
        "Location": "Kota Aur",
        "Post_Office": "Kepala Batas",
        "State": "Pulau Pinang"
    },
    {
        "Postcode": "13200",
        "Location": "Ladang Bertam",
        "Post_Office": "Kepala Batas",
        "State": "Pulau Pinang"
    },
    {
        "Postcode": "13200",
        "Location": "Lahar Bubu",
        "Post_Office": "Kepala Batas",
        "State": "Pulau Pinang"
    },
    {
        "Postcode": "13200",
        "Location": "Lahar Ikan Mati",
        "Post_Office": "Kepala Batas",
        "State": "Pulau Pinang"
    },
    {
        "Postcode": "13200",
        "Location": "Lahar Kapar",
        "Post_Office": "Kepala Batas",
        "State": "Pulau Pinang"
    },
    {
        "Postcode": "13200",
        "Location": "Lebuh Dagangan",
        "Post_Office": "Kepala Batas",
        "State": "Pulau Pinang"
    },
    {
        "Postcode": "13200",
        "Location": "Lebuh Maju",
        "Post_Office": "Kepala Batas",
        "State": "Pulau Pinang"
    },
    {
        "Postcode": "13200",
        "Location": "Lorong Bahagia 1",
        "Post_Office": "Kepala Batas",
        "State": "Pulau Pinang"
    },
    {
        "Postcode": "13200",
        "Location": "Lorong Bertam 2",
        "Post_Office": "Kepala Batas",
        "State": "Pulau Pinang"
    },
    {
        "Postcode": "13200",
        "Location": "Lorong Seri Serdang 4",
        "Post_Office": "Kepala Batas",
        "State": "Pulau Pinang"
    },
    {
        "Postcode": "13200",
        "Location": "Pajak Song",
        "Post_Office": "Kepala Batas",
        "State": "Pulau Pinang"
    },
    {
        "Postcode": "13200",
        "Location": "Pantai Kamlun",
        "Post_Office": "Kepala Batas",
        "State": "Pulau Pinang"
    },
    {
        "Postcode": "13200",
        "Location": "Paya Guar Kepah",
        "Post_Office": "Kepala Batas",
        "State": "Pulau Pinang"
    },
    {
        "Postcode": "13200",
        "Location": "Paya Keladi",
        "Post_Office": "Kepala Batas",
        "State": "Pulau Pinang"
    },
    {
        "Postcode": "13200",
        "Location": "Pengkalan Bongor",
        "Post_Office": "Kepala Batas",
        "State": "Pulau Pinang"
    },
    {
        "Postcode": "13200",
        "Location": "Permatang Langsat",
        "Post_Office": "Kepala Batas",
        "State": "Pulau Pinang"
    },
    {
        "Postcode": "13200",
        "Location": "Permatang Tiga Ringgit",
        "Post_Office": "Kepala Batas",
        "State": "Pulau Pinang"
    },
    {
        "Postcode": "13200",
        "Location": "Pongsu Seribu",
        "Post_Office": "Kepala Batas",
        "State": "Pulau Pinang"
    },
    {
        "Postcode": "13200",
        "Location": "Pusat Perniagaan Kepala Batas",
        "Post_Office": "Kepala Batas",
        "State": "Pulau Pinang"
    },
    {
        "Postcode": "13200",
        "Location": "Rantau Panjang",
        "Post_Office": "Kepala Batas",
        "State": "Pulau Pinang"
    },
    {
        "Postcode": "13200",
        "Location": "Solok Malinja",
        "Post_Office": "Kepala Batas",
        "State": "Pulau Pinang"
    },
    {
        "Postcode": "13200",
        "Location": "Taman Aman Putera",
        "Post_Office": "Kepala Batas",
        "State": "Pulau Pinang"
    },
    {
        "Postcode": "13200",
        "Location": "Taman Aman Putra",
        "Post_Office": "Kepala Batas",
        "State": "Pulau Pinang"
    },
    {
        "Postcode": "13200",
        "Location": "Taman Bertam Indah",
        "Post_Office": "Kepala Batas",
        "State": "Pulau Pinang"
    },
    {
        "Postcode": "13200",
        "Location": "Taman Bertam Perdana",
        "Post_Office": "Kepala Batas",
        "State": "Pulau Pinang"
    },
    {
        "Postcode": "13200",
        "Location": "Taman Bertam Ria",
        "Post_Office": "Kepala Batas",
        "State": "Pulau Pinang"
    },
    {
        "Postcode": "13200",
        "Location": "Taman Cahaya Seribu",
        "Post_Office": "Kepala Batas",
        "State": "Pulau Pinang"
    },
    {
        "Postcode": "13200",
        "Location": "Taman Haji Abdullah Fahim",
        "Post_Office": "Kepala Batas",
        "State": "Pulau Pinang"
    },
    {
        "Postcode": "13200",
        "Location": "Taman Orkid Pongsu Seribu",
        "Post_Office": "Kepala Batas",
        "State": "Pulau Pinang"
    },
    {
        "Postcode": "13200",
        "Location": "Taman Paya Keladi",
        "Post_Office": "Kepala Batas",
        "State": "Pulau Pinang"
    },
    {
        "Postcode": "13200",
        "Location": "Taman Putera Aman",
        "Post_Office": "Kepala Batas",
        "State": "Pulau Pinang"
    },
    {
        "Postcode": "13200",
        "Location": "Taman Rupawan",
        "Post_Office": "Kepala Batas",
        "State": "Pulau Pinang"
    },
    {
        "Postcode": "13200",
        "Location": "Taman Seri Serdang",
        "Post_Office": "Kepala Batas",
        "State": "Pulau Pinang"
    },
    {
        "Postcode": "13200",
        "Location": "Tanjung Rambai",
        "Post_Office": "Kepala Batas",
        "State": "Pulau Pinang"
    },
    {
        "Postcode": "13200",
        "Location": "Teluk Manan",
        "Post_Office": "Kepala Batas",
        "State": "Pulau Pinang"
    },
    {
        "Postcode": "13200",
        "Location": "Tingkat Maju 1",
        "Post_Office": "Kepala Batas",
        "State": "Pulau Pinang"
    }
]
