[
    {
        "Postcode": "13210",
        "Location": "Permatang Durian",
        "Post_Office": "Kepala Batas",
        "State": "Pulau Pinang"
    },
    {
        "Postcode": "13210",
        "Location": "Kampung Aman",
        "Post_Office": "Kepala Batas",
        "State": "Pulau Pinang"
    },
    {
        "Postcode": "13210",
        "Location": "Bukit Sementul",
        "Post_Office": "Kepala Batas",
        "State": "Pulau Pinang"
    },
    {
        "Postcode": "13210",
        "Location": "Halaman Temenggung",
        "Post_Office": "Kepala Batas",
        "State": "Pulau Pinang"
    },
    {
        "Postcode": "13210",
        "Location": "Kampung Setol (Pinang Tunggal)",
        "Post_Office": "Kepala Batas",
        "State": "Pulau Pinang"
    },
    {
        "Postcode": "13210",
        "Location": "Kampung Setul Pinang Tunggal",
        "Post_Office": "Kepala Batas",
        "State": "Pulau Pinang"
    },
    {
        "Postcode": "13210",
        "Location": "Kampung Siam",
        "Post_Office": "Kepala Batas",
        "State": "Pulau Pinang"
    },
    {
        "Postcode": "13210",
        "Location": "Kampung Tambang",
        "Post_Office": "Kepala Batas",
        "State": "Pulau Pinang"
    },
    {
        "Postcode": "13210",
        "Location": "Kampung Telur Permatang Buluh",
        "Post_Office": "Kepala Batas",
        "State": "Pulau Pinang"
    },
    {
        "Postcode": "13210",
        "Location": "Kampung Tobiar",
        "Post_Office": "Kepala Batas",
        "State": "Pulau Pinang"
    },
    {
        "Postcode": "13210",
        "Location": "Lahar Tiang",
        "Post_Office": "Kepala Batas",
        "State": "Pulau Pinang"
    },
    {
        "Postcode": "13210",
        "Location": "Lembah Raja",
        "Post_Office": "Kepala Batas",
        "State": "Pulau Pinang"
    },
    {
        "Postcode": "13210",
        "Location": "Pekan Pinang Tunggal",
        "Post_Office": "Kepala Batas",
        "State": "Pulau Pinang"
    },
    {
        "Postcode": "13210",
        "Location": "Permatang Damar",
        "Post_Office": "Kepala Batas",
        "State": "Pulau Pinang"
    },
    {
        "Postcode": "13210",
        "Location": "Permatang Saga",
        "Post_Office": "Kepala Batas",
        "State": "Pulau Pinang"
    },
    {
        "Postcode": "13210",
        "Location": "Permatang Tinggi Bakar Bata",
        "Post_Office": "Kepala Batas",
        "State": "Pulau Pinang"
    },
    {
        "Postcode": "13210",
        "Location": "Sungai Korok (Pinang Tunggal)",
        "Post_Office": "Kepala Batas",
        "State": "Pulau Pinang"
    }
]
