[
    {
        "Postcode": "13220",
        "Location": "Kampung Serani",
        "Post_Office": "Kepala Batas",
        "State": "Pulau Pinang"
    },
    {
        "Postcode": "13220",
        "Location": "Kampung Permatang Kerai Besar",
        "Post_Office": "Kepala Batas",
        "State": "Pulau Pinang"
    },
    {
        "Postcode": "13220",
        "Location": "Permatang Krai",
        "Post_Office": "Kepala Batas",
        "State": "Pulau Pinang"
    },
    {
        "Postcode": "13220",
        "Location": "Lorong Desa Sena 1",
        "Post_Office": "Kepala Batas",
        "State": "Pulau Pinang"
    },
    {
        "Postcode": "13220",
        "Location": "Lorong Desa Sena 10",
        "Post_Office": "Kepala Batas",
        "State": "Pulau Pinang"
    },
    {
        "Postcode": "13220",
        "Location": "Lorong Desa Sena 11",
        "Post_Office": "Kepala Batas",
        "State": "Pulau Pinang"
    },
    {
        "Postcode": "13220",
        "Location": "Lorong Desa Sena 12",
        "Post_Office": "Kepala Batas",
        "State": "Pulau Pinang"
    },
    {
        "Postcode": "13220",
        "Location": "Lorong Desa Sena 13",
        "Post_Office": "Kepala Batas",
        "State": "Pulau Pinang"
    },
    {
        "Postcode": "13220",
        "Location": "Lorong Desa Sena 14",
        "Post_Office": "Kepala Batas",
        "State": "Pulau Pinang"
    },
    {
        "Postcode": "13220",
        "Location": "Lorong Desa Sena 2",
        "Post_Office": "Kepala Batas",
        "State": "Pulau Pinang"
    },
    {
        "Postcode": "13220",
        "Location": "Lorong Desa Sena 3",
        "Post_Office": "Kepala Batas",
        "State": "Pulau Pinang"
    },
    {
        "Postcode": "13220",
        "Location": "Lorong Desa Sena 4",
        "Post_Office": "Kepala Batas",
        "State": "Pulau Pinang"
    },
    {
        "Postcode": "13220",
        "Location": "Lorong Desa Sena 5",
        "Post_Office": "Kepala Batas",
        "State": "Pulau Pinang"
    },
    {
        "Postcode": "13220",
        "Location": "Lorong Desa Sena 6",
        "Post_Office": "Kepala Batas",
        "State": "Pulau Pinang"
    },
    {
        "Postcode": "13220",
        "Location": "Lorong Desa Sena 7",
        "Post_Office": "Kepala Batas",
        "State": "Pulau Pinang"
    },
    {
        "Postcode": "13220",
        "Location": "Lorong Desa Sena 8",
        "Post_Office": "Kepala Batas",
        "State": "Pulau Pinang"
    },
    {
        "Postcode": "13220",
        "Location": "Lorong Desa Sena 9",
        "Post_Office": "Kepala Batas",
        "State": "Pulau Pinang"
    },
    {
        "Postcode": "13220",
        "Location": "Lorong Sena Indah 2",
        "Post_Office": "Kepala Batas",
        "State": "Pulau Pinang"
    },
    {
        "Postcode": "13220",
        "Location": "Lorong Sena Indah 3",
        "Post_Office": "Kepala Batas",
        "State": "Pulau Pinang"
    },
    {
        "Postcode": "13220",
        "Location": "Lorong Sena Indah 4",
        "Post_Office": "Kepala Batas",
        "State": "Pulau Pinang"
    },
    {
        "Postcode": "13220",
        "Location": "Lorong Sena Indah 5",
        "Post_Office": "Kepala Batas",
        "State": "Pulau Pinang"
    },
    {
        "Postcode": "13220",
        "Location": "Lorong Sena Indah 6",
        "Post_Office": "Kepala Batas",
        "State": "Pulau Pinang"
    },
    {
        "Postcode": "13220",
        "Location": "Lorong Sena Indah 7",
        "Post_Office": "Kepala Batas",
        "State": "Pulau Pinang"
    },
    {
        "Postcode": "13220",
        "Location": "Lorong Sena Indah 8",
        "Post_Office": "Kepala Batas",
        "State": "Pulau Pinang"
    },
    {
        "Postcode": "13220",
        "Location": "Lorong Sena Indah 9",
        "Post_Office": "Kepala Batas",
        "State": "Pulau Pinang"
    },
    {
        "Postcode": "13220",
        "Location": "Lorong Temenggung 3",
        "Post_Office": "Kepala Batas",
        "State": "Pulau Pinang"
    },
    {
        "Postcode": "13220",
        "Location": "Lorong Temenggung 5",
        "Post_Office": "Kepala Batas",
        "State": "Pulau Pinang"
    },
    {
        "Postcode": "13220",
        "Location": "Solok Temenggung 1",
        "Post_Office": "Kepala Batas",
        "State": "Pulau Pinang"
    },
    {
        "Postcode": "13220",
        "Location": "Solok Temenggung 3",
        "Post_Office": "Kepala Batas",
        "State": "Pulau Pinang"
    },
    {
        "Postcode": "13220",
        "Location": "Solok Temenggung 5",
        "Post_Office": "Kepala Batas",
        "State": "Pulau Pinang"
    },
    {
        "Postcode": "13220",
        "Location": "Taman Pokok Sena 1",
        "Post_Office": "Kepala Batas",
        "State": "Pulau Pinang"
    },
    {
        "Postcode": "13220",
        "Location": "Taman Pokok Sena 2",
        "Post_Office": "Kepala Batas",
        "State": "Pulau Pinang"
    },
    {
        "Postcode": "13220",
        "Location": "Taman Pokok Sena 3",
        "Post_Office": "Kepala Batas",
        "State": "Pulau Pinang"
    },
    {
        "Postcode": "13220",
        "Location": "Taman Pokok Sena 4",
        "Post_Office": "Kepala Batas",
        "State": "Pulau Pinang"
    },
    {
        "Postcode": "13220",
        "Location": "Taman Pokok Sena 5",
        "Post_Office": "Kepala Batas",
        "State": "Pulau Pinang"
    },
    {
        "Postcode": "13220",
        "Location": "Taman Pokok Sena 6",
        "Post_Office": "Kepala Batas",
        "State": "Pulau Pinang"
    },
    {
        "Postcode": "13220",
        "Location": "Kampung Guar Kepayang",
        "Post_Office": "Kepala Batas",
        "State": "Pulau Pinang"
    },
    {
        "Postcode": "13220",
        "Location": "Kampung Kovil",
        "Post_Office": "Kepala Batas",
        "State": "Pulau Pinang"
    },
    {
        "Postcode": "13220",
        "Location": "Kampung Tok Hamid",
        "Post_Office": "Kepala Batas",
        "State": "Pulau Pinang"
    },
    {
        "Postcode": "13220",
        "Location": "Jalan Perak",
        "Post_Office": "Kepala Batas",
        "State": "Pulau Pinang"
    },
    {
        "Postcode": "13220",
        "Location": "Jalan Temenggung",
        "Post_Office": "Kepala Batas",
        "State": "Pulau Pinang"
    },
    {
        "Postcode": "13220",
        "Location": "Kampung Banggol",
        "Post_Office": "Kepala Batas",
        "State": "Pulau Pinang"
    },
    {
        "Postcode": "13220",
        "Location": "Kampung Permatang Buluh",
        "Post_Office": "Kepala Batas",
        "State": "Pulau Pinang"
    },
    {
        "Postcode": "13220",
        "Location": "Kampung Setol (Permatang Buluh)",
        "Post_Office": "Kepala Batas",
        "State": "Pulau Pinang"
    },
    {
        "Postcode": "13220",
        "Location": "Lengkok Temenggung",
        "Post_Office": "Kepala Batas",
        "State": "Pulau Pinang"
    },
    {
        "Postcode": "13220",
        "Location": "Permatang Bertam",
        "Post_Office": "Kepala Batas",
        "State": "Pulau Pinang"
    },
    {
        "Postcode": "13220",
        "Location": "Permatang Haji Hassan",
        "Post_Office": "Kepala Batas",
        "State": "Pulau Pinang"
    },
    {
        "Postcode": "13220",
        "Location": "Permatang Krai Besar",
        "Post_Office": "Kepala Batas",
        "State": "Pulau Pinang"
    },
    {
        "Postcode": "13220",
        "Location": "Permatang Krai Kampung Lama",
        "Post_Office": "Kepala Batas",
        "State": "Pulau Pinang"
    },
    {
        "Postcode": "13220",
        "Location": "Permatang Krai Kecil",
        "Post_Office": "Kepala Batas",
        "State": "Pulau Pinang"
    },
    {
        "Postcode": "13220",
        "Location": "Permatang Sireh",
        "Post_Office": "Kepala Batas",
        "State": "Pulau Pinang"
    },
    {
        "Postcode": "13220",
        "Location": "Permatang Sungai Dua Kepala Batas",
        "Post_Office": "Kepala Batas",
        "State": "Pulau Pinang"
    },
    {
        "Postcode": "13220",
        "Location": "Persiaran Temenggung",
        "Post_Office": "Kepala Batas",
        "State": "Pulau Pinang"
    },
    {
        "Postcode": "13220",
        "Location": "Pokok Simpur Permatang Buluh",
        "Post_Office": "Kepala Batas",
        "State": "Pulau Pinang"
    },
    {
        "Postcode": "13220",
        "Location": "Simpang Empat Permatang Buluh",
        "Post_Office": "Kepala Batas",
        "State": "Pulau Pinang"
    },
    {
        "Postcode": "13220",
        "Location": "Taman Desa Sena",
        "Post_Office": "Kepala Batas",
        "State": "Pulau Pinang"
    },
    {
        "Postcode": "13220",
        "Location": "Taman Pokok Sena",
        "Post_Office": "Kepala Batas",
        "State": "Pulau Pinang"
    },
    {
        "Postcode": "13220",
        "Location": "Taman Sena Indah",
        "Post_Office": "Kepala Batas",
        "State": "Pulau Pinang"
    },
    {
        "Postcode": "13220",
        "Location": "Tingkat Temenggung",
        "Post_Office": "Kepala Batas",
        "State": "Pulau Pinang"
    }
]
