[
    {
        "Postcode": "13300",
        "Location": "Kampung Baru",
        "Post_Office": "Tasek Gelugor",
        "State": "Pulau Pinang"
    },
    {
        "Postcode": "13300",
        "Location": "Kampung Besar",
        "Post_Office": "Tasek Gelugor",
        "State": "Pulau Pinang"
    },
    {
        "Postcode": "13300",
        "Location": "Kampung Matahari Naik",
        "Post_Office": "Tasek Gelugor",
        "State": "Pulau Pinang"
    },
    {
        "Postcode": "13300",
        "Location": "Kampung Sireh",
        "Post_Office": "Tasek Gelugor",
        "State": "Pulau Pinang"
    },
    {
        "Postcode": "13300",
        "Location": "Lorong Cempedak 1",
        "Post_Office": "Tasek Gelugor",
        "State": "Pulau Pinang"
    },
    {
        "Postcode": "13300",
        "Location": "Taman Saga",
        "Post_Office": "Tasek Gelugor",
        "State": "Pulau Pinang"
    },
    {
        "Postcode": "13300",
        "Location": "Jalan Komersial 2",
        "Post_Office": "Tasek Gelugor",
        "State": "Pulau Pinang"
    },
    {
        "Postcode": "13300",
        "Location": "Pusat Komersial Tasik Glugor",
        "Post_Office": "Tasek Gelugor",
        "State": "Pulau Pinang"
    },
    {
        "Postcode": "13300",
        "Location": "Jarak Atas",
        "Post_Office": "Tasek Gelugor",
        "State": "Pulau Pinang"
    },
    {
        "Postcode": "13300",
        "Location": "Jarak Tengah",
        "Post_Office": "Tasek Gelugor",
        "State": "Pulau Pinang"
    },
    {
        "Postcode": "13300",
        "Location": "Kampung Lahar Tembun",
        "Post_Office": "Tasek Gelugor",
        "State": "Pulau Pinang"
    },
    {
        "Postcode": "13300",
        "Location": "Kampung Pengkalan Batu",
        "Post_Office": "Tasek Gelugor",
        "State": "Pulau Pinang"
    },
    {
        "Postcode": "13300",
        "Location": "Taman Gelugor Indah",
        "Post_Office": "Tasek Gelugor",
        "State": "Pulau Pinang"
    },
    {
        "Postcode": "13300",
        "Location": "Taman Pokok Sena Indah",
        "Post_Office": "Tasek Gelugor",
        "State": "Pulau Pinang"
    },
    {
        "Postcode": "13300",
        "Location": "Taman Rethina",
        "Post_Office": "Tasek Gelugor",
        "State": "Pulau Pinang"
    },
    {
        "Postcode": "13300",
        "Location": "Taman Sri Menerong",
        "Post_Office": "Tasek Gelugor",
        "State": "Pulau Pinang"
    },
    {
        "Postcode": "13300",
        "Location": "Tasek Gelugor",
        "Post_Office": "Tasek Gelugor",
        "State": "Pulau Pinang"
    },
    {
        "Postcode": "13300",
        "Location": "Jalan Gelugor Indah 1",
        "Post_Office": "Tasek Gelugor",
        "State": "Pulau Pinang"
    },
    {
        "Postcode": "13300",
        "Location": "Jalan Gelugor Indah 2",
        "Post_Office": "Tasek Gelugor",
        "State": "Pulau Pinang"
    },
    {
        "Postcode": "13300",
        "Location": "Jalan Sawi 2",
        "Post_Office": "Tasek Gelugor",
        "State": "Pulau Pinang"
    },
    {
        "Postcode": "13300",
        "Location": "Jalan Sawi 3",
        "Post_Office": "Tasek Gelugor",
        "State": "Pulau Pinang"
    },
    {
        "Postcode": "13300",
        "Location": "Jalan Sawi 4",
        "Post_Office": "Tasek Gelugor",
        "State": "Pulau Pinang"
    },
    {
        "Postcode": "13300",
        "Location": "Jalan Sawi 5",
        "Post_Office": "Tasek Gelugor",
        "State": "Pulau Pinang"
    },
    {
        "Postcode": "13300",
        "Location": "Jalan Sawi 6",
        "Post_Office": "Tasek Gelugor",
        "State": "Pulau Pinang"
    },
    {
        "Postcode": "13300",
        "Location": "Jalan Sawi 7",
        "Post_Office": "Tasek Gelugor",
        "State": "Pulau Pinang"
    },
    {
        "Postcode": "13300",
        "Location": "Jalan Sawi 8",
        "Post_Office": "Tasek Gelugor",
        "State": "Pulau Pinang"
    },
    {
        "Postcode": "13300",
        "Location": "Jalan Sawi 9",
        "Post_Office": "Tasek Gelugor",
        "State": "Pulau Pinang"
    },
    {
        "Postcode": "13300",
        "Location": "Jalan Seri Menderung 1",
        "Post_Office": "Tasek Gelugor",
        "State": "Pulau Pinang"
    },
    {
        "Postcode": "13300",
        "Location": "Jalan Seri Menderung 3",
        "Post_Office": "Tasek Gelugor",
        "State": "Pulau Pinang"
    },
    {
        "Postcode": "13300",
        "Location": "Lintang Asas Tani 1",
        "Post_Office": "Tasek Gelugor",
        "State": "Pulau Pinang"
    },
    {
        "Postcode": "13300",
        "Location": "Lintang Asas Tani 2",
        "Post_Office": "Tasek Gelugor",
        "State": "Pulau Pinang"
    },
    {
        "Postcode": "13300",
        "Location": "Lintang Asas Tani 3",
        "Post_Office": "Tasek Gelugor",
        "State": "Pulau Pinang"
    },
    {
        "Postcode": "13300",
        "Location": "Lorong Ekor Kucing 2",
        "Post_Office": "Tasek Gelugor",
        "State": "Pulau Pinang"
    },
    {
        "Postcode": "13300",
        "Location": "Lorong Ekor Kucing 3",
        "Post_Office": "Tasek Gelugor",
        "State": "Pulau Pinang"
    },
    {
        "Postcode": "13300",
        "Location": "Lorong Ekor Kucing 4",
        "Post_Office": "Tasek Gelugor",
        "State": "Pulau Pinang"
    },
    {
        "Postcode": "13300",
        "Location": "Lorong Ekor Kucing 5",
        "Post_Office": "Tasek Gelugor",
        "State": "Pulau Pinang"
    },
    {
        "Postcode": "13300",
        "Location": "Lorong Ekor Kucing 6",
        "Post_Office": "Tasek Gelugor",
        "State": "Pulau Pinang"
    },
    {
        "Postcode": "13300",
        "Location": "Lorong Gelugur Indah 1",
        "Post_Office": "Tasek Gelugor",
        "State": "Pulau Pinang"
    },
    {
        "Postcode": "13300",
        "Location": "Lorong Gelugur Indah 2",
        "Post_Office": "Tasek Gelugor",
        "State": "Pulau Pinang"
    },
    {
        "Postcode": "13300",
        "Location": "Lorong Haji Ahmad Jamil 1",
        "Post_Office": "Tasek Gelugor",
        "State": "Pulau Pinang"
    },
    {
        "Postcode": "13300",
        "Location": "Lorong Haji Ahmad Jamil 10",
        "Post_Office": "Tasek Gelugor",
        "State": "Pulau Pinang"
    },
    {
        "Postcode": "13300",
        "Location": "Lorong Haji Ahmad Jamil 11",
        "Post_Office": "Tasek Gelugor",
        "State": "Pulau Pinang"
    },
    {
        "Postcode": "13300",
        "Location": "Lorong Haji Ahmad Jamil 12",
        "Post_Office": "Tasek Gelugor",
        "State": "Pulau Pinang"
    },
    {
        "Postcode": "13300",
        "Location": "Lorong Haji Ahmad Jamil 13",
        "Post_Office": "Tasek Gelugor",
        "State": "Pulau Pinang"
    },
    {
        "Postcode": "13300",
        "Location": "Lorong Haji Ahmad Jamil 2",
        "Post_Office": "Tasek Gelugor",
        "State": "Pulau Pinang"
    },
    {
        "Postcode": "13300",
        "Location": "Lorong Haji Ahmad Jamil 3",
        "Post_Office": "Tasek Gelugor",
        "State": "Pulau Pinang"
    },
    {
        "Postcode": "13300",
        "Location": "Lorong Haji Ahmad Jamil 4",
        "Post_Office": "Tasek Gelugor",
        "State": "Pulau Pinang"
    },
    {
        "Postcode": "13300",
        "Location": "Lorong Haji Ahmad Jamil 5",
        "Post_Office": "Tasek Gelugor",
        "State": "Pulau Pinang"
    },
    {
        "Postcode": "13300",
        "Location": "Lorong Haji Ahmad Jamil 6",
        "Post_Office": "Tasek Gelugor",
        "State": "Pulau Pinang"
    },
    {
        "Postcode": "13300",
        "Location": "Lorong Haji Ahmad Jamil 7",
        "Post_Office": "Tasek Gelugor",
        "State": "Pulau Pinang"
    },
    {
        "Postcode": "13300",
        "Location": "Lorong Haji Ahmad Jamil 8",
        "Post_Office": "Tasek Gelugor",
        "State": "Pulau Pinang"
    },
    {
        "Postcode": "13300",
        "Location": "Lorong Haji Ahmad Jamil 9",
        "Post_Office": "Tasek Gelugor",
        "State": "Pulau Pinang"
    },
    {
        "Postcode": "13300",
        "Location": "Lorong Saga 1",
        "Post_Office": "Tasek Gelugor",
        "State": "Pulau Pinang"
    },
    {
        "Postcode": "13300",
        "Location": "Lorong Saga 2",
        "Post_Office": "Tasek Gelugor",
        "State": "Pulau Pinang"
    },
    {
        "Postcode": "13300",
        "Location": "Lorong Saga 3",
        "Post_Office": "Tasek Gelugor",
        "State": "Pulau Pinang"
    },
    {
        "Postcode": "13300",
        "Location": "Lorong Saga 4",
        "Post_Office": "Tasek Gelugor",
        "State": "Pulau Pinang"
    },
    {
        "Postcode": "13300",
        "Location": "Lorong Saga 5",
        "Post_Office": "Tasek Gelugor",
        "State": "Pulau Pinang"
    },
    {
        "Postcode": "13300",
        "Location": "Lorong Sepadu 1",
        "Post_Office": "Tasek Gelugor",
        "State": "Pulau Pinang"
    },
    {
        "Postcode": "13300",
        "Location": "Lorong Sepadu 10",
        "Post_Office": "Tasek Gelugor",
        "State": "Pulau Pinang"
    },
    {
        "Postcode": "13300",
        "Location": "Lorong Sepadu 11",
        "Post_Office": "Tasek Gelugor",
        "State": "Pulau Pinang"
    },
    {
        "Postcode": "13300",
        "Location": "Lorong Sepadu 12",
        "Post_Office": "Tasek Gelugor",
        "State": "Pulau Pinang"
    },
    {
        "Postcode": "13300",
        "Location": "Lorong Sepadu 13",
        "Post_Office": "Tasek Gelugor",
        "State": "Pulau Pinang"
    },
    {
        "Postcode": "13300",
        "Location": "Lorong Sepadu 14",
        "Post_Office": "Tasek Gelugor",
        "State": "Pulau Pinang"
    },
    {
        "Postcode": "13300",
        "Location": "Lorong Sepadu 15",
        "Post_Office": "Tasek Gelugor",
        "State": "Pulau Pinang"
    },
    {
        "Postcode": "13300",
        "Location": "Lorong Sepadu 16",
        "Post_Office": "Tasek Gelugor",
        "State": "Pulau Pinang"
    },
    {
        "Postcode": "13300",
        "Location": "Lorong Sepadu 17",
        "Post_Office": "Tasek Gelugor",
        "State": "Pulau Pinang"
    },
    {
        "Postcode": "13300",
        "Location": "Lorong Sepadu 18",
        "Post_Office": "Tasek Gelugor",
        "State": "Pulau Pinang"
    },
    {
        "Postcode": "13300",
        "Location": "Lorong Sepadu 19",
        "Post_Office": "Tasek Gelugor",
        "State": "Pulau Pinang"
    },
    {
        "Postcode": "13300",
        "Location": "Lorong Sepadu 2",
        "Post_Office": "Tasek Gelugor",
        "State": "Pulau Pinang"
    },
    {
        "Postcode": "13300",
        "Location": "Lorong Sepadu 20",
        "Post_Office": "Tasek Gelugor",
        "State": "Pulau Pinang"
    },
    {
        "Postcode": "13300",
        "Location": "Lorong Sepadu 21",
        "Post_Office": "Tasek Gelugor",
        "State": "Pulau Pinang"
    },
    {
        "Postcode": "13300",
        "Location": "Lorong Sepadu 22",
        "Post_Office": "Tasek Gelugor",
        "State": "Pulau Pinang"
    },
    {
        "Postcode": "13300",
        "Location": "Lorong Sepadu 23",
        "Post_Office": "Tasek Gelugor",
        "State": "Pulau Pinang"
    },
    {
        "Postcode": "13300",
        "Location": "Lorong Sepadu 24",
        "Post_Office": "Tasek Gelugor",
        "State": "Pulau Pinang"
    },
    {
        "Postcode": "13300",
        "Location": "Lorong Sepadu 25",
        "Post_Office": "Tasek Gelugor",
        "State": "Pulau Pinang"
    },
    {
        "Postcode": "13300",
        "Location": "Lorong Sepadu 26",
        "Post_Office": "Tasek Gelugor",
        "State": "Pulau Pinang"
    },
    {
        "Postcode": "13300",
        "Location": "Lorong Sepadu 27",
        "Post_Office": "Tasek Gelugor",
        "State": "Pulau Pinang"
    },
    {
        "Postcode": "13300",
        "Location": "Lorong Sepadu 28",
        "Post_Office": "Tasek Gelugor",
        "State": "Pulau Pinang"
    },
    {
        "Postcode": "13300",
        "Location": "Lorong Sepadu 29",
        "Post_Office": "Tasek Gelugor",
        "State": "Pulau Pinang"
    },
    {
        "Postcode": "13300",
        "Location": "Lorong Sepadu 3",
        "Post_Office": "Tasek Gelugor",
        "State": "Pulau Pinang"
    },
    {
        "Postcode": "13300",
        "Location": "Lorong Sepadu 30",
        "Post_Office": "Tasek Gelugor",
        "State": "Pulau Pinang"
    },
    {
        "Postcode": "13300",
        "Location": "Lorong Sepadu 31",
        "Post_Office": "Tasek Gelugor",
        "State": "Pulau Pinang"
    },
    {
        "Postcode": "13300",
        "Location": "Lorong Sepadu 32",
        "Post_Office": "Tasek Gelugor",
        "State": "Pulau Pinang"
    },
    {
        "Postcode": "13300",
        "Location": "Lorong Sepadu 4",
        "Post_Office": "Tasek Gelugor",
        "State": "Pulau Pinang"
    },
    {
        "Postcode": "13300",
        "Location": "Lorong Sepadu 5",
        "Post_Office": "Tasek Gelugor",
        "State": "Pulau Pinang"
    },
    {
        "Postcode": "13300",
        "Location": "Lorong Sepadu 6",
        "Post_Office": "Tasek Gelugor",
        "State": "Pulau Pinang"
    },
    {
        "Postcode": "13300",
        "Location": "Lorong Sepadu 7",
        "Post_Office": "Tasek Gelugor",
        "State": "Pulau Pinang"
    },
    {
        "Postcode": "13300",
        "Location": "Lorong Sepadu 8",
        "Post_Office": "Tasek Gelugor",
        "State": "Pulau Pinang"
    },
    {
        "Postcode": "13300",
        "Location": "Lorong Sepadu 9",
        "Post_Office": "Tasek Gelugor",
        "State": "Pulau Pinang"
    },
    {
        "Postcode": "13300",
        "Location": "Lorong Seri Desa 1",
        "Post_Office": "Tasek Gelugor",
        "State": "Pulau Pinang"
    },
    {
        "Postcode": "13300",
        "Location": "Lorong Seri Desa 10",
        "Post_Office": "Tasek Gelugor",
        "State": "Pulau Pinang"
    },
    {
        "Postcode": "13300",
        "Location": "Lorong Seri Desa 11",
        "Post_Office": "Tasek Gelugor",
        "State": "Pulau Pinang"
    },
    {
        "Postcode": "13300",
        "Location": "Lorong Seri Desa 12",
        "Post_Office": "Tasek Gelugor",
        "State": "Pulau Pinang"
    },
    {
        "Postcode": "13300",
        "Location": "Lorong Seri Desa 13",
        "Post_Office": "Tasek Gelugor",
        "State": "Pulau Pinang"
    },
    {
        "Postcode": "13300",
        "Location": "Lorong Seri Desa 14",
        "Post_Office": "Tasek Gelugor",
        "State": "Pulau Pinang"
    },
    {
        "Postcode": "13300",
        "Location": "Lorong Seri Desa 15",
        "Post_Office": "Tasek Gelugor",
        "State": "Pulau Pinang"
    },
    {
        "Postcode": "13300",
        "Location": "Lorong Seri Desa 16",
        "Post_Office": "Tasek Gelugor",
        "State": "Pulau Pinang"
    },
    {
        "Postcode": "13300",
        "Location": "Lorong Seri Desa 17",
        "Post_Office": "Tasek Gelugor",
        "State": "Pulau Pinang"
    },
    {
        "Postcode": "13300",
        "Location": "Lorong Seri Desa 2",
        "Post_Office": "Tasek Gelugor",
        "State": "Pulau Pinang"
    },
    {
        "Postcode": "13300",
        "Location": "Lorong Seri Desa 3",
        "Post_Office": "Tasek Gelugor",
        "State": "Pulau Pinang"
    },
    {
        "Postcode": "13300",
        "Location": "Lorong Seri Desa 4",
        "Post_Office": "Tasek Gelugor",
        "State": "Pulau Pinang"
    },
    {
        "Postcode": "13300",
        "Location": "Lorong Seri Desa 5",
        "Post_Office": "Tasek Gelugor",
        "State": "Pulau Pinang"
    },
    {
        "Postcode": "13300",
        "Location": "Lorong Seri Desa 6",
        "Post_Office": "Tasek Gelugor",
        "State": "Pulau Pinang"
    },
    {
        "Postcode": "13300",
        "Location": "Lorong Seri Desa 7",
        "Post_Office": "Tasek Gelugor",
        "State": "Pulau Pinang"
    },
    {
        "Postcode": "13300",
        "Location": "Lorong Seri Desa 8",
        "Post_Office": "Tasek Gelugor",
        "State": "Pulau Pinang"
    },
    {
        "Postcode": "13300",
        "Location": "Lorong Seri Desa 9",
        "Post_Office": "Tasek Gelugor",
        "State": "Pulau Pinang"
    },
    {
        "Postcode": "13300",
        "Location": "Lorong Seri Gelugor 1",
        "Post_Office": "Tasek Gelugor",
        "State": "Pulau Pinang"
    },
    {
        "Postcode": "13300",
        "Location": "Lorong Seri Gelugor 10",
        "Post_Office": "Tasek Gelugor",
        "State": "Pulau Pinang"
    },
    {
        "Postcode": "13300",
        "Location": "Lorong Seri Gelugor 11",
        "Post_Office": "Tasek Gelugor",
        "State": "Pulau Pinang"
    },
    {
        "Postcode": "13300",
        "Location": "Lorong Seri Gelugor 12",
        "Post_Office": "Tasek Gelugor",
        "State": "Pulau Pinang"
    },
    {
        "Postcode": "13300",
        "Location": "Lorong Seri Gelugor 13",
        "Post_Office": "Tasek Gelugor",
        "State": "Pulau Pinang"
    },
    {
        "Postcode": "13300",
        "Location": "Lorong Seri Gelugor 14",
        "Post_Office": "Tasek Gelugor",
        "State": "Pulau Pinang"
    },
    {
        "Postcode": "13300",
        "Location": "Lorong Seri Gelugor 15",
        "Post_Office": "Tasek Gelugor",
        "State": "Pulau Pinang"
    },
    {
        "Postcode": "13300",
        "Location": "Lorong Seri Gelugor 16",
        "Post_Office": "Tasek Gelugor",
        "State": "Pulau Pinang"
    },
    {
        "Postcode": "13300",
        "Location": "Lorong Seri Gelugor 2",
        "Post_Office": "Tasek Gelugor",
        "State": "Pulau Pinang"
    },
    {
        "Postcode": "13300",
        "Location": "Lorong Seri Gelugor 3",
        "Post_Office": "Tasek Gelugor",
        "State": "Pulau Pinang"
    },
    {
        "Postcode": "13300",
        "Location": "Lorong Seri Gelugor 4",
        "Post_Office": "Tasek Gelugor",
        "State": "Pulau Pinang"
    },
    {
        "Postcode": "13300",
        "Location": "Lorong Seri Gelugor 5",
        "Post_Office": "Tasek Gelugor",
        "State": "Pulau Pinang"
    },
    {
        "Postcode": "13300",
        "Location": "Lorong Seri Gelugor 6",
        "Post_Office": "Tasek Gelugor",
        "State": "Pulau Pinang"
    },
    {
        "Postcode": "13300",
        "Location": "Lorong Seri Gelugor 7",
        "Post_Office": "Tasek Gelugor",
        "State": "Pulau Pinang"
    },
    {
        "Postcode": "13300",
        "Location": "Lorong Seri Gelugor 8",
        "Post_Office": "Tasek Gelugor",
        "State": "Pulau Pinang"
    },
    {
        "Postcode": "13300",
        "Location": "Lorong Seri Gelugor 9",
        "Post_Office": "Tasek Gelugor",
        "State": "Pulau Pinang"
    },
    {
        "Postcode": "13300",
        "Location": "Lorong Seri Menderung 10",
        "Post_Office": "Tasek Gelugor",
        "State": "Pulau Pinang"
    },
    {
        "Postcode": "13300",
        "Location": "Lorong Seri Menderung 11",
        "Post_Office": "Tasek Gelugor",
        "State": "Pulau Pinang"
    },
    {
        "Postcode": "13300",
        "Location": "Lorong Seri Menderung 12",
        "Post_Office": "Tasek Gelugor",
        "State": "Pulau Pinang"
    },
    {
        "Postcode": "13300",
        "Location": "Lorong Seri Menderung 2",
        "Post_Office": "Tasek Gelugor",
        "State": "Pulau Pinang"
    },
    {
        "Postcode": "13300",
        "Location": "Lorong Seri Menderung 3",
        "Post_Office": "Tasek Gelugor",
        "State": "Pulau Pinang"
    },
    {
        "Postcode": "13300",
        "Location": "Lorong Seri Menderung 4",
        "Post_Office": "Tasek Gelugor",
        "State": "Pulau Pinang"
    },
    {
        "Postcode": "13300",
        "Location": "Lorong Seri Menderung 5",
        "Post_Office": "Tasek Gelugor",
        "State": "Pulau Pinang"
    },
    {
        "Postcode": "13300",
        "Location": "Lorong Seri Menderung 6",
        "Post_Office": "Tasek Gelugor",
        "State": "Pulau Pinang"
    },
    {
        "Postcode": "13300",
        "Location": "Lorong Seri Menderung 7",
        "Post_Office": "Tasek Gelugor",
        "State": "Pulau Pinang"
    },
    {
        "Postcode": "13300",
        "Location": "Lorong Seri Menderung 8",
        "Post_Office": "Tasek Gelugor",
        "State": "Pulau Pinang"
    },
    {
        "Postcode": "13300",
        "Location": "Lorong Seri Menderung 9",
        "Post_Office": "Tasek Gelugor",
        "State": "Pulau Pinang"
    },
    {
        "Postcode": "13300",
        "Location": "Lorong Taman Bakawali 1",
        "Post_Office": "Tasek Gelugor",
        "State": "Pulau Pinang"
    },
    {
        "Postcode": "13300",
        "Location": "Lorong Taman Bakawali 2",
        "Post_Office": "Tasek Gelugor",
        "State": "Pulau Pinang"
    },
    {
        "Postcode": "13300",
        "Location": "Lorong Taman Bakawali 3",
        "Post_Office": "Tasek Gelugor",
        "State": "Pulau Pinang"
    },
    {
        "Postcode": "13300",
        "Location": "Lorong Taman Bakawali 4",
        "Post_Office": "Tasek Gelugor",
        "State": "Pulau Pinang"
    },
    {
        "Postcode": "13300",
        "Location": "Tingkat Selemat 1",
        "Post_Office": "Tasek Gelugor",
        "State": "Pulau Pinang"
    },
    {
        "Postcode": "13300",
        "Location": "Tingkat Selemat 10",
        "Post_Office": "Tasek Gelugor",
        "State": "Pulau Pinang"
    },
    {
        "Postcode": "13300",
        "Location": "Tingkat Selemat 11",
        "Post_Office": "Tasek Gelugor",
        "State": "Pulau Pinang"
    },
    {
        "Postcode": "13300",
        "Location": "Tingkat Selemat 2",
        "Post_Office": "Tasek Gelugor",
        "State": "Pulau Pinang"
    },
    {
        "Postcode": "13300",
        "Location": "Tingkat Selemat 3",
        "Post_Office": "Tasek Gelugor",
        "State": "Pulau Pinang"
    },
    {
        "Postcode": "13300",
        "Location": "Tingkat Selemat 4",
        "Post_Office": "Tasek Gelugor",
        "State": "Pulau Pinang"
    },
    {
        "Postcode": "13300",
        "Location": "Tingkat Selemat 5",
        "Post_Office": "Tasek Gelugor",
        "State": "Pulau Pinang"
    },
    {
        "Postcode": "13300",
        "Location": "Tingkat Selemat 6",
        "Post_Office": "Tasek Gelugor",
        "State": "Pulau Pinang"
    },
    {
        "Postcode": "13300",
        "Location": "Tingkat Selemat 7",
        "Post_Office": "Tasek Gelugor",
        "State": "Pulau Pinang"
    },
    {
        "Postcode": "13300",
        "Location": "Tingkat Selemat 8",
        "Post_Office": "Tasek Gelugor",
        "State": "Pulau Pinang"
    },
    {
        "Postcode": "13300",
        "Location": "Tingkat Selemat 9",
        "Post_Office": "Tasek Gelugor",
        "State": "Pulau Pinang"
    },
    {
        "Postcode": "13300",
        "Location": "Tingkat Selesa 1",
        "Post_Office": "Tasek Gelugor",
        "State": "Pulau Pinang"
    },
    {
        "Postcode": "13300",
        "Location": "Tingkat Selesa 2",
        "Post_Office": "Tasek Gelugor",
        "State": "Pulau Pinang"
    },
    {
        "Postcode": "13300",
        "Location": "Tingkat Selesa 3",
        "Post_Office": "Tasek Gelugor",
        "State": "Pulau Pinang"
    },
    {
        "Postcode": "13300",
        "Location": "Jalan Selesa",
        "Post_Office": "Tasek Gelugor",
        "State": "Pulau Pinang"
    },
    {
        "Postcode": "13300",
        "Location": "Taman Belibis",
        "Post_Office": "Tasek Gelugor",
        "State": "Pulau Pinang"
    },
    {
        "Postcode": "13300",
        "Location": "Taman Selesa",
        "Post_Office": "Tasek Gelugor",
        "State": "Pulau Pinang"
    },
    {
        "Postcode": "13300",
        "Location": "Kampung Selamat",
        "Post_Office": "Tasek Gelugor",
        "State": "Pulau Pinang"
    },
    {
        "Postcode": "13300",
        "Location": "Kampung Permatang Manggis",
        "Post_Office": "Tasek Gelugor",
        "State": "Pulau Pinang"
    },
    {
        "Postcode": "13300",
        "Location": "Lorong Selesa 1",
        "Post_Office": "Tasek Gelugor",
        "State": "Pulau Pinang"
    },
    {
        "Postcode": "13300",
        "Location": "Lorong Selesa 2",
        "Post_Office": "Tasek Gelugor",
        "State": "Pulau Pinang"
    },
    {
        "Postcode": "13300",
        "Location": "Simpang Tiga",
        "Post_Office": "Tasek Gelugor",
        "State": "Pulau Pinang"
    },
    {
        "Postcode": "13300",
        "Location": "Air Hitam Dalam",
        "Post_Office": "Tasek Gelugor",
        "State": "Pulau Pinang"
    },
    {
        "Postcode": "13300",
        "Location": "Air Hitam Luar",
        "Post_Office": "Tasek Gelugor",
        "State": "Pulau Pinang"
    },
    {
        "Postcode": "13300",
        "Location": "Ayer Melintas Besar",
        "Post_Office": "Tasek Gelugor",
        "State": "Pulau Pinang"
    },
    {
        "Postcode": "13300",
        "Location": "Ayer Melintas Kecil",
        "Post_Office": "Tasek Gelugor",
        "State": "Pulau Pinang"
    },
    {
        "Postcode": "13300",
        "Location": "Bukit Tok Alang Estate",
        "Post_Office": "Tasek Gelugor",
        "State": "Pulau Pinang"
    },
    {
        "Postcode": "13300",
        "Location": "Desa Puri",
        "Post_Office": "Tasek Gelugor",
        "State": "Pulau Pinang"
    },
    {
        "Postcode": "13300",
        "Location": "Estet Mayfield",
        "Post_Office": "Tasek Gelugor",
        "State": "Pulau Pinang"
    },
    {
        "Postcode": "13300",
        "Location": "Hock Eng Estate",
        "Post_Office": "Tasek Gelugor",
        "State": "Pulau Pinang"
    },
    {
        "Postcode": "13300",
        "Location": "Jalan Ahmad Hj. Jamil 1",
        "Post_Office": "Tasek Gelugor",
        "State": "Pulau Pinang"
    },
    {
        "Postcode": "13300",
        "Location": "Jalan Besar Permatang Berangan",
        "Post_Office": "Tasek Gelugor",
        "State": "Pulau Pinang"
    },
    {
        "Postcode": "13300",
        "Location": "Jalan Besar Simpang Tiga",
        "Post_Office": "Tasek Gelugor",
        "State": "Pulau Pinang"
    },
    {
        "Postcode": "13300",
        "Location": "Jalan Besar Taman Bakawali",
        "Post_Office": "Tasek Gelugor",
        "State": "Pulau Pinang"
    },
    {
        "Postcode": "13300",
        "Location": "Jalan Besar Taman Kemaju",
        "Post_Office": "Tasek Gelugor",
        "State": "Pulau Pinang"
    },
    {
        "Postcode": "13300",
        "Location": "Jalan Besar Tasek Gelugor",
        "Post_Office": "Tasek Gelugor",
        "State": "Pulau Pinang"
    },
    {
        "Postcode": "13300",
        "Location": "Jalan Ekor Kucing",
        "Post_Office": "Tasek Gelugor",
        "State": "Pulau Pinang"
    },
    {
        "Postcode": "13300",
        "Location": "Jalan Hashim Awang",
        "Post_Office": "Tasek Gelugor",
        "State": "Pulau Pinang"
    },
    {
        "Postcode": "13300",
        "Location": "Jalan Kampung Baru Kampung Selamat",
        "Post_Office": "Tasek Gelugor",
        "State": "Pulau Pinang"
    },
    {
        "Postcode": "13300",
        "Location": "Jalan Kampung Selamat",
        "Post_Office": "Tasek Gelugor",
        "State": "Pulau Pinang"
    },
    {
        "Postcode": "13300",
        "Location": "Jalan Kampung Tok Bedu",
        "Post_Office": "Tasek Gelugor",
        "State": "Pulau Pinang"
    },
    {
        "Postcode": "13300",
        "Location": "Jalan Kemaju 2",
        "Post_Office": "Tasek Gelugor",
        "State": "Pulau Pinang"
    },
    {
        "Postcode": "13300",
        "Location": "Jalan Permatang Berangan",
        "Post_Office": "Tasek Gelugor",
        "State": "Pulau Pinang"
    },
    {
        "Postcode": "13300",
        "Location": "Jalan Pokok Macang",
        "Post_Office": "Tasek Gelugor",
        "State": "Pulau Pinang"
    },
    {
        "Postcode": "13300",
        "Location": "Jalan Sawi",
        "Post_Office": "Tasek Gelugor",
        "State": "Pulau Pinang"
    },
    {
        "Postcode": "13300",
        "Location": "Jalan Sepadu 1",
        "Post_Office": "Tasek Gelugor",
        "State": "Pulau Pinang"
    },
    {
        "Postcode": "13300",
        "Location": "Jalan Tengah Kampung Selamat",
        "Post_Office": "Tasek Gelugor",
        "State": "Pulau Pinang"
    },
    {
        "Postcode": "13300",
        "Location": "Kampung Air Melintas Besar",
        "Post_Office": "Tasek Gelugor",
        "State": "Pulau Pinang"
    },
    {
        "Postcode": "13300",
        "Location": "Kampung Air Melintas Kecil",
        "Post_Office": "Tasek Gelugor",
        "State": "Pulau Pinang"
    },
    {
        "Postcode": "13300",
        "Location": "Kampung Ayer Itam",
        "Post_Office": "Tasek Gelugor",
        "State": "Pulau Pinang"
    },
    {
        "Postcode": "13300",
        "Location": "Kampung Baru Kampung Selamat",
        "Post_Office": "Tasek Gelugor",
        "State": "Pulau Pinang"
    },
    {
        "Postcode": "13300",
        "Location": "Kampung Belukar",
        "Post_Office": "Tasek Gelugor",
        "State": "Pulau Pinang"
    },
    {
        "Postcode": "13300",
        "Location": "Kampung Desa Puri",
        "Post_Office": "Tasek Gelugor",
        "State": "Pulau Pinang"
    },
    {
        "Postcode": "13300",
        "Location": "Kampung Ekor Kucing",
        "Post_Office": "Tasek Gelugor",
        "State": "Pulau Pinang"
    },
    {
        "Postcode": "13300",
        "Location": "Kampung Kubang Menderung",
        "Post_Office": "Tasek Gelugor",
        "State": "Pulau Pinang"
    },
    {
        "Postcode": "13300",
        "Location": "Kampung Kubang Menderung B",
        "Post_Office": "Tasek Gelugor",
        "State": "Pulau Pinang"
    },
    {
        "Postcode": "13300",
        "Location": "Kampung Lahar Tambun",
        "Post_Office": "Tasek Gelugor",
        "State": "Pulau Pinang"
    },
    {
        "Postcode": "13300",
        "Location": "Kampung Lahar Yooi",
        "Post_Office": "Tasek Gelugor",
        "State": "Pulau Pinang"
    },
    {
        "Postcode": "13300",
        "Location": "Kampung Master",
        "Post_Office": "Tasek Gelugor",
        "State": "Pulau Pinang"
    },
    {
        "Postcode": "13300",
        "Location": "Kampung Padang Kunyit",
        "Post_Office": "Tasek Gelugor",
        "State": "Pulau Pinang"
    },
    {
        "Postcode": "13300",
        "Location": "Kampung Paya Tok Akil",
        "Post_Office": "Tasek Gelugor",
        "State": "Pulau Pinang"
    },
    {
        "Postcode": "13300",
        "Location": "Kampung Permatang Berangan",
        "Post_Office": "Tasek Gelugor",
        "State": "Pulau Pinang"
    },
    {
        "Postcode": "13300",
        "Location": "Kampung Pokok Jenerih",
        "Post_Office": "Tasek Gelugor",
        "State": "Pulau Pinang"
    },
    {
        "Postcode": "13300",
        "Location": "Kampung Pokok Macang",
        "Post_Office": "Tasek Gelugor",
        "State": "Pulau Pinang"
    },
    {
        "Postcode": "13300",
        "Location": "Kampung Pokok Tampang",
        "Post_Office": "Tasek Gelugor",
        "State": "Pulau Pinang"
    },
    {
        "Postcode": "13300",
        "Location": "Kampung Rakit",
        "Post_Office": "Tasek Gelugor",
        "State": "Pulau Pinang"
    },
    {
        "Postcode": "13300",
        "Location": "Kampung Sungai Korok",
        "Post_Office": "Tasek Gelugor",
        "State": "Pulau Pinang"
    },
    {
        "Postcode": "13300",
        "Location": "Kampung Tasek",
        "Post_Office": "Tasek Gelugor",
        "State": "Pulau Pinang"
    },
    {
        "Postcode": "13300",
        "Location": "Kampung Tersusun Kampung Tok Bedu",
        "Post_Office": "Tasek Gelugor",
        "State": "Pulau Pinang"
    },
    {
        "Postcode": "13300",
        "Location": "Kampung Tok Bedu",
        "Post_Office": "Tasek Gelugor",
        "State": "Pulau Pinang"
    },
    {
        "Postcode": "13300",
        "Location": "Kampung Tok Bidor",
        "Post_Office": "Tasek Gelugor",
        "State": "Pulau Pinang"
    },
    {
        "Postcode": "13300",
        "Location": "Komplek Tasek Gelugor",
        "Post_Office": "Tasek Gelugor",
        "State": "Pulau Pinang"
    },
    {
        "Postcode": "13300",
        "Location": "Kubang Menerong",
        "Post_Office": "Tasek Gelugor",
        "State": "Pulau Pinang"
    },
    {
        "Postcode": "13300",
        "Location": "Ladang Mayfield",
        "Post_Office": "Tasek Gelugor",
        "State": "Pulau Pinang"
    },
    {
        "Postcode": "13300",
        "Location": "Lahar Tambun",
        "Post_Office": "Tasek Gelugor",
        "State": "Pulau Pinang"
    },
    {
        "Postcode": "13300",
        "Location": "Lahar Yooi",
        "Post_Office": "Tasek Gelugor",
        "State": "Pulau Pinang"
    },
    {
        "Postcode": "13300",
        "Location": "Lorong Sawi",
        "Post_Office": "Tasek Gelugor",
        "State": "Pulau Pinang"
    },
    {
        "Postcode": "13300",
        "Location": "Lorong Seri Desa",
        "Post_Office": "Tasek Gelugor",
        "State": "Pulau Pinang"
    },
    {
        "Postcode": "13300",
        "Location": "Lubok Batu Jarak Atas",
        "Post_Office": "Tasek Gelugor",
        "State": "Pulau Pinang"
    },
    {
        "Postcode": "13300",
        "Location": "Lubok Meriam",
        "Post_Office": "Tasek Gelugor",
        "State": "Pulau Pinang"
    },
    {
        "Postcode": "13300",
        "Location": "Malakoff Estate",
        "Post_Office": "Tasek Gelugor",
        "State": "Pulau Pinang"
    },
    {
        "Postcode": "13300",
        "Location": "Nyior Sebatang",
        "Post_Office": "Tasek Gelugor",
        "State": "Pulau Pinang"
    },
    {
        "Postcode": "13300",
        "Location": "Padang Tong Soon",
        "Post_Office": "Tasek Gelugor",
        "State": "Pulau Pinang"
    },
    {
        "Postcode": "13300",
        "Location": "Paya Tok Akil",
        "Post_Office": "Tasek Gelugor",
        "State": "Pulau Pinang"
    },
    {
        "Postcode": "13300",
        "Location": "Permatang Berangan",
        "Post_Office": "Tasek Gelugor",
        "State": "Pulau Pinang"
    },
    {
        "Postcode": "13300",
        "Location": "Permatang Indah",
        "Post_Office": "Tasek Gelugor",
        "State": "Pulau Pinang"
    },
    {
        "Postcode": "13300",
        "Location": "Permatang Indah Tasek Gelugor",
        "Post_Office": "Tasek Gelugor",
        "State": "Pulau Pinang"
    },
    {
        "Postcode": "13300",
        "Location": "Permatang Manggis Luar",
        "Post_Office": "Tasek Gelugor",
        "State": "Pulau Pinang"
    },
    {
        "Postcode": "13300",
        "Location": "Pokok Jenereh",
        "Post_Office": "Tasek Gelugor",
        "State": "Pulau Pinang"
    },
    {
        "Postcode": "13300",
        "Location": "Pokok Machang",
        "Post_Office": "Tasek Gelugor",
        "State": "Pulau Pinang"
    },
    {
        "Postcode": "13300",
        "Location": "Pokok Tampang",
        "Post_Office": "Tasek Gelugor",
        "State": "Pulau Pinang"
    },
    {
        "Postcode": "13300",
        "Location": "Seberang Tok Dooi",
        "Post_Office": "Tasek Gelugor",
        "State": "Pulau Pinang"
    },
    {
        "Postcode": "13300",
        "Location": "Simpang Ampat Permatang Buluh",
        "Post_Office": "Tasek Gelugor",
        "State": "Pulau Pinang"
    },
    {
        "Postcode": "13300",
        "Location": "Simpang Tiga Jalan Besar",
        "Post_Office": "Tasek Gelugor",
        "State": "Pulau Pinang"
    },
    {
        "Postcode": "13300",
        "Location": "Simpang Tiga Kampung Master",
        "Post_Office": "Tasek Gelugor",
        "State": "Pulau Pinang"
    },
    {
        "Postcode": "13300",
        "Location": "Solok Sawi",
        "Post_Office": "Tasek Gelugor",
        "State": "Pulau Pinang"
    },
    {
        "Postcode": "13300",
        "Location": "Sungai Korok",
        "Post_Office": "Tasek Gelugor",
        "State": "Pulau Pinang"
    },
    {
        "Postcode": "13300",
        "Location": "Taman Bakawali",
        "Post_Office": "Tasek Gelugor",
        "State": "Pulau Pinang"
    },
    {
        "Postcode": "13300",
        "Location": "Taman Ekor Kucing",
        "Post_Office": "Tasek Gelugor",
        "State": "Pulau Pinang"
    },
    {
        "Postcode": "13300",
        "Location": "Taman Gelugur Indah",
        "Post_Office": "Tasek Gelugor",
        "State": "Pulau Pinang"
    },
    {
        "Postcode": "13300",
        "Location": "Taman Haji Ahmad Jamil",
        "Post_Office": "Tasek Gelugor",
        "State": "Pulau Pinang"
    },
    {
        "Postcode": "13300",
        "Location": "Taman Industri Asas Tani Perda",
        "Post_Office": "Tasek Gelugor",
        "State": "Pulau Pinang"
    },
    {
        "Postcode": "13300",
        "Location": "Taman Kemaju",
        "Post_Office": "Tasek Gelugor",
        "State": "Pulau Pinang"
    },
    {
        "Postcode": "13300",
        "Location": "Taman Sawi",
        "Post_Office": "Tasek Gelugor",
        "State": "Pulau Pinang"
    },
    {
        "Postcode": "13300",
        "Location": "Taman Selasa",
        "Post_Office": "Tasek Gelugor",
        "State": "Pulau Pinang"
    },
    {
        "Postcode": "13300",
        "Location": "Taman Sepadu",
        "Post_Office": "Tasek Gelugor",
        "State": "Pulau Pinang"
    },
    {
        "Postcode": "13300",
        "Location": "Taman Seri Desa",
        "Post_Office": "Tasek Gelugor",
        "State": "Pulau Pinang"
    },
    {
        "Postcode": "13300",
        "Location": "Taman Seri Gelugor",
        "Post_Office": "Tasek Gelugor",
        "State": "Pulau Pinang"
    },
    {
        "Postcode": "13300",
        "Location": "Taman Sri Menarong",
        "Post_Office": "Tasek Gelugor",
        "State": "Pulau Pinang"
    },
    {
        "Postcode": "13300",
        "Location": "Taman Sri Menderung",
        "Post_Office": "Tasek Gelugor",
        "State": "Pulau Pinang"
    },
    {
        "Postcode": "13300",
        "Location": "Taman Tasek Ratna",
        "Post_Office": "Tasek Gelugor",
        "State": "Pulau Pinang"
    }
]
