[
    {
        "Postcode": "13310",
        "Location": "Kampung Seberang Tok Doi",
        "Post_Office": "Tasek Gelugor",
        "State": "Pulau Pinang"
    },
    {
        "Postcode": "13310",
        "Location": "Kampung Tepi Sungai",
        "Post_Office": "Tasek Gelugor",
        "State": "Pulau Pinang"
    },
    {
        "Postcode": "13310",
        "Location": "Lorong Cempedak 10",
        "Post_Office": "Tasek Gelugor",
        "State": "Pulau Pinang"
    },
    {
        "Postcode": "13310",
        "Location": "Lorong Cempedak 11",
        "Post_Office": "Tasek Gelugor",
        "State": "Pulau Pinang"
    },
    {
        "Postcode": "13310",
        "Location": "Lorong Cempedak 12",
        "Post_Office": "Tasek Gelugor",
        "State": "Pulau Pinang"
    },
    {
        "Postcode": "13310",
        "Location": "Lorong Cempedak 13",
        "Post_Office": "Tasek Gelugor",
        "State": "Pulau Pinang"
    },
    {
        "Postcode": "13310",
        "Location": "Lorong Cempedak 14",
        "Post_Office": "Tasek Gelugor",
        "State": "Pulau Pinang"
    },
    {
        "Postcode": "13310",
        "Location": "Lorong Cempedak 15",
        "Post_Office": "Tasek Gelugor",
        "State": "Pulau Pinang"
    },
    {
        "Postcode": "13310",
        "Location": "Lorong Cempedak 16",
        "Post_Office": "Tasek Gelugor",
        "State": "Pulau Pinang"
    },
    {
        "Postcode": "13310",
        "Location": "Lorong Cempedak 17",
        "Post_Office": "Tasek Gelugor",
        "State": "Pulau Pinang"
    },
    {
        "Postcode": "13310",
        "Location": "Lorong Cempedak 18",
        "Post_Office": "Tasek Gelugor",
        "State": "Pulau Pinang"
    },
    {
        "Postcode": "13310",
        "Location": "Lorong Cempedak 19",
        "Post_Office": "Tasek Gelugor",
        "State": "Pulau Pinang"
    },
    {
        "Postcode": "13310",
        "Location": "Lorong Cempedak 20",
        "Post_Office": "Tasek Gelugor",
        "State": "Pulau Pinang"
    },
    {
        "Postcode": "13310",
        "Location": "Lorong Cempedak 21",
        "Post_Office": "Tasek Gelugor",
        "State": "Pulau Pinang"
    },
    {
        "Postcode": "13310",
        "Location": "Lorong Cempedak 22",
        "Post_Office": "Tasek Gelugor",
        "State": "Pulau Pinang"
    },
    {
        "Postcode": "13310",
        "Location": "Lorong Cempedak 23",
        "Post_Office": "Tasek Gelugor",
        "State": "Pulau Pinang"
    },
    {
        "Postcode": "13310",
        "Location": "Lorong Cempedak 24",
        "Post_Office": "Tasek Gelugor",
        "State": "Pulau Pinang"
    },
    {
        "Postcode": "13310",
        "Location": "Lorong Cempedak 25",
        "Post_Office": "Tasek Gelugor",
        "State": "Pulau Pinang"
    },
    {
        "Postcode": "13310",
        "Location": "Lorong Cempedak 26",
        "Post_Office": "Tasek Gelugor",
        "State": "Pulau Pinang"
    },
    {
        "Postcode": "13310",
        "Location": "Lorong Cempedak 4",
        "Post_Office": "Tasek Gelugor",
        "State": "Pulau Pinang"
    },
    {
        "Postcode": "13310",
        "Location": "Lorong Cempedak 5",
        "Post_Office": "Tasek Gelugor",
        "State": "Pulau Pinang"
    },
    {
        "Postcode": "13310",
        "Location": "Lorong Cempedak 6",
        "Post_Office": "Tasek Gelugor",
        "State": "Pulau Pinang"
    },
    {
        "Postcode": "13310",
        "Location": "Lorong Cempedak 7",
        "Post_Office": "Tasek Gelugor",
        "State": "Pulau Pinang"
    },
    {
        "Postcode": "13310",
        "Location": "Lorong Cempedak 8",
        "Post_Office": "Tasek Gelugor",
        "State": "Pulau Pinang"
    },
    {
        "Postcode": "13310",
        "Location": "Lorong Cempedak 9",
        "Post_Office": "Tasek Gelugor",
        "State": "Pulau Pinang"
    },
    {
        "Postcode": "13310",
        "Location": "Lorong Cempedak 2",
        "Post_Office": "Tasek Gelugor",
        "State": "Pulau Pinang"
    },
    {
        "Postcode": "13310",
        "Location": "Lorong Cempedak 3",
        "Post_Office": "Tasek Gelugor",
        "State": "Pulau Pinang"
    },
    {
        "Postcode": "13310",
        "Location": "Bukit Tok Alang",
        "Post_Office": "Tasek Gelugor",
        "State": "Pulau Pinang"
    },
    {
        "Postcode": "13310",
        "Location": "Guar Pertai",
        "Post_Office": "Tasek Gelugor",
        "State": "Pulau Pinang"
    },
    {
        "Postcode": "13310",
        "Location": "Jarak",
        "Post_Office": "Tasek Gelugor",
        "State": "Pulau Pinang"
    },
    {
        "Postcode": "13310",
        "Location": "Kampung Baru (Padang Menora)",
        "Post_Office": "Tasek Gelugor",
        "State": "Pulau Pinang"
    },
    {
        "Postcode": "13310",
        "Location": "Kampung Baru Labu Banting",
        "Post_Office": "Tasek Gelugor",
        "State": "Pulau Pinang"
    },
    {
        "Postcode": "13310",
        "Location": "Kampung Chegar",
        "Post_Office": "Tasek Gelugor",
        "State": "Pulau Pinang"
    },
    {
        "Postcode": "13310",
        "Location": "Kampung Guar Petai",
        "Post_Office": "Tasek Gelugor",
        "State": "Pulau Pinang"
    },
    {
        "Postcode": "13310",
        "Location": "Kampung Padang Huma",
        "Post_Office": "Tasek Gelugor",
        "State": "Pulau Pinang"
    },
    {
        "Postcode": "13310",
        "Location": "Kampung Tok Jawa",
        "Post_Office": "Tasek Gelugor",
        "State": "Pulau Pinang"
    },
    {
        "Postcode": "13310",
        "Location": "Kampung Tok Lalang",
        "Post_Office": "Tasek Gelugor",
        "State": "Pulau Pinang"
    },
    {
        "Postcode": "13310",
        "Location": "Labu Banting",
        "Post_Office": "Tasek Gelugor",
        "State": "Pulau Pinang"
    },
    {
        "Postcode": "13310",
        "Location": "Ladang Bukit Tok Alang",
        "Post_Office": "Tasek Gelugor",
        "State": "Pulau Pinang"
    },
    {
        "Postcode": "13310",
        "Location": "Ladang Jarak",
        "Post_Office": "Tasek Gelugor",
        "State": "Pulau Pinang"
    },
    {
        "Postcode": "13310",
        "Location": "Lubuk Batu",
        "Post_Office": "Tasek Gelugor",
        "State": "Pulau Pinang"
    },
    {
        "Postcode": "13310",
        "Location": "Padang Chempedak",
        "Post_Office": "Tasek Gelugor",
        "State": "Pulau Pinang"
    },
    {
        "Postcode": "13310",
        "Location": "Padang Menora",
        "Post_Office": "Tasek Gelugor",
        "State": "Pulau Pinang"
    },
    {
        "Postcode": "13310",
        "Location": "Padang Tong Sun",
        "Post_Office": "Tasek Gelugor",
        "State": "Pulau Pinang"
    },
    {
        "Postcode": "13310",
        "Location": "Pengkalan Batu",
        "Post_Office": "Tasek Gelugor",
        "State": "Pulau Pinang"
    },
    {
        "Postcode": "13310",
        "Location": "Permatang Manggis Dalam",
        "Post_Office": "Tasek Gelugor",
        "State": "Pulau Pinang"
    },
    {
        "Postcode": "13310",
        "Location": "Sungai Datuk",
        "Post_Office": "Tasek Gelugor",
        "State": "Pulau Pinang"
    },
    {
        "Postcode": "13310",
        "Location": "Taman Cempedak",
        "Post_Office": "Tasek Gelugor",
        "State": "Pulau Pinang"
    },
    {
        "Postcode": "13310",
        "Location": "Titi Sungai Kulim",
        "Post_Office": "Tasek Gelugor",
        "State": "Pulau Pinang"
    }
]
