[
    {
        "Postcode": "13500",
        "Location": "Kampung Besar",
        "Post_Office": "Permatang Pauh",
        "State": "Pulau Pinang"
    },
    {
        "Postcode": "13500",
        "Location": "Permatang Janggus",
        "Post_Office": "Permatang Pauh",
        "State": "Pulau Pinang"
    },
    {
        "Postcode": "13500",
        "Location": "Permatang Tengah",
        "Post_Office": "Permatang Pauh",
        "State": "Pulau Pinang"
    },
    {
        "Postcode": "13500",
        "Location": "Taman Desa Pauh",
        "Post_Office": "Permatang Pauh",
        "State": "Pulau Pinang"
    },
    {
        "Postcode": "13500",
        "Location": "Taman Naluri",
        "Post_Office": "Permatang Pauh",
        "State": "Pulau Pinang"
    },
    {
        "Postcode": "13500",
        "Location": "Taman Samagagah",
        "Post_Office": "Permatang Pauh",
        "State": "Pulau Pinang"
    },
    {
        "Postcode": "13500",
        "Location": "Taman Seri Pauh",
        "Post_Office": "Permatang Pauh",
        "State": "Pulau Pinang"
    },
    {
        "Postcode": "13500",
        "Location": "Jalan Arowana 1",
        "Post_Office": "Permatang Pauh",
        "State": "Pulau Pinang"
    },
    {
        "Postcode": "13500",
        "Location": "Jalan Arowana 2",
        "Post_Office": "Permatang Pauh",
        "State": "Pulau Pinang"
    },
    {
        "Postcode": "13500",
        "Location": "Jalan Arowana 3",
        "Post_Office": "Permatang Pauh",
        "State": "Pulau Pinang"
    },
    {
        "Postcode": "13500",
        "Location": "Jalan Arowana 4",
        "Post_Office": "Permatang Pauh",
        "State": "Pulau Pinang"
    },
    {
        "Postcode": "13500",
        "Location": "Jalan Arowana Emas 1",
        "Post_Office": "Permatang Pauh",
        "State": "Pulau Pinang"
    },
    {
        "Postcode": "13500",
        "Location": "Jalan Arowana Emas 2",
        "Post_Office": "Permatang Pauh",
        "State": "Pulau Pinang"
    },
    {
        "Postcode": "13500",
        "Location": "Jalan Cermai 1",
        "Post_Office": "Permatang Pauh",
        "State": "Pulau Pinang"
    },
    {
        "Postcode": "13500",
        "Location": "Jalan Cermai 2",
        "Post_Office": "Permatang Pauh",
        "State": "Pulau Pinang"
    },
    {
        "Postcode": "13500",
        "Location": "Jalan Janggus 1",
        "Post_Office": "Permatang Pauh",
        "State": "Pulau Pinang"
    },
    {
        "Postcode": "13500",
        "Location": "Jalan Janggus 2",
        "Post_Office": "Permatang Pauh",
        "State": "Pulau Pinang"
    },
    {
        "Postcode": "13500",
        "Location": "Jalan Janggus 3",
        "Post_Office": "Permatang Pauh",
        "State": "Pulau Pinang"
    },
    {
        "Postcode": "13500",
        "Location": "Jalan Janggus 4",
        "Post_Office": "Permatang Pauh",
        "State": "Pulau Pinang"
    },
    {
        "Postcode": "13500",
        "Location": "Lintang Arowana 1",
        "Post_Office": "Permatang Pauh",
        "State": "Pulau Pinang"
    },
    {
        "Postcode": "13500",
        "Location": "Lintang Arowana 2",
        "Post_Office": "Permatang Pauh",
        "State": "Pulau Pinang"
    },
    {
        "Postcode": "13500",
        "Location": "Lintang Pauh Indah 1",
        "Post_Office": "Permatang Pauh",
        "State": "Pulau Pinang"
    },
    {
        "Postcode": "13500",
        "Location": "Lintang Pauh Indah 2",
        "Post_Office": "Permatang Pauh",
        "State": "Pulau Pinang"
    },
    {
        "Postcode": "13500",
        "Location": "Lintang Pauh Indah 3",
        "Post_Office": "Permatang Pauh",
        "State": "Pulau Pinang"
    },
    {
        "Postcode": "13500",
        "Location": "Lintang Pauh Indah 4",
        "Post_Office": "Permatang Pauh",
        "State": "Pulau Pinang"
    },
    {
        "Postcode": "13500",
        "Location": "Lintang Pauh Indah 5",
        "Post_Office": "Permatang Pauh",
        "State": "Pulau Pinang"
    },
    {
        "Postcode": "13500",
        "Location": "Lintang Pauh Indah 6",
        "Post_Office": "Permatang Pauh",
        "State": "Pulau Pinang"
    },
    {
        "Postcode": "13500",
        "Location": "Lorong Ara Indah 1/1",
        "Post_Office": "Permatang Pauh",
        "State": "Pulau Pinang"
    },
    {
        "Postcode": "13500",
        "Location": "Lorong Ara Indah 3/2",
        "Post_Office": "Permatang Pauh",
        "State": "Pulau Pinang"
    },
    {
        "Postcode": "13500",
        "Location": "Lorong Arowana 1",
        "Post_Office": "Permatang Pauh",
        "State": "Pulau Pinang"
    },
    {
        "Postcode": "13500",
        "Location": "Lorong Arowana 3",
        "Post_Office": "Permatang Pauh",
        "State": "Pulau Pinang"
    },
    {
        "Postcode": "13500",
        "Location": "Lorong Janggus Jaya 1",
        "Post_Office": "Permatang Pauh",
        "State": "Pulau Pinang"
    },
    {
        "Postcode": "13500",
        "Location": "Lorong Janggus Jaya 10",
        "Post_Office": "Permatang Pauh",
        "State": "Pulau Pinang"
    },
    {
        "Postcode": "13500",
        "Location": "Lorong Janggus Jaya 12",
        "Post_Office": "Permatang Pauh",
        "State": "Pulau Pinang"
    },
    {
        "Postcode": "13500",
        "Location": "Lorong Pauh 10",
        "Post_Office": "Permatang Pauh",
        "State": "Pulau Pinang"
    },
    {
        "Postcode": "13500",
        "Location": "Lorong Pauh 11",
        "Post_Office": "Permatang Pauh",
        "State": "Pulau Pinang"
    },
    {
        "Postcode": "13500",
        "Location": "Lorong Pauh 12",
        "Post_Office": "Permatang Pauh",
        "State": "Pulau Pinang"
    },
    {
        "Postcode": "13500",
        "Location": "Lorong Pauh 13",
        "Post_Office": "Permatang Pauh",
        "State": "Pulau Pinang"
    },
    {
        "Postcode": "13500",
        "Location": "Lorong Pauh 14",
        "Post_Office": "Permatang Pauh",
        "State": "Pulau Pinang"
    },
    {
        "Postcode": "13500",
        "Location": "Lorong Pauh 15",
        "Post_Office": "Permatang Pauh",
        "State": "Pulau Pinang"
    },
    {
        "Postcode": "13500",
        "Location": "Lorong Pauh 16",
        "Post_Office": "Permatang Pauh",
        "State": "Pulau Pinang"
    },
    {
        "Postcode": "13500",
        "Location": "Lorong Pauh 2",
        "Post_Office": "Permatang Pauh",
        "State": "Pulau Pinang"
    },
    {
        "Postcode": "13500",
        "Location": "Lorong Pauh 3",
        "Post_Office": "Permatang Pauh",
        "State": "Pulau Pinang"
    },
    {
        "Postcode": "13500",
        "Location": "Lorong Pauh 4",
        "Post_Office": "Permatang Pauh",
        "State": "Pulau Pinang"
    },
    {
        "Postcode": "13500",
        "Location": "Lorong Pauh 5",
        "Post_Office": "Permatang Pauh",
        "State": "Pulau Pinang"
    },
    {
        "Postcode": "13500",
        "Location": "Lorong Pauh 6",
        "Post_Office": "Permatang Pauh",
        "State": "Pulau Pinang"
    },
    {
        "Postcode": "13500",
        "Location": "Lorong Pauh 7",
        "Post_Office": "Permatang Pauh",
        "State": "Pulau Pinang"
    },
    {
        "Postcode": "13500",
        "Location": "Lorong Pauh 8",
        "Post_Office": "Permatang Pauh",
        "State": "Pulau Pinang"
    },
    {
        "Postcode": "13500",
        "Location": "Lorong Pauh 9",
        "Post_Office": "Permatang Pauh",
        "State": "Pulau Pinang"
    },
    {
        "Postcode": "13500",
        "Location": "Lorong Seri Arowana 11",
        "Post_Office": "Permatang Pauh",
        "State": "Pulau Pinang"
    },
    {
        "Postcode": "13500",
        "Location": "Lorong Seri Arowana 12",
        "Post_Office": "Permatang Pauh",
        "State": "Pulau Pinang"
    },
    {
        "Postcode": "13500",
        "Location": "Lorong Seri Arowana 13",
        "Post_Office": "Permatang Pauh",
        "State": "Pulau Pinang"
    },
    {
        "Postcode": "13500",
        "Location": "Lorong Seri Arowana 14",
        "Post_Office": "Permatang Pauh",
        "State": "Pulau Pinang"
    },
    {
        "Postcode": "13500",
        "Location": "Solok Nipah 1",
        "Post_Office": "Permatang Pauh",
        "State": "Pulau Pinang"
    },
    {
        "Postcode": "13500",
        "Location": "Solok Nipah 2",
        "Post_Office": "Permatang Pauh",
        "State": "Pulau Pinang"
    },
    {
        "Postcode": "13500",
        "Location": "Solok Nipah 3",
        "Post_Office": "Permatang Pauh",
        "State": "Pulau Pinang"
    },
    {
        "Postcode": "13500",
        "Location": "Solok Samagagah 1",
        "Post_Office": "Permatang Pauh",
        "State": "Pulau Pinang"
    },
    {
        "Postcode": "13500",
        "Location": "Solok Samagagah 2",
        "Post_Office": "Permatang Pauh",
        "State": "Pulau Pinang"
    },
    {
        "Postcode": "13500",
        "Location": "Solok Samagagah 3",
        "Post_Office": "Permatang Pauh",
        "State": "Pulau Pinang"
    },
    {
        "Postcode": "13500",
        "Location": "Jalan Nipah",
        "Post_Office": "Permatang Pauh",
        "State": "Pulau Pinang"
    },
    {
        "Postcode": "13500",
        "Location": "Jalan Permatang Pauh",
        "Post_Office": "Permatang Pauh",
        "State": "Pulau Pinang"
    },
    {
        "Postcode": "13500",
        "Location": "Kampung Permatang Pasir",
        "Post_Office": "Permatang Pauh",
        "State": "Pulau Pinang"
    },
    {
        "Postcode": "13500",
        "Location": "Pengkalan Tambang",
        "Post_Office": "Permatang Pauh",
        "State": "Pulau Pinang"
    },
    {
        "Postcode": "13500",
        "Location": "Permatang Pauh",
        "Post_Office": "Permatang Pauh",
        "State": "Pulau Pinang"
    },
    {
        "Postcode": "13500",
        "Location": "Permatang Rambai",
        "Post_Office": "Permatang Pauh",
        "State": "Pulau Pinang"
    },
    {
        "Postcode": "13500",
        "Location": "Taman Ara Indah",
        "Post_Office": "Permatang Pauh",
        "State": "Pulau Pinang"
    },
    {
        "Postcode": "13500",
        "Location": "Taman Pauh Jaya ",
        "Post_Office": "Permatang Pauh",
        "State": "Pulau Pinang"
    },
    {
        "Postcode": "13500",
        "Location": "Tingkat Nipah",
        "Post_Office": "Permatang Pauh",
        "State": "Pulau Pinang"
    },
    {
        "Postcode": "13500",
        "Location": "Bukit Jelutong",
        "Post_Office": "Permatang Pauh",
        "State": "Pulau Pinang"
    },
    {
        "Postcode": "13500",
        "Location": "Bukit Merah",
        "Post_Office": "Permatang Pauh",
        "State": "Pulau Pinang"
    },
    {
        "Postcode": "13500",
        "Location": "Hutan Nibong",
        "Post_Office": "Permatang Pauh",
        "State": "Pulau Pinang"
    },
    {
        "Postcode": "13500",
        "Location": "Jalan Ara Indah",
        "Post_Office": "Permatang Pauh",
        "State": "Pulau Pinang"
    },
    {
        "Postcode": "13500",
        "Location": "Jalan Arowana",
        "Post_Office": "Permatang Pauh",
        "State": "Pulau Pinang"
    },
    {
        "Postcode": "13500",
        "Location": "Jalan Cermai",
        "Post_Office": "Permatang Pauh",
        "State": "Pulau Pinang"
    },
    {
        "Postcode": "13500",
        "Location": "Jalan Kubang Semang",
        "Post_Office": "Permatang Pauh",
        "State": "Pulau Pinang"
    },
    {
        "Postcode": "13500",
        "Location": "Jalan Pauh 1",
        "Post_Office": "Permatang Pauh",
        "State": "Pulau Pinang"
    },
    {
        "Postcode": "13500",
        "Location": "Jalan Pauh Indah",
        "Post_Office": "Permatang Pauh",
        "State": "Pulau Pinang"
    },
    {
        "Postcode": "13500",
        "Location": "Jalan Pauh Indah 1",
        "Post_Office": "Permatang Pauh",
        "State": "Pulau Pinang"
    },
    {
        "Postcode": "13500",
        "Location": "Jalan Perigi",
        "Post_Office": "Permatang Pauh",
        "State": "Pulau Pinang"
    },
    {
        "Postcode": "13500",
        "Location": "Jalan Permatang Janggus",
        "Post_Office": "Permatang Pauh",
        "State": "Pulau Pinang"
    },
    {
        "Postcode": "13500",
        "Location": "Jalan Permatang Nibong",
        "Post_Office": "Permatang Pauh",
        "State": "Pulau Pinang"
    },
    {
        "Postcode": "13500",
        "Location": "Jalan Permatang Tengah",
        "Post_Office": "Permatang Pauh",
        "State": "Pulau Pinang"
    },
    {
        "Postcode": "13500",
        "Location": "Jalan Sama Gagah",
        "Post_Office": "Permatang Pauh",
        "State": "Pulau Pinang"
    },
    {
        "Postcode": "13500",
        "Location": "Jalan Seberang Jaya",
        "Post_Office": "Permatang Pauh",
        "State": "Pulau Pinang"
    },
    {
        "Postcode": "13500",
        "Location": "Jalan Sempilai",
        "Post_Office": "Permatang Pauh",
        "State": "Pulau Pinang"
    },
    {
        "Postcode": "13500",
        "Location": "Jalan Taman Pauh",
        "Post_Office": "Permatang Pauh",
        "State": "Pulau Pinang"
    },
    {
        "Postcode": "13500",
        "Location": "Kampung Bagan Serai",
        "Post_Office": "Permatang Pauh",
        "State": "Pulau Pinang"
    },
    {
        "Postcode": "13500",
        "Location": "Kampung Belah Dua",
        "Post_Office": "Permatang Pauh",
        "State": "Pulau Pinang"
    },
    {
        "Postcode": "13500",
        "Location": "Kampung Kota",
        "Post_Office": "Permatang Pauh",
        "State": "Pulau Pinang"
    },
    {
        "Postcode": "13500",
        "Location": "Kampung Pertama",
        "Post_Office": "Permatang Pauh",
        "State": "Pulau Pinang"
    },
    {
        "Postcode": "13500",
        "Location": "Kampung Samagagah",
        "Post_Office": "Permatang Pauh",
        "State": "Pulau Pinang"
    },
    {
        "Postcode": "13500",
        "Location": "Kampung Tok Ebot",
        "Post_Office": "Permatang Pauh",
        "State": "Pulau Pinang"
    },
    {
        "Postcode": "13500",
        "Location": "Kawasan Perniagaan Arowana",
        "Post_Office": "Permatang Pauh",
        "State": "Pulau Pinang"
    },
    {
        "Postcode": "13500",
        "Location": "Kompleks Sempilai",
        "Post_Office": "Permatang Pauh",
        "State": "Pulau Pinang"
    },
    {
        "Postcode": "13500",
        "Location": "Lorong Ara Indah 1",
        "Post_Office": "Permatang Pauh",
        "State": "Pulau Pinang"
    },
    {
        "Postcode": "13500",
        "Location": "Lorong Arowana Emas",
        "Post_Office": "Permatang Pauh",
        "State": "Pulau Pinang"
    },
    {
        "Postcode": "13500",
        "Location": "Lorong Cermai",
        "Post_Office": "Permatang Pauh",
        "State": "Pulau Pinang"
    },
    {
        "Postcode": "13500",
        "Location": "Lorong Pauh",
        "Post_Office": "Permatang Pauh",
        "State": "Pulau Pinang"
    },
    {
        "Postcode": "13500",
        "Location": "Lorong Pauh Indah",
        "Post_Office": "Permatang Pauh",
        "State": "Pulau Pinang"
    },
    {
        "Postcode": "13500",
        "Location": "Lorong Pauh Indah 2",
        "Post_Office": "Permatang Pauh",
        "State": "Pulau Pinang"
    },
    {
        "Postcode": "13500",
        "Location": "Lorong Sama Gagah",
        "Post_Office": "Permatang Pauh",
        "State": "Pulau Pinang"
    },
    {
        "Postcode": "13500",
        "Location": "Lorong Seri Arowana 2",
        "Post_Office": "Permatang Pauh",
        "State": "Pulau Pinang"
    },
    {
        "Postcode": "13500",
        "Location": "Pangsapuri Idaman",
        "Post_Office": "Permatang Pauh",
        "State": "Pulau Pinang"
    },
    {
        "Postcode": "13500",
        "Location": "Permatang Ara",
        "Post_Office": "Permatang Pauh",
        "State": "Pulau Pinang"
    },
    {
        "Postcode": "13500",
        "Location": "Permatang Nibong",
        "Post_Office": "Permatang Pauh",
        "State": "Pulau Pinang"
    },
    {
        "Postcode": "13500",
        "Location": "Permatang Rotan",
        "Post_Office": "Permatang Pauh",
        "State": "Pulau Pinang"
    },
    {
        "Postcode": "13500",
        "Location": "Permatang To' Kandu",
        "Post_Office": "Permatang Pauh",
        "State": "Pulau Pinang"
    },
    {
        "Postcode": "13500",
        "Location": "Persiaran Ara Indah",
        "Post_Office": "Permatang Pauh",
        "State": "Pulau Pinang"
    },
    {
        "Postcode": "13500",
        "Location": "Sama Gagah",
        "Post_Office": "Permatang Pauh",
        "State": "Pulau Pinang"
    },
    {
        "Postcode": "13500",
        "Location": "Solok Samagagah",
        "Post_Office": "Permatang Pauh",
        "State": "Pulau Pinang"
    },
    {
        "Postcode": "13500",
        "Location": "Sungai Derhaka",
        "Post_Office": "Permatang Pauh",
        "State": "Pulau Pinang"
    },
    {
        "Postcode": "13500",
        "Location": "Sungai Sintok",
        "Post_Office": "Permatang Pauh",
        "State": "Pulau Pinang"
    },
    {
        "Postcode": "13500",
        "Location": "Taman Arowana",
        "Post_Office": "Permatang Pauh",
        "State": "Pulau Pinang"
    },
    {
        "Postcode": "13500",
        "Location": "Taman Arowana Emas",
        "Post_Office": "Permatang Pauh",
        "State": "Pulau Pinang"
    },
    {
        "Postcode": "13500",
        "Location": "Taman Cermai",
        "Post_Office": "Permatang Pauh",
        "State": "Pulau Pinang"
    },
    {
        "Postcode": "13500",
        "Location": "Taman Haji Mohd Amin",
        "Post_Office": "Permatang Pauh",
        "State": "Pulau Pinang"
    },
    {
        "Postcode": "13500",
        "Location": "Taman Himalaya",
        "Post_Office": "Permatang Pauh",
        "State": "Pulau Pinang"
    },
    {
        "Postcode": "13500",
        "Location": "Taman Janggus",
        "Post_Office": "Permatang Pauh",
        "State": "Pulau Pinang"
    },
    {
        "Postcode": "13500",
        "Location": "Taman Janggus Jaya",
        "Post_Office": "Permatang Pauh",
        "State": "Pulau Pinang"
    },
    {
        "Postcode": "13500",
        "Location": "Taman Pauh",
        "Post_Office": "Permatang Pauh",
        "State": "Pulau Pinang"
    },
    {
        "Postcode": "13500",
        "Location": "Taman Pauh Indah",
        "Post_Office": "Permatang Pauh",
        "State": "Pulau Pinang"
    },
    {
        "Postcode": "13500",
        "Location": "Taman Permatang Jaya",
        "Post_Office": "Permatang Pauh",
        "State": "Pulau Pinang"
    },
    {
        "Postcode": "13500",
        "Location": "Tanjung Putus",
        "Post_Office": "Permatang Pauh",
        "State": "Pulau Pinang"
    },
    {
        "Postcode": "13500",
        "Location": "Tingkat Sama Gagah",
        "Post_Office": "Permatang Pauh",
        "State": "Pulau Pinang"
    }
]
