[
    {
        "Postcode": "13700",
        "Location": "Kampung Jalan Baru",
        "Post_Office": "Perai",
        "State": "Pulau Pinang"
    },
    {
        "Postcode": "13700",
        "Location": "Kampung Jawa",
        "Post_Office": "Perai",
        "State": "Pulau Pinang"
    },
    {
        "Postcode": "13700",
        "Location": "Lorong Desa Sutera",
        "Post_Office": "Perai",
        "State": "Pulau Pinang"
    },
    {
        "Postcode": "13700",
        "Location": "Lorong Sutera Prima 1",
        "Post_Office": "Perai",
        "State": "Pulau Pinang"
    },
    {
        "Postcode": "13700",
        "Location": "Lorong Sutera Prima 2",
        "Post_Office": "Perai",
        "State": "Pulau Pinang"
    },
    {
        "Postcode": "13700",
        "Location": "Lorong Sutera Prima 3",
        "Post_Office": "Perai",
        "State": "Pulau Pinang"
    },
    {
        "Postcode": "13700",
        "Location": "Lorong Sutera Prima 4",
        "Post_Office": "Perai",
        "State": "Pulau Pinang"
    },
    {
        "Postcode": "13700",
        "Location": "Lorong Sutera Prima 5",
        "Post_Office": "Perai",
        "State": "Pulau Pinang"
    },
    {
        "Postcode": "13700",
        "Location": "Lorong Sutera Prima 6",
        "Post_Office": "Perai",
        "State": "Pulau Pinang"
    },
    {
        "Postcode": "13700",
        "Location": "Lorong Sutera Prima 7",
        "Post_Office": "Perai",
        "State": "Pulau Pinang"
    },
    {
        "Postcode": "13700",
        "Location": "Lorong Sutera Prima 8",
        "Post_Office": "Perai",
        "State": "Pulau Pinang"
    },
    {
        "Postcode": "13700",
        "Location": "Lorong Sutera Prima 9",
        "Post_Office": "Perai",
        "State": "Pulau Pinang"
    },
    {
        "Postcode": "13700",
        "Location": "Taman Desa Sutera",
        "Post_Office": "Perai",
        "State": "Pulau Pinang"
    },
    {
        "Postcode": "13700",
        "Location": "Lorong Pauh Jaya 5/1",
        "Post_Office": "Perai",
        "State": "Pulau Pinang"
    },
    {
        "Postcode": "13700",
        "Location": "Lorong Pauh Jaya 5/2",
        "Post_Office": "Perai",
        "State": "Pulau Pinang"
    },
    {
        "Postcode": "13700",
        "Location": "Pangsapuri Laguna Indah",
        "Post_Office": "Perai",
        "State": "Pulau Pinang"
    },
    {
        "Postcode": "13700",
        "Location": "Pangsapuri Palma Laguna",
        "Post_Office": "Perai",
        "State": "Pulau Pinang"
    },
    {
        "Postcode": "13700",
        "Location": "Pangsapuri Pinang Laguna",
        "Post_Office": "Perai",
        "State": "Pulau Pinang"
    },
    {
        "Postcode": "13700",
        "Location": "Kampung Sutera",
        "Post_Office": "Perai",
        "State": "Pulau Pinang"
    },
    {
        "Postcode": "13700",
        "Location": "Taman China Town",
        "Post_Office": "Perai",
        "State": "Pulau Pinang"
    },
    {
        "Postcode": "13700",
        "Location": "Taman Kelisa Mutiara",
        "Post_Office": "Perai",
        "State": "Pulau Pinang"
    },
    {
        "Postcode": "13700",
        "Location": "Taman Sembilang",
        "Post_Office": "Perai",
        "State": "Pulau Pinang"
    },
    {
        "Postcode": "13700",
        "Location": "Taman Telok Indah",
        "Post_Office": "Perai",
        "State": "Pulau Pinang"
    },
    {
        "Postcode": "13700",
        "Location": "Jalan Kelisa Emas 4",
        "Post_Office": "Perai",
        "State": "Pulau Pinang"
    },
    {
        "Postcode": "13700",
        "Location": "Jalan Kelisa Emas 6",
        "Post_Office": "Perai",
        "State": "Pulau Pinang"
    },
    {
        "Postcode": "13700",
        "Location": "Jalan Laguna 1",
        "Post_Office": "Perai",
        "State": "Pulau Pinang"
    },
    {
        "Postcode": "13700",
        "Location": "Jalan Laguna 2",
        "Post_Office": "Perai",
        "State": "Pulau Pinang"
    },
    {
        "Postcode": "13700",
        "Location": "Jalan Laguna 3",
        "Post_Office": "Perai",
        "State": "Pulau Pinang"
    },
    {
        "Postcode": "13700",
        "Location": "Jalan Pauh Jaya 1/1",
        "Post_Office": "Perai",
        "State": "Pulau Pinang"
    },
    {
        "Postcode": "13700",
        "Location": "Jalan Pauh Jaya 1/2",
        "Post_Office": "Perai",
        "State": "Pulau Pinang"
    },
    {
        "Postcode": "13700",
        "Location": "Jalan Pauh Jaya 1/3",
        "Post_Office": "Perai",
        "State": "Pulau Pinang"
    },
    {
        "Postcode": "13700",
        "Location": "Jalan Seri Arowana 1",
        "Post_Office": "Perai",
        "State": "Pulau Pinang"
    },
    {
        "Postcode": "13700",
        "Location": "Jalan Seri Arowana 3",
        "Post_Office": "Perai",
        "State": "Pulau Pinang"
    },
    {
        "Postcode": "13700",
        "Location": "Lintang Kurau 1",
        "Post_Office": "Perai",
        "State": "Pulau Pinang"
    },
    {
        "Postcode": "13700",
        "Location": "Lintang Kurau 2",
        "Post_Office": "Perai",
        "State": "Pulau Pinang"
    },
    {
        "Postcode": "13700",
        "Location": "Lintang Kurau 3",
        "Post_Office": "Perai",
        "State": "Pulau Pinang"
    },
    {
        "Postcode": "13700",
        "Location": "Lintang Kurau 4",
        "Post_Office": "Perai",
        "State": "Pulau Pinang"
    },
    {
        "Postcode": "13700",
        "Location": "Lintang Kurau 5",
        "Post_Office": "Perai",
        "State": "Pulau Pinang"
    },
    {
        "Postcode": "13700",
        "Location": "Lintang Kurau 6",
        "Post_Office": "Perai",
        "State": "Pulau Pinang"
    },
    {
        "Postcode": "13700",
        "Location": "Lintang Kurau 7",
        "Post_Office": "Perai",
        "State": "Pulau Pinang"
    },
    {
        "Postcode": "13700",
        "Location": "Lintang Siakap 1",
        "Post_Office": "Perai",
        "State": "Pulau Pinang"
    },
    {
        "Postcode": "13700",
        "Location": "Lintang Siakap 3",
        "Post_Office": "Perai",
        "State": "Pulau Pinang"
    },
    {
        "Postcode": "13700",
        "Location": "Lintang Siakap 5",
        "Post_Office": "Perai",
        "State": "Pulau Pinang"
    },
    {
        "Postcode": "13700",
        "Location": "Lorong Bawal 1",
        "Post_Office": "Perai",
        "State": "Pulau Pinang"
    },
    {
        "Postcode": "13700",
        "Location": "Lorong Bawal 2",
        "Post_Office": "Perai",
        "State": "Pulau Pinang"
    },
    {
        "Postcode": "13700",
        "Location": "Lorong Bawal 3",
        "Post_Office": "Perai",
        "State": "Pulau Pinang"
    },
    {
        "Postcode": "13700",
        "Location": "Lorong Bawal 4",
        "Post_Office": "Perai",
        "State": "Pulau Pinang"
    },
    {
        "Postcode": "13700",
        "Location": "Lorong Bawal 5",
        "Post_Office": "Perai",
        "State": "Pulau Pinang"
    },
    {
        "Postcode": "13700",
        "Location": "Lorong Bawal 6",
        "Post_Office": "Perai",
        "State": "Pulau Pinang"
    },
    {
        "Postcode": "13700",
        "Location": "Lorong Bawal 7",
        "Post_Office": "Perai",
        "State": "Pulau Pinang"
    },
    {
        "Postcode": "13700",
        "Location": "Lorong Irama 1",
        "Post_Office": "Perai",
        "State": "Pulau Pinang"
    },
    {
        "Postcode": "13700",
        "Location": "Lorong Irama 2",
        "Post_Office": "Perai",
        "State": "Pulau Pinang"
    },
    {
        "Postcode": "13700",
        "Location": "Lorong Irama 3",
        "Post_Office": "Perai",
        "State": "Pulau Pinang"
    },
    {
        "Postcode": "13700",
        "Location": "Lorong Irama 4",
        "Post_Office": "Perai",
        "State": "Pulau Pinang"
    },
    {
        "Postcode": "13700",
        "Location": "Lorong Irama 5",
        "Post_Office": "Perai",
        "State": "Pulau Pinang"
    },
    {
        "Postcode": "13700",
        "Location": "Lorong Irama 6",
        "Post_Office": "Perai",
        "State": "Pulau Pinang"
    },
    {
        "Postcode": "13700",
        "Location": "Lorong Irama 7",
        "Post_Office": "Perai",
        "State": "Pulau Pinang"
    },
    {
        "Postcode": "13700",
        "Location": "Lorong Irama 8",
        "Post_Office": "Perai",
        "State": "Pulau Pinang"
    },
    {
        "Postcode": "13700",
        "Location": "Lorong Kelisa Emas 2",
        "Post_Office": "Perai",
        "State": "Pulau Pinang"
    },
    {
        "Postcode": "13700",
        "Location": "Lorong Kelisa Emas 3",
        "Post_Office": "Perai",
        "State": "Pulau Pinang"
    },
    {
        "Postcode": "13700",
        "Location": "Lorong Kelisa Emas 4",
        "Post_Office": "Perai",
        "State": "Pulau Pinang"
    },
    {
        "Postcode": "13700",
        "Location": "Lorong Kelisa Emas 5",
        "Post_Office": "Perai",
        "State": "Pulau Pinang"
    },
    {
        "Postcode": "13700",
        "Location": "Lorong Kelisa Emas 6",
        "Post_Office": "Perai",
        "State": "Pulau Pinang"
    },
    {
        "Postcode": "13700",
        "Location": "Lorong Kurau 1",
        "Post_Office": "Perai",
        "State": "Pulau Pinang"
    },
    {
        "Postcode": "13700",
        "Location": "Lorong Kurau 10",
        "Post_Office": "Perai",
        "State": "Pulau Pinang"
    },
    {
        "Postcode": "13700",
        "Location": "Lorong Kurau 11",
        "Post_Office": "Perai",
        "State": "Pulau Pinang"
    },
    {
        "Postcode": "13700",
        "Location": "Lorong Kurau 12",
        "Post_Office": "Perai",
        "State": "Pulau Pinang"
    },
    {
        "Postcode": "13700",
        "Location": "Lorong Kurau 13",
        "Post_Office": "Perai",
        "State": "Pulau Pinang"
    },
    {
        "Postcode": "13700",
        "Location": "Lorong Kurau 14",
        "Post_Office": "Perai",
        "State": "Pulau Pinang"
    },
    {
        "Postcode": "13700",
        "Location": "Lorong Kurau 15",
        "Post_Office": "Perai",
        "State": "Pulau Pinang"
    },
    {
        "Postcode": "13700",
        "Location": "Lorong Kurau 16",
        "Post_Office": "Perai",
        "State": "Pulau Pinang"
    },
    {
        "Postcode": "13700",
        "Location": "Lorong Kurau 17",
        "Post_Office": "Perai",
        "State": "Pulau Pinang"
    },
    {
        "Postcode": "13700",
        "Location": "Lorong Kurau 18",
        "Post_Office": "Perai",
        "State": "Pulau Pinang"
    },
    {
        "Postcode": "13700",
        "Location": "Lorong Kurau 19",
        "Post_Office": "Perai",
        "State": "Pulau Pinang"
    },
    {
        "Postcode": "13700",
        "Location": "Lorong Kurau 2",
        "Post_Office": "Perai",
        "State": "Pulau Pinang"
    },
    {
        "Postcode": "13700",
        "Location": "Lorong Kurau 20",
        "Post_Office": "Perai",
        "State": "Pulau Pinang"
    },
    {
        "Postcode": "13700",
        "Location": "Lorong Kurau 21",
        "Post_Office": "Perai",
        "State": "Pulau Pinang"
    },
    {
        "Postcode": "13700",
        "Location": "Lorong Kurau 22",
        "Post_Office": "Perai",
        "State": "Pulau Pinang"
    },
    {
        "Postcode": "13700",
        "Location": "Lorong Kurau 23",
        "Post_Office": "Perai",
        "State": "Pulau Pinang"
    },
    {
        "Postcode": "13700",
        "Location": "Lorong Kurau 24",
        "Post_Office": "Perai",
        "State": "Pulau Pinang"
    },
    {
        "Postcode": "13700",
        "Location": "Lorong Kurau 25",
        "Post_Office": "Perai",
        "State": "Pulau Pinang"
    },
    {
        "Postcode": "13700",
        "Location": "Lorong Kurau 26",
        "Post_Office": "Perai",
        "State": "Pulau Pinang"
    },
    {
        "Postcode": "13700",
        "Location": "Lorong Kurau 27",
        "Post_Office": "Perai",
        "State": "Pulau Pinang"
    },
    {
        "Postcode": "13700",
        "Location": "Lorong Kurau 28",
        "Post_Office": "Perai",
        "State": "Pulau Pinang"
    },
    {
        "Postcode": "13700",
        "Location": "Lorong Kurau 29",
        "Post_Office": "Perai",
        "State": "Pulau Pinang"
    },
    {
        "Postcode": "13700",
        "Location": "Lorong Kurau 3",
        "Post_Office": "Perai",
        "State": "Pulau Pinang"
    },
    {
        "Postcode": "13700",
        "Location": "Lorong Kurau 30",
        "Post_Office": "Perai",
        "State": "Pulau Pinang"
    },
    {
        "Postcode": "13700",
        "Location": "Lorong Kurau 31",
        "Post_Office": "Perai",
        "State": "Pulau Pinang"
    },
    {
        "Postcode": "13700",
        "Location": "Lorong Kurau 32",
        "Post_Office": "Perai",
        "State": "Pulau Pinang"
    },
    {
        "Postcode": "13700",
        "Location": "Lorong Kurau 33",
        "Post_Office": "Perai",
        "State": "Pulau Pinang"
    },
    {
        "Postcode": "13700",
        "Location": "Lorong Kurau 4",
        "Post_Office": "Perai",
        "State": "Pulau Pinang"
    },
    {
        "Postcode": "13700",
        "Location": "Lorong Kurau 5",
        "Post_Office": "Perai",
        "State": "Pulau Pinang"
    },
    {
        "Postcode": "13700",
        "Location": "Lorong Kurau 6",
        "Post_Office": "Perai",
        "State": "Pulau Pinang"
    },
    {
        "Postcode": "13700",
        "Location": "Lorong Kurau 7",
        "Post_Office": "Perai",
        "State": "Pulau Pinang"
    },
    {
        "Postcode": "13700",
        "Location": "Lorong Kurau 8",
        "Post_Office": "Perai",
        "State": "Pulau Pinang"
    },
    {
        "Postcode": "13700",
        "Location": "Lorong Kurau 9",
        "Post_Office": "Perai",
        "State": "Pulau Pinang"
    },
    {
        "Postcode": "13700",
        "Location": "Lorong Lampan 1",
        "Post_Office": "Perai",
        "State": "Pulau Pinang"
    },
    {
        "Postcode": "13700",
        "Location": "Lorong Lampan 2",
        "Post_Office": "Perai",
        "State": "Pulau Pinang"
    },
    {
        "Postcode": "13700",
        "Location": "Lorong Mega 1",
        "Post_Office": "Perai",
        "State": "Pulau Pinang"
    },
    {
        "Postcode": "13700",
        "Location": "Lorong Mega 2",
        "Post_Office": "Perai",
        "State": "Pulau Pinang"
    },
    {
        "Postcode": "13700",
        "Location": "Lorong Mega 3",
        "Post_Office": "Perai",
        "State": "Pulau Pinang"
    },
    {
        "Postcode": "13700",
        "Location": "Lorong Pauh Jaya 4/1",
        "Post_Office": "Perai",
        "State": "Pulau Pinang"
    },
    {
        "Postcode": "13700",
        "Location": "Lorong Pauh Jaya 4/2",
        "Post_Office": "Perai",
        "State": "Pulau Pinang"
    },
    {
        "Postcode": "13700",
        "Location": "Lorong Pauh Jaya 4/3",
        "Post_Office": "Perai",
        "State": "Pulau Pinang"
    },
    {
        "Postcode": "13700",
        "Location": "Lorong Pauh Jaya 4/4",
        "Post_Office": "Perai",
        "State": "Pulau Pinang"
    },
    {
        "Postcode": "13700",
        "Location": "Lorong Pauh Jaya 4/5",
        "Post_Office": "Perai",
        "State": "Pulau Pinang"
    },
    {
        "Postcode": "13700",
        "Location": "Lorong Pauh Jaya 4/6",
        "Post_Office": "Perai",
        "State": "Pulau Pinang"
    },
    {
        "Postcode": "13700",
        "Location": "Lorong Pauh Jaya 4/7",
        "Post_Office": "Perai",
        "State": "Pulau Pinang"
    },
    {
        "Postcode": "13700",
        "Location": "Lorong Pauh Jaya 4/8",
        "Post_Office": "Perai",
        "State": "Pulau Pinang"
    },
    {
        "Postcode": "13700",
        "Location": "Lorong Pauh Jaya 4/9",
        "Post_Office": "Perai",
        "State": "Pulau Pinang"
    },
    {
        "Postcode": "13700",
        "Location": "Lorong Sembilang 10",
        "Post_Office": "Perai",
        "State": "Pulau Pinang"
    },
    {
        "Postcode": "13700",
        "Location": "Lorong Sembilang 11",
        "Post_Office": "Perai",
        "State": "Pulau Pinang"
    },
    {
        "Postcode": "13700",
        "Location": "Lorong Sembilang 12",
        "Post_Office": "Perai",
        "State": "Pulau Pinang"
    },
    {
        "Postcode": "13700",
        "Location": "Lorong Sembilang 13",
        "Post_Office": "Perai",
        "State": "Pulau Pinang"
    },
    {
        "Postcode": "13700",
        "Location": "Lorong Sembilang 14",
        "Post_Office": "Perai",
        "State": "Pulau Pinang"
    },
    {
        "Postcode": "13700",
        "Location": "Lorong Sembilang 15",
        "Post_Office": "Perai",
        "State": "Pulau Pinang"
    },
    {
        "Postcode": "13700",
        "Location": "Lorong Sembilang 16",
        "Post_Office": "Perai",
        "State": "Pulau Pinang"
    },
    {
        "Postcode": "13700",
        "Location": "Lorong Sembilang 17",
        "Post_Office": "Perai",
        "State": "Pulau Pinang"
    },
    {
        "Postcode": "13700",
        "Location": "Lorong Sembilang 18",
        "Post_Office": "Perai",
        "State": "Pulau Pinang"
    },
    {
        "Postcode": "13700",
        "Location": "Lorong Sembilang 19",
        "Post_Office": "Perai",
        "State": "Pulau Pinang"
    },
    {
        "Postcode": "13700",
        "Location": "Lorong Sembilang 2",
        "Post_Office": "Perai",
        "State": "Pulau Pinang"
    },
    {
        "Postcode": "13700",
        "Location": "Lorong Sembilang 20",
        "Post_Office": "Perai",
        "State": "Pulau Pinang"
    },
    {
        "Postcode": "13700",
        "Location": "Lorong Sembilang 21",
        "Post_Office": "Perai",
        "State": "Pulau Pinang"
    },
    {
        "Postcode": "13700",
        "Location": "Lorong Sembilang 22",
        "Post_Office": "Perai",
        "State": "Pulau Pinang"
    },
    {
        "Postcode": "13700",
        "Location": "Lorong Sembilang 23",
        "Post_Office": "Perai",
        "State": "Pulau Pinang"
    },
    {
        "Postcode": "13700",
        "Location": "Lorong Sembilang 24",
        "Post_Office": "Perai",
        "State": "Pulau Pinang"
    },
    {
        "Postcode": "13700",
        "Location": "Lorong Sembilang 25",
        "Post_Office": "Perai",
        "State": "Pulau Pinang"
    },
    {
        "Postcode": "13700",
        "Location": "Lorong Sembilang 26",
        "Post_Office": "Perai",
        "State": "Pulau Pinang"
    },
    {
        "Postcode": "13700",
        "Location": "Lorong Sembilang 27",
        "Post_Office": "Perai",
        "State": "Pulau Pinang"
    },
    {
        "Postcode": "13700",
        "Location": "Lorong Sembilang 28",
        "Post_Office": "Perai",
        "State": "Pulau Pinang"
    },
    {
        "Postcode": "13700",
        "Location": "Lorong Sembilang 29",
        "Post_Office": "Perai",
        "State": "Pulau Pinang"
    },
    {
        "Postcode": "13700",
        "Location": "Lorong Sembilang 3",
        "Post_Office": "Perai",
        "State": "Pulau Pinang"
    },
    {
        "Postcode": "13700",
        "Location": "Lorong Sembilang 30",
        "Post_Office": "Perai",
        "State": "Pulau Pinang"
    },
    {
        "Postcode": "13700",
        "Location": "Lorong Sembilang 31",
        "Post_Office": "Perai",
        "State": "Pulau Pinang"
    },
    {
        "Postcode": "13700",
        "Location": "Lorong Sembilang 32",
        "Post_Office": "Perai",
        "State": "Pulau Pinang"
    },
    {
        "Postcode": "13700",
        "Location": "Lorong Sembilang 33",
        "Post_Office": "Perai",
        "State": "Pulau Pinang"
    },
    {
        "Postcode": "13700",
        "Location": "Lorong Sembilang 34",
        "Post_Office": "Perai",
        "State": "Pulau Pinang"
    },
    {
        "Postcode": "13700",
        "Location": "Lorong Sembilang 4",
        "Post_Office": "Perai",
        "State": "Pulau Pinang"
    },
    {
        "Postcode": "13700",
        "Location": "Lorong Sembilang 5",
        "Post_Office": "Perai",
        "State": "Pulau Pinang"
    },
    {
        "Postcode": "13700",
        "Location": "Lorong Sembilang 6",
        "Post_Office": "Perai",
        "State": "Pulau Pinang"
    },
    {
        "Postcode": "13700",
        "Location": "Lorong Sembilang 7",
        "Post_Office": "Perai",
        "State": "Pulau Pinang"
    },
    {
        "Postcode": "13700",
        "Location": "Lorong Sembilang 8",
        "Post_Office": "Perai",
        "State": "Pulau Pinang"
    },
    {
        "Postcode": "13700",
        "Location": "Lorong Sembilang 9",
        "Post_Office": "Perai",
        "State": "Pulau Pinang"
    },
    {
        "Postcode": "13700",
        "Location": "Lorong Seri Arowana 4",
        "Post_Office": "Perai",
        "State": "Pulau Pinang"
    },
    {
        "Postcode": "13700",
        "Location": "Lorong Seri Arowana 5",
        "Post_Office": "Perai",
        "State": "Pulau Pinang"
    },
    {
        "Postcode": "13700",
        "Location": "Lorong Seri Arowana 6",
        "Post_Office": "Perai",
        "State": "Pulau Pinang"
    },
    {
        "Postcode": "13700",
        "Location": "Lorong Seri Arowana 7",
        "Post_Office": "Perai",
        "State": "Pulau Pinang"
    },
    {
        "Postcode": "13700",
        "Location": "Lorong Siakap 10",
        "Post_Office": "Perai",
        "State": "Pulau Pinang"
    },
    {
        "Postcode": "13700",
        "Location": "Lorong Siakap 11",
        "Post_Office": "Perai",
        "State": "Pulau Pinang"
    },
    {
        "Postcode": "13700",
        "Location": "Lorong Siakap 12",
        "Post_Office": "Perai",
        "State": "Pulau Pinang"
    },
    {
        "Postcode": "13700",
        "Location": "Lorong Siakap 13",
        "Post_Office": "Perai",
        "State": "Pulau Pinang"
    },
    {
        "Postcode": "13700",
        "Location": "Lorong Siakap 14",
        "Post_Office": "Perai",
        "State": "Pulau Pinang"
    },
    {
        "Postcode": "13700",
        "Location": "Lorong Siakap 15",
        "Post_Office": "Perai",
        "State": "Pulau Pinang"
    },
    {
        "Postcode": "13700",
        "Location": "Lorong Siakap 16",
        "Post_Office": "Perai",
        "State": "Pulau Pinang"
    },
    {
        "Postcode": "13700",
        "Location": "Lorong Siakap 17",
        "Post_Office": "Perai",
        "State": "Pulau Pinang"
    },
    {
        "Postcode": "13700",
        "Location": "Lorong Siakap 18",
        "Post_Office": "Perai",
        "State": "Pulau Pinang"
    },
    {
        "Postcode": "13700",
        "Location": "Lorong Siakap 19",
        "Post_Office": "Perai",
        "State": "Pulau Pinang"
    },
    {
        "Postcode": "13700",
        "Location": "Lorong Siakap 2",
        "Post_Office": "Perai",
        "State": "Pulau Pinang"
    },
    {
        "Postcode": "13700",
        "Location": "Lorong Siakap 20",
        "Post_Office": "Perai",
        "State": "Pulau Pinang"
    },
    {
        "Postcode": "13700",
        "Location": "Lorong Siakap 21",
        "Post_Office": "Perai",
        "State": "Pulau Pinang"
    },
    {
        "Postcode": "13700",
        "Location": "Lorong Siakap 22",
        "Post_Office": "Perai",
        "State": "Pulau Pinang"
    },
    {
        "Postcode": "13700",
        "Location": "Lorong Siakap 23",
        "Post_Office": "Perai",
        "State": "Pulau Pinang"
    },
    {
        "Postcode": "13700",
        "Location": "Lorong Siakap 24",
        "Post_Office": "Perai",
        "State": "Pulau Pinang"
    },
    {
        "Postcode": "13700",
        "Location": "Lorong Siakap 25",
        "Post_Office": "Perai",
        "State": "Pulau Pinang"
    },
    {
        "Postcode": "13700",
        "Location": "Lorong Siakap 26",
        "Post_Office": "Perai",
        "State": "Pulau Pinang"
    },
    {
        "Postcode": "13700",
        "Location": "Lorong Siakap 27",
        "Post_Office": "Perai",
        "State": "Pulau Pinang"
    },
    {
        "Postcode": "13700",
        "Location": "Lorong Siakap 28",
        "Post_Office": "Perai",
        "State": "Pulau Pinang"
    },
    {
        "Postcode": "13700",
        "Location": "Lorong Siakap 29",
        "Post_Office": "Perai",
        "State": "Pulau Pinang"
    },
    {
        "Postcode": "13700",
        "Location": "Lorong Siakap 3",
        "Post_Office": "Perai",
        "State": "Pulau Pinang"
    },
    {
        "Postcode": "13700",
        "Location": "Lorong Siakap 30",
        "Post_Office": "Perai",
        "State": "Pulau Pinang"
    },
    {
        "Postcode": "13700",
        "Location": "Lorong Siakap 31",
        "Post_Office": "Perai",
        "State": "Pulau Pinang"
    },
    {
        "Postcode": "13700",
        "Location": "Lorong Siakap 32",
        "Post_Office": "Perai",
        "State": "Pulau Pinang"
    },
    {
        "Postcode": "13700",
        "Location": "Lorong Siakap 33",
        "Post_Office": "Perai",
        "State": "Pulau Pinang"
    },
    {
        "Postcode": "13700",
        "Location": "Lorong Siakap 34",
        "Post_Office": "Perai",
        "State": "Pulau Pinang"
    },
    {
        "Postcode": "13700",
        "Location": "Lorong Siakap 35",
        "Post_Office": "Perai",
        "State": "Pulau Pinang"
    },
    {
        "Postcode": "13700",
        "Location": "Lorong Siakap 36",
        "Post_Office": "Perai",
        "State": "Pulau Pinang"
    },
    {
        "Postcode": "13700",
        "Location": "Lorong Siakap 4",
        "Post_Office": "Perai",
        "State": "Pulau Pinang"
    },
    {
        "Postcode": "13700",
        "Location": "Lorong Siakap 5",
        "Post_Office": "Perai",
        "State": "Pulau Pinang"
    },
    {
        "Postcode": "13700",
        "Location": "Lorong Siakap 6",
        "Post_Office": "Perai",
        "State": "Pulau Pinang"
    },
    {
        "Postcode": "13700",
        "Location": "Lorong Siakap 7",
        "Post_Office": "Perai",
        "State": "Pulau Pinang"
    },
    {
        "Postcode": "13700",
        "Location": "Lorong Siakap 8",
        "Post_Office": "Perai",
        "State": "Pulau Pinang"
    },
    {
        "Postcode": "13700",
        "Location": "Lorong Siakap 9",
        "Post_Office": "Perai",
        "State": "Pulau Pinang"
    },
    {
        "Postcode": "13700",
        "Location": "Lorong Sutera 1",
        "Post_Office": "Perai",
        "State": "Pulau Pinang"
    },
    {
        "Postcode": "13700",
        "Location": "Lorong Sutera 10",
        "Post_Office": "Perai",
        "State": "Pulau Pinang"
    },
    {
        "Postcode": "13700",
        "Location": "Lorong Sutera 11",
        "Post_Office": "Perai",
        "State": "Pulau Pinang"
    },
    {
        "Postcode": "13700",
        "Location": "Lorong Sutera 12",
        "Post_Office": "Perai",
        "State": "Pulau Pinang"
    },
    {
        "Postcode": "13700",
        "Location": "Lorong Sutera 13",
        "Post_Office": "Perai",
        "State": "Pulau Pinang"
    },
    {
        "Postcode": "13700",
        "Location": "Lorong Sutera 2",
        "Post_Office": "Perai",
        "State": "Pulau Pinang"
    },
    {
        "Postcode": "13700",
        "Location": "Lorong Sutera 3",
        "Post_Office": "Perai",
        "State": "Pulau Pinang"
    },
    {
        "Postcode": "13700",
        "Location": "Lorong Sutera 4",
        "Post_Office": "Perai",
        "State": "Pulau Pinang"
    },
    {
        "Postcode": "13700",
        "Location": "Lorong Sutera 5",
        "Post_Office": "Perai",
        "State": "Pulau Pinang"
    },
    {
        "Postcode": "13700",
        "Location": "Lorong Sutera 6",
        "Post_Office": "Perai",
        "State": "Pulau Pinang"
    },
    {
        "Postcode": "13700",
        "Location": "Lorong Sutera 7",
        "Post_Office": "Perai",
        "State": "Pulau Pinang"
    },
    {
        "Postcode": "13700",
        "Location": "Lorong Sutera 8",
        "Post_Office": "Perai",
        "State": "Pulau Pinang"
    },
    {
        "Postcode": "13700",
        "Location": "Lorong Sutera 9",
        "Post_Office": "Perai",
        "State": "Pulau Pinang"
    },
    {
        "Postcode": "13700",
        "Location": "Lorong Tenggiri 1",
        "Post_Office": "Perai",
        "State": "Pulau Pinang"
    },
    {
        "Postcode": "13700",
        "Location": "Lorong Tenggiri 10",
        "Post_Office": "Perai",
        "State": "Pulau Pinang"
    },
    {
        "Postcode": "13700",
        "Location": "Lorong Tenggiri 11",
        "Post_Office": "Perai",
        "State": "Pulau Pinang"
    },
    {
        "Postcode": "13700",
        "Location": "Lorong Tenggiri 12",
        "Post_Office": "Perai",
        "State": "Pulau Pinang"
    },
    {
        "Postcode": "13700",
        "Location": "Lorong Tenggiri 13",
        "Post_Office": "Perai",
        "State": "Pulau Pinang"
    },
    {
        "Postcode": "13700",
        "Location": "Lorong Tenggiri 14",
        "Post_Office": "Perai",
        "State": "Pulau Pinang"
    },
    {
        "Postcode": "13700",
        "Location": "Lorong Tenggiri 15",
        "Post_Office": "Perai",
        "State": "Pulau Pinang"
    },
    {
        "Postcode": "13700",
        "Location": "Lorong Tenggiri 16",
        "Post_Office": "Perai",
        "State": "Pulau Pinang"
    },
    {
        "Postcode": "13700",
        "Location": "Lorong Tenggiri 17",
        "Post_Office": "Perai",
        "State": "Pulau Pinang"
    },
    {
        "Postcode": "13700",
        "Location": "Lorong Tenggiri 18",
        "Post_Office": "Perai",
        "State": "Pulau Pinang"
    },
    {
        "Postcode": "13700",
        "Location": "Lorong Tenggiri 19",
        "Post_Office": "Perai",
        "State": "Pulau Pinang"
    },
    {
        "Postcode": "13700",
        "Location": "Lorong Tenggiri 2",
        "Post_Office": "Perai",
        "State": "Pulau Pinang"
    },
    {
        "Postcode": "13700",
        "Location": "Lorong Tenggiri 20",
        "Post_Office": "Perai",
        "State": "Pulau Pinang"
    },
    {
        "Postcode": "13700",
        "Location": "Lorong Tenggiri 21",
        "Post_Office": "Perai",
        "State": "Pulau Pinang"
    },
    {
        "Postcode": "13700",
        "Location": "Lorong Tenggiri 22",
        "Post_Office": "Perai",
        "State": "Pulau Pinang"
    },
    {
        "Postcode": "13700",
        "Location": "Lorong Tenggiri 23",
        "Post_Office": "Perai",
        "State": "Pulau Pinang"
    },
    {
        "Postcode": "13700",
        "Location": "Lorong Tenggiri 24",
        "Post_Office": "Perai",
        "State": "Pulau Pinang"
    },
    {
        "Postcode": "13700",
        "Location": "Lorong Tenggiri 25",
        "Post_Office": "Perai",
        "State": "Pulau Pinang"
    },
    {
        "Postcode": "13700",
        "Location": "Lorong Tenggiri 26",
        "Post_Office": "Perai",
        "State": "Pulau Pinang"
    },
    {
        "Postcode": "13700",
        "Location": "Lorong Tenggiri 27",
        "Post_Office": "Perai",
        "State": "Pulau Pinang"
    },
    {
        "Postcode": "13700",
        "Location": "Lorong Tenggiri 28",
        "Post_Office": "Perai",
        "State": "Pulau Pinang"
    },
    {
        "Postcode": "13700",
        "Location": "Lorong Tenggiri 3",
        "Post_Office": "Perai",
        "State": "Pulau Pinang"
    },
    {
        "Postcode": "13700",
        "Location": "Lorong Tenggiri 4",
        "Post_Office": "Perai",
        "State": "Pulau Pinang"
    },
    {
        "Postcode": "13700",
        "Location": "Lorong Tenggiri 5",
        "Post_Office": "Perai",
        "State": "Pulau Pinang"
    },
    {
        "Postcode": "13700",
        "Location": "Lorong Tenggiri 6",
        "Post_Office": "Perai",
        "State": "Pulau Pinang"
    },
    {
        "Postcode": "13700",
        "Location": "Lorong Tenggiri 7",
        "Post_Office": "Perai",
        "State": "Pulau Pinang"
    },
    {
        "Postcode": "13700",
        "Location": "Lorong Tenggiri 8",
        "Post_Office": "Perai",
        "State": "Pulau Pinang"
    },
    {
        "Postcode": "13700",
        "Location": "Lorong Tenggiri 9",
        "Post_Office": "Perai",
        "State": "Pulau Pinang"
    },
    {
        "Postcode": "13700",
        "Location": "Medan Haruan 1",
        "Post_Office": "Perai",
        "State": "Pulau Pinang"
    },
    {
        "Postcode": "13700",
        "Location": "Medan Haruan 2",
        "Post_Office": "Perai",
        "State": "Pulau Pinang"
    },
    {
        "Postcode": "13700",
        "Location": "Medan Kurau 1",
        "Post_Office": "Perai",
        "State": "Pulau Pinang"
    },
    {
        "Postcode": "13700",
        "Location": "Medan Kurau 2",
        "Post_Office": "Perai",
        "State": "Pulau Pinang"
    },
    {
        "Postcode": "13700",
        "Location": "Medan Kurau 3",
        "Post_Office": "Perai",
        "State": "Pulau Pinang"
    },
    {
        "Postcode": "13700",
        "Location": "Pintas Kalui 1",
        "Post_Office": "Perai",
        "State": "Pulau Pinang"
    },
    {
        "Postcode": "13700",
        "Location": "Pintas Kalui 2",
        "Post_Office": "Perai",
        "State": "Pulau Pinang"
    },
    {
        "Postcode": "13700",
        "Location": "Pintas Sembilang 1",
        "Post_Office": "Perai",
        "State": "Pulau Pinang"
    },
    {
        "Postcode": "13700",
        "Location": "Pintas Sembilang 10",
        "Post_Office": "Perai",
        "State": "Pulau Pinang"
    },
    {
        "Postcode": "13700",
        "Location": "Pintas Sembilang 11",
        "Post_Office": "Perai",
        "State": "Pulau Pinang"
    },
    {
        "Postcode": "13700",
        "Location": "Pintas Sembilang 12",
        "Post_Office": "Perai",
        "State": "Pulau Pinang"
    },
    {
        "Postcode": "13700",
        "Location": "Pintas Sembilang 13",
        "Post_Office": "Perai",
        "State": "Pulau Pinang"
    },
    {
        "Postcode": "13700",
        "Location": "Pintas Sembilang 14",
        "Post_Office": "Perai",
        "State": "Pulau Pinang"
    },
    {
        "Postcode": "13700",
        "Location": "Pintas Sembilang 2",
        "Post_Office": "Perai",
        "State": "Pulau Pinang"
    },
    {
        "Postcode": "13700",
        "Location": "Pintas Sembilang 3",
        "Post_Office": "Perai",
        "State": "Pulau Pinang"
    },
    {
        "Postcode": "13700",
        "Location": "Pintas Sembilang 4",
        "Post_Office": "Perai",
        "State": "Pulau Pinang"
    },
    {
        "Postcode": "13700",
        "Location": "Pintas Sembilang 5",
        "Post_Office": "Perai",
        "State": "Pulau Pinang"
    },
    {
        "Postcode": "13700",
        "Location": "Pintas Sembilang 6",
        "Post_Office": "Perai",
        "State": "Pulau Pinang"
    },
    {
        "Postcode": "13700",
        "Location": "Pintas Sembilang 7",
        "Post_Office": "Perai",
        "State": "Pulau Pinang"
    },
    {
        "Postcode": "13700",
        "Location": "Pintas Sembilang 8",
        "Post_Office": "Perai",
        "State": "Pulau Pinang"
    },
    {
        "Postcode": "13700",
        "Location": "Pintas Sembilang 9",
        "Post_Office": "Perai",
        "State": "Pulau Pinang"
    },
    {
        "Postcode": "13700",
        "Location": "Pintas Siakap 1",
        "Post_Office": "Perai",
        "State": "Pulau Pinang"
    },
    {
        "Postcode": "13700",
        "Location": "Pintas Siakap 2",
        "Post_Office": "Perai",
        "State": "Pulau Pinang"
    },
    {
        "Postcode": "13700",
        "Location": "Pintas Tenggiri 1",
        "Post_Office": "Perai",
        "State": "Pulau Pinang"
    },
    {
        "Postcode": "13700",
        "Location": "Pintas Tenggiri 2",
        "Post_Office": "Perai",
        "State": "Pulau Pinang"
    },
    {
        "Postcode": "13700",
        "Location": "Pintas Tenggiri 3",
        "Post_Office": "Perai",
        "State": "Pulau Pinang"
    },
    {
        "Postcode": "13700",
        "Location": "Pintas Tenggiri 4",
        "Post_Office": "Perai",
        "State": "Pulau Pinang"
    },
    {
        "Postcode": "13700",
        "Location": "Pintas Tenggiri 5",
        "Post_Office": "Perai",
        "State": "Pulau Pinang"
    },
    {
        "Postcode": "13700",
        "Location": "Pintas Tenggiri 6",
        "Post_Office": "Perai",
        "State": "Pulau Pinang"
    },
    {
        "Postcode": "13700",
        "Location": "Pintas Tuna 1",
        "Post_Office": "Perai",
        "State": "Pulau Pinang"
    },
    {
        "Postcode": "13700",
        "Location": "Pintas Tuna 2",
        "Post_Office": "Perai",
        "State": "Pulau Pinang"
    },
    {
        "Postcode": "13700",
        "Location": "Solok Jenahak 1",
        "Post_Office": "Perai",
        "State": "Pulau Pinang"
    },
    {
        "Postcode": "13700",
        "Location": "Solok Jenahak 2",
        "Post_Office": "Perai",
        "State": "Pulau Pinang"
    },
    {
        "Postcode": "13700",
        "Location": "Solok Lampam 1",
        "Post_Office": "Perai",
        "State": "Pulau Pinang"
    },
    {
        "Postcode": "13700",
        "Location": "Solok Lampam 2",
        "Post_Office": "Perai",
        "State": "Pulau Pinang"
    },
    {
        "Postcode": "13700",
        "Location": "Tingkat Bawal 2",
        "Post_Office": "Perai",
        "State": "Pulau Pinang"
    },
    {
        "Postcode": "13700",
        "Location": "Tingkat Bawal 4",
        "Post_Office": "Perai",
        "State": "Pulau Pinang"
    },
    {
        "Postcode": "13700",
        "Location": "Tingkat Haruan 2",
        "Post_Office": "Perai",
        "State": "Pulau Pinang"
    },
    {
        "Postcode": "13700",
        "Location": "Tingkat Haruan 4",
        "Post_Office": "Perai",
        "State": "Pulau Pinang"
    },
    {
        "Postcode": "13700",
        "Location": "Tingkat Haruan 6",
        "Post_Office": "Perai",
        "State": "Pulau Pinang"
    },
    {
        "Postcode": "13700",
        "Location": "Tingkat Kurau 2",
        "Post_Office": "Perai",
        "State": "Pulau Pinang"
    },
    {
        "Postcode": "13700",
        "Location": "Tingkat Kurau 4",
        "Post_Office": "Perai",
        "State": "Pulau Pinang"
    },
    {
        "Postcode": "13700",
        "Location": "Tingkat Kurau 6",
        "Post_Office": "Perai",
        "State": "Pulau Pinang"
    },
    {
        "Postcode": "13700",
        "Location": "Tingkat Kurau 8",
        "Post_Office": "Perai",
        "State": "Pulau Pinang"
    },
    {
        "Postcode": "13700",
        "Location": "Tingkat Siakap 1",
        "Post_Office": "Perai",
        "State": "Pulau Pinang"
    },
    {
        "Postcode": "13700",
        "Location": "Tingkat Siakap 11",
        "Post_Office": "Perai",
        "State": "Pulau Pinang"
    },
    {
        "Postcode": "13700",
        "Location": "Tingkat Siakap 15",
        "Post_Office": "Perai",
        "State": "Pulau Pinang"
    },
    {
        "Postcode": "13700",
        "Location": "Tingkat Siakap 17",
        "Post_Office": "Perai",
        "State": "Pulau Pinang"
    },
    {
        "Postcode": "13700",
        "Location": "Tingkat Siakap 3",
        "Post_Office": "Perai",
        "State": "Pulau Pinang"
    },
    {
        "Postcode": "13700",
        "Location": "Tingkat Siakap 9",
        "Post_Office": "Perai",
        "State": "Pulau Pinang"
    },
    {
        "Postcode": "13700",
        "Location": "Tingkat Tuna 1",
        "Post_Office": "Perai",
        "State": "Pulau Pinang"
    },
    {
        "Postcode": "13700",
        "Location": "Tingkat Tuna 2",
        "Post_Office": "Perai",
        "State": "Pulau Pinang"
    },
    {
        "Postcode": "13700",
        "Location": "Tingkat Tuna 3",
        "Post_Office": "Perai",
        "State": "Pulau Pinang"
    },
    {
        "Postcode": "13700",
        "Location": "Jalan Baru",
        "Post_Office": "Perai",
        "State": "Pulau Pinang"
    },
    {
        "Postcode": "13700",
        "Location": "Jalan Chain Ferry",
        "Post_Office": "Perai",
        "State": "Pulau Pinang"
    },
    {
        "Postcode": "13700",
        "Location": "Jalan Kurau",
        "Post_Office": "Perai",
        "State": "Pulau Pinang"
    },
    {
        "Postcode": "13700",
        "Location": "Lorong Seri Arowana",
        "Post_Office": "Perai",
        "State": "Pulau Pinang"
    },
    {
        "Postcode": "13700",
        "Location": "Taman Pauh Jaya ",
        "Post_Office": "Perai",
        "State": "Pulau Pinang"
    },
    {
        "Postcode": "13700",
        "Location": "Bandar Perai Jaya",
        "Post_Office": "Perai",
        "State": "Pulau Pinang"
    },
    {
        "Postcode": "13700",
        "Location": "Bandar Seberang Jaya",
        "Post_Office": "Perai",
        "State": "Pulau Pinang"
    },
    {
        "Postcode": "13700",
        "Location": "Bandar Sunway",
        "Post_Office": "Perai",
        "State": "Pulau Pinang"
    },
    {
        "Postcode": "13700",
        "Location": "Desa Cemara",
        "Post_Office": "Perai",
        "State": "Pulau Pinang"
    },
    {
        "Postcode": "13700",
        "Location": "Desa Sembilang",
        "Post_Office": "Perai",
        "State": "Pulau Pinang"
    },
    {
        "Postcode": "13700",
        "Location": "Dewan Pauh Jaya",
        "Post_Office": "Perai",
        "State": "Pulau Pinang"
    },
    {
        "Postcode": "13700",
        "Location": "Gerbang Kurau",
        "Post_Office": "Perai",
        "State": "Pulau Pinang"
    },
    {
        "Postcode": "13700",
        "Location": "Gerbang Tuna",
        "Post_Office": "Perai",
        "State": "Pulau Pinang"
    },
    {
        "Postcode": "13700",
        "Location": "Hala Kalui",
        "Post_Office": "Perai",
        "State": "Pulau Pinang"
    },
    {
        "Postcode": "13700",
        "Location": "Halaman Siakap",
        "Post_Office": "Perai",
        "State": "Pulau Pinang"
    },
    {
        "Postcode": "13700",
        "Location": "Halaman Tenggiri",
        "Post_Office": "Perai",
        "State": "Pulau Pinang"
    },
    {
        "Postcode": "13700",
        "Location": "Jalan Baru Kampung Jawa",
        "Post_Office": "Perai",
        "State": "Pulau Pinang"
    },
    {
        "Postcode": "13700",
        "Location": "Jalan Baru Kampung Setul",
        "Post_Office": "Perai",
        "State": "Pulau Pinang"
    },
    {
        "Postcode": "13700",
        "Location": "Jalan Baru Kampung Teluk",
        "Post_Office": "Perai",
        "State": "Pulau Pinang"
    },
    {
        "Postcode": "13700",
        "Location": "Jalan Baru Kampung Tersusun",
        "Post_Office": "Perai",
        "State": "Pulau Pinang"
    },
    {
        "Postcode": "13700",
        "Location": "Jalan Baru Perai",
        "Post_Office": "Perai",
        "State": "Pulau Pinang"
    },
    {
        "Postcode": "13700",
        "Location": "Jalan Baru Perai Mk 1",
        "Post_Office": "Perai",
        "State": "Pulau Pinang"
    },
    {
        "Postcode": "13700",
        "Location": "Jalan Baru Perai Mk 6",
        "Post_Office": "Perai",
        "State": "Pulau Pinang"
    },
    {
        "Postcode": "13700",
        "Location": "Jalan Baru Taman Chai Leng",
        "Post_Office": "Perai",
        "State": "Pulau Pinang"
    },
    {
        "Postcode": "13700",
        "Location": "Jalan Bawal",
        "Post_Office": "Perai",
        "State": "Pulau Pinang"
    },
    {
        "Postcode": "13700",
        "Location": "Jalan Gan Chai Leng",
        "Post_Office": "Perai",
        "State": "Pulau Pinang"
    },
    {
        "Postcode": "13700",
        "Location": "Jalan Jelawat",
        "Post_Office": "Perai",
        "State": "Pulau Pinang"
    },
    {
        "Postcode": "13700",
        "Location": "Jalan Jenahak",
        "Post_Office": "Perai",
        "State": "Pulau Pinang"
    },
    {
        "Postcode": "13700",
        "Location": "Jalan Kalui",
        "Post_Office": "Perai",
        "State": "Pulau Pinang"
    },
    {
        "Postcode": "13700",
        "Location": "Jalan Kelasah",
        "Post_Office": "Perai",
        "State": "Pulau Pinang"
    },
    {
        "Postcode": "13700",
        "Location": "Jalan Kelisa Emas",
        "Post_Office": "Perai",
        "State": "Pulau Pinang"
    },
    {
        "Postcode": "13700",
        "Location": "Jalan Kelisah",
        "Post_Office": "Perai",
        "State": "Pulau Pinang"
    },
    {
        "Postcode": "13700",
        "Location": "Jalan Lampam",
        "Post_Office": "Perai",
        "State": "Pulau Pinang"
    },
    {
        "Postcode": "13700",
        "Location": "Jalan Medan Tenggiri",
        "Post_Office": "Perai",
        "State": "Pulau Pinang"
    },
    {
        "Postcode": "13700",
        "Location": "Jalan Pauh Jaya",
        "Post_Office": "Perai",
        "State": "Pulau Pinang"
    },
    {
        "Postcode": "13700",
        "Location": "Jalan Pauh Jaya 1",
        "Post_Office": "Perai",
        "State": "Pulau Pinang"
    },
    {
        "Postcode": "13700",
        "Location": "Jalan Perai Jaya",
        "Post_Office": "Perai",
        "State": "Pulau Pinang"
    },
    {
        "Postcode": "13700",
        "Location": "Jalan Perdana",
        "Post_Office": "Perai",
        "State": "Pulau Pinang"
    },
    {
        "Postcode": "13700",
        "Location": "Jalan Perpustakaan",
        "Post_Office": "Perai",
        "State": "Pulau Pinang"
    },
    {
        "Postcode": "13700",
        "Location": "Jalan Sembilang",
        "Post_Office": "Perai",
        "State": "Pulau Pinang"
    },
    {
        "Postcode": "13700",
        "Location": "Jalan Siakap",
        "Post_Office": "Perai",
        "State": "Pulau Pinang"
    },
    {
        "Postcode": "13700",
        "Location": "Jalan Sutera",
        "Post_Office": "Perai",
        "State": "Pulau Pinang"
    },
    {
        "Postcode": "13700",
        "Location": "Jalan Sutera 3",
        "Post_Office": "Perai",
        "State": "Pulau Pinang"
    },
    {
        "Postcode": "13700",
        "Location": "Jalan Sutera Prima",
        "Post_Office": "Perai",
        "State": "Pulau Pinang"
    },
    {
        "Postcode": "13700",
        "Location": "Jalan Tenggiri",
        "Post_Office": "Perai",
        "State": "Pulau Pinang"
    },
    {
        "Postcode": "13700",
        "Location": "Jalan Terubuk",
        "Post_Office": "Perai",
        "State": "Pulau Pinang"
    },
    {
        "Postcode": "13700",
        "Location": "Jalan Todak",
        "Post_Office": "Perai",
        "State": "Pulau Pinang"
    },
    {
        "Postcode": "13700",
        "Location": "Jalan Tun Hussain Onn",
        "Post_Office": "Perai",
        "State": "Pulau Pinang"
    },
    {
        "Postcode": "13700",
        "Location": "Jalan Tuna",
        "Post_Office": "Perai",
        "State": "Pulau Pinang"
    },
    {
        "Postcode": "13700",
        "Location": "Kampung Masjid Timah",
        "Post_Office": "Perai",
        "State": "Pulau Pinang"
    },
    {
        "Postcode": "13700",
        "Location": "Kampung Seberang Jaya",
        "Post_Office": "Perai",
        "State": "Pulau Pinang"
    },
    {
        "Postcode": "13700",
        "Location": "Kampung Setol (Perai)",
        "Post_Office": "Perai",
        "State": "Pulau Pinang"
    },
    {
        "Postcode": "13700",
        "Location": "Kampung Telok (Perai)",
        "Post_Office": "Perai",
        "State": "Pulau Pinang"
    },
    {
        "Postcode": "13700",
        "Location": "Komplek Chai Leng Park",
        "Post_Office": "Perai",
        "State": "Pulau Pinang"
    },
    {
        "Postcode": "13700",
        "Location": "Kompleks Taman Chai Leng",
        "Post_Office": "Perai",
        "State": "Pulau Pinang"
    },
    {
        "Postcode": "13700",
        "Location": "Kompleks Taman Siakap",
        "Post_Office": "Perai",
        "State": "Pulau Pinang"
    },
    {
        "Postcode": "13700",
        "Location": "Lebuh Bawal",
        "Post_Office": "Perai",
        "State": "Pulau Pinang"
    },
    {
        "Postcode": "13700",
        "Location": "Lebuh Kurau",
        "Post_Office": "Perai",
        "State": "Pulau Pinang"
    },
    {
        "Postcode": "13700",
        "Location": "Lebuh Sutera",
        "Post_Office": "Perai",
        "State": "Pulau Pinang"
    },
    {
        "Postcode": "13700",
        "Location": "Lebuh Tenggiri",
        "Post_Office": "Perai",
        "State": "Pulau Pinang"
    },
    {
        "Postcode": "13700",
        "Location": "Lebuh Tuna",
        "Post_Office": "Perai",
        "State": "Pulau Pinang"
    },
    {
        "Postcode": "13700",
        "Location": "Lebuhraya Kurau",
        "Post_Office": "Perai",
        "State": "Pulau Pinang"
    },
    {
        "Postcode": "13700",
        "Location": "Lengkok Kurau",
        "Post_Office": "Perai",
        "State": "Pulau Pinang"
    },
    {
        "Postcode": "13700",
        "Location": "Lengkok Pauh Jaya",
        "Post_Office": "Perai",
        "State": "Pulau Pinang"
    },
    {
        "Postcode": "13700",
        "Location": "Lengkok Sembilang",
        "Post_Office": "Perai",
        "State": "Pulau Pinang"
    },
    {
        "Postcode": "13700",
        "Location": "Lengkok Siakap",
        "Post_Office": "Perai",
        "State": "Pulau Pinang"
    },
    {
        "Postcode": "13700",
        "Location": "Lengkok Tenggiri",
        "Post_Office": "Perai",
        "State": "Pulau Pinang"
    },
    {
        "Postcode": "13700",
        "Location": "Lengkok Tuna",
        "Post_Office": "Perai",
        "State": "Pulau Pinang"
    },
    {
        "Postcode": "13700",
        "Location": "Lengkungan Kurau",
        "Post_Office": "Perai",
        "State": "Pulau Pinang"
    },
    {
        "Postcode": "13700",
        "Location": "Lintang Kalui",
        "Post_Office": "Perai",
        "State": "Pulau Pinang"
    },
    {
        "Postcode": "13700",
        "Location": "Lintang Kurau",
        "Post_Office": "Perai",
        "State": "Pulau Pinang"
    },
    {
        "Postcode": "13700",
        "Location": "Lintang Sembilang",
        "Post_Office": "Perai",
        "State": "Pulau Pinang"
    },
    {
        "Postcode": "13700",
        "Location": "Lintang Siakap",
        "Post_Office": "Perai",
        "State": "Pulau Pinang"
    },
    {
        "Postcode": "13700",
        "Location": "Lintang Tenggiri",
        "Post_Office": "Perai",
        "State": "Pulau Pinang"
    },
    {
        "Postcode": "13700",
        "Location": "Lorong Bawal",
        "Post_Office": "Perai",
        "State": "Pulau Pinang"
    },
    {
        "Postcode": "13700",
        "Location": "Lorong Haruan",
        "Post_Office": "Perai",
        "State": "Pulau Pinang"
    },
    {
        "Postcode": "13700",
        "Location": "Lorong Jenahak",
        "Post_Office": "Perai",
        "State": "Pulau Pinang"
    },
    {
        "Postcode": "13700",
        "Location": "Lorong Kalui",
        "Post_Office": "Perai",
        "State": "Pulau Pinang"
    },
    {
        "Postcode": "13700",
        "Location": "Lorong Kelasah",
        "Post_Office": "Perai",
        "State": "Pulau Pinang"
    },
    {
        "Postcode": "13700",
        "Location": "Lorong Kurau",
        "Post_Office": "Perai",
        "State": "Pulau Pinang"
    },
    {
        "Postcode": "13700",
        "Location": "Lorong Lampam",
        "Post_Office": "Perai",
        "State": "Pulau Pinang"
    },
    {
        "Postcode": "13700",
        "Location": "Lorong Pauh Jaya",
        "Post_Office": "Perai",
        "State": "Pulau Pinang"
    },
    {
        "Postcode": "13700",
        "Location": "Lorong Pauh Jaya 1/1",
        "Post_Office": "Perai",
        "State": "Pulau Pinang"
    },
    {
        "Postcode": "13700",
        "Location": "Lorong Sembilang",
        "Post_Office": "Perai",
        "State": "Pulau Pinang"
    },
    {
        "Postcode": "13700",
        "Location": "Lorong Seri Arowana 1/1",
        "Post_Office": "Perai",
        "State": "Pulau Pinang"
    },
    {
        "Postcode": "13700",
        "Location": "Lorong Seri Arowana 2",
        "Post_Office": "Perai",
        "State": "Pulau Pinang"
    },
    {
        "Postcode": "13700",
        "Location": "Lorong Siakap",
        "Post_Office": "Perai",
        "State": "Pulau Pinang"
    },
    {
        "Postcode": "13700",
        "Location": "Lorong Sutera",
        "Post_Office": "Perai",
        "State": "Pulau Pinang"
    },
    {
        "Postcode": "13700",
        "Location": "Lorong Tenggiri",
        "Post_Office": "Perai",
        "State": "Pulau Pinang"
    },
    {
        "Postcode": "13700",
        "Location": "Lorong Tuna",
        "Post_Office": "Perai",
        "State": "Pulau Pinang"
    },
    {
        "Postcode": "13700",
        "Location": "Medan Haruan",
        "Post_Office": "Perai",
        "State": "Pulau Pinang"
    },
    {
        "Postcode": "13700",
        "Location": "Medan Siakap",
        "Post_Office": "Perai",
        "State": "Pulau Pinang"
    },
    {
        "Postcode": "13700",
        "Location": "Medan Tenggiri",
        "Post_Office": "Perai",
        "State": "Pulau Pinang"
    },
    {
        "Postcode": "13700",
        "Location": "Pangsapuri Intan",
        "Post_Office": "Perai",
        "State": "Pulau Pinang"
    },
    {
        "Postcode": "13700",
        "Location": "Penang Bird Park",
        "Post_Office": "Perai",
        "State": "Pulau Pinang"
    },
    {
        "Postcode": "13700",
        "Location": "Perai Jaya",
        "Post_Office": "Perai",
        "State": "Pulau Pinang"
    },
    {
        "Postcode": "13700",
        "Location": "Persiaran Bawal",
        "Post_Office": "Perai",
        "State": "Pulau Pinang"
    },
    {
        "Postcode": "13700",
        "Location": "Persiaran Sembilang",
        "Post_Office": "Perai",
        "State": "Pulau Pinang"
    },
    {
        "Postcode": "13700",
        "Location": "Persiaran Siakap",
        "Post_Office": "Perai",
        "State": "Pulau Pinang"
    },
    {
        "Postcode": "13700",
        "Location": "Persiaran Tenggiri",
        "Post_Office": "Perai",
        "State": "Pulau Pinang"
    },
    {
        "Postcode": "13700",
        "Location": "Persiaran Tuna",
        "Post_Office": "Perai",
        "State": "Pulau Pinang"
    },
    {
        "Postcode": "13700",
        "Location": "Pintai Kalui",
        "Post_Office": "Perai",
        "State": "Pulau Pinang"
    },
    {
        "Postcode": "13700",
        "Location": "Pintas Siakap",
        "Post_Office": "Perai",
        "State": "Pulau Pinang"
    },
    {
        "Postcode": "13700",
        "Location": "Pintas Tenggiri",
        "Post_Office": "Perai",
        "State": "Pulau Pinang"
    },
    {
        "Postcode": "13700",
        "Location": "Pintas Terubuk",
        "Post_Office": "Perai",
        "State": "Pulau Pinang"
    },
    {
        "Postcode": "13700",
        "Location": "Pintas Tuna",
        "Post_Office": "Perai",
        "State": "Pulau Pinang"
    },
    {
        "Postcode": "13700",
        "Location": "Pintasan Sembilang",
        "Post_Office": "Perai",
        "State": "Pulau Pinang"
    },
    {
        "Postcode": "13700",
        "Location": "Pusat Bandar Sunway",
        "Post_Office": "Perai",
        "State": "Pulau Pinang"
    },
    {
        "Postcode": "13700",
        "Location": "Safira Country Club",
        "Post_Office": "Perai",
        "State": "Pulau Pinang"
    },
    {
        "Postcode": "13700",
        "Location": "Seberang Jaya",
        "Post_Office": "Perai",
        "State": "Pulau Pinang"
    },
    {
        "Postcode": "13700",
        "Location": "Seberang Jaya Industrial Estate",
        "Post_Office": "Perai",
        "State": "Pulau Pinang"
    },
    {
        "Postcode": "13700",
        "Location": "Solok Jenahak",
        "Post_Office": "Perai",
        "State": "Pulau Pinang"
    },
    {
        "Postcode": "13700",
        "Location": "Solok Kalui",
        "Post_Office": "Perai",
        "State": "Pulau Pinang"
    },
    {
        "Postcode": "13700",
        "Location": "Solok Kurau",
        "Post_Office": "Perai",
        "State": "Pulau Pinang"
    },
    {
        "Postcode": "13700",
        "Location": "Solok Kurau 1",
        "Post_Office": "Perai",
        "State": "Pulau Pinang"
    },
    {
        "Postcode": "13700",
        "Location": "Solok Lampam",
        "Post_Office": "Perai",
        "State": "Pulau Pinang"
    },
    {
        "Postcode": "13700",
        "Location": "Solok Sembilang",
        "Post_Office": "Perai",
        "State": "Pulau Pinang"
    },
    {
        "Postcode": "13700",
        "Location": "Solok Siakap",
        "Post_Office": "Perai",
        "State": "Pulau Pinang"
    },
    {
        "Postcode": "13700",
        "Location": "Solok Tenggiri",
        "Post_Office": "Perai",
        "State": "Pulau Pinang"
    },
    {
        "Postcode": "13700",
        "Location": "Solok Terubuk",
        "Post_Office": "Perai",
        "State": "Pulau Pinang"
    },
    {
        "Postcode": "13700",
        "Location": "Solok Tuna",
        "Post_Office": "Perai",
        "State": "Pulau Pinang"
    },
    {
        "Postcode": "13700",
        "Location": "Sunway Carnival Mall",
        "Post_Office": "Perai",
        "State": "Pulau Pinang"
    },
    {
        "Postcode": "13700",
        "Location": "Taman Baru",
        "Post_Office": "Perai",
        "State": "Pulau Pinang"
    },
    {
        "Postcode": "13700",
        "Location": "Taman Baru Jalan Tun Hussein Onn",
        "Post_Office": "Perai",
        "State": "Pulau Pinang"
    },
    {
        "Postcode": "13700",
        "Location": "Taman Chai Leng",
        "Post_Office": "Perai",
        "State": "Pulau Pinang"
    },
    {
        "Postcode": "13700",
        "Location": "Taman Haruan",
        "Post_Office": "Perai",
        "State": "Pulau Pinang"
    },
    {
        "Postcode": "13700",
        "Location": "Taman Irama",
        "Post_Office": "Perai",
        "State": "Pulau Pinang"
    },
    {
        "Postcode": "13700",
        "Location": "Taman Kelasah",
        "Post_Office": "Perai",
        "State": "Pulau Pinang"
    },
    {
        "Postcode": "13700",
        "Location": "Taman Kelisa Emas",
        "Post_Office": "Perai",
        "State": "Pulau Pinang"
    },
    {
        "Postcode": "13700",
        "Location": "Taman Kimsar",
        "Post_Office": "Perai",
        "State": "Pulau Pinang"
    },
    {
        "Postcode": "13700",
        "Location": "Taman Kurau",
        "Post_Office": "Perai",
        "State": "Pulau Pinang"
    },
    {
        "Postcode": "13700",
        "Location": "Taman Lampam",
        "Post_Office": "Perai",
        "State": "Pulau Pinang"
    },
    {
        "Postcode": "13700",
        "Location": "Taman Siakap",
        "Post_Office": "Perai",
        "State": "Pulau Pinang"
    },
    {
        "Postcode": "13700",
        "Location": "Taman Sri Arowana",
        "Post_Office": "Perai",
        "State": "Pulau Pinang"
    },
    {
        "Postcode": "13700",
        "Location": "Taman Supreme",
        "Post_Office": "Perai",
        "State": "Pulau Pinang"
    },
    {
        "Postcode": "13700",
        "Location": "Taman Sutera",
        "Post_Office": "Perai",
        "State": "Pulau Pinang"
    },
    {
        "Postcode": "13700",
        "Location": "Taman Sutera Prima",
        "Post_Office": "Perai",
        "State": "Pulau Pinang"
    },
    {
        "Postcode": "13700",
        "Location": "Taman Tun Hussein Onn",
        "Post_Office": "Perai",
        "State": "Pulau Pinang"
    },
    {
        "Postcode": "13700",
        "Location": "Telok Indah",
        "Post_Office": "Perai",
        "State": "Pulau Pinang"
    },
    {
        "Postcode": "13700",
        "Location": "Tingkat Bawal",
        "Post_Office": "Perai",
        "State": "Pulau Pinang"
    },
    {
        "Postcode": "13700",
        "Location": "Tingkat Haruan",
        "Post_Office": "Perai",
        "State": "Pulau Pinang"
    },
    {
        "Postcode": "13700",
        "Location": "Tingkat Kurau",
        "Post_Office": "Perai",
        "State": "Pulau Pinang"
    },
    {
        "Postcode": "13700",
        "Location": "Tingkat Siakap",
        "Post_Office": "Perai",
        "State": "Pulau Pinang"
    },
    {
        "Postcode": "13700",
        "Location": "Tingkat Tenggiri",
        "Post_Office": "Perai",
        "State": "Pulau Pinang"
    },
    {
        "Postcode": "13700",
        "Location": "Tingkat Tuna",
        "Post_Office": "Perai",
        "State": "Pulau Pinang"
    }
]
