[
    {
        "Postcode": "13800",
        "Location": "Kampung Petani",
        "Post_Office": "Butterworth",
        "State": "Pulau Pinang"
    },
    {
        "Postcode": "13800",
        "Location": "Kampung Telok",
        "Post_Office": "Butterworth",
        "State": "Pulau Pinang"
    },
    {
        "Postcode": "13800",
        "Location": "Permatang Sungai Dua",
        "Post_Office": "Butterworth",
        "State": "Pulau Pinang"
    },
    {
        "Postcode": "13800",
        "Location": "Sungai Dua",
        "Post_Office": "Butterworth",
        "State": "Pulau Pinang"
    },
    {
        "Postcode": "13800",
        "Location": "Taman Sejahtera Rakyat",
        "Post_Office": "Butterworth",
        "State": "Pulau Pinang"
    },
    {
        "Postcode": "13800",
        "Location": "Jalan Perda 1",
        "Post_Office": "Butterworth",
        "State": "Pulau Pinang"
    },
    {
        "Postcode": "13800",
        "Location": "Jalan Perda 2",
        "Post_Office": "Butterworth",
        "State": "Pulau Pinang"
    },
    {
        "Postcode": "13800",
        "Location": "Jalan Perda 3",
        "Post_Office": "Butterworth",
        "State": "Pulau Pinang"
    },
    {
        "Postcode": "13800",
        "Location": "Jalan Sri Murni 1",
        "Post_Office": "Butterworth",
        "State": "Pulau Pinang"
    },
    {
        "Postcode": "13800",
        "Location": "Jalan Sri Murni 2",
        "Post_Office": "Butterworth",
        "State": "Pulau Pinang"
    },
    {
        "Postcode": "13800",
        "Location": "Jalan Sri Murni 3",
        "Post_Office": "Butterworth",
        "State": "Pulau Pinang"
    },
    {
        "Postcode": "13800",
        "Location": "Jalan Sri Murni 4",
        "Post_Office": "Butterworth",
        "State": "Pulau Pinang"
    },
    {
        "Postcode": "13800",
        "Location": "Jalan Sri Murni 5",
        "Post_Office": "Butterworth",
        "State": "Pulau Pinang"
    },
    {
        "Postcode": "13800",
        "Location": "Jalan Sungai Dua Utama 1",
        "Post_Office": "Butterworth",
        "State": "Pulau Pinang"
    },
    {
        "Postcode": "13800",
        "Location": "Jalan Sungai Dua Utama 2",
        "Post_Office": "Butterworth",
        "State": "Pulau Pinang"
    },
    {
        "Postcode": "13800",
        "Location": "Jalan Sungai Dua Utama 3",
        "Post_Office": "Butterworth",
        "State": "Pulau Pinang"
    },
    {
        "Postcode": "13800",
        "Location": "Lintang Murni 1",
        "Post_Office": "Butterworth",
        "State": "Pulau Pinang"
    },
    {
        "Postcode": "13800",
        "Location": "Lintang Murni 3",
        "Post_Office": "Butterworth",
        "State": "Pulau Pinang"
    },
    {
        "Postcode": "13800",
        "Location": "Lintang Murni 5",
        "Post_Office": "Butterworth",
        "State": "Pulau Pinang"
    },
    {
        "Postcode": "13800",
        "Location": "Lorong Merbau Indah 10",
        "Post_Office": "Butterworth",
        "State": "Pulau Pinang"
    },
    {
        "Postcode": "13800",
        "Location": "Lorong Merbau Indah 12",
        "Post_Office": "Butterworth",
        "State": "Pulau Pinang"
    },
    {
        "Postcode": "13800",
        "Location": "Lorong Merbau Indah 14",
        "Post_Office": "Butterworth",
        "State": "Pulau Pinang"
    },
    {
        "Postcode": "13800",
        "Location": "Lorong Merbau Indah 8",
        "Post_Office": "Butterworth",
        "State": "Pulau Pinang"
    },
    {
        "Postcode": "13800",
        "Location": "Lorong Merbau Indah 9",
        "Post_Office": "Butterworth",
        "State": "Pulau Pinang"
    },
    {
        "Postcode": "13800",
        "Location": "Lorong Merbau Jaya 1",
        "Post_Office": "Butterworth",
        "State": "Pulau Pinang"
    },
    {
        "Postcode": "13800",
        "Location": "Lorong Merbau Jaya 10",
        "Post_Office": "Butterworth",
        "State": "Pulau Pinang"
    },
    {
        "Postcode": "13800",
        "Location": "Lorong Merbau Jaya 11",
        "Post_Office": "Butterworth",
        "State": "Pulau Pinang"
    },
    {
        "Postcode": "13800",
        "Location": "Lorong Merbau Jaya 2",
        "Post_Office": "Butterworth",
        "State": "Pulau Pinang"
    },
    {
        "Postcode": "13800",
        "Location": "Lorong Merbau Jaya 3",
        "Post_Office": "Butterworth",
        "State": "Pulau Pinang"
    },
    {
        "Postcode": "13800",
        "Location": "Lorong Merbau Jaya 4",
        "Post_Office": "Butterworth",
        "State": "Pulau Pinang"
    },
    {
        "Postcode": "13800",
        "Location": "Lorong Merbau Jaya 5",
        "Post_Office": "Butterworth",
        "State": "Pulau Pinang"
    },
    {
        "Postcode": "13800",
        "Location": "Lorong Merbau Jaya 6",
        "Post_Office": "Butterworth",
        "State": "Pulau Pinang"
    },
    {
        "Postcode": "13800",
        "Location": "Lorong Merbau Jaya 7",
        "Post_Office": "Butterworth",
        "State": "Pulau Pinang"
    },
    {
        "Postcode": "13800",
        "Location": "Lorong Merbau Jaya 8",
        "Post_Office": "Butterworth",
        "State": "Pulau Pinang"
    },
    {
        "Postcode": "13800",
        "Location": "Lorong Merbau Jaya 9",
        "Post_Office": "Butterworth",
        "State": "Pulau Pinang"
    },
    {
        "Postcode": "13800",
        "Location": "Lorong Murni 1",
        "Post_Office": "Butterworth",
        "State": "Pulau Pinang"
    },
    {
        "Postcode": "13800",
        "Location": "Lorong Murni 10",
        "Post_Office": "Butterworth",
        "State": "Pulau Pinang"
    },
    {
        "Postcode": "13800",
        "Location": "Lorong Murni 11",
        "Post_Office": "Butterworth",
        "State": "Pulau Pinang"
    },
    {
        "Postcode": "13800",
        "Location": "Lorong Murni 12",
        "Post_Office": "Butterworth",
        "State": "Pulau Pinang"
    },
    {
        "Postcode": "13800",
        "Location": "Lorong Murni 13",
        "Post_Office": "Butterworth",
        "State": "Pulau Pinang"
    },
    {
        "Postcode": "13800",
        "Location": "Lorong Murni 14",
        "Post_Office": "Butterworth",
        "State": "Pulau Pinang"
    },
    {
        "Postcode": "13800",
        "Location": "Lorong Murni 15",
        "Post_Office": "Butterworth",
        "State": "Pulau Pinang"
    },
    {
        "Postcode": "13800",
        "Location": "Lorong Murni 16",
        "Post_Office": "Butterworth",
        "State": "Pulau Pinang"
    },
    {
        "Postcode": "13800",
        "Location": "Lorong Murni 17",
        "Post_Office": "Butterworth",
        "State": "Pulau Pinang"
    },
    {
        "Postcode": "13800",
        "Location": "Lorong Murni 18",
        "Post_Office": "Butterworth",
        "State": "Pulau Pinang"
    },
    {
        "Postcode": "13800",
        "Location": "Lorong Murni 19",
        "Post_Office": "Butterworth",
        "State": "Pulau Pinang"
    },
    {
        "Postcode": "13800",
        "Location": "Lorong Murni 2",
        "Post_Office": "Butterworth",
        "State": "Pulau Pinang"
    },
    {
        "Postcode": "13800",
        "Location": "Lorong Murni 20",
        "Post_Office": "Butterworth",
        "State": "Pulau Pinang"
    },
    {
        "Postcode": "13800",
        "Location": "Lorong Murni 21",
        "Post_Office": "Butterworth",
        "State": "Pulau Pinang"
    },
    {
        "Postcode": "13800",
        "Location": "Lorong Murni 22",
        "Post_Office": "Butterworth",
        "State": "Pulau Pinang"
    },
    {
        "Postcode": "13800",
        "Location": "Lorong Murni 23",
        "Post_Office": "Butterworth",
        "State": "Pulau Pinang"
    },
    {
        "Postcode": "13800",
        "Location": "Lorong Murni 24",
        "Post_Office": "Butterworth",
        "State": "Pulau Pinang"
    },
    {
        "Postcode": "13800",
        "Location": "Lorong Murni 25",
        "Post_Office": "Butterworth",
        "State": "Pulau Pinang"
    },
    {
        "Postcode": "13800",
        "Location": "Lorong Murni 26",
        "Post_Office": "Butterworth",
        "State": "Pulau Pinang"
    },
    {
        "Postcode": "13800",
        "Location": "Lorong Murni 27",
        "Post_Office": "Butterworth",
        "State": "Pulau Pinang"
    },
    {
        "Postcode": "13800",
        "Location": "Lorong Murni 28",
        "Post_Office": "Butterworth",
        "State": "Pulau Pinang"
    },
    {
        "Postcode": "13800",
        "Location": "Lorong Murni 29",
        "Post_Office": "Butterworth",
        "State": "Pulau Pinang"
    },
    {
        "Postcode": "13800",
        "Location": "Lorong Murni 3",
        "Post_Office": "Butterworth",
        "State": "Pulau Pinang"
    },
    {
        "Postcode": "13800",
        "Location": "Lorong Murni 30",
        "Post_Office": "Butterworth",
        "State": "Pulau Pinang"
    },
    {
        "Postcode": "13800",
        "Location": "Lorong Murni 31",
        "Post_Office": "Butterworth",
        "State": "Pulau Pinang"
    },
    {
        "Postcode": "13800",
        "Location": "Lorong Murni 32",
        "Post_Office": "Butterworth",
        "State": "Pulau Pinang"
    },
    {
        "Postcode": "13800",
        "Location": "Lorong Murni 33",
        "Post_Office": "Butterworth",
        "State": "Pulau Pinang"
    },
    {
        "Postcode": "13800",
        "Location": "Lorong Murni 4",
        "Post_Office": "Butterworth",
        "State": "Pulau Pinang"
    },
    {
        "Postcode": "13800",
        "Location": "Lorong Murni 5",
        "Post_Office": "Butterworth",
        "State": "Pulau Pinang"
    },
    {
        "Postcode": "13800",
        "Location": "Lorong Murni 6",
        "Post_Office": "Butterworth",
        "State": "Pulau Pinang"
    },
    {
        "Postcode": "13800",
        "Location": "Lorong Murni 7",
        "Post_Office": "Butterworth",
        "State": "Pulau Pinang"
    },
    {
        "Postcode": "13800",
        "Location": "Lorong Murni 8",
        "Post_Office": "Butterworth",
        "State": "Pulau Pinang"
    },
    {
        "Postcode": "13800",
        "Location": "Lorong Murni 9",
        "Post_Office": "Butterworth",
        "State": "Pulau Pinang"
    },
    {
        "Postcode": "13800",
        "Location": "Lorong Pengkalan Machang 1",
        "Post_Office": "Butterworth",
        "State": "Pulau Pinang"
    },
    {
        "Postcode": "13800",
        "Location": "Lorong Pengkalan Machang 2",
        "Post_Office": "Butterworth",
        "State": "Pulau Pinang"
    },
    {
        "Postcode": "13800",
        "Location": "Lorong Pengkalan Machang 3",
        "Post_Office": "Butterworth",
        "State": "Pulau Pinang"
    },
    {
        "Postcode": "13800",
        "Location": "Lorong Pengkalan Machang 4",
        "Post_Office": "Butterworth",
        "State": "Pulau Pinang"
    },
    {
        "Postcode": "13800",
        "Location": "Lorong Pengkalan Machang 5",
        "Post_Office": "Butterworth",
        "State": "Pulau Pinang"
    },
    {
        "Postcode": "13800",
        "Location": "Lorong Perda 1",
        "Post_Office": "Butterworth",
        "State": "Pulau Pinang"
    },
    {
        "Postcode": "13800",
        "Location": "Lorong Perda 10",
        "Post_Office": "Butterworth",
        "State": "Pulau Pinang"
    },
    {
        "Postcode": "13800",
        "Location": "Lorong Perda 11",
        "Post_Office": "Butterworth",
        "State": "Pulau Pinang"
    },
    {
        "Postcode": "13800",
        "Location": "Lorong Perda 12",
        "Post_Office": "Butterworth",
        "State": "Pulau Pinang"
    },
    {
        "Postcode": "13800",
        "Location": "Lorong Perda 13",
        "Post_Office": "Butterworth",
        "State": "Pulau Pinang"
    },
    {
        "Postcode": "13800",
        "Location": "Lorong Perda 14",
        "Post_Office": "Butterworth",
        "State": "Pulau Pinang"
    },
    {
        "Postcode": "13800",
        "Location": "Lorong Perda 15",
        "Post_Office": "Butterworth",
        "State": "Pulau Pinang"
    },
    {
        "Postcode": "13800",
        "Location": "Lorong Perda 16",
        "Post_Office": "Butterworth",
        "State": "Pulau Pinang"
    },
    {
        "Postcode": "13800",
        "Location": "Lorong Perda 18",
        "Post_Office": "Butterworth",
        "State": "Pulau Pinang"
    },
    {
        "Postcode": "13800",
        "Location": "Lorong Perda 2",
        "Post_Office": "Butterworth",
        "State": "Pulau Pinang"
    },
    {
        "Postcode": "13800",
        "Location": "Lorong Perda 20",
        "Post_Office": "Butterworth",
        "State": "Pulau Pinang"
    },
    {
        "Postcode": "13800",
        "Location": "Lorong Perda 22",
        "Post_Office": "Butterworth",
        "State": "Pulau Pinang"
    },
    {
        "Postcode": "13800",
        "Location": "Lorong Perda 24",
        "Post_Office": "Butterworth",
        "State": "Pulau Pinang"
    },
    {
        "Postcode": "13800",
        "Location": "Lorong Perda 26",
        "Post_Office": "Butterworth",
        "State": "Pulau Pinang"
    },
    {
        "Postcode": "13800",
        "Location": "Lorong Perda 28",
        "Post_Office": "Butterworth",
        "State": "Pulau Pinang"
    },
    {
        "Postcode": "13800",
        "Location": "Lorong Perda 3",
        "Post_Office": "Butterworth",
        "State": "Pulau Pinang"
    },
    {
        "Postcode": "13800",
        "Location": "Lorong Perda 30",
        "Post_Office": "Butterworth",
        "State": "Pulau Pinang"
    },
    {
        "Postcode": "13800",
        "Location": "Lorong Perda 32",
        "Post_Office": "Butterworth",
        "State": "Pulau Pinang"
    },
    {
        "Postcode": "13800",
        "Location": "Lorong Perda 4",
        "Post_Office": "Butterworth",
        "State": "Pulau Pinang"
    },
    {
        "Postcode": "13800",
        "Location": "Lorong Perda 5",
        "Post_Office": "Butterworth",
        "State": "Pulau Pinang"
    },
    {
        "Postcode": "13800",
        "Location": "Lorong Perda 6",
        "Post_Office": "Butterworth",
        "State": "Pulau Pinang"
    },
    {
        "Postcode": "13800",
        "Location": "Lorong Perda 7",
        "Post_Office": "Butterworth",
        "State": "Pulau Pinang"
    },
    {
        "Postcode": "13800",
        "Location": "Lorong Perda 8",
        "Post_Office": "Butterworth",
        "State": "Pulau Pinang"
    },
    {
        "Postcode": "13800",
        "Location": "Lorong Perda 9",
        "Post_Office": "Butterworth",
        "State": "Pulau Pinang"
    },
    {
        "Postcode": "13800",
        "Location": "Lorong Perusahaan Sungai Lokan 1",
        "Post_Office": "Butterworth",
        "State": "Pulau Pinang"
    },
    {
        "Postcode": "13800",
        "Location": "Lorong Perusahaan Sungai Lokan 2",
        "Post_Office": "Butterworth",
        "State": "Pulau Pinang"
    },
    {
        "Postcode": "13800",
        "Location": "Lorong Perusahaan Sungai Lokan 3",
        "Post_Office": "Butterworth",
        "State": "Pulau Pinang"
    },
    {
        "Postcode": "13800",
        "Location": "Lorong Seri Murni 1",
        "Post_Office": "Butterworth",
        "State": "Pulau Pinang"
    },
    {
        "Postcode": "13800",
        "Location": "Lorong Seri Murni 10",
        "Post_Office": "Butterworth",
        "State": "Pulau Pinang"
    },
    {
        "Postcode": "13800",
        "Location": "Lorong Seri Murni 11",
        "Post_Office": "Butterworth",
        "State": "Pulau Pinang"
    },
    {
        "Postcode": "13800",
        "Location": "Lorong Seri Murni 12",
        "Post_Office": "Butterworth",
        "State": "Pulau Pinang"
    },
    {
        "Postcode": "13800",
        "Location": "Lorong Seri Murni 13",
        "Post_Office": "Butterworth",
        "State": "Pulau Pinang"
    },
    {
        "Postcode": "13800",
        "Location": "Lorong Seri Murni 14",
        "Post_Office": "Butterworth",
        "State": "Pulau Pinang"
    },
    {
        "Postcode": "13800",
        "Location": "Lorong Seri Murni 15",
        "Post_Office": "Butterworth",
        "State": "Pulau Pinang"
    },
    {
        "Postcode": "13800",
        "Location": "Lorong Seri Murni 2",
        "Post_Office": "Butterworth",
        "State": "Pulau Pinang"
    },
    {
        "Postcode": "13800",
        "Location": "Lorong Seri Murni 3",
        "Post_Office": "Butterworth",
        "State": "Pulau Pinang"
    },
    {
        "Postcode": "13800",
        "Location": "Lorong Seri Murni 4",
        "Post_Office": "Butterworth",
        "State": "Pulau Pinang"
    },
    {
        "Postcode": "13800",
        "Location": "Lorong Seri Murni 5",
        "Post_Office": "Butterworth",
        "State": "Pulau Pinang"
    },
    {
        "Postcode": "13800",
        "Location": "Lorong Seri Murni 6",
        "Post_Office": "Butterworth",
        "State": "Pulau Pinang"
    },
    {
        "Postcode": "13800",
        "Location": "Lorong Seri Murni 7",
        "Post_Office": "Butterworth",
        "State": "Pulau Pinang"
    },
    {
        "Postcode": "13800",
        "Location": "Lorong Seri Murni 8",
        "Post_Office": "Butterworth",
        "State": "Pulau Pinang"
    },
    {
        "Postcode": "13800",
        "Location": "Lorong Seri Murni 9",
        "Post_Office": "Butterworth",
        "State": "Pulau Pinang"
    },
    {
        "Postcode": "13800",
        "Location": "Lorong Sungai Dua Utama 1",
        "Post_Office": "Butterworth",
        "State": "Pulau Pinang"
    },
    {
        "Postcode": "13800",
        "Location": "Lorong Sungai Dua Utama 10",
        "Post_Office": "Butterworth",
        "State": "Pulau Pinang"
    },
    {
        "Postcode": "13800",
        "Location": "Lorong Sungai Dua Utama 11",
        "Post_Office": "Butterworth",
        "State": "Pulau Pinang"
    },
    {
        "Postcode": "13800",
        "Location": "Lorong Sungai Dua Utama 12",
        "Post_Office": "Butterworth",
        "State": "Pulau Pinang"
    },
    {
        "Postcode": "13800",
        "Location": "Lorong Sungai Dua Utama 13",
        "Post_Office": "Butterworth",
        "State": "Pulau Pinang"
    },
    {
        "Postcode": "13800",
        "Location": "Lorong Sungai Dua Utama 14",
        "Post_Office": "Butterworth",
        "State": "Pulau Pinang"
    },
    {
        "Postcode": "13800",
        "Location": "Lorong Sungai Dua Utama 15",
        "Post_Office": "Butterworth",
        "State": "Pulau Pinang"
    },
    {
        "Postcode": "13800",
        "Location": "Lorong Sungai Dua Utama 16",
        "Post_Office": "Butterworth",
        "State": "Pulau Pinang"
    },
    {
        "Postcode": "13800",
        "Location": "Lorong Sungai Dua Utama 17",
        "Post_Office": "Butterworth",
        "State": "Pulau Pinang"
    },
    {
        "Postcode": "13800",
        "Location": "Lorong Sungai Dua Utama 18",
        "Post_Office": "Butterworth",
        "State": "Pulau Pinang"
    },
    {
        "Postcode": "13800",
        "Location": "Lorong Sungai Dua Utama 19",
        "Post_Office": "Butterworth",
        "State": "Pulau Pinang"
    },
    {
        "Postcode": "13800",
        "Location": "Lorong Sungai Dua Utama 2",
        "Post_Office": "Butterworth",
        "State": "Pulau Pinang"
    },
    {
        "Postcode": "13800",
        "Location": "Lorong Sungai Dua Utama 20",
        "Post_Office": "Butterworth",
        "State": "Pulau Pinang"
    },
    {
        "Postcode": "13800",
        "Location": "Lorong Sungai Dua Utama 21",
        "Post_Office": "Butterworth",
        "State": "Pulau Pinang"
    },
    {
        "Postcode": "13800",
        "Location": "Lorong Sungai Dua Utama 22",
        "Post_Office": "Butterworth",
        "State": "Pulau Pinang"
    },
    {
        "Postcode": "13800",
        "Location": "Lorong Sungai Dua Utama 23",
        "Post_Office": "Butterworth",
        "State": "Pulau Pinang"
    },
    {
        "Postcode": "13800",
        "Location": "Lorong Sungai Dua Utama 24",
        "Post_Office": "Butterworth",
        "State": "Pulau Pinang"
    },
    {
        "Postcode": "13800",
        "Location": "Lorong Sungai Dua Utama 25",
        "Post_Office": "Butterworth",
        "State": "Pulau Pinang"
    },
    {
        "Postcode": "13800",
        "Location": "Lorong Sungai Dua Utama 26",
        "Post_Office": "Butterworth",
        "State": "Pulau Pinang"
    },
    {
        "Postcode": "13800",
        "Location": "Lorong Sungai Dua Utama 27",
        "Post_Office": "Butterworth",
        "State": "Pulau Pinang"
    },
    {
        "Postcode": "13800",
        "Location": "Lorong Sungai Dua Utama 28",
        "Post_Office": "Butterworth",
        "State": "Pulau Pinang"
    },
    {
        "Postcode": "13800",
        "Location": "Lorong Sungai Dua Utama 29",
        "Post_Office": "Butterworth",
        "State": "Pulau Pinang"
    },
    {
        "Postcode": "13800",
        "Location": "Lorong Sungai Dua Utama 3",
        "Post_Office": "Butterworth",
        "State": "Pulau Pinang"
    },
    {
        "Postcode": "13800",
        "Location": "Lorong Sungai Dua Utama 30",
        "Post_Office": "Butterworth",
        "State": "Pulau Pinang"
    },
    {
        "Postcode": "13800",
        "Location": "Lorong Sungai Dua Utama 31",
        "Post_Office": "Butterworth",
        "State": "Pulau Pinang"
    },
    {
        "Postcode": "13800",
        "Location": "Lorong Sungai Dua Utama 32",
        "Post_Office": "Butterworth",
        "State": "Pulau Pinang"
    },
    {
        "Postcode": "13800",
        "Location": "Lorong Sungai Dua Utama 33",
        "Post_Office": "Butterworth",
        "State": "Pulau Pinang"
    },
    {
        "Postcode": "13800",
        "Location": "Lorong Sungai Dua Utama 34",
        "Post_Office": "Butterworth",
        "State": "Pulau Pinang"
    },
    {
        "Postcode": "13800",
        "Location": "Lorong Sungai Dua Utama 4",
        "Post_Office": "Butterworth",
        "State": "Pulau Pinang"
    },
    {
        "Postcode": "13800",
        "Location": "Lorong Sungai Dua Utama 5",
        "Post_Office": "Butterworth",
        "State": "Pulau Pinang"
    },
    {
        "Postcode": "13800",
        "Location": "Lorong Sungai Dua Utama 6",
        "Post_Office": "Butterworth",
        "State": "Pulau Pinang"
    },
    {
        "Postcode": "13800",
        "Location": "Lorong Sungai Dua Utama 7",
        "Post_Office": "Butterworth",
        "State": "Pulau Pinang"
    },
    {
        "Postcode": "13800",
        "Location": "Lorong Sungai Dua Utama 8",
        "Post_Office": "Butterworth",
        "State": "Pulau Pinang"
    },
    {
        "Postcode": "13800",
        "Location": "Lorong Sungai Dua Utama 9",
        "Post_Office": "Butterworth",
        "State": "Pulau Pinang"
    },
    {
        "Postcode": "13800",
        "Location": "Solok Merbau Indah 1",
        "Post_Office": "Butterworth",
        "State": "Pulau Pinang"
    },
    {
        "Postcode": "13800",
        "Location": "Solok Merbau Indah 2",
        "Post_Office": "Butterworth",
        "State": "Pulau Pinang"
    },
    {
        "Postcode": "13800",
        "Location": "Solok Merbau Indah 3",
        "Post_Office": "Butterworth",
        "State": "Pulau Pinang"
    },
    {
        "Postcode": "13800",
        "Location": "Solok Merbau Indah 4",
        "Post_Office": "Butterworth",
        "State": "Pulau Pinang"
    },
    {
        "Postcode": "13800",
        "Location": "Solok Merbau Indah 6",
        "Post_Office": "Butterworth",
        "State": "Pulau Pinang"
    },
    {
        "Postcode": "13800",
        "Location": "Solok Merbau Indah 7",
        "Post_Office": "Butterworth",
        "State": "Pulau Pinang"
    },
    {
        "Postcode": "13800",
        "Location": "Solok Perda 1",
        "Post_Office": "Butterworth",
        "State": "Pulau Pinang"
    },
    {
        "Postcode": "13800",
        "Location": "Solok Perda 2",
        "Post_Office": "Butterworth",
        "State": "Pulau Pinang"
    },
    {
        "Postcode": "13800",
        "Location": "Solok Sungai Dua Utama 1",
        "Post_Office": "Butterworth",
        "State": "Pulau Pinang"
    },
    {
        "Postcode": "13800",
        "Location": "Solok Sungai Dua Utama 2",
        "Post_Office": "Butterworth",
        "State": "Pulau Pinang"
    },
    {
        "Postcode": "13800",
        "Location": "Jalan Mahsuri",
        "Post_Office": "Butterworth",
        "State": "Pulau Pinang"
    },
    {
        "Postcode": "13800",
        "Location": "Jalan Sungai Dua",
        "Post_Office": "Butterworth",
        "State": "Pulau Pinang"
    },
    {
        "Postcode": "13800",
        "Location": "Kampung Kolam",
        "Post_Office": "Butterworth",
        "State": "Pulau Pinang"
    },
    {
        "Postcode": "13800",
        "Location": "Taman Merbau Jaya",
        "Post_Office": "Butterworth",
        "State": "Pulau Pinang"
    },
    {
        "Postcode": "13800",
        "Location": "Gelang Bubu",
        "Post_Office": "Butterworth",
        "State": "Pulau Pinang"
    },
    {
        "Postcode": "13800",
        "Location": "Jalan Haji Murshid",
        "Post_Office": "Butterworth",
        "State": "Pulau Pinang"
    },
    {
        "Postcode": "13800",
        "Location": "Jalan Merbau Indah",
        "Post_Office": "Butterworth",
        "State": "Pulau Pinang"
    },
    {
        "Postcode": "13800",
        "Location": "Jalan Merbau Indah 1",
        "Post_Office": "Butterworth",
        "State": "Pulau Pinang"
    },
    {
        "Postcode": "13800",
        "Location": "Jalan Merbau Jaya",
        "Post_Office": "Butterworth",
        "State": "Pulau Pinang"
    },
    {
        "Postcode": "13800",
        "Location": "Jalan Murni",
        "Post_Office": "Butterworth",
        "State": "Pulau Pinang"
    },
    {
        "Postcode": "13800",
        "Location": "Jalan Murni 1",
        "Post_Office": "Butterworth",
        "State": "Pulau Pinang"
    },
    {
        "Postcode": "13800",
        "Location": "Jalan Pengkalan Machang",
        "Post_Office": "Butterworth",
        "State": "Pulau Pinang"
    },
    {
        "Postcode": "13800",
        "Location": "Jalan Permatang Sungai Dua",
        "Post_Office": "Butterworth",
        "State": "Pulau Pinang"
    },
    {
        "Postcode": "13800",
        "Location": "Jalan Perusahaan Sungai Lokan 3",
        "Post_Office": "Butterworth",
        "State": "Pulau Pinang"
    },
    {
        "Postcode": "13800",
        "Location": "Jalan Seri Maklom",
        "Post_Office": "Butterworth",
        "State": "Pulau Pinang"
    },
    {
        "Postcode": "13800",
        "Location": "Jalan Seri Murni",
        "Post_Office": "Butterworth",
        "State": "Pulau Pinang"
    },
    {
        "Postcode": "13800",
        "Location": "Jalan Seri Murni 1",
        "Post_Office": "Butterworth",
        "State": "Pulau Pinang"
    },
    {
        "Postcode": "13800",
        "Location": "Kampung Alor Merah",
        "Post_Office": "Butterworth",
        "State": "Pulau Pinang"
    },
    {
        "Postcode": "13800",
        "Location": "Kampung Belakang Balai Polis",
        "Post_Office": "Butterworth",
        "State": "Pulau Pinang"
    },
    {
        "Postcode": "13800",
        "Location": "Kampung Kolam Sungai Dua",
        "Post_Office": "Butterworth",
        "State": "Pulau Pinang"
    },
    {
        "Postcode": "13800",
        "Location": "Kampung Maklom",
        "Post_Office": "Butterworth",
        "State": "Pulau Pinang"
    },
    {
        "Postcode": "13800",
        "Location": "Kampung Manggis Mk.16",
        "Post_Office": "Butterworth",
        "State": "Pulau Pinang"
    },
    {
        "Postcode": "13800",
        "Location": "Kampung Merbau Kudung",
        "Post_Office": "Butterworth",
        "State": "Pulau Pinang"
    },
    {
        "Postcode": "13800",
        "Location": "Kampung Pekan Darat",
        "Post_Office": "Butterworth",
        "State": "Pulau Pinang"
    },
    {
        "Postcode": "13800",
        "Location": "Kampung Pengkalan Machang",
        "Post_Office": "Butterworth",
        "State": "Pulau Pinang"
    },
    {
        "Postcode": "13800",
        "Location": "Kampung Permatang Benuan",
        "Post_Office": "Butterworth",
        "State": "Pulau Pinang"
    },
    {
        "Postcode": "13800",
        "Location": "Kampung Permatang Che Tak",
        "Post_Office": "Butterworth",
        "State": "Pulau Pinang"
    },
    {
        "Postcode": "13800",
        "Location": "Kampung Permatang Tok Bidan",
        "Post_Office": "Butterworth",
        "State": "Pulau Pinang"
    },
    {
        "Postcode": "13800",
        "Location": "Kampung Permatang Tok Jaya",
        "Post_Office": "Butterworth",
        "State": "Pulau Pinang"
    },
    {
        "Postcode": "13800",
        "Location": "Kampung Sungai Lokan",
        "Post_Office": "Butterworth",
        "State": "Pulau Pinang"
    },
    {
        "Postcode": "13800",
        "Location": "Kampung Tok Adam",
        "Post_Office": "Butterworth",
        "State": "Pulau Pinang"
    },
    {
        "Postcode": "13800",
        "Location": "Lengkok Murni",
        "Post_Office": "Butterworth",
        "State": "Pulau Pinang"
    },
    {
        "Postcode": "13800",
        "Location": "Lintang Perusahaan Sungai Lokan 4",
        "Post_Office": "Butterworth",
        "State": "Pulau Pinang"
    },
    {
        "Postcode": "13800",
        "Location": "Lorong Machang 1",
        "Post_Office": "Butterworth",
        "State": "Pulau Pinang"
    },
    {
        "Postcode": "13800",
        "Location": "Lorong Maklom 1",
        "Post_Office": "Butterworth",
        "State": "Pulau Pinang"
    },
    {
        "Postcode": "13800",
        "Location": "Lorong Sungai Dua",
        "Post_Office": "Butterworth",
        "State": "Pulau Pinang"
    },
    {
        "Postcode": "13800",
        "Location": "Merbau Kudong",
        "Post_Office": "Butterworth",
        "State": "Pulau Pinang"
    },
    {
        "Postcode": "13800",
        "Location": "Pekan Darat",
        "Post_Office": "Butterworth",
        "State": "Pulau Pinang"
    },
    {
        "Postcode": "13800",
        "Location": "Pengkalan Machang",
        "Post_Office": "Butterworth",
        "State": "Pulau Pinang"
    },
    {
        "Postcode": "13800",
        "Location": "Permatang Benuan",
        "Post_Office": "Butterworth",
        "State": "Pulau Pinang"
    },
    {
        "Postcode": "13800",
        "Location": "Permatang Che Tak",
        "Post_Office": "Butterworth",
        "State": "Pulau Pinang"
    },
    {
        "Postcode": "13800",
        "Location": "Permatang Tok Bidan",
        "Post_Office": "Butterworth",
        "State": "Pulau Pinang"
    },
    {
        "Postcode": "13800",
        "Location": "Permatang Tok Jaya",
        "Post_Office": "Butterworth",
        "State": "Pulau Pinang"
    },
    {
        "Postcode": "13800",
        "Location": "Persiaran Murni",
        "Post_Office": "Butterworth",
        "State": "Pulau Pinang"
    },
    {
        "Postcode": "13800",
        "Location": "Sungai Lokan",
        "Post_Office": "Butterworth",
        "State": "Pulau Pinang"
    },
    {
        "Postcode": "13800",
        "Location": "Taman Desa Murni",
        "Post_Office": "Butterworth",
        "State": "Pulau Pinang"
    },
    {
        "Postcode": "13800",
        "Location": "Taman Maklom",
        "Post_Office": "Butterworth",
        "State": "Pulau Pinang"
    },
    {
        "Postcode": "13800",
        "Location": "Taman Merbau Indah",
        "Post_Office": "Butterworth",
        "State": "Pulau Pinang"
    },
    {
        "Postcode": "13800",
        "Location": "Taman Murni Jaya",
        "Post_Office": "Butterworth",
        "State": "Pulau Pinang"
    },
    {
        "Postcode": "13800",
        "Location": "Taman Perda Sungai Dua",
        "Post_Office": "Butterworth",
        "State": "Pulau Pinang"
    },
    {
        "Postcode": "13800",
        "Location": "Taman Seri Murni",
        "Post_Office": "Butterworth",
        "State": "Pulau Pinang"
    },
    {
        "Postcode": "13800",
        "Location": "Taman Sungai Dua Utama",
        "Post_Office": "Butterworth",
        "State": "Pulau Pinang"
    }
]
