[
    {
        "Postcode": "02000",
        "Location": "Bohor Mali",
        "Post_Office": "Kuala Perlis",
        "State": "Perlis"
    },
    {
        "Postcode": "02000",
        "Location": "Kampung Pulau",
        "Post_Office": "Kuala Perlis",
        "State": "Perlis"
    },
    {
        "Postcode": "02000",
        "Location": "Kampung Sungai Mati",
        "Post_Office": "Kuala Perlis",
        "State": "Perlis"
    },
    {
        "Postcode": "02000",
        "Location": "Kampung Bahagia\r\n",
        "Post_Office": "Kuala Perlis",
        "State": "Perlis"
    },
    {
        "Postcode": "02000",
        "Location": "Kampung Telok",
        "Post_Office": "Kuala Perlis",
        "State": "Perlis"
    },
    {
        "Postcode": "02000",
        "Location": "Al Marhom Kayang",
        "Post_Office": "Kuala Perlis",
        "State": "Perlis"
    },
    {
        "Postcode": "02000",
        "Location": "Bohor Lateh",
        "Post_Office": "Kuala Perlis",
        "State": "Perlis"
    },
    {
        "Postcode": "02000",
        "Location": "Bukit Puteh",
        "Post_Office": "Kuala Perlis",
        "State": "Perlis"
    },
    {
        "Postcode": "02000",
        "Location": "Bukit Tok Po",
        "Post_Office": "Kuala Perlis",
        "State": "Perlis"
    },
    {
        "Postcode": "02000",
        "Location": "Jalan Besar",
        "Post_Office": "Kuala Perlis",
        "State": "Perlis"
    },
    {
        "Postcode": "02000",
        "Location": "Jalan Lama Kuala Perlis (Batu 4)",
        "Post_Office": "Kuala Perlis",
        "State": "Perlis"
    },
    {
        "Postcode": "02000",
        "Location": "Jalan Masjid",
        "Post_Office": "Kuala Perlis",
        "State": "Perlis"
    },
    {
        "Postcode": "02000",
        "Location": "Jalan Miri",
        "Post_Office": "Kuala Perlis",
        "State": "Perlis"
    },
    {
        "Postcode": "02000",
        "Location": "Jalan Panggong",
        "Post_Office": "Kuala Perlis",
        "State": "Perlis"
    },
    {
        "Postcode": "02000",
        "Location": "Jalan Serawak",
        "Post_Office": "Kuala Perlis",
        "State": "Perlis"
    },
    {
        "Postcode": "02000",
        "Location": "Jalan Siakap",
        "Post_Office": "Kuala Perlis",
        "State": "Perlis"
    },
    {
        "Postcode": "02000",
        "Location": "Jalan Simpang Empat (Batu 3 3/4 - 4 1/2)",
        "Post_Office": "Kuala Perlis",
        "State": "Perlis"
    },
    {
        "Postcode": "02000",
        "Location": "Kampung Bahagia",
        "Post_Office": "Kuala Perlis",
        "State": "Perlis"
    },
    {
        "Postcode": "02000",
        "Location": "Kampung Bangsal Lebah",
        "Post_Office": "Kuala Perlis",
        "State": "Perlis"
    },
    {
        "Postcode": "02000",
        "Location": "Kampung Baru (Jalan Sarawak)",
        "Post_Office": "Kuala Perlis",
        "State": "Perlis"
    },
    {
        "Postcode": "02000",
        "Location": "Kampung Baru Jeti",
        "Post_Office": "Kuala Perlis",
        "State": "Perlis"
    },
    {
        "Postcode": "02000",
        "Location": "Kampung Baru Tandiap",
        "Post_Office": "Kuala Perlis",
        "State": "Perlis"
    },
    {
        "Postcode": "02000",
        "Location": "Kampung Baru Tok Kuning",
        "Post_Office": "Kuala Perlis",
        "State": "Perlis"
    },
    {
        "Postcode": "02000",
        "Location": "Kampung Batu Buaya",
        "Post_Office": "Kuala Perlis",
        "State": "Perlis"
    },
    {
        "Postcode": "02000",
        "Location": "Kampung Batu Lima",
        "Post_Office": "Kuala Perlis",
        "State": "Perlis"
    },
    {
        "Postcode": "02000",
        "Location": "Kampung Behor Lateh",
        "Post_Office": "Kuala Perlis",
        "State": "Perlis"
    },
    {
        "Postcode": "02000",
        "Location": "Kampung Belakang Kilang",
        "Post_Office": "Kuala Perlis",
        "State": "Perlis"
    },
    {
        "Postcode": "02000",
        "Location": "Kampung Besar",
        "Post_Office": "Kuala Perlis",
        "State": "Perlis"
    },
    {
        "Postcode": "02000",
        "Location": "Kampung Bohor Ibus",
        "Post_Office": "Kuala Perlis",
        "State": "Perlis"
    },
    {
        "Postcode": "02000",
        "Location": "Kampung Bohor Lateh",
        "Post_Office": "Kuala Perlis",
        "State": "Perlis"
    },
    {
        "Postcode": "02000",
        "Location": "Kampung Bohor Mesjid",
        "Post_Office": "Kuala Perlis",
        "State": "Perlis"
    },
    {
        "Postcode": "02000",
        "Location": "Kampung Bohor Rotan Pahit",
        "Post_Office": "Kuala Perlis",
        "State": "Perlis"
    },
    {
        "Postcode": "02000",
        "Location": "Kampung Bohor Tui",
        "Post_Office": "Kuala Perlis",
        "State": "Perlis"
    },
    {
        "Postcode": "02000",
        "Location": "Kampung Bukit Papan",
        "Post_Office": "Kuala Perlis",
        "State": "Perlis"
    },
    {
        "Postcode": "02000",
        "Location": "Kampung Hujung Tanjung",
        "Post_Office": "Kuala Perlis",
        "State": "Perlis"
    },
    {
        "Postcode": "02000",
        "Location": "Kampung Kolam Raja",
        "Post_Office": "Kuala Perlis",
        "State": "Perlis"
    },
    {
        "Postcode": "02000",
        "Location": "Kampung Kota Kayang",
        "Post_Office": "Kuala Perlis",
        "State": "Perlis"
    },
    {
        "Postcode": "02000",
        "Location": "Kampung Kuala",
        "Post_Office": "Kuala Perlis",
        "State": "Perlis"
    },
    {
        "Postcode": "02000",
        "Location": "Kampung Kurung Tengar",
        "Post_Office": "Kuala Perlis",
        "State": "Perlis"
    },
    {
        "Postcode": "02000",
        "Location": "Kampung Langgar",
        "Post_Office": "Kuala Perlis",
        "State": "Perlis"
    },
    {
        "Postcode": "02000",
        "Location": "Kampung Nelayan",
        "Post_Office": "Kuala Perlis",
        "State": "Perlis"
    },
    {
        "Postcode": "02000",
        "Location": "Kampung Padang Besar Selatan",
        "Post_Office": "Kuala Perlis",
        "State": "Perlis"
    },
    {
        "Postcode": "02000",
        "Location": "Kampung Padang Cina",
        "Post_Office": "Kuala Perlis",
        "State": "Perlis"
    },
    {
        "Postcode": "02000",
        "Location": "Kampung Padang Jamil",
        "Post_Office": "Kuala Perlis",
        "State": "Perlis"
    },
    {
        "Postcode": "02000",
        "Location": "Kampung Pak Lengah",
        "Post_Office": "Kuala Perlis",
        "State": "Perlis"
    },
    {
        "Postcode": "02000",
        "Location": "Kampung Peladang",
        "Post_Office": "Kuala Perlis",
        "State": "Perlis"
    },
    {
        "Postcode": "02000",
        "Location": "Kampung Perak",
        "Post_Office": "Kuala Perlis",
        "State": "Perlis"
    },
    {
        "Postcode": "02000",
        "Location": "Kampung Pokok Asam",
        "Post_Office": "Kuala Perlis",
        "State": "Perlis"
    },
    {
        "Postcode": "02000",
        "Location": "Kampung Puju",
        "Post_Office": "Kuala Perlis",
        "State": "Perlis"
    },
    {
        "Postcode": "02000",
        "Location": "Kampung Pulau Ketam",
        "Post_Office": "Kuala Perlis",
        "State": "Perlis"
    },
    {
        "Postcode": "02000",
        "Location": "Kampung Seberang Alor",
        "Post_Office": "Kuala Perlis",
        "State": "Perlis"
    },
    {
        "Postcode": "02000",
        "Location": "Kampung Seberang Jaya",
        "Post_Office": "Kuala Perlis",
        "State": "Perlis"
    },
    {
        "Postcode": "02000",
        "Location": "Kampung Seberang Tok Pi",
        "Post_Office": "Kuala Perlis",
        "State": "Perlis"
    },
    {
        "Postcode": "02000",
        "Location": "Kampung Tandiap",
        "Post_Office": "Kuala Perlis",
        "State": "Perlis"
    },
    {
        "Postcode": "02000",
        "Location": "Kampung Tanjung Gelam",
        "Post_Office": "Kuala Perlis",
        "State": "Perlis"
    },
    {
        "Postcode": "02000",
        "Location": "Kampung Tengah",
        "Post_Office": "Kuala Perlis",
        "State": "Perlis"
    },
    {
        "Postcode": "02000",
        "Location": "Kampung Tengah Bohor Lateh",
        "Post_Office": "Kuala Perlis",
        "State": "Perlis"
    },
    {
        "Postcode": "02000",
        "Location": "Kampung Terus Teritip",
        "Post_Office": "Kuala Perlis",
        "State": "Perlis"
    },
    {
        "Postcode": "02000",
        "Location": "Kampung Titi Serong",
        "Post_Office": "Kuala Perlis",
        "State": "Perlis"
    },
    {
        "Postcode": "02000",
        "Location": "Kampung Tok Kaya",
        "Post_Office": "Kuala Perlis",
        "State": "Perlis"
    },
    {
        "Postcode": "02000",
        "Location": "Kampung Tok Kuning",
        "Post_Office": "Kuala Perlis",
        "State": "Perlis"
    },
    {
        "Postcode": "02000",
        "Location": "Kampung Utan Ibus",
        "Post_Office": "Kuala Perlis",
        "State": "Perlis"
    },
    {
        "Postcode": "02000",
        "Location": "Kampung Wai",
        "Post_Office": "Kuala Perlis",
        "State": "Perlis"
    },
    {
        "Postcode": "02000",
        "Location": "Kampung Wang Pinang",
        "Post_Office": "Kuala Perlis",
        "State": "Perlis"
    },
    {
        "Postcode": "02000",
        "Location": "Kawasan Perindustrian Kuala Perlis",
        "Post_Office": "Kuala Perlis",
        "State": "Perlis"
    },
    {
        "Postcode": "02000",
        "Location": "Kuala Perlis",
        "Post_Office": "Kuala Perlis",
        "State": "Perlis"
    },
    {
        "Postcode": "02000",
        "Location": "Persiaran Putra Timur 1",
        "Post_Office": "Kuala Perlis",
        "State": "Perlis"
    },
    {
        "Postcode": "02000",
        "Location": "Pprt Tok Kuning",
        "Post_Office": "Kuala Perlis",
        "State": "Perlis"
    },
    {
        "Postcode": "02000",
        "Location": "Rancangan Perumahan Awam 2 Kps",
        "Post_Office": "Kuala Perlis",
        "State": "Perlis"
    },
    {
        "Postcode": "02000",
        "Location": "Sungai Berembang",
        "Post_Office": "Kuala Perlis",
        "State": "Perlis"
    },
    {
        "Postcode": "02000",
        "Location": "Sungai Manor",
        "Post_Office": "Kuala Perlis",
        "State": "Perlis"
    },
    {
        "Postcode": "02000",
        "Location": "Sungai Siput",
        "Post_Office": "Kuala Perlis",
        "State": "Perlis"
    },
    {
        "Postcode": "02000",
        "Location": "Taman Berlian",
        "Post_Office": "Kuala Perlis",
        "State": "Perlis"
    },
    {
        "Postcode": "02000",
        "Location": "Taman Bukit Kubu",
        "Post_Office": "Kuala Perlis",
        "State": "Perlis"
    },
    {
        "Postcode": "02000",
        "Location": "Taman Indera Indah",
        "Post_Office": "Kuala Perlis",
        "State": "Perlis"
    },
    {
        "Postcode": "02000",
        "Location": "Taman Kuala Perlis",
        "Post_Office": "Kuala Perlis",
        "State": "Perlis"
    },
    {
        "Postcode": "02000",
        "Location": "Taman Peladang Jaya",
        "Post_Office": "Kuala Perlis",
        "State": "Perlis"
    },
    {
        "Postcode": "02000",
        "Location": "Taman Semarak",
        "Post_Office": "Kuala Perlis",
        "State": "Perlis"
    },
    {
        "Postcode": "02000",
        "Location": "Taman Sentosa",
        "Post_Office": "Kuala Perlis",
        "State": "Perlis"
    },
    {
        "Postcode": "02000",
        "Location": "Taman Seri Bayu",
        "Post_Office": "Kuala Perlis",
        "State": "Perlis"
    },
    {
        "Postcode": "02000",
        "Location": "Taman Seri Semarak",
        "Post_Office": "Kuala Perlis",
        "State": "Perlis"
    },
    {
        "Postcode": "02000",
        "Location": "Taman Suria",
        "Post_Office": "Kuala Perlis",
        "State": "Perlis"
    }
]
