[
    {
        "Postcode": "02100",
        "Location": "Taman Utara Jaya 1",
        "Post_Office": "Padang Besar",
        "State": "Perlis"
    },
    {
        "Postcode": "02100",
        "Location": "Taman Utara Jaya 2",
        "Post_Office": "Padang Besar",
        "State": "Perlis"
    },
    {
        "Postcode": "02100",
        "Location": "Taman Utara Jaya 3",
        "Post_Office": "Padang Besar",
        "State": "Perlis"
    },
    {
        "Postcode": "02100",
        "Location": "Kampung Sena",
        "Post_Office": "Padang Besar",
        "State": "Perlis"
    },
    {
        "Postcode": "02100",
        "Location": "Kampung Baru",
        "Post_Office": "Padang Besar",
        "State": "Perlis"
    },
    {
        "Postcode": "02100",
        "Location": "Aked Niaga",
        "Post_Office": "Padang Besar",
        "State": "Perlis"
    },
    {
        "Postcode": "02100",
        "Location": "Gapura Squre",
        "Post_Office": "Padang Besar",
        "State": "Perlis"
    },
    {
        "Postcode": "02100",
        "Location": "Kampung Petani",
        "Post_Office": "Padang Besar",
        "State": "Perlis"
    },
    {
        "Postcode": "02100",
        "Location": "Kampung Tersusun (Batu 20)",
        "Post_Office": "Padang Besar",
        "State": "Perlis"
    },
    {
        "Postcode": "02100",
        "Location": "Kem Askar Rimba Mab",
        "Post_Office": "Padang Besar",
        "State": "Perlis"
    },
    {
        "Postcode": "02100",
        "Location": "Kem Upp",
        "Post_Office": "Padang Besar",
        "State": "Perlis"
    },
    {
        "Postcode": "02100",
        "Location": "Klinik Kesihatan Jln Keretapi",
        "Post_Office": "Padang Besar",
        "State": "Perlis"
    },
    {
        "Postcode": "02100",
        "Location": "Kompleks Imigresen",
        "Post_Office": "Padang Besar",
        "State": "Perlis"
    },
    {
        "Postcode": "02100",
        "Location": "Kuarantin Haiwan",
        "Post_Office": "Padang Besar",
        "State": "Perlis"
    },
    {
        "Postcode": "02100",
        "Location": "Pejabat Felda Rimba Mas  Frm",
        "Post_Office": "Padang Besar",
        "State": "Perlis"
    },
    {
        "Postcode": "02100",
        "Location": "Pejabat Kastam",
        "Post_Office": "Padang Besar",
        "State": "Perlis"
    },
    {
        "Postcode": "02100",
        "Location": "Sekolah Menengah Padang Besar",
        "Post_Office": "Padang Besar",
        "State": "Perlis"
    },
    {
        "Postcode": "02100",
        "Location": "Taman Bunga Cempaka",
        "Post_Office": "Padang Besar",
        "State": "Perlis"
    },
    {
        "Postcode": "02100",
        "Location": "Taman Bunga Cina",
        "Post_Office": "Padang Besar",
        "State": "Perlis"
    },
    {
        "Postcode": "02100",
        "Location": "Taman Singgah Sana",
        "Post_Office": "Padang Besar",
        "State": "Perlis"
    },
    {
        "Postcode": "02100",
        "Location": "Bukit Cabang",
        "Post_Office": "Padang Besar",
        "State": "Perlis"
    },
    {
        "Postcode": "02100",
        "Location": "Emas Kerajang",
        "Post_Office": "Padang Besar",
        "State": "Perlis"
    },
    {
        "Postcode": "02100",
        "Location": "Felcra Lubuk Sireh",
        "Post_Office": "Padang Besar",
        "State": "Perlis"
    },
    {
        "Postcode": "02100",
        "Location": "Felda Mata Ayer",
        "Post_Office": "Padang Besar",
        "State": "Perlis"
    },
    {
        "Postcode": "02100",
        "Location": "Felda Rimba Mas",
        "Post_Office": "Padang Besar",
        "State": "Perlis"
    },
    {
        "Postcode": "02100",
        "Location": "Gapura Square",
        "Post_Office": "Padang Besar",
        "State": "Perlis"
    },
    {
        "Postcode": "02100",
        "Location": "Jalan Padang Besar (Km 19)",
        "Post_Office": "Padang Besar",
        "State": "Perlis"
    },
    {
        "Postcode": "02100",
        "Location": "Kampung Alor Dalam (Bukit Chabang)",
        "Post_Office": "Padang Besar",
        "State": "Perlis"
    },
    {
        "Postcode": "02100",
        "Location": "Kampung Asmara",
        "Post_Office": "Padang Besar",
        "State": "Perlis"
    },
    {
        "Postcode": "02100",
        "Location": "Kampung Baru Bukit Chabang",
        "Post_Office": "Padang Besar",
        "State": "Perlis"
    },
    {
        "Postcode": "02100",
        "Location": "Kampung Baru Jalan Sahabat",
        "Post_Office": "Padang Besar",
        "State": "Perlis"
    },
    {
        "Postcode": "02100",
        "Location": "Kampung Bukit Chabang",
        "Post_Office": "Padang Besar",
        "State": "Perlis"
    },
    {
        "Postcode": "02100",
        "Location": "Kampung Chantek",
        "Post_Office": "Padang Besar",
        "State": "Perlis"
    },
    {
        "Postcode": "02100",
        "Location": "Kampung Guar Tinggi (Titi Tinggi)",
        "Post_Office": "Padang Besar",
        "State": "Perlis"
    },
    {
        "Postcode": "02100",
        "Location": "Kampung Kok Mak",
        "Post_Office": "Padang Besar",
        "State": "Perlis"
    },
    {
        "Postcode": "02100",
        "Location": "Kampung Kolam",
        "Post_Office": "Padang Besar",
        "State": "Perlis"
    },
    {
        "Postcode": "02100",
        "Location": "Kampung Masjid",
        "Post_Office": "Padang Besar",
        "State": "Perlis"
    },
    {
        "Postcode": "02100",
        "Location": "Kampung Melayu",
        "Post_Office": "Padang Besar",
        "State": "Perlis"
    },
    {
        "Postcode": "02100",
        "Location": "Kampung Padang Mawa",
        "Post_Office": "Padang Besar",
        "State": "Perlis"
    },
    {
        "Postcode": "02100",
        "Location": "Kampung Sahabat",
        "Post_Office": "Padang Besar",
        "State": "Perlis"
    },
    {
        "Postcode": "02100",
        "Location": "Kampung Sungai Chuchuh",
        "Post_Office": "Padang Besar",
        "State": "Perlis"
    },
    {
        "Postcode": "02100",
        "Location": "Kampung Syed Abdan",
        "Post_Office": "Padang Besar",
        "State": "Perlis"
    },
    {
        "Postcode": "02100",
        "Location": "Kampung Titi Tinggi",
        "Post_Office": "Padang Besar",
        "State": "Perlis"
    },
    {
        "Postcode": "02100",
        "Location": "Kampung Titi Tinggi Hilir",
        "Post_Office": "Padang Besar",
        "State": "Perlis"
    },
    {
        "Postcode": "02100",
        "Location": "Kampung Titi Tinggi Ulu",
        "Post_Office": "Padang Besar",
        "State": "Perlis"
    },
    {
        "Postcode": "02100",
        "Location": "Kampung Tok Wan Nik",
        "Post_Office": "Padang Besar",
        "State": "Perlis"
    },
    {
        "Postcode": "02100",
        "Location": "Padang Besar",
        "Post_Office": "Padang Besar",
        "State": "Perlis"
    },
    {
        "Postcode": "02100",
        "Location": "Pusat Serenti Bukit Cabang",
        "Post_Office": "Padang Besar",
        "State": "Perlis"
    },
    {
        "Postcode": "02100",
        "Location": "Taman Kastam Baru",
        "Post_Office": "Padang Besar",
        "State": "Perlis"
    },
    {
        "Postcode": "02100",
        "Location": "Taman Kim",
        "Post_Office": "Padang Besar",
        "State": "Perlis"
    },
    {
        "Postcode": "02100",
        "Location": "Taman Kim 2",
        "Post_Office": "Padang Besar",
        "State": "Perlis"
    },
    {
        "Postcode": "02100",
        "Location": "Taman Perumahan Awam",
        "Post_Office": "Padang Besar",
        "State": "Perlis"
    }
]
