[
    {
        "Postcode": "02400",
        "Location": "Kampung Padang Gelam",
        "Post_Office": "Kangar",
        "State": "Perlis"
    },
    {
        "Postcode": "02400",
        "Location": "Kampung Belukar Lengga",
        "Post_Office": "Kangar",
        "State": "Perlis"
    },
    {
        "Postcode": "02400",
        "Location": "Kampung Bukit Keteri",
        "Post_Office": "Kangar",
        "State": "Perlis"
    },
    {
        "Postcode": "02400",
        "Location": "Kampung Guar Panji",
        "Post_Office": "Kangar",
        "State": "Perlis"
    },
    {
        "Postcode": "02400",
        "Location": "Kampung Kubang Tiga",
        "Post_Office": "Kangar",
        "State": "Perlis"
    },
    {
        "Postcode": "02400",
        "Location": "Kampung Perawah",
        "Post_Office": "Kangar",
        "State": "Perlis"
    },
    {
        "Postcode": "02400",
        "Location": "Jalan Padang Melangit",
        "Post_Office": "Kangar",
        "State": "Perlis"
    },
    {
        "Postcode": "02400",
        "Location": "Kampung Baru Pangas",
        "Post_Office": "Kangar",
        "State": "Perlis"
    },
    {
        "Postcode": "02400",
        "Location": "Kampung Bilal Uduh",
        "Post_Office": "Kangar",
        "State": "Perlis"
    },
    {
        "Postcode": "02400",
        "Location": "Kampung Semadung",
        "Post_Office": "Kangar",
        "State": "Perlis"
    },
    {
        "Postcode": "02400",
        "Location": "Kampung Sungai Baru Serai",
        "Post_Office": "Kangar",
        "State": "Perlis"
    },
    {
        "Postcode": "02400",
        "Location": "Klinik Desa Batu 9",
        "Post_Office": "Kangar",
        "State": "Perlis"
    },
    {
        "Postcode": "02400",
        "Location": "Padang Lati",
        "Post_Office": "Kangar",
        "State": "Perlis"
    },
    {
        "Postcode": "02400",
        "Location": "Paya Batu 5",
        "Post_Office": "Kangar",
        "State": "Perlis"
    },
    {
        "Postcode": "02400",
        "Location": "Paya Besar",
        "Post_Office": "Kangar",
        "State": "Perlis"
    },
    {
        "Postcode": "02400",
        "Location": "Paya Senduk",
        "Post_Office": "Kangar",
        "State": "Perlis"
    },
    {
        "Postcode": "02400",
        "Location": "Paya Tengah",
        "Post_Office": "Kangar",
        "State": "Perlis"
    },
    {
        "Postcode": "02400",
        "Location": "Sekolah Menengah Semadung",
        "Post_Office": "Kangar",
        "State": "Perlis"
    },
    {
        "Postcode": "02400",
        "Location": "Taman 20 ( F1, 2)",
        "Post_Office": "Kangar",
        "State": "Perlis"
    },
    {
        "Postcode": "02400",
        "Location": "Taman Bunga Geti",
        "Post_Office": "Kangar",
        "State": "Perlis"
    },
    {
        "Postcode": "02400",
        "Location": "Taman Haz Melati",
        "Post_Office": "Kangar",
        "State": "Perlis"
    },
    {
        "Postcode": "02400",
        "Location": "Beseri",
        "Post_Office": "Kangar",
        "State": "Perlis"
    },
    {
        "Postcode": "02400",
        "Location": "Beseri Dalam",
        "Post_Office": "Kangar",
        "State": "Perlis"
    },
    {
        "Postcode": "02400",
        "Location": "Bilal Uduh",
        "Post_Office": "Kangar",
        "State": "Perlis"
    },
    {
        "Postcode": "02400",
        "Location": "Bohor Madi",
        "Post_Office": "Kangar",
        "State": "Perlis"
    },
    {
        "Postcode": "02400",
        "Location": "Empangan Timah Tassoh Jps",
        "Post_Office": "Kangar",
        "State": "Perlis"
    },
    {
        "Postcode": "02400",
        "Location": "Institut Kemahiran Mara",
        "Post_Office": "Kangar",
        "State": "Perlis"
    },
    {
        "Postcode": "02400",
        "Location": "Jabatan Pertanian Bukit Temiang",
        "Post_Office": "Kangar",
        "State": "Perlis"
    },
    {
        "Postcode": "02400",
        "Location": "Jalan Asam Paya",
        "Post_Office": "Kangar",
        "State": "Perlis"
    },
    {
        "Postcode": "02400",
        "Location": "Jalan Beseri - Bukit Keteri",
        "Post_Office": "Kangar",
        "State": "Perlis"
    },
    {
        "Postcode": "02400",
        "Location": "Jalan Kaki Bukit (Batu 4 3/4 - 6 1/4)",
        "Post_Office": "Kangar",
        "State": "Perlis"
    },
    {
        "Postcode": "02400",
        "Location": "Jalan Santan (Batu 3 3/4 - 5)",
        "Post_Office": "Kangar",
        "State": "Perlis"
    },
    {
        "Postcode": "02400",
        "Location": "Jkr Bekalan Air Tassoh",
        "Post_Office": "Kangar",
        "State": "Perlis"
    },
    {
        "Postcode": "02400",
        "Location": "Kampung Alor Kangar",
        "Post_Office": "Kangar",
        "State": "Perlis"
    },
    {
        "Postcode": "02400",
        "Location": "Kampung Alor Tampang",
        "Post_Office": "Kangar",
        "State": "Perlis"
    },
    {
        "Postcode": "02400",
        "Location": "Kampung Balai Baru",
        "Post_Office": "Kangar",
        "State": "Perlis"
    },
    {
        "Postcode": "02400",
        "Location": "Kampung Baru Ngulang",
        "Post_Office": "Kangar",
        "State": "Perlis"
    },
    {
        "Postcode": "02400",
        "Location": "Kampung Batu Bertangkup",
        "Post_Office": "Kangar",
        "State": "Perlis"
    },
    {
        "Postcode": "02400",
        "Location": "Kampung Batu Hampar (Beseri)",
        "Post_Office": "Kangar",
        "State": "Perlis"
    },
    {
        "Postcode": "02400",
        "Location": "Kampung Behor Kulit Kerang",
        "Post_Office": "Kangar",
        "State": "Perlis"
    },
    {
        "Postcode": "02400",
        "Location": "Kampung Behor Madi",
        "Post_Office": "Kangar",
        "State": "Perlis"
    },
    {
        "Postcode": "02400",
        "Location": "Kampung Belat Batu Beseri",
        "Post_Office": "Kangar",
        "State": "Perlis"
    },
    {
        "Postcode": "02400",
        "Location": "Kampung Beseri Dalam",
        "Post_Office": "Kangar",
        "State": "Perlis"
    },
    {
        "Postcode": "02400",
        "Location": "Kampung Beseri Jaya",
        "Post_Office": "Kangar",
        "State": "Perlis"
    },
    {
        "Postcode": "02400",
        "Location": "Kampung Bohor Luar",
        "Post_Office": "Kangar",
        "State": "Perlis"
    },
    {
        "Postcode": "02400",
        "Location": "Kampung Bongkok",
        "Post_Office": "Kangar",
        "State": "Perlis"
    },
    {
        "Postcode": "02400",
        "Location": "Kampung Bukit Jernih",
        "Post_Office": "Kangar",
        "State": "Perlis"
    },
    {
        "Postcode": "02400",
        "Location": "Kampung Bukit Kedak",
        "Post_Office": "Kangar",
        "State": "Perlis"
    },
    {
        "Postcode": "02400",
        "Location": "Kampung Bukit Manek Barat",
        "Post_Office": "Kangar",
        "State": "Perlis"
    },
    {
        "Postcode": "02400",
        "Location": "Kampung Bukit Merah",
        "Post_Office": "Kangar",
        "State": "Perlis"
    },
    {
        "Postcode": "02400",
        "Location": "Kampung Bukit Merah Hilir",
        "Post_Office": "Kangar",
        "State": "Perlis"
    },
    {
        "Postcode": "02400",
        "Location": "Kampung Bukit Merah Hulu",
        "Post_Office": "Kangar",
        "State": "Perlis"
    },
    {
        "Postcode": "02400",
        "Location": "Kampung Bukit Temiang",
        "Post_Office": "Kangar",
        "State": "Perlis"
    },
    {
        "Postcode": "02400",
        "Location": "Kampung Chichak Terbelit",
        "Post_Office": "Kangar",
        "State": "Perlis"
    },
    {
        "Postcode": "02400",
        "Location": "Kampung Darat",
        "Post_Office": "Kangar",
        "State": "Perlis"
    },
    {
        "Postcode": "02400",
        "Location": "Kampung Darat Selatan",
        "Post_Office": "Kangar",
        "State": "Perlis"
    },
    {
        "Postcode": "02400",
        "Location": "Kampung Datuk Sheikh Ahmad",
        "Post_Office": "Kangar",
        "State": "Perlis"
    },
    {
        "Postcode": "02400",
        "Location": "Kampung Guar Jentek",
        "Post_Office": "Kangar",
        "State": "Perlis"
    },
    {
        "Postcode": "02400",
        "Location": "Kampung Guar Medan Gatal",
        "Post_Office": "Kangar",
        "State": "Perlis"
    },
    {
        "Postcode": "02400",
        "Location": "Kampung Guar Sanai",
        "Post_Office": "Kangar",
        "State": "Perlis"
    },
    {
        "Postcode": "02400",
        "Location": "Kampung Kelang Beseri",
        "Post_Office": "Kangar",
        "State": "Perlis"
    },
    {
        "Postcode": "02400",
        "Location": "Kampung Kepala Batas Dato Kayaman",
        "Post_Office": "Kangar",
        "State": "Perlis"
    },
    {
        "Postcode": "02400",
        "Location": "Kampung Kubang Jeliti",
        "Post_Office": "Kangar",
        "State": "Perlis"
    },
    {
        "Postcode": "02400",
        "Location": "Kampung Lembah Biak",
        "Post_Office": "Kangar",
        "State": "Perlis"
    },
    {
        "Postcode": "02400",
        "Location": "Kampung Lubok Batu",
        "Post_Office": "Kangar",
        "State": "Perlis"
    },
    {
        "Postcode": "02400",
        "Location": "Kampung Lubok Gajah",
        "Post_Office": "Kangar",
        "State": "Perlis"
    },
    {
        "Postcode": "02400",
        "Location": "Kampung Lubok Hitam Manis",
        "Post_Office": "Kangar",
        "State": "Perlis"
    },
    {
        "Postcode": "02400",
        "Location": "Kampung Lubuk Machang",
        "Post_Office": "Kangar",
        "State": "Perlis"
    },
    {
        "Postcode": "02400",
        "Location": "Kampung Masjid Beseri",
        "Post_Office": "Kangar",
        "State": "Perlis"
    },
    {
        "Postcode": "02400",
        "Location": "Kampung Mempelas",
        "Post_Office": "Kangar",
        "State": "Perlis"
    },
    {
        "Postcode": "02400",
        "Location": "Kampung Ngulang",
        "Post_Office": "Kangar",
        "State": "Perlis"
    },
    {
        "Postcode": "02400",
        "Location": "Kampung Padang Lati",
        "Post_Office": "Kangar",
        "State": "Perlis"
    },
    {
        "Postcode": "02400",
        "Location": "Kampung Padang Malau",
        "Post_Office": "Kangar",
        "State": "Perlis"
    },
    {
        "Postcode": "02400",
        "Location": "Kampung Padang Melangit",
        "Post_Office": "Kangar",
        "State": "Perlis"
    },
    {
        "Postcode": "02400",
        "Location": "Kampung Paya",
        "Post_Office": "Kangar",
        "State": "Perlis"
    },
    {
        "Postcode": "02400",
        "Location": "Kampung Paya Senduk",
        "Post_Office": "Kangar",
        "State": "Perlis"
    },
    {
        "Postcode": "02400",
        "Location": "Kampung Paya Ulu",
        "Post_Office": "Kangar",
        "State": "Perlis"
    },
    {
        "Postcode": "02400",
        "Location": "Kampung Penghulu Jaafar",
        "Post_Office": "Kangar",
        "State": "Perlis"
    },
    {
        "Postcode": "02400",
        "Location": "Kampung Raja Conggah",
        "Post_Office": "Kangar",
        "State": "Perlis"
    },
    {
        "Postcode": "02400",
        "Location": "Kampung Semadong",
        "Post_Office": "Kangar",
        "State": "Perlis"
    },
    {
        "Postcode": "02400",
        "Location": "Kampung Sena Rendang",
        "Post_Office": "Kangar",
        "State": "Perlis"
    },
    {
        "Postcode": "02400",
        "Location": "Kampung Simpang 3 Kilang Gula",
        "Post_Office": "Kangar",
        "State": "Perlis"
    },
    {
        "Postcode": "02400",
        "Location": "Kampung Simpang 3 Panggas",
        "Post_Office": "Kangar",
        "State": "Perlis"
    },
    {
        "Postcode": "02400",
        "Location": "Kampung Sungai Jerneh",
        "Post_Office": "Kangar",
        "State": "Perlis"
    },
    {
        "Postcode": "02400",
        "Location": "Kampung Sungai Paya",
        "Post_Office": "Kangar",
        "State": "Perlis"
    },
    {
        "Postcode": "02400",
        "Location": "Kampung Sungai Serai",
        "Post_Office": "Kangar",
        "State": "Perlis"
    },
    {
        "Postcode": "02400",
        "Location": "Kampung Tanjong",
        "Post_Office": "Kangar",
        "State": "Perlis"
    },
    {
        "Postcode": "02400",
        "Location": "Kampung Titi Tampang",
        "Post_Office": "Kangar",
        "State": "Perlis"
    },
    {
        "Postcode": "02400",
        "Location": "Kampung Tunjong Beseri",
        "Post_Office": "Kangar",
        "State": "Perlis"
    },
    {
        "Postcode": "02400",
        "Location": "Kampung Wang Pisang",
        "Post_Office": "Kangar",
        "State": "Perlis"
    },
    {
        "Postcode": "02400",
        "Location": "Kampung Wang Tangga",
        "Post_Office": "Kangar",
        "State": "Perlis"
    },
    {
        "Postcode": "02400",
        "Location": "Kampung Wang Tengku Lembu",
        "Post_Office": "Kangar",
        "State": "Perlis"
    },
    {
        "Postcode": "02400",
        "Location": "Kilang Gula",
        "Post_Office": "Kangar",
        "State": "Perlis"
    },
    {
        "Postcode": "02400",
        "Location": "Lembaga Pertubuhan Peladang",
        "Post_Office": "Kangar",
        "State": "Perlis"
    },
    {
        "Postcode": "02400",
        "Location": "Lembaga Tembakau Negara",
        "Post_Office": "Kangar",
        "State": "Perlis"
    },
    {
        "Postcode": "02400",
        "Location": "Maktab Rendah Sains Mara",
        "Post_Office": "Kangar",
        "State": "Perlis"
    },
    {
        "Postcode": "02400",
        "Location": "Paya Pauh Gembol",
        "Post_Office": "Kangar",
        "State": "Perlis"
    },
    {
        "Postcode": "02400",
        "Location": "Perumahan Kilang Gula",
        "Post_Office": "Kangar",
        "State": "Perlis"
    },
    {
        "Postcode": "02400",
        "Location": "Perumahan Perlis Plantation",
        "Post_Office": "Kangar",
        "State": "Perlis"
    },
    {
        "Postcode": "02400",
        "Location": "Pusat Haiwan Bukit Temiang",
        "Post_Office": "Kangar",
        "State": "Perlis"
    },
    {
        "Postcode": "02400",
        "Location": "Rpa Batu 8",
        "Post_Office": "Kangar",
        "State": "Perlis"
    },
    {
        "Postcode": "02400",
        "Location": "Rpa Bukit Keteri",
        "Post_Office": "Kangar",
        "State": "Perlis"
    },
    {
        "Postcode": "02400",
        "Location": "Rpa Chuping",
        "Post_Office": "Kangar",
        "State": "Perlis"
    },
    {
        "Postcode": "02400",
        "Location": "Taman Angsana",
        "Post_Office": "Kangar",
        "State": "Perlis"
    },
    {
        "Postcode": "02400",
        "Location": "Taman Bahagia",
        "Post_Office": "Kangar",
        "State": "Perlis"
    },
    {
        "Postcode": "02400",
        "Location": "Taman Beseri Indah",
        "Post_Office": "Kangar",
        "State": "Perlis"
    },
    {
        "Postcode": "02400",
        "Location": "Taman Beseri Jaya",
        "Post_Office": "Kangar",
        "State": "Perlis"
    },
    {
        "Postcode": "02400",
        "Location": "Taman Beseri Murni",
        "Post_Office": "Kangar",
        "State": "Perlis"
    },
    {
        "Postcode": "02400",
        "Location": "Taman Beseri Paya",
        "Post_Office": "Kangar",
        "State": "Perlis"
    },
    {
        "Postcode": "02400",
        "Location": "Taman Che Long",
        "Post_Office": "Kangar",
        "State": "Perlis"
    },
    {
        "Postcode": "02400",
        "Location": "Taman Dua Puluh",
        "Post_Office": "Kangar",
        "State": "Perlis"
    },
    {
        "Postcode": "02400",
        "Location": "Taman Geti",
        "Post_Office": "Kangar",
        "State": "Perlis"
    },
    {
        "Postcode": "02400",
        "Location": "Taman Has Melati",
        "Post_Office": "Kangar",
        "State": "Perlis"
    },
    {
        "Postcode": "02400",
        "Location": "Taman Mas (Beseri)",
        "Post_Office": "Kangar",
        "State": "Perlis"
    },
    {
        "Postcode": "02400",
        "Location": "Taman Melati Indah (Beseri)",
        "Post_Office": "Kangar",
        "State": "Perlis"
    },
    {
        "Postcode": "02400",
        "Location": "Taman Sempurna Jaya",
        "Post_Office": "Kangar",
        "State": "Perlis"
    }
]
