[
    {
        "Postcode": "02450",
        "Location": "Kampung Padang Jelutong",
        "Post_Office": "Kangar",
        "State": "Perlis"
    },
    {
        "Postcode": "02450",
        "Location": "Kampung Songla",
        "Post_Office": "Kangar",
        "State": "Perlis"
    },
    {
        "Postcode": "02450",
        "Location": "Kampung Sungai Buloh",
        "Post_Office": "Kangar",
        "State": "Perlis"
    },
    {
        "Postcode": "02450",
        "Location": "Kampung Paya Kelubi",
        "Post_Office": "Kangar",
        "State": "Perlis"
    },
    {
        "Postcode": "02450",
        "Location": "Kampung Bukit Jernih",
        "Post_Office": "Kangar",
        "State": "Perlis"
    },
    {
        "Postcode": "02450",
        "Location": "Kampung Kepala Batas Dato Kaya",
        "Post_Office": "Kangar",
        "State": "Perlis"
    },
    {
        "Postcode": "02450",
        "Location": "Kampung Masjid (Beseri)",
        "Post_Office": "Kangar",
        "State": "Perlis"
    },
    {
        "Postcode": "02450",
        "Location": "Taman Tunjung",
        "Post_Office": "Kangar",
        "State": "Perlis"
    }
]
