[
    {
        "Postcode": "02500",
        "Location": "Kampung Sungai Mati",
        "Post_Office": "Kangar",
        "State": "Perlis"
    },
    {
        "Postcode": "02500",
        "Location": "Kampung Lubuk Besar",
        "Post_Office": "Kangar",
        "State": "Perlis"
    },
    {
        "Postcode": "02500",
        "Location": "Balai Polis Mata Air",
        "Post_Office": "Kangar",
        "State": "Perlis"
    },
    {
        "Postcode": "02500",
        "Location": "Hutan Lembah",
        "Post_Office": "Kangar",
        "State": "Perlis"
    },
    {
        "Postcode": "02500",
        "Location": "Kampung Balik Bukit Selatan",
        "Post_Office": "Kangar",
        "State": "Perlis"
    },
    {
        "Postcode": "02500",
        "Location": "Kampung Bawah Bukit",
        "Post_Office": "Kangar",
        "State": "Perlis"
    },
    {
        "Postcode": "02500",
        "Location": "Kampung Gial",
        "Post_Office": "Kangar",
        "State": "Perlis"
    },
    {
        "Postcode": "02500",
        "Location": "Kampung Gial Tengah",
        "Post_Office": "Kangar",
        "State": "Perlis"
    },
    {
        "Postcode": "02500",
        "Location": "Kampung Kerisik Hilir",
        "Post_Office": "Kangar",
        "State": "Perlis"
    },
    {
        "Postcode": "02500",
        "Location": "Pejabat Felda",
        "Post_Office": "Kangar",
        "State": "Perlis"
    },
    {
        "Postcode": "02500",
        "Location": "Pekan Gate Mata Air",
        "Post_Office": "Kangar",
        "State": "Perlis"
    },
    {
        "Postcode": "02500",
        "Location": "Pusat Giat Mara",
        "Post_Office": "Kangar",
        "State": "Perlis"
    },
    {
        "Postcode": "02500",
        "Location": "Sekolah Jenis Kebangsaan Cina (Kong Aik)",
        "Post_Office": "Kangar",
        "State": "Perlis"
    },
    {
        "Postcode": "02500",
        "Location": "Stesen Meteriologi",
        "Post_Office": "Kangar",
        "State": "Perlis"
    },
    {
        "Postcode": "02500",
        "Location": "Taman Padang Nyu",
        "Post_Office": "Kangar",
        "State": "Perlis"
    },
    {
        "Postcode": "02500",
        "Location": "Taman Permata",
        "Post_Office": "Kangar",
        "State": "Perlis"
    },
    {
        "Postcode": "02500",
        "Location": "Taman Selasih",
        "Post_Office": "Kangar",
        "State": "Perlis"
    },
    {
        "Postcode": "02500",
        "Location": "Bukit Chuping",
        "Post_Office": "Kangar",
        "State": "Perlis"
    },
    {
        "Postcode": "02500",
        "Location": "Felda Chuping",
        "Post_Office": "Kangar",
        "State": "Perlis"
    },
    {
        "Postcode": "02500",
        "Location": "Jalan Mata Ayer (Km 1.6 - 6)",
        "Post_Office": "Kangar",
        "State": "Perlis"
    },
    {
        "Postcode": "02500",
        "Location": "Kampung Balik Bukit",
        "Post_Office": "Kangar",
        "State": "Perlis"
    },
    {
        "Postcode": "02500",
        "Location": "Kampung Balik Guar",
        "Post_Office": "Kangar",
        "State": "Perlis"
    },
    {
        "Postcode": "02500",
        "Location": "Kampung Banggol Sena",
        "Post_Office": "Kangar",
        "State": "Perlis"
    },
    {
        "Postcode": "02500",
        "Location": "Kampung Belukar (Mata Ayer)",
        "Post_Office": "Kangar",
        "State": "Perlis"
    },
    {
        "Postcode": "02500",
        "Location": "Kampung Bukit Chuping",
        "Post_Office": "Kangar",
        "State": "Perlis"
    },
    {
        "Postcode": "02500",
        "Location": "Kampung Changkat Lada",
        "Post_Office": "Kangar",
        "State": "Perlis"
    },
    {
        "Postcode": "02500",
        "Location": "Kampung Che Gu Ali",
        "Post_Office": "Kangar",
        "State": "Perlis"
    },
    {
        "Postcode": "02500",
        "Location": "Kampung Chelong",
        "Post_Office": "Kangar",
        "State": "Perlis"
    },
    {
        "Postcode": "02500",
        "Location": "Kampung Chuping",
        "Post_Office": "Kangar",
        "State": "Perlis"
    },
    {
        "Postcode": "02500",
        "Location": "Kampung Guar Halban",
        "Post_Office": "Kangar",
        "State": "Perlis"
    },
    {
        "Postcode": "02500",
        "Location": "Kampung Guar Musang",
        "Post_Office": "Kangar",
        "State": "Perlis"
    },
    {
        "Postcode": "02500",
        "Location": "Kampung Guar Nangka",
        "Post_Office": "Kangar",
        "State": "Perlis"
    },
    {
        "Postcode": "02500",
        "Location": "Kampung Hutan Lembah",
        "Post_Office": "Kangar",
        "State": "Perlis"
    },
    {
        "Postcode": "02500",
        "Location": "Kampung Hutan Temin",
        "Post_Office": "Kangar",
        "State": "Perlis"
    },
    {
        "Postcode": "02500",
        "Location": "Kampung Kersek (Kangar)",
        "Post_Office": "Kangar",
        "State": "Perlis"
    },
    {
        "Postcode": "02500",
        "Location": "Kampung Kersek (Mata Ayer)",
        "Post_Office": "Kangar",
        "State": "Perlis"
    },
    {
        "Postcode": "02500",
        "Location": "Kampung Kubang Peron",
        "Post_Office": "Kangar",
        "State": "Perlis"
    },
    {
        "Postcode": "02500",
        "Location": "Kampung Oran",
        "Post_Office": "Kangar",
        "State": "Perlis"
    },
    {
        "Postcode": "02500",
        "Location": "Kampung Padang Nyu",
        "Post_Office": "Kangar",
        "State": "Perlis"
    },
    {
        "Postcode": "02500",
        "Location": "Kampung Panggas",
        "Post_Office": "Kangar",
        "State": "Perlis"
    },
    {
        "Postcode": "02500",
        "Location": "Kampung Panggas Besar",
        "Post_Office": "Kangar",
        "State": "Perlis"
    },
    {
        "Postcode": "02500",
        "Location": "Kampung Panggas Kechil",
        "Post_Office": "Kangar",
        "State": "Perlis"
    },
    {
        "Postcode": "02500",
        "Location": "Kampung Paya Burma",
        "Post_Office": "Kangar",
        "State": "Perlis"
    },
    {
        "Postcode": "02500",
        "Location": "Kampung Perik",
        "Post_Office": "Kangar",
        "State": "Perlis"
    },
    {
        "Postcode": "02500",
        "Location": "Kampung Pokok Petai",
        "Post_Office": "Kangar",
        "State": "Perlis"
    },
    {
        "Postcode": "02500",
        "Location": "Kampung Pokok Sena",
        "Post_Office": "Kangar",
        "State": "Perlis"
    },
    {
        "Postcode": "02500",
        "Location": "Kampung Saikla",
        "Post_Office": "Kangar",
        "State": "Perlis"
    },
    {
        "Postcode": "02500",
        "Location": "Kampung Simpang Geti",
        "Post_Office": "Kangar",
        "State": "Perlis"
    },
    {
        "Postcode": "02500",
        "Location": "Kok Klang",
        "Post_Office": "Kangar",
        "State": "Perlis"
    },
    {
        "Postcode": "02500",
        "Location": "Mata Ayer",
        "Post_Office": "Kangar",
        "State": "Perlis"
    },
    {
        "Postcode": "02500",
        "Location": "Taman Haji Ali (Rpa)",
        "Post_Office": "Kangar",
        "State": "Perlis"
    },
    {
        "Postcode": "02500",
        "Location": "Taman Mata Air 2 (Rpa)",
        "Post_Office": "Kangar",
        "State": "Perlis"
    },
    {
        "Postcode": "02500",
        "Location": "Taman Mata Air 3 (Rpa)",
        "Post_Office": "Kangar",
        "State": "Perlis"
    },
    {
        "Postcode": "02500",
        "Location": "Taman Ria",
        "Post_Office": "Kangar",
        "State": "Perlis"
    }
]
