[
    {
        "Postcode": "02800",
        "Location": "Kampung Padang Gelam",
        "Post_Office": "Simpang Ampat",
        "State": "Perlis"
    },
    {
        "Postcode": "02800",
        "Location": "Kampung Kepala Batas Pauh",
        "Post_Office": "Simpang Ampat",
        "State": "Perlis"
    },
    {
        "Postcode": "02800",
        "Location": "Kampung Kerbau Belaga",
        "Post_Office": "Simpang Ampat",
        "State": "Perlis"
    },
    {
        "Postcode": "02800",
        "Location": "Kampung Matang Keriang",
        "Post_Office": "Simpang Ampat",
        "State": "Perlis"
    },
    {
        "Postcode": "02800",
        "Location": "Kampung Padang Keria",
        "Post_Office": "Simpang Ampat",
        "State": "Perlis"
    },
    {
        "Postcode": "02800",
        "Location": "Kampung Permatang Pelangu",
        "Post_Office": "Simpang Ampat",
        "State": "Perlis"
    },
    {
        "Postcode": "02800",
        "Location": "Kampung Rama",
        "Post_Office": "Simpang Ampat",
        "State": "Perlis"
    },
    {
        "Postcode": "02800",
        "Location": "Kampung Simpang Sanglang",
        "Post_Office": "Simpang Ampat",
        "State": "Perlis"
    },
    {
        "Postcode": "02800",
        "Location": "Kampung Tanah Timbul",
        "Post_Office": "Simpang Ampat",
        "State": "Perlis"
    }
]
