[
    {
        "Postcode": "21000",
        "Location": "Kampung Losong Atap Zin",
        "Post_Office": "Kuala Terengganu",
        "State": "Terengganu"
    },
    {
        "Postcode": "21000",
        "Location": "Kampung Losong Haji Long",
        "Post_Office": "Kuala Terengganu",
        "State": "Terengganu"
    },
    {
        "Postcode": "21000",
        "Location": "Kampung Losong Megat Husin",
        "Post_Office": "Kuala Terengganu",
        "State": "Terengganu"
    },
    {
        "Postcode": "21000",
        "Location": "Kampung Bukit Tangki Air",
        "Post_Office": "Kuala Terengganu",
        "State": "Terengganu"
    },
    {
        "Postcode": "21000",
        "Location": "Kampung Seberang Baruh",
        "Post_Office": "Kuala Terengganu",
        "State": "Terengganu"
    },
    {
        "Postcode": "21000",
        "Location": "Kampung Simpang Tok Ku",
        "Post_Office": "Kuala Terengganu",
        "State": "Terengganu"
    },
    {
        "Postcode": "21000",
        "Location": "Kampung Chabang Tiga",
        "Post_Office": "Kuala Terengganu",
        "State": "Terengganu"
    },
    {
        "Postcode": "21000",
        "Location": "Kampung Hiliran Binjai ",
        "Post_Office": "Kuala Terengganu",
        "State": "Terengganu"
    },
    {
        "Postcode": "21000",
        "Location": "Kampung Hiliran Jejawi",
        "Post_Office": "Kuala Terengganu",
        "State": "Terengganu"
    },
    {
        "Postcode": "21000",
        "Location": "Kampung Kuala Hiliran",
        "Post_Office": "Kuala Terengganu",
        "State": "Terengganu"
    },
    {
        "Postcode": "21000",
        "Location": "Kampung Losong Feri",
        "Post_Office": "Kuala Terengganu",
        "State": "Terengganu"
    },
    {
        "Postcode": "21000",
        "Location": "Kampung Losong Haji Mat Shafie",
        "Post_Office": "Kuala Terengganu",
        "State": "Terengganu"
    },
    {
        "Postcode": "21000",
        "Location": "Kampung Losong Lebai Salleh",
        "Post_Office": "Kuala Terengganu",
        "State": "Terengganu"
    },
    {
        "Postcode": "21000",
        "Location": "Taman Cina Losong",
        "Post_Office": "Kuala Terengganu",
        "State": "Terengganu"
    },
    {
        "Postcode": "21000",
        "Location": "Taman Desa Paloh",
        "Post_Office": "Kuala Terengganu",
        "State": "Terengganu"
    },
    {
        "Postcode": "21000",
        "Location": "Taman Koinsaf 4",
        "Post_Office": "Kuala Terengganu",
        "State": "Terengganu"
    },
    {
        "Postcode": "21000",
        "Location": "Taman Sri Losong",
        "Post_Office": "Kuala Terengganu",
        "State": "Terengganu"
    },
    {
        "Postcode": "21000",
        "Location": "Jalan Hiliran Masjid",
        "Post_Office": "Kuala Terengganu",
        "State": "Terengganu"
    },
    {
        "Postcode": "21000",
        "Location": "Jalan Kosong Ferry",
        "Post_Office": "Kuala Terengganu",
        "State": "Terengganu"
    },
    {
        "Postcode": "21000",
        "Location": "Jalan Kuala Hiliran",
        "Post_Office": "Kuala Terengganu",
        "State": "Terengganu"
    },
    {
        "Postcode": "21000",
        "Location": "Jalan Losong Masjid",
        "Post_Office": "Kuala Terengganu",
        "State": "Terengganu"
    },
    {
        "Postcode": "21000",
        "Location": "Jalan Seb Baroh Kanan",
        "Post_Office": "Kuala Terengganu",
        "State": "Terengganu"
    },
    {
        "Postcode": "21000",
        "Location": "Jalan Siakap",
        "Post_Office": "Kuala Terengganu",
        "State": "Terengganu"
    },
    {
        "Postcode": "21000",
        "Location": "Kampung Bukit Losong",
        "Post_Office": "Kuala Terengganu",
        "State": "Terengganu"
    },
    {
        "Postcode": "21000",
        "Location": "Kampung Hiliran Masjid",
        "Post_Office": "Kuala Terengganu",
        "State": "Terengganu"
    },
    {
        "Postcode": "21000",
        "Location": "Kampung Hiliran Parit Gali",
        "Post_Office": "Kuala Terengganu",
        "State": "Terengganu"
    },
    {
        "Postcode": "21000",
        "Location": "Kampung Hiliran Surau Baru",
        "Post_Office": "Kuala Terengganu",
        "State": "Terengganu"
    },
    {
        "Postcode": "21000",
        "Location": "Kampung Kubang Buyong",
        "Post_Office": "Kuala Terengganu",
        "State": "Terengganu"
    },
    {
        "Postcode": "21000",
        "Location": "Kampung Lorong Salak",
        "Post_Office": "Kuala Terengganu",
        "State": "Terengganu"
    },
    {
        "Postcode": "21000",
        "Location": "Kampung Losong Bata",
        "Post_Office": "Kuala Terengganu",
        "State": "Terengganu"
    },
    {
        "Postcode": "21000",
        "Location": "Kampung Losong Dato Amar",
        "Post_Office": "Kuala Terengganu",
        "State": "Terengganu"
    },
    {
        "Postcode": "21000",
        "Location": "Kampung Losong Ebeng",
        "Post_Office": "Kuala Terengganu",
        "State": "Terengganu"
    },
    {
        "Postcode": "21000",
        "Location": "Kampung Losong Haji Awang",
        "Post_Office": "Kuala Terengganu",
        "State": "Terengganu"
    },
    {
        "Postcode": "21000",
        "Location": "Kampung Losong Haji Mohd",
        "Post_Office": "Kuala Terengganu",
        "State": "Terengganu"
    },
    {
        "Postcode": "21000",
        "Location": "Kampung Losong Haji Su",
        "Post_Office": "Kuala Terengganu",
        "State": "Terengganu"
    },
    {
        "Postcode": "21000",
        "Location": "Kampung Losong Haji Wan Nawang",
        "Post_Office": "Kuala Terengganu",
        "State": "Terengganu"
    },
    {
        "Postcode": "21000",
        "Location": "Kampung Losong Masjid",
        "Post_Office": "Kuala Terengganu",
        "State": "Terengganu"
    },
    {
        "Postcode": "21000",
        "Location": "Kampung Losong Pak Bas",
        "Post_Office": "Kuala Terengganu",
        "State": "Terengganu"
    },
    {
        "Postcode": "21000",
        "Location": "Kampung Losong Panglima Perang",
        "Post_Office": "Kuala Terengganu",
        "State": "Terengganu"
    },
    {
        "Postcode": "21000",
        "Location": "Kampung Losong Pasir",
        "Post_Office": "Kuala Terengganu",
        "State": "Terengganu"
    },
    {
        "Postcode": "21000",
        "Location": "Kampung Losong Tangkol Hijau",
        "Post_Office": "Kuala Terengganu",
        "State": "Terengganu"
    },
    {
        "Postcode": "21000",
        "Location": "Kampung Makam Lama",
        "Post_Office": "Kuala Terengganu",
        "State": "Terengganu"
    },
    {
        "Postcode": "21000",
        "Location": "Kampung Masjid Tok Ku",
        "Post_Office": "Kuala Terengganu",
        "State": "Terengganu"
    },
    {
        "Postcode": "21000",
        "Location": "Kampung Padang Hiliran",
        "Post_Office": "Kuala Terengganu",
        "State": "Terengganu"
    },
    {
        "Postcode": "21000",
        "Location": "Kampung Pulau Sekati",
        "Post_Office": "Kuala Terengganu",
        "State": "Terengganu"
    },
    {
        "Postcode": "21000",
        "Location": "Kampung Seberang Baroh Belukar",
        "Post_Office": "Kuala Terengganu",
        "State": "Terengganu"
    },
    {
        "Postcode": "21000",
        "Location": "Kampung Seberang Baroh Taliair",
        "Post_Office": "Kuala Terengganu",
        "State": "Terengganu"
    },
    {
        "Postcode": "21000",
        "Location": "Kampung Tok Ku",
        "Post_Office": "Kuala Terengganu",
        "State": "Terengganu"
    },
    {
        "Postcode": "21000",
        "Location": "Kuala Hiliran",
        "Post_Office": "Kuala Terengganu",
        "State": "Terengganu"
    },
    {
        "Postcode": "21000",
        "Location": "Kubang Buyong",
        "Post_Office": "Kuala Terengganu",
        "State": "Terengganu"
    },
    {
        "Postcode": "21000",
        "Location": "Lorong Ciku",
        "Post_Office": "Kuala Terengganu",
        "State": "Terengganu"
    },
    {
        "Postcode": "21000",
        "Location": "Lorong Limau",
        "Post_Office": "Kuala Terengganu",
        "State": "Terengganu"
    },
    {
        "Postcode": "21000",
        "Location": "Lorong Makam Lama",
        "Post_Office": "Kuala Terengganu",
        "State": "Terengganu"
    },
    {
        "Postcode": "21000",
        "Location": "Lorong Radio Malaysia",
        "Post_Office": "Kuala Terengganu",
        "State": "Terengganu"
    },
    {
        "Postcode": "21000",
        "Location": "Lorong Stesen Pemancar Rtm",
        "Post_Office": "Kuala Terengganu",
        "State": "Terengganu"
    },
    {
        "Postcode": "21000",
        "Location": "Losong Feri Kiri",
        "Post_Office": "Kuala Terengganu",
        "State": "Terengganu"
    },
    {
        "Postcode": "21000",
        "Location": "Losong Haji Long",
        "Post_Office": "Kuala Terengganu",
        "State": "Terengganu"
    },
    {
        "Postcode": "21000",
        "Location": "Losong Haji Mat Shafie",
        "Post_Office": "Kuala Terengganu",
        "State": "Terengganu"
    },
    {
        "Postcode": "21000",
        "Location": "Losong Lebai Salleh",
        "Post_Office": "Kuala Terengganu",
        "State": "Terengganu"
    },
    {
        "Postcode": "21000",
        "Location": "Losong Sekolah",
        "Post_Office": "Kuala Terengganu",
        "State": "Terengganu"
    },
    {
        "Postcode": "21000",
        "Location": "Losong Tepas Mahmud",
        "Post_Office": "Kuala Terengganu",
        "State": "Terengganu"
    },
    {
        "Postcode": "21000",
        "Location": "Pulau Pak Mat",
        "Post_Office": "Kuala Terengganu",
        "State": "Terengganu"
    },
    {
        "Postcode": "21000",
        "Location": "Pulau Wan Man",
        "Post_Office": "Kuala Terengganu",
        "State": "Terengganu"
    }
]
