[
    {
        "Postcode": "21010",
        "Location": "Kampung Darat Tok Wail",
        "Post_Office": "Kuala Terengganu",
        "State": "Terengganu"
    },
    {
        "Postcode": "21010",
        "Location": "Kampung Telaga Putat",
        "Post_Office": "Kuala Terengganu",
        "State": "Terengganu"
    },
    {
        "Postcode": "21010",
        "Location": "Kampung Baru Merang",
        "Post_Office": "Kuala Terengganu",
        "State": "Terengganu"
    },
    {
        "Postcode": "21010",
        "Location": "Kampung Baru Setia Jaya",
        "Post_Office": "Kuala Terengganu",
        "State": "Terengganu"
    },
    {
        "Postcode": "21010",
        "Location": "Kampung Merang",
        "Post_Office": "Kuala Terengganu",
        "State": "Terengganu"
    },
    {
        "Postcode": "21010",
        "Location": "Taman Lembah Bidong",
        "Post_Office": "Kuala Terengganu",
        "State": "Terengganu"
    },
    {
        "Postcode": "21010",
        "Location": "Kampung Bari Besar",
        "Post_Office": "Kuala Terengganu",
        "State": "Terengganu"
    },
    {
        "Postcode": "21010",
        "Location": "Kampung Gong Arang",
        "Post_Office": "Kuala Terengganu",
        "State": "Terengganu"
    },
    {
        "Postcode": "21010",
        "Location": "Kampung Mengabang",
        "Post_Office": "Kuala Terengganu",
        "State": "Terengganu"
    },
    {
        "Postcode": "21010",
        "Location": "Kampung Rhu Tapai",
        "Post_Office": "Kuala Terengganu",
        "State": "Terengganu"
    },
    {
        "Postcode": "21010",
        "Location": "Kampung Telaga Papan",
        "Post_Office": "Kuala Terengganu",
        "State": "Terengganu"
    }
]
