[
    {
        "Postcode": "21020",
        "Location": "Kampung Wakaf Cagak",
        "Post_Office": "Kuala Terengganu",
        "State": "Terengganu"
    },
    {
        "Postcode": "21020",
        "Location": "Kampung Tanjong Kedepan",
        "Post_Office": "Kuala Terengganu",
        "State": "Terengganu"
    },
    {
        "Postcode": "21020",
        "Location": "Kampung Kubur Timah",
        "Post_Office": "Kuala Terengganu",
        "State": "Terengganu"
    },
    {
        "Postcode": "21020",
        "Location": "Kampung Padang Polis Batu Rakit",
        "Post_Office": "Kuala Terengganu",
        "State": "Terengganu"
    },
    {
        "Postcode": "21020",
        "Location": "Kampung Pak Manar",
        "Post_Office": "Kuala Terengganu",
        "State": "Terengganu"
    },
    {
        "Postcode": "21020",
        "Location": "Kampung Pecah Rotan",
        "Post_Office": "Kuala Terengganu",
        "State": "Terengganu"
    },
    {
        "Postcode": "21020",
        "Location": "Kampung Terap Pecah Rotan",
        "Post_Office": "Kuala Terengganu",
        "State": "Terengganu"
    },
    {
        "Postcode": "21020",
        "Location": "Jalan Merang",
        "Post_Office": "Kuala Terengganu",
        "State": "Terengganu"
    },
    {
        "Postcode": "21020",
        "Location": "Kampung Dusun Durian",
        "Post_Office": "Kuala Terengganu",
        "State": "Terengganu"
    },
    {
        "Postcode": "21020",
        "Location": "Kampung Maras",
        "Post_Office": "Kuala Terengganu",
        "State": "Terengganu"
    },
    {
        "Postcode": "21020",
        "Location": "Kampung Medan Cengal",
        "Post_Office": "Kuala Terengganu",
        "State": "Terengganu"
    },
    {
        "Postcode": "21020",
        "Location": "Kampung Mengabang Bakong",
        "Post_Office": "Kuala Terengganu",
        "State": "Terengganu"
    },
    {
        "Postcode": "21020",
        "Location": "Kampung Mengabang Lekar",
        "Post_Office": "Kuala Terengganu",
        "State": "Terengganu"
    },
    {
        "Postcode": "21020",
        "Location": "Kampung Mengabang Panjang",
        "Post_Office": "Kuala Terengganu",
        "State": "Terengganu"
    },
    {
        "Postcode": "21020",
        "Location": "Kampung Mengabang Telong",
        "Post_Office": "Kuala Terengganu",
        "State": "Terengganu"
    },
    {
        "Postcode": "21020",
        "Location": "Kampung Padang Kemunting",
        "Post_Office": "Kuala Terengganu",
        "State": "Terengganu"
    },
    {
        "Postcode": "21020",
        "Location": "Kampung Pagar Besi",
        "Post_Office": "Kuala Terengganu",
        "State": "Terengganu"
    },
    {
        "Postcode": "21020",
        "Location": "Kampung Pengkalan Atap",
        "Post_Office": "Kuala Terengganu",
        "State": "Terengganu"
    },
    {
        "Postcode": "21020",
        "Location": "Pprt Ru Tapai",
        "Post_Office": "Kuala Terengganu",
        "State": "Terengganu"
    },
    {
        "Postcode": "21020",
        "Location": "Taman Perumahan Lembah Bidong",
        "Post_Office": "Kuala Terengganu",
        "State": "Terengganu"
    },
    {
        "Postcode": "21020",
        "Location": "Tapah",
        "Post_Office": "Kuala Terengganu",
        "State": "Terengganu"
    },
    {
        "Postcode": "21020",
        "Location": "Taman Hijrah",
        "Post_Office": "Kuala Terengganu",
        "State": "Terengganu"
    }
]
