[
    {
        "Postcode": "21030",
        "Location": "Kampung Gong Datuk",
        "Post_Office": "Kuala Terengganu",
        "State": "Terengganu"
    },
    {
        "Postcode": "21030",
        "Location": "Kampung Tanjong",
        "Post_Office": "Kuala Terengganu",
        "State": "Terengganu"
    },
    {
        "Postcode": "21030",
        "Location": "Kampung Pancur Kuin",
        "Post_Office": "Kuala Terengganu",
        "State": "Terengganu"
    },
    {
        "Postcode": "21030",
        "Location": "Kampung Gelong Gajah",
        "Post_Office": "Kuala Terengganu",
        "State": "Terengganu"
    },
    {
        "Postcode": "21030",
        "Location": "Kampung Alor Damat",
        "Post_Office": "Kuala Terengganu",
        "State": "Terengganu"
    },
    {
        "Postcode": "21030",
        "Location": "Kampung Alor Jambu",
        "Post_Office": "Kuala Terengganu",
        "State": "Terengganu"
    },
    {
        "Postcode": "21030",
        "Location": "Kampung Balai Maras",
        "Post_Office": "Kuala Terengganu",
        "State": "Terengganu"
    },
    {
        "Postcode": "21030",
        "Location": "Kampung Banggol Telipot",
        "Post_Office": "Kuala Terengganu",
        "State": "Terengganu"
    },
    {
        "Postcode": "21030",
        "Location": "Kampung Baru Wakaf Tengah",
        "Post_Office": "Kuala Terengganu",
        "State": "Terengganu"
    },
    {
        "Postcode": "21030",
        "Location": "Kampung Batu Rakit",
        "Post_Office": "Kuala Terengganu",
        "State": "Terengganu"
    },
    {
        "Postcode": "21030",
        "Location": "Kampung Bukit Bucu",
        "Post_Office": "Kuala Terengganu",
        "State": "Terengganu"
    },
    {
        "Postcode": "21030",
        "Location": "Kampung Gong Awang Lib",
        "Post_Office": "Kuala Terengganu",
        "State": "Terengganu"
    },
    {
        "Postcode": "21030",
        "Location": "Kampung Gong Pak Jin",
        "Post_Office": "Kuala Terengganu",
        "State": "Terengganu"
    },
    {
        "Postcode": "21030",
        "Location": "Kampung Gong Sekolah",
        "Post_Office": "Kuala Terengganu",
        "State": "Terengganu"
    },
    {
        "Postcode": "21030",
        "Location": "Kampung Padang Maras",
        "Post_Office": "Kuala Terengganu",
        "State": "Terengganu"
    },
    {
        "Postcode": "21030",
        "Location": "Kampung Padang Nenas",
        "Post_Office": "Kuala Terengganu",
        "State": "Terengganu"
    },
    {
        "Postcode": "21030",
        "Location": "Kampung Pengkalan Maras",
        "Post_Office": "Kuala Terengganu",
        "State": "Terengganu"
    },
    {
        "Postcode": "21030",
        "Location": "Kampung Tanjong Gelam",
        "Post_Office": "Kuala Terengganu",
        "State": "Terengganu"
    },
    {
        "Postcode": "21030",
        "Location": "Kampung Tanjung Batu Rakit",
        "Post_Office": "Kuala Terengganu",
        "State": "Terengganu"
    },
    {
        "Postcode": "21030",
        "Location": "Kampung Tanjung Kubur",
        "Post_Office": "Kuala Terengganu",
        "State": "Terengganu"
    },
    {
        "Postcode": "21030",
        "Location": "Taman Akhlas",
        "Post_Office": "Kuala Terengganu",
        "State": "Terengganu"
    },
    {
        "Postcode": "21030",
        "Location": "Taman Al Ikhlas",
        "Post_Office": "Kuala Terengganu",
        "State": "Terengganu"
    },
    {
        "Postcode": "21030",
        "Location": "Taman Aminah Hasan",
        "Post_Office": "Kuala Terengganu",
        "State": "Terengganu"
    },
    {
        "Postcode": "21030",
        "Location": "Taman Anzi Mutiara",
        "Post_Office": "Kuala Terengganu",
        "State": "Terengganu"
    },
    {
        "Postcode": "21030",
        "Location": "Taman Armada",
        "Post_Office": "Kuala Terengganu",
        "State": "Terengganu"
    },
    {
        "Postcode": "21030",
        "Location": "Taman Atikah",
        "Post_Office": "Kuala Terengganu",
        "State": "Terengganu"
    },
    {
        "Postcode": "21030",
        "Location": "Taman Desa Damai",
        "Post_Office": "Kuala Terengganu",
        "State": "Terengganu"
    },
    {
        "Postcode": "21030",
        "Location": "Taman Desa Kayangan",
        "Post_Office": "Kuala Terengganu",
        "State": "Terengganu"
    },
    {
        "Postcode": "21030",
        "Location": "Taman Desa Murni",
        "Post_Office": "Kuala Terengganu",
        "State": "Terengganu"
    },
    {
        "Postcode": "21030",
        "Location": "Taman Desa Padang Nenas",
        "Post_Office": "Kuala Terengganu",
        "State": "Terengganu"
    },
    {
        "Postcode": "21030",
        "Location": "Taman Desa Putera",
        "Post_Office": "Kuala Terengganu",
        "State": "Terengganu"
    },
    {
        "Postcode": "21030",
        "Location": "Taman Desa Sejahtera",
        "Post_Office": "Kuala Terengganu",
        "State": "Terengganu"
    },
    {
        "Postcode": "21030",
        "Location": "Taman Diwando",
        "Post_Office": "Kuala Terengganu",
        "State": "Terengganu"
    },
    {
        "Postcode": "21030",
        "Location": "Taman Dr Sulaiman",
        "Post_Office": "Kuala Terengganu",
        "State": "Terengganu"
    },
    {
        "Postcode": "21030",
        "Location": "Taman Kasturi Indah",
        "Post_Office": "Kuala Terengganu",
        "State": "Terengganu"
    },
    {
        "Postcode": "21030",
        "Location": "Taman Kenanga",
        "Post_Office": "Kuala Terengganu",
        "State": "Terengganu"
    },
    {
        "Postcode": "21030",
        "Location": "Taman Kencana Indah",
        "Post_Office": "Kuala Terengganu",
        "State": "Terengganu"
    },
    {
        "Postcode": "21030",
        "Location": "Taman Muhibbah",
        "Post_Office": "Kuala Terengganu",
        "State": "Terengganu"
    },
    {
        "Postcode": "21030",
        "Location": "Taman Perumahaan Alor Jambu",
        "Post_Office": "Kuala Terengganu",
        "State": "Terengganu"
    },
    {
        "Postcode": "21030",
        "Location": "Taman Seri Kenanga",
        "Post_Office": "Kuala Terengganu",
        "State": "Terengganu"
    },
    {
        "Postcode": "21030",
        "Location": "Taman Seri Wangi",
        "Post_Office": "Kuala Terengganu",
        "State": "Terengganu"
    },
    {
        "Postcode": "21030",
        "Location": "Taman Sri Delima",
        "Post_Office": "Kuala Terengganu",
        "State": "Terengganu"
    },
    {
        "Postcode": "21030",
        "Location": "Taman Sri Murni",
        "Post_Office": "Kuala Terengganu",
        "State": "Terengganu"
    },
    {
        "Postcode": "21030",
        "Location": "Taman Sri Nenas",
        "Post_Office": "Kuala Terengganu",
        "State": "Terengganu"
    },
    {
        "Postcode": "21030",
        "Location": "Taman Telipot",
        "Post_Office": "Kuala Terengganu",
        "State": "Terengganu"
    },
    {
        "Postcode": "21030",
        "Location": "Taman Watan",
        "Post_Office": "Kuala Terengganu",
        "State": "Terengganu"
    },
    {
        "Postcode": "21030",
        "Location": "Jalan Bakti Simpang Tiga Kubang Badak",
        "Post_Office": "Kuala Terengganu",
        "State": "Terengganu"
    },
    {
        "Postcode": "21030",
        "Location": "Jalan Sekolah Rendah Gong Badak",
        "Post_Office": "Kuala Terengganu",
        "State": "Terengganu"
    },
    {
        "Postcode": "21030",
        "Location": "Kampung Kubang Badak (Jalan Pantai)",
        "Post_Office": "Kuala Terengganu",
        "State": "Terengganu"
    },
    {
        "Postcode": "21030",
        "Location": "Kampung Pak Tuyu",
        "Post_Office": "Kuala Terengganu",
        "State": "Terengganu"
    },
    {
        "Postcode": "21030",
        "Location": "Kampung Tanjong Gelang",
        "Post_Office": "Kuala Terengganu",
        "State": "Terengganu"
    },
    {
        "Postcode": "21030",
        "Location": "Kampung Wakaf Tengah",
        "Post_Office": "Kuala Terengganu",
        "State": "Terengganu"
    },
    {
        "Postcode": "21030",
        "Location": "Maktab Perguruan Kuala Terengganu",
        "Post_Office": "Kuala Terengganu",
        "State": "Terengganu"
    },
    {
        "Postcode": "21030",
        "Location": "Maktab Rendah Sains Mara",
        "Post_Office": "Kuala Terengganu",
        "State": "Terengganu"
    },
    {
        "Postcode": "21030",
        "Location": "Mengabang Telipot",
        "Post_Office": "Kuala Terengganu",
        "State": "Terengganu"
    },
    {
        "Postcode": "21030",
        "Location": "Simpang Tiga Kubang Badak",
        "Post_Office": "Kuala Terengganu",
        "State": "Terengganu"
    },
    {
        "Postcode": "21030",
        "Location": "Taman Indah Wangsa",
        "Post_Office": "Kuala Terengganu",
        "State": "Terengganu"
    },
    {
        "Postcode": "21030",
        "Location": "Taman Melor",
        "Post_Office": "Kuala Terengganu",
        "State": "Terengganu"
    },
    {
        "Postcode": "21030",
        "Location": "Taman Baiduri",
        "Post_Office": "Kuala Terengganu",
        "State": "Terengganu"
    },
    {
        "Postcode": "21030",
        "Location": "Taman Desa Permai",
        "Post_Office": "Kuala Terengganu",
        "State": "Terengganu"
    },
    {
        "Postcode": "21030",
        "Location": "Taman Jaya",
        "Post_Office": "Kuala Terengganu",
        "State": "Terengganu"
    },
    {
        "Postcode": "21030",
        "Location": "Taman Mutiara",
        "Post_Office": "Kuala Terengganu",
        "State": "Terengganu"
    }
]
