[
    {
        "Postcode": "21040",
        "Location": "Kampung Bukit Cempedak",
        "Post_Office": "Kuala Terengganu",
        "State": "Terengganu"
    },
    {
        "Postcode": "21040",
        "Location": "Kampung Alor Wan Syed",
        "Post_Office": "Kuala Terengganu",
        "State": "Terengganu"
    },
    {
        "Postcode": "21040",
        "Location": "Kampung Belukar Gorek",
        "Post_Office": "Kuala Terengganu",
        "State": "Terengganu"
    },
    {
        "Postcode": "21040",
        "Location": "Kampung Jerong Seberang",
        "Post_Office": "Kuala Terengganu",
        "State": "Terengganu"
    },
    {
        "Postcode": "21040",
        "Location": "Kampung Kuala Kejir",
        "Post_Office": "Kuala Terengganu",
        "State": "Terengganu"
    },
    {
        "Postcode": "21040",
        "Location": "Kampung Lubuk Perah",
        "Post_Office": "Kuala Terengganu",
        "State": "Terengganu"
    },
    {
        "Postcode": "21040",
        "Location": "Kampung Tok Muncong",
        "Post_Office": "Kuala Terengganu",
        "State": "Terengganu"
    },
    {
        "Postcode": "21040",
        "Location": "Taman Bistari",
        "Post_Office": "Kuala Terengganu",
        "State": "Terengganu"
    },
    {
        "Postcode": "21040",
        "Location": "Taman Raya",
        "Post_Office": "Kuala Terengganu",
        "State": "Terengganu"
    },
    {
        "Postcode": "21040",
        "Location": "Taman Tapai Indah",
        "Post_Office": "Kuala Terengganu",
        "State": "Terengganu"
    },
    {
        "Postcode": "21040",
        "Location": "Kampung Cherang Gajah",
        "Post_Office": "Kuala Terengganu",
        "State": "Terengganu"
    },
    {
        "Postcode": "21040",
        "Location": "Kampung Durian Guling",
        "Post_Office": "Kuala Terengganu",
        "State": "Terengganu"
    },
    {
        "Postcode": "21040",
        "Location": "Kampung Jerong Surau",
        "Post_Office": "Kuala Terengganu",
        "State": "Terengganu"
    },
    {
        "Postcode": "21040",
        "Location": "Kampung Jerong Tuan",
        "Post_Office": "Kuala Terengganu",
        "State": "Terengganu"
    },
    {
        "Postcode": "21040",
        "Location": "Kampung Kayu Arang",
        "Post_Office": "Kuala Terengganu",
        "State": "Terengganu"
    },
    {
        "Postcode": "21040",
        "Location": "Kampung Lubok Batu (Wakaf Tapai)",
        "Post_Office": "Kuala Terengganu",
        "State": "Terengganu"
    },
    {
        "Postcode": "21040",
        "Location": "Kampung Pengkalan Berangan",
        "Post_Office": "Kuala Terengganu",
        "State": "Terengganu"
    },
    {
        "Postcode": "21040",
        "Location": "Kampung Tanggol",
        "Post_Office": "Kuala Terengganu",
        "State": "Terengganu"
    },
    {
        "Postcode": "21040",
        "Location": "Kampung Tapu",
        "Post_Office": "Kuala Terengganu",
        "State": "Terengganu"
    },
    {
        "Postcode": "21040",
        "Location": "Kampung Temala",
        "Post_Office": "Kuala Terengganu",
        "State": "Terengganu"
    },
    {
        "Postcode": "21040",
        "Location": "Kampung Wakaf Tapai",
        "Post_Office": "Kuala Terengganu",
        "State": "Terengganu"
    },
    {
        "Postcode": "21040",
        "Location": "Pusat  Perikanan \u0026 Sains",
        "Post_Office": "Kuala Terengganu",
        "State": "Terengganu"
    }
]
