[
    {
        "Postcode": "21060",
        "Location": "Kampung Bukit Guntung",
        "Post_Office": "Kuala Terengganu",
        "State": "Terengganu"
    },
    {
        "Postcode": "21060",
        "Location": "Kampung Bukit Nangka",
        "Post_Office": "Kuala Terengganu",
        "State": "Terengganu"
    },
    {
        "Postcode": "21060",
        "Location": "Kampung Jeram Hilir",
        "Post_Office": "Kuala Terengganu",
        "State": "Terengganu"
    },
    {
        "Postcode": "21060",
        "Location": "Kampung Jeram Hulu",
        "Post_Office": "Kuala Terengganu",
        "State": "Terengganu"
    },
    {
        "Postcode": "21060",
        "Location": "Kampung Bukit Cempaka",
        "Post_Office": "Kuala Terengganu",
        "State": "Terengganu"
    },
    {
        "Postcode": "21060",
        "Location": "Kampung Lerek",
        "Post_Office": "Kuala Terengganu",
        "State": "Terengganu"
    },
    {
        "Postcode": "21060",
        "Location": "Taman Koinsaf",
        "Post_Office": "Kuala Terengganu",
        "State": "Terengganu"
    },
    {
        "Postcode": "21060",
        "Location": "Felcra Bukit Sudu",
        "Post_Office": "Kuala Terengganu",
        "State": "Terengganu"
    },
    {
        "Postcode": "21060",
        "Location": "Taman Desa Solehah",
        "Post_Office": "Kuala Terengganu",
        "State": "Terengganu"
    },
    {
        "Postcode": "21060",
        "Location": "Kampung Banggol Binjai",
        "Post_Office": "Kuala Terengganu",
        "State": "Terengganu"
    },
    {
        "Postcode": "21060",
        "Location": "Kampung Banggol Tok Jiring",
        "Post_Office": "Kuala Terengganu",
        "State": "Terengganu"
    },
    {
        "Postcode": "21060",
        "Location": "Kampung Bukit Durian",
        "Post_Office": "Kuala Terengganu",
        "State": "Terengganu"
    },
    {
        "Postcode": "21060",
        "Location": "Kampung Bukit Jong",
        "Post_Office": "Kuala Terengganu",
        "State": "Terengganu"
    },
    {
        "Postcode": "21060",
        "Location": "Kampung Kuala Tepoh",
        "Post_Office": "Kuala Terengganu",
        "State": "Terengganu"
    },
    {
        "Postcode": "21060",
        "Location": "Kampung Padang Air",
        "Post_Office": "Kuala Terengganu",
        "State": "Terengganu"
    },
    {
        "Postcode": "21060",
        "Location": "Kampung Padang Pisang",
        "Post_Office": "Kuala Terengganu",
        "State": "Terengganu"
    },
    {
        "Postcode": "21060",
        "Location": "Kampung Petaling",
        "Post_Office": "Kuala Terengganu",
        "State": "Terengganu"
    },
    {
        "Postcode": "21060",
        "Location": "Taman Sri Embun",
        "Post_Office": "Kuala Terengganu",
        "State": "Terengganu"
    },
    {
        "Postcode": "21060",
        "Location": "Taman Tok Jiring Utama",
        "Post_Office": "Kuala Terengganu",
        "State": "Terengganu"
    },
    {
        "Postcode": "21060",
        "Location": "Kampung Seberang Medang",
        "Post_Office": "Kuala Terengganu",
        "State": "Terengganu"
    },
    {
        "Postcode": "21060",
        "Location": "Kampung Pengkalan Gelugor",
        "Post_Office": "Kuala Terengganu",
        "State": "Terengganu"
    },
    {
        "Postcode": "21060",
        "Location": "Kampung Banggol Nyior Gemuruh",
        "Post_Office": "Kuala Terengganu",
        "State": "Terengganu"
    },
    {
        "Postcode": "21060",
        "Location": "Kampung Banggol Nyior Tepoh",
        "Post_Office": "Kuala Terengganu",
        "State": "Terengganu"
    },
    {
        "Postcode": "21060",
        "Location": "Kampung Bukit Sepang",
        "Post_Office": "Kuala Terengganu",
        "State": "Terengganu"
    },
    {
        "Postcode": "21060",
        "Location": "Kampung Alor Gemia",
        "Post_Office": "Kuala Terengganu",
        "State": "Terengganu"
    },
    {
        "Postcode": "21060",
        "Location": "Kampung Banggol Nyior",
        "Post_Office": "Kuala Terengganu",
        "State": "Terengganu"
    },
    {
        "Postcode": "21060",
        "Location": "Kampung Gemuroh",
        "Post_Office": "Kuala Terengganu",
        "State": "Terengganu"
    },
    {
        "Postcode": "21060",
        "Location": "Kampung Raja Tepoh",
        "Post_Office": "Kuala Terengganu",
        "State": "Terengganu"
    },
    {
        "Postcode": "21060",
        "Location": "Kampung Sungai Ikan",
        "Post_Office": "Kuala Terengganu",
        "State": "Terengganu"
    },
    {
        "Postcode": "21060",
        "Location": "Kampung Tepoh",
        "Post_Office": "Kuala Terengganu",
        "State": "Terengganu"
    },
    {
        "Postcode": "21060",
        "Location": "Kampung Tok Ban",
        "Post_Office": "Kuala Terengganu",
        "State": "Terengganu"
    },
    {
        "Postcode": "21060",
        "Location": "Tepoh",
        "Post_Office": "Kuala Terengganu",
        "State": "Terengganu"
    }
]
