[
    {
        "Postcode": "21070",
        "Location": "Kampung Titian Baru",
        "Post_Office": "Kuala Terengganu",
        "State": "Terengganu"
    },
    {
        "Postcode": "21070",
        "Location": "Kampung Alor Atas Tol",
        "Post_Office": "Kuala Terengganu",
        "State": "Terengganu"
    },
    {
        "Postcode": "21070",
        "Location": "Kampung Alor Parit",
        "Post_Office": "Kuala Terengganu",
        "State": "Terengganu"
    },
    {
        "Postcode": "21070",
        "Location": "Kampung Alur Bawah Tol",
        "Post_Office": "Kuala Terengganu",
        "State": "Terengganu"
    },
    {
        "Postcode": "21070",
        "Location": "Kampung Che Amar",
        "Post_Office": "Kuala Terengganu",
        "State": "Terengganu"
    },
    {
        "Postcode": "21070",
        "Location": "Kampung Surau Haji Daud",
        "Post_Office": "Kuala Terengganu",
        "State": "Terengganu"
    },
    {
        "Postcode": "21070",
        "Location": "Kampung Surau Panjang",
        "Post_Office": "Kuala Terengganu",
        "State": "Terengganu"
    },
    {
        "Postcode": "21070",
        "Location": "Kampung Titian Rawa",
        "Post_Office": "Kuala Terengganu",
        "State": "Terengganu"
    },
    {
        "Postcode": "21070",
        "Location": "Kampung Tok Dir",
        "Post_Office": "Kuala Terengganu",
        "State": "Terengganu"
    },
    {
        "Postcode": "21070",
        "Location": "Kampung Tok Pong",
        "Post_Office": "Kuala Terengganu",
        "State": "Terengganu"
    },
    {
        "Postcode": "21070",
        "Location": "Kampung Tok Rimau",
        "Post_Office": "Kuala Terengganu",
        "State": "Terengganu"
    },
    {
        "Postcode": "21070",
        "Location": "Taman Permint Permai",
        "Post_Office": "Kuala Terengganu",
        "State": "Terengganu"
    },
    {
        "Postcode": "21070",
        "Location": "Atas Tol",
        "Post_Office": "Kuala Terengganu",
        "State": "Terengganu"
    },
    {
        "Postcode": "21070",
        "Location": "Kampung Alor",
        "Post_Office": "Kuala Terengganu",
        "State": "Terengganu"
    },
    {
        "Postcode": "21070",
        "Location": "Kampung Atas Tol",
        "Post_Office": "Kuala Terengganu",
        "State": "Terengganu"
    },
    {
        "Postcode": "21070",
        "Location": "Kampung Bawah Atas Tol",
        "Post_Office": "Kuala Terengganu",
        "State": "Terengganu"
    },
    {
        "Postcode": "21070",
        "Location": "Kampung Kedai Buloh",
        "Post_Office": "Kuala Terengganu",
        "State": "Terengganu"
    }
]
