[
    {
        "Postcode": "21080",
        "Location": "Taman Desa Jaya",
        "Post_Office": "Kuala Terengganu",
        "State": "Terengganu"
    },
    {
        "Postcode": "21080",
        "Location": "Kampung Aur",
        "Post_Office": "Kuala Terengganu",
        "State": "Terengganu"
    },
    {
        "Postcode": "21080",
        "Location": "Kampung Bukit Batu Putih",
        "Post_Office": "Kuala Terengganu",
        "State": "Terengganu"
    },
    {
        "Postcode": "21080",
        "Location": "Kampung Raja Baran ",
        "Post_Office": "Kuala Terengganu",
        "State": "Terengganu"
    },
    {
        "Postcode": "21080",
        "Location": "Kampung Belubor",
        "Post_Office": "Kuala Terengganu",
        "State": "Terengganu"
    },
    {
        "Postcode": "21080",
        "Location": "Kampung Bukit",
        "Post_Office": "Kuala Terengganu",
        "State": "Terengganu"
    },
    {
        "Postcode": "21080",
        "Location": "Kampung Gong Rusila",
        "Post_Office": "Kuala Terengganu",
        "State": "Terengganu"
    },
    {
        "Postcode": "21080",
        "Location": "Kampung Masjid Lama",
        "Post_Office": "Kuala Terengganu",
        "State": "Terengganu"
    },
    {
        "Postcode": "21080",
        "Location": "Kampung Padang Kapas",
        "Post_Office": "Kuala Terengganu",
        "State": "Terengganu"
    },
    {
        "Postcode": "21080",
        "Location": "Kampung Pantai Pandak Chendering",
        "Post_Office": "Kuala Terengganu",
        "State": "Terengganu"
    },
    {
        "Postcode": "21080",
        "Location": "Kampung Pengkalan Rajawali",
        "Post_Office": "Kuala Terengganu",
        "State": "Terengganu"
    },
    {
        "Postcode": "21080",
        "Location": "Kampung Simpang Empat",
        "Post_Office": "Kuala Terengganu",
        "State": "Terengganu"
    },
    {
        "Postcode": "21080",
        "Location": "Kawasan Perindustrian Chendering",
        "Post_Office": "Kuala Terengganu",
        "State": "Terengganu"
    },
    {
        "Postcode": "21080",
        "Location": "Taman Alamanda",
        "Post_Office": "Kuala Terengganu",
        "State": "Terengganu"
    },
    {
        "Postcode": "21080",
        "Location": "Taman Bukit Chendering",
        "Post_Office": "Kuala Terengganu",
        "State": "Terengganu"
    },
    {
        "Postcode": "21080",
        "Location": "Taman Bukit Indah",
        "Post_Office": "Kuala Terengganu",
        "State": "Terengganu"
    },
    {
        "Postcode": "21080",
        "Location": "Taman Chendering",
        "Post_Office": "Kuala Terengganu",
        "State": "Terengganu"
    },
    {
        "Postcode": "21080",
        "Location": "Taman Chendering Utama",
        "Post_Office": "Kuala Terengganu",
        "State": "Terengganu"
    },
    {
        "Postcode": "21080",
        "Location": "Taman Desa Mpkt",
        "Post_Office": "Kuala Terengganu",
        "State": "Terengganu"
    },
    {
        "Postcode": "21080",
        "Location": "Taman Emawan",
        "Post_Office": "Kuala Terengganu",
        "State": "Terengganu"
    },
    {
        "Postcode": "21080",
        "Location": "Taman Kalongan Mas ",
        "Post_Office": "Kuala Terengganu",
        "State": "Terengganu"
    },
    {
        "Postcode": "21080",
        "Location": "Taman Koinsaf 2 ",
        "Post_Office": "Kuala Terengganu",
        "State": "Terengganu"
    },
    {
        "Postcode": "21080",
        "Location": "Taman Medan Rhu Renggeh",
        "Post_Office": "Kuala Terengganu",
        "State": "Terengganu"
    },
    {
        "Postcode": "21080",
        "Location": "Taman Rashidah",
        "Post_Office": "Kuala Terengganu",
        "State": "Terengganu"
    },
    {
        "Postcode": "21080",
        "Location": "Chendering",
        "Post_Office": "Kuala Terengganu",
        "State": "Terengganu"
    },
    {
        "Postcode": "21080",
        "Location": "Institut Latihan Perikanan",
        "Post_Office": "Kuala Terengganu",
        "State": "Terengganu"
    },
    {
        "Postcode": "21080",
        "Location": "Institut Piawaian Malaysia (Sirim)",
        "Post_Office": "Kuala Terengganu",
        "State": "Terengganu"
    },
    {
        "Postcode": "21080",
        "Location": "Kampung Belukar Jambu",
        "Post_Office": "Kuala Terengganu",
        "State": "Terengganu"
    },
    {
        "Postcode": "21080",
        "Location": "Kampung Bukit Chendering",
        "Post_Office": "Kuala Terengganu",
        "State": "Terengganu"
    },
    {
        "Postcode": "21080",
        "Location": "Kampung Chendering",
        "Post_Office": "Kuala Terengganu",
        "State": "Terengganu"
    },
    {
        "Postcode": "21080",
        "Location": "Kampung Ketapang",
        "Post_Office": "Kuala Terengganu",
        "State": "Terengganu"
    },
    {
        "Postcode": "21080",
        "Location": "Kampung Laut",
        "Post_Office": "Kuala Terengganu",
        "State": "Terengganu"
    },
    {
        "Postcode": "21080",
        "Location": "Kampung Pengkalan Raja Wali",
        "Post_Office": "Kuala Terengganu",
        "State": "Terengganu"
    },
    {
        "Postcode": "21080",
        "Location": "Kampung Rusila",
        "Post_Office": "Kuala Terengganu",
        "State": "Terengganu"
    },
    {
        "Postcode": "21080",
        "Location": "Kampung Sendong",
        "Post_Office": "Kuala Terengganu",
        "State": "Terengganu"
    },
    {
        "Postcode": "21080",
        "Location": "Kampung Wakaf Tok Keh",
        "Post_Office": "Kuala Terengganu",
        "State": "Terengganu"
    },
    {
        "Postcode": "21080",
        "Location": "Kubang Ikan",
        "Post_Office": "Kuala Terengganu",
        "State": "Terengganu"
    },
    {
        "Postcode": "21080",
        "Location": "Lembaga Kemajuan Ikan (Lkim)",
        "Post_Office": "Kuala Terengganu",
        "State": "Terengganu"
    },
    {
        "Postcode": "21080",
        "Location": "Pusat Penyelidikan Ikan",
        "Post_Office": "Kuala Terengganu",
        "State": "Terengganu"
    },
    {
        "Postcode": "21080",
        "Location": "Rusila",
        "Post_Office": "Kuala Terengganu",
        "State": "Terengganu"
    },
    {
        "Postcode": "21080",
        "Location": "Taman Aquarius",
        "Post_Office": "Kuala Terengganu",
        "State": "Terengganu"
    },
    {
        "Postcode": "21080",
        "Location": "Taman Medan Jaya",
        "Post_Office": "Kuala Terengganu",
        "State": "Terengganu"
    },
    {
        "Postcode": "21080",
        "Location": "Taman Permin Jaya",
        "Post_Office": "Kuala Terengganu",
        "State": "Terengganu"
    },
    {
        "Postcode": "21080",
        "Location": "Taman Desa Darul Iman",
        "Post_Office": "Kuala Terengganu",
        "State": "Terengganu"
    }
]
