[
    {
        "Postcode": "21450",
        "Location": "Kampung Batu Hampar",
        "Post_Office": "Chalok",
        "State": "Terengganu"
    },
    {
        "Postcode": "21450",
        "Location": "Kampung Chalok",
        "Post_Office": "Chalok",
        "State": "Terengganu"
    },
    {
        "Postcode": "21450",
        "Location": "Kampung Gong Terap ",
        "Post_Office": "Chalok",
        "State": "Terengganu"
    },
    {
        "Postcode": "21450",
        "Location": "Kampung Bukit Layat",
        "Post_Office": "Chalok",
        "State": "Terengganu"
    },
    {
        "Postcode": "21450",
        "Location": "Kampung Chalok Kedai",
        "Post_Office": "Chalok",
        "State": "Terengganu"
    },
    {
        "Postcode": "21450",
        "Location": "Felda Chalok",
        "Post_Office": "Chalok",
        "State": "Terengganu"
    },
    {
        "Postcode": "21450",
        "Location": "Felda Chalok Barat",
        "Post_Office": "Chalok",
        "State": "Terengganu"
    },
    {
        "Postcode": "21450",
        "Location": "Kampung Bukit Kecil",
        "Post_Office": "Chalok",
        "State": "Terengganu"
    },
    {
        "Postcode": "21450",
        "Location": "Kampung Bukit Layak",
        "Post_Office": "Chalok",
        "State": "Terengganu"
    },
    {
        "Postcode": "21450",
        "Location": "Kampung Bukit Mak Jintan",
        "Post_Office": "Chalok",
        "State": "Terengganu"
    },
    {
        "Postcode": "21450",
        "Location": "Kampung Bukit Mok Som",
        "Post_Office": "Chalok",
        "State": "Terengganu"
    },
    {
        "Postcode": "21450",
        "Location": "Kampung Bukit Pinang",
        "Post_Office": "Chalok",
        "State": "Terengganu"
    },
    {
        "Postcode": "21450",
        "Location": "Kampung Bukit Putera",
        "Post_Office": "Chalok",
        "State": "Terengganu"
    },
    {
        "Postcode": "21450",
        "Location": "Kampung Bukit Tok Hat",
        "Post_Office": "Chalok",
        "State": "Terengganu"
    },
    {
        "Postcode": "21450",
        "Location": "Kampung Chabang Bari",
        "Post_Office": "Chalok",
        "State": "Terengganu"
    },
    {
        "Postcode": "21450",
        "Location": "Kampung Chalok Barat",
        "Post_Office": "Chalok",
        "State": "Terengganu"
    },
    {
        "Postcode": "21450",
        "Location": "Kampung Kubang Puyu",
        "Post_Office": "Chalok",
        "State": "Terengganu"
    },
    {
        "Postcode": "21450",
        "Location": "Kampung Lubuk Panjang",
        "Post_Office": "Chalok",
        "State": "Terengganu"
    },
    {
        "Postcode": "21450",
        "Location": "Kampung Rahmat",
        "Post_Office": "Chalok",
        "State": "Terengganu"
    },
    {
        "Postcode": "21450",
        "Location": "Kampung Sungai Lerek",
        "Post_Office": "Chalok",
        "State": "Terengganu"
    },
    {
        "Postcode": "21450",
        "Location": "Kampung Sungai Rakit",
        "Post_Office": "Chalok",
        "State": "Terengganu"
    },
    {
        "Postcode": "21450",
        "Location": "Kampung Ulu Chalok",
        "Post_Office": "Chalok",
        "State": "Terengganu"
    },
    {
        "Postcode": "21450",
        "Location": "Kubang Puyu",
        "Post_Office": "Chalok",
        "State": "Terengganu"
    },
    {
        "Postcode": "21450",
        "Location": "Kampung Jelapang",
        "Post_Office": "Chalok",
        "State": "Terengganu"
    },
    {
        "Postcode": "21450",
        "Location": "Kampung Sungai Pinang",
        "Post_Office": "Chalok",
        "State": "Terengganu"
    },
    {
        "Postcode": "21450",
        "Location": "Kampung Tapah",
        "Post_Office": "Chalok",
        "State": "Terengganu"
    },
    {
        "Postcode": "21450",
        "Location": "Kampung Bukit Merah",
        "Post_Office": "Chalok",
        "State": "Terengganu"
    }
]
