[
    {
        "Postcode": "21500",
        "Location": "Kampung Sungai Tong",
        "Post_Office": "Sungai Tong",
        "State": "Terengganu"
    },
    {
        "Postcode": "21500",
        "Location": "Kampung Alor Lik",
        "Post_Office": "Sungai Tong",
        "State": "Terengganu"
    },
    {
        "Postcode": "21500",
        "Location": "Felda Belara",
        "Post_Office": "Sungai Tong",
        "State": "Terengganu"
    },
    {
        "Postcode": "21500",
        "Location": "Kampung Bukit Berangan",
        "Post_Office": "Sungai Tong",
        "State": "Terengganu"
    },
    {
        "Postcode": "21500",
        "Location": "Kampung Kasar",
        "Post_Office": "Sungai Tong",
        "State": "Terengganu"
    },
    {
        "Postcode": "21500",
        "Location": "Kampung Seri Kenangan",
        "Post_Office": "Sungai Tong",
        "State": "Terengganu"
    },
    {
        "Postcode": "21500",
        "Location": "Kampung Tok Nandong",
        "Post_Office": "Sungai Tong",
        "State": "Terengganu"
    },
    {
        "Postcode": "21500",
        "Location": "Ladang Jaya",
        "Post_Office": "Sungai Tong",
        "State": "Terengganu"
    },
    {
        "Postcode": "21500",
        "Location": "Ladang Tayor",
        "Post_Office": "Sungai Tong",
        "State": "Terengganu"
    },
    {
        "Postcode": "21500",
        "Location": "Kampung Banggol Setor",
        "Post_Office": "Sungai Tong",
        "State": "Terengganu"
    },
    {
        "Postcode": "21500",
        "Location": "Kampung Batu 28",
        "Post_Office": "Sungai Tong",
        "State": "Terengganu"
    },
    {
        "Postcode": "21500",
        "Location": "Kampung Batu 30",
        "Post_Office": "Sungai Tong",
        "State": "Terengganu"
    },
    {
        "Postcode": "21500",
        "Location": "Kampung Bukit Mundok",
        "Post_Office": "Sungai Tong",
        "State": "Terengganu"
    },
    {
        "Postcode": "21500",
        "Location": "Kampung Bukit Nenas",
        "Post_Office": "Sungai Tong",
        "State": "Terengganu"
    },
    {
        "Postcode": "21500",
        "Location": "Kampung Bukit Sungai Tong",
        "Post_Office": "Sungai Tong",
        "State": "Terengganu"
    },
    {
        "Postcode": "21500",
        "Location": "Kampung Jaya Sungai Tong",
        "Post_Office": "Sungai Tong",
        "State": "Terengganu"
    },
    {
        "Postcode": "21500",
        "Location": "Kampung Kuala Tayor",
        "Post_Office": "Sungai Tong",
        "State": "Terengganu"
    },
    {
        "Postcode": "21500",
        "Location": "Kampung Langkap",
        "Post_Office": "Sungai Tong",
        "State": "Terengganu"
    },
    {
        "Postcode": "21500",
        "Location": "Kampung Nibong Sungai Tong",
        "Post_Office": "Sungai Tong",
        "State": "Terengganu"
    },
    {
        "Postcode": "21500",
        "Location": "Kampung Pak Ba",
        "Post_Office": "Sungai Tong",
        "State": "Terengganu"
    },
    {
        "Postcode": "21500",
        "Location": "Kampung Payong",
        "Post_Office": "Sungai Tong",
        "State": "Terengganu"
    },
    {
        "Postcode": "21500",
        "Location": "Kampung Pelong",
        "Post_Office": "Sungai Tong",
        "State": "Terengganu"
    },
    {
        "Postcode": "21500",
        "Location": "Kampung Pengkalan Merbau",
        "Post_Office": "Sungai Tong",
        "State": "Terengganu"
    },
    {
        "Postcode": "21500",
        "Location": "Kampung Simpang Langkap",
        "Post_Office": "Sungai Tong",
        "State": "Terengganu"
    },
    {
        "Postcode": "21500",
        "Location": "Kampung Sungai Bari",
        "Post_Office": "Sungai Tong",
        "State": "Terengganu"
    },
    {
        "Postcode": "21500",
        "Location": "Kampung Tayor Tengah",
        "Post_Office": "Sungai Tong",
        "State": "Terengganu"
    },
    {
        "Postcode": "21500",
        "Location": "Ladang Bari",
        "Post_Office": "Sungai Tong",
        "State": "Terengganu"
    },
    {
        "Postcode": "21500",
        "Location": "Lktp Belara",
        "Post_Office": "Sungai Tong",
        "State": "Terengganu"
    },
    {
        "Postcode": "21500",
        "Location": "Pakoh Jaya",
        "Post_Office": "Sungai Tong",
        "State": "Terengganu"
    },
    {
        "Postcode": "21500",
        "Location": "Seri Langkap",
        "Post_Office": "Sungai Tong",
        "State": "Terengganu"
    },
    {
        "Postcode": "21500",
        "Location": "Sungai Lerak",
        "Post_Office": "Sungai Tong",
        "State": "Terengganu"
    },
    {
        "Postcode": "21500",
        "Location": "Kampung Jelapang",
        "Post_Office": "Sungai Tong",
        "State": "Terengganu"
    },
    {
        "Postcode": "21500",
        "Location": "Kampung Nibong",
        "Post_Office": "Sungai Tong",
        "State": "Terengganu"
    }
]
