[
    {
        "Postcode": "21600",
        "Location": "Taman Perkaya",
        "Post_Office": "Marang",
        "State": "Terengganu"
    },
    {
        "Postcode": "21600",
        "Location": "Kampung Gong Nangka",
        "Post_Office": "Marang",
        "State": "Terengganu"
    },
    {
        "Postcode": "21600",
        "Location": "Bandar Marang",
        "Post_Office": "Marang",
        "State": "Terengganu"
    },
    {
        "Postcode": "21600",
        "Location": "Kampung Durian Penjara",
        "Post_Office": "Marang",
        "State": "Terengganu"
    },
    {
        "Postcode": "21600",
        "Location": "Kampung Pengkalan Kuin",
        "Post_Office": "Marang",
        "State": "Terengganu"
    },
    {
        "Postcode": "21600",
        "Location": "Kampung Asing",
        "Post_Office": "Marang",
        "State": "Terengganu"
    },
    {
        "Postcode": "21600",
        "Location": "Kampung Bukit Jejulong",
        "Post_Office": "Marang",
        "State": "Terengganu"
    },
    {
        "Postcode": "21600",
        "Location": "Kampung Bukit Kulim",
        "Post_Office": "Marang",
        "State": "Terengganu"
    },
    {
        "Postcode": "21600",
        "Location": "Kampung Bukit Parit",
        "Post_Office": "Marang",
        "State": "Terengganu"
    },
    {
        "Postcode": "21600",
        "Location": "Kampung Gong Beris",
        "Post_Office": "Marang",
        "State": "Terengganu"
    },
    {
        "Postcode": "21600",
        "Location": "Kampung Rhu Muda",
        "Post_Office": "Marang",
        "State": "Terengganu"
    },
    {
        "Postcode": "21600",
        "Location": "Kampung Rambai Jantan",
        "Post_Office": "Marang",
        "State": "Terengganu"
    },
    {
        "Postcode": "21600",
        "Location": "Kampung Setar Kanan",
        "Post_Office": "Marang",
        "State": "Terengganu"
    },
    {
        "Postcode": "21600",
        "Location": "Taman Laily",
        "Post_Office": "Marang",
        "State": "Terengganu"
    },
    {
        "Postcode": "21600",
        "Location": "Taman Mas Murni 1",
        "Post_Office": "Marang",
        "State": "Terengganu"
    },
    {
        "Postcode": "21600",
        "Location": "Taman Mas Murni 2",
        "Post_Office": "Marang",
        "State": "Terengganu"
    },
    {
        "Postcode": "21600",
        "Location": "Felcra Bukit Kancil",
        "Post_Office": "Marang",
        "State": "Terengganu"
    },
    {
        "Postcode": "21600",
        "Location": "Felda Rantau Abang",
        "Post_Office": "Marang",
        "State": "Terengganu"
    },
    {
        "Postcode": "21600",
        "Location": "Felda Rantau Abang 2",
        "Post_Office": "Marang",
        "State": "Terengganu"
    },
    {
        "Postcode": "21600",
        "Location": "Kampung Alor Ketitir",
        "Post_Office": "Marang",
        "State": "Terengganu"
    },
    {
        "Postcode": "21600",
        "Location": "Kampung Alor Pak Bang",
        "Post_Office": "Marang",
        "State": "Terengganu"
    },
    {
        "Postcode": "21600",
        "Location": "Kampung Alur Tuman",
        "Post_Office": "Marang",
        "State": "Terengganu"
    },
    {
        "Postcode": "21600",
        "Location": "Kampung Baru Rhu Muda",
        "Post_Office": "Marang",
        "State": "Terengganu"
    },
    {
        "Postcode": "21600",
        "Location": "Kampung Bukit  Che  Ali",
        "Post_Office": "Marang",
        "State": "Terengganu"
    },
    {
        "Postcode": "21600",
        "Location": "Kampung Bukit Kecil",
        "Post_Office": "Marang",
        "State": "Terengganu"
    },
    {
        "Postcode": "21600",
        "Location": "Kampung Ciak",
        "Post_Office": "Marang",
        "State": "Terengganu"
    },
    {
        "Postcode": "21600",
        "Location": "Kampung Darat Pak Chan",
        "Post_Office": "Marang",
        "State": "Terengganu"
    },
    {
        "Postcode": "21600",
        "Location": "Kampung Gong Chempedak",
        "Post_Office": "Marang",
        "State": "Terengganu"
    },
    {
        "Postcode": "21600",
        "Location": "Kampung Gong Kubur",
        "Post_Office": "Marang",
        "State": "Terengganu"
    },
    {
        "Postcode": "21600",
        "Location": "Kampung Gong Tepas",
        "Post_Office": "Marang",
        "State": "Terengganu"
    },
    {
        "Postcode": "21600",
        "Location": "Kampung Kuala Tengah",
        "Post_Office": "Marang",
        "State": "Terengganu"
    },
    {
        "Postcode": "21600",
        "Location": "Kampung Lubuk Hampa",
        "Post_Office": "Marang",
        "State": "Terengganu"
    },
    {
        "Postcode": "21600",
        "Location": "Kampung Padang Terik",
        "Post_Office": "Marang",
        "State": "Terengganu"
    },
    {
        "Postcode": "21600",
        "Location": "Kampung Paya Atas Bukit",
        "Post_Office": "Marang",
        "State": "Terengganu"
    },
    {
        "Postcode": "21600",
        "Location": "Kampung Paya Hulubalang",
        "Post_Office": "Marang",
        "State": "Terengganu"
    },
    {
        "Postcode": "21600",
        "Location": "Kampung Penarik",
        "Post_Office": "Marang",
        "State": "Terengganu"
    },
    {
        "Postcode": "21600",
        "Location": "Kampung Pulau Kerengga",
        "Post_Office": "Marang",
        "State": "Terengganu"
    },
    {
        "Postcode": "21600",
        "Location": "Kampung Pulau Kerengga Dalam",
        "Post_Office": "Marang",
        "State": "Terengganu"
    },
    {
        "Postcode": "21600",
        "Location": "Kampung Seberang Marang",
        "Post_Office": "Marang",
        "State": "Terengganu"
    },
    {
        "Postcode": "21600",
        "Location": "Kampung Selawa",
        "Post_Office": "Marang",
        "State": "Terengganu"
    },
    {
        "Postcode": "21600",
        "Location": "Kampung Serating",
        "Post_Office": "Marang",
        "State": "Terengganu"
    },
    {
        "Postcode": "21600",
        "Location": "Kampung Telaga Air",
        "Post_Office": "Marang",
        "State": "Terengganu"
    },
    {
        "Postcode": "21600",
        "Location": "Kampung Temiang",
        "Post_Office": "Marang",
        "State": "Terengganu"
    },
    {
        "Postcode": "21600",
        "Location": "Taman Dato Ibrahim",
        "Post_Office": "Marang",
        "State": "Terengganu"
    },
    {
        "Postcode": "21600",
        "Location": "Taman Desa Rhu Rendang",
        "Post_Office": "Marang",
        "State": "Terengganu"
    },
    {
        "Postcode": "21600",
        "Location": "Taman Kurnia Jaya",
        "Post_Office": "Marang",
        "State": "Terengganu"
    },
    {
        "Postcode": "21600",
        "Location": "Taman Permai",
        "Post_Office": "Marang",
        "State": "Terengganu"
    },
    {
        "Postcode": "21600",
        "Location": "Taman Rahmat",
        "Post_Office": "Marang",
        "State": "Terengganu"
    },
    {
        "Postcode": "21600",
        "Location": "Alor Gali",
        "Post_Office": "Marang",
        "State": "Terengganu"
    },
    {
        "Postcode": "21600",
        "Location": "Alor Tuman",
        "Post_Office": "Marang",
        "State": "Terengganu"
    },
    {
        "Postcode": "21600",
        "Location": "Barat",
        "Post_Office": "Marang",
        "State": "Terengganu"
    },
    {
        "Postcode": "21600",
        "Location": "Bukit Baharu",
        "Post_Office": "Marang",
        "State": "Terengganu"
    },
    {
        "Postcode": "21600",
        "Location": "Bukit Gegading",
        "Post_Office": "Marang",
        "State": "Terengganu"
    },
    {
        "Postcode": "21600",
        "Location": "Jabatan Penjara",
        "Post_Office": "Marang",
        "State": "Terengganu"
    },
    {
        "Postcode": "21600",
        "Location": "Kampung Batangan",
        "Post_Office": "Marang",
        "State": "Terengganu"
    },
    {
        "Postcode": "21600",
        "Location": "Kampung Bukit Gasing",
        "Post_Office": "Marang",
        "State": "Terengganu"
    },
    {
        "Postcode": "21600",
        "Location": "Kampung Jenang",
        "Post_Office": "Marang",
        "State": "Terengganu"
    },
    {
        "Postcode": "21600",
        "Location": "Kampung Kelulut",
        "Post_Office": "Marang",
        "State": "Terengganu"
    },
    {
        "Postcode": "21600",
        "Location": "Kampung Kijing",
        "Post_Office": "Marang",
        "State": "Terengganu"
    },
    {
        "Postcode": "21600",
        "Location": "Kampung Masjid Haji Said",
        "Post_Office": "Marang",
        "State": "Terengganu"
    },
    {
        "Postcode": "21600",
        "Location": "Kampung Pantai Seberang Marang",
        "Post_Office": "Marang",
        "State": "Terengganu"
    },
    {
        "Postcode": "21600",
        "Location": "Kampung Ru Dua",
        "Post_Office": "Marang",
        "State": "Terengganu"
    },
    {
        "Postcode": "21600",
        "Location": "Kampung Ru Rendang",
        "Post_Office": "Marang",
        "State": "Terengganu"
    },
    {
        "Postcode": "21600",
        "Location": "Kampung Sentul Patah",
        "Post_Office": "Marang",
        "State": "Terengganu"
    },
    {
        "Postcode": "21600",
        "Location": "Kampung Star Kiri",
        "Post_Office": "Marang",
        "State": "Terengganu"
    },
    {
        "Postcode": "21600",
        "Location": "Kampung Sungai Kerak",
        "Post_Office": "Marang",
        "State": "Terengganu"
    },
    {
        "Postcode": "21600",
        "Location": "Kampung Surau Haji Ibrahim",
        "Post_Office": "Marang",
        "State": "Terengganu"
    },
    {
        "Postcode": "21600",
        "Location": "Kampung Surau Haji Mat",
        "Post_Office": "Marang",
        "State": "Terengganu"
    },
    {
        "Postcode": "21600",
        "Location": "Kampung Tuman",
        "Post_Office": "Marang",
        "State": "Terengganu"
    },
    {
        "Postcode": "21600",
        "Location": "Ladang Fikri",
        "Post_Office": "Marang",
        "State": "Terengganu"
    },
    {
        "Postcode": "21600",
        "Location": "Taman Hidayah",
        "Post_Office": "Marang",
        "State": "Terengganu"
    },
    {
        "Postcode": "21600",
        "Location": "Taman Kalongan Melor",
        "Post_Office": "Marang",
        "State": "Terengganu"
    },
    {
        "Postcode": "21600",
        "Location": "Taman Kernia Jaya",
        "Post_Office": "Marang",
        "State": "Terengganu"
    },
    {
        "Postcode": "21600",
        "Location": "Taman Perpindahan Sungai Kerak",
        "Post_Office": "Marang",
        "State": "Terengganu"
    },
    {
        "Postcode": "21600",
        "Location": "Taman Perumahan Kelulut",
        "Post_Office": "Marang",
        "State": "Terengganu"
    },
    {
        "Postcode": "21600",
        "Location": "Temiang Ulu",
        "Post_Office": "Marang",
        "State": "Terengganu"
    },
    {
        "Postcode": "21600",
        "Location": "Teratak Batu",
        "Post_Office": "Marang",
        "State": "Terengganu"
    },
    {
        "Postcode": "21600",
        "Location": "Kampung Kayu Kelat",
        "Post_Office": "Marang",
        "State": "Terengganu"
    },
    {
        "Postcode": "21600",
        "Location": "Kampung Paya",
        "Post_Office": "Marang",
        "State": "Terengganu"
    },
    {
        "Postcode": "21600",
        "Location": "Taman Budi",
        "Post_Office": "Marang",
        "State": "Terengganu"
    },
    {
        "Postcode": "21600",
        "Location": "Taman Desa Permai ",
        "Post_Office": "Marang",
        "State": "Terengganu"
    }
]
