[
    {
        "Postcode": "21610",
        "Location": "Kampung Gong Kassim",
        "Post_Office": "Marang",
        "State": "Terengganu"
    },
    {
        "Postcode": "21610",
        "Location": "Jambu Bongkok",
        "Post_Office": "Marang",
        "State": "Terengganu"
    },
    {
        "Postcode": "21610",
        "Location": "Kampung Durian Pulut Merchang",
        "Post_Office": "Marang",
        "State": "Terengganu"
    },
    {
        "Postcode": "21610",
        "Location": "Kampung Gong Balai",
        "Post_Office": "Marang",
        "State": "Terengganu"
    },
    {
        "Postcode": "21610",
        "Location": "Kampung Jambu Bongkok",
        "Post_Office": "Marang",
        "State": "Terengganu"
    },
    {
        "Postcode": "21610",
        "Location": "Kampung Padang Pauh",
        "Post_Office": "Marang",
        "State": "Terengganu"
    },
    {
        "Postcode": "21610",
        "Location": "Kampung Pasir Putih",
        "Post_Office": "Marang",
        "State": "Terengganu"
    },
    {
        "Postcode": "21610",
        "Location": "Kampung Tok Fakir Merchang",
        "Post_Office": "Marang",
        "State": "Terengganu"
    },
    {
        "Postcode": "21610",
        "Location": "Merchang",
        "Post_Office": "Marang",
        "State": "Terengganu"
    }
]
