[
    {
        "Postcode": "21700",
        "Location": "Kampung Padang Setar",
        "Post_Office": "Kuala Berang",
        "State": "Terengganu"
    },
    {
        "Postcode": "21700",
        "Location": "Kampung Tanjung Baru",
        "Post_Office": "Kuala Berang",
        "State": "Terengganu"
    },
    {
        "Postcode": "21700",
        "Location": "Kampung Kuala Akob",
        "Post_Office": "Kuala Berang",
        "State": "Terengganu"
    },
    {
        "Postcode": "21700",
        "Location": "Kampung Sungai Gawi",
        "Post_Office": "Kuala Berang",
        "State": "Terengganu"
    },
    {
        "Postcode": "21700",
        "Location": "Kampung Baong",
        "Post_Office": "Kuala Berang",
        "State": "Terengganu"
    },
    {
        "Postcode": "21700",
        "Location": "Kampung Chapu",
        "Post_Office": "Kuala Berang",
        "State": "Terengganu"
    },
    {
        "Postcode": "21700",
        "Location": "Kampung Pasir Simpul",
        "Post_Office": "Kuala Berang",
        "State": "Terengganu"
    },
    {
        "Postcode": "21700",
        "Location": "Kampung Bukit Gemuroh",
        "Post_Office": "Kuala Berang",
        "State": "Terengganu"
    },
    {
        "Postcode": "21700",
        "Location": "Kampung Buluh",
        "Post_Office": "Kuala Berang",
        "State": "Terengganu"
    },
    {
        "Postcode": "21700",
        "Location": "Kampung Cheting",
        "Post_Office": "Kuala Berang",
        "State": "Terengganu"
    },
    {
        "Postcode": "21700",
        "Location": "Felcra Bukit Kepah",
        "Post_Office": "Kuala Berang",
        "State": "Terengganu"
    },
    {
        "Postcode": "21700",
        "Location": "Kampung Bidur",
        "Post_Office": "Kuala Berang",
        "State": "Terengganu"
    },
    {
        "Postcode": "21700",
        "Location": "Kampung Bukit Kudur",
        "Post_Office": "Kuala Berang",
        "State": "Terengganu"
    },
    {
        "Postcode": "21700",
        "Location": "Kampung Gaung",
        "Post_Office": "Kuala Berang",
        "State": "Terengganu"
    },
    {
        "Postcode": "21700",
        "Location": "Kampung Imam Lapar",
        "Post_Office": "Kuala Berang",
        "State": "Terengganu"
    },
    {
        "Postcode": "21700",
        "Location": "Kampung Lebak",
        "Post_Office": "Kuala Berang",
        "State": "Terengganu"
    },
    {
        "Postcode": "21700",
        "Location": "Kampung Lenjang",
        "Post_Office": "Kuala Berang",
        "State": "Terengganu"
    },
    {
        "Postcode": "21700",
        "Location": "Kampung Padang Tara",
        "Post_Office": "Kuala Berang",
        "State": "Terengganu"
    },
    {
        "Postcode": "21700",
        "Location": "Kampung Paloh Nyior",
        "Post_Office": "Kuala Berang",
        "State": "Terengganu"
    },
    {
        "Postcode": "21700",
        "Location": "Kampung Tanjung Putat",
        "Post_Office": "Kuala Berang",
        "State": "Terengganu"
    },
    {
        "Postcode": "21700",
        "Location": "Kampung Tok Lawit",
        "Post_Office": "Kuala Berang",
        "State": "Terengganu"
    },
    {
        "Postcode": "21700",
        "Location": "Taman Bukit Mertaja",
        "Post_Office": "Kuala Berang",
        "State": "Terengganu"
    },
    {
        "Postcode": "21700",
        "Location": "Taman Damai",
        "Post_Office": "Kuala Berang",
        "State": "Terengganu"
    },
    {
        "Postcode": "21700",
        "Location": "Taman Haji Abdul Rahman",
        "Post_Office": "Kuala Berang",
        "State": "Terengganu"
    },
    {
        "Postcode": "21700",
        "Location": "Taman Indah Sari",
        "Post_Office": "Kuala Berang",
        "State": "Terengganu"
    },
    {
        "Postcode": "21700",
        "Location": "Taman Kenanga",
        "Post_Office": "Kuala Berang",
        "State": "Terengganu"
    },
    {
        "Postcode": "21700",
        "Location": "Taman Kirana",
        "Post_Office": "Kuala Berang",
        "State": "Terengganu"
    },
    {
        "Postcode": "21700",
        "Location": "Taman Kuala Berang",
        "Post_Office": "Kuala Berang",
        "State": "Terengganu"
    },
    {
        "Postcode": "21700",
        "Location": "Taman Marwah",
        "Post_Office": "Kuala Berang",
        "State": "Terengganu"
    },
    {
        "Postcode": "21700",
        "Location": "Taman Permint Permata",
        "Post_Office": "Kuala Berang",
        "State": "Terengganu"
    },
    {
        "Postcode": "21700",
        "Location": "Taman Seroja ",
        "Post_Office": "Kuala Berang",
        "State": "Terengganu"
    },
    {
        "Postcode": "21700",
        "Location": "Taman Sri Berang",
        "Post_Office": "Kuala Berang",
        "State": "Terengganu"
    },
    {
        "Postcode": "21700",
        "Location": "Taman Tiras",
        "Post_Office": "Kuala Berang",
        "State": "Terengganu"
    },
    {
        "Postcode": "21700",
        "Location": "Binjai Kertas",
        "Post_Office": "Kuala Berang",
        "State": "Terengganu"
    },
    {
        "Postcode": "21700",
        "Location": "Kampung Alor Kiambang",
        "Post_Office": "Kuala Berang",
        "State": "Terengganu"
    },
    {
        "Postcode": "21700",
        "Location": "Kampung Basung",
        "Post_Office": "Kuala Berang",
        "State": "Terengganu"
    },
    {
        "Postcode": "21700",
        "Location": "Kampung Batu 23",
        "Post_Office": "Kuala Berang",
        "State": "Terengganu"
    },
    {
        "Postcode": "21700",
        "Location": "Kampung Batu 23 (Jalan Kuala Berang)",
        "Post_Office": "Kuala Berang",
        "State": "Terengganu"
    },
    {
        "Postcode": "21700",
        "Location": "Kampung Batu 24",
        "Post_Office": "Kuala Berang",
        "State": "Terengganu"
    },
    {
        "Postcode": "21700",
        "Location": "Kampung Binjai Kertas",
        "Post_Office": "Kuala Berang",
        "State": "Terengganu"
    },
    {
        "Postcode": "21700",
        "Location": "Kampung Bukit Acheh",
        "Post_Office": "Kuala Berang",
        "State": "Terengganu"
    },
    {
        "Postcode": "21700",
        "Location": "Kampung Bukit Beruang",
        "Post_Office": "Kuala Berang",
        "State": "Terengganu"
    },
    {
        "Postcode": "21700",
        "Location": "Kampung Bukit Biah",
        "Post_Office": "Kuala Berang",
        "State": "Terengganu"
    },
    {
        "Postcode": "21700",
        "Location": "Kampung Bukit Martiya",
        "Post_Office": "Kuala Berang",
        "State": "Terengganu"
    },
    {
        "Postcode": "21700",
        "Location": "Kampung Bukit Tok Bat",
        "Post_Office": "Kuala Berang",
        "State": "Terengganu"
    },
    {
        "Postcode": "21700",
        "Location": "Kampung Butut",
        "Post_Office": "Kuala Berang",
        "State": "Terengganu"
    },
    {
        "Postcode": "21700",
        "Location": "Kampung Cekering",
        "Post_Office": "Kuala Berang",
        "State": "Terengganu"
    },
    {
        "Postcode": "21700",
        "Location": "Kampung Dura",
        "Post_Office": "Kuala Berang",
        "State": "Terengganu"
    },
    {
        "Postcode": "21700",
        "Location": "Kampung Durian Bador",
        "Post_Office": "Kuala Berang",
        "State": "Terengganu"
    },
    {
        "Postcode": "21700",
        "Location": "Kampung Dusun",
        "Post_Office": "Kuala Berang",
        "State": "Terengganu"
    },
    {
        "Postcode": "21700",
        "Location": "Kampung Gaong",
        "Post_Office": "Kuala Berang",
        "State": "Terengganu"
    },
    {
        "Postcode": "21700",
        "Location": "Kampung Gerdong",
        "Post_Office": "Kuala Berang",
        "State": "Terengganu"
    },
    {
        "Postcode": "21700",
        "Location": "Kampung Hulu Sat",
        "Post_Office": "Kuala Berang",
        "State": "Terengganu"
    },
    {
        "Postcode": "21700",
        "Location": "Kampung Jenagor",
        "Post_Office": "Kuala Berang",
        "State": "Terengganu"
    },
    {
        "Postcode": "21700",
        "Location": "Kampung Kemat",
        "Post_Office": "Kuala Berang",
        "State": "Terengganu"
    },
    {
        "Postcode": "21700",
        "Location": "Kampung Kepah",
        "Post_Office": "Kuala Berang",
        "State": "Terengganu"
    },
    {
        "Postcode": "21700",
        "Location": "Kampung Kuala Jeneris",
        "Post_Office": "Kuala Berang",
        "State": "Terengganu"
    },
    {
        "Postcode": "21700",
        "Location": "Kampung Kuala Menjing",
        "Post_Office": "Kuala Berang",
        "State": "Terengganu"
    },
    {
        "Postcode": "21700",
        "Location": "Kampung Kuala Ping",
        "Post_Office": "Kuala Berang",
        "State": "Terengganu"
    },
    {
        "Postcode": "21700",
        "Location": "Kampung Kuala Por",
        "Post_Office": "Kuala Berang",
        "State": "Terengganu"
    },
    {
        "Postcode": "21700",
        "Location": "Kampung Kuala Pueh",
        "Post_Office": "Kuala Berang",
        "State": "Terengganu"
    },
    {
        "Postcode": "21700",
        "Location": "Kampung Langgar",
        "Post_Office": "Kuala Berang",
        "State": "Terengganu"
    },
    {
        "Postcode": "21700",
        "Location": "Kampung Langgar Hilir",
        "Post_Office": "Kuala Berang",
        "State": "Terengganu"
    },
    {
        "Postcode": "21700",
        "Location": "Kampung Langgar Hulu",
        "Post_Office": "Kuala Berang",
        "State": "Terengganu"
    },
    {
        "Postcode": "21700",
        "Location": "Kampung Lubuk Pait",
        "Post_Office": "Kuala Berang",
        "State": "Terengganu"
    },
    {
        "Postcode": "21700",
        "Location": "Kampung Nasi Dingin",
        "Post_Office": "Kuala Berang",
        "State": "Terengganu"
    },
    {
        "Postcode": "21700",
        "Location": "Kampung Padang Ipoh",
        "Post_Office": "Kuala Berang",
        "State": "Terengganu"
    },
    {
        "Postcode": "21700",
        "Location": "Kampung Padang Lebak",
        "Post_Office": "Kuala Berang",
        "State": "Terengganu"
    },
    {
        "Postcode": "21700",
        "Location": "Kampung Padang Setebu",
        "Post_Office": "Kuala Berang",
        "State": "Terengganu"
    },
    {
        "Postcode": "21700",
        "Location": "Kampung Pasir Dula",
        "Post_Office": "Kuala Berang",
        "State": "Terengganu"
    },
    {
        "Postcode": "21700",
        "Location": "Kampung Pasir Nering",
        "Post_Office": "Kuala Berang",
        "State": "Terengganu"
    },
    {
        "Postcode": "21700",
        "Location": "Kampung Pasir Nyior",
        "Post_Office": "Kuala Berang",
        "State": "Terengganu"
    },
    {
        "Postcode": "21700",
        "Location": "Kampung Pasir Pelata",
        "Post_Office": "Kuala Berang",
        "State": "Terengganu"
    },
    {
        "Postcode": "21700",
        "Location": "Kampung Pauh",
        "Post_Office": "Kuala Berang",
        "State": "Terengganu"
    },
    {
        "Postcode": "21700",
        "Location": "Kampung Payang Kayu",
        "Post_Office": "Kuala Berang",
        "State": "Terengganu"
    },
    {
        "Postcode": "21700",
        "Location": "Kampung Pelandan",
        "Post_Office": "Kuala Berang",
        "State": "Terengganu"
    },
    {
        "Postcode": "21700",
        "Location": "Kampung Pulau Kudat",
        "Post_Office": "Kuala Berang",
        "State": "Terengganu"
    },
    {
        "Postcode": "21700",
        "Location": "Kampung Rahmat",
        "Post_Office": "Kuala Berang",
        "State": "Terengganu"
    },
    {
        "Postcode": "21700",
        "Location": "Kampung Sekayu",
        "Post_Office": "Kuala Berang",
        "State": "Terengganu"
    },
    {
        "Postcode": "21700",
        "Location": "Kampung Sungai Berua",
        "Post_Office": "Kuala Berang",
        "State": "Terengganu"
    },
    {
        "Postcode": "21700",
        "Location": "Kampung Sungai Ular",
        "Post_Office": "Kuala Berang",
        "State": "Terengganu"
    },
    {
        "Postcode": "21700",
        "Location": "Kampung Tajin",
        "Post_Office": "Kuala Berang",
        "State": "Terengganu"
    },
    {
        "Postcode": "21700",
        "Location": "Kampung Telaga",
        "Post_Office": "Kuala Berang",
        "State": "Terengganu"
    },
    {
        "Postcode": "21700",
        "Location": "Kampung Temir",
        "Post_Office": "Kuala Berang",
        "State": "Terengganu"
    },
    {
        "Postcode": "21700",
        "Location": "Kampung Tengkawang",
        "Post_Office": "Kuala Berang",
        "State": "Terengganu"
    },
    {
        "Postcode": "21700",
        "Location": "Kampung Teris",
        "Post_Office": "Kuala Berang",
        "State": "Terengganu"
    },
    {
        "Postcode": "21700",
        "Location": "Kampung Tok Bintang",
        "Post_Office": "Kuala Berang",
        "State": "Terengganu"
    },
    {
        "Postcode": "21700",
        "Location": "Kampung Tok Lawik",
        "Post_Office": "Kuala Berang",
        "State": "Terengganu"
    },
    {
        "Postcode": "21700",
        "Location": "Kenyir",
        "Post_Office": "Kuala Berang",
        "State": "Terengganu"
    },
    {
        "Postcode": "21700",
        "Location": "Kuala Berang",
        "Post_Office": "Kuala Berang",
        "State": "Terengganu"
    },
    {
        "Postcode": "21700",
        "Location": "Kuala Jeneris",
        "Post_Office": "Kuala Berang",
        "State": "Terengganu"
    },
    {
        "Postcode": "21700",
        "Location": "Kuala Menjing",
        "Post_Office": "Kuala Berang",
        "State": "Terengganu"
    },
    {
        "Postcode": "21700",
        "Location": "Kuala Ping",
        "Post_Office": "Kuala Berang",
        "State": "Terengganu"
    },
    {
        "Postcode": "21700",
        "Location": "Kuala Pueh",
        "Post_Office": "Kuala Berang",
        "State": "Terengganu"
    },
    {
        "Postcode": "21700",
        "Location": "Matang",
        "Post_Office": "Kuala Berang",
        "State": "Terengganu"
    },
    {
        "Postcode": "21700",
        "Location": "Ulu Sat",
        "Post_Office": "Kuala Berang",
        "State": "Terengganu"
    },
    {
        "Postcode": "21700",
        "Location": "Kampung Matang",
        "Post_Office": "Kuala Berang",
        "State": "Terengganu"
    },
    {
        "Postcode": "21700",
        "Location": "Kampung Nibong",
        "Post_Office": "Kuala Berang",
        "State": "Terengganu"
    },
    {
        "Postcode": "21700",
        "Location": "Kampung Tapah",
        "Post_Office": "Kuala Berang",
        "State": "Terengganu"
    }
]
