[
    {
        "Postcode": "21800",
        "Location": "Lktp Jerangau",
        "Post_Office": "Ajil",
        "State": "Terengganu"
    },
    {
        "Postcode": "21800",
        "Location": "Kampung Bukit Kolam",
        "Post_Office": "Ajil",
        "State": "Terengganu"
    },
    {
        "Postcode": "21800",
        "Location": "Kampung Cherang Nibong",
        "Post_Office": "Ajil",
        "State": "Terengganu"
    },
    {
        "Postcode": "21800",
        "Location": "Kampung Gunung",
        "Post_Office": "Ajil",
        "State": "Terengganu"
    },
    {
        "Postcode": "21800",
        "Location": "Kampung Bukit Jabar",
        "Post_Office": "Ajil",
        "State": "Terengganu"
    },
    {
        "Postcode": "21800",
        "Location": "Kampung Durian Kassim",
        "Post_Office": "Ajil",
        "State": "Terengganu"
    },
    {
        "Postcode": "21800",
        "Location": "Kampung Landas",
        "Post_Office": "Ajil",
        "State": "Terengganu"
    },
    {
        "Postcode": "21800",
        "Location": "Kampung Lubuk Periok",
        "Post_Office": "Ajil",
        "State": "Terengganu"
    },
    {
        "Postcode": "21800",
        "Location": "Felcra Betong",
        "Post_Office": "Ajil",
        "State": "Terengganu"
    },
    {
        "Postcode": "21800",
        "Location": "Felda Jerangau",
        "Post_Office": "Ajil",
        "State": "Terengganu"
    },
    {
        "Postcode": "21800",
        "Location": "Felda Sungai Cador",
        "Post_Office": "Ajil",
        "State": "Terengganu"
    },
    {
        "Postcode": "21800",
        "Location": "Kampung Batu 17",
        "Post_Office": "Ajil",
        "State": "Terengganu"
    },
    {
        "Postcode": "21800",
        "Location": "Kampung Bukit Diman",
        "Post_Office": "Ajil",
        "State": "Terengganu"
    },
    {
        "Postcode": "21800",
        "Location": "Kampung Bukit Mempelas",
        "Post_Office": "Ajil",
        "State": "Terengganu"
    },
    {
        "Postcode": "21800",
        "Location": "Kampung Bukit Mengawan",
        "Post_Office": "Ajil",
        "State": "Terengganu"
    },
    {
        "Postcode": "21800",
        "Location": "Kampung Pela",
        "Post_Office": "Ajil",
        "State": "Terengganu"
    },
    {
        "Postcode": "21800",
        "Location": "Kampung Peneh",
        "Post_Office": "Ajil",
        "State": "Terengganu"
    },
    {
        "Postcode": "21800",
        "Location": "Kampung Tok Randok",
        "Post_Office": "Ajil",
        "State": "Terengganu"
    },
    {
        "Postcode": "21800",
        "Location": "Taman Ajil Ria",
        "Post_Office": "Ajil",
        "State": "Terengganu"
    },
    {
        "Postcode": "21800",
        "Location": "Taman Che Ngah",
        "Post_Office": "Ajil",
        "State": "Terengganu"
    },
    {
        "Postcode": "21800",
        "Location": "Taman Istiwa",
        "Post_Office": "Ajil",
        "State": "Terengganu"
    },
    {
        "Postcode": "21800",
        "Location": "Taman Raya",
        "Post_Office": "Ajil",
        "State": "Terengganu"
    },
    {
        "Postcode": "21800",
        "Location": "Taman Warisan Damai",
        "Post_Office": "Ajil",
        "State": "Terengganu"
    },
    {
        "Postcode": "21800",
        "Location": "Ajil",
        "Post_Office": "Ajil",
        "State": "Terengganu"
    },
    {
        "Postcode": "21800",
        "Location": "Bukit Pachat",
        "Post_Office": "Ajil",
        "State": "Terengganu"
    },
    {
        "Postcode": "21800",
        "Location": "Felda Bukit Bading",
        "Post_Office": "Ajil",
        "State": "Terengganu"
    },
    {
        "Postcode": "21800",
        "Location": "Felda Mengkawang",
        "Post_Office": "Ajil",
        "State": "Terengganu"
    },
    {
        "Postcode": "21800",
        "Location": "Felda Tersat",
        "Post_Office": "Ajil",
        "State": "Terengganu"
    },
    {
        "Postcode": "21800",
        "Location": "Kampung Ajal",
        "Post_Office": "Ajil",
        "State": "Terengganu"
    },
    {
        "Postcode": "21800",
        "Location": "Kampung Baru Ajil",
        "Post_Office": "Ajil",
        "State": "Terengganu"
    },
    {
        "Postcode": "21800",
        "Location": "Kampung Batu 18",
        "Post_Office": "Ajil",
        "State": "Terengganu"
    },
    {
        "Postcode": "21800",
        "Location": "Kampung Batu 21",
        "Post_Office": "Ajil",
        "State": "Terengganu"
    },
    {
        "Postcode": "21800",
        "Location": "Kampung Belukar Bukit",
        "Post_Office": "Ajil",
        "State": "Terengganu"
    },
    {
        "Postcode": "21800",
        "Location": "Kampung Betong",
        "Post_Office": "Ajil",
        "State": "Terengganu"
    },
    {
        "Postcode": "21800",
        "Location": "Kampung Bukit Apit",
        "Post_Office": "Ajil",
        "State": "Terengganu"
    },
    {
        "Postcode": "21800",
        "Location": "Kampung Bukit Ara",
        "Post_Office": "Ajil",
        "State": "Terengganu"
    },
    {
        "Postcode": "21800",
        "Location": "Kampung Bukit Biman",
        "Post_Office": "Ajil",
        "State": "Terengganu"
    },
    {
        "Postcode": "21800",
        "Location": "Kampung Bukit Perah",
        "Post_Office": "Ajil",
        "State": "Terengganu"
    },
    {
        "Postcode": "21800",
        "Location": "Kampung Bukit Perpat",
        "Post_Office": "Ajil",
        "State": "Terengganu"
    },
    {
        "Postcode": "21800",
        "Location": "Kampung Chenderong Balai",
        "Post_Office": "Ajil",
        "State": "Terengganu"
    },
    {
        "Postcode": "21800",
        "Location": "Kampung Chenderong Lebam",
        "Post_Office": "Ajil",
        "State": "Terengganu"
    },
    {
        "Postcode": "21800",
        "Location": "Kampung Datuk Amar",
        "Post_Office": "Ajil",
        "State": "Terengganu"
    },
    {
        "Postcode": "21800",
        "Location": "Kampung Durian Rendang",
        "Post_Office": "Ajil",
        "State": "Terengganu"
    },
    {
        "Postcode": "21800",
        "Location": "Kampung Jabar",
        "Post_Office": "Ajil",
        "State": "Terengganu"
    },
    {
        "Postcode": "21800",
        "Location": "Kampung Jak",
        "Post_Office": "Ajil",
        "State": "Terengganu"
    },
    {
        "Postcode": "21800",
        "Location": "Kampung Jerlang",
        "Post_Office": "Ajil",
        "State": "Terengganu"
    },
    {
        "Postcode": "21800",
        "Location": "Kampung Kolam Ajil",
        "Post_Office": "Ajil",
        "State": "Terengganu"
    },
    {
        "Postcode": "21800",
        "Location": "Kampung Kua",
        "Post_Office": "Ajil",
        "State": "Terengganu"
    },
    {
        "Postcode": "21800",
        "Location": "Kampung Machang",
        "Post_Office": "Ajil",
        "State": "Terengganu"
    },
    {
        "Postcode": "21800",
        "Location": "Kampung Menerong",
        "Post_Office": "Ajil",
        "State": "Terengganu"
    },
    {
        "Postcode": "21800",
        "Location": "Kampung Panggong",
        "Post_Office": "Ajil",
        "State": "Terengganu"
    },
    {
        "Postcode": "21800",
        "Location": "Kampung Penek",
        "Post_Office": "Ajil",
        "State": "Terengganu"
    },
    {
        "Postcode": "21800",
        "Location": "Kampung Pengkalan Ajal",
        "Post_Office": "Ajil",
        "State": "Terengganu"
    },
    {
        "Postcode": "21800",
        "Location": "Kampung Peris",
        "Post_Office": "Ajil",
        "State": "Terengganu"
    },
    {
        "Postcode": "21800",
        "Location": "Kampung Pulai Api",
        "Post_Office": "Ajil",
        "State": "Terengganu"
    },
    {
        "Postcode": "21800",
        "Location": "Kampung Setia Jaya",
        "Post_Office": "Ajil",
        "State": "Terengganu"
    },
    {
        "Postcode": "21800",
        "Location": "Kampung Sungai Siput",
        "Post_Office": "Ajil",
        "State": "Terengganu"
    },
    {
        "Postcode": "21800",
        "Location": "Kampung Tok Gebok",
        "Post_Office": "Ajil",
        "State": "Terengganu"
    },
    {
        "Postcode": "21800",
        "Location": "Kampung Tok Rendok",
        "Post_Office": "Ajil",
        "State": "Terengganu"
    },
    {
        "Postcode": "21800",
        "Location": "Kampung Tulang Daing",
        "Post_Office": "Ajil",
        "State": "Terengganu"
    },
    {
        "Postcode": "21800",
        "Location": "Menerung",
        "Post_Office": "Ajil",
        "State": "Terengganu"
    },
    {
        "Postcode": "21800",
        "Location": "Kampung Matang",
        "Post_Office": "Ajil",
        "State": "Terengganu"
    }
]
