[
    {
        "Postcode": "64000",
        "Location": "Klia Cargo Village",
        "Post_Office": "KLIA",
        "State": "Selangor"
    },
    {
        "Postcode": "64000",
        "Location": "Bangunan Tune Hotels.Com",
        "Post_Office": "KLIA",
        "State": "Selangor"
    },
    {
        "Postcode": "64000",
        "Location": "Jalan Klia S4",
        "Post_Office": "KLIA",
        "State": "Selangor"
    },
    {
        "Postcode": "64000",
        "Location": "Persiaran Korporat Klia",
        "Post_Office": "KLIA",
        "State": "Selangor"
    },
    {
        "Postcode": "64000",
        "Location": "Jalan Lembah Ttdi 1",
        "Post_Office": "KLIA",
        "State": "Selangor"
    },
    {
        "Postcode": "64000",
        "Location": "Kuala Lumpur International Airport (Klia)",
        "Post_Office": "KLIA",
        "State": "Selangor"
    },
    {
        "Postcode": "64000",
        "Location": "Jalan Klia 2",
        "Post_Office": "KLIA",
        "State": "Selangor"
    },
    {
        "Postcode": "64000",
        "Location": "Airasia House",
        "Post_Office": "KLIA",
        "State": "Selangor"
    },
    {
        "Postcode": "64000",
        "Location": "Persiaran Komersial",
        "Post_Office": "KLIA",
        "State": "Selangor"
    },
    {
        "Postcode": "64000",
        "Location": "Southern Support Zone",
        "Post_Office": "KLIA",
        "State": "Selangor"
    },
    {
        "Postcode": "64000",
        "Location": "Jalan Pekeliling",
        "Post_Office": "KLIA",
        "State": "Selangor"
    }
]
