[
    {
        "Postcode": "50300",
        "Location": "Bandar Wawasan\r\n",
        "Post_Office": "Kuala Lumpur",
        "State": "WP Kuala Lumpur"
    },
    {
        "Postcode": "50300",
        "Location": "Jalan Haji Hussein Kiri 1",
        "Post_Office": "Kuala Lumpur",
        "State": "WP Kuala Lumpur"
    },
    {
        "Postcode": "50300",
        "Location": "Jalan Haji Hussein Kiri 2",
        "Post_Office": "Kuala Lumpur",
        "State": "WP Kuala Lumpur"
    },
    {
        "Postcode": "50300",
        "Location": "Jalan Sungai Baru 1",
        "Post_Office": "Kuala Lumpur",
        "State": "WP Kuala Lumpur"
    },
    {
        "Postcode": "50300",
        "Location": "Jalan Sungai Baru 2",
        "Post_Office": "Kuala Lumpur",
        "State": "WP Kuala Lumpur"
    },
    {
        "Postcode": "50300",
        "Location": "Jalan Sungai Baru 3",
        "Post_Office": "Kuala Lumpur",
        "State": "WP Kuala Lumpur"
    },
    {
        "Postcode": "50300",
        "Location": "Jalan Sungai Baru 4",
        "Post_Office": "Kuala Lumpur",
        "State": "WP Kuala Lumpur"
    },
    {
        "Postcode": "50300",
        "Location": "Jalan Sungai Baru 5",
        "Post_Office": "Kuala Lumpur",
        "State": "WP Kuala Lumpur"
    },
    {
        "Postcode": "50300",
        "Location": "Lorong Haji Hussein 1",
        "Post_Office": "Kuala Lumpur",
        "State": "WP Kuala Lumpur"
    },
    {
        "Postcode": "50300",
        "Location": "Lorong Haji Hussein 2",
        "Post_Office": "Kuala Lumpur",
        "State": "WP Kuala Lumpur"
    },
    {
        "Postcode": "50300",
        "Location": "Lorong Medan Tuanku 1",
        "Post_Office": "Kuala Lumpur",
        "State": "WP Kuala Lumpur"
    },
    {
        "Postcode": "50300",
        "Location": "Lorong Medan Tuanku 2",
        "Post_Office": "Kuala Lumpur",
        "State": "WP Kuala Lumpur"
    },
    {
        "Postcode": "50300",
        "Location": "Lorong Raja Muda Musa 1",
        "Post_Office": "Kuala Lumpur",
        "State": "WP Kuala Lumpur"
    },
    {
        "Postcode": "50300",
        "Location": "Lorong Raja Muda Musa 2",
        "Post_Office": "Kuala Lumpur",
        "State": "WP Kuala Lumpur"
    },
    {
        "Postcode": "50300",
        "Location": "Lorong Raja Muda Musa 3",
        "Post_Office": "Kuala Lumpur",
        "State": "WP Kuala Lumpur"
    },
    {
        "Postcode": "50300",
        "Location": "Lorong Raja Muda Musa 4",
        "Post_Office": "Kuala Lumpur",
        "State": "WP Kuala Lumpur"
    },
    {
        "Postcode": "50300",
        "Location": "Lorong Raja Muda Musa 5",
        "Post_Office": "Kuala Lumpur",
        "State": "WP Kuala Lumpur"
    },
    {
        "Postcode": "50300",
        "Location": "Lorong Raja Muda Musa 6",
        "Post_Office": "Kuala Lumpur",
        "State": "WP Kuala Lumpur"
    },
    {
        "Postcode": "50300",
        "Location": "Lorong Tunku Abdul Rahman 11",
        "Post_Office": "Kuala Lumpur",
        "State": "WP Kuala Lumpur"
    },
    {
        "Postcode": "50300",
        "Location": "Lorong Tunku Abdul Rahman 13",
        "Post_Office": "Kuala Lumpur",
        "State": "WP Kuala Lumpur"
    },
    {
        "Postcode": "50300",
        "Location": "Lorong Tunku Abdul Rahman 9",
        "Post_Office": "Kuala Lumpur",
        "State": "WP Kuala Lumpur"
    },
    {
        "Postcode": "50300",
        "Location": "Lorong Tunku Abdul Rahman Kanan 1",
        "Post_Office": "Kuala Lumpur",
        "State": "WP Kuala Lumpur"
    },
    {
        "Postcode": "50300",
        "Location": "Lorong Tunku Abdul Rahman Kanan 2",
        "Post_Office": "Kuala Lumpur",
        "State": "WP Kuala Lumpur"
    },
    {
        "Postcode": "50300",
        "Location": "Lorong Tunku Abdul Rahman Kanan 3",
        "Post_Office": "Kuala Lumpur",
        "State": "WP Kuala Lumpur"
    },
    {
        "Postcode": "50300",
        "Location": "Lorong Tunku Abdul Rahman Kanan 4",
        "Post_Office": "Kuala Lumpur",
        "State": "WP Kuala Lumpur"
    },
    {
        "Postcode": "50300",
        "Location": "Lorong Tunku Abdul Rahman Kanan 5",
        "Post_Office": "Kuala Lumpur",
        "State": "WP Kuala Lumpur"
    },
    {
        "Postcode": "50300",
        "Location": "Wisma Rkt Ii (Jln Raja Abdullah)",
        "Post_Office": "Kuala Lumpur",
        "State": "WP Kuala Lumpur"
    },
    {
        "Postcode": "50300",
        "Location": "Pusat Perdagangan Chow Kit",
        "Post_Office": "Kuala Lumpur",
        "State": "WP Kuala Lumpur"
    },
    {
        "Postcode": "50300",
        "Location": "Sky Residences",
        "Post_Office": "Kuala Lumpur",
        "State": "WP Kuala Lumpur"
    },
    {
        "Postcode": "50300",
        "Location": "Jalan Sultan Sulaiman",
        "Post_Office": "Kuala Lumpur",
        "State": "WP Kuala Lumpur"
    },
    {
        "Postcode": "50300",
        "Location": "Kampung Baru",
        "Post_Office": "Kuala Lumpur",
        "State": "WP Kuala Lumpur"
    },
    {
        "Postcode": "50300",
        "Location": "Jalan Medan Tuanku Utama",
        "Post_Office": "Kuala Lumpur",
        "State": "WP Kuala Lumpur"
    },
    {
        "Postcode": "50300",
        "Location": "Jalan Abdul Manan Nordin",
        "Post_Office": "Kuala Lumpur",
        "State": "WP Kuala Lumpur"
    },
    {
        "Postcode": "50300",
        "Location": "Jalan Abdul Rahman Idris",
        "Post_Office": "Kuala Lumpur",
        "State": "WP Kuala Lumpur"
    },
    {
        "Postcode": "50300",
        "Location": "Jalan Abdullah Yasin",
        "Post_Office": "Kuala Lumpur",
        "State": "WP Kuala Lumpur"
    },
    {
        "Postcode": "50300",
        "Location": "Jalan Dato Abd Manan Nordin",
        "Post_Office": "Kuala Lumpur",
        "State": "WP Kuala Lumpur"
    },
    {
        "Postcode": "50300",
        "Location": "Jalan Datuk Abdul Malek",
        "Post_Office": "Kuala Lumpur",
        "State": "WP Kuala Lumpur"
    },
    {
        "Postcode": "50300",
        "Location": "Jalan Datuk Abdul Razak",
        "Post_Office": "Kuala Lumpur",
        "State": "WP Kuala Lumpur"
    },
    {
        "Postcode": "50300",
        "Location": "Jalan Datuk Abdullah Yassin",
        "Post_Office": "Kuala Lumpur",
        "State": "WP Kuala Lumpur"
    },
    {
        "Postcode": "50300",
        "Location": "Jalan Daud",
        "Post_Office": "Kuala Lumpur",
        "State": "WP Kuala Lumpur"
    },
    {
        "Postcode": "50300",
        "Location": "Jalan Dewan Sultan Sulaiman",
        "Post_Office": "Kuala Lumpur",
        "State": "WP Kuala Lumpur"
    },
    {
        "Postcode": "50300",
        "Location": "Jalan Doraisamy",
        "Post_Office": "Kuala Lumpur",
        "State": "WP Kuala Lumpur"
    },
    {
        "Postcode": "50300",
        "Location": "Jalan Haji Hashim",
        "Post_Office": "Kuala Lumpur",
        "State": "WP Kuala Lumpur"
    },
    {
        "Postcode": "50300",
        "Location": "Jalan Haji Hussein",
        "Post_Office": "Kuala Lumpur",
        "State": "WP Kuala Lumpur"
    },
    {
        "Postcode": "50300",
        "Location": "Jalan Haji Sirat",
        "Post_Office": "Kuala Lumpur",
        "State": "WP Kuala Lumpur"
    },
    {
        "Postcode": "50300",
        "Location": "Jalan Haji Yaakob",
        "Post_Office": "Kuala Lumpur",
        "State": "WP Kuala Lumpur"
    },
    {
        "Postcode": "50300",
        "Location": "Jalan Haji Yahya Sheikh Ahmad",
        "Post_Office": "Kuala Lumpur",
        "State": "WP Kuala Lumpur"
    },
    {
        "Postcode": "50300",
        "Location": "Jalan Haji Zainuddin",
        "Post_Office": "Kuala Lumpur",
        "State": "WP Kuala Lumpur"
    },
    {
        "Postcode": "50300",
        "Location": "Jalan Hamzah",
        "Post_Office": "Kuala Lumpur",
        "State": "WP Kuala Lumpur"
    },
    {
        "Postcode": "50300",
        "Location": "Jalan Kemunting",
        "Post_Office": "Kuala Lumpur",
        "State": "WP Kuala Lumpur"
    },
    {
        "Postcode": "50300",
        "Location": "Jalan Khatib Koyan",
        "Post_Office": "Kuala Lumpur",
        "State": "WP Kuala Lumpur"
    },
    {
        "Postcode": "50300",
        "Location": "Jalan Mahmud",
        "Post_Office": "Kuala Lumpur",
        "State": "WP Kuala Lumpur"
    },
    {
        "Postcode": "50300",
        "Location": "Jalan Medan Tuanku",
        "Post_Office": "Kuala Lumpur",
        "State": "WP Kuala Lumpur"
    },
    {
        "Postcode": "50300",
        "Location": "Jalan Medan Tuanku Satu",
        "Post_Office": "Kuala Lumpur",
        "State": "WP Kuala Lumpur"
    },
    {
        "Postcode": "50300",
        "Location": "Jalan Puan",
        "Post_Office": "Kuala Lumpur",
        "State": "WP Kuala Lumpur"
    },
    {
        "Postcode": "50300",
        "Location": "Jalan Raja Abdullah",
        "Post_Office": "Kuala Lumpur",
        "State": "WP Kuala Lumpur"
    },
    {
        "Postcode": "50300",
        "Location": "Jalan Raja Alang",
        "Post_Office": "Kuala Lumpur",
        "State": "WP Kuala Lumpur"
    },
    {
        "Postcode": "50300",
        "Location": "Jalan Raja Ali",
        "Post_Office": "Kuala Lumpur",
        "State": "WP Kuala Lumpur"
    },
    {
        "Postcode": "50300",
        "Location": "Jalan Raja Bot",
        "Post_Office": "Kuala Lumpur",
        "State": "WP Kuala Lumpur"
    },
    {
        "Postcode": "50300",
        "Location": "Jalan Raja Mahadi",
        "Post_Office": "Kuala Lumpur",
        "State": "WP Kuala Lumpur"
    },
    {
        "Postcode": "50300",
        "Location": "Jalan Raja Mahmud",
        "Post_Office": "Kuala Lumpur",
        "State": "WP Kuala Lumpur"
    },
    {
        "Postcode": "50300",
        "Location": "Jalan Raja Muda",
        "Post_Office": "Kuala Lumpur",
        "State": "WP Kuala Lumpur"
    },
    {
        "Postcode": "50300",
        "Location": "Jalan Raja Muda Abdul Aziz",
        "Post_Office": "Kuala Lumpur",
        "State": "WP Kuala Lumpur"
    },
    {
        "Postcode": "50300",
        "Location": "Jalan Raja Muda Musa",
        "Post_Office": "Kuala Lumpur",
        "State": "WP Kuala Lumpur"
    },
    {
        "Postcode": "50300",
        "Location": "Jalan Raja Uda",
        "Post_Office": "Kuala Lumpur",
        "State": "WP Kuala Lumpur"
    },
    {
        "Postcode": "50300",
        "Location": "Jalan Rakan",
        "Post_Office": "Kuala Lumpur",
        "State": "WP Kuala Lumpur"
    },
    {
        "Postcode": "50300",
        "Location": "Jalan Salleh",
        "Post_Office": "Kuala Lumpur",
        "State": "WP Kuala Lumpur"
    },
    {
        "Postcode": "50300",
        "Location": "Jalan Sungai Baru",
        "Post_Office": "Kuala Lumpur",
        "State": "WP Kuala Lumpur"
    },
    {
        "Postcode": "50300",
        "Location": "Jalan Syed Mahadi",
        "Post_Office": "Kuala Lumpur",
        "State": "WP Kuala Lumpur"
    },
    {
        "Postcode": "50300",
        "Location": "Jalan Yap Ah Shak",
        "Post_Office": "Kuala Lumpur",
        "State": "WP Kuala Lumpur"
    },
    {
        "Postcode": "50300",
        "Location": "Kampung Doraisamy",
        "Post_Office": "Kuala Lumpur",
        "State": "WP Kuala Lumpur"
    },
    {
        "Postcode": "50300",
        "Location": "Kampung Limau",
        "Post_Office": "Kuala Lumpur",
        "State": "WP Kuala Lumpur"
    },
    {
        "Postcode": "50300",
        "Location": "Kampung Periuk",
        "Post_Office": "Kuala Lumpur",
        "State": "WP Kuala Lumpur"
    },
    {
        "Postcode": "50300",
        "Location": "Lorong Daud",
        "Post_Office": "Kuala Lumpur",
        "State": "WP Kuala Lumpur"
    },
    {
        "Postcode": "50300",
        "Location": "Lorong Kampung Periuk",
        "Post_Office": "Kuala Lumpur",
        "State": "WP Kuala Lumpur"
    },
    {
        "Postcode": "50300",
        "Location": "Lorong Khatib Koyan",
        "Post_Office": "Kuala Lumpur",
        "State": "WP Kuala Lumpur"
    },
    {
        "Postcode": "50300",
        "Location": "Lorong Mahmood",
        "Post_Office": "Kuala Lumpur",
        "State": "WP Kuala Lumpur"
    },
    {
        "Postcode": "50300",
        "Location": "Lorong Masjid Pakistan",
        "Post_Office": "Kuala Lumpur",
        "State": "WP Kuala Lumpur"
    },
    {
        "Postcode": "50300",
        "Location": "Lorong Pasar",
        "Post_Office": "Kuala Lumpur",
        "State": "WP Kuala Lumpur"
    },
    {
        "Postcode": "50300",
        "Location": "Lorong Raja Alang",
        "Post_Office": "Kuala Lumpur",
        "State": "WP Kuala Lumpur"
    },
    {
        "Postcode": "50300",
        "Location": "Lorong Raja Bot",
        "Post_Office": "Kuala Lumpur",
        "State": "WP Kuala Lumpur"
    },
    {
        "Postcode": "50300",
        "Location": "Lorong Raja Mahadi",
        "Post_Office": "Kuala Lumpur",
        "State": "WP Kuala Lumpur"
    },
    {
        "Postcode": "50300",
        "Location": "Lorong Raja Mahmud",
        "Post_Office": "Kuala Lumpur",
        "State": "WP Kuala Lumpur"
    },
    {
        "Postcode": "50300",
        "Location": "Lorong Raja Uda 1",
        "Post_Office": "Kuala Lumpur",
        "State": "WP Kuala Lumpur"
    },
    {
        "Postcode": "50300",
        "Location": "Lorong Raja Uda 2",
        "Post_Office": "Kuala Lumpur",
        "State": "WP Kuala Lumpur"
    },
    {
        "Postcode": "50300",
        "Location": "Lorong Tunku Abdul Rahman Kanan",
        "Post_Office": "Kuala Lumpur",
        "State": "WP Kuala Lumpur"
    },
    {
        "Postcode": "50300",
        "Location": "Lorong Yap Ah Shak",
        "Post_Office": "Kuala Lumpur",
        "State": "WP Kuala Lumpur"
    },
    {
        "Postcode": "50300",
        "Location": "Lorong Zainuddin",
        "Post_Office": "Kuala Lumpur",
        "State": "WP Kuala Lumpur"
    },
    {
        "Postcode": "50300",
        "Location": "Menara Kota",
        "Post_Office": "Kuala Lumpur",
        "State": "WP Kuala Lumpur"
    }
]
