[
    {
        "Postcode": "50400",
        "Location": "Pangsapuri The Orion",
        "Post_Office": "Kuala Lumpur",
        "State": "WP Kuala Lumpur"
    },
    {
        "Postcode": "50400",
        "Location": "Menara Pjd (Jln Tun Razak)",
        "Post_Office": "Kuala Lumpur",
        "State": "WP Kuala Lumpur"
    },
    {
        "Postcode": "50400",
        "Location": "Menara Tower G, Jalan Tun Razak",
        "Post_Office": "Kuala Lumpur",
        "State": "WP Kuala Lumpur"
    },
    {
        "Postcode": "50400",
        "Location": "Jalan 1/68F",
        "Post_Office": "Kuala Lumpur",
        "State": "WP Kuala Lumpur"
    },
    {
        "Postcode": "50400",
        "Location": "Balai Islam",
        "Post_Office": "Kuala Lumpur",
        "State": "WP Kuala Lumpur"
    },
    {
        "Postcode": "50400",
        "Location": "Bangunan City Square",
        "Post_Office": "Kuala Lumpur",
        "State": "WP Kuala Lumpur"
    },
    {
        "Postcode": "50400",
        "Location": "Bangunan Midf",
        "Post_Office": "Kuala Lumpur",
        "State": "WP Kuala Lumpur"
    },
    {
        "Postcode": "50400",
        "Location": "Bangunan Pnb",
        "Post_Office": "Kuala Lumpur",
        "State": "WP Kuala Lumpur"
    },
    {
        "Postcode": "50400",
        "Location": "Bangunan Tabung Haji",
        "Post_Office": "Kuala Lumpur",
        "State": "WP Kuala Lumpur"
    },
    {
        "Postcode": "50400",
        "Location": "Hospital Sentosa",
        "Post_Office": "Kuala Lumpur",
        "State": "WP Kuala Lumpur"
    },
    {
        "Postcode": "50400",
        "Location": "Institut Jantung Negara",
        "Post_Office": "Kuala Lumpur",
        "State": "WP Kuala Lumpur"
    },
    {
        "Postcode": "50400",
        "Location": "Jabatan Lanskap Negara",
        "Post_Office": "Kuala Lumpur",
        "State": "WP Kuala Lumpur"
    },
    {
        "Postcode": "50400",
        "Location": "Jalan Batu Bata",
        "Post_Office": "Kuala Lumpur",
        "State": "WP Kuala Lumpur"
    },
    {
        "Postcode": "50400",
        "Location": "Jalan Bidor",
        "Post_Office": "Kuala Lumpur",
        "State": "WP Kuala Lumpur"
    },
    {
        "Postcode": "50400",
        "Location": "Jalan Chemor",
        "Post_Office": "Kuala Lumpur",
        "State": "WP Kuala Lumpur"
    },
    {
        "Postcode": "50400",
        "Location": "Jalan Chermai",
        "Post_Office": "Kuala Lumpur",
        "State": "WP Kuala Lumpur"
    },
    {
        "Postcode": "50400",
        "Location": "Jalan Dato Haji Eusoff",
        "Post_Office": "Kuala Lumpur",
        "State": "WP Kuala Lumpur"
    },
    {
        "Postcode": "50400",
        "Location": "Jalan Doktor Latiff",
        "Post_Office": "Kuala Lumpur",
        "State": "WP Kuala Lumpur"
    },
    {
        "Postcode": "50400",
        "Location": "Jalan Kampar",
        "Post_Office": "Kuala Lumpur",
        "State": "WP Kuala Lumpur"
    },
    {
        "Postcode": "50400",
        "Location": "Jalan Kinta",
        "Post_Office": "Kuala Lumpur",
        "State": "WP Kuala Lumpur"
    },
    {
        "Postcode": "50400",
        "Location": "Jalan Lahat",
        "Post_Office": "Kuala Lumpur",
        "State": "WP Kuala Lumpur"
    },
    {
        "Postcode": "50400",
        "Location": "Jalan Lumut",
        "Post_Office": "Kuala Lumpur",
        "State": "WP Kuala Lumpur"
    },
    {
        "Postcode": "50400",
        "Location": "Jalan Pangkor",
        "Post_Office": "Kuala Lumpur",
        "State": "WP Kuala Lumpur"
    },
    {
        "Postcode": "50400",
        "Location": "Jalan Pekeliling Lama",
        "Post_Office": "Kuala Lumpur",
        "State": "WP Kuala Lumpur"
    },
    {
        "Postcode": "50400",
        "Location": "Jalan Saga",
        "Post_Office": "Kuala Lumpur",
        "State": "WP Kuala Lumpur"
    },
    {
        "Postcode": "50400",
        "Location": "Jalan Sitiawan",
        "Post_Office": "Kuala Lumpur",
        "State": "WP Kuala Lumpur"
    },
    {
        "Postcode": "50400",
        "Location": "Jalan Taiping",
        "Post_Office": "Kuala Lumpur",
        "State": "WP Kuala Lumpur"
    },
    {
        "Postcode": "50400",
        "Location": "Jalan Tun Razak",
        "Post_Office": "Kuala Lumpur",
        "State": "WP Kuala Lumpur"
    },
    {
        "Postcode": "50400",
        "Location": "Kampung Dato Haji Yusof",
        "Post_Office": "Kuala Lumpur",
        "State": "WP Kuala Lumpur"
    },
    {
        "Postcode": "50400",
        "Location": "Kompleks Damai",
        "Post_Office": "Kuala Lumpur",
        "State": "WP Kuala Lumpur"
    },
    {
        "Postcode": "50400",
        "Location": "Lorong Raja Muda",
        "Post_Office": "Kuala Lumpur",
        "State": "WP Kuala Lumpur"
    },
    {
        "Postcode": "50400",
        "Location": "Menara Empire",
        "Post_Office": "Kuala Lumpur",
        "State": "WP Kuala Lumpur"
    },
    {
        "Postcode": "50400",
        "Location": "Menara Tan \u0026 Tan",
        "Post_Office": "Kuala Lumpur",
        "State": "WP Kuala Lumpur"
    },
    {
        "Postcode": "50400",
        "Location": "Pusat Darah Negara",
        "Post_Office": "Kuala Lumpur",
        "State": "WP Kuala Lumpur"
    },
    {
        "Postcode": "50400",
        "Location": "Wisma Bernama",
        "Post_Office": "Kuala Lumpur",
        "State": "WP Kuala Lumpur"
    }
]
