[
    {
        "Postcode": "50590",
        "Location": "Bahagian Pembangunan Kompetensi, Kementerian Kesihatan",
        "Post_Office": "Kuala Lumpur",
        "State": "WP Kuala Lumpur"
    },
    {
        "Postcode": "50590",
        "Location": "Bahagian Pengurusan Latihan Kementerian Kesihatan Malaysia",
        "Post_Office": "Kuala Lumpur",
        "State": "WP Kuala Lumpur"
    },
    {
        "Postcode": "50590",
        "Location": "Bahagian Perubatan Tradisional \u0026 Komplementari",
        "Post_Office": "Kuala Lumpur",
        "State": "WP Kuala Lumpur"
    },
    {
        "Postcode": "50590",
        "Location": "Bahagian Promosi Kesihatan Kementerian Kesihatan Malaysia",
        "Post_Office": "Kuala Lumpur",
        "State": "WP Kuala Lumpur"
    },
    {
        "Postcode": "50590",
        "Location": "Institut Kesihatan Umum",
        "Post_Office": "Kuala Lumpur",
        "State": "WP Kuala Lumpur"
    },
    {
        "Postcode": "50590",
        "Location": "Institut Perubatan Respiratori Hospital Kuala Lumpur",
        "Post_Office": "Kuala Lumpur",
        "State": "WP Kuala Lumpur"
    },
    {
        "Postcode": "50590",
        "Location": "Malaysia Medical Council (Unit Etika) ",
        "Post_Office": "Kuala Lumpur",
        "State": "WP Kuala Lumpur"
    },
    {
        "Postcode": "50590",
        "Location": "Poliklinik Komuniti Tanglin Kuala Lumpur",
        "Post_Office": "Kuala Lumpur",
        "State": "WP Kuala Lumpur"
    }
]
