[
    {
        "Postcode": "83000",
        "Location": "Jalan Abdullah",
        "Post_Office": "Batu Pahat",
        "State": "Johor"
    },
    {
        "Postcode": "83000",
        "Location": "Jalan Ibrahim",
        "Post_Office": "Batu Pahat",
        "State": "Johor"
    },
    {
        "Postcode": "83000",
        "Location": "Jalan Ismail",
        "Post_Office": "Batu Pahat",
        "State": "Johor"
    },
    {
        "Postcode": "83000",
        "Location": "Jalan Masjid",
        "Post_Office": "Batu Pahat",
        "State": "Johor"
    },
    {
        "Postcode": "83000",
        "Location": "Kampung Dalam",
        "Post_Office": "Batu Pahat",
        "State": "Johor"
    },
    {
        "Postcode": "83000",
        "Location": "Taman Emas",
        "Post_Office": "Batu Pahat",
        "State": "Johor"
    },
    {
        "Postcode": "83000",
        "Location": "Taman Permata",
        "Post_Office": "Batu Pahat",
        "State": "Johor"
    },
    {
        "Postcode": "83000",
        "Location": "Taman Sri Jaya",
        "Post_Office": "Batu Pahat",
        "State": "Johor"
    },
    {
        "Postcode": "83000",
        "Location": "Jalan Abu Bakar",
        "Post_Office": "Batu Pahat",
        "State": "Johor"
    },
    {
        "Postcode": "83000",
        "Location": "Jalan Merpati",
        "Post_Office": "Batu Pahat",
        "State": "Johor"
    },
    {
        "Postcode": "83000",
        "Location": "Jalan Rahmat",
        "Post_Office": "Batu Pahat",
        "State": "Johor"
    },
    {
        "Postcode": "83000",
        "Location": "Jalan Sulaiman",
        "Post_Office": "Batu Pahat",
        "State": "Johor"
    },
    {
        "Postcode": "83000",
        "Location": "Parit Kassim",
        "Post_Office": "Batu Pahat",
        "State": "Johor"
    },
    {
        "Postcode": "83000",
        "Location": "Taman Kurnia",
        "Post_Office": "Batu Pahat",
        "State": "Johor"
    },
    {
        "Postcode": "83000",
        "Location": "Taman Makmur",
        "Post_Office": "Batu Pahat",
        "State": "Johor"
    },
    {
        "Postcode": "83000",
        "Location": "Taman Purnama",
        "Post_Office": "Batu Pahat",
        "State": "Johor"
    },
    {
        "Postcode": "83000",
        "Location": "Taman Putera",
        "Post_Office": "Batu Pahat",
        "State": "Johor"
    },
    {
        "Postcode": "83000",
        "Location": "Taman Warisan",
        "Post_Office": "Batu Pahat",
        "State": "Johor"
    },
    {
        "Postcode": "83000",
        "Location": "Jalan Dato Onn",
        "Post_Office": "Batu Pahat",
        "State": "Johor"
    },
    {
        "Postcode": "83000",
        "Location": "Jalan Ampuan",
        "Post_Office": "Batu Pahat",
        "State": "Johor"
    },
    {
        "Postcode": "83000",
        "Location": "Jalan Bangau",
        "Post_Office": "Batu Pahat",
        "State": "Johor"
    },
    {
        "Postcode": "83000",
        "Location": "Jalan Cenderawasih",
        "Post_Office": "Batu Pahat",
        "State": "Johor"
    },
    {
        "Postcode": "83000",
        "Location": "Jalan Dapat",
        "Post_Office": "Batu Pahat",
        "State": "Johor"
    },
    {
        "Postcode": "83000",
        "Location": "Jalan Dato Wan Idris",
        "Post_Office": "Batu Pahat",
        "State": "Johor"
    },
    {
        "Postcode": "83000",
        "Location": "Jalan Intan",
        "Post_Office": "Batu Pahat",
        "State": "Johor"
    },
    {
        "Postcode": "83000",
        "Location": "Jalan Kenangan",
        "Post_Office": "Batu Pahat",
        "State": "Johor"
    },
    {
        "Postcode": "83000",
        "Location": "Jalan Omar",
        "Post_Office": "Batu Pahat",
        "State": "Johor"
    },
    {
        "Postcode": "83000",
        "Location": "Jalan Pejabat",
        "Post_Office": "Batu Pahat",
        "State": "Johor"
    },
    {
        "Postcode": "83000",
        "Location": "Kampung Merdeka",
        "Post_Office": "Batu Pahat",
        "State": "Johor"
    },
    {
        "Postcode": "83000",
        "Location": "Kampung Parit Besar",
        "Post_Office": "Batu Pahat",
        "State": "Johor"
    },
    {
        "Postcode": "83000",
        "Location": "Parit Bilal",
        "Post_Office": "Batu Pahat",
        "State": "Johor"
    },
    {
        "Postcode": "83000",
        "Location": "Taman Bendahara",
        "Post_Office": "Batu Pahat",
        "State": "Johor"
    },
    {
        "Postcode": "83000",
        "Location": "Taman Berlian",
        "Post_Office": "Batu Pahat",
        "State": "Johor"
    },
    {
        "Postcode": "83000",
        "Location": "Taman Perwira",
        "Post_Office": "Batu Pahat",
        "State": "Johor"
    },
    {
        "Postcode": "83000",
        "Location": "Taman Puteri",
        "Post_Office": "Batu Pahat",
        "State": "Johor"
    },
    {
        "Postcode": "83000",
        "Location": "Taman Setia Jaya",
        "Post_Office": "Batu Pahat",
        "State": "Johor"
    },
    {
        "Postcode": "83000",
        "Location": "Taman Tasik",
        "Post_Office": "Batu Pahat",
        "State": "Johor"
    },
    {
        "Postcode": "83000",
        "Location": "Parit Abd Hadi",
        "Post_Office": "Batu Pahat",
        "State": "Johor"
    },
    {
        "Postcode": "83000",
        "Location": "Kampung Abd Hadi",
        "Post_Office": "Batu Pahat",
        "State": "Johor"
    },
    {
        "Postcode": "83000",
        "Location": "Parit Abd Rahman",
        "Post_Office": "Batu Pahat",
        "State": "Johor"
    },
    {
        "Postcode": "83000",
        "Location": "Kampung Parit Abd Rahman",
        "Post_Office": "Batu Pahat",
        "State": "Johor"
    },
    {
        "Postcode": "83000",
        "Location": "Parit Awang",
        "Post_Office": "Batu Pahat",
        "State": "Johor"
    },
    {
        "Postcode": "83000",
        "Location": "Kampung Parit Awang",
        "Post_Office": "Batu Pahat",
        "State": "Johor"
    },
    {
        "Postcode": "83000",
        "Location": "Parit Surau",
        "Post_Office": "Batu Pahat",
        "State": "Johor"
    },
    {
        "Postcode": "83000",
        "Location": "Kampung Parit Surau",
        "Post_Office": "Batu Pahat",
        "State": "Johor"
    },
    {
        "Postcode": "83000",
        "Location": "Kampung Linau Kecil",
        "Post_Office": "Batu Pahat",
        "State": "Johor"
    },
    {
        "Postcode": "83000",
        "Location": "Kampung Parit Haji Rasul",
        "Post_Office": "Batu Pahat",
        "State": "Johor"
    },
    {
        "Postcode": "83000",
        "Location": "Parit Moin 1",
        "Post_Office": "Batu Pahat",
        "State": "Johor"
    },
    {
        "Postcode": "83000",
        "Location": "Parit Pancor",
        "Post_Office": "Batu Pahat",
        "State": "Johor"
    },
    {
        "Postcode": "83000",
        "Location": "Taman Banang Heights",
        "Post_Office": "Batu Pahat",
        "State": "Johor"
    },
    {
        "Postcode": "83000",
        "Location": "Taman Beroleh",
        "Post_Office": "Batu Pahat",
        "State": "Johor"
    },
    {
        "Postcode": "83000",
        "Location": "Taman Bilal Jaya",
        "Post_Office": "Batu Pahat",
        "State": "Johor"
    },
    {
        "Postcode": "83000",
        "Location": "Taman Bukit Flora",
        "Post_Office": "Batu Pahat",
        "State": "Johor"
    },
    {
        "Postcode": "83000",
        "Location": "Taman Cempaka Putih",
        "Post_Office": "Batu Pahat",
        "State": "Johor"
    },
    {
        "Postcode": "83000",
        "Location": "Taman Dato Abd Rahman Jaafar",
        "Post_Office": "Batu Pahat",
        "State": "Johor"
    },
    {
        "Postcode": "83000",
        "Location": "Taman Desa Sri Banang",
        "Post_Office": "Batu Pahat",
        "State": "Johor"
    },
    {
        "Postcode": "83000",
        "Location": "Taman Evergreen Height",
        "Post_Office": "Batu Pahat",
        "State": "Johor"
    },
    {
        "Postcode": "83000",
        "Location": "Taman Evergreen Heights",
        "Post_Office": "Batu Pahat",
        "State": "Johor"
    },
    {
        "Postcode": "83000",
        "Location": "Taman Mulia Indah",
        "Post_Office": "Batu Pahat",
        "State": "Johor"
    },
    {
        "Postcode": "83000",
        "Location": "Taman Orchard Heights",
        "Post_Office": "Batu Pahat",
        "State": "Johor"
    },
    {
        "Postcode": "83000",
        "Location": "Taman Peserai Jaya",
        "Post_Office": "Batu Pahat",
        "State": "Johor"
    },
    {
        "Postcode": "83000",
        "Location": "Taman Seroja Indah",
        "Post_Office": "Batu Pahat",
        "State": "Johor"
    },
    {
        "Postcode": "83000",
        "Location": "Taman Seroja Jaya",
        "Post_Office": "Batu Pahat",
        "State": "Johor"
    },
    {
        "Postcode": "83000",
        "Location": "Taman Sri Banang",
        "Post_Office": "Batu Pahat",
        "State": "Johor"
    },
    {
        "Postcode": "83000",
        "Location": "Pusat Komersial Bentara",
        "Post_Office": "Batu Pahat",
        "State": "Johor"
    },
    {
        "Postcode": "83000",
        "Location": "Jalan Peserai",
        "Post_Office": "Batu Pahat",
        "State": "Johor"
    },
    {
        "Postcode": "83000",
        "Location": "Jalan Seruling",
        "Post_Office": "Batu Pahat",
        "State": "Johor"
    },
    {
        "Postcode": "83000",
        "Location": "Jalan Serunai",
        "Post_Office": "Batu Pahat",
        "State": "Johor"
    },
    {
        "Postcode": "83000",
        "Location": "Jalan Soga",
        "Post_Office": "Batu Pahat",
        "State": "Johor"
    },
    {
        "Postcode": "83000",
        "Location": "Kampung Parit Jalil",
        "Post_Office": "Batu Pahat",
        "State": "Johor"
    },
    {
        "Postcode": "83000",
        "Location": "Kampung Telok Bakong",
        "Post_Office": "Batu Pahat",
        "State": "Johor"
    },
    {
        "Postcode": "83000",
        "Location": "Taman Bandar",
        "Post_Office": "Batu Pahat",
        "State": "Johor"
    },
    {
        "Postcode": "83000",
        "Location": "Taman Bukit Mutiara",
        "Post_Office": "Batu Pahat",
        "State": "Johor"
    },
    {
        "Postcode": "83000",
        "Location": "Taman Bukit Pasir",
        "Post_Office": "Batu Pahat",
        "State": "Johor"
    },
    {
        "Postcode": "83000",
        "Location": "Taman Ceria",
        "Post_Office": "Batu Pahat",
        "State": "Johor"
    },
    {
        "Postcode": "83000",
        "Location": "Taman Putera Indah",
        "Post_Office": "Batu Pahat",
        "State": "Johor"
    },
    {
        "Postcode": "83000",
        "Location": "Taman Sejahtera",
        "Post_Office": "Batu Pahat",
        "State": "Johor"
    },
    {
        "Postcode": "83000",
        "Location": "Parit Sidek",
        "Post_Office": "Batu Pahat",
        "State": "Johor"
    },
    {
        "Postcode": "83000",
        "Location": "Jalan Arab",
        "Post_Office": "Batu Pahat",
        "State": "Johor"
    },
    {
        "Postcode": "83000",
        "Location": "Jalan Pasar",
        "Post_Office": "Batu Pahat",
        "State": "Johor"
    },
    {
        "Postcode": "83000",
        "Location": "Jalan Putri",
        "Post_Office": "Batu Pahat",
        "State": "Johor"
    },
    {
        "Postcode": "83000",
        "Location": "Jalan Rebana",
        "Post_Office": "Batu Pahat",
        "State": "Johor"
    },
    {
        "Postcode": "83000",
        "Location": "Kampung Baru",
        "Post_Office": "Batu Pahat",
        "State": "Johor"
    },
    {
        "Postcode": "83000",
        "Location": "Kampung Bukit Pasir",
        "Post_Office": "Batu Pahat",
        "State": "Johor"
    },
    {
        "Postcode": "83000",
        "Location": "Kampung Parit Gantong",
        "Post_Office": "Batu Pahat",
        "State": "Johor"
    },
    {
        "Postcode": "83000",
        "Location": "Kampung Parit Lapis",
        "Post_Office": "Batu Pahat",
        "State": "Johor"
    },
    {
        "Postcode": "83000",
        "Location": "Kampung Rahmat",
        "Post_Office": "Batu Pahat",
        "State": "Johor"
    },
    {
        "Postcode": "83000",
        "Location": "Kampung Telok",
        "Post_Office": "Batu Pahat",
        "State": "Johor"
    },
    {
        "Postcode": "83000",
        "Location": "Parit Amat",
        "Post_Office": "Batu Pahat",
        "State": "Johor"
    },
    {
        "Postcode": "83000",
        "Location": "Parit Haji Ali",
        "Post_Office": "Batu Pahat",
        "State": "Johor"
    },
    {
        "Postcode": "83000",
        "Location": "Parit Ibrahim",
        "Post_Office": "Batu Pahat",
        "State": "Johor"
    },
    {
        "Postcode": "83000",
        "Location": "Taman Anggerik",
        "Post_Office": "Batu Pahat",
        "State": "Johor"
    },
    {
        "Postcode": "83000",
        "Location": "Taman Bahagia",
        "Post_Office": "Batu Pahat",
        "State": "Johor"
    },
    {
        "Postcode": "83000",
        "Location": "Taman Cemara",
        "Post_Office": "Batu Pahat",
        "State": "Johor"
    },
    {
        "Postcode": "83000",
        "Location": "Taman Cemerlang",
        "Post_Office": "Batu Pahat",
        "State": "Johor"
    },
    {
        "Postcode": "83000",
        "Location": "Taman Damai",
        "Post_Office": "Batu Pahat",
        "State": "Johor"
    },
    {
        "Postcode": "83000",
        "Location": "Taman Desa",
        "Post_Office": "Batu Pahat",
        "State": "Johor"
    },
    {
        "Postcode": "83000",
        "Location": "Taman Fajar",
        "Post_Office": "Batu Pahat",
        "State": "Johor"
    },
    {
        "Postcode": "83000",
        "Location": "Taman Flora Heights",
        "Post_Office": "Batu Pahat",
        "State": "Johor"
    },
    {
        "Postcode": "83000",
        "Location": "Taman Harmoni",
        "Post_Office": "Batu Pahat",
        "State": "Johor"
    },
    {
        "Postcode": "83000",
        "Location": "Taman Indah",
        "Post_Office": "Batu Pahat",
        "State": "Johor"
    },
    {
        "Postcode": "83000",
        "Location": "Taman Intan",
        "Post_Office": "Batu Pahat",
        "State": "Johor"
    },
    {
        "Postcode": "83000",
        "Location": "Taman Koperasi",
        "Post_Office": "Batu Pahat",
        "State": "Johor"
    },
    {
        "Postcode": "83000",
        "Location": "Taman Megah",
        "Post_Office": "Batu Pahat",
        "State": "Johor"
    },
    {
        "Postcode": "83000",
        "Location": "Taman Melodi",
        "Post_Office": "Batu Pahat",
        "State": "Johor"
    },
    {
        "Postcode": "83000",
        "Location": "Taman Mewah",
        "Post_Office": "Batu Pahat",
        "State": "Johor"
    },
    {
        "Postcode": "83000",
        "Location": "Taman Molek",
        "Post_Office": "Batu Pahat",
        "State": "Johor"
    },
    {
        "Postcode": "83000",
        "Location": "Taman Murni",
        "Post_Office": "Batu Pahat",
        "State": "Johor"
    },
    {
        "Postcode": "83000",
        "Location": "Taman Pelangi",
        "Post_Office": "Batu Pahat",
        "State": "Johor"
    },
    {
        "Postcode": "83000",
        "Location": "Taman Pelangi Indah",
        "Post_Office": "Batu Pahat",
        "State": "Johor"
    },
    {
        "Postcode": "83000",
        "Location": "Taman Perdana",
        "Post_Office": "Batu Pahat",
        "State": "Johor"
    },
    {
        "Postcode": "83000",
        "Location": "Taman Perpaduan",
        "Post_Office": "Batu Pahat",
        "State": "Johor"
    },
    {
        "Postcode": "83000",
        "Location": "Taman Ria",
        "Post_Office": "Batu Pahat",
        "State": "Johor"
    },
    {
        "Postcode": "83000",
        "Location": "Taman Bakti",
        "Post_Office": "Batu Pahat",
        "State": "Johor"
    },
    {
        "Postcode": "83000",
        "Location": "Taman Maju",
        "Post_Office": "Batu Pahat",
        "State": "Johor"
    },
    {
        "Postcode": "83000",
        "Location": "Taman Pantai",
        "Post_Office": "Batu Pahat",
        "State": "Johor"
    },
    {
        "Postcode": "83000",
        "Location": "Taman Ros",
        "Post_Office": "Batu Pahat",
        "State": "Johor"
    },
    {
        "Postcode": "83000",
        "Location": "Taman Sentosa",
        "Post_Office": "Batu Pahat",
        "State": "Johor"
    },
    {
        "Postcode": "83000",
        "Location": "Taman Sri Fajar",
        "Post_Office": "Batu Pahat",
        "State": "Johor"
    },
    {
        "Postcode": "83000",
        "Location": "Taman Sri Mulia",
        "Post_Office": "Batu Pahat",
        "State": "Johor"
    },
    {
        "Postcode": "83000",
        "Location": "Taman Tasek",
        "Post_Office": "Batu Pahat",
        "State": "Johor"
    },
    {
        "Postcode": "83000",
        "Location": "Taman Wawasan",
        "Post_Office": "Batu Pahat",
        "State": "Johor"
    },
    {
        "Postcode": "83000",
        "Location": "Bagan",
        "Post_Office": "Batu Pahat",
        "State": "Johor"
    },
    {
        "Postcode": "83000",
        "Location": "Batu Pahat",
        "Post_Office": "Batu Pahat",
        "State": "Johor"
    },
    {
        "Postcode": "83000",
        "Location": "Batu Puteh",
        "Post_Office": "Batu Pahat",
        "State": "Johor"
    },
    {
        "Postcode": "83000",
        "Location": "Benting Kanan",
        "Post_Office": "Batu Pahat",
        "State": "Johor"
    },
    {
        "Postcode": "83000",
        "Location": "Benting Kiri",
        "Post_Office": "Batu Pahat",
        "State": "Johor"
    },
    {
        "Postcode": "83000",
        "Location": "Bukit Jeragan",
        "Post_Office": "Batu Pahat",
        "State": "Johor"
    },
    {
        "Postcode": "83000",
        "Location": "Gunung Soga",
        "Post_Office": "Batu Pahat",
        "State": "Johor"
    },
    {
        "Postcode": "83000",
        "Location": "Jalan Â Mustafa",
        "Post_Office": "Batu Pahat",
        "State": "Johor"
    },
    {
        "Postcode": "83000",
        "Location": "Jalan Abd. Rahman Jaffar",
        "Post_Office": "Batu Pahat",
        "State": "Johor"
    },
    {
        "Postcode": "83000",
        "Location": "Jalan Ah Mong",
        "Post_Office": "Batu Pahat",
        "State": "Johor"
    },
    {
        "Postcode": "83000",
        "Location": "Jalan Bakau Condong",
        "Post_Office": "Batu Pahat",
        "State": "Johor"
    },
    {
        "Postcode": "83000",
        "Location": "Jalan Casey",
        "Post_Office": "Batu Pahat",
        "State": "Johor"
    },
    {
        "Postcode": "83000",
        "Location": "Jalan Dato Mohd Shah",
        "Post_Office": "Batu Pahat",
        "State": "Johor"
    },
    {
        "Postcode": "83000",
        "Location": "Jalan Engan",
        "Post_Office": "Batu Pahat",
        "State": "Johor"
    },
    {
        "Postcode": "83000",
        "Location": "Jalan Fatimah",
        "Post_Office": "Batu Pahat",
        "State": "Johor"
    },
    {
        "Postcode": "83000",
        "Location": "Jalan Ghaffar",
        "Post_Office": "Batu Pahat",
        "State": "Johor"
    },
    {
        "Postcode": "83000",
        "Location": "Jalan Haji Bajuri",
        "Post_Office": "Batu Pahat",
        "State": "Johor"
    },
    {
        "Postcode": "83000",
        "Location": "Jalan Haji Basir",
        "Post_Office": "Batu Pahat",
        "State": "Johor"
    },
    {
        "Postcode": "83000",
        "Location": "Jalan Hamidon",
        "Post_Office": "Batu Pahat",
        "State": "Johor"
    },
    {
        "Postcode": "83000",
        "Location": "Jalan Idrus",
        "Post_Office": "Batu Pahat",
        "State": "Johor"
    },
    {
        "Postcode": "83000",
        "Location": "Jalan Ismail Abdullah",
        "Post_Office": "Batu Pahat",
        "State": "Johor"
    },
    {
        "Postcode": "83000",
        "Location": "Jalan Jenang",
        "Post_Office": "Batu Pahat",
        "State": "Johor"
    },
    {
        "Postcode": "83000",
        "Location": "Jalan Kluang Hingga (Km 0-Km 8)",
        "Post_Office": "Batu Pahat",
        "State": "Johor"
    },
    {
        "Postcode": "83000",
        "Location": "Jalan Lengkuas",
        "Post_Office": "Batu Pahat",
        "State": "Johor"
    },
    {
        "Postcode": "83000",
        "Location": "Jalan Lim Poon",
        "Post_Office": "Batu Pahat",
        "State": "Johor"
    },
    {
        "Postcode": "83000",
        "Location": "Jalan Lim Yew Leong",
        "Post_Office": "Batu Pahat",
        "State": "Johor"
    },
    {
        "Postcode": "83000",
        "Location": "Jalan Ludin",
        "Post_Office": "Batu Pahat",
        "State": "Johor"
    },
    {
        "Postcode": "83000",
        "Location": "Jalan Md. Akil",
        "Post_Office": "Batu Pahat",
        "State": "Johor"
    },
    {
        "Postcode": "83000",
        "Location": "Jalan Megat",
        "Post_Office": "Batu Pahat",
        "State": "Johor"
    },
    {
        "Postcode": "83000",
        "Location": "Jalan Mohd Dom",
        "Post_Office": "Batu Pahat",
        "State": "Johor"
    },
    {
        "Postcode": "83000",
        "Location": "Jalan Mohd Khalid",
        "Post_Office": "Batu Pahat",
        "State": "Johor"
    },
    {
        "Postcode": "83000",
        "Location": "Jalan Mutiara",
        "Post_Office": "Batu Pahat",
        "State": "Johor"
    },
    {
        "Postcode": "83000",
        "Location": "Jalan Pancuran Air",
        "Post_Office": "Batu Pahat",
        "State": "Johor"
    },
    {
        "Postcode": "83000",
        "Location": "Jalan Pantai Darat",
        "Post_Office": "Batu Pahat",
        "State": "Johor"
    },
    {
        "Postcode": "83000",
        "Location": "Jalan Pantai Laut",
        "Post_Office": "Batu Pahat",
        "State": "Johor"
    },
    {
        "Postcode": "83000",
        "Location": "Jalan Pantai Timur",
        "Post_Office": "Batu Pahat",
        "State": "Johor"
    },
    {
        "Postcode": "83000",
        "Location": "Jalan Pasir Tinggi",
        "Post_Office": "Batu Pahat",
        "State": "Johor"
    },
    {
        "Postcode": "83000",
        "Location": "Jalan Pegawai Dalam",
        "Post_Office": "Batu Pahat",
        "State": "Johor"
    },
    {
        "Postcode": "83000",
        "Location": "Jalan Peng Kai",
        "Post_Office": "Batu Pahat",
        "State": "Johor"
    },
    {
        "Postcode": "83000",
        "Location": "Jalan Penggaram",
        "Post_Office": "Batu Pahat",
        "State": "Johor"
    },
    {
        "Postcode": "83000",
        "Location": "Jalan Penghulu Majid",
        "Post_Office": "Batu Pahat",
        "State": "Johor"
    },
    {
        "Postcode": "83000",
        "Location": "Jalan Penjaja",
        "Post_Office": "Batu Pahat",
        "State": "Johor"
    },
    {
        "Postcode": "83000",
        "Location": "Jalan Puay Eng",
        "Post_Office": "Batu Pahat",
        "State": "Johor"
    },
    {
        "Postcode": "83000",
        "Location": "Jalan Raja Endut",
        "Post_Office": "Batu Pahat",
        "State": "Johor"
    },
    {
        "Postcode": "83000",
        "Location": "Jalan Rugayah",
        "Post_Office": "Batu Pahat",
        "State": "Johor"
    },
    {
        "Postcode": "83000",
        "Location": "Jalan Satey",
        "Post_Office": "Batu Pahat",
        "State": "Johor"
    },
    {
        "Postcode": "83000",
        "Location": "Jalan Selesa",
        "Post_Office": "Batu Pahat",
        "State": "Johor"
    },
    {
        "Postcode": "83000",
        "Location": "Jalan Shahbandar",
        "Post_Office": "Batu Pahat",
        "State": "Johor"
    },
    {
        "Postcode": "83000",
        "Location": "Jalan Soh Bok Yew",
        "Post_Office": "Batu Pahat",
        "State": "Johor"
    },
    {
        "Postcode": "83000",
        "Location": "Jalan Tabla",
        "Post_Office": "Batu Pahat",
        "State": "Johor"
    },
    {
        "Postcode": "83000",
        "Location": "Jalan Talib",
        "Post_Office": "Batu Pahat",
        "State": "Johor"
    },
    {
        "Postcode": "83000",
        "Location": "Jalan Talib Abu",
        "Post_Office": "Batu Pahat",
        "State": "Johor"
    },
    {
        "Postcode": "83000",
        "Location": "Jalan Tan Chok",
        "Post_Office": "Batu Pahat",
        "State": "Johor"
    },
    {
        "Postcode": "83000",
        "Location": "Jalan Tan Siew Hoe",
        "Post_Office": "Batu Pahat",
        "State": "Johor"
    },
    {
        "Postcode": "83000",
        "Location": "Jalan Tanjung Labuh (Km 0-Km 11)",
        "Post_Office": "Batu Pahat",
        "State": "Johor"
    },
    {
        "Postcode": "83000",
        "Location": "Jalan Temenggung",
        "Post_Office": "Batu Pahat",
        "State": "Johor"
    },
    {
        "Postcode": "83000",
        "Location": "Jalan Tukas",
        "Post_Office": "Batu Pahat",
        "State": "Johor"
    },
    {
        "Postcode": "83000",
        "Location": "Jalan Ungku Mohamad",
        "Post_Office": "Batu Pahat",
        "State": "Johor"
    },
    {
        "Postcode": "83000",
        "Location": "Jalan Zabedah",
        "Post_Office": "Batu Pahat",
        "State": "Johor"
    },
    {
        "Postcode": "83000",
        "Location": "Kampung Arab",
        "Post_Office": "Batu Pahat",
        "State": "Johor"
    },
    {
        "Postcode": "83000",
        "Location": "Kampung Asam Kumbang",
        "Post_Office": "Batu Pahat",
        "State": "Johor"
    },
    {
        "Postcode": "83000",
        "Location": "Kampung Bagan",
        "Post_Office": "Batu Pahat",
        "State": "Johor"
    },
    {
        "Postcode": "83000",
        "Location": "Kampung Bindu",
        "Post_Office": "Batu Pahat",
        "State": "Johor"
    },
    {
        "Postcode": "83000",
        "Location": "Kampung Bintang",
        "Post_Office": "Batu Pahat",
        "State": "Johor"
    },
    {
        "Postcode": "83000",
        "Location": "Kampung Broleh",
        "Post_Office": "Batu Pahat",
        "State": "Johor"
    },
    {
        "Postcode": "83000",
        "Location": "Kampung Gombak",
        "Post_Office": "Batu Pahat",
        "State": "Johor"
    },
    {
        "Postcode": "83000",
        "Location": "Kampung Istana",
        "Post_Office": "Batu Pahat",
        "State": "Johor"
    },
    {
        "Postcode": "83000",
        "Location": "Kampung Johor",
        "Post_Office": "Batu Pahat",
        "State": "Johor"
    },
    {
        "Postcode": "83000",
        "Location": "Kampung Jorak Ilahi",
        "Post_Office": "Batu Pahat",
        "State": "Johor"
    },
    {
        "Postcode": "83000",
        "Location": "Kampung Jorak Senawi",
        "Post_Office": "Batu Pahat",
        "State": "Johor"
    },
    {
        "Postcode": "83000",
        "Location": "Kampung Kaki Bukit",
        "Post_Office": "Batu Pahat",
        "State": "Johor"
    },
    {
        "Postcode": "83000",
        "Location": "Kampung Kenangan Dato Onn",
        "Post_Office": "Batu Pahat",
        "State": "Johor"
    },
    {
        "Postcode": "83000",
        "Location": "Kampung Lada Hitam",
        "Post_Office": "Batu Pahat",
        "State": "Johor"
    },
    {
        "Postcode": "83000",
        "Location": "Kampung Lapis Peserai",
        "Post_Office": "Batu Pahat",
        "State": "Johor"
    },
    {
        "Postcode": "83000",
        "Location": "Kampung Linau",
        "Post_Office": "Batu Pahat",
        "State": "Johor"
    },
    {
        "Postcode": "83000",
        "Location": "Kampung Low Piak",
        "Post_Office": "Batu Pahat",
        "State": "Johor"
    },
    {
        "Postcode": "83000",
        "Location": "Kampung Mampan",
        "Post_Office": "Batu Pahat",
        "State": "Johor"
    },
    {
        "Postcode": "83000",
        "Location": "Kampung Minyak Beku",
        "Post_Office": "Batu Pahat",
        "State": "Johor"
    },
    {
        "Postcode": "83000",
        "Location": "Kampung Muhibah",
        "Post_Office": "Batu Pahat",
        "State": "Johor"
    },
    {
        "Postcode": "83000",
        "Location": "Kampung Padang Sari",
        "Post_Office": "Batu Pahat",
        "State": "Johor"
    },
    {
        "Postcode": "83000",
        "Location": "Kampung Parit Kangkong",
        "Post_Office": "Batu Pahat",
        "State": "Johor"
    },
    {
        "Postcode": "83000",
        "Location": "Kampung Parit Lapis Laut",
        "Post_Office": "Batu Pahat",
        "State": "Johor"
    },
    {
        "Postcode": "83000",
        "Location": "Kampung Parit Mobin",
        "Post_Office": "Batu Pahat",
        "State": "Johor"
    },
    {
        "Postcode": "83000",
        "Location": "Kampung Parit Rantau",
        "Post_Office": "Batu Pahat",
        "State": "Johor"
    },
    {
        "Postcode": "83000",
        "Location": "Kampung Parit Semangai",
        "Post_Office": "Batu Pahat",
        "State": "Johor"
    },
    {
        "Postcode": "83000",
        "Location": "Kampung Parit Separap",
        "Post_Office": "Batu Pahat",
        "State": "Johor"
    },
    {
        "Postcode": "83000",
        "Location": "Kampung Patah Pedang",
        "Post_Office": "Batu Pahat",
        "State": "Johor"
    },
    {
        "Postcode": "83000",
        "Location": "Kampung Pedada Kuning",
        "Post_Office": "Batu Pahat",
        "State": "Johor"
    },
    {
        "Postcode": "83000",
        "Location": "Kampung Peserai",
        "Post_Office": "Batu Pahat",
        "State": "Johor"
    },
    {
        "Postcode": "83000",
        "Location": "Kampung Petani",
        "Post_Office": "Batu Pahat",
        "State": "Johor"
    },
    {
        "Postcode": "83000",
        "Location": "Kampung Pinang",
        "Post_Office": "Batu Pahat",
        "State": "Johor"
    },
    {
        "Postcode": "83000",
        "Location": "Kampung Rumah Tersusun",
        "Post_Office": "Batu Pahat",
        "State": "Johor"
    },
    {
        "Postcode": "83000",
        "Location": "Kampung Satay",
        "Post_Office": "Batu Pahat",
        "State": "Johor"
    },
    {
        "Postcode": "83000",
        "Location": "Kampung Separap",
        "Post_Office": "Batu Pahat",
        "State": "Johor"
    },
    {
        "Postcode": "83000",
        "Location": "Kampung Solok Wan Moh",
        "Post_Office": "Batu Pahat",
        "State": "Johor"
    },
    {
        "Postcode": "83000",
        "Location": "Kampung Sorok",
        "Post_Office": "Batu Pahat",
        "State": "Johor"
    },
    {
        "Postcode": "83000",
        "Location": "Kampung Sungai Kajang",
        "Post_Office": "Batu Pahat",
        "State": "Johor"
    },
    {
        "Postcode": "83000",
        "Location": "Kampung Sungai Tunggul",
        "Post_Office": "Batu Pahat",
        "State": "Johor"
    },
    {
        "Postcode": "83000",
        "Location": "Kampung Tambak",
        "Post_Office": "Batu Pahat",
        "State": "Johor"
    },
    {
        "Postcode": "83000",
        "Location": "Kampung Telok Buluh",
        "Post_Office": "Batu Pahat",
        "State": "Johor"
    },
    {
        "Postcode": "83000",
        "Location": "Parit Abd Salam",
        "Post_Office": "Batu Pahat",
        "State": "Johor"
    },
    {
        "Postcode": "83000",
        "Location": "Parit Ahmad Tengah",
        "Post_Office": "Batu Pahat",
        "State": "Johor"
    },
    {
        "Postcode": "83000",
        "Location": "Parit Belemam",
        "Post_Office": "Batu Pahat",
        "State": "Johor"
    },
    {
        "Postcode": "83000",
        "Location": "Parit Besar Bagan",
        "Post_Office": "Batu Pahat",
        "State": "Johor"
    },
    {
        "Postcode": "83000",
        "Location": "Parit Betung",
        "Post_Office": "Batu Pahat",
        "State": "Johor"
    },
    {
        "Postcode": "83000",
        "Location": "Parit Buloh",
        "Post_Office": "Batu Pahat",
        "State": "Johor"
    },
    {
        "Postcode": "83000",
        "Location": "Parit Haji Ali Bagan",
        "Post_Office": "Batu Pahat",
        "State": "Johor"
    },
    {
        "Postcode": "83000",
        "Location": "Parit Haji Ibrahim",
        "Post_Office": "Batu Pahat",
        "State": "Johor"
    },
    {
        "Postcode": "83000",
        "Location": "Parit Haji Moin",
        "Post_Office": "Batu Pahat",
        "State": "Johor"
    },
    {
        "Postcode": "83000",
        "Location": "Parit Haji Nor",
        "Post_Office": "Batu Pahat",
        "State": "Johor"
    },
    {
        "Postcode": "83000",
        "Location": "Parit Haji Rasol",
        "Post_Office": "Batu Pahat",
        "State": "Johor"
    },
    {
        "Postcode": "83000",
        "Location": "Parit Haji Sidek",
        "Post_Office": "Batu Pahat",
        "State": "Johor"
    },
    {
        "Postcode": "83000",
        "Location": "Parit Imam",
        "Post_Office": "Batu Pahat",
        "State": "Johor"
    },
    {
        "Postcode": "83000",
        "Location": "Parit Jabong",
        "Post_Office": "Batu Pahat",
        "State": "Johor"
    },
    {
        "Postcode": "83000",
        "Location": "Parit Lahak",
        "Post_Office": "Batu Pahat",
        "State": "Johor"
    },
    {
        "Postcode": "83000",
        "Location": "Parit Lapis Ismail",
        "Post_Office": "Batu Pahat",
        "State": "Johor"
    },
    {
        "Postcode": "83000",
        "Location": "Parit Panchor",
        "Post_Office": "Batu Pahat",
        "State": "Johor"
    },
    {
        "Postcode": "83000",
        "Location": "Parit Reduan",
        "Post_Office": "Batu Pahat",
        "State": "Johor"
    },
    {
        "Postcode": "83000",
        "Location": "Parit Saaban",
        "Post_Office": "Batu Pahat",
        "State": "Johor"
    },
    {
        "Postcode": "83000",
        "Location": "Parit Sabari",
        "Post_Office": "Batu Pahat",
        "State": "Johor"
    },
    {
        "Postcode": "83000",
        "Location": "Parit Salih",
        "Post_Office": "Batu Pahat",
        "State": "Johor"
    },
    {
        "Postcode": "83000",
        "Location": "Parit Samak",
        "Post_Office": "Batu Pahat",
        "State": "Johor"
    },
    {
        "Postcode": "83000",
        "Location": "Parit Selulon",
        "Post_Office": "Batu Pahat",
        "State": "Johor"
    },
    {
        "Postcode": "83000",
        "Location": "Parit Separap",
        "Post_Office": "Batu Pahat",
        "State": "Johor"
    },
    {
        "Postcode": "83000",
        "Location": "Parit Siba",
        "Post_Office": "Batu Pahat",
        "State": "Johor"
    },
    {
        "Postcode": "83000",
        "Location": "Parit Taman",
        "Post_Office": "Batu Pahat",
        "State": "Johor"
    },
    {
        "Postcode": "83000",
        "Location": "Parit Tebing Tinggi",
        "Post_Office": "Batu Pahat",
        "State": "Johor"
    },
    {
        "Postcode": "83000",
        "Location": "Parit Yani",
        "Post_Office": "Batu Pahat",
        "State": "Johor"
    },
    {
        "Postcode": "83000",
        "Location": "Pekan Bukit Pasir",
        "Post_Office": "Batu Pahat",
        "State": "Johor"
    },
    {
        "Postcode": "83000",
        "Location": "Penggaram",
        "Post_Office": "Batu Pahat",
        "State": "Johor"
    },
    {
        "Postcode": "83000",
        "Location": "Segenting Kuala",
        "Post_Office": "Batu Pahat",
        "State": "Johor"
    },
    {
        "Postcode": "83000",
        "Location": "Simpang Kiri",
        "Post_Office": "Batu Pahat",
        "State": "Johor"
    },
    {
        "Postcode": "83000",
        "Location": "Simpang Lima",
        "Post_Office": "Batu Pahat",
        "State": "Johor"
    },
    {
        "Postcode": "83000",
        "Location": "Simpang Rantai",
        "Post_Office": "Batu Pahat",
        "State": "Johor"
    },
    {
        "Postcode": "83000",
        "Location": "Sungai Ayam",
        "Post_Office": "Batu Pahat",
        "State": "Johor"
    },
    {
        "Postcode": "83000",
        "Location": "Sungai Suloh",
        "Post_Office": "Batu Pahat",
        "State": "Johor"
    },
    {
        "Postcode": "83000",
        "Location": "Taman Abdul Rahman Jaafar",
        "Post_Office": "Batu Pahat",
        "State": "Johor"
    },
    {
        "Postcode": "83000",
        "Location": "Taman Ampang Jaya",
        "Post_Office": "Batu Pahat",
        "State": "Johor"
    },
    {
        "Postcode": "83000",
        "Location": "Taman Ampuan",
        "Post_Office": "Batu Pahat",
        "State": "Johor"
    },
    {
        "Postcode": "83000",
        "Location": "Taman Banang",
        "Post_Office": "Batu Pahat",
        "State": "Johor"
    },
    {
        "Postcode": "83000",
        "Location": "Taman Banang Height",
        "Post_Office": "Batu Pahat",
        "State": "Johor"
    },
    {
        "Postcode": "83000",
        "Location": "Taman Banang Jaya",
        "Post_Office": "Batu Pahat",
        "State": "Johor"
    },
    {
        "Postcode": "83000",
        "Location": "Taman Banang Ria",
        "Post_Office": "Batu Pahat",
        "State": "Johor"
    },
    {
        "Postcode": "83000",
        "Location": "Taman Batu Pahat",
        "Post_Office": "Batu Pahat",
        "State": "Johor"
    },
    {
        "Postcode": "83000",
        "Location": "Taman Bendahara Jaya",
        "Post_Office": "Batu Pahat",
        "State": "Johor"
    },
    {
        "Postcode": "83000",
        "Location": "Taman Berlian Jaya",
        "Post_Office": "Batu Pahat",
        "State": "Johor"
    },
    {
        "Postcode": "83000",
        "Location": "Taman Bestari",
        "Post_Office": "Batu Pahat",
        "State": "Johor"
    },
    {
        "Postcode": "83000",
        "Location": "Taman Bilal",
        "Post_Office": "Batu Pahat",
        "State": "Johor"
    },
    {
        "Postcode": "83000",
        "Location": "Taman Broleh",
        "Post_Office": "Batu Pahat",
        "State": "Johor"
    },
    {
        "Postcode": "83000",
        "Location": "Taman Budaya",
        "Post_Office": "Batu Pahat",
        "State": "Johor"
    },
    {
        "Postcode": "83000",
        "Location": "Taman Budaya Jaya",
        "Post_Office": "Batu Pahat",
        "State": "Johor"
    },
    {
        "Postcode": "83000",
        "Location": "Taman Bukit Perdana",
        "Post_Office": "Batu Pahat",
        "State": "Johor"
    },
    {
        "Postcode": "83000",
        "Location": "Taman Cahaya Purnama",
        "Post_Office": "Batu Pahat",
        "State": "Johor"
    },
    {
        "Postcode": "83000",
        "Location": "Taman Cemerlang Jaya",
        "Post_Office": "Batu Pahat",
        "State": "Johor"
    },
    {
        "Postcode": "83000",
        "Location": "Taman Dagang",
        "Post_Office": "Batu Pahat",
        "State": "Johor"
    },
    {
        "Postcode": "83000",
        "Location": "Taman Dato Abdul Rahman Jaafar",
        "Post_Office": "Batu Pahat",
        "State": "Johor"
    },
    {
        "Postcode": "83000",
        "Location": "Taman Desa Suria",
        "Post_Office": "Batu Pahat",
        "State": "Johor"
    },
    {
        "Postcode": "83000",
        "Location": "Taman Emas Jaya",
        "Post_Office": "Batu Pahat",
        "State": "Johor"
    },
    {
        "Postcode": "83000",
        "Location": "Taman Emas Suria",
        "Post_Office": "Batu Pahat",
        "State": "Johor"
    },
    {
        "Postcode": "83000",
        "Location": "Taman Evergreen",
        "Post_Office": "Batu Pahat",
        "State": "Johor"
    },
    {
        "Postcode": "83000",
        "Location": "Taman Flora",
        "Post_Office": "Batu Pahat",
        "State": "Johor"
    },
    {
        "Postcode": "83000",
        "Location": "Taman Flora Jaya",
        "Post_Office": "Batu Pahat",
        "State": "Johor"
    },
    {
        "Postcode": "83000",
        "Location": "Taman Flora Utama",
        "Post_Office": "Batu Pahat",
        "State": "Johor"
    },
    {
        "Postcode": "83000",
        "Location": "Taman Hajat",
        "Post_Office": "Batu Pahat",
        "State": "Johor"
    },
    {
        "Postcode": "83000",
        "Location": "Taman Industri Damai Plus",
        "Post_Office": "Batu Pahat",
        "State": "Johor"
    },
    {
        "Postcode": "83000",
        "Location": "Taman Istana",
        "Post_Office": "Batu Pahat",
        "State": "Johor"
    },
    {
        "Postcode": "83000",
        "Location": "Taman Joseph",
        "Post_Office": "Batu Pahat",
        "State": "Johor"
    },
    {
        "Postcode": "83000",
        "Location": "Taman Kapal Layar",
        "Post_Office": "Batu Pahat",
        "State": "Johor"
    },
    {
        "Postcode": "83000",
        "Location": "Taman Kemajuan",
        "Post_Office": "Batu Pahat",
        "State": "Johor"
    },
    {
        "Postcode": "83000",
        "Location": "Taman Kemunting",
        "Post_Office": "Batu Pahat",
        "State": "Johor"
    },
    {
        "Postcode": "83000",
        "Location": "Taman Koperasi Bahagia",
        "Post_Office": "Batu Pahat",
        "State": "Johor"
    },
    {
        "Postcode": "83000",
        "Location": "Taman Kota Murni",
        "Post_Office": "Batu Pahat",
        "State": "Johor"
    },
    {
        "Postcode": "83000",
        "Location": "Taman Lim Poon",
        "Post_Office": "Batu Pahat",
        "State": "Johor"
    },
    {
        "Postcode": "83000",
        "Location": "Taman Linau",
        "Post_Office": "Batu Pahat",
        "State": "Johor"
    },
    {
        "Postcode": "83000",
        "Location": "Taman Mahawangsa",
        "Post_Office": "Batu Pahat",
        "State": "Johor"
    },
    {
        "Postcode": "83000",
        "Location": "Taman Melianium",
        "Post_Office": "Batu Pahat",
        "State": "Johor"
    },
    {
        "Postcode": "83000",
        "Location": "Taman Miri",
        "Post_Office": "Batu Pahat",
        "State": "Johor"
    },
    {
        "Postcode": "83000",
        "Location": "Taman Nira",
        "Post_Office": "Batu Pahat",
        "State": "Johor"
    },
    {
        "Postcode": "83000",
        "Location": "Taman Oked",
        "Post_Office": "Batu Pahat",
        "State": "Johor"
    },
    {
        "Postcode": "83000",
        "Location": "Taman Orchid Heights",
        "Post_Office": "Batu Pahat",
        "State": "Johor"
    },
    {
        "Postcode": "83000",
        "Location": "Taman Pantai Baru",
        "Post_Office": "Batu Pahat",
        "State": "Johor"
    },
    {
        "Postcode": "83000",
        "Location": "Taman Pasifik Selatan",
        "Post_Office": "Batu Pahat",
        "State": "Johor"
    },
    {
        "Postcode": "83000",
        "Location": "Taman Penggaram",
        "Post_Office": "Batu Pahat",
        "State": "Johor"
    },
    {
        "Postcode": "83000",
        "Location": "Taman Peserai",
        "Post_Office": "Batu Pahat",
        "State": "Johor"
    },
    {
        "Postcode": "83000",
        "Location": "Taman Putera 2",
        "Post_Office": "Batu Pahat",
        "State": "Johor"
    },
    {
        "Postcode": "83000",
        "Location": "Taman Putera Jaya",
        "Post_Office": "Batu Pahat",
        "State": "Johor"
    },
    {
        "Postcode": "83000",
        "Location": "Taman Puteri Indah",
        "Post_Office": "Batu Pahat",
        "State": "Johor"
    },
    {
        "Postcode": "83000",
        "Location": "Taman Puteri Indah Utama",
        "Post_Office": "Batu Pahat",
        "State": "Johor"
    },
    {
        "Postcode": "83000",
        "Location": "Taman Puteri Jaya",
        "Post_Office": "Batu Pahat",
        "State": "Johor"
    },
    {
        "Postcode": "83000",
        "Location": "Taman Puteri Jaya 2",
        "Post_Office": "Batu Pahat",
        "State": "Johor"
    },
    {
        "Postcode": "83000",
        "Location": "Taman Santalia",
        "Post_Office": "Batu Pahat",
        "State": "Johor"
    },
    {
        "Postcode": "83000",
        "Location": "Taman Seri Kenangan",
        "Post_Office": "Batu Pahat",
        "State": "Johor"
    },
    {
        "Postcode": "83000",
        "Location": "Taman Seri Penggaram",
        "Post_Office": "Batu Pahat",
        "State": "Johor"
    },
    {
        "Postcode": "83000",
        "Location": "Taman Seri Saga",
        "Post_Office": "Batu Pahat",
        "State": "Johor"
    },
    {
        "Postcode": "83000",
        "Location": "Taman Simpang Lima",
        "Post_Office": "Batu Pahat",
        "State": "Johor"
    },
    {
        "Postcode": "83000",
        "Location": "Taman Soga",
        "Post_Office": "Batu Pahat",
        "State": "Johor"
    },
    {
        "Postcode": "83000",
        "Location": "Taman Sri Berlian",
        "Post_Office": "Batu Pahat",
        "State": "Johor"
    },
    {
        "Postcode": "83000",
        "Location": "Taman Sri Idaman",
        "Post_Office": "Batu Pahat",
        "State": "Johor"
    },
    {
        "Postcode": "83000",
        "Location": "Taman Sri Molek",
        "Post_Office": "Batu Pahat",
        "State": "Johor"
    },
    {
        "Postcode": "83000",
        "Location": "Taman Sri Saga",
        "Post_Office": "Batu Pahat",
        "State": "Johor"
    },
    {
        "Postcode": "83000",
        "Location": "Taman Sri Wangi",
        "Post_Office": "Batu Pahat",
        "State": "Johor"
    },
    {
        "Postcode": "83000",
        "Location": "Taman Sri Wangsa",
        "Post_Office": "Batu Pahat",
        "State": "Johor"
    },
    {
        "Postcode": "83000",
        "Location": "Taman Syed Esa",
        "Post_Office": "Batu Pahat",
        "State": "Johor"
    },
    {
        "Postcode": "83000",
        "Location": "Taman Tanah Merah",
        "Post_Office": "Batu Pahat",
        "State": "Johor"
    },
    {
        "Postcode": "83000",
        "Location": "Taman Tanjung",
        "Post_Office": "Batu Pahat",
        "State": "Johor"
    },
    {
        "Postcode": "83000",
        "Location": "Taman Tanjung Indah",
        "Post_Office": "Batu Pahat",
        "State": "Johor"
    },
    {
        "Postcode": "83000",
        "Location": "Taman Tasek Merdeka",
        "Post_Office": "Batu Pahat",
        "State": "Johor"
    },
    {
        "Postcode": "83000",
        "Location": "Taman Wiramas",
        "Post_Office": "Batu Pahat",
        "State": "Johor"
    }
]
