[
    {
        "Postcode": "83200",
        "Location": "Jalan Ismail",
        "Post_Office": "Senggarang",
        "State": "Johor"
    },
    {
        "Postcode": "83200",
        "Location": "Taman Sri Bahagia",
        "Post_Office": "Senggarang",
        "State": "Johor"
    },
    {
        "Postcode": "83200",
        "Location": "Kampung Parit Raja Laut",
        "Post_Office": "Senggarang",
        "State": "Johor"
    },
    {
        "Postcode": "83200",
        "Location": "Taman Jasa",
        "Post_Office": "Senggarang",
        "State": "Johor"
    },
    {
        "Postcode": "83200",
        "Location": "Taman Sri Mewah",
        "Post_Office": "Senggarang",
        "State": "Johor"
    },
    {
        "Postcode": "83200",
        "Location": "Kampung Parit Lapis Kadir Darat",
        "Post_Office": "Senggarang",
        "State": "Johor"
    },
    {
        "Postcode": "83200",
        "Location": "Kampung Parit Bakong",
        "Post_Office": "Senggarang",
        "State": "Johor"
    },
    {
        "Postcode": "83200",
        "Location": "Kampung Tanjung Laboh",
        "Post_Office": "Senggarang",
        "State": "Johor"
    },
    {
        "Postcode": "83200",
        "Location": "Batu 8 Kampung Muhibbah",
        "Post_Office": "Senggarang",
        "State": "Johor"
    },
    {
        "Postcode": "83200",
        "Location": "Kampung Baru",
        "Post_Office": "Senggarang",
        "State": "Johor"
    },
    {
        "Postcode": "83200",
        "Location": "Kampung Muhibbah",
        "Post_Office": "Senggarang",
        "State": "Johor"
    },
    {
        "Postcode": "83200",
        "Location": "Kampung Parit Bugis",
        "Post_Office": "Senggarang",
        "State": "Johor"
    },
    {
        "Postcode": "83200",
        "Location": "Kampung Parit Kadir",
        "Post_Office": "Senggarang",
        "State": "Johor"
    },
    {
        "Postcode": "83200",
        "Location": "Parit Ahmad",
        "Post_Office": "Senggarang",
        "State": "Johor"
    },
    {
        "Postcode": "83200",
        "Location": "Parit Aman",
        "Post_Office": "Senggarang",
        "State": "Johor"
    },
    {
        "Postcode": "83200",
        "Location": "Parit Penghulu",
        "Post_Office": "Senggarang",
        "State": "Johor"
    },
    {
        "Postcode": "83200",
        "Location": "Parit Raja",
        "Post_Office": "Senggarang",
        "State": "Johor"
    },
    {
        "Postcode": "83200",
        "Location": "Parit Terus",
        "Post_Office": "Senggarang",
        "State": "Johor"
    },
    {
        "Postcode": "83200",
        "Location": "Taman Bahagia",
        "Post_Office": "Senggarang",
        "State": "Johor"
    },
    {
        "Postcode": "83200",
        "Location": "Taman Bistari",
        "Post_Office": "Senggarang",
        "State": "Johor"
    },
    {
        "Postcode": "83200",
        "Location": "Taman Nagaria",
        "Post_Office": "Senggarang",
        "State": "Johor"
    },
    {
        "Postcode": "83200",
        "Location": "Taman Sri Cahaya",
        "Post_Office": "Senggarang",
        "State": "Johor"
    },
    {
        "Postcode": "83200",
        "Location": "Taman Sri Murni",
        "Post_Office": "Senggarang",
        "State": "Johor"
    },
    {
        "Postcode": "83200",
        "Location": "Batu 11 Bukit Batu",
        "Post_Office": "Senggarang",
        "State": "Johor"
    },
    {
        "Postcode": "83200",
        "Location": "Batu 13 1/2 Jalan Benut",
        "Post_Office": "Senggarang",
        "State": "Johor"
    },
    {
        "Postcode": "83200",
        "Location": "Batu 7 Kampung Kelicap Cina",
        "Post_Office": "Senggarang",
        "State": "Johor"
    },
    {
        "Postcode": "83200",
        "Location": "Batu 7 Kampung Kelicap Melayu",
        "Post_Office": "Senggarang",
        "State": "Johor"
    },
    {
        "Postcode": "83200",
        "Location": "Batu 8 Kampung Kelicap",
        "Post_Office": "Senggarang",
        "State": "Johor"
    },
    {
        "Postcode": "83200",
        "Location": "Batu 8 Tanjong Laboh",
        "Post_Office": "Senggarang",
        "State": "Johor"
    },
    {
        "Postcode": "83200",
        "Location": "Bukit Batu Laut",
        "Post_Office": "Senggarang",
        "State": "Johor"
    },
    {
        "Postcode": "83200",
        "Location": "Jalan Gate Air",
        "Post_Office": "Senggarang",
        "State": "Johor"
    },
    {
        "Postcode": "83200",
        "Location": "Jalan Malaysia",
        "Post_Office": "Senggarang",
        "State": "Johor"
    },
    {
        "Postcode": "83200",
        "Location": "Jalan Parit Bugis",
        "Post_Office": "Senggarang",
        "State": "Johor"
    },
    {
        "Postcode": "83200",
        "Location": "Jalan Parit Permatang",
        "Post_Office": "Senggarang",
        "State": "Johor"
    },
    {
        "Postcode": "83200",
        "Location": "Jalan Tangki Air",
        "Post_Office": "Senggarang",
        "State": "Johor"
    },
    {
        "Postcode": "83200",
        "Location": "Kampung Al Amin",
        "Post_Office": "Senggarang",
        "State": "Johor"
    },
    {
        "Postcode": "83200",
        "Location": "Kampung 'Bukit Batu",
        "Post_Office": "Senggarang",
        "State": "Johor"
    },
    {
        "Postcode": "83200",
        "Location": "Kampung Bukit Batu Darat",
        "Post_Office": "Senggarang",
        "State": "Johor"
    },
    {
        "Postcode": "83200",
        "Location": "Kampung Bukit Batu Tengah",
        "Post_Office": "Senggarang",
        "State": "Johor"
    },
    {
        "Postcode": "83200",
        "Location": "Kampung Bukit Kelicap",
        "Post_Office": "Senggarang",
        "State": "Johor"
    },
    {
        "Postcode": "83200",
        "Location": "Kampung Koris",
        "Post_Office": "Senggarang",
        "State": "Johor"
    },
    {
        "Postcode": "83200",
        "Location": "Kampung Lapis Bereng",
        "Post_Office": "Senggarang",
        "State": "Johor"
    },
    {
        "Postcode": "83200",
        "Location": "Kampung Lapis Sri Dalam Darat",
        "Post_Office": "Senggarang",
        "State": "Johor"
    },
    {
        "Postcode": "83200",
        "Location": "Kampung Lapis Sri Dalam Laut",
        "Post_Office": "Senggarang",
        "State": "Johor"
    },
    {
        "Postcode": "83200",
        "Location": "Kampung Lapis Sungai Lurus",
        "Post_Office": "Senggarang",
        "State": "Johor"
    },
    {
        "Postcode": "83200",
        "Location": "Kampung Muhibbah Jaya",
        "Post_Office": "Senggarang",
        "State": "Johor"
    },
    {
        "Postcode": "83200",
        "Location": "Kampung Parit Dua",
        "Post_Office": "Senggarang",
        "State": "Johor"
    },
    {
        "Postcode": "83200",
        "Location": "Kampung Parit Empat",
        "Post_Office": "Senggarang",
        "State": "Johor"
    },
    {
        "Postcode": "83200",
        "Location": "Kampung Parit Enjin",
        "Post_Office": "Senggarang",
        "State": "Johor"
    },
    {
        "Postcode": "83200",
        "Location": "Kampung Parit Hailam",
        "Post_Office": "Senggarang",
        "State": "Johor"
    },
    {
        "Postcode": "83200",
        "Location": "Kampung Parit Hamid",
        "Post_Office": "Senggarang",
        "State": "Johor"
    },
    {
        "Postcode": "83200",
        "Location": "Kampung Parit Juraimi",
        "Post_Office": "Senggarang",
        "State": "Johor"
    },
    {
        "Postcode": "83200",
        "Location": "Kampung Parit Kadir Darat",
        "Post_Office": "Senggarang",
        "State": "Johor"
    },
    {
        "Postcode": "83200",
        "Location": "Kampung Parit Kadir Laut",
        "Post_Office": "Senggarang",
        "State": "Johor"
    },
    {
        "Postcode": "83200",
        "Location": "Kampung Parit Kalong Gantong",
        "Post_Office": "Senggarang",
        "State": "Johor"
    },
    {
        "Postcode": "83200",
        "Location": "Kampung Parit Kaseh",
        "Post_Office": "Senggarang",
        "State": "Johor"
    },
    {
        "Postcode": "83200",
        "Location": "Kampung Parit Kemang",
        "Post_Office": "Senggarang",
        "State": "Johor"
    },
    {
        "Postcode": "83200",
        "Location": "Kampung Parit Lapis Kadir",
        "Post_Office": "Senggarang",
        "State": "Johor"
    },
    {
        "Postcode": "83200",
        "Location": "Kampung Parit Mahang",
        "Post_Office": "Senggarang",
        "State": "Johor"
    },
    {
        "Postcode": "83200",
        "Location": "Kampung Parit Makmor",
        "Post_Office": "Senggarang",
        "State": "Johor"
    },
    {
        "Postcode": "83200",
        "Location": "Kampung Parit Permatang",
        "Post_Office": "Senggarang",
        "State": "Johor"
    },
    {
        "Postcode": "83200",
        "Location": "Kampung Parit Punggur Darat",
        "Post_Office": "Senggarang",
        "State": "Johor"
    },
    {
        "Postcode": "83200",
        "Location": "Kampung Parit Rejo Sari",
        "Post_Office": "Senggarang",
        "State": "Johor"
    },
    {
        "Postcode": "83200",
        "Location": "Kampung Parit Rostam",
        "Post_Office": "Senggarang",
        "State": "Johor"
    },
    {
        "Postcode": "83200",
        "Location": "Kampung Parit Saidi",
        "Post_Office": "Senggarang",
        "State": "Johor"
    },
    {
        "Postcode": "83200",
        "Location": "Kampung Parit Sayang",
        "Post_Office": "Senggarang",
        "State": "Johor"
    },
    {
        "Postcode": "83200",
        "Location": "Kampung Parit Simpan",
        "Post_Office": "Senggarang",
        "State": "Johor"
    },
    {
        "Postcode": "83200",
        "Location": "Kampung Parit Sri Baharum Darat",
        "Post_Office": "Senggarang",
        "State": "Johor"
    },
    {
        "Postcode": "83200",
        "Location": "Kampung Parit Sri Dalam Darat",
        "Post_Office": "Senggarang",
        "State": "Johor"
    },
    {
        "Postcode": "83200",
        "Location": "Kampung Parit Sri Dalam Laut",
        "Post_Office": "Senggarang",
        "State": "Johor"
    },
    {
        "Postcode": "83200",
        "Location": "Kampung Parit Sri Menanti",
        "Post_Office": "Senggarang",
        "State": "Johor"
    },
    {
        "Postcode": "83200",
        "Location": "Kampung Parit Teriman Darat",
        "Post_Office": "Senggarang",
        "State": "Johor"
    },
    {
        "Postcode": "83200",
        "Location": "Kampung Parit Teriman Laut",
        "Post_Office": "Senggarang",
        "State": "Johor"
    },
    {
        "Postcode": "83200",
        "Location": "Kampung Pasir Lebar Barat",
        "Post_Office": "Senggarang",
        "State": "Johor"
    },
    {
        "Postcode": "83200",
        "Location": "Kampung Rejo Sari",
        "Post_Office": "Senggarang",
        "State": "Johor"
    },
    {
        "Postcode": "83200",
        "Location": "Kampung Simpang 6",
        "Post_Office": "Senggarang",
        "State": "Johor"
    },
    {
        "Postcode": "83200",
        "Location": "Kampung Simpang Enam",
        "Post_Office": "Senggarang",
        "State": "Johor"
    },
    {
        "Postcode": "83200",
        "Location": "Kampung Sri Menanti Darat",
        "Post_Office": "Senggarang",
        "State": "Johor"
    },
    {
        "Postcode": "83200",
        "Location": "Kampung Sri Menanti Laut",
        "Post_Office": "Senggarang",
        "State": "Johor"
    },
    {
        "Postcode": "83200",
        "Location": "Kampung Sri Pantai",
        "Post_Office": "Senggarang",
        "State": "Johor"
    },
    {
        "Postcode": "83200",
        "Location": "Kampung Sungai Baru",
        "Post_Office": "Senggarang",
        "State": "Johor"
    },
    {
        "Postcode": "83200",
        "Location": "Kampung Sungai Benong",
        "Post_Office": "Senggarang",
        "State": "Johor"
    },
    {
        "Postcode": "83200",
        "Location": "Kampung Sungai Berong",
        "Post_Office": "Senggarang",
        "State": "Johor"
    },
    {
        "Postcode": "83200",
        "Location": "Kampung Sungai Buloh",
        "Post_Office": "Senggarang",
        "State": "Johor"
    },
    {
        "Postcode": "83200",
        "Location": "Kampung Sungai Kalong",
        "Post_Office": "Senggarang",
        "State": "Johor"
    },
    {
        "Postcode": "83200",
        "Location": "Kampung Sungai Lebar",
        "Post_Office": "Senggarang",
        "State": "Johor"
    },
    {
        "Postcode": "83200",
        "Location": "Kampung Sungai Lurus",
        "Post_Office": "Senggarang",
        "State": "Johor"
    },
    {
        "Postcode": "83200",
        "Location": "Kampung Sungai Lurus Laut",
        "Post_Office": "Senggarang",
        "State": "Johor"
    },
    {
        "Postcode": "83200",
        "Location": "Kuala Senggarang",
        "Post_Office": "Senggarang",
        "State": "Johor"
    },
    {
        "Postcode": "83200",
        "Location": "Parit Amat Koris",
        "Post_Office": "Senggarang",
        "State": "Johor"
    },
    {
        "Postcode": "83200",
        "Location": "Parit Bakong",
        "Post_Office": "Senggarang",
        "State": "Johor"
    },
    {
        "Postcode": "83200",
        "Location": "Parit Balak",
        "Post_Office": "Senggarang",
        "State": "Johor"
    },
    {
        "Postcode": "83200",
        "Location": "Parit Botak",
        "Post_Office": "Senggarang",
        "State": "Johor"
    },
    {
        "Postcode": "83200",
        "Location": "Parit Hailam",
        "Post_Office": "Senggarang",
        "State": "Johor"
    },
    {
        "Postcode": "83200",
        "Location": "Parit Hamid Parit Jabar",
        "Post_Office": "Senggarang",
        "State": "Johor"
    },
    {
        "Postcode": "83200",
        "Location": "Parit Jabar",
        "Post_Office": "Senggarang",
        "State": "Johor"
    },
    {
        "Postcode": "83200",
        "Location": "Parit Kaseh",
        "Post_Office": "Senggarang",
        "State": "Johor"
    },
    {
        "Postcode": "83200",
        "Location": "Parit Lapis Berong",
        "Post_Office": "Senggarang",
        "State": "Johor"
    },
    {
        "Postcode": "83200",
        "Location": "Parit Lapis Kadir",
        "Post_Office": "Senggarang",
        "State": "Johor"
    },
    {
        "Postcode": "83200",
        "Location": "Parit Lapis Mahang",
        "Post_Office": "Senggarang",
        "State": "Johor"
    },
    {
        "Postcode": "83200",
        "Location": "Parit Lapis Sri Dalam",
        "Post_Office": "Senggarang",
        "State": "Johor"
    },
    {
        "Postcode": "83200",
        "Location": "Parit Maamor",
        "Post_Office": "Senggarang",
        "State": "Johor"
    },
    {
        "Postcode": "83200",
        "Location": "Parit Mahang",
        "Post_Office": "Senggarang",
        "State": "Johor"
    },
    {
        "Postcode": "83200",
        "Location": "Parit Penghulu Koris",
        "Post_Office": "Senggarang",
        "State": "Johor"
    },
    {
        "Postcode": "83200",
        "Location": "Parit Permatang",
        "Post_Office": "Senggarang",
        "State": "Johor"
    },
    {
        "Postcode": "83200",
        "Location": "Parit Saidi",
        "Post_Office": "Senggarang",
        "State": "Johor"
    },
    {
        "Postcode": "83200",
        "Location": "Parit Seri Dalam",
        "Post_Office": "Senggarang",
        "State": "Johor"
    },
    {
        "Postcode": "83200",
        "Location": "Parit Sungai Lurus Pasir Lebar Barat",
        "Post_Office": "Senggarang",
        "State": "Johor"
    },
    {
        "Postcode": "83200",
        "Location": "Parit Sungai Lurus Pasir Lebar Timur",
        "Post_Office": "Senggarang",
        "State": "Johor"
    },
    {
        "Postcode": "83200",
        "Location": "Parit Tariman",
        "Post_Office": "Senggarang",
        "State": "Johor"
    },
    {
        "Postcode": "83200",
        "Location": "Pekan Kelichap",
        "Post_Office": "Senggarang",
        "State": "Johor"
    },
    {
        "Postcode": "83200",
        "Location": "Senggarang",
        "Post_Office": "Senggarang",
        "State": "Johor"
    },
    {
        "Postcode": "83200",
        "Location": "Seri Molek",
        "Post_Office": "Senggarang",
        "State": "Johor"
    },
    {
        "Postcode": "83200",
        "Location": "Taman Anika",
        "Post_Office": "Senggarang",
        "State": "Johor"
    },
    {
        "Postcode": "83200",
        "Location": "Taman Naga Utama",
        "Post_Office": "Senggarang",
        "State": "Johor"
    },
    {
        "Postcode": "83200",
        "Location": "Taman Nagaria 1",
        "Post_Office": "Senggarang",
        "State": "Johor"
    },
    {
        "Postcode": "83200",
        "Location": "Taman Nagaria 2",
        "Post_Office": "Senggarang",
        "State": "Johor"
    },
    {
        "Postcode": "83200",
        "Location": "Taman Nagaria 3",
        "Post_Office": "Senggarang",
        "State": "Johor"
    },
    {
        "Postcode": "83200",
        "Location": "Taman Seberang Barat",
        "Post_Office": "Senggarang",
        "State": "Johor"
    },
    {
        "Postcode": "83200",
        "Location": "Taman Senggarang",
        "Post_Office": "Senggarang",
        "State": "Johor"
    },
    {
        "Postcode": "83200",
        "Location": "Taman Senggarang 2",
        "Post_Office": "Senggarang",
        "State": "Johor"
    },
    {
        "Postcode": "83200",
        "Location": "Taman Senggarang Damai",
        "Post_Office": "Senggarang",
        "State": "Johor"
    },
    {
        "Postcode": "83200",
        "Location": "Taman Sri Raya",
        "Post_Office": "Senggarang",
        "State": "Johor"
    },
    {
        "Postcode": "83200",
        "Location": "Taman Sri Senggarang",
        "Post_Office": "Senggarang",
        "State": "Johor"
    },
    {
        "Postcode": "83200",
        "Location": "Taman Sri Senggarang Dua",
        "Post_Office": "Senggarang",
        "State": "Johor"
    },
    {
        "Postcode": "83200",
        "Location": "Tanjung Laboh Estate",
        "Post_Office": "Senggarang",
        "State": "Johor"
    }
]
