[
    {
        "Postcode": "83300",
        "Location": "Taman Pertama",
        "Post_Office": "Seri Gading",
        "State": "Johor"
    },
    {
        "Postcode": "83300",
        "Location": "Kampung Parit Bengkok",
        "Post_Office": "Seri Gading",
        "State": "Johor"
    },
    {
        "Postcode": "83300",
        "Location": "Kampung Sri Gading",
        "Post_Office": "Seri Gading",
        "State": "Johor"
    },
    {
        "Postcode": "83300",
        "Location": "Taman Panchor Riang",
        "Post_Office": "Seri Gading",
        "State": "Johor"
    },
    {
        "Postcode": "83300",
        "Location": "Taman Pura Kencana",
        "Post_Office": "Seri Gading",
        "State": "Johor"
    },
    {
        "Postcode": "83300",
        "Location": "Kawasan Perindustrian Sri Gading",
        "Post_Office": "Seri Gading",
        "State": "Johor"
    },
    {
        "Postcode": "83300",
        "Location": "Taman Ria Jaya",
        "Post_Office": "Seri Gading",
        "State": "Johor"
    },
    {
        "Postcode": "83300",
        "Location": "Jalan Tiong Nam 1",
        "Post_Office": "Seri Gading",
        "State": "Johor"
    },
    {
        "Postcode": "83300",
        "Location": "Kampung Pasir Panjang",
        "Post_Office": "Seri Gading",
        "State": "Johor"
    },
    {
        "Postcode": "83300",
        "Location": "Lorong 2",
        "Post_Office": "Seri Gading",
        "State": "Johor"
    },
    {
        "Postcode": "83300",
        "Location": "Lorong 3",
        "Post_Office": "Seri Gading",
        "State": "Johor"
    },
    {
        "Postcode": "83300",
        "Location": "Lorong Surau",
        "Post_Office": "Seri Gading",
        "State": "Johor"
    },
    {
        "Postcode": "83300",
        "Location": "Taman Gading Jaya",
        "Post_Office": "Seri Gading",
        "State": "Johor"
    },
    {
        "Postcode": "83300",
        "Location": "Kampung Baru",
        "Post_Office": "Seri Gading",
        "State": "Johor"
    },
    {
        "Postcode": "83300",
        "Location": "Kampung Parit Haji Salleh",
        "Post_Office": "Seri Gading",
        "State": "Johor"
    },
    {
        "Postcode": "83300",
        "Location": "Kampung Sri Tanjung",
        "Post_Office": "Seri Gading",
        "State": "Johor"
    },
    {
        "Postcode": "83300",
        "Location": "Taman Ria",
        "Post_Office": "Seri Gading",
        "State": "Johor"
    },
    {
        "Postcode": "83300",
        "Location": "Taman Sri Mutiara",
        "Post_Office": "Seri Gading",
        "State": "Johor"
    },
    {
        "Postcode": "83300",
        "Location": "Taman Industri",
        "Post_Office": "Seri Gading",
        "State": "Johor"
    },
    {
        "Postcode": "83300",
        "Location": "Taman Mutiara",
        "Post_Office": "Seri Gading",
        "State": "Johor"
    },
    {
        "Postcode": "83300",
        "Location": "Taman Sri Panchor",
        "Post_Office": "Seri Gading",
        "State": "Johor"
    },
    {
        "Postcode": "83300",
        "Location": "Batu 5 Jalan Kluang",
        "Post_Office": "Seri Gading",
        "State": "Johor"
    },
    {
        "Postcode": "83300",
        "Location": "Batu 6 1/2 Jalan Kluang",
        "Post_Office": "Seri Gading",
        "State": "Johor"
    },
    {
        "Postcode": "83300",
        "Location": "Batu 6 Jalan Kluang",
        "Post_Office": "Seri Gading",
        "State": "Johor"
    },
    {
        "Postcode": "83300",
        "Location": "Batu 7 Jalan Kluang",
        "Post_Office": "Seri Gading",
        "State": "Johor"
    },
    {
        "Postcode": "83300",
        "Location": "Batu 9 Jalan Kluang",
        "Post_Office": "Seri Gading",
        "State": "Johor"
    },
    {
        "Postcode": "83300",
        "Location": "Kampung Parit Budin",
        "Post_Office": "Seri Gading",
        "State": "Johor"
    },
    {
        "Postcode": "83300",
        "Location": "Kampung Parit Burah",
        "Post_Office": "Seri Gading",
        "State": "Johor"
    },
    {
        "Postcode": "83300",
        "Location": "Kampung Parit Haji Hassan",
        "Post_Office": "Seri Gading",
        "State": "Johor"
    },
    {
        "Postcode": "83300",
        "Location": "Kampung Parit Haji Khamis",
        "Post_Office": "Seri Gading",
        "State": "Johor"
    },
    {
        "Postcode": "83300",
        "Location": "Kampung Sengkuang",
        "Post_Office": "Seri Gading",
        "State": "Johor"
    },
    {
        "Postcode": "83300",
        "Location": "Kampung Seri Bengkal",
        "Post_Office": "Seri Gading",
        "State": "Johor"
    },
    {
        "Postcode": "83300",
        "Location": "Lorong 4",
        "Post_Office": "Seri Gading",
        "State": "Johor"
    },
    {
        "Postcode": "83300",
        "Location": "Lorong 5",
        "Post_Office": "Seri Gading",
        "State": "Johor"
    },
    {
        "Postcode": "83300",
        "Location": "Lorong 6",
        "Post_Office": "Seri Gading",
        "State": "Johor"
    },
    {
        "Postcode": "83300",
        "Location": "Lorong 7",
        "Post_Office": "Seri Gading",
        "State": "Johor"
    },
    {
        "Postcode": "83300",
        "Location": "Lorong Kampung Cina",
        "Post_Office": "Seri Gading",
        "State": "Johor"
    },
    {
        "Postcode": "83300",
        "Location": "Lorong Tawakal",
        "Post_Office": "Seri Gading",
        "State": "Johor"
    },
    {
        "Postcode": "83300",
        "Location": "Parit Haji Hassan",
        "Post_Office": "Seri Gading",
        "State": "Johor"
    },
    {
        "Postcode": "83300",
        "Location": "Parit Haji Kamis",
        "Post_Office": "Seri Gading",
        "State": "Johor"
    },
    {
        "Postcode": "83300",
        "Location": "Pekan Sri Gading",
        "Post_Office": "Seri Gading",
        "State": "Johor"
    },
    {
        "Postcode": "83300",
        "Location": "Seri Gading",
        "Post_Office": "Seri Gading",
        "State": "Johor"
    },
    {
        "Postcode": "83300",
        "Location": "Taman Bahagia Baru",
        "Post_Office": "Seri Gading",
        "State": "Johor"
    },
    {
        "Postcode": "83300",
        "Location": "Taman Gading",
        "Post_Office": "Seri Gading",
        "State": "Johor"
    },
    {
        "Postcode": "83300",
        "Location": "Taman Panchor Jaya",
        "Post_Office": "Seri Gading",
        "State": "Johor"
    },
    {
        "Postcode": "83300",
        "Location": "Taman Peri",
        "Post_Office": "Seri Gading",
        "State": "Johor"
    }
]
