[
    {
        "Postcode": "83400",
        "Location": "Jalan Besar",
        "Post_Office": "Seri Medan",
        "State": "Johor"
    },
    {
        "Postcode": "83400",
        "Location": "Kampung Parit Haji Ahmad",
        "Post_Office": "Seri Medan",
        "State": "Johor"
    },
    {
        "Postcode": "83400",
        "Location": "Parit Basri",
        "Post_Office": "Seri Medan",
        "State": "Johor"
    },
    {
        "Postcode": "83400",
        "Location": "Parit Laman",
        "Post_Office": "Seri Medan",
        "State": "Johor"
    },
    {
        "Postcode": "83400",
        "Location": "Parit Lapis Laman",
        "Post_Office": "Seri Medan",
        "State": "Johor"
    },
    {
        "Postcode": "83400",
        "Location": "Parit Haji Noor",
        "Post_Office": "Seri Medan",
        "State": "Johor"
    },
    {
        "Postcode": "83400",
        "Location": "Parit Haji Yusof",
        "Post_Office": "Seri Medan",
        "State": "Johor"
    },
    {
        "Postcode": "83400",
        "Location": "Parit Terus",
        "Post_Office": "Seri Medan",
        "State": "Johor"
    },
    {
        "Postcode": "83400",
        "Location": "Taman Emas",
        "Post_Office": "Seri Medan",
        "State": "Johor"
    },
    {
        "Postcode": "83400",
        "Location": "Taman Jaya",
        "Post_Office": "Seri Medan",
        "State": "Johor"
    },
    {
        "Postcode": "83400",
        "Location": "Air Putih",
        "Post_Office": "Seri Medan",
        "State": "Johor"
    },
    {
        "Postcode": "83400",
        "Location": "Bukit Betaling",
        "Post_Office": "Seri Medan",
        "State": "Johor"
    },
    {
        "Postcode": "83400",
        "Location": "Felcra Sri Wangi",
        "Post_Office": "Seri Medan",
        "State": "Johor"
    },
    {
        "Postcode": "83400",
        "Location": "Jalan Air Putih",
        "Post_Office": "Seri Medan",
        "State": "Johor"
    },
    {
        "Postcode": "83400",
        "Location": "Jalan Lapis Lima",
        "Post_Office": "Seri Medan",
        "State": "Johor"
    },
    {
        "Postcode": "83400",
        "Location": "Jalan Seri Sedayu",
        "Post_Office": "Seri Medan",
        "State": "Johor"
    },
    {
        "Postcode": "83400",
        "Location": "Kampung Bukit Betaling",
        "Post_Office": "Seri Medan",
        "State": "Johor"
    },
    {
        "Postcode": "83400",
        "Location": "Kampung Sri Jasa",
        "Post_Office": "Seri Medan",
        "State": "Johor"
    },
    {
        "Postcode": "83400",
        "Location": "Kampung Sri Ramonia",
        "Post_Office": "Seri Medan",
        "State": "Johor"
    },
    {
        "Postcode": "83400",
        "Location": "Parit Badak",
        "Post_Office": "Seri Medan",
        "State": "Johor"
    },
    {
        "Postcode": "83400",
        "Location": "Parit Bagas",
        "Post_Office": "Seri Medan",
        "State": "Johor"
    },
    {
        "Postcode": "83400",
        "Location": "Parit Baru",
        "Post_Office": "Seri Medan",
        "State": "Johor"
    },
    {
        "Postcode": "83400",
        "Location": "Parit Haji Ariff",
        "Post_Office": "Seri Medan",
        "State": "Johor"
    },
    {
        "Postcode": "83400",
        "Location": "Parit Haji Khalid",
        "Post_Office": "Seri Medan",
        "State": "Johor"
    },
    {
        "Postcode": "83400",
        "Location": "Parit Jayos",
        "Post_Office": "Seri Medan",
        "State": "Johor"
    },
    {
        "Postcode": "83400",
        "Location": "Parit Jayos 1",
        "Post_Office": "Seri Medan",
        "State": "Johor"
    },
    {
        "Postcode": "83400",
        "Location": "Parit Jayos 3",
        "Post_Office": "Seri Medan",
        "State": "Johor"
    },
    {
        "Postcode": "83400",
        "Location": "Parit Jayos 4",
        "Post_Office": "Seri Medan",
        "State": "Johor"
    },
    {
        "Postcode": "83400",
        "Location": "Parit Jayos 6",
        "Post_Office": "Seri Medan",
        "State": "Johor"
    },
    {
        "Postcode": "83400",
        "Location": "Parit Jayos 7",
        "Post_Office": "Seri Medan",
        "State": "Johor"
    },
    {
        "Postcode": "83400",
        "Location": "Parit Jayos Laut",
        "Post_Office": "Seri Medan",
        "State": "Johor"
    },
    {
        "Postcode": "83400",
        "Location": "Parit Jayos Lombong",
        "Post_Office": "Seri Medan",
        "State": "Johor"
    },
    {
        "Postcode": "83400",
        "Location": "Parit Karjan",
        "Post_Office": "Seri Medan",
        "State": "Johor"
    },
    {
        "Postcode": "83400",
        "Location": "Parit Laman Bukit",
        "Post_Office": "Seri Medan",
        "State": "Johor"
    },
    {
        "Postcode": "83400",
        "Location": "Parit Laman Tegak",
        "Post_Office": "Seri Medan",
        "State": "Johor"
    },
    {
        "Postcode": "83400",
        "Location": "Parit Lapis Bangas",
        "Post_Office": "Seri Medan",
        "State": "Johor"
    },
    {
        "Postcode": "83400",
        "Location": "Parit Lapis Basri",
        "Post_Office": "Seri Medan",
        "State": "Johor"
    },
    {
        "Postcode": "83400",
        "Location": "Parit Lapis Lintang Laman",
        "Post_Office": "Seri Medan",
        "State": "Johor"
    },
    {
        "Postcode": "83400",
        "Location": "Parit Lapis Simis",
        "Post_Office": "Seri Medan",
        "State": "Johor"
    },
    {
        "Postcode": "83400",
        "Location": "Parit Lapis Terus",
        "Post_Office": "Seri Medan",
        "State": "Johor"
    },
    {
        "Postcode": "83400",
        "Location": "Parit Lapis Warijo",
        "Post_Office": "Seri Medan",
        "State": "Johor"
    },
    {
        "Postcode": "83400",
        "Location": "Parit LintangÂ Warijo",
        "Post_Office": "Seri Medan",
        "State": "Johor"
    },
    {
        "Postcode": "83400",
        "Location": "Parit Rahiban",
        "Post_Office": "Seri Medan",
        "State": "Johor"
    },
    {
        "Postcode": "83400",
        "Location": "Parit Rashidi",
        "Post_Office": "Seri Medan",
        "State": "Johor"
    },
    {
        "Postcode": "83400",
        "Location": "Parit Seri Dayong (1-19)",
        "Post_Office": "Seri Medan",
        "State": "Johor"
    },
    {
        "Postcode": "83400",
        "Location": "Parit Sibo",
        "Post_Office": "Seri Medan",
        "State": "Johor"
    },
    {
        "Postcode": "83400",
        "Location": "Parit Simis",
        "Post_Office": "Seri Medan",
        "State": "Johor"
    },
    {
        "Postcode": "83400",
        "Location": "Parit Singgahan",
        "Post_Office": "Seri Medan",
        "State": "Johor"
    },
    {
        "Postcode": "83400",
        "Location": "Parit Singgahan 4",
        "Post_Office": "Seri Medan",
        "State": "Johor"
    },
    {
        "Postcode": "83400",
        "Location": "Parit Singgahan Luar",
        "Post_Office": "Seri Medan",
        "State": "Johor"
    },
    {
        "Postcode": "83400",
        "Location": "Parit Sri Dayong",
        "Post_Office": "Seri Medan",
        "State": "Johor"
    },
    {
        "Postcode": "83400",
        "Location": "Parit Sri Menanti",
        "Post_Office": "Seri Medan",
        "State": "Johor"
    },
    {
        "Postcode": "83400",
        "Location": "Parit Sri Pasir",
        "Post_Office": "Seri Medan",
        "State": "Johor"
    },
    {
        "Postcode": "83400",
        "Location": "Parit Sri Ramunia",
        "Post_Office": "Seri Medan",
        "State": "Johor"
    },
    {
        "Postcode": "83400",
        "Location": "Parit Sri Sedayu",
        "Post_Office": "Seri Medan",
        "State": "Johor"
    },
    {
        "Postcode": "83400",
        "Location": "Parit Terus Laman",
        "Post_Office": "Seri Medan",
        "State": "Johor"
    },
    {
        "Postcode": "83400",
        "Location": "Parit Ulong",
        "Post_Office": "Seri Medan",
        "State": "Johor"
    },
    {
        "Postcode": "83400",
        "Location": "Parit Warijo",
        "Post_Office": "Seri Medan",
        "State": "Johor"
    },
    {
        "Postcode": "83400",
        "Location": "Seri Medan",
        "Post_Office": "Seri Medan",
        "State": "Johor"
    },
    {
        "Postcode": "83400",
        "Location": "Taman Sri Medan",
        "Post_Office": "Seri Medan",
        "State": "Johor"
    }
]
