[
    {
        "Postcode": "83500",
        "Location": "Kampung Dalam",
        "Post_Office": "Parit Sulong",
        "State": "Johor"
    },
    {
        "Postcode": "83500",
        "Location": "Parit Pulai",
        "Post_Office": "Parit Sulong",
        "State": "Johor"
    },
    {
        "Postcode": "83500",
        "Location": "Kampung Parit Mohamad",
        "Post_Office": "Parit Sulong",
        "State": "Johor"
    },
    {
        "Postcode": "83500",
        "Location": "Parit Mohamad",
        "Post_Office": "Parit Sulong",
        "State": "Johor"
    },
    {
        "Postcode": "83500",
        "Location": "Kampung Parit Mantan",
        "Post_Office": "Parit Sulong",
        "State": "Johor"
    },
    {
        "Postcode": "83500",
        "Location": "Parit Maimon",
        "Post_Office": "Parit Sulong",
        "State": "Johor"
    },
    {
        "Postcode": "83500",
        "Location": "Taman Raja Ahmad 3",
        "Post_Office": "Parit Sulong",
        "State": "Johor"
    },
    {
        "Postcode": "83500",
        "Location": "Jalan Peserai",
        "Post_Office": "Parit Sulong",
        "State": "Johor"
    },
    {
        "Postcode": "83500",
        "Location": "Kampung Parit Abd Hadi",
        "Post_Office": "Parit Sulong",
        "State": "Johor"
    },
    {
        "Postcode": "83500",
        "Location": "Kampung Parit Ju",
        "Post_Office": "Parit Sulong",
        "State": "Johor"
    },
    {
        "Postcode": "83500",
        "Location": "Parit Benu",
        "Post_Office": "Parit Sulong",
        "State": "Johor"
    },
    {
        "Postcode": "83500",
        "Location": "Kampung Parit Abd Rahman",
        "Post_Office": "Parit Sulong",
        "State": "Johor"
    },
    {
        "Postcode": "83500",
        "Location": "Kampung Parit Laman",
        "Post_Office": "Parit Sulong",
        "State": "Johor"
    },
    {
        "Postcode": "83500",
        "Location": "Kampung Baru",
        "Post_Office": "Parit Sulong",
        "State": "Johor"
    },
    {
        "Postcode": "83500",
        "Location": "Kampung Melayu",
        "Post_Office": "Parit Sulong",
        "State": "Johor"
    },
    {
        "Postcode": "83500",
        "Location": "Kampung Parit Jawa",
        "Post_Office": "Parit Sulong",
        "State": "Johor"
    },
    {
        "Postcode": "83500",
        "Location": "Kampung Parit Othman",
        "Post_Office": "Parit Sulong",
        "State": "Johor"
    },
    {
        "Postcode": "83500",
        "Location": "Parit Arab",
        "Post_Office": "Parit Sulong",
        "State": "Johor"
    },
    {
        "Postcode": "83500",
        "Location": "Parit Betong",
        "Post_Office": "Parit Sulong",
        "State": "Johor"
    },
    {
        "Postcode": "83500",
        "Location": "Parit Gantong",
        "Post_Office": "Parit Sulong",
        "State": "Johor"
    },
    {
        "Postcode": "83500",
        "Location": "Parit Jalil",
        "Post_Office": "Parit Sulong",
        "State": "Johor"
    },
    {
        "Postcode": "83500",
        "Location": "Parit Jambi",
        "Post_Office": "Parit Sulong",
        "State": "Johor"
    },
    {
        "Postcode": "83500",
        "Location": "Parit Jawa",
        "Post_Office": "Parit Sulong",
        "State": "Johor"
    },
    {
        "Postcode": "83500",
        "Location": "Parit Penghulu",
        "Post_Office": "Parit Sulong",
        "State": "Johor"
    },
    {
        "Postcode": "83500",
        "Location": "Taman Melati",
        "Post_Office": "Parit Sulong",
        "State": "Johor"
    },
    {
        "Postcode": "83500",
        "Location": "Parit Bagan",
        "Post_Office": "Parit Sulong",
        "State": "Johor"
    },
    {
        "Postcode": "83500",
        "Location": "Parit Sempadan",
        "Post_Office": "Parit Sulong",
        "State": "Johor"
    },
    {
        "Postcode": "83500",
        "Location": "Taman Bintang",
        "Post_Office": "Parit Sulong",
        "State": "Johor"
    },
    {
        "Postcode": "83500",
        "Location": "Taman Mutiara",
        "Post_Office": "Parit Sulong",
        "State": "Johor"
    },
    {
        "Postcode": "83500",
        "Location": "Taman Teratai",
        "Post_Office": "Parit Sulong",
        "State": "Johor"
    },
    {
        "Postcode": "83500",
        "Location": "Batu 1 Jalan Yong Peng",
        "Post_Office": "Parit Sulong",
        "State": "Johor"
    },
    {
        "Postcode": "83500",
        "Location": "Batu 18 Jalan Yong Peng",
        "Post_Office": "Parit Sulong",
        "State": "Johor"
    },
    {
        "Postcode": "83500",
        "Location": "Batu 19 Jalan Yong Peng",
        "Post_Office": "Parit Sulong",
        "State": "Johor"
    },
    {
        "Postcode": "83500",
        "Location": "Batu 2 Jalan Yong Peng",
        "Post_Office": "Parit Sulong",
        "State": "Johor"
    },
    {
        "Postcode": "83500",
        "Location": "Batu 3 Kolam Ayer",
        "Post_Office": "Parit Sulong",
        "State": "Johor"
    },
    {
        "Postcode": "83500",
        "Location": "Batu 4 Jalan Yong Peng",
        "Post_Office": "Parit Sulong",
        "State": "Johor"
    },
    {
        "Postcode": "83500",
        "Location": "Batu 6 Jalan Yong Peng",
        "Post_Office": "Parit Sulong",
        "State": "Johor"
    },
    {
        "Postcode": "83500",
        "Location": "Jalan Ayer Putih",
        "Post_Office": "Parit Sulong",
        "State": "Johor"
    },
    {
        "Postcode": "83500",
        "Location": "Jalan Batu Putih",
        "Post_Office": "Parit Sulong",
        "State": "Johor"
    },
    {
        "Postcode": "83500",
        "Location": "Jalan Muar Batu 20",
        "Post_Office": "Parit Sulong",
        "State": "Johor"
    },
    {
        "Postcode": "83500",
        "Location": "Jalan Muar Batu 23 - 30",
        "Post_Office": "Parit Sulong",
        "State": "Johor"
    },
    {
        "Postcode": "83500",
        "Location": "Kampung Baru Mk 18",
        "Post_Office": "Parit Sulong",
        "State": "Johor"
    },
    {
        "Postcode": "83500",
        "Location": "Kampung Batu 21",
        "Post_Office": "Parit Sulong",
        "State": "Johor"
    },
    {
        "Postcode": "83500",
        "Location": "Kampung Belukar Cina",
        "Post_Office": "Parit Sulong",
        "State": "Johor"
    },
    {
        "Postcode": "83500",
        "Location": "Kampung Jalan Lombong",
        "Post_Office": "Parit Sulong",
        "State": "Johor"
    },
    {
        "Postcode": "83500",
        "Location": "Kampung Kolam Ayer",
        "Post_Office": "Parit Sulong",
        "State": "Johor"
    },
    {
        "Postcode": "83500",
        "Location": "Kampung Lubok Laut",
        "Post_Office": "Parit Sulong",
        "State": "Johor"
    },
    {
        "Postcode": "83500",
        "Location": "Kampung Lubok Utara",
        "Post_Office": "Parit Sulong",
        "State": "Johor"
    },
    {
        "Postcode": "83500",
        "Location": "Kampung Md Noor",
        "Post_Office": "Parit Sulong",
        "State": "Johor"
    },
    {
        "Postcode": "83500",
        "Location": "Kampung Melayu Mk 18",
        "Post_Office": "Parit Sulong",
        "State": "Johor"
    },
    {
        "Postcode": "83500",
        "Location": "Kampung Mohd Noor",
        "Post_Office": "Parit Sulong",
        "State": "Johor"
    },
    {
        "Postcode": "83500",
        "Location": "Kampung Parit Jidin",
        "Post_Office": "Parit Sulong",
        "State": "Johor"
    },
    {
        "Postcode": "83500",
        "Location": "Kampung Parit Lapis Laman",
        "Post_Office": "Parit Sulong",
        "State": "Johor"
    },
    {
        "Postcode": "83500",
        "Location": "Kampung Parit Lapis Maimon",
        "Post_Office": "Parit Sulong",
        "State": "Johor"
    },
    {
        "Postcode": "83500",
        "Location": "Kampung Parit Mustaffa",
        "Post_Office": "Parit Sulong",
        "State": "Johor"
    },
    {
        "Postcode": "83500",
        "Location": "Kampung Parit Puasa",
        "Post_Office": "Parit Sulong",
        "State": "Johor"
    },
    {
        "Postcode": "83500",
        "Location": "Kampung Parit Sentang",
        "Post_Office": "Parit Sulong",
        "State": "Johor"
    },
    {
        "Postcode": "83500",
        "Location": "Kampung Parit Talib",
        "Post_Office": "Parit Sulong",
        "State": "Johor"
    },
    {
        "Postcode": "83500",
        "Location": "Kampung Simpang Tiga",
        "Post_Office": "Parit Sulong",
        "State": "Johor"
    },
    {
        "Postcode": "83500",
        "Location": "Kampung Sungai Jong",
        "Post_Office": "Parit Sulong",
        "State": "Johor"
    },
    {
        "Postcode": "83500",
        "Location": "Kampung Sungai Lontok",
        "Post_Office": "Parit Sulong",
        "State": "Johor"
    },
    {
        "Postcode": "83500",
        "Location": "Kampung Sungai Nibong Darat",
        "Post_Office": "Parit Sulong",
        "State": "Johor"
    },
    {
        "Postcode": "83500",
        "Location": "Kampung Ulu Semerah",
        "Post_Office": "Parit Sulong",
        "State": "Johor"
    },
    {
        "Postcode": "83500",
        "Location": "Kampungmelayu Mk 4",
        "Post_Office": "Parit Sulong",
        "State": "Johor"
    },
    {
        "Postcode": "83500",
        "Location": "Kangkar Senangar",
        "Post_Office": "Parit Sulong",
        "State": "Johor"
    },
    {
        "Postcode": "83500",
        "Location": "Lorong Bukit Senjata",
        "Post_Office": "Parit Sulong",
        "State": "Johor"
    },
    {
        "Postcode": "83500",
        "Location": "Lorong Kampung Haji Dahalan",
        "Post_Office": "Parit Sulong",
        "State": "Johor"
    },
    {
        "Postcode": "83500",
        "Location": "Parit Abdullah",
        "Post_Office": "Parit Sulong",
        "State": "Johor"
    },
    {
        "Postcode": "83500",
        "Location": "Parit Abok",
        "Post_Office": "Parit Sulong",
        "State": "Johor"
    },
    {
        "Postcode": "83500",
        "Location": "Parit Bakut",
        "Post_Office": "Parit Sulong",
        "State": "Johor"
    },
    {
        "Postcode": "83500",
        "Location": "Parit Baru",
        "Post_Office": "Parit Sulong",
        "State": "Johor"
    },
    {
        "Postcode": "83500",
        "Location": "Parit Belukar Cina",
        "Post_Office": "Parit Sulong",
        "State": "Johor"
    },
    {
        "Postcode": "83500",
        "Location": "Parit Che Mat",
        "Post_Office": "Parit Sulong",
        "State": "Johor"
    },
    {
        "Postcode": "83500",
        "Location": "Parit Gaung",
        "Post_Office": "Parit Sulong",
        "State": "Johor"
    },
    {
        "Postcode": "83500",
        "Location": "Parit Hassan Ahmad 1",
        "Post_Office": "Parit Sulong",
        "State": "Johor"
    },
    {
        "Postcode": "83500",
        "Location": "Parit Hassan Ahmad 2",
        "Post_Office": "Parit Sulong",
        "State": "Johor"
    },
    {
        "Postcode": "83500",
        "Location": "Parit Jawa Darat",
        "Post_Office": "Parit Sulong",
        "State": "Johor"
    },
    {
        "Postcode": "83500",
        "Location": "Parit Jawa Laut",
        "Post_Office": "Parit Sulong",
        "State": "Johor"
    },
    {
        "Postcode": "83500",
        "Location": "Parit Jidin",
        "Post_Office": "Parit Sulong",
        "State": "Johor"
    },
    {
        "Postcode": "83500",
        "Location": "Parit Karim",
        "Post_Office": "Parit Sulong",
        "State": "Johor"
    },
    {
        "Postcode": "83500",
        "Location": "Parit Karim 1",
        "Post_Office": "Parit Sulong",
        "State": "Johor"
    },
    {
        "Postcode": "83500",
        "Location": "Parit Karim 2",
        "Post_Office": "Parit Sulong",
        "State": "Johor"
    },
    {
        "Postcode": "83500",
        "Location": "Parit Kelantan",
        "Post_Office": "Parit Sulong",
        "State": "Johor"
    },
    {
        "Postcode": "83500",
        "Location": "Parit Lapis Mahsuri",
        "Post_Office": "Parit Sulong",
        "State": "Johor"
    },
    {
        "Postcode": "83500",
        "Location": "Parit Lapis Simpang Tiga",
        "Post_Office": "Parit Sulong",
        "State": "Johor"
    },
    {
        "Postcode": "83500",
        "Location": "Parit Lubok",
        "Post_Office": "Parit Sulong",
        "State": "Johor"
    },
    {
        "Postcode": "83500",
        "Location": "Parit Maimun",
        "Post_Office": "Parit Sulong",
        "State": "Johor"
    },
    {
        "Postcode": "83500",
        "Location": "Parit Mantan",
        "Post_Office": "Parit Sulong",
        "State": "Johor"
    },
    {
        "Postcode": "83500",
        "Location": "Parit Mustapha",
        "Post_Office": "Parit Sulong",
        "State": "Johor"
    },
    {
        "Postcode": "83500",
        "Location": "Parit Othman Darat",
        "Post_Office": "Parit Sulong",
        "State": "Johor"
    },
    {
        "Postcode": "83500",
        "Location": "Parit Othman Laut",
        "Post_Office": "Parit Sulong",
        "State": "Johor"
    },
    {
        "Postcode": "83500",
        "Location": "Parit Penghulu Darat",
        "Post_Office": "Parit Sulong",
        "State": "Johor"
    },
    {
        "Postcode": "83500",
        "Location": "Parit Penghulu Laut",
        "Post_Office": "Parit Sulong",
        "State": "Johor"
    },
    {
        "Postcode": "83500",
        "Location": "Parit Raja Ahmad",
        "Post_Office": "Parit Sulong",
        "State": "Johor"
    },
    {
        "Postcode": "83500",
        "Location": "Parit Raja Ahmad Darat",
        "Post_Office": "Parit Sulong",
        "State": "Johor"
    },
    {
        "Postcode": "83500",
        "Location": "Parit Raja Ahmad Laut",
        "Post_Office": "Parit Sulong",
        "State": "Johor"
    },
    {
        "Postcode": "83500",
        "Location": "Parit Sauh",
        "Post_Office": "Parit Sulong",
        "State": "Johor"
    },
    {
        "Postcode": "83500",
        "Location": "Parit Semerah Darat",
        "Post_Office": "Parit Sulong",
        "State": "Johor"
    },
    {
        "Postcode": "83500",
        "Location": "Parit Sentang Batu",
        "Post_Office": "Parit Sulong",
        "State": "Johor"
    },
    {
        "Postcode": "83500",
        "Location": "Parit Sulong",
        "Post_Office": "Parit Sulong",
        "State": "Johor"
    },
    {
        "Postcode": "83500",
        "Location": "Parit Sulong Simpang 3",
        "Post_Office": "Parit Sulong",
        "State": "Johor"
    },
    {
        "Postcode": "83500",
        "Location": "Parit Talib",
        "Post_Office": "Parit Sulong",
        "State": "Johor"
    },
    {
        "Postcode": "83500",
        "Location": "Parit Tegak",
        "Post_Office": "Parit Sulong",
        "State": "Johor"
    },
    {
        "Postcode": "83500",
        "Location": "Parit Tengah Dalam",
        "Post_Office": "Parit Sulong",
        "State": "Johor"
    },
    {
        "Postcode": "83500",
        "Location": "Parit Tengah Luar",
        "Post_Office": "Parit Sulong",
        "State": "Johor"
    },
    {
        "Postcode": "83500",
        "Location": "Parit Ulu Bagan",
        "Post_Office": "Parit Sulong",
        "State": "Johor"
    },
    {
        "Postcode": "83500",
        "Location": "Parit Ulu Semerah",
        "Post_Office": "Parit Sulong",
        "State": "Johor"
    },
    {
        "Postcode": "83500",
        "Location": "Parit Yusof",
        "Post_Office": "Parit Sulong",
        "State": "Johor"
    },
    {
        "Postcode": "83500",
        "Location": "Parit Yusof Laut",
        "Post_Office": "Parit Sulong",
        "State": "Johor"
    },
    {
        "Postcode": "83500",
        "Location": "Parittalib",
        "Post_Office": "Parit Sulong",
        "State": "Johor"
    },
    {
        "Postcode": "83500",
        "Location": "Simpang Peserai",
        "Post_Office": "Parit Sulong",
        "State": "Johor"
    },
    {
        "Postcode": "83500",
        "Location": "Simpang Tiga",
        "Post_Office": "Parit Sulong",
        "State": "Johor"
    },
    {
        "Postcode": "83500",
        "Location": "Simpang Tiga Parit Sulong",
        "Post_Office": "Parit Sulong",
        "State": "Johor"
    },
    {
        "Postcode": "83500",
        "Location": "Taman Jaya Diri",
        "Post_Office": "Parit Sulong",
        "State": "Johor"
    },
    {
        "Postcode": "83500",
        "Location": "Taman Jaya Diri 1",
        "Post_Office": "Parit Sulong",
        "State": "Johor"
    },
    {
        "Postcode": "83500",
        "Location": "Taman Jaya Diri 2",
        "Post_Office": "Parit Sulong",
        "State": "Johor"
    },
    {
        "Postcode": "83500",
        "Location": "Taman Perindustrian Sri Sulong",
        "Post_Office": "Parit Sulong",
        "State": "Johor"
    },
    {
        "Postcode": "83500",
        "Location": "Taman Raja Ahmad 1",
        "Post_Office": "Parit Sulong",
        "State": "Johor"
    },
    {
        "Postcode": "83500",
        "Location": "Taman Raja Ahmad 2",
        "Post_Office": "Parit Sulong",
        "State": "Johor"
    },
    {
        "Postcode": "83500",
        "Location": "Taman Sentang",
        "Post_Office": "Parit Sulong",
        "State": "Johor"
    },
    {
        "Postcode": "83500",
        "Location": "Taman Sentang Jaya",
        "Post_Office": "Parit Sulong",
        "State": "Johor"
    }
]
