[
    {
        "Postcode": "83600",
        "Location": "Parit Bugis",
        "Post_Office": "Semerah",
        "State": "Johor"
    },
    {
        "Postcode": "83600",
        "Location": "Kampung Parit Ibrahim",
        "Post_Office": "Semerah",
        "State": "Johor"
    },
    {
        "Postcode": "83600",
        "Location": "Parit Simen",
        "Post_Office": "Semerah",
        "State": "Johor"
    },
    {
        "Postcode": "83600",
        "Location": "Sungai Gersik Laut",
        "Post_Office": "Semerah",
        "State": "Johor"
    },
    {
        "Postcode": "83600",
        "Location": "Taman Sungai Balang Indah",
        "Post_Office": "Semerah",
        "State": "Johor"
    },
    {
        "Postcode": "83600",
        "Location": "Kampung Sungai Nibong",
        "Post_Office": "Semerah",
        "State": "Johor"
    },
    {
        "Postcode": "83600",
        "Location": "Parit Benu",
        "Post_Office": "Semerah",
        "State": "Johor"
    },
    {
        "Postcode": "83600",
        "Location": "Parit Latif",
        "Post_Office": "Semerah",
        "State": "Johor"
    },
    {
        "Postcode": "83600",
        "Location": "Parit Sidek",
        "Post_Office": "Semerah",
        "State": "Johor"
    },
    {
        "Postcode": "83600",
        "Location": "Kampung Melayu",
        "Post_Office": "Semerah",
        "State": "Johor"
    },
    {
        "Postcode": "83600",
        "Location": "Kampung Tengah",
        "Post_Office": "Semerah",
        "State": "Johor"
    },
    {
        "Postcode": "83600",
        "Location": "Parit Gantong",
        "Post_Office": "Semerah",
        "State": "Johor"
    },
    {
        "Postcode": "83600",
        "Location": "Parit Masjid",
        "Post_Office": "Semerah",
        "State": "Johor"
    },
    {
        "Postcode": "83600",
        "Location": "Parit Ponorogo",
        "Post_Office": "Semerah",
        "State": "Johor"
    },
    {
        "Postcode": "83600",
        "Location": "Parit Serong",
        "Post_Office": "Semerah",
        "State": "Johor"
    },
    {
        "Postcode": "83600",
        "Location": "Parit Sempadan",
        "Post_Office": "Semerah",
        "State": "Johor"
    },
    {
        "Postcode": "83600",
        "Location": "Taman Teratai",
        "Post_Office": "Semerah",
        "State": "Johor"
    },
    {
        "Postcode": "83600",
        "Location": "Jalan Bukit Mor",
        "Post_Office": "Semerah",
        "State": "Johor"
    },
    {
        "Postcode": "83600",
        "Location": "Jalan Sri Dalam",
        "Post_Office": "Semerah",
        "State": "Johor"
    },
    {
        "Postcode": "83600",
        "Location": "Jalan Tepi Sarang Buaya",
        "Post_Office": "Semerah",
        "State": "Johor"
    },
    {
        "Postcode": "83600",
        "Location": "Kampung Bali",
        "Post_Office": "Semerah",
        "State": "Johor"
    },
    {
        "Postcode": "83600",
        "Location": "Kampung Lubuk Darat",
        "Post_Office": "Semerah",
        "State": "Johor"
    },
    {
        "Postcode": "83600",
        "Location": "Kampung Semerah Darat",
        "Post_Office": "Semerah",
        "State": "Johor"
    },
    {
        "Postcode": "83600",
        "Location": "Kampung Semerah Laut",
        "Post_Office": "Semerah",
        "State": "Johor"
    },
    {
        "Postcode": "83600",
        "Location": "Kampung Sungai Nibong Lubok Tengah",
        "Post_Office": "Semerah",
        "State": "Johor"
    },
    {
        "Postcode": "83600",
        "Location": "Kampung Tembaga",
        "Post_Office": "Semerah",
        "State": "Johor"
    },
    {
        "Postcode": "83600",
        "Location": "Kampung Tengah Lubok",
        "Post_Office": "Semerah",
        "State": "Johor"
    },
    {
        "Postcode": "83600",
        "Location": "Kampung Terengganu",
        "Post_Office": "Semerah",
        "State": "Johor"
    },
    {
        "Postcode": "83600",
        "Location": "Lorong Haji Hassan",
        "Post_Office": "Semerah",
        "State": "Johor"
    },
    {
        "Postcode": "83600",
        "Location": "Parit Amat Nasuha",
        "Post_Office": "Semerah",
        "State": "Johor"
    },
    {
        "Postcode": "83600",
        "Location": "Parit Bajuri",
        "Post_Office": "Semerah",
        "State": "Johor"
    },
    {
        "Postcode": "83600",
        "Location": "Parit Bangelan",
        "Post_Office": "Semerah",
        "State": "Johor"
    },
    {
        "Postcode": "83600",
        "Location": "Parit Bisu",
        "Post_Office": "Semerah",
        "State": "Johor"
    },
    {
        "Postcode": "83600",
        "Location": "Parit Bisu Darat",
        "Post_Office": "Semerah",
        "State": "Johor"
    },
    {
        "Postcode": "83600",
        "Location": "Parit Guntong",
        "Post_Office": "Semerah",
        "State": "Johor"
    },
    {
        "Postcode": "83600",
        "Location": "Parit Guntong Darat",
        "Post_Office": "Semerah",
        "State": "Johor"
    },
    {
        "Postcode": "83600",
        "Location": "Parit Guntong Daratan",
        "Post_Office": "Semerah",
        "State": "Johor"
    },
    {
        "Postcode": "83600",
        "Location": "Parit Haji Abd Aziz",
        "Post_Office": "Semerah",
        "State": "Johor"
    },
    {
        "Postcode": "83600",
        "Location": "Parit Haji Sirat",
        "Post_Office": "Semerah",
        "State": "Johor"
    },
    {
        "Postcode": "83600",
        "Location": "Parit Kemang",
        "Post_Office": "Semerah",
        "State": "Johor"
    },
    {
        "Postcode": "83600",
        "Location": "Parit Kuda",
        "Post_Office": "Semerah",
        "State": "Johor"
    },
    {
        "Postcode": "83600",
        "Location": "Parit Kuda Darat",
        "Post_Office": "Semerah",
        "State": "Johor"
    },
    {
        "Postcode": "83600",
        "Location": "Parit Kuda Laut",
        "Post_Office": "Semerah",
        "State": "Johor"
    },
    {
        "Postcode": "83600",
        "Location": "Parit No 1",
        "Post_Office": "Semerah",
        "State": "Johor"
    },
    {
        "Postcode": "83600",
        "Location": "Parit No 10",
        "Post_Office": "Semerah",
        "State": "Johor"
    },
    {
        "Postcode": "83600",
        "Location": "Parit No 11",
        "Post_Office": "Semerah",
        "State": "Johor"
    },
    {
        "Postcode": "83600",
        "Location": "Parit No 12",
        "Post_Office": "Semerah",
        "State": "Johor"
    },
    {
        "Postcode": "83600",
        "Location": "Parit No 2",
        "Post_Office": "Semerah",
        "State": "Johor"
    },
    {
        "Postcode": "83600",
        "Location": "Parit No 3",
        "Post_Office": "Semerah",
        "State": "Johor"
    },
    {
        "Postcode": "83600",
        "Location": "Parit No 4",
        "Post_Office": "Semerah",
        "State": "Johor"
    },
    {
        "Postcode": "83600",
        "Location": "Parit No 5",
        "Post_Office": "Semerah",
        "State": "Johor"
    },
    {
        "Postcode": "83600",
        "Location": "Parit No 6",
        "Post_Office": "Semerah",
        "State": "Johor"
    },
    {
        "Postcode": "83600",
        "Location": "Parit No 7",
        "Post_Office": "Semerah",
        "State": "Johor"
    },
    {
        "Postcode": "83600",
        "Location": "Parit No 8",
        "Post_Office": "Semerah",
        "State": "Johor"
    },
    {
        "Postcode": "83600",
        "Location": "Parit No 9",
        "Post_Office": "Semerah",
        "State": "Johor"
    },
    {
        "Postcode": "83600",
        "Location": "Parit Resik",
        "Post_Office": "Semerah",
        "State": "Johor"
    },
    {
        "Postcode": "83600",
        "Location": "Parit Salam",
        "Post_Office": "Semerah",
        "State": "Johor"
    },
    {
        "Postcode": "83600",
        "Location": "Parit Sangit",
        "Post_Office": "Semerah",
        "State": "Johor"
    },
    {
        "Postcode": "83600",
        "Location": "Parit Sangit Darat",
        "Post_Office": "Semerah",
        "State": "Johor"
    },
    {
        "Postcode": "83600",
        "Location": "Parit Sangit Laut",
        "Post_Office": "Semerah",
        "State": "Johor"
    },
    {
        "Postcode": "83600",
        "Location": "Parit Simin",
        "Post_Office": "Semerah",
        "State": "Johor"
    },
    {
        "Postcode": "83600",
        "Location": "Parit Subari",
        "Post_Office": "Semerah",
        "State": "Johor"
    },
    {
        "Postcode": "83600",
        "Location": "Parit Yusof Darat",
        "Post_Office": "Semerah",
        "State": "Johor"
    },
    {
        "Postcode": "83600",
        "Location": "Pekan Parit Yusof",
        "Post_Office": "Semerah",
        "State": "Johor"
    },
    {
        "Postcode": "83600",
        "Location": "Pekan Sungai Balang",
        "Post_Office": "Semerah",
        "State": "Johor"
    },
    {
        "Postcode": "83600",
        "Location": "Sarang Buaya",
        "Post_Office": "Semerah",
        "State": "Johor"
    },
    {
        "Postcode": "83600",
        "Location": "Sarang Buaya Darat",
        "Post_Office": "Semerah",
        "State": "Johor"
    },
    {
        "Postcode": "83600",
        "Location": "Sarang Buaya Laut",
        "Post_Office": "Semerah",
        "State": "Johor"
    },
    {
        "Postcode": "83600",
        "Location": "Semerah",
        "Post_Office": "Semerah",
        "State": "Johor"
    },
    {
        "Postcode": "83600",
        "Location": "Sungai Balang",
        "Post_Office": "Semerah",
        "State": "Johor"
    },
    {
        "Postcode": "83600",
        "Location": "Sungai Balang Besar",
        "Post_Office": "Semerah",
        "State": "Johor"
    },
    {
        "Postcode": "83600",
        "Location": "Sungai Balang Darat",
        "Post_Office": "Semerah",
        "State": "Johor"
    },
    {
        "Postcode": "83600",
        "Location": "Sungai Balang Kecil",
        "Post_Office": "Semerah",
        "State": "Johor"
    },
    {
        "Postcode": "83600",
        "Location": "Sungai Belukang",
        "Post_Office": "Semerah",
        "State": "Johor"
    },
    {
        "Postcode": "83600",
        "Location": "Sungai Belukang Laut",
        "Post_Office": "Semerah",
        "State": "Johor"
    },
    {
        "Postcode": "83600",
        "Location": "Sungai Gerisek Darat",
        "Post_Office": "Semerah",
        "State": "Johor"
    },
    {
        "Postcode": "83600",
        "Location": "Sungai Gerisek Laut",
        "Post_Office": "Semerah",
        "State": "Johor"
    },
    {
        "Postcode": "83600",
        "Location": "Sungai Gersik",
        "Post_Office": "Semerah",
        "State": "Johor"
    },
    {
        "Postcode": "83600",
        "Location": "Sungai Kelat",
        "Post_Office": "Semerah",
        "State": "Johor"
    },
    {
        "Postcode": "83600",
        "Location": "Sungai Kelat Darat",
        "Post_Office": "Semerah",
        "State": "Johor"
    },
    {
        "Postcode": "83600",
        "Location": "Sungai Kelat Laut",
        "Post_Office": "Semerah",
        "State": "Johor"
    },
    {
        "Postcode": "83600",
        "Location": "Sungai Kemudi",
        "Post_Office": "Semerah",
        "State": "Johor"
    },
    {
        "Postcode": "83600",
        "Location": "Sungai Kemudi Laut",
        "Post_Office": "Semerah",
        "State": "Johor"
    },
    {
        "Postcode": "83600",
        "Location": "Sungai Muda",
        "Post_Office": "Semerah",
        "State": "Johor"
    },
    {
        "Postcode": "83600",
        "Location": "Sungai Muda Darat",
        "Post_Office": "Semerah",
        "State": "Johor"
    },
    {
        "Postcode": "83600",
        "Location": "Sungai Muda Laut",
        "Post_Office": "Semerah",
        "State": "Johor"
    },
    {
        "Postcode": "83600",
        "Location": "Sungai Nibong",
        "Post_Office": "Semerah",
        "State": "Johor"
    },
    {
        "Postcode": "83600",
        "Location": "Sungai Sarang Buaya",
        "Post_Office": "Semerah",
        "State": "Johor"
    },
    {
        "Postcode": "83600",
        "Location": "Sungai Sudah",
        "Post_Office": "Semerah",
        "State": "Johor"
    },
    {
        "Postcode": "83600",
        "Location": "Sungai Sudah Darat",
        "Post_Office": "Semerah",
        "State": "Johor"
    },
    {
        "Postcode": "83600",
        "Location": "Sungai Sudah Laut",
        "Post_Office": "Semerah",
        "State": "Johor"
    },
    {
        "Postcode": "83600",
        "Location": "Taman Semerah",
        "Post_Office": "Semerah",
        "State": "Johor"
    }
]
