[
    {
        "Postcode": "83700",
        "Location": "Jalan Besar",
        "Post_Office": "Yong Peng",
        "State": "Johor"
    },
    {
        "Postcode": "83700",
        "Location": "Jalan Masjid",
        "Post_Office": "Yong Peng",
        "State": "Johor"
    },
    {
        "Postcode": "83700",
        "Location": "Kampung Parit Baru",
        "Post_Office": "Yong Peng",
        "State": "Johor"
    },
    {
        "Postcode": "83700",
        "Location": "Taman Berjaya",
        "Post_Office": "Yong Peng",
        "State": "Johor"
    },
    {
        "Postcode": "83700",
        "Location": "Taman Melur",
        "Post_Office": "Yong Peng",
        "State": "Johor"
    },
    {
        "Postcode": "83700",
        "Location": "Taman Kota",
        "Post_Office": "Yong Peng",
        "State": "Johor"
    },
    {
        "Postcode": "83700",
        "Location": "Taman Sri Bayu",
        "Post_Office": "Yong Peng",
        "State": "Johor"
    },
    {
        "Postcode": "83700",
        "Location": "Kampung Parit Ismail",
        "Post_Office": "Yong Peng",
        "State": "Johor"
    },
    {
        "Postcode": "83700",
        "Location": "Kampung Parit Tengah",
        "Post_Office": "Yong Peng",
        "State": "Johor"
    },
    {
        "Postcode": "83700",
        "Location": "Taman Berlian",
        "Post_Office": "Yong Peng",
        "State": "Johor"
    },
    {
        "Postcode": "83700",
        "Location": "Taman Timur",
        "Post_Office": "Yong Peng",
        "State": "Johor"
    },
    {
        "Postcode": "83700",
        "Location": "Taman Kota Impian",
        "Post_Office": "Yong Peng",
        "State": "Johor"
    },
    {
        "Postcode": "83700",
        "Location": "Taman Kota Aman",
        "Post_Office": "Yong Peng",
        "State": "Johor"
    },
    {
        "Postcode": "83700",
        "Location": "Jalan Muhibbah",
        "Post_Office": "Yong Peng",
        "State": "Johor"
    },
    {
        "Postcode": "83700",
        "Location": "Parit Banyumas",
        "Post_Office": "Yong Peng",
        "State": "Johor"
    },
    {
        "Postcode": "83700",
        "Location": "Taman Desa Sri Indah",
        "Post_Office": "Yong Peng",
        "State": "Johor"
    },
    {
        "Postcode": "83700",
        "Location": "Jalan Tenteram",
        "Post_Office": "Yong Peng",
        "State": "Johor"
    },
    {
        "Postcode": "83700",
        "Location": "Kampung Parit Haji Dahlan",
        "Post_Office": "Yong Peng",
        "State": "Johor"
    },
    {
        "Postcode": "83700",
        "Location": "Lorong 1",
        "Post_Office": "Yong Peng",
        "State": "Johor"
    },
    {
        "Postcode": "83700",
        "Location": "Lorong 2",
        "Post_Office": "Yong Peng",
        "State": "Johor"
    },
    {
        "Postcode": "83700",
        "Location": "Lorong 3",
        "Post_Office": "Yong Peng",
        "State": "Johor"
    },
    {
        "Postcode": "83700",
        "Location": "Taman Melawati",
        "Post_Office": "Yong Peng",
        "State": "Johor"
    },
    {
        "Postcode": "83700",
        "Location": "Taman Selatan",
        "Post_Office": "Yong Peng",
        "State": "Johor"
    },
    {
        "Postcode": "83700",
        "Location": "Kampung Baru",
        "Post_Office": "Yong Peng",
        "State": "Johor"
    },
    {
        "Postcode": "83700",
        "Location": "Kampung Melayu",
        "Post_Office": "Yong Peng",
        "State": "Johor"
    },
    {
        "Postcode": "83700",
        "Location": "Kampung Parit Haji Yusof",
        "Post_Office": "Yong Peng",
        "State": "Johor"
    },
    {
        "Postcode": "83700",
        "Location": "Kampung Paya",
        "Post_Office": "Yong Peng",
        "State": "Johor"
    },
    {
        "Postcode": "83700",
        "Location": "Parit Haji Abd Rahman",
        "Post_Office": "Yong Peng",
        "State": "Johor"
    },
    {
        "Postcode": "83700",
        "Location": "Parit Jambi",
        "Post_Office": "Yong Peng",
        "State": "Johor"
    },
    {
        "Postcode": "83700",
        "Location": "Parit Kerinci",
        "Post_Office": "Yong Peng",
        "State": "Johor"
    },
    {
        "Postcode": "83700",
        "Location": "Parit Lintang",
        "Post_Office": "Yong Peng",
        "State": "Johor"
    },
    {
        "Postcode": "83700",
        "Location": "Taman Bahagia",
        "Post_Office": "Yong Peng",
        "State": "Johor"
    },
    {
        "Postcode": "83700",
        "Location": "Taman Desa",
        "Post_Office": "Yong Peng",
        "State": "Johor"
    },
    {
        "Postcode": "83700",
        "Location": "Taman Indah",
        "Post_Office": "Yong Peng",
        "State": "Johor"
    },
    {
        "Postcode": "83700",
        "Location": "Taman Kota Mas",
        "Post_Office": "Yong Peng",
        "State": "Johor"
    },
    {
        "Postcode": "83700",
        "Location": "Taman Melati",
        "Post_Office": "Yong Peng",
        "State": "Johor"
    },
    {
        "Postcode": "83700",
        "Location": "Taman Mewah",
        "Post_Office": "Yong Peng",
        "State": "Johor"
    },
    {
        "Postcode": "83700",
        "Location": "Taman Muhibbah",
        "Post_Office": "Yong Peng",
        "State": "Johor"
    },
    {
        "Postcode": "83700",
        "Location": "Taman Perdana",
        "Post_Office": "Yong Peng",
        "State": "Johor"
    },
    {
        "Postcode": "83700",
        "Location": "Taman Ria",
        "Post_Office": "Yong Peng",
        "State": "Johor"
    },
    {
        "Postcode": "83700",
        "Location": "Taman Semberong",
        "Post_Office": "Yong Peng",
        "State": "Johor"
    },
    {
        "Postcode": "83700",
        "Location": "Taman Jelita",
        "Post_Office": "Yong Peng",
        "State": "Johor"
    },
    {
        "Postcode": "83700",
        "Location": "Taman Suria",
        "Post_Office": "Yong Peng",
        "State": "Johor"
    },
    {
        "Postcode": "83700",
        "Location": "Taman Utama",
        "Post_Office": "Yong Peng",
        "State": "Johor"
    },
    {
        "Postcode": "83700",
        "Location": "Bangunan Mara",
        "Post_Office": "Yong Peng",
        "State": "Johor"
    },
    {
        "Postcode": "83700",
        "Location": "Bukit Ciku",
        "Post_Office": "Yong Peng",
        "State": "Johor"
    },
    {
        "Postcode": "83700",
        "Location": "Jalan Ann Moh Sam",
        "Post_Office": "Yong Peng",
        "State": "Johor"
    },
    {
        "Postcode": "83700",
        "Location": "Jalan Ann Peng",
        "Post_Office": "Yong Peng",
        "State": "Johor"
    },
    {
        "Postcode": "83700",
        "Location": "Jalan Ayer Hitam Yong Peng",
        "Post_Office": "Yong Peng",
        "State": "Johor"
    },
    {
        "Postcode": "83700",
        "Location": "Jalan Ing Chong Sam",
        "Post_Office": "Yong Peng",
        "State": "Johor"
    },
    {
        "Postcode": "83700",
        "Location": "Jalan Kit Siong",
        "Post_Office": "Yong Peng",
        "State": "Johor"
    },
    {
        "Postcode": "83700",
        "Location": "Jalan Lim Ee Goh",
        "Post_Office": "Yong Peng",
        "State": "Johor"
    },
    {
        "Postcode": "83700",
        "Location": "Jalan Meng Seng",
        "Post_Office": "Yong Peng",
        "State": "Johor"
    },
    {
        "Postcode": "83700",
        "Location": "Jalan Muar",
        "Post_Office": "Yong Peng",
        "State": "Johor"
    },
    {
        "Postcode": "83700",
        "Location": "Jalan Sekolah Cina",
        "Post_Office": "Yong Peng",
        "State": "Johor"
    },
    {
        "Postcode": "83700",
        "Location": "Jalan Templer",
        "Post_Office": "Yong Peng",
        "State": "Johor"
    },
    {
        "Postcode": "83700",
        "Location": "Jalan Yong Peng",
        "Post_Office": "Yong Peng",
        "State": "Johor"
    },
    {
        "Postcode": "83700",
        "Location": "Jalanlabis Hingga Km 8",
        "Post_Office": "Yong Peng",
        "State": "Johor"
    },
    {
        "Postcode": "83700",
        "Location": "Kampung  Desa Jaya",
        "Post_Office": "Yong Peng",
        "State": "Johor"
    },
    {
        "Postcode": "83700",
        "Location": "Kampung Baru Lam Lee",
        "Post_Office": "Yong Peng",
        "State": "Johor"
    },
    {
        "Postcode": "83700",
        "Location": "Kampung Baru Mukim 7",
        "Post_Office": "Yong Peng",
        "State": "Johor"
    },
    {
        "Postcode": "83700",
        "Location": "Kampung Bukit Jambu",
        "Post_Office": "Yong Peng",
        "State": "Johor"
    },
    {
        "Postcode": "83700",
        "Location": "Kampung Bukit Jantan",
        "Post_Office": "Yong Peng",
        "State": "Johor"
    },
    {
        "Postcode": "83700",
        "Location": "Kampung Bukit Sri Wangi",
        "Post_Office": "Yong Peng",
        "State": "Johor"
    },
    {
        "Postcode": "83700",
        "Location": "Kampung Haji Gaffar",
        "Post_Office": "Yong Peng",
        "State": "Johor"
    },
    {
        "Postcode": "83700",
        "Location": "Kampung Haji Ghaffar",
        "Post_Office": "Yong Peng",
        "State": "Johor"
    },
    {
        "Postcode": "83700",
        "Location": "Kampung Parit Andin",
        "Post_Office": "Yong Peng",
        "State": "Johor"
    },
    {
        "Postcode": "83700",
        "Location": "Kampung Parit Awang",
        "Post_Office": "Yong Peng",
        "State": "Johor"
    },
    {
        "Postcode": "83700",
        "Location": "Kampung Parit Awang Darat",
        "Post_Office": "Yong Peng",
        "State": "Johor"
    },
    {
        "Postcode": "83700",
        "Location": "Kampung Parit Awang Laut",
        "Post_Office": "Yong Peng",
        "State": "Johor"
    },
    {
        "Postcode": "83700",
        "Location": "Kampung Parit Bayumas",
        "Post_Office": "Yong Peng",
        "State": "Johor"
    },
    {
        "Postcode": "83700",
        "Location": "Kampung Parit Haji Ismail",
        "Post_Office": "Yong Peng",
        "State": "Johor"
    },
    {
        "Postcode": "83700",
        "Location": "Kampung Parit Senah",
        "Post_Office": "Yong Peng",
        "State": "Johor"
    },
    {
        "Postcode": "83700",
        "Location": "Kampung Parit Yusof",
        "Post_Office": "Yong Peng",
        "State": "Johor"
    },
    {
        "Postcode": "83700",
        "Location": "Kampung Seng Lek",
        "Post_Office": "Yong Peng",
        "State": "Johor"
    },
    {
        "Postcode": "83700",
        "Location": "Kampung Sri Wangi",
        "Post_Office": "Yong Peng",
        "State": "Johor"
    },
    {
        "Postcode": "83700",
        "Location": "Kampung Temehel",
        "Post_Office": "Yong Peng",
        "State": "Johor"
    },
    {
        "Postcode": "83700",
        "Location": "Kampung Tengah (Parit Yaani)",
        "Post_Office": "Yong Peng",
        "State": "Johor"
    },
    {
        "Postcode": "83700",
        "Location": "Kangkar Baru",
        "Post_Office": "Yong Peng",
        "State": "Johor"
    },
    {
        "Postcode": "83700",
        "Location": "Lam Lee",
        "Post_Office": "Yong Peng",
        "State": "Johor"
    },
    {
        "Postcode": "83700",
        "Location": "Parit Amil",
        "Post_Office": "Yong Peng",
        "State": "Johor"
    },
    {
        "Postcode": "83700",
        "Location": "Parit Andin 1",
        "Post_Office": "Yong Peng",
        "State": "Johor"
    },
    {
        "Postcode": "83700",
        "Location": "Parit Andin 2",
        "Post_Office": "Yong Peng",
        "State": "Johor"
    },
    {
        "Postcode": "83700",
        "Location": "Parit Andin 3",
        "Post_Office": "Yong Peng",
        "State": "Johor"
    },
    {
        "Postcode": "83700",
        "Location": "Parit Arshad",
        "Post_Office": "Yong Peng",
        "State": "Johor"
    },
    {
        "Postcode": "83700",
        "Location": "Parit Bayumas",
        "Post_Office": "Yong Peng",
        "State": "Johor"
    },
    {
        "Postcode": "83700",
        "Location": "Parit Berong",
        "Post_Office": "Yong Peng",
        "State": "Johor"
    },
    {
        "Postcode": "83700",
        "Location": "Parit Haji Abas",
        "Post_Office": "Yong Peng",
        "State": "Johor"
    },
    {
        "Postcode": "83700",
        "Location": "Parit Hitam Khamis",
        "Post_Office": "Yong Peng",
        "State": "Johor"
    },
    {
        "Postcode": "83700",
        "Location": "Parit Jaron",
        "Post_Office": "Yong Peng",
        "State": "Johor"
    },
    {
        "Postcode": "83700",
        "Location": "Parit Paimin",
        "Post_Office": "Yong Peng",
        "State": "Johor"
    },
    {
        "Postcode": "83700",
        "Location": "Parit Selamat",
        "Post_Office": "Yong Peng",
        "State": "Johor"
    },
    {
        "Postcode": "83700",
        "Location": "Parit Sri Telok",
        "Post_Office": "Yong Peng",
        "State": "Johor"
    },
    {
        "Postcode": "83700",
        "Location": "Parit Suratman",
        "Post_Office": "Yong Peng",
        "State": "Johor"
    },
    {
        "Postcode": "83700",
        "Location": "Parit Yaani",
        "Post_Office": "Yong Peng",
        "State": "Johor"
    },
    {
        "Postcode": "83700",
        "Location": "Parit Yob",
        "Post_Office": "Yong Peng",
        "State": "Johor"
    },
    {
        "Postcode": "83700",
        "Location": "Part Berayan",
        "Post_Office": "Yong Peng",
        "State": "Johor"
    },
    {
        "Postcode": "83700",
        "Location": "Pekan Parit Yaani",
        "Post_Office": "Yong Peng",
        "State": "Johor"
    },
    {
        "Postcode": "83700",
        "Location": "Seri Bengkal",
        "Post_Office": "Yong Peng",
        "State": "Johor"
    },
    {
        "Postcode": "83700",
        "Location": "Seri Wangi",
        "Post_Office": "Yong Peng",
        "State": "Johor"
    },
    {
        "Postcode": "83700",
        "Location": "Taman Bcb",
        "Post_Office": "Yong Peng",
        "State": "Johor"
    },
    {
        "Postcode": "83700",
        "Location": "Taman Cenderawasih",
        "Post_Office": "Yong Peng",
        "State": "Johor"
    },
    {
        "Postcode": "83700",
        "Location": "Taman Desa Putih",
        "Post_Office": "Yong Peng",
        "State": "Johor"
    },
    {
        "Postcode": "83700",
        "Location": "Taman Desa Yong Peng Baharu",
        "Post_Office": "Yong Peng",
        "State": "Johor"
    },
    {
        "Postcode": "83700",
        "Location": "Taman Durian",
        "Post_Office": "Yong Peng",
        "State": "Johor"
    },
    {
        "Postcode": "83700",
        "Location": "Taman Jpn",
        "Post_Office": "Yong Peng",
        "State": "Johor"
    },
    {
        "Postcode": "83700",
        "Location": "Taman Kota Wawasan",
        "Post_Office": "Yong Peng",
        "State": "Johor"
    },
    {
        "Postcode": "83700",
        "Location": "Taman Madu",
        "Post_Office": "Yong Peng",
        "State": "Johor"
    },
    {
        "Postcode": "83700",
        "Location": "Taman Semberong Barat",
        "Post_Office": "Yong Peng",
        "State": "Johor"
    },
    {
        "Postcode": "83700",
        "Location": "Taman Sri Aman",
        "Post_Office": "Yong Peng",
        "State": "Johor"
    },
    {
        "Postcode": "83700",
        "Location": "Taman Sri Bertam",
        "Post_Office": "Yong Peng",
        "State": "Johor"
    },
    {
        "Postcode": "83700",
        "Location": "Taman Sri Rahmat",
        "Post_Office": "Yong Peng",
        "State": "Johor"
    },
    {
        "Postcode": "83700",
        "Location": "Taman Wangi",
        "Post_Office": "Yong Peng",
        "State": "Johor"
    },
    {
        "Postcode": "83700",
        "Location": "Taman Yong Peng A",
        "Post_Office": "Yong Peng",
        "State": "Johor"
    },
    {
        "Postcode": "83700",
        "Location": "Taman Yong Peng B",
        "Post_Office": "Yong Peng",
        "State": "Johor"
    },
    {
        "Postcode": "83700",
        "Location": "Taman Yong Peng Jaya",
        "Post_Office": "Yong Peng",
        "State": "Johor"
    },
    {
        "Postcode": "83700",
        "Location": "Tamanokid",
        "Post_Office": "Yong Peng",
        "State": "Johor"
    },
    {
        "Postcode": "83700",
        "Location": "Tamansutera",
        "Post_Office": "Yong Peng",
        "State": "Johor"
    },
    {
        "Postcode": "83700",
        "Location": "Yong Peng",
        "Post_Office": "Yong Peng",
        "State": "Johor"
    }
]
