[
    {
        "Postcode": "31050",
        "Location": "Kampung Jawang",
        "Post_Office": "Sungai Siput",
        "State": "Perak"
    },
    {
        "Postcode": "31050",
        "Location": "Kampung Salak Utara",
        "Post_Office": "Sungai Siput",
        "State": "Perak"
    },
    {
        "Postcode": "31050",
        "Location": "Kampung Suak Plong",
        "Post_Office": "Sungai Siput",
        "State": "Perak"
    },
    {
        "Postcode": "31050",
        "Location": "Kampung Suak Ponggor",
        "Post_Office": "Sungai Siput",
        "State": "Perak"
    },
    {
        "Postcode": "31050",
        "Location": "Kampung Temin",
        "Post_Office": "Sungai Siput",
        "State": "Perak"
    },
    {
        "Postcode": "31050",
        "Location": "Pasir Kandang",
        "Post_Office": "Sungai Siput",
        "State": "Perak"
    },
    {
        "Postcode": "31050",
        "Location": "Salak Bharu",
        "Post_Office": "Sungai Siput",
        "State": "Perak"
    },
    {
        "Postcode": "31050",
        "Location": "Kampung Pendiat",
        "Post_Office": "Sungai Siput",
        "State": "Perak"
    }
]
