[
    {
        "Postcode": "31100",
        "Location": "Jalan Damai",
        "Post_Office": "Sungai Siput",
        "State": "Perak"
    },
    {
        "Postcode": "31100",
        "Location": "Jalan Gereja",
        "Post_Office": "Sungai Siput",
        "State": "Perak"
    },
    {
        "Postcode": "31100",
        "Location": "Jalan Kelab",
        "Post_Office": "Sungai Siput",
        "State": "Perak"
    },
    {
        "Postcode": "31100",
        "Location": "Jalan Sekolah",
        "Post_Office": "Sungai Siput",
        "State": "Perak"
    },
    {
        "Postcode": "31100",
        "Location": "Jalan Tokong",
        "Post_Office": "Sungai Siput",
        "State": "Perak"
    },
    {
        "Postcode": "31100",
        "Location": "Kampung Batu 11",
        "Post_Office": "Sungai Siput",
        "State": "Perak"
    },
    {
        "Postcode": "31100",
        "Location": "Sungai Durian",
        "Post_Office": "Sungai Siput",
        "State": "Perak"
    },
    {
        "Postcode": "31100",
        "Location": "Taman Permai",
        "Post_Office": "Sungai Siput",
        "State": "Perak"
    },
    {
        "Postcode": "31100",
        "Location": "Kampung Sungai Buloh",
        "Post_Office": "Sungai Siput",
        "State": "Perak"
    },
    {
        "Postcode": "31100",
        "Location": "Back Lane",
        "Post_Office": "Sungai Siput",
        "State": "Perak"
    },
    {
        "Postcode": "31100",
        "Location": "Back Lane Salak",
        "Post_Office": "Sungai Siput",
        "State": "Perak"
    },
    {
        "Postcode": "31100",
        "Location": "Berek Jkr  Jalan Ipoh",
        "Post_Office": "Sungai Siput",
        "State": "Perak"
    },
    {
        "Postcode": "31100",
        "Location": "Changkat Limau",
        "Post_Office": "Sungai Siput",
        "State": "Perak"
    },
    {
        "Postcode": "31100",
        "Location": "Changkat Nering",
        "Post_Office": "Sungai Siput",
        "State": "Perak"
    },
    {
        "Postcode": "31100",
        "Location": "Changkat Sekoi",
        "Post_Office": "Sungai Siput",
        "State": "Perak"
    },
    {
        "Postcode": "31100",
        "Location": "Desa Kledang Utama",
        "Post_Office": "Sungai Siput",
        "State": "Perak"
    },
    {
        "Postcode": "31100",
        "Location": "Hospital Daerah Sungai Siput",
        "Post_Office": "Sungai Siput",
        "State": "Perak"
    },
    {
        "Postcode": "31100",
        "Location": "Jalan Besar (Salak Utara)",
        "Post_Office": "Sungai Siput",
        "State": "Perak"
    },
    {
        "Postcode": "31100",
        "Location": "Jalan Bola Tampar",
        "Post_Office": "Sungai Siput",
        "State": "Perak"
    },
    {
        "Postcode": "31100",
        "Location": "Jalan Harmoni",
        "Post_Office": "Sungai Siput",
        "State": "Perak"
    },
    {
        "Postcode": "31100",
        "Location": "Jalan Ipoh",
        "Post_Office": "Sungai Siput",
        "State": "Perak"
    },
    {
        "Postcode": "31100",
        "Location": "Jalan Jalong",
        "Post_Office": "Sungai Siput",
        "State": "Perak"
    },
    {
        "Postcode": "31100",
        "Location": "Jalan Jalong Tinggi",
        "Post_Office": "Sungai Siput",
        "State": "Perak"
    },
    {
        "Postcode": "31100",
        "Location": "Jalan Kolam Air",
        "Post_Office": "Sungai Siput",
        "State": "Perak"
    },
    {
        "Postcode": "31100",
        "Location": "Jalan Lintang",
        "Post_Office": "Sungai Siput",
        "State": "Perak"
    },
    {
        "Postcode": "31100",
        "Location": "Jalan Lombong",
        "Post_Office": "Sungai Siput",
        "State": "Perak"
    },
    {
        "Postcode": "31100",
        "Location": "Jalan Panggong Wayang",
        "Post_Office": "Sungai Siput",
        "State": "Perak"
    },
    {
        "Postcode": "31100",
        "Location": "Jalan Re",
        "Post_Office": "Sungai Siput",
        "State": "Perak"
    },
    {
        "Postcode": "31100",
        "Location": "Jalan Sekolah Shing Chung",
        "Post_Office": "Sungai Siput",
        "State": "Perak"
    },
    {
        "Postcode": "31100",
        "Location": "Jalan Tok Muda Aziz",
        "Post_Office": "Sungai Siput",
        "State": "Perak"
    },
    {
        "Postcode": "31100",
        "Location": "Jalan Tok Pangku Hamid",
        "Post_Office": "Sungai Siput",
        "State": "Perak"
    },
    {
        "Postcode": "31100",
        "Location": "Jalong",
        "Post_Office": "Sungai Siput",
        "State": "Perak"
    },
    {
        "Postcode": "31100",
        "Location": "Jaya Setia",
        "Post_Office": "Sungai Siput",
        "State": "Perak"
    },
    {
        "Postcode": "31100",
        "Location": "Kampung Ara",
        "Post_Office": "Sungai Siput",
        "State": "Perak"
    },
    {
        "Postcode": "31100",
        "Location": "Kampung Bahari",
        "Post_Office": "Sungai Siput",
        "State": "Perak"
    },
    {
        "Postcode": "31100",
        "Location": "Kampung Baru Lasah",
        "Post_Office": "Sungai Siput",
        "State": "Perak"
    },
    {
        "Postcode": "31100",
        "Location": "Kampung Baru Lintang",
        "Post_Office": "Sungai Siput",
        "State": "Perak"
    },
    {
        "Postcode": "31100",
        "Location": "Kampung Baru Sungai Buloh",
        "Post_Office": "Sungai Siput",
        "State": "Perak"
    },
    {
        "Postcode": "31100",
        "Location": "Kampung Bekut",
        "Post_Office": "Sungai Siput",
        "State": "Perak"
    },
    {
        "Postcode": "31100",
        "Location": "Kampung Bendang Baru",
        "Post_Office": "Sungai Siput",
        "State": "Perak"
    },
    {
        "Postcode": "31100",
        "Location": "Kampung Berothai",
        "Post_Office": "Sungai Siput",
        "State": "Perak"
    },
    {
        "Postcode": "31100",
        "Location": "Kampung Besi Api",
        "Post_Office": "Sungai Siput",
        "State": "Perak"
    },
    {
        "Postcode": "31100",
        "Location": "Kampung Changkat Limau",
        "Post_Office": "Sungai Siput",
        "State": "Perak"
    },
    {
        "Postcode": "31100",
        "Location": "Kampung Changkat Nering",
        "Post_Office": "Sungai Siput",
        "State": "Perak"
    },
    {
        "Postcode": "31100",
        "Location": "Kampung Changkat Salak",
        "Post_Office": "Sungai Siput",
        "State": "Perak"
    },
    {
        "Postcode": "31100",
        "Location": "Kampung Changkat Sekoi",
        "Post_Office": "Sungai Siput",
        "State": "Perak"
    },
    {
        "Postcode": "31100",
        "Location": "Kampung Chow Kok Thye",
        "Post_Office": "Sungai Siput",
        "State": "Perak"
    },
    {
        "Postcode": "31100",
        "Location": "Kampung Dato Sagor",
        "Post_Office": "Sungai Siput",
        "State": "Perak"
    },
    {
        "Postcode": "31100",
        "Location": "Kampung Gopal",
        "Post_Office": "Sungai Siput",
        "State": "Perak"
    },
    {
        "Postcode": "31100",
        "Location": "Kampung Jalan Lintang",
        "Post_Office": "Sungai Siput",
        "State": "Perak"
    },
    {
        "Postcode": "31100",
        "Location": "Kampung Jalong",
        "Post_Office": "Sungai Siput",
        "State": "Perak"
    },
    {
        "Postcode": "31100",
        "Location": "Kampung Jaya Setia",
        "Post_Office": "Sungai Siput",
        "State": "Perak"
    },
    {
        "Postcode": "31100",
        "Location": "Kampung Kebun Teranjuk",
        "Post_Office": "Sungai Siput",
        "State": "Perak"
    },
    {
        "Postcode": "31100",
        "Location": "Kampung Kelimat",
        "Post_Office": "Sungai Siput",
        "State": "Perak"
    },
    {
        "Postcode": "31100",
        "Location": "Kampung Kunca",
        "Post_Office": "Sungai Siput",
        "State": "Perak"
    },
    {
        "Postcode": "31100",
        "Location": "Kampung Lintang",
        "Post_Office": "Sungai Siput",
        "State": "Perak"
    },
    {
        "Postcode": "31100",
        "Location": "Kampung Lor",
        "Post_Office": "Sungai Siput",
        "State": "Perak"
    },
    {
        "Postcode": "31100",
        "Location": "Kampung Olah Kobah",
        "Post_Office": "Sungai Siput",
        "State": "Perak"
    },
    {
        "Postcode": "31100",
        "Location": "Kampung Pasir Kandang",
        "Post_Office": "Sungai Siput",
        "State": "Perak"
    },
    {
        "Postcode": "31100",
        "Location": "Kampung Pondok Lintang",
        "Post_Office": "Sungai Siput",
        "State": "Perak"
    },
    {
        "Postcode": "31100",
        "Location": "Kampung Pulau Ador",
        "Post_Office": "Sungai Siput",
        "State": "Perak"
    },
    {
        "Postcode": "31100",
        "Location": "Kampung Pulau Kemiri",
        "Post_Office": "Sungai Siput",
        "State": "Perak"
    },
    {
        "Postcode": "31100",
        "Location": "Kampung Pulau Mentimun",
        "Post_Office": "Sungai Siput",
        "State": "Perak"
    },
    {
        "Postcode": "31100",
        "Location": "Kampung Salak Baru",
        "Post_Office": "Sungai Siput",
        "State": "Perak"
    },
    {
        "Postcode": "31100",
        "Location": "Kampung Salak Stesyen",
        "Post_Office": "Sungai Siput",
        "State": "Perak"
    },
    {
        "Postcode": "31100",
        "Location": "Kampung Seroli",
        "Post_Office": "Sungai Siput",
        "State": "Perak"
    },
    {
        "Postcode": "31100",
        "Location": "Kampung Simpang Temin",
        "Post_Office": "Sungai Siput",
        "State": "Perak"
    },
    {
        "Postcode": "31100",
        "Location": "Kampung Simpang Tiga Terossor",
        "Post_Office": "Sungai Siput",
        "State": "Perak"
    },
    {
        "Postcode": "31100",
        "Location": "Kampung Suak Plang",
        "Post_Office": "Sungai Siput",
        "State": "Perak"
    },
    {
        "Postcode": "31100",
        "Location": "Kampung Sungai Sejok",
        "Post_Office": "Sungai Siput",
        "State": "Perak"
    },
    {
        "Postcode": "31100",
        "Location": "Kampung Tali Api",
        "Post_Office": "Sungai Siput",
        "State": "Perak"
    },
    {
        "Postcode": "31100",
        "Location": "Kampung Temin Hilir",
        "Post_Office": "Sungai Siput",
        "State": "Perak"
    },
    {
        "Postcode": "31100",
        "Location": "Kampung Temin Hulu",
        "Post_Office": "Sungai Siput",
        "State": "Perak"
    },
    {
        "Postcode": "31100",
        "Location": "Kampung Temin Tengah",
        "Post_Office": "Sungai Siput",
        "State": "Perak"
    },
    {
        "Postcode": "31100",
        "Location": "Kampung Tersusun Kemuning",
        "Post_Office": "Sungai Siput",
        "State": "Perak"
    },
    {
        "Postcode": "31100",
        "Location": "Kampung Tersusun Kledang",
        "Post_Office": "Sungai Siput",
        "State": "Perak"
    },
    {
        "Postcode": "31100",
        "Location": "Kampung Tersusun Kledang Utama",
        "Post_Office": "Sungai Siput",
        "State": "Perak"
    },
    {
        "Postcode": "31100",
        "Location": "Kampung Tersusun Salak Baru",
        "Post_Office": "Sungai Siput",
        "State": "Perak"
    },
    {
        "Postcode": "31100",
        "Location": "Kampung Batu Tiga",
        "Post_Office": "Sungai Siput",
        "State": "Perak"
    },
    {
        "Postcode": "31100",
        "Location": "Kampung Talang Tengah",
        "Post_Office": "Sungai Siput",
        "State": "Perak"
    },
    {
        "Postcode": "31100",
        "Location": "Taman Aman",
        "Post_Office": "Sungai Siput",
        "State": "Perak"
    },
    {
        "Postcode": "31100",
        "Location": "Taman Kenari",
        "Post_Office": "Sungai Siput",
        "State": "Perak"
    },
    {
        "Postcode": "31100",
        "Location": "Taman Pertama",
        "Post_Office": "Sungai Siput",
        "State": "Perak"
    },
    {
        "Postcode": "31100",
        "Location": "Jalan Kuala Kangsar",
        "Post_Office": "Sungai Siput",
        "State": "Perak"
    },
    {
        "Postcode": "31100",
        "Location": "Jalan Padang",
        "Post_Office": "Sungai Siput",
        "State": "Perak"
    },
    {
        "Postcode": "31100",
        "Location": "Kampung Bahagia",
        "Post_Office": "Sungai Siput",
        "State": "Perak"
    },
    {
        "Postcode": "31100",
        "Location": "Kampung Muhibbah Fasa 1",
        "Post_Office": "Sungai Siput",
        "State": "Perak"
    },
    {
        "Postcode": "31100",
        "Location": "Lorong Pasar",
        "Post_Office": "Sungai Siput",
        "State": "Perak"
    },
    {
        "Postcode": "31100",
        "Location": "Taman Lim",
        "Post_Office": "Sungai Siput",
        "State": "Perak"
    },
    {
        "Postcode": "31100",
        "Location": "Taman Makmur",
        "Post_Office": "Sungai Siput",
        "State": "Perak"
    },
    {
        "Postcode": "31100",
        "Location": "Jalan Besar",
        "Post_Office": "Sungai Siput",
        "State": "Perak"
    },
    {
        "Postcode": "31100",
        "Location": "Kampung Bagan Serai",
        "Post_Office": "Sungai Siput",
        "State": "Perak"
    },
    {
        "Postcode": "31100",
        "Location": "Kampung Benggali",
        "Post_Office": "Sungai Siput",
        "State": "Perak"
    },
    {
        "Postcode": "31100",
        "Location": "Kampung Kota",
        "Post_Office": "Sungai Siput",
        "State": "Perak"
    },
    {
        "Postcode": "31100",
        "Location": "Kampung Maamor",
        "Post_Office": "Sungai Siput",
        "State": "Perak"
    },
    {
        "Postcode": "31100",
        "Location": "Kampung Muhibbah",
        "Post_Office": "Sungai Siput",
        "State": "Perak"
    },
    {
        "Postcode": "31100",
        "Location": "Kampung Ramasamy",
        "Post_Office": "Sungai Siput",
        "State": "Perak"
    },
    {
        "Postcode": "31100",
        "Location": "Kampung Sentosa",
        "Post_Office": "Sungai Siput",
        "State": "Perak"
    },
    {
        "Postcode": "31100",
        "Location": "Kampung Sungai Durian",
        "Post_Office": "Sungai Siput",
        "State": "Perak"
    },
    {
        "Postcode": "31100",
        "Location": "Kampung Talang",
        "Post_Office": "Sungai Siput",
        "State": "Perak"
    },
    {
        "Postcode": "31100",
        "Location": "Simpang Tiga",
        "Post_Office": "Sungai Siput",
        "State": "Perak"
    },
    {
        "Postcode": "31100",
        "Location": "Taman Happy",
        "Post_Office": "Sungai Siput",
        "State": "Perak"
    },
    {
        "Postcode": "31100",
        "Location": "Taman Muhibah",
        "Post_Office": "Sungai Siput",
        "State": "Perak"
    },
    {
        "Postcode": "31100",
        "Location": "Kampung Tersusun Salak Station",
        "Post_Office": "Sungai Siput",
        "State": "Perak"
    },
    {
        "Postcode": "31100",
        "Location": "Kampung Tersusun Salak Utara",
        "Post_Office": "Sungai Siput",
        "State": "Perak"
    },
    {
        "Postcode": "31100",
        "Location": "Kampung Tersusun Simpang Jalong",
        "Post_Office": "Sungai Siput",
        "State": "Perak"
    },
    {
        "Postcode": "31100",
        "Location": "Kampung Tersusun Sungai Buloh",
        "Post_Office": "Sungai Siput",
        "State": "Perak"
    },
    {
        "Postcode": "31100",
        "Location": "Kampung Tok Bayas",
        "Post_Office": "Sungai Siput",
        "State": "Perak"
    },
    {
        "Postcode": "31100",
        "Location": "Kampung Tok Sirat",
        "Post_Office": "Sungai Siput",
        "State": "Perak"
    },
    {
        "Postcode": "31100",
        "Location": "Kampung Trosor",
        "Post_Office": "Sungai Siput",
        "State": "Perak"
    },
    {
        "Postcode": "31100",
        "Location": "Kampung Veerasamy",
        "Post_Office": "Sungai Siput",
        "State": "Perak"
    },
    {
        "Postcode": "31100",
        "Location": "Kawasan Industri Fasa 2",
        "Post_Office": "Sungai Siput",
        "State": "Perak"
    },
    {
        "Postcode": "31100",
        "Location": "Kawasan Kilang Fasa 1",
        "Post_Office": "Sungai Siput",
        "State": "Perak"
    },
    {
        "Postcode": "31100",
        "Location": "Kawasan Perindustrian Ringan",
        "Post_Office": "Sungai Siput",
        "State": "Perak"
    },
    {
        "Postcode": "31100",
        "Location": "Kawasan Tersusun Kemuning",
        "Post_Office": "Sungai Siput",
        "State": "Perak"
    },
    {
        "Postcode": "31100",
        "Location": "Kem Kampung Baru Simpang Jalong",
        "Post_Office": "Sungai Siput",
        "State": "Perak"
    },
    {
        "Postcode": "31100",
        "Location": "Ladang Changkat Salak",
        "Post_Office": "Sungai Siput",
        "State": "Perak"
    },
    {
        "Postcode": "31100",
        "Location": "Ladang Heawood",
        "Post_Office": "Sungai Siput",
        "State": "Perak"
    },
    {
        "Postcode": "31100",
        "Location": "Ladang Kamiri",
        "Post_Office": "Sungai Siput",
        "State": "Perak"
    },
    {
        "Postcode": "31100",
        "Location": "Ladang Kamuning",
        "Post_Office": "Sungai Siput",
        "State": "Perak"
    },
    {
        "Postcode": "31100",
        "Location": "Lasah",
        "Post_Office": "Sungai Siput",
        "State": "Perak"
    },
    {
        "Postcode": "31100",
        "Location": "Lintang",
        "Post_Office": "Sungai Siput",
        "State": "Perak"
    },
    {
        "Postcode": "31100",
        "Location": "Lktp Lasah",
        "Post_Office": "Sungai Siput",
        "State": "Perak"
    },
    {
        "Postcode": "31100",
        "Location": "Lorong Teik Aik Teng",
        "Post_Office": "Sungai Siput",
        "State": "Perak"
    },
    {
        "Postcode": "31100",
        "Location": "Lorong Veerasamy",
        "Post_Office": "Sungai Siput",
        "State": "Perak"
    },
    {
        "Postcode": "31100",
        "Location": "Olak Kobah",
        "Post_Office": "Sungai Siput",
        "State": "Perak"
    },
    {
        "Postcode": "31100",
        "Location": "Perlop Dua",
        "Post_Office": "Sungai Siput",
        "State": "Perak"
    },
    {
        "Postcode": "31100",
        "Location": "Perlop Satu",
        "Post_Office": "Sungai Siput",
        "State": "Perak"
    },
    {
        "Postcode": "31100",
        "Location": "Perlop Tiga",
        "Post_Office": "Sungai Siput",
        "State": "Perak"
    },
    {
        "Postcode": "31100",
        "Location": "Perumahan Kos Rendah Dovemby Estate",
        "Post_Office": "Sungai Siput",
        "State": "Perak"
    },
    {
        "Postcode": "31100",
        "Location": "Pulau Kemiri",
        "Post_Office": "Sungai Siput",
        "State": "Perak"
    },
    {
        "Postcode": "31100",
        "Location": "Rancangan Perumahan Awam Lasah",
        "Post_Office": "Sungai Siput",
        "State": "Perak"
    },
    {
        "Postcode": "31100",
        "Location": "Rancangan Perumahan Awam, Rimbang Panjang",
        "Post_Office": "Sungai Siput",
        "State": "Perak"
    },
    {
        "Postcode": "31100",
        "Location": "Rancangan Perumahan Awam, Salak Utama",
        "Post_Office": "Sungai Siput",
        "State": "Perak"
    },
    {
        "Postcode": "31100",
        "Location": "Rimba Panjang",
        "Post_Office": "Sungai Siput",
        "State": "Perak"
    },
    {
        "Postcode": "31100",
        "Location": "Salak Utara",
        "Post_Office": "Sungai Siput",
        "State": "Perak"
    },
    {
        "Postcode": "31100",
        "Location": "Seri Taman",
        "Post_Office": "Sungai Siput",
        "State": "Perak"
    },
    {
        "Postcode": "31100",
        "Location": "Simpang Jalong",
        "Post_Office": "Sungai Siput",
        "State": "Perak"
    },
    {
        "Postcode": "31100",
        "Location": "Suak Plang",
        "Post_Office": "Sungai Siput",
        "State": "Perak"
    },
    {
        "Postcode": "31100",
        "Location": "Sungai Bendang",
        "Post_Office": "Sungai Siput",
        "State": "Perak"
    },
    {
        "Postcode": "31100",
        "Location": "Sungai Sejuk",
        "Post_Office": "Sungai Siput",
        "State": "Perak"
    },
    {
        "Postcode": "31100",
        "Location": "Sungai Siput",
        "Post_Office": "Sungai Siput",
        "State": "Perak"
    },
    {
        "Postcode": "31100",
        "Location": "Taman Aik Moh",
        "Post_Office": "Sungai Siput",
        "State": "Perak"
    },
    {
        "Postcode": "31100",
        "Location": "Taman Bukit Medan",
        "Post_Office": "Sungai Siput",
        "State": "Perak"
    },
    {
        "Postcode": "31100",
        "Location": "Taman Bunga Tanjong",
        "Post_Office": "Sungai Siput",
        "State": "Perak"
    },
    {
        "Postcode": "31100",
        "Location": "Taman Chow Fong",
        "Post_Office": "Sungai Siput",
        "State": "Perak"
    },
    {
        "Postcode": "31100",
        "Location": "Taman Delima",
        "Post_Office": "Sungai Siput",
        "State": "Perak"
    },
    {
        "Postcode": "31100",
        "Location": "Taman Desa Salak",
        "Post_Office": "Sungai Siput",
        "State": "Perak"
    },
    {
        "Postcode": "31100",
        "Location": "Taman Dovemby Fasa 2",
        "Post_Office": "Sungai Siput",
        "State": "Perak"
    },
    {
        "Postcode": "31100",
        "Location": "Taman Heawood",
        "Post_Office": "Sungai Siput",
        "State": "Perak"
    },
    {
        "Postcode": "31100",
        "Location": "Taman Jalong Baru",
        "Post_Office": "Sungai Siput",
        "State": "Perak"
    },
    {
        "Postcode": "31100",
        "Location": "Taman Jalong Utara",
        "Post_Office": "Sungai Siput",
        "State": "Perak"
    },
    {
        "Postcode": "31100",
        "Location": "Taman Jalung",
        "Post_Office": "Sungai Siput",
        "State": "Perak"
    },
    {
        "Postcode": "31100",
        "Location": "Taman Kemiri",
        "Post_Office": "Sungai Siput",
        "State": "Perak"
    },
    {
        "Postcode": "31100",
        "Location": "Taman Lintang",
        "Post_Office": "Sungai Siput",
        "State": "Perak"
    },
    {
        "Postcode": "31100",
        "Location": "Taman Lintang Jaya",
        "Post_Office": "Sungai Siput",
        "State": "Perak"
    },
    {
        "Postcode": "31100",
        "Location": "Taman Lintang Makmur",
        "Post_Office": "Sungai Siput",
        "State": "Perak"
    },
    {
        "Postcode": "31100",
        "Location": "Taman Muhibbah (Fasa 2 B)",
        "Post_Office": "Sungai Siput",
        "State": "Perak"
    },
    {
        "Postcode": "31100",
        "Location": "Taman Muhibbah (Fasa 2A)",
        "Post_Office": "Sungai Siput",
        "State": "Perak"
    },
    {
        "Postcode": "31100",
        "Location": "Taman Muhibbah Aman 3",
        "Post_Office": "Sungai Siput",
        "State": "Perak"
    },
    {
        "Postcode": "31100",
        "Location": "Taman Muhibbah Jaya",
        "Post_Office": "Sungai Siput",
        "State": "Perak"
    },
    {
        "Postcode": "31100",
        "Location": "Taman Okid",
        "Post_Office": "Sungai Siput",
        "State": "Perak"
    },
    {
        "Postcode": "31100",
        "Location": "Taman Periasamy",
        "Post_Office": "Sungai Siput",
        "State": "Perak"
    },
    {
        "Postcode": "31100",
        "Location": "Taman Pertama (Jalan Lintang)",
        "Post_Office": "Sungai Siput",
        "State": "Perak"
    },
    {
        "Postcode": "31100",
        "Location": "Taman Ramasamy",
        "Post_Office": "Sungai Siput",
        "State": "Perak"
    },
    {
        "Postcode": "31100",
        "Location": "Taman Salak Baru",
        "Post_Office": "Sungai Siput",
        "State": "Perak"
    },
    {
        "Postcode": "31100",
        "Location": "Taman Sri Aman",
        "Post_Office": "Sungai Siput",
        "State": "Perak"
    },
    {
        "Postcode": "31100",
        "Location": "Taman Sungai Buloh",
        "Post_Office": "Sungai Siput",
        "State": "Perak"
    },
    {
        "Postcode": "31100",
        "Location": "Taman Tai Chong",
        "Post_Office": "Sungai Siput",
        "State": "Perak"
    },
    {
        "Postcode": "31100",
        "Location": "Taman Tun Sambathan",
        "Post_Office": "Sungai Siput",
        "State": "Perak"
    },
    {
        "Postcode": "31100",
        "Location": "Taman Veerasamy",
        "Post_Office": "Sungai Siput",
        "State": "Perak"
    },
    {
        "Postcode": "31100",
        "Location": "Taman Wan San Yuen",
        "Post_Office": "Sungai Siput",
        "State": "Perak"
    },
    {
        "Postcode": "31100",
        "Location": "Taman Yeoh Tay",
        "Post_Office": "Sungai Siput",
        "State": "Perak"
    },
    {
        "Postcode": "31100",
        "Location": "Temin Ulu",
        "Post_Office": "Sungai Siput",
        "State": "Perak"
    },
    {
        "Postcode": "31100",
        "Location": "Time Garden",
        "Post_Office": "Sungai Siput",
        "State": "Perak"
    }
]
