[
    {
        "Postcode": "31150",
        "Location": "Jalan Sunway City 5/10",
        "Post_Office": "Ulu Kinta",
        "State": "Perak"
    },
    {
        "Postcode": "31150",
        "Location": "Jalan Sunway City 5/8",
        "Post_Office": "Ulu Kinta",
        "State": "Perak"
    },
    {
        "Postcode": "31150",
        "Location": "Jalan Sunway City 5/9",
        "Post_Office": "Ulu Kinta",
        "State": "Perak"
    },
    {
        "Postcode": "31150",
        "Location": "Jalan Sunway City 6/1",
        "Post_Office": "Ulu Kinta",
        "State": "Perak"
    },
    {
        "Postcode": "31150",
        "Location": "Jalan Sunway City 6/2",
        "Post_Office": "Ulu Kinta",
        "State": "Perak"
    },
    {
        "Postcode": "31150",
        "Location": "Jalan Sunway City 6/3",
        "Post_Office": "Ulu Kinta",
        "State": "Perak"
    },
    {
        "Postcode": "31150",
        "Location": "Jalan Sunway City 6/4",
        "Post_Office": "Ulu Kinta",
        "State": "Perak"
    },
    {
        "Postcode": "31150",
        "Location": "Jalan Sunway City 6/5",
        "Post_Office": "Ulu Kinta",
        "State": "Perak"
    },
    {
        "Postcode": "31150",
        "Location": "Kampung Lim Tan",
        "Post_Office": "Ulu Kinta",
        "State": "Perak"
    },
    {
        "Postcode": "31150",
        "Location": "Tambun Hot Spring Retreat",
        "Post_Office": "Ulu Kinta",
        "State": "Perak"
    },
    {
        "Postcode": "31150",
        "Location": "Taman Mewah",
        "Post_Office": "Ulu Kinta",
        "State": "Perak"
    },
    {
        "Postcode": "31150",
        "Location": "Taman Perwira",
        "Post_Office": "Ulu Kinta",
        "State": "Perak"
    },
    {
        "Postcode": "31150",
        "Location": "Taman Saga",
        "Post_Office": "Ulu Kinta",
        "State": "Perak"
    },
    {
        "Postcode": "31150",
        "Location": "Sunway Green Village",
        "Post_Office": "Ulu Kinta",
        "State": "Perak"
    },
    {
        "Postcode": "31150",
        "Location": "Kampung Chadak",
        "Post_Office": "Ulu Kinta",
        "State": "Perak"
    },
    {
        "Postcode": "31150",
        "Location": "Kampung Tersusun",
        "Post_Office": "Ulu Kinta",
        "State": "Perak"
    },
    {
        "Postcode": "31150",
        "Location": "Taman Bistari",
        "Post_Office": "Ulu Kinta",
        "State": "Perak"
    },
    {
        "Postcode": "31150",
        "Location": "Taman Setia",
        "Post_Office": "Ulu Kinta",
        "State": "Perak"
    },
    {
        "Postcode": "31150",
        "Location": "Lembah Perpaduan Damai",
        "Post_Office": "Ulu Kinta",
        "State": "Perak"
    },
    {
        "Postcode": "31150",
        "Location": "Arena Perpaduan Sentosa",
        "Post_Office": "Ulu Kinta",
        "State": "Perak"
    },
    {
        "Postcode": "31150",
        "Location": "Bandar Sunway",
        "Post_Office": "Ulu Kinta",
        "State": "Perak"
    },
    {
        "Postcode": "31150",
        "Location": "Jalan Tapisan Ayer",
        "Post_Office": "Ulu Kinta",
        "State": "Perak"
    },
    {
        "Postcode": "31150",
        "Location": "Kampung Chandak Intek",
        "Post_Office": "Ulu Kinta",
        "State": "Perak"
    },
    {
        "Postcode": "31150",
        "Location": "Kampung Haji Wahab",
        "Post_Office": "Ulu Kinta",
        "State": "Perak"
    },
    {
        "Postcode": "31150",
        "Location": "Kampung Melayu (Km 13)",
        "Post_Office": "Ulu Kinta",
        "State": "Perak"
    },
    {
        "Postcode": "31150",
        "Location": "Kampung Melayu Batu 8",
        "Post_Office": "Ulu Kinta",
        "State": "Perak"
    },
    {
        "Postcode": "31150",
        "Location": "Kampung Sri Makmur",
        "Post_Office": "Ulu Kinta",
        "State": "Perak"
    },
    {
        "Postcode": "31150",
        "Location": "Kampung Suloh",
        "Post_Office": "Ulu Kinta",
        "State": "Perak"
    },
    {
        "Postcode": "31150",
        "Location": "Kampung Sungai Choh",
        "Post_Office": "Ulu Kinta",
        "State": "Perak"
    },
    {
        "Postcode": "31150",
        "Location": "Kampung Tersusun (Batu 6 - 8 1/4)",
        "Post_Office": "Ulu Kinta",
        "State": "Perak"
    },
    {
        "Postcode": "31150",
        "Location": "Kawasan Perindustrian Batu 7 1/2",
        "Post_Office": "Ulu Kinta",
        "State": "Perak"
    },
    {
        "Postcode": "31150",
        "Location": "Kuarters Pendidikan",
        "Post_Office": "Ulu Kinta",
        "State": "Perak"
    },
    {
        "Postcode": "31150",
        "Location": "Persiaran Lagun Sunway 3",
        "Post_Office": "Ulu Kinta",
        "State": "Perak"
    },
    {
        "Postcode": "31150",
        "Location": "Perumahan Awam Ulu Kinta",
        "Post_Office": "Ulu Kinta",
        "State": "Perak"
    },
    {
        "Postcode": "31150",
        "Location": "Sun Way City",
        "Post_Office": "Ulu Kinta",
        "State": "Perak"
    },
    {
        "Postcode": "31150",
        "Location": "Taman Arena Perpaduan Indah",
        "Post_Office": "Ulu Kinta",
        "State": "Perak"
    },
    {
        "Postcode": "31150",
        "Location": "Taman Bagus",
        "Post_Office": "Ulu Kinta",
        "State": "Perak"
    },
    {
        "Postcode": "31150",
        "Location": "Taman Hiburan",
        "Post_Office": "Ulu Kinta",
        "State": "Perak"
    },
    {
        "Postcode": "31150",
        "Location": "Taman Lembah Perpaduan Permai",
        "Post_Office": "Ulu Kinta",
        "State": "Perak"
    },
    {
        "Postcode": "31150",
        "Location": "Taman Malar",
        "Post_Office": "Ulu Kinta",
        "State": "Perak"
    },
    {
        "Postcode": "31150",
        "Location": "Taman Pahlawan",
        "Post_Office": "Ulu Kinta",
        "State": "Perak"
    },
    {
        "Postcode": "31150",
        "Location": "Taman Pakatan Jaya",
        "Post_Office": "Ulu Kinta",
        "State": "Perak"
    },
    {
        "Postcode": "31150",
        "Location": "Taman Perpaduan",
        "Post_Office": "Ulu Kinta",
        "State": "Perak"
    },
    {
        "Postcode": "31150",
        "Location": "Taman Perpaduan Jaya",
        "Post_Office": "Ulu Kinta",
        "State": "Perak"
    },
    {
        "Postcode": "31150",
        "Location": "Taman Perpaduan Ria",
        "Post_Office": "Ulu Kinta",
        "State": "Perak"
    },
    {
        "Postcode": "31150",
        "Location": "Taman Tambun Mas",
        "Post_Office": "Ulu Kinta",
        "State": "Perak"
    },
    {
        "Postcode": "31150",
        "Location": "Taman Tanjong Mewah",
        "Post_Office": "Ulu Kinta",
        "State": "Perak"
    },
    {
        "Postcode": "31150",
        "Location": "Taman Ukay Raya",
        "Post_Office": "Ulu Kinta",
        "State": "Perak"
    },
    {
        "Postcode": "31150",
        "Location": "Ulu Kinta",
        "Post_Office": "Ulu Kinta",
        "State": "Perak"
    },
    {
        "Postcode": "31150",
        "Location": "Villa Perpaduan",
        "Post_Office": "Ulu Kinta",
        "State": "Perak"
    }
]
