[
    {
        "Postcode": "31200",
        "Location": "Chemor Setia 1",
        "Post_Office": "Chemor",
        "State": "Perak"
    },
    {
        "Postcode": "31200",
        "Location": "Chemor Setia 2",
        "Post_Office": "Chemor",
        "State": "Perak"
    },
    {
        "Postcode": "31200",
        "Location": "Chemor Setia 3",
        "Post_Office": "Chemor",
        "State": "Perak"
    },
    {
        "Postcode": "31200",
        "Location": "Chemor Setia 4",
        "Post_Office": "Chemor",
        "State": "Perak"
    },
    {
        "Postcode": "31200",
        "Location": "Chemor Setia 5",
        "Post_Office": "Chemor",
        "State": "Perak"
    },
    {
        "Postcode": "31200",
        "Location": "Chemor Setia 6",
        "Post_Office": "Chemor",
        "State": "Perak"
    },
    {
        "Postcode": "31200",
        "Location": "Chemor Setia 7",
        "Post_Office": "Chemor",
        "State": "Perak"
    },
    {
        "Postcode": "31200",
        "Location": "Chepor Sentosa 1",
        "Post_Office": "Chemor",
        "State": "Perak"
    },
    {
        "Postcode": "31200",
        "Location": "Chepor Sentosa 10",
        "Post_Office": "Chemor",
        "State": "Perak"
    },
    {
        "Postcode": "31200",
        "Location": "Chepor Sentosa 11",
        "Post_Office": "Chemor",
        "State": "Perak"
    },
    {
        "Postcode": "31200",
        "Location": "Chepor Sentosa 12",
        "Post_Office": "Chemor",
        "State": "Perak"
    },
    {
        "Postcode": "31200",
        "Location": "Chepor Sentosa 13",
        "Post_Office": "Chemor",
        "State": "Perak"
    },
    {
        "Postcode": "31200",
        "Location": "Chepor Sentosa 14",
        "Post_Office": "Chemor",
        "State": "Perak"
    },
    {
        "Postcode": "31200",
        "Location": "Chepor Sentosa 15",
        "Post_Office": "Chemor",
        "State": "Perak"
    },
    {
        "Postcode": "31200",
        "Location": "Chepor Sentosa 16",
        "Post_Office": "Chemor",
        "State": "Perak"
    },
    {
        "Postcode": "31200",
        "Location": "Chepor Sentosa 17",
        "Post_Office": "Chemor",
        "State": "Perak"
    },
    {
        "Postcode": "31200",
        "Location": "Chepor Sentosa 18",
        "Post_Office": "Chemor",
        "State": "Perak"
    },
    {
        "Postcode": "31200",
        "Location": "Chepor Sentosa 19",
        "Post_Office": "Chemor",
        "State": "Perak"
    },
    {
        "Postcode": "31200",
        "Location": "Chepor Sentosa 2",
        "Post_Office": "Chemor",
        "State": "Perak"
    },
    {
        "Postcode": "31200",
        "Location": "Chepor Sentosa 20",
        "Post_Office": "Chemor",
        "State": "Perak"
    },
    {
        "Postcode": "31200",
        "Location": "Chepor Sentosa 21",
        "Post_Office": "Chemor",
        "State": "Perak"
    },
    {
        "Postcode": "31200",
        "Location": "Chepor Sentosa 3",
        "Post_Office": "Chemor",
        "State": "Perak"
    },
    {
        "Postcode": "31200",
        "Location": "Chepor Sentosa 4",
        "Post_Office": "Chemor",
        "State": "Perak"
    },
    {
        "Postcode": "31200",
        "Location": "Chepor Sentosa 5",
        "Post_Office": "Chemor",
        "State": "Perak"
    },
    {
        "Postcode": "31200",
        "Location": "Chepor Sentosa 6",
        "Post_Office": "Chemor",
        "State": "Perak"
    },
    {
        "Postcode": "31200",
        "Location": "Chepor Sentosa 7",
        "Post_Office": "Chemor",
        "State": "Perak"
    },
    {
        "Postcode": "31200",
        "Location": "Chepor Sentosa 8",
        "Post_Office": "Chemor",
        "State": "Perak"
    },
    {
        "Postcode": "31200",
        "Location": "Chepor Sentosa 9",
        "Post_Office": "Chemor",
        "State": "Perak"
    },
    {
        "Postcode": "31200",
        "Location": "Jalan Anggerik 1",
        "Post_Office": "Chemor",
        "State": "Perak"
    },
    {
        "Postcode": "31200",
        "Location": "Jalan Anggerik 10",
        "Post_Office": "Chemor",
        "State": "Perak"
    },
    {
        "Postcode": "31200",
        "Location": "Jalan Anggerik 11",
        "Post_Office": "Chemor",
        "State": "Perak"
    },
    {
        "Postcode": "31200",
        "Location": "Jalan Anggerik 12",
        "Post_Office": "Chemor",
        "State": "Perak"
    },
    {
        "Postcode": "31200",
        "Location": "Jalan Anggerik 13",
        "Post_Office": "Chemor",
        "State": "Perak"
    },
    {
        "Postcode": "31200",
        "Location": "Jalan Anggerik 14",
        "Post_Office": "Chemor",
        "State": "Perak"
    },
    {
        "Postcode": "31200",
        "Location": "Jalan Anggerik 15",
        "Post_Office": "Chemor",
        "State": "Perak"
    },
    {
        "Postcode": "31200",
        "Location": "Jalan Anggerik 16",
        "Post_Office": "Chemor",
        "State": "Perak"
    },
    {
        "Postcode": "31200",
        "Location": "Jalan Anggerik 17",
        "Post_Office": "Chemor",
        "State": "Perak"
    },
    {
        "Postcode": "31200",
        "Location": "Jalan Anggerik 18",
        "Post_Office": "Chemor",
        "State": "Perak"
    },
    {
        "Postcode": "31200",
        "Location": "Jalan Anggerik 19",
        "Post_Office": "Chemor",
        "State": "Perak"
    },
    {
        "Postcode": "31200",
        "Location": "Jalan Anggerik 2",
        "Post_Office": "Chemor",
        "State": "Perak"
    },
    {
        "Postcode": "31200",
        "Location": "Jalan Anggerik 20",
        "Post_Office": "Chemor",
        "State": "Perak"
    },
    {
        "Postcode": "31200",
        "Location": "Jalan Anggerik 21",
        "Post_Office": "Chemor",
        "State": "Perak"
    },
    {
        "Postcode": "31200",
        "Location": "Jalan Anggerik 22",
        "Post_Office": "Chemor",
        "State": "Perak"
    },
    {
        "Postcode": "31200",
        "Location": "Jalan Anggerik 23",
        "Post_Office": "Chemor",
        "State": "Perak"
    },
    {
        "Postcode": "31200",
        "Location": "Jalan Anggerik 24",
        "Post_Office": "Chemor",
        "State": "Perak"
    },
    {
        "Postcode": "31200",
        "Location": "Jalan Anggerik 3",
        "Post_Office": "Chemor",
        "State": "Perak"
    },
    {
        "Postcode": "31200",
        "Location": "Jalan Anggerik 4",
        "Post_Office": "Chemor",
        "State": "Perak"
    },
    {
        "Postcode": "31200",
        "Location": "Jalan Anggerik 5",
        "Post_Office": "Chemor",
        "State": "Perak"
    },
    {
        "Postcode": "31200",
        "Location": "Jalan Anggerik 6",
        "Post_Office": "Chemor",
        "State": "Perak"
    },
    {
        "Postcode": "31200",
        "Location": "Jalan Anggerik 7",
        "Post_Office": "Chemor",
        "State": "Perak"
    },
    {
        "Postcode": "31200",
        "Location": "Jalan Anggerik 8",
        "Post_Office": "Chemor",
        "State": "Perak"
    },
    {
        "Postcode": "31200",
        "Location": "Jalan Anggerik 9",
        "Post_Office": "Chemor",
        "State": "Perak"
    },
    {
        "Postcode": "31200",
        "Location": "Jalan Chemor Sejahtera 1",
        "Post_Office": "Chemor",
        "State": "Perak"
    },
    {
        "Postcode": "31200",
        "Location": "Jalan Chemor Sejahtera 2",
        "Post_Office": "Chemor",
        "State": "Perak"
    },
    {
        "Postcode": "31200",
        "Location": "Jalan Chemor Sejahtera 3",
        "Post_Office": "Chemor",
        "State": "Perak"
    },
    {
        "Postcode": "31200",
        "Location": "Jalan Chemor Sejahtera 4",
        "Post_Office": "Chemor",
        "State": "Perak"
    },
    {
        "Postcode": "31200",
        "Location": "Jalan Chemor Sejahtera 5",
        "Post_Office": "Chemor",
        "State": "Perak"
    },
    {
        "Postcode": "31200",
        "Location": "Jalan Chemor Sejahtera 6",
        "Post_Office": "Chemor",
        "State": "Perak"
    },
    {
        "Postcode": "31200",
        "Location": "Kanthan Baru 1",
        "Post_Office": "Chemor",
        "State": "Perak"
    },
    {
        "Postcode": "31200",
        "Location": "Kanthan Baru 10",
        "Post_Office": "Chemor",
        "State": "Perak"
    },
    {
        "Postcode": "31200",
        "Location": "Kanthan Baru 11",
        "Post_Office": "Chemor",
        "State": "Perak"
    },
    {
        "Postcode": "31200",
        "Location": "Kanthan Baru 12",
        "Post_Office": "Chemor",
        "State": "Perak"
    },
    {
        "Postcode": "31200",
        "Location": "Kanthan Baru 13",
        "Post_Office": "Chemor",
        "State": "Perak"
    },
    {
        "Postcode": "31200",
        "Location": "Kanthan Baru 14",
        "Post_Office": "Chemor",
        "State": "Perak"
    },
    {
        "Postcode": "31200",
        "Location": "Kanthan Baru 15",
        "Post_Office": "Chemor",
        "State": "Perak"
    },
    {
        "Postcode": "31200",
        "Location": "Kanthan Baru 16",
        "Post_Office": "Chemor",
        "State": "Perak"
    },
    {
        "Postcode": "31200",
        "Location": "Kanthan Baru 17",
        "Post_Office": "Chemor",
        "State": "Perak"
    },
    {
        "Postcode": "31200",
        "Location": "Kanthan Baru 18",
        "Post_Office": "Chemor",
        "State": "Perak"
    },
    {
        "Postcode": "31200",
        "Location": "Kanthan Baru 19",
        "Post_Office": "Chemor",
        "State": "Perak"
    },
    {
        "Postcode": "31200",
        "Location": "Kanthan Baru 2",
        "Post_Office": "Chemor",
        "State": "Perak"
    },
    {
        "Postcode": "31200",
        "Location": "Kanthan Baru 20",
        "Post_Office": "Chemor",
        "State": "Perak"
    },
    {
        "Postcode": "31200",
        "Location": "Kanthan Baru 21",
        "Post_Office": "Chemor",
        "State": "Perak"
    },
    {
        "Postcode": "31200",
        "Location": "Kanthan Baru 3",
        "Post_Office": "Chemor",
        "State": "Perak"
    },
    {
        "Postcode": "31200",
        "Location": "Kanthan Baru 4",
        "Post_Office": "Chemor",
        "State": "Perak"
    },
    {
        "Postcode": "31200",
        "Location": "Kanthan Baru 5",
        "Post_Office": "Chemor",
        "State": "Perak"
    },
    {
        "Postcode": "31200",
        "Location": "Kanthan Baru 6",
        "Post_Office": "Chemor",
        "State": "Perak"
    },
    {
        "Postcode": "31200",
        "Location": "Kanthan Baru 7",
        "Post_Office": "Chemor",
        "State": "Perak"
    },
    {
        "Postcode": "31200",
        "Location": "Kanthan Baru 8",
        "Post_Office": "Chemor",
        "State": "Perak"
    },
    {
        "Postcode": "31200",
        "Location": "Kanthan Baru 9",
        "Post_Office": "Chemor",
        "State": "Perak"
    },
    {
        "Postcode": "31200",
        "Location": "Klebang Bayu S/1",
        "Post_Office": "Chemor",
        "State": "Perak"
    },
    {
        "Postcode": "31200",
        "Location": "Klebang Bayu S/2",
        "Post_Office": "Chemor",
        "State": "Perak"
    },
    {
        "Postcode": "31200",
        "Location": "Klebang Bayu S/3",
        "Post_Office": "Chemor",
        "State": "Perak"
    },
    {
        "Postcode": "31200",
        "Location": "Klebang Bayu S/4",
        "Post_Office": "Chemor",
        "State": "Perak"
    },
    {
        "Postcode": "31200",
        "Location": "Klebang Bayu S/5",
        "Post_Office": "Chemor",
        "State": "Perak"
    },
    {
        "Postcode": "31200",
        "Location": "Klebang Bayu S/6",
        "Post_Office": "Chemor",
        "State": "Perak"
    },
    {
        "Postcode": "31200",
        "Location": "Klebang Bayu S/7",
        "Post_Office": "Chemor",
        "State": "Perak"
    },
    {
        "Postcode": "31200",
        "Location": "Klebang Bayu U/1",
        "Post_Office": "Chemor",
        "State": "Perak"
    },
    {
        "Postcode": "31200",
        "Location": "Klebang Bayu U/2",
        "Post_Office": "Chemor",
        "State": "Perak"
    },
    {
        "Postcode": "31200",
        "Location": "Klebang Bayu U/3",
        "Post_Office": "Chemor",
        "State": "Perak"
    },
    {
        "Postcode": "31200",
        "Location": "Klebang Bayu U/4",
        "Post_Office": "Chemor",
        "State": "Perak"
    },
    {
        "Postcode": "31200",
        "Location": "Klebang Bayu U/5",
        "Post_Office": "Chemor",
        "State": "Perak"
    },
    {
        "Postcode": "31200",
        "Location": "Klebang Bayu U/6",
        "Post_Office": "Chemor",
        "State": "Perak"
    },
    {
        "Postcode": "31200",
        "Location": "Laluan Chemor Maju 13",
        "Post_Office": "Chemor",
        "State": "Perak"
    },
    {
        "Postcode": "31200",
        "Location": "Laluan Chemor Maju 14",
        "Post_Office": "Chemor",
        "State": "Perak"
    },
    {
        "Postcode": "31200",
        "Location": "Laluan Chemor Maju 15",
        "Post_Office": "Chemor",
        "State": "Perak"
    },
    {
        "Postcode": "31200",
        "Location": "Laluan Chemor Maju 16",
        "Post_Office": "Chemor",
        "State": "Perak"
    },
    {
        "Postcode": "31200",
        "Location": "Sri Klebang A/12",
        "Post_Office": "Chemor",
        "State": "Perak"
    },
    {
        "Postcode": "31200",
        "Location": "Sri Klebang A/13",
        "Post_Office": "Chemor",
        "State": "Perak"
    },
    {
        "Postcode": "31200",
        "Location": "Sri Klebang A/14",
        "Post_Office": "Chemor",
        "State": "Perak"
    },
    {
        "Postcode": "31200",
        "Location": "Sri Klebang A/15",
        "Post_Office": "Chemor",
        "State": "Perak"
    },
    {
        "Postcode": "31200",
        "Location": "Sri Klebang A/16",
        "Post_Office": "Chemor",
        "State": "Perak"
    },
    {
        "Postcode": "31200",
        "Location": "Sri Klebang A/17",
        "Post_Office": "Chemor",
        "State": "Perak"
    },
    {
        "Postcode": "31200",
        "Location": "Sri Klebang A/18",
        "Post_Office": "Chemor",
        "State": "Perak"
    },
    {
        "Postcode": "31200",
        "Location": "Kampung Tanah Hitam",
        "Post_Office": "Chemor",
        "State": "Perak"
    },
    {
        "Postcode": "31200",
        "Location": "Laluan Seri Kuang 21",
        "Post_Office": "Chemor",
        "State": "Perak"
    },
    {
        "Postcode": "31200",
        "Location": "Taman Bunga Raya",
        "Post_Office": "Chemor",
        "State": "Perak"
    },
    {
        "Postcode": "31200",
        "Location": "Taman Mas",
        "Post_Office": "Chemor",
        "State": "Perak"
    },
    {
        "Postcode": "31200",
        "Location": "Kampung Chepor",
        "Post_Office": "Chemor",
        "State": "Perak"
    },
    {
        "Postcode": "31200",
        "Location": "Klebang Perdana",
        "Post_Office": "Chemor",
        "State": "Perak"
    },
    {
        "Postcode": "31200",
        "Location": "Perindustrial Klebang Maju",
        "Post_Office": "Chemor",
        "State": "Perak"
    },
    {
        "Postcode": "31200",
        "Location": "Kampung Batu 9",
        "Post_Office": "Chemor",
        "State": "Perak"
    },
    {
        "Postcode": "31200",
        "Location": "Kampung Jawa",
        "Post_Office": "Chemor",
        "State": "Perak"
    },
    {
        "Postcode": "31200",
        "Location": "Kampung Pisang",
        "Post_Office": "Chemor",
        "State": "Perak"
    },
    {
        "Postcode": "31200",
        "Location": "Kampung Tersusun Batu 10",
        "Post_Office": "Chemor",
        "State": "Perak"
    },
    {
        "Postcode": "31200",
        "Location": "Bandar Baru Sri Klebang",
        "Post_Office": "Chemor",
        "State": "Perak"
    },
    {
        "Postcode": "31200",
        "Location": "Chemor",
        "Post_Office": "Chemor",
        "State": "Perak"
    },
    {
        "Postcode": "31200",
        "Location": "Chemor Estate",
        "Post_Office": "Chemor",
        "State": "Perak"
    },
    {
        "Postcode": "31200",
        "Location": "Desa Chemor Permai",
        "Post_Office": "Chemor",
        "State": "Perak"
    },
    {
        "Postcode": "31200",
        "Location": "Desa Chemor Seri Kuang",
        "Post_Office": "Chemor",
        "State": "Perak"
    },
    {
        "Postcode": "31200",
        "Location": "Desa Chemor Setia",
        "Post_Office": "Chemor",
        "State": "Perak"
    },
    {
        "Postcode": "31200",
        "Location": "Desa Chemor Sinaran",
        "Post_Office": "Chemor",
        "State": "Perak"
    },
    {
        "Postcode": "31200",
        "Location": "Desa Sri Chepor",
        "Post_Office": "Chemor",
        "State": "Perak"
    },
    {
        "Postcode": "31200",
        "Location": "Jalan Sri Klebang 1",
        "Post_Office": "Chemor",
        "State": "Perak"
    },
    {
        "Postcode": "31200",
        "Location": "Kampung Baru Kanthanlama",
        "Post_Office": "Chemor",
        "State": "Perak"
    },
    {
        "Postcode": "31200",
        "Location": "Kampung Baru Ulu Chemor",
        "Post_Office": "Chemor",
        "State": "Perak"
    },
    {
        "Postcode": "31200",
        "Location": "Kampung Che Zainal Tambahan",
        "Post_Office": "Chemor",
        "State": "Perak"
    },
    {
        "Postcode": "31200",
        "Location": "Kampung Cik Zainal",
        "Post_Office": "Chemor",
        "State": "Perak"
    },
    {
        "Postcode": "31200",
        "Location": "Kampung Haridass",
        "Post_Office": "Chemor",
        "State": "Perak"
    },
    {
        "Postcode": "31200",
        "Location": "Kampung Jasa",
        "Post_Office": "Chemor",
        "State": "Perak"
    },
    {
        "Postcode": "31200",
        "Location": "Kampung Sellapan",
        "Post_Office": "Chemor",
        "State": "Perak"
    },
    {
        "Postcode": "31200",
        "Location": "Kampung Seri Desa",
        "Post_Office": "Chemor",
        "State": "Perak"
    },
    {
        "Postcode": "31200",
        "Location": "Kampung Seri Kelabang",
        "Post_Office": "Chemor",
        "State": "Perak"
    },
    {
        "Postcode": "31200",
        "Location": "Kampung Tersusun Batu 6",
        "Post_Office": "Chemor",
        "State": "Perak"
    },
    {
        "Postcode": "31200",
        "Location": "Kampung Tersusun Seri Klebang",
        "Post_Office": "Chemor",
        "State": "Perak"
    },
    {
        "Postcode": "31200",
        "Location": "Kampung Tersusun Tanah Hitam",
        "Post_Office": "Chemor",
        "State": "Perak"
    },
    {
        "Postcode": "31200",
        "Location": "Kampung Tersusun Ulu Chemor",
        "Post_Office": "Chemor",
        "State": "Perak"
    },
    {
        "Postcode": "31200",
        "Location": "Kampung Ulu Chemor",
        "Post_Office": "Chemor",
        "State": "Perak"
    },
    {
        "Postcode": "31200",
        "Location": "Kampung Ulu Chepor",
        "Post_Office": "Chemor",
        "State": "Perak"
    },
    {
        "Postcode": "31200",
        "Location": "Kampung Ulu Chepor Tambahan",
        "Post_Office": "Chemor",
        "State": "Perak"
    },
    {
        "Postcode": "31200",
        "Location": "Kampung Ulu Kuang",
        "Post_Office": "Chemor",
        "State": "Perak"
    },
    {
        "Postcode": "31200",
        "Location": "Kanthan Baru",
        "Post_Office": "Chemor",
        "State": "Perak"
    },
    {
        "Postcode": "31200",
        "Location": "Kanthan Estate",
        "Post_Office": "Chemor",
        "State": "Perak"
    },
    {
        "Postcode": "31200",
        "Location": "Kawasan Perusahan Igb",
        "Post_Office": "Chemor",
        "State": "Perak"
    },
    {
        "Postcode": "31200",
        "Location": "Kinding Permai",
        "Post_Office": "Chemor",
        "State": "Perak"
    },
    {
        "Postcode": "31200",
        "Location": "Klebang Impian",
        "Post_Office": "Chemor",
        "State": "Perak"
    },
    {
        "Postcode": "31200",
        "Location": "Klebang Jaya",
        "Post_Office": "Chemor",
        "State": "Perak"
    },
    {
        "Postcode": "31200",
        "Location": "Klebang Kiara",
        "Post_Office": "Chemor",
        "State": "Perak"
    },
    {
        "Postcode": "31200",
        "Location": "Kuala Kuang",
        "Post_Office": "Chemor",
        "State": "Perak"
    },
    {
        "Postcode": "31200",
        "Location": "Ladang Klebang",
        "Post_Office": "Chemor",
        "State": "Perak"
    },
    {
        "Postcode": "31200",
        "Location": "Ladang Kok Lim",
        "Post_Office": "Chemor",
        "State": "Perak"
    },
    {
        "Postcode": "31200",
        "Location": "Ladang Sungai Prah",
        "Post_Office": "Chemor",
        "State": "Perak"
    },
    {
        "Postcode": "31200",
        "Location": "Laluan Chemor Maju 4A",
        "Post_Office": "Chemor",
        "State": "Perak"
    },
    {
        "Postcode": "31200",
        "Location": "Leboh Kanthan Baru",
        "Post_Office": "Chemor",
        "State": "Perak"
    },
    {
        "Postcode": "31200",
        "Location": "Medan Klebang Resru",
        "Post_Office": "Chemor",
        "State": "Perak"
    },
    {
        "Postcode": "31200",
        "Location": "Rancangan Kampung Tersusun Chepor",
        "Post_Office": "Chemor",
        "State": "Perak"
    },
    {
        "Postcode": "31200",
        "Location": "Seramik Fasa 2",
        "Post_Office": "Chemor",
        "State": "Perak"
    },
    {
        "Postcode": "31200",
        "Location": "Taman Bertuah",
        "Post_Office": "Chemor",
        "State": "Perak"
    },
    {
        "Postcode": "31200",
        "Location": "Taman Cemerlang Kanthan",
        "Post_Office": "Chemor",
        "State": "Perak"
    },
    {
        "Postcode": "31200",
        "Location": "Taman Chemor",
        "Post_Office": "Chemor",
        "State": "Perak"
    },
    {
        "Postcode": "31200",
        "Location": "Taman Chemor Maju",
        "Post_Office": "Chemor",
        "State": "Perak"
    },
    {
        "Postcode": "31200",
        "Location": "Taman Chemor Mesra",
        "Post_Office": "Chemor",
        "State": "Perak"
    },
    {
        "Postcode": "31200",
        "Location": "Taman Chemor Setia",
        "Post_Office": "Chemor",
        "State": "Perak"
    },
    {
        "Postcode": "31200",
        "Location": "Taman Chepor Damai",
        "Post_Office": "Chemor",
        "State": "Perak"
    },
    {
        "Postcode": "31200",
        "Location": "Taman Chepor Impian",
        "Post_Office": "Chemor",
        "State": "Perak"
    },
    {
        "Postcode": "31200",
        "Location": "Taman Chepor Jaya",
        "Post_Office": "Chemor",
        "State": "Perak"
    },
    {
        "Postcode": "31200",
        "Location": "Taman Chepor Raya",
        "Post_Office": "Chemor",
        "State": "Perak"
    },
    {
        "Postcode": "31200",
        "Location": "Taman Cho Poh",
        "Post_Office": "Chemor",
        "State": "Perak"
    },
    {
        "Postcode": "31200",
        "Location": "Taman Desa Rasi",
        "Post_Office": "Chemor",
        "State": "Perak"
    },
    {
        "Postcode": "31200",
        "Location": "Taman Hartawan Pertama",
        "Post_Office": "Chemor",
        "State": "Perak"
    },
    {
        "Postcode": "31200",
        "Location": "Taman Kanthan Baru",
        "Post_Office": "Chemor",
        "State": "Perak"
    },
    {
        "Postcode": "31200",
        "Location": "Taman Kelabang Jaya",
        "Post_Office": "Chemor",
        "State": "Perak"
    },
    {
        "Postcode": "31200",
        "Location": "Taman Klebang Bayu",
        "Post_Office": "Chemor",
        "State": "Perak"
    },
    {
        "Postcode": "31200",
        "Location": "Taman Kuala Kuang",
        "Post_Office": "Chemor",
        "State": "Perak"
    },
    {
        "Postcode": "31200",
        "Location": "Taman Leow Sum",
        "Post_Office": "Chemor",
        "State": "Perak"
    },
    {
        "Postcode": "31200",
        "Location": "Taman Mas (Chemor)",
        "Post_Office": "Chemor",
        "State": "Perak"
    },
    {
        "Postcode": "31200",
        "Location": "Taman Seri Chemor",
        "Post_Office": "Chemor",
        "State": "Perak"
    },
    {
        "Postcode": "31200",
        "Location": "Taman Seri Kanthan",
        "Post_Office": "Chemor",
        "State": "Perak"
    },
    {
        "Postcode": "31200",
        "Location": "Tamil Settlement",
        "Post_Office": "Chemor",
        "State": "Perak"
    },
    {
        "Postcode": "31200",
        "Location": "Tanah Hitam",
        "Post_Office": "Chemor",
        "State": "Perak"
    },
    {
        "Postcode": "31200",
        "Location": "Ulu Kuang",
        "Post_Office": "Chemor",
        "State": "Perak"
    }
]
