[
    {
        "Postcode": "31250",
        "Location": "Taman Nesa",
        "Post_Office": "Tanjong Rambutan",
        "State": "Perak"
    },
    {
        "Postcode": "31250",
        "Location": "Kampung Lim Tan",
        "Post_Office": "Tanjong Rambutan",
        "State": "Perak"
    },
    {
        "Postcode": "31250",
        "Location": "Taman Berjaya",
        "Post_Office": "Tanjong Rambutan\r\n",
        "State": "Perak"
    },
    {
        "Postcode": "31250",
        "Location": "Rpt Tanjung Damai",
        "Post_Office": "Tanjong Rambutan",
        "State": "Perak"
    },
    {
        "Postcode": "31250",
        "Location": "Taman Desa Jaya",
        "Post_Office": "Tanjong Rambutan",
        "State": "Perak"
    },
    {
        "Postcode": "31250",
        "Location": "Taman Maju",
        "Post_Office": "Tanjong Rambutan",
        "State": "Perak"
    },
    {
        "Postcode": "31250",
        "Location": "Taman Muhibbah",
        "Post_Office": "Tanjong Rambutan",
        "State": "Perak"
    },
    {
        "Postcode": "31250",
        "Location": "Kampung Bakar Bata",
        "Post_Office": "Tanjong Rambutan",
        "State": "Perak"
    },
    {
        "Postcode": "31250",
        "Location": "Kampung Kolam",
        "Post_Office": "Tanjong Rambutan",
        "State": "Perak"
    },
    {
        "Postcode": "31250",
        "Location": "Taman Bahagia",
        "Post_Office": "Tanjong Rambutan",
        "State": "Perak"
    },
    {
        "Postcode": "31250",
        "Location": "Kampung Masjid",
        "Post_Office": "Tanjong Rambutan",
        "State": "Perak"
    },
    {
        "Postcode": "31250",
        "Location": "Rumah Murah",
        "Post_Office": "Tanjong Rambutan",
        "State": "Perak"
    },
    {
        "Postcode": "31250",
        "Location": "Taman Indah",
        "Post_Office": "Tanjong Rambutan",
        "State": "Perak"
    },
    {
        "Postcode": "31250",
        "Location": "Changkat Kinding",
        "Post_Office": "Tanjong Rambutan",
        "State": "Perak"
    },
    {
        "Postcode": "31250",
        "Location": "Hospital Bahagia",
        "Post_Office": "Tanjong Rambutan",
        "State": "Perak"
    },
    {
        "Postcode": "31250",
        "Location": "Jalan Chemor",
        "Post_Office": "Tanjong Rambutan",
        "State": "Perak"
    },
    {
        "Postcode": "31250",
        "Location": "Kampung Chee",
        "Post_Office": "Tanjong Rambutan",
        "State": "Perak"
    },
    {
        "Postcode": "31250",
        "Location": "Kampung Cheh India",
        "Post_Office": "Tanjong Rambutan",
        "State": "Perak"
    },
    {
        "Postcode": "31250",
        "Location": "Kampung Cheh Melayu",
        "Post_Office": "Tanjong Rambutan",
        "State": "Perak"
    },
    {
        "Postcode": "31250",
        "Location": "Kampung Manikuty",
        "Post_Office": "Tanjong Rambutan",
        "State": "Perak"
    },
    {
        "Postcode": "31250",
        "Location": "Kampung Tanggong",
        "Post_Office": "Tanjong Rambutan",
        "State": "Perak"
    },
    {
        "Postcode": "31250",
        "Location": "North Ward",
        "Post_Office": "Tanjong Rambutan",
        "State": "Perak"
    },
    {
        "Postcode": "31250",
        "Location": "South Ward",
        "Post_Office": "Tanjong Rambutan",
        "State": "Perak"
    },
    {
        "Postcode": "31250",
        "Location": "Taman Bercham Raya",
        "Post_Office": "Tanjong Rambutan",
        "State": "Perak"
    },
    {
        "Postcode": "31250",
        "Location": "Taman Berjaya Baru",
        "Post_Office": "Tanjong Rambutan",
        "State": "Perak"
    },
    {
        "Postcode": "31250",
        "Location": "Taman Berjaya Selatan",
        "Post_Office": "Tanjong Rambutan",
        "State": "Perak"
    },
    {
        "Postcode": "31250",
        "Location": "Taman Chong Kwee",
        "Post_Office": "Tanjong Rambutan",
        "State": "Perak"
    },
    {
        "Postcode": "31250",
        "Location": "Taman Gerbang Tanjung Permai",
        "Post_Office": "Tanjong Rambutan",
        "State": "Perak"
    },
    {
        "Postcode": "31250",
        "Location": "Taman Intan Jalan Chemor",
        "Post_Office": "Tanjong Rambutan",
        "State": "Perak"
    },
    {
        "Postcode": "31250",
        "Location": "Taman Intan Jaya",
        "Post_Office": "Tanjong Rambutan",
        "State": "Perak"
    },
    {
        "Postcode": "31250",
        "Location": "Taman Jaya Delima",
        "Post_Office": "Tanjong Rambutan",
        "State": "Perak"
    },
    {
        "Postcode": "31250",
        "Location": "Taman Johty",
        "Post_Office": "Tanjong Rambutan",
        "State": "Perak"
    },
    {
        "Postcode": "31250",
        "Location": "Taman Kinta Jaya",
        "Post_Office": "Tanjong Rambutan",
        "State": "Perak"
    },
    {
        "Postcode": "31250",
        "Location": "Taman Rambutan",
        "Post_Office": "Tanjong Rambutan",
        "State": "Perak"
    },
    {
        "Postcode": "31250",
        "Location": "Taman Seri Padu",
        "Post_Office": "Tanjong Rambutan",
        "State": "Perak"
    },
    {
        "Postcode": "31250",
        "Location": "Taman Seri Tanjung",
        "Post_Office": "Tanjong Rambutan",
        "State": "Perak"
    },
    {
        "Postcode": "31250",
        "Location": "Taman Sungai Kinta",
        "Post_Office": "Tanjong Rambutan",
        "State": "Perak"
    },
    {
        "Postcode": "31250",
        "Location": "Taman Suria Jaya",
        "Post_Office": "Tanjong Rambutan",
        "State": "Perak"
    },
    {
        "Postcode": "31250",
        "Location": "Tanjung Rambutan",
        "Post_Office": "Tanjong Rambutan",
        "State": "Perak"
    },
    {
        "Postcode": "31250",
        "Location": "Tanjung Sentosa",
        "Post_Office": "Tanjong Rambutan",
        "State": "Perak"
    },
    {
        "Postcode": "31250",
        "Location": "Villa Desa Perpaduan",
        "Post_Office": "Tanjong Rambutan",
        "State": "Perak"
    }
]
