[
    {
        "Postcode": "31300",
        "Location": "Kampung Simpang Pulai",
        "Post_Office": "Kampung Kepayang",
        "State": "Perak"
    },
    {
        "Postcode": "31300",
        "Location": "Taman Bersatu",
        "Post_Office": "Kampung Kepayang",
        "State": "Perak"
    },
    {
        "Postcode": "31300",
        "Location": "Kampung Kepayang",
        "Post_Office": "Kampung Kepayang",
        "State": "Perak"
    },
    {
        "Postcode": "31300",
        "Location": "Taman Raia Sentosa",
        "Post_Office": "Kampung Kepayang",
        "State": "Perak"
    },
    {
        "Postcode": "31300",
        "Location": "Laluan Raia Sentosa 1",
        "Post_Office": "Kampung Kepayang",
        "State": "Perak"
    },
    {
        "Postcode": "31300",
        "Location": "Laluan Raia Sentosa 2",
        "Post_Office": "Kampung Kepayang",
        "State": "Perak"
    },
    {
        "Postcode": "31300",
        "Location": "Laluan Raia Sentosa 3",
        "Post_Office": "Kampung Kepayang",
        "State": "Perak"
    },
    {
        "Postcode": "31300",
        "Location": "Laluan Raia Sentosa 5",
        "Post_Office": "Kampung Kepayang",
        "State": "Perak"
    },
    {
        "Postcode": "31300",
        "Location": "Laluan Raia Sentosa 6",
        "Post_Office": "Kampung Kepayang",
        "State": "Perak"
    },
    {
        "Postcode": "31300",
        "Location": "Laluan Raia Sentosa 7",
        "Post_Office": "Kampung Kepayang",
        "State": "Perak"
    },
    {
        "Postcode": "31300",
        "Location": "Laluan Raia Sentosa 9",
        "Post_Office": "Kampung Kepayang",
        "State": "Perak"
    },
    {
        "Postcode": "31300",
        "Location": "Laluan Raia Sentosa 11",
        "Post_Office": "Kampung Kepayang",
        "State": "Perak"
    },
    {
        "Postcode": "31300",
        "Location": "Laluan Raia Sentosa 13",
        "Post_Office": "Kampung Kepayang",
        "State": "Perak"
    },
    {
        "Postcode": "31300",
        "Location": "Laluan Raia Sentosa 15",
        "Post_Office": "Kampung Kepayang",
        "State": "Perak"
    },
    {
        "Postcode": "31300",
        "Location": "Kampung Kurnia",
        "Post_Office": "Kampung Kepayang",
        "State": "Perak"
    },
    {
        "Postcode": "31300",
        "Location": "Kampung Tanjong",
        "Post_Office": "Kampung Kepayang",
        "State": "Perak"
    },
    {
        "Postcode": "31300",
        "Location": "Bandar Pulai Jaya",
        "Post_Office": "Kampung Kepayang",
        "State": "Perak"
    },
    {
        "Postcode": "31300",
        "Location": "Kampung Baru Simpang Pulai",
        "Post_Office": "Kampung Kepayang",
        "State": "Perak"
    },
    {
        "Postcode": "31300",
        "Location": "Kampung Merawan Indah",
        "Post_Office": "Kampung Kepayang",
        "State": "Perak"
    },
    {
        "Postcode": "31300",
        "Location": "Kampung Paya Rengas",
        "Post_Office": "Kampung Kepayang",
        "State": "Perak"
    },
    {
        "Postcode": "31300",
        "Location": "Kampung Pengkalan Baru",
        "Post_Office": "Kampung Kepayang",
        "State": "Perak"
    },
    {
        "Postcode": "31300",
        "Location": "Kampung Sengat",
        "Post_Office": "Kampung Kepayang",
        "State": "Perak"
    },
    {
        "Postcode": "31300",
        "Location": "Kampung Serdang Permai",
        "Post_Office": "Kampung Kepayang",
        "State": "Perak"
    },
    {
        "Postcode": "31300",
        "Location": "Kampung Simpang Sindu",
        "Post_Office": "Kampung Kepayang",
        "State": "Perak"
    },
    {
        "Postcode": "31300",
        "Location": "Kampung Sungai Ular",
        "Post_Office": "Kampung Kepayang",
        "State": "Perak"
    },
    {
        "Postcode": "31300",
        "Location": "Kampung Tekah Baru",
        "Post_Office": "Kampung Kepayang",
        "State": "Perak"
    },
    {
        "Postcode": "31300",
        "Location": "Kampung Tersusun Kampung Sengat",
        "Post_Office": "Kampung Kepayang",
        "State": "Perak"
    },
    {
        "Postcode": "31300",
        "Location": "Kampung Tersusun Pengkalan Baru",
        "Post_Office": "Kampung Kepayang",
        "State": "Perak"
    },
    {
        "Postcode": "31300",
        "Location": "Kampung Tersusun Serdang Permai",
        "Post_Office": "Kampung Kepayang",
        "State": "Perak"
    },
    {
        "Postcode": "31300",
        "Location": "Kampung Tersusun Tekah",
        "Post_Office": "Kampung Kepayang",
        "State": "Perak"
    },
    {
        "Postcode": "31300",
        "Location": "Kampung Tersusun Tekah Baru",
        "Post_Office": "Kampung Kepayang",
        "State": "Perak"
    },
    {
        "Postcode": "31300",
        "Location": "Kampung Tualang Tujoh",
        "Post_Office": "Kampung Kepayang",
        "State": "Perak"
    },
    {
        "Postcode": "31300",
        "Location": "Keramat Pulai",
        "Post_Office": "Kampung Kepayang",
        "State": "Perak"
    },
    {
        "Postcode": "31300",
        "Location": "Ladang Chin Yoong",
        "Post_Office": "Kampung Kepayang",
        "State": "Perak"
    },
    {
        "Postcode": "31300",
        "Location": "Ladang Gunung Kroh",
        "Post_Office": "Kampung Kepayang",
        "State": "Perak"
    },
    {
        "Postcode": "31300",
        "Location": "Simpang Sindu",
        "Post_Office": "Kampung Kepayang",
        "State": "Perak"
    },
    {
        "Postcode": "31300",
        "Location": "Sungai Raia",
        "Post_Office": "Kampung Kepayang",
        "State": "Perak"
    },
    {
        "Postcode": "31300",
        "Location": "Taman Candan Desa",
        "Post_Office": "Kampung Kepayang",
        "State": "Perak"
    },
    {
        "Postcode": "31300",
        "Location": "Taman Mesra Raia",
        "Post_Office": "Kampung Kepayang",
        "State": "Perak"
    },
    {
        "Postcode": "31300",
        "Location": "Taman Muda",
        "Post_Office": "Kampung Kepayang",
        "State": "Perak"
    },
    {
        "Postcode": "31300",
        "Location": "Taman Pulai Height",
        "Post_Office": "Kampung Kepayang",
        "State": "Perak"
    },
    {
        "Postcode": "31300",
        "Location": "Taman Pulai Jaya",
        "Post_Office": "Kampung Kepayang",
        "State": "Perak"
    },
    {
        "Postcode": "31300",
        "Location": "Taman Seri Raia",
        "Post_Office": "Kampung Kepayang",
        "State": "Perak"
    },
    {
        "Postcode": "31300",
        "Location": "Tungsen Industrial Park",
        "Post_Office": "Kampung Kepayang",
        "State": "Perak"
    }
]
