[
    {
        "Postcode": "31350",
        "Location": "Bougainvilla A/1",
        "Post_Office": "Ipoh",
        "State": "Perak"
    },
    {
        "Postcode": "31350",
        "Location": "Bougainvilla A/2",
        "Post_Office": "Ipoh",
        "State": "Perak"
    },
    {
        "Postcode": "31350",
        "Location": "Bougainvilla A/3",
        "Post_Office": "Ipoh",
        "State": "Perak"
    },
    {
        "Postcode": "31350",
        "Location": "Bougainvilla B/1",
        "Post_Office": "Ipoh",
        "State": "Perak"
    },
    {
        "Postcode": "31350",
        "Location": "Bougainvilla B/10",
        "Post_Office": "Ipoh",
        "State": "Perak"
    },
    {
        "Postcode": "31350",
        "Location": "Bougainvilla B/11",
        "Post_Office": "Ipoh",
        "State": "Perak"
    },
    {
        "Postcode": "31350",
        "Location": "Bougainvilla B/12",
        "Post_Office": "Ipoh",
        "State": "Perak"
    },
    {
        "Postcode": "31350",
        "Location": "Bougainvilla B/2",
        "Post_Office": "Ipoh",
        "State": "Perak"
    },
    {
        "Postcode": "31350",
        "Location": "Bougainvilla B/3",
        "Post_Office": "Ipoh",
        "State": "Perak"
    },
    {
        "Postcode": "31350",
        "Location": "Bougainvilla B/4",
        "Post_Office": "Ipoh",
        "State": "Perak"
    },
    {
        "Postcode": "31350",
        "Location": "Bougainvilla B/5",
        "Post_Office": "Ipoh",
        "State": "Perak"
    },
    {
        "Postcode": "31350",
        "Location": "Bougainvilla B/6",
        "Post_Office": "Ipoh",
        "State": "Perak"
    },
    {
        "Postcode": "31350",
        "Location": "Bougainvilla B/7",
        "Post_Office": "Ipoh",
        "State": "Perak"
    },
    {
        "Postcode": "31350",
        "Location": "Bougainvilla B/8",
        "Post_Office": "Ipoh",
        "State": "Perak"
    },
    {
        "Postcode": "31350",
        "Location": "Bougainvilla B/9",
        "Post_Office": "Ipoh",
        "State": "Perak"
    },
    {
        "Postcode": "31350",
        "Location": "Jalan Gopeng 118",
        "Post_Office": "Ipoh",
        "State": "Perak"
    },
    {
        "Postcode": "31350",
        "Location": "Jalan Gopeng 119",
        "Post_Office": "Ipoh",
        "State": "Perak"
    },
    {
        "Postcode": "31350",
        "Location": "Jalan Gopeng 120",
        "Post_Office": "Ipoh",
        "State": "Perak"
    },
    {
        "Postcode": "31350",
        "Location": "Jalan Gopeng 121",
        "Post_Office": "Ipoh",
        "State": "Perak"
    },
    {
        "Postcode": "31350",
        "Location": "Jalan Gopeng 122",
        "Post_Office": "Ipoh",
        "State": "Perak"
    },
    {
        "Postcode": "31350",
        "Location": "Jalan Gopeng 123",
        "Post_Office": "Ipoh",
        "State": "Perak"
    },
    {
        "Postcode": "31350",
        "Location": "Jalan Gopeng 124",
        "Post_Office": "Ipoh",
        "State": "Perak"
    },
    {
        "Postcode": "31350",
        "Location": "Jalan Gopeng 125",
        "Post_Office": "Ipoh",
        "State": "Perak"
    },
    {
        "Postcode": "31350",
        "Location": "Jalan Gopeng 126",
        "Post_Office": "Ipoh",
        "State": "Perak"
    },
    {
        "Postcode": "31350",
        "Location": "Jalan Gopeng 127",
        "Post_Office": "Ipoh",
        "State": "Perak"
    },
    {
        "Postcode": "31350",
        "Location": "Jalan Gopeng 128",
        "Post_Office": "Ipoh",
        "State": "Perak"
    },
    {
        "Postcode": "31350",
        "Location": "Jalan Gopeng 129",
        "Post_Office": "Ipoh",
        "State": "Perak"
    },
    {
        "Postcode": "31350",
        "Location": "Jalan Gopeng 130",
        "Post_Office": "Ipoh",
        "State": "Perak"
    },
    {
        "Postcode": "31350",
        "Location": "Jalan Gopeng 131",
        "Post_Office": "Ipoh",
        "State": "Perak"
    },
    {
        "Postcode": "31350",
        "Location": "Jalan Gopeng 132",
        "Post_Office": "Ipoh",
        "State": "Perak"
    },
    {
        "Postcode": "31350",
        "Location": "Jalan Gopeng 133",
        "Post_Office": "Ipoh",
        "State": "Perak"
    },
    {
        "Postcode": "31350",
        "Location": "Jalan Gopeng 134",
        "Post_Office": "Ipoh",
        "State": "Perak"
    },
    {
        "Postcode": "31350",
        "Location": "Jalan Gopeng 135",
        "Post_Office": "Ipoh",
        "State": "Perak"
    },
    {
        "Postcode": "31350",
        "Location": "Jalan Gopeng 136",
        "Post_Office": "Ipoh",
        "State": "Perak"
    },
    {
        "Postcode": "31350",
        "Location": "Jalan Gopeng 137",
        "Post_Office": "Ipoh",
        "State": "Perak"
    },
    {
        "Postcode": "31350",
        "Location": "Jalan Gopeng 138",
        "Post_Office": "Ipoh",
        "State": "Perak"
    },
    {
        "Postcode": "31350",
        "Location": "Jalan Gopeng 139",
        "Post_Office": "Ipoh",
        "State": "Perak"
    },
    {
        "Postcode": "31350",
        "Location": "Jalan Gopeng 140",
        "Post_Office": "Ipoh",
        "State": "Perak"
    },
    {
        "Postcode": "31350",
        "Location": "Jalan Gopeng 141",
        "Post_Office": "Ipoh",
        "State": "Perak"
    },
    {
        "Postcode": "31350",
        "Location": "Jalan Gopeng 142",
        "Post_Office": "Ipoh",
        "State": "Perak"
    },
    {
        "Postcode": "31350",
        "Location": "Jalan Gopeng 143",
        "Post_Office": "Ipoh",
        "State": "Perak"
    },
    {
        "Postcode": "31350",
        "Location": "Jalan Gopeng 144",
        "Post_Office": "Ipoh",
        "State": "Perak"
    },
    {
        "Postcode": "31350",
        "Location": "Jalan Gopeng 145",
        "Post_Office": "Ipoh",
        "State": "Perak"
    },
    {
        "Postcode": "31350",
        "Location": "Jalan Gopeng 146",
        "Post_Office": "Ipoh",
        "State": "Perak"
    },
    {
        "Postcode": "31350",
        "Location": "Jalan Gopeng 147",
        "Post_Office": "Ipoh",
        "State": "Perak"
    },
    {
        "Postcode": "31350",
        "Location": "Jalan Gopeng 148",
        "Post_Office": "Ipoh",
        "State": "Perak"
    },
    {
        "Postcode": "31350",
        "Location": "Jalan Gopeng 149",
        "Post_Office": "Ipoh",
        "State": "Perak"
    },
    {
        "Postcode": "31350",
        "Location": "Jalan Gopeng 150",
        "Post_Office": "Ipoh",
        "State": "Perak"
    },
    {
        "Postcode": "31350",
        "Location": "Jalan Gopeng 151",
        "Post_Office": "Ipoh",
        "State": "Perak"
    },
    {
        "Postcode": "31350",
        "Location": "Jalan Gopeng 152",
        "Post_Office": "Ipoh",
        "State": "Perak"
    },
    {
        "Postcode": "31350",
        "Location": "Jalan Gopeng 153",
        "Post_Office": "Ipoh",
        "State": "Perak"
    },
    {
        "Postcode": "31350",
        "Location": "Jalan Gopeng 154",
        "Post_Office": "Ipoh",
        "State": "Perak"
    },
    {
        "Postcode": "31350",
        "Location": "Jalan Gopeng 155",
        "Post_Office": "Ipoh",
        "State": "Perak"
    },
    {
        "Postcode": "31350",
        "Location": "Jalan Gopeng 156",
        "Post_Office": "Ipoh",
        "State": "Perak"
    },
    {
        "Postcode": "31350",
        "Location": "Jalan Gopeng 157",
        "Post_Office": "Ipoh",
        "State": "Perak"
    },
    {
        "Postcode": "31350",
        "Location": "Jalan Gopeng 158",
        "Post_Office": "Ipoh",
        "State": "Perak"
    },
    {
        "Postcode": "31350",
        "Location": "Jalan Gopeng 159",
        "Post_Office": "Ipoh",
        "State": "Perak"
    },
    {
        "Postcode": "31350",
        "Location": "Jalan Gopeng 160",
        "Post_Office": "Ipoh",
        "State": "Perak"
    },
    {
        "Postcode": "31350",
        "Location": "Jalan Gopeng 161",
        "Post_Office": "Ipoh",
        "State": "Perak"
    },
    {
        "Postcode": "31350",
        "Location": "Jalan Gopeng 162",
        "Post_Office": "Ipoh",
        "State": "Perak"
    },
    {
        "Postcode": "31350",
        "Location": "Jalan Gopeng 163",
        "Post_Office": "Ipoh",
        "State": "Perak"
    },
    {
        "Postcode": "31350",
        "Location": "Jalan Gopeng 164",
        "Post_Office": "Ipoh",
        "State": "Perak"
    },
    {
        "Postcode": "31350",
        "Location": "Jalan Gopeng 165",
        "Post_Office": "Ipoh",
        "State": "Perak"
    },
    {
        "Postcode": "31350",
        "Location": "Jalan Gopeng 166",
        "Post_Office": "Ipoh",
        "State": "Perak"
    },
    {
        "Postcode": "31350",
        "Location": "Jalan Gopeng 167",
        "Post_Office": "Ipoh",
        "State": "Perak"
    },
    {
        "Postcode": "31350",
        "Location": "Jalan Gopeng 168",
        "Post_Office": "Ipoh",
        "State": "Perak"
    },
    {
        "Postcode": "31350",
        "Location": "Jalan Gopeng 169",
        "Post_Office": "Ipoh",
        "State": "Perak"
    },
    {
        "Postcode": "31350",
        "Location": "Jalan Gopeng 170",
        "Post_Office": "Ipoh",
        "State": "Perak"
    },
    {
        "Postcode": "31350",
        "Location": "Jalan Gopeng 171",
        "Post_Office": "Ipoh",
        "State": "Perak"
    },
    {
        "Postcode": "31350",
        "Location": "Jalan Gopeng 172",
        "Post_Office": "Ipoh",
        "State": "Perak"
    },
    {
        "Postcode": "31350",
        "Location": "Jalan Gopeng 173",
        "Post_Office": "Ipoh",
        "State": "Perak"
    },
    {
        "Postcode": "31350",
        "Location": "Jalan Gopeng 174",
        "Post_Office": "Ipoh",
        "State": "Perak"
    },
    {
        "Postcode": "31350",
        "Location": "Jalan Gopeng 175",
        "Post_Office": "Ipoh",
        "State": "Perak"
    },
    {
        "Postcode": "31350",
        "Location": "Jalan Gopeng 176",
        "Post_Office": "Ipoh",
        "State": "Perak"
    },
    {
        "Postcode": "31350",
        "Location": "Jalan Gopeng 177",
        "Post_Office": "Ipoh",
        "State": "Perak"
    },
    {
        "Postcode": "31350",
        "Location": "Jalan Gopeng 178",
        "Post_Office": "Ipoh",
        "State": "Perak"
    },
    {
        "Postcode": "31350",
        "Location": "Jalan Gopeng 179",
        "Post_Office": "Ipoh",
        "State": "Perak"
    },
    {
        "Postcode": "31350",
        "Location": "Jalan Gopeng 180",
        "Post_Office": "Ipoh",
        "State": "Perak"
    },
    {
        "Postcode": "31350",
        "Location": "Jalan Gopeng 181",
        "Post_Office": "Ipoh",
        "State": "Perak"
    },
    {
        "Postcode": "31350",
        "Location": "Jalan Gopeng 182",
        "Post_Office": "Ipoh",
        "State": "Perak"
    },
    {
        "Postcode": "31350",
        "Location": "Jalan Gopeng 183",
        "Post_Office": "Ipoh",
        "State": "Perak"
    },
    {
        "Postcode": "31350",
        "Location": "Jalan Gopeng 184",
        "Post_Office": "Ipoh",
        "State": "Perak"
    },
    {
        "Postcode": "31350",
        "Location": "Jalan Gopeng 185",
        "Post_Office": "Ipoh",
        "State": "Perak"
    },
    {
        "Postcode": "31350",
        "Location": "Jalan Gopeng 186",
        "Post_Office": "Ipoh",
        "State": "Perak"
    },
    {
        "Postcode": "31350",
        "Location": "Jalan Gopeng 187",
        "Post_Office": "Ipoh",
        "State": "Perak"
    },
    {
        "Postcode": "31350",
        "Location": "Jalan Gopeng 188",
        "Post_Office": "Ipoh",
        "State": "Perak"
    },
    {
        "Postcode": "31350",
        "Location": "Jalan Gopeng 189",
        "Post_Office": "Ipoh",
        "State": "Perak"
    },
    {
        "Postcode": "31350",
        "Location": "Jalan Gopeng 190",
        "Post_Office": "Ipoh",
        "State": "Perak"
    },
    {
        "Postcode": "31350",
        "Location": "Jalan Gopeng 191",
        "Post_Office": "Ipoh",
        "State": "Perak"
    },
    {
        "Postcode": "31350",
        "Location": "Jalan Gopeng 192",
        "Post_Office": "Ipoh",
        "State": "Perak"
    },
    {
        "Postcode": "31350",
        "Location": "Jalan Gopeng 193",
        "Post_Office": "Ipoh",
        "State": "Perak"
    },
    {
        "Postcode": "31350",
        "Location": "Jalan Gopeng 194",
        "Post_Office": "Ipoh",
        "State": "Perak"
    },
    {
        "Postcode": "31350",
        "Location": "Jalan Gopeng 195",
        "Post_Office": "Ipoh",
        "State": "Perak"
    },
    {
        "Postcode": "31350",
        "Location": "Jalan Gopeng 196",
        "Post_Office": "Ipoh",
        "State": "Perak"
    },
    {
        "Postcode": "31350",
        "Location": "Jalan Gopeng 197",
        "Post_Office": "Ipoh",
        "State": "Perak"
    },
    {
        "Postcode": "31350",
        "Location": "Jalan Gopeng 198",
        "Post_Office": "Ipoh",
        "State": "Perak"
    },
    {
        "Postcode": "31350",
        "Location": "Jalan Gopeng 199",
        "Post_Office": "Ipoh",
        "State": "Perak"
    },
    {
        "Postcode": "31350",
        "Location": "Jalan Gopeng 200",
        "Post_Office": "Ipoh",
        "State": "Perak"
    },
    {
        "Postcode": "31350",
        "Location": "Jalan Gopeng 201",
        "Post_Office": "Ipoh",
        "State": "Perak"
    },
    {
        "Postcode": "31350",
        "Location": "Jalan Gopeng 202",
        "Post_Office": "Ipoh",
        "State": "Perak"
    },
    {
        "Postcode": "31350",
        "Location": "Jalan Gopeng 203",
        "Post_Office": "Ipoh",
        "State": "Perak"
    },
    {
        "Postcode": "31350",
        "Location": "Jalan Gopeng 204",
        "Post_Office": "Ipoh",
        "State": "Perak"
    },
    {
        "Postcode": "31350",
        "Location": "Jalan Gopeng 205",
        "Post_Office": "Ipoh",
        "State": "Perak"
    },
    {
        "Postcode": "31350",
        "Location": "Jalan Gopeng 206",
        "Post_Office": "Ipoh",
        "State": "Perak"
    },
    {
        "Postcode": "31350",
        "Location": "Jalan Gopeng 207",
        "Post_Office": "Ipoh",
        "State": "Perak"
    },
    {
        "Postcode": "31350",
        "Location": "Jalan Gopeng 208",
        "Post_Office": "Ipoh",
        "State": "Perak"
    },
    {
        "Postcode": "31350",
        "Location": "Jalan Gopeng 209",
        "Post_Office": "Ipoh",
        "State": "Perak"
    },
    {
        "Postcode": "31350",
        "Location": "Jalan Gopeng 210",
        "Post_Office": "Ipoh",
        "State": "Perak"
    },
    {
        "Postcode": "31350",
        "Location": "Jalan Gopeng 211",
        "Post_Office": "Ipoh",
        "State": "Perak"
    },
    {
        "Postcode": "31350",
        "Location": "Jalan Margosa C/1",
        "Post_Office": "Ipoh",
        "State": "Perak"
    },
    {
        "Postcode": "31350",
        "Location": "Jalan Margosa C/2",
        "Post_Office": "Ipoh",
        "State": "Perak"
    },
    {
        "Postcode": "31350",
        "Location": "Jalan Margosa C/3",
        "Post_Office": "Ipoh",
        "State": "Perak"
    },
    {
        "Postcode": "31350",
        "Location": "Jalan Margosa C/4",
        "Post_Office": "Ipoh",
        "State": "Perak"
    },
    {
        "Postcode": "31350",
        "Location": "Jalan Margosa C/5",
        "Post_Office": "Ipoh",
        "State": "Perak"
    },
    {
        "Postcode": "31350",
        "Location": "Jalan Margosa C/6",
        "Post_Office": "Ipoh",
        "State": "Perak"
    },
    {
        "Postcode": "31350",
        "Location": "Jalan Palma B/10",
        "Post_Office": "Ipoh",
        "State": "Perak"
    },
    {
        "Postcode": "31350",
        "Location": "Jalan Palma B/11",
        "Post_Office": "Ipoh",
        "State": "Perak"
    },
    {
        "Postcode": "31350",
        "Location": "Jalan Palma B/12",
        "Post_Office": "Ipoh",
        "State": "Perak"
    },
    {
        "Postcode": "31350",
        "Location": "Jalan Palma B/13",
        "Post_Office": "Ipoh",
        "State": "Perak"
    },
    {
        "Postcode": "31350",
        "Location": "Jalan Palma B/14",
        "Post_Office": "Ipoh",
        "State": "Perak"
    },
    {
        "Postcode": "31350",
        "Location": "Jalan Palma B/15",
        "Post_Office": "Ipoh",
        "State": "Perak"
    },
    {
        "Postcode": "31350",
        "Location": "Jalan Palma B/6",
        "Post_Office": "Ipoh",
        "State": "Perak"
    },
    {
        "Postcode": "31350",
        "Location": "Jalan Palma B/7",
        "Post_Office": "Ipoh",
        "State": "Perak"
    },
    {
        "Postcode": "31350",
        "Location": "Jalan Palma B/8",
        "Post_Office": "Ipoh",
        "State": "Perak"
    },
    {
        "Postcode": "31350",
        "Location": "Jalan Palma B/9",
        "Post_Office": "Ipoh",
        "State": "Perak"
    },
    {
        "Postcode": "31350",
        "Location": "Jalan Rapat Ria 1",
        "Post_Office": "Ipoh",
        "State": "Perak"
    },
    {
        "Postcode": "31350",
        "Location": "Jalan Rapat Ria 2",
        "Post_Office": "Ipoh",
        "State": "Perak"
    },
    {
        "Postcode": "31350",
        "Location": "Jalan Rapat Ria 3",
        "Post_Office": "Ipoh",
        "State": "Perak"
    },
    {
        "Postcode": "31350",
        "Location": "Jalan Rapat Ria 4",
        "Post_Office": "Ipoh",
        "State": "Perak"
    },
    {
        "Postcode": "31350",
        "Location": "Jalan Tasik Botani A/1",
        "Post_Office": "Ipoh",
        "State": "Perak"
    },
    {
        "Postcode": "31350",
        "Location": "Jalan Tasik Botani A/2",
        "Post_Office": "Ipoh",
        "State": "Perak"
    },
    {
        "Postcode": "31350",
        "Location": "Jalan Tasik Botani A/3",
        "Post_Office": "Ipoh",
        "State": "Perak"
    },
    {
        "Postcode": "31350",
        "Location": "Jalan Tasik Botani A/4",
        "Post_Office": "Ipoh",
        "State": "Perak"
    },
    {
        "Postcode": "31350",
        "Location": "Jalan Tasik Botani A/5",
        "Post_Office": "Ipoh",
        "State": "Perak"
    },
    {
        "Postcode": "31350",
        "Location": "Jalan Tasik Botani A/6",
        "Post_Office": "Ipoh",
        "State": "Perak"
    },
    {
        "Postcode": "31350",
        "Location": "Jalan Tasik Botani A/7",
        "Post_Office": "Ipoh",
        "State": "Perak"
    },
    {
        "Postcode": "31350",
        "Location": "Margosa D/1",
        "Post_Office": "Ipoh",
        "State": "Perak"
    },
    {
        "Postcode": "31350",
        "Location": "Margosa D/10",
        "Post_Office": "Ipoh",
        "State": "Perak"
    },
    {
        "Postcode": "31350",
        "Location": "Margosa D/11",
        "Post_Office": "Ipoh",
        "State": "Perak"
    },
    {
        "Postcode": "31350",
        "Location": "Margosa D/2",
        "Post_Office": "Ipoh",
        "State": "Perak"
    },
    {
        "Postcode": "31350",
        "Location": "Margosa D/3",
        "Post_Office": "Ipoh",
        "State": "Perak"
    },
    {
        "Postcode": "31350",
        "Location": "Margosa D/4",
        "Post_Office": "Ipoh",
        "State": "Perak"
    },
    {
        "Postcode": "31350",
        "Location": "Margosa D/5",
        "Post_Office": "Ipoh",
        "State": "Perak"
    },
    {
        "Postcode": "31350",
        "Location": "Margosa D/6",
        "Post_Office": "Ipoh",
        "State": "Perak"
    },
    {
        "Postcode": "31350",
        "Location": "Margosa D/7",
        "Post_Office": "Ipoh",
        "State": "Perak"
    },
    {
        "Postcode": "31350",
        "Location": "Margosa D/8",
        "Post_Office": "Ipoh",
        "State": "Perak"
    },
    {
        "Postcode": "31350",
        "Location": "Margosa D/9",
        "Post_Office": "Ipoh",
        "State": "Perak"
    },
    {
        "Postcode": "31350",
        "Location": "Palma A/12",
        "Post_Office": "Ipoh",
        "State": "Perak"
    },
    {
        "Postcode": "31350",
        "Location": "Palma A/13",
        "Post_Office": "Ipoh",
        "State": "Perak"
    },
    {
        "Postcode": "31350",
        "Location": "Palma B/4",
        "Post_Office": "Ipoh",
        "State": "Perak"
    },
    {
        "Postcode": "31350",
        "Location": "Palma B/5",
        "Post_Office": "Ipoh",
        "State": "Perak"
    },
    {
        "Postcode": "31350",
        "Location": "Palma D/1",
        "Post_Office": "Ipoh",
        "State": "Perak"
    },
    {
        "Postcode": "31350",
        "Location": "Palma D/1A",
        "Post_Office": "Ipoh",
        "State": "Perak"
    },
    {
        "Postcode": "31350",
        "Location": "Palma D/2",
        "Post_Office": "Ipoh",
        "State": "Perak"
    },
    {
        "Postcode": "31350",
        "Location": "Palma D/3",
        "Post_Office": "Ipoh",
        "State": "Perak"
    },
    {
        "Postcode": "31350",
        "Location": "Palma D/3A",
        "Post_Office": "Ipoh",
        "State": "Perak"
    },
    {
        "Postcode": "31350",
        "Location": "Palma D/4",
        "Post_Office": "Ipoh",
        "State": "Perak"
    },
    {
        "Postcode": "31350",
        "Location": "Palma D/5",
        "Post_Office": "Ipoh",
        "State": "Perak"
    },
    {
        "Postcode": "31350",
        "Location": "Palma D/5A",
        "Post_Office": "Ipoh",
        "State": "Perak"
    },
    {
        "Postcode": "31350",
        "Location": "Palma D/6",
        "Post_Office": "Ipoh",
        "State": "Perak"
    },
    {
        "Postcode": "31350",
        "Location": "Palma D/6A",
        "Post_Office": "Ipoh",
        "State": "Perak"
    },
    {
        "Postcode": "31350",
        "Location": "Palma D/7",
        "Post_Office": "Ipoh",
        "State": "Perak"
    },
    {
        "Postcode": "31350",
        "Location": "Palma D/7A",
        "Post_Office": "Ipoh",
        "State": "Perak"
    },
    {
        "Postcode": "31350",
        "Location": "Palma D/8",
        "Post_Office": "Ipoh",
        "State": "Perak"
    },
    {
        "Postcode": "31350",
        "Location": "Palma D/8A",
        "Post_Office": "Ipoh",
        "State": "Perak"
    },
    {
        "Postcode": "31350",
        "Location": "Persiaran Tasik Botani 1",
        "Post_Office": "Ipoh",
        "State": "Perak"
    },
    {
        "Postcode": "31350",
        "Location": "Persiaran Tasik Botani 2",
        "Post_Office": "Ipoh",
        "State": "Perak"
    },
    {
        "Postcode": "31350",
        "Location": "Pulai Mutiara 1",
        "Post_Office": "Ipoh",
        "State": "Perak"
    },
    {
        "Postcode": "31350",
        "Location": "Pulai Mutiara 2",
        "Post_Office": "Ipoh",
        "State": "Perak"
    },
    {
        "Postcode": "31350",
        "Location": "Pulai Mutiara 2A",
        "Post_Office": "Ipoh",
        "State": "Perak"
    },
    {
        "Postcode": "31350",
        "Location": "Pulai Mutiara 2B",
        "Post_Office": "Ipoh",
        "State": "Perak"
    },
    {
        "Postcode": "31350",
        "Location": "Pulai Mutiara 3",
        "Post_Office": "Ipoh",
        "State": "Perak"
    },
    {
        "Postcode": "31350",
        "Location": "Pulai Mutiara 3A",
        "Post_Office": "Ipoh",
        "State": "Perak"
    },
    {
        "Postcode": "31350",
        "Location": "Pulai Mutiara 4",
        "Post_Office": "Ipoh",
        "State": "Perak"
    },
    {
        "Postcode": "31350",
        "Location": "Pulai Mutiara 5",
        "Post_Office": "Ipoh",
        "State": "Perak"
    },
    {
        "Postcode": "31350",
        "Location": "Pulai Sentosa 1",
        "Post_Office": "Ipoh",
        "State": "Perak"
    },
    {
        "Postcode": "31350",
        "Location": "Pulai Sentosa 2",
        "Post_Office": "Ipoh",
        "State": "Perak"
    },
    {
        "Postcode": "31350",
        "Location": "Taman Lapangan Terbang",
        "Post_Office": "Ipoh",
        "State": "Perak"
    },
    {
        "Postcode": "31350",
        "Location": "Taman Golf",
        "Post_Office": "Ipoh",
        "State": "Perak"
    },
    {
        "Postcode": "31350",
        "Location": "Pengakalan Tiara",
        "Post_Office": "Ipoh",
        "State": "Perak"
    },
    {
        "Postcode": "31350",
        "Location": "Pinggiran Rapat Ria",
        "Post_Office": "Ipoh",
        "State": "Perak"
    },
    {
        "Postcode": "31350",
        "Location": "Taman Harmoni",
        "Post_Office": "Ipoh",
        "State": "Perak"
    },
    {
        "Postcode": "31350",
        "Location": "Taman Panglima",
        "Post_Office": "Ipoh",
        "State": "Perak"
    },
    {
        "Postcode": "31350",
        "Location": "Taman Saujana",
        "Post_Office": "Ipoh",
        "State": "Perak"
    },
    {
        "Postcode": "31350",
        "Location": "Jalan Mawar",
        "Post_Office": "Ipoh",
        "State": "Perak"
    },
    {
        "Postcode": "31350",
        "Location": "Taman Desa Indah",
        "Post_Office": "Ipoh",
        "State": "Perak"
    },
    {
        "Postcode": "31350",
        "Location": "Taman Mutiara",
        "Post_Office": "Ipoh",
        "State": "Perak"
    },
    {
        "Postcode": "31350",
        "Location": "Rpt Jaya Tambahan 2",
        "Post_Office": "Ipoh",
        "State": "Perak"
    },
    {
        "Postcode": "31350",
        "Location": "Kampung Melayu",
        "Post_Office": "Ipoh",
        "State": "Perak"
    },
    {
        "Postcode": "31350",
        "Location": "Taman Indah Jaya",
        "Post_Office": "Ipoh",
        "State": "Perak"
    },
    {
        "Postcode": "31350",
        "Location": "Ampang Baru",
        "Post_Office": "Ipoh",
        "State": "Perak"
    },
    {
        "Postcode": "31350",
        "Location": "Bandar Sri Botani",
        "Post_Office": "Ipoh",
        "State": "Perak"
    },
    {
        "Postcode": "31350",
        "Location": "Bougainvilla 3/3A",
        "Post_Office": "Ipoh",
        "State": "Perak"
    },
    {
        "Postcode": "31350",
        "Location": "Desa Ampang",
        "Post_Office": "Ipoh",
        "State": "Perak"
    },
    {
        "Postcode": "31350",
        "Location": "Desa Kaya",
        "Post_Office": "Ipoh",
        "State": "Perak"
    },
    {
        "Postcode": "31350",
        "Location": "Desa Perwra",
        "Post_Office": "Ipoh",
        "State": "Perak"
    },
    {
        "Postcode": "31350",
        "Location": "Desa Pulai Jaya",
        "Post_Office": "Ipoh",
        "State": "Perak"
    },
    {
        "Postcode": "31350",
        "Location": "Gua Kek Long Tong",
        "Post_Office": "Ipoh",
        "State": "Perak"
    },
    {
        "Postcode": "31350",
        "Location": "Gunung Rapat",
        "Post_Office": "Ipoh",
        "State": "Perak"
    },
    {
        "Postcode": "31350",
        "Location": "Hill City",
        "Post_Office": "Ipoh",
        "State": "Perak"
    },
    {
        "Postcode": "31350",
        "Location": "Jalan Berkat",
        "Post_Office": "Ipoh",
        "State": "Perak"
    },
    {
        "Postcode": "31350",
        "Location": "Jalan Gunung Rapat",
        "Post_Office": "Ipoh",
        "State": "Perak"
    },
    {
        "Postcode": "31350",
        "Location": "Jalan Lapangan Terbang",
        "Post_Office": "Ipoh",
        "State": "Perak"
    },
    {
        "Postcode": "31350",
        "Location": "Jalan Piper",
        "Post_Office": "Ipoh",
        "State": "Perak"
    },
    {
        "Postcode": "31350",
        "Location": "Jalan Raja Musa Mahadi",
        "Post_Office": "Ipoh",
        "State": "Perak"
    },
    {
        "Postcode": "31350",
        "Location": "Jalan Rokam",
        "Post_Office": "Ipoh",
        "State": "Perak"
    },
    {
        "Postcode": "31350",
        "Location": "Jalan Usaha",
        "Post_Office": "Ipoh",
        "State": "Perak"
    },
    {
        "Postcode": "31350",
        "Location": "Kampung Baru Gunung Rapat",
        "Post_Office": "Ipoh",
        "State": "Perak"
    },
    {
        "Postcode": "31350",
        "Location": "Kampung Jaya Tambahan",
        "Post_Office": "Ipoh",
        "State": "Perak"
    },
    {
        "Postcode": "31350",
        "Location": "Kampung Rapat",
        "Post_Office": "Ipoh",
        "State": "Perak"
    },
    {
        "Postcode": "31350",
        "Location": "Kampung Rapat Jaya",
        "Post_Office": "Ipoh",
        "State": "Perak"
    },
    {
        "Postcode": "31350",
        "Location": "Kampung Rapat Jaya Tambahan",
        "Post_Office": "Ipoh",
        "State": "Perak"
    },
    {
        "Postcode": "31350",
        "Location": "Kampung Sri Ampang A",
        "Post_Office": "Ipoh",
        "State": "Perak"
    },
    {
        "Postcode": "31350",
        "Location": "Kampung Sri Ampang B",
        "Post_Office": "Ipoh",
        "State": "Perak"
    },
    {
        "Postcode": "31350",
        "Location": "Kampung Sungai Rapat",
        "Post_Office": "Ipoh",
        "State": "Perak"
    },
    {
        "Postcode": "31350",
        "Location": "Kampung Sungai Rokam",
        "Post_Office": "Ipoh",
        "State": "Perak"
    },
    {
        "Postcode": "31350",
        "Location": "Kampung Tersusun Seri Ampang",
        "Post_Office": "Ipoh",
        "State": "Perak"
    },
    {
        "Postcode": "31350",
        "Location": "Kampung Yee Mahia",
        "Post_Office": "Ipoh",
        "State": "Perak"
    },
    {
        "Postcode": "31350",
        "Location": "Kawasan Perindustrian Rengan Sri Rapat",
        "Post_Office": "Ipoh",
        "State": "Perak"
    },
    {
        "Postcode": "31350",
        "Location": "Lapangan Terbang Ipoh",
        "Post_Office": "Ipoh",
        "State": "Perak"
    },
    {
        "Postcode": "31350",
        "Location": "Lebuhraya Harilela",
        "Post_Office": "Ipoh",
        "State": "Perak"
    },
    {
        "Postcode": "31350",
        "Location": "Lebuhraya Mawar",
        "Post_Office": "Ipoh",
        "State": "Perak"
    },
    {
        "Postcode": "31350",
        "Location": "Lorong Gopeng",
        "Post_Office": "Ipoh",
        "State": "Perak"
    },
    {
        "Postcode": "31350",
        "Location": "Medan Gopeng",
        "Post_Office": "Ipoh",
        "State": "Perak"
    },
    {
        "Postcode": "31350",
        "Location": "Medan Lapangan Agenda",
        "Post_Office": "Ipoh",
        "State": "Perak"
    },
    {
        "Postcode": "31350",
        "Location": "Medan Lapangan Permata",
        "Post_Office": "Ipoh",
        "State": "Perak"
    },
    {
        "Postcode": "31350",
        "Location": "Medan Lapangan Sentosa",
        "Post_Office": "Ipoh",
        "State": "Perak"
    },
    {
        "Postcode": "31350",
        "Location": "Persiaran Gopeng",
        "Post_Office": "Ipoh",
        "State": "Perak"
    },
    {
        "Postcode": "31350",
        "Location": "Persiaran Gunung Rapat 1",
        "Post_Office": "Ipoh",
        "State": "Perak"
    },
    {
        "Postcode": "31350",
        "Location": "Persiaran Margosa 4",
        "Post_Office": "Ipoh",
        "State": "Perak"
    },
    {
        "Postcode": "31350",
        "Location": "Persiaran Palma 3",
        "Post_Office": "Ipoh",
        "State": "Perak"
    },
    {
        "Postcode": "31350",
        "Location": "Rapat Endah",
        "Post_Office": "Ipoh",
        "State": "Perak"
    },
    {
        "Postcode": "31350",
        "Location": "Rapat Setia",
        "Post_Office": "Ipoh",
        "State": "Perak"
    },
    {
        "Postcode": "31350",
        "Location": "Regat Rokam Satu",
        "Post_Office": "Ipoh",
        "State": "Perak"
    },
    {
        "Postcode": "31350",
        "Location": "Sam Poh Tong",
        "Post_Office": "Ipoh",
        "State": "Perak"
    },
    {
        "Postcode": "31350",
        "Location": "Sungai Rokam",
        "Post_Office": "Ipoh",
        "State": "Perak"
    },
    {
        "Postcode": "31350",
        "Location": "Taman Ampang",
        "Post_Office": "Ipoh",
        "State": "Perak"
    },
    {
        "Postcode": "31350",
        "Location": "Taman Cemerlang Ampang",
        "Post_Office": "Ipoh",
        "State": "Perak"
    },
    {
        "Postcode": "31350",
        "Location": "Taman Cemerlang Emas",
        "Post_Office": "Ipoh",
        "State": "Perak"
    },
    {
        "Postcode": "31350",
        "Location": "Taman Cemerlang Rapat",
        "Post_Office": "Ipoh",
        "State": "Perak"
    },
    {
        "Postcode": "31350",
        "Location": "Taman Desa Kebudayaan",
        "Post_Office": "Ipoh",
        "State": "Perak"
    },
    {
        "Postcode": "31350",
        "Location": "Taman Desa Rapat",
        "Post_Office": "Ipoh",
        "State": "Perak"
    },
    {
        "Postcode": "31350",
        "Location": "Taman Halaman Ampang Jaya",
        "Post_Office": "Ipoh",
        "State": "Perak"
    },
    {
        "Postcode": "31350",
        "Location": "Taman Halaman Ampang Mewah",
        "Post_Office": "Ipoh",
        "State": "Perak"
    },
    {
        "Postcode": "31350",
        "Location": "Taman Harilela",
        "Post_Office": "Ipoh",
        "State": "Perak"
    },
    {
        "Postcode": "31350",
        "Location": "Taman Hillview",
        "Post_Office": "Ipoh",
        "State": "Perak"
    },
    {
        "Postcode": "31350",
        "Location": "Taman Ipoh Jaya",
        "Post_Office": "Ipoh",
        "State": "Perak"
    },
    {
        "Postcode": "31350",
        "Location": "Taman Ipoh Jaya Timur",
        "Post_Office": "Ipoh",
        "State": "Perak"
    },
    {
        "Postcode": "31350",
        "Location": "Taman Ipoh Jaya Timur 1",
        "Post_Office": "Ipoh",
        "State": "Perak"
    },
    {
        "Postcode": "31350",
        "Location": "Taman Lapangan Indah",
        "Post_Office": "Ipoh",
        "State": "Perak"
    },
    {
        "Postcode": "31350",
        "Location": "Taman Lapangan Jaya",
        "Post_Office": "Ipoh",
        "State": "Perak"
    },
    {
        "Postcode": "31350",
        "Location": "Taman Lapangan Melodi",
        "Post_Office": "Ipoh",
        "State": "Perak"
    },
    {
        "Postcode": "31350",
        "Location": "Taman Lapangan Pelangi",
        "Post_Office": "Ipoh",
        "State": "Perak"
    },
    {
        "Postcode": "31350",
        "Location": "Taman Lapangan Permai",
        "Post_Office": "Ipoh",
        "State": "Perak"
    },
    {
        "Postcode": "31350",
        "Location": "Taman Maju Rapat",
        "Post_Office": "Ipoh",
        "State": "Perak"
    },
    {
        "Postcode": "31350",
        "Location": "Taman Pelangi (Ampang)",
        "Post_Office": "Ipoh",
        "State": "Perak"
    },
    {
        "Postcode": "31350",
        "Location": "Taman Pelangi (Rapat)",
        "Post_Office": "Ipoh",
        "State": "Perak"
    },
    {
        "Postcode": "31350",
        "Location": "Taman Pelangi (Song Choon)",
        "Post_Office": "Ipoh",
        "State": "Perak"
    },
    {
        "Postcode": "31350",
        "Location": "Taman Raja Ekram",
        "Post_Office": "Ipoh",
        "State": "Perak"
    },
    {
        "Postcode": "31350",
        "Location": "Taman Rapat",
        "Post_Office": "Ipoh",
        "State": "Perak"
    },
    {
        "Postcode": "31350",
        "Location": "Taman Rapat Aman",
        "Post_Office": "Ipoh",
        "State": "Perak"
    },
    {
        "Postcode": "31350",
        "Location": "Taman Rapat Bistari",
        "Post_Office": "Ipoh",
        "State": "Perak"
    },
    {
        "Postcode": "31350",
        "Location": "Taman Rapat Damai",
        "Post_Office": "Ipoh",
        "State": "Perak"
    },
    {
        "Postcode": "31350",
        "Location": "Taman Rapat Indah",
        "Post_Office": "Ipoh",
        "State": "Perak"
    },
    {
        "Postcode": "31350",
        "Location": "Taman Rapat Koperasi",
        "Post_Office": "Ipoh",
        "State": "Perak"
    },
    {
        "Postcode": "31350",
        "Location": "Taman Rapat Murni",
        "Post_Office": "Ipoh",
        "State": "Perak"
    },
    {
        "Postcode": "31350",
        "Location": "Taman Rapat Permai",
        "Post_Office": "Ipoh",
        "State": "Perak"
    },
    {
        "Postcode": "31350",
        "Location": "Taman Rapat Setia Baru",
        "Post_Office": "Ipoh",
        "State": "Perak"
    },
    {
        "Postcode": "31350",
        "Location": "Taman Rasi Ampang",
        "Post_Office": "Ipoh",
        "State": "Perak"
    },
    {
        "Postcode": "31350",
        "Location": "Taman Razaki",
        "Post_Office": "Ipoh",
        "State": "Perak"
    },
    {
        "Postcode": "31350",
        "Location": "Taman River Villas",
        "Post_Office": "Ipoh",
        "State": "Perak"
    },
    {
        "Postcode": "31350",
        "Location": "Taman Saikat",
        "Post_Office": "Ipoh",
        "State": "Perak"
    },
    {
        "Postcode": "31350",
        "Location": "Taman Seri Ampang",
        "Post_Office": "Ipoh",
        "State": "Perak"
    },
    {
        "Postcode": "31350",
        "Location": "Taman Seri Berjaya",
        "Post_Office": "Ipoh",
        "State": "Perak"
    },
    {
        "Postcode": "31350",
        "Location": "Taman Seri Rapat",
        "Post_Office": "Ipoh",
        "State": "Perak"
    },
    {
        "Postcode": "31350",
        "Location": "Taman Seri Rokam",
        "Post_Office": "Ipoh",
        "State": "Perak"
    },
    {
        "Postcode": "31350",
        "Location": "Taman Song Choon",
        "Post_Office": "Ipoh",
        "State": "Perak"
    },
    {
        "Postcode": "31350",
        "Location": "Taman Sri Ampang",
        "Post_Office": "Ipoh",
        "State": "Perak"
    },
    {
        "Postcode": "31350",
        "Location": "Taman Taufik",
        "Post_Office": "Ipoh",
        "State": "Perak"
    },
    {
        "Postcode": "31350",
        "Location": "Taman Timah",
        "Post_Office": "Ipoh",
        "State": "Perak"
    },
    {
        "Postcode": "31350",
        "Location": "Taman Tunas Jaya",
        "Post_Office": "Ipoh",
        "State": "Perak"
    },
    {
        "Postcode": "31350",
        "Location": "Tudm Ipoh",
        "Post_Office": "Ipoh",
        "State": "Perak"
    },
    {
        "Postcode": "31350",
        "Location": "Zon Perindustrian Ringan Kinta Jaya",
        "Post_Office": "Ipoh",
        "State": "Perak"
    }
]
