[
    {
        "Postcode": "31400",
        "Location": "Dataran Perajurit 6",
        "Post_Office": "Ipoh",
        "State": "Perak"
    },
    {
        "Postcode": "31400",
        "Location": "Dataran Perajurit 6A",
        "Post_Office": "Ipoh",
        "State": "Perak"
    },
    {
        "Postcode": "31400",
        "Location": "Ipoh Impian 1",
        "Post_Office": "Ipoh",
        "State": "Perak"
    },
    {
        "Postcode": "31400",
        "Location": "Ipoh Impian 2",
        "Post_Office": "Ipoh",
        "State": "Perak"
    },
    {
        "Postcode": "31400",
        "Location": "Ipoh Impian 3",
        "Post_Office": "Ipoh",
        "State": "Perak"
    },
    {
        "Postcode": "31400",
        "Location": "Kampung Tersusun Bercam 1",
        "Post_Office": "Ipoh",
        "State": "Perak"
    },
    {
        "Postcode": "31400",
        "Location": "Kampung Tersusun Bercam 2",
        "Post_Office": "Ipoh",
        "State": "Perak"
    },
    {
        "Postcode": "31400",
        "Location": "Laluan Bandar Baru Tambun 1",
        "Post_Office": "Ipoh",
        "State": "Perak"
    },
    {
        "Postcode": "31400",
        "Location": "Laluan Bandar Baru Tambun 10",
        "Post_Office": "Ipoh",
        "State": "Perak"
    },
    {
        "Postcode": "31400",
        "Location": "Laluan Bandar Baru Tambun 2",
        "Post_Office": "Ipoh",
        "State": "Perak"
    },
    {
        "Postcode": "31400",
        "Location": "Laluan Bandar Baru Tambun 3",
        "Post_Office": "Ipoh",
        "State": "Perak"
    },
    {
        "Postcode": "31400",
        "Location": "Laluan Bandar Baru Tambun 4",
        "Post_Office": "Ipoh",
        "State": "Perak"
    },
    {
        "Postcode": "31400",
        "Location": "Laluan Bandar Baru Tambun 5",
        "Post_Office": "Ipoh",
        "State": "Perak"
    },
    {
        "Postcode": "31400",
        "Location": "Laluan Bandar Baru Tambun 6",
        "Post_Office": "Ipoh",
        "State": "Perak"
    },
    {
        "Postcode": "31400",
        "Location": "Laluan Bandar Baru Tambun 7",
        "Post_Office": "Ipoh",
        "State": "Perak"
    },
    {
        "Postcode": "31400",
        "Location": "Laluan Bandar Baru Tambun 8",
        "Post_Office": "Ipoh",
        "State": "Perak"
    },
    {
        "Postcode": "31400",
        "Location": "Laluan Bandar Baru Tambun 9",
        "Post_Office": "Ipoh",
        "State": "Perak"
    },
    {
        "Postcode": "31400",
        "Location": "Jalan Tasek",
        "Post_Office": "Ipoh",
        "State": "Perak"
    },
    {
        "Postcode": "31400",
        "Location": "Kampung Tersusun Batu 5",
        "Post_Office": "Ipoh",
        "State": "Perak"
    },
    {
        "Postcode": "31400",
        "Location": "Taman Cempaka",
        "Post_Office": "Ipoh",
        "State": "Perak"
    },
    {
        "Postcode": "31400",
        "Location": "Taman Kaya",
        "Post_Office": "Ipoh",
        "State": "Perak"
    },
    {
        "Postcode": "31400",
        "Location": "Taman Utama",
        "Post_Office": "Ipoh",
        "State": "Perak"
    },
    {
        "Postcode": "31400",
        "Location": "Jalan Bunga Tanjung",
        "Post_Office": "Ipoh",
        "State": "Perak"
    },
    {
        "Postcode": "31400",
        "Location": "Jalan Terkukur",
        "Post_Office": "Ipoh",
        "State": "Perak"
    },
    {
        "Postcode": "31400",
        "Location": "Taman Bersatu",
        "Post_Office": "Ipoh",
        "State": "Perak"
    },
    {
        "Postcode": "31400",
        "Location": "Taman Bintang",
        "Post_Office": "Ipoh",
        "State": "Perak"
    },
    {
        "Postcode": "31400",
        "Location": "Enklaf Residence",
        "Post_Office": "Ipoh",
        "State": "Perak"
    },
    {
        "Postcode": "31400",
        "Location": "Kampung Tasek",
        "Post_Office": "Ipoh",
        "State": "Perak"
    },
    {
        "Postcode": "31400",
        "Location": "Taman Damai",
        "Post_Office": "Ipoh",
        "State": "Perak"
    },
    {
        "Postcode": "31400",
        "Location": "Taman Mewah",
        "Post_Office": "Ipoh",
        "State": "Perak"
    },
    {
        "Postcode": "31400",
        "Location": "Taman Perak",
        "Post_Office": "Ipoh",
        "State": "Perak"
    },
    {
        "Postcode": "31400",
        "Location": "Taman Ria",
        "Post_Office": "Ipoh",
        "State": "Perak"
    },
    {
        "Postcode": "31400",
        "Location": "Jalan Haji Wahab",
        "Post_Office": "Ipoh",
        "State": "Perak"
    },
    {
        "Postcode": "31400",
        "Location": "Jalan Kuala Kangsar",
        "Post_Office": "Ipoh",
        "State": "Perak"
    },
    {
        "Postcode": "31400",
        "Location": "Jalan Merpati",
        "Post_Office": "Ipoh",
        "State": "Perak"
    },
    {
        "Postcode": "31400",
        "Location": "Jalan Tempua",
        "Post_Office": "Ipoh",
        "State": "Perak"
    },
    {
        "Postcode": "31400",
        "Location": "Kampung Kepayang",
        "Post_Office": "Ipoh",
        "State": "Perak"
    },
    {
        "Postcode": "31400",
        "Location": "Kondominium Ipoh Impian",
        "Post_Office": "Ipoh",
        "State": "Perak"
    },
    {
        "Postcode": "31400",
        "Location": "Jalan Ipoh Impian 1",
        "Post_Office": "Ipoh",
        "State": "Perak"
    },
    {
        "Postcode": "31400",
        "Location": "Taman Sri Kurau",
        "Post_Office": "Ipoh",
        "State": "Perak"
    },
    {
        "Postcode": "31400",
        "Location": "Taman Tasek Jaya",
        "Post_Office": "Ipoh",
        "State": "Perak"
    },
    {
        "Postcode": "31400",
        "Location": "Taman Putra Impian",
        "Post_Office": "Ipoh",
        "State": "Perak"
    },
    {
        "Postcode": "31400",
        "Location": "Kampung Batu 4",
        "Post_Office": "Ipoh",
        "State": "Perak"
    },
    {
        "Postcode": "31400",
        "Location": "Kampung Cina",
        "Post_Office": "Ipoh",
        "State": "Perak"
    },
    {
        "Postcode": "31400",
        "Location": "Kampung Masjid",
        "Post_Office": "Ipoh",
        "State": "Perak"
    },
    {
        "Postcode": "31400",
        "Location": "Taman Cahaya Tasek",
        "Post_Office": "Ipoh",
        "State": "Perak"
    },
    {
        "Postcode": "31400",
        "Location": "Anika Selera Centre",
        "Post_Office": "Ipoh",
        "State": "Perak"
    },
    {
        "Postcode": "31400",
        "Location": "Anjung Bercham Baru",
        "Post_Office": "Ipoh",
        "State": "Perak"
    },
    {
        "Postcode": "31400",
        "Location": "Bandar Baru Medan Ipoh",
        "Post_Office": "Ipoh",
        "State": "Perak"
    },
    {
        "Postcode": "31400",
        "Location": "Bandar Baru Putra",
        "Post_Office": "Ipoh",
        "State": "Perak"
    },
    {
        "Postcode": "31400",
        "Location": "Bandar Baru Tambun",
        "Post_Office": "Ipoh",
        "State": "Perak"
    },
    {
        "Postcode": "31400",
        "Location": "Bandar Baru Tasek",
        "Post_Office": "Ipoh",
        "State": "Perak"
    },
    {
        "Postcode": "31400",
        "Location": "Bercham",
        "Post_Office": "Ipoh",
        "State": "Perak"
    },
    {
        "Postcode": "31400",
        "Location": "Bercham Idaman",
        "Post_Office": "Ipoh",
        "State": "Perak"
    },
    {
        "Postcode": "31400",
        "Location": "Bercham Indah",
        "Post_Office": "Ipoh",
        "State": "Perak"
    },
    {
        "Postcode": "31400",
        "Location": "Bercham Villa",
        "Post_Office": "Ipoh",
        "State": "Perak"
    },
    {
        "Postcode": "31400",
        "Location": "Club Condo",
        "Post_Office": "Ipoh",
        "State": "Perak"
    },
    {
        "Postcode": "31400",
        "Location": "Dataran Perajurit 11",
        "Post_Office": "Ipoh",
        "State": "Perak"
    },
    {
        "Postcode": "31400",
        "Location": "Desa Putra Indah",
        "Post_Office": "Ipoh",
        "State": "Perak"
    },
    {
        "Postcode": "31400",
        "Location": "Desa Tambun  Baru",
        "Post_Office": "Ipoh",
        "State": "Perak"
    },
    {
        "Postcode": "31400",
        "Location": "Desa Tasek Bakti",
        "Post_Office": "Ipoh",
        "State": "Perak"
    },
    {
        "Postcode": "31400",
        "Location": "Flat Canning Swiss",
        "Post_Office": "Ipoh",
        "State": "Perak"
    },
    {
        "Postcode": "31400",
        "Location": "Flat Pakatan",
        "Post_Office": "Ipoh",
        "State": "Perak"
    },
    {
        "Postcode": "31400",
        "Location": "Flat Taman Mewah",
        "Post_Office": "Ipoh",
        "State": "Perak"
    },
    {
        "Postcode": "31400",
        "Location": "Hala Stadium",
        "Post_Office": "Ipoh",
        "State": "Perak"
    },
    {
        "Postcode": "31400",
        "Location": "Intan Business Centre",
        "Post_Office": "Ipoh",
        "State": "Perak"
    },
    {
        "Postcode": "31400",
        "Location": "Jalan Abdullah Liew",
        "Post_Office": "Ipoh",
        "State": "Perak"
    },
    {
        "Postcode": "31400",
        "Location": "Jalan Aiken",
        "Post_Office": "Ipoh",
        "State": "Perak"
    },
    {
        "Postcode": "31400",
        "Location": "Jalan Ampang",
        "Post_Office": "Ipoh",
        "State": "Perak"
    },
    {
        "Postcode": "31400",
        "Location": "Jalan Bercham",
        "Post_Office": "Ipoh",
        "State": "Perak"
    },
    {
        "Postcode": "31400",
        "Location": "Jalan Besar Tambun",
        "Post_Office": "Ipoh",
        "State": "Perak"
    },
    {
        "Postcode": "31400",
        "Location": "Jalan Bung Melor",
        "Post_Office": "Ipoh",
        "State": "Perak"
    },
    {
        "Postcode": "31400",
        "Location": "Jalan Bung Telor",
        "Post_Office": "Ipoh",
        "State": "Perak"
    },
    {
        "Postcode": "31400",
        "Location": "Jalan Canning",
        "Post_Office": "Ipoh",
        "State": "Perak"
    },
    {
        "Postcode": "31400",
        "Location": "Jalan Cantek",
        "Post_Office": "Ipoh",
        "State": "Perak"
    },
    {
        "Postcode": "31400",
        "Location": "Jalan Carlos",
        "Post_Office": "Ipoh",
        "State": "Perak"
    },
    {
        "Postcode": "31400",
        "Location": "Jalan Cetak",
        "Post_Office": "Ipoh",
        "State": "Perak"
    },
    {
        "Postcode": "31400",
        "Location": "Jalan Chan Chee Keong",
        "Post_Office": "Ipoh",
        "State": "Perak"
    },
    {
        "Postcode": "31400",
        "Location": "Jalan Chan Swee Ho",
        "Post_Office": "Ipoh",
        "State": "Perak"
    },
    {
        "Postcode": "31400",
        "Location": "Jalan Chew Peng Loon",
        "Post_Office": "Ipoh",
        "State": "Perak"
    },
    {
        "Postcode": "31400",
        "Location": "Jalan Chin Yin Fatt",
        "Post_Office": "Ipoh",
        "State": "Perak"
    },
    {
        "Postcode": "31400",
        "Location": "Jalan Choon Han",
        "Post_Office": "Ipoh",
        "State": "Perak"
    },
    {
        "Postcode": "31400",
        "Location": "Jalan Chow Kai",
        "Post_Office": "Ipoh",
        "State": "Perak"
    },
    {
        "Postcode": "31400",
        "Location": "Jalan Chye Kah Loke",
        "Post_Office": "Ipoh",
        "State": "Perak"
    },
    {
        "Postcode": "31400",
        "Location": "Jalan Dairy",
        "Post_Office": "Ipoh",
        "State": "Perak"
    },
    {
        "Postcode": "31400",
        "Location": "Jalan Dato Khoong Kam Tak",
        "Post_Office": "Ipoh",
        "State": "Perak"
    },
    {
        "Postcode": "31400",
        "Location": "Jalan Devadason",
        "Post_Office": "Ipoh",
        "State": "Perak"
    },
    {
        "Postcode": "31400",
        "Location": "Jalan Diary",
        "Post_Office": "Ipoh",
        "State": "Perak"
    },
    {
        "Postcode": "31400",
        "Location": "Jalan Edward Morera",
        "Post_Office": "Ipoh",
        "State": "Perak"
    },
    {
        "Postcode": "31400",
        "Location": "Jalan Endah",
        "Post_Office": "Ipoh",
        "State": "Perak"
    },
    {
        "Postcode": "31400",
        "Location": "Jalan Foo Win Yin",
        "Post_Office": "Ipoh",
        "State": "Perak"
    },
    {
        "Postcode": "31400",
        "Location": "Jalan Ghazali",
        "Post_Office": "Ipoh",
        "State": "Perak"
    },
    {
        "Postcode": "31400",
        "Location": "Jalan Hussain Nordin",
        "Post_Office": "Ipoh",
        "State": "Perak"
    },
    {
        "Postcode": "31400",
        "Location": "Jalan Johor",
        "Post_Office": "Ipoh",
        "State": "Perak"
    },
    {
        "Postcode": "31400",
        "Location": "Jalan Kakatua",
        "Post_Office": "Ipoh",
        "State": "Perak"
    },
    {
        "Postcode": "31400",
        "Location": "Jalan Kamarudin Isa",
        "Post_Office": "Ipoh",
        "State": "Perak"
    },
    {
        "Postcode": "31400",
        "Location": "Jalan Kasselring",
        "Post_Office": "Ipoh",
        "State": "Perak"
    },
    {
        "Postcode": "31400",
        "Location": "Jalan Kedah",
        "Post_Office": "Ipoh",
        "State": "Perak"
    },
    {
        "Postcode": "31400",
        "Location": "Jalan Kelantan",
        "Post_Office": "Ipoh",
        "State": "Perak"
    },
    {
        "Postcode": "31400",
        "Location": "Jalan Keliling",
        "Post_Office": "Ipoh",
        "State": "Perak"
    },
    {
        "Postcode": "31400",
        "Location": "Jalan Keliling Tasek",
        "Post_Office": "Ipoh",
        "State": "Perak"
    },
    {
        "Postcode": "31400",
        "Location": "Jalan Kho Pek Hua",
        "Post_Office": "Ipoh",
        "State": "Perak"
    },
    {
        "Postcode": "31400",
        "Location": "Jalan Kok Ho Teik",
        "Post_Office": "Ipoh",
        "State": "Perak"
    },
    {
        "Postcode": "31400",
        "Location": "Jalan Komplek Sukan",
        "Post_Office": "Ipoh",
        "State": "Perak"
    },
    {
        "Postcode": "31400",
        "Location": "Jalan Kuching",
        "Post_Office": "Ipoh",
        "State": "Perak"
    },
    {
        "Postcode": "31400",
        "Location": "Jalan La Salle",
        "Post_Office": "Ipoh",
        "State": "Perak"
    },
    {
        "Postcode": "31400",
        "Location": "Jalan Lange",
        "Post_Office": "Ipoh",
        "State": "Perak"
    },
    {
        "Postcode": "31400",
        "Location": "Jalan Lau Pak Khuan",
        "Post_Office": "Ipoh",
        "State": "Perak"
    },
    {
        "Postcode": "31400",
        "Location": "Jalan Lee Kwee Poh",
        "Post_Office": "Ipoh",
        "State": "Perak"
    },
    {
        "Postcode": "31400",
        "Location": "Jalan Lim Gin Chuan",
        "Post_Office": "Ipoh",
        "State": "Perak"
    },
    {
        "Postcode": "31400",
        "Location": "Jalan Lim Kim Eng",
        "Post_Office": "Ipoh",
        "State": "Perak"
    },
    {
        "Postcode": "31400",
        "Location": "Jalan Lip Seng Onn",
        "Post_Office": "Ipoh",
        "State": "Perak"
    },
    {
        "Postcode": "31400",
        "Location": "Jalan Megat Khas",
        "Post_Office": "Ipoh",
        "State": "Perak"
    },
    {
        "Postcode": "31400",
        "Location": "Jalan Molek",
        "Post_Office": "Ipoh",
        "State": "Perak"
    },
    {
        "Postcode": "31400",
        "Location": "Jalan Pahang",
        "Post_Office": "Ipoh",
        "State": "Perak"
    },
    {
        "Postcode": "31400",
        "Location": "Jalan Penang",
        "Post_Office": "Ipoh",
        "State": "Perak"
    },
    {
        "Postcode": "31400",
        "Location": "Jalan Pendek",
        "Post_Office": "Ipoh",
        "State": "Perak"
    },
    {
        "Postcode": "31400",
        "Location": "Jalan Perak",
        "Post_Office": "Ipoh",
        "State": "Perak"
    },
    {
        "Postcode": "31400",
        "Location": "Jalan Perkins",
        "Post_Office": "Ipoh",
        "State": "Perak"
    },
    {
        "Postcode": "31400",
        "Location": "Jalan Perlis",
        "Post_Office": "Ipoh",
        "State": "Perak"
    },
    {
        "Postcode": "31400",
        "Location": "Jalan Permai",
        "Post_Office": "Ipoh",
        "State": "Perak"
    },
    {
        "Postcode": "31400",
        "Location": "Jalan Potter",
        "Post_Office": "Ipoh",
        "State": "Perak"
    },
    {
        "Postcode": "31400",
        "Location": "Jalan Raj Kam",
        "Post_Office": "Ipoh",
        "State": "Perak"
    },
    {
        "Postcode": "31400",
        "Location": "Jalan Rajaratnam",
        "Post_Office": "Ipoh",
        "State": "Perak"
    },
    {
        "Postcode": "31400",
        "Location": "Jalan Sa Linggam",
        "Post_Office": "Ipoh",
        "State": "Perak"
    },
    {
        "Postcode": "31400",
        "Location": "Jalan Scrivinior",
        "Post_Office": "Ipoh",
        "State": "Perak"
    },
    {
        "Postcode": "31400",
        "Location": "Jalan Selangor",
        "Post_Office": "Ipoh",
        "State": "Perak"
    },
    {
        "Postcode": "31400",
        "Location": "Jalan Soo Ah Yong",
        "Post_Office": "Ipoh",
        "State": "Perak"
    },
    {
        "Postcode": "31400",
        "Location": "Jalan Sultan Azlan Shah (U)",
        "Post_Office": "Ipoh",
        "State": "Perak"
    },
    {
        "Postcode": "31400",
        "Location": "Jalan Sungai Senam",
        "Post_Office": "Ipoh",
        "State": "Perak"
    },
    {
        "Postcode": "31400",
        "Location": "Jalan Sybilkatigasu",
        "Post_Office": "Ipoh",
        "State": "Perak"
    },
    {
        "Postcode": "31400",
        "Location": "Jalan Taman Star",
        "Post_Office": "Ipoh",
        "State": "Perak"
    },
    {
        "Postcode": "31400",
        "Location": "Jalan Taman Tambun",
        "Post_Office": "Ipoh",
        "State": "Perak"
    },
    {
        "Postcode": "31400",
        "Location": "Jalan Tambun  (Km 8 - 9)",
        "Post_Office": "Ipoh",
        "State": "Perak"
    },
    {
        "Postcode": "31400",
        "Location": "Jalan Tasek Jaya",
        "Post_Office": "Ipoh",
        "State": "Perak"
    },
    {
        "Postcode": "31400",
        "Location": "Jalan Tasik",
        "Post_Office": "Ipoh",
        "State": "Perak"
    },
    {
        "Postcode": "31400",
        "Location": "Jalan Toh Puan Sharifah",
        "Post_Office": "Ipoh",
        "State": "Perak"
    },
    {
        "Postcode": "31400",
        "Location": "Jalan Too Joo Lim",
        "Post_Office": "Ipoh",
        "State": "Perak"
    },
    {
        "Postcode": "31400",
        "Location": "Jalan Wu Lean Teh",
        "Post_Office": "Ipoh",
        "State": "Perak"
    },
    {
        "Postcode": "31400",
        "Location": "Jalan Yeoh Ah Khoon",
        "Post_Office": "Ipoh",
        "State": "Perak"
    },
    {
        "Postcode": "31400",
        "Location": "Jalan Yeoh Chai Lye",
        "Post_Office": "Ipoh",
        "State": "Perak"
    },
    {
        "Postcode": "31400",
        "Location": "Jalan Yin Choo Han",
        "Post_Office": "Ipoh",
        "State": "Perak"
    },
    {
        "Postcode": "31400",
        "Location": "Kampung Baru Tambun",
        "Post_Office": "Ipoh",
        "State": "Perak"
    },
    {
        "Postcode": "31400",
        "Location": "Kampung Bercham",
        "Post_Office": "Ipoh",
        "State": "Perak"
    },
    {
        "Postcode": "31400",
        "Location": "Kampung Gunung Genting",
        "Post_Office": "Ipoh",
        "State": "Perak"
    },
    {
        "Postcode": "31400",
        "Location": "Kampung Gunung Mat Sirat",
        "Post_Office": "Ipoh",
        "State": "Perak"
    },
    {
        "Postcode": "31400",
        "Location": "Kampung Kurnia (Kg S.C)",
        "Post_Office": "Ipoh",
        "State": "Perak"
    },
    {
        "Postcode": "31400",
        "Location": "Kampung Masjid Tambun",
        "Post_Office": "Ipoh",
        "State": "Perak"
    },
    {
        "Postcode": "31400",
        "Location": "Kampung Melayu (Bercham)",
        "Post_Office": "Ipoh",
        "State": "Perak"
    },
    {
        "Postcode": "31400",
        "Location": "Kampung Simee",
        "Post_Office": "Ipoh",
        "State": "Perak"
    },
    {
        "Postcode": "31400",
        "Location": "Kampung Tersusun Bercham",
        "Post_Office": "Ipoh",
        "State": "Perak"
    },
    {
        "Postcode": "31400",
        "Location": "Kampung Tersusun Cina",
        "Post_Office": "Ipoh",
        "State": "Perak"
    },
    {
        "Postcode": "31400",
        "Location": "Kampung Tersusun Tasek",
        "Post_Office": "Ipoh",
        "State": "Perak"
    },
    {
        "Postcode": "31400",
        "Location": "Kawasan Industri Pinggir Bercam",
        "Post_Office": "Ipoh",
        "State": "Perak"
    },
    {
        "Postcode": "31400",
        "Location": "Kawasan Kilang Tasek",
        "Post_Office": "Ipoh",
        "State": "Perak"
    },
    {
        "Postcode": "31400",
        "Location": "Kawasan Perdagangan \u0026 Perindustrian",
        "Post_Office": "Ipoh",
        "State": "Perak"
    },
    {
        "Postcode": "31400",
        "Location": "Kawasan Perusahaan Bercam",
        "Post_Office": "Ipoh",
        "State": "Perak"
    },
    {
        "Postcode": "31400",
        "Location": "Kepayang Fair Park",
        "Post_Office": "Ipoh",
        "State": "Perak"
    },
    {
        "Postcode": "31400",
        "Location": "Kepayang Tengah",
        "Post_Office": "Ipoh",
        "State": "Perak"
    },
    {
        "Postcode": "31400",
        "Location": "Laluan Canning",
        "Post_Office": "Ipoh",
        "State": "Perak"
    },
    {
        "Postcode": "31400",
        "Location": "Leboh Woods",
        "Post_Office": "Ipoh",
        "State": "Perak"
    },
    {
        "Postcode": "31400",
        "Location": "Lebuh  Dato Khoong Kam Tak",
        "Post_Office": "Ipoh",
        "State": "Perak"
    },
    {
        "Postcode": "31400",
        "Location": "Lebuh Cecil Rae",
        "Post_Office": "Ipoh",
        "State": "Perak"
    },
    {
        "Postcode": "31400",
        "Location": "Lebuh Sungai Senam",
        "Post_Office": "Ipoh",
        "State": "Perak"
    },
    {
        "Postcode": "31400",
        "Location": "Lebuhraya Fair Park",
        "Post_Office": "Ipoh",
        "State": "Perak"
    },
    {
        "Postcode": "31400",
        "Location": "Lebuhraya Pearl",
        "Post_Office": "Ipoh",
        "State": "Perak"
    },
    {
        "Postcode": "31400",
        "Location": "Lebuhraya Taman Ipoh",
        "Post_Office": "Ipoh",
        "State": "Perak"
    },
    {
        "Postcode": "31400",
        "Location": "Lengkok Canning",
        "Post_Office": "Ipoh",
        "State": "Perak"
    },
    {
        "Postcode": "31400",
        "Location": "Lengkok Harimau",
        "Post_Office": "Ipoh",
        "State": "Perak"
    },
    {
        "Postcode": "31400",
        "Location": "Lengkuk Tasek",
        "Post_Office": "Ipoh",
        "State": "Perak"
    },
    {
        "Postcode": "31400",
        "Location": "Lindungan Bercham Indah",
        "Post_Office": "Ipoh",
        "State": "Perak"
    },
    {
        "Postcode": "31400",
        "Location": "Lorong Cecil Rae",
        "Post_Office": "Ipoh",
        "State": "Perak"
    },
    {
        "Postcode": "31400",
        "Location": "Lorong Harimau",
        "Post_Office": "Ipoh",
        "State": "Perak"
    },
    {
        "Postcode": "31400",
        "Location": "Lorong Jeyce",
        "Post_Office": "Ipoh",
        "State": "Perak"
    },
    {
        "Postcode": "31400",
        "Location": "Mahkota Wira Condo",
        "Post_Office": "Ipoh",
        "State": "Perak"
    },
    {
        "Postcode": "31400",
        "Location": "Medan Tambun",
        "Post_Office": "Ipoh",
        "State": "Perak"
    },
    {
        "Postcode": "31400",
        "Location": "Metro Ipoh Baru",
        "Post_Office": "Ipoh",
        "State": "Perak"
    },
    {
        "Postcode": "31400",
        "Location": "Pearl Garden",
        "Post_Office": "Ipoh",
        "State": "Perak"
    },
    {
        "Postcode": "31400",
        "Location": "Perindustrian Ringan Bercam",
        "Post_Office": "Ipoh",
        "State": "Perak"
    },
    {
        "Postcode": "31400",
        "Location": "Persiaran Cecil Rae",
        "Post_Office": "Ipoh",
        "State": "Perak"
    },
    {
        "Postcode": "31400",
        "Location": "Persiaran Dato Dr Moreira",
        "Post_Office": "Ipoh",
        "State": "Perak"
    },
    {
        "Postcode": "31400",
        "Location": "Persiaran Harimau",
        "Post_Office": "Ipoh",
        "State": "Perak"
    },
    {
        "Postcode": "31400",
        "Location": "Persiaran Sungai Senam",
        "Post_Office": "Ipoh",
        "State": "Perak"
    },
    {
        "Postcode": "31400",
        "Location": "Persiaran Wood",
        "Post_Office": "Ipoh",
        "State": "Perak"
    },
    {
        "Postcode": "31400",
        "Location": "Pesara Ipoh",
        "Post_Office": "Ipoh",
        "State": "Perak"
    },
    {
        "Postcode": "31400",
        "Location": "Puncak Tambun Indah",
        "Post_Office": "Ipoh",
        "State": "Perak"
    },
    {
        "Postcode": "31400",
        "Location": "Pusat Bandar Bercham",
        "Post_Office": "Ipoh",
        "State": "Perak"
    },
    {
        "Postcode": "31400",
        "Location": "Regat Fair Park",
        "Post_Office": "Ipoh",
        "State": "Perak"
    },
    {
        "Postcode": "31400",
        "Location": "Regat Harimau",
        "Post_Office": "Ipoh",
        "State": "Perak"
    },
    {
        "Postcode": "31400",
        "Location": "Regat Seri Cempaka",
        "Post_Office": "Ipoh",
        "State": "Perak"
    },
    {
        "Postcode": "31400",
        "Location": "Regat Sungai Senam",
        "Post_Office": "Ipoh",
        "State": "Perak"
    },
    {
        "Postcode": "31400",
        "Location": "Rumah Pangsa Bercam",
        "Post_Office": "Ipoh",
        "State": "Perak"
    },
    {
        "Postcode": "31400",
        "Location": "Scrivenor Road",
        "Post_Office": "Ipoh",
        "State": "Perak"
    },
    {
        "Postcode": "31400",
        "Location": "Selasah Tebing Kinta",
        "Post_Office": "Ipoh",
        "State": "Perak"
    },
    {
        "Postcode": "31400",
        "Location": "Selasar Canning",
        "Post_Office": "Ipoh",
        "State": "Perak"
    },
    {
        "Postcode": "31400",
        "Location": "Solok Canning",
        "Post_Office": "Ipoh",
        "State": "Perak"
    },
    {
        "Postcode": "31400",
        "Location": "Solok Harimau",
        "Post_Office": "Ipoh",
        "State": "Perak"
    },
    {
        "Postcode": "31400",
        "Location": "Solok Stadium",
        "Post_Office": "Ipoh",
        "State": "Perak"
    },
    {
        "Postcode": "31400",
        "Location": "Solok Tambun",
        "Post_Office": "Ipoh",
        "State": "Perak"
    },
    {
        "Postcode": "31400",
        "Location": "Sungai Senam Walk",
        "Post_Office": "Ipoh",
        "State": "Perak"
    },
    {
        "Postcode": "31400",
        "Location": "Taman Anda",
        "Post_Office": "Ipoh",
        "State": "Perak"
    },
    {
        "Postcode": "31400",
        "Location": "Taman Anjung Bercam Indah",
        "Post_Office": "Ipoh",
        "State": "Perak"
    },
    {
        "Postcode": "31400",
        "Location": "Taman Anjung Bercam Megah",
        "Post_Office": "Ipoh",
        "State": "Perak"
    },
    {
        "Postcode": "31400",
        "Location": "Taman Anjung Bercham",
        "Post_Office": "Ipoh",
        "State": "Perak"
    },
    {
        "Postcode": "31400",
        "Location": "Taman Anjung Bercham Elit",
        "Post_Office": "Ipoh",
        "State": "Perak"
    },
    {
        "Postcode": "31400",
        "Location": "Taman Anjung Bercham Utara",
        "Post_Office": "Ipoh",
        "State": "Perak"
    },
    {
        "Postcode": "31400",
        "Location": "Taman Arena Putra",
        "Post_Office": "Ipoh",
        "State": "Perak"
    },
    {
        "Postcode": "31400",
        "Location": "Taman Asia",
        "Post_Office": "Ipoh",
        "State": "Perak"
    },
    {
        "Postcode": "31400",
        "Location": "Taman Baru Tambun",
        "Post_Office": "Ipoh",
        "State": "Perak"
    },
    {
        "Postcode": "31400",
        "Location": "Taman Bercam Suria",
        "Post_Office": "Ipoh",
        "State": "Perak"
    },
    {
        "Postcode": "31400",
        "Location": "Taman Bercham Aman",
        "Post_Office": "Ipoh",
        "State": "Perak"
    },
    {
        "Postcode": "31400",
        "Location": "Taman Bercham Baru",
        "Post_Office": "Ipoh",
        "State": "Perak"
    },
    {
        "Postcode": "31400",
        "Location": "Taman Bercham Indah",
        "Post_Office": "Ipoh",
        "State": "Perak"
    },
    {
        "Postcode": "31400",
        "Location": "Taman Bercham Jaya",
        "Post_Office": "Ipoh",
        "State": "Perak"
    },
    {
        "Postcode": "31400",
        "Location": "Taman Bercham Maju",
        "Post_Office": "Ipoh",
        "State": "Perak"
    },
    {
        "Postcode": "31400",
        "Location": "Taman Boulevard",
        "Post_Office": "Ipoh",
        "State": "Perak"
    },
    {
        "Postcode": "31400",
        "Location": "Taman Cahaya (Bercham Selatan)",
        "Post_Office": "Ipoh",
        "State": "Perak"
    },
    {
        "Postcode": "31400",
        "Location": "Taman Cahaya Bercham",
        "Post_Office": "Ipoh",
        "State": "Perak"
    },
    {
        "Postcode": "31400",
        "Location": "Taman Canning",
        "Post_Office": "Ipoh",
        "State": "Perak"
    },
    {
        "Postcode": "31400",
        "Location": "Taman Dermawan",
        "Post_Office": "Ipoh",
        "State": "Perak"
    },
    {
        "Postcode": "31400",
        "Location": "Taman Desa Bercham",
        "Post_Office": "Ipoh",
        "State": "Perak"
    },
    {
        "Postcode": "31400",
        "Location": "Taman Desa Cempaka",
        "Post_Office": "Ipoh",
        "State": "Perak"
    },
    {
        "Postcode": "31400",
        "Location": "Taman Desa Impian",
        "Post_Office": "Ipoh",
        "State": "Perak"
    },
    {
        "Postcode": "31400",
        "Location": "Taman Desa Kecana",
        "Post_Office": "Ipoh",
        "State": "Perak"
    },
    {
        "Postcode": "31400",
        "Location": "Taman Desa Kencana",
        "Post_Office": "Ipoh",
        "State": "Perak"
    },
    {
        "Postcode": "31400",
        "Location": "Taman Desa Tambun",
        "Post_Office": "Ipoh",
        "State": "Perak"
    },
    {
        "Postcode": "31400",
        "Location": "Taman Eleanor",
        "Post_Office": "Ipoh",
        "State": "Perak"
    },
    {
        "Postcode": "31400",
        "Location": "Taman Fair",
        "Post_Office": "Ipoh",
        "State": "Perak"
    },
    {
        "Postcode": "31400",
        "Location": "Taman Fan Lum Bintang",
        "Post_Office": "Ipoh",
        "State": "Perak"
    },
    {
        "Postcode": "31400",
        "Location": "Taman Gamilan Timur",
        "Post_Office": "Ipoh",
        "State": "Perak"
    },
    {
        "Postcode": "31400",
        "Location": "Taman Gaya",
        "Post_Office": "Ipoh",
        "State": "Perak"
    },
    {
        "Postcode": "31400",
        "Location": "Taman Gerbang Bercam Selamat",
        "Post_Office": "Ipoh",
        "State": "Perak"
    },
    {
        "Postcode": "31400",
        "Location": "Taman Hock Lee",
        "Post_Office": "Ipoh",
        "State": "Perak"
    },
    {
        "Postcode": "31400",
        "Location": "Taman Indah Sakti",
        "Post_Office": "Ipoh",
        "State": "Perak"
    },
    {
        "Postcode": "31400",
        "Location": "Taman Indra",
        "Post_Office": "Ipoh",
        "State": "Perak"
    },
    {
        "Postcode": "31400",
        "Location": "Taman Ipoh",
        "Post_Office": "Ipoh",
        "State": "Perak"
    },
    {
        "Postcode": "31400",
        "Location": "Taman Ipoh Baru",
        "Post_Office": "Ipoh",
        "State": "Perak"
    },
    {
        "Postcode": "31400",
        "Location": "Taman Ipoh Impian",
        "Post_Office": "Ipoh",
        "State": "Perak"
    },
    {
        "Postcode": "31400",
        "Location": "Taman Ipoh Perdana",
        "Post_Office": "Ipoh",
        "State": "Perak"
    },
    {
        "Postcode": "31400",
        "Location": "Taman Ipoh Permai",
        "Post_Office": "Ipoh",
        "State": "Perak"
    },
    {
        "Postcode": "31400",
        "Location": "Taman Ipoh Selatan",
        "Post_Office": "Ipoh",
        "State": "Perak"
    },
    {
        "Postcode": "31400",
        "Location": "Taman Ipoh Timur",
        "Post_Office": "Ipoh",
        "State": "Perak"
    },
    {
        "Postcode": "31400",
        "Location": "Taman Kee Mee",
        "Post_Office": "Ipoh",
        "State": "Perak"
    },
    {
        "Postcode": "31400",
        "Location": "Taman Kemuncak",
        "Post_Office": "Ipoh",
        "State": "Perak"
    },
    {
        "Postcode": "31400",
        "Location": "Taman Kencana",
        "Post_Office": "Ipoh",
        "State": "Perak"
    },
    {
        "Postcode": "31400",
        "Location": "Taman Kim Fah",
        "Post_Office": "Ipoh",
        "State": "Perak"
    },
    {
        "Postcode": "31400",
        "Location": "Taman Kim Mee",
        "Post_Office": "Ipoh",
        "State": "Perak"
    },
    {
        "Postcode": "31400",
        "Location": "Taman Kinta (Taman Ipoh)",
        "Post_Office": "Ipoh",
        "State": "Perak"
    },
    {
        "Postcode": "31400",
        "Location": "Taman Kinta Mas",
        "Post_Office": "Ipoh",
        "State": "Perak"
    },
    {
        "Postcode": "31400",
        "Location": "Taman Lindungan Bercham Indah",
        "Post_Office": "Ipoh",
        "State": "Perak"
    },
    {
        "Postcode": "31400",
        "Location": "Taman Manikavasagam",
        "Post_Office": "Ipoh",
        "State": "Perak"
    },
    {
        "Postcode": "31400",
        "Location": "Taman Manorama",
        "Post_Office": "Ipoh",
        "State": "Perak"
    },
    {
        "Postcode": "31400",
        "Location": "Taman Medan",
        "Post_Office": "Ipoh",
        "State": "Perak"
    },
    {
        "Postcode": "31400",
        "Location": "Taman Medan Bercham",
        "Post_Office": "Ipoh",
        "State": "Perak"
    },
    {
        "Postcode": "31400",
        "Location": "Taman Medan Tasek",
        "Post_Office": "Ipoh",
        "State": "Perak"
    },
    {
        "Postcode": "31400",
        "Location": "Taman Mirindy",
        "Post_Office": "Ipoh",
        "State": "Perak"
    },
    {
        "Postcode": "31400",
        "Location": "Taman Moonlight",
        "Post_Office": "Ipoh",
        "State": "Perak"
    },
    {
        "Postcode": "31400",
        "Location": "Taman Mujur",
        "Post_Office": "Ipoh",
        "State": "Perak"
    },
    {
        "Postcode": "31400",
        "Location": "Taman Musim Bunga",
        "Post_Office": "Ipoh",
        "State": "Perak"
    },
    {
        "Postcode": "31400",
        "Location": "Taman Pakatan",
        "Post_Office": "Ipoh",
        "State": "Perak"
    },
    {
        "Postcode": "31400",
        "Location": "Taman Perajurit",
        "Post_Office": "Ipoh",
        "State": "Perak"
    },
    {
        "Postcode": "31400",
        "Location": "Taman Perpaduan Koperasi",
        "Post_Office": "Ipoh",
        "State": "Perak"
    },
    {
        "Postcode": "31400",
        "Location": "Taman Pusat  Bercam",
        "Post_Office": "Ipoh",
        "State": "Perak"
    },
    {
        "Postcode": "31400",
        "Location": "Taman Putra Indah",
        "Post_Office": "Ipoh",
        "State": "Perak"
    },
    {
        "Postcode": "31400",
        "Location": "Taman Putra Permai",
        "Post_Office": "Ipoh",
        "State": "Perak"
    },
    {
        "Postcode": "31400",
        "Location": "Taman Ramai",
        "Post_Office": "Ipoh",
        "State": "Perak"
    },
    {
        "Postcode": "31400",
        "Location": "Taman Rastu",
        "Post_Office": "Ipoh",
        "State": "Perak"
    },
    {
        "Postcode": "31400",
        "Location": "Taman Restu Jaya",
        "Post_Office": "Ipoh",
        "State": "Perak"
    },
    {
        "Postcode": "31400",
        "Location": "Taman Riang",
        "Post_Office": "Ipoh",
        "State": "Perak"
    },
    {
        "Postcode": "31400",
        "Location": "Taman Rima Gamelan",
        "Post_Office": "Ipoh",
        "State": "Perak"
    },
    {
        "Postcode": "31400",
        "Location": "Taman Rimba Tambun",
        "Post_Office": "Ipoh",
        "State": "Perak"
    },
    {
        "Postcode": "31400",
        "Location": "Taman Seri Bercham",
        "Post_Office": "Ipoh",
        "State": "Perak"
    },
    {
        "Postcode": "31400",
        "Location": "Taman Seri Dermawan",
        "Post_Office": "Ipoh",
        "State": "Perak"
    },
    {
        "Postcode": "31400",
        "Location": "Taman Seri Gaya",
        "Post_Office": "Ipoh",
        "State": "Perak"
    },
    {
        "Postcode": "31400",
        "Location": "Taman Seri Tasek",
        "Post_Office": "Ipoh",
        "State": "Perak"
    },
    {
        "Postcode": "31400",
        "Location": "Taman Shukor",
        "Post_Office": "Ipoh",
        "State": "Perak"
    },
    {
        "Postcode": "31400",
        "Location": "Taman Sri Bercham",
        "Post_Office": "Ipoh",
        "State": "Perak"
    },
    {
        "Postcode": "31400",
        "Location": "Taman Sri Tambun",
        "Post_Office": "Ipoh",
        "State": "Perak"
    },
    {
        "Postcode": "31400",
        "Location": "Taman Sri Tasek",
        "Post_Office": "Ipoh",
        "State": "Perak"
    },
    {
        "Postcode": "31400",
        "Location": "Taman Star",
        "Post_Office": "Ipoh",
        "State": "Perak"
    },
    {
        "Postcode": "31400",
        "Location": "Taman Sunrise",
        "Post_Office": "Ipoh",
        "State": "Perak"
    },
    {
        "Postcode": "31400",
        "Location": "Taman Syabas",
        "Post_Office": "Ipoh",
        "State": "Perak"
    },
    {
        "Postcode": "31400",
        "Location": "Taman Syukur (Bercham Selatan)",
        "Post_Office": "Ipoh",
        "State": "Perak"
    },
    {
        "Postcode": "31400",
        "Location": "Taman Tambun",
        "Post_Office": "Ipoh",
        "State": "Perak"
    },
    {
        "Postcode": "31400",
        "Location": "Taman Tambun Jaya",
        "Post_Office": "Ipoh",
        "State": "Perak"
    },
    {
        "Postcode": "31400",
        "Location": "Taman Tambun Permai",
        "Post_Office": "Ipoh",
        "State": "Perak"
    },
    {
        "Postcode": "31400",
        "Location": "Taman Tasek Berlian",
        "Post_Office": "Ipoh",
        "State": "Perak"
    },
    {
        "Postcode": "31400",
        "Location": "Taman Tasek Dermawan",
        "Post_Office": "Ipoh",
        "State": "Perak"
    },
    {
        "Postcode": "31400",
        "Location": "Taman Tasek Indra",
        "Post_Office": "Ipoh",
        "State": "Perak"
    },
    {
        "Postcode": "31400",
        "Location": "Taman Tasik",
        "Post_Office": "Ipoh",
        "State": "Perak"
    },
    {
        "Postcode": "31400",
        "Location": "Taman Teh Teng Seng",
        "Post_Office": "Ipoh",
        "State": "Perak"
    },
    {
        "Postcode": "31400",
        "Location": "Taman Villa",
        "Post_Office": "Ipoh",
        "State": "Perak"
    },
    {
        "Postcode": "31400",
        "Location": "Taman Wah Keong",
        "Post_Office": "Ipoh",
        "State": "Perak"
    },
    {
        "Postcode": "31400",
        "Location": "Taman Wah Kheong",
        "Post_Office": "Ipoh",
        "State": "Perak"
    },
    {
        "Postcode": "31400",
        "Location": "Taman Westpool",
        "Post_Office": "Ipoh",
        "State": "Perak"
    },
    {
        "Postcode": "31400",
        "Location": "Tambun",
        "Post_Office": "Ipoh",
        "State": "Perak"
    },
    {
        "Postcode": "31400",
        "Location": "Tambun Height",
        "Post_Office": "Ipoh",
        "State": "Perak"
    },
    {
        "Postcode": "31400",
        "Location": "Tasek Mutiara",
        "Post_Office": "Ipoh",
        "State": "Perak"
    },
    {
        "Postcode": "31400",
        "Location": "Tingkat Ipoh",
        "Post_Office": "Ipoh",
        "State": "Perak"
    },
    {
        "Postcode": "31400",
        "Location": "Tingkat Taman Ipoh",
        "Post_Office": "Ipoh",
        "State": "Perak"
    },
    {
        "Postcode": "31400",
        "Location": "Villa Medan Desa Perpaduan",
        "Post_Office": "Ipoh",
        "State": "Perak"
    },
    {
        "Postcode": "31400",
        "Location": "Wolly Amusement Centre",
        "Post_Office": "Ipoh",
        "State": "Perak"
    },
    {
        "Postcode": "31400",
        "Location": "Zon Perindustrian Tasek",
        "Post_Office": "Ipoh",
        "State": "Perak"
    }
]
