[
    {
        "Postcode": "31450",
        "Location": "Taman Menglembu Impiana Adril",
        "Post_Office": "Ipoh",
        "State": "Perak"
    },
    {
        "Postcode": "31450",
        "Location": "Jalan Menglembu Impiana 1",
        "Post_Office": "Ipoh",
        "State": "Perak"
    },
    {
        "Postcode": "31450",
        "Location": "Jalan Menglembu Impiana 2",
        "Post_Office": "Ipoh",
        "State": "Perak"
    },
    {
        "Postcode": "31450",
        "Location": "Jalan Menglembu Impiana 3",
        "Post_Office": "Ipoh",
        "State": "Perak"
    },
    {
        "Postcode": "31450",
        "Location": "Jalan Menglembu Impiana 4",
        "Post_Office": "Ipoh",
        "State": "Perak"
    },
    {
        "Postcode": "31450",
        "Location": "Jalan Menglembu Impiana 5",
        "Post_Office": "Ipoh",
        "State": "Perak"
    },
    {
        "Postcode": "31450",
        "Location": "Jalan Menglembu Impiana 6",
        "Post_Office": "Ipoh",
        "State": "Perak"
    },
    {
        "Postcode": "31450",
        "Location": "Jalan Menglembu Impiana 7",
        "Post_Office": "Ipoh",
        "State": "Perak"
    },
    {
        "Postcode": "31450",
        "Location": "Jalan Menglembu Impiana 8",
        "Post_Office": "Ipoh",
        "State": "Perak"
    },
    {
        "Postcode": "31450",
        "Location": "Jalan Menglembu Impiana 9",
        "Post_Office": "Ipoh",
        "State": "Perak"
    },
    {
        "Postcode": "31450",
        "Location": "Jalan Menglembu Impiana 10",
        "Post_Office": "Ipoh",
        "State": "Perak"
    },
    {
        "Postcode": "31450",
        "Location": "Kampung Kuala Pari",
        "Post_Office": "Ipoh",
        "State": "Perak"
    },
    {
        "Postcode": "31450",
        "Location": "Kledang Bestari",
        "Post_Office": "Ipoh",
        "State": "Perak"
    },
    {
        "Postcode": "31450",
        "Location": "Taman Hong Kong",
        "Post_Office": "Ipoh",
        "State": "Perak"
    },
    {
        "Postcode": "31450",
        "Location": "Taman Sepakat",
        "Post_Office": "Ipoh",
        "State": "Perak"
    },
    {
        "Postcode": "31450",
        "Location": "Kampung Cina",
        "Post_Office": "Ipoh",
        "State": "Perak"
    },
    {
        "Postcode": "31450",
        "Location": "Taman Intan",
        "Post_Office": "Ipoh",
        "State": "Perak"
    },
    {
        "Postcode": "31450",
        "Location": "Bukit Kledang Indah",
        "Post_Office": "Ipoh",
        "State": "Perak"
    },
    {
        "Postcode": "31450",
        "Location": "Bukit Kledang Utama",
        "Post_Office": "Ipoh",
        "State": "Perak"
    },
    {
        "Postcode": "31450",
        "Location": "Hala Persiaran Menglembu 13",
        "Post_Office": "Ipoh",
        "State": "Perak"
    },
    {
        "Postcode": "31450",
        "Location": "Hala Perusahaan Menglembu",
        "Post_Office": "Ipoh",
        "State": "Perak"
    },
    {
        "Postcode": "31450",
        "Location": "Jalan Impiana Adril - Taman Impiana Adril",
        "Post_Office": "Ipoh",
        "State": "Perak"
    },
    {
        "Postcode": "31450",
        "Location": "Jalan Kledang Timur - Taman Bandar Baru",
        "Post_Office": "Ipoh",
        "State": "Perak"
    },
    {
        "Postcode": "31450",
        "Location": "Jalan Menglembu Timur",
        "Post_Office": "Ipoh",
        "State": "Perak"
    },
    {
        "Postcode": "31450",
        "Location": "Kampung Keling",
        "Post_Office": "Ipoh",
        "State": "Perak"
    },
    {
        "Postcode": "31450",
        "Location": "Kuala Pari Tambahan",
        "Post_Office": "Ipoh",
        "State": "Perak"
    },
    {
        "Postcode": "31450",
        "Location": "Laluan Bukit Merah - Taman Bukit Merah",
        "Post_Office": "Ipoh",
        "State": "Perak"
    },
    {
        "Postcode": "31450",
        "Location": "Laluan Mengelembu - Taman Merlian",
        "Post_Office": "Ipoh",
        "State": "Perak"
    },
    {
        "Postcode": "31450",
        "Location": "Lebuh Arkid",
        "Post_Office": "Ipoh",
        "State": "Perak"
    },
    {
        "Postcode": "31450",
        "Location": "Menglembu",
        "Post_Office": "Ipoh",
        "State": "Perak"
    },
    {
        "Postcode": "31450",
        "Location": "Menglembu Industrial Park",
        "Post_Office": "Ipoh",
        "State": "Perak"
    },
    {
        "Postcode": "31450",
        "Location": "Menglembu Regrouping Area",
        "Post_Office": "Ipoh",
        "State": "Perak"
    },
    {
        "Postcode": "31450",
        "Location": "Taman Arkid",
        "Post_Office": "Ipoh",
        "State": "Perak"
    },
    {
        "Postcode": "31450",
        "Location": "Taman Chandan Raya",
        "Post_Office": "Ipoh",
        "State": "Perak"
    },
    {
        "Postcode": "31450",
        "Location": "Taman Gamelan",
        "Post_Office": "Ipoh",
        "State": "Perak"
    },
    {
        "Postcode": "31450",
        "Location": "Taman Kamay",
        "Post_Office": "Ipoh",
        "State": "Perak"
    },
    {
        "Postcode": "31450",
        "Location": "Taman Keledang",
        "Post_Office": "Ipoh",
        "State": "Perak"
    },
    {
        "Postcode": "31450",
        "Location": "Taman Keledang Sentosa",
        "Post_Office": "Ipoh",
        "State": "Perak"
    },
    {
        "Postcode": "31450",
        "Location": "Taman Menglembu",
        "Post_Office": "Ipoh",
        "State": "Perak"
    },
    {
        "Postcode": "31450",
        "Location": "Taman Menglembu Impian Adril",
        "Post_Office": "Ipoh",
        "State": "Perak"
    },
    {
        "Postcode": "31450",
        "Location": "Taman Raja Izzuddin",
        "Post_Office": "Ipoh",
        "State": "Perak"
    },
    {
        "Postcode": "31450",
        "Location": "Taman Rasi",
        "Post_Office": "Ipoh",
        "State": "Perak"
    },
    {
        "Postcode": "31450",
        "Location": "Taman Rasi Jaya",
        "Post_Office": "Ipoh",
        "State": "Perak"
    },
    {
        "Postcode": "31450",
        "Location": "Taman Wang",
        "Post_Office": "Ipoh",
        "State": "Perak"
    }
]
