[
    {
        "Postcode": "31500",
        "Location": "Jalan Lahat Indah 1",
        "Post_Office": "Ipoh",
        "State": "Perak"
    },
    {
        "Postcode": "31500",
        "Location": "Jalan Lahat Indah 10",
        "Post_Office": "Ipoh",
        "State": "Perak"
    },
    {
        "Postcode": "31500",
        "Location": "Jalan Lahat Indah 11",
        "Post_Office": "Ipoh",
        "State": "Perak"
    },
    {
        "Postcode": "31500",
        "Location": "Jalan Lahat Indah 12",
        "Post_Office": "Ipoh",
        "State": "Perak"
    },
    {
        "Postcode": "31500",
        "Location": "Jalan Lahat Indah 13",
        "Post_Office": "Ipoh",
        "State": "Perak"
    },
    {
        "Postcode": "31500",
        "Location": "Jalan Lahat Indah 14",
        "Post_Office": "Ipoh",
        "State": "Perak"
    },
    {
        "Postcode": "31500",
        "Location": "Jalan Lahat Indah 2",
        "Post_Office": "Ipoh",
        "State": "Perak"
    },
    {
        "Postcode": "31500",
        "Location": "Jalan Lahat Indah 3",
        "Post_Office": "Ipoh",
        "State": "Perak"
    },
    {
        "Postcode": "31500",
        "Location": "Jalan Lahat Indah 4",
        "Post_Office": "Ipoh",
        "State": "Perak"
    },
    {
        "Postcode": "31500",
        "Location": "Jalan Lahat Indah 5",
        "Post_Office": "Ipoh",
        "State": "Perak"
    },
    {
        "Postcode": "31500",
        "Location": "Jalan Lahat Indah 6",
        "Post_Office": "Ipoh",
        "State": "Perak"
    },
    {
        "Postcode": "31500",
        "Location": "Jalan Lahat Indah 7",
        "Post_Office": "Ipoh",
        "State": "Perak"
    },
    {
        "Postcode": "31500",
        "Location": "Jalan Lahat Indah 8",
        "Post_Office": "Ipoh",
        "State": "Perak"
    },
    {
        "Postcode": "31500",
        "Location": "Jalan Lahat Indah 9",
        "Post_Office": "Ipoh",
        "State": "Perak"
    },
    {
        "Postcode": "31500",
        "Location": "Yours International ",
        "Post_Office": "Ipoh",
        "State": "Perak"
    },
    {
        "Postcode": "31500",
        "Location": "Taman Pegoh",
        "Post_Office": "Ipoh",
        "State": "Perak"
    },
    {
        "Postcode": "31500",
        "Location": "Desa Lahat Sri Wang",
        "Post_Office": "Ipoh",
        "State": "Perak"
    },
    {
        "Postcode": "31500",
        "Location": "Jalan Lahat Sri Wang",
        "Post_Office": "Ipoh",
        "State": "Perak"
    },
    {
        "Postcode": "31500",
        "Location": "Taman Gerbang Johan Damai",
        "Post_Office": "Ipoh",
        "State": "Perak"
    },
    {
        "Postcode": "31500",
        "Location": "Taman Gerbang Johan Delima",
        "Post_Office": "Ipoh",
        "State": "Perak"
    },
    {
        "Postcode": "31500",
        "Location": "Taman Desa Aman",
        "Post_Office": "Ipoh",
        "State": "Perak"
    },
    {
        "Postcode": "31500",
        "Location": "Taman Pinji",
        "Post_Office": "Ipoh",
        "State": "Perak"
    },
    {
        "Postcode": "31500",
        "Location": "Taman Sri Megah",
        "Post_Office": "Ipoh",
        "State": "Perak"
    },
    {
        "Postcode": "31500",
        "Location": "Taman Berkat",
        "Post_Office": "Ipoh",
        "State": "Perak"
    },
    {
        "Postcode": "31500",
        "Location": "Bandar Pengkalan Indah",
        "Post_Office": "Ipoh",
        "State": "Perak"
    },
    {
        "Postcode": "31500",
        "Location": "Dataran Lahat 1",
        "Post_Office": "Ipoh",
        "State": "Perak"
    },
    {
        "Postcode": "31500",
        "Location": "Dataran Lahat 2",
        "Post_Office": "Ipoh",
        "State": "Perak"
    },
    {
        "Postcode": "31500",
        "Location": "Dataran Lahat 3",
        "Post_Office": "Ipoh",
        "State": "Perak"
    },
    {
        "Postcode": "31500",
        "Location": "Dataran Lahat 4",
        "Post_Office": "Ipoh",
        "State": "Perak"
    },
    {
        "Postcode": "31500",
        "Location": "Dataran Lahat 5",
        "Post_Office": "Ipoh",
        "State": "Perak"
    },
    {
        "Postcode": "31500",
        "Location": "Jalan Pinji Selatan",
        "Post_Office": "Ipoh",
        "State": "Perak"
    },
    {
        "Postcode": "31500",
        "Location": "Kampung Baru Bukit Merah",
        "Post_Office": "Ipoh",
        "State": "Perak"
    },
    {
        "Postcode": "31500",
        "Location": "Kampung Changkat Larang",
        "Post_Office": "Ipoh",
        "State": "Perak"
    },
    {
        "Postcode": "31500",
        "Location": "Kampung Meranti Lapan",
        "Post_Office": "Ipoh",
        "State": "Perak"
    },
    {
        "Postcode": "31500",
        "Location": "Kampung Pasar Minggu",
        "Post_Office": "Ipoh",
        "State": "Perak"
    },
    {
        "Postcode": "31500",
        "Location": "Kampung Seri Rahmat",
        "Post_Office": "Ipoh",
        "State": "Perak"
    },
    {
        "Postcode": "31500",
        "Location": "Kampung Simpanan Melayu",
        "Post_Office": "Ipoh",
        "State": "Perak"
    },
    {
        "Postcode": "31500",
        "Location": "Kampung Tersusun Pengkalan Stes",
        "Post_Office": "Ipoh",
        "State": "Perak"
    },
    {
        "Postcode": "31500",
        "Location": "Kawasan Perindustrian Jalan Pengkalan",
        "Post_Office": "Ipoh",
        "State": "Perak"
    },
    {
        "Postcode": "31500",
        "Location": "Kilang Jalan Pusing",
        "Post_Office": "Ipoh",
        "State": "Perak"
    },
    {
        "Postcode": "31500",
        "Location": "Kilang Perabot Rotan",
        "Post_Office": "Ipoh",
        "State": "Perak"
    },
    {
        "Postcode": "31500",
        "Location": "Kilang Rima Industri",
        "Post_Office": "Ipoh",
        "State": "Perak"
    },
    {
        "Postcode": "31500",
        "Location": "Lahat",
        "Post_Office": "Ipoh",
        "State": "Perak"
    },
    {
        "Postcode": "31500",
        "Location": "Medan Lahat Baru",
        "Post_Office": "Ipoh",
        "State": "Perak"
    },
    {
        "Postcode": "31500",
        "Location": "Medan Pengkalan Impian",
        "Post_Office": "Ipoh",
        "State": "Perak"
    },
    {
        "Postcode": "31500",
        "Location": "Pengkalan Gate",
        "Post_Office": "Ipoh",
        "State": "Perak"
    },
    {
        "Postcode": "31500",
        "Location": "Pengkalan Jalan Pusing",
        "Post_Office": "Ipoh",
        "State": "Perak"
    },
    {
        "Postcode": "31500",
        "Location": "Pengkalan Pegoh",
        "Post_Office": "Ipoh",
        "State": "Perak"
    },
    {
        "Postcode": "31500",
        "Location": "Pengkalan Prima",
        "Post_Office": "Ipoh",
        "State": "Perak"
    },
    {
        "Postcode": "31500",
        "Location": "Pengkalan Station",
        "Post_Office": "Ipoh",
        "State": "Perak"
    },
    {
        "Postcode": "31500",
        "Location": "Pengkalan Tin Ltd",
        "Post_Office": "Ipoh",
        "State": "Perak"
    },
    {
        "Postcode": "31500",
        "Location": "Persiaran Selatan 16",
        "Post_Office": "Ipoh",
        "State": "Perak"
    },
    {
        "Postcode": "31500",
        "Location": "Persiaran Selatan 19",
        "Post_Office": "Ipoh",
        "State": "Perak"
    },
    {
        "Postcode": "31500",
        "Location": "Persiaran Selatan 21",
        "Post_Office": "Ipoh",
        "State": "Perak"
    },
    {
        "Postcode": "31500",
        "Location": "Persiaran Selatan 23",
        "Post_Office": "Ipoh",
        "State": "Perak"
    },
    {
        "Postcode": "31500",
        "Location": "Rpt Pengkalan Pegoh",
        "Post_Office": "Ipoh",
        "State": "Perak"
    },
    {
        "Postcode": "31500",
        "Location": "Rpt Pengkalan Pegoh Seberang",
        "Post_Office": "Ipoh",
        "State": "Perak"
    },
    {
        "Postcode": "31500",
        "Location": "Taman Badri Shah",
        "Post_Office": "Ipoh",
        "State": "Perak"
    },
    {
        "Postcode": "31500",
        "Location": "Taman Desa Pelancongan",
        "Post_Office": "Ipoh",
        "State": "Perak"
    },
    {
        "Postcode": "31500",
        "Location": "Taman Desa Pelancongan 11",
        "Post_Office": "Ipoh",
        "State": "Perak"
    },
    {
        "Postcode": "31500",
        "Location": "Taman Desa Pengkalan Bandaraya",
        "Post_Office": "Ipoh",
        "State": "Perak"
    },
    {
        "Postcode": "31500",
        "Location": "Taman Desa Pengkalan Indah",
        "Post_Office": "Ipoh",
        "State": "Perak"
    },
    {
        "Postcode": "31500",
        "Location": "Taman Desa Pengkalan Maya",
        "Post_Office": "Ipoh",
        "State": "Perak"
    },
    {
        "Postcode": "31500",
        "Location": "Taman Lahat Baru",
        "Post_Office": "Ipoh",
        "State": "Perak"
    },
    {
        "Postcode": "31500",
        "Location": "Taman Pengkalan Bidadari",
        "Post_Office": "Ipoh",
        "State": "Perak"
    },
    {
        "Postcode": "31500",
        "Location": "Taman Pengkalan Damai",
        "Post_Office": "Ipoh",
        "State": "Perak"
    },
    {
        "Postcode": "31500",
        "Location": "Taman Pengkalan Maamur",
        "Post_Office": "Ipoh",
        "State": "Perak"
    },
    {
        "Postcode": "31500",
        "Location": "Taman Pengkalan Perdana",
        "Post_Office": "Ipoh",
        "State": "Perak"
    },
    {
        "Postcode": "31500",
        "Location": "Taman Pengkalan Wawasan",
        "Post_Office": "Ipoh",
        "State": "Perak"
    },
    {
        "Postcode": "31500",
        "Location": "Taman Pinji Mewah",
        "Post_Office": "Ipoh",
        "State": "Perak"
    },
    {
        "Postcode": "31500",
        "Location": "Taman Pinji Perdana",
        "Post_Office": "Ipoh",
        "State": "Perak"
    },
    {
        "Postcode": "31500",
        "Location": "Taman Pinji Ria",
        "Post_Office": "Ipoh",
        "State": "Perak"
    }
]
