[
    {
        "Postcode": "31550",
        "Location": "Taman Ria",
        "Post_Office": "Pusing",
        "State": "Perak"
    },
    {
        "Postcode": "31550",
        "Location": "Jalan Lahat",
        "Post_Office": "Pusing",
        "State": "Perak"
    },
    {
        "Postcode": "31550",
        "Location": "Taman Pusing Sakura",
        "Post_Office": "Pusing",
        "State": "Perak"
    },
    {
        "Postcode": "31550",
        "Location": "Kampung Baru",
        "Post_Office": "Pusing",
        "State": "Perak"
    },
    {
        "Postcode": "31550",
        "Location": "Kampung Changkat",
        "Post_Office": "Pusing",
        "State": "Perak"
    },
    {
        "Postcode": "31550",
        "Location": "Taman Mewah Pusing",
        "Post_Office": "Pusing",
        "State": "Perak"
    },
    {
        "Postcode": "31550",
        "Location": "Taman Puncak Pusing Indah",
        "Post_Office": "Pusing",
        "State": "Perak"
    },
    {
        "Postcode": "31550",
        "Location": "Taman Pusing",
        "Post_Office": "Pusing",
        "State": "Perak"
    },
    {
        "Postcode": "31550",
        "Location": "Taman Pusing Baru",
        "Post_Office": "Pusing",
        "State": "Perak"
    },
    {
        "Postcode": "31550",
        "Location": "Taman Pusing Mutiara",
        "Post_Office": "Pusing",
        "State": "Perak"
    },
    {
        "Postcode": "31550",
        "Location": "Taman Puspa",
        "Post_Office": "Pusing",
        "State": "Perak"
    },
    {
        "Postcode": "31550",
        "Location": "Taman Saujana Pusing",
        "Post_Office": "Pusing",
        "State": "Perak"
    },
    {
        "Postcode": "31550",
        "Location": "Taman Pusing Sakura",
        "Post_Office": "Pusing",
        "State": "Perak"
    },
    {
        "Postcode": "31550",
        "Location": "Bandar Sri Pengkalan",
        "Post_Office": "Pusing",
        "State": "Perak"
    },
    {
        "Postcode": "31550",
        "Location": "Batu Gajah Perdana",
        "Post_Office": "Pusing",
        "State": "Perak"
    },
    {
        "Postcode": "31550",
        "Location": "Gunung Hijau",
        "Post_Office": "Pusing",
        "State": "Perak"
    },
    {
        "Postcode": "31550",
        "Location": "Jalan Belakang Sekolah Gunung Hijau",
        "Post_Office": "Pusing",
        "State": "Perak"
    },
    {
        "Postcode": "31550",
        "Location": "Jalan Keretapi Lama",
        "Post_Office": "Pusing",
        "State": "Perak"
    },
    {
        "Postcode": "31550",
        "Location": "Jalan Siputeh",
        "Post_Office": "Pusing",
        "State": "Perak"
    },
    {
        "Postcode": "31550",
        "Location": "Jalan Tongkak / Panchor",
        "Post_Office": "Pusing",
        "State": "Perak"
    },
    {
        "Postcode": "31550",
        "Location": "Kaca Jalan Lahat",
        "Post_Office": "Pusing",
        "State": "Perak"
    },
    {
        "Postcode": "31550",
        "Location": "Kampung Baru A",
        "Post_Office": "Pusing",
        "State": "Perak"
    },
    {
        "Postcode": "31550",
        "Location": "Kampung Baru Papan Lama",
        "Post_Office": "Pusing",
        "State": "Perak"
    },
    {
        "Postcode": "31550",
        "Location": "Kampung Datok Papan Lama",
        "Post_Office": "Pusing",
        "State": "Perak"
    },
    {
        "Postcode": "31550",
        "Location": "Kampung Gunung Hijau (E - F)",
        "Post_Office": "Pusing",
        "State": "Perak"
    },
    {
        "Postcode": "31550",
        "Location": "Kampung Gunung Hijau Estate",
        "Post_Office": "Pusing",
        "State": "Perak"
    },
    {
        "Postcode": "31550",
        "Location": "Kampung Haji Rahman",
        "Post_Office": "Pusing",
        "State": "Perak"
    },
    {
        "Postcode": "31550",
        "Location": "Kampung Papan Baru",
        "Post_Office": "Pusing",
        "State": "Perak"
    },
    {
        "Postcode": "31550",
        "Location": "Kampung Peti Baru",
        "Post_Office": "Pusing",
        "State": "Perak"
    },
    {
        "Postcode": "31550",
        "Location": "Kampung Piandang Baru",
        "Post_Office": "Pusing",
        "State": "Perak"
    },
    {
        "Postcode": "31550",
        "Location": "Kampung Piandang Lama",
        "Post_Office": "Pusing",
        "State": "Perak"
    },
    {
        "Postcode": "31550",
        "Location": "Kampung Pinang (A \u0026 B)",
        "Post_Office": "Pusing",
        "State": "Perak"
    },
    {
        "Postcode": "31550",
        "Location": "Papan Baru",
        "Post_Office": "Pusing",
        "State": "Perak"
    },
    {
        "Postcode": "31550",
        "Location": "Pusing",
        "Post_Office": "Pusing",
        "State": "Perak"
    },
    {
        "Postcode": "31550",
        "Location": "Siputeh",
        "Post_Office": "Pusing",
        "State": "Perak"
    },
    {
        "Postcode": "31550",
        "Location": "Siputeh (Km 5)",
        "Post_Office": "Pusing",
        "State": "Perak"
    }
]
