[
    {
        "Postcode": "31600",
        "Location": "Kampung Pulai",
        "Post_Office": "Gopeng",
        "State": "Perak"
    },
    {
        "Postcode": "31600",
        "Location": "Taman Gopeng",
        "Post_Office": "Gopeng",
        "State": "Perak"
    },
    {
        "Postcode": "31600",
        "Location": "Taman Kinta",
        "Post_Office": "Gopeng",
        "State": "Perak"
    },
    {
        "Postcode": "31600",
        "Location": "Kampung Batu 3",
        "Post_Office": "Gopeng",
        "State": "Perak"
    },
    {
        "Postcode": "31600",
        "Location": "Taman Gopeng Indah",
        "Post_Office": "Gopeng",
        "State": "Perak"
    },
    {
        "Postcode": "31600",
        "Location": "Desa Lawan Kuda",
        "Post_Office": "Gopeng",
        "State": "Perak"
    },
    {
        "Postcode": "31600",
        "Location": "Gopeng",
        "Post_Office": "Gopeng",
        "State": "Perak"
    },
    {
        "Postcode": "31600",
        "Location": "Gopeng Industrial Park",
        "Post_Office": "Gopeng",
        "State": "Perak"
    },
    {
        "Postcode": "31600",
        "Location": "Gunung Mesah Hilir",
        "Post_Office": "Gopeng",
        "State": "Perak"
    },
    {
        "Postcode": "31600",
        "Location": "Jalan Berwick",
        "Post_Office": "Gopeng",
        "State": "Perak"
    },
    {
        "Postcode": "31600",
        "Location": "Kampung Batu 1 Jalan Kota Bahru",
        "Post_Office": "Gopeng",
        "State": "Perak"
    },
    {
        "Postcode": "31600",
        "Location": "Kampung Cholek",
        "Post_Office": "Gopeng",
        "State": "Perak"
    },
    {
        "Postcode": "31600",
        "Location": "Kampung Dusun Seribu",
        "Post_Office": "Gopeng",
        "State": "Perak"
    },
    {
        "Postcode": "31600",
        "Location": "Kampung Gunung Mesah Hilir",
        "Post_Office": "Gopeng",
        "State": "Perak"
    },
    {
        "Postcode": "31600",
        "Location": "Kampung Gunung Mesah Hulu",
        "Post_Office": "Gopeng",
        "State": "Perak"
    },
    {
        "Postcode": "31600",
        "Location": "Kampung Gunung Panjang",
        "Post_Office": "Gopeng",
        "State": "Perak"
    },
    {
        "Postcode": "31600",
        "Location": "Kampung Jahang",
        "Post_Office": "Gopeng",
        "State": "Perak"
    },
    {
        "Postcode": "31600",
        "Location": "Kampung Jelintoh Baru",
        "Post_Office": "Gopeng",
        "State": "Perak"
    },
    {
        "Postcode": "31600",
        "Location": "Kampung Lawan Kuda",
        "Post_Office": "Gopeng",
        "State": "Perak"
    },
    {
        "Postcode": "31600",
        "Location": "Kampung Pintu Padang",
        "Post_Office": "Gopeng",
        "State": "Perak"
    },
    {
        "Postcode": "31600",
        "Location": "Kampung Rawa",
        "Post_Office": "Gopeng",
        "State": "Perak"
    },
    {
        "Postcode": "31600",
        "Location": "Kampung Rawa Baru",
        "Post_Office": "Gopeng",
        "State": "Perak"
    },
    {
        "Postcode": "31600",
        "Location": "Kampung Rawa Lama",
        "Post_Office": "Gopeng",
        "State": "Perak"
    },
    {
        "Postcode": "31600",
        "Location": "Kampung Sanggili",
        "Post_Office": "Gopeng",
        "State": "Perak"
    },
    {
        "Postcode": "31600",
        "Location": "Kampung Sungai Itek",
        "Post_Office": "Gopeng",
        "State": "Perak"
    },
    {
        "Postcode": "31600",
        "Location": "Kampung Tersusun Batu 5 (Kota Bharu)",
        "Post_Office": "Gopeng",
        "State": "Perak"
    },
    {
        "Postcode": "31600",
        "Location": "Kampung Tersusun Jelintoh",
        "Post_Office": "Gopeng",
        "State": "Perak"
    },
    {
        "Postcode": "31600",
        "Location": "Kampung Tersusun Kampung Pulai",
        "Post_Office": "Gopeng",
        "State": "Perak"
    },
    {
        "Postcode": "31600",
        "Location": "Kampung Tersusun Kopisan Baru",
        "Post_Office": "Gopeng",
        "State": "Perak"
    },
    {
        "Postcode": "31600",
        "Location": "Kampung Tersusun Kopisan Tambahan 2",
        "Post_Office": "Gopeng",
        "State": "Perak"
    },
    {
        "Postcode": "31600",
        "Location": "Kampung Tersusun Kota Bharu",
        "Post_Office": "Gopeng",
        "State": "Perak"
    },
    {
        "Postcode": "31600",
        "Location": "Kampung Tersusun Lawan Kuda",
        "Post_Office": "Gopeng",
        "State": "Perak"
    },
    {
        "Postcode": "31600",
        "Location": "Kampung Tersusun Rawa Baru",
        "Post_Office": "Gopeng",
        "State": "Perak"
    },
    {
        "Postcode": "31600",
        "Location": "Kolej Matrikulasi Gopeng",
        "Post_Office": "Gopeng",
        "State": "Perak"
    },
    {
        "Postcode": "31600",
        "Location": "Kopisan Baru",
        "Post_Office": "Gopeng",
        "State": "Perak"
    },
    {
        "Postcode": "31600",
        "Location": "Kota Baharu",
        "Post_Office": "Gopeng",
        "State": "Perak"
    },
    {
        "Postcode": "31600",
        "Location": "Kota Bahru",
        "Post_Office": "Gopeng",
        "State": "Perak"
    },
    {
        "Postcode": "31600",
        "Location": "Lawan Kuda",
        "Post_Office": "Gopeng",
        "State": "Perak"
    },
    {
        "Postcode": "31600",
        "Location": "Lawan Kuda Baru",
        "Post_Office": "Gopeng",
        "State": "Perak"
    },
    {
        "Postcode": "31600",
        "Location": "Rumah Murah 1",
        "Post_Office": "Gopeng",
        "State": "Perak"
    },
    {
        "Postcode": "31600",
        "Location": "Rumah Murah 2",
        "Post_Office": "Gopeng",
        "State": "Perak"
    },
    {
        "Postcode": "31600",
        "Location": "Rumah Murah 3 Kampung Lawan Kuda",
        "Post_Office": "Gopeng",
        "State": "Perak"
    },
    {
        "Postcode": "31600",
        "Location": "Sekolah Berasrama Penuh Intergrasi",
        "Post_Office": "Gopeng",
        "State": "Perak"
    },
    {
        "Postcode": "31600",
        "Location": "Sungai Itek",
        "Post_Office": "Gopeng",
        "State": "Perak"
    },
    {
        "Postcode": "31600",
        "Location": "Taman Changkat Golf",
        "Post_Office": "Gopeng",
        "State": "Perak"
    },
    {
        "Postcode": "31600",
        "Location": "Taman Gopeng Baru",
        "Post_Office": "Gopeng",
        "State": "Perak"
    },
    {
        "Postcode": "31600",
        "Location": "Taman Gopeng Jaya",
        "Post_Office": "Gopeng",
        "State": "Perak"
    },
    {
        "Postcode": "31600",
        "Location": "Taman Gopeng Setia",
        "Post_Office": "Gopeng",
        "State": "Perak"
    },
    {
        "Postcode": "31600",
        "Location": "Taman Kinta 2",
        "Post_Office": "Gopeng",
        "State": "Perak"
    },
    {
        "Postcode": "31600",
        "Location": "Taman Kinta Baru",
        "Post_Office": "Gopeng",
        "State": "Perak"
    },
    {
        "Postcode": "31600",
        "Location": "Taman Lawan Kuda",
        "Post_Office": "Gopeng",
        "State": "Perak"
    }
]
