[
    {
        "Postcode": "31610",
        "Location": "Kampung Kota",
        "Post_Office": "Gopeng",
        "State": "Perak"
    },
    {
        "Postcode": "31610",
        "Location": "Kampung Lalang",
        "Post_Office": "Gopeng",
        "State": "Perak"
    },
    {
        "Postcode": "31610",
        "Location": "Changkat Legong",
        "Post_Office": "Gopeng",
        "State": "Perak"
    },
    {
        "Postcode": "31610",
        "Location": "Jalan Datok Setia",
        "Post_Office": "Gopeng",
        "State": "Perak"
    },
    {
        "Postcode": "31610",
        "Location": "Jalan Gopeng",
        "Post_Office": "Gopeng",
        "State": "Perak"
    },
    {
        "Postcode": "31610",
        "Location": "Jalan Panggong",
        "Post_Office": "Gopeng",
        "State": "Perak"
    },
    {
        "Postcode": "31610",
        "Location": "Kampung Changkat Legong",
        "Post_Office": "Gopeng",
        "State": "Perak"
    },
    {
        "Postcode": "31610",
        "Location": "Kampung Changkat Tualang",
        "Post_Office": "Gopeng",
        "State": "Perak"
    },
    {
        "Postcode": "31610",
        "Location": "Kampung Kota Baharu",
        "Post_Office": "Gopeng",
        "State": "Perak"
    },
    {
        "Postcode": "31610",
        "Location": "Kampung Redang Sawa",
        "Post_Office": "Gopeng",
        "State": "Perak"
    },
    {
        "Postcode": "31610",
        "Location": "Plkn Kem Gemilang",
        "Post_Office": "Gopeng",
        "State": "Perak"
    }
]
