[
    {
        "Postcode": "31650",
        "Location": "Medan Stesen 19/4",
        "Post_Office": "Ipoh",
        "State": "Perak"
    },
    {
        "Postcode": "31650",
        "Location": "Medan Stesen 19/5",
        "Post_Office": "Ipoh",
        "State": "Perak"
    },
    {
        "Postcode": "31650",
        "Location": "Medan Stesen 19/6",
        "Post_Office": "Ipoh",
        "State": "Perak"
    },
    {
        "Postcode": "31650",
        "Location": "Medan Stesen 19/7",
        "Post_Office": "Ipoh",
        "State": "Perak"
    },
    {
        "Postcode": "31650",
        "Location": "Medan Stesen 19/8",
        "Post_Office": "Ipoh",
        "State": "Perak"
    },
    {
        "Postcode": "31650",
        "Location": "Medan Stesen 19/9",
        "Post_Office": "Ipoh",
        "State": "Perak"
    },
    {
        "Postcode": "31650",
        "Location": "Taman Pasir Delima 1",
        "Post_Office": "Ipoh",
        "State": "Perak"
    },
    {
        "Postcode": "31650",
        "Location": "Taman Pasir Delima 2",
        "Post_Office": "Ipoh",
        "State": "Perak"
    },
    {
        "Postcode": "31650",
        "Location": "Taman Pasir Delima 3",
        "Post_Office": "Ipoh",
        "State": "Perak"
    },
    {
        "Postcode": "31650",
        "Location": "Jalan Sekolah",
        "Post_Office": "Ipoh",
        "State": "Perak"
    },
    {
        "Postcode": "31650",
        "Location": "Jalan Tokong",
        "Post_Office": "Ipoh",
        "State": "Perak"
    },
    {
        "Postcode": "31650",
        "Location": "Jalan Baru",
        "Post_Office": "Ipoh",
        "State": "Perak"
    },
    {
        "Postcode": "31650",
        "Location": "Jalan Bunga Raya",
        "Post_Office": "Ipoh",
        "State": "Perak"
    },
    {
        "Postcode": "31650",
        "Location": "Taman Bunga Raya",
        "Post_Office": "Ipoh",
        "State": "Perak"
    },
    {
        "Postcode": "31650",
        "Location": "Taman Megah",
        "Post_Office": "Ipoh",
        "State": "Perak"
    },
    {
        "Postcode": "31650",
        "Location": "Taman Melor",
        "Post_Office": "Ipoh",
        "State": "Perak"
    },
    {
        "Postcode": "31650",
        "Location": "Taman Taiping",
        "Post_Office": "Ipoh",
        "State": "Perak"
    },
    {
        "Postcode": "31650",
        "Location": "Taman Sri Sayang",
        "Post_Office": "Ipoh",
        "State": "Perak"
    },
    {
        "Postcode": "31650",
        "Location": "Kampung Pasir Puteh",
        "Post_Office": "Ipoh",
        "State": "Perak"
    },
    {
        "Postcode": "31650",
        "Location": "Taman Hoover",
        "Post_Office": "Ipoh",
        "State": "Perak"
    },
    {
        "Postcode": "31650",
        "Location": "Taman Pinji",
        "Post_Office": "Ipoh",
        "State": "Perak"
    },
    {
        "Postcode": "31650",
        "Location": "Taman Rasa Sayang",
        "Post_Office": "Ipoh",
        "State": "Perak"
    },
    {
        "Postcode": "31650",
        "Location": "Taman Rose",
        "Post_Office": "Ipoh",
        "State": "Perak"
    },
    {
        "Postcode": "31650",
        "Location": "Panorama Lapangan Perdana",
        "Post_Office": "Ipoh",
        "State": "Perak"
    },
    {
        "Postcode": "31650",
        "Location": "Kampung Kuchai",
        "Post_Office": "Ipoh",
        "State": "Perak"
    },
    {
        "Postcode": "31650",
        "Location": "Kampung Paya",
        "Post_Office": "Ipoh",
        "State": "Perak"
    },
    {
        "Postcode": "31650",
        "Location": "Kampung Tebing Tinggi",
        "Post_Office": "Ipoh",
        "State": "Perak"
    },
    {
        "Postcode": "31650",
        "Location": "Taman Happy",
        "Post_Office": "Ipoh",
        "State": "Perak"
    },
    {
        "Postcode": "31650",
        "Location": "Taman Intan",
        "Post_Office": "Ipoh",
        "State": "Perak"
    },
    {
        "Postcode": "31650",
        "Location": "Taman Sentosa",
        "Post_Office": "Ipoh",
        "State": "Perak"
    },
    {
        "Postcode": "31650",
        "Location": "Tebing Tinggi",
        "Post_Office": "Ipoh",
        "State": "Perak"
    },
    {
        "Postcode": "31650",
        "Location": "Dataran Pengkalan Barat",
        "Post_Office": "Ipoh",
        "State": "Perak"
    },
    {
        "Postcode": "31650",
        "Location": "Hala Bendahara",
        "Post_Office": "Ipoh",
        "State": "Perak"
    },
    {
        "Postcode": "31650",
        "Location": "Hala Pinji 1",
        "Post_Office": "Ipoh",
        "State": "Perak"
    },
    {
        "Postcode": "31650",
        "Location": "Jalan Bendahara",
        "Post_Office": "Ipoh",
        "State": "Perak"
    },
    {
        "Postcode": "31650",
        "Location": "Jalan Berangan",
        "Post_Office": "Ipoh",
        "State": "Perak"
    },
    {
        "Postcode": "31650",
        "Location": "Jalan Che Putih",
        "Post_Office": "Ipoh",
        "State": "Perak"
    },
    {
        "Postcode": "31650",
        "Location": "Jalan Chew Sin Onn",
        "Post_Office": "Ipoh",
        "State": "Perak"
    },
    {
        "Postcode": "31650",
        "Location": "Jalan Chong Ah Meng",
        "Post_Office": "Ipoh",
        "State": "Perak"
    },
    {
        "Postcode": "31650",
        "Location": "Jalan Chung Ah Ming",
        "Post_Office": "Ipoh",
        "State": "Perak"
    },
    {
        "Postcode": "31650",
        "Location": "Jalan Dato Mahmud",
        "Post_Office": "Ipoh",
        "State": "Perak"
    },
    {
        "Postcode": "31650",
        "Location": "Jalan Dr Seenivagam",
        "Post_Office": "Ipoh",
        "State": "Perak"
    },
    {
        "Postcode": "31650",
        "Location": "Jalan Foo Aun Choon",
        "Post_Office": "Ipoh",
        "State": "Perak"
    },
    {
        "Postcode": "31650",
        "Location": "Jalan Foo Eng Lin",
        "Post_Office": "Ipoh",
        "State": "Perak"
    },
    {
        "Postcode": "31650",
        "Location": "Jalan Ho Lork Park",
        "Post_Office": "Ipoh",
        "State": "Perak"
    },
    {
        "Postcode": "31650",
        "Location": "Jalan Hoover",
        "Post_Office": "Ipoh",
        "State": "Perak"
    },
    {
        "Postcode": "31650",
        "Location": "Jalan Keng Wah",
        "Post_Office": "Ipoh",
        "State": "Perak"
    },
    {
        "Postcode": "31650",
        "Location": "Jalan King",
        "Post_Office": "Ipoh",
        "State": "Perak"
    },
    {
        "Postcode": "31650",
        "Location": "Jalan Kuan Woh Yuen",
        "Post_Office": "Ipoh",
        "State": "Perak"
    },
    {
        "Postcode": "31650",
        "Location": "Jalan Kukup Limbang",
        "Post_Office": "Ipoh",
        "State": "Perak"
    },
    {
        "Postcode": "31650",
        "Location": "Jalan Lee Swee Hoe",
        "Post_Office": "Ipoh",
        "State": "Perak"
    },
    {
        "Postcode": "31650",
        "Location": "Jalan Leong Tian",
        "Post_Office": "Ipoh",
        "State": "Perak"
    },
    {
        "Postcode": "31650",
        "Location": "Jalan Lim Tee Ee",
        "Post_Office": "Ipoh",
        "State": "Perak"
    },
    {
        "Postcode": "31650",
        "Location": "Jalan Low Foo",
        "Post_Office": "Ipoh",
        "State": "Perak"
    },
    {
        "Postcode": "31650",
        "Location": "Jalan Margosa",
        "Post_Office": "Ipoh",
        "State": "Perak"
    },
    {
        "Postcode": "31650",
        "Location": "Jalan Merlin",
        "Post_Office": "Ipoh",
        "State": "Perak"
    },
    {
        "Postcode": "31650",
        "Location": "Jalan New Pasir Puteh",
        "Post_Office": "Ipoh",
        "State": "Perak"
    },
    {
        "Postcode": "31650",
        "Location": "Jalan Ong Chin Seong",
        "Post_Office": "Ipoh",
        "State": "Perak"
    },
    {
        "Postcode": "31650",
        "Location": "Jalan Pasir Merah",
        "Post_Office": "Ipoh",
        "State": "Perak"
    },
    {
        "Postcode": "31650",
        "Location": "Jalan Pasir Pinji",
        "Post_Office": "Ipoh",
        "State": "Perak"
    },
    {
        "Postcode": "31650",
        "Location": "Jalan Pasir Puteh",
        "Post_Office": "Ipoh",
        "State": "Perak"
    },
    {
        "Postcode": "31650",
        "Location": "Jalan Pee Kee Koh",
        "Post_Office": "Ipoh",
        "State": "Perak"
    },
    {
        "Postcode": "31650",
        "Location": "Jalan Pegoh",
        "Post_Office": "Ipoh",
        "State": "Perak"
    },
    {
        "Postcode": "31650",
        "Location": "Jalan Pegoh 1",
        "Post_Office": "Ipoh",
        "State": "Perak"
    },
    {
        "Postcode": "31650",
        "Location": "Jalan President Kennedy",
        "Post_Office": "Ipoh",
        "State": "Perak"
    },
    {
        "Postcode": "31650",
        "Location": "Jalan Prince",
        "Post_Office": "Ipoh",
        "State": "Perak"
    },
    {
        "Postcode": "31650",
        "Location": "Jalan Queen",
        "Post_Office": "Ipoh",
        "State": "Perak"
    },
    {
        "Postcode": "31650",
        "Location": "Jalan Raja Di Hilir",
        "Post_Office": "Ipoh",
        "State": "Perak"
    },
    {
        "Postcode": "31650",
        "Location": "Jalan Raja Muda",
        "Post_Office": "Ipoh",
        "State": "Perak"
    },
    {
        "Postcode": "31650",
        "Location": "Jalan Shah Bandar",
        "Post_Office": "Ipoh",
        "State": "Perak"
    },
    {
        "Postcode": "31650",
        "Location": "Jalan Sri Adika",
        "Post_Office": "Ipoh",
        "State": "Perak"
    },
    {
        "Postcode": "31650",
        "Location": "Jalan Sultan",
        "Post_Office": "Ipoh",
        "State": "Perak"
    },
    {
        "Postcode": "31650",
        "Location": "Jalan Sultan Azlan Shah 106",
        "Post_Office": "Ipoh",
        "State": "Perak"
    },
    {
        "Postcode": "31650",
        "Location": "Jalan Syed Abu Hassan",
        "Post_Office": "Ipoh",
        "State": "Perak"
    },
    {
        "Postcode": "31650",
        "Location": "Jalan Tai Wai Tong",
        "Post_Office": "Ipoh",
        "State": "Perak"
    },
    {
        "Postcode": "31650",
        "Location": "Jalan Temenggong",
        "Post_Office": "Ipoh",
        "State": "Perak"
    },
    {
        "Postcode": "31650",
        "Location": "Jalan Walker",
        "Post_Office": "Ipoh",
        "State": "Perak"
    },
    {
        "Postcode": "31650",
        "Location": "Jalan Wong Chin Tong",
        "Post_Office": "Ipoh",
        "State": "Perak"
    },
    {
        "Postcode": "31650",
        "Location": "Kampung Baru Tebing Tinggi",
        "Post_Office": "Ipoh",
        "State": "Perak"
    },
    {
        "Postcode": "31650",
        "Location": "Kampung Cempaka Sari",
        "Post_Office": "Ipoh",
        "State": "Perak"
    },
    {
        "Postcode": "31650",
        "Location": "Kampung Chempaka Seri Kinta",
        "Post_Office": "Ipoh",
        "State": "Perak"
    },
    {
        "Postcode": "31650",
        "Location": "Kampung Chendawan",
        "Post_Office": "Ipoh",
        "State": "Perak"
    },
    {
        "Postcode": "31650",
        "Location": "Kampung Paloh (Jd)",
        "Post_Office": "Ipoh",
        "State": "Perak"
    },
    {
        "Postcode": "31650",
        "Location": "Kampung Pasir Puteh Baru",
        "Post_Office": "Ipoh",
        "State": "Perak"
    },
    {
        "Postcode": "31650",
        "Location": "Kampung Pasir Puteh Tambahan",
        "Post_Office": "Ipoh",
        "State": "Perak"
    },
    {
        "Postcode": "31650",
        "Location": "Kampung Pinjeh",
        "Post_Office": "Ipoh",
        "State": "Perak"
    },
    {
        "Postcode": "31650",
        "Location": "Kampung Seri Kinta",
        "Post_Office": "Ipoh",
        "State": "Perak"
    },
    {
        "Postcode": "31650",
        "Location": "Kampung Seri Kramat",
        "Post_Office": "Ipoh",
        "State": "Perak"
    },
    {
        "Postcode": "31650",
        "Location": "Kampung Seri Murni",
        "Post_Office": "Ipoh",
        "State": "Perak"
    },
    {
        "Postcode": "31650",
        "Location": "Kampung Temiang",
        "Post_Office": "Ipoh",
        "State": "Perak"
    },
    {
        "Postcode": "31650",
        "Location": "Kampung Tok Cendang",
        "Post_Office": "Ipoh",
        "State": "Perak"
    },
    {
        "Postcode": "31650",
        "Location": "Kampung Tok Chendang",
        "Post_Office": "Ipoh",
        "State": "Perak"
    },
    {
        "Postcode": "31650",
        "Location": "Kuan Woh Yuen",
        "Post_Office": "Ipoh",
        "State": "Perak"
    },
    {
        "Postcode": "31650",
        "Location": "Lebuhraya Boon Bak",
        "Post_Office": "Ipoh",
        "State": "Perak"
    },
    {
        "Postcode": "31650",
        "Location": "Lebuhraya Evergreen",
        "Post_Office": "Ipoh",
        "State": "Perak"
    },
    {
        "Postcode": "31650",
        "Location": "Lebuhraya Pasir Puteh",
        "Post_Office": "Ipoh",
        "State": "Perak"
    },
    {
        "Postcode": "31650",
        "Location": "Lebuhraya Satu",
        "Post_Office": "Ipoh",
        "State": "Perak"
    },
    {
        "Postcode": "31650",
        "Location": "Lebuhraya Tebing Tinggi",
        "Post_Office": "Ipoh",
        "State": "Perak"
    },
    {
        "Postcode": "31650",
        "Location": "Lengkok Bendahara",
        "Post_Office": "Ipoh",
        "State": "Perak"
    },
    {
        "Postcode": "31650",
        "Location": "Lintasan Bendahara",
        "Post_Office": "Ipoh",
        "State": "Perak"
    },
    {
        "Postcode": "31650",
        "Location": "Lorong Chong Ah Meng",
        "Post_Office": "Ipoh",
        "State": "Perak"
    },
    {
        "Postcode": "31650",
        "Location": "Medan Pasir Indah",
        "Post_Office": "Ipoh",
        "State": "Perak"
    },
    {
        "Postcode": "31650",
        "Location": "Medan Pasir Ria",
        "Post_Office": "Ipoh",
        "State": "Perak"
    },
    {
        "Postcode": "31650",
        "Location": "Medan Pasir Saujana",
        "Post_Office": "Ipoh",
        "State": "Perak"
    },
    {
        "Postcode": "31650",
        "Location": "Medan Pasir Suria",
        "Post_Office": "Ipoh",
        "State": "Perak"
    },
    {
        "Postcode": "31650",
        "Location": "Medan Pengkalan Saujana",
        "Post_Office": "Ipoh",
        "State": "Perak"
    },
    {
        "Postcode": "31650",
        "Location": "New Pasir Puteh",
        "Post_Office": "Ipoh",
        "State": "Perak"
    },
    {
        "Postcode": "31650",
        "Location": "Pasir Pinji",
        "Post_Office": "Ipoh",
        "State": "Perak"
    },
    {
        "Postcode": "31650",
        "Location": "Pasir Puteh",
        "Post_Office": "Ipoh",
        "State": "Perak"
    },
    {
        "Postcode": "31650",
        "Location": "Persara Bendahara",
        "Post_Office": "Ipoh",
        "State": "Perak"
    },
    {
        "Postcode": "31650",
        "Location": "Persiaran Bendahara",
        "Post_Office": "Ipoh",
        "State": "Perak"
    },
    {
        "Postcode": "31650",
        "Location": "Persiaran Tebing Tinggi",
        "Post_Office": "Ipoh",
        "State": "Perak"
    },
    {
        "Postcode": "31650",
        "Location": "Persiaran Tokong",
        "Post_Office": "Ipoh",
        "State": "Perak"
    },
    {
        "Postcode": "31650",
        "Location": "Pinggir Pengkalan Permai",
        "Post_Office": "Ipoh",
        "State": "Perak"
    },
    {
        "Postcode": "31650",
        "Location": "Regat Bendahara",
        "Post_Office": "Ipoh",
        "State": "Perak"
    },
    {
        "Postcode": "31650",
        "Location": "Regat Dato Mahmud",
        "Post_Office": "Ipoh",
        "State": "Perak"
    },
    {
        "Postcode": "31650",
        "Location": "Regat Dr Seenivagam",
        "Post_Office": "Ipoh",
        "State": "Perak"
    },
    {
        "Postcode": "31650",
        "Location": "Regat Margosa",
        "Post_Office": "Ipoh",
        "State": "Perak"
    },
    {
        "Postcode": "31650",
        "Location": "Selasar Bendahara",
        "Post_Office": "Ipoh",
        "State": "Perak"
    },
    {
        "Postcode": "31650",
        "Location": "Seri Kinta",
        "Post_Office": "Ipoh",
        "State": "Perak"
    },
    {
        "Postcode": "31650",
        "Location": "Solok Pasir Putih",
        "Post_Office": "Ipoh",
        "State": "Perak"
    },
    {
        "Postcode": "31650",
        "Location": "Sunlight Park",
        "Post_Office": "Ipoh",
        "State": "Perak"
    },
    {
        "Postcode": "31650",
        "Location": "Taman Berangan",
        "Post_Office": "Ipoh",
        "State": "Perak"
    },
    {
        "Postcode": "31650",
        "Location": "Taman Bersatu (Jalan Pasir Puteh)",
        "Post_Office": "Ipoh",
        "State": "Perak"
    },
    {
        "Postcode": "31650",
        "Location": "Taman Boon Bak",
        "Post_Office": "Ipoh",
        "State": "Perak"
    },
    {
        "Postcode": "31650",
        "Location": "Taman Camay",
        "Post_Office": "Ipoh",
        "State": "Perak"
    },
    {
        "Postcode": "31650",
        "Location": "Taman Chin Loy",
        "Post_Office": "Ipoh",
        "State": "Perak"
    },
    {
        "Postcode": "31650",
        "Location": "Taman Desa Pakatan",
        "Post_Office": "Ipoh",
        "State": "Perak"
    },
    {
        "Postcode": "31650",
        "Location": "Taman Evergreen",
        "Post_Office": "Ipoh",
        "State": "Perak"
    },
    {
        "Postcode": "31650",
        "Location": "Taman Gerbang Indah",
        "Post_Office": "Ipoh",
        "State": "Perak"
    },
    {
        "Postcode": "31650",
        "Location": "Taman Ho Lok",
        "Post_Office": "Ipoh",
        "State": "Perak"
    },
    {
        "Postcode": "31650",
        "Location": "Taman Hock Bee",
        "Post_Office": "Ipoh",
        "State": "Perak"
    },
    {
        "Postcode": "31650",
        "Location": "Taman Jade",
        "Post_Office": "Ipoh",
        "State": "Perak"
    },
    {
        "Postcode": "31650",
        "Location": "Taman Kar King",
        "Post_Office": "Ipoh",
        "State": "Perak"
    },
    {
        "Postcode": "31650",
        "Location": "Taman Lapangan Ria",
        "Post_Office": "Ipoh",
        "State": "Perak"
    },
    {
        "Postcode": "31650",
        "Location": "Taman Lapangan Sentosa",
        "Post_Office": "Ipoh",
        "State": "Perak"
    },
    {
        "Postcode": "31650",
        "Location": "Taman Lee",
        "Post_Office": "Ipoh",
        "State": "Perak"
    },
    {
        "Postcode": "31650",
        "Location": "Taman Mahajaya",
        "Post_Office": "Ipoh",
        "State": "Perak"
    },
    {
        "Postcode": "31650",
        "Location": "Taman Mandarin",
        "Post_Office": "Ipoh",
        "State": "Perak"
    },
    {
        "Postcode": "31650",
        "Location": "Taman Mayfair",
        "Post_Office": "Ipoh",
        "State": "Perak"
    },
    {
        "Postcode": "31650",
        "Location": "Taman Megah Pasir Putih",
        "Post_Office": "Ipoh",
        "State": "Perak"
    },
    {
        "Postcode": "31650",
        "Location": "Taman Meikin",
        "Post_Office": "Ipoh",
        "State": "Perak"
    },
    {
        "Postcode": "31650",
        "Location": "Taman Merlin",
        "Post_Office": "Ipoh",
        "State": "Perak"
    },
    {
        "Postcode": "31650",
        "Location": "Taman Merry",
        "Post_Office": "Ipoh",
        "State": "Perak"
    },
    {
        "Postcode": "31650",
        "Location": "Taman Onn",
        "Post_Office": "Ipoh",
        "State": "Perak"
    },
    {
        "Postcode": "31650",
        "Location": "Taman Pasir Puteh Selatan",
        "Post_Office": "Ipoh",
        "State": "Perak"
    },
    {
        "Postcode": "31650",
        "Location": "Taman Pengkalan Barat",
        "Post_Office": "Ipoh",
        "State": "Perak"
    },
    {
        "Postcode": "31650",
        "Location": "Taman Pengkalan Baru",
        "Post_Office": "Ipoh",
        "State": "Perak"
    },
    {
        "Postcode": "31650",
        "Location": "Taman Pengkalan Intan",
        "Post_Office": "Ipoh",
        "State": "Perak"
    },
    {
        "Postcode": "31650",
        "Location": "Taman Pengkalan Jaya",
        "Post_Office": "Ipoh",
        "State": "Perak"
    },
    {
        "Postcode": "31650",
        "Location": "Taman Pinji Indah",
        "Post_Office": "Ipoh",
        "State": "Perak"
    },
    {
        "Postcode": "31650",
        "Location": "Taman Puteri Lindungan Bintang",
        "Post_Office": "Ipoh",
        "State": "Perak"
    },
    {
        "Postcode": "31650",
        "Location": "Taman Puteri Lindungan Bulan",
        "Post_Office": "Ipoh",
        "State": "Perak"
    },
    {
        "Postcode": "31650",
        "Location": "Taman Seri Pengkalan",
        "Post_Office": "Ipoh",
        "State": "Perak"
    },
    {
        "Postcode": "31650",
        "Location": "Taman Shatin Baru",
        "Post_Office": "Ipoh",
        "State": "Perak"
    },
    {
        "Postcode": "31650",
        "Location": "Taman Shatin Satu",
        "Post_Office": "Ipoh",
        "State": "Perak"
    },
    {
        "Postcode": "31650",
        "Location": "Taman Sinfar",
        "Post_Office": "Ipoh",
        "State": "Perak"
    },
    {
        "Postcode": "31650",
        "Location": "Taman Sppk",
        "Post_Office": "Ipoh",
        "State": "Perak"
    },
    {
        "Postcode": "31650",
        "Location": "Taman Sri Perkasa",
        "Post_Office": "Ipoh",
        "State": "Perak"
    },
    {
        "Postcode": "31650",
        "Location": "Taman Tai Lee",
        "Post_Office": "Ipoh",
        "State": "Perak"
    },
    {
        "Postcode": "31650",
        "Location": "Taman Temara",
        "Post_Office": "Ipoh",
        "State": "Perak"
    },
    {
        "Postcode": "31650",
        "Location": "Taman Temiang Impian",
        "Post_Office": "Ipoh",
        "State": "Perak"
    },
    {
        "Postcode": "31650",
        "Location": "Taman Watchoo",
        "Post_Office": "Ipoh",
        "State": "Perak"
    },
    {
        "Postcode": "31650",
        "Location": "Taman Yik Sang",
        "Post_Office": "Ipoh",
        "State": "Perak"
    },
    {
        "Postcode": "31650",
        "Location": "Temiang Baru",
        "Post_Office": "Ipoh",
        "State": "Perak"
    },
    {
        "Postcode": "31650",
        "Location": "Temiang Lama",
        "Post_Office": "Ipoh",
        "State": "Perak"
    },
    {
        "Postcode": "31650",
        "Location": "Tingkat Bendahara",
        "Post_Office": "Ipoh",
        "State": "Perak"
    }
]
