[
    {
        "Postcode": "31700",
        "Location": "Kampung Jelutong",
        "Post_Office": "Malim Nawar",
        "State": "Perak"
    },
    {
        "Postcode": "31700",
        "Location": "Perumahan Awam 2",
        "Post_Office": "Malim Nawar",
        "State": "Perak"
    },
    {
        "Postcode": "31700",
        "Location": "Indian Settlement",
        "Post_Office": "Malim Nawar",
        "State": "Perak"
    },
    {
        "Postcode": "31700",
        "Location": "Jalan Besar",
        "Post_Office": "Malim Nawar",
        "State": "Perak"
    },
    {
        "Postcode": "31700",
        "Location": "Jalan Pasar",
        "Post_Office": "Malim Nawar",
        "State": "Perak"
    },
    {
        "Postcode": "31700",
        "Location": "Kampung Baru",
        "Post_Office": "Malim Nawar",
        "State": "Perak"
    },
    {
        "Postcode": "31700",
        "Location": "Kampung Baru Cina",
        "Post_Office": "Malim Nawar",
        "State": "Perak"
    },
    {
        "Postcode": "31700",
        "Location": "Kampung Batu Satu",
        "Post_Office": "Malim Nawar",
        "State": "Perak"
    },
    {
        "Postcode": "31700",
        "Location": "Kampung Changkat Baru",
        "Post_Office": "Malim Nawar",
        "State": "Perak"
    },
    {
        "Postcode": "31700",
        "Location": "Kampung Kota",
        "Post_Office": "Malim Nawar",
        "State": "Perak"
    },
    {
        "Postcode": "31700",
        "Location": "Kampung Muhibbah",
        "Post_Office": "Malim Nawar",
        "State": "Perak"
    },
    {
        "Postcode": "31700",
        "Location": "Kampung Pasir",
        "Post_Office": "Malim Nawar",
        "State": "Perak"
    },
    {
        "Postcode": "31700",
        "Location": "Kampung Pulau Gading",
        "Post_Office": "Malim Nawar",
        "State": "Perak"
    },
    {
        "Postcode": "31700",
        "Location": "Kampung Pulau Pisang",
        "Post_Office": "Malim Nawar",
        "State": "Perak"
    },
    {
        "Postcode": "31700",
        "Location": "Kampung Sekolah",
        "Post_Office": "Malim Nawar",
        "State": "Perak"
    },
    {
        "Postcode": "31700",
        "Location": "Kampung Tebing Tinggi",
        "Post_Office": "Malim Nawar",
        "State": "Perak"
    },
    {
        "Postcode": "31700",
        "Location": "Kampung Tersusun",
        "Post_Office": "Malim Nawar",
        "State": "Perak"
    },
    {
        "Postcode": "31700",
        "Location": "Pekan Baru",
        "Post_Office": "Malim Nawar",
        "State": "Perak"
    },
    {
        "Postcode": "31700",
        "Location": "Pekan Lama",
        "Post_Office": "Malim Nawar",
        "State": "Perak"
    },
    {
        "Postcode": "31700",
        "Location": "Changkat Bendera",
        "Post_Office": "Malim Nawar",
        "State": "Perak"
    },
    {
        "Postcode": "31700",
        "Location": "Changkat Berdulang",
        "Post_Office": "Malim Nawar",
        "State": "Perak"
    },
    {
        "Postcode": "31700",
        "Location": "Indian Camp",
        "Post_Office": "Malim Nawar",
        "State": "Perak"
    },
    {
        "Postcode": "31700",
        "Location": "Institut Latihan Sultan Ahmad Shah Tnb",
        "Post_Office": "Malim Nawar",
        "State": "Perak"
    },
    {
        "Postcode": "31700",
        "Location": "Jalan Stesen",
        "Post_Office": "Malim Nawar",
        "State": "Perak"
    },
    {
        "Postcode": "31700",
        "Location": "Jalan Tnb",
        "Post_Office": "Malim Nawar",
        "State": "Perak"
    },
    {
        "Postcode": "31700",
        "Location": "Jelutong",
        "Post_Office": "Malim Nawar",
        "State": "Perak"
    },
    {
        "Postcode": "31700",
        "Location": "Kampung Amang Chee Seng",
        "Post_Office": "Malim Nawar",
        "State": "Perak"
    },
    {
        "Postcode": "31700",
        "Location": "Kampung Baru Cina Tambahan",
        "Post_Office": "Malim Nawar",
        "State": "Perak"
    },
    {
        "Postcode": "31700",
        "Location": "Kampung Bata",
        "Post_Office": "Malim Nawar",
        "State": "Perak"
    },
    {
        "Postcode": "31700",
        "Location": "Kampung Belakang Stesen",
        "Post_Office": "Malim Nawar",
        "State": "Perak"
    },
    {
        "Postcode": "31700",
        "Location": "Kampung Bunga Tanjung",
        "Post_Office": "Malim Nawar",
        "State": "Perak"
    },
    {
        "Postcode": "31700",
        "Location": "Kampung Bunga Tanjung Baru",
        "Post_Office": "Malim Nawar",
        "State": "Perak"
    },
    {
        "Postcode": "31700",
        "Location": "Kampung Changkat Bendera",
        "Post_Office": "Malim Nawar",
        "State": "Perak"
    },
    {
        "Postcode": "31700",
        "Location": "Kampung Changkat Berdulang",
        "Post_Office": "Malim Nawar",
        "State": "Perak"
    },
    {
        "Postcode": "31700",
        "Location": "Kampung Jeneris",
        "Post_Office": "Malim Nawar",
        "State": "Perak"
    },
    {
        "Postcode": "31700",
        "Location": "Kampung Jernih",
        "Post_Office": "Malim Nawar",
        "State": "Perak"
    },
    {
        "Postcode": "31700",
        "Location": "Kampung Kuala Kampar Tin",
        "Post_Office": "Malim Nawar",
        "State": "Perak"
    },
    {
        "Postcode": "31700",
        "Location": "Kampung Lanjut",
        "Post_Office": "Malim Nawar",
        "State": "Perak"
    },
    {
        "Postcode": "31700",
        "Location": "Kampung Malim Nawar",
        "Post_Office": "Malim Nawar",
        "State": "Perak"
    },
    {
        "Postcode": "31700",
        "Location": "Kampung Malim Nawar Baru",
        "Post_Office": "Malim Nawar",
        "State": "Perak"
    },
    {
        "Postcode": "31700",
        "Location": "Kampung Pasir Bergading",
        "Post_Office": "Malim Nawar",
        "State": "Perak"
    },
    {
        "Postcode": "31700",
        "Location": "Kampung Paya Pasung Tersusun",
        "Post_Office": "Malim Nawar",
        "State": "Perak"
    },
    {
        "Postcode": "31700",
        "Location": "Kampung Pelekat",
        "Post_Office": "Malim Nawar",
        "State": "Perak"
    },
    {
        "Postcode": "31700",
        "Location": "Kampung Tanjong Bangkong",
        "Post_Office": "Malim Nawar",
        "State": "Perak"
    },
    {
        "Postcode": "31700",
        "Location": "Kampung Tualang Sekah",
        "Post_Office": "Malim Nawar",
        "State": "Perak"
    },
    {
        "Postcode": "31700",
        "Location": "Kampung Tualang Sekah Hilir",
        "Post_Office": "Malim Nawar",
        "State": "Perak"
    },
    {
        "Postcode": "31700",
        "Location": "Kampung Tualang Sekah Hulu",
        "Post_Office": "Malim Nawar",
        "State": "Perak"
    },
    {
        "Postcode": "31700",
        "Location": "Kampung Tualang Sekah Tengah",
        "Post_Office": "Malim Nawar",
        "State": "Perak"
    },
    {
        "Postcode": "31700",
        "Location": "Ladang Nam Fatt",
        "Post_Office": "Malim Nawar",
        "State": "Perak"
    },
    {
        "Postcode": "31700",
        "Location": "Maahad Tahfiz Tualang Sekah",
        "Post_Office": "Malim Nawar",
        "State": "Perak"
    },
    {
        "Postcode": "31700",
        "Location": "Malim Nawar",
        "Post_Office": "Malim Nawar",
        "State": "Perak"
    },
    {
        "Postcode": "31700",
        "Location": "Malim Nawar Tin",
        "Post_Office": "Malim Nawar",
        "State": "Perak"
    },
    {
        "Postcode": "31700",
        "Location": "Pasar Malim Nawar",
        "Post_Office": "Malim Nawar",
        "State": "Perak"
    },
    {
        "Postcode": "31700",
        "Location": "Pprt Tualang Sekah",
        "Post_Office": "Malim Nawar",
        "State": "Perak"
    },
    {
        "Postcode": "31700",
        "Location": "Rembariang",
        "Post_Office": "Malim Nawar",
        "State": "Perak"
    },
    {
        "Postcode": "31700",
        "Location": "Sekolah Jenis Kebangsaan Cina Ying Sing",
        "Post_Office": "Malim Nawar",
        "State": "Perak"
    },
    {
        "Postcode": "31700",
        "Location": "Sekolah Jenis Kebangsaan Methodist Tamil",
        "Post_Office": "Malim Nawar",
        "State": "Perak"
    },
    {
        "Postcode": "31700",
        "Location": "Sekolah Kebangsaan Malim Nawar",
        "Post_Office": "Malim Nawar",
        "State": "Perak"
    },
    {
        "Postcode": "31700",
        "Location": "Sekolah Kebangsaan Tualang Sekah",
        "Post_Office": "Malim Nawar",
        "State": "Perak"
    },
    {
        "Postcode": "31700",
        "Location": "Sekolah Menengah Malim Nawar",
        "Post_Office": "Malim Nawar",
        "State": "Perak"
    },
    {
        "Postcode": "31700",
        "Location": "Taman Bina Jaya",
        "Post_Office": "Malim Nawar",
        "State": "Perak"
    },
    {
        "Postcode": "31700",
        "Location": "Taman Malim Nawar",
        "Post_Office": "Malim Nawar",
        "State": "Perak"
    },
    {
        "Postcode": "31700",
        "Location": "Taman Sri Malim",
        "Post_Office": "Malim Nawar",
        "State": "Perak"
    },
    {
        "Postcode": "31700",
        "Location": "Tanjung Bangkung Tersusun",
        "Post_Office": "Malim Nawar",
        "State": "Perak"
    },
    {
        "Postcode": "31700",
        "Location": "Tnb",
        "Post_Office": "Malim Nawar",
        "State": "Perak"
    },
    {
        "Postcode": "31700",
        "Location": "Tualang Sekah",
        "Post_Office": "Malim Nawar",
        "State": "Perak"
    }
]
