[
    {
        "Postcode": "31750",
        "Location": "Kampung Kurnia",
        "Post_Office": "Tronoh",
        "State": "Perak"
    },
    {
        "Postcode": "31750",
        "Location": "Kampung Merbau",
        "Post_Office": "Tronoh",
        "State": "Perak"
    },
    {
        "Postcode": "31750",
        "Location": "Kampung Tersusun",
        "Post_Office": "Tronoh",
        "State": "Perak"
    },
    {
        "Postcode": "31750",
        "Location": "Taman Jaya",
        "Post_Office": "Tronoh",
        "State": "Perak"
    },
    {
        "Postcode": "31750",
        "Location": "Bali",
        "Post_Office": "Tronoh",
        "State": "Perak"
    },
    {
        "Postcode": "31750",
        "Location": "Bali Emas",
        "Post_Office": "Tronoh",
        "State": "Perak"
    },
    {
        "Postcode": "31750",
        "Location": "Kampung Baru Bali",
        "Post_Office": "Tronoh",
        "State": "Perak"
    },
    {
        "Postcode": "31750",
        "Location": "Kampung Baru Nalla",
        "Post_Office": "Tronoh",
        "State": "Perak"
    },
    {
        "Postcode": "31750",
        "Location": "Kampung Kalapa",
        "Post_Office": "Tronoh",
        "State": "Perak"
    },
    {
        "Postcode": "31750",
        "Location": "Kampung Melayu Bali",
        "Post_Office": "Tronoh",
        "State": "Perak"
    },
    {
        "Postcode": "31750",
        "Location": "Kampung Serkai Jadi",
        "Post_Office": "Tronoh",
        "State": "Perak"
    },
    {
        "Postcode": "31750",
        "Location": "Taman Desa Tronoh",
        "Post_Office": "Tronoh",
        "State": "Perak"
    },
    {
        "Postcode": "31750",
        "Location": "Taman Putra Jaya",
        "Post_Office": "Tronoh",
        "State": "Perak"
    },
    {
        "Postcode": "31750",
        "Location": "Taman Tronoh Hijau",
        "Post_Office": "Tronoh",
        "State": "Perak"
    },
    {
        "Postcode": "31750",
        "Location": "Taman Tronoh Jaya",
        "Post_Office": "Tronoh",
        "State": "Perak"
    },
    {
        "Postcode": "31750",
        "Location": "Taman Tronoh Timah",
        "Post_Office": "Tronoh",
        "State": "Perak"
    },
    {
        "Postcode": "31750",
        "Location": "Taman Yuen Lam",
        "Post_Office": "Tronoh",
        "State": "Perak"
    },
    {
        "Postcode": "31750",
        "Location": "Tronoh Mines",
        "Post_Office": "Tronoh",
        "State": "Perak"
    }
]
