[
    {
        "Postcode": "31800",
        "Location": "Kampung Tersusun Air Kuning",
        "Post_Office": "Tanjong Tualang\r\n",
        "State": "Perak"
    },
    {
        "Postcode": "31800",
        "Location": "Felcra Sungai Durian",
        "Post_Office": "Tanjong Tualang",
        "State": "Perak"
    },
    {
        "Postcode": "31800",
        "Location": "Kampung Batu 26",
        "Post_Office": "Tanjong Tualang",
        "State": "Perak"
    },
    {
        "Postcode": "31800",
        "Location": "Kampung Benggali",
        "Post_Office": "Tanjong Tualang",
        "State": "Perak"
    },
    {
        "Postcode": "31800",
        "Location": "Kampung Maamor",
        "Post_Office": "Tanjong Tualang",
        "State": "Perak"
    },
    {
        "Postcode": "31800",
        "Location": "Kampung Muhibbah",
        "Post_Office": "Tanjong Tualang",
        "State": "Perak"
    },
    {
        "Postcode": "31800",
        "Location": "Kampung Pasir",
        "Post_Office": "Tanjong Tualang",
        "State": "Perak"
    },
    {
        "Postcode": "31800",
        "Location": "Kampung Sentosa",
        "Post_Office": "Tanjong Tualang",
        "State": "Perak"
    },
    {
        "Postcode": "31800",
        "Location": "Kampung Sungai Durian",
        "Post_Office": "Tanjong Tualang",
        "State": "Perak"
    },
    {
        "Postcode": "31800",
        "Location": "Kampung Tersusun Aa Tin",
        "Post_Office": "Tanjong Tualang",
        "State": "Perak"
    },
    {
        "Postcode": "31800",
        "Location": "Kampung Tersusun Batu 10",
        "Post_Office": "Tanjong Tualang",
        "State": "Perak"
    },
    {
        "Postcode": "31800",
        "Location": "Changkat Tin",
        "Post_Office": "Tanjong Tualang",
        "State": "Perak"
    },
    {
        "Postcode": "31800",
        "Location": "Kampar Road",
        "Post_Office": "Tanjong Tualang",
        "State": "Perak"
    },
    {
        "Postcode": "31800",
        "Location": "Kampung Ayer Papan",
        "Post_Office": "Tanjong Tualang",
        "State": "Perak"
    },
    {
        "Postcode": "31800",
        "Location": "Kampung Baru Chang Tin",
        "Post_Office": "Tanjong Tualang",
        "State": "Perak"
    },
    {
        "Postcode": "31800",
        "Location": "Kampung Baru Sungai Galah",
        "Post_Office": "Tanjong Tualang",
        "State": "Perak"
    },
    {
        "Postcode": "31800",
        "Location": "Kampung Batu 31",
        "Post_Office": "Tanjong Tualang",
        "State": "Perak"
    },
    {
        "Postcode": "31800",
        "Location": "Kampung Changkat Petaling",
        "Post_Office": "Tanjong Tualang",
        "State": "Perak"
    },
    {
        "Postcode": "31800",
        "Location": "Kampung Changkat Sentosa",
        "Post_Office": "Tanjong Tualang",
        "State": "Perak"
    },
    {
        "Postcode": "31800",
        "Location": "Kampung Chenderong Kelubi",
        "Post_Office": "Tanjong Tualang",
        "State": "Perak"
    },
    {
        "Postcode": "31800",
        "Location": "Kampung Chenderung Kelubi",
        "Post_Office": "Tanjong Tualang",
        "State": "Perak"
    },
    {
        "Postcode": "31800",
        "Location": "Kampung Muhibbah Tambahan",
        "Post_Office": "Tanjong Tualang",
        "State": "Perak"
    },
    {
        "Postcode": "31800",
        "Location": "Kampung Seri Hijrah",
        "Post_Office": "Tanjong Tualang",
        "State": "Perak"
    },
    {
        "Postcode": "31800",
        "Location": "Kampung Tersusun Ayer Kuning",
        "Post_Office": "Tanjong Tualang",
        "State": "Perak"
    },
    {
        "Postcode": "31800",
        "Location": "Kampung Timah",
        "Post_Office": "Tanjong Tualang",
        "State": "Perak"
    },
    {
        "Postcode": "31800",
        "Location": "Ladang Riverview",
        "Post_Office": "Tanjong Tualang",
        "State": "Perak"
    },
    {
        "Postcode": "31800",
        "Location": "Malayan Tin Kampung Gajah",
        "Post_Office": "Tanjong Tualang",
        "State": "Perak"
    },
    {
        "Postcode": "31800",
        "Location": "Rumah Murah Fasa 1",
        "Post_Office": "Tanjong Tualang",
        "State": "Perak"
    },
    {
        "Postcode": "31800",
        "Location": "Rumah Murah Fasa 2",
        "Post_Office": "Tanjong Tualang",
        "State": "Perak"
    },
    {
        "Postcode": "31800",
        "Location": "Rumah Murah Sg. Galah",
        "Post_Office": "Tanjong Tualang",
        "State": "Perak"
    },
    {
        "Postcode": "31800",
        "Location": "Rumah Murah Tanjung Tualang",
        "Post_Office": "Tanjong Tualang",
        "State": "Perak"
    },
    {
        "Postcode": "31800",
        "Location": "Sungai Galah",
        "Post_Office": "Tanjong Tualang",
        "State": "Perak"
    },
    {
        "Postcode": "31800",
        "Location": "Taman Baru (Jalan Sungai Durian)",
        "Post_Office": "Tanjong Tualang",
        "State": "Perak"
    },
    {
        "Postcode": "31800",
        "Location": "Taman Halaman Indah",
        "Post_Office": "Tanjong Tualang",
        "State": "Perak"
    },
    {
        "Postcode": "31800",
        "Location": "Taman Pinggiran Timah",
        "Post_Office": "Tanjong Tualang",
        "State": "Perak"
    },
    {
        "Postcode": "31800",
        "Location": "Taman Senawi",
        "Post_Office": "Tanjong Tualang",
        "State": "Perak"
    },
    {
        "Postcode": "31800",
        "Location": "Taman Teja",
        "Post_Office": "Tanjong Tualang",
        "State": "Perak"
    },
    {
        "Postcode": "31800",
        "Location": "Taman Timah Jaya",
        "Post_Office": "Tanjong Tualang",
        "State": "Perak"
    },
    {
        "Postcode": "31800",
        "Location": "Taman Tualang",
        "Post_Office": "Tanjong Tualang",
        "State": "Perak"
    },
    {
        "Postcode": "31800",
        "Location": "Tangkai Cermin",
        "Post_Office": "Tanjong Tualang",
        "State": "Perak"
    },
    {
        "Postcode": "31800",
        "Location": "Tanjung Tin",
        "Post_Office": "Tanjong Tualang",
        "State": "Perak"
    },
    {
        "Postcode": "31800",
        "Location": "Tanjung Tualang",
        "Post_Office": "Tanjong Tualang",
        "State": "Perak"
    },
    {
        "Postcode": "31800",
        "Location": "Tanjung Tualang (Batu 10)",
        "Post_Office": "Tanjong Tualang",
        "State": "Perak"
    }
]
