[
    {
        "Postcode": "31850",
        "Location": "Kampung Jawa",
        "Post_Office": "Jeram",
        "State": "Perak"
    },
    {
        "Postcode": "31850",
        "Location": "Kampung Pisang",
        "Post_Office": "Jeram",
        "State": "Perak"
    },
    {
        "Postcode": "31850",
        "Location": "Kampung Raja",
        "Post_Office": "Jeram",
        "State": "Perak"
    },
    {
        "Postcode": "31850",
        "Location": "Jalan Baru ( Kuala Dipang )",
        "Post_Office": "Jeram",
        "State": "Perak"
    },
    {
        "Postcode": "31850",
        "Location": "Jeram",
        "Post_Office": "Jeram",
        "State": "Perak"
    },
    {
        "Postcode": "31850",
        "Location": "Jeram New Village",
        "Post_Office": "Jeram",
        "State": "Perak"
    },
    {
        "Postcode": "31850",
        "Location": "Kampung Baru ( Kuala Dipang )",
        "Post_Office": "Jeram",
        "State": "Perak"
    },
    {
        "Postcode": "31850",
        "Location": "Kampung Baru Jeram",
        "Post_Office": "Jeram",
        "State": "Perak"
    },
    {
        "Postcode": "31850",
        "Location": "Kampung Baru Kuala Dipang",
        "Post_Office": "Jeram",
        "State": "Perak"
    },
    {
        "Postcode": "31850",
        "Location": "Kampung Batu 20 (Kuala Dipang)",
        "Post_Office": "Jeram",
        "State": "Perak"
    },
    {
        "Postcode": "31850",
        "Location": "Kampung Cabang Dua (Kuala Dipang)",
        "Post_Office": "Jeram",
        "State": "Perak"
    },
    {
        "Postcode": "31850",
        "Location": "Kampung Chabang Dua",
        "Post_Office": "Jeram",
        "State": "Perak"
    },
    {
        "Postcode": "31850",
        "Location": "Kampung Changkat Jering",
        "Post_Office": "Jeram",
        "State": "Perak"
    },
    {
        "Postcode": "31850",
        "Location": "Kampung Changkat Jering (Kuala Dipang)",
        "Post_Office": "Jeram",
        "State": "Perak"
    },
    {
        "Postcode": "31850",
        "Location": "Kampung Empangan Perak Hydro",
        "Post_Office": "Jeram",
        "State": "Perak"
    },
    {
        "Postcode": "31850",
        "Location": "Kampung Jawa Jeram",
        "Post_Office": "Jeram",
        "State": "Perak"
    },
    {
        "Postcode": "31850",
        "Location": "Kampung Jeram",
        "Post_Office": "Jeram",
        "State": "Perak"
    },
    {
        "Postcode": "31850",
        "Location": "Kampung Keboi",
        "Post_Office": "Jeram",
        "State": "Perak"
    },
    {
        "Postcode": "31850",
        "Location": "Kampung Kuala Dipang",
        "Post_Office": "Jeram",
        "State": "Perak"
    },
    {
        "Postcode": "31850",
        "Location": "Kampung Masjid ( Kuala Dipang )",
        "Post_Office": "Jeram",
        "State": "Perak"
    },
    {
        "Postcode": "31850",
        "Location": "Kampung Nyior ( Kuala Dipang )",
        "Post_Office": "Jeram",
        "State": "Perak"
    },
    {
        "Postcode": "31850",
        "Location": "Kampung Nyior (Batu 20)",
        "Post_Office": "Jeram",
        "State": "Perak"
    },
    {
        "Postcode": "31850",
        "Location": "Kampung Pasir ( Kuala Dipang )",
        "Post_Office": "Jeram",
        "State": "Perak"
    },
    {
        "Postcode": "31850",
        "Location": "Kampung Pisang, Jeram",
        "Post_Office": "Jeram",
        "State": "Perak"
    },
    {
        "Postcode": "31850",
        "Location": "Kampung Raja ( Kuala Dipang )",
        "Post_Office": "Jeram",
        "State": "Perak"
    },
    {
        "Postcode": "31850",
        "Location": "Kampung Sahom",
        "Post_Office": "Jeram",
        "State": "Perak"
    },
    {
        "Postcode": "31850",
        "Location": "Kampung Simpang Keboi",
        "Post_Office": "Jeram",
        "State": "Perak"
    },
    {
        "Postcode": "31850",
        "Location": "Kampung Sungai Kuboi",
        "Post_Office": "Jeram",
        "State": "Perak"
    },
    {
        "Postcode": "31850",
        "Location": "Kampung Tanah Pinggir (Kuala Dipang)",
        "Post_Office": "Jeram",
        "State": "Perak"
    },
    {
        "Postcode": "31850",
        "Location": "Kampung Tanah Punggor",
        "Post_Office": "Jeram",
        "State": "Perak"
    },
    {
        "Postcode": "31850",
        "Location": "Kampung Tersusun (Batu 20 Kuala Dipang)",
        "Post_Office": "Jeram",
        "State": "Perak"
    },
    {
        "Postcode": "31850",
        "Location": "Kampung Tersusun (Batu 20)",
        "Post_Office": "Jeram",
        "State": "Perak"
    },
    {
        "Postcode": "31850",
        "Location": "Perumahan Awam Jeram",
        "Post_Office": "Jeram",
        "State": "Perak"
    },
    {
        "Postcode": "31850",
        "Location": "Sungai Siput Selatan",
        "Post_Office": "Jeram",
        "State": "Perak"
    },
    {
        "Postcode": "31850",
        "Location": "Taman Harmoni,Jeram",
        "Post_Office": "Jeram",
        "State": "Perak"
    },
    {
        "Postcode": "31850",
        "Location": "Taman Jeram",
        "Post_Office": "Jeram",
        "State": "Perak"
    }
]
