[
    {
        "Postcode": "31900",
        "Location": "Kampung Padang Tembak",
        "Post_Office": "Kampar",
        "State": "Perak"
    },
    {
        "Postcode": "31900",
        "Location": "Taman Kampar",
        "Post_Office": "Kampar",
        "State": "Perak"
    },
    {
        "Postcode": "31900",
        "Location": "Taman Pelangi",
        "Post_Office": "Kampar",
        "State": "Perak"
    },
    {
        "Postcode": "31900",
        "Location": "Taman Perak",
        "Post_Office": "Kampar",
        "State": "Perak"
    },
    {
        "Postcode": "31900",
        "Location": "Taman Sri Emas",
        "Post_Office": "Kampar",
        "State": "Perak"
    },
    {
        "Postcode": "31900",
        "Location": "Taman Angkasa",
        "Post_Office": "Kampar",
        "State": "Perak"
    },
    {
        "Postcode": "31900",
        "Location": "Taman Rose",
        "Post_Office": "Kampar",
        "State": "Perak"
    },
    {
        "Postcode": "31900",
        "Location": "Kampung Baru",
        "Post_Office": "Kampar",
        "State": "Perak"
    },
    {
        "Postcode": "31900",
        "Location": "Kampung Changkat",
        "Post_Office": "Kampar",
        "State": "Perak"
    },
    {
        "Postcode": "31900",
        "Location": "Kampung Keranji",
        "Post_Office": "Kampar",
        "State": "Perak"
    },
    {
        "Postcode": "31900",
        "Location": "Kampung Masjid",
        "Post_Office": "Kampar",
        "State": "Perak"
    },
    {
        "Postcode": "31900",
        "Location": "Kampung Sultan",
        "Post_Office": "Kampar",
        "State": "Perak"
    },
    {
        "Postcode": "31900",
        "Location": "Kampung Tengah",
        "Post_Office": "Kampar",
        "State": "Perak"
    },
    {
        "Postcode": "31900",
        "Location": "Taman Eastern",
        "Post_Office": "Kampar",
        "State": "Perak"
    },
    {
        "Postcode": "31900",
        "Location": "Taman Indah",
        "Post_Office": "Kampar",
        "State": "Perak"
    },
    {
        "Postcode": "31900",
        "Location": "Taman Intan",
        "Post_Office": "Kampar",
        "State": "Perak"
    },
    {
        "Postcode": "31900",
        "Location": "Taman Sentosa",
        "Post_Office": "Kampar",
        "State": "Perak"
    },
    {
        "Postcode": "31900",
        "Location": "Aston Settelement",
        "Post_Office": "Kampar",
        "State": "Perak"
    },
    {
        "Postcode": "31900",
        "Location": "Batu Karam",
        "Post_Office": "Kampar",
        "State": "Perak"
    },
    {
        "Postcode": "31900",
        "Location": "Batu Putih",
        "Post_Office": "Kampar",
        "State": "Perak"
    },
    {
        "Postcode": "31900",
        "Location": "Hong Chan Estate",
        "Post_Office": "Kampar",
        "State": "Perak"
    },
    {
        "Postcode": "31900",
        "Location": "Kampar",
        "Post_Office": "Kampar",
        "State": "Perak"
    },
    {
        "Postcode": "31900",
        "Location": "Kampung Abdullah",
        "Post_Office": "Kampar",
        "State": "Perak"
    },
    {
        "Postcode": "31900",
        "Location": "Kampung Abdullah Ayer Kuning",
        "Post_Office": "Kampar",
        "State": "Perak"
    },
    {
        "Postcode": "31900",
        "Location": "Kampung Baru (Jalan Ayer Terjun)",
        "Post_Office": "Kampar",
        "State": "Perak"
    },
    {
        "Postcode": "31900",
        "Location": "Kampung Baru Air Kuning",
        "Post_Office": "Kampar",
        "State": "Perak"
    },
    {
        "Postcode": "31900",
        "Location": "Kampung Baru Hulu Dan Hilir",
        "Post_Office": "Kampar",
        "State": "Perak"
    },
    {
        "Postcode": "31900",
        "Location": "Kampung Baru Sungai Kroh",
        "Post_Office": "Kampar",
        "State": "Perak"
    },
    {
        "Postcode": "31900",
        "Location": "Kampung Batu Berangkai",
        "Post_Office": "Kampar",
        "State": "Perak"
    },
    {
        "Postcode": "31900",
        "Location": "Kampung Batu Karang",
        "Post_Office": "Kampar",
        "State": "Perak"
    },
    {
        "Postcode": "31900",
        "Location": "Kampung Changkat Pinggan",
        "Post_Office": "Kampar",
        "State": "Perak"
    },
    {
        "Postcode": "31900",
        "Location": "Kampung Haji Dahalan",
        "Post_Office": "Kampar",
        "State": "Perak"
    },
    {
        "Postcode": "31900",
        "Location": "Kampung Malaya",
        "Post_Office": "Kampar",
        "State": "Perak"
    },
    {
        "Postcode": "31900",
        "Location": "Kampung Masjid Ayer Kuning",
        "Post_Office": "Kampar",
        "State": "Perak"
    },
    {
        "Postcode": "31900",
        "Location": "Kampung Masjid Simpang Empat",
        "Post_Office": "Kampar",
        "State": "Perak"
    },
    {
        "Postcode": "31900",
        "Location": "Kampung Sekolah Keranji Baru",
        "Post_Office": "Kampar",
        "State": "Perak"
    },
    {
        "Postcode": "31900",
        "Location": "Kampung Sekolah Keranji Lama",
        "Post_Office": "Kampar",
        "State": "Perak"
    },
    {
        "Postcode": "31900",
        "Location": "Kampung Sungai Kurong Dalam",
        "Post_Office": "Kampar",
        "State": "Perak"
    },
    {
        "Postcode": "31900",
        "Location": "Kampung Sungai Kurong Luar",
        "Post_Office": "Kampar",
        "State": "Perak"
    },
    {
        "Postcode": "31900",
        "Location": "Kampung Sungai Lesong",
        "Post_Office": "Kampar",
        "State": "Perak"
    },
    {
        "Postcode": "31900",
        "Location": "Kampung Talam Mines",
        "Post_Office": "Kampar",
        "State": "Perak"
    },
    {
        "Postcode": "31900",
        "Location": "Kampung Tanjung Rengas",
        "Post_Office": "Kampar",
        "State": "Perak"
    },
    {
        "Postcode": "31900",
        "Location": "Kampung Tersusun Jalan Labu",
        "Post_Office": "Kampar",
        "State": "Perak"
    },
    {
        "Postcode": "31900",
        "Location": "Labu Kuchi",
        "Post_Office": "Kampar",
        "State": "Perak"
    },
    {
        "Postcode": "31900",
        "Location": "New Wah Long",
        "Post_Office": "Kampar",
        "State": "Perak"
    },
    {
        "Postcode": "31900",
        "Location": "Pearl Park",
        "Post_Office": "Kampar",
        "State": "Perak"
    },
    {
        "Postcode": "31900",
        "Location": "Simpang Ampat",
        "Post_Office": "Kampar",
        "State": "Perak"
    },
    {
        "Postcode": "31900",
        "Location": "Taman Air Kuning",
        "Post_Office": "Kampar",
        "State": "Perak"
    },
    {
        "Postcode": "31900",
        "Location": "Taman Bandar Baru",
        "Post_Office": "Kampar",
        "State": "Perak"
    },
    {
        "Postcode": "31900",
        "Location": "Taman Bandar Utama",
        "Post_Office": "Kampar",
        "State": "Perak"
    },
    {
        "Postcode": "31900",
        "Location": "Taman Elok",
        "Post_Office": "Kampar",
        "State": "Perak"
    },
    {
        "Postcode": "31900",
        "Location": "Taman Golden Dragon",
        "Post_Office": "Kampar",
        "State": "Perak"
    },
    {
        "Postcode": "31900",
        "Location": "Taman Joo Loong",
        "Post_Office": "Kampar",
        "State": "Perak"
    },
    {
        "Postcode": "31900",
        "Location": "Taman Kampar Jaya",
        "Post_Office": "Kampar",
        "State": "Perak"
    },
    {
        "Postcode": "31900",
        "Location": "Taman Kampar Perdana",
        "Post_Office": "Kampar",
        "State": "Perak"
    },
    {
        "Postcode": "31900",
        "Location": "Taman Mahsuri",
        "Post_Office": "Kampar",
        "State": "Perak"
    },
    {
        "Postcode": "31900",
        "Location": "Taman Mambang",
        "Post_Office": "Kampar",
        "State": "Perak"
    },
    {
        "Postcode": "31900",
        "Location": "Taman Melayu Jaya",
        "Post_Office": "Kampar",
        "State": "Perak"
    },
    {
        "Postcode": "31900",
        "Location": "Taman Naga Emas",
        "Post_Office": "Kampar",
        "State": "Perak"
    },
    {
        "Postcode": "31900",
        "Location": "Taman Sejahtera",
        "Post_Office": "Kampar",
        "State": "Perak"
    },
    {
        "Postcode": "31900",
        "Location": "Taman Sentosa Baru",
        "Post_Office": "Kampar",
        "State": "Perak"
    },
    {
        "Postcode": "31900",
        "Location": "Taman Sentosa Lama",
        "Post_Office": "Kampar",
        "State": "Perak"
    },
    {
        "Postcode": "31900",
        "Location": "Taman Seri Kampar",
        "Post_Office": "Kampar",
        "State": "Perak"
    },
    {
        "Postcode": "31900",
        "Location": "Taman Tasek",
        "Post_Office": "Kampar",
        "State": "Perak"
    },
    {
        "Postcode": "31900",
        "Location": "Taman Timur",
        "Post_Office": "Kampar",
        "State": "Perak"
    }
]
