[
    {
        "Postcode": "31910",
        "Location": "Kampung Kurnia",
        "Post_Office": "Kampar",
        "State": "Perak"
    },
    {
        "Postcode": "31910",
        "Location": "Kampung Tersusun",
        "Post_Office": "Kampar",
        "State": "Perak"
    },
    {
        "Postcode": "31910",
        "Location": "Ayer Hitam Labu",
        "Post_Office": "Kampar",
        "State": "Perak"
    },
    {
        "Postcode": "31910",
        "Location": "Kampung Ayer Hitam Labu",
        "Post_Office": "Kampar",
        "State": "Perak"
    },
    {
        "Postcode": "31910",
        "Location": "Kampung Baru Tronoh Mines",
        "Post_Office": "Kampar",
        "State": "Perak"
    },
    {
        "Postcode": "31910",
        "Location": "Kampung Bukit Pekan",
        "Post_Office": "Kampar",
        "State": "Perak"
    },
    {
        "Postcode": "31910",
        "Location": "Kampung Mendeling",
        "Post_Office": "Kampar",
        "State": "Perak"
    },
    {
        "Postcode": "31910",
        "Location": "Kampung Tengah Tronoh Mines",
        "Post_Office": "Kampar",
        "State": "Perak"
    },
    {
        "Postcode": "31910",
        "Location": "Taman Mesra Raayat",
        "Post_Office": "Kampar",
        "State": "Perak"
    }
]
