[
    {
        "Postcode": "31950",
        "Location": "Kampung Baru Ayer Kuning",
        "Post_Office": "Kampar",
        "State": "Perak"
    },
    {
        "Postcode": "31950",
        "Location": "Taman Merdeka",
        "Post_Office": "Kampar",
        "State": "Perak"
    },
    {
        "Postcode": "31950",
        "Location": "Taman Damai 1",
        "Post_Office": "Kampar",
        "State": "Perak"
    },
    {
        "Postcode": "31950",
        "Location": "Taman Damai 2",
        "Post_Office": "Kampar",
        "State": "Perak"
    },
    {
        "Postcode": "31950",
        "Location": "Taman Damai 3",
        "Post_Office": "Kampar",
        "State": "Perak"
    },
    {
        "Postcode": "31950",
        "Location": "Kampung Mambang Di Awan Barat",
        "Post_Office": "Kampar",
        "State": "Perak"
    },
    {
        "Postcode": "31950",
        "Location": "Kampung Mambang Di Awan Selatan",
        "Post_Office": "Kampar",
        "State": "Perak"
    },
    {
        "Postcode": "31950",
        "Location": "Kampung Mambang Di Awan Timur",
        "Post_Office": "Kampar",
        "State": "Perak"
    },
    {
        "Postcode": "31950",
        "Location": "Kampung Mambang Di Awan Utara",
        "Post_Office": "Kampar",
        "State": "Perak"
    },
    {
        "Postcode": "31950",
        "Location": "Mambang Di Awan",
        "Post_Office": "Kampar",
        "State": "Perak"
    },
    {
        "Postcode": "31950",
        "Location": "Taman Di Awan",
        "Post_Office": "Kampar",
        "State": "Perak"
    }
]
