[
    {
        "Postcode": "20000",
        "Location": "Kampung Paya Bunga",
        "Post_Office": "Kuala Terengganu",
        "State": "Terengganu"
    },
    {
        "Postcode": "20000",
        "Location": "Kampung Tanjong Mengabang",
        "Post_Office": "Kuala Terengganu",
        "State": "Terengganu"
    },
    {
        "Postcode": "20000",
        "Location": "Kampung Dalam Kota",
        "Post_Office": "Kuala Terengganu",
        "State": "Terengganu"
    },
    {
        "Postcode": "20000",
        "Location": "Kampung Ladang Tok Pelam",
        "Post_Office": "Kuala Terengganu",
        "State": "Terengganu"
    },
    {
        "Postcode": "20000",
        "Location": "Kampung Nesan Empat",
        "Post_Office": "Kuala Terengganu",
        "State": "Terengganu"
    },
    {
        "Postcode": "20000",
        "Location": "Kampung Semarak Jaya",
        "Post_Office": "Kuala Terengganu",
        "State": "Terengganu"
    },
    {
        "Postcode": "20000",
        "Location": "Kampung Tanjong Bangsal",
        "Post_Office": "Kuala Terengganu",
        "State": "Terengganu"
    },
    {
        "Postcode": "20000",
        "Location": "Kampung Tanjong Che Mat Taukey",
        "Post_Office": "Kuala Terengganu",
        "State": "Terengganu"
    },
    {
        "Postcode": "20000",
        "Location": "Kampung Tanjong Kapor",
        "Post_Office": "Kuala Terengganu",
        "State": "Terengganu"
    },
    {
        "Postcode": "20000",
        "Location": "Kampung Tanjong Pantai",
        "Post_Office": "Kuala Terengganu",
        "State": "Terengganu"
    },
    {
        "Postcode": "20000",
        "Location": "Taman Seri Semarak",
        "Post_Office": "Kuala Terengganu",
        "State": "Terengganu"
    },
    {
        "Postcode": "20000",
        "Location": "Taman Sri Kolam",
        "Post_Office": "Kuala Terengganu",
        "State": "Terengganu"
    },
    {
        "Postcode": "20000",
        "Location": "Taman Tanjong Che Mat Taukey",
        "Post_Office": "Kuala Terengganu",
        "State": "Terengganu"
    },
    {
        "Postcode": "20000",
        "Location": "Jalan Istana Kolam",
        "Post_Office": "Kuala Terengganu",
        "State": "Terengganu"
    },
    {
        "Postcode": "20000",
        "Location": "Jalan Kota",
        "Post_Office": "Kuala Terengganu",
        "State": "Terengganu"
    },
    {
        "Postcode": "20000",
        "Location": "Jalan Ladang Sekolah",
        "Post_Office": "Kuala Terengganu",
        "State": "Terengganu"
    },
    {
        "Postcode": "20000",
        "Location": "Jalan Nesan Empat",
        "Post_Office": "Kuala Terengganu",
        "State": "Terengganu"
    },
    {
        "Postcode": "20000",
        "Location": "Jalan Petani",
        "Post_Office": "Kuala Terengganu",
        "State": "Terengganu"
    },
    {
        "Postcode": "20000",
        "Location": "Jalan Sultan Sulaiman",
        "Post_Office": "Kuala Terengganu",
        "State": "Terengganu"
    },
    {
        "Postcode": "20000",
        "Location": "Jalan Sultan Zainal Abidin",
        "Post_Office": "Kuala Terengganu",
        "State": "Terengganu"
    },
    {
        "Postcode": "20000",
        "Location": "Kampung Bangsal",
        "Post_Office": "Kuala Terengganu",
        "State": "Terengganu"
    },
    {
        "Postcode": "20000",
        "Location": "Kampung Daik",
        "Post_Office": "Kuala Terengganu",
        "State": "Terengganu"
    },
    {
        "Postcode": "20000",
        "Location": "Kampung Dalam Bata",
        "Post_Office": "Kuala Terengganu",
        "State": "Terengganu"
    },
    {
        "Postcode": "20000",
        "Location": "Kampung Dato Penglima Perang",
        "Post_Office": "Kuala Terengganu",
        "State": "Terengganu"
    },
    {
        "Postcode": "20000",
        "Location": "Kampung Kolam",
        "Post_Office": "Kuala Terengganu",
        "State": "Terengganu"
    },
    {
        "Postcode": "20000",
        "Location": "Kampung Ladang Cicar",
        "Post_Office": "Kuala Terengganu",
        "State": "Terengganu"
    },
    {
        "Postcode": "20000",
        "Location": "Kampung Ladang Mengabang",
        "Post_Office": "Kuala Terengganu",
        "State": "Terengganu"
    },
    {
        "Postcode": "20000",
        "Location": "Kampung Ladang Pasar",
        "Post_Office": "Kuala Terengganu",
        "State": "Terengganu"
    },
    {
        "Postcode": "20000",
        "Location": "Kampung Ladang Sekolah",
        "Post_Office": "Kuala Terengganu",
        "State": "Terengganu"
    },
    {
        "Postcode": "20000",
        "Location": "Kampung Ladang Titian",
        "Post_Office": "Kuala Terengganu",
        "State": "Terengganu"
    },
    {
        "Postcode": "20000",
        "Location": "Kampung Pantai Haji Kasim",
        "Post_Office": "Kuala Terengganu",
        "State": "Terengganu"
    },
    {
        "Postcode": "20000",
        "Location": "Kampung Petani",
        "Post_Office": "Kuala Terengganu",
        "State": "Terengganu"
    },
    {
        "Postcode": "20000",
        "Location": "Kampung Rakyat",
        "Post_Office": "Kuala Terengganu",
        "State": "Terengganu"
    },
    {
        "Postcode": "20000",
        "Location": "Kampung Surau Haji Mat Tokey",
        "Post_Office": "Kuala Terengganu",
        "State": "Terengganu"
    },
    {
        "Postcode": "20000",
        "Location": "Kampung Surau Telok",
        "Post_Office": "Kuala Terengganu",
        "State": "Terengganu"
    },
    {
        "Postcode": "20000",
        "Location": "Kampung Surau Tok She",
        "Post_Office": "Kuala Terengganu",
        "State": "Terengganu"
    },
    {
        "Postcode": "20000",
        "Location": "Kampung Tanjong Paya",
        "Post_Office": "Kuala Terengganu",
        "State": "Terengganu"
    },
    {
        "Postcode": "20000",
        "Location": "Kampung Tanjong Surau Besar",
        "Post_Office": "Kuala Terengganu",
        "State": "Terengganu"
    },
    {
        "Postcode": "20000",
        "Location": "Kampung Tanjong Surau Pasir",
        "Post_Office": "Kuala Terengganu",
        "State": "Terengganu"
    },
    {
        "Postcode": "20000",
        "Location": "Kampung Tanjung Batu Satu",
        "Post_Office": "Kuala Terengganu",
        "State": "Terengganu"
    },
    {
        "Postcode": "20000",
        "Location": "Lorong Bemban",
        "Post_Office": "Kuala Terengganu",
        "State": "Terengganu"
    },
    {
        "Postcode": "20000",
        "Location": "Perbadanan Pembangunan Bandar",
        "Post_Office": "Kuala Terengganu",
        "State": "Terengganu"
    },
    {
        "Postcode": "20000",
        "Location": "Taman Petani",
        "Post_Office": "Kuala Terengganu",
        "State": "Terengganu"
    },
    {
        "Postcode": "20000",
        "Location": "Hotel Tanjung Vista",
        "Post_Office": "Kuala Terengganu",
        "State": "Terengganu"
    }
]
