[
    {
        "Postcode": "20050",
        "Location": "Kampung Wakaf Che Kapur",
        "Post_Office": "Kuala Terengganu",
        "State": "Terengganu"
    },
    {
        "Postcode": "20050",
        "Location": "Kampung Gong Benjok",
        "Post_Office": "Kuala Terengganu",
        "State": "Terengganu"
    },
    {
        "Postcode": "20050",
        "Location": "Kampung Teluk Paku",
        "Post_Office": "Kuala Terengganu",
        "State": "Terengganu"
    },
    {
        "Postcode": "20050",
        "Location": "Taman Sri Paluh",
        "Post_Office": "Kuala Terengganu",
        "State": "Terengganu"
    },
    {
        "Postcode": "20050",
        "Location": "Kampung Banggol Cempedak",
        "Post_Office": "Kuala Terengganu",
        "State": "Terengganu"
    },
    {
        "Postcode": "20050",
        "Location": "Kampung Banggol Durian",
        "Post_Office": "Kuala Terengganu",
        "State": "Terengganu"
    },
    {
        "Postcode": "20050",
        "Location": "Kampung Banggol Karah",
        "Post_Office": "Kuala Terengganu",
        "State": "Terengganu"
    },
    {
        "Postcode": "20050",
        "Location": "Kampung Banggol Kemang",
        "Post_Office": "Kuala Terengganu",
        "State": "Terengganu"
    },
    {
        "Postcode": "20050",
        "Location": "Kampung Banggol Mempelam",
        "Post_Office": "Kuala Terengganu",
        "State": "Terengganu"
    },
    {
        "Postcode": "20050",
        "Location": "Kampung Barang Gelugor",
        "Post_Office": "Kuala Terengganu",
        "State": "Terengganu"
    },
    {
        "Postcode": "20050",
        "Location": "Kampung Beladau Kepong",
        "Post_Office": "Kuala Terengganu",
        "State": "Terengganu"
    },
    {
        "Postcode": "20050",
        "Location": "Kampung Binjai Berambu",
        "Post_Office": "Kuala Terengganu",
        "State": "Terengganu"
    },
    {
        "Postcode": "20050",
        "Location": "Kampung Binjai Berambu Kepong",
        "Post_Office": "Kuala Terengganu",
        "State": "Terengganu"
    },
    {
        "Postcode": "20050",
        "Location": "Kampung Che Hassan",
        "Post_Office": "Kuala Terengganu",
        "State": "Terengganu"
    },
    {
        "Postcode": "20050",
        "Location": "Kampung Che Long",
        "Post_Office": "Kuala Terengganu",
        "State": "Terengganu"
    },
    {
        "Postcode": "20050",
        "Location": "Kampung Durian Burung",
        "Post_Office": "Kuala Terengganu",
        "State": "Terengganu"
    },
    {
        "Postcode": "20050",
        "Location": "Kampung Gelugur Kayu Tinggi",
        "Post_Office": "Kuala Terengganu",
        "State": "Terengganu"
    },
    {
        "Postcode": "20050",
        "Location": "Kampung Kuala Bekah Masjid",
        "Post_Office": "Kuala Terengganu",
        "State": "Terengganu"
    },
    {
        "Postcode": "20050",
        "Location": "Kampung Kubang Durian",
        "Post_Office": "Kuala Terengganu",
        "State": "Terengganu"
    },
    {
        "Postcode": "20050",
        "Location": "Kampung Kubang Macang",
        "Post_Office": "Kuala Terengganu",
        "State": "Terengganu"
    },
    {
        "Postcode": "20050",
        "Location": "Kampung Padang Jerat",
        "Post_Office": "Kuala Terengganu",
        "State": "Terengganu"
    },
    {
        "Postcode": "20050",
        "Location": "Kampung Padang Palas",
        "Post_Office": "Kuala Terengganu",
        "State": "Terengganu"
    },
    {
        "Postcode": "20050",
        "Location": "Kampung Padang Paloh",
        "Post_Office": "Kuala Terengganu",
        "State": "Terengganu"
    },
    {
        "Postcode": "20050",
        "Location": "Kampung Paloh",
        "Post_Office": "Kuala Terengganu",
        "State": "Terengganu"
    },
    {
        "Postcode": "20050",
        "Location": "Kampung Sungai Rengas Baru",
        "Post_Office": "Kuala Terengganu",
        "State": "Terengganu"
    },
    {
        "Postcode": "20050",
        "Location": "Kampung Sungai Rengas Lama",
        "Post_Office": "Kuala Terengganu",
        "State": "Terengganu"
    },
    {
        "Postcode": "20050",
        "Location": "Kampung Tanjung Ketom",
        "Post_Office": "Kuala Terengganu",
        "State": "Terengganu"
    },
    {
        "Postcode": "20050",
        "Location": "Taman Adeli 2",
        "Post_Office": "Kuala Terengganu",
        "State": "Terengganu"
    },
    {
        "Postcode": "20050",
        "Location": "Taman Alam Serada",
        "Post_Office": "Kuala Terengganu",
        "State": "Terengganu"
    },
    {
        "Postcode": "20050",
        "Location": "Taman Desa Paloh Baru ",
        "Post_Office": "Kuala Terengganu",
        "State": "Terengganu"
    },
    {
        "Postcode": "20050",
        "Location": "Taman Durian Burung",
        "Post_Office": "Kuala Terengganu",
        "State": "Terengganu"
    },
    {
        "Postcode": "20050",
        "Location": "Taman Ehsan",
        "Post_Office": "Kuala Terengganu",
        "State": "Terengganu"
    },
    {
        "Postcode": "20050",
        "Location": "Taman Haji Da",
        "Post_Office": "Kuala Terengganu",
        "State": "Terengganu"
    },
    {
        "Postcode": "20050",
        "Location": "Taman Haji Yusof",
        "Post_Office": "Kuala Terengganu",
        "State": "Terengganu"
    },
    {
        "Postcode": "20050",
        "Location": "Taman Jamili",
        "Post_Office": "Kuala Terengganu",
        "State": "Terengganu"
    },
    {
        "Postcode": "20050",
        "Location": "Taman Katong Jaya",
        "Post_Office": "Kuala Terengganu",
        "State": "Terengganu"
    },
    {
        "Postcode": "20050",
        "Location": "Taman Katong Jaya 2",
        "Post_Office": "Kuala Terengganu",
        "State": "Terengganu"
    },
    {
        "Postcode": "20050",
        "Location": "Taman Kubang Parit Perdana",
        "Post_Office": "Kuala Terengganu",
        "State": "Terengganu"
    },
    {
        "Postcode": "20050",
        "Location": "Taman Limau 1",
        "Post_Office": "Kuala Terengganu",
        "State": "Terengganu"
    },
    {
        "Postcode": "20050",
        "Location": "Taman Limau 2",
        "Post_Office": "Kuala Terengganu",
        "State": "Terengganu"
    },
    {
        "Postcode": "20050",
        "Location": "Taman Makam Kepong",
        "Post_Office": "Kuala Terengganu",
        "State": "Terengganu"
    },
    {
        "Postcode": "20050",
        "Location": "Taman Merbau Patah",
        "Post_Office": "Kuala Terengganu",
        "State": "Terengganu"
    },
    {
        "Postcode": "20050",
        "Location": "Taman Nadi Puteri  ",
        "Post_Office": "Kuala Terengganu",
        "State": "Terengganu"
    },
    {
        "Postcode": "20050",
        "Location": "Taman Nakhoda",
        "Post_Office": "Kuala Terengganu",
        "State": "Terengganu"
    },
    {
        "Postcode": "20050",
        "Location": "Taman Nuri",
        "Post_Office": "Kuala Terengganu",
        "State": "Terengganu"
    },
    {
        "Postcode": "20050",
        "Location": "Taman Paloh Jaya",
        "Post_Office": "Kuala Terengganu",
        "State": "Terengganu"
    },
    {
        "Postcode": "20050",
        "Location": "Taman Perdana Jaya",
        "Post_Office": "Kuala Terengganu",
        "State": "Terengganu"
    },
    {
        "Postcode": "20050",
        "Location": "Taman Selesa",
        "Post_Office": "Kuala Terengganu",
        "State": "Terengganu"
    },
    {
        "Postcode": "20050",
        "Location": "Taman Setia Durian Burung",
        "Post_Office": "Kuala Terengganu",
        "State": "Terengganu"
    },
    {
        "Postcode": "20050",
        "Location": "Taman Sri Beruas",
        "Post_Office": "Kuala Terengganu",
        "State": "Terengganu"
    },
    {
        "Postcode": "20050",
        "Location": "Taman Sri Gelugor Pengadang Baru",
        "Post_Office": "Kuala Terengganu",
        "State": "Terengganu"
    },
    {
        "Postcode": "20050",
        "Location": "Taman Sri Putat",
        "Post_Office": "Kuala Terengganu",
        "State": "Terengganu"
    },
    {
        "Postcode": "20050",
        "Location": "Jalan Kelantan (Hingga Km 6)",
        "Post_Office": "Kuala Terengganu",
        "State": "Terengganu"
    },
    {
        "Postcode": "20050",
        "Location": "Jalan Pulau Musang",
        "Post_Office": "Kuala Terengganu",
        "State": "Terengganu"
    },
    {
        "Postcode": "20050",
        "Location": "Kampung Banggol Chempedak",
        "Post_Office": "Kuala Terengganu",
        "State": "Terengganu"
    },
    {
        "Postcode": "20050",
        "Location": "Kampung Banggol Katong",
        "Post_Office": "Kuala Terengganu",
        "State": "Terengganu"
    },
    {
        "Postcode": "20050",
        "Location": "Kampung Banggol Lalang",
        "Post_Office": "Kuala Terengganu",
        "State": "Terengganu"
    },
    {
        "Postcode": "20050",
        "Location": "Kampung Banggol Tok Ku",
        "Post_Office": "Kuala Terengganu",
        "State": "Terengganu"
    },
    {
        "Postcode": "20050",
        "Location": "Kampung Baru Serada",
        "Post_Office": "Kuala Terengganu",
        "State": "Terengganu"
    },
    {
        "Postcode": "20050",
        "Location": "Kampung Beladau Selat",
        "Post_Office": "Kuala Terengganu",
        "State": "Terengganu"
    },
    {
        "Postcode": "20050",
        "Location": "Kampung Belukar Sukai",
        "Post_Office": "Kuala Terengganu",
        "State": "Terengganu"
    },
    {
        "Postcode": "20050",
        "Location": "Kampung Bukit Kubang Jambu",
        "Post_Office": "Kuala Terengganu",
        "State": "Terengganu"
    },
    {
        "Postcode": "20050",
        "Location": "Kampung Durian Burong",
        "Post_Office": "Kuala Terengganu",
        "State": "Terengganu"
    },
    {
        "Postcode": "20050",
        "Location": "Kampung Dusun Melintang",
        "Post_Office": "Kuala Terengganu",
        "State": "Terengganu"
    },
    {
        "Postcode": "20050",
        "Location": "Kampung Gelugor Haji Tahir",
        "Post_Office": "Kuala Terengganu",
        "State": "Terengganu"
    },
    {
        "Postcode": "20050",
        "Location": "Kampung Gelugor Kedai",
        "Post_Office": "Kuala Terengganu",
        "State": "Terengganu"
    },
    {
        "Postcode": "20050",
        "Location": "Kampung Gelugor Raja",
        "Post_Office": "Kuala Terengganu",
        "State": "Terengganu"
    },
    {
        "Postcode": "20050",
        "Location": "Kampung Gong Pauh",
        "Post_Office": "Kuala Terengganu",
        "State": "Terengganu"
    },
    {
        "Postcode": "20050",
        "Location": "Kampung Gong Pipit",
        "Post_Office": "Kuala Terengganu",
        "State": "Terengganu"
    },
    {
        "Postcode": "20050",
        "Location": "Kampung Kedai Kepong",
        "Post_Office": "Kuala Terengganu",
        "State": "Terengganu"
    },
    {
        "Postcode": "20050",
        "Location": "Kampung Kepong",
        "Post_Office": "Kuala Terengganu",
        "State": "Terengganu"
    },
    {
        "Postcode": "20050",
        "Location": "Kampung Kuala Bekah",
        "Post_Office": "Kuala Terengganu",
        "State": "Terengganu"
    },
    {
        "Postcode": "20050",
        "Location": "Kampung Kuala Bekah Pasar",
        "Post_Office": "Kuala Terengganu",
        "State": "Terengganu"
    },
    {
        "Postcode": "20050",
        "Location": "Kampung Kubang Bakong",
        "Post_Office": "Kuala Terengganu",
        "State": "Terengganu"
    },
    {
        "Postcode": "20050",
        "Location": "Kampung Kubang Bujok",
        "Post_Office": "Kuala Terengganu",
        "State": "Terengganu"
    },
    {
        "Postcode": "20050",
        "Location": "Kampung Kubang Kura",
        "Post_Office": "Kuala Terengganu",
        "State": "Terengganu"
    },
    {
        "Postcode": "20050",
        "Location": "Kampung Kubang Parit",
        "Post_Office": "Kuala Terengganu",
        "State": "Terengganu"
    },
    {
        "Postcode": "20050",
        "Location": "Kampung Kubang Tangga",
        "Post_Office": "Kuala Terengganu",
        "State": "Terengganu"
    },
    {
        "Postcode": "20050",
        "Location": "Kampung Kubang Terap",
        "Post_Office": "Kuala Terengganu",
        "State": "Terengganu"
    },
    {
        "Postcode": "20050",
        "Location": "Kampung Melintang",
        "Post_Office": "Kuala Terengganu",
        "State": "Terengganu"
    },
    {
        "Postcode": "20050",
        "Location": "Kampung Merbau Patah",
        "Post_Office": "Kuala Terengganu",
        "State": "Terengganu"
    },
    {
        "Postcode": "20050",
        "Location": "Kampung Padang Sena",
        "Post_Office": "Kuala Terengganu",
        "State": "Terengganu"
    },
    {
        "Postcode": "20050",
        "Location": "Kampung Pak Pa",
        "Post_Office": "Kuala Terengganu",
        "State": "Terengganu"
    },
    {
        "Postcode": "20050",
        "Location": "Kampung Paloh Masjid",
        "Post_Office": "Kuala Terengganu",
        "State": "Terengganu"
    },
    {
        "Postcode": "20050",
        "Location": "Kampung Paloh Sekolah",
        "Post_Office": "Kuala Terengganu",
        "State": "Terengganu"
    },
    {
        "Postcode": "20050",
        "Location": "Kampung Paloh Sungai Kiat",
        "Post_Office": "Kuala Terengganu",
        "State": "Terengganu"
    },
    {
        "Postcode": "20050",
        "Location": "Kampung Paloh Tok Ku",
        "Post_Office": "Kuala Terengganu",
        "State": "Terengganu"
    },
    {
        "Postcode": "20050",
        "Location": "Kampung Paloh Tuan Sulong",
        "Post_Office": "Kuala Terengganu",
        "State": "Terengganu"
    },
    {
        "Postcode": "20050",
        "Location": "Kampung Panji",
        "Post_Office": "Kuala Terengganu",
        "State": "Terengganu"
    },
    {
        "Postcode": "20050",
        "Location": "Kampung Pengadang Baru",
        "Post_Office": "Kuala Terengganu",
        "State": "Terengganu"
    },
    {
        "Postcode": "20050",
        "Location": "Kampung Pengkalan Setar",
        "Post_Office": "Kuala Terengganu",
        "State": "Terengganu"
    },
    {
        "Postcode": "20050",
        "Location": "Kampung Pengkalan Star",
        "Post_Office": "Kuala Terengganu",
        "State": "Terengganu"
    },
    {
        "Postcode": "20050",
        "Location": "Kampung Pulau Musang",
        "Post_Office": "Kuala Terengganu",
        "State": "Terengganu"
    },
    {
        "Postcode": "20050",
        "Location": "Kampung Pulau Rusa",
        "Post_Office": "Kuala Terengganu",
        "State": "Terengganu"
    },
    {
        "Postcode": "20050",
        "Location": "Kampung Pulau Rusa Masjid",
        "Post_Office": "Kuala Terengganu",
        "State": "Terengganu"
    },
    {
        "Postcode": "20050",
        "Location": "Kampung Pulau Rusa Rang",
        "Post_Office": "Kuala Terengganu",
        "State": "Terengganu"
    },
    {
        "Postcode": "20050",
        "Location": "Kampung Pulau Rusa Sekolah",
        "Post_Office": "Kuala Terengganu",
        "State": "Terengganu"
    },
    {
        "Postcode": "20050",
        "Location": "Kampung Pulau Rusa Wan Nik",
        "Post_Office": "Kuala Terengganu",
        "State": "Terengganu"
    },
    {
        "Postcode": "20050",
        "Location": "Kampung Serada",
        "Post_Office": "Kuala Terengganu",
        "State": "Terengganu"
    },
    {
        "Postcode": "20050",
        "Location": "Kampung Sungai Rengas",
        "Post_Office": "Kuala Terengganu",
        "State": "Terengganu"
    },
    {
        "Postcode": "20050",
        "Location": "Kampung Tirok",
        "Post_Office": "Kuala Terengganu",
        "State": "Terengganu"
    },
    {
        "Postcode": "20050",
        "Location": "Kampung Titian Hangus",
        "Post_Office": "Kuala Terengganu",
        "State": "Terengganu"
    },
    {
        "Postcode": "20050",
        "Location": "Kampung Tok Badir",
        "Post_Office": "Kuala Terengganu",
        "State": "Terengganu"
    },
    {
        "Postcode": "20050",
        "Location": "Kampung Tok Jamal",
        "Post_Office": "Kuala Terengganu",
        "State": "Terengganu"
    },
    {
        "Postcode": "20050",
        "Location": "Kampung Tuan Nong",
        "Post_Office": "Kuala Terengganu",
        "State": "Terengganu"
    },
    {
        "Postcode": "20050",
        "Location": "Kampung Wakaf  Beruas",
        "Post_Office": "Kuala Terengganu",
        "State": "Terengganu"
    },
    {
        "Postcode": "20050",
        "Location": "Kampung Wakaf Mempelam",
        "Post_Office": "Kuala Terengganu",
        "State": "Terengganu"
    },
    {
        "Postcode": "20050",
        "Location": "Kampung Sungai Pinang",
        "Post_Office": "Kuala Terengganu",
        "State": "Terengganu"
    }
]
