[
    {
        "Postcode": "20100",
        "Location": "Kampung Kota Lama",
        "Post_Office": "Kuala Terengganu",
        "State": "Terengganu"
    },
    {
        "Postcode": "20100",
        "Location": "Taman Selera",
        "Post_Office": "Kuala Terengganu",
        "State": "Terengganu"
    },
    {
        "Postcode": "20100",
        "Location": "Jalan Bandar",
        "Post_Office": "Kuala Terengganu",
        "State": "Terengganu"
    },
    {
        "Postcode": "20100",
        "Location": "Jalan Banggol",
        "Post_Office": "Kuala Terengganu",
        "State": "Terengganu"
    },
    {
        "Postcode": "20100",
        "Location": "Jalan Belakang Kampung China",
        "Post_Office": "Kuala Terengganu",
        "State": "Terengganu"
    },
    {
        "Postcode": "20100",
        "Location": "Jalan Jail",
        "Post_Office": "Kuala Terengganu",
        "State": "Terengganu"
    },
    {
        "Postcode": "20100",
        "Location": "Jalan Kampung Dalam",
        "Post_Office": "Kuala Terengganu",
        "State": "Terengganu"
    },
    {
        "Postcode": "20100",
        "Location": "Jalan Kampung Tiong",
        "Post_Office": "Kuala Terengganu",
        "State": "Terengganu"
    },
    {
        "Postcode": "20100",
        "Location": "Jalan Kubor",
        "Post_Office": "Kuala Terengganu",
        "State": "Terengganu"
    },
    {
        "Postcode": "20100",
        "Location": "Jalan Masjid Abidin",
        "Post_Office": "Kuala Terengganu",
        "State": "Terengganu"
    },
    {
        "Postcode": "20100",
        "Location": "Jalan Pantai",
        "Post_Office": "Kuala Terengganu",
        "State": "Terengganu"
    },
    {
        "Postcode": "20100",
        "Location": "Jalan Syed Hussein",
        "Post_Office": "Kuala Terengganu",
        "State": "Terengganu"
    },
    {
        "Postcode": "20100",
        "Location": "Jalan Tok Lam",
        "Post_Office": "Kuala Terengganu",
        "State": "Terengganu"
    },
    {
        "Postcode": "20100",
        "Location": "Kampung Banggol",
        "Post_Office": "Kuala Terengganu",
        "State": "Terengganu"
    },
    {
        "Postcode": "20100",
        "Location": "Kampung Jail",
        "Post_Office": "Kuala Terengganu",
        "State": "Terengganu"
    },
    {
        "Postcode": "20100",
        "Location": "Kampung Paya Keladi",
        "Post_Office": "Kuala Terengganu",
        "State": "Terengganu"
    },
    {
        "Postcode": "20100",
        "Location": "Kampung Surau Puteh",
        "Post_Office": "Kuala Terengganu",
        "State": "Terengganu"
    },
    {
        "Postcode": "20100",
        "Location": "Kampung Surau Wan Su",
        "Post_Office": "Kuala Terengganu",
        "State": "Terengganu"
    },
    {
        "Postcode": "20100",
        "Location": "Kampung Telaga Panchor",
        "Post_Office": "Kuala Terengganu",
        "State": "Terengganu"
    },
    {
        "Postcode": "20100",
        "Location": "Kampung Tiong",
        "Post_Office": "Kuala Terengganu",
        "State": "Terengganu"
    },
    {
        "Postcode": "20100",
        "Location": "Kedai Payang",
        "Post_Office": "Kuala Terengganu",
        "State": "Terengganu"
    },
    {
        "Postcode": "20100",
        "Location": "Komplek Niaga Paya Bunga",
        "Post_Office": "Kuala Terengganu",
        "State": "Terengganu"
    },
    {
        "Postcode": "20100",
        "Location": "Lorong Haji Jamil",
        "Post_Office": "Kuala Terengganu",
        "State": "Terengganu"
    },
    {
        "Postcode": "20100",
        "Location": "Penguatkuasa Akta Penanaman Padi",
        "Post_Office": "Kuala Terengganu",
        "State": "Terengganu"
    },
    {
        "Postcode": "20100",
        "Location": "Pusat Perniagaan Paya Keladi",
        "Post_Office": "Kuala Terengganu",
        "State": "Terengganu"
    }
]
