[
    {
        "Postcode": "20200",
        "Location": "Jabatan Bekalan Air",
        "Post_Office": "Kuala Terengganu",
        "State": "Terengganu"
    },
    {
        "Postcode": "20200",
        "Location": "Jabatan Hal Ehwal Kesatuan Sekerja",
        "Post_Office": "Kuala Terengganu",
        "State": "Terengganu"
    },
    {
        "Postcode": "20200",
        "Location": "Jabatan Hutan Daerah Terengganu Utara",
        "Post_Office": "Kuala Terengganu",
        "State": "Terengganu"
    },
    {
        "Postcode": "20200",
        "Location": "Jalan Pejabat",
        "Post_Office": "Kuala Terengganu",
        "State": "Terengganu"
    },
    {
        "Postcode": "20200",
        "Location": "Jalan Sultan Ismail",
        "Post_Office": "Kuala Terengganu",
        "State": "Terengganu"
    },
    {
        "Postcode": "20200",
        "Location": "Jawatankuasa Keselamatan Negeri",
        "Post_Office": "Kuala Terengganu",
        "State": "Terengganu"
    },
    {
        "Postcode": "20200",
        "Location": "Lembaga Kemajuan Perindustrian (Mida)",
        "Post_Office": "Kuala Terengganu",
        "State": "Terengganu"
    },
    {
        "Postcode": "20200",
        "Location": "Lembaga Pasaran \u0026 Perusahaan Getah",
        "Post_Office": "Kuala Terengganu",
        "State": "Terengganu"
    },
    {
        "Postcode": "20200",
        "Location": "Lembaga Pelesenan Kenderaan (Lpkp)",
        "Post_Office": "Kuala Terengganu",
        "State": "Terengganu"
    },
    {
        "Postcode": "20200",
        "Location": "Lembaga Pelesenan Minyak Sawit",
        "Post_Office": "Kuala Terengganu",
        "State": "Terengganu"
    },
    {
        "Postcode": "20200",
        "Location": "Lembaga Pemasaran Pertanian",
        "Post_Office": "Kuala Terengganu",
        "State": "Terengganu"
    },
    {
        "Postcode": "20200",
        "Location": "Lembaga Tabung Haji",
        "Post_Office": "Kuala Terengganu",
        "State": "Terengganu"
    },
    {
        "Postcode": "20200",
        "Location": "Majlis Perbandaran Kuala Terengganu",
        "Post_Office": "Kuala Terengganu",
        "State": "Terengganu"
    },
    {
        "Postcode": "20200",
        "Location": "Muasasah Gadaian Islam",
        "Post_Office": "Kuala Terengganu",
        "State": "Terengganu"
    },
    {
        "Postcode": "20200",
        "Location": "Pejabat Pelancungan Malaysia  (Tdc)",
        "Post_Office": "Kuala Terengganu",
        "State": "Terengganu"
    },
    {
        "Postcode": "20200",
        "Location": "Perbadanan Kemajuan Iktisad Negeri Terengganu",
        "Post_Office": "Kuala Terengganu",
        "State": "Terengganu"
    },
    {
        "Postcode": "20200",
        "Location": "Pusat Khidmat Kontraktor",
        "Post_Office": "Kuala Terengganu",
        "State": "Terengganu"
    },
    {
        "Postcode": "20200",
        "Location": "Unit Kontrak Penyelenggaraan \u0026 Bumiputera",
        "Post_Office": "Kuala Terengganu",
        "State": "Terengganu"
    },
    {
        "Postcode": "20200",
        "Location": "Unit Perpaduan Ummah",
        "Post_Office": "Kuala Terengganu",
        "State": "Terengganu"
    },
    {
        "Postcode": "20200",
        "Location": "Wisma Persekutuan",
        "Post_Office": "Kuala Terengganu",
        "State": "Terengganu"
    }
]
