[
    {
        "Postcode": "20300",
        "Location": "Taman Alamanda 1",
        "Post_Office": "Kuala Terengganu",
        "State": "Terengganu"
    },
    {
        "Postcode": "20300",
        "Location": "Taman Anggerik Jaya",
        "Post_Office": "Kuala Terengganu",
        "State": "Terengganu"
    },
    {
        "Postcode": "20300",
        "Location": "Taman Sri Intan",
        "Post_Office": "Kuala Terengganu",
        "State": "Terengganu"
    },
    {
        "Postcode": "20300",
        "Location": "Taman Teratai",
        "Post_Office": "Kuala Terengganu",
        "State": "Terengganu"
    },
    {
        "Postcode": "20300",
        "Location": "Jabatan Pertanian Daerah",
        "Post_Office": "Kuala Terengganu",
        "State": "Terengganu"
    },
    {
        "Postcode": "20300",
        "Location": "Jalan Air Jernih",
        "Post_Office": "Kuala Terengganu",
        "State": "Terengganu"
    },
    {
        "Postcode": "20300",
        "Location": "Jalan Batas Baru",
        "Post_Office": "Kuala Terengganu",
        "State": "Terengganu"
    },
    {
        "Postcode": "20300",
        "Location": "Jalan Cherong Lanjut",
        "Post_Office": "Kuala Terengganu",
        "State": "Terengganu"
    },
    {
        "Postcode": "20300",
        "Location": "Jalan Hilir",
        "Post_Office": "Kuala Terengganu",
        "State": "Terengganu"
    },
    {
        "Postcode": "20300",
        "Location": "Jalan Kota Lama",
        "Post_Office": "Kuala Terengganu",
        "State": "Terengganu"
    },
    {
        "Postcode": "20300",
        "Location": "Jalan Mengadang Akar",
        "Post_Office": "Kuala Terengganu",
        "State": "Terengganu"
    },
    {
        "Postcode": "20300",
        "Location": "Jalan Sultan Omar",
        "Post_Office": "Kuala Terengganu",
        "State": "Terengganu"
    },
    {
        "Postcode": "20300",
        "Location": "Jalan Syed Zain",
        "Post_Office": "Kuala Terengganu",
        "State": "Terengganu"
    },
    {
        "Postcode": "20300",
        "Location": "Jalan Tekukor",
        "Post_Office": "Kuala Terengganu",
        "State": "Terengganu"
    },
    {
        "Postcode": "20300",
        "Location": "Kampung Batas Baru",
        "Post_Office": "Kuala Terengganu",
        "State": "Terengganu"
    },
    {
        "Postcode": "20300",
        "Location": "Kampung Bukit Jambol",
        "Post_Office": "Kuala Terengganu",
        "State": "Terengganu"
    },
    {
        "Postcode": "20300",
        "Location": "Kampung Paya Tok Ber",
        "Post_Office": "Kuala Terengganu",
        "State": "Terengganu"
    },
    {
        "Postcode": "20300",
        "Location": "Kampung Pengadang Akar",
        "Post_Office": "Kuala Terengganu",
        "State": "Terengganu"
    },
    {
        "Postcode": "20300",
        "Location": "Kampung Pulau Kambing",
        "Post_Office": "Kuala Terengganu",
        "State": "Terengganu"
    },
    {
        "Postcode": "20300",
        "Location": "Pejabat Felda",
        "Post_Office": "Kuala Terengganu",
        "State": "Terengganu"
    },
    {
        "Postcode": "20300",
        "Location": "Pejabat Shah Bandar Pantai Timur",
        "Post_Office": "Kuala Terengganu",
        "State": "Terengganu"
    },
    {
        "Postcode": "20300",
        "Location": "Taman Dalya",
        "Post_Office": "Kuala Terengganu",
        "State": "Terengganu"
    },
    {
        "Postcode": "20300",
        "Location": "Taman Hajjah Kelsom",
        "Post_Office": "Kuala Terengganu",
        "State": "Terengganu"
    },
    {
        "Postcode": "20300",
        "Location": "Taman Terkukur",
        "Post_Office": "Kuala Terengganu",
        "State": "Terengganu"
    },
    {
        "Postcode": "20300",
        "Location": "Yayasan Terengganu",
        "Post_Office": "Kuala Terengganu",
        "State": "Terengganu"
    },
    {
        "Postcode": "20300",
        "Location": "Kampung Balik Bukit",
        "Post_Office": "Kuala Terengganu",
        "State": "Terengganu"
    }
]
