[
    {
        "Postcode": "20400",
        "Location": "Kampung Batu Buruk",
        "Post_Office": "Kuala Terengganu",
        "State": "Terengganu"
    },
    {
        "Postcode": "20400",
        "Location": "Kampung Tok Adis",
        "Post_Office": "Kuala Terengganu",
        "State": "Terengganu"
    },
    {
        "Postcode": "20400",
        "Location": "Kampung Dusun",
        "Post_Office": "Kuala Terengganu",
        "State": "Terengganu"
    },
    {
        "Postcode": "20400",
        "Location": "Kampung Masjid Batu Buruk",
        "Post_Office": "Kuala Terengganu",
        "State": "Terengganu"
    },
    {
        "Postcode": "20400",
        "Location": "Kampung Titian Lembut",
        "Post_Office": "Kuala Terengganu",
        "State": "Terengganu"
    },
    {
        "Postcode": "20400",
        "Location": "Ibai Golf Country Resort",
        "Post_Office": "Kuala Terengganu",
        "State": "Terengganu"
    },
    {
        "Postcode": "20400",
        "Location": "Kampung Padang Luar",
        "Post_Office": "Kuala Terengganu",
        "State": "Terengganu"
    },
    {
        "Postcode": "20400",
        "Location": "Kuala Ibai",
        "Post_Office": "Kuala Terengganu",
        "State": "Terengganu"
    },
    {
        "Postcode": "20400",
        "Location": "Taman Alamanda 3",
        "Post_Office": "Kuala Terengganu",
        "State": "Terengganu"
    },
    {
        "Postcode": "20400",
        "Location": "Taman Alamanda 4",
        "Post_Office": "Kuala Terengganu",
        "State": "Terengganu"
    },
    {
        "Postcode": "20400",
        "Location": "Taman Dato Ismail",
        "Post_Office": "Kuala Terengganu",
        "State": "Terengganu"
    },
    {
        "Postcode": "20400",
        "Location": "Taman Dato Wan Salleh",
        "Post_Office": "Kuala Terengganu",
        "State": "Terengganu"
    },
    {
        "Postcode": "20400",
        "Location": "Taman Desa Ibai Permai 1",
        "Post_Office": "Kuala Terengganu",
        "State": "Terengganu"
    },
    {
        "Postcode": "20400",
        "Location": "Taman Green Acres",
        "Post_Office": "Kuala Terengganu",
        "State": "Terengganu"
    },
    {
        "Postcode": "20400",
        "Location": "Taman Ibai Indah",
        "Post_Office": "Kuala Terengganu",
        "State": "Terengganu"
    },
    {
        "Postcode": "20400",
        "Location": "Taman Ibai Jaya",
        "Post_Office": "Kuala Terengganu",
        "State": "Terengganu"
    },
    {
        "Postcode": "20400",
        "Location": "Taman Koperasi",
        "Post_Office": "Kuala Terengganu",
        "State": "Terengganu"
    },
    {
        "Postcode": "20400",
        "Location": "Taman Midah",
        "Post_Office": "Kuala Terengganu",
        "State": "Terengganu"
    },
    {
        "Postcode": "20400",
        "Location": "Taman Sri Bayu",
        "Post_Office": "Kuala Terengganu",
        "State": "Terengganu"
    },
    {
        "Postcode": "20400",
        "Location": "Jalan Dato Amar",
        "Post_Office": "Kuala Terengganu",
        "State": "Terengganu"
    },
    {
        "Postcode": "20400",
        "Location": "Jalan Haji Busu",
        "Post_Office": "Kuala Terengganu",
        "State": "Terengganu"
    },
    {
        "Postcode": "20400",
        "Location": "Jalan Kamaruddin",
        "Post_Office": "Kuala Terengganu",
        "State": "Terengganu"
    },
    {
        "Postcode": "20400",
        "Location": "Jalan Peranginan",
        "Post_Office": "Kuala Terengganu",
        "State": "Terengganu"
    },
    {
        "Postcode": "20400",
        "Location": "Jalan Pusara",
        "Post_Office": "Kuala Terengganu",
        "State": "Terengganu"
    },
    {
        "Postcode": "20400",
        "Location": "Jalan Sultan Mahmud",
        "Post_Office": "Kuala Terengganu",
        "State": "Terengganu"
    },
    {
        "Postcode": "20400",
        "Location": "Kampung Banggol Tok Mudin",
        "Post_Office": "Kuala Terengganu",
        "State": "Terengganu"
    },
    {
        "Postcode": "20400",
        "Location": "Kampung Gong Kemunting",
        "Post_Office": "Kuala Terengganu",
        "State": "Terengganu"
    },
    {
        "Postcode": "20400",
        "Location": "Kampung Kolam Kuala Ibai",
        "Post_Office": "Kuala Terengganu",
        "State": "Terengganu"
    },
    {
        "Postcode": "20400",
        "Location": "Kampung Kuala Ibai",
        "Post_Office": "Kuala Terengganu",
        "State": "Terengganu"
    },
    {
        "Postcode": "20400",
        "Location": "Kampung Ladang Hospital",
        "Post_Office": "Kuala Terengganu",
        "State": "Terengganu"
    },
    {
        "Postcode": "20400",
        "Location": "Kampung Ladang Sheikh Ibrahim",
        "Post_Office": "Kuala Terengganu",
        "State": "Terengganu"
    },
    {
        "Postcode": "20400",
        "Location": "Kampung Ladang Sihat",
        "Post_Office": "Kuala Terengganu",
        "State": "Terengganu"
    },
    {
        "Postcode": "20400",
        "Location": "Kampung Mengabang Tengah",
        "Post_Office": "Kuala Terengganu",
        "State": "Terengganu"
    },
    {
        "Postcode": "20400",
        "Location": "Kampung Mengabang Tengah Masjid",
        "Post_Office": "Kuala Terengganu",
        "State": "Terengganu"
    },
    {
        "Postcode": "20400",
        "Location": "Kampung Pantai Kuala Ibai",
        "Post_Office": "Kuala Terengganu",
        "State": "Terengganu"
    },
    {
        "Postcode": "20400",
        "Location": "Lembaga Tembakau Negara",
        "Post_Office": "Kuala Terengganu",
        "State": "Terengganu"
    },
    {
        "Postcode": "20400",
        "Location": "Lorong Budiman",
        "Post_Office": "Kuala Terengganu",
        "State": "Terengganu"
    },
    {
        "Postcode": "20400",
        "Location": "Lorong Haji Da",
        "Post_Office": "Kuala Terengganu",
        "State": "Terengganu"
    },
    {
        "Postcode": "20400",
        "Location": "Lorong Pandan",
        "Post_Office": "Kuala Terengganu",
        "State": "Terengganu"
    },
    {
        "Postcode": "20400",
        "Location": "Lorong Temasya Pantai",
        "Post_Office": "Kuala Terengganu",
        "State": "Terengganu"
    },
    {
        "Postcode": "20400",
        "Location": "Taman Purnama",
        "Post_Office": "Kuala Terengganu",
        "State": "Terengganu"
    },
    {
        "Postcode": "20400",
        "Location": "Taman Salimor 2",
        "Post_Office": "Kuala Terengganu",
        "State": "Terengganu"
    },
    {
        "Postcode": "20400",
        "Location": "Jalan Kenanga",
        "Post_Office": "Kuala Terengganu",
        "State": "Terengganu"
    },
    {
        "Postcode": "20400",
        "Location": "Taman Mawar",
        "Post_Office": "Kuala Terengganu",
        "State": "Terengganu"
    },
    {
        "Postcode": "20400",
        "Location": "Taman Jaya",
        "Post_Office": "Kuala Terengganu",
        "State": "Terengganu"
    }
]
