[
    {
        "Postcode": "20700",
        "Location": "Kuala Terengganu - Peti Surat   1 - 3",
        "Post_Office": "Kuala Terengganu",
        "State": "Terengganu"
    },
    {
        "Postcode": "20700",
        "Location": "Kuala Terengganu - Peti Surat 19 - 42",
        "Post_Office": "Kuala Terengganu",
        "State": "Terengganu"
    },
    {
        "Postcode": "20700",
        "Location": "Kuala Terengganu - Peti Surat 44 - 49",
        "Post_Office": "Kuala Terengganu",
        "State": "Terengganu"
    },
    {
        "Postcode": "20700",
        "Location": "Kuala Terengganu - Peti Surat 5 - 17",
        "Post_Office": "Kuala Terengganu",
        "State": "Terengganu"
    },
    {
        "Postcode": "20700",
        "Location": "Kuala Terengganu - Peti Surat 52 - 55",
        "Post_Office": "Kuala Terengganu",
        "State": "Terengganu"
    },
    {
        "Postcode": "20700",
        "Location": "Kuala Terengganu - Peti Surat 58 - 62",
        "Post_Office": "Kuala Terengganu",
        "State": "Terengganu"
    },
    {
        "Postcode": "20700",
        "Location": "Kuala Terengganu - Peti Surat 64",
        "Post_Office": "Kuala Terengganu",
        "State": "Terengganu"
    },
    {
        "Postcode": "20700",
        "Location": "Kuala Terengganu - Peti Surat 69 - 80",
        "Post_Office": "Kuala Terengganu",
        "State": "Terengganu"
    }
]
