[
    {
        "Postcode": "36000",
        "Location": "Parit 15A, Sungai Lampan",
        "Post_Office": "Teluk Intan",
        "State": "Perak"
    },
    {
        "Postcode": "36000",
        "Location": "Parit 16A, Sungai Lampan",
        "Post_Office": "Teluk Intan",
        "State": "Perak"
    },
    {
        "Postcode": "36000",
        "Location": "Parit 17A, Sungai Lampan",
        "Post_Office": "Teluk Intan",
        "State": "Perak"
    },
    {
        "Postcode": "36000",
        "Location": "Parit 18A, Sungai Lampan",
        "Post_Office": "Teluk Intan",
        "State": "Perak"
    },
    {
        "Postcode": "36000",
        "Location": "Parit 19A, Sungai Lampan",
        "Post_Office": "Teluk Intan",
        "State": "Perak"
    },
    {
        "Postcode": "36000",
        "Location": "Parit 1A, Sungai Manik",
        "Post_Office": "Teluk Intan",
        "State": "Perak"
    },
    {
        "Postcode": "36000",
        "Location": "Parit 2A, Sungai Manik",
        "Post_Office": "Teluk Intan",
        "State": "Perak"
    },
    {
        "Postcode": "36000",
        "Location": "Parit 3A, Sungai Manik",
        "Post_Office": "Teluk Intan",
        "State": "Perak"
    },
    {
        "Postcode": "36000",
        "Location": "Taman Indah Jaya 1",
        "Post_Office": "Teluk Intan",
        "State": "Perak"
    },
    {
        "Postcode": "36000",
        "Location": "Taman Indah Jaya 2",
        "Post_Office": "Teluk Intan",
        "State": "Perak"
    },
    {
        "Postcode": "36000",
        "Location": "Taman Padang Tembak 3",
        "Post_Office": "Teluk Intan",
        "State": "Perak"
    },
    {
        "Postcode": "36000",
        "Location": "Taman Padang Tembak 4",
        "Post_Office": "Teluk Intan",
        "State": "Perak"
    },
    {
        "Postcode": "36000",
        "Location": "Taman Padang Tembak 5",
        "Post_Office": "Teluk Intan",
        "State": "Perak"
    },
    {
        "Postcode": "36000",
        "Location": "Kampung Batu 9",
        "Post_Office": "Teluk Intan",
        "State": "Perak"
    },
    {
        "Postcode": "36000",
        "Location": "Kampung Muhibbah",
        "Post_Office": "Teluk Intan",
        "State": "Perak"
    },
    {
        "Postcode": "36000",
        "Location": "Kampung Pisang",
        "Post_Office": "Teluk Intan",
        "State": "Perak"
    },
    {
        "Postcode": "36000",
        "Location": "Kampung Sungai Durian",
        "Post_Office": "Teluk Intan",
        "State": "Perak"
    },
    {
        "Postcode": "36000",
        "Location": "Kampung Tersusun",
        "Post_Office": "Teluk Intan",
        "State": "Perak"
    },
    {
        "Postcode": "36000",
        "Location": "Pekan Baru",
        "Post_Office": "Teluk Intan",
        "State": "Perak"
    },
    {
        "Postcode": "36000",
        "Location": "Sungai Nibong",
        "Post_Office": "Teluk Intan",
        "State": "Perak"
    },
    {
        "Postcode": "36000",
        "Location": "Taman Bistari",
        "Post_Office": "Teluk Intan",
        "State": "Perak"
    },
    {
        "Postcode": "36000",
        "Location": "Taman Cahaya",
        "Post_Office": "Teluk Intan",
        "State": "Perak"
    },
    {
        "Postcode": "36000",
        "Location": "Taman Eastern",
        "Post_Office": "Teluk Intan",
        "State": "Perak"
    },
    {
        "Postcode": "36000",
        "Location": "Taman Happy",
        "Post_Office": "Teluk Intan",
        "State": "Perak"
    },
    {
        "Postcode": "36000",
        "Location": "Taman Impiana",
        "Post_Office": "Teluk Intan",
        "State": "Perak"
    },
    {
        "Postcode": "36000",
        "Location": "Taman Jaya",
        "Post_Office": "Teluk Intan",
        "State": "Perak"
    },
    {
        "Postcode": "36000",
        "Location": "Taman Murni ",
        "Post_Office": "Teluk Intan",
        "State": "Perak"
    },
    {
        "Postcode": "36000",
        "Location": "Kampung Guru",
        "Post_Office": "Teluk Intan",
        "State": "Perak"
    },
    {
        "Postcode": "36000",
        "Location": "Taman Semarak",
        "Post_Office": "Teluk Intan",
        "State": "Perak"
    },
    {
        "Postcode": "36000",
        "Location": "Kampung Terengganu",
        "Post_Office": "Teluk Intan",
        "State": "Perak"
    },
    {
        "Postcode": "36000",
        "Location": "Taman Bersatu",
        "Post_Office": "Teluk Intan",
        "State": "Perak"
    },
    {
        "Postcode": "36000",
        "Location": "Kampung Sungai Buloh",
        "Post_Office": "Teluk Intan",
        "State": "Perak"
    },
    {
        "Postcode": "36000",
        "Location": "Kampung Padang Tembak",
        "Post_Office": "Teluk Intan",
        "State": "Perak"
    },
    {
        "Postcode": "36000",
        "Location": "Taman Anson",
        "Post_Office": "Teluk Intan",
        "State": "Perak"
    },
    {
        "Postcode": "36000",
        "Location": "Taman Bunga Raya",
        "Post_Office": "Teluk Intan",
        "State": "Perak"
    },
    {
        "Postcode": "36000",
        "Location": "Taman Kampar",
        "Post_Office": "Teluk Intan",
        "State": "Perak"
    },
    {
        "Postcode": "36000",
        "Location": "Taman Maju",
        "Post_Office": "Teluk Intan",
        "State": "Perak"
    },
    {
        "Postcode": "36000",
        "Location": "Taman Melati",
        "Post_Office": "Teluk Intan",
        "State": "Perak"
    },
    {
        "Postcode": "36000",
        "Location": "Taman Panglima",
        "Post_Office": "Teluk Intan",
        "State": "Perak"
    },
    {
        "Postcode": "36000",
        "Location": "Taman Pelangi",
        "Post_Office": "Teluk Intan",
        "State": "Perak"
    },
    {
        "Postcode": "36000",
        "Location": "Taman Perwira",
        "Post_Office": "Teluk Intan",
        "State": "Perak"
    },
    {
        "Postcode": "36000",
        "Location": "Jalan Padang Tembak",
        "Post_Office": "Teluk Intan",
        "State": "Perak"
    },
    {
        "Postcode": "36000",
        "Location": "Antek Avenue",
        "Post_Office": "Teluk Intan",
        "State": "Perak"
    },
    {
        "Postcode": "36000",
        "Location": "Balai Polis Jalan Kampung Bahagia",
        "Post_Office": "Teluk Intan",
        "State": "Perak"
    },
    {
        "Postcode": "36000",
        "Location": "Bandar Baru Telok Intan",
        "Post_Office": "Teluk Intan",
        "State": "Perak"
    },
    {
        "Postcode": "36000",
        "Location": "Bangunan Tabung Haji Jalan Speedy",
        "Post_Office": "Teluk Intan",
        "State": "Perak"
    },
    {
        "Postcode": "36000",
        "Location": "Business Shopping Centre",
        "Post_Office": "Teluk Intan",
        "State": "Perak"
    },
    {
        "Postcode": "36000",
        "Location": "Cystal Gulf Jalan Pasar",
        "Post_Office": "Teluk Intan",
        "State": "Perak"
    },
    {
        "Postcode": "36000",
        "Location": "Felcra Seberang Perak",
        "Post_Office": "Teluk Intan",
        "State": "Perak"
    },
    {
        "Postcode": "36000",
        "Location": "Gerai Majlis Daerah Jalan Pasar",
        "Post_Office": "Teluk Intan",
        "State": "Perak"
    },
    {
        "Postcode": "36000",
        "Location": "Imperial Business Park",
        "Post_Office": "Teluk Intan",
        "State": "Perak"
    },
    {
        "Postcode": "36000",
        "Location": "Jalan Laksamana Fasa 2",
        "Post_Office": "Teluk Intan",
        "State": "Perak"
    },
    {
        "Postcode": "36000",
        "Location": "Jalan Manggis",
        "Post_Office": "Teluk Intan",
        "State": "Perak"
    },
    {
        "Postcode": "36000",
        "Location": "Jalan Sultan Abdullah",
        "Post_Office": "Teluk Intan",
        "State": "Perak"
    },
    {
        "Postcode": "36000",
        "Location": "Jalan Sungai Manik",
        "Post_Office": "Teluk Intan",
        "State": "Perak"
    },
    {
        "Postcode": "36000",
        "Location": "Jalan Sungai Nibong",
        "Post_Office": "Teluk Intan",
        "State": "Perak"
    },
    {
        "Postcode": "36000",
        "Location": "Kampung Barat",
        "Post_Office": "Teluk Intan",
        "State": "Perak"
    },
    {
        "Postcode": "36000",
        "Location": "Kampung Baru Changkat Jong",
        "Post_Office": "Teluk Intan",
        "State": "Perak"
    },
    {
        "Postcode": "36000",
        "Location": "Kampung Baru Grantina",
        "Post_Office": "Teluk Intan",
        "State": "Perak"
    },
    {
        "Postcode": "36000",
        "Location": "Kampung Batak Rabit",
        "Post_Office": "Teluk Intan",
        "State": "Perak"
    },
    {
        "Postcode": "36000",
        "Location": "Kampung Batu 2 1/2 (Jalan Maharaja)",
        "Post_Office": "Teluk Intan",
        "State": "Perak"
    },
    {
        "Postcode": "36000",
        "Location": "Kampung Cicely",
        "Post_Office": "Teluk Intan",
        "State": "Perak"
    },
    {
        "Postcode": "36000",
        "Location": "Kampung Esso",
        "Post_Office": "Teluk Intan",
        "State": "Perak"
    },
    {
        "Postcode": "36000",
        "Location": "Kampung Gloucester",
        "Post_Office": "Teluk Intan",
        "State": "Perak"
    },
    {
        "Postcode": "36000",
        "Location": "Kampung Indra",
        "Post_Office": "Teluk Intan",
        "State": "Perak"
    },
    {
        "Postcode": "36000",
        "Location": "Kampung Jalan Banjar",
        "Post_Office": "Teluk Intan",
        "State": "Perak"
    },
    {
        "Postcode": "36000",
        "Location": "Kampung Kuala Sungai Manek",
        "Post_Office": "Teluk Intan",
        "State": "Perak"
    },
    {
        "Postcode": "36000",
        "Location": "Kampung Law Sam",
        "Post_Office": "Teluk Intan",
        "State": "Perak"
    },
    {
        "Postcode": "36000",
        "Location": "Kampung Limau",
        "Post_Office": "Teluk Intan",
        "State": "Perak"
    },
    {
        "Postcode": "36000",
        "Location": "Kampung Lorong Haji Tahir",
        "Post_Office": "Teluk Intan",
        "State": "Perak"
    },
    {
        "Postcode": "36000",
        "Location": "Kampung Lorong Pinang",
        "Post_Office": "Teluk Intan",
        "State": "Perak"
    },
    {
        "Postcode": "36000",
        "Location": "Kampung Lubok Keli",
        "Post_Office": "Teluk Intan",
        "State": "Perak"
    },
    {
        "Postcode": "36000",
        "Location": "Kampung Matang Guntong",
        "Post_Office": "Teluk Intan",
        "State": "Perak"
    },
    {
        "Postcode": "36000",
        "Location": "Kampung Merdeka",
        "Post_Office": "Teluk Intan",
        "State": "Perak"
    },
    {
        "Postcode": "36000",
        "Location": "Kampung Padang Tembak Dalam",
        "Post_Office": "Teluk Intan",
        "State": "Perak"
    },
    {
        "Postcode": "36000",
        "Location": "Kampung Padang Tembak Luar",
        "Post_Office": "Teluk Intan",
        "State": "Perak"
    },
    {
        "Postcode": "36000",
        "Location": "Kampung Sarang Tiong",
        "Post_Office": "Teluk Intan",
        "State": "Perak"
    },
    {
        "Postcode": "36000",
        "Location": "Kampung Selabak (Batu 3 - 4)",
        "Post_Office": "Teluk Intan",
        "State": "Perak"
    },
    {
        "Postcode": "36000",
        "Location": "Kampung Selat Masjid",
        "Post_Office": "Teluk Intan",
        "State": "Perak"
    },
    {
        "Postcode": "36000",
        "Location": "Kampung Stesen Tiga",
        "Post_Office": "Teluk Intan",
        "State": "Perak"
    },
    {
        "Postcode": "36000",
        "Location": "Kampung Sungai Buaya",
        "Post_Office": "Teluk Intan",
        "State": "Perak"
    },
    {
        "Postcode": "36000",
        "Location": "Kampung Sungai Dedap",
        "Post_Office": "Teluk Intan",
        "State": "Perak"
    },
    {
        "Postcode": "36000",
        "Location": "Kampung Sungai Durian Darat",
        "Post_Office": "Teluk Intan",
        "State": "Perak"
    },
    {
        "Postcode": "36000",
        "Location": "Kampung Sungai Jejawi",
        "Post_Office": "Teluk Intan",
        "State": "Perak"
    },
    {
        "Postcode": "36000",
        "Location": "Kampung Sungai Kerawai",
        "Post_Office": "Teluk Intan",
        "State": "Perak"
    },
    {
        "Postcode": "36000",
        "Location": "Kampung Sungai Manik",
        "Post_Office": "Teluk Intan",
        "State": "Perak"
    },
    {
        "Postcode": "36000",
        "Location": "Kampung Sungai Nyior",
        "Post_Office": "Teluk Intan",
        "State": "Perak"
    },
    {
        "Postcode": "36000",
        "Location": "Kampung Sungai Pak Kalong",
        "Post_Office": "Teluk Intan",
        "State": "Perak"
    },
    {
        "Postcode": "36000",
        "Location": "Kampung Sungai Pulai",
        "Post_Office": "Teluk Intan",
        "State": "Perak"
    },
    {
        "Postcode": "36000",
        "Location": "Kampung Sungai Rubana",
        "Post_Office": "Teluk Intan",
        "State": "Perak"
    },
    {
        "Postcode": "36000",
        "Location": "Kampung Sungai Rusa",
        "Post_Office": "Teluk Intan",
        "State": "Perak"
    },
    {
        "Postcode": "36000",
        "Location": "Kampung Sungai Tungku",
        "Post_Office": "Teluk Intan",
        "State": "Perak"
    },
    {
        "Postcode": "36000",
        "Location": "Kampung Tanjong Rawa",
        "Post_Office": "Teluk Intan",
        "State": "Perak"
    },
    {
        "Postcode": "36000",
        "Location": "Kampung Tanjong Sari",
        "Post_Office": "Teluk Intan",
        "State": "Perak"
    },
    {
        "Postcode": "36000",
        "Location": "Kampung Telok Birah",
        "Post_Office": "Teluk Intan",
        "State": "Perak"
    },
    {
        "Postcode": "36000",
        "Location": "Kampung Telok Rubiah",
        "Post_Office": "Teluk Intan",
        "State": "Perak"
    },
    {
        "Postcode": "36000",
        "Location": "Kompleks Agama Islam Jalan Raja Musa",
        "Post_Office": "Teluk Intan",
        "State": "Perak"
    },
    {
        "Postcode": "36000",
        "Location": "Kompleks Menara Condong",
        "Post_Office": "Teluk Intan",
        "State": "Perak"
    },
    {
        "Postcode": "36000",
        "Location": "Kompleksskomk Jalan Mahkamah",
        "Post_Office": "Teluk Intan",
        "State": "Perak"
    },
    {
        "Postcode": "36000",
        "Location": "Kuarters Guru Sekolah Kebangsaan Perwira",
        "Post_Office": "Teluk Intan",
        "State": "Perak"
    },
    {
        "Postcode": "36000",
        "Location": "Kuarters Guru Sri Intan Jalan Maharani",
        "Post_Office": "Teluk Intan",
        "State": "Perak"
    },
    {
        "Postcode": "36000",
        "Location": "Kuarters Polis Jalan Kampung Bahagia",
        "Post_Office": "Teluk Intan",
        "State": "Perak"
    },
    {
        "Postcode": "36000",
        "Location": "Kuaters Pendidikan Jalan Maharani",
        "Post_Office": "Teluk Intan",
        "State": "Perak"
    },
    {
        "Postcode": "36000",
        "Location": "Kunci Air 4",
        "Post_Office": "Teluk Intan",
        "State": "Perak"
    },
    {
        "Postcode": "36000",
        "Location": "Ladang Kuala Bikam",
        "Post_Office": "Teluk Intan",
        "State": "Perak"
    },
    {
        "Postcode": "36000",
        "Location": "Mahkamah Syariah Jalan Raja Musa",
        "Post_Office": "Teluk Intan",
        "State": "Perak"
    },
    {
        "Postcode": "36000",
        "Location": "Matang Guntong",
        "Post_Office": "Teluk Intan",
        "State": "Perak"
    },
    {
        "Postcode": "36000",
        "Location": "Medan Mak Intan Jalan Mahkota",
        "Post_Office": "Teluk Intan",
        "State": "Perak"
    },
    {
        "Postcode": "36000",
        "Location": "Pasar Besar Jalan Woo Saik Hong",
        "Post_Office": "Teluk Intan",
        "State": "Perak"
    },
    {
        "Postcode": "36000",
        "Location": "Pasir Bedamar",
        "Post_Office": "Teluk Intan",
        "State": "Perak"
    },
    {
        "Postcode": "36000",
        "Location": "Rancangan Belia",
        "Post_Office": "Teluk Intan",
        "State": "Perak"
    },
    {
        "Postcode": "36000",
        "Location": "Seberang Perak",
        "Post_Office": "Teluk Intan",
        "State": "Perak"
    },
    {
        "Postcode": "36000",
        "Location": "Subak Kali",
        "Post_Office": "Teluk Intan",
        "State": "Perak"
    },
    {
        "Postcode": "36000",
        "Location": "Sungai Buaya",
        "Post_Office": "Teluk Intan",
        "State": "Perak"
    },
    {
        "Postcode": "36000",
        "Location": "Sungai Derdap",
        "Post_Office": "Teluk Intan",
        "State": "Perak"
    },
    {
        "Postcode": "36000",
        "Location": "Sungai Nyior",
        "Post_Office": "Teluk Intan",
        "State": "Perak"
    },
    {
        "Postcode": "36000",
        "Location": "Sungai Pari",
        "Post_Office": "Teluk Intan",
        "State": "Perak"
    },
    {
        "Postcode": "36000",
        "Location": "Sungai Pulai",
        "Post_Office": "Teluk Intan",
        "State": "Perak"
    },
    {
        "Postcode": "36000",
        "Location": "Sungai Rubana",
        "Post_Office": "Teluk Intan",
        "State": "Perak"
    },
    {
        "Postcode": "36000",
        "Location": "Sungai Rusa",
        "Post_Office": "Teluk Intan",
        "State": "Perak"
    },
    {
        "Postcode": "36000",
        "Location": "Sungai Timah",
        "Post_Office": "Teluk Intan",
        "State": "Perak"
    },
    {
        "Postcode": "36000",
        "Location": "Sungai Tungku",
        "Post_Office": "Teluk Intan",
        "State": "Perak"
    },
    {
        "Postcode": "36000",
        "Location": "Taman Angkasa 1",
        "Post_Office": "Teluk Intan",
        "State": "Perak"
    },
    {
        "Postcode": "36000",
        "Location": "Taman Banjar Jaya 3",
        "Post_Office": "Teluk Intan",
        "State": "Perak"
    },
    {
        "Postcode": "36000",
        "Location": "Taman Beca",
        "Post_Office": "Teluk Intan",
        "State": "Perak"
    },
    {
        "Postcode": "36000",
        "Location": "Taman Bersatu 2",
        "Post_Office": "Teluk Intan",
        "State": "Perak"
    },
    {
        "Postcode": "36000",
        "Location": "Taman Cahaya Changkat Jong",
        "Post_Office": "Teluk Intan",
        "State": "Perak"
    },
    {
        "Postcode": "36000",
        "Location": "Taman Changkat",
        "Post_Office": "Teluk Intan",
        "State": "Perak"
    },
    {
        "Postcode": "36000",
        "Location": "Taman Cicely",
        "Post_Office": "Teluk Intan",
        "State": "Perak"
    },
    {
        "Postcode": "36000",
        "Location": "Taman Cicely Jaya",
        "Post_Office": "Teluk Intan",
        "State": "Perak"
    },
    {
        "Postcode": "36000",
        "Location": "Taman Cicely Maju",
        "Post_Office": "Teluk Intan",
        "State": "Perak"
    },
    {
        "Postcode": "36000",
        "Location": "Taman Desa Bahagia",
        "Post_Office": "Teluk Intan",
        "State": "Perak"
    },
    {
        "Postcode": "36000",
        "Location": "Taman Desa Bakti 2",
        "Post_Office": "Teluk Intan",
        "State": "Perak"
    },
    {
        "Postcode": "36000",
        "Location": "Taman Desa Bakti 3",
        "Post_Office": "Teluk Intan",
        "State": "Perak"
    },
    {
        "Postcode": "36000",
        "Location": "Taman Desa Caely 2",
        "Post_Office": "Teluk Intan",
        "State": "Perak"
    },
    {
        "Postcode": "36000",
        "Location": "Taman Desa Laksamana",
        "Post_Office": "Teluk Intan",
        "State": "Perak"
    },
    {
        "Postcode": "36000",
        "Location": "Taman Desa Mahkota",
        "Post_Office": "Teluk Intan",
        "State": "Perak"
    },
    {
        "Postcode": "36000",
        "Location": "Taman Desa Mulia",
        "Post_Office": "Teluk Intan",
        "State": "Perak"
    },
    {
        "Postcode": "36000",
        "Location": "Taman Desa Ramah",
        "Post_Office": "Teluk Intan",
        "State": "Perak"
    },
    {
        "Postcode": "36000",
        "Location": "Taman Diamond",
        "Post_Office": "Teluk Intan",
        "State": "Perak"
    },
    {
        "Postcode": "36000",
        "Location": "Taman Eng Lee",
        "Post_Office": "Teluk Intan",
        "State": "Perak"
    },
    {
        "Postcode": "36000",
        "Location": "Taman Fajar",
        "Post_Office": "Teluk Intan",
        "State": "Perak"
    },
    {
        "Postcode": "36000",
        "Location": "Taman Hock Seng",
        "Post_Office": "Teluk Intan",
        "State": "Perak"
    },
    {
        "Postcode": "36000",
        "Location": "Taman Ikhlas",
        "Post_Office": "Teluk Intan",
        "State": "Perak"
    },
    {
        "Postcode": "36000",
        "Location": "Taman Impian Fasa 2",
        "Post_Office": "Teluk Intan",
        "State": "Perak"
    },
    {
        "Postcode": "36000",
        "Location": "Taman Industri Anson",
        "Post_Office": "Teluk Intan",
        "State": "Perak"
    },
    {
        "Postcode": "36000",
        "Location": "Taman Intan Baiduri",
        "Post_Office": "Teluk Intan",
        "State": "Perak"
    },
    {
        "Postcode": "36000",
        "Location": "Taman Intan Baru",
        "Post_Office": "Teluk Intan",
        "State": "Perak"
    },
    {
        "Postcode": "36000",
        "Location": "Taman Intan Mas Fasa 3",
        "Post_Office": "Teluk Intan",
        "State": "Perak"
    },
    {
        "Postcode": "36000",
        "Location": "Taman Intan Mutiara Fasa 1",
        "Post_Office": "Teluk Intan",
        "State": "Perak"
    },
    {
        "Postcode": "36000",
        "Location": "Taman Intan Nova",
        "Post_Office": "Teluk Intan",
        "State": "Perak"
    },
    {
        "Postcode": "36000",
        "Location": "Taman Jelawat",
        "Post_Office": "Teluk Intan",
        "State": "Perak"
    },
    {
        "Postcode": "36000",
        "Location": "Taman Juta Intan",
        "Post_Office": "Teluk Intan",
        "State": "Perak"
    },
    {
        "Postcode": "36000",
        "Location": "Taman Kean Seng",
        "Post_Office": "Teluk Intan",
        "State": "Perak"
    },
    {
        "Postcode": "36000",
        "Location": "Taman Kim Aun",
        "Post_Office": "Teluk Intan",
        "State": "Perak"
    },
    {
        "Postcode": "36000",
        "Location": "Taman Koperasi ",
        "Post_Office": "Teluk Intan",
        "State": "Perak"
    },
    {
        "Postcode": "36000",
        "Location": "Taman Kopi",
        "Post_Office": "Teluk Intan",
        "State": "Perak"
    },
    {
        "Postcode": "36000",
        "Location": "Taman Laksamana",
        "Post_Office": "Teluk Intan",
        "State": "Perak"
    },
    {
        "Postcode": "36000",
        "Location": "Taman Lucky",
        "Post_Office": "Teluk Intan",
        "State": "Perak"
    },
    {
        "Postcode": "36000",
        "Location": "Taman Maharajalela",
        "Post_Office": "Teluk Intan",
        "State": "Perak"
    },
    {
        "Postcode": "36000",
        "Location": "Taman Maharani ",
        "Post_Office": "Teluk Intan",
        "State": "Perak"
    },
    {
        "Postcode": "36000",
        "Location": "Taman Maju Indah 2",
        "Post_Office": "Teluk Intan",
        "State": "Perak"
    },
    {
        "Postcode": "36000",
        "Location": "Taman Maju Intan",
        "Post_Office": "Teluk Intan",
        "State": "Perak"
    },
    {
        "Postcode": "36000",
        "Location": "Taman Mastika",
        "Post_Office": "Teluk Intan",
        "State": "Perak"
    },
    {
        "Postcode": "36000",
        "Location": "Taman Melati Fasa 2",
        "Post_Office": "Teluk Intan",
        "State": "Perak"
    },
    {
        "Postcode": "36000",
        "Location": "Taman Melor Tambahnan",
        "Post_Office": "Teluk Intan",
        "State": "Perak"
    },
    {
        "Postcode": "36000",
        "Location": "Taman Merbuk",
        "Post_Office": "Teluk Intan",
        "State": "Perak"
    },
    {
        "Postcode": "36000",
        "Location": "Taman Metah",
        "Post_Office": "Teluk Intan",
        "State": "Perak"
    },
    {
        "Postcode": "36000",
        "Location": "Taman New Hoover",
        "Post_Office": "Teluk Intan",
        "State": "Perak"
    },
    {
        "Postcode": "36000",
        "Location": "Taman Orchid (Batu 4)",
        "Post_Office": "Teluk Intan",
        "State": "Perak"
    },
    {
        "Postcode": "36000",
        "Location": "Taman Pearl",
        "Post_Office": "Teluk Intan",
        "State": "Perak"
    },
    {
        "Postcode": "36000",
        "Location": "Taman Perkasa",
        "Post_Office": "Teluk Intan",
        "State": "Perak"
    },
    {
        "Postcode": "36000",
        "Location": "Taman Peruda",
        "Post_Office": "Teluk Intan",
        "State": "Perak"
    },
    {
        "Postcode": "36000",
        "Location": "Taman Pesaka",
        "Post_Office": "Teluk Intan",
        "State": "Perak"
    },
    {
        "Postcode": "36000",
        "Location": "Taman Raja Musa",
        "Post_Office": "Teluk Intan",
        "State": "Perak"
    },
    {
        "Postcode": "36000",
        "Location": "Taman Rethna",
        "Post_Office": "Teluk Intan",
        "State": "Perak"
    },
    {
        "Postcode": "36000",
        "Location": "Taman Ros",
        "Post_Office": "Teluk Intan",
        "State": "Perak"
    },
    {
        "Postcode": "36000",
        "Location": "Taman Semesti",
        "Post_Office": "Teluk Intan",
        "State": "Perak"
    },
    {
        "Postcode": "36000",
        "Location": "Taman Semesti Fasa 2",
        "Post_Office": "Teluk Intan",
        "State": "Perak"
    },
    {
        "Postcode": "36000",
        "Location": "Taman Sinar Jaya",
        "Post_Office": "Teluk Intan",
        "State": "Perak"
    },
    {
        "Postcode": "36000",
        "Location": "Taman Sri Emas",
        "Post_Office": "Teluk Intan",
        "State": "Perak"
    },
    {
        "Postcode": "36000",
        "Location": "Taman Sri Idaman",
        "Post_Office": "Teluk Intan",
        "State": "Perak"
    },
    {
        "Postcode": "36000",
        "Location": "Taman Sri Manggis Fasa 2",
        "Post_Office": "Teluk Intan",
        "State": "Perak"
    },
    {
        "Postcode": "36000",
        "Location": "Taman Teluk Intan (Fasa 2)",
        "Post_Office": "Teluk Intan",
        "State": "Perak"
    },
    {
        "Postcode": "36000",
        "Location": "Taman Teluk Intan (Fasa 3)",
        "Post_Office": "Teluk Intan",
        "State": "Perak"
    },
    {
        "Postcode": "36000",
        "Location": "Taman Zahari Zabidi",
        "Post_Office": "Teluk Intan",
        "State": "Perak"
    },
    {
        "Postcode": "36000",
        "Location": "Teluk Birah",
        "Post_Office": "Teluk Intan",
        "State": "Perak"
    },
    {
        "Postcode": "36000",
        "Location": "Teluk Intan",
        "Post_Office": "Teluk Intan",
        "State": "Perak"
    },
    {
        "Postcode": "36000",
        "Location": "Teluk Intan (Km 5)",
        "Post_Office": "Teluk Intan",
        "State": "Perak"
    },
    {
        "Postcode": "36000",
        "Location": "Teluk Piai",
        "Post_Office": "Teluk Intan",
        "State": "Perak"
    },
    {
        "Postcode": "36000",
        "Location": "Kampung Ayer Hitam",
        "Post_Office": "Teluk Intan",
        "State": "Perak"
    },
    {
        "Postcode": "36000",
        "Location": "Kampung Ayer Hitam Darat",
        "Post_Office": "Teluk Intan",
        "State": "Perak"
    },
    {
        "Postcode": "36000",
        "Location": "Kampung Baru (Km 21)",
        "Post_Office": "Teluk Intan",
        "State": "Perak"
    },
    {
        "Postcode": "36000",
        "Location": "Kampung Batu 16 - 17",
        "Post_Office": "Teluk Intan",
        "State": "Perak"
    },
    {
        "Postcode": "36000",
        "Location": "Kampung Jalan Chui Chak",
        "Post_Office": "Teluk Intan",
        "State": "Perak"
    },
    {
        "Postcode": "36000",
        "Location": "Kampung Ladang Baru",
        "Post_Office": "Teluk Intan",
        "State": "Perak"
    },
    {
        "Postcode": "36000",
        "Location": "Kampung Sc Air Hitam",
        "Post_Office": "Teluk Intan",
        "State": "Perak"
    },
    {
        "Postcode": "36000",
        "Location": "Kampung Sungai Bakong",
        "Post_Office": "Teluk Intan",
        "State": "Perak"
    },
    {
        "Postcode": "36000",
        "Location": "Kampung Sungai Besar",
        "Post_Office": "Teluk Intan",
        "State": "Perak"
    },
    {
        "Postcode": "36000",
        "Location": "Kampung Sungai Tok Nyawa",
        "Post_Office": "Teluk Intan",
        "State": "Perak"
    },
    {
        "Postcode": "36000",
        "Location": "Kampung Tapak Sememang",
        "Post_Office": "Teluk Intan",
        "State": "Perak"
    },
    {
        "Postcode": "36000",
        "Location": "Kampung Telok Baru",
        "Post_Office": "Teluk Intan",
        "State": "Perak"
    },
    {
        "Postcode": "36000",
        "Location": "Kampung Telok Selendang",
        "Post_Office": "Teluk Intan",
        "State": "Perak"
    },
    {
        "Postcode": "36000",
        "Location": "Kampung Tengah Ayer Hitam",
        "Post_Office": "Teluk Intan",
        "State": "Perak"
    },
    {
        "Postcode": "36000",
        "Location": "Pprt Sejagop",
        "Post_Office": "Teluk Intan",
        "State": "Perak"
    },
    {
        "Postcode": "36000",
        "Location": "Sungai Buloh",
        "Post_Office": "Teluk Intan",
        "State": "Perak"
    },
    {
        "Postcode": "36000",
        "Location": "Sungai Kabong",
        "Post_Office": "Teluk Intan",
        "State": "Perak"
    },
    {
        "Postcode": "36000",
        "Location": "Tapak Semenang",
        "Post_Office": "Teluk Intan",
        "State": "Perak"
    },
    {
        "Postcode": "36000",
        "Location": "Teluk Intan (Km 18 - 19)",
        "Post_Office": "Teluk Intan",
        "State": "Perak"
    },
    {
        "Postcode": "36000",
        "Location": "Kampung Hujung Rintis",
        "Post_Office": "Teluk Intan\r\n",
        "State": "Perak"
    },
    {
        "Postcode": "36000",
        "Location": "Kampung Sejagop",
        "Post_Office": "Teluk Intan\r\n",
        "State": "Perak"
    },
    {
        "Postcode": "36000",
        "Location": "Taman Sri Jaya",
        "Post_Office": "Teluk Intan\r\n",
        "State": "Perak"
    },
    {
        "Postcode": "36000",
        "Location": "Kampung Bahagia",
        "Post_Office": "Teluk Intan",
        "State": "Perak"
    },
    {
        "Postcode": "36000",
        "Location": "Kampung Banjar",
        "Post_Office": "Teluk Intan",
        "State": "Perak"
    },
    {
        "Postcode": "36000",
        "Location": "Kampung Sri Jaya",
        "Post_Office": "Teluk Intan",
        "State": "Perak"
    },
    {
        "Postcode": "36000",
        "Location": "Kampung Sungai Kerang",
        "Post_Office": "Teluk Intan",
        "State": "Perak"
    },
    {
        "Postcode": "36000",
        "Location": "Kampung Sungai Timah",
        "Post_Office": "Teluk Intan",
        "State": "Perak"
    },
    {
        "Postcode": "36000",
        "Location": "Taman Angkasa ",
        "Post_Office": "Teluk Intan",
        "State": "Perak"
    },
    {
        "Postcode": "36000",
        "Location": "Taman Desa Indah",
        "Post_Office": "Teluk Intan",
        "State": "Perak"
    },
    {
        "Postcode": "36000",
        "Location": "Taman Hong Kong",
        "Post_Office": "Teluk Intan",
        "State": "Perak"
    },
    {
        "Postcode": "36000",
        "Location": "Taman Hoover",
        "Post_Office": "Teluk Intan",
        "State": "Perak"
    },
    {
        "Postcode": "36000",
        "Location": "Taman Maju Indah",
        "Post_Office": "Teluk Intan",
        "State": "Perak"
    },
    {
        "Postcode": "36000",
        "Location": "Taman Makmur",
        "Post_Office": "Teluk Intan",
        "State": "Perak"
    },
    {
        "Postcode": "36000",
        "Location": "Taman Malaysia",
        "Post_Office": "Teluk Intan",
        "State": "Perak"
    },
    {
        "Postcode": "36000",
        "Location": "Taman Seri Setia",
        "Post_Office": "Teluk Intan",
        "State": "Perak"
    }
]
