[
    {
        "Postcode": "36020",
        "Location": "Kampung Baru (Km 19)",
        "Post_Office": "Teluk Intan",
        "State": "Perak"
    },
    {
        "Postcode": "36020",
        "Location": "Kampung Batu 13",
        "Post_Office": "Teluk Intan",
        "State": "Perak"
    },
    {
        "Postcode": "36020",
        "Location": "Kampung Ladang City",
        "Post_Office": "Teluk Intan",
        "State": "Perak"
    },
    {
        "Postcode": "36020",
        "Location": "Taman Okid (Batu 12)",
        "Post_Office": "Teluk Intan",
        "State": "Perak"
    },
    {
        "Postcode": "36020",
        "Location": "Taman Orkid (Phase 2)",
        "Post_Office": "Teluk Intan",
        "State": "Perak"
    },
    {
        "Postcode": "36020",
        "Location": "Taman Sri Pelangi, Batu 12",
        "Post_Office": "Teluk Intan",
        "State": "Perak"
    },
    {
        "Postcode": "36020",
        "Location": "Teluk Intan (Km 11 - 13)",
        "Post_Office": "Teluk Intan",
        "State": "Perak"
    },
    {
        "Postcode": "36020",
        "Location": "Kampung Batu 12",
        "Post_Office": "Teluk Intan",
        "State": "Perak"
    }
]
