[
    {
        "Postcode": "36100",
        "Location": "Parit Nibong",
        "Post_Office": "Bagan Datoh",
        "State": "Perak"
    },
    {
        "Postcode": "36100",
        "Location": "Simpang Tiga",
        "Post_Office": "Bagan Datoh",
        "State": "Perak"
    },
    {
        "Postcode": "36100",
        "Location": "Bagan Datoh",
        "Post_Office": "Bagan Datoh",
        "State": "Perak"
    },
    {
        "Postcode": "36100",
        "Location": "Bagan Ikan",
        "Post_Office": "Bagan Datoh",
        "State": "Perak"
    },
    {
        "Postcode": "36100",
        "Location": "Bagan Rida",
        "Post_Office": "Bagan Datoh",
        "State": "Perak"
    },
    {
        "Postcode": "36100",
        "Location": "Bagan Sungai Burung",
        "Post_Office": "Bagan Datoh",
        "State": "Perak"
    },
    {
        "Postcode": "36100",
        "Location": "Berembang Panjang",
        "Post_Office": "Bagan Datoh",
        "State": "Perak"
    },
    {
        "Postcode": "36100",
        "Location": "Kampung Bagan Sungai Burong",
        "Post_Office": "Bagan Datoh",
        "State": "Perak"
    },
    {
        "Postcode": "36100",
        "Location": "Kampung Berambang Panjang",
        "Post_Office": "Bagan Datoh",
        "State": "Perak"
    },
    {
        "Postcode": "36100",
        "Location": "Kampung Matang Kunda",
        "Post_Office": "Bagan Datoh",
        "State": "Perak"
    },
    {
        "Postcode": "36100",
        "Location": "Kampung Pasang Api",
        "Post_Office": "Bagan Datoh",
        "State": "Perak"
    },
    {
        "Postcode": "36100",
        "Location": "Kampung Rungkup Kecil",
        "Post_Office": "Bagan Datoh",
        "State": "Perak"
    },
    {
        "Postcode": "36100",
        "Location": "Kampung Sungai Balai Baroh",
        "Post_Office": "Bagan Datoh",
        "State": "Perak"
    },
    {
        "Postcode": "36100",
        "Location": "Kampung Sungai Betul",
        "Post_Office": "Bagan Datoh",
        "State": "Perak"
    },
    {
        "Postcode": "36100",
        "Location": "Kampung Sungai Burong",
        "Post_Office": "Bagan Datoh",
        "State": "Perak"
    },
    {
        "Postcode": "36100",
        "Location": "Kampung Sungai Nipah Baroh",
        "Post_Office": "Bagan Datoh",
        "State": "Perak"
    },
    {
        "Postcode": "36100",
        "Location": "Kampung Sungai Perkam",
        "Post_Office": "Bagan Datoh",
        "State": "Perak"
    },
    {
        "Postcode": "36100",
        "Location": "Kampung Tanah Lalang",
        "Post_Office": "Bagan Datoh",
        "State": "Perak"
    },
    {
        "Postcode": "36100",
        "Location": "Matang Kunda",
        "Post_Office": "Bagan Datoh",
        "State": "Perak"
    },
    {
        "Postcode": "36100",
        "Location": "Parit 1 Sungai Balai Baroh",
        "Post_Office": "Bagan Datoh",
        "State": "Perak"
    },
    {
        "Postcode": "36100",
        "Location": "Parit 6 Sungai Balai Baroh",
        "Post_Office": "Bagan Datoh",
        "State": "Perak"
    },
    {
        "Postcode": "36100",
        "Location": "Parit 7 Sungai Nipah",
        "Post_Office": "Bagan Datoh",
        "State": "Perak"
    },
    {
        "Postcode": "36100",
        "Location": "Rungkup Kecil",
        "Post_Office": "Bagan Datoh",
        "State": "Perak"
    },
    {
        "Postcode": "36100",
        "Location": "Sungai Balai Baroh",
        "Post_Office": "Bagan Datoh",
        "State": "Perak"
    },
    {
        "Postcode": "36100",
        "Location": "Sungai Nipah Baroh",
        "Post_Office": "Bagan Datoh",
        "State": "Perak"
    },
    {
        "Postcode": "36100",
        "Location": "Sungai Ular",
        "Post_Office": "Bagan Datoh",
        "State": "Perak"
    },
    {
        "Postcode": "36100",
        "Location": "Tanah Lalang",
        "Post_Office": "Bagan Datoh",
        "State": "Perak"
    },
    {
        "Postcode": "36100",
        "Location": "Teluk Penikam",
        "Post_Office": "Bagan Datoh",
        "State": "Perak"
    },
    {
        "Postcode": "36100",
        "Location": "Sungai Betul",
        "Post_Office": "Bagan Datoh",
        "State": "Perak"
    }
]
