[
    {
        "Postcode": "36110",
        "Location": "Kampung Simpang Ampat Rungkup",
        "Post_Office": "Teluk Intan",
        "State": "Perak"
    },
    {
        "Postcode": "36110",
        "Location": "Kandang Kerbau",
        "Post_Office": "Teluk Intan",
        "State": "Perak"
    },
    {
        "Postcode": "36110",
        "Location": "Ladang Beset",
        "Post_Office": "Teluk Intan",
        "State": "Perak"
    },
    {
        "Postcode": "36110",
        "Location": "Linggam Estate",
        "Post_Office": "Teluk Intan",
        "State": "Perak"
    },
    {
        "Postcode": "36110",
        "Location": "Sungai Empat (Sungai Rangam)",
        "Post_Office": "Teluk Intan",
        "State": "Perak"
    },
    {
        "Postcode": "36110",
        "Location": "Sungai Mangkok Mati",
        "Post_Office": "Teluk Intan",
        "State": "Perak"
    },
    {
        "Postcode": "36110",
        "Location": "Sungai Mengkudu",
        "Post_Office": "Teluk Intan",
        "State": "Perak"
    },
    {
        "Postcode": "36110",
        "Location": "Tebok Haji Kechari",
        "Post_Office": "Teluk Intan",
        "State": "Perak"
    },
    {
        "Postcode": "36110",
        "Location": "Teluk Haji Qari",
        "Post_Office": "Teluk Intan",
        "State": "Perak"
    },
    {
        "Postcode": "36110",
        "Location": "Teluk Pasir",
        "Post_Office": "Teluk Intan",
        "State": "Perak"
    },
    {
        "Postcode": "36110",
        "Location": "Kampung Sungai Mangkok",
        "Post_Office": "Teluk Intan",
        "State": "Perak"
    }
]
