[
    {
        "Postcode": "36200",
        "Location": "Parit Haji Tahir",
        "Post_Office": "Selekoh",
        "State": "Perak"
    },
    {
        "Postcode": "36200",
        "Location": "Parit Haji Ali",
        "Post_Office": "Selekoh",
        "State": "Perak"
    },
    {
        "Postcode": "36200",
        "Location": "Tebuk Haji Wahab",
        "Post_Office": "Selekoh",
        "State": "Perak"
    },
    {
        "Postcode": "36200",
        "Location": "Bagan Pasir Laut",
        "Post_Office": "Selekoh",
        "State": "Perak"
    },
    {
        "Postcode": "36200",
        "Location": "Bagan Sungai Belukang",
        "Post_Office": "Selekoh",
        "State": "Perak"
    },
    {
        "Postcode": "36200",
        "Location": "Kampung Asahan Tengah",
        "Post_Office": "Selekoh",
        "State": "Perak"
    },
    {
        "Postcode": "36200",
        "Location": "Kampung Bagan Pasir",
        "Post_Office": "Selekoh",
        "State": "Perak"
    },
    {
        "Postcode": "36200",
        "Location": "Kampung Bagan Sungai Belukang",
        "Post_Office": "Selekoh",
        "State": "Perak"
    },
    {
        "Postcode": "36200",
        "Location": "Kampung Haji Abdul Rashid",
        "Post_Office": "Selekoh",
        "State": "Perak"
    },
    {
        "Postcode": "36200",
        "Location": "Kampung Parit Serong",
        "Post_Office": "Selekoh",
        "State": "Perak"
    },
    {
        "Postcode": "36200",
        "Location": "Kampung Runkup Estate",
        "Post_Office": "Selekoh",
        "State": "Perak"
    },
    {
        "Postcode": "36200",
        "Location": "Kampung Sungai Batang",
        "Post_Office": "Selekoh",
        "State": "Perak"
    },
    {
        "Postcode": "36200",
        "Location": "Kampung Sungai Belukang",
        "Post_Office": "Selekoh",
        "State": "Perak"
    },
    {
        "Postcode": "36200",
        "Location": "Kampung Sungai Che  Maja",
        "Post_Office": "Selekoh",
        "State": "Perak"
    },
    {
        "Postcode": "36200",
        "Location": "Kampung Sungai Che Maja Tengah",
        "Post_Office": "Selekoh",
        "State": "Perak"
    },
    {
        "Postcode": "36200",
        "Location": "Kampung Sungai Haji Mohamad",
        "Post_Office": "Selekoh",
        "State": "Perak"
    },
    {
        "Postcode": "36200",
        "Location": "Kampung Sungai Haji Mohd Noor",
        "Post_Office": "Selekoh",
        "State": "Perak"
    },
    {
        "Postcode": "36200",
        "Location": "Kampung Sungai Payong",
        "Post_Office": "Selekoh",
        "State": "Perak"
    },
    {
        "Postcode": "36200",
        "Location": "Kampung Tebok Cek Agus",
        "Post_Office": "Selekoh",
        "State": "Perak"
    },
    {
        "Postcode": "36200",
        "Location": "Kampung Tebok Kiyai Suyut",
        "Post_Office": "Selekoh",
        "State": "Perak"
    },
    {
        "Postcode": "36200",
        "Location": "Kampung Tebok Mukmin",
        "Post_Office": "Selekoh",
        "State": "Perak"
    },
    {
        "Postcode": "36200",
        "Location": "Kampung Tebok Pangkor",
        "Post_Office": "Selekoh",
        "State": "Perak"
    },
    {
        "Postcode": "36200",
        "Location": "Ladang Kuala Perak Batu 21",
        "Post_Office": "Selekoh",
        "State": "Perak"
    },
    {
        "Postcode": "36200",
        "Location": "Ladang Kuala Perak Batu 25",
        "Post_Office": "Selekoh",
        "State": "Perak"
    },
    {
        "Postcode": "36200",
        "Location": "Lorong Masjid",
        "Post_Office": "Selekoh",
        "State": "Perak"
    },
    {
        "Postcode": "36200",
        "Location": "Parit Che Maja",
        "Post_Office": "Selekoh",
        "State": "Perak"
    },
    {
        "Postcode": "36200",
        "Location": "Parit Dayang",
        "Post_Office": "Selekoh",
        "State": "Perak"
    },
    {
        "Postcode": "36200",
        "Location": "Parit Dol Karim",
        "Post_Office": "Selekoh",
        "State": "Perak"
    },
    {
        "Postcode": "36200",
        "Location": "Parit Hassan Palembang",
        "Post_Office": "Selekoh",
        "State": "Perak"
    },
    {
        "Postcode": "36200",
        "Location": "Parit Mat Amin",
        "Post_Office": "Selekoh",
        "State": "Perak"
    },
    {
        "Postcode": "36200",
        "Location": "Parit Mati",
        "Post_Office": "Selekoh",
        "State": "Perak"
    },
    {
        "Postcode": "36200",
        "Location": "Parit Semani",
        "Post_Office": "Selekoh",
        "State": "Perak"
    },
    {
        "Postcode": "36200",
        "Location": "Parit Sungai Balai Darat",
        "Post_Office": "Selekoh",
        "State": "Perak"
    },
    {
        "Postcode": "36200",
        "Location": "Parit Sungai Nipah Darat",
        "Post_Office": "Selekoh",
        "State": "Perak"
    },
    {
        "Postcode": "36200",
        "Location": "Parit Tebuk Buloh",
        "Post_Office": "Selekoh",
        "State": "Perak"
    },
    {
        "Postcode": "36200",
        "Location": "Parit Tebuk Jawa",
        "Post_Office": "Selekoh",
        "State": "Perak"
    },
    {
        "Postcode": "36200",
        "Location": "Parit Tengah",
        "Post_Office": "Selekoh",
        "State": "Perak"
    },
    {
        "Postcode": "36200",
        "Location": "Pekan Batu 20 Bagan Pasir",
        "Post_Office": "Selekoh",
        "State": "Perak"
    },
    {
        "Postcode": "36200",
        "Location": "Pekan Simpang Tiga",
        "Post_Office": "Selekoh",
        "State": "Perak"
    },
    {
        "Postcode": "36200",
        "Location": "Selekoh",
        "Post_Office": "Selekoh",
        "State": "Perak"
    },
    {
        "Postcode": "36200",
        "Location": "Selekoh (Km 32 - 36)",
        "Post_Office": "Selekoh",
        "State": "Perak"
    },
    {
        "Postcode": "36200",
        "Location": "Simpang Empat Rungkup",
        "Post_Office": "Selekoh",
        "State": "Perak"
    },
    {
        "Postcode": "36200",
        "Location": "Sungai Balai Darat",
        "Post_Office": "Selekoh",
        "State": "Perak"
    },
    {
        "Postcode": "36200",
        "Location": "Sungai Lancang (Kampung Masjid)",
        "Post_Office": "Selekoh",
        "State": "Perak"
    },
    {
        "Postcode": "36200",
        "Location": "Sungai Lancang Kunci Air Mati",
        "Post_Office": "Selekoh",
        "State": "Perak"
    },
    {
        "Postcode": "36200",
        "Location": "Sungai Nipah Darat",
        "Post_Office": "Selekoh",
        "State": "Perak"
    },
    {
        "Postcode": "36200",
        "Location": "Sungai Panjang",
        "Post_Office": "Selekoh",
        "State": "Perak"
    },
    {
        "Postcode": "36200",
        "Location": "Sungai Tiang Baroh",
        "Post_Office": "Selekoh",
        "State": "Perak"
    },
    {
        "Postcode": "36200",
        "Location": "Sungai Tiang Darat",
        "Post_Office": "Selekoh",
        "State": "Perak"
    },
    {
        "Postcode": "36200",
        "Location": "Sungai Tiang Tengah",
        "Post_Office": "Selekoh",
        "State": "Perak"
    },
    {
        "Postcode": "36200",
        "Location": "Taman Bagan Pasir",
        "Post_Office": "Selekoh",
        "State": "Perak"
    },
    {
        "Postcode": "36200",
        "Location": "Tebak Haji Tahir",
        "Post_Office": "Selekoh",
        "State": "Perak"
    },
    {
        "Postcode": "36200",
        "Location": "Tebok Bengkang",
        "Post_Office": "Selekoh",
        "State": "Perak"
    },
    {
        "Postcode": "36200",
        "Location": "Tebok Cik Agus",
        "Post_Office": "Selekoh",
        "State": "Perak"
    },
    {
        "Postcode": "36200",
        "Location": "Tebok Haji Hussin",
        "Post_Office": "Selekoh",
        "State": "Perak"
    },
    {
        "Postcode": "36200",
        "Location": "Tebok Haji Masduki",
        "Post_Office": "Selekoh",
        "State": "Perak"
    },
    {
        "Postcode": "36200",
        "Location": "Tebok Haji Tahir",
        "Post_Office": "Selekoh",
        "State": "Perak"
    },
    {
        "Postcode": "36200",
        "Location": "Tebok Imam",
        "Post_Office": "Selekoh",
        "State": "Perak"
    },
    {
        "Postcode": "36200",
        "Location": "Tebok Kiri Suyut",
        "Post_Office": "Selekoh",
        "State": "Perak"
    },
    {
        "Postcode": "36200",
        "Location": "Tebok Mati",
        "Post_Office": "Selekoh",
        "State": "Perak"
    },
    {
        "Postcode": "36200",
        "Location": "Tebok Mukmin",
        "Post_Office": "Selekoh",
        "State": "Perak"
    },
    {
        "Postcode": "36200",
        "Location": "Tebuk Kiyai Suyut",
        "Post_Office": "Selekoh",
        "State": "Perak"
    },
    {
        "Postcode": "36200",
        "Location": "Tebuk Pancor",
        "Post_Office": "Selekoh",
        "State": "Perak"
    },
    {
        "Postcode": "36200",
        "Location": "Tebuk Tukang Emas",
        "Post_Office": "Selekoh",
        "State": "Perak"
    },
    {
        "Postcode": "36200",
        "Location": "Teluk Masjid",
        "Post_Office": "Selekoh",
        "State": "Perak"
    },
    {
        "Postcode": "36200",
        "Location": "Sungai Baru",
        "Post_Office": "Selekoh",
        "State": "Perak"
    }
]
