[
    {
        "Postcode": "36300",
        "Location": "Parit 1, Baroh",
        "Post_Office": "Sungai Sumun",
        "State": "Perak"
    },
    {
        "Postcode": "36300",
        "Location": "Parit 1, Darat",
        "Post_Office": "Sungai Sumun",
        "State": "Perak"
    },
    {
        "Postcode": "36300",
        "Location": "Parit 2, Baroh",
        "Post_Office": "Sungai Sumun",
        "State": "Perak"
    },
    {
        "Postcode": "36300",
        "Location": "Parit 2, Darat",
        "Post_Office": "Sungai Sumun",
        "State": "Perak"
    },
    {
        "Postcode": "36300",
        "Location": "Parit 3, Baroh",
        "Post_Office": "Sungai Sumun",
        "State": "Perak"
    },
    {
        "Postcode": "36300",
        "Location": "Parit 3, Darat",
        "Post_Office": "Sungai Sumun",
        "State": "Perak"
    },
    {
        "Postcode": "36300",
        "Location": "Parit 4, Baroh",
        "Post_Office": "Sungai Sumun",
        "State": "Perak"
    },
    {
        "Postcode": "36300",
        "Location": "Parit 4, Darat",
        "Post_Office": "Sungai Sumun",
        "State": "Perak"
    },
    {
        "Postcode": "36300",
        "Location": "Parit 5, Baroh",
        "Post_Office": "Sungai Sumun",
        "State": "Perak"
    },
    {
        "Postcode": "36300",
        "Location": "Parit 5, Darat",
        "Post_Office": "Sungai Sumun",
        "State": "Perak"
    },
    {
        "Postcode": "36300",
        "Location": "Parit 6, Baroh",
        "Post_Office": "Sungai Sumun",
        "State": "Perak"
    },
    {
        "Postcode": "36300",
        "Location": "Parit 6, Darat",
        "Post_Office": "Sungai Sumun",
        "State": "Perak"
    },
    {
        "Postcode": "36300",
        "Location": "Parit 7, Baroh",
        "Post_Office": "Sungai Sumun",
        "State": "Perak"
    },
    {
        "Postcode": "36300",
        "Location": "Parit 7, Darat",
        "Post_Office": "Sungai Sumun",
        "State": "Perak"
    },
    {
        "Postcode": "36300",
        "Location": "Parit 8, Baroh",
        "Post_Office": "Sungai Sumun",
        "State": "Perak"
    },
    {
        "Postcode": "36300",
        "Location": "Parit 8, Darat",
        "Post_Office": "Sungai Sumun",
        "State": "Perak"
    },
    {
        "Postcode": "36300",
        "Location": "Parit 9, Baroh",
        "Post_Office": "Sungai Sumun",
        "State": "Perak"
    },
    {
        "Postcode": "36300",
        "Location": "Parit 9, Darat",
        "Post_Office": "Sungai Sumun",
        "State": "Perak"
    },
    {
        "Postcode": "36300",
        "Location": "Kampung Baru",
        "Post_Office": "Sungai Sumun",
        "State": "Perak"
    },
    {
        "Postcode": "36300",
        "Location": "Kampung Baru Timur",
        "Post_Office": "Sungai Sumun",
        "State": "Perak"
    },
    {
        "Postcode": "36300",
        "Location": "Kampung Sungai Baru",
        "Post_Office": "Sungai Sumun",
        "State": "Perak"
    },
    {
        "Postcode": "36300",
        "Location": "Kampung Bagan Parit 4",
        "Post_Office": "Sungai Sumun",
        "State": "Perak"
    },
    {
        "Postcode": "36300",
        "Location": "Kampung Baru Utara",
        "Post_Office": "Sungai Sumun",
        "State": "Perak"
    },
    {
        "Postcode": "36300",
        "Location": "Kampung Sulaiman Bulon",
        "Post_Office": "Sungai Sumun",
        "State": "Perak"
    },
    {
        "Postcode": "36300",
        "Location": "Kampung Sungai Dulang Dalam",
        "Post_Office": "Sungai Sumun",
        "State": "Perak"
    },
    {
        "Postcode": "36300",
        "Location": "Kampung Sungai Nyamok",
        "Post_Office": "Sungai Sumun",
        "State": "Perak"
    },
    {
        "Postcode": "36300",
        "Location": "Kampung Telok Bharu Batu 17",
        "Post_Office": "Sungai Sumun",
        "State": "Perak"
    },
    {
        "Postcode": "36300",
        "Location": "Kuarters Guru Sekolah Khir Johari",
        "Post_Office": "Sungai Sumun",
        "State": "Perak"
    },
    {
        "Postcode": "36300",
        "Location": "Ladang Telok Bharu",
        "Post_Office": "Sungai Sumun",
        "State": "Perak"
    },
    {
        "Postcode": "36300",
        "Location": "Parit 10",
        "Post_Office": "Sungai Sumun",
        "State": "Perak"
    },
    {
        "Postcode": "36300",
        "Location": "Pelabohan Gadaff Marble Parit Satu",
        "Post_Office": "Sungai Sumun",
        "State": "Perak"
    },
    {
        "Postcode": "36300",
        "Location": "Perumahan Awam Sungai Dulang",
        "Post_Office": "Sungai Sumun",
        "State": "Perak"
    },
    {
        "Postcode": "36300",
        "Location": "Perumahan Awam Sungai Sumun",
        "Post_Office": "Sungai Sumun",
        "State": "Perak"
    },
    {
        "Postcode": "36300",
        "Location": "Sungai Dulang",
        "Post_Office": "Sungai Sumun",
        "State": "Perak"
    },
    {
        "Postcode": "36300",
        "Location": "Sungai Sumun",
        "Post_Office": "Sungai Sumun",
        "State": "Perak"
    },
    {
        "Postcode": "36300",
        "Location": "Taman Sungai Sumun",
        "Post_Office": "Sungai Sumun",
        "State": "Perak"
    }
]
