[
    {
        "Postcode": "36400",
        "Location": "Kampung Parit 11",
        "Post_Office": "Hutan Melintang",
        "State": "Perak"
    },
    {
        "Postcode": "36400",
        "Location": "Kampung Parit 12",
        "Post_Office": "Hutan Melintang",
        "State": "Perak"
    },
    {
        "Postcode": "36400",
        "Location": "Kampung Parit 13",
        "Post_Office": "Hutan Melintang",
        "State": "Perak"
    },
    {
        "Postcode": "36400",
        "Location": "Kampung Parit 14",
        "Post_Office": "Hutan Melintang",
        "State": "Perak"
    },
    {
        "Postcode": "36400",
        "Location": "Kampung Parit 15",
        "Post_Office": "Hutan Melintang",
        "State": "Perak"
    },
    {
        "Postcode": "36400",
        "Location": "Kampung Parit 16",
        "Post_Office": "Hutan Melintang",
        "State": "Perak"
    },
    {
        "Postcode": "36400",
        "Location": "Kampung Parit 17",
        "Post_Office": "Hutan Melintang",
        "State": "Perak"
    },
    {
        "Postcode": "36400",
        "Location": "Kampung Parit 18",
        "Post_Office": "Hutan Melintang",
        "State": "Perak"
    },
    {
        "Postcode": "36400",
        "Location": "Kampung Parit 19",
        "Post_Office": "Hutan Melintang",
        "State": "Perak"
    },
    {
        "Postcode": "36400",
        "Location": "Kampung Parit 20",
        "Post_Office": "Hutan Melintang",
        "State": "Perak"
    },
    {
        "Postcode": "36400",
        "Location": "Kampung Parit 21",
        "Post_Office": "Hutan Melintang",
        "State": "Perak"
    },
    {
        "Postcode": "36400",
        "Location": "Kampung Parit 22",
        "Post_Office": "Hutan Melintang",
        "State": "Perak"
    },
    {
        "Postcode": "36400",
        "Location": "Kampung Parit 23",
        "Post_Office": "Hutan Melintang",
        "State": "Perak"
    },
    {
        "Postcode": "36400",
        "Location": "Taman Indah 1",
        "Post_Office": "Hutan Melintang",
        "State": "Perak"
    },
    {
        "Postcode": "36400",
        "Location": "Taman Indah 2",
        "Post_Office": "Hutan Melintang",
        "State": "Perak"
    },
    {
        "Postcode": "36400",
        "Location": "Taman Seri Melintang 1",
        "Post_Office": "Hutan Melintang",
        "State": "Perak"
    },
    {
        "Postcode": "36400",
        "Location": "Taman Seri Melintang 2",
        "Post_Office": "Hutan Melintang",
        "State": "Perak"
    },
    {
        "Postcode": "36400",
        "Location": "Kampung Kota",
        "Post_Office": "Hutan Melintang",
        "State": "Perak"
    },
    {
        "Postcode": "36400",
        "Location": "Rumah Awam 2",
        "Post_Office": "Hutan Melintang",
        "State": "Perak"
    },
    {
        "Postcode": "36400",
        "Location": "Taman Seri Intan",
        "Post_Office": "Hutan Melintang",
        "State": "Perak"
    },
    {
        "Postcode": "36400",
        "Location": "Kampung Guru",
        "Post_Office": "Hutan Melintang",
        "State": "Perak"
    },
    {
        "Postcode": "36400",
        "Location": "Taman Kayangan",
        "Post_Office": "Hutan Melintang",
        "State": "Perak"
    },
    {
        "Postcode": "36400",
        "Location": "Kampung Kebun Baru",
        "Post_Office": "Hutan Melintang",
        "State": "Perak"
    },
    {
        "Postcode": "36400",
        "Location": "Kampung Simpang Empat",
        "Post_Office": "Hutan Melintang",
        "State": "Perak"
    },
    {
        "Postcode": "36400",
        "Location": "Taman Wawasan",
        "Post_Office": "Hutan Melintang",
        "State": "Perak"
    },
    {
        "Postcode": "36400",
        "Location": "Kampung Teluk",
        "Post_Office": "Hutan Melintang",
        "State": "Perak"
    },
    {
        "Postcode": "36400",
        "Location": "Taman Desa Permai",
        "Post_Office": "Hutan Melintang",
        "State": "Perak"
    },
    {
        "Postcode": "36400",
        "Location": "Taman Ehsan",
        "Post_Office": "Hutan Melintang",
        "State": "Perak"
    },
    {
        "Postcode": "36400",
        "Location": "Taman Mewah",
        "Post_Office": "Hutan Melintang",
        "State": "Perak"
    },
    {
        "Postcode": "36400",
        "Location": "Bagan Lalang",
        "Post_Office": "Hutan Melintang",
        "State": "Perak"
    },
    {
        "Postcode": "36400",
        "Location": "Batu 11 1/2 Jalan Bagan Datok",
        "Post_Office": "Hutan Melintang",
        "State": "Perak"
    },
    {
        "Postcode": "36400",
        "Location": "Hutan Melintang",
        "Post_Office": "Hutan Melintang",
        "State": "Perak"
    },
    {
        "Postcode": "36400",
        "Location": "Kampung Badri",
        "Post_Office": "Hutan Melintang",
        "State": "Perak"
    },
    {
        "Postcode": "36400",
        "Location": "Kampung Bagan Lalang",
        "Post_Office": "Hutan Melintang",
        "State": "Perak"
    },
    {
        "Postcode": "36400",
        "Location": "Kampung Banang",
        "Post_Office": "Hutan Melintang",
        "State": "Perak"
    },
    {
        "Postcode": "36400",
        "Location": "Kampung Baru Parit 18",
        "Post_Office": "Hutan Melintang",
        "State": "Perak"
    },
    {
        "Postcode": "36400",
        "Location": "Kampung Baru Simpang Empat",
        "Post_Office": "Hutan Melintang",
        "State": "Perak"
    },
    {
        "Postcode": "36400",
        "Location": "Kampung Batu 10",
        "Post_Office": "Hutan Melintang",
        "State": "Perak"
    },
    {
        "Postcode": "36400",
        "Location": "Kampung Bernam",
        "Post_Office": "Hutan Melintang",
        "State": "Perak"
    },
    {
        "Postcode": "36400",
        "Location": "Kampung Bumi Hijau",
        "Post_Office": "Hutan Melintang",
        "State": "Perak"
    },
    {
        "Postcode": "36400",
        "Location": "Kampung Kebun Sayor China",
        "Post_Office": "Hutan Melintang",
        "State": "Perak"
    },
    {
        "Postcode": "36400",
        "Location": "Kampung Kerbau Baru",
        "Post_Office": "Hutan Melintang",
        "State": "Perak"
    },
    {
        "Postcode": "36400",
        "Location": "Kampung Ladang Kamaci",
        "Post_Office": "Hutan Melintang",
        "State": "Perak"
    },
    {
        "Postcode": "36400",
        "Location": "Kampung Lower Perak",
        "Post_Office": "Hutan Melintang",
        "State": "Perak"
    },
    {
        "Postcode": "36400",
        "Location": "Kampung Melayu Jendarata",
        "Post_Office": "Hutan Melintang",
        "State": "Perak"
    },
    {
        "Postcode": "36400",
        "Location": "Kampung Melintang Rubber Estate",
        "Post_Office": "Hutan Melintang",
        "State": "Perak"
    },
    {
        "Postcode": "36400",
        "Location": "Kampung Mutiara",
        "Post_Office": "Hutan Melintang",
        "State": "Perak"
    },
    {
        "Postcode": "36400",
        "Location": "Kampung Pantai Landu",
        "Post_Office": "Hutan Melintang",
        "State": "Perak"
    },
    {
        "Postcode": "36400",
        "Location": "Kampung Puspa",
        "Post_Office": "Hutan Melintang",
        "State": "Perak"
    },
    {
        "Postcode": "36400",
        "Location": "Kampung Rumit Badri",
        "Post_Office": "Hutan Melintang",
        "State": "Perak"
    },
    {
        "Postcode": "36400",
        "Location": "Kampung Seri Perkasa",
        "Post_Office": "Hutan Melintang",
        "State": "Perak"
    },
    {
        "Postcode": "36400",
        "Location": "Kampung Shor China",
        "Post_Office": "Hutan Melintang",
        "State": "Perak"
    },
    {
        "Postcode": "36400",
        "Location": "Kampung Simpang Tiga Teluk Buloh",
        "Post_Office": "Hutan Melintang",
        "State": "Perak"
    },
    {
        "Postcode": "36400",
        "Location": "Kampung Sungai Bugis",
        "Post_Office": "Hutan Melintang",
        "State": "Perak"
    },
    {
        "Postcode": "36400",
        "Location": "Kampung Sungai Buloh (Batu 9)",
        "Post_Office": "Hutan Melintang",
        "State": "Perak"
    },
    {
        "Postcode": "36400",
        "Location": "Kampung Sungai Ipel",
        "Post_Office": "Hutan Melintang",
        "State": "Perak"
    },
    {
        "Postcode": "36400",
        "Location": "Kampung Sungai Keli",
        "Post_Office": "Hutan Melintang",
        "State": "Perak"
    },
    {
        "Postcode": "36400",
        "Location": "Kampung Sungai Manila 1",
        "Post_Office": "Hutan Melintang",
        "State": "Perak"
    },
    {
        "Postcode": "36400",
        "Location": "Kampung Sungai Manila 2",
        "Post_Office": "Hutan Melintang",
        "State": "Perak"
    },
    {
        "Postcode": "36400",
        "Location": "Kampung Sungai Samak",
        "Post_Office": "Hutan Melintang",
        "State": "Perak"
    },
    {
        "Postcode": "36400",
        "Location": "Kampung Telok Buloh",
        "Post_Office": "Hutan Melintang",
        "State": "Perak"
    },
    {
        "Postcode": "36400",
        "Location": "Kampung Telok Kerdu",
        "Post_Office": "Hutan Melintang",
        "State": "Perak"
    },
    {
        "Postcode": "36400",
        "Location": "Kampung Tersusun Sungai Ipel",
        "Post_Office": "Hutan Melintang",
        "State": "Perak"
    },
    {
        "Postcode": "36400",
        "Location": "Kampung Vellacy",
        "Post_Office": "Hutan Melintang",
        "State": "Perak"
    },
    {
        "Postcode": "36400",
        "Location": "Ladang Blanch",
        "Post_Office": "Hutan Melintang",
        "State": "Perak"
    },
    {
        "Postcode": "36400",
        "Location": "Lorong Appachee",
        "Post_Office": "Hutan Melintang",
        "State": "Perak"
    },
    {
        "Postcode": "36400",
        "Location": "Lorong Arul (Jalan Fery)",
        "Post_Office": "Hutan Melintang",
        "State": "Perak"
    },
    {
        "Postcode": "36400",
        "Location": "Lorong Gumudi (Jalan Fery)",
        "Post_Office": "Hutan Melintang",
        "State": "Perak"
    },
    {
        "Postcode": "36400",
        "Location": "Lorong Mahaveru (Batu 11)",
        "Post_Office": "Hutan Melintang",
        "State": "Perak"
    },
    {
        "Postcode": "36400",
        "Location": "Lorong Mahavida (Batu 11)",
        "Post_Office": "Hutan Melintang",
        "State": "Perak"
    },
    {
        "Postcode": "36400",
        "Location": "Lorong Melor (Batu 8 1/2)",
        "Post_Office": "Hutan Melintang",
        "State": "Perak"
    },
    {
        "Postcode": "36400",
        "Location": "Lorong Murugan ",
        "Post_Office": "Hutan Melintang",
        "State": "Perak"
    },
    {
        "Postcode": "36400",
        "Location": "Lorong Pak Mat ",
        "Post_Office": "Hutan Melintang",
        "State": "Perak"
    },
    {
        "Postcode": "36400",
        "Location": "Lorong Pertama",
        "Post_Office": "Hutan Melintang",
        "State": "Perak"
    },
    {
        "Postcode": "36400",
        "Location": "Lorong Samy",
        "Post_Office": "Hutan Melintang",
        "State": "Perak"
    },
    {
        "Postcode": "36400",
        "Location": "Lorong Taman Setia",
        "Post_Office": "Hutan Melintang",
        "State": "Perak"
    },
    {
        "Postcode": "36400",
        "Location": "Lorong Titiwangsa (Batu 11)",
        "Post_Office": "Hutan Melintang",
        "State": "Perak"
    },
    {
        "Postcode": "36400",
        "Location": "Mah Poh Cheong Estate",
        "Post_Office": "Hutan Melintang",
        "State": "Perak"
    },
    {
        "Postcode": "36400",
        "Location": "Pekan Simpang Empat",
        "Post_Office": "Hutan Melintang",
        "State": "Perak"
    },
    {
        "Postcode": "36400",
        "Location": "Rumah Awam 1",
        "Post_Office": "Hutan Melintang",
        "State": "Perak"
    },
    {
        "Postcode": "36400",
        "Location": "Sungai Keli",
        "Post_Office": "Hutan Melintang",
        "State": "Perak"
    },
    {
        "Postcode": "36400",
        "Location": "Sungai Samak",
        "Post_Office": "Hutan Melintang",
        "State": "Perak"
    },
    {
        "Postcode": "36400",
        "Location": "Taman Batu 10",
        "Post_Office": "Hutan Melintang",
        "State": "Perak"
    },
    {
        "Postcode": "36400",
        "Location": "Taman Cemerlang",
        "Post_Office": "Hutan Melintang",
        "State": "Perak"
    },
    {
        "Postcode": "36400",
        "Location": "Taman Cenderawasih",
        "Post_Office": "Hutan Melintang",
        "State": "Perak"
    },
    {
        "Postcode": "36400",
        "Location": "Taman Desa Bernam",
        "Post_Office": "Hutan Melintang",
        "State": "Perak"
    },
    {
        "Postcode": "36400",
        "Location": "Taman Desa Bersatu",
        "Post_Office": "Hutan Melintang",
        "State": "Perak"
    },
    {
        "Postcode": "36400",
        "Location": "Taman Desa Intan",
        "Post_Office": "Hutan Melintang",
        "State": "Perak"
    },
    {
        "Postcode": "36400",
        "Location": "Taman Desa Melintang",
        "Post_Office": "Hutan Melintang",
        "State": "Perak"
    },
    {
        "Postcode": "36400",
        "Location": "Taman Hutan Melintang",
        "Post_Office": "Hutan Melintang",
        "State": "Perak"
    },
    {
        "Postcode": "36400",
        "Location": "Taman Indera Wasih",
        "Post_Office": "Hutan Melintang",
        "State": "Perak"
    },
    {
        "Postcode": "36400",
        "Location": "Taman Julaiha",
        "Post_Office": "Hutan Melintang",
        "State": "Perak"
    },
    {
        "Postcode": "36400",
        "Location": "Taman Melintang Ria",
        "Post_Office": "Hutan Melintang",
        "State": "Perak"
    },
    {
        "Postcode": "36400",
        "Location": "Taman Perdana",
        "Post_Office": "Hutan Melintang",
        "State": "Perak"
    },
    {
        "Postcode": "36400",
        "Location": "Taman Selaseh 2",
        "Post_Office": "Hutan Melintang",
        "State": "Perak"
    },
    {
        "Postcode": "36400",
        "Location": "Taman Selasih",
        "Post_Office": "Hutan Melintang",
        "State": "Perak"
    },
    {
        "Postcode": "36400",
        "Location": "Taman Seri Bernam",
        "Post_Office": "Hutan Melintang",
        "State": "Perak"
    },
    {
        "Postcode": "36400",
        "Location": "Taman Seri Ishak",
        "Post_Office": "Hutan Melintang",
        "State": "Perak"
    },
    {
        "Postcode": "36400",
        "Location": "Taman Sri Intan 2",
        "Post_Office": "Hutan Melintang",
        "State": "Perak"
    },
    {
        "Postcode": "36400",
        "Location": "Taman Sri Iskandar",
        "Post_Office": "Hutan Melintang",
        "State": "Perak"
    },
    {
        "Postcode": "36400",
        "Location": "Teluk Buloh",
        "Post_Office": "Hutan Melintang",
        "State": "Perak"
    },
    {
        "Postcode": "36400",
        "Location": "Teluk Kerdu",
        "Post_Office": "Hutan Melintang",
        "State": "Perak"
    },
    {
        "Postcode": "36400",
        "Location": "Kampung Batu 12",
        "Post_Office": "Hutan Melintang",
        "State": "Perak"
    },
    {
        "Postcode": "36400",
        "Location": "Kampung Sungai Timah ",
        "Post_Office": "Hutan Melintang",
        "State": "Perak"
    },
    {
        "Postcode": "36400",
        "Location": "Rumah Awam 3",
        "Post_Office": "Hutan Melintang",
        "State": "Perak"
    },
    {
        "Postcode": "36400",
        "Location": "Taman Sri Perak",
        "Post_Office": "Hutan Melintang",
        "State": "Perak"
    }
]
