[
    {
        "Postcode": "36500",
        "Location": "Ladang Sungai Samak",
        "Post_Office": "Ulu Bernam",
        "State": "Perak"
    },
    {
        "Postcode": "36500",
        "Location": "Bahagian Selangor",
        "Post_Office": "Ulu Bernam",
        "State": "Perak"
    },
    {
        "Postcode": "36500",
        "Location": "Hospital Estate",
        "Post_Office": "Ulu Bernam",
        "State": "Perak"
    },
    {
        "Postcode": "36500",
        "Location": "Kampung Baru Sungai Dua",
        "Post_Office": "Ulu Bernam",
        "State": "Perak"
    },
    {
        "Postcode": "36500",
        "Location": "Kampung Erong",
        "Post_Office": "Ulu Bernam",
        "State": "Perak"
    },
    {
        "Postcode": "36500",
        "Location": "Ladang Changkat Menteri",
        "Post_Office": "Ulu Bernam",
        "State": "Perak"
    },
    {
        "Postcode": "36500",
        "Location": "Ladang Sungai Cawang",
        "Post_Office": "Ulu Bernam",
        "State": "Perak"
    },
    {
        "Postcode": "36500",
        "Location": "Ladang Sungai Erong",
        "Post_Office": "Ulu Bernam",
        "State": "Perak"
    },
    {
        "Postcode": "36500",
        "Location": "Ladang Taiping",
        "Post_Office": "Ulu Bernam",
        "State": "Perak"
    },
    {
        "Postcode": "36500",
        "Location": "Ladang Ulu Bernam",
        "Post_Office": "Ulu Bernam",
        "State": "Perak"
    },
    {
        "Postcode": "36500",
        "Location": "Langkap Estate",
        "Post_Office": "Ulu Bernam",
        "State": "Perak"
    },
    {
        "Postcode": "36500",
        "Location": "Mazwin Estate",
        "Post_Office": "Ulu Bernam",
        "State": "Perak"
    },
    {
        "Postcode": "36500",
        "Location": "Sekolah Kebangsaan Ulu Bernam",
        "Post_Office": "Ulu Bernam",
        "State": "Perak"
    },
    {
        "Postcode": "36500",
        "Location": "Sekolah Menengah Kebangsaan Ulu Bernam",
        "Post_Office": "Ulu Bernam",
        "State": "Perak"
    },
    {
        "Postcode": "36500",
        "Location": "Spong Division",
        "Post_Office": "Ulu Bernam",
        "State": "Perak"
    },
    {
        "Postcode": "36500",
        "Location": "Srjk (1) Sungai Samak",
        "Post_Office": "Ulu Bernam",
        "State": "Perak"
    },
    {
        "Postcode": "36500",
        "Location": "Srjk (T) Bahagian 2",
        "Post_Office": "Ulu Bernam",
        "State": "Perak"
    },
    {
        "Postcode": "36500",
        "Location": "Tractor Pol (Div 3\u00264)",
        "Post_Office": "Ulu Bernam",
        "State": "Perak"
    },
    {
        "Postcode": "36500",
        "Location": "Ulu Bernam",
        "Post_Office": "Ulu Bernam",
        "State": "Perak"
    },
    {
        "Postcode": "36500",
        "Location": "Ulu Pasir",
        "Post_Office": "Ulu Bernam",
        "State": "Perak"
    },
    {
        "Postcode": "36500",
        "Location": "Yiew Lian Estate",
        "Post_Office": "Ulu Bernam",
        "State": "Perak"
    }
]
