[
    {
        "Postcode": "36600",
        "Location": "Parit 2/7L",
        "Post_Office": "Chenderong Balai",
        "State": "Perak"
    },
    {
        "Postcode": "36600",
        "Location": "Parit 2/7R",
        "Post_Office": "Chenderong Balai",
        "State": "Perak"
    },
    {
        "Postcode": "36600",
        "Location": "Parit 3/7L",
        "Post_Office": "Chenderong Balai",
        "State": "Perak"
    },
    {
        "Postcode": "36600",
        "Location": "Parit 3/7R",
        "Post_Office": "Chenderong Balai",
        "State": "Perak"
    },
    {
        "Postcode": "36600",
        "Location": "Parit 3/L",
        "Post_Office": "Chenderong Balai",
        "State": "Perak"
    },
    {
        "Postcode": "36600",
        "Location": "Parit 4/6L",
        "Post_Office": "Chenderong Balai",
        "State": "Perak"
    },
    {
        "Postcode": "36600",
        "Location": "Parit 6/6L",
        "Post_Office": "Chenderong Balai",
        "State": "Perak"
    },
    {
        "Postcode": "36600",
        "Location": "Parit 6/6R",
        "Post_Office": "Chenderong Balai",
        "State": "Perak"
    },
    {
        "Postcode": "36600",
        "Location": "Parit 7/6L",
        "Post_Office": "Chenderong Balai",
        "State": "Perak"
    },
    {
        "Postcode": "36600",
        "Location": "Parit 7/6R",
        "Post_Office": "Chenderong Balai",
        "State": "Perak"
    },
    {
        "Postcode": "36600",
        "Location": "Parit 7/7L",
        "Post_Office": "Chenderong Balai",
        "State": "Perak"
    },
    {
        "Postcode": "36600",
        "Location": "Parit 8/6R",
        "Post_Office": "Chenderong Balai",
        "State": "Perak"
    },
    {
        "Postcode": "36600",
        "Location": "Parit 8/7L",
        "Post_Office": "Chenderong Balai",
        "State": "Perak"
    },
    {
        "Postcode": "36600",
        "Location": "Parit 9/6R",
        "Post_Office": "Chenderong Balai",
        "State": "Perak"
    },
    {
        "Postcode": "36600",
        "Location": "Chenderong Balai",
        "Post_Office": "Chenderong Balai",
        "State": "Perak"
    },
    {
        "Postcode": "36600",
        "Location": "Kampung Baru Redang Ponggor",
        "Post_Office": "Chenderong Balai",
        "State": "Perak"
    },
    {
        "Postcode": "36600",
        "Location": "Kampung Parit Sabran",
        "Post_Office": "Chenderong Balai",
        "State": "Perak"
    },
    {
        "Postcode": "36600",
        "Location": "Kampung Pengkalan Feri Kinta",
        "Post_Office": "Chenderong Balai",
        "State": "Perak"
    },
    {
        "Postcode": "36600",
        "Location": "Kampung Permatang Pelandok",
        "Post_Office": "Chenderong Balai",
        "State": "Perak"
    },
    {
        "Postcode": "36600",
        "Location": "Kampung Randang Panggur",
        "Post_Office": "Chenderong Balai",
        "State": "Perak"
    },
    {
        "Postcode": "36600",
        "Location": "Kampung Redang Ponggor",
        "Post_Office": "Chenderong Balai",
        "State": "Perak"
    },
    {
        "Postcode": "36600",
        "Location": "Kampung Sc Simpang Tiga",
        "Post_Office": "Chenderong Balai",
        "State": "Perak"
    },
    {
        "Postcode": "36600",
        "Location": "Kampung Simpang Empat Balai Polis",
        "Post_Office": "Chenderong Balai",
        "State": "Perak"
    },
    {
        "Postcode": "36600",
        "Location": "Kampung Simpang Tiga Jalan Baru Sungai Belt",
        "Post_Office": "Chenderong Balai",
        "State": "Perak"
    },
    {
        "Postcode": "36600",
        "Location": "Kampung Tebok Imam Subari",
        "Post_Office": "Chenderong Balai",
        "State": "Perak"
    },
    {
        "Postcode": "36600",
        "Location": "Kilang Padi Parit 5/6R",
        "Post_Office": "Chenderong Balai",
        "State": "Perak"
    },
    {
        "Postcode": "36600",
        "Location": "Kunci Air 12 Headwork",
        "Post_Office": "Chenderong Balai",
        "State": "Perak"
    },
    {
        "Postcode": "36600",
        "Location": "Lorong Haji Taib",
        "Post_Office": "Chenderong Balai",
        "State": "Perak"
    },
    {
        "Postcode": "36600",
        "Location": "Parit 1 1/2 Ustaz Bunyamin",
        "Post_Office": "Chenderong Balai",
        "State": "Perak"
    },
    {
        "Postcode": "36600",
        "Location": "Parit 1/6R Ustaz Saman",
        "Post_Office": "Chenderong Balai",
        "State": "Perak"
    },
    {
        "Postcode": "36600",
        "Location": "Parit 4/7L",
        "Post_Office": "Chenderong Balai",
        "State": "Perak"
    },
    {
        "Postcode": "36600",
        "Location": "Parit 4/7R",
        "Post_Office": "Chenderong Balai",
        "State": "Perak"
    },
    {
        "Postcode": "36600",
        "Location": "Parit 9/7R",
        "Post_Office": "Chenderong Balai",
        "State": "Perak"
    },
    {
        "Postcode": "36600",
        "Location": "Parit Satu Sabran",
        "Post_Office": "Chenderong Balai",
        "State": "Perak"
    },
    {
        "Postcode": "36600",
        "Location": "Pekan Rabu",
        "Post_Office": "Chenderong Balai",
        "State": "Perak"
    },
    {
        "Postcode": "36600",
        "Location": "Pengkalan Ara",
        "Post_Office": "Chenderong Balai",
        "State": "Perak"
    },
    {
        "Postcode": "36600",
        "Location": "Permatang Pelandok",
        "Post_Office": "Chenderong Balai",
        "State": "Perak"
    },
    {
        "Postcode": "36600",
        "Location": "Tali Air 7 Pengkalan Daun",
        "Post_Office": "Chenderong Balai",
        "State": "Perak"
    },
    {
        "Postcode": "36600",
        "Location": "Tebok Imam Subari",
        "Post_Office": "Chenderong Balai",
        "State": "Perak"
    }
]
