[
    {
        "Postcode": "36700",
        "Location": "Residensi Langkap",
        "Post_Office": "Langkap",
        "State": "Perak"
    },
    {
        "Postcode": "36700",
        "Location": "Kampung Baru",
        "Post_Office": "Langkap",
        "State": "Perak"
    },
    {
        "Postcode": "36700",
        "Location": "Kampung Belt",
        "Post_Office": "Langkap",
        "State": "Perak"
    },
    {
        "Postcode": "36700",
        "Location": "Kampung Matang Jambu",
        "Post_Office": "Langkap",
        "State": "Perak"
    },
    {
        "Postcode": "36700",
        "Location": "Kampung Melayu",
        "Post_Office": "Langkap",
        "State": "Perak"
    },
    {
        "Postcode": "36700",
        "Location": "Rumah Awam 2",
        "Post_Office": "Langkap",
        "State": "Perak"
    },
    {
        "Postcode": "36700",
        "Location": "Simpang Tiga",
        "Post_Office": "Langkap",
        "State": "Perak"
    },
    {
        "Postcode": "36700",
        "Location": "Taman Indah",
        "Post_Office": "Langkap",
        "State": "Perak"
    },
    {
        "Postcode": "36700",
        "Location": "Taman Intan",
        "Post_Office": "Langkap",
        "State": "Perak"
    },
    {
        "Postcode": "36700",
        "Location": "Taman Desa Maju",
        "Post_Office": "Langkap",
        "State": "Perak"
    },
    {
        "Postcode": "36700",
        "Location": "Taman Desa Jaya",
        "Post_Office": "Langkap",
        "State": "Perak"
    },
    {
        "Postcode": "36700",
        "Location": "Taman Mawar",
        "Post_Office": "Langkap",
        "State": "Perak"
    },
    {
        "Postcode": "36700",
        "Location": "Taman Pelangi",
        "Post_Office": "Langkap",
        "State": "Perak"
    },
    {
        "Postcode": "36700",
        "Location": "Taman Pertama",
        "Post_Office": "Langkap",
        "State": "Perak"
    },
    {
        "Postcode": "36700",
        "Location": "Taman Perwira",
        "Post_Office": "Langkap",
        "State": "Perak"
    },
    {
        "Postcode": "36700",
        "Location": "Degong Ratanui Camp",
        "Post_Office": "Langkap",
        "State": "Perak"
    },
    {
        "Postcode": "36700",
        "Location": "Jalan Silang (Jalan Chui Chak)",
        "Post_Office": "Langkap",
        "State": "Perak"
    },
    {
        "Postcode": "36700",
        "Location": "Kampung Akar Bakong",
        "Post_Office": "Langkap",
        "State": "Perak"
    },
    {
        "Postcode": "36700",
        "Location": "Kampung Alor Bakong",
        "Post_Office": "Langkap",
        "State": "Perak"
    },
    {
        "Postcode": "36700",
        "Location": "Kampung Attaduri",
        "Post_Office": "Langkap",
        "State": "Perak"
    },
    {
        "Postcode": "36700",
        "Location": "Kampung Baru Chui Chak",
        "Post_Office": "Langkap",
        "State": "Perak"
    },
    {
        "Postcode": "36700",
        "Location": "Kampung Baru Langkap",
        "Post_Office": "Langkap",
        "State": "Perak"
    },
    {
        "Postcode": "36700",
        "Location": "Kampung Baru Pelawan",
        "Post_Office": "Langkap",
        "State": "Perak"
    },
    {
        "Postcode": "36700",
        "Location": "Kampung Dato Nazri",
        "Post_Office": "Langkap",
        "State": "Perak"
    },
    {
        "Postcode": "36700",
        "Location": "Kampung Degong",
        "Post_Office": "Langkap",
        "State": "Perak"
    },
    {
        "Postcode": "36700",
        "Location": "Kampung Goh Hong",
        "Post_Office": "Langkap",
        "State": "Perak"
    },
    {
        "Postcode": "36700",
        "Location": "Kampung Haji Yusof Maidin",
        "Post_Office": "Langkap",
        "State": "Perak"
    },
    {
        "Postcode": "36700",
        "Location": "Kampung Orang Asli Pelawan",
        "Post_Office": "Langkap",
        "State": "Perak"
    },
    {
        "Postcode": "36700",
        "Location": "Kampung Sc Redang Punggur",
        "Post_Office": "Langkap",
        "State": "Perak"
    },
    {
        "Postcode": "36700",
        "Location": "Kampung Sungai Redang Punggur",
        "Post_Office": "Langkap",
        "State": "Perak"
    },
    {
        "Postcode": "36700",
        "Location": "Kampung Tanjong Keramat",
        "Post_Office": "Langkap",
        "State": "Perak"
    },
    {
        "Postcode": "36700",
        "Location": "Kampung Tersusun Alor Bakong",
        "Post_Office": "Langkap",
        "State": "Perak"
    },
    {
        "Postcode": "36700",
        "Location": "Ladang Lorong",
        "Post_Office": "Langkap",
        "State": "Perak"
    },
    {
        "Postcode": "36700",
        "Location": "Ladang Victoria",
        "Post_Office": "Langkap",
        "State": "Perak"
    },
    {
        "Postcode": "36700",
        "Location": "Langkap",
        "Post_Office": "Langkap",
        "State": "Perak"
    },
    {
        "Postcode": "36700",
        "Location": "Ratanui Camp",
        "Post_Office": "Langkap",
        "State": "Perak"
    },
    {
        "Postcode": "36700",
        "Location": "Simpang 3 Headwork",
        "Post_Office": "Langkap",
        "State": "Perak"
    },
    {
        "Postcode": "36700",
        "Location": "Simpang 3 Kunci Air 12",
        "Post_Office": "Langkap",
        "State": "Perak"
    },
    {
        "Postcode": "36700",
        "Location": "Simpang Tiga Kunci Air",
        "Post_Office": "Langkap",
        "State": "Perak"
    },
    {
        "Postcode": "36700",
        "Location": "Taman Chuan Nam Park",
        "Post_Office": "Langkap",
        "State": "Perak"
    },
    {
        "Postcode": "36700",
        "Location": "Taman Chui Chak",
        "Post_Office": "Langkap",
        "State": "Perak"
    },
    {
        "Postcode": "36700",
        "Location": "Taman Harumi",
        "Post_Office": "Langkap",
        "State": "Perak"
    },
    {
        "Postcode": "36700",
        "Location": "Taman Langkap",
        "Post_Office": "Langkap",
        "State": "Perak"
    },
    {
        "Postcode": "36700",
        "Location": "Taman Langkap 2",
        "Post_Office": "Langkap",
        "State": "Perak"
    },
    {
        "Postcode": "36700",
        "Location": "Taman Langkap Jaya",
        "Post_Office": "Langkap",
        "State": "Perak"
    },
    {
        "Postcode": "36700",
        "Location": "Rumah Awam 1",
        "Post_Office": "Langkap",
        "State": "Perak"
    }
]
