[
    {
        "Postcode": "36750",
        "Location": "Parit 1, Chikus",
        "Post_Office": "Chikus",
        "State": "Perak"
    },
    {
        "Postcode": "36750",
        "Location": "Parit 10, Chikus",
        "Post_Office": "Chikus",
        "State": "Perak"
    },
    {
        "Postcode": "36750",
        "Location": "Parit 2, Chikus",
        "Post_Office": "Chikus",
        "State": "Perak"
    },
    {
        "Postcode": "36750",
        "Location": "Parit 20, Chikus",
        "Post_Office": "Chikus",
        "State": "Perak"
    },
    {
        "Postcode": "36750",
        "Location": "Parit 21, Chikus",
        "Post_Office": "Chikus",
        "State": "Perak"
    },
    {
        "Postcode": "36750",
        "Location": "Parit 22, Chikus",
        "Post_Office": "Chikus",
        "State": "Perak"
    },
    {
        "Postcode": "36750",
        "Location": "Parit 23, Chikus",
        "Post_Office": "Chikus",
        "State": "Perak"
    },
    {
        "Postcode": "36750",
        "Location": "Parit 3, Chikus",
        "Post_Office": "Chikus",
        "State": "Perak"
    },
    {
        "Postcode": "36750",
        "Location": "Parit 4, Chikus",
        "Post_Office": "Chikus",
        "State": "Perak"
    },
    {
        "Postcode": "36750",
        "Location": "Parit 5, Chikus",
        "Post_Office": "Chikus",
        "State": "Perak"
    },
    {
        "Postcode": "36750",
        "Location": "Parit 6, Chikus",
        "Post_Office": "Chikus",
        "State": "Perak"
    },
    {
        "Postcode": "36750",
        "Location": "Parit 7, Chikus",
        "Post_Office": "Chikus",
        "State": "Perak"
    },
    {
        "Postcode": "36750",
        "Location": "Parit 8, Chikus",
        "Post_Office": "Chikus",
        "State": "Perak"
    },
    {
        "Postcode": "36750",
        "Location": "Parit 9, Chikus",
        "Post_Office": "Chikus",
        "State": "Perak"
    },
    {
        "Postcode": "36750",
        "Location": "Jalan Masjid",
        "Post_Office": "Chikus",
        "State": "Perak"
    },
    {
        "Postcode": "36750",
        "Location": "Kampung Belt",
        "Post_Office": "Chikus",
        "State": "Perak"
    },
    {
        "Postcode": "36750",
        "Location": "Kampung Masjid",
        "Post_Office": "Chikus",
        "State": "Perak"
    },
    {
        "Postcode": "36750",
        "Location": "Kampung Tengah",
        "Post_Office": "Chikus",
        "State": "Perak"
    },
    {
        "Postcode": "36750",
        "Location": "Chikus",
        "Post_Office": "Chikus",
        "State": "Perak"
    },
    {
        "Postcode": "36750",
        "Location": "Jalan Bendera",
        "Post_Office": "Chikus",
        "State": "Perak"
    },
    {
        "Postcode": "36750",
        "Location": "Kampung Ayer Deras",
        "Post_Office": "Chikus",
        "State": "Perak"
    },
    {
        "Postcode": "36750",
        "Location": "Kampung Chikus",
        "Post_Office": "Chikus",
        "State": "Perak"
    },
    {
        "Postcode": "36750",
        "Location": "Kampung Sungai Air Deras",
        "Post_Office": "Chikus",
        "State": "Perak"
    },
    {
        "Postcode": "36750",
        "Location": "Kampung Sungai Lampam Utara",
        "Post_Office": "Chikus",
        "State": "Perak"
    },
    {
        "Postcode": "36750",
        "Location": "Kampung Sungai Lampan",
        "Post_Office": "Chikus",
        "State": "Perak"
    },
    {
        "Postcode": "36750",
        "Location": "Kampung Sungai Rambai",
        "Post_Office": "Chikus",
        "State": "Perak"
    },
    {
        "Postcode": "36750",
        "Location": "Kampung Sungai Seluang",
        "Post_Office": "Chikus",
        "State": "Perak"
    },
    {
        "Postcode": "36750",
        "Location": "Kampung Sungai Tukang Sidin",
        "Post_Office": "Chikus",
        "State": "Perak"
    },
    {
        "Postcode": "36750",
        "Location": "Kampung Tukang Sidin",
        "Post_Office": "Chikus",
        "State": "Perak"
    },
    {
        "Postcode": "36750",
        "Location": "Sungai Rambai",
        "Post_Office": "Chikus",
        "State": "Perak"
    },
    {
        "Postcode": "36750",
        "Location": "Sungai Seluang",
        "Post_Office": "Chikus",
        "State": "Perak"
    },
    {
        "Postcode": "36750",
        "Location": "Tanjung Keramat",
        "Post_Office": "Chikus",
        "State": "Perak"
    }
]
