[
    {
        "Postcode": "36800",
        "Location": "Kampung Baru",
        "Post_Office": "Kampung Gajah",
        "State": "Perak"
    },
    {
        "Postcode": "36800",
        "Location": "Kampung Bendang Besar",
        "Post_Office": "Kampung Gajah",
        "State": "Perak"
    },
    {
        "Postcode": "36800",
        "Location": "Kampung Cina",
        "Post_Office": "Kampung Gajah",
        "State": "Perak"
    },
    {
        "Postcode": "36800",
        "Location": "Kampung Gajah",
        "Post_Office": "Kampung Gajah",
        "State": "Perak"
    },
    {
        "Postcode": "36800",
        "Location": "Kampung Jawa",
        "Post_Office": "Kampung Gajah",
        "State": "Perak"
    },
    {
        "Postcode": "36800",
        "Location": "Kampung Kota",
        "Post_Office": "Kampung Gajah",
        "State": "Perak"
    },
    {
        "Postcode": "36800",
        "Location": "Kampung Masjid",
        "Post_Office": "Kampung Gajah",
        "State": "Perak"
    },
    {
        "Postcode": "36800",
        "Location": "Kampung Melayu",
        "Post_Office": "Kampung Gajah",
        "State": "Perak"
    },
    {
        "Postcode": "36800",
        "Location": "Kampung Padang",
        "Post_Office": "Kampung Gajah",
        "State": "Perak"
    },
    {
        "Postcode": "36800",
        "Location": "Kampung Pisang",
        "Post_Office": "Kampung Gajah",
        "State": "Perak"
    },
    {
        "Postcode": "36800",
        "Location": "Kampung Pulau Tiga",
        "Post_Office": "Kampung Gajah",
        "State": "Perak"
    },
    {
        "Postcode": "36800",
        "Location": "Kampung Raja",
        "Post_Office": "Kampung Gajah",
        "State": "Perak"
    },
    {
        "Postcode": "36800",
        "Location": "Kampung Seberang",
        "Post_Office": "Kampung Gajah",
        "State": "Perak"
    },
    {
        "Postcode": "36800",
        "Location": "Kampung Simpang Tiga",
        "Post_Office": "Kampung Gajah",
        "State": "Perak"
    },
    {
        "Postcode": "36800",
        "Location": "Kampung Telok Kepayang",
        "Post_Office": "Kampung Gajah",
        "State": "Perak"
    },
    {
        "Postcode": "36800",
        "Location": "Kampung Tengah",
        "Post_Office": "Kampung Gajah",
        "State": "Perak"
    },
    {
        "Postcode": "36800",
        "Location": "Rumah Awam 2",
        "Post_Office": "Kampung Gajah",
        "State": "Perak"
    },
    {
        "Postcode": "36800",
        "Location": "Taman Cahaya",
        "Post_Office": "Kampung Gajah",
        "State": "Perak"
    },
    {
        "Postcode": "36800",
        "Location": "Taman Murni",
        "Post_Office": "Kampung Gajah",
        "State": "Perak"
    },
    {
        "Postcode": "36800",
        "Location": "Kampung Simpang Empat",
        "Post_Office": "Kampung Gajah",
        "State": "Perak"
    },
    {
        "Postcode": "36800",
        "Location": "Kampung Batu Hampar",
        "Post_Office": "Kampung Gajah",
        "State": "Perak"
    },
    {
        "Postcode": "36800",
        "Location": "Kampung Setia",
        "Post_Office": "Kampung Gajah",
        "State": "Perak"
    },
    {
        "Postcode": "36800",
        "Location": "Kampung Teluk",
        "Post_Office": "Kampung Gajah",
        "State": "Perak"
    },
    {
        "Postcode": "36800",
        "Location": "Bandar Tua",
        "Post_Office": "Kampung Gajah",
        "State": "Perak"
    },
    {
        "Postcode": "36800",
        "Location": "Banggor",
        "Post_Office": "Kampung Gajah",
        "State": "Perak"
    },
    {
        "Postcode": "36800",
        "Location": "Changkat Bayas",
        "Post_Office": "Kampung Gajah",
        "State": "Perak"
    },
    {
        "Postcode": "36800",
        "Location": "Changkat Lada",
        "Post_Office": "Kampung Gajah",
        "State": "Perak"
    },
    {
        "Postcode": "36800",
        "Location": "Felcra Changkat Lada",
        "Post_Office": "Kampung Gajah",
        "State": "Perak"
    },
    {
        "Postcode": "36800",
        "Location": "Felcra Gugusan Bendang",
        "Post_Office": "Kampung Gajah",
        "State": "Perak"
    },
    {
        "Postcode": "36800",
        "Location": "Hujong Tempok",
        "Post_Office": "Kampung Gajah",
        "State": "Perak"
    },
    {
        "Postcode": "36800",
        "Location": "Kampung Akar Bertakok",
        "Post_Office": "Kampung Gajah",
        "State": "Perak"
    },
    {
        "Postcode": "36800",
        "Location": "Kampung Alah",
        "Post_Office": "Kampung Gajah",
        "State": "Perak"
    },
    {
        "Postcode": "36800",
        "Location": "Kampung Aru",
        "Post_Office": "Kampung Gajah",
        "State": "Perak"
    },
    {
        "Postcode": "36800",
        "Location": "Kampung Balun Bidai",
        "Post_Office": "Kampung Gajah",
        "State": "Perak"
    },
    {
        "Postcode": "36800",
        "Location": "Kampung Bandar",
        "Post_Office": "Kampung Gajah",
        "State": "Perak"
    },
    {
        "Postcode": "36800",
        "Location": "Kampung Bandar Ayer",
        "Post_Office": "Kampung Gajah",
        "State": "Perak"
    },
    {
        "Postcode": "36800",
        "Location": "Kampung Bandar Lama",
        "Post_Office": "Kampung Gajah",
        "State": "Perak"
    },
    {
        "Postcode": "36800",
        "Location": "Kampung Bandar Tua Hilir",
        "Post_Office": "Kampung Gajah",
        "State": "Perak"
    },
    {
        "Postcode": "36800",
        "Location": "Kampung Bandar Tua Hulu",
        "Post_Office": "Kampung Gajah",
        "State": "Perak"
    },
    {
        "Postcode": "36800",
        "Location": "Kampung Baru Pulau Tiga",
        "Post_Office": "Kampung Gajah",
        "State": "Perak"
    },
    {
        "Postcode": "36800",
        "Location": "Kampung Batu Hitam",
        "Post_Office": "Kampung Gajah",
        "State": "Perak"
    },
    {
        "Postcode": "36800",
        "Location": "Kampung Bawah",
        "Post_Office": "Kampung Gajah",
        "State": "Perak"
    },
    {
        "Postcode": "36800",
        "Location": "Kampung Bawah Bunggor",
        "Post_Office": "Kampung Gajah",
        "State": "Perak"
    },
    {
        "Postcode": "36800",
        "Location": "Kampung Bendang Empai",
        "Post_Office": "Kampung Gajah",
        "State": "Perak"
    },
    {
        "Postcode": "36800",
        "Location": "Kampung Bendang Tengah",
        "Post_Office": "Kampung Gajah",
        "State": "Perak"
    },
    {
        "Postcode": "36800",
        "Location": "Kampung Biak",
        "Post_Office": "Kampung Gajah",
        "State": "Perak"
    },
    {
        "Postcode": "36800",
        "Location": "Kampung Budiman",
        "Post_Office": "Kampung Gajah",
        "State": "Perak"
    },
    {
        "Postcode": "36800",
        "Location": "Kampung Changkat Ayer Hitam",
        "Post_Office": "Kampung Gajah",
        "State": "Perak"
    },
    {
        "Postcode": "36800",
        "Location": "Kampung Changkat Bayas",
        "Post_Office": "Kampung Gajah",
        "State": "Perak"
    },
    {
        "Postcode": "36800",
        "Location": "Kampung Changkat Lada",
        "Post_Office": "Kampung Gajah",
        "State": "Perak"
    },
    {
        "Postcode": "36800",
        "Location": "Kampung Changkat Panjang",
        "Post_Office": "Kampung Gajah",
        "State": "Perak"
    },
    {
        "Postcode": "36800",
        "Location": "Kampung Changkat Rambai",
        "Post_Office": "Kampung Gajah",
        "State": "Perak"
    },
    {
        "Postcode": "36800",
        "Location": "Kampung Changkat Taboh",
        "Post_Office": "Kampung Gajah",
        "State": "Perak"
    },
    {
        "Postcode": "36800",
        "Location": "Kampung Dalam Terus",
        "Post_Office": "Kampung Gajah",
        "State": "Perak"
    },
    {
        "Postcode": "36800",
        "Location": "Kampung Empai",
        "Post_Office": "Kampung Gajah",
        "State": "Perak"
    },
    {
        "Postcode": "36800",
        "Location": "Kampung Geranggong",
        "Post_Office": "Kampung Gajah",
        "State": "Perak"
    },
    {
        "Postcode": "36800",
        "Location": "Kampung Kota Genting",
        "Post_Office": "Kampung Gajah",
        "State": "Perak"
    },
    {
        "Postcode": "36800",
        "Location": "Kampung Kuala Kinta",
        "Post_Office": "Kampung Gajah",
        "State": "Perak"
    },
    {
        "Postcode": "36800",
        "Location": "Kampung Lalang Panjang",
        "Post_Office": "Kampung Gajah",
        "State": "Perak"
    },
    {
        "Postcode": "36800",
        "Location": "Kampung Masjid Pulau Tiga",
        "Post_Office": "Kampung Gajah",
        "State": "Perak"
    },
    {
        "Postcode": "36800",
        "Location": "Kampung Matang Tok Embing",
        "Post_Office": "Kampung Gajah",
        "State": "Perak"
    },
    {
        "Postcode": "36800",
        "Location": "Kampung Padang Gertak",
        "Post_Office": "Kampung Gajah",
        "State": "Perak"
    },
    {
        "Postcode": "36800",
        "Location": "Kampung Paloh Bemban",
        "Post_Office": "Kampung Gajah",
        "State": "Perak"
    },
    {
        "Postcode": "36800",
        "Location": "Kampung Paloh Cacat",
        "Post_Office": "Kampung Gajah",
        "State": "Perak"
    },
    {
        "Postcode": "36800",
        "Location": "Kampung Paloh Dalam",
        "Post_Office": "Kampung Gajah",
        "State": "Perak"
    },
    {
        "Postcode": "36800",
        "Location": "Kampung Parit Temelor",
        "Post_Office": "Kampung Gajah",
        "State": "Perak"
    },
    {
        "Postcode": "36800",
        "Location": "Kampung Pasir Garam",
        "Post_Office": "Kampung Gajah",
        "State": "Perak"
    },
    {
        "Postcode": "36800",
        "Location": "Kampung Pasir Jenderis",
        "Post_Office": "Kampung Gajah",
        "State": "Perak"
    },
    {
        "Postcode": "36800",
        "Location": "Kampung Pasir Kubu",
        "Post_Office": "Kampung Gajah",
        "State": "Perak"
    },
    {
        "Postcode": "36800",
        "Location": "Kampung Pasir Panjang",
        "Post_Office": "Kampung Gajah",
        "State": "Perak"
    },
    {
        "Postcode": "36800",
        "Location": "Kampung Pasir Pulai",
        "Post_Office": "Kampung Gajah",
        "State": "Perak"
    },
    {
        "Postcode": "36800",
        "Location": "Kampung Pasir Salak",
        "Post_Office": "Kampung Gajah",
        "State": "Perak"
    },
    {
        "Postcode": "36800",
        "Location": "Kampung Passir Kubu",
        "Post_Office": "Kampung Gajah",
        "State": "Perak"
    },
    {
        "Postcode": "36800",
        "Location": "Kampung Pebayan",
        "Post_Office": "Kampung Gajah",
        "State": "Perak"
    },
    {
        "Postcode": "36800",
        "Location": "Kampung Pengkalan Nibong",
        "Post_Office": "Kampung Gajah",
        "State": "Perak"
    },
    {
        "Postcode": "36800",
        "Location": "Kampung Pulau Besar",
        "Post_Office": "Kampung Gajah",
        "State": "Perak"
    },
    {
        "Postcode": "36800",
        "Location": "Kampung Pulau Gajah",
        "Post_Office": "Kampung Gajah",
        "State": "Perak"
    },
    {
        "Postcode": "36800",
        "Location": "Kampung Pulau Juar",
        "Post_Office": "Kampung Gajah",
        "State": "Perak"
    },
    {
        "Postcode": "36800",
        "Location": "Kampung Pulau Tiga Kiri",
        "Post_Office": "Kampung Gajah",
        "State": "Perak"
    },
    {
        "Postcode": "36800",
        "Location": "Kampung Raja Alah",
        "Post_Office": "Kampung Gajah",
        "State": "Perak"
    },
    {
        "Postcode": "36800",
        "Location": "Kampung Rantau Panjang",
        "Post_Office": "Kampung Gajah",
        "State": "Perak"
    },
    {
        "Postcode": "36800",
        "Location": "Kampung Seberang Terus",
        "Post_Office": "Kampung Gajah",
        "State": "Perak"
    },
    {
        "Postcode": "36800",
        "Location": "Kampung Selat Pulau",
        "Post_Office": "Kampung Gajah",
        "State": "Perak"
    },
    {
        "Postcode": "36800",
        "Location": "Kampung Takar Pecah",
        "Post_Office": "Kampung Gajah",
        "State": "Perak"
    },
    {
        "Postcode": "36800",
        "Location": "Kampung Tanjong Bidara",
        "Post_Office": "Kampung Gajah",
        "State": "Perak"
    },
    {
        "Postcode": "36800",
        "Location": "Kampung Tanjung",
        "Post_Office": "Kampung Gajah",
        "State": "Perak"
    },
    {
        "Postcode": "36800",
        "Location": "Kampung Telok Dendang",
        "Post_Office": "Kampung Gajah",
        "State": "Perak"
    },
    {
        "Postcode": "36800",
        "Location": "Kampung Telok Memali",
        "Post_Office": "Kampung Gajah",
        "State": "Perak"
    },
    {
        "Postcode": "36800",
        "Location": "Kampung Telok Penadah",
        "Post_Office": "Kampung Gajah",
        "State": "Perak"
    },
    {
        "Postcode": "36800",
        "Location": "Kampung Telok Saga",
        "Post_Office": "Kampung Gajah",
        "State": "Perak"
    },
    {
        "Postcode": "36800",
        "Location": "Kampung Telok Sareh",
        "Post_Office": "Kampung Gajah",
        "State": "Perak"
    },
    {
        "Postcode": "36800",
        "Location": "Kampung Telok Sareh Hilir",
        "Post_Office": "Kampung Gajah",
        "State": "Perak"
    },
    {
        "Postcode": "36800",
        "Location": "Kampung Telok Sareh Hulu",
        "Post_Office": "Kampung Gajah",
        "State": "Perak"
    },
    {
        "Postcode": "36800",
        "Location": "Kampung Tersusun Balun Bidai",
        "Post_Office": "Kampung Gajah",
        "State": "Perak"
    },
    {
        "Postcode": "36800",
        "Location": "Kampung Tersusun Jalan Tanjong Tualang",
        "Post_Office": "Kampung Gajah",
        "State": "Perak"
    },
    {
        "Postcode": "36800",
        "Location": "Kampung Tersusun Telok Memali",
        "Post_Office": "Kampung Gajah",
        "State": "Perak"
    },
    {
        "Postcode": "36800",
        "Location": "Kedai Koperasi Bena Bersama",
        "Post_Office": "Kampung Gajah",
        "State": "Perak"
    },
    {
        "Postcode": "36800",
        "Location": "Kepala Pulau",
        "Post_Office": "Kampung Gajah",
        "State": "Perak"
    },
    {
        "Postcode": "36800",
        "Location": "Kuarters Pejabat Daerah \u0026 Tanah",
        "Post_Office": "Kampung Gajah",
        "State": "Perak"
    },
    {
        "Postcode": "36800",
        "Location": "Ladang Bukit Tunggal",
        "Post_Office": "Kampung Gajah",
        "State": "Perak"
    },
    {
        "Postcode": "36800",
        "Location": "Padang Gertak",
        "Post_Office": "Kampung Gajah",
        "State": "Perak"
    },
    {
        "Postcode": "36800",
        "Location": "Padang Kunchor",
        "Post_Office": "Kampung Gajah",
        "State": "Perak"
    },
    {
        "Postcode": "36800",
        "Location": "Pasir Kubu",
        "Post_Office": "Kampung Gajah",
        "State": "Perak"
    },
    {
        "Postcode": "36800",
        "Location": "Pasir Salak",
        "Post_Office": "Kampung Gajah",
        "State": "Perak"
    },
    {
        "Postcode": "36800",
        "Location": "Permatang Buloh Galah",
        "Post_Office": "Kampung Gajah",
        "State": "Perak"
    },
    {
        "Postcode": "36800",
        "Location": "Pknp Fasa 5",
        "Post_Office": "Kampung Gajah",
        "State": "Perak"
    },
    {
        "Postcode": "36800",
        "Location": "Pulau Tiga",
        "Post_Office": "Kampung Gajah",
        "State": "Perak"
    },
    {
        "Postcode": "36800",
        "Location": "Rancangan Perumahan Awam 3",
        "Post_Office": "Kampung Gajah",
        "State": "Perak"
    },
    {
        "Postcode": "36800",
        "Location": "Rumah Kakitangan Pendidikan Kampung Pasir Putih",
        "Post_Office": "Kampung Gajah",
        "State": "Perak"
    },
    {
        "Postcode": "36800",
        "Location": "Selat Pulau",
        "Post_Office": "Kampung Gajah",
        "State": "Perak"
    },
    {
        "Postcode": "36800",
        "Location": "Simpang 4 Pekan Kampung Gajah",
        "Post_Office": "Kampung Gajah",
        "State": "Perak"
    },
    {
        "Postcode": "36800",
        "Location": "Takor Pechah",
        "Post_Office": "Kampung Gajah",
        "State": "Perak"
    },
    {
        "Postcode": "36800",
        "Location": "Taman Bandar Lama",
        "Post_Office": "Kampung Gajah",
        "State": "Perak"
    },
    {
        "Postcode": "36800",
        "Location": "Taman Changkat Lada Raya",
        "Post_Office": "Kampung Gajah",
        "State": "Perak"
    },
    {
        "Postcode": "36800",
        "Location": "Taman Desa Makmur",
        "Post_Office": "Kampung Gajah",
        "State": "Perak"
    },
    {
        "Postcode": "36800",
        "Location": "Taman Murni Tambahan",
        "Post_Office": "Kampung Gajah",
        "State": "Perak"
    },
    {
        "Postcode": "36800",
        "Location": "Tanah Free",
        "Post_Office": "Kampung Gajah",
        "State": "Perak"
    },
    {
        "Postcode": "36800",
        "Location": "Tanjung Bidara",
        "Post_Office": "Kampung Gajah",
        "State": "Perak"
    },
    {
        "Postcode": "36800",
        "Location": "Teluk Dendang",
        "Post_Office": "Kampung Gajah",
        "State": "Perak"
    },
    {
        "Postcode": "36800",
        "Location": "Teluk Sareh",
        "Post_Office": "Kampung Gajah",
        "State": "Perak"
    },
    {
        "Postcode": "36800",
        "Location": "Bandar Ayer",
        "Post_Office": "Kampung Gajah",
        "State": "Perak"
    },
    {
        "Postcode": "36800",
        "Location": "Kampung Bakar Arang",
        "Post_Office": "Kampung Gajah",
        "State": "Perak"
    },
    {
        "Postcode": "36800",
        "Location": "Kampung Bandar Air",
        "Post_Office": "Kampung Gajah",
        "State": "Perak"
    },
    {
        "Postcode": "36800",
        "Location": "Kampung Baru Setimbul",
        "Post_Office": "Kampung Gajah",
        "State": "Perak"
    },
    {
        "Postcode": "36800",
        "Location": "Kampung Kota Setia",
        "Post_Office": "Kampung Gajah",
        "State": "Perak"
    },
    {
        "Postcode": "36800",
        "Location": "Kampung Parit Baru",
        "Post_Office": "Kampung Gajah",
        "State": "Perak"
    },
    {
        "Postcode": "36800",
        "Location": "Kampung Ranggam",
        "Post_Office": "Kampung Gajah",
        "State": "Perak"
    },
    {
        "Postcode": "36800",
        "Location": "Kampung Sungai Bachan",
        "Post_Office": "Kampung Gajah",
        "State": "Perak"
    },
    {
        "Postcode": "36800",
        "Location": "Kampung Sungai Badak",
        "Post_Office": "Kampung Gajah",
        "State": "Perak"
    },
    {
        "Postcode": "36800",
        "Location": "Kampung Sungai Dua",
        "Post_Office": "Kampung Gajah",
        "State": "Perak"
    },
    {
        "Postcode": "36800",
        "Location": "Kampung Sungai Nibong",
        "Post_Office": "Kampung Gajah",
        "State": "Perak"
    },
    {
        "Postcode": "36800",
        "Location": "Kampung Sungai Ranggam Pulau",
        "Post_Office": "Kampung Gajah",
        "State": "Perak"
    },
    {
        "Postcode": "36800",
        "Location": "Kampung Sungai Setimbul",
        "Post_Office": "Kampung Gajah",
        "State": "Perak"
    },
    {
        "Postcode": "36800",
        "Location": "Kampung Teluk Ketapang",
        "Post_Office": "Kampung Gajah",
        "State": "Perak"
    },
    {
        "Postcode": "36800",
        "Location": "Kampung Teluk Pieai",
        "Post_Office": "Kampung Gajah",
        "State": "Perak"
    },
    {
        "Postcode": "36800",
        "Location": "Kota Setia",
        "Post_Office": "Kampung Gajah",
        "State": "Perak"
    },
    {
        "Postcode": "36800",
        "Location": "Pprt Sungai Ranggam",
        "Post_Office": "Kampung Gajah",
        "State": "Perak"
    },
    {
        "Postcode": "36800",
        "Location": "Ranggam Estate",
        "Post_Office": "Kampung Gajah",
        "State": "Perak"
    },
    {
        "Postcode": "36800",
        "Location": "Sungai Ranggam",
        "Post_Office": "Kampung Gajah",
        "State": "Perak"
    },
    {
        "Postcode": "36800",
        "Location": "Kampung Kelang",
        "Post_Office": "Kampung Gajah",
        "State": "Perak"
    },
    {
        "Postcode": "36800",
        "Location": "Kampung Kepala Pulau",
        "Post_Office": "Kampung Gajah",
        "State": "Perak"
    },
    {
        "Postcode": "36800",
        "Location": "Kampung Kuala Parit",
        "Post_Office": "Kampung Gajah",
        "State": "Perak"
    },
    {
        "Postcode": "36800",
        "Location": "Kampung Pasir Puteh",
        "Post_Office": "Kampung Gajah",
        "State": "Perak"
    },
    {
        "Postcode": "36800",
        "Location": "Rumah Awam 3",
        "Post_Office": "Kampung Gajah",
        "State": "Perak"
    },
    {
        "Postcode": "36800",
        "Location": "Taman Seri Setia",
        "Post_Office": "Kampung Gajah",
        "State": "Perak"
    }
]
