[
    {
        "Postcode": "96000",
        "Location": "Taman Wawasan",
        "Post_Office": "Sibu",
        "State": "Sarawak"
    },
    {
        "Postcode": "96000",
        "Location": "Aup",
        "Post_Office": "Sibu",
        "State": "Sarawak"
    },
    {
        "Postcode": "96000",
        "Location": "Batang Lasa",
        "Post_Office": "Sibu",
        "State": "Sarawak"
    },
    {
        "Postcode": "96000",
        "Location": "Bawang Assan",
        "Post_Office": "Sibu",
        "State": "Sarawak"
    },
    {
        "Postcode": "96000",
        "Location": "Bukit Asek",
        "Post_Office": "Sibu",
        "State": "Sarawak"
    },
    {
        "Postcode": "96000",
        "Location": "Bukit Lan",
        "Post_Office": "Sibu",
        "State": "Sarawak"
    },
    {
        "Postcode": "96000",
        "Location": "Dudong",
        "Post_Office": "Sibu",
        "State": "Sarawak"
    },
    {
        "Postcode": "96000",
        "Location": "Durin",
        "Post_Office": "Sibu",
        "State": "Sarawak"
    },
    {
        "Postcode": "96000",
        "Location": "Engkalat",
        "Post_Office": "Sibu",
        "State": "Sarawak"
    },
    {
        "Postcode": "96000",
        "Location": "Engkio",
        "Post_Office": "Sibu",
        "State": "Sarawak"
    },
    {
        "Postcode": "96000",
        "Location": "Ensurai",
        "Post_Office": "Sibu",
        "State": "Sarawak"
    },
    {
        "Postcode": "96000",
        "Location": "Kampung Bahagia Jaya",
        "Post_Office": "Sibu",
        "State": "Sarawak"
    },
    {
        "Postcode": "96000",
        "Location": "Kampung Banyok",
        "Post_Office": "Sibu",
        "State": "Sarawak"
    },
    {
        "Postcode": "96000",
        "Location": "Kampung Bungan",
        "Post_Office": "Sibu",
        "State": "Sarawak"
    },
    {
        "Postcode": "96000",
        "Location": "Kampung Igan",
        "Post_Office": "Sibu",
        "State": "Sarawak"
    },
    {
        "Postcode": "96000",
        "Location": "Kampung Jeriah Baru",
        "Post_Office": "Sibu",
        "State": "Sarawak"
    },
    {
        "Postcode": "96000",
        "Location": "Kampung Sawai Dalat",
        "Post_Office": "Sibu",
        "State": "Sarawak"
    },
    {
        "Postcode": "96000",
        "Location": "Kampung Usaha Jaya",
        "Post_Office": "Sibu",
        "State": "Sarawak"
    },
    {
        "Postcode": "96000",
        "Location": "Kampung Usaha Jaya Baru",
        "Post_Office": "Sibu",
        "State": "Sarawak"
    },
    {
        "Postcode": "96000",
        "Location": "Lengan",
        "Post_Office": "Sibu",
        "State": "Sarawak"
    },
    {
        "Postcode": "96000",
        "Location": "Menyan",
        "Post_Office": "Sibu",
        "State": "Sarawak"
    },
    {
        "Postcode": "96000",
        "Location": "Naman",
        "Post_Office": "Sibu",
        "State": "Sarawak"
    },
    {
        "Postcode": "96000",
        "Location": "Nanga Baoh",
        "Post_Office": "Sibu",
        "State": "Sarawak"
    },
    {
        "Postcode": "96000",
        "Location": "Nanga Paloh",
        "Post_Office": "Sibu",
        "State": "Sarawak"
    },
    {
        "Postcode": "96000",
        "Location": "Nanga Tamin",
        "Post_Office": "Sibu",
        "State": "Sarawak"
    },
    {
        "Postcode": "96000",
        "Location": "Nanga Tepus Balingian",
        "Post_Office": "Sibu",
        "State": "Sarawak"
    },
    {
        "Postcode": "96000",
        "Location": "Nangka",
        "Post_Office": "Sibu",
        "State": "Sarawak"
    },
    {
        "Postcode": "96000",
        "Location": "Paradom",
        "Post_Office": "Sibu",
        "State": "Sarawak"
    },
    {
        "Postcode": "96000",
        "Location": "Pasai Siong",
        "Post_Office": "Sibu",
        "State": "Sarawak"
    },
    {
        "Postcode": "96000",
        "Location": "Pasar Stapang",
        "Post_Office": "Sibu",
        "State": "Sarawak"
    },
    {
        "Postcode": "96000",
        "Location": "Passin",
        "Post_Office": "Sibu",
        "State": "Sarawak"
    },
    {
        "Postcode": "96000",
        "Location": "Pelawan",
        "Post_Office": "Sibu",
        "State": "Sarawak"
    },
    {
        "Postcode": "96000",
        "Location": "Penasu",
        "Post_Office": "Sibu",
        "State": "Sarawak"
    },
    {
        "Postcode": "96000",
        "Location": "Pulai Kerto",
        "Post_Office": "Sibu",
        "State": "Sarawak"
    },
    {
        "Postcode": "96000",
        "Location": "Rajang Park",
        "Post_Office": "Sibu",
        "State": "Sarawak"
    },
    {
        "Postcode": "96000",
        "Location": "Rantau Panjang",
        "Post_Office": "Sibu",
        "State": "Sarawak"
    },
    {
        "Postcode": "96000",
        "Location": "Rassau",
        "Post_Office": "Sibu",
        "State": "Sarawak"
    },
    {
        "Postcode": "96000",
        "Location": "Salim",
        "Post_Office": "Sibu",
        "State": "Sarawak"
    },
    {
        "Postcode": "96000",
        "Location": "Sekuau",
        "Post_Office": "Sibu",
        "State": "Sarawak"
    },
    {
        "Postcode": "96000",
        "Location": "Sengan",
        "Post_Office": "Sibu",
        "State": "Sarawak"
    },
    {
        "Postcode": "96000",
        "Location": "Sibintik",
        "Post_Office": "Sibu",
        "State": "Sarawak"
    },
    {
        "Postcode": "96000",
        "Location": "Sibu",
        "Post_Office": "Sibu",
        "State": "Sarawak"
    },
    {
        "Postcode": "96000",
        "Location": "Singat",
        "Post_Office": "Sibu",
        "State": "Sarawak"
    },
    {
        "Postcode": "96000",
        "Location": "Stabau",
        "Post_Office": "Sibu",
        "State": "Sarawak"
    },
    {
        "Postcode": "96000",
        "Location": "Sungai Bidut",
        "Post_Office": "Sibu",
        "State": "Sarawak"
    },
    {
        "Postcode": "96000",
        "Location": "Sungai Dasan",
        "Post_Office": "Sibu",
        "State": "Sarawak"
    },
    {
        "Postcode": "96000",
        "Location": "Sungai Empawah",
        "Post_Office": "Sibu",
        "State": "Sarawak"
    },
    {
        "Postcode": "96000",
        "Location": "Sungai Maaw",
        "Post_Office": "Sibu",
        "State": "Sarawak"
    },
    {
        "Postcode": "96000",
        "Location": "Sungai Nibong",
        "Post_Office": "Sibu",
        "State": "Sarawak"
    },
    {
        "Postcode": "96000",
        "Location": "Sungai Pak",
        "Post_Office": "Sibu",
        "State": "Sarawak"
    },
    {
        "Postcode": "96000",
        "Location": "Sungai Salim",
        "Post_Office": "Sibu",
        "State": "Sarawak"
    },
    {
        "Postcode": "96000",
        "Location": "Sungai Saoit",
        "Post_Office": "Sibu",
        "State": "Sarawak"
    },
    {
        "Postcode": "96000",
        "Location": "Sungai Teku",
        "Post_Office": "Sibu",
        "State": "Sarawak"
    },
    {
        "Postcode": "96000",
        "Location": "Sungai Telian",
        "Post_Office": "Sibu",
        "State": "Sarawak"
    },
    {
        "Postcode": "96000",
        "Location": "Taman Damai",
        "Post_Office": "Sibu",
        "State": "Sarawak"
    },
    {
        "Postcode": "96000",
        "Location": "Taman Grands Heights",
        "Post_Office": "Sibu",
        "State": "Sarawak"
    },
    {
        "Postcode": "96000",
        "Location": "Taman Kenari",
        "Post_Office": "Sibu",
        "State": "Sarawak"
    },
    {
        "Postcode": "96000",
        "Location": "Taman Paramount",
        "Post_Office": "Sibu",
        "State": "Sarawak"
    },
    {
        "Postcode": "96000",
        "Location": "Taman Pulau Li Hua",
        "Post_Office": "Sibu",
        "State": "Sarawak"
    },
    {
        "Postcode": "96000",
        "Location": "Taman Rajang",
        "Post_Office": "Sibu",
        "State": "Sarawak"
    },
    {
        "Postcode": "96000",
        "Location": "Taman Shan Shui",
        "Post_Office": "Sibu",
        "State": "Sarawak"
    },
    {
        "Postcode": "96000",
        "Location": "Taman Siti Nurbaya",
        "Post_Office": "Sibu",
        "State": "Sarawak"
    },
    {
        "Postcode": "96000",
        "Location": "Taman Soon Hup",
        "Post_Office": "Sibu",
        "State": "Sarawak"
    },
    {
        "Postcode": "96000",
        "Location": "Taman Swan",
        "Post_Office": "Sibu",
        "State": "Sarawak"
    },
    {
        "Postcode": "96000",
        "Location": "Tanjung Kunyit",
        "Post_Office": "Sibu",
        "State": "Sarawak"
    },
    {
        "Postcode": "96000",
        "Location": "Tanjung Pan",
        "Post_Office": "Sibu",
        "State": "Sarawak"
    },
    {
        "Postcode": "96000",
        "Location": "Teluk Bango",
        "Post_Office": "Sibu",
        "State": "Sarawak"
    },
    {
        "Postcode": "96000",
        "Location": "Teluk Selalo",
        "Post_Office": "Sibu",
        "State": "Sarawak"
    },
    {
        "Postcode": "96000",
        "Location": "Tung Nam Poh",
        "Post_Office": "Sibu",
        "State": "Sarawak"
    },
    {
        "Postcode": "96000",
        "Location": "Ulu Lanang",
        "Post_Office": "Sibu",
        "State": "Sarawak"
    },
    {
        "Postcode": "96000",
        "Location": "Taman Harmoni",
        "Post_Office": "Sibu",
        "State": "Sarawak"
    }
]
