[
    {
        "Postcode": "96150",
        "Location": "Belawai",
        "Post_Office": "Belawai",
        "State": "Sarawak"
    },
    {
        "Postcode": "96150",
        "Location": "Kampung Darat",
        "Post_Office": "Belawai",
        "State": "Sarawak"
    },
    {
        "Postcode": "96150",
        "Location": "Kampung Jerijeh Baru",
        "Post_Office": "Belawai",
        "State": "Sarawak"
    },
    {
        "Postcode": "96150",
        "Location": "Kampung Masjid Lama",
        "Post_Office": "Belawai",
        "State": "Sarawak"
    },
    {
        "Postcode": "96150",
        "Location": "Kampung Rejang",
        "Post_Office": "Belawai",
        "State": "Sarawak"
    },
    {
        "Postcode": "96150",
        "Location": "Kampung Tepi Laut",
        "Post_Office": "Belawai",
        "State": "Sarawak"
    },
    {
        "Postcode": "96150",
        "Location": "Tanjung Manis",
        "Post_Office": "Belawai",
        "State": "Sarawak"
    },
    {
        "Postcode": "96150",
        "Location": "Kampung Baru",
        "Post_Office": "Belawai",
        "State": "Sarawak"
    }
]
