[
    {
        "Postcode": "96200",
        "Location": "Batang Lasak",
        "Post_Office": "Daro",
        "State": "Sarawak"
    },
    {
        "Postcode": "96200",
        "Location": "Bericakong",
        "Post_Office": "Daro",
        "State": "Sarawak"
    },
    {
        "Postcode": "96200",
        "Location": "Betanak",
        "Post_Office": "Daro",
        "State": "Sarawak"
    },
    {
        "Postcode": "96200",
        "Location": "Daro",
        "Post_Office": "Daro",
        "State": "Sarawak"
    },
    {
        "Postcode": "96200",
        "Location": "Jalan Bina",
        "Post_Office": "Daro",
        "State": "Sarawak"
    },
    {
        "Postcode": "96200",
        "Location": "Jalan Central",
        "Post_Office": "Daro",
        "State": "Sarawak"
    },
    {
        "Postcode": "96200",
        "Location": "Jalan Itol",
        "Post_Office": "Daro",
        "State": "Sarawak"
    },
    {
        "Postcode": "96200",
        "Location": "Kampung Bawang",
        "Post_Office": "Daro",
        "State": "Sarawak"
    },
    {
        "Postcode": "96200",
        "Location": "Kampung Bruit",
        "Post_Office": "Daro",
        "State": "Sarawak"
    },
    {
        "Postcode": "96200",
        "Location": "Kampung Kelian",
        "Post_Office": "Daro",
        "State": "Sarawak"
    },
    {
        "Postcode": "96200",
        "Location": "Kampung Nan San",
        "Post_Office": "Daro",
        "State": "Sarawak"
    },
    {
        "Postcode": "96200",
        "Location": "Kampung Nangar",
        "Post_Office": "Daro",
        "State": "Sarawak"
    },
    {
        "Postcode": "96200",
        "Location": "Kampung Paloh",
        "Post_Office": "Daro",
        "State": "Sarawak"
    },
    {
        "Postcode": "96200",
        "Location": "Kampung Penakong",
        "Post_Office": "Daro",
        "State": "Sarawak"
    },
    {
        "Postcode": "96200",
        "Location": "Kampung Penuai",
        "Post_Office": "Daro",
        "State": "Sarawak"
    },
    {
        "Postcode": "96200",
        "Location": "Kampung Penyipah",
        "Post_Office": "Daro",
        "State": "Sarawak"
    },
    {
        "Postcode": "96200",
        "Location": "Kampung Saai",
        "Post_Office": "Daro",
        "State": "Sarawak"
    },
    {
        "Postcode": "96200",
        "Location": "Kampung Sawai",
        "Post_Office": "Daro",
        "State": "Sarawak"
    },
    {
        "Postcode": "96200",
        "Location": "Kampung Sebakau",
        "Post_Office": "Daro",
        "State": "Sarawak"
    },
    {
        "Postcode": "96200",
        "Location": "Kampung Sebenak",
        "Post_Office": "Daro",
        "State": "Sarawak"
    },
    {
        "Postcode": "96200",
        "Location": "Kampung Sedeo",
        "Post_Office": "Daro",
        "State": "Sarawak"
    },
    {
        "Postcode": "96200",
        "Location": "Kampung Serdeng",
        "Post_Office": "Daro",
        "State": "Sarawak"
    },
    {
        "Postcode": "96200",
        "Location": "Kampung Tebaang",
        "Post_Office": "Daro",
        "State": "Sarawak"
    },
    {
        "Postcode": "96200",
        "Location": "Kampung Tekajong",
        "Post_Office": "Daro",
        "State": "Sarawak"
    },
    {
        "Postcode": "96200",
        "Location": "Kampung Tikajong",
        "Post_Office": "Daro",
        "State": "Sarawak"
    },
    {
        "Postcode": "96200",
        "Location": "Kampung Ulu Daro",
        "Post_Office": "Daro",
        "State": "Sarawak"
    },
    {
        "Postcode": "96200",
        "Location": "Kelian",
        "Post_Office": "Daro",
        "State": "Sarawak"
    },
    {
        "Postcode": "96200",
        "Location": "Mupong",
        "Post_Office": "Daro",
        "State": "Sarawak"
    },
    {
        "Postcode": "96200",
        "Location": "Naga Kecil",
        "Post_Office": "Daro",
        "State": "Sarawak"
    },
    {
        "Postcode": "96200",
        "Location": "Ng. Semah",
        "Post_Office": "Daro",
        "State": "Sarawak"
    },
    {
        "Postcode": "96200",
        "Location": "Salah Kecil/Besar",
        "Post_Office": "Daro",
        "State": "Sarawak"
    }
]
