[
    {
        "Postcode": "96250",
        "Location": "Kampung Jemoreng",
        "Post_Office": "Matu",
        "State": "Sarawak"
    },
    {
        "Postcode": "96250",
        "Location": "Kampung Kuala Matu",
        "Post_Office": "Matu",
        "State": "Sarawak"
    },
    {
        "Postcode": "96250",
        "Location": "Kampung Muut",
        "Post_Office": "Matu",
        "State": "Sarawak"
    },
    {
        "Postcode": "96250",
        "Location": "Kampung Pasar Baru",
        "Post_Office": "Matu",
        "State": "Sarawak"
    },
    {
        "Postcode": "96250",
        "Location": "Kampung Pasar Lama",
        "Post_Office": "Matu",
        "State": "Sarawak"
    },
    {
        "Postcode": "96250",
        "Location": "Kampung Pergau",
        "Post_Office": "Matu",
        "State": "Sarawak"
    },
    {
        "Postcode": "96250",
        "Location": "Kampung Sekaan Besar",
        "Post_Office": "Matu",
        "State": "Sarawak"
    },
    {
        "Postcode": "96250",
        "Location": "Kampung Sekaan Kecil",
        "Post_Office": "Matu",
        "State": "Sarawak"
    },
    {
        "Postcode": "96250",
        "Location": "Kampung Serakat",
        "Post_Office": "Matu",
        "State": "Sarawak"
    },
    {
        "Postcode": "96250",
        "Location": "Kampung Tering",
        "Post_Office": "Matu",
        "State": "Sarawak"
    },
    {
        "Postcode": "96250",
        "Location": "Kampung Tian",
        "Post_Office": "Matu",
        "State": "Sarawak"
    },
    {
        "Postcode": "96250",
        "Location": "Matu",
        "Post_Office": "Matu",
        "State": "Sarawak"
    },
    {
        "Postcode": "96250",
        "Location": "Telok Gelam",
        "Post_Office": "Matu",
        "State": "Sarawak"
    },
    {
        "Postcode": "96250",
        "Location": "Kampung Dagang",
        "Post_Office": "Matu",
        "State": "Sarawak"
    }
]
