[
    {
        "Postcode": "96300",
        "Location": "Dalat",
        "Post_Office": "Dalat",
        "State": "Sarawak"
    },
    {
        "Postcode": "96300",
        "Location": "Kampung Balan",
        "Post_Office": "Dalat",
        "State": "Sarawak"
    },
    {
        "Postcode": "96300",
        "Location": "Kampung Baru Cina",
        "Post_Office": "Dalat",
        "State": "Sarawak"
    },
    {
        "Postcode": "96300",
        "Location": "Kampung Brunei",
        "Post_Office": "Dalat",
        "State": "Sarawak"
    },
    {
        "Postcode": "96300",
        "Location": "Kampung Dalat Seberang",
        "Post_Office": "Dalat",
        "State": "Sarawak"
    },
    {
        "Postcode": "96300",
        "Location": "Kampung Kekan",
        "Post_Office": "Dalat",
        "State": "Sarawak"
    },
    {
        "Postcode": "96300",
        "Location": "Kampung Klid",
        "Post_Office": "Dalat",
        "State": "Sarawak"
    },
    {
        "Postcode": "96300",
        "Location": "Kampung Medong",
        "Post_Office": "Dalat",
        "State": "Sarawak"
    },
    {
        "Postcode": "96300",
        "Location": "Kampung Narub",
        "Post_Office": "Dalat",
        "State": "Sarawak"
    },
    {
        "Postcode": "96300",
        "Location": "Kampung Sua",
        "Post_Office": "Dalat",
        "State": "Sarawak"
    },
    {
        "Postcode": "96300",
        "Location": "Kampung Sungai Anak",
        "Post_Office": "Dalat",
        "State": "Sarawak"
    },
    {
        "Postcode": "96300",
        "Location": "Kampung Sungai Kut Muara",
        "Post_Office": "Dalat",
        "State": "Sarawak"
    },
    {
        "Postcode": "96300",
        "Location": "Kampung Sungai Kut Tengah",
        "Post_Office": "Dalat",
        "State": "Sarawak"
    },
    {
        "Postcode": "96300",
        "Location": "Kampung Sungai Ud",
        "Post_Office": "Dalat",
        "State": "Sarawak"
    },
    {
        "Postcode": "96300",
        "Location": "Kampung Tanam",
        "Post_Office": "Dalat",
        "State": "Sarawak"
    },
    {
        "Postcode": "96300",
        "Location": "Kampung The",
        "Post_Office": "Dalat",
        "State": "Sarawak"
    },
    {
        "Postcode": "96300",
        "Location": "Sungai Kut",
        "Post_Office": "Dalat",
        "State": "Sarawak"
    },
    {
        "Postcode": "96300",
        "Location": "Kampung Baru",
        "Post_Office": "Dalat",
        "State": "Sarawak"
    },
    {
        "Postcode": "96300",
        "Location": "Kampung Hilir",
        "Post_Office": "Dalat",
        "State": "Sarawak"
    },
    {
        "Postcode": "96300",
        "Location": "Kampung Tengah",
        "Post_Office": "Dalat",
        "State": "Sarawak"
    }
]
