[
    {
        "Postcode": "96400",
        "Location": "Taman Pelita 1",
        "Post_Office": "Mukah",
        "State": "Sarawak"
    },
    {
        "Postcode": "96400",
        "Location": "Taman Pelita 2",
        "Post_Office": "Mukah",
        "State": "Sarawak"
    },
    {
        "Postcode": "96400",
        "Location": "Taman Pelita 3",
        "Post_Office": "Mukah",
        "State": "Sarawak"
    },
    {
        "Postcode": "96400",
        "Location": "Taman Pelita 4",
        "Post_Office": "Mukah",
        "State": "Sarawak"
    },
    {
        "Postcode": "96400",
        "Location": "Kampung Datu",
        "Post_Office": "Mukah",
        "State": "Sarawak"
    },
    {
        "Postcode": "96400",
        "Location": "Kampung Pinang",
        "Post_Office": "Mukah",
        "State": "Sarawak"
    },
    {
        "Postcode": "96400",
        "Location": "Kampung Badengan",
        "Post_Office": "Mukah",
        "State": "Sarawak"
    },
    {
        "Postcode": "96400",
        "Location": "Kampung Bunut",
        "Post_Office": "Mukah",
        "State": "Sarawak"
    },
    {
        "Postcode": "96400",
        "Location": "Kampung Jebungan",
        "Post_Office": "Mukah",
        "State": "Sarawak"
    },
    {
        "Postcode": "96400",
        "Location": "Kampung Judan",
        "Post_Office": "Mukah",
        "State": "Sarawak"
    },
    {
        "Postcode": "96400",
        "Location": "Kampung Litong",
        "Post_Office": "Mukah",
        "State": "Sarawak"
    },
    {
        "Postcode": "96400",
        "Location": "Kampung Penakub Permai",
        "Post_Office": "Mukah",
        "State": "Sarawak"
    },
    {
        "Postcode": "96400",
        "Location": "Kampung Penakub Ulu",
        "Post_Office": "Mukah",
        "State": "Sarawak"
    },
    {
        "Postcode": "96400",
        "Location": "Kampung Penipah",
        "Post_Office": "Mukah",
        "State": "Sarawak"
    },
    {
        "Postcode": "96400",
        "Location": "Kampung Petanak",
        "Post_Office": "Mukah",
        "State": "Sarawak"
    },
    {
        "Postcode": "96400",
        "Location": "Kampung Pewat",
        "Post_Office": "Mukah",
        "State": "Sarawak"
    },
    {
        "Postcode": "96400",
        "Location": "Kampung Sau",
        "Post_Office": "Mukah",
        "State": "Sarawak"
    },
    {
        "Postcode": "96400",
        "Location": "Kampung Seri Tellian",
        "Post_Office": "Mukah",
        "State": "Sarawak"
    },
    {
        "Postcode": "96400",
        "Location": "Kampung Sesok",
        "Post_Office": "Mukah",
        "State": "Sarawak"
    },
    {
        "Postcode": "96400",
        "Location": "Kampung Sungai Alo",
        "Post_Office": "Mukah",
        "State": "Sarawak"
    },
    {
        "Postcode": "96400",
        "Location": "Kampung Sungai Ragei",
        "Post_Office": "Mukah",
        "State": "Sarawak"
    },
    {
        "Postcode": "96400",
        "Location": "Kampung Teh",
        "Post_Office": "Mukah",
        "State": "Sarawak"
    },
    {
        "Postcode": "96400",
        "Location": "Kampung Tellian Daya",
        "Post_Office": "Mukah",
        "State": "Sarawak"
    },
    {
        "Postcode": "96400",
        "Location": "Kampung Tellian Jaya",
        "Post_Office": "Mukah",
        "State": "Sarawak"
    },
    {
        "Postcode": "96400",
        "Location": "Kampung Tutus Ulu",
        "Post_Office": "Mukah",
        "State": "Sarawak"
    },
    {
        "Postcode": "96400",
        "Location": "Mukah",
        "Post_Office": "Mukah",
        "State": "Sarawak"
    },
    {
        "Postcode": "96400",
        "Location": "Nanga Kenyana",
        "Post_Office": "Mukah",
        "State": "Sarawak"
    },
    {
        "Postcode": "96400",
        "Location": "Nanga Selangau",
        "Post_Office": "Mukah",
        "State": "Sarawak"
    },
    {
        "Postcode": "96400",
        "Location": "Nanga Sikat",
        "Post_Office": "Mukah",
        "State": "Sarawak"
    },
    {
        "Postcode": "96400",
        "Location": "Nanga Taroh",
        "Post_Office": "Mukah",
        "State": "Sarawak"
    },
    {
        "Postcode": "96400",
        "Location": "Taman Boulevard",
        "Post_Office": "Mukah",
        "State": "Sarawak"
    },
    {
        "Postcode": "96400",
        "Location": "Taman Ching Ching",
        "Post_Office": "Mukah",
        "State": "Sarawak"
    },
    {
        "Postcode": "96400",
        "Location": "Taman King Sun",
        "Post_Office": "Mukah",
        "State": "Sarawak"
    },
    {
        "Postcode": "96400",
        "Location": "Taman Kubang Jaya",
        "Post_Office": "Mukah",
        "State": "Sarawak"
    },
    {
        "Postcode": "96400",
        "Location": "Taman Li Hua",
        "Post_Office": "Mukah",
        "State": "Sarawak"
    },
    {
        "Postcode": "96400",
        "Location": "Taman Yun Seng",
        "Post_Office": "Mukah",
        "State": "Sarawak"
    },
    {
        "Postcode": "96400",
        "Location": "Taman Muhibbah",
        "Post_Office": "Mukah",
        "State": "Sarawak"
    }
]
