[
    {
        "Postcode": "96500",
        "Location": "Tulai",
        "Post_Office": "Bintangor",
        "State": "Sarawak"
    },
    {
        "Postcode": "96500",
        "Location": "Ulu Strass",
        "Post_Office": "Bintangor",
        "State": "Sarawak"
    },
    {
        "Postcode": "96500",
        "Location": "Bintangor",
        "Post_Office": "Bintangor",
        "State": "Sarawak"
    },
    {
        "Postcode": "96500",
        "Location": "Kampung Penasu",
        "Post_Office": "Bintangor",
        "State": "Sarawak"
    },
    {
        "Postcode": "96500",
        "Location": "Kampung Semop",
        "Post_Office": "Bintangor",
        "State": "Sarawak"
    },
    {
        "Postcode": "96500",
        "Location": "Mador",
        "Post_Office": "Bintangor",
        "State": "Sarawak"
    },
    {
        "Postcode": "96500",
        "Location": "Meradong",
        "Post_Office": "Bintangor",
        "State": "Sarawak"
    },
    {
        "Postcode": "96500",
        "Location": "Nanga Semah",
        "Post_Office": "Bintangor",
        "State": "Sarawak"
    },
    {
        "Postcode": "96500",
        "Location": "Narasit",
        "Post_Office": "Bintangor",
        "State": "Sarawak"
    },
    {
        "Postcode": "96500",
        "Location": "Rumah Mura",
        "Post_Office": "Bintangor",
        "State": "Sarawak"
    },
    {
        "Postcode": "96500",
        "Location": "Sungai Strass",
        "Post_Office": "Bintangor",
        "State": "Sarawak"
    },
    {
        "Postcode": "96500",
        "Location": "Tanjong Genting",
        "Post_Office": "Bintangor",
        "State": "Sarawak"
    }
]
