[
    {
        "Postcode": "96700",
        "Location": "Kanowit",
        "Post_Office": "Kanowit",
        "State": "Sarawak"
    },
    {
        "Postcode": "96700",
        "Location": "Nanga Dap",
        "Post_Office": "Kanowit",
        "State": "Sarawak"
    },
    {
        "Postcode": "96700",
        "Location": "Nanga Jagau",
        "Post_Office": "Kanowit",
        "State": "Sarawak"
    },
    {
        "Postcode": "96700",
        "Location": "Nanga Machan",
        "Post_Office": "Kanowit",
        "State": "Sarawak"
    },
    {
        "Postcode": "96700",
        "Location": "Nanga Manggut",
        "Post_Office": "Kanowit",
        "State": "Sarawak"
    },
    {
        "Postcode": "96700",
        "Location": "Nanga Ngemah",
        "Post_Office": "Kanowit",
        "State": "Sarawak"
    },
    {
        "Postcode": "96700",
        "Location": "Nanga Tada",
        "Post_Office": "Kanowit",
        "State": "Sarawak"
    },
    {
        "Postcode": "96700",
        "Location": "Kampung Hilir",
        "Post_Office": "Kanowit",
        "State": "Sarawak"
    },
    {
        "Postcode": "96700",
        "Location": "Kampung Masjid",
        "Post_Office": "Kanowit",
        "State": "Sarawak"
    }
]
