[
    {
        "Postcode": "96800",
        "Location": "Baleh",
        "Post_Office": "Kapit",
        "State": "Sarawak"
    },
    {
        "Postcode": "96800",
        "Location": "Jalan Abang Suhaili",
        "Post_Office": "Kapit",
        "State": "Sarawak"
    },
    {
        "Postcode": "96800",
        "Location": "Kampung Bleteh",
        "Post_Office": "Kapit",
        "State": "Sarawak"
    },
    {
        "Postcode": "96800",
        "Location": "Kapit",
        "Post_Office": "Kapit",
        "State": "Sarawak"
    },
    {
        "Postcode": "96800",
        "Location": "Nanga Gaat",
        "Post_Office": "Kapit",
        "State": "Sarawak"
    },
    {
        "Postcode": "96800",
        "Location": "Nanga Merit",
        "Post_Office": "Kapit",
        "State": "Sarawak"
    },
    {
        "Postcode": "96800",
        "Location": "Nanga Mujong",
        "Post_Office": "Kapit",
        "State": "Sarawak"
    },
    {
        "Postcode": "96800",
        "Location": "Pelagus",
        "Post_Office": "Kapit",
        "State": "Sarawak"
    },
    {
        "Postcode": "96800",
        "Location": "Kampung Baru",
        "Post_Office": "Kapit",
        "State": "Sarawak"
    },
    {
        "Postcode": "96800",
        "Location": "Nanga Bena",
        "Post_Office": "Kapit",
        "State": "Sarawak"
    }
]
