[
    {
        "Postcode": "96950",
        "Location": "Jabatan Kerja Raya (Waterboard)",
        "Post_Office": "Belaga",
        "State": "Sarawak"
    },
    {
        "Postcode": "96950",
        "Location": "Jabatan Pendaftaran",
        "Post_Office": "Belaga",
        "State": "Sarawak"
    },
    {
        "Postcode": "96950",
        "Location": "Kampung Long Bangan",
        "Post_Office": "Belaga",
        "State": "Sarawak"
    },
    {
        "Postcode": "96950",
        "Location": "Kampung Long Nayan",
        "Post_Office": "Belaga",
        "State": "Sarawak"
    },
    {
        "Postcode": "96950",
        "Location": "Kampung Uma Badeng",
        "Post_Office": "Belaga",
        "State": "Sarawak"
    },
    {
        "Postcode": "96950",
        "Location": "Kampung Uma Bakah",
        "Post_Office": "Belaga",
        "State": "Sarawak"
    },
    {
        "Postcode": "96950",
        "Location": "Kampung Uma Balui Liko",
        "Post_Office": "Belaga",
        "State": "Sarawak"
    },
    {
        "Postcode": "96950",
        "Location": "Kampung Uma Balui Ukap",
        "Post_Office": "Belaga",
        "State": "Sarawak"
    },
    {
        "Postcode": "96950",
        "Location": "Kampung Uma Belur",
        "Post_Office": "Belaga",
        "State": "Sarawak"
    },
    {
        "Postcode": "96950",
        "Location": "Kampung Uma Daro",
        "Post_Office": "Belaga",
        "State": "Sarawak"
    },
    {
        "Postcode": "96950",
        "Location": "Kampung Uma Juman",
        "Post_Office": "Belaga",
        "State": "Sarawak"
    },
    {
        "Postcode": "96950",
        "Location": "Kampung Uma Kelab",
        "Post_Office": "Belaga",
        "State": "Sarawak"
    },
    {
        "Postcode": "96950",
        "Location": "Kampung Uma Kulit",
        "Post_Office": "Belaga",
        "State": "Sarawak"
    },
    {
        "Postcode": "96950",
        "Location": "Kampung Uma Lahanan",
        "Post_Office": "Belaga",
        "State": "Sarawak"
    },
    {
        "Postcode": "96950",
        "Location": "Kampung Uma Lesong",
        "Post_Office": "Belaga",
        "State": "Sarawak"
    },
    {
        "Postcode": "96950",
        "Location": "Kampung Uma Penan",
        "Post_Office": "Belaga",
        "State": "Sarawak"
    },
    {
        "Postcode": "96950",
        "Location": "Kampung Uma Ukit",
        "Post_Office": "Belaga",
        "State": "Sarawak"
    },
    {
        "Postcode": "96950",
        "Location": "Klinik Kesihatan",
        "Post_Office": "Belaga",
        "State": "Sarawak"
    },
    {
        "Postcode": "96950",
        "Location": "Majlis Daerah Kecil Sungai Asap",
        "Post_Office": "Belaga",
        "State": "Sarawak"
    },
    {
        "Postcode": "96950",
        "Location": "Pejabat Pos Sungai Asap",
        "Post_Office": "Belaga",
        "State": "Sarawak"
    },
    {
        "Postcode": "96950",
        "Location": "Rumah Nyaring",
        "Post_Office": "Belaga",
        "State": "Sarawak"
    },
    {
        "Postcode": "96950",
        "Location": "Sarawak Energy Bhd",
        "Post_Office": "Belaga",
        "State": "Sarawak"
    },
    {
        "Postcode": "96950",
        "Location": "Sekolah Kebangsaan Batu Keling",
        "Post_Office": "Belaga",
        "State": "Sarawak"
    },
    {
        "Postcode": "96950",
        "Location": "Sekolah Kebangsaan Long Gang",
        "Post_Office": "Belaga",
        "State": "Sarawak"
    },
    {
        "Postcode": "96950",
        "Location": "Sekolah Kebangsaan Sambop",
        "Post_Office": "Belaga",
        "State": "Sarawak"
    },
    {
        "Postcode": "96950",
        "Location": "Sekolah Menengah Kebangsaan Sungai Asap",
        "Post_Office": "Belaga",
        "State": "Sarawak"
    },
    {
        "Postcode": "96950",
        "Location": "Tuai Rumah Sing",
        "Post_Office": "Belaga",
        "State": "Sarawak"
    },
    {
        "Postcode": "96950",
        "Location": "Jabatan Tenaga Kerja ",
        "Post_Office": "Belaga ",
        "State": "Sarawak"
    },
    {
        "Postcode": "96950",
        "Location": "Pejabat Daerah Kecil Sungai Asap",
        "Post_Office": "Belaga ",
        "State": "Sarawak"
    },
    {
        "Postcode": "96950",
        "Location": "Kampung Uma Bawang",
        "Post_Office": "Belaga",
        "State": "Sarawak"
    }
]
