[
    {
        "Postcode": "95000",
        "Location": "Bakong",
        "Post_Office": "Sri Aman",
        "State": "Sarawak"
    },
    {
        "Postcode": "95000",
        "Location": "Jalan Bayu",
        "Post_Office": "Sri Aman",
        "State": "Sarawak"
    },
    {
        "Postcode": "95000",
        "Location": "Jalan Belimbing",
        "Post_Office": "Sri Aman",
        "State": "Sarawak"
    },
    {
        "Postcode": "95000",
        "Location": "Jalan Brayun",
        "Post_Office": "Sri Aman",
        "State": "Sarawak"
    },
    {
        "Postcode": "95000",
        "Location": "Jalan Council",
        "Post_Office": "Sri Aman",
        "State": "Sarawak"
    },
    {
        "Postcode": "95000",
        "Location": "Jalan Datuk Tawi Sli",
        "Post_Office": "Sri Aman",
        "State": "Sarawak"
    },
    {
        "Postcode": "95000",
        "Location": "Jalan Datus",
        "Post_Office": "Sri Aman",
        "State": "Sarawak"
    },
    {
        "Postcode": "95000",
        "Location": "Jalan Durian",
        "Post_Office": "Sri Aman",
        "State": "Sarawak"
    },
    {
        "Postcode": "95000",
        "Location": "Jalan Foochow",
        "Post_Office": "Sri Aman",
        "State": "Sarawak"
    },
    {
        "Postcode": "95000",
        "Location": "Jalan Glumba",
        "Post_Office": "Sri Aman",
        "State": "Sarawak"
    },
    {
        "Postcode": "95000",
        "Location": "Jalan Hap Sing",
        "Post_Office": "Sri Aman",
        "State": "Sarawak"
    },
    {
        "Postcode": "95000",
        "Location": "Jalan Hollis",
        "Post_Office": "Sri Aman",
        "State": "Sarawak"
    },
    {
        "Postcode": "95000",
        "Location": "Jalan Hospital",
        "Post_Office": "Sri Aman",
        "State": "Sarawak"
    },
    {
        "Postcode": "95000",
        "Location": "Jalan Hujung Brayun",
        "Post_Office": "Sri Aman",
        "State": "Sarawak"
    },
    {
        "Postcode": "95000",
        "Location": "Jalan Hup Chung",
        "Post_Office": "Sri Aman",
        "State": "Sarawak"
    },
    {
        "Postcode": "95000",
        "Location": "Jalan Kampung Sri Wangi",
        "Post_Office": "Sri Aman",
        "State": "Sarawak"
    },
    {
        "Postcode": "95000",
        "Location": "Jalan Kejatau",
        "Post_Office": "Sri Aman",
        "State": "Sarawak"
    },
    {
        "Postcode": "95000",
        "Location": "Jalan Kelab",
        "Post_Office": "Sri Aman",
        "State": "Sarawak"
    },
    {
        "Postcode": "95000",
        "Location": "Jalan Laden",
        "Post_Office": "Sri Aman",
        "State": "Sarawak"
    },
    {
        "Postcode": "95000",
        "Location": "Jalan Litak",
        "Post_Office": "Sri Aman",
        "State": "Sarawak"
    },
    {
        "Postcode": "95000",
        "Location": "Jalan Market",
        "Post_Office": "Sri Aman",
        "State": "Sarawak"
    },
    {
        "Postcode": "95000",
        "Location": "Jalan Micheal Pilo",
        "Post_Office": "Sri Aman",
        "State": "Sarawak"
    },
    {
        "Postcode": "95000",
        "Location": "Jalan Ningkan",
        "Post_Office": "Sri Aman",
        "State": "Sarawak"
    },
    {
        "Postcode": "95000",
        "Location": "Jalan Padri",
        "Post_Office": "Sri Aman",
        "State": "Sarawak"
    },
    {
        "Postcode": "95000",
        "Location": "Jalan Pasir Panas",
        "Post_Office": "Sri Aman",
        "State": "Sarawak"
    },
    {
        "Postcode": "95000",
        "Location": "Jalan Pasir Panas Hoping",
        "Post_Office": "Sri Aman",
        "State": "Sarawak"
    },
    {
        "Postcode": "95000",
        "Location": "Jalan Paya",
        "Post_Office": "Sri Aman",
        "State": "Sarawak"
    },
    {
        "Postcode": "95000",
        "Location": "Jalan Ping Ping",
        "Post_Office": "Sri Aman",
        "State": "Sarawak"
    },
    {
        "Postcode": "95000",
        "Location": "Jalan Residensi",
        "Post_Office": "Sri Aman",
        "State": "Sarawak"
    },
    {
        "Postcode": "95000",
        "Location": "Jalan Sabu",
        "Post_Office": "Sri Aman",
        "State": "Sarawak"
    },
    {
        "Postcode": "95000",
        "Location": "Jalan Sau Hui",
        "Post_Office": "Sri Aman",
        "State": "Sarawak"
    },
    {
        "Postcode": "95000",
        "Location": "Jalan Sembau",
        "Post_Office": "Sri Aman",
        "State": "Sarawak"
    },
    {
        "Postcode": "95000",
        "Location": "Jalan Stawang",
        "Post_Office": "Sri Aman",
        "State": "Sarawak"
    },
    {
        "Postcode": "95000",
        "Location": "Jalan Tapang",
        "Post_Office": "Sri Aman",
        "State": "Sarawak"
    },
    {
        "Postcode": "95000",
        "Location": "Jalan Tini",
        "Post_Office": "Sri Aman",
        "State": "Sarawak"
    },
    {
        "Postcode": "95000",
        "Location": "Kampung Teratai",
        "Post_Office": "Sri Aman",
        "State": "Sarawak"
    },
    {
        "Postcode": "95000",
        "Location": "Taman Azba",
        "Post_Office": "Sri Aman",
        "State": "Sarawak"
    },
    {
        "Postcode": "95000",
        "Location": "Taman Bayu",
        "Post_Office": "Sri Aman",
        "State": "Sarawak"
    },
    {
        "Postcode": "95000",
        "Location": "Taman Bestari",
        "Post_Office": "Sri Aman",
        "State": "Sarawak"
    },
    {
        "Postcode": "95000",
        "Location": "Taman Foochow",
        "Post_Office": "Sri Aman",
        "State": "Sarawak"
    },
    {
        "Postcode": "95000",
        "Location": "Taman Gamang Height",
        "Post_Office": "Sri Aman",
        "State": "Sarawak"
    },
    {
        "Postcode": "95000",
        "Location": "Taman Green Height",
        "Post_Office": "Sri Aman",
        "State": "Sarawak"
    },
    {
        "Postcode": "95000",
        "Location": "Taman Hoover Height",
        "Post_Office": "Sri Aman",
        "State": "Sarawak"
    },
    {
        "Postcode": "95000",
        "Location": "Taman King",
        "Post_Office": "Sri Aman",
        "State": "Sarawak"
    },
    {
        "Postcode": "95000",
        "Location": "Taman Loon Coon",
        "Post_Office": "Sri Aman",
        "State": "Sarawak"
    },
    {
        "Postcode": "95000",
        "Location": "Taman Mayfair",
        "Post_Office": "Sri Aman",
        "State": "Sarawak"
    },
    {
        "Postcode": "95000",
        "Location": "Taman Norita",
        "Post_Office": "Sri Aman",
        "State": "Sarawak"
    },
    {
        "Postcode": "95000",
        "Location": "Taman Padri",
        "Post_Office": "Sri Aman",
        "State": "Sarawak"
    },
    {
        "Postcode": "95000",
        "Location": "Taman Sabu",
        "Post_Office": "Sri Aman",
        "State": "Sarawak"
    },
    {
        "Postcode": "95000",
        "Location": "Taman Sagam",
        "Post_Office": "Sri Aman",
        "State": "Sarawak"
    },
    {
        "Postcode": "95000",
        "Location": "Taman Siang",
        "Post_Office": "Sri Aman",
        "State": "Sarawak"
    },
    {
        "Postcode": "95000",
        "Location": "Taman Sing Sing",
        "Post_Office": "Sri Aman",
        "State": "Sarawak"
    },
    {
        "Postcode": "95000",
        "Location": "Taman Sri Gamang",
        "Post_Office": "Sri Aman",
        "State": "Sarawak"
    },
    {
        "Postcode": "95000",
        "Location": "Taman Sri Mewah",
        "Post_Office": "Sri Aman",
        "State": "Sarawak"
    },
    {
        "Postcode": "95000",
        "Location": "Taman Tiara",
        "Post_Office": "Sri Aman",
        "State": "Sarawak"
    },
    {
        "Postcode": "95000",
        "Location": "Taman Vistaro",
        "Post_Office": "Sri Aman",
        "State": "Sarawak"
    },
    {
        "Postcode": "95000",
        "Location": "Taman Kurniawan 1",
        "Post_Office": "Sri Aman",
        "State": "Sarawak"
    },
    {
        "Postcode": "95000",
        "Location": "Taman Kurniawan 2",
        "Post_Office": "Sri Aman",
        "State": "Sarawak"
    },
    {
        "Postcode": "95000",
        "Location": "Taman Kurniawan 3",
        "Post_Office": "Sri Aman",
        "State": "Sarawak"
    },
    {
        "Postcode": "95000",
        "Location": "Taman Pasir Panas 1",
        "Post_Office": "Sri Aman",
        "State": "Sarawak"
    },
    {
        "Postcode": "95000",
        "Location": "Taman Pasir Panas 2",
        "Post_Office": "Sri Aman",
        "State": "Sarawak"
    },
    {
        "Postcode": "95000",
        "Location": "Jalan Muhibbah",
        "Post_Office": "Sri Aman",
        "State": "Sarawak"
    },
    {
        "Postcode": "95000",
        "Location": "Jalan Resak",
        "Post_Office": "Sri Aman",
        "State": "Sarawak"
    },
    {
        "Postcode": "95000",
        "Location": "Taman Sri Jaya",
        "Post_Office": "Sri Aman",
        "State": "Sarawak"
    },
    {
        "Postcode": "95000",
        "Location": "Taman Wawasan",
        "Post_Office": "Sri Aman",
        "State": "Sarawak"
    },
    {
        "Postcode": "95000",
        "Location": "Batu Lintang",
        "Post_Office": "Sri Aman",
        "State": "Sarawak"
    },
    {
        "Postcode": "95000",
        "Location": "Jalan Berjaya",
        "Post_Office": "Sri Aman",
        "State": "Sarawak"
    },
    {
        "Postcode": "95000",
        "Location": "Jalan Kampung Baru",
        "Post_Office": "Sri Aman",
        "State": "Sarawak"
    },
    {
        "Postcode": "95000",
        "Location": "Kampung Bakong",
        "Post_Office": "Sri Aman",
        "State": "Sarawak"
    },
    {
        "Postcode": "95000",
        "Location": "Kampung Hilir",
        "Post_Office": "Sri Aman",
        "State": "Sarawak"
    },
    {
        "Postcode": "95000",
        "Location": "Kampung Hilir Baru",
        "Post_Office": "Sri Aman",
        "State": "Sarawak"
    },
    {
        "Postcode": "95000",
        "Location": "Kampung Hulu",
        "Post_Office": "Sri Aman",
        "State": "Sarawak"
    },
    {
        "Postcode": "95000",
        "Location": "Kampung Tengah",
        "Post_Office": "Sri Aman",
        "State": "Sarawak"
    },
    {
        "Postcode": "95000",
        "Location": "Taman Crystal",
        "Post_Office": "Sri Aman",
        "State": "Sarawak"
    },
    {
        "Postcode": "95000",
        "Location": "Taman Desa Indah",
        "Post_Office": "Sri Aman",
        "State": "Sarawak"
    },
    {
        "Postcode": "95000",
        "Location": "Batu Lintang Ulu Undop",
        "Post_Office": "Sri Aman",
        "State": "Sarawak"
    },
    {
        "Postcode": "95000",
        "Location": "Beting Maro",
        "Post_Office": "Sri Aman",
        "State": "Sarawak"
    },
    {
        "Postcode": "95000",
        "Location": "Bukit Begunan",
        "Post_Office": "Sri Aman",
        "State": "Sarawak"
    },
    {
        "Postcode": "95000",
        "Location": "Kampung Baru Stumbin",
        "Post_Office": "Sri Aman",
        "State": "Sarawak"
    },
    {
        "Postcode": "95000",
        "Location": "Kampung Lemanak",
        "Post_Office": "Sri Aman",
        "State": "Sarawak"
    },
    {
        "Postcode": "95000",
        "Location": "Kampung Muhibbah",
        "Post_Office": "Sri Aman",
        "State": "Sarawak"
    },
    {
        "Postcode": "95000",
        "Location": "Kampung Sabu",
        "Post_Office": "Sri Aman",
        "State": "Sarawak"
    },
    {
        "Postcode": "95000",
        "Location": "Kampung Seri Wangni",
        "Post_Office": "Sri Aman",
        "State": "Sarawak"
    },
    {
        "Postcode": "95000",
        "Location": "Kampung Stc",
        "Post_Office": "Sri Aman",
        "State": "Sarawak"
    },
    {
        "Postcode": "95000",
        "Location": "Lachau",
        "Post_Office": "Sri Aman",
        "State": "Sarawak"
    },
    {
        "Postcode": "95000",
        "Location": "Melugu",
        "Post_Office": "Sri Aman",
        "State": "Sarawak"
    },
    {
        "Postcode": "95000",
        "Location": "Pantu",
        "Post_Office": "Sri Aman",
        "State": "Sarawak"
    },
    {
        "Postcode": "95000",
        "Location": "Rumah Gilan",
        "Post_Office": "Sri Aman",
        "State": "Sarawak"
    },
    {
        "Postcode": "95000",
        "Location": "Selepong",
        "Post_Office": "Sri Aman",
        "State": "Sarawak"
    },
    {
        "Postcode": "95000",
        "Location": "Sembau",
        "Post_Office": "Sri Aman",
        "State": "Sarawak"
    },
    {
        "Postcode": "95000",
        "Location": "Simanggang",
        "Post_Office": "Sri Aman",
        "State": "Sarawak"
    },
    {
        "Postcode": "95000",
        "Location": "Sri Aman",
        "Post_Office": "Sri Aman",
        "State": "Sarawak"
    },
    {
        "Postcode": "95000",
        "Location": "Stumbin",
        "Post_Office": "Sri Aman",
        "State": "Sarawak"
    },
    {
        "Postcode": "95000",
        "Location": "Sungai Tenggang",
        "Post_Office": "Sri Aman",
        "State": "Sarawak"
    },
    {
        "Postcode": "95000",
        "Location": "Tanjung Bijat",
        "Post_Office": "Sri Aman",
        "State": "Sarawak"
    },
    {
        "Postcode": "95000",
        "Location": "Ulu Undop",
        "Post_Office": "Sri Aman",
        "State": "Sarawak"
    }
]
