[
    {
        "Postcode": "95300",
        "Location": "Jalan Panjang",
        "Post_Office": "Roban",
        "State": "Sarawak"
    },
    {
        "Postcode": "95300",
        "Location": "Jalan Sabit",
        "Post_Office": "Roban",
        "State": "Sarawak"
    },
    {
        "Postcode": "95300",
        "Location": "Kampung Sabit",
        "Post_Office": "Roban",
        "State": "Sarawak"
    },
    {
        "Postcode": "95300",
        "Location": "Lichok Seblak",
        "Post_Office": "Roban",
        "State": "Sarawak"
    },
    {
        "Postcode": "95300",
        "Location": "Roban",
        "Post_Office": "Roban",
        "State": "Sarawak"
    },
    {
        "Postcode": "95300",
        "Location": "Rumah Admond Kombong",
        "Post_Office": "Roban",
        "State": "Sarawak"
    },
    {
        "Postcode": "95300",
        "Location": "Rumah Daud",
        "Post_Office": "Roban",
        "State": "Sarawak"
    },
    {
        "Postcode": "95300",
        "Location": "Rumah Enggah",
        "Post_Office": "Roban",
        "State": "Sarawak"
    },
    {
        "Postcode": "95300",
        "Location": "Rumah Entusan",
        "Post_Office": "Roban",
        "State": "Sarawak"
    },
    {
        "Postcode": "95300",
        "Location": "Rumah Indu",
        "Post_Office": "Roban",
        "State": "Sarawak"
    },
    {
        "Postcode": "95300",
        "Location": "Rumah Jenang",
        "Post_Office": "Roban",
        "State": "Sarawak"
    },
    {
        "Postcode": "95300",
        "Location": "Rumah Kunchi",
        "Post_Office": "Roban",
        "State": "Sarawak"
    },
    {
        "Postcode": "95300",
        "Location": "Rumah Latit",
        "Post_Office": "Roban",
        "State": "Sarawak"
    },
    {
        "Postcode": "95300",
        "Location": "Rumah Nait",
        "Post_Office": "Roban",
        "State": "Sarawak"
    },
    {
        "Postcode": "95300",
        "Location": "Rumah Raming Metong",
        "Post_Office": "Roban",
        "State": "Sarawak"
    },
    {
        "Postcode": "95300",
        "Location": "Rumah Ramping",
        "Post_Office": "Roban",
        "State": "Sarawak"
    },
    {
        "Postcode": "95300",
        "Location": "Rumah Saing",
        "Post_Office": "Roban",
        "State": "Sarawak"
    },
    {
        "Postcode": "95300",
        "Location": "Rumah Sungka",
        "Post_Office": "Roban",
        "State": "Sarawak"
    },
    {
        "Postcode": "95300",
        "Location": "Brayang",
        "Post_Office": "Roban",
        "State": "Sarawak"
    },
    {
        "Postcode": "95300",
        "Location": "Jalan Mundu",
        "Post_Office": "Roban",
        "State": "Sarawak"
    }
]
