[
    {
        "Postcode": "95400",
        "Location": "Engkudu",
        "Post_Office": "Saratok",
        "State": "Sarawak"
    },
    {
        "Postcode": "95400",
        "Location": "Kaki Wong",
        "Post_Office": "Saratok",
        "State": "Sarawak"
    },
    {
        "Postcode": "95400",
        "Location": "Kalaka",
        "Post_Office": "Saratok",
        "State": "Sarawak"
    },
    {
        "Postcode": "95400",
        "Location": "Kampung Disso Hilir",
        "Post_Office": "Saratok",
        "State": "Sarawak"
    },
    {
        "Postcode": "95400",
        "Location": "Kampung Disso Hulu",
        "Post_Office": "Saratok",
        "State": "Sarawak"
    },
    {
        "Postcode": "95400",
        "Location": "Kampung Kaba",
        "Post_Office": "Saratok",
        "State": "Sarawak"
    },
    {
        "Postcode": "95400",
        "Location": "Kampung Krupok",
        "Post_Office": "Saratok",
        "State": "Sarawak"
    },
    {
        "Postcode": "95400",
        "Location": "Kampung Kupang",
        "Post_Office": "Saratok",
        "State": "Sarawak"
    },
    {
        "Postcode": "95400",
        "Location": "Kampung Lubok Renit Hilir",
        "Post_Office": "Saratok",
        "State": "Sarawak"
    },
    {
        "Postcode": "95400",
        "Location": "Kampung Melanggo Baru",
        "Post_Office": "Saratok",
        "State": "Sarawak"
    },
    {
        "Postcode": "95400",
        "Location": "Kampung Melanggo Lama",
        "Post_Office": "Saratok",
        "State": "Sarawak"
    },
    {
        "Postcode": "95400",
        "Location": "Kampung Ng Malong",
        "Post_Office": "Saratok",
        "State": "Sarawak"
    },
    {
        "Postcode": "95400",
        "Location": "Krangan",
        "Post_Office": "Saratok",
        "State": "Sarawak"
    },
    {
        "Postcode": "95400",
        "Location": "Lubuk Kepayang",
        "Post_Office": "Saratok",
        "State": "Sarawak"
    },
    {
        "Postcode": "95400",
        "Location": "Nanga Atoi",
        "Post_Office": "Saratok",
        "State": "Sarawak"
    },
    {
        "Postcode": "95400",
        "Location": "Nanga Budu",
        "Post_Office": "Saratok",
        "State": "Sarawak"
    },
    {
        "Postcode": "95400",
        "Location": "Saratok",
        "Post_Office": "Saratok",
        "State": "Sarawak"
    },
    {
        "Postcode": "95400",
        "Location": "Simpang Tiga Sungai Barangan",
        "Post_Office": "Saratok",
        "State": "Sarawak"
    },
    {
        "Postcode": "95400",
        "Location": "Taman Metro Park",
        "Post_Office": "Saratok",
        "State": "Sarawak"
    },
    {
        "Postcode": "95400",
        "Location": "Taman Miniata",
        "Post_Office": "Saratok",
        "State": "Sarawak"
    },
    {
        "Postcode": "95400",
        "Location": "Taman Seroja Indah",
        "Post_Office": "Saratok",
        "State": "Sarawak"
    },
    {
        "Postcode": "95400",
        "Location": "Wong Limat",
        "Post_Office": "Saratok",
        "State": "Sarawak"
    },
    {
        "Postcode": "95400",
        "Location": "Kampung Masjid",
        "Post_Office": "Saratok",
        "State": "Sarawak"
    },
    {
        "Postcode": "95400",
        "Location": "Taman Muhibbah",
        "Post_Office": "Saratok",
        "State": "Sarawak"
    }
]
