[
    {
        "Postcode": "95700",
        "Location": "Betong",
        "Post_Office": "Betong",
        "State": "Sarawak"
    },
    {
        "Postcode": "95700",
        "Location": "Kampung Entanak",
        "Post_Office": "Betong",
        "State": "Sarawak"
    },
    {
        "Postcode": "95700",
        "Location": "Kampung Lempaong",
        "Post_Office": "Betong",
        "State": "Sarawak"
    },
    {
        "Postcode": "95700",
        "Location": "Layar Bridge",
        "Post_Office": "Betong",
        "State": "Sarawak"
    },
    {
        "Postcode": "95700",
        "Location": "Nanga Spak",
        "Post_Office": "Betong",
        "State": "Sarawak"
    },
    {
        "Postcode": "95700",
        "Location": "Skrang",
        "Post_Office": "Betong",
        "State": "Sarawak"
    },
    {
        "Postcode": "95700",
        "Location": "Kampung Hilir",
        "Post_Office": "Betong",
        "State": "Sarawak"
    },
    {
        "Postcode": "95700",
        "Location": "Kampung Masjid",
        "Post_Office": "Betong",
        "State": "Sarawak"
    },
    {
        "Postcode": "95700",
        "Location": "Kampung Tengah",
        "Post_Office": "Betong",
        "State": "Sarawak"
    }
]
