[
    {
        "Postcode": "30000",
        "Location": "Lorong Anderson",
        "Post_Office": "Ipoh",
        "State": "Perak"
    },
    {
        "Postcode": "30000",
        "Location": "Lorong Bandaraya",
        "Post_Office": "Ipoh",
        "State": "Perak"
    },
    {
        "Postcode": "30000",
        "Location": "Lorong Bijeh Timah",
        "Post_Office": "Ipoh",
        "State": "Perak"
    },
    {
        "Postcode": "30000",
        "Location": "Lorong Cheroh",
        "Post_Office": "Ipoh",
        "State": "Perak"
    },
    {
        "Postcode": "30000",
        "Location": "Lorong Hussein",
        "Post_Office": "Ipoh",
        "State": "Perak"
    },
    {
        "Postcode": "30000",
        "Location": "Lorong Istana",
        "Post_Office": "Ipoh",
        "State": "Perak"
    },
    {
        "Postcode": "30000",
        "Location": "Lorong Panglima",
        "Post_Office": "Ipoh",
        "State": "Perak"
    },
    {
        "Postcode": "30000",
        "Location": "Market Cross",
        "Post_Office": "Ipoh",
        "State": "Perak"
    },
    {
        "Postcode": "30000",
        "Location": "Market Lane",
        "Post_Office": "Ipoh",
        "State": "Perak"
    },
    {
        "Postcode": "30000",
        "Location": "Medan Jaya Mara",
        "Post_Office": "Ipoh",
        "State": "Perak"
    },
    {
        "Postcode": "30000",
        "Location": "Pei Lok Flat",
        "Post_Office": "Ipoh",
        "State": "Perak"
    },
    {
        "Postcode": "30000",
        "Location": "People'S Park",
        "Post_Office": "Ipoh",
        "State": "Perak"
    },
    {
        "Postcode": "30000",
        "Location": "Persiaran Bijeh Timah",
        "Post_Office": "Ipoh",
        "State": "Perak"
    },
    {
        "Postcode": "30000",
        "Location": "Persiaran Istana",
        "Post_Office": "Ipoh",
        "State": "Perak"
    },
    {
        "Postcode": "30000",
        "Location": "Taman Istana",
        "Post_Office": "Ipoh",
        "State": "Perak"
    },
    {
        "Postcode": "30000",
        "Location": "Jalan Kelab",
        "Post_Office": "Ipoh",
        "State": "Perak"
    },
    {
        "Postcode": "30000",
        "Location": "Jalan Lang",
        "Post_Office": "Ipoh",
        "State": "Perak"
    },
    {
        "Postcode": "30000",
        "Location": "Jalan Padang Tembak",
        "Post_Office": "Ipoh",
        "State": "Perak"
    },
    {
        "Postcode": "30000",
        "Location": "Kampung Pisang",
        "Post_Office": "Ipoh",
        "State": "Perak"
    },
    {
        "Postcode": "30000",
        "Location": "Jalan Leong B Swee 1",
        "Post_Office": "Ipoh",
        "State": "Perak"
    },
    {
        "Postcode": "30000",
        "Location": "Jalan Leong B Swee 10",
        "Post_Office": "Ipoh",
        "State": "Perak"
    },
    {
        "Postcode": "30000",
        "Location": "Jalan Leong B Swee 11",
        "Post_Office": "Ipoh",
        "State": "Perak"
    },
    {
        "Postcode": "30000",
        "Location": "Jalan Leong B Swee 12",
        "Post_Office": "Ipoh",
        "State": "Perak"
    },
    {
        "Postcode": "30000",
        "Location": "Jalan Leong B Swee 13",
        "Post_Office": "Ipoh",
        "State": "Perak"
    },
    {
        "Postcode": "30000",
        "Location": "Jalan Leong B Swee 14",
        "Post_Office": "Ipoh",
        "State": "Perak"
    },
    {
        "Postcode": "30000",
        "Location": "Jalan Leong B Swee 15",
        "Post_Office": "Ipoh",
        "State": "Perak"
    },
    {
        "Postcode": "30000",
        "Location": "Jalan Leong B Swee 16",
        "Post_Office": "Ipoh",
        "State": "Perak"
    },
    {
        "Postcode": "30000",
        "Location": "Jalan Leong B Swee 17",
        "Post_Office": "Ipoh",
        "State": "Perak"
    },
    {
        "Postcode": "30000",
        "Location": "Jalan Leong B Swee 18",
        "Post_Office": "Ipoh",
        "State": "Perak"
    },
    {
        "Postcode": "30000",
        "Location": "Jalan Leong B Swee 19",
        "Post_Office": "Ipoh",
        "State": "Perak"
    },
    {
        "Postcode": "30000",
        "Location": "Jalan Leong B Swee 2",
        "Post_Office": "Ipoh",
        "State": "Perak"
    },
    {
        "Postcode": "30000",
        "Location": "Jalan Leong B Swee 20",
        "Post_Office": "Ipoh",
        "State": "Perak"
    },
    {
        "Postcode": "30000",
        "Location": "Jalan Leong B Swee 21",
        "Post_Office": "Ipoh",
        "State": "Perak"
    },
    {
        "Postcode": "30000",
        "Location": "Jalan Leong B Swee 22",
        "Post_Office": "Ipoh",
        "State": "Perak"
    },
    {
        "Postcode": "30000",
        "Location": "Jalan Leong B Swee 23",
        "Post_Office": "Ipoh",
        "State": "Perak"
    },
    {
        "Postcode": "30000",
        "Location": "Jalan Leong B Swee 24",
        "Post_Office": "Ipoh",
        "State": "Perak"
    },
    {
        "Postcode": "30000",
        "Location": "Jalan Leong B Swee 25",
        "Post_Office": "Ipoh",
        "State": "Perak"
    },
    {
        "Postcode": "30000",
        "Location": "Jalan Leong B Swee 26",
        "Post_Office": "Ipoh",
        "State": "Perak"
    },
    {
        "Postcode": "30000",
        "Location": "Jalan Leong B Swee 27",
        "Post_Office": "Ipoh",
        "State": "Perak"
    },
    {
        "Postcode": "30000",
        "Location": "Jalan Leong B Swee 28",
        "Post_Office": "Ipoh",
        "State": "Perak"
    },
    {
        "Postcode": "30000",
        "Location": "Jalan Leong B Swee 29",
        "Post_Office": "Ipoh",
        "State": "Perak"
    },
    {
        "Postcode": "30000",
        "Location": "Jalan Leong B Swee 3",
        "Post_Office": "Ipoh",
        "State": "Perak"
    },
    {
        "Postcode": "30000",
        "Location": "Jalan Leong B Swee 30",
        "Post_Office": "Ipoh",
        "State": "Perak"
    },
    {
        "Postcode": "30000",
        "Location": "Jalan Leong B Swee 31",
        "Post_Office": "Ipoh",
        "State": "Perak"
    },
    {
        "Postcode": "30000",
        "Location": "Jalan Leong B Swee 32",
        "Post_Office": "Ipoh",
        "State": "Perak"
    },
    {
        "Postcode": "30000",
        "Location": "Jalan Leong B Swee 33",
        "Post_Office": "Ipoh",
        "State": "Perak"
    },
    {
        "Postcode": "30000",
        "Location": "Jalan Leong B Swee 34",
        "Post_Office": "Ipoh",
        "State": "Perak"
    },
    {
        "Postcode": "30000",
        "Location": "Jalan Leong B Swee 35",
        "Post_Office": "Ipoh",
        "State": "Perak"
    },
    {
        "Postcode": "30000",
        "Location": "Jalan Leong B Swee 36",
        "Post_Office": "Ipoh",
        "State": "Perak"
    },
    {
        "Postcode": "30000",
        "Location": "Jalan Leong B Swee 37",
        "Post_Office": "Ipoh",
        "State": "Perak"
    },
    {
        "Postcode": "30000",
        "Location": "Jalan Leong B Swee 38",
        "Post_Office": "Ipoh",
        "State": "Perak"
    },
    {
        "Postcode": "30000",
        "Location": "Jalan Leong B Swee 39",
        "Post_Office": "Ipoh",
        "State": "Perak"
    },
    {
        "Postcode": "30000",
        "Location": "Jalan Leong B Swee 4",
        "Post_Office": "Ipoh",
        "State": "Perak"
    },
    {
        "Postcode": "30000",
        "Location": "Jalan Leong B Swee 40",
        "Post_Office": "Ipoh",
        "State": "Perak"
    },
    {
        "Postcode": "30000",
        "Location": "Jalan Leong B Swee 41",
        "Post_Office": "Ipoh",
        "State": "Perak"
    },
    {
        "Postcode": "30000",
        "Location": "Jalan Leong B Swee 42",
        "Post_Office": "Ipoh",
        "State": "Perak"
    },
    {
        "Postcode": "30000",
        "Location": "Jalan Leong B Swee 43",
        "Post_Office": "Ipoh",
        "State": "Perak"
    },
    {
        "Postcode": "30000",
        "Location": "Jalan Leong B Swee 44",
        "Post_Office": "Ipoh",
        "State": "Perak"
    },
    {
        "Postcode": "30000",
        "Location": "Jalan Leong B Swee 45",
        "Post_Office": "Ipoh",
        "State": "Perak"
    },
    {
        "Postcode": "30000",
        "Location": "Jalan Leong B Swee 46",
        "Post_Office": "Ipoh",
        "State": "Perak"
    },
    {
        "Postcode": "30000",
        "Location": "Jalan Leong B Swee 47",
        "Post_Office": "Ipoh",
        "State": "Perak"
    },
    {
        "Postcode": "30000",
        "Location": "Jalan Leong B Swee 48",
        "Post_Office": "Ipoh",
        "State": "Perak"
    },
    {
        "Postcode": "30000",
        "Location": "Jalan Leong B Swee 49",
        "Post_Office": "Ipoh",
        "State": "Perak"
    },
    {
        "Postcode": "30000",
        "Location": "Jalan Leong B Swee 5",
        "Post_Office": "Ipoh",
        "State": "Perak"
    },
    {
        "Postcode": "30000",
        "Location": "Jalan Leong B Swee 50",
        "Post_Office": "Ipoh",
        "State": "Perak"
    },
    {
        "Postcode": "30000",
        "Location": "Jalan Leong B Swee 51",
        "Post_Office": "Ipoh",
        "State": "Perak"
    },
    {
        "Postcode": "30000",
        "Location": "Jalan Leong B Swee 52",
        "Post_Office": "Ipoh",
        "State": "Perak"
    },
    {
        "Postcode": "30000",
        "Location": "Jalan Leong B Swee 53",
        "Post_Office": "Ipoh",
        "State": "Perak"
    },
    {
        "Postcode": "30000",
        "Location": "Jalan Leong B Swee 54",
        "Post_Office": "Ipoh",
        "State": "Perak"
    },
    {
        "Postcode": "30000",
        "Location": "Jalan Leong B Swee 55",
        "Post_Office": "Ipoh",
        "State": "Perak"
    },
    {
        "Postcode": "30000",
        "Location": "Jalan Leong B Swee 56",
        "Post_Office": "Ipoh",
        "State": "Perak"
    },
    {
        "Postcode": "30000",
        "Location": "Jalan Leong B Swee 6",
        "Post_Office": "Ipoh",
        "State": "Perak"
    },
    {
        "Postcode": "30000",
        "Location": "Jalan Leong B Swee 7",
        "Post_Office": "Ipoh",
        "State": "Perak"
    },
    {
        "Postcode": "30000",
        "Location": "Jalan Leong B Swee 8",
        "Post_Office": "Ipoh",
        "State": "Perak"
    },
    {
        "Postcode": "30000",
        "Location": "Jalan Leong B Swee 9",
        "Post_Office": "Ipoh",
        "State": "Perak"
    },
    {
        "Postcode": "30000",
        "Location": "Bangunan Kerajaan Negeri",
        "Post_Office": "Ipoh",
        "State": "Perak"
    },
    {
        "Postcode": "30000",
        "Location": "Bangunan Perak Darul Ridzuan",
        "Post_Office": "Ipoh",
        "State": "Perak"
    },
    {
        "Postcode": "30000",
        "Location": "Bangunan Sri Kinta",
        "Post_Office": "Ipoh",
        "State": "Perak"
    },
    {
        "Postcode": "30000",
        "Location": "Dei Lok Flat",
        "Post_Office": "Ipoh",
        "State": "Perak"
    },
    {
        "Postcode": "30000",
        "Location": "Gunung Cheroh",
        "Post_Office": "Ipoh",
        "State": "Perak"
    },
    {
        "Postcode": "30000",
        "Location": "Hala Istana",
        "Post_Office": "Ipoh",
        "State": "Perak"
    },
    {
        "Postcode": "30000",
        "Location": "Hussein Lane",
        "Post_Office": "Ipoh",
        "State": "Perak"
    },
    {
        "Postcode": "30000",
        "Location": "Jalan Bandar Timah",
        "Post_Office": "Ipoh",
        "State": "Perak"
    },
    {
        "Postcode": "30000",
        "Location": "Jalan Bijeh Timah",
        "Post_Office": "Ipoh",
        "State": "Perak"
    },
    {
        "Postcode": "30000",
        "Location": "Jalan Bijeh Timah Selatan",
        "Post_Office": "Ipoh",
        "State": "Perak"
    },
    {
        "Postcode": "30000",
        "Location": "Jalan Dato Maharaja Lela",
        "Post_Office": "Ipoh",
        "State": "Perak"
    },
    {
        "Postcode": "30000",
        "Location": "Jalan Datoh",
        "Post_Office": "Ipoh",
        "State": "Perak"
    },
    {
        "Postcode": "30000",
        "Location": "Jalan Idris Shah",
        "Post_Office": "Ipoh",
        "State": "Perak"
    },
    {
        "Postcode": "30000",
        "Location": "Jalan Iskandar",
        "Post_Office": "Ipoh",
        "State": "Perak"
    },
    {
        "Postcode": "30000",
        "Location": "Jalan Istana",
        "Post_Office": "Ipoh",
        "State": "Perak"
    },
    {
        "Postcode": "30000",
        "Location": "Jalan Koo Chong Kong",
        "Post_Office": "Ipoh",
        "State": "Perak"
    },
    {
        "Postcode": "30000",
        "Location": "Jalan Lim Boon Swee",
        "Post_Office": "Ipoh",
        "State": "Perak"
    },
    {
        "Postcode": "30000",
        "Location": "Jalan Maharajalela",
        "Post_Office": "Ipoh",
        "State": "Perak"
    },
    {
        "Postcode": "30000",
        "Location": "Jalan Market",
        "Post_Office": "Ipoh",
        "State": "Perak"
    },
    {
        "Postcode": "30000",
        "Location": "Jalan Othman Talib",
        "Post_Office": "Ipoh",
        "State": "Perak"
    },
    {
        "Postcode": "30000",
        "Location": "Jalan Paloh",
        "Post_Office": "Ipoh",
        "State": "Perak"
    },
    {
        "Postcode": "30000",
        "Location": "Jalan Paloh Kp \u0026 K",
        "Post_Office": "Ipoh",
        "State": "Perak"
    },
    {
        "Postcode": "30000",
        "Location": "Jalan Panglima",
        "Post_Office": "Ipoh",
        "State": "Perak"
    },
    {
        "Postcode": "30000",
        "Location": "Jalan Panglima Bukit Gantang",
        "Post_Office": "Ipoh",
        "State": "Perak"
    },
    {
        "Postcode": "30000",
        "Location": "Jalan Patrick",
        "Post_Office": "Ipoh",
        "State": "Perak"
    },
    {
        "Postcode": "30000",
        "Location": "Jalan Persiaran Timah",
        "Post_Office": "Ipoh",
        "State": "Perak"
    },
    {
        "Postcode": "30000",
        "Location": "Jalan Silang",
        "Post_Office": "Ipoh",
        "State": "Perak"
    },
    {
        "Postcode": "30000",
        "Location": "Jalan Sp Seenivagam",
        "Post_Office": "Ipoh",
        "State": "Perak"
    },
    {
        "Postcode": "30000",
        "Location": "Jalan Stesyen",
        "Post_Office": "Ipoh",
        "State": "Perak"
    },
    {
        "Postcode": "30000",
        "Location": "Jalan Sultan Idris Shah 1",
        "Post_Office": "Ipoh",
        "State": "Perak"
    },
    {
        "Postcode": "30000",
        "Location": "Jalan Sultan Iskandar Shah",
        "Post_Office": "Ipoh",
        "State": "Perak"
    },
    {
        "Postcode": "30000",
        "Location": "Jalan Sultan Iskandar Shah 1",
        "Post_Office": "Ipoh",
        "State": "Perak"
    },
    {
        "Postcode": "30000",
        "Location": "Jalan Sultan Yusof",
        "Post_Office": "Ipoh",
        "State": "Perak"
    },
    {
        "Postcode": "30000",
        "Location": "Jalan Tun Sambathan",
        "Post_Office": "Ipoh",
        "State": "Perak"
    },
    {
        "Postcode": "30000",
        "Location": "Kinta Heights",
        "Post_Office": "Ipoh",
        "State": "Perak"
    },
    {
        "Postcode": "30000",
        "Location": "Kompleks Islam",
        "Post_Office": "Ipoh",
        "State": "Perak"
    },
    {
        "Postcode": "30000",
        "Location": "Lintasan Istana",
        "Post_Office": "Ipoh",
        "State": "Perak"
    }
]
