[
    {
        "Postcode": "30010",
        "Location": "Anjung Tawas Damai",
        "Post_Office": "Ipoh",
        "State": "Perak"
    },
    {
        "Postcode": "30010",
        "Location": "Anjung Tawas Sinaran",
        "Post_Office": "Ipoh",
        "State": "Perak"
    },
    {
        "Postcode": "30010",
        "Location": "Hala Kuala Kangsar",
        "Post_Office": "Ipoh",
        "State": "Perak"
    },
    {
        "Postcode": "30010",
        "Location": "Jalan Batu Mamar",
        "Post_Office": "Ipoh",
        "State": "Perak"
    },
    {
        "Postcode": "30010",
        "Location": "Jalan Hock Onn",
        "Post_Office": "Ipoh",
        "State": "Perak"
    },
    {
        "Postcode": "30010",
        "Location": "Jalan Lang Indah 1",
        "Post_Office": "Ipoh",
        "State": "Perak"
    },
    {
        "Postcode": "30010",
        "Location": "Jalan Osman Noordin",
        "Post_Office": "Ipoh",
        "State": "Perak"
    },
    {
        "Postcode": "30010",
        "Location": "Jalan Pasu Bunga",
        "Post_Office": "Ipoh",
        "State": "Perak"
    },
    {
        "Postcode": "30010",
        "Location": "Jalan Sabah",
        "Post_Office": "Ipoh",
        "State": "Perak"
    },
    {
        "Postcode": "30010",
        "Location": "Jalan Sarawak",
        "Post_Office": "Ipoh",
        "State": "Perak"
    },
    {
        "Postcode": "30010",
        "Location": "Jalan Singapore",
        "Post_Office": "Ipoh",
        "State": "Perak"
    },
    {
        "Postcode": "30010",
        "Location": "Jalan Taman 1",
        "Post_Office": "Ipoh",
        "State": "Perak"
    },
    {
        "Postcode": "30010",
        "Location": "Jalan Taman Dua",
        "Post_Office": "Ipoh",
        "State": "Perak"
    },
    {
        "Postcode": "30010",
        "Location": "Jalan Tunku Abdul Rahman",
        "Post_Office": "Ipoh",
        "State": "Perak"
    },
    {
        "Postcode": "30010",
        "Location": "Kampung Hock Onn",
        "Post_Office": "Ipoh",
        "State": "Perak"
    },
    {
        "Postcode": "30010",
        "Location": "Kampung Tawas",
        "Post_Office": "Ipoh",
        "State": "Perak"
    },
    {
        "Postcode": "30010",
        "Location": "Kampung Tawas Tambahan",
        "Post_Office": "Ipoh",
        "State": "Perak"
    },
    {
        "Postcode": "30010",
        "Location": "Kampung Tersusun Tawas Tambahan",
        "Post_Office": "Ipoh",
        "State": "Perak"
    },
    {
        "Postcode": "30010",
        "Location": "Lebuhraya Hock Onn",
        "Post_Office": "Ipoh",
        "State": "Perak"
    },
    {
        "Postcode": "30010",
        "Location": "Lebuhraya Kuala Kangsar",
        "Post_Office": "Ipoh",
        "State": "Perak"
    },
    {
        "Postcode": "30010",
        "Location": "Lebuhraya Loke Lim",
        "Post_Office": "Ipoh",
        "State": "Perak"
    },
    {
        "Postcode": "30010",
        "Location": "Lebuhraya Sin Lok",
        "Post_Office": "Ipoh",
        "State": "Perak"
    },
    {
        "Postcode": "30010",
        "Location": "Lorong Gunung Tasik",
        "Post_Office": "Ipoh",
        "State": "Perak"
    },
    {
        "Postcode": "30010",
        "Location": "Lorong Gurap",
        "Post_Office": "Ipoh",
        "State": "Perak"
    },
    {
        "Postcode": "30010",
        "Location": "Lorong Kuala Kangsar",
        "Post_Office": "Ipoh",
        "State": "Perak"
    },
    {
        "Postcode": "30010",
        "Location": "Medan Tasik Perdana",
        "Post_Office": "Ipoh",
        "State": "Perak"
    },
    {
        "Postcode": "30010",
        "Location": "Persiaran Kuala Kangsar",
        "Post_Office": "Ipoh",
        "State": "Perak"
    },
    {
        "Postcode": "30010",
        "Location": "Persiaran Loke Lim",
        "Post_Office": "Ipoh",
        "State": "Perak"
    },
    {
        "Postcode": "30010",
        "Location": "Regat Habib Ariffin",
        "Post_Office": "Ipoh",
        "State": "Perak"
    },
    {
        "Postcode": "30010",
        "Location": "Regat Kuala Kangsar",
        "Post_Office": "Ipoh",
        "State": "Perak"
    },
    {
        "Postcode": "30010",
        "Location": "Taman Che Wan",
        "Post_Office": "Ipoh",
        "State": "Perak"
    },
    {
        "Postcode": "30010",
        "Location": "Taman Desa Kayangan",
        "Post_Office": "Ipoh",
        "State": "Perak"
    },
    {
        "Postcode": "30010",
        "Location": "Taman Desa Lang",
        "Post_Office": "Ipoh",
        "State": "Perak"
    },
    {
        "Postcode": "30010",
        "Location": "Taman Fu Onn",
        "Post_Office": "Ipoh",
        "State": "Perak"
    },
    {
        "Postcode": "30010",
        "Location": "Taman Halaman Lang Mewah",
        "Post_Office": "Ipoh",
        "State": "Perak"
    },
    {
        "Postcode": "30010",
        "Location": "Taman Hock Onn",
        "Post_Office": "Ipoh",
        "State": "Perak"
    },
    {
        "Postcode": "30010",
        "Location": "Taman Ihsan",
        "Post_Office": "Ipoh",
        "State": "Perak"
    },
    {
        "Postcode": "30010",
        "Location": "Taman Ipoh Grove",
        "Post_Office": "Ipoh",
        "State": "Perak"
    },
    {
        "Postcode": "30010",
        "Location": "Taman Lang Indah",
        "Post_Office": "Ipoh",
        "State": "Perak"
    },
    {
        "Postcode": "30010",
        "Location": "Taman Lang Suria",
        "Post_Office": "Ipoh",
        "State": "Perak"
    },
    {
        "Postcode": "30010",
        "Location": "Taman Loke Lim",
        "Post_Office": "Ipoh",
        "State": "Perak"
    },
    {
        "Postcode": "30010",
        "Location": "Taman Milee",
        "Post_Office": "Ipoh",
        "State": "Perak"
    },
    {
        "Postcode": "30010",
        "Location": "Taman Muhibah Baru",
        "Post_Office": "Ipoh",
        "State": "Perak"
    },
    {
        "Postcode": "30010",
        "Location": "Taman Pelangi (Jalan Kuala Kangsar)",
        "Post_Office": "Ipoh",
        "State": "Perak"
    },
    {
        "Postcode": "30010",
        "Location": "Taman Perindustrian Saujana",
        "Post_Office": "Ipoh",
        "State": "Perak"
    },
    {
        "Postcode": "30010",
        "Location": "Taman Public",
        "Post_Office": "Ipoh",
        "State": "Perak"
    },
    {
        "Postcode": "30010",
        "Location": "Taman Seri Desa",
        "Post_Office": "Ipoh",
        "State": "Perak"
    },
    {
        "Postcode": "30010",
        "Location": "Taman Sin Lok",
        "Post_Office": "Ipoh",
        "State": "Perak"
    },
    {
        "Postcode": "30010",
        "Location": "Taman Tasek Damai",
        "Post_Office": "Ipoh",
        "State": "Perak"
    },
    {
        "Postcode": "30010",
        "Location": "Taman Tasek Mewah",
        "Post_Office": "Ipoh",
        "State": "Perak"
    },
    {
        "Postcode": "30010",
        "Location": "Taman Tawas Jaya",
        "Post_Office": "Ipoh",
        "State": "Perak"
    },
    {
        "Postcode": "30010",
        "Location": "Taman Tawas Mewah",
        "Post_Office": "Ipoh",
        "State": "Perak"
    },
    {
        "Postcode": "30010",
        "Location": "Taman Tawas Permai",
        "Post_Office": "Ipoh",
        "State": "Perak"
    },
    {
        "Postcode": "30010",
        "Location": "Taman Tawas Ria",
        "Post_Office": "Ipoh",
        "State": "Perak"
    },
    {
        "Postcode": "30010",
        "Location": "Taman Wangi",
        "Post_Office": "Ipoh",
        "State": "Perak"
    },
    {
        "Postcode": "30010",
        "Location": "Taman Wing Onn",
        "Post_Office": "Ipoh",
        "State": "Perak"
    },
    {
        "Postcode": "30010",
        "Location": "Tembok Park",
        "Post_Office": "Ipoh",
        "State": "Perak"
    },
    {
        "Postcode": "30010",
        "Location": "Taman Semarak",
        "Post_Office": "Ipoh",
        "State": "Perak"
    },
    {
        "Postcode": "30010",
        "Location": "Taman Permai",
        "Post_Office": "Ipoh",
        "State": "Perak"
    },
    {
        "Postcode": "30010",
        "Location": "Taman Ehsan",
        "Post_Office": "Ipoh",
        "State": "Perak"
    },
    {
        "Postcode": "30010",
        "Location": "Taman Malaysia",
        "Post_Office": "Ipoh",
        "State": "Perak"
    },
    {
        "Postcode": "30010",
        "Location": "Jalan Suria 1",
        "Post_Office": "Ipoh",
        "State": "Perak"
    },
    {
        "Postcode": "30010",
        "Location": "Jalan Suria 10",
        "Post_Office": "Ipoh",
        "State": "Perak"
    },
    {
        "Postcode": "30010",
        "Location": "Jalan Suria 2",
        "Post_Office": "Ipoh",
        "State": "Perak"
    },
    {
        "Postcode": "30010",
        "Location": "Jalan Suria 3",
        "Post_Office": "Ipoh",
        "State": "Perak"
    },
    {
        "Postcode": "30010",
        "Location": "Jalan Suria 4",
        "Post_Office": "Ipoh",
        "State": "Perak"
    },
    {
        "Postcode": "30010",
        "Location": "Jalan Suria 5",
        "Post_Office": "Ipoh",
        "State": "Perak"
    },
    {
        "Postcode": "30010",
        "Location": "Jalan Suria 6",
        "Post_Office": "Ipoh",
        "State": "Perak"
    },
    {
        "Postcode": "30010",
        "Location": "Jalan Suria 7",
        "Post_Office": "Ipoh",
        "State": "Perak"
    },
    {
        "Postcode": "30010",
        "Location": "Jalan Suria 8",
        "Post_Office": "Ipoh",
        "State": "Perak"
    },
    {
        "Postcode": "30010",
        "Location": "Jalan Suria 9",
        "Post_Office": "Ipoh",
        "State": "Perak"
    },
    {
        "Postcode": "30010",
        "Location": "Lang Damai 1",
        "Post_Office": "Ipoh",
        "State": "Perak"
    },
    {
        "Postcode": "30010",
        "Location": "Lang Damai 2",
        "Post_Office": "Ipoh",
        "State": "Perak"
    },
    {
        "Postcode": "30010",
        "Location": "Lang Damai 3",
        "Post_Office": "Ipoh",
        "State": "Perak"
    },
    {
        "Postcode": "30010",
        "Location": "Lang Damai 4",
        "Post_Office": "Ipoh",
        "State": "Perak"
    },
    {
        "Postcode": "30010",
        "Location": "Lang Damai 5",
        "Post_Office": "Ipoh",
        "State": "Perak"
    },
    {
        "Postcode": "30010",
        "Location": "Lang Indah D/1",
        "Post_Office": "Ipoh",
        "State": "Perak"
    },
    {
        "Postcode": "30010",
        "Location": "Lang Indah D/2",
        "Post_Office": "Ipoh",
        "State": "Perak"
    },
    {
        "Postcode": "30010",
        "Location": "Lang Indah D/3",
        "Post_Office": "Ipoh",
        "State": "Perak"
    },
    {
        "Postcode": "30010",
        "Location": "Lang Indah D/4",
        "Post_Office": "Ipoh",
        "State": "Perak"
    },
    {
        "Postcode": "30010",
        "Location": "Lang Indah D/5",
        "Post_Office": "Ipoh",
        "State": "Perak"
    },
    {
        "Postcode": "30010",
        "Location": "Lang Indah D/6",
        "Post_Office": "Ipoh",
        "State": "Perak"
    }
]
