[
    {
        "Postcode": "30020",
        "Location": "Jalan Alang Ishak",
        "Post_Office": "Ipoh",
        "State": "Perak"
    },
    {
        "Postcode": "30020",
        "Location": "Jalan Aman",
        "Post_Office": "Ipoh",
        "State": "Perak"
    },
    {
        "Postcode": "30020",
        "Location": "Jalan Bangau",
        "Post_Office": "Ipoh",
        "State": "Perak"
    },
    {
        "Postcode": "30020",
        "Location": "Jalan Baru (Jelapang)",
        "Post_Office": "Ipoh",
        "State": "Perak"
    },
    {
        "Postcode": "30020",
        "Location": "Jalan Bayan",
        "Post_Office": "Ipoh",
        "State": "Perak"
    },
    {
        "Postcode": "30020",
        "Location": "Jalan Bebarau",
        "Post_Office": "Ipoh",
        "State": "Perak"
    },
    {
        "Postcode": "30020",
        "Location": "Jalan Belatok",
        "Post_Office": "Ipoh",
        "State": "Perak"
    },
    {
        "Postcode": "30020",
        "Location": "Jalan Belibis",
        "Post_Office": "Ipoh",
        "State": "Perak"
    },
    {
        "Postcode": "30020",
        "Location": "Jalan Belinda",
        "Post_Office": "Ipoh",
        "State": "Perak"
    },
    {
        "Postcode": "30020",
        "Location": "Jalan Berlian",
        "Post_Office": "Ipoh",
        "State": "Perak"
    },
    {
        "Postcode": "30020",
        "Location": "Jalan Berlian 2",
        "Post_Office": "Ipoh",
        "State": "Perak"
    },
    {
        "Postcode": "30020",
        "Location": "Jalan Cecawi",
        "Post_Office": "Ipoh",
        "State": "Perak"
    },
    {
        "Postcode": "30020",
        "Location": "Jalan Cempaka",
        "Post_Office": "Ipoh",
        "State": "Perak"
    },
    {
        "Postcode": "30020",
        "Location": "Jalan Cenderawasih",
        "Post_Office": "Ipoh",
        "State": "Perak"
    },
    {
        "Postcode": "30020",
        "Location": "Jalan Daeng Selili",
        "Post_Office": "Ipoh",
        "State": "Perak"
    },
    {
        "Postcode": "30020",
        "Location": "Jalan Dahlia",
        "Post_Office": "Ipoh",
        "State": "Perak"
    },
    {
        "Postcode": "30020",
        "Location": "Jalan Dato Sagor",
        "Post_Office": "Ipoh",
        "State": "Perak"
    },
    {
        "Postcode": "30020",
        "Location": "Jalan Datoh (Kampung Manjoi)",
        "Post_Office": "Ipoh",
        "State": "Perak"
    },
    {
        "Postcode": "30020",
        "Location": "Jalan Datuk Daeng Selili",
        "Post_Office": "Ipoh",
        "State": "Perak"
    },
    {
        "Postcode": "30020",
        "Location": "Jalan Delima",
        "Post_Office": "Ipoh",
        "State": "Perak"
    },
    {
        "Postcode": "30020",
        "Location": "Jalan Dewan",
        "Post_Office": "Ipoh",
        "State": "Perak"
    },
    {
        "Postcode": "30020",
        "Location": "Jalan Huri",
        "Post_Office": "Ipoh",
        "State": "Perak"
    },
    {
        "Postcode": "30020",
        "Location": "Jalan Intan",
        "Post_Office": "Ipoh",
        "State": "Perak"
    },
    {
        "Postcode": "30020",
        "Location": "Jalan Intan 2",
        "Post_Office": "Ipoh",
        "State": "Perak"
    },
    {
        "Postcode": "30020",
        "Location": "Jalan Intan 3",
        "Post_Office": "Ipoh",
        "State": "Perak"
    },
    {
        "Postcode": "30020",
        "Location": "Jalan Intan 4",
        "Post_Office": "Ipoh",
        "State": "Perak"
    },
    {
        "Postcode": "30020",
        "Location": "Jalan Intan 5",
        "Post_Office": "Ipoh",
        "State": "Perak"
    },
    {
        "Postcode": "30020",
        "Location": "Jalan Jelapang Maju 2",
        "Post_Office": "Ipoh",
        "State": "Perak"
    },
    {
        "Postcode": "30020",
        "Location": "Jalan Jelawat",
        "Post_Office": "Ipoh",
        "State": "Perak"
    },
    {
        "Postcode": "30020",
        "Location": "Jalan Juara",
        "Post_Office": "Ipoh",
        "State": "Perak"
    },
    {
        "Postcode": "30020",
        "Location": "Jalan Kaloi",
        "Post_Office": "Ipoh",
        "State": "Perak"
    },
    {
        "Postcode": "30020",
        "Location": "Jalan Kebun Bunga",
        "Post_Office": "Ipoh",
        "State": "Perak"
    },
    {
        "Postcode": "30020",
        "Location": "Jalan Kedidi",
        "Post_Office": "Ipoh",
        "State": "Perak"
    },
    {
        "Postcode": "30020",
        "Location": "Jalan Kelah",
        "Post_Office": "Ipoh",
        "State": "Perak"
    },
    {
        "Postcode": "30020",
        "Location": "Jalan Keledang Raya",
        "Post_Office": "Ipoh",
        "State": "Perak"
    },
    {
        "Postcode": "30020",
        "Location": "Jalan Kemuning",
        "Post_Office": "Ipoh",
        "State": "Perak"
    },
    {
        "Postcode": "30020",
        "Location": "Jalan Kenari",
        "Post_Office": "Ipoh",
        "State": "Perak"
    },
    {
        "Postcode": "30020",
        "Location": "Jalan Kledang",
        "Post_Office": "Ipoh",
        "State": "Perak"
    },
    {
        "Postcode": "30020",
        "Location": "Jalan Kolam",
        "Post_Office": "Ipoh",
        "State": "Perak"
    },
    {
        "Postcode": "30020",
        "Location": "Jalan Lama",
        "Post_Office": "Ipoh",
        "State": "Perak"
    },
    {
        "Postcode": "30020",
        "Location": "Jalan Lawang",
        "Post_Office": "Ipoh",
        "State": "Perak"
    },
    {
        "Postcode": "30020",
        "Location": "Jalan Lembah Keledang",
        "Post_Office": "Ipoh",
        "State": "Perak"
    },
    {
        "Postcode": "30020",
        "Location": "Jalan Long Jaafar",
        "Post_Office": "Ipoh",
        "State": "Perak"
    },
    {
        "Postcode": "30020",
        "Location": "Jalan Long Jaffar",
        "Post_Office": "Ipoh",
        "State": "Perak"
    },
    {
        "Postcode": "30020",
        "Location": "Jalan Madrasah (Manjoi)",
        "Post_Office": "Ipoh",
        "State": "Perak"
    },
    {
        "Postcode": "30020",
        "Location": "Jalan Makmor",
        "Post_Office": "Ipoh",
        "State": "Perak"
    },
    {
        "Postcode": "30020",
        "Location": "Jalan Masyarakat",
        "Post_Office": "Ipoh",
        "State": "Perak"
    },
    {
        "Postcode": "30020",
        "Location": "Jalan Megat Terawih",
        "Post_Office": "Ipoh",
        "State": "Perak"
    },
    {
        "Postcode": "30020",
        "Location": "Jalan Melati",
        "Post_Office": "Ipoh",
        "State": "Perak"
    },
    {
        "Postcode": "30020",
        "Location": "Jalan Melor",
        "Post_Office": "Ipoh",
        "State": "Perak"
    },
    {
        "Postcode": "30020",
        "Location": "Jalan Menteri",
        "Post_Office": "Ipoh",
        "State": "Perak"
    },
    {
        "Postcode": "30020",
        "Location": "Jalan Merak",
        "Post_Office": "Ipoh",
        "State": "Perak"
    },
    {
        "Postcode": "30020",
        "Location": "Jalan Merbah",
        "Post_Office": "Ipoh",
        "State": "Perak"
    },
    {
        "Postcode": "30020",
        "Location": "Jalan Merbok",
        "Post_Office": "Ipoh",
        "State": "Perak"
    },
    {
        "Postcode": "30020",
        "Location": "Jalan Muhibbah",
        "Post_Office": "Ipoh",
        "State": "Perak"
    },
    {
        "Postcode": "30020",
        "Location": "Jalan Mutiara",
        "Post_Office": "Ipoh",
        "State": "Perak"
    },
    {
        "Postcode": "30020",
        "Location": "Jalan Muzaffar",
        "Post_Office": "Ipoh",
        "State": "Perak"
    },
    {
        "Postcode": "30020",
        "Location": "Jalan Nikmat",
        "Post_Office": "Ipoh",
        "State": "Perak"
    },
    {
        "Postcode": "30020",
        "Location": "Jalan Nilam",
        "Post_Office": "Ipoh",
        "State": "Perak"
    },
    {
        "Postcode": "30020",
        "Location": "Jalan Pauh Kijang",
        "Post_Office": "Ipoh",
        "State": "Perak"
    },
    {
        "Postcode": "30020",
        "Location": "Jalan Pemimpin",
        "Post_Office": "Ipoh",
        "State": "Perak"
    },
    {
        "Postcode": "30020",
        "Location": "Jalan Pergan",
        "Post_Office": "Ipoh",
        "State": "Perak"
    },
    {
        "Postcode": "30020",
        "Location": "Jalan Perpaduan",
        "Post_Office": "Ipoh",
        "State": "Perak"
    },
    {
        "Postcode": "30020",
        "Location": "Jalan Perwira",
        "Post_Office": "Ipoh",
        "State": "Perak"
    },
    {
        "Postcode": "30020",
        "Location": "Jalan Pknp",
        "Post_Office": "Ipoh",
        "State": "Perak"
    },
    {
        "Postcode": "30020",
        "Location": "Jalan Puyu",
        "Post_Office": "Ipoh",
        "State": "Perak"
    },
    {
        "Postcode": "30020",
        "Location": "Jalan Rahmat",
        "Post_Office": "Ipoh",
        "State": "Perak"
    },
    {
        "Postcode": "30020",
        "Location": "Jalan Raja",
        "Post_Office": "Ipoh",
        "State": "Perak"
    },
    {
        "Postcode": "30020",
        "Location": "Jalan Raja Suran",
        "Post_Office": "Ipoh",
        "State": "Perak"
    },
    {
        "Postcode": "30020",
        "Location": "Jalan Rebana",
        "Post_Office": "Ipoh",
        "State": "Perak"
    },
    {
        "Postcode": "30020",
        "Location": "Jalan Santalia",
        "Post_Office": "Ipoh",
        "State": "Perak"
    },
    {
        "Postcode": "30020",
        "Location": "Jalan Selamat",
        "Post_Office": "Ipoh",
        "State": "Perak"
    },
    {
        "Postcode": "30020",
        "Location": "Jalan Seluang",
        "Post_Office": "Ipoh",
        "State": "Perak"
    },
    {
        "Postcode": "30020",
        "Location": "Jalan Serindit 2",
        "Post_Office": "Ipoh",
        "State": "Perak"
    },
    {
        "Postcode": "30020",
        "Location": "Jalan Serindit 3",
        "Post_Office": "Ipoh",
        "State": "Perak"
    },
    {
        "Postcode": "30020",
        "Location": "Jalan Sungai Tapah",
        "Post_Office": "Ipoh",
        "State": "Perak"
    },
    {
        "Postcode": "30020",
        "Location": "Jalan Syed Nordin Wafa",
        "Post_Office": "Ipoh",
        "State": "Perak"
    },
    {
        "Postcode": "30020",
        "Location": "Jalan Taman Tok Pegoh",
        "Post_Office": "Ipoh",
        "State": "Perak"
    },
    {
        "Postcode": "30020",
        "Location": "Jalan Tapah",
        "Post_Office": "Ipoh",
        "State": "Perak"
    },
    {
        "Postcode": "30020",
        "Location": "Jalan Teh Fatimah",
        "Post_Office": "Ipoh",
        "State": "Perak"
    },
    {
        "Postcode": "30020",
        "Location": "Jalan Temoleh",
        "Post_Office": "Ipoh",
        "State": "Perak"
    },
    {
        "Postcode": "30020",
        "Location": "Jalan Tengas",
        "Post_Office": "Ipoh",
        "State": "Perak"
    },
    {
        "Postcode": "30020",
        "Location": "Jalan Tengku Hussein",
        "Post_Office": "Ipoh",
        "State": "Perak"
    },
    {
        "Postcode": "30020",
        "Location": "Jalan Tengku Hussein Ujong",
        "Post_Office": "Ipoh",
        "State": "Perak"
    },
    {
        "Postcode": "30020",
        "Location": "Jalan Teratai",
        "Post_Office": "Ipoh",
        "State": "Perak"
    },
    {
        "Postcode": "30020",
        "Location": "Jalan Tilam",
        "Post_Office": "Ipoh",
        "State": "Perak"
    },
    {
        "Postcode": "30020",
        "Location": "Jalan Tok Ketua",
        "Post_Office": "Ipoh",
        "State": "Perak"
    },
    {
        "Postcode": "30020",
        "Location": "Jalan Tok Pegoh",
        "Post_Office": "Ipoh",
        "State": "Perak"
    },
    {
        "Postcode": "30020",
        "Location": "Jalan Tok Sidang",
        "Post_Office": "Ipoh",
        "State": "Perak"
    },
    {
        "Postcode": "30020",
        "Location": "Jalan Toman",
        "Post_Office": "Ipoh",
        "State": "Perak"
    },
    {
        "Postcode": "30020",
        "Location": "Jalan Tun Aria",
        "Post_Office": "Ipoh",
        "State": "Perak"
    },
    {
        "Postcode": "30020",
        "Location": "Jalan Tun Hussin Lama",
        "Post_Office": "Ipoh",
        "State": "Perak"
    },
    {
        "Postcode": "30020",
        "Location": "Jalan Tun Terang",
        "Post_Office": "Ipoh",
        "State": "Perak"
    },
    {
        "Postcode": "30020",
        "Location": "Jalan Undan",
        "Post_Office": "Ipoh",
        "State": "Perak"
    },
    {
        "Postcode": "30020",
        "Location": "Jalan Undan 1",
        "Post_Office": "Ipoh",
        "State": "Perak"
    },
    {
        "Postcode": "30020",
        "Location": "Jalan Undan 2",
        "Post_Office": "Ipoh",
        "State": "Perak"
    },
    {
        "Postcode": "30020",
        "Location": "Jalan Undan 3",
        "Post_Office": "Ipoh",
        "State": "Perak"
    },
    {
        "Postcode": "30020",
        "Location": "Jalan Zamrud",
        "Post_Office": "Ipoh",
        "State": "Perak"
    },
    {
        "Postcode": "30020",
        "Location": "Jelapang",
        "Post_Office": "Ipoh",
        "State": "Perak"
    },
    {
        "Postcode": "30020",
        "Location": "Jelapang Jaya",
        "Post_Office": "Ipoh",
        "State": "Perak"
    },
    {
        "Postcode": "30020",
        "Location": "Kampung Baru Jelapang",
        "Post_Office": "Ipoh",
        "State": "Perak"
    },
    {
        "Postcode": "30020",
        "Location": "Kampung Dato Ahmad Said Tambahan 1",
        "Post_Office": "Ipoh",
        "State": "Perak"
    },
    {
        "Postcode": "30020",
        "Location": "Kampung Dato Ahmad Said Tambahan 3",
        "Post_Office": "Ipoh",
        "State": "Perak"
    },
    {
        "Postcode": "30020",
        "Location": "Kampung Dato Sri Wan Muhammad",
        "Post_Office": "Ipoh",
        "State": "Perak"
    },
    {
        "Postcode": "30020",
        "Location": "Kampung Manjoi",
        "Post_Office": "Ipoh",
        "State": "Perak"
    },
    {
        "Postcode": "30020",
        "Location": "Kampung Meru Tin",
        "Post_Office": "Ipoh",
        "State": "Perak"
    },
    {
        "Postcode": "30020",
        "Location": "Kampung Perwira",
        "Post_Office": "Ipoh",
        "State": "Perak"
    },
    {
        "Postcode": "30020",
        "Location": "Kampung Razak",
        "Post_Office": "Ipoh",
        "State": "Perak"
    },
    {
        "Postcode": "30020",
        "Location": "Kampung Sungai Kati",
        "Post_Office": "Ipoh",
        "State": "Perak"
    },
    {
        "Postcode": "30020",
        "Location": "Kampung Sungai Tapah",
        "Post_Office": "Ipoh",
        "State": "Perak"
    },
    {
        "Postcode": "30020",
        "Location": "Kampung Sungai Tapah Tambahan",
        "Post_Office": "Ipoh",
        "State": "Perak"
    },
    {
        "Postcode": "30020",
        "Location": "Kampung Tapah Tambahan",
        "Post_Office": "Ipoh",
        "State": "Perak"
    },
    {
        "Postcode": "30020",
        "Location": "Kampung Tengku Hussein",
        "Post_Office": "Ipoh",
        "State": "Perak"
    },
    {
        "Postcode": "30020",
        "Location": "Kampung Tersusun Jelapang Jaya",
        "Post_Office": "Ipoh",
        "State": "Perak"
    },
    {
        "Postcode": "30020",
        "Location": "Kawasan Perindustrian Ringan Jelapang Maju",
        "Post_Office": "Ipoh",
        "State": "Perak"
    },
    {
        "Postcode": "30020",
        "Location": "Kawasan Perindustrian Taman Meru",
        "Post_Office": "Ipoh",
        "State": "Perak"
    },
    {
        "Postcode": "30020",
        "Location": "Kawasan Perusahaan Taman Meru",
        "Post_Office": "Ipoh",
        "State": "Perak"
    },
    {
        "Postcode": "30020",
        "Location": "Kompleks Pejabat Kementerian Hal Ehwal Dalam Negeri",
        "Post_Office": "Ipoh",
        "State": "Perak"
    },
    {
        "Postcode": "30020",
        "Location": "Laluan Perindustrian Silibin",
        "Post_Office": "Ipoh",
        "State": "Perak"
    },
    {
        "Postcode": "30020",
        "Location": "Laluan Puncak Jelapang Maju 6",
        "Post_Office": "Ipoh",
        "State": "Perak"
    },
    {
        "Postcode": "30020",
        "Location": "Lebuh Jelapang",
        "Post_Office": "Ipoh",
        "State": "Perak"
    },
    {
        "Postcode": "30020",
        "Location": "Lebuh Rajawali",
        "Post_Office": "Ipoh",
        "State": "Perak"
    },
    {
        "Postcode": "30020",
        "Location": "Lorong 2",
        "Post_Office": "Ipoh",
        "State": "Perak"
    },
    {
        "Postcode": "30020",
        "Location": "Lorong 3",
        "Post_Office": "Ipoh",
        "State": "Perak"
    },
    {
        "Postcode": "30020",
        "Location": "Lorong 4",
        "Post_Office": "Ipoh",
        "State": "Perak"
    },
    {
        "Postcode": "30020",
        "Location": "Lorong 40",
        "Post_Office": "Ipoh",
        "State": "Perak"
    },
    {
        "Postcode": "30020",
        "Location": "Lorong 42",
        "Post_Office": "Ipoh",
        "State": "Perak"
    },
    {
        "Postcode": "30020",
        "Location": "Lorong 44",
        "Post_Office": "Ipoh",
        "State": "Perak"
    },
    {
        "Postcode": "30020",
        "Location": "Lorong 46",
        "Post_Office": "Ipoh",
        "State": "Perak"
    },
    {
        "Postcode": "30020",
        "Location": "Lorong 48",
        "Post_Office": "Ipoh",
        "State": "Perak"
    },
    {
        "Postcode": "30020",
        "Location": "Lorong 50",
        "Post_Office": "Ipoh",
        "State": "Perak"
    },
    {
        "Postcode": "30020",
        "Location": "Lorong Bebarau",
        "Post_Office": "Ipoh",
        "State": "Perak"
    },
    {
        "Postcode": "30020",
        "Location": "Lorong Delima",
        "Post_Office": "Ipoh",
        "State": "Perak"
    },
    {
        "Postcode": "30020",
        "Location": "Lorong Kedidi",
        "Post_Office": "Ipoh",
        "State": "Perak"
    },
    {
        "Postcode": "30020",
        "Location": "Lorong Madrasah",
        "Post_Office": "Ipoh",
        "State": "Perak"
    },
    {
        "Postcode": "30020",
        "Location": "Lorong Osmaniah",
        "Post_Office": "Ipoh",
        "State": "Perak"
    },
    {
        "Postcode": "30020",
        "Location": "Lorong Sungai Pari Manjoi",
        "Post_Office": "Ipoh",
        "State": "Perak"
    },
    {
        "Postcode": "30020",
        "Location": "Meru Saujana",
        "Post_Office": "Ipoh",
        "State": "Perak"
    },
    {
        "Postcode": "30020",
        "Location": "Meru Valley Golf",
        "Post_Office": "Ipoh",
        "State": "Perak"
    },
    {
        "Postcode": "30020",
        "Location": "Padang Tengku Hussein",
        "Post_Office": "Ipoh",
        "State": "Perak"
    },
    {
        "Postcode": "30020",
        "Location": "Per. Puncak Jelapang Maju 1",
        "Post_Office": "Ipoh",
        "State": "Perak"
    },
    {
        "Postcode": "30020",
        "Location": "Persiaran Jelapang Maju 3",
        "Post_Office": "Ipoh",
        "State": "Perak"
    },
    {
        "Postcode": "30020",
        "Location": "Persiaran Meru Point",
        "Post_Office": "Ipoh",
        "State": "Perak"
    },
    {
        "Postcode": "30020",
        "Location": "Persiaran Silibin Utara",
        "Post_Office": "Ipoh",
        "State": "Perak"
    },
    {
        "Postcode": "30020",
        "Location": "Rpt Jelapang Baru",
        "Post_Office": "Ipoh",
        "State": "Perak"
    },
    {
        "Postcode": "30020",
        "Location": "Rpt Jelapang Baru Tambahan",
        "Post_Office": "Ipoh",
        "State": "Perak"
    },
    {
        "Postcode": "30020",
        "Location": "Sungai Kati",
        "Post_Office": "Ipoh",
        "State": "Perak"
    },
    {
        "Postcode": "30020",
        "Location": "Taman Halaman Meru Damai",
        "Post_Office": "Ipoh",
        "State": "Perak"
    },
    {
        "Postcode": "30020",
        "Location": "Taman Jelapang Indah",
        "Post_Office": "Ipoh",
        "State": "Perak"
    },
    {
        "Postcode": "30020",
        "Location": "Taman Jelapang Ria",
        "Post_Office": "Ipoh",
        "State": "Perak"
    },
    {
        "Postcode": "30020",
        "Location": "Taman Keladang",
        "Post_Office": "Ipoh",
        "State": "Perak"
    },
    {
        "Postcode": "30020",
        "Location": "Taman Meru Height",
        "Post_Office": "Ipoh",
        "State": "Perak"
    },
    {
        "Postcode": "30020",
        "Location": "Taman Meru Impiana",
        "Post_Office": "Ipoh",
        "State": "Perak"
    },
    {
        "Postcode": "30020",
        "Location": "Taman Meru Jaya",
        "Post_Office": "Ipoh",
        "State": "Perak"
    },
    {
        "Postcode": "30020",
        "Location": "Taman Meru Permai",
        "Post_Office": "Ipoh",
        "State": "Perak"
    },
    {
        "Postcode": "30020",
        "Location": "Taman Meru Raya",
        "Post_Office": "Ipoh",
        "State": "Perak"
    },
    {
        "Postcode": "30020",
        "Location": "Taman Seri Kayangan",
        "Post_Office": "Ipoh",
        "State": "Perak"
    },
    {
        "Postcode": "30020",
        "Location": "Taman Seri Meru",
        "Post_Office": "Ipoh",
        "State": "Perak"
    },
    {
        "Postcode": "30020",
        "Location": "Tingkat Meru Valley 1",
        "Post_Office": "Ipoh",
        "State": "Perak"
    },
    {
        "Postcode": "30020",
        "Location": "Tingkat Meru Valley 2",
        "Post_Office": "Ipoh",
        "State": "Perak"
    },
    {
        "Postcode": "30020",
        "Location": "Jalan Sekolah",
        "Post_Office": "Ipoh",
        "State": "Perak"
    },
    {
        "Postcode": "30020",
        "Location": "Jalan Tokong",
        "Post_Office": "Ipoh",
        "State": "Perak"
    },
    {
        "Postcode": "30020",
        "Location": "Kampung Jelapang",
        "Post_Office": "Ipoh",
        "State": "Perak"
    },
    {
        "Postcode": "30020",
        "Location": "Jalan Bunga Tanjung",
        "Post_Office": "Ipoh",
        "State": "Perak"
    },
    {
        "Postcode": "30020",
        "Location": "Jalan Terkukur",
        "Post_Office": "Ipoh",
        "State": "Perak"
    },
    {
        "Postcode": "30020",
        "Location": "Jalan Kompleks",
        "Post_Office": "Ipoh",
        "State": "Perak"
    },
    {
        "Postcode": "30020",
        "Location": "Persiaran Tugu",
        "Post_Office": "Ipoh",
        "State": "Perak"
    },
    {
        "Postcode": "30020",
        "Location": "Taman Meru Perdana",
        "Post_Office": "Ipoh",
        "State": "Perak"
    },
    {
        "Postcode": "30020",
        "Location": "Jalan Bunga Raya",
        "Post_Office": "Ipoh",
        "State": "Perak"
    },
    {
        "Postcode": "30020",
        "Location": "Jalan Jelapang",
        "Post_Office": "Ipoh",
        "State": "Perak"
    },
    {
        "Postcode": "30020",
        "Location": "Jalan Mawar",
        "Post_Office": "Ipoh",
        "State": "Perak"
    },
    {
        "Postcode": "30020",
        "Location": "Jalan Merpati",
        "Post_Office": "Ipoh",
        "State": "Perak"
    },
    {
        "Postcode": "30020",
        "Location": "Jalan Padang ",
        "Post_Office": "Ipoh",
        "State": "Perak"
    },
    {
        "Postcode": "30020",
        "Location": "Jalan Pegawai",
        "Post_Office": "Ipoh",
        "State": "Perak"
    },
    {
        "Postcode": "30020",
        "Location": "Jalan Serindit",
        "Post_Office": "Ipoh",
        "State": "Perak"
    },
    {
        "Postcode": "30020",
        "Location": "Jalan Tempua",
        "Post_Office": "Ipoh",
        "State": "Perak"
    },
    {
        "Postcode": "30020",
        "Location": "Lorong Pasar",
        "Post_Office": "Ipoh",
        "State": "Perak"
    },
    {
        "Postcode": "30020",
        "Location": "Taman Jati",
        "Post_Office": "Ipoh",
        "State": "Perak"
    },
    {
        "Postcode": "30020",
        "Location": "Medan Meru Bistari",
        "Post_Office": "Ipoh",
        "State": "Perak"
    },
    {
        "Postcode": "30020",
        "Location": "Jalan Pasar",
        "Post_Office": "Ipoh",
        "State": "Perak"
    },
    {
        "Postcode": "30020",
        "Location": "Jalan Meru Bistari A1",
        "Post_Office": "Ipoh",
        "State": "Perak"
    },
    {
        "Postcode": "30020",
        "Location": "Jalan Meru Bistari A2",
        "Post_Office": "Ipoh",
        "State": "Perak"
    },
    {
        "Postcode": "30020",
        "Location": "Jalan Meru Bistari A3",
        "Post_Office": "Ipoh",
        "State": "Perak"
    },
    {
        "Postcode": "30020",
        "Location": "Jalan Meru Bistari A4",
        "Post_Office": "Ipoh",
        "State": "Perak"
    },
    {
        "Postcode": "30020",
        "Location": "Jalan Meru Bistari A5",
        "Post_Office": "Ipoh",
        "State": "Perak"
    },
    {
        "Postcode": "30020",
        "Location": "Jalan Meru Bistari A6",
        "Post_Office": "Ipoh",
        "State": "Perak"
    },
    {
        "Postcode": "30020",
        "Location": "Jalan Meru Bistari A7",
        "Post_Office": "Ipoh",
        "State": "Perak"
    },
    {
        "Postcode": "30020",
        "Location": "Jalan Meru Bistari B2",
        "Post_Office": "Ipoh",
        "State": "Perak"
    },
    {
        "Postcode": "30020",
        "Location": "Jalan Meru Bistari B3",
        "Post_Office": "Ipoh",
        "State": "Perak"
    },
    {
        "Postcode": "30020",
        "Location": "Jalan Meru Bistari B4",
        "Post_Office": "Ipoh",
        "State": "Perak"
    },
    {
        "Postcode": "30020",
        "Location": "Jalan Meru Bistari B5",
        "Post_Office": "Ipoh",
        "State": "Perak"
    },
    {
        "Postcode": "30020",
        "Location": "Jalan Niaga 1",
        "Post_Office": "Ipoh",
        "State": "Perak"
    },
    {
        "Postcode": "30020",
        "Location": "Jalan Niaga 2",
        "Post_Office": "Ipoh",
        "State": "Perak"
    },
    {
        "Postcode": "30020",
        "Location": "Jalan Pengkalan Ria 1",
        "Post_Office": "Ipoh",
        "State": "Perak"
    },
    {
        "Postcode": "30020",
        "Location": "Jalan Pengkalan Ria 10",
        "Post_Office": "Ipoh",
        "State": "Perak"
    },
    {
        "Postcode": "30020",
        "Location": "Jalan Pengkalan Ria 11",
        "Post_Office": "Ipoh",
        "State": "Perak"
    },
    {
        "Postcode": "30020",
        "Location": "Jalan Pengkalan Ria 12",
        "Post_Office": "Ipoh",
        "State": "Perak"
    },
    {
        "Postcode": "30020",
        "Location": "Jalan Pengkalan Ria 13",
        "Post_Office": "Ipoh",
        "State": "Perak"
    },
    {
        "Postcode": "30020",
        "Location": "Jalan Pengkalan Ria 14",
        "Post_Office": "Ipoh",
        "State": "Perak"
    },
    {
        "Postcode": "30020",
        "Location": "Jalan Pengkalan Ria 15",
        "Post_Office": "Ipoh",
        "State": "Perak"
    },
    {
        "Postcode": "30020",
        "Location": "Jalan Pengkalan Ria 16",
        "Post_Office": "Ipoh",
        "State": "Perak"
    },
    {
        "Postcode": "30020",
        "Location": "Jalan Pengkalan Ria 17",
        "Post_Office": "Ipoh",
        "State": "Perak"
    },
    {
        "Postcode": "30020",
        "Location": "Jalan Pengkalan Ria 18",
        "Post_Office": "Ipoh",
        "State": "Perak"
    },
    {
        "Postcode": "30020",
        "Location": "Jalan Pengkalan Ria 19",
        "Post_Office": "Ipoh",
        "State": "Perak"
    },
    {
        "Postcode": "30020",
        "Location": "Jalan Pengkalan Ria 2",
        "Post_Office": "Ipoh",
        "State": "Perak"
    },
    {
        "Postcode": "30020",
        "Location": "Jalan Pengkalan Ria 20",
        "Post_Office": "Ipoh",
        "State": "Perak"
    },
    {
        "Postcode": "30020",
        "Location": "Jalan Pengkalan Ria 21",
        "Post_Office": "Ipoh",
        "State": "Perak"
    },
    {
        "Postcode": "30020",
        "Location": "Jalan Pengkalan Ria 22",
        "Post_Office": "Ipoh",
        "State": "Perak"
    },
    {
        "Postcode": "30020",
        "Location": "Jalan Pengkalan Ria 23",
        "Post_Office": "Ipoh",
        "State": "Perak"
    },
    {
        "Postcode": "30020",
        "Location": "Jalan Pengkalan Ria 24",
        "Post_Office": "Ipoh",
        "State": "Perak"
    },
    {
        "Postcode": "30020",
        "Location": "Jalan Pengkalan Ria 25",
        "Post_Office": "Ipoh",
        "State": "Perak"
    },
    {
        "Postcode": "30020",
        "Location": "Jalan Pengkalan Ria 26",
        "Post_Office": "Ipoh",
        "State": "Perak"
    },
    {
        "Postcode": "30020",
        "Location": "Jalan Pengkalan Ria 27",
        "Post_Office": "Ipoh",
        "State": "Perak"
    },
    {
        "Postcode": "30020",
        "Location": "Jalan Pengkalan Ria 28",
        "Post_Office": "Ipoh",
        "State": "Perak"
    },
    {
        "Postcode": "30020",
        "Location": "Jalan Pengkalan Ria 29",
        "Post_Office": "Ipoh",
        "State": "Perak"
    },
    {
        "Postcode": "30020",
        "Location": "Jalan Pengkalan Ria 3",
        "Post_Office": "Ipoh",
        "State": "Perak"
    },
    {
        "Postcode": "30020",
        "Location": "Jalan Pengkalan Ria 30",
        "Post_Office": "Ipoh",
        "State": "Perak"
    },
    {
        "Postcode": "30020",
        "Location": "Jalan Pengkalan Ria 31",
        "Post_Office": "Ipoh",
        "State": "Perak"
    },
    {
        "Postcode": "30020",
        "Location": "Jalan Pengkalan Ria 32",
        "Post_Office": "Ipoh",
        "State": "Perak"
    },
    {
        "Postcode": "30020",
        "Location": "Jalan Pengkalan Ria 33",
        "Post_Office": "Ipoh",
        "State": "Perak"
    },
    {
        "Postcode": "30020",
        "Location": "Jalan Pengkalan Ria 34",
        "Post_Office": "Ipoh",
        "State": "Perak"
    },
    {
        "Postcode": "30020",
        "Location": "Jalan Pengkalan Ria 35",
        "Post_Office": "Ipoh",
        "State": "Perak"
    },
    {
        "Postcode": "30020",
        "Location": "Jalan Pengkalan Ria 36",
        "Post_Office": "Ipoh",
        "State": "Perak"
    },
    {
        "Postcode": "30020",
        "Location": "Jalan Pengkalan Ria 37",
        "Post_Office": "Ipoh",
        "State": "Perak"
    },
    {
        "Postcode": "30020",
        "Location": "Jalan Pengkalan Ria 38",
        "Post_Office": "Ipoh",
        "State": "Perak"
    },
    {
        "Postcode": "30020",
        "Location": "Jalan Pengkalan Ria 39",
        "Post_Office": "Ipoh",
        "State": "Perak"
    },
    {
        "Postcode": "30020",
        "Location": "Jalan Pengkalan Ria 4",
        "Post_Office": "Ipoh",
        "State": "Perak"
    },
    {
        "Postcode": "30020",
        "Location": "Jalan Pengkalan Ria 40",
        "Post_Office": "Ipoh",
        "State": "Perak"
    },
    {
        "Postcode": "30020",
        "Location": "Jalan Pengkalan Ria 41",
        "Post_Office": "Ipoh",
        "State": "Perak"
    },
    {
        "Postcode": "30020",
        "Location": "Jalan Pengkalan Ria 42",
        "Post_Office": "Ipoh",
        "State": "Perak"
    },
    {
        "Postcode": "30020",
        "Location": "Jalan Pengkalan Ria 43",
        "Post_Office": "Ipoh",
        "State": "Perak"
    },
    {
        "Postcode": "30020",
        "Location": "Jalan Pengkalan Ria 44",
        "Post_Office": "Ipoh",
        "State": "Perak"
    },
    {
        "Postcode": "30020",
        "Location": "Jalan Pengkalan Ria 45",
        "Post_Office": "Ipoh",
        "State": "Perak"
    },
    {
        "Postcode": "30020",
        "Location": "Jalan Pengkalan Ria 46",
        "Post_Office": "Ipoh",
        "State": "Perak"
    },
    {
        "Postcode": "30020",
        "Location": "Jalan Pengkalan Ria 47",
        "Post_Office": "Ipoh",
        "State": "Perak"
    },
    {
        "Postcode": "30020",
        "Location": "Jalan Pengkalan Ria 48",
        "Post_Office": "Ipoh",
        "State": "Perak"
    },
    {
        "Postcode": "30020",
        "Location": "Jalan Pengkalan Ria 49",
        "Post_Office": "Ipoh",
        "State": "Perak"
    },
    {
        "Postcode": "30020",
        "Location": "Jalan Pengkalan Ria 5",
        "Post_Office": "Ipoh",
        "State": "Perak"
    },
    {
        "Postcode": "30020",
        "Location": "Jalan Pengkalan Ria 50",
        "Post_Office": "Ipoh",
        "State": "Perak"
    },
    {
        "Postcode": "30020",
        "Location": "Jalan Pengkalan Ria 51",
        "Post_Office": "Ipoh",
        "State": "Perak"
    },
    {
        "Postcode": "30020",
        "Location": "Jalan Pengkalan Ria 52",
        "Post_Office": "Ipoh",
        "State": "Perak"
    },
    {
        "Postcode": "30020",
        "Location": "Jalan Pengkalan Ria 53",
        "Post_Office": "Ipoh",
        "State": "Perak"
    },
    {
        "Postcode": "30020",
        "Location": "Jalan Pengkalan Ria 54",
        "Post_Office": "Ipoh",
        "State": "Perak"
    },
    {
        "Postcode": "30020",
        "Location": "Jalan Pengkalan Ria 55",
        "Post_Office": "Ipoh",
        "State": "Perak"
    },
    {
        "Postcode": "30020",
        "Location": "Jalan Pengkalan Ria 56",
        "Post_Office": "Ipoh",
        "State": "Perak"
    },
    {
        "Postcode": "30020",
        "Location": "Jalan Pengkalan Ria 6",
        "Post_Office": "Ipoh",
        "State": "Perak"
    },
    {
        "Postcode": "30020",
        "Location": "Jalan Pengkalan Ria 7",
        "Post_Office": "Ipoh",
        "State": "Perak"
    },
    {
        "Postcode": "30020",
        "Location": "Jalan Pengkalan Ria 8",
        "Post_Office": "Ipoh",
        "State": "Perak"
    },
    {
        "Postcode": "30020",
        "Location": "Jalan Pengkalan Ria 9",
        "Post_Office": "Ipoh",
        "State": "Perak"
    },
    {
        "Postcode": "30020",
        "Location": "Kampung Dato Ahmad Said 1",
        "Post_Office": "Ipoh",
        "State": "Perak"
    },
    {
        "Postcode": "30020",
        "Location": "Kampung Dato Ahmad Said 2",
        "Post_Office": "Ipoh",
        "State": "Perak"
    },
    {
        "Postcode": "30020",
        "Location": "Taman Meru 2B",
        "Post_Office": "Ipoh",
        "State": "Perak"
    },
    {
        "Postcode": "30020",
        "Location": "Taman Meru 2C ",
        "Post_Office": "Ipoh",
        "State": "Perak"
    },
    {
        "Postcode": "30020",
        "Location": "Taman Meru 3C",
        "Post_Office": "Ipoh",
        "State": "Perak"
    },
    {
        "Postcode": "30020",
        "Location": "Taman Meru 4",
        "Post_Office": "Ipoh",
        "State": "Perak"
    }
]
