[
    {
        "Postcode": "30100",
        "Location": "Buntong",
        "Post_Office": "Ipoh",
        "State": "Perak"
    },
    {
        "Postcode": "30100",
        "Location": "Buntong Jaya",
        "Post_Office": "Ipoh",
        "State": "Perak"
    },
    {
        "Postcode": "30100",
        "Location": "Buntong Tambahan",
        "Post_Office": "Ipoh",
        "State": "Perak"
    },
    {
        "Postcode": "30100",
        "Location": "Buntung Ria",
        "Post_Office": "Ipoh",
        "State": "Perak"
    },
    {
        "Postcode": "30100",
        "Location": "Cherry Apartment",
        "Post_Office": "Ipoh",
        "State": "Perak"
    },
    {
        "Postcode": "30100",
        "Location": "Grand Silibin",
        "Post_Office": "Ipoh",
        "State": "Perak"
    },
    {
        "Postcode": "30100",
        "Location": "Hala Bekor",
        "Post_Office": "Ipoh",
        "State": "Perak"
    },
    {
        "Postcode": "30100",
        "Location": "Hala Pari Garden",
        "Post_Office": "Ipoh",
        "State": "Perak"
    },
    {
        "Postcode": "30100",
        "Location": "Jalan Abdul Manaf",
        "Post_Office": "Ipoh",
        "State": "Perak"
    },
    {
        "Postcode": "30100",
        "Location": "Jalan Charleton",
        "Post_Office": "Ipoh",
        "State": "Perak"
    },
    {
        "Postcode": "30100",
        "Location": "Jalan Cheong Chee",
        "Post_Office": "Ipoh",
        "State": "Perak"
    },
    {
        "Postcode": "30100",
        "Location": "Jalan Delaila",
        "Post_Office": "Ipoh",
        "State": "Perak"
    },
    {
        "Postcode": "30100",
        "Location": "Jalan Edgar",
        "Post_Office": "Ipoh",
        "State": "Perak"
    },
    {
        "Postcode": "30100",
        "Location": "Jalan Gurap",
        "Post_Office": "Ipoh",
        "State": "Perak"
    },
    {
        "Postcode": "30100",
        "Location": "Jalan Guru Nanak",
        "Post_Office": "Ipoh",
        "State": "Perak"
    },
    {
        "Postcode": "30100",
        "Location": "Jalan Habib Abdullah",
        "Post_Office": "Ipoh",
        "State": "Perak"
    },
    {
        "Postcode": "30100",
        "Location": "Jalan Hassan",
        "Post_Office": "Ipoh",
        "State": "Perak"
    },
    {
        "Postcode": "30100",
        "Location": "Jalan Kampung Manjoi",
        "Post_Office": "Ipoh",
        "State": "Perak"
    },
    {
        "Postcode": "30100",
        "Location": "Jalan Kampung Manjoi Lama",
        "Post_Office": "Ipoh",
        "State": "Perak"
    },
    {
        "Postcode": "30100",
        "Location": "Jalan Kilat",
        "Post_Office": "Ipoh",
        "State": "Perak"
    },
    {
        "Postcode": "30100",
        "Location": "Jalan Kledang Raya",
        "Post_Office": "Ipoh",
        "State": "Perak"
    },
    {
        "Postcode": "30100",
        "Location": "Jalan Kong Chew Far",
        "Post_Office": "Ipoh",
        "State": "Perak"
    },
    {
        "Postcode": "30100",
        "Location": "Jalan Merdeka",
        "Post_Office": "Ipoh",
        "State": "Perak"
    },
    {
        "Postcode": "30100",
        "Location": "Jalan Pari",
        "Post_Office": "Ipoh",
        "State": "Perak"
    },
    {
        "Postcode": "30100",
        "Location": "Jalan Rakyat",
        "Post_Office": "Ipoh",
        "State": "Perak"
    },
    {
        "Postcode": "30100",
        "Location": "Jalan Regat Damai",
        "Post_Office": "Ipoh",
        "State": "Perak"
    },
    {
        "Postcode": "30100",
        "Location": "Jalan Regat Merdeka",
        "Post_Office": "Ipoh",
        "State": "Perak"
    },
    {
        "Postcode": "30100",
        "Location": "Jalan Samson",
        "Post_Office": "Ipoh",
        "State": "Perak"
    },
    {
        "Postcode": "30100",
        "Location": "Jalan Silibin",
        "Post_Office": "Ipoh",
        "State": "Perak"
    },
    {
        "Postcode": "30100",
        "Location": "Jalan Sungai",
        "Post_Office": "Ipoh",
        "State": "Perak"
    },
    {
        "Postcode": "30100",
        "Location": "Jalan Sungai Pari (Buntong)",
        "Post_Office": "Ipoh",
        "State": "Perak"
    },
    {
        "Postcode": "30100",
        "Location": "Jalan Toh Muda Hashim",
        "Post_Office": "Ipoh",
        "State": "Perak"
    },
    {
        "Postcode": "30100",
        "Location": "Jalan Wayang",
        "Post_Office": "Ipoh",
        "State": "Perak"
    },
    {
        "Postcode": "30100",
        "Location": "Kampung Baru Buntong",
        "Post_Office": "Ipoh",
        "State": "Perak"
    },
    {
        "Postcode": "30100",
        "Location": "Kampung Buntong Jaya",
        "Post_Office": "Ipoh",
        "State": "Perak"
    },
    {
        "Postcode": "30100",
        "Location": "Kampung Chekkadi",
        "Post_Office": "Ipoh",
        "State": "Perak"
    },
    {
        "Postcode": "30100",
        "Location": "Kampung Gurap",
        "Post_Office": "Ipoh",
        "State": "Perak"
    },
    {
        "Postcode": "30100",
        "Location": "Kampung Hulu Buntong",
        "Post_Office": "Ipoh",
        "State": "Perak"
    },
    {
        "Postcode": "30100",
        "Location": "Kampung Kacang Putih",
        "Post_Office": "Ipoh",
        "State": "Perak"
    },
    {
        "Postcode": "30100",
        "Location": "Kampung Kuala Tanggong",
        "Post_Office": "Ipoh",
        "State": "Perak"
    },
    {
        "Postcode": "30100",
        "Location": "Kampung Santa Singh",
        "Post_Office": "Ipoh",
        "State": "Perak"
    },
    {
        "Postcode": "30100",
        "Location": "Kampung Telok Keruin",
        "Post_Office": "Ipoh",
        "State": "Perak"
    },
    {
        "Postcode": "30100",
        "Location": "Kilat Drive",
        "Post_Office": "Ipoh",
        "State": "Perak"
    },
    {
        "Postcode": "30100",
        "Location": "Labrooy Road",
        "Post_Office": "Ipoh",
        "State": "Perak"
    },
    {
        "Postcode": "30100",
        "Location": "Lebuhraya Merdeka",
        "Post_Office": "Ipoh",
        "State": "Perak"
    },
    {
        "Postcode": "30100",
        "Location": "Lengkok Keladang",
        "Post_Office": "Ipoh",
        "State": "Perak"
    },
    {
        "Postcode": "30100",
        "Location": "Lengkok Klendang Raya",
        "Post_Office": "Ipoh",
        "State": "Perak"
    },
    {
        "Postcode": "30100",
        "Location": "Lintasan Idris",
        "Post_Office": "Ipoh",
        "State": "Perak"
    },
    {
        "Postcode": "30100",
        "Location": "Lintasan Jelapang",
        "Post_Office": "Ipoh",
        "State": "Perak"
    },
    {
        "Postcode": "30100",
        "Location": "Lorong Kilat",
        "Post_Office": "Ipoh",
        "State": "Perak"
    },
    {
        "Postcode": "30100",
        "Location": "Lorong Maxwell",
        "Post_Office": "Ipoh",
        "State": "Perak"
    },
    {
        "Postcode": "30100",
        "Location": "Lorong Pari",
        "Post_Office": "Ipoh",
        "State": "Perak"
    },
    {
        "Postcode": "30100",
        "Location": "Lorong Perhentian",
        "Post_Office": "Ipoh",
        "State": "Perak"
    },
    {
        "Postcode": "30100",
        "Location": "Lorong Silibin",
        "Post_Office": "Ipoh",
        "State": "Perak"
    },
    {
        "Postcode": "30100",
        "Location": "Persiaran Desa Rishah (S) 1/8",
        "Post_Office": "Ipoh",
        "State": "Perak"
    },
    {
        "Postcode": "30100",
        "Location": "Persiaran Desa Rishah 11",
        "Post_Office": "Ipoh",
        "State": "Perak"
    },
    {
        "Postcode": "30100",
        "Location": "Persiaran Jelapang",
        "Post_Office": "Ipoh",
        "State": "Perak"
    },
    {
        "Postcode": "30100",
        "Location": "Persiaran Kilang",
        "Post_Office": "Ipoh",
        "State": "Perak"
    },
    {
        "Postcode": "30100",
        "Location": "Persiaran Maxwell",
        "Post_Office": "Ipoh",
        "State": "Perak"
    },
    {
        "Postcode": "30100",
        "Location": "Persiaran Merdeka",
        "Post_Office": "Ipoh",
        "State": "Perak"
    },
    {
        "Postcode": "30100",
        "Location": "Regat Kilang",
        "Post_Office": "Ipoh",
        "State": "Perak"
    },
    {
        "Postcode": "30100",
        "Location": "Regat Labrooy",
        "Post_Office": "Ipoh",
        "State": "Perak"
    },
    {
        "Postcode": "30100",
        "Location": "Regat Maxwell",
        "Post_Office": "Ipoh",
        "State": "Perak"
    },
    {
        "Postcode": "30100",
        "Location": "Rishah Permai",
        "Post_Office": "Ipoh",
        "State": "Perak"
    },
    {
        "Postcode": "30100",
        "Location": "Silibin",
        "Post_Office": "Ipoh",
        "State": "Perak"
    },
    {
        "Postcode": "30100",
        "Location": "Silibin Baru",
        "Post_Office": "Ipoh",
        "State": "Perak"
    },
    {
        "Postcode": "30100",
        "Location": "Solok Labrooy",
        "Post_Office": "Ipoh",
        "State": "Perak"
    },
    {
        "Postcode": "30100",
        "Location": "Solok Maxwell",
        "Post_Office": "Ipoh",
        "State": "Perak"
    },
    {
        "Postcode": "30100",
        "Location": "Taman Alkaf",
        "Post_Office": "Ipoh",
        "State": "Perak"
    },
    {
        "Postcode": "30100",
        "Location": "Taman Bekor",
        "Post_Office": "Ipoh",
        "State": "Perak"
    },
    {
        "Postcode": "30100",
        "Location": "Taman Buloh Emas",
        "Post_Office": "Ipoh",
        "State": "Perak"
    },
    {
        "Postcode": "30100",
        "Location": "Taman Buntong Jaya",
        "Post_Office": "Ipoh",
        "State": "Perak"
    },
    {
        "Postcode": "30100",
        "Location": "Taman Buntong Mutiara",
        "Post_Office": "Ipoh",
        "State": "Perak"
    },
    {
        "Postcode": "30100",
        "Location": "Taman Buntong Ria",
        "Post_Office": "Ipoh",
        "State": "Perak"
    },
    {
        "Postcode": "30100",
        "Location": "Taman Cherry",
        "Post_Office": "Ipoh",
        "State": "Perak"
    },
    {
        "Postcode": "30100",
        "Location": "Taman Desa Rishah",
        "Post_Office": "Ipoh",
        "State": "Perak"
    },
    {
        "Postcode": "30100",
        "Location": "Taman Desa Rishah Indah",
        "Post_Office": "Ipoh",
        "State": "Perak"
    },
    {
        "Postcode": "30100",
        "Location": "Taman Eden",
        "Post_Office": "Ipoh",
        "State": "Perak"
    },
    {
        "Postcode": "30100",
        "Location": "Taman Grand Silibin",
        "Post_Office": "Ipoh",
        "State": "Perak"
    },
    {
        "Postcode": "30100",
        "Location": "Taman Gurmuda",
        "Post_Office": "Ipoh",
        "State": "Perak"
    },
    {
        "Postcode": "30100",
        "Location": "Taman Idris",
        "Post_Office": "Ipoh",
        "State": "Perak"
    },
    {
        "Postcode": "30100",
        "Location": "Taman Kandy",
        "Post_Office": "Ipoh",
        "State": "Perak"
    },
    {
        "Postcode": "30100",
        "Location": "Taman Keladang Jaya",
        "Post_Office": "Ipoh",
        "State": "Perak"
    },
    {
        "Postcode": "30100",
        "Location": "Taman Keledang Emas",
        "Post_Office": "Ipoh",
        "State": "Perak"
    },
    {
        "Postcode": "30100",
        "Location": "Taman Keledang Jaya",
        "Post_Office": "Ipoh",
        "State": "Perak"
    },
    {
        "Postcode": "30100",
        "Location": "Taman Maxwell",
        "Post_Office": "Ipoh",
        "State": "Perak"
    },
    {
        "Postcode": "30100",
        "Location": "Taman Pari",
        "Post_Office": "Ipoh",
        "State": "Perak"
    },
    {
        "Postcode": "30100",
        "Location": "Taman Risah",
        "Post_Office": "Ipoh",
        "State": "Perak"
    },
    {
        "Postcode": "30100",
        "Location": "Taman Saz",
        "Post_Office": "Ipoh",
        "State": "Perak"
    },
    {
        "Postcode": "30100",
        "Location": "Taman Seri Tahan",
        "Post_Office": "Ipoh",
        "State": "Perak"
    },
    {
        "Postcode": "30100",
        "Location": "Taman Seri Wani",
        "Post_Office": "Ipoh",
        "State": "Perak"
    },
    {
        "Postcode": "30100",
        "Location": "Taman Silibin",
        "Post_Office": "Ipoh",
        "State": "Perak"
    },
    {
        "Postcode": "30100",
        "Location": "Taman Silibin Mewah",
        "Post_Office": "Ipoh",
        "State": "Perak"
    },
    {
        "Postcode": "30100",
        "Location": "Taman Tinggi",
        "Post_Office": "Ipoh",
        "State": "Perak"
    },
    {
        "Postcode": "30100",
        "Location": "Teluk Kurin",
        "Post_Office": "Ipoh",
        "State": "Perak"
    },
    {
        "Postcode": "30100",
        "Location": "Jalan Damai",
        "Post_Office": "Ipoh",
        "State": "Perak"
    },
    {
        "Postcode": "30100",
        "Location": "Taman Mas",
        "Post_Office": "Ipoh",
        "State": "Perak"
    },
    {
        "Postcode": "30100",
        "Location": "Taman Merdeka",
        "Post_Office": "Ipoh",
        "State": "Perak"
    },
    {
        "Postcode": "30100",
        "Location": "Taman Pertama",
        "Post_Office": "Ipoh",
        "State": "Perak"
    },
    {
        "Postcode": "30100",
        "Location": "Jalan Jelapang",
        "Post_Office": "Ipoh",
        "State": "Perak"
    },
    {
        "Postcode": "30100",
        "Location": "Jalan Manjoi",
        "Post_Office": "Ipoh",
        "State": "Perak"
    },
    {
        "Postcode": "30100",
        "Location": "Jalan Taman Merdeka",
        "Post_Office": "Ipoh",
        "State": "Perak"
    },
    {
        "Postcode": "30100",
        "Location": "Jalan Tun Abdul Razak",
        "Post_Office": "Ipoh",
        "State": "Perak"
    },
    {
        "Postcode": "30100",
        "Location": "Taman Lim",
        "Post_Office": "Ipoh",
        "State": "Perak"
    },
    {
        "Postcode": "30100",
        "Location": "Taman Muhibah",
        "Post_Office": "Ipoh",
        "State": "Perak"
    },
    {
        "Postcode": "30100",
        "Location": "Rishah Permai 1",
        "Post_Office": "Ipoh",
        "State": "Perak"
    },
    {
        "Postcode": "30100",
        "Location": "Rishah Permai 2",
        "Post_Office": "Ipoh",
        "State": "Perak"
    },
    {
        "Postcode": "30100",
        "Location": "Rishah Permai 3",
        "Post_Office": "Ipoh",
        "State": "Perak"
    },
    {
        "Postcode": "30100",
        "Location": "Rishah Permai 4",
        "Post_Office": "Ipoh",
        "State": "Perak"
    },
    {
        "Postcode": "30100",
        "Location": "Rishah Permai 5",
        "Post_Office": "Ipoh",
        "State": "Perak"
    }
]
