[
    {
        "Postcode": "30200",
        "Location": "Jalan Leong B Swee 97",
        "Post_Office": "Ipoh",
        "State": "Perak"
    },
    {
        "Postcode": "30200",
        "Location": "Jalan Leong B Swee 98",
        "Post_Office": "Ipoh",
        "State": "Perak"
    },
    {
        "Postcode": "30200",
        "Location": "Jalan Leong B Swee 99",
        "Post_Office": "Ipoh",
        "State": "Perak"
    },
    {
        "Postcode": "30200",
        "Location": "Bengkel Workshop Mbi Falim",
        "Post_Office": "Ipoh",
        "State": "Perak"
    },
    {
        "Postcode": "30200",
        "Location": "Birch Avenue",
        "Post_Office": "Ipoh",
        "State": "Perak"
    },
    {
        "Postcode": "30200",
        "Location": "Falim",
        "Post_Office": "Ipoh",
        "State": "Perak"
    },
    {
        "Postcode": "30200",
        "Location": "Flat Buntong Permai",
        "Post_Office": "Ipoh",
        "State": "Perak"
    },
    {
        "Postcode": "30200",
        "Location": "Hala Datok",
        "Post_Office": "Ipoh",
        "State": "Perak"
    },
    {
        "Postcode": "30200",
        "Location": "Hala Sungai Pari",
        "Post_Office": "Ipoh",
        "State": "Perak"
    },
    {
        "Postcode": "30200",
        "Location": "Jalan Bijih Timah",
        "Post_Office": "Ipoh",
        "State": "Perak"
    },
    {
        "Postcode": "30200",
        "Location": "Jalan Datok",
        "Post_Office": "Ipoh",
        "State": "Perak"
    },
    {
        "Postcode": "30200",
        "Location": "Jalan Foo Nyit Tse",
        "Post_Office": "Ipoh",
        "State": "Perak"
    },
    {
        "Postcode": "30200",
        "Location": "Jalan Foo Wah Ching",
        "Post_Office": "Ipoh",
        "State": "Perak"
    },
    {
        "Postcode": "30200",
        "Location": "Jalan Gurdawara Crescent",
        "Post_Office": "Ipoh",
        "State": "Perak"
    },
    {
        "Postcode": "30200",
        "Location": "Jalan Gurdawara Sungai Pari",
        "Post_Office": "Ipoh",
        "State": "Perak"
    },
    {
        "Postcode": "30200",
        "Location": "Jalan Janze Avenue",
        "Post_Office": "Ipoh",
        "State": "Perak"
    },
    {
        "Postcode": "30200",
        "Location": "Jalan Jelf",
        "Post_Office": "Ipoh",
        "State": "Perak"
    },
    {
        "Postcode": "30200",
        "Location": "Jalan Lahat (Falim)",
        "Post_Office": "Ipoh",
        "State": "Perak"
    },
    {
        "Postcode": "30200",
        "Location": "Jalan Lee Chok Kai",
        "Post_Office": "Ipoh",
        "State": "Perak"
    },
    {
        "Postcode": "30200",
        "Location": "Jalan Madras",
        "Post_Office": "Ipoh",
        "State": "Perak"
    },
    {
        "Postcode": "30200",
        "Location": "Jalan Meyyapa",
        "Post_Office": "Ipoh",
        "State": "Perak"
    },
    {
        "Postcode": "30200",
        "Location": "Jalan Nehru",
        "Post_Office": "Ipoh",
        "State": "Perak"
    },
    {
        "Postcode": "30200",
        "Location": "Jalan Sanders",
        "Post_Office": "Ipoh",
        "State": "Perak"
    },
    {
        "Postcode": "30200",
        "Location": "Jalan Spooner",
        "Post_Office": "Ipoh",
        "State": "Perak"
    },
    {
        "Postcode": "30200",
        "Location": "Jalan St John",
        "Post_Office": "Ipoh",
        "State": "Perak"
    },
    {
        "Postcode": "30200",
        "Location": "Jalan Sungai Pari",
        "Post_Office": "Ipoh",
        "State": "Perak"
    },
    {
        "Postcode": "30200",
        "Location": "Jalan Thambusamy",
        "Post_Office": "Ipoh",
        "State": "Perak"
    },
    {
        "Postcode": "30200",
        "Location": "Jalan Treacher Selatan",
        "Post_Office": "Ipoh",
        "State": "Perak"
    },
    {
        "Postcode": "30200",
        "Location": "Jalan Tun Perak",
        "Post_Office": "Ipoh",
        "State": "Perak"
    },
    {
        "Postcode": "30200",
        "Location": "Janze Avenue",
        "Post_Office": "Ipoh",
        "State": "Perak"
    },
    {
        "Postcode": "30200",
        "Location": "Jkr Kuarters Lorong Lahat",
        "Post_Office": "Ipoh",
        "State": "Perak"
    },
    {
        "Postcode": "30200",
        "Location": "Kampung Taili",
        "Post_Office": "Ipoh",
        "State": "Perak"
    },
    {
        "Postcode": "30200",
        "Location": "Kampung Tersusun Sungai Pari",
        "Post_Office": "Ipoh",
        "State": "Perak"
    },
    {
        "Postcode": "30200",
        "Location": "Kawasan Industri Paloh",
        "Post_Office": "Ipoh",
        "State": "Perak"
    },
    {
        "Postcode": "30200",
        "Location": "Lahat Avenue",
        "Post_Office": "Ipoh",
        "State": "Perak"
    },
    {
        "Postcode": "30200",
        "Location": "Lahat Drive",
        "Post_Office": "Ipoh",
        "State": "Perak"
    },
    {
        "Postcode": "30200",
        "Location": "Laluan Perusahaan Menglembu",
        "Post_Office": "Ipoh",
        "State": "Perak"
    },
    {
        "Postcode": "30200",
        "Location": "Lebuhraya Lahat",
        "Post_Office": "Ipoh",
        "State": "Perak"
    },
    {
        "Postcode": "30200",
        "Location": "Lengkok Lahat",
        "Post_Office": "Ipoh",
        "State": "Perak"
    },
    {
        "Postcode": "30200",
        "Location": "Lengkok Sungai Pari",
        "Post_Office": "Ipoh",
        "State": "Perak"
    },
    {
        "Postcode": "30200",
        "Location": "Lorong Isaac",
        "Post_Office": "Ipoh",
        "State": "Perak"
    },
    {
        "Postcode": "30200",
        "Location": "Lorong Keretapi",
        "Post_Office": "Ipoh",
        "State": "Perak"
    },
    {
        "Postcode": "30200",
        "Location": "Lorong Lahat",
        "Post_Office": "Ipoh",
        "State": "Perak"
    },
    {
        "Postcode": "30200",
        "Location": "Lorong Pakianathan",
        "Post_Office": "Ipoh",
        "State": "Perak"
    },
    {
        "Postcode": "30200",
        "Location": "Mariamma Lane",
        "Post_Office": "Ipoh",
        "State": "Perak"
    },
    {
        "Postcode": "30200",
        "Location": "Medan Mara",
        "Post_Office": "Ipoh",
        "State": "Perak"
    },
    {
        "Postcode": "30200",
        "Location": "Medan Perhentian (Kidd)",
        "Post_Office": "Ipoh",
        "State": "Perak"
    },
    {
        "Postcode": "30200",
        "Location": "Pei Lok Appartment",
        "Post_Office": "Ipoh",
        "State": "Perak"
    },
    {
        "Postcode": "30200",
        "Location": "Persiaran Datoh",
        "Post_Office": "Ipoh",
        "State": "Perak"
    },
    {
        "Postcode": "30200",
        "Location": "Persiaran Falim",
        "Post_Office": "Ipoh",
        "State": "Perak"
    },
    {
        "Postcode": "30200",
        "Location": "Persiaran Guntung",
        "Post_Office": "Ipoh",
        "State": "Perak"
    },
    {
        "Postcode": "30200",
        "Location": "Persiaran Kidd",
        "Post_Office": "Ipoh",
        "State": "Perak"
    },
    {
        "Postcode": "30200",
        "Location": "Persiaran Lahat",
        "Post_Office": "Ipoh",
        "State": "Perak"
    },
    {
        "Postcode": "30200",
        "Location": "Persiaran Nehru",
        "Post_Office": "Ipoh",
        "State": "Perak"
    },
    {
        "Postcode": "30200",
        "Location": "Persiaran Perhentian",
        "Post_Office": "Ipoh",
        "State": "Perak"
    },
    {
        "Postcode": "30200",
        "Location": "Persiaran Tun Perak",
        "Post_Office": "Ipoh",
        "State": "Perak"
    },
    {
        "Postcode": "30200",
        "Location": "Regat Lahat",
        "Post_Office": "Ipoh",
        "State": "Perak"
    },
    {
        "Postcode": "30200",
        "Location": "Seberang Paloh",
        "Post_Office": "Ipoh",
        "State": "Perak"
    },
    {
        "Postcode": "30200",
        "Location": "Silibin Drive",
        "Post_Office": "Ipoh",
        "State": "Perak"
    },
    {
        "Postcode": "30200",
        "Location": "Silibin Mews",
        "Post_Office": "Ipoh",
        "State": "Perak"
    },
    {
        "Postcode": "30200",
        "Location": "Solok Lahat",
        "Post_Office": "Ipoh",
        "State": "Perak"
    },
    {
        "Postcode": "30200",
        "Location": "Sungai Pari Towers",
        "Post_Office": "Ipoh",
        "State": "Perak"
    },
    {
        "Postcode": "30200",
        "Location": "Taman Birch",
        "Post_Office": "Ipoh",
        "State": "Perak"
    },
    {
        "Postcode": "30200",
        "Location": "Taman Falim",
        "Post_Office": "Ipoh",
        "State": "Perak"
    },
    {
        "Postcode": "30200",
        "Location": "Taman Falim Indah",
        "Post_Office": "Ipoh",
        "State": "Perak"
    },
    {
        "Postcode": "30200",
        "Location": "Taman Mas Jaya (Falim)",
        "Post_Office": "Ipoh",
        "State": "Perak"
    },
    {
        "Postcode": "30200",
        "Location": "Taman Wolly",
        "Post_Office": "Ipoh",
        "State": "Perak"
    },
    {
        "Postcode": "30200",
        "Location": "Tingkat Falim",
        "Post_Office": "Ipoh",
        "State": "Perak"
    },
    {
        "Postcode": "30200",
        "Location": "Jalan Lahat",
        "Post_Office": "Ipoh",
        "State": "Perak"
    },
    {
        "Postcode": "30200",
        "Location": "Jalan Leong Yew Koh",
        "Post_Office": "Ipoh",
        "State": "Perak"
    },
    {
        "Postcode": "30200",
        "Location": "Jalan Tun Abdul Razak",
        "Post_Office": "Ipoh",
        "State": "Perak"
    },
    {
        "Postcode": "30200",
        "Location": "Kampung Paloh",
        "Post_Office": "Ipoh",
        "State": "Perak"
    },
    {
        "Postcode": "30200",
        "Location": "Hala Perusahaan Menglembu 1",
        "Post_Office": "Ipoh",
        "State": "Perak"
    },
    {
        "Postcode": "30200",
        "Location": "Hala Perusahaan Menglembu 2",
        "Post_Office": "Ipoh",
        "State": "Perak"
    },
    {
        "Postcode": "30200",
        "Location": "Jalan Leong B Swee 100",
        "Post_Office": "Ipoh",
        "State": "Perak"
    },
    {
        "Postcode": "30200",
        "Location": "Jalan Leong B Swee 101",
        "Post_Office": "Ipoh",
        "State": "Perak"
    },
    {
        "Postcode": "30200",
        "Location": "Jalan Leong B Swee 102",
        "Post_Office": "Ipoh",
        "State": "Perak"
    },
    {
        "Postcode": "30200",
        "Location": "Jalan Leong B Swee 103",
        "Post_Office": "Ipoh",
        "State": "Perak"
    },
    {
        "Postcode": "30200",
        "Location": "Jalan Leong B Swee 104",
        "Post_Office": "Ipoh",
        "State": "Perak"
    },
    {
        "Postcode": "30200",
        "Location": "Jalan Leong B Swee 105",
        "Post_Office": "Ipoh",
        "State": "Perak"
    },
    {
        "Postcode": "30200",
        "Location": "Jalan Leong B Swee 106",
        "Post_Office": "Ipoh",
        "State": "Perak"
    },
    {
        "Postcode": "30200",
        "Location": "Jalan Leong B Swee 107",
        "Post_Office": "Ipoh",
        "State": "Perak"
    },
    {
        "Postcode": "30200",
        "Location": "Jalan Leong B Swee 108",
        "Post_Office": "Ipoh",
        "State": "Perak"
    },
    {
        "Postcode": "30200",
        "Location": "Jalan Leong B Swee 88",
        "Post_Office": "Ipoh",
        "State": "Perak"
    },
    {
        "Postcode": "30200",
        "Location": "Jalan Leong B Swee 89",
        "Post_Office": "Ipoh",
        "State": "Perak"
    },
    {
        "Postcode": "30200",
        "Location": "Jalan Leong B Swee 90",
        "Post_Office": "Ipoh",
        "State": "Perak"
    },
    {
        "Postcode": "30200",
        "Location": "Jalan Leong B Swee 91",
        "Post_Office": "Ipoh",
        "State": "Perak"
    },
    {
        "Postcode": "30200",
        "Location": "Jalan Leong B Swee 92",
        "Post_Office": "Ipoh",
        "State": "Perak"
    },
    {
        "Postcode": "30200",
        "Location": "Jalan Leong B Swee 93",
        "Post_Office": "Ipoh",
        "State": "Perak"
    },
    {
        "Postcode": "30200",
        "Location": "Jalan Leong B Swee 94",
        "Post_Office": "Ipoh",
        "State": "Perak"
    },
    {
        "Postcode": "30200",
        "Location": "Jalan Leong B Swee 95",
        "Post_Office": "Ipoh",
        "State": "Perak"
    },
    {
        "Postcode": "30200",
        "Location": "Jalan Leong B Swee 96",
        "Post_Office": "Ipoh",
        "State": "Perak"
    }
]
