[
    {
        "Postcode": "30250",
        "Location": "Jalan Gopeng 1",
        "Post_Office": "Ipoh",
        "State": "Perak"
    },
    {
        "Postcode": "30250",
        "Location": "Jalan Gopeng 10",
        "Post_Office": "Ipoh",
        "State": "Perak"
    },
    {
        "Postcode": "30250",
        "Location": "Jalan Gopeng 100",
        "Post_Office": "Ipoh",
        "State": "Perak"
    },
    {
        "Postcode": "30250",
        "Location": "Jalan Gopeng 101",
        "Post_Office": "Ipoh",
        "State": "Perak"
    },
    {
        "Postcode": "30250",
        "Location": "Jalan Gopeng 102",
        "Post_Office": "Ipoh",
        "State": "Perak"
    },
    {
        "Postcode": "30250",
        "Location": "Jalan Gopeng 103",
        "Post_Office": "Ipoh",
        "State": "Perak"
    },
    {
        "Postcode": "30250",
        "Location": "Jalan Gopeng 104",
        "Post_Office": "Ipoh",
        "State": "Perak"
    },
    {
        "Postcode": "30250",
        "Location": "Jalan Gopeng 105",
        "Post_Office": "Ipoh",
        "State": "Perak"
    },
    {
        "Postcode": "30250",
        "Location": "Jalan Gopeng 106",
        "Post_Office": "Ipoh",
        "State": "Perak"
    },
    {
        "Postcode": "30250",
        "Location": "Jalan Gopeng 107",
        "Post_Office": "Ipoh",
        "State": "Perak"
    },
    {
        "Postcode": "30250",
        "Location": "Jalan Gopeng 108",
        "Post_Office": "Ipoh",
        "State": "Perak"
    },
    {
        "Postcode": "30250",
        "Location": "Jalan Gopeng 109",
        "Post_Office": "Ipoh",
        "State": "Perak"
    },
    {
        "Postcode": "30250",
        "Location": "Jalan Gopeng 11",
        "Post_Office": "Ipoh",
        "State": "Perak"
    },
    {
        "Postcode": "30250",
        "Location": "Jalan Gopeng 110",
        "Post_Office": "Ipoh",
        "State": "Perak"
    },
    {
        "Postcode": "30250",
        "Location": "Jalan Gopeng 111",
        "Post_Office": "Ipoh",
        "State": "Perak"
    },
    {
        "Postcode": "30250",
        "Location": "Jalan Gopeng 112",
        "Post_Office": "Ipoh",
        "State": "Perak"
    },
    {
        "Postcode": "30250",
        "Location": "Jalan Gopeng 113",
        "Post_Office": "Ipoh",
        "State": "Perak"
    },
    {
        "Postcode": "30250",
        "Location": "Jalan Gopeng 114",
        "Post_Office": "Ipoh",
        "State": "Perak"
    },
    {
        "Postcode": "30250",
        "Location": "Jalan Gopeng 115",
        "Post_Office": "Ipoh",
        "State": "Perak"
    },
    {
        "Postcode": "30250",
        "Location": "Jalan Gopeng 116",
        "Post_Office": "Ipoh",
        "State": "Perak"
    },
    {
        "Postcode": "30250",
        "Location": "Jalan Gopeng 117",
        "Post_Office": "Ipoh",
        "State": "Perak"
    },
    {
        "Postcode": "30250",
        "Location": "Jalan Gopeng 12",
        "Post_Office": "Ipoh",
        "State": "Perak"
    },
    {
        "Postcode": "30250",
        "Location": "Jalan Gopeng 13",
        "Post_Office": "Ipoh",
        "State": "Perak"
    },
    {
        "Postcode": "30250",
        "Location": "Jalan Gopeng 14",
        "Post_Office": "Ipoh",
        "State": "Perak"
    },
    {
        "Postcode": "30250",
        "Location": "Jalan Gopeng 15",
        "Post_Office": "Ipoh",
        "State": "Perak"
    },
    {
        "Postcode": "30250",
        "Location": "Jalan Gopeng 16",
        "Post_Office": "Ipoh",
        "State": "Perak"
    },
    {
        "Postcode": "30250",
        "Location": "Jalan Gopeng 17",
        "Post_Office": "Ipoh",
        "State": "Perak"
    },
    {
        "Postcode": "30250",
        "Location": "Jalan Gopeng 18",
        "Post_Office": "Ipoh",
        "State": "Perak"
    },
    {
        "Postcode": "30250",
        "Location": "Jalan Gopeng 19",
        "Post_Office": "Ipoh",
        "State": "Perak"
    },
    {
        "Postcode": "30250",
        "Location": "Jalan Gopeng 2",
        "Post_Office": "Ipoh",
        "State": "Perak"
    },
    {
        "Postcode": "30250",
        "Location": "Jalan Gopeng 20",
        "Post_Office": "Ipoh",
        "State": "Perak"
    },
    {
        "Postcode": "30250",
        "Location": "Jalan Gopeng 21",
        "Post_Office": "Ipoh",
        "State": "Perak"
    },
    {
        "Postcode": "30250",
        "Location": "Jalan Gopeng 22",
        "Post_Office": "Ipoh",
        "State": "Perak"
    },
    {
        "Postcode": "30250",
        "Location": "Jalan Gopeng 23",
        "Post_Office": "Ipoh",
        "State": "Perak"
    },
    {
        "Postcode": "30250",
        "Location": "Jalan Gopeng 24",
        "Post_Office": "Ipoh",
        "State": "Perak"
    },
    {
        "Postcode": "30250",
        "Location": "Jalan Gopeng 25",
        "Post_Office": "Ipoh",
        "State": "Perak"
    },
    {
        "Postcode": "30250",
        "Location": "Jalan Gopeng 26",
        "Post_Office": "Ipoh",
        "State": "Perak"
    },
    {
        "Postcode": "30250",
        "Location": "Jalan Gopeng 27",
        "Post_Office": "Ipoh",
        "State": "Perak"
    },
    {
        "Postcode": "30250",
        "Location": "Jalan Gopeng 28",
        "Post_Office": "Ipoh",
        "State": "Perak"
    },
    {
        "Postcode": "30250",
        "Location": "Jalan Gopeng 29",
        "Post_Office": "Ipoh",
        "State": "Perak"
    },
    {
        "Postcode": "30250",
        "Location": "Jalan Gopeng 3",
        "Post_Office": "Ipoh",
        "State": "Perak"
    },
    {
        "Postcode": "30250",
        "Location": "Jalan Gopeng 30",
        "Post_Office": "Ipoh",
        "State": "Perak"
    },
    {
        "Postcode": "30250",
        "Location": "Jalan Gopeng 31",
        "Post_Office": "Ipoh",
        "State": "Perak"
    },
    {
        "Postcode": "30250",
        "Location": "Jalan Gopeng 32",
        "Post_Office": "Ipoh",
        "State": "Perak"
    },
    {
        "Postcode": "30250",
        "Location": "Jalan Gopeng 33",
        "Post_Office": "Ipoh",
        "State": "Perak"
    },
    {
        "Postcode": "30250",
        "Location": "Jalan Gopeng 34",
        "Post_Office": "Ipoh",
        "State": "Perak"
    },
    {
        "Postcode": "30250",
        "Location": "Jalan Gopeng 35",
        "Post_Office": "Ipoh",
        "State": "Perak"
    },
    {
        "Postcode": "30250",
        "Location": "Jalan Gopeng 36",
        "Post_Office": "Ipoh",
        "State": "Perak"
    },
    {
        "Postcode": "30250",
        "Location": "Jalan Gopeng 37",
        "Post_Office": "Ipoh",
        "State": "Perak"
    },
    {
        "Postcode": "30250",
        "Location": "Jalan Gopeng 38",
        "Post_Office": "Ipoh",
        "State": "Perak"
    },
    {
        "Postcode": "30250",
        "Location": "Jalan Gopeng 39",
        "Post_Office": "Ipoh",
        "State": "Perak"
    },
    {
        "Postcode": "30250",
        "Location": "Jalan Gopeng 4",
        "Post_Office": "Ipoh",
        "State": "Perak"
    },
    {
        "Postcode": "30250",
        "Location": "Jalan Gopeng 40",
        "Post_Office": "Ipoh",
        "State": "Perak"
    },
    {
        "Postcode": "30250",
        "Location": "Jalan Gopeng 41",
        "Post_Office": "Ipoh",
        "State": "Perak"
    },
    {
        "Postcode": "30250",
        "Location": "Jalan Gopeng 42",
        "Post_Office": "Ipoh",
        "State": "Perak"
    },
    {
        "Postcode": "30250",
        "Location": "Jalan Gopeng 43",
        "Post_Office": "Ipoh",
        "State": "Perak"
    },
    {
        "Postcode": "30250",
        "Location": "Jalan Gopeng 44",
        "Post_Office": "Ipoh",
        "State": "Perak"
    },
    {
        "Postcode": "30250",
        "Location": "Jalan Gopeng 45",
        "Post_Office": "Ipoh",
        "State": "Perak"
    },
    {
        "Postcode": "30250",
        "Location": "Jalan Gopeng 46",
        "Post_Office": "Ipoh",
        "State": "Perak"
    },
    {
        "Postcode": "30250",
        "Location": "Jalan Gopeng 47",
        "Post_Office": "Ipoh",
        "State": "Perak"
    },
    {
        "Postcode": "30250",
        "Location": "Jalan Gopeng 48",
        "Post_Office": "Ipoh",
        "State": "Perak"
    },
    {
        "Postcode": "30250",
        "Location": "Jalan Gopeng 49",
        "Post_Office": "Ipoh",
        "State": "Perak"
    },
    {
        "Postcode": "30250",
        "Location": "Jalan Gopeng 5",
        "Post_Office": "Ipoh",
        "State": "Perak"
    },
    {
        "Postcode": "30250",
        "Location": "Jalan Gopeng 50",
        "Post_Office": "Ipoh",
        "State": "Perak"
    },
    {
        "Postcode": "30250",
        "Location": "Jalan Gopeng 51",
        "Post_Office": "Ipoh",
        "State": "Perak"
    },
    {
        "Postcode": "30250",
        "Location": "Jalan Gopeng 52",
        "Post_Office": "Ipoh",
        "State": "Perak"
    },
    {
        "Postcode": "30250",
        "Location": "Jalan Gopeng 53",
        "Post_Office": "Ipoh",
        "State": "Perak"
    },
    {
        "Postcode": "30250",
        "Location": "Jalan Gopeng 54",
        "Post_Office": "Ipoh",
        "State": "Perak"
    },
    {
        "Postcode": "30250",
        "Location": "Jalan Gopeng 55",
        "Post_Office": "Ipoh",
        "State": "Perak"
    },
    {
        "Postcode": "30250",
        "Location": "Jalan Gopeng 56",
        "Post_Office": "Ipoh",
        "State": "Perak"
    },
    {
        "Postcode": "30250",
        "Location": "Jalan Gopeng 57",
        "Post_Office": "Ipoh",
        "State": "Perak"
    },
    {
        "Postcode": "30250",
        "Location": "Jalan Gopeng 58",
        "Post_Office": "Ipoh",
        "State": "Perak"
    },
    {
        "Postcode": "30250",
        "Location": "Jalan Gopeng 59",
        "Post_Office": "Ipoh",
        "State": "Perak"
    },
    {
        "Postcode": "30250",
        "Location": "Jalan Gopeng 6",
        "Post_Office": "Ipoh",
        "State": "Perak"
    },
    {
        "Postcode": "30250",
        "Location": "Jalan Gopeng 60",
        "Post_Office": "Ipoh",
        "State": "Perak"
    },
    {
        "Postcode": "30250",
        "Location": "Jalan Gopeng 61",
        "Post_Office": "Ipoh",
        "State": "Perak"
    },
    {
        "Postcode": "30250",
        "Location": "Jalan Gopeng 62",
        "Post_Office": "Ipoh",
        "State": "Perak"
    },
    {
        "Postcode": "30250",
        "Location": "Jalan Gopeng 63",
        "Post_Office": "Ipoh",
        "State": "Perak"
    },
    {
        "Postcode": "30250",
        "Location": "Jalan Gopeng 64",
        "Post_Office": "Ipoh",
        "State": "Perak"
    },
    {
        "Postcode": "30250",
        "Location": "Jalan Gopeng 65",
        "Post_Office": "Ipoh",
        "State": "Perak"
    },
    {
        "Postcode": "30250",
        "Location": "Jalan Gopeng 66",
        "Post_Office": "Ipoh",
        "State": "Perak"
    },
    {
        "Postcode": "30250",
        "Location": "Jalan Gopeng 67",
        "Post_Office": "Ipoh",
        "State": "Perak"
    },
    {
        "Postcode": "30250",
        "Location": "Jalan Gopeng 68",
        "Post_Office": "Ipoh",
        "State": "Perak"
    },
    {
        "Postcode": "30250",
        "Location": "Jalan Gopeng 69",
        "Post_Office": "Ipoh",
        "State": "Perak"
    },
    {
        "Postcode": "30250",
        "Location": "Jalan Gopeng 7",
        "Post_Office": "Ipoh",
        "State": "Perak"
    },
    {
        "Postcode": "30250",
        "Location": "Jalan Gopeng 70",
        "Post_Office": "Ipoh",
        "State": "Perak"
    },
    {
        "Postcode": "30250",
        "Location": "Jalan Gopeng 71",
        "Post_Office": "Ipoh",
        "State": "Perak"
    },
    {
        "Postcode": "30250",
        "Location": "Jalan Gopeng 72",
        "Post_Office": "Ipoh",
        "State": "Perak"
    },
    {
        "Postcode": "30250",
        "Location": "Jalan Gopeng 73",
        "Post_Office": "Ipoh",
        "State": "Perak"
    },
    {
        "Postcode": "30250",
        "Location": "Jalan Gopeng 74",
        "Post_Office": "Ipoh",
        "State": "Perak"
    },
    {
        "Postcode": "30250",
        "Location": "Jalan Gopeng 75",
        "Post_Office": "Ipoh",
        "State": "Perak"
    },
    {
        "Postcode": "30250",
        "Location": "Jalan Gopeng 76",
        "Post_Office": "Ipoh",
        "State": "Perak"
    },
    {
        "Postcode": "30250",
        "Location": "Jalan Gopeng 77",
        "Post_Office": "Ipoh",
        "State": "Perak"
    },
    {
        "Postcode": "30250",
        "Location": "Jalan Gopeng 78",
        "Post_Office": "Ipoh",
        "State": "Perak"
    },
    {
        "Postcode": "30250",
        "Location": "Jalan Gopeng 79",
        "Post_Office": "Ipoh",
        "State": "Perak"
    },
    {
        "Postcode": "30250",
        "Location": "Jalan Gopeng 8",
        "Post_Office": "Ipoh",
        "State": "Perak"
    },
    {
        "Postcode": "30250",
        "Location": "Jalan Gopeng 80",
        "Post_Office": "Ipoh",
        "State": "Perak"
    },
    {
        "Postcode": "30250",
        "Location": "Jalan Gopeng 81",
        "Post_Office": "Ipoh",
        "State": "Perak"
    },
    {
        "Postcode": "30250",
        "Location": "Jalan Gopeng 82",
        "Post_Office": "Ipoh",
        "State": "Perak"
    },
    {
        "Postcode": "30250",
        "Location": "Jalan Gopeng 83",
        "Post_Office": "Ipoh",
        "State": "Perak"
    },
    {
        "Postcode": "30250",
        "Location": "Jalan Gopeng 84",
        "Post_Office": "Ipoh",
        "State": "Perak"
    },
    {
        "Postcode": "30250",
        "Location": "Jalan Gopeng 85",
        "Post_Office": "Ipoh",
        "State": "Perak"
    },
    {
        "Postcode": "30250",
        "Location": "Jalan Gopeng 86",
        "Post_Office": "Ipoh",
        "State": "Perak"
    },
    {
        "Postcode": "30250",
        "Location": "Jalan Gopeng 87",
        "Post_Office": "Ipoh",
        "State": "Perak"
    },
    {
        "Postcode": "30250",
        "Location": "Jalan Gopeng 88",
        "Post_Office": "Ipoh",
        "State": "Perak"
    },
    {
        "Postcode": "30250",
        "Location": "Jalan Gopeng 89",
        "Post_Office": "Ipoh",
        "State": "Perak"
    },
    {
        "Postcode": "30250",
        "Location": "Jalan Gopeng 9",
        "Post_Office": "Ipoh",
        "State": "Perak"
    },
    {
        "Postcode": "30250",
        "Location": "Jalan Gopeng 90",
        "Post_Office": "Ipoh",
        "State": "Perak"
    },
    {
        "Postcode": "30250",
        "Location": "Jalan Gopeng 91",
        "Post_Office": "Ipoh",
        "State": "Perak"
    },
    {
        "Postcode": "30250",
        "Location": "Jalan Gopeng 92",
        "Post_Office": "Ipoh",
        "State": "Perak"
    },
    {
        "Postcode": "30250",
        "Location": "Jalan Gopeng 93",
        "Post_Office": "Ipoh",
        "State": "Perak"
    },
    {
        "Postcode": "30250",
        "Location": "Jalan Gopeng 94",
        "Post_Office": "Ipoh",
        "State": "Perak"
    },
    {
        "Postcode": "30250",
        "Location": "Jalan Gopeng 95",
        "Post_Office": "Ipoh",
        "State": "Perak"
    },
    {
        "Postcode": "30250",
        "Location": "Jalan Gopeng 96",
        "Post_Office": "Ipoh",
        "State": "Perak"
    },
    {
        "Postcode": "30250",
        "Location": "Jalan Gopeng 97",
        "Post_Office": "Ipoh",
        "State": "Perak"
    },
    {
        "Postcode": "30250",
        "Location": "Jalan Gopeng 98",
        "Post_Office": "Ipoh",
        "State": "Perak"
    },
    {
        "Postcode": "30250",
        "Location": "Jalan Gopeng 99",
        "Post_Office": "Ipoh",
        "State": "Perak"
    },
    {
        "Postcode": "30250",
        "Location": "Jalan Kennedy 152",
        "Post_Office": "Ipoh",
        "State": "Perak"
    },
    {
        "Postcode": "30250",
        "Location": "Jalan Kennedy 182",
        "Post_Office": "Ipoh",
        "State": "Perak"
    },
    {
        "Postcode": "30250",
        "Location": "Jalan Kennedy 199",
        "Post_Office": "Ipoh",
        "State": "Perak"
    },
    {
        "Postcode": "30250",
        "Location": "Taman Lebuhraya 1",
        "Post_Office": "Ipoh",
        "State": "Perak"
    },
    {
        "Postcode": "30250",
        "Location": "Taman Lebuhraya 2",
        "Post_Office": "Ipoh",
        "State": "Perak"
    },
    {
        "Postcode": "30250",
        "Location": "Hala Batu Bungkal",
        "Post_Office": "Ipoh",
        "State": "Perak"
    },
    {
        "Postcode": "30250",
        "Location": "Hala Cavendish",
        "Post_Office": "Ipoh",
        "State": "Perak"
    },
    {
        "Postcode": "30250",
        "Location": "Hala Gopeng",
        "Post_Office": "Ipoh",
        "State": "Perak"
    },
    {
        "Postcode": "30250",
        "Location": "Hala Lawan Kuda",
        "Post_Office": "Ipoh",
        "State": "Perak"
    },
    {
        "Postcode": "30250",
        "Location": "Hala Pinji Seni",
        "Post_Office": "Ipoh",
        "State": "Perak"
    },
    {
        "Postcode": "30250",
        "Location": "Housing Trust",
        "Post_Office": "Ipoh",
        "State": "Perak"
    },
    {
        "Postcode": "30250",
        "Location": "Jalan Abu Bakar",
        "Post_Office": "Ipoh",
        "State": "Perak"
    },
    {
        "Postcode": "30250",
        "Location": "Jalan Ali Pitchay",
        "Post_Office": "Ipoh",
        "State": "Perak"
    },
    {
        "Postcode": "30250",
        "Location": "Jalan Au Kong",
        "Post_Office": "Ipoh",
        "State": "Perak"
    },
    {
        "Postcode": "30250",
        "Location": "Jalan Batu Bungkal",
        "Post_Office": "Ipoh",
        "State": "Perak"
    },
    {
        "Postcode": "30250",
        "Location": "Jalan Canton",
        "Post_Office": "Ipoh",
        "State": "Perak"
    },
    {
        "Postcode": "30250",
        "Location": "Jalan Carrier",
        "Post_Office": "Ipoh",
        "State": "Perak"
    },
    {
        "Postcode": "30250",
        "Location": "Jalan Chamberlain",
        "Post_Office": "Ipoh",
        "State": "Perak"
    },
    {
        "Postcode": "30250",
        "Location": "Jalan Chamberlain Hulu",
        "Post_Office": "Ipoh",
        "State": "Perak"
    },
    {
        "Postcode": "30250",
        "Location": "Jalan Chateau",
        "Post_Office": "Ipoh",
        "State": "Perak"
    },
    {
        "Postcode": "30250",
        "Location": "Jalan Che Wan",
        "Post_Office": "Ipoh",
        "State": "Perak"
    },
    {
        "Postcode": "30250",
        "Location": "Jalan Chew Boon Juan",
        "Post_Office": "Ipoh",
        "State": "Perak"
    },
    {
        "Postcode": "30250",
        "Location": "Jalan Chin Hin Hwa",
        "Post_Office": "Ipoh",
        "State": "Perak"
    },
    {
        "Postcode": "30250",
        "Location": "Jalan Chong Ah Mooi",
        "Post_Office": "Ipoh",
        "State": "Perak"
    },
    {
        "Postcode": "30250",
        "Location": "Jalan Chua Cheng Bok",
        "Post_Office": "Ipoh",
        "State": "Perak"
    },
    {
        "Postcode": "30250",
        "Location": "Jalan Chung On Siew",
        "Post_Office": "Ipoh",
        "State": "Perak"
    },
    {
        "Postcode": "30250",
        "Location": "Jalan Chung Thye Phin Bawah",
        "Post_Office": "Ipoh",
        "State": "Perak"
    },
    {
        "Postcode": "30250",
        "Location": "Jalan Cm Yusuf",
        "Post_Office": "Ipoh",
        "State": "Perak"
    },
    {
        "Postcode": "30250",
        "Location": "Jalan Cm Yusuf Hulu",
        "Post_Office": "Ipoh",
        "State": "Perak"
    },
    {
        "Postcode": "30250",
        "Location": "Jalan Foo Kan Yit",
        "Post_Office": "Ipoh",
        "State": "Perak"
    },
    {
        "Postcode": "30250",
        "Location": "Jalan Gopal Singh",
        "Post_Office": "Ipoh",
        "State": "Perak"
    },
    {
        "Postcode": "30250",
        "Location": "Jalan Haji Yusuff",
        "Post_Office": "Ipoh",
        "State": "Perak"
    },
    {
        "Postcode": "30250",
        "Location": "Jalan Holnberg",
        "Post_Office": "Ipoh",
        "State": "Perak"
    },
    {
        "Postcode": "30250",
        "Location": "Jalan Hussein",
        "Post_Office": "Ipoh",
        "State": "Perak"
    },
    {
        "Postcode": "30250",
        "Location": "Jalan Khoo Cheng Chow",
        "Post_Office": "Ipoh",
        "State": "Perak"
    },
    {
        "Postcode": "30250",
        "Location": "Jalan Khoo Chong San",
        "Post_Office": "Ipoh",
        "State": "Perak"
    },
    {
        "Postcode": "30250",
        "Location": "Jalan Kimberly",
        "Post_Office": "Ipoh",
        "State": "Perak"
    },
    {
        "Postcode": "30250",
        "Location": "Jalan Leong Kim Seng",
        "Post_Office": "Ipoh",
        "State": "Perak"
    },
    {
        "Postcode": "30250",
        "Location": "Jalan Leow How Kit",
        "Post_Office": "Ipoh",
        "State": "Perak"
    },
    {
        "Postcode": "30250",
        "Location": "Jalan Lim Seng Chew",
        "Post_Office": "Ipoh",
        "State": "Perak"
    },
    {
        "Postcode": "30250",
        "Location": "Jalan Mohd Naseh",
        "Post_Office": "Ipoh",
        "State": "Perak"
    },
    {
        "Postcode": "30250",
        "Location": "Jalan Mui Fah",
        "Post_Office": "Ipoh",
        "State": "Perak"
    },
    {
        "Postcode": "30250",
        "Location": "Jalan Ng Keng Tan",
        "Post_Office": "Ipoh",
        "State": "Perak"
    },
    {
        "Postcode": "30250",
        "Location": "Jalan Permaisuri Bainun",
        "Post_Office": "Ipoh",
        "State": "Perak"
    },
    {
        "Postcode": "30250",
        "Location": "Jalan Pinji Seni",
        "Post_Office": "Ipoh",
        "State": "Perak"
    },
    {
        "Postcode": "30250",
        "Location": "Jalan Raja Nazrin Shah",
        "Post_Office": "Ipoh",
        "State": "Perak"
    },
    {
        "Postcode": "30250",
        "Location": "Jalan Raja Permaisuri Bainun",
        "Post_Office": "Ipoh",
        "State": "Perak"
    },
    {
        "Postcode": "30250",
        "Location": "Jalan Rose",
        "Post_Office": "Ipoh",
        "State": "Perak"
    },
    {
        "Postcode": "30250",
        "Location": "Jalan Sarmukh",
        "Post_Office": "Ipoh",
        "State": "Perak"
    },
    {
        "Postcode": "30250",
        "Location": "Jalan Saw Seong Peck",
        "Post_Office": "Ipoh",
        "State": "Perak"
    },
    {
        "Postcode": "30250",
        "Location": "Jalan Seruan",
        "Post_Office": "Ipoh",
        "State": "Perak"
    },
    {
        "Postcode": "30250",
        "Location": "Jalan St Helen",
        "Post_Office": "Ipoh",
        "State": "Perak"
    },
    {
        "Postcode": "30250",
        "Location": "Jalan Taman Lebuhraya",
        "Post_Office": "Ipoh",
        "State": "Perak"
    },
    {
        "Postcode": "30250",
        "Location": "Jalan Tiga, Jalan Dua, Jalan Satu",
        "Post_Office": "Ipoh",
        "State": "Perak"
    },
    {
        "Postcode": "30250",
        "Location": "Jalan Voon Thean So",
        "Post_Office": "Ipoh",
        "State": "Perak"
    },
    {
        "Postcode": "30250",
        "Location": "Jalan Weng Lok Mansion Flat",
        "Post_Office": "Ipoh",
        "State": "Perak"
    },
    {
        "Postcode": "30250",
        "Location": "Jalan Windsor",
        "Post_Office": "Ipoh",
        "State": "Perak"
    },
    {
        "Postcode": "30250",
        "Location": "Jalan Yang Kalsom",
        "Post_Office": "Ipoh",
        "State": "Perak"
    },
    {
        "Postcode": "30250",
        "Location": "Lebuh Batu Bungkal",
        "Post_Office": "Ipoh",
        "State": "Perak"
    },
    {
        "Postcode": "30250",
        "Location": "Lebuh Chateau",
        "Post_Office": "Ipoh",
        "State": "Perak"
    },
    {
        "Postcode": "30250",
        "Location": "Lebuhraya Batu Bungkul",
        "Post_Office": "Ipoh",
        "State": "Perak"
    },
    {
        "Postcode": "30250",
        "Location": "Lebuhraya Canton",
        "Post_Office": "Ipoh",
        "State": "Perak"
    },
    {
        "Postcode": "30250",
        "Location": "Lebuhraya Cavendish",
        "Post_Office": "Ipoh",
        "State": "Perak"
    },
    {
        "Postcode": "30250",
        "Location": "Lebuhraya Chateau",
        "Post_Office": "Ipoh",
        "State": "Perak"
    },
    {
        "Postcode": "30250",
        "Location": "Lebuhraya Kampar",
        "Post_Office": "Ipoh",
        "State": "Perak"
    },
    {
        "Postcode": "30250",
        "Location": "Lebuhraya Mansion Park",
        "Post_Office": "Ipoh",
        "State": "Perak"
    },
    {
        "Postcode": "30250",
        "Location": "Lengkok Batu Bungkal",
        "Post_Office": "Ipoh",
        "State": "Perak"
    },
    {
        "Postcode": "30250",
        "Location": "Lengkok Cavendish",
        "Post_Office": "Ipoh",
        "State": "Perak"
    },
    {
        "Postcode": "30250",
        "Location": "Lengkok Chateau",
        "Post_Office": "Ipoh",
        "State": "Perak"
    },
    {
        "Postcode": "30250",
        "Location": "Lengkok Kampar",
        "Post_Office": "Ipoh",
        "State": "Perak"
    },
    {
        "Postcode": "30250",
        "Location": "Lengkok Mansion",
        "Post_Office": "Ipoh",
        "State": "Perak"
    },
    {
        "Postcode": "30250",
        "Location": "Lorong Cavendish",
        "Post_Office": "Ipoh",
        "State": "Perak"
    },
    {
        "Postcode": "30250",
        "Location": "Lorong Chateau",
        "Post_Office": "Ipoh",
        "State": "Perak"
    },
    {
        "Postcode": "30250",
        "Location": "Lorong Chung Thye Ping",
        "Post_Office": "Ipoh",
        "State": "Perak"
    },
    {
        "Postcode": "30250",
        "Location": "Lorong Hong Kong",
        "Post_Office": "Ipoh",
        "State": "Perak"
    },
    {
        "Postcode": "30250",
        "Location": "Lorong Taman Kinta",
        "Post_Office": "Ipoh",
        "State": "Perak"
    },
    {
        "Postcode": "30250",
        "Location": "Medan Chateau",
        "Post_Office": "Ipoh",
        "State": "Perak"
    },
    {
        "Postcode": "30250",
        "Location": "Persiaran Batu Bungkal",
        "Post_Office": "Ipoh",
        "State": "Perak"
    },
    {
        "Postcode": "30250",
        "Location": "Persiaran Canton",
        "Post_Office": "Ipoh",
        "State": "Perak"
    },
    {
        "Postcode": "30250",
        "Location": "Persiaran Cavendish",
        "Post_Office": "Ipoh",
        "State": "Perak"
    },
    {
        "Postcode": "30250",
        "Location": "Persiaran Chateau",
        "Post_Office": "Ipoh",
        "State": "Perak"
    },
    {
        "Postcode": "30250",
        "Location": "Persiaran Hong Kong",
        "Post_Office": "Ipoh",
        "State": "Perak"
    },
    {
        "Postcode": "30250",
        "Location": "Persiaran Kampar",
        "Post_Office": "Ipoh",
        "State": "Perak"
    },
    {
        "Postcode": "30250",
        "Location": "Persiaran Kowloon",
        "Post_Office": "Ipoh",
        "State": "Perak"
    },
    {
        "Postcode": "30250",
        "Location": "Persiaran Mansion",
        "Post_Office": "Ipoh",
        "State": "Perak"
    },
    {
        "Postcode": "30250",
        "Location": "Persiaran Shanghai",
        "Post_Office": "Ipoh",
        "State": "Perak"
    },
    {
        "Postcode": "30250",
        "Location": "Persiaran Taman Kinta",
        "Post_Office": "Ipoh",
        "State": "Perak"
    },
    {
        "Postcode": "30250",
        "Location": "Pesara Mansion",
        "Post_Office": "Ipoh",
        "State": "Perak"
    },
    {
        "Postcode": "30250",
        "Location": "Regat Canton",
        "Post_Office": "Ipoh",
        "State": "Perak"
    },
    {
        "Postcode": "30250",
        "Location": "Regat Chateau",
        "Post_Office": "Ipoh",
        "State": "Perak"
    },
    {
        "Postcode": "30250",
        "Location": "Regat Mansion",
        "Post_Office": "Ipoh",
        "State": "Perak"
    },
    {
        "Postcode": "30250",
        "Location": "Regat Tun Perak",
        "Post_Office": "Ipoh",
        "State": "Perak"
    },
    {
        "Postcode": "30250",
        "Location": "Selasar Chateau",
        "Post_Office": "Ipoh",
        "State": "Perak"
    },
    {
        "Postcode": "30250",
        "Location": "Solok Gopeng",
        "Post_Office": "Ipoh",
        "State": "Perak"
    },
    {
        "Postcode": "30250",
        "Location": "Solok Kampar",
        "Post_Office": "Ipoh",
        "State": "Perak"
    },
    {
        "Postcode": "30250",
        "Location": "St. Hellen",
        "Post_Office": "Ipoh",
        "State": "Perak"
    },
    {
        "Postcode": "30250",
        "Location": "Taman Chateau",
        "Post_Office": "Ipoh",
        "State": "Perak"
    },
    {
        "Postcode": "30250",
        "Location": "Taman Cindee",
        "Post_Office": "Ipoh",
        "State": "Perak"
    },
    {
        "Postcode": "30250",
        "Location": "Taman Mansion",
        "Post_Office": "Ipoh",
        "State": "Perak"
    },
    {
        "Postcode": "30250",
        "Location": "Taman Nasional",
        "Post_Office": "Ipoh",
        "State": "Perak"
    },
    {
        "Postcode": "30250",
        "Location": "Taman St Helen",
        "Post_Office": "Ipoh",
        "State": "Perak"
    },
    {
        "Postcode": "30250",
        "Location": "Taman Victoria",
        "Post_Office": "Ipoh",
        "State": "Perak"
    },
    {
        "Postcode": "30250",
        "Location": "Taman Kampar",
        "Post_Office": "Ipoh",
        "State": "Perak"
    },
    {
        "Postcode": "30250",
        "Location": "Taman Gopeng",
        "Post_Office": "Ipoh",
        "State": "Perak"
    },
    {
        "Postcode": "30250",
        "Location": "Taman Kinta",
        "Post_Office": "Ipoh",
        "State": "Perak"
    }
]
