[
    {
        "Postcode": "30300",
        "Location": "Jalan Raja Ikram 1",
        "Post_Office": "Ipoh",
        "State": "Perak"
    },
    {
        "Postcode": "30300",
        "Location": "Jalan Raja Ikram 10",
        "Post_Office": "Ipoh",
        "State": "Perak"
    },
    {
        "Postcode": "30300",
        "Location": "Jalan Raja Ikram 100",
        "Post_Office": "Ipoh",
        "State": "Perak"
    },
    {
        "Postcode": "30300",
        "Location": "Jalan Raja Ikram 101",
        "Post_Office": "Ipoh",
        "State": "Perak"
    },
    {
        "Postcode": "30300",
        "Location": "Jalan Raja Ikram 102",
        "Post_Office": "Ipoh",
        "State": "Perak"
    },
    {
        "Postcode": "30300",
        "Location": "Jalan Raja Ikram 103",
        "Post_Office": "Ipoh",
        "State": "Perak"
    },
    {
        "Postcode": "30300",
        "Location": "Jalan Raja Ikram 104",
        "Post_Office": "Ipoh",
        "State": "Perak"
    },
    {
        "Postcode": "30300",
        "Location": "Jalan Raja Ikram 105",
        "Post_Office": "Ipoh",
        "State": "Perak"
    },
    {
        "Postcode": "30300",
        "Location": "Jalan Raja Ikram 106",
        "Post_Office": "Ipoh",
        "State": "Perak"
    },
    {
        "Postcode": "30300",
        "Location": "Jalan Raja Ikram 107",
        "Post_Office": "Ipoh",
        "State": "Perak"
    },
    {
        "Postcode": "30300",
        "Location": "Jalan Raja Ikram 108",
        "Post_Office": "Ipoh",
        "State": "Perak"
    },
    {
        "Postcode": "30300",
        "Location": "Jalan Raja Ikram 109",
        "Post_Office": "Ipoh",
        "State": "Perak"
    },
    {
        "Postcode": "30300",
        "Location": "Jalan Raja Ikram 11",
        "Post_Office": "Ipoh",
        "State": "Perak"
    },
    {
        "Postcode": "30300",
        "Location": "Jalan Raja Ikram 110",
        "Post_Office": "Ipoh",
        "State": "Perak"
    },
    {
        "Postcode": "30300",
        "Location": "Jalan Raja Ikram 111",
        "Post_Office": "Ipoh",
        "State": "Perak"
    },
    {
        "Postcode": "30300",
        "Location": "Jalan Raja Ikram 112",
        "Post_Office": "Ipoh",
        "State": "Perak"
    },
    {
        "Postcode": "30300",
        "Location": "Jalan Raja Ikram 113",
        "Post_Office": "Ipoh",
        "State": "Perak"
    },
    {
        "Postcode": "30300",
        "Location": "Jalan Raja Ikram 114",
        "Post_Office": "Ipoh",
        "State": "Perak"
    },
    {
        "Postcode": "30300",
        "Location": "Jalan Raja Ikram 115",
        "Post_Office": "Ipoh",
        "State": "Perak"
    },
    {
        "Postcode": "30300",
        "Location": "Jalan Raja Ikram 116",
        "Post_Office": "Ipoh",
        "State": "Perak"
    },
    {
        "Postcode": "30300",
        "Location": "Jalan Raja Ikram 117",
        "Post_Office": "Ipoh",
        "State": "Perak"
    },
    {
        "Postcode": "30300",
        "Location": "Jalan Raja Ikram 118",
        "Post_Office": "Ipoh",
        "State": "Perak"
    },
    {
        "Postcode": "30300",
        "Location": "Jalan Raja Ikram 119",
        "Post_Office": "Ipoh",
        "State": "Perak"
    },
    {
        "Postcode": "30300",
        "Location": "Jalan Raja Ikram 12",
        "Post_Office": "Ipoh",
        "State": "Perak"
    },
    {
        "Postcode": "30300",
        "Location": "Jalan Raja Ikram 120",
        "Post_Office": "Ipoh",
        "State": "Perak"
    },
    {
        "Postcode": "30300",
        "Location": "Jalan Raja Ikram 121",
        "Post_Office": "Ipoh",
        "State": "Perak"
    },
    {
        "Postcode": "30300",
        "Location": "Jalan Raja Ikram 122",
        "Post_Office": "Ipoh",
        "State": "Perak"
    },
    {
        "Postcode": "30300",
        "Location": "Jalan Raja Ikram 123",
        "Post_Office": "Ipoh",
        "State": "Perak"
    },
    {
        "Postcode": "30300",
        "Location": "Jalan Raja Ikram 124",
        "Post_Office": "Ipoh",
        "State": "Perak"
    },
    {
        "Postcode": "30300",
        "Location": "Jalan Raja Ikram 125",
        "Post_Office": "Ipoh",
        "State": "Perak"
    },
    {
        "Postcode": "30300",
        "Location": "Jalan Raja Ikram 126",
        "Post_Office": "Ipoh",
        "State": "Perak"
    },
    {
        "Postcode": "30300",
        "Location": "Jalan Raja Ikram 127",
        "Post_Office": "Ipoh",
        "State": "Perak"
    },
    {
        "Postcode": "30300",
        "Location": "Jalan Raja Ikram 128",
        "Post_Office": "Ipoh",
        "State": "Perak"
    },
    {
        "Postcode": "30300",
        "Location": "Jalan Raja Ikram 129",
        "Post_Office": "Ipoh",
        "State": "Perak"
    },
    {
        "Postcode": "30300",
        "Location": "Jalan Raja Ikram 13",
        "Post_Office": "Ipoh",
        "State": "Perak"
    },
    {
        "Postcode": "30300",
        "Location": "Jalan Raja Ikram 130",
        "Post_Office": "Ipoh",
        "State": "Perak"
    },
    {
        "Postcode": "30300",
        "Location": "Jalan Raja Ikram 131",
        "Post_Office": "Ipoh",
        "State": "Perak"
    },
    {
        "Postcode": "30300",
        "Location": "Jalan Raja Ikram 132",
        "Post_Office": "Ipoh",
        "State": "Perak"
    },
    {
        "Postcode": "30300",
        "Location": "Jalan Raja Ikram 133",
        "Post_Office": "Ipoh",
        "State": "Perak"
    },
    {
        "Postcode": "30300",
        "Location": "Jalan Raja Ikram 134",
        "Post_Office": "Ipoh",
        "State": "Perak"
    },
    {
        "Postcode": "30300",
        "Location": "Jalan Raja Ikram 135",
        "Post_Office": "Ipoh",
        "State": "Perak"
    },
    {
        "Postcode": "30300",
        "Location": "Jalan Raja Ikram 14",
        "Post_Office": "Ipoh",
        "State": "Perak"
    },
    {
        "Postcode": "30300",
        "Location": "Jalan Raja Ikram 15",
        "Post_Office": "Ipoh",
        "State": "Perak"
    },
    {
        "Postcode": "30300",
        "Location": "Jalan Raja Ikram 16",
        "Post_Office": "Ipoh",
        "State": "Perak"
    },
    {
        "Postcode": "30300",
        "Location": "Jalan Raja Ikram 17",
        "Post_Office": "Ipoh",
        "State": "Perak"
    },
    {
        "Postcode": "30300",
        "Location": "Jalan Raja Ikram 18",
        "Post_Office": "Ipoh",
        "State": "Perak"
    },
    {
        "Postcode": "30300",
        "Location": "Jalan Raja Ikram 19",
        "Post_Office": "Ipoh",
        "State": "Perak"
    },
    {
        "Postcode": "30300",
        "Location": "Jalan Raja Ikram 2",
        "Post_Office": "Ipoh",
        "State": "Perak"
    },
    {
        "Postcode": "30300",
        "Location": "Jalan Raja Ikram 20",
        "Post_Office": "Ipoh",
        "State": "Perak"
    },
    {
        "Postcode": "30300",
        "Location": "Jalan Raja Ikram 21",
        "Post_Office": "Ipoh",
        "State": "Perak"
    },
    {
        "Postcode": "30300",
        "Location": "Jalan Raja Ikram 22",
        "Post_Office": "Ipoh",
        "State": "Perak"
    },
    {
        "Postcode": "30300",
        "Location": "Jalan Raja Ikram 23",
        "Post_Office": "Ipoh",
        "State": "Perak"
    },
    {
        "Postcode": "30300",
        "Location": "Jalan Raja Ikram 24",
        "Post_Office": "Ipoh",
        "State": "Perak"
    },
    {
        "Postcode": "30300",
        "Location": "Jalan Raja Ikram 25",
        "Post_Office": "Ipoh",
        "State": "Perak"
    },
    {
        "Postcode": "30300",
        "Location": "Jalan Raja Ikram 26",
        "Post_Office": "Ipoh",
        "State": "Perak"
    },
    {
        "Postcode": "30300",
        "Location": "Jalan Raja Ikram 27",
        "Post_Office": "Ipoh",
        "State": "Perak"
    },
    {
        "Postcode": "30300",
        "Location": "Jalan Raja Ikram 28",
        "Post_Office": "Ipoh",
        "State": "Perak"
    },
    {
        "Postcode": "30300",
        "Location": "Jalan Raja Ikram 3",
        "Post_Office": "Ipoh",
        "State": "Perak"
    },
    {
        "Postcode": "30300",
        "Location": "Jalan Raja Ikram 30",
        "Post_Office": "Ipoh",
        "State": "Perak"
    },
    {
        "Postcode": "30300",
        "Location": "Jalan Raja Ikram 31",
        "Post_Office": "Ipoh",
        "State": "Perak"
    },
    {
        "Postcode": "30300",
        "Location": "Jalan Raja Ikram 32",
        "Post_Office": "Ipoh",
        "State": "Perak"
    },
    {
        "Postcode": "30300",
        "Location": "Jalan Raja Ikram 33",
        "Post_Office": "Ipoh",
        "State": "Perak"
    },
    {
        "Postcode": "30300",
        "Location": "Jalan Raja Ikram 34",
        "Post_Office": "Ipoh",
        "State": "Perak"
    },
    {
        "Postcode": "30300",
        "Location": "Jalan Raja Ikram 35",
        "Post_Office": "Ipoh",
        "State": "Perak"
    },
    {
        "Postcode": "30300",
        "Location": "Jalan Raja Ikram 36",
        "Post_Office": "Ipoh",
        "State": "Perak"
    },
    {
        "Postcode": "30300",
        "Location": "Jalan Raja Ikram 37",
        "Post_Office": "Ipoh",
        "State": "Perak"
    },
    {
        "Postcode": "30300",
        "Location": "Jalan Raja Ikram 38",
        "Post_Office": "Ipoh",
        "State": "Perak"
    },
    {
        "Postcode": "30300",
        "Location": "Jalan Raja Ikram 39",
        "Post_Office": "Ipoh",
        "State": "Perak"
    },
    {
        "Postcode": "30300",
        "Location": "Jalan Raja Ikram 4",
        "Post_Office": "Ipoh",
        "State": "Perak"
    },
    {
        "Postcode": "30300",
        "Location": "Jalan Raja Ikram 40",
        "Post_Office": "Ipoh",
        "State": "Perak"
    },
    {
        "Postcode": "30300",
        "Location": "Jalan Raja Ikram 41",
        "Post_Office": "Ipoh",
        "State": "Perak"
    },
    {
        "Postcode": "30300",
        "Location": "Jalan Raja Ikram 42",
        "Post_Office": "Ipoh",
        "State": "Perak"
    },
    {
        "Postcode": "30300",
        "Location": "Jalan Raja Ikram 43",
        "Post_Office": "Ipoh",
        "State": "Perak"
    },
    {
        "Postcode": "30300",
        "Location": "Jalan Raja Ikram 44",
        "Post_Office": "Ipoh",
        "State": "Perak"
    },
    {
        "Postcode": "30300",
        "Location": "Jalan Raja Ikram 45",
        "Post_Office": "Ipoh",
        "State": "Perak"
    },
    {
        "Postcode": "30300",
        "Location": "Jalan Raja Ikram 46",
        "Post_Office": "Ipoh",
        "State": "Perak"
    },
    {
        "Postcode": "30300",
        "Location": "Jalan Raja Ikram 47",
        "Post_Office": "Ipoh",
        "State": "Perak"
    },
    {
        "Postcode": "30300",
        "Location": "Jalan Raja Ikram 48",
        "Post_Office": "Ipoh",
        "State": "Perak"
    },
    {
        "Postcode": "30300",
        "Location": "Jalan Raja Ikram 49",
        "Post_Office": "Ipoh",
        "State": "Perak"
    },
    {
        "Postcode": "30300",
        "Location": "Jalan Raja Ikram 5",
        "Post_Office": "Ipoh",
        "State": "Perak"
    },
    {
        "Postcode": "30300",
        "Location": "Jalan Raja Ikram 50",
        "Post_Office": "Ipoh",
        "State": "Perak"
    },
    {
        "Postcode": "30300",
        "Location": "Jalan Raja Ikram 51",
        "Post_Office": "Ipoh",
        "State": "Perak"
    },
    {
        "Postcode": "30300",
        "Location": "Jalan Raja Ikram 52",
        "Post_Office": "Ipoh",
        "State": "Perak"
    },
    {
        "Postcode": "30300",
        "Location": "Jalan Raja Ikram 53",
        "Post_Office": "Ipoh",
        "State": "Perak"
    },
    {
        "Postcode": "30300",
        "Location": "Jalan Raja Ikram 54",
        "Post_Office": "Ipoh",
        "State": "Perak"
    },
    {
        "Postcode": "30300",
        "Location": "Jalan Raja Ikram 55",
        "Post_Office": "Ipoh",
        "State": "Perak"
    },
    {
        "Postcode": "30300",
        "Location": "Jalan Raja Ikram 56",
        "Post_Office": "Ipoh",
        "State": "Perak"
    },
    {
        "Postcode": "30300",
        "Location": "Jalan Raja Ikram 57",
        "Post_Office": "Ipoh",
        "State": "Perak"
    },
    {
        "Postcode": "30300",
        "Location": "Jalan Raja Ikram 58",
        "Post_Office": "Ipoh",
        "State": "Perak"
    },
    {
        "Postcode": "30300",
        "Location": "Jalan Raja Ikram 59",
        "Post_Office": "Ipoh",
        "State": "Perak"
    },
    {
        "Postcode": "30300",
        "Location": "Jalan Raja Ikram 6",
        "Post_Office": "Ipoh",
        "State": "Perak"
    },
    {
        "Postcode": "30300",
        "Location": "Jalan Raja Ikram 60",
        "Post_Office": "Ipoh",
        "State": "Perak"
    },
    {
        "Postcode": "30300",
        "Location": "Jalan Raja Ikram 61",
        "Post_Office": "Ipoh",
        "State": "Perak"
    },
    {
        "Postcode": "30300",
        "Location": "Jalan Raja Ikram 62",
        "Post_Office": "Ipoh",
        "State": "Perak"
    },
    {
        "Postcode": "30300",
        "Location": "Jalan Raja Ikram 63",
        "Post_Office": "Ipoh",
        "State": "Perak"
    },
    {
        "Postcode": "30300",
        "Location": "Jalan Raja Ikram 64",
        "Post_Office": "Ipoh",
        "State": "Perak"
    },
    {
        "Postcode": "30300",
        "Location": "Jalan Raja Ikram 65",
        "Post_Office": "Ipoh",
        "State": "Perak"
    },
    {
        "Postcode": "30300",
        "Location": "Jalan Raja Ikram 66",
        "Post_Office": "Ipoh",
        "State": "Perak"
    },
    {
        "Postcode": "30300",
        "Location": "Jalan Raja Ikram 67",
        "Post_Office": "Ipoh",
        "State": "Perak"
    },
    {
        "Postcode": "30300",
        "Location": "Jalan Raja Ikram 68",
        "Post_Office": "Ipoh",
        "State": "Perak"
    },
    {
        "Postcode": "30300",
        "Location": "Jalan Raja Ikram 69",
        "Post_Office": "Ipoh",
        "State": "Perak"
    },
    {
        "Postcode": "30300",
        "Location": "Jalan Raja Ikram 7",
        "Post_Office": "Ipoh",
        "State": "Perak"
    },
    {
        "Postcode": "30300",
        "Location": "Jalan Raja Ikram 70",
        "Post_Office": "Ipoh",
        "State": "Perak"
    },
    {
        "Postcode": "30300",
        "Location": "Jalan Raja Ikram 71",
        "Post_Office": "Ipoh",
        "State": "Perak"
    },
    {
        "Postcode": "30300",
        "Location": "Jalan Raja Ikram 72",
        "Post_Office": "Ipoh",
        "State": "Perak"
    },
    {
        "Postcode": "30300",
        "Location": "Jalan Raja Ikram 73",
        "Post_Office": "Ipoh",
        "State": "Perak"
    },
    {
        "Postcode": "30300",
        "Location": "Jalan Raja Ikram 74",
        "Post_Office": "Ipoh",
        "State": "Perak"
    },
    {
        "Postcode": "30300",
        "Location": "Jalan Raja Ikram 75",
        "Post_Office": "Ipoh",
        "State": "Perak"
    },
    {
        "Postcode": "30300",
        "Location": "Jalan Raja Ikram 76",
        "Post_Office": "Ipoh",
        "State": "Perak"
    },
    {
        "Postcode": "30300",
        "Location": "Jalan Raja Ikram 77",
        "Post_Office": "Ipoh",
        "State": "Perak"
    },
    {
        "Postcode": "30300",
        "Location": "Jalan Raja Ikram 78",
        "Post_Office": "Ipoh",
        "State": "Perak"
    },
    {
        "Postcode": "30300",
        "Location": "Jalan Raja Ikram 79",
        "Post_Office": "Ipoh",
        "State": "Perak"
    },
    {
        "Postcode": "30300",
        "Location": "Jalan Raja Ikram 8",
        "Post_Office": "Ipoh",
        "State": "Perak"
    },
    {
        "Postcode": "30300",
        "Location": "Jalan Raja Ikram 80",
        "Post_Office": "Ipoh",
        "State": "Perak"
    },
    {
        "Postcode": "30300",
        "Location": "Jalan Raja Ikram 81",
        "Post_Office": "Ipoh",
        "State": "Perak"
    },
    {
        "Postcode": "30300",
        "Location": "Jalan Raja Ikram 82",
        "Post_Office": "Ipoh",
        "State": "Perak"
    },
    {
        "Postcode": "30300",
        "Location": "Jalan Raja Ikram 83",
        "Post_Office": "Ipoh",
        "State": "Perak"
    },
    {
        "Postcode": "30300",
        "Location": "Jalan Raja Ikram 84",
        "Post_Office": "Ipoh",
        "State": "Perak"
    },
    {
        "Postcode": "30300",
        "Location": "Jalan Raja Ikram 85",
        "Post_Office": "Ipoh",
        "State": "Perak"
    },
    {
        "Postcode": "30300",
        "Location": "Jalan Raja Ikram 86",
        "Post_Office": "Ipoh",
        "State": "Perak"
    },
    {
        "Postcode": "30300",
        "Location": "Jalan Raja Ikram 87",
        "Post_Office": "Ipoh",
        "State": "Perak"
    },
    {
        "Postcode": "30300",
        "Location": "Jalan Raja Ikram 88",
        "Post_Office": "Ipoh",
        "State": "Perak"
    },
    {
        "Postcode": "30300",
        "Location": "Jalan Raja Ikram 89",
        "Post_Office": "Ipoh",
        "State": "Perak"
    },
    {
        "Postcode": "30300",
        "Location": "Jalan Raja Ikram 9",
        "Post_Office": "Ipoh",
        "State": "Perak"
    },
    {
        "Postcode": "30300",
        "Location": "Jalan Raja Ikram 90",
        "Post_Office": "Ipoh",
        "State": "Perak"
    },
    {
        "Postcode": "30300",
        "Location": "Jalan Raja Ikram 91",
        "Post_Office": "Ipoh",
        "State": "Perak"
    },
    {
        "Postcode": "30300",
        "Location": "Jalan Raja Ikram 92",
        "Post_Office": "Ipoh",
        "State": "Perak"
    },
    {
        "Postcode": "30300",
        "Location": "Jalan Raja Ikram 93",
        "Post_Office": "Ipoh",
        "State": "Perak"
    },
    {
        "Postcode": "30300",
        "Location": "Jalan Raja Ikram 94",
        "Post_Office": "Ipoh",
        "State": "Perak"
    },
    {
        "Postcode": "30300",
        "Location": "Jalan Raja Ikram 95",
        "Post_Office": "Ipoh",
        "State": "Perak"
    },
    {
        "Postcode": "30300",
        "Location": "Jalan Raja Ikram 96",
        "Post_Office": "Ipoh",
        "State": "Perak"
    },
    {
        "Postcode": "30300",
        "Location": "Jalan Raja Ikram 97",
        "Post_Office": "Ipoh",
        "State": "Perak"
    },
    {
        "Postcode": "30300",
        "Location": "Jalan Raja Ikram 98",
        "Post_Office": "Ipoh",
        "State": "Perak"
    },
    {
        "Postcode": "30300",
        "Location": "Jalan Raja Ikram 99",
        "Post_Office": "Ipoh",
        "State": "Perak"
    },
    {
        "Postcode": "30300",
        "Location": "Anderson Drive",
        "Post_Office": "Ipoh",
        "State": "Perak"
    },
    {
        "Postcode": "30300",
        "Location": "Hala Pasar",
        "Post_Office": "Ipoh",
        "State": "Perak"
    },
    {
        "Postcode": "30300",
        "Location": "Hala Pasar Baru",
        "Post_Office": "Ipoh",
        "State": "Perak"
    },
    {
        "Postcode": "30300",
        "Location": "Horley Street",
        "Post_Office": "Ipoh",
        "State": "Perak"
    },
    {
        "Postcode": "30300",
        "Location": "Jalan Aylesbury",
        "Post_Office": "Ipoh",
        "State": "Perak"
    },
    {
        "Postcode": "30300",
        "Location": "Jalan Chapman",
        "Post_Office": "Ipoh",
        "State": "Perak"
    },
    {
        "Postcode": "30300",
        "Location": "Jalan Che Tak",
        "Post_Office": "Ipoh",
        "State": "Perak"
    },
    {
        "Postcode": "30300",
        "Location": "Jalan Church",
        "Post_Office": "Ipoh",
        "State": "Perak"
    },
    {
        "Postcode": "30300",
        "Location": "Jalan Clare",
        "Post_Office": "Ipoh",
        "State": "Perak"
    },
    {
        "Postcode": "30300",
        "Location": "Jalan Clark",
        "Post_Office": "Ipoh",
        "State": "Perak"
    },
    {
        "Postcode": "30300",
        "Location": "Jalan Dass",
        "Post_Office": "Ipoh",
        "State": "Perak"
    },
    {
        "Postcode": "30300",
        "Location": "Jalan Dato Onn Jaafar",
        "Post_Office": "Ipoh",
        "State": "Perak"
    },
    {
        "Postcode": "30300",
        "Location": "Jalan Dato Tahwil Azar",
        "Post_Office": "Ipoh",
        "State": "Perak"
    },
    {
        "Postcode": "30300",
        "Location": "Jalan Dato Tahwil Azhar",
        "Post_Office": "Ipoh",
        "State": "Perak"
    },
    {
        "Postcode": "30300",
        "Location": "Jalan Dato Yeoh",
        "Post_Office": "Ipoh",
        "State": "Perak"
    },
    {
        "Postcode": "30300",
        "Location": "Jalan Foo Choo Choon",
        "Post_Office": "Ipoh",
        "State": "Perak"
    },
    {
        "Postcode": "30300",
        "Location": "Jalan Foo Yet Kai",
        "Post_Office": "Ipoh",
        "State": "Perak"
    },
    {
        "Postcode": "30300",
        "Location": "Jalan Hala Pasar Baru",
        "Post_Office": "Ipoh",
        "State": "Perak"
    },
    {
        "Postcode": "30300",
        "Location": "Jalan Horley",
        "Post_Office": "Ipoh",
        "State": "Perak"
    },
    {
        "Postcode": "30300",
        "Location": "Jalan Jubli",
        "Post_Office": "Ipoh",
        "State": "Perak"
    },
    {
        "Postcode": "30300",
        "Location": "Jalan Lau Ek Ching",
        "Post_Office": "Ipoh",
        "State": "Perak"
    },
    {
        "Postcode": "30300",
        "Location": "Jalan Laxamana",
        "Post_Office": "Ipoh",
        "State": "Perak"
    },
    {
        "Postcode": "30300",
        "Location": "Jalan Leong Sin Nam",
        "Post_Office": "Ipoh",
        "State": "Perak"
    },
    {
        "Postcode": "30300",
        "Location": "Jalan Lim Bo Seng",
        "Post_Office": "Ipoh",
        "State": "Perak"
    },
    {
        "Postcode": "30300",
        "Location": "Jalan Musa Aziz",
        "Post_Office": "Ipoh",
        "State": "Perak"
    },
    {
        "Postcode": "30300",
        "Location": "Jalan Mustafa Al Bakri",
        "Post_Office": "Ipoh",
        "State": "Perak"
    },
    {
        "Postcode": "30300",
        "Location": "Jalan Onn Jaafar",
        "Post_Office": "Ipoh",
        "State": "Perak"
    },
    {
        "Postcode": "30300",
        "Location": "Jalan Raja Musa Aziz",
        "Post_Office": "Ipoh",
        "State": "Perak"
    },
    {
        "Postcode": "30300",
        "Location": "Jalan Russel",
        "Post_Office": "Ipoh",
        "State": "Perak"
    },
    {
        "Postcode": "30300",
        "Location": "Jalan Thawil Azhar",
        "Post_Office": "Ipoh",
        "State": "Perak"
    },
    {
        "Postcode": "30300",
        "Location": "Jalan Theatre",
        "Post_Office": "Ipoh",
        "State": "Perak"
    },
    {
        "Postcode": "30300",
        "Location": "Jalan Toh Puan Chah",
        "Post_Office": "Ipoh",
        "State": "Perak"
    },
    {
        "Postcode": "30300",
        "Location": "Jalan Verasamy",
        "Post_Office": "Ipoh",
        "State": "Perak"
    },
    {
        "Postcode": "30300",
        "Location": "Jalan Yau Tet Sin",
        "Post_Office": "Ipoh",
        "State": "Perak"
    },
    {
        "Postcode": "30300",
        "Location": "Kampung Java",
        "Post_Office": "Ipoh",
        "State": "Perak"
    },
    {
        "Postcode": "30300",
        "Location": "Lintas Pasar Baru",
        "Post_Office": "Ipoh",
        "State": "Perak"
    },
    {
        "Postcode": "30300",
        "Location": "Lintasan Baru",
        "Post_Office": "Ipoh",
        "State": "Perak"
    },
    {
        "Postcode": "30300",
        "Location": "Lintasan Pasar Baru",
        "Post_Office": "Ipoh",
        "State": "Perak"
    },
    {
        "Postcode": "30300",
        "Location": "Lorong Dulcieville",
        "Post_Office": "Ipoh",
        "State": "Perak"
    },
    {
        "Postcode": "30300",
        "Location": "Lorong Laxmana",
        "Post_Office": "Ipoh",
        "State": "Perak"
    },
    {
        "Postcode": "30300",
        "Location": "Lorong Menteri",
        "Post_Office": "Ipoh",
        "State": "Perak"
    },
    {
        "Postcode": "30300",
        "Location": "Persiaran Anderson",
        "Post_Office": "Ipoh",
        "State": "Perak"
    },
    {
        "Postcode": "30300",
        "Location": "Taman Dr Seenivagam",
        "Post_Office": "Ipoh",
        "State": "Perak"
    },
    {
        "Postcode": "30300",
        "Location": "Taman Jubilee",
        "Post_Office": "Ipoh",
        "State": "Perak"
    },
    {
        "Postcode": "30300",
        "Location": "Tingkat Pasar",
        "Post_Office": "Ipoh",
        "State": "Perak"
    },
    {
        "Postcode": "30300",
        "Location": "Waller Court",
        "Post_Office": "Ipoh",
        "State": "Perak"
    },
    {
        "Postcode": "30300",
        "Location": "Jalan Sultan Iskandar",
        "Post_Office": "Ipoh",
        "State": "Perak"
    },
    {
        "Postcode": "30300",
        "Location": "Jalan Masjid",
        "Post_Office": "Ipoh",
        "State": "Perak"
    }
]
