[
    {
        "Postcode": "30350",
        "Location": "Taman Badaraya Impiana",
        "Post_Office": "Ipoh",
        "State": "Perak"
    },
    {
        "Postcode": "30350",
        "Location": "Brash Drive",
        "Post_Office": "Ipoh",
        "State": "Perak"
    },
    {
        "Postcode": "30350",
        "Location": "Flora Tropika",
        "Post_Office": "Ipoh",
        "State": "Perak"
    },
    {
        "Postcode": "30350",
        "Location": "Hala Raja Di Hilir",
        "Post_Office": "Ipoh",
        "State": "Perak"
    },
    {
        "Postcode": "30350",
        "Location": "Hala Tambun",
        "Post_Office": "Ipoh",
        "State": "Perak"
    },
    {
        "Postcode": "30350",
        "Location": "Jalan Aziz Ismail",
        "Post_Office": "Ipoh",
        "State": "Perak"
    },
    {
        "Postcode": "30350",
        "Location": "Jalan Brash",
        "Post_Office": "Ipoh",
        "State": "Perak"
    },
    {
        "Postcode": "30350",
        "Location": "Jalan Caldwell",
        "Post_Office": "Ipoh",
        "State": "Perak"
    },
    {
        "Postcode": "30350",
        "Location": "Jalan Ceylon",
        "Post_Office": "Ipoh",
        "State": "Perak"
    },
    {
        "Postcode": "30350",
        "Location": "Jalan Foo Chong Nyit",
        "Post_Office": "Ipoh",
        "State": "Perak"
    },
    {
        "Postcode": "30350",
        "Location": "Jalan Francois",
        "Post_Office": "Ipoh",
        "State": "Perak"
    },
    {
        "Postcode": "30350",
        "Location": "Jalan Garland",
        "Post_Office": "Ipoh",
        "State": "Perak"
    },
    {
        "Postcode": "30350",
        "Location": "Jalan Golf Club",
        "Post_Office": "Ipoh",
        "State": "Perak"
    },
    {
        "Postcode": "30350",
        "Location": "Jalan Hang Tuah",
        "Post_Office": "Ipoh",
        "State": "Perak"
    },
    {
        "Postcode": "30350",
        "Location": "Jalan Hassan Adli",
        "Post_Office": "Ipoh",
        "State": "Perak"
    },
    {
        "Postcode": "30350",
        "Location": "Jalan Kelab Golf",
        "Post_Office": "Ipoh",
        "State": "Perak"
    },
    {
        "Postcode": "30350",
        "Location": "Jalan Lasam",
        "Post_Office": "Ipoh",
        "State": "Perak"
    },
    {
        "Postcode": "30350",
        "Location": "Jalan Lumba Kuda",
        "Post_Office": "Ipoh",
        "State": "Perak"
    },
    {
        "Postcode": "30350",
        "Location": "Jalan Oh Chen Keat",
        "Post_Office": "Ipoh",
        "State": "Perak"
    },
    {
        "Postcode": "30350",
        "Location": "Jalan Sturruck",
        "Post_Office": "Ipoh",
        "State": "Perak"
    },
    {
        "Postcode": "30350",
        "Location": "Jalan Tambun",
        "Post_Office": "Ipoh",
        "State": "Perak"
    },
    {
        "Postcode": "30350",
        "Location": "Jalan Teh Hian Tat",
        "Post_Office": "Ipoh",
        "State": "Perak"
    },
    {
        "Postcode": "30350",
        "Location": "Jalan Towers",
        "Post_Office": "Ipoh",
        "State": "Perak"
    },
    {
        "Postcode": "30350",
        "Location": "Jalan Tun Dr Ismail",
        "Post_Office": "Ipoh",
        "State": "Perak"
    },
    {
        "Postcode": "30350",
        "Location": "Jalan Tun Suffian",
        "Post_Office": "Ipoh",
        "State": "Perak"
    },
    {
        "Postcode": "30350",
        "Location": "Jalan Watson",
        "Post_Office": "Ipoh",
        "State": "Perak"
    },
    {
        "Postcode": "30350",
        "Location": "Jalan Woodward",
        "Post_Office": "Ipoh",
        "State": "Perak"
    },
    {
        "Postcode": "30350",
        "Location": "Jalan Zain Azrai",
        "Post_Office": "Ipoh",
        "State": "Perak"
    },
    {
        "Postcode": "30350",
        "Location": "Kediaman Menteri Besar Perak",
        "Post_Office": "Ipoh",
        "State": "Perak"
    },
    {
        "Postcode": "30350",
        "Location": "Laluan Raja Di Hilir",
        "Post_Office": "Ipoh",
        "State": "Perak"
    },
    {
        "Postcode": "30350",
        "Location": "Laluan Tambun",
        "Post_Office": "Ipoh",
        "State": "Perak"
    },
    {
        "Postcode": "30350",
        "Location": "Lebuh Lasam",
        "Post_Office": "Ipoh",
        "State": "Perak"
    },
    {
        "Postcode": "30350",
        "Location": "Lebuhraya Lasam",
        "Post_Office": "Ipoh",
        "State": "Perak"
    },
    {
        "Postcode": "30350",
        "Location": "Lebuhraya Tambun",
        "Post_Office": "Ipoh",
        "State": "Perak"
    },
    {
        "Postcode": "30350",
        "Location": "Lorong Abdul Jalil",
        "Post_Office": "Ipoh",
        "State": "Perak"
    },
    {
        "Postcode": "30350",
        "Location": "Lorong Cheah Chiang Lim",
        "Post_Office": "Ipoh",
        "State": "Perak"
    },
    {
        "Postcode": "30350",
        "Location": "Lorong Haji Marzuki",
        "Post_Office": "Ipoh",
        "State": "Perak"
    },
    {
        "Postcode": "30350",
        "Location": "Lorong Oh Cheng Kiat",
        "Post_Office": "Ipoh",
        "State": "Perak"
    },
    {
        "Postcode": "30350",
        "Location": "Lorong Raja Di Hilir",
        "Post_Office": "Ipoh",
        "State": "Perak"
    },
    {
        "Postcode": "30350",
        "Location": "Lorong Rani",
        "Post_Office": "Ipoh",
        "State": "Perak"
    },
    {
        "Postcode": "30350",
        "Location": "Lorong Selamat",
        "Post_Office": "Ipoh",
        "State": "Perak"
    },
    {
        "Postcode": "30350",
        "Location": "Lorong Tambun",
        "Post_Office": "Ipoh",
        "State": "Perak"
    },
    {
        "Postcode": "30350",
        "Location": "Lorong Tun Dr Ismail",
        "Post_Office": "Ipoh",
        "State": "Perak"
    },
    {
        "Postcode": "30350",
        "Location": "Persiaran Brash",
        "Post_Office": "Ipoh",
        "State": "Perak"
    },
    {
        "Postcode": "30350",
        "Location": "Persiaran Tambun",
        "Post_Office": "Ipoh",
        "State": "Perak"
    }
]
