[
    {
        "Postcode": "30450",
        "Location": "Galeri Suria",
        "Post_Office": "Ipoh",
        "State": "Perak"
    },
    {
        "Postcode": "30450",
        "Location": "Greentown",
        "Post_Office": "Ipoh",
        "State": "Perak"
    },
    {
        "Postcode": "30450",
        "Location": "Jalan 1 Greentown",
        "Post_Office": "Ipoh",
        "State": "Perak"
    },
    {
        "Postcode": "30450",
        "Location": "Jalan Abdul Jalil",
        "Post_Office": "Ipoh",
        "State": "Perak"
    },
    {
        "Postcode": "30450",
        "Location": "Jalan Chin Choong Sam",
        "Post_Office": "Ipoh",
        "State": "Perak"
    },
    {
        "Postcode": "30450",
        "Location": "Jalan Dato Sri Ahmad Said",
        "Post_Office": "Ipoh",
        "State": "Perak"
    },
    {
        "Postcode": "30450",
        "Location": "Jalan Ghazali Jawi",
        "Post_Office": "Ipoh",
        "State": "Perak"
    },
    {
        "Postcode": "30450",
        "Location": "Jalan Greenhill",
        "Post_Office": "Ipoh",
        "State": "Perak"
    },
    {
        "Postcode": "30450",
        "Location": "Jalan Greentown Square",
        "Post_Office": "Ipoh",
        "State": "Perak"
    },
    {
        "Postcode": "30450",
        "Location": "Jalan Hospital",
        "Post_Office": "Ipoh",
        "State": "Perak"
    },
    {
        "Postcode": "30450",
        "Location": "Jalan Idris",
        "Post_Office": "Ipoh",
        "State": "Perak"
    },
    {
        "Postcode": "30450",
        "Location": "Jalan Seenivagam",
        "Post_Office": "Ipoh",
        "State": "Perak"
    },
    {
        "Postcode": "30450",
        "Location": "Jalan Sri Kepayang",
        "Post_Office": "Ipoh",
        "State": "Perak"
    },
    {
        "Postcode": "30450",
        "Location": "Jalan Wan Mohd Salleh",
        "Post_Office": "Ipoh",
        "State": "Perak"
    },
    {
        "Postcode": "30450",
        "Location": "Lebuhraya Cecil Rae",
        "Post_Office": "Ipoh",
        "State": "Perak"
    },
    {
        "Postcode": "30450",
        "Location": "Lebuhraya Hart",
        "Post_Office": "Ipoh",
        "State": "Perak"
    },
    {
        "Postcode": "30450",
        "Location": "Lorong Hospital",
        "Post_Office": "Ipoh",
        "State": "Perak"
    },
    {
        "Postcode": "30450",
        "Location": "Persiaran Abdul Jalil",
        "Post_Office": "Ipoh",
        "State": "Perak"
    },
    {
        "Postcode": "30450",
        "Location": "Persiaran Bukit Hijau",
        "Post_Office": "Ipoh",
        "State": "Perak"
    },
    {
        "Postcode": "30450",
        "Location": "Persiaran Geleri Kepayang",
        "Post_Office": "Ipoh",
        "State": "Perak"
    },
    {
        "Postcode": "30450",
        "Location": "Persiaran Greentown",
        "Post_Office": "Ipoh",
        "State": "Perak"
    },
    {
        "Postcode": "30450",
        "Location": "Persiaran Kepayang",
        "Post_Office": "Ipoh",
        "State": "Perak"
    },
    {
        "Postcode": "30450",
        "Location": "Sungai Senam",
        "Post_Office": "Ipoh",
        "State": "Perak"
    }
]
