[
    {
        "Postcode": "47000",
        "Location": "Jalan Spm 8",
        "Post_Office": "Sungai Buloh",
        "State": "Selangor"
    },
    {
        "Postcode": "47000",
        "Location": "Sri Aman Heights",
        "Post_Office": "Sungai Buloh",
        "State": "Selangor"
    },
    {
        "Postcode": "47000",
        "Location": "Taman Perdagangan Elmina",
        "Post_Office": "Sungai Buloh",
        "State": "Selangor"
    },
    {
        "Postcode": "47000",
        "Location": "Bandar Seri Coalfields",
        "Post_Office": "Sungai Buloh",
        "State": "Selangor"
    },
    {
        "Postcode": "47000",
        "Location": "Desa Coalfields",
        "Post_Office": "Sungai Buloh",
        "State": "Selangor"
    },
    {
        "Postcode": "47000",
        "Location": "Kampung Bukit Lagong",
        "Post_Office": "Sungai Buloh",
        "State": "Selangor"
    },
    {
        "Postcode": "47000",
        "Location": "Kampung Desa Aman",
        "Post_Office": "Sungai Buloh",
        "State": "Selangor"
    },
    {
        "Postcode": "47000",
        "Location": "Kampung Ladang Baru",
        "Post_Office": "Sungai Buloh",
        "State": "Selangor"
    },
    {
        "Postcode": "47000",
        "Location": "Kampung Merbau Indah",
        "Post_Office": "Sungai Buloh",
        "State": "Selangor"
    },
    {
        "Postcode": "47000",
        "Location": "Kampung Sri Indah",
        "Post_Office": "Sungai Buloh",
        "State": "Selangor"
    },
    {
        "Postcode": "47000",
        "Location": "Ladang Tuan Mee",
        "Post_Office": "Sungai Buloh",
        "State": "Selangor"
    },
    {
        "Postcode": "47000",
        "Location": "Park Putra Industrial",
        "Post_Office": "Sungai Buloh",
        "State": "Selangor"
    },
    {
        "Postcode": "47000",
        "Location": "Resort Sungai Buloh Country",
        "Post_Office": "Sungai Buloh",
        "State": "Selangor"
    },
    {
        "Postcode": "47000",
        "Location": "Seri Pristana",
        "Post_Office": "Sungai Buloh",
        "State": "Selangor"
    },
    {
        "Postcode": "47000",
        "Location": "Sri Adjua",
        "Post_Office": "Sungai Buloh",
        "State": "Selangor"
    },
    {
        "Postcode": "47000",
        "Location": "Taman Impian Indah",
        "Post_Office": "Sungai Buloh",
        "State": "Selangor"
    },
    {
        "Postcode": "47000",
        "Location": "Taman Industri Sungai Buloh Jaya",
        "Post_Office": "Sungai Buloh",
        "State": "Selangor"
    },
    {
        "Postcode": "47000",
        "Location": "Taman Masgenuine Square",
        "Post_Office": "Sungai Buloh",
        "State": "Selangor"
    },
    {
        "Postcode": "47000",
        "Location": "Taman Matang Jaya",
        "Post_Office": "Sungai Buloh",
        "State": "Selangor"
    },
    {
        "Postcode": "47000",
        "Location": "Taman Seri Alam",
        "Post_Office": "Sungai Buloh",
        "State": "Selangor"
    },
    {
        "Postcode": "47000",
        "Location": "Taman Sri Gading",
        "Post_Office": "Sungai Buloh",
        "State": "Selangor"
    },
    {
        "Postcode": "47000",
        "Location": "Taman Villa Putra",
        "Post_Office": "Sungai Buloh",
        "State": "Selangor"
    },
    {
        "Postcode": "47000",
        "Location": "Tiara Putra",
        "Post_Office": "Sungai Buloh",
        "State": "Selangor"
    },
    {
        "Postcode": "47000",
        "Location": "Kawasan Perindustrian Desa Aman",
        "Post_Office": "Sungai Buloh",
        "State": "Selangor"
    },
    {
        "Postcode": "47000",
        "Location": "Jalan IDA 2",
        "Post_Office": "Sungai Buloh",
        "State": "Selangor"
    },
    {
        "Postcode": "47000",
        "Location": "Jalan IDA 2A",
        "Post_Office": "Sungai Buloh",
        "State": "Selangor"
    },
    {
        "Postcode": "47000",
        "Location": "Jalan Brp 9/1A",
        "Post_Office": "Sungai Buloh",
        "State": "Selangor"
    },
    {
        "Postcode": "47000",
        "Location": "Jalan Brp 9/1B",
        "Post_Office": "Sungai Buloh",
        "State": "Selangor"
    },
    {
        "Postcode": "47000",
        "Location": "Jalan Brp 9/1C",
        "Post_Office": "Sungai Buloh",
        "State": "Selangor"
    },
    {
        "Postcode": "47000",
        "Location": "Jalan Brp 9/1D",
        "Post_Office": "Sungai Buloh",
        "State": "Selangor"
    },
    {
        "Postcode": "47000",
        "Location": "Jalan Brp 7/1",
        "Post_Office": "Sungai Buloh",
        "State": "Selangor"
    },
    {
        "Postcode": "47000",
        "Location": "Jalan Brp 7/1A",
        "Post_Office": "Sungai Buloh",
        "State": "Selangor"
    },
    {
        "Postcode": "47000",
        "Location": "Jalan Brp 7/1B",
        "Post_Office": "Sungai Buloh",
        "State": "Selangor"
    },
    {
        "Postcode": "47000",
        "Location": "Jalan Brp 7/1C",
        "Post_Office": "Sungai Buloh",
        "State": "Selangor"
    },
    {
        "Postcode": "47000",
        "Location": "Jalan Brp 7/1D",
        "Post_Office": "Sungai Buloh",
        "State": "Selangor"
    },
    {
        "Postcode": "47000",
        "Location": "Jalan Brp 7/1E",
        "Post_Office": "Sungai Buloh",
        "State": "Selangor"
    },
    {
        "Postcode": "47000",
        "Location": "Jalan Brp 7/1F",
        "Post_Office": "Sungai Buloh",
        "State": "Selangor"
    },
    {
        "Postcode": "47000",
        "Location": "Jalan Brp 7/1G",
        "Post_Office": "Sungai Buloh",
        "State": "Selangor"
    },
    {
        "Postcode": "47000",
        "Location": "Jalan Brp 7/1H",
        "Post_Office": "Sungai Buloh",
        "State": "Selangor"
    },
    {
        "Postcode": "47000",
        "Location": "Jalan Brp 7/2",
        "Post_Office": "Sungai Buloh",
        "State": "Selangor"
    },
    {
        "Postcode": "47000",
        "Location": "Jalan Brp 7/2A",
        "Post_Office": "Sungai Buloh",
        "State": "Selangor"
    },
    {
        "Postcode": "47000",
        "Location": "Jalan Brp 7/3",
        "Post_Office": "Sungai Buloh",
        "State": "Selangor"
    },
    {
        "Postcode": "47000",
        "Location": "Jalan Brp 7/3A",
        "Post_Office": "Sungai Buloh",
        "State": "Selangor"
    },
    {
        "Postcode": "47000",
        "Location": "Jalan Brp 7/3B",
        "Post_Office": "Sungai Buloh",
        "State": "Selangor"
    },
    {
        "Postcode": "47000",
        "Location": "Jalan Brp 8/1",
        "Post_Office": "Sungai Buloh",
        "State": "Selangor"
    },
    {
        "Postcode": "47000",
        "Location": "Jalan Brp 8/1A",
        "Post_Office": "Sungai Buloh",
        "State": "Selangor"
    },
    {
        "Postcode": "47000",
        "Location": "Jalan Brp 8/1B",
        "Post_Office": "Sungai Buloh",
        "State": "Selangor"
    },
    {
        "Postcode": "47000",
        "Location": "Jalan Brp 8/1D",
        "Post_Office": "Sungai Buloh",
        "State": "Selangor"
    },
    {
        "Postcode": "47000",
        "Location": "Jalan Brp 8/2",
        "Post_Office": "Sungai Buloh",
        "State": "Selangor"
    },
    {
        "Postcode": "47000",
        "Location": "Jalan Brp 8/2",
        "Post_Office": "Sungai Buloh",
        "State": "Selangor"
    },
    {
        "Postcode": "47000",
        "Location": "Jalan Brp 8/2",
        "Post_Office": "Sungai Buloh",
        "State": "Selangor"
    },
    {
        "Postcode": "47000",
        "Location": "Jalan Brp 8/2",
        "Post_Office": "Sungai Buloh",
        "State": "Selangor"
    },
    {
        "Postcode": "47000",
        "Location": "Jalan Brp 9/1",
        "Post_Office": "Sungai Buloh",
        "State": "Selangor"
    },
    {
        "Postcode": "47000",
        "Location": "Jalan Brp 9/2",
        "Post_Office": "Sungai Buloh",
        "State": "Selangor"
    },
    {
        "Postcode": "47000",
        "Location": "Jalan Brp 9/2A",
        "Post_Office": "Sungai Buloh",
        "State": "Selangor"
    },
    {
        "Postcode": "47000",
        "Location": "Jalan Brp 9/2B",
        "Post_Office": "Sungai Buloh",
        "State": "Selangor"
    },
    {
        "Postcode": "47000",
        "Location": "Jalan Brp 10/2B",
        "Post_Office": "Sungai Buloh",
        "State": "Selangor"
    },
    {
        "Postcode": "47000",
        "Location": "Garden Manor Sierramas",
        "Post_Office": "Sungai Buloh",
        "State": "Selangor"
    },
    {
        "Postcode": "47000",
        "Location": "Jalan Elitis Ambal Biru",
        "Post_Office": "Sungai Buloh",
        "State": "Selangor"
    },
    {
        "Postcode": "47000",
        "Location": "Jalan Elitis Ancala",
        "Post_Office": "Sungai Buloh",
        "State": "Selangor"
    },
    {
        "Postcode": "47000",
        "Location": "Jalan Elitis Anggun Sari",
        "Post_Office": "Sungai Buloh",
        "State": "Selangor"
    },
    {
        "Postcode": "47000",
        "Location": "Jalan Elitis Arca Belantara",
        "Post_Office": "Sungai Buloh",
        "State": "Selangor"
    },
    {
        "Postcode": "47000",
        "Location": "Jalan Elitis Bayu",
        "Post_Office": "Sungai Buloh",
        "State": "Selangor"
    },
    {
        "Postcode": "47000",
        "Location": "Jalan Elitis Danau",
        "Post_Office": "Sungai Buloh",
        "State": "Selangor"
    },
    {
        "Postcode": "47000",
        "Location": "Jalan Elitis Eka",
        "Post_Office": "Sungai Buloh",
        "State": "Selangor"
    },
    {
        "Postcode": "47000",
        "Location": "Jalan Elitis Embun",
        "Post_Office": "Sungai Buloh",
        "State": "Selangor"
    },
    {
        "Postcode": "47000",
        "Location": "Jalan Elitis Gapura Senja",
        "Post_Office": "Sungai Buloh",
        "State": "Selangor"
    },
    {
        "Postcode": "47000",
        "Location": "Jalan Elitis Ira Dedaun",
        "Post_Office": "Sungai Buloh",
        "State": "Selangor"
    },
    {
        "Postcode": "47000",
        "Location": "Jalan Elitis Laman Hijau",
        "Post_Office": "Sungai Buloh",
        "State": "Selangor"
    },
    {
        "Postcode": "47000",
        "Location": "Jalan Elitis Malar Hijau",
        "Post_Office": "Sungai Buloh",
        "State": "Selangor"
    },
    {
        "Postcode": "47000",
        "Location": "Jalan Elitis Maya",
        "Post_Office": "Sungai Buloh",
        "State": "Selangor"
    },
    {
        "Postcode": "47000",
        "Location": "Jalan Elitis Mentari",
        "Post_Office": "Sungai Buloh",
        "State": "Selangor"
    },
    {
        "Postcode": "47000",
        "Location": "Jalan Elitis Palma",
        "Post_Office": "Sungai Buloh",
        "State": "Selangor"
    },
    {
        "Postcode": "47000",
        "Location": "Jalan Elitis Pawana",
        "Post_Office": "Sungai Buloh",
        "State": "Selangor"
    },
    {
        "Postcode": "47000",
        "Location": "Jalan Elitis Pinggiran Ancala",
        "Post_Office": "Sungai Buloh",
        "State": "Selangor"
    },
    {
        "Postcode": "47000",
        "Location": "Jalan Elitis Safa Puri",
        "Post_Office": "Sungai Buloh",
        "State": "Selangor"
    },
    {
        "Postcode": "47000",
        "Location": "Jalan Elitis Serambi Mera",
        "Post_Office": "Sungai Buloh",
        "State": "Selangor"
    },
    {
        "Postcode": "47000",
        "Location": "Jalan Elitis Suria",
        "Post_Office": "Sungai Buloh",
        "State": "Selangor"
    },
    {
        "Postcode": "47000",
        "Location": "Jalan Elitis Teja",
        "Post_Office": "Sungai Buloh",
        "State": "Selangor"
    },
    {
        "Postcode": "47000",
        "Location": "Jalan Elitis Tiara Selatan",
        "Post_Office": "Sungai Buloh",
        "State": "Selangor"
    },
    {
        "Postcode": "47000",
        "Location": "Jalan Elitis Tiara Utara",
        "Post_Office": "Sungai Buloh",
        "State": "Selangor"
    },
    {
        "Postcode": "47000",
        "Location": "Jalan Elitis Tirai Rimba",
        "Post_Office": "Sungai Buloh",
        "State": "Selangor"
    },
    {
        "Postcode": "47000",
        "Location": "Jalan Elitis Titian Seri",
        "Post_Office": "Sungai Buloh",
        "State": "Selangor"
    },
    {
        "Postcode": "47000",
        "Location": "Jalan Elitis Ujana",
        "Post_Office": "Sungai Buloh",
        "State": "Selangor"
    },
    {
        "Postcode": "47000",
        "Location": "Jalan Elitis Wadi",
        "Post_Office": "Sungai Buloh",
        "State": "Selangor"
    },
    {
        "Postcode": "47000",
        "Location": "Jalan Sp 20",
        "Post_Office": "Sungai Buloh",
        "State": "Selangor"
    },
    {
        "Postcode": "47000",
        "Location": "Taman Sri Putra",
        "Post_Office": "Sungai Buloh",
        "State": "Selangor"
    },
    {
        "Postcode": "47000",
        "Location": "Taman Valencia",
        "Post_Office": "Sungai Buloh",
        "State": "Selangor"
    },
    {
        "Postcode": "47000",
        "Location": "Jalan Kayangan Utama 1",
        "Post_Office": "Sungai Buloh",
        "State": "Selangor"
    },
    {
        "Postcode": "47000",
        "Location": "Taman Kayangan Utama",
        "Post_Office": "Sungai Buloh",
        "State": "Selangor"
    },
    {
        "Postcode": "47000",
        "Location": "Dataran Villa Putra",
        "Post_Office": "Sungai Buloh",
        "State": "Selangor"
    },
    {
        "Postcode": "47000",
        "Location": "Hospital Daerah Sungai Buloh",
        "Post_Office": "Sungai Buloh",
        "State": "Selangor"
    },
    {
        "Postcode": "47000",
        "Location": "Jalan Brp 8/1C",
        "Post_Office": "Sungai Buloh",
        "State": "Selangor"
    },
    {
        "Postcode": "47000",
        "Location": "Jalan D/A 2 ",
        "Post_Office": "Sungai Buloh",
        "State": "Selangor"
    },
    {
        "Postcode": "47000",
        "Location": "Jalan Dataran Villaputra 1",
        "Post_Office": "Sungai Buloh",
        "State": "Selangor"
    },
    {
        "Postcode": "47000",
        "Location": "Jalan Kusta Sungai",
        "Post_Office": "Sungai Buloh",
        "State": "Selangor"
    },
    {
        "Postcode": "47000",
        "Location": "Jalan Spm 7",
        "Post_Office": "Sungai Buloh",
        "State": "Selangor"
    },
    {
        "Postcode": "47000",
        "Location": "Kampung Bukit Lagung",
        "Post_Office": "Sungai Buloh",
        "State": "Selangor"
    },
    {
        "Postcode": "47000",
        "Location": "Kampung Jaya",
        "Post_Office": "Sungai Buloh",
        "State": "Selangor"
    },
    {
        "Postcode": "47000",
        "Location": "Kampung Melayu",
        "Post_Office": "Sungai Buloh",
        "State": "Selangor"
    },
    {
        "Postcode": "47000",
        "Location": "Kampung Selamat",
        "Post_Office": "Sungai Buloh",
        "State": "Selangor"
    },
    {
        "Postcode": "47000",
        "Location": "Kampung Sentosa",
        "Post_Office": "Sungai Buloh",
        "State": "Selangor"
    },
    {
        "Postcode": "47000",
        "Location": "Kampung Seri Thambi",
        "Post_Office": "Sungai Buloh",
        "State": "Selangor"
    },
    {
        "Postcode": "47000",
        "Location": "Laman Sierramas West",
        "Post_Office": "Sungai Buloh",
        "State": "Selangor"
    },
    {
        "Postcode": "47000",
        "Location": "Penjara Sungai Buloh",
        "Post_Office": "Sungai Buloh",
        "State": "Selangor"
    },
    {
        "Postcode": "47000",
        "Location": "Perindustrian Bukit Indah",
        "Post_Office": "Sungai Buloh",
        "State": "Selangor"
    },
    {
        "Postcode": "47000",
        "Location": "Persiaran Puteri",
        "Post_Office": "Sungai Buloh",
        "State": "Selangor"
    },
    {
        "Postcode": "47000",
        "Location": "Pinggiran Brp 1",
        "Post_Office": "Sungai Buloh",
        "State": "Selangor"
    },
    {
        "Postcode": "47000",
        "Location": "Saujana Utama",
        "Post_Office": "Sungai Buloh",
        "State": "Selangor"
    },
    {
        "Postcode": "47000",
        "Location": "Taman Desa Aman",
        "Post_Office": "Sungai Buloh",
        "State": "Selangor"
    },
    {
        "Postcode": "47000",
        "Location": "Taman Seri Bunga Tambahan",
        "Post_Office": "Sungai Buloh",
        "State": "Selangor"
    },
    {
        "Postcode": "47000",
        "Location": "Taman Seri Indah",
        "Post_Office": "Sungai Buloh",
        "State": "Selangor"
    },
    {
        "Postcode": "47000",
        "Location": "Taman Sri Putra Mas",
        "Post_Office": "Sungai Buloh",
        "State": "Selangor"
    },
    {
        "Postcode": "47000",
        "Location": "Tiara Puteri",
        "Post_Office": "Sungai Buloh",
        "State": "Selangor"
    },
    {
        "Postcode": "47000",
        "Location": "Sierramas",
        "Post_Office": "Sungai Buloh",
        "State": "Selangor"
    },
    {
        "Postcode": "47000",
        "Location": "Taman Anjung Damai",
        "Post_Office": "Sungai Buloh",
        "State": "Selangor"
    },
    {
        "Postcode": "47000",
        "Location": "Kawasan Industri Kampung Jaya",
        "Post_Office": "Sungai Buloh",
        "State": "Selangor"
    },
    {
        "Postcode": "47000",
        "Location": "Pusat Komersial Lgsb",
        "Post_Office": "Sungai Buloh",
        "State": "Selangor"
    },
    {
        "Postcode": "47000",
        "Location": "Mivo Industrial Avenue",
        "Post_Office": "Sungai Buloh",
        "State": "Selangor"
    },
    {
        "Postcode": "47000",
        "Location": "Taman Selesari",
        "Post_Office": "Sungai Buloh",
        "State": "Selangor"
    },
    {
        "Postcode": "47000",
        "Location": "Kampung Matang Pagar",
        "Post_Office": "Sungai Buloh",
        "State": "Selangor"
    },
    {
        "Postcode": "47000",
        "Location": "Kampung Sri Bunga",
        "Post_Office": "Sungai Buloh",
        "State": "Selangor"
    },
    {
        "Postcode": "47000",
        "Location": "Kampung Sri Bunga Tambahan",
        "Post_Office": "Sungai Buloh",
        "State": "Selangor"
    },
    {
        "Postcode": "47000",
        "Location": "Pinggiran Rahman Putra",
        "Post_Office": "Sungai Buloh",
        "State": "Selangor"
    },
    {
        "Postcode": "47000",
        "Location": "Taman Desa Bukit Indah",
        "Post_Office": "Sungai Buloh",
        "State": "Selangor"
    },
    {
        "Postcode": "47000",
        "Location": "Taman Putra",
        "Post_Office": "Sungai Buloh",
        "State": "Selangor"
    },
    {
        "Postcode": "47000",
        "Location": "Taman Suria",
        "Post_Office": "Sungai Buloh",
        "State": "Selangor"
    },
    {
        "Postcode": "47000",
        "Location": "Taman Bukit Indah",
        "Post_Office": "Sungai Buloh",
        "State": "Selangor"
    },
    {
        "Postcode": "47000",
        "Location": "Taman Amansari Rahman Putra",
        "Post_Office": "Sungai Buloh",
        "State": "Selangor"
    },
    {
        "Postcode": "47000",
        "Location": "Sierramas Residency",
        "Post_Office": "Sungai Buloh",
        "State": "Selangor"
    },
    {
        "Postcode": "47000",
        "Location": "Taman Tiara Ayu",
        "Post_Office": "Sungai Buloh",
        "State": "Selangor"
    },
    {
        "Postcode": "47000",
        "Location": "Taman Tropika Putra",
        "Post_Office": "Sungai Buloh",
        "State": "Selangor"
    },
    {
        "Postcode": "47000",
        "Location": "Taman Seri Putra 3",
        "Post_Office": "Sungai Buloh",
        "State": "Selangor"
    },
    {
        "Postcode": "47000",
        "Location": "Taman Impian Putra",
        "Post_Office": "Sungai Buloh",
        "State": "Selangor"
    },
    {
        "Postcode": "47000",
        "Location": "Jalan Sierramas Barat",
        "Post_Office": "Sungai Buloh",
        "State": "Selangor"
    },
    {
        "Postcode": "47000",
        "Location": "Sierramas Heights",
        "Post_Office": "Sungai Buloh",
        "State": "Selangor"
    },
    {
        "Postcode": "47000",
        "Location": "Kampung Sri Aman",
        "Post_Office": "Sungai Buloh",
        "State": "Selangor"
    },
    {
        "Postcode": "47000",
        "Location": "Taman Azalea",
        "Post_Office": "Sungai Buloh",
        "State": "Selangor"
    },
    {
        "Postcode": "47000",
        "Location": "Taman Idaman Putra",
        "Post_Office": "Sungai Buloh",
        "State": "Selangor"
    },
    {
        "Postcode": "47000",
        "Location": "Taman Industri Primont Perdana",
        "Post_Office": "Sungai Buloh",
        "State": "Selangor"
    }
]
