[
    {
        "Postcode": "47100",
        "Location": "Jalan Bk 5A/1",
        "Post_Office": "Puchong",
        "State": "Selangor"
    },
    {
        "Postcode": "47100",
        "Location": "Taman Kandan Baru",
        "Post_Office": "Puchong",
        "State": "Selangor"
    },
    {
        "Postcode": "47100",
        "Location": "Taman Lestari Puchong",
        "Post_Office": "Puchong",
        "State": "Selangor"
    },
    {
        "Postcode": "47100",
        "Location": "Pusat Komersial Koi",
        "Post_Office": "Puchong",
        "State": "Selangor"
    },
    {
        "Postcode": "47100",
        "Location": "Taman Sri Aman",
        "Post_Office": "Puchong",
        "State": "Selangor"
    },
    {
        "Postcode": "47100",
        "Location": "Pangsapuri Damai Court, Batu 14",
        "Post_Office": "Puchong",
        "State": "Selangor"
    },
    {
        "Postcode": "47100",
        "Location": "Hutan Simpan Air Hitam",
        "Post_Office": "Puchong",
        "State": "Selangor"
    },
    {
        "Postcode": "47100",
        "Location": "Jalan Bunga Tanjung Batu 14 Puchong",
        "Post_Office": "Puchong",
        "State": "Selangor"
    },
    {
        "Postcode": "47100",
        "Location": "Jalan Puchong (Batu 7 - 14)",
        "Post_Office": "Puchong",
        "State": "Selangor"
    },
    {
        "Postcode": "47100",
        "Location": "Jalan Puteri 1/2",
        "Post_Office": "Puchong",
        "State": "Selangor"
    },
    {
        "Postcode": "47100",
        "Location": "Jalan Puteri 10/18",
        "Post_Office": "Puchong",
        "State": "Selangor"
    },
    {
        "Postcode": "47100",
        "Location": "Kampung Baru (Km 12)",
        "Post_Office": "Puchong",
        "State": "Selangor"
    },
    {
        "Postcode": "47100",
        "Location": "Kampung Baru (Km 14)",
        "Post_Office": "Puchong",
        "State": "Selangor"
    },
    {
        "Postcode": "47100",
        "Location": "Kampung Bunga Melur",
        "Post_Office": "Puchong",
        "State": "Selangor"
    },
    {
        "Postcode": "47100",
        "Location": "Kampung Masjid Baru",
        "Post_Office": "Puchong",
        "State": "Selangor"
    },
    {
        "Postcode": "47100",
        "Location": "Kampung Pasir Cina",
        "Post_Office": "Puchong",
        "State": "Selangor"
    },
    {
        "Postcode": "47100",
        "Location": "Puchong (Batu 14)",
        "Post_Office": "Puchong",
        "State": "Selangor"
    },
    {
        "Postcode": "47100",
        "Location": "Rumah Murah Pkns",
        "Post_Office": "Puchong",
        "State": "Selangor"
    },
    {
        "Postcode": "47100",
        "Location": "Taman Perindustrian Puchong Utama",
        "Post_Office": "Puchong",
        "State": "Selangor"
    },
    {
        "Postcode": "47100",
        "Location": "Taman Perindustrian Pusat Bandar Puchong",
        "Post_Office": "Puchong",
        "State": "Selangor"
    },
    {
        "Postcode": "47100",
        "Location": "Taman Puchong Hartamas",
        "Post_Office": "Puchong",
        "State": "Selangor"
    },
    {
        "Postcode": "47100",
        "Location": "Casa Tropika",
        "Post_Office": "Puchong",
        "State": "Selangor"
    },
    {
        "Postcode": "47100",
        "Location": "Bandar Puchong Utama",
        "Post_Office": "Puchong",
        "State": "Selangor"
    },
    {
        "Postcode": "47100",
        "Location": "Taman Puchong Impian 2",
        "Post_Office": "Puchong",
        "State": "Selangor"
    },
    {
        "Postcode": "47100",
        "Location": "Jalan Ppu 3",
        "Post_Office": "Puchong",
        "State": "Selangor"
    },
    {
        "Postcode": "47100",
        "Location": "Persiaran Saujana Puchong",
        "Post_Office": "Puchong",
        "State": "Selangor"
    },
    {
        "Postcode": "47100",
        "Location": "Taman Industri Pusat Bandar Puchong",
        "Post_Office": "Puchong",
        "State": "Selangor"
    },
    {
        "Postcode": "47100",
        "Location": "Taman Puchong Indah",
        "Post_Office": "Puchong",
        "State": "Selangor"
    },
    {
        "Postcode": "47100",
        "Location": "Taman Puchong Indah 1",
        "Post_Office": "Puchong",
        "State": "Selangor"
    },
    {
        "Postcode": "47100",
        "Location": "Taman Puchong Indah 2",
        "Post_Office": "Puchong",
        "State": "Selangor"
    },
    {
        "Postcode": "47100",
        "Location": "Taman Sri Puchong",
        "Post_Office": "Puchong",
        "State": "Selangor"
    },
    {
        "Postcode": "47100",
        "Location": "Bandar Puteri",
        "Post_Office": "Puchong",
        "State": "Selangor"
    },
    {
        "Postcode": "47100",
        "Location": "Taman Denai Puchong",
        "Post_Office": "Puchong",
        "State": "Selangor"
    },
    {
        "Postcode": "47100",
        "Location": "Kampung Pasir Baru",
        "Post_Office": "Puchong",
        "State": "Selangor"
    },
    {
        "Postcode": "47100",
        "Location": "Persiaran Rio",
        "Post_Office": "Puchong",
        "State": "Selangor"
    }
]
