[
    {
        "Postcode": "47120",
        "Location": "Jalan Bp 7/13",
        "Post_Office": "Puchong",
        "State": "Selangor"
    },
    {
        "Postcode": "47120",
        "Location": "Jalan Bp 7/14",
        "Post_Office": "Puchong",
        "State": "Selangor"
    },
    {
        "Postcode": "47120",
        "Location": "Jalan Bp 7/15",
        "Post_Office": "Puchong",
        "State": "Selangor"
    },
    {
        "Postcode": "47120",
        "Location": "Jalan Bp 7/16",
        "Post_Office": "Puchong",
        "State": "Selangor"
    },
    {
        "Postcode": "47120",
        "Location": "Hijauan Villa",
        "Post_Office": "Puchong",
        "State": "Selangor"
    },
    {
        "Postcode": "47120",
        "Location": "Jalan Bp 11 ",
        "Post_Office": "Puchong",
        "State": "Selangor"
    },
    {
        "Postcode": "47120",
        "Location": "Park Villa ",
        "Post_Office": "Puchong",
        "State": "Selangor"
    },
    {
        "Postcode": "47120",
        "Location": "Riadah Villa ",
        "Post_Office": "Puchong",
        "State": "Selangor"
    },
    {
        "Postcode": "47120",
        "Location": "Taman Aman Putra",
        "Post_Office": "Puchong",
        "State": "Selangor"
    },
    {
        "Postcode": "47120",
        "Location": "Taman Puchong Impian",
        "Post_Office": "Puchong",
        "State": "Selangor"
    },
    {
        "Postcode": "47120",
        "Location": "Kompleks Perniagaan Sierra Alfresco",
        "Post_Office": "Puchong",
        "State": "Selangor"
    },
    {
        "Postcode": "47120",
        "Location": "Bromelia Park",
        "Post_Office": "Puchong",
        "State": "Selangor"
    },
    {
        "Postcode": "47120",
        "Location": "Jalan Bromelia 1",
        "Post_Office": "Puchong",
        "State": "Selangor"
    },
    {
        "Postcode": "47120",
        "Location": "Jalan Bromelia 2",
        "Post_Office": "Puchong",
        "State": "Selangor"
    },
    {
        "Postcode": "47120",
        "Location": "Jalan Bromelia 3",
        "Post_Office": "Puchong",
        "State": "Selangor"
    },
    {
        "Postcode": "47120",
        "Location": "Jalan Bromelia 4",
        "Post_Office": "Puchong",
        "State": "Selangor"
    },
    {
        "Postcode": "47120",
        "Location": "Jalan Bromelia 6",
        "Post_Office": "Puchong",
        "State": "Selangor"
    },
    {
        "Postcode": "47120",
        "Location": "Taman Abadi Heights",
        "Post_Office": "Puchong",
        "State": "Selangor"
    },
    {
        "Postcode": "47120",
        "Location": "Park Meranti Permai Industrial",
        "Post_Office": "Puchong",
        "State": "Selangor"
    },
    {
        "Postcode": "47120",
        "Location": "Taman Meranti Indah",
        "Post_Office": "Puchong",
        "State": "Selangor"
    },
    {
        "Postcode": "47120",
        "Location": "Taman Putra Impiana",
        "Post_Office": "Puchong",
        "State": "Selangor"
    },
    {
        "Postcode": "47120",
        "Location": "Jalan Tpm 1",
        "Post_Office": "Puchong",
        "State": "Selangor"
    },
    {
        "Postcode": "47120",
        "Location": "Taman Perindustrian Meranti Jaya",
        "Post_Office": "Puchong",
        "State": "Selangor"
    },
    {
        "Postcode": "47120",
        "Location": "Jalan Bp 7",
        "Post_Office": "Puchong",
        "State": "Selangor"
    },
    {
        "Postcode": "47120",
        "Location": "Jalan Sierra 1/3",
        "Post_Office": "Puchong",
        "State": "Selangor"
    },
    {
        "Postcode": "47120",
        "Location": "Bandar Bukit Puchong 2",
        "Post_Office": "Puchong",
        "State": "Selangor"
    },
    {
        "Postcode": "47120",
        "Location": "Batu 18 Sungai Rasau",
        "Post_Office": "Puchong",
        "State": "Selangor"
    },
    {
        "Postcode": "47120",
        "Location": "Desaria Villa Condominium",
        "Post_Office": "Puchong",
        "State": "Selangor"
    },
    {
        "Postcode": "47120",
        "Location": "Jalan Desaria",
        "Post_Office": "Puchong",
        "State": "Selangor"
    },
    {
        "Postcode": "47120",
        "Location": "Kampung Pulau Meranti",
        "Post_Office": "Puchong",
        "State": "Selangor"
    },
    {
        "Postcode": "47120",
        "Location": "Meranti Jaya Industrial Park",
        "Post_Office": "Puchong",
        "State": "Selangor"
    },
    {
        "Postcode": "47120",
        "Location": "Pulau Meranti",
        "Post_Office": "Puchong",
        "State": "Selangor"
    },
    {
        "Postcode": "47120",
        "Location": "Taman Kipark",
        "Post_Office": "Puchong",
        "State": "Selangor"
    },
    {
        "Postcode": "47120",
        "Location": "Taman Meranti Jaya",
        "Post_Office": "Puchong",
        "State": "Selangor"
    },
    {
        "Postcode": "47120",
        "Location": "Taman Perindustrian Tasik Perdana",
        "Post_Office": "Puchong",
        "State": "Selangor"
    },
    {
        "Postcode": "47120",
        "Location": "Taman Putra",
        "Post_Office": "Puchong",
        "State": "Selangor"
    },
    {
        "Postcode": "47120",
        "Location": "Taman Sierramas",
        "Post_Office": "Puchong",
        "State": "Selangor"
    },
    {
        "Postcode": "47120",
        "Location": "Taman Sri Abadi",
        "Post_Office": "Puchong",
        "State": "Selangor"
    },
    {
        "Postcode": "47120",
        "Location": "Taman Sri Meranti",
        "Post_Office": "Puchong",
        "State": "Selangor"
    },
    {
        "Postcode": "47120",
        "Location": "Taman Tasik Impiana",
        "Post_Office": "Puchong",
        "State": "Selangor"
    },
    {
        "Postcode": "47120",
        "Location": "Taman Desiran Bayu",
        "Post_Office": "Puchong",
        "State": "Selangor"
    },
    {
        "Postcode": "47120",
        "Location": "Pusat Teknologi Sinar Meranti",
        "Post_Office": "Puchong",
        "State": "Selangor"
    },
    {
        "Postcode": "47120",
        "Location": "Andira Park",
        "Post_Office": "Puchong",
        "State": "Selangor"
    },
    {
        "Postcode": "47120",
        "Location": "Jalan Puchong-Cyberjaya",
        "Post_Office": "Puchong",
        "State": "Selangor"
    },
    {
        "Postcode": "47120",
        "Location": "Taman Desa Ayer Hitam",
        "Post_Office": "Puchong",
        "State": "Selangor"
    },
    {
        "Postcode": "47120",
        "Location": "Taman Myra Meranti",
        "Post_Office": "Puchong",
        "State": "Selangor"
    },
    {
        "Postcode": "47120",
        "Location": "Taman Perindustrian Meranti Perdana",
        "Post_Office": "Puchong",
        "State": "Selangor"
    },
    {
        "Postcode": "47120",
        "Location": "Kawasan Perindustrian Meranti Utama",
        "Post_Office": "Puchong",
        "State": "Selangor"
    },
    {
        "Postcode": "47120",
        "Location": "Taman Meranti Damai",
        "Post_Office": "Puchong",
        "State": "Selangor"
    },
    {
        "Postcode": "47120",
        "Location": "Taman Meranti Aman",
        "Post_Office": "Puchong",
        "State": "Selangor"
    },
    {
        "Postcode": "47120",
        "Location": "Bandar 16 Sierra",
        "Post_Office": "Puchong",
        "State": "Selangor"
    },
    {
        "Postcode": "47120",
        "Location": "Taman Tasik Puchong",
        "Post_Office": "Puchong",
        "State": "Selangor"
    },
    {
        "Postcode": "47120",
        "Location": "Vision Residence",
        "Post_Office": "Puchong",
        "State": "Selangor"
    },
    {
        "Postcode": "47120",
        "Location": "Bandar Bukit Puchong",
        "Post_Office": "Puchong",
        "State": "Selangor"
    },
    {
        "Postcode": "47120",
        "Location": "Desa Air Hitam",
        "Post_Office": "Puchong",
        "State": "Selangor "
    },
    {
        "Postcode": "47120",
        "Location": "Kampung Sungai Rasau",
        "Post_Office": "Puchong",
        "State": "Selangor"
    },
    {
        "Postcode": "47120",
        "Location": "Jalan Abadi 1/24",
        "Post_Office": "Puchong",
        "State": "Selangor"
    }
]
