[
    {
        "Postcode": "47130",
        "Location": "Jalan Meranti Putra 1",
        "Post_Office": "Puchong",
        "State": "Selangor"
    },
    {
        "Postcode": "47130",
        "Location": "Jalan Meranti Putra 2",
        "Post_Office": "Puchong",
        "State": "Selangor"
    },
    {
        "Postcode": "47130",
        "Location": "Jalan Meranti Putra 3",
        "Post_Office": "Puchong",
        "State": "Selangor"
    },
    {
        "Postcode": "47130",
        "Location": "Jalan Meranti Putra 4",
        "Post_Office": "Puchong",
        "State": "Selangor"
    },
    {
        "Postcode": "47130",
        "Location": "Jalan PP 16/7",
        "Post_Office": "Puchong",
        "State": "Selangor"
    },
    {
        "Postcode": "47130",
        "Location": "Bandar Nusaputra",
        "Post_Office": "Puchong",
        "State": "Selangor"
    },
    {
        "Postcode": "47130",
        "Location": "Taman Meranti Putra",
        "Post_Office": "Puchong",
        "State": "Selangor"
    },
    {
        "Postcode": "47130",
        "Location": "Jalan Ptp 1/1",
        "Post_Office": "Puchong",
        "State": "Selangor"
    },
    {
        "Postcode": "47130",
        "Location": "Jalan Putra Perdana 3A",
        "Post_Office": "Puchong",
        "State": "Selangor"
    },
    {
        "Postcode": "47130",
        "Location": "Sekolah Menengah Kebangsaan Putra Perdana",
        "Post_Office": "Puchong",
        "State": "Selangor"
    },
    {
        "Postcode": "47130",
        "Location": "Jalan Ttp 111",
        "Post_Office": "Puchong",
        "State": "Selangor"
    },
    {
        "Postcode": "47130",
        "Location": "Jalan Putra 1 (Taman Perindustrian Putra)",
        "Post_Office": "Puchong",
        "State": "Selangor"
    },
    {
        "Postcode": "47130",
        "Location": "Taman Perindustrian Putra",
        "Post_Office": "Puchong",
        "State": "Selangor"
    },
    {
        "Postcode": "47130",
        "Location": "Pangsapuri Jati",
        "Post_Office": "Puchong",
        "State": "Selangor"
    },
    {
        "Postcode": "47130",
        "Location": "Taman Mas Sepang",
        "Post_Office": "Puchong",
        "State": "Selangor"
    },
    {
        "Postcode": "47130",
        "Location": "Taman Putra Perdana",
        "Post_Office": "Puchong",
        "State": "Selangor"
    },
    {
        "Postcode": "47130",
        "Location": "Taman Putra Prima",
        "Post_Office": "Puchong",
        "State": "Selangor"
    },
    {
        "Postcode": "47130",
        "Location": "Bandar Nusa Putra",
        "Post_Office": "Puchong",
        "State": "Selangor"
    },
    {
        "Postcode": "47130",
        "Location": "Perdana Industrial Park",
        "Post_Office": "Puchong",
        "State": "Selangor"
    },
    {
        "Postcode": "47130",
        "Location": "Skyvilla Condominium",
        "Post_Office": "Puchong",
        "State": "Selangor"
    },
    {
        "Postcode": "47130",
        "Location": "Taman Nusaputra Timur",
        "Post_Office": "Puchong",
        "State": "Selangor"
    },
    {
        "Postcode": "47130",
        "Location": "Taman Mas Langat",
        "Post_Office": "Puchong",
        "State": "Selangor"
    },
    {
        "Postcode": "47130",
        "Location": "Saville D'Lake Sepang",
        "Post_Office": "Puchong",
        "State": "Selangor"
    },
    {
        "Postcode": "47130",
        "Location": "Jalan Saville",
        "Post_Office": "Puchong",
        "State": "Selangor"
    },
    {
        "Postcode": "47130",
        "Location": "Laman Putra",
        "Post_Office": "Puchong",
        "State": "Selangor"
    },
    {
        "Postcode": "47130",
        "Location": "Bandar Saujana Putra 1",
        "Post_Office": "Puchong",
        "State": "Selangor"
    },
    {
        "Postcode": "47130",
        "Location": "Pangsapuri Idaman BSP",
        "Post_Office": "Puchong",
        "State": "Selangor"
    },
    {
        "Postcode": "47130",
        "Location": "Jalan SP 11/1",
        "Post_Office": "Puchong",
        "State": "Selangor"
    },
    {
        "Postcode": "47130",
        "Location": "Jalan Putra Perdana 6",
        "Post_Office": "Puchong",
        "State": "Selangor"
    },
    {
        "Postcode": "47130",
        "Location": "D'Island Residence",
        "Post_Office": "Puchong",
        "State": "Selangor"
    },
    {
        "Postcode": "47130",
        "Location": "Taman Putra Prima",
        "Post_Office": "Puchong",
        "State": "Selangor"
    },
    {
        "Postcode": "47130",
        "Location": "Jalan PP 4/2",
        "Post_Office": "Puchong",
        "State": "Selangor"
    }
]
