[
    {
        "Postcode": "47150",
        "Location": "Kampung Seri Aman Luar",
        "Post_Office": "Puchong",
        "State": "Selangor"
    },
    {
        "Postcode": "47150",
        "Location": "Kampung Sri Aman Tengah",
        "Post_Office": "Puchong",
        "State": "Selangor"
    },
    {
        "Postcode": "47150",
        "Location": "Taman Lavender",
        "Post_Office": "Puchong",
        "State": "Selangor"
    },
    {
        "Postcode": "47150",
        "Location": "Persiaran Prima Utama",
        "Post_Office": "Puchong",
        "State": "Selangor"
    },
    {
        "Postcode": "47150",
        "Location": "Sekolah Menengah Kebangsaan Taman Puchong Permai",
        "Post_Office": "Puchong",
        "State": "Selangor"
    },
    {
        "Postcode": "47150",
        "Location": "Jalan Tasik Prima 5/1",
        "Post_Office": "Puchong",
        "State": "Selangor"
    },
    {
        "Postcode": "47150",
        "Location": "Prima Biz Hub Commercial Centre",
        "Post_Office": "Puchong",
        "State": "Selangor"
    },
    {
        "Postcode": "47150",
        "Location": "Taman Tasik Prima",
        "Post_Office": "Puchong",
        "State": "Selangor"
    },
    {
        "Postcode": "47150",
        "Location": "Kampung Bunga Melor",
        "Post_Office": "Puchong",
        "State": "Selangor"
    },
    {
        "Postcode": "47150",
        "Location": "Kampung Kuala Sungai Baru",
        "Post_Office": "Puchong",
        "State": "Selangor"
    },
    {
        "Postcode": "47150",
        "Location": "Kampung Seri Andalas",
        "Post_Office": "Puchong",
        "State": "Selangor"
    },
    {
        "Postcode": "47150",
        "Location": "Kampung Seri Langkas",
        "Post_Office": "Puchong",
        "State": "Selangor"
    },
    {
        "Postcode": "47150",
        "Location": "Kampung Sungai Baru",
        "Post_Office": "Puchong",
        "State": "Selangor"
    },
    {
        "Postcode": "47150",
        "Location": "Kampung Tengah",
        "Post_Office": "Puchong",
        "State": "Selangor"
    },
    {
        "Postcode": "47150",
        "Location": "Puchong Batu 12 3/4",
        "Post_Office": "Puchong",
        "State": "Selangor"
    },
    {
        "Postcode": "47150",
        "Location": "Puchong Perdana",
        "Post_Office": "Puchong",
        "State": "Selangor"
    },
    {
        "Postcode": "47150",
        "Location": "Puchong Utama (Jalan Mawar 1 - 2)",
        "Post_Office": "Puchong",
        "State": "Selangor"
    },
    {
        "Postcode": "47150",
        "Location": "Taman Desa Millenium",
        "Post_Office": "Puchong",
        "State": "Selangor"
    },
    {
        "Postcode": "47150",
        "Location": "Taman Mawar",
        "Post_Office": "Puchong",
        "State": "Selangor"
    },
    {
        "Postcode": "47150",
        "Location": "Taman Puchong Intan",
        "Post_Office": "Puchong",
        "State": "Selangor"
    },
    {
        "Postcode": "47150",
        "Location": "Taman Puchong Perdana",
        "Post_Office": "Puchong",
        "State": "Selangor"
    },
    {
        "Postcode": "47150",
        "Location": "Taman Puchong Permai",
        "Post_Office": "Puchong",
        "State": "Selangor"
    },
    {
        "Postcode": "47150",
        "Location": "Taman Puchong Permata",
        "Post_Office": "Puchong",
        "State": "Selangor"
    },
    {
        "Postcode": "47150",
        "Location": "Taman Puchong Prima",
        "Post_Office": "Puchong",
        "State": "Selangor"
    },
    {
        "Postcode": "47150",
        "Location": "Taman Puchong Tekali",
        "Post_Office": "Puchong",
        "State": "Selangor"
    },
    {
        "Postcode": "47150",
        "Location": "Taman Desa Millenia",
        "Post_Office": "Puchong",
        "State": "Selangor"
    },
    {
        "Postcode": "47150",
        "Location": "Kampung Seri Aman Mas",
        "Post_Office": "Puchong",
        "State": "Selangor"
    },
    {
        "Postcode": "47150",
        "Location": "Kampung Sri Langkas",
        "Post_Office": "Puchong",
        "State": "Selangor"
    },
    {
        "Postcode": "47150",
        "Location": "Taman Desa Millennia",
        "Post_Office": "Puchong",
        "State": "Selangor"
    },
    {
        "Postcode": "47150",
        "Location": "Taman Pinggiran Prima",
        "Post_Office": "Puchong",
        "State": "Selangor"
    },
    {
        "Postcode": "47150",
        "Location": "Kampung Kenangan",
        "Post_Office": "Puchong",
        "State": "Selangor"
    },
    {
        "Postcode": "47150",
        "Location": "Desa Millennia",
        "Post_Office": "Puchong",
        "State": "Selangor"
    },
    {
        "Postcode": "47150",
        "Location": "Pusat Teknologi Sinar Puchong",
        "Post_Office": "Puchong",
        "State": "Selangor"
    },
    {
        "Postcode": "47150",
        "Location": "Bistari Residensi",
        "Post_Office": "Puchong",
        "State": "Selangor"
    },
    {
        "Postcode": "47150",
        "Location": "Kampung Bersatu",
        "Post_Office": "Puchong",
        "State": "Selangor"
    },
    {
        "Postcode": "47150",
        "Location": "Kampung Sri Aman",
        "Post_Office": "Puchong",
        "State": "Selangor"
    },
    {
        "Postcode": "47150",
        "Location": "Puchong Horizon",
        "Post_Office": "Puchong",
        "State": "Selangor"
    }
]
