[
    {
        "Postcode": "47160",
        "Location": "Jalan Wawasan 1",
        "Post_Office": "Puchong",
        "State": "Selangor"
    },
    {
        "Postcode": "47160",
        "Location": "Jalan Wawasan 2",
        "Post_Office": "Puchong",
        "State": "Selangor"
    },
    {
        "Postcode": "47160",
        "Location": "Jalan Wawasan 3",
        "Post_Office": "Puchong",
        "State": "Selangor"
    },
    {
        "Postcode": "47160",
        "Location": "Jalan Wawasan 4",
        "Post_Office": "Puchong",
        "State": "Selangor"
    },
    {
        "Postcode": "47160",
        "Location": "Jalan Wawasan 5",
        "Post_Office": "Puchong",
        "State": "Selangor"
    },
    {
        "Postcode": "47160",
        "Location": "Bandar Metro Puchong ",
        "Post_Office": "Puchong",
        "State": "Selangor"
    },
    {
        "Postcode": "47160",
        "Location": "Lake Edge Puchong",
        "Post_Office": "Puchong",
        "State": "Selangor"
    },
    {
        "Postcode": "47160",
        "Location": "Taman Indah Sri Puchong",
        "Post_Office": "Puchong",
        "State": "Selangor"
    },
    {
        "Postcode": "47160",
        "Location": "Taman Metro Puchong",
        "Post_Office": "Puchong",
        "State": "Selangor"
    },
    {
        "Postcode": "47160",
        "Location": "Jalan Bandar 6/1",
        "Post_Office": "Puchong",
        "State": "Selangor"
    },
    {
        "Postcode": "47160",
        "Location": "Jalan Op 1/1 Off Jalan Puchong",
        "Post_Office": "Puchong",
        "State": "Selangor"
    },
    {
        "Postcode": "47160",
        "Location": "Pusat Bandar Puchong",
        "Post_Office": "Puchong",
        "State": "Selangor"
    },
    {
        "Postcode": "47160",
        "Location": "Pusat Perdagangan One Puchong",
        "Post_Office": "Puchong",
        "State": "Selangor"
    },
    {
        "Postcode": "47160",
        "Location": "Taman Industri Puchong (Tpp 1)",
        "Post_Office": "Puchong",
        "State": "Selangor"
    },
    {
        "Postcode": "47160",
        "Location": "Taman Industri Puchong (Tpp 5)",
        "Post_Office": "Puchong",
        "State": "Selangor"
    },
    {
        "Postcode": "47160",
        "Location": "Taman Mutiara Puchong",
        "Post_Office": "Puchong",
        "State": "Selangor"
    },
    {
        "Postcode": "47160",
        "Location": "Tesco - Pusat Bandar Puchong",
        "Post_Office": "Puchong",
        "State": "Selangor"
    },
    {
        "Postcode": "47160",
        "Location": "Persiaran Wawasan",
        "Post_Office": "Puchong",
        "State": "Selangor"
    }
]
