[
    {
        "Postcode": "47170",
        "Location": "Jalan Merbah 1",
        "Post_Office": "Puchong",
        "State": "Selangor"
    },
    {
        "Postcode": "47170",
        "Location": "Jalan Merbah 2",
        "Post_Office": "Puchong",
        "State": "Selangor"
    },
    {
        "Postcode": "47170",
        "Location": "Jalan Merbah 3",
        "Post_Office": "Puchong",
        "State": "Selangor"
    },
    {
        "Postcode": "47170",
        "Location": "Jalan Merbah 4",
        "Post_Office": "Puchong",
        "State": "Selangor"
    },
    {
        "Postcode": "47170",
        "Location": "Taman Tenaga ",
        "Post_Office": "Puchong",
        "State": "Selangor"
    },
    {
        "Postcode": "47170",
        "Location": "Taman Aman Sari",
        "Post_Office": "Puchong",
        "State": "Selangor"
    },
    {
        "Postcode": "47170",
        "Location": "Jalan Kenari 13A",
        "Post_Office": "Puchong",
        "State": "Selangor"
    },
    {
        "Postcode": "47170",
        "Location": "Jalan Pipit 4",
        "Post_Office": "Puchong",
        "State": "Selangor"
    },
    {
        "Postcode": "47170",
        "Location": "Kondominium Atmosfera",
        "Post_Office": "Puchong",
        "State": "Selangor"
    },
    {
        "Postcode": "47170",
        "Location": "Casa Square",
        "Post_Office": "Puchong",
        "State": "Selangor"
    },
    {
        "Postcode": "47170",
        "Location": "Jalan Kenari",
        "Post_Office": "Puchong",
        "State": "Selangor"
    },
    {
        "Postcode": "47170",
        "Location": "Bandar Puchong Jaya",
        "Post_Office": "Puchong",
        "State": "Selangor"
    },
    {
        "Postcode": "47170",
        "Location": "Ioi",
        "Post_Office": "Puchong",
        "State": "Selangor"
    },
    {
        "Postcode": "47170",
        "Location": "Kampung Lembah Kinrara",
        "Post_Office": "Puchong",
        "State": "Selangor"
    },
    {
        "Postcode": "47170",
        "Location": "Klh",
        "Post_Office": "Puchong",
        "State": "Selangor"
    },
    {
        "Postcode": "47170",
        "Location": "Sekolah Rendah Kebangsaan (Cina) Jalan Kasawari 11",
        "Post_Office": "Puchong",
        "State": "Selangor"
    },
    {
        "Postcode": "47170",
        "Location": "Taman Puchong Jaya",
        "Post_Office": "Puchong",
        "State": "Selangor"
    },
    {
        "Postcode": "47170",
        "Location": "Ioi Skypod Complex",
        "Post_Office": "Puchong",
        "State": "Selangor"
    },
    {
        "Postcode": "47170",
        "Location": "Skypod Residence",
        "Post_Office": "Puchong",
        "State": "Selangor"
    },
    {
        "Postcode": "47170",
        "Location": "Irdk Residences",
        "Post_Office": "Puchong",
        "State": "Selangor"
    },
    {
        "Postcode": "47170",
        "Location": "Taman Puchong Legenda",
        "Post_Office": "Puchong",
        "State": "Selangor"
    },
    {
        "Postcode": "47170",
        "Location": "Jalan Jentayu 1",
        "Post_Office": "Puchong",
        "State": "Selangor"
    },
    {
        "Postcode": "47170",
        "Location": "Taman Puchong Legenda",
        "Post_Office": "Puchong",
        "State": "Selangor"
    }
]
