[
    {
        "Postcode": "47180",
        "Location": "Taman Kinrara Tk 1",
        "Post_Office": "Puchong",
        "State": "Selangor"
    },
    {
        "Postcode": "47180",
        "Location": "Taman Kinrara Tk 2",
        "Post_Office": "Puchong",
        "State": "Selangor"
    },
    {
        "Postcode": "47180",
        "Location": "Jalan Bk 5B",
        "Post_Office": "Puchong",
        "State": "Selangor"
    },
    {
        "Postcode": "47180",
        "Location": "Jalan Kinrara 6B",
        "Post_Office": "Puchong",
        "State": "Selangor"
    },
    {
        "Postcode": "47180",
        "Location": "Zest Point",
        "Post_Office": "Puchong",
        "State": "Selangor"
    },
    {
        "Postcode": "47180",
        "Location": "Zest Service Apartment",
        "Post_Office": "Puchong",
        "State": "Selangor"
    },
    {
        "Postcode": "47180",
        "Location": "Bandar Kinrara",
        "Post_Office": "Puchong",
        "State": "Selangor"
    },
    {
        "Postcode": "47180",
        "Location": "Bukit Tandang",
        "Post_Office": "Puchong",
        "State": "Selangor"
    },
    {
        "Postcode": "47180",
        "Location": "Jalan Bk 1/11",
        "Post_Office": "Puchong",
        "State": "Selangor"
    },
    {
        "Postcode": "47180",
        "Location": "Jalan Bk 1/13",
        "Post_Office": "Puchong",
        "State": "Selangor"
    },
    {
        "Postcode": "47180",
        "Location": "Kelab Golf Kinrara",
        "Post_Office": "Puchong",
        "State": "Selangor"
    },
    {
        "Postcode": "47180",
        "Location": "Taman Bukit Kinrara",
        "Post_Office": "Puchong",
        "State": "Selangor"
    },
    {
        "Postcode": "47180",
        "Location": "Taman Damai Utama",
        "Post_Office": "Puchong",
        "State": "Selangor"
    },
    {
        "Postcode": "47180",
        "Location": "Taman Industri Kinrara",
        "Post_Office": "Puchong",
        "State": "Selangor"
    },
    {
        "Postcode": "47180",
        "Location": "Taman Mawar (Kinrara Seksyen 5)",
        "Post_Office": "Puchong",
        "State": "Selangor"
    },
    {
        "Postcode": "47180",
        "Location": "Taman Perindustrian Kinrara",
        "Post_Office": "Puchong",
        "State": "Selangor"
    },
    {
        "Postcode": "47180",
        "Location": "Taman Perindustrian Kinrara Seksyen 1 ",
        "Post_Office": "Puchong",
        "State": "Selangor"
    },
    {
        "Postcode": "47180",
        "Location": "Taman Puncak Kinrara",
        "Post_Office": "Puchong",
        "State": "Selangor"
    },
    {
        "Postcode": "47180",
        "Location": "Taman Perindustrian Bandar Kinrara",
        "Post_Office": "Puchong",
        "State": "Selangor"
    },
    {
        "Postcode": "47180",
        "Location": "Pangsapuri Damai Utama",
        "Post_Office": "Puchong",
        "State": "Selangor"
    },
    {
        "Postcode": "47180",
        "Location": "Residensi Avantro",
        "Post_Office": "Puchong",
        "State": "Selangor"
    }
]
