[
    {
        "Postcode": "47190",
        "Location": "Kinrara Industrial Park",
        "Post_Office": "Puchong",
        "State": "Selangor"
    },
    {
        "Postcode": "47190",
        "Location": "Jalan Tk 5/1",
        "Post_Office": "Puchong",
        "State": "Selangor"
    },
    {
        "Postcode": "47190",
        "Location": "Pangsapuri Mawar",
        "Post_Office": "Puchong",
        "State": "Selangor"
    },
    {
        "Postcode": "47190",
        "Location": "Kampung Lembah",
        "Post_Office": "Puchong",
        "State": "Selangor"
    },
    {
        "Postcode": "47190",
        "Location": "Kem Kinrara",
        "Post_Office": "Puchong",
        "State": "Selangor"
    },
    {
        "Postcode": "47190",
        "Location": "Persiaran Kinrara Seksyen 3",
        "Post_Office": "Puchong",
        "State": "Selangor"
    },
    {
        "Postcode": "47190",
        "Location": "Taman Bukit Kuchai",
        "Post_Office": "Puchong",
        "State": "Selangor"
    },
    {
        "Postcode": "47190",
        "Location": "Taman Kandan",
        "Post_Office": "Puchong",
        "State": "Selangor"
    },
    {
        "Postcode": "47190",
        "Location": "Taman Kandan Lama",
        "Post_Office": "Puchong",
        "State": "Selangor"
    },
    {
        "Postcode": "47190",
        "Location": "Taman Kinrara",
        "Post_Office": "Puchong",
        "State": "Selangor"
    },
    {
        "Postcode": "47190",
        "Location": "Taman Kinrara(Seksyen 3 \u0026 7)",
        "Post_Office": "Puchong",
        "State": "Selangor"
    },
    {
        "Postcode": "47190",
        "Location": "Taman Mawar (Jalan Tk 4 - 5)",
        "Post_Office": "Puchong",
        "State": "Selangor"
    },
    {
        "Postcode": "47190",
        "Location": "Kampung Kandan Dalam",
        "Post_Office": "Puchong",
        "State": "Selangor"
    },
    {
        "Postcode": "47190",
        "Location": "Taman Paik Siong 1",
        "Post_Office": "Puchong",
        "State": "Selangor"
    },
    {
        "Postcode": "47190",
        "Location": "Taman Paik Siong 2",
        "Post_Office": "Puchong",
        "State": "Selangor"
    },
    {
        "Postcode": "47190",
        "Location": "Seksyen 3",
        "Post_Office": "Puchong",
        "State": "Selangor"
    }
]
