[
    {
        "Postcode": "47301",
        "Location": "Jalan Pju 1A/14 ",
        "Post_Office": "Petaling Jaya",
        "State": "Selangor"
    },
    {
        "Postcode": "47301",
        "Location": "Jalan Pju 1A/46",
        "Post_Office": "Petaling Jaya",
        "State": "Selangor"
    },
    {
        "Postcode": "47301",
        "Location": "Jalan Ss 4A/10",
        "Post_Office": "Petaling Jaya",
        "State": "Selangor"
    },
    {
        "Postcode": "47301",
        "Location": "Jalan Ss 4A/11",
        "Post_Office": "Petaling Jaya",
        "State": "Selangor"
    },
    {
        "Postcode": "47301",
        "Location": "Jalan Ss 4A/12",
        "Post_Office": "Petaling Jaya",
        "State": "Selangor"
    },
    {
        "Postcode": "47301",
        "Location": "Jalan Ss 4A/13",
        "Post_Office": "Petaling Jaya",
        "State": "Selangor"
    },
    {
        "Postcode": "47301",
        "Location": "Jalan Ss 4A/14",
        "Post_Office": "Petaling Jaya",
        "State": "Selangor"
    },
    {
        "Postcode": "47301",
        "Location": "Jalan Ss 4A/15",
        "Post_Office": "Petaling Jaya",
        "State": "Selangor"
    },
    {
        "Postcode": "47301",
        "Location": "Jalan Ss 4A/2",
        "Post_Office": "Petaling Jaya",
        "State": "Selangor"
    },
    {
        "Postcode": "47301",
        "Location": "Jalan Ss 4A/3",
        "Post_Office": "Petaling Jaya",
        "State": "Selangor"
    },
    {
        "Postcode": "47301",
        "Location": "Jalan Ss 4A/4",
        "Post_Office": "Petaling Jaya",
        "State": "Selangor"
    },
    {
        "Postcode": "47301",
        "Location": "Jalan Ss 4A/5",
        "Post_Office": "Petaling Jaya",
        "State": "Selangor"
    },
    {
        "Postcode": "47301",
        "Location": "Jalan Ss 4A/6",
        "Post_Office": "Petaling Jaya",
        "State": "Selangor"
    },
    {
        "Postcode": "47301",
        "Location": "Jalan Ss 4A/7",
        "Post_Office": "Petaling Jaya",
        "State": "Selangor"
    },
    {
        "Postcode": "47301",
        "Location": "Jalan Ss 4A/8",
        "Post_Office": "Petaling Jaya",
        "State": "Selangor"
    },
    {
        "Postcode": "47301",
        "Location": "Jalan Ss 4A/9",
        "Post_Office": "Petaling Jaya",
        "State": "Selangor"
    },
    {
        "Postcode": "47301",
        "Location": "Jalan Ss 4B/1",
        "Post_Office": "Petaling Jaya",
        "State": "Selangor"
    },
    {
        "Postcode": "47301",
        "Location": "Jalan Ss 4B/10",
        "Post_Office": "Petaling Jaya",
        "State": "Selangor"
    },
    {
        "Postcode": "47301",
        "Location": "Jalan Ss 4B/11",
        "Post_Office": "Petaling Jaya",
        "State": "Selangor"
    },
    {
        "Postcode": "47301",
        "Location": "Jalan Ss 4B/12",
        "Post_Office": "Petaling Jaya",
        "State": "Selangor"
    },
    {
        "Postcode": "47301",
        "Location": "Jalan Ss 4B/13",
        "Post_Office": "Petaling Jaya",
        "State": "Selangor"
    },
    {
        "Postcode": "47301",
        "Location": "Jalan Ss 4B/14",
        "Post_Office": "Petaling Jaya",
        "State": "Selangor"
    },
    {
        "Postcode": "47301",
        "Location": "Jalan Ss 4B/15",
        "Post_Office": "Petaling Jaya",
        "State": "Selangor"
    },
    {
        "Postcode": "47301",
        "Location": "Jalan Ss 4B/16",
        "Post_Office": "Petaling Jaya",
        "State": "Selangor"
    },
    {
        "Postcode": "47301",
        "Location": "Jalan Ss 4B/2",
        "Post_Office": "Petaling Jaya",
        "State": "Selangor"
    },
    {
        "Postcode": "47301",
        "Location": "Jalan Ss 4B/3",
        "Post_Office": "Petaling Jaya",
        "State": "Selangor"
    },
    {
        "Postcode": "47301",
        "Location": "Jalan Ss 4B/4",
        "Post_Office": "Petaling Jaya",
        "State": "Selangor"
    },
    {
        "Postcode": "47301",
        "Location": "Jalan Ss 4B/5",
        "Post_Office": "Petaling Jaya",
        "State": "Selangor"
    },
    {
        "Postcode": "47301",
        "Location": "Jalan Ss 4B/6",
        "Post_Office": "Petaling Jaya",
        "State": "Selangor"
    },
    {
        "Postcode": "47301",
        "Location": "Jalan Ss 4B/7",
        "Post_Office": "Petaling Jaya",
        "State": "Selangor"
    },
    {
        "Postcode": "47301",
        "Location": "Jalan Ss 4B/8",
        "Post_Office": "Petaling Jaya",
        "State": "Selangor"
    },
    {
        "Postcode": "47301",
        "Location": "Jalan Ss 4B/9",
        "Post_Office": "Petaling Jaya",
        "State": "Selangor"
    },
    {
        "Postcode": "47301",
        "Location": "Jalan Ss 4C/1",
        "Post_Office": "Petaling Jaya",
        "State": "Selangor"
    },
    {
        "Postcode": "47301",
        "Location": "Jalan Ss 4C/10",
        "Post_Office": "Petaling Jaya",
        "State": "Selangor"
    },
    {
        "Postcode": "47301",
        "Location": "Jalan Ss 4C/11",
        "Post_Office": "Petaling Jaya",
        "State": "Selangor"
    },
    {
        "Postcode": "47301",
        "Location": "Jalan Ss 4C/12",
        "Post_Office": "Petaling Jaya",
        "State": "Selangor"
    },
    {
        "Postcode": "47301",
        "Location": "Jalan Ss 4C/13",
        "Post_Office": "Petaling Jaya",
        "State": "Selangor"
    },
    {
        "Postcode": "47301",
        "Location": "Jalan Ss 4C/14",
        "Post_Office": "Petaling Jaya",
        "State": "Selangor"
    },
    {
        "Postcode": "47301",
        "Location": "Jalan Ss 4C/15",
        "Post_Office": "Petaling Jaya",
        "State": "Selangor"
    },
    {
        "Postcode": "47301",
        "Location": "Jalan Ss 4C/16",
        "Post_Office": "Petaling Jaya",
        "State": "Selangor"
    },
    {
        "Postcode": "47301",
        "Location": "Jalan Ss 4C/17",
        "Post_Office": "Petaling Jaya",
        "State": "Selangor"
    },
    {
        "Postcode": "47301",
        "Location": "Jalan Ss 4C/18",
        "Post_Office": "Petaling Jaya",
        "State": "Selangor"
    },
    {
        "Postcode": "47301",
        "Location": "Jalan Ss 4C/19",
        "Post_Office": "Petaling Jaya",
        "State": "Selangor"
    },
    {
        "Postcode": "47301",
        "Location": "Jalan Ss 4C/2",
        "Post_Office": "Petaling Jaya",
        "State": "Selangor"
    },
    {
        "Postcode": "47301",
        "Location": "Jalan Ss 4C/20",
        "Post_Office": "Petaling Jaya",
        "State": "Selangor"
    },
    {
        "Postcode": "47301",
        "Location": "Jalan Ss 4C/3",
        "Post_Office": "Petaling Jaya",
        "State": "Selangor"
    },
    {
        "Postcode": "47301",
        "Location": "Jalan Ss 4C/4",
        "Post_Office": "Petaling Jaya",
        "State": "Selangor"
    },
    {
        "Postcode": "47301",
        "Location": "Jalan Ss 4C/5",
        "Post_Office": "Petaling Jaya",
        "State": "Selangor"
    },
    {
        "Postcode": "47301",
        "Location": "Jalan Ss 4C/6",
        "Post_Office": "Petaling Jaya",
        "State": "Selangor"
    },
    {
        "Postcode": "47301",
        "Location": "Jalan Ss 4C/7",
        "Post_Office": "Petaling Jaya",
        "State": "Selangor"
    },
    {
        "Postcode": "47301",
        "Location": "Jalan Ss 4C/8",
        "Post_Office": "Petaling Jaya",
        "State": "Selangor"
    },
    {
        "Postcode": "47301",
        "Location": "Jalan Ss 4C/9",
        "Post_Office": "Petaling Jaya",
        "State": "Selangor"
    },
    {
        "Postcode": "47301",
        "Location": "Jalan Ss 4D/10",
        "Post_Office": "Petaling Jaya",
        "State": "Selangor"
    },
    {
        "Postcode": "47301",
        "Location": "Jalan Ss 4D/11",
        "Post_Office": "Petaling Jaya",
        "State": "Selangor"
    },
    {
        "Postcode": "47301",
        "Location": "Taman Mayang ",
        "Post_Office": "Petaling Jaya",
        "State": "Selangor"
    },
    {
        "Postcode": "47301",
        "Location": "Taman Mayang Jaya ",
        "Post_Office": "Petaling Jaya",
        "State": "Selangor"
    },
    {
        "Postcode": "47301",
        "Location": "Taman Sri Kelana",
        "Post_Office": "Petaling Jaya",
        "State": "Selangor"
    },
    {
        "Postcode": "47301",
        "Location": "Centre Sunway Mas Commercial",
        "Post_Office": "Petaling Jaya",
        "State": "Selangor"
    },
    {
        "Postcode": "47301",
        "Location": "Dataran Ara Damansara",
        "Post_Office": "Petaling Jaya",
        "State": "Selangor"
    },
    {
        "Postcode": "47301",
        "Location": "Dataran Prima",
        "Post_Office": "Petaling Jaya",
        "State": "Selangor"
    },
    {
        "Postcode": "47301",
        "Location": "Kelana Idaman",
        "Post_Office": "Petaling Jaya",
        "State": "Selangor"
    },
    {
        "Postcode": "47301",
        "Location": "Park Mayang Industrial",
        "Post_Office": "Petaling Jaya",
        "State": "Selangor"
    },
    {
        "Postcode": "47301",
        "Location": "Pusat Dagangan Nzx",
        "Post_Office": "Petaling Jaya",
        "State": "Selangor"
    },
    {
        "Postcode": "47301",
        "Location": "Pusat Komersial Parklane",
        "Post_Office": "Petaling Jaya",
        "State": "Selangor"
    },
    {
        "Postcode": "47301",
        "Location": "Taman Bukit Emas",
        "Post_Office": "Petaling Jaya",
        "State": "Selangor"
    },
    {
        "Postcode": "47301",
        "Location": "Taman Desa Suria",
        "Post_Office": "Petaling Jaya",
        "State": "Selangor"
    },
    {
        "Postcode": "47301",
        "Location": "Taman Megah Emas",
        "Post_Office": "Petaling Jaya",
        "State": "Selangor"
    },
    {
        "Postcode": "47301",
        "Location": "Taman Perindustrian Jaya",
        "Post_Office": "Petaling Jaya",
        "State": "Selangor"
    },
    {
        "Postcode": "47301",
        "Location": "Taman Putra Damai",
        "Post_Office": "Petaling Jaya",
        "State": "Selangor"
    },
    {
        "Postcode": "47301",
        "Location": "Pangsapuri Pinnacle Ara Damansara",
        "Post_Office": "Petaling Jaya",
        "State": "Selangor"
    },
    {
        "Postcode": "47301",
        "Location": "Residensi Dana 15",
        "Post_Office": "Petaling Jaya",
        "State": "Selangor"
    },
    {
        "Postcode": "47301",
        "Location": "Jalan Ss 4D/12",
        "Post_Office": "Petaling Jaya",
        "State": "Selangor"
    },
    {
        "Postcode": "47301",
        "Location": "Jalan Ss 4D/13",
        "Post_Office": "Petaling Jaya",
        "State": "Selangor"
    },
    {
        "Postcode": "47301",
        "Location": "Jalan Ss 4D/14",
        "Post_Office": "Petaling Jaya",
        "State": "Selangor"
    },
    {
        "Postcode": "47301",
        "Location": "Jalan Ss 4D/15",
        "Post_Office": "Petaling Jaya",
        "State": "Selangor"
    },
    {
        "Postcode": "47301",
        "Location": "Jalan Ss 4D/16",
        "Post_Office": "Petaling Jaya",
        "State": "Selangor"
    },
    {
        "Postcode": "47301",
        "Location": "Jalan Ss 4D/17",
        "Post_Office": "Petaling Jaya",
        "State": "Selangor"
    },
    {
        "Postcode": "47301",
        "Location": "Jalan Ss 4D/18",
        "Post_Office": "Petaling Jaya",
        "State": "Selangor"
    },
    {
        "Postcode": "47301",
        "Location": "Jalan Ss 4D/2",
        "Post_Office": "Petaling Jaya",
        "State": "Selangor"
    },
    {
        "Postcode": "47301",
        "Location": "Jalan Ss 4D/3",
        "Post_Office": "Petaling Jaya",
        "State": "Selangor"
    },
    {
        "Postcode": "47301",
        "Location": "Jalan Ss 4D/4",
        "Post_Office": "Petaling Jaya",
        "State": "Selangor"
    },
    {
        "Postcode": "47301",
        "Location": "Jalan Ss 4D/5",
        "Post_Office": "Petaling Jaya",
        "State": "Selangor"
    },
    {
        "Postcode": "47301",
        "Location": "Jalan Ss 4D/6",
        "Post_Office": "Petaling Jaya",
        "State": "Selangor"
    },
    {
        "Postcode": "47301",
        "Location": "Jalan Ss 4D/7",
        "Post_Office": "Petaling Jaya",
        "State": "Selangor"
    },
    {
        "Postcode": "47301",
        "Location": "Jalan Ss 4D/8",
        "Post_Office": "Petaling Jaya",
        "State": "Selangor"
    },
    {
        "Postcode": "47301",
        "Location": "Jalan Ss 4D/9",
        "Post_Office": "Petaling Jaya",
        "State": "Selangor"
    },
    {
        "Postcode": "47301",
        "Location": "Jalan Ss 5A/1",
        "Post_Office": "Petaling Jaya",
        "State": "Selangor"
    },
    {
        "Postcode": "47301",
        "Location": "Jalan Ss 5A/10",
        "Post_Office": "Petaling Jaya",
        "State": "Selangor"
    },
    {
        "Postcode": "47301",
        "Location": "Jalan Ss 5A/11",
        "Post_Office": "Petaling Jaya",
        "State": "Selangor"
    },
    {
        "Postcode": "47301",
        "Location": "Jalan Ss 5A/12",
        "Post_Office": "Petaling Jaya",
        "State": "Selangor"
    },
    {
        "Postcode": "47301",
        "Location": "Jalan Ss 5A/13",
        "Post_Office": "Petaling Jaya",
        "State": "Selangor"
    },
    {
        "Postcode": "47301",
        "Location": "Jalan Ss 5A/14",
        "Post_Office": "Petaling Jaya",
        "State": "Selangor"
    },
    {
        "Postcode": "47301",
        "Location": "Jalan Ss 5A/15",
        "Post_Office": "Petaling Jaya",
        "State": "Selangor"
    },
    {
        "Postcode": "47301",
        "Location": "Jalan Ss 5A/16",
        "Post_Office": "Petaling Jaya",
        "State": "Selangor"
    },
    {
        "Postcode": "47301",
        "Location": "Jalan Ss 5A/17",
        "Post_Office": "Petaling Jaya",
        "State": "Selangor"
    },
    {
        "Postcode": "47301",
        "Location": "Jalan Ss 5A/2",
        "Post_Office": "Petaling Jaya",
        "State": "Selangor"
    },
    {
        "Postcode": "47301",
        "Location": "Jalan Ss 5A/3",
        "Post_Office": "Petaling Jaya",
        "State": "Selangor"
    },
    {
        "Postcode": "47301",
        "Location": "Jalan Ss 5A/4",
        "Post_Office": "Petaling Jaya",
        "State": "Selangor"
    },
    {
        "Postcode": "47301",
        "Location": "Jalan Ss 5A/5",
        "Post_Office": "Petaling Jaya",
        "State": "Selangor"
    },
    {
        "Postcode": "47301",
        "Location": "Jalan Ss 5A/6",
        "Post_Office": "Petaling Jaya",
        "State": "Selangor"
    },
    {
        "Postcode": "47301",
        "Location": "Jalan Ss 5A/7",
        "Post_Office": "Petaling Jaya",
        "State": "Selangor"
    },
    {
        "Postcode": "47301",
        "Location": "Jalan Ss 5A/8",
        "Post_Office": "Petaling Jaya",
        "State": "Selangor"
    },
    {
        "Postcode": "47301",
        "Location": "Jalan Ss 5A/9",
        "Post_Office": "Petaling Jaya",
        "State": "Selangor"
    },
    {
        "Postcode": "47301",
        "Location": "Jalan Ss 5B/1",
        "Post_Office": "Petaling Jaya",
        "State": "Selangor"
    },
    {
        "Postcode": "47301",
        "Location": "Jalan Ss 5B/2",
        "Post_Office": "Petaling Jaya",
        "State": "Selangor"
    },
    {
        "Postcode": "47301",
        "Location": "Jalan Ss 5B/3",
        "Post_Office": "Petaling Jaya",
        "State": "Selangor"
    },
    {
        "Postcode": "47301",
        "Location": "Jalan Ss 5B/4",
        "Post_Office": "Petaling Jaya",
        "State": "Selangor"
    },
    {
        "Postcode": "47301",
        "Location": "Jalan Ss 5B/5",
        "Post_Office": "Petaling Jaya",
        "State": "Selangor"
    },
    {
        "Postcode": "47301",
        "Location": "Jalan Ss 5B/6",
        "Post_Office": "Petaling Jaya",
        "State": "Selangor"
    },
    {
        "Postcode": "47301",
        "Location": "Jalan Ss 5C/1",
        "Post_Office": "Petaling Jaya",
        "State": "Selangor"
    },
    {
        "Postcode": "47301",
        "Location": "Jalan Ss 5C/10",
        "Post_Office": "Petaling Jaya",
        "State": "Selangor"
    },
    {
        "Postcode": "47301",
        "Location": "Jalan Ss 5C/11",
        "Post_Office": "Petaling Jaya",
        "State": "Selangor"
    },
    {
        "Postcode": "47301",
        "Location": "Jalan Ss 5C/12",
        "Post_Office": "Petaling Jaya",
        "State": "Selangor"
    },
    {
        "Postcode": "47301",
        "Location": "Jalan Ss 5C/13",
        "Post_Office": "Petaling Jaya",
        "State": "Selangor"
    },
    {
        "Postcode": "47301",
        "Location": "Jalan Ss 5C/14",
        "Post_Office": "Petaling Jaya",
        "State": "Selangor"
    },
    {
        "Postcode": "47301",
        "Location": "Jalan Ss 5C/2",
        "Post_Office": "Petaling Jaya",
        "State": "Selangor"
    },
    {
        "Postcode": "47301",
        "Location": "Jalan Ss 5C/3",
        "Post_Office": "Petaling Jaya",
        "State": "Selangor"
    },
    {
        "Postcode": "47301",
        "Location": "Jalan Ss 5C/4",
        "Post_Office": "Petaling Jaya",
        "State": "Selangor"
    },
    {
        "Postcode": "47301",
        "Location": "Jalan Ss 5C/5",
        "Post_Office": "Petaling Jaya",
        "State": "Selangor"
    },
    {
        "Postcode": "47301",
        "Location": "Jalan Ss 5C/6",
        "Post_Office": "Petaling Jaya",
        "State": "Selangor"
    },
    {
        "Postcode": "47301",
        "Location": "Jalan Ss 5C/7",
        "Post_Office": "Petaling Jaya",
        "State": "Selangor"
    },
    {
        "Postcode": "47301",
        "Location": "Jalan Ss 5C/8",
        "Post_Office": "Petaling Jaya",
        "State": "Selangor"
    },
    {
        "Postcode": "47301",
        "Location": "Jalan Ss 5C/9",
        "Post_Office": "Petaling Jaya",
        "State": "Selangor"
    },
    {
        "Postcode": "47301",
        "Location": "Jalan Ss 5D/1",
        "Post_Office": "Petaling Jaya",
        "State": "Selangor"
    },
    {
        "Postcode": "47301",
        "Location": "Jalan Ss 5D/11B",
        "Post_Office": "Petaling Jaya",
        "State": "Selangor"
    },
    {
        "Postcode": "47301",
        "Location": "Seksyen  Ss 11",
        "Post_Office": "Petaling Jaya",
        "State": "Selangor"
    },
    {
        "Postcode": "47301",
        "Location": "Seksyen  Ss 24",
        "Post_Office": "Petaling Jaya",
        "State": "Selangor"
    },
    {
        "Postcode": "47301",
        "Location": "Seksyen  Ss 25",
        "Post_Office": "Petaling Jaya",
        "State": "Selangor"
    },
    {
        "Postcode": "47301",
        "Location": "Seksyen  Ss 26",
        "Post_Office": "Petaling Jaya",
        "State": "Selangor"
    },
    {
        "Postcode": "47301",
        "Location": "Seksyen  Ss 4",
        "Post_Office": "Petaling Jaya",
        "State": "Selangor"
    },
    {
        "Postcode": "47301",
        "Location": "Seksyen  Ss 4A",
        "Post_Office": "Petaling Jaya",
        "State": "Selangor"
    },
    {
        "Postcode": "47301",
        "Location": "Seksyen  Ss 4B",
        "Post_Office": "Petaling Jaya",
        "State": "Selangor"
    },
    {
        "Postcode": "47301",
        "Location": "Seksyen  Ss 4C",
        "Post_Office": "Petaling Jaya",
        "State": "Selangor"
    },
    {
        "Postcode": "47301",
        "Location": "Seksyen  Ss 4D",
        "Post_Office": "Petaling Jaya",
        "State": "Selangor"
    },
    {
        "Postcode": "47301",
        "Location": "Seksyen  Ss 5",
        "Post_Office": "Petaling Jaya",
        "State": "Selangor"
    },
    {
        "Postcode": "47301",
        "Location": "Seksyen  Ss 6",
        "Post_Office": "Petaling Jaya",
        "State": "Selangor"
    },
    {
        "Postcode": "47301",
        "Location": "Seksyen  Ss 7",
        "Post_Office": "Petaling Jaya",
        "State": "Selangor"
    },
    {
        "Postcode": "47301",
        "Location": "Seksyen Ss 5A",
        "Post_Office": "Petaling Jaya",
        "State": "Selangor"
    },
    {
        "Postcode": "47301",
        "Location": "Seksyen Ss 5B",
        "Post_Office": "Petaling Jaya",
        "State": "Selangor"
    },
    {
        "Postcode": "47301",
        "Location": "Seksyen Ss 5C",
        "Post_Office": "Petaling Jaya",
        "State": "Selangor"
    },
    {
        "Postcode": "47301",
        "Location": "Seksyen Ss 5D",
        "Post_Office": "Petaling Jaya",
        "State": "Selangor"
    },
    {
        "Postcode": "47301",
        "Location": "Taman Megah",
        "Post_Office": "Petaling Jaya",
        "State": "Selangor"
    },
    {
        "Postcode": "47301",
        "Location": "Pusat Dagangan Dana 1",
        "Post_Office": "Petaling Jaya",
        "State": "Selangor"
    },
    {
        "Postcode": "47301",
        "Location": "Ara Damansara ",
        "Post_Office": "Petaling Jaya",
        "State": "Selangor"
    },
    {
        "Postcode": "47301",
        "Location": "Ara Idaman ",
        "Post_Office": "Petaling Jaya",
        "State": "Selangor"
    },
    {
        "Postcode": "47301",
        "Location": "Ara Jaya ",
        "Post_Office": "Petaling Jaya",
        "State": "Selangor"
    },
    {
        "Postcode": "47301",
        "Location": "Damansara Idaman",
        "Post_Office": "Petaling Jaya",
        "State": "Selangor"
    },
    {
        "Postcode": "47301",
        "Location": "Damansara Lagenda ",
        "Post_Office": "Petaling Jaya",
        "State": "Selangor"
    },
    {
        "Postcode": "47301",
        "Location": "Jalan Batu 10 Lebuhraya Persekutuan",
        "Post_Office": "Petaling Jaya",
        "State": "Selangor"
    },
    {
        "Postcode": "47301",
        "Location": "Jalan Majlis",
        "Post_Office": "Petaling Jaya",
        "State": "Selangor"
    },
    {
        "Postcode": "47301",
        "Location": "Jalan Pju 1A/1",
        "Post_Office": "Petaling Jaya",
        "State": "Selangor"
    },
    {
        "Postcode": "47301",
        "Location": "Jalan Pju 1A/2",
        "Post_Office": "Petaling Jaya",
        "State": "Selangor"
    },
    {
        "Postcode": "47301",
        "Location": "Jalan Pju 1A/3",
        "Post_Office": "Petaling Jaya",
        "State": "Selangor"
    },
    {
        "Postcode": "47301",
        "Location": "Jalan Pju 1A/41B",
        "Post_Office": "Petaling Jaya",
        "State": "Selangor"
    },
    {
        "Postcode": "47301",
        "Location": "Jalan Pju 1A/7A",
        "Post_Office": "Petaling Jaya",
        "State": "Selangor"
    },
    {
        "Postcode": "47301",
        "Location": "Jalan Raya Empat",
        "Post_Office": "Petaling Jaya",
        "State": "Selangor"
    },
    {
        "Postcode": "47301",
        "Location": "Jalan Ss 6/12",
        "Post_Office": "Petaling Jaya",
        "State": "Selangor"
    },
    {
        "Postcode": "47301",
        "Location": "Jalan Ss 7/13A",
        "Post_Office": "Petaling Jaya",
        "State": "Selangor"
    },
    {
        "Postcode": "47301",
        "Location": "Jalan Ss 7/19",
        "Post_Office": "Petaling Jaya",
        "State": "Selangor"
    },
    {
        "Postcode": "47301",
        "Location": "Kampung Cempaka",
        "Post_Office": "Petaling Jaya",
        "State": "Selangor"
    },
    {
        "Postcode": "47301",
        "Location": "Kampung Tunku - Peti Surat  6500 - 6580",
        "Post_Office": "Petaling Jaya",
        "State": "Selangor"
    },
    {
        "Postcode": "47301",
        "Location": "Kelab Golf Negara Subang",
        "Post_Office": "Petaling Jaya",
        "State": "Selangor"
    },
    {
        "Postcode": "47301",
        "Location": "Kelana Jaya",
        "Post_Office": "Petaling Jaya",
        "State": "Selangor"
    },
    {
        "Postcode": "47301",
        "Location": "Lebuhraya Persekutuan (Batu 10)",
        "Post_Office": "Petaling Jaya",
        "State": "Selangor"
    },
    {
        "Postcode": "47301",
        "Location": "Padang Golf",
        "Post_Office": "Petaling Jaya",
        "State": "Selangor"
    },
    {
        "Postcode": "47301",
        "Location": "People'S Park",
        "Post_Office": "Petaling Jaya",
        "State": "Selangor"
    },
    {
        "Postcode": "47301",
        "Location": "Plaza Glomac",
        "Post_Office": "Petaling Jaya",
        "State": "Selangor"
    },
    {
        "Postcode": "47301",
        "Location": "Sea Park Tambahan",
        "Post_Office": "Petaling Jaya",
        "State": "Selangor"
    },
    {
        "Postcode": "47301",
        "Location": "Taipan Damansara 2",
        "Post_Office": "Petaling Jaya",
        "State": "Selangor"
    },
    {
        "Postcode": "47301",
        "Location": "Taman Cempaka Baru",
        "Post_Office": "Petaling Jaya",
        "State": "Selangor"
    },
    {
        "Postcode": "47301",
        "Location": "Taman Kelana Indah",
        "Post_Office": "Petaling Jaya",
        "State": "Selangor"
    },
    {
        "Postcode": "47301",
        "Location": "Taman Kelana Jaya",
        "Post_Office": "Petaling Jaya",
        "State": "Selangor"
    },
    {
        "Postcode": "47301",
        "Location": "Taman Mega Mas",
        "Post_Office": "Petaling Jaya",
        "State": "Selangor"
    },
    {
        "Postcode": "47301",
        "Location": "Taman Rasa Sayang",
        "Post_Office": "Petaling Jaya",
        "State": "Selangor"
    },
    {
        "Postcode": "47301",
        "Location": "Kelana Damansara Suite",
        "Post_Office": "Petaling Jaya",
        "State": "Selangor"
    },
    {
        "Postcode": "47301",
        "Location": "Kompleks 8 Suria",
        "Post_Office": "Petaling Jaya",
        "State": "Selangor"
    },
    {
        "Postcode": "47301",
        "Location": "Pacific Palace",
        "Post_Office": "Petaling Jaya",
        "State": "Selangor"
    },
    {
        "Postcode": "47301",
        "Location": "Jalan Ss 6/3",
        "Post_Office": "Petaling Jaya",
        "State": "Selangor"
    },
    {
        "Postcode": "47301",
        "Location": "Jalan Ss 6/3A",
        "Post_Office": "Petaling Jaya",
        "State": "Selangor"
    },
    {
        "Postcode": "47301",
        "Location": "Taman Bukit Mayang Emas",
        "Post_Office": "Petaling Jaya",
        "State": "Selangor"
    },
    {
        "Postcode": "47301",
        "Location": "Jalan Pju 1A/4F",
        "Post_Office": "Petaling Jaya",
        "State": "Selangor"
    },
    {
        "Postcode": "47301",
        "Location": "Jalan Pju 1A/44",
        "Post_Office": "Petaling Jaya",
        "State": "Selangor"
    },
    {
        "Postcode": "47301",
        "Location": "Jalan Bahagia",
        "Post_Office": "Petaling Jaya",
        "State": "Selangor"
    },
    {
        "Postcode": "47301",
        "Location": "Corporate Tower",
        "Post_Office": "Petaling Jaya",
        "State": "Selangor"
    },
    {
        "Postcode": "47301",
        "Location": "Jalan Ss 7/26",
        "Post_Office": "Petaling Jaya",
        "State": "Selangor"
    },
    {
        "Postcode": "47301",
        "Location": "Jalan Ss 7/26A",
        "Post_Office": "Petaling Jaya",
        "State": "Selangor"
    },
    {
        "Postcode": "47301",
        "Location": "Aman Suria Damansara",
        "Post_Office": "Petaling Jaya",
        "State": "Selangor"
    },
    {
        "Postcode": "47301",
        "Location": "Kompleks Tiara Crest",
        "Post_Office": "Petaling Jaya",
        "State": "Selangor"
    },
    {
        "Postcode": "47301",
        "Location": "Zenith Corporate Park",
        "Post_Office": "Petaling Jaya",
        "State": "Selangor"
    },
    {
        "Postcode": "47301",
        "Location": "Jalan Ss 7/15",
        "Post_Office": "Petaling Jaya",
        "State": "Selangor"
    },
    {
        "Postcode": "47301",
        "Location": "Jalan Ss 7/17",
        "Post_Office": "Petaling Jaya",
        "State": "Selangor"
    },
    {
        "Postcode": "47301",
        "Location": "Jalan Ss 7/13B",
        "Post_Office": "Petaling Jaya",
        "State": "Selangor"
    },
    {
        "Postcode": "47301",
        "Location": "Residensi Highpark",
        "Post_Office": "Petaling Jaya",
        "State": "Selangor"
    }
]
