[
    {
        "Postcode": "47300",
        "Location": "Jalan Ss 1/1C ",
        "Post_Office": "Petaling Jaya",
        "State": "Selangor"
    },
    {
        "Postcode": "47300",
        "Location": "Jalan Ss 1/24B",
        "Post_Office": "Petaling Jaya",
        "State": "Selangor"
    },
    {
        "Postcode": "47300",
        "Location": "Jalan Ss 3/59A",
        "Post_Office": "Petaling Jaya",
        "State": "Selangor"
    },
    {
        "Postcode": "47300",
        "Location": "Jalan Ss 3/59B",
        "Post_Office": "Petaling Jaya",
        "State": "Selangor"
    },
    {
        "Postcode": "47300",
        "Location": "Jalan Ss 3/59C",
        "Post_Office": "Petaling Jaya",
        "State": "Selangor"
    },
    {
        "Postcode": "47300",
        "Location": "Jalan Ss 3/59D",
        "Post_Office": "Petaling Jaya",
        "State": "Selangor"
    },
    {
        "Postcode": "47300",
        "Location": "Jalan Ss 3/59E",
        "Post_Office": "Petaling Jaya",
        "State": "Selangor"
    },
    {
        "Postcode": "47300",
        "Location": "Seksyen  Ss 1",
        "Post_Office": "Petaling Jaya",
        "State": "Selangor"
    },
    {
        "Postcode": "47300",
        "Location": "Seksyen  Ss 10",
        "Post_Office": "Petaling Jaya",
        "State": "Selangor"
    },
    {
        "Postcode": "47300",
        "Location": "Seksyen  Ss 2",
        "Post_Office": "Petaling Jaya",
        "State": "Selangor"
    },
    {
        "Postcode": "47300",
        "Location": "Seksyen  Ss 3",
        "Post_Office": "Petaling Jaya",
        "State": "Selangor"
    },
    {
        "Postcode": "47300",
        "Location": "Seksyen  Ss 8 ",
        "Post_Office": "Petaling Jaya",
        "State": "Selangor"
    },
    {
        "Postcode": "47300",
        "Location": "Seksyen  Ss 9",
        "Post_Office": "Petaling Jaya",
        "State": "Selangor"
    },
    {
        "Postcode": "47300",
        "Location": "Seksyen  Ss 9A",
        "Post_Office": "Petaling Jaya",
        "State": "Selangor"
    },
    {
        "Postcode": "47300",
        "Location": "Kampung Tunku",
        "Post_Office": "Petaling Jaya",
        "State": "Selangor"
    },
    {
        "Postcode": "47300",
        "Location": "Kampung Sri Setia",
        "Post_Office": "Petaling Jaya",
        "State": "Selangor"
    },
    {
        "Postcode": "47300",
        "Location": "Taman Bahagia ",
        "Post_Office": "Petaling Jaya",
        "State": "Selangor"
    },
    {
        "Postcode": "47300",
        "Location": "Taman Sentosa",
        "Post_Office": "Petaling Jaya",
        "State": "Selangor"
    },
    {
        "Postcode": "47300",
        "Location": "Residensi Meridian",
        "Post_Office": "Petaling Jaya",
        "State": "Selangor"
    },
    {
        "Postcode": "47300",
        "Location": "Bandar Melati Ehsan",
        "Post_Office": "Petaling Jaya",
        "State": "Selangor"
    },
    {
        "Postcode": "47300",
        "Location": "Jalan Ss 2/72 Kelana Jaya",
        "Post_Office": "Petaling Jaya",
        "State": "Selangor"
    },
    {
        "Postcode": "47300",
        "Location": "Kampung Baru Sungai Way",
        "Post_Office": "Petaling Jaya",
        "State": "Selangor"
    },
    {
        "Postcode": "47300",
        "Location": "Kampung Damansara Dalam",
        "Post_Office": "Petaling Jaya",
        "State": "Selangor"
    },
    {
        "Postcode": "47300",
        "Location": "Kampung Seri Dagang",
        "Post_Office": "Petaling Jaya",
        "State": "Selangor"
    },
    {
        "Postcode": "47300",
        "Location": "Rumah Panjang (Seksyen Ss 10)",
        "Post_Office": "Petaling Jaya",
        "State": "Selangor"
    },
    {
        "Postcode": "47300",
        "Location": "Taman Bukit Mayang",
        "Post_Office": "Petaling Jaya",
        "State": "Selangor"
    },
    {
        "Postcode": "47300",
        "Location": "Taman Caltex",
        "Post_Office": "Petaling Jaya",
        "State": "Selangor"
    },
    {
        "Postcode": "47300",
        "Location": "Taman Sea Park",
        "Post_Office": "Petaling Jaya",
        "State": "Selangor"
    },
    {
        "Postcode": "47300",
        "Location": "Taman Subang",
        "Post_Office": "Petaling Jaya",
        "State": "Selangor"
    },
    {
        "Postcode": "47300",
        "Location": "Taman Universiti",
        "Post_Office": "Petaling Jaya",
        "State": "Selangor"
    },
    {
        "Postcode": "47300",
        "Location": "Residensi Sunway Serene",
        "Post_Office": "Petaling Jaya",
        "State": "Selangor"
    },
    {
        "Postcode": "47300",
        "Location": "Jalan Ss 8/39",
        "Post_Office": "Petaling Jaya",
        "State": "Selangor"
    },
    {
        "Postcode": "47300",
        "Location": "Bandar Ara Damansara",
        "Post_Office": "Petaling Jaya",
        "State": "Selangor"
    },
    {
        "Postcode": "47300",
        "Location": "Pusat Perdagangan Icon City",
        "Post_Office": "Petaling Jaya",
        "State": "Selangor"
    },
    {
        "Postcode": "47300",
        "Location": "Jalan Ss 8/2",
        "Post_Office": "Petaling Jaya",
        "State": "Selangor"
    }
]
