[
    {
        "Postcode": "47400",
        "Location": "Taman Sea",
        "Post_Office": "Petaling Jaya",
        "State": "Selangor"
    },
    {
        "Postcode": "47400",
        "Location": "Residensi Harmoni",
        "Post_Office": "Petaling Jaya",
        "State": "Selangor"
    },
    {
        "Postcode": "47400",
        "Location": "Taman Kayu Ara Indah",
        "Post_Office": "Petaling Jaya",
        "State": "Selangor"
    },
    {
        "Postcode": "47400",
        "Location": "Residensi Ara SimfoniL",
        "Post_Office": "Petaling Jaya",
        "State": "Selangor"
    },
    {
        "Postcode": "47400",
        "Location": "Desa Utama ",
        "Post_Office": "Petaling Jaya",
        "State": "Selangor"
    },
    {
        "Postcode": "47400",
        "Location": "Jalan Masjid 1",
        "Post_Office": "Petaling Jaya",
        "State": "Selangor"
    },
    {
        "Postcode": "47400",
        "Location": "Jalan Masjid 2",
        "Post_Office": "Petaling Jaya",
        "State": "Selangor"
    },
    {
        "Postcode": "47400",
        "Location": "Jalan Ss 20/1",
        "Post_Office": "Petaling Jaya",
        "State": "Selangor"
    },
    {
        "Postcode": "47400",
        "Location": "Jalan Ss 20/10",
        "Post_Office": "Petaling Jaya",
        "State": "Selangor"
    },
    {
        "Postcode": "47400",
        "Location": "Jalan Ss 20/11",
        "Post_Office": "Petaling Jaya",
        "State": "Selangor"
    },
    {
        "Postcode": "47400",
        "Location": "Jalan Ss 20/12",
        "Post_Office": "Petaling Jaya",
        "State": "Selangor"
    },
    {
        "Postcode": "47400",
        "Location": "Jalan Ss 20/13",
        "Post_Office": "Petaling Jaya",
        "State": "Selangor"
    },
    {
        "Postcode": "47400",
        "Location": "Jalan Ss 20/14",
        "Post_Office": "Petaling Jaya",
        "State": "Selangor"
    },
    {
        "Postcode": "47400",
        "Location": "Jalan Ss 20/15",
        "Post_Office": "Petaling Jaya",
        "State": "Selangor"
    },
    {
        "Postcode": "47400",
        "Location": "Jalan Ss 20/16",
        "Post_Office": "Petaling Jaya",
        "State": "Selangor"
    },
    {
        "Postcode": "47400",
        "Location": "Jalan Ss 20/17",
        "Post_Office": "Petaling Jaya",
        "State": "Selangor"
    },
    {
        "Postcode": "47400",
        "Location": "Jalan Ss 20/18",
        "Post_Office": "Petaling Jaya",
        "State": "Selangor"
    },
    {
        "Postcode": "47400",
        "Location": "Jalan Ss 20/19",
        "Post_Office": "Petaling Jaya",
        "State": "Selangor"
    },
    {
        "Postcode": "47400",
        "Location": "Jalan Ss 20/2",
        "Post_Office": "Petaling Jaya",
        "State": "Selangor"
    },
    {
        "Postcode": "47400",
        "Location": "Jalan Ss 20/20",
        "Post_Office": "Petaling Jaya",
        "State": "Selangor"
    },
    {
        "Postcode": "47400",
        "Location": "Jalan Ss 20/21",
        "Post_Office": "Petaling Jaya",
        "State": "Selangor"
    },
    {
        "Postcode": "47400",
        "Location": "Jalan Ss 20/22",
        "Post_Office": "Petaling Jaya",
        "State": "Selangor"
    },
    {
        "Postcode": "47400",
        "Location": "Jalan Ss 20/23",
        "Post_Office": "Petaling Jaya",
        "State": "Selangor"
    },
    {
        "Postcode": "47400",
        "Location": "Jalan Ss 20/24",
        "Post_Office": "Petaling Jaya",
        "State": "Selangor"
    },
    {
        "Postcode": "47400",
        "Location": "Jalan Ss 20/25",
        "Post_Office": "Petaling Jaya",
        "State": "Selangor"
    },
    {
        "Postcode": "47400",
        "Location": "Jalan Ss 20/26",
        "Post_Office": "Petaling Jaya",
        "State": "Selangor"
    },
    {
        "Postcode": "47400",
        "Location": "Jalan Ss 20/3",
        "Post_Office": "Petaling Jaya",
        "State": "Selangor"
    },
    {
        "Postcode": "47400",
        "Location": "Jalan Ss 20/4",
        "Post_Office": "Petaling Jaya",
        "State": "Selangor"
    },
    {
        "Postcode": "47400",
        "Location": "Jalan Ss 20/5",
        "Post_Office": "Petaling Jaya",
        "State": "Selangor"
    },
    {
        "Postcode": "47400",
        "Location": "Jalan Ss 20/6",
        "Post_Office": "Petaling Jaya",
        "State": "Selangor"
    },
    {
        "Postcode": "47400",
        "Location": "Jalan Ss 20/7",
        "Post_Office": "Petaling Jaya",
        "State": "Selangor"
    },
    {
        "Postcode": "47400",
        "Location": "Jalan Ss 20/8",
        "Post_Office": "Petaling Jaya",
        "State": "Selangor"
    },
    {
        "Postcode": "47400",
        "Location": "Jalan Ss 20/9",
        "Post_Office": "Petaling Jaya",
        "State": "Selangor"
    },
    {
        "Postcode": "47400",
        "Location": "Jalan Ss 21/1",
        "Post_Office": "Petaling Jaya",
        "State": "Selangor"
    },
    {
        "Postcode": "47400",
        "Location": "Jalan Ss 21/10",
        "Post_Office": "Petaling Jaya",
        "State": "Selangor"
    },
    {
        "Postcode": "47400",
        "Location": "Jalan Ss 21/11",
        "Post_Office": "Petaling Jaya",
        "State": "Selangor"
    },
    {
        "Postcode": "47400",
        "Location": "Jalan Ss 21/12",
        "Post_Office": "Petaling Jaya",
        "State": "Selangor"
    },
    {
        "Postcode": "47400",
        "Location": "Jalan Ss 21/13",
        "Post_Office": "Petaling Jaya",
        "State": "Selangor"
    },
    {
        "Postcode": "47400",
        "Location": "Jalan Ss 21/14",
        "Post_Office": "Petaling Jaya",
        "State": "Selangor"
    },
    {
        "Postcode": "47400",
        "Location": "Jalan Ss 21/15",
        "Post_Office": "Petaling Jaya",
        "State": "Selangor"
    },
    {
        "Postcode": "47400",
        "Location": "Jalan Ss 21/16",
        "Post_Office": "Petaling Jaya",
        "State": "Selangor"
    },
    {
        "Postcode": "47400",
        "Location": "Jalan Ss 21/17",
        "Post_Office": "Petaling Jaya",
        "State": "Selangor"
    },
    {
        "Postcode": "47400",
        "Location": "Jalan Ss 21/18",
        "Post_Office": "Petaling Jaya",
        "State": "Selangor"
    },
    {
        "Postcode": "47400",
        "Location": "Jalan Ss 21/19",
        "Post_Office": "Petaling Jaya",
        "State": "Selangor"
    },
    {
        "Postcode": "47400",
        "Location": "Jalan Ss 21/1A",
        "Post_Office": "Petaling Jaya",
        "State": "Selangor"
    },
    {
        "Postcode": "47400",
        "Location": "Jalan Ss 21/2",
        "Post_Office": "Petaling Jaya",
        "State": "Selangor"
    },
    {
        "Postcode": "47400",
        "Location": "Jalan Ss 21/20",
        "Post_Office": "Petaling Jaya",
        "State": "Selangor"
    },
    {
        "Postcode": "47400",
        "Location": "Jalan Ss 21/21",
        "Post_Office": "Petaling Jaya",
        "State": "Selangor"
    },
    {
        "Postcode": "47400",
        "Location": "Jalan Ss 21/22",
        "Post_Office": "Petaling Jaya",
        "State": "Selangor"
    },
    {
        "Postcode": "47400",
        "Location": "Jalan Ss 21/23",
        "Post_Office": "Petaling Jaya",
        "State": "Selangor"
    },
    {
        "Postcode": "47400",
        "Location": "Jalan Ss 21/24",
        "Post_Office": "Petaling Jaya",
        "State": "Selangor"
    },
    {
        "Postcode": "47400",
        "Location": "Jalan Ss 21/25",
        "Post_Office": "Petaling Jaya",
        "State": "Selangor"
    },
    {
        "Postcode": "47400",
        "Location": "Jalan Ss 21/26",
        "Post_Office": "Petaling Jaya",
        "State": "Selangor"
    },
    {
        "Postcode": "47400",
        "Location": "Jalan Ss 21/27",
        "Post_Office": "Petaling Jaya",
        "State": "Selangor"
    },
    {
        "Postcode": "47400",
        "Location": "Jalan Ss 21/28",
        "Post_Office": "Petaling Jaya",
        "State": "Selangor"
    },
    {
        "Postcode": "47400",
        "Location": "Jalan Ss 21/29",
        "Post_Office": "Petaling Jaya",
        "State": "Selangor"
    },
    {
        "Postcode": "47400",
        "Location": "Jalan Ss 21/3",
        "Post_Office": "Petaling Jaya",
        "State": "Selangor"
    },
    {
        "Postcode": "47400",
        "Location": "Jalan Ss 21/30",
        "Post_Office": "Petaling Jaya",
        "State": "Selangor"
    },
    {
        "Postcode": "47400",
        "Location": "Jalan Ss 21/31",
        "Post_Office": "Petaling Jaya",
        "State": "Selangor"
    },
    {
        "Postcode": "47400",
        "Location": "Jalan Ss 21/32",
        "Post_Office": "Petaling Jaya",
        "State": "Selangor"
    },
    {
        "Postcode": "47400",
        "Location": "Jalan Ss 21/33",
        "Post_Office": "Petaling Jaya",
        "State": "Selangor"
    },
    {
        "Postcode": "47400",
        "Location": "Jalan Ss 21/34",
        "Post_Office": "Petaling Jaya",
        "State": "Selangor"
    },
    {
        "Postcode": "47400",
        "Location": "Jalan Ss 21/35",
        "Post_Office": "Petaling Jaya",
        "State": "Selangor"
    },
    {
        "Postcode": "47400",
        "Location": "Jalan Ss 21/36",
        "Post_Office": "Petaling Jaya",
        "State": "Selangor"
    },
    {
        "Postcode": "47400",
        "Location": "Jalan Ss 21/37",
        "Post_Office": "Petaling Jaya",
        "State": "Selangor"
    },
    {
        "Postcode": "47400",
        "Location": "Jalan Ss 21/38",
        "Post_Office": "Petaling Jaya",
        "State": "Selangor"
    },
    {
        "Postcode": "47400",
        "Location": "Jalan Ss 21/4",
        "Post_Office": "Petaling Jaya",
        "State": "Selangor"
    },
    {
        "Postcode": "47400",
        "Location": "Jalan Ss 21/40",
        "Post_Office": "Petaling Jaya",
        "State": "Selangor"
    },
    {
        "Postcode": "47400",
        "Location": "Jalan Ss 21/41",
        "Post_Office": "Petaling Jaya",
        "State": "Selangor"
    },
    {
        "Postcode": "47400",
        "Location": "Jalan Ss 21/42",
        "Post_Office": "Petaling Jaya",
        "State": "Selangor"
    },
    {
        "Postcode": "47400",
        "Location": "Jalan Ss 21/43",
        "Post_Office": "Petaling Jaya",
        "State": "Selangor"
    },
    {
        "Postcode": "47400",
        "Location": "Jalan Ss 21/44",
        "Post_Office": "Petaling Jaya",
        "State": "Selangor"
    },
    {
        "Postcode": "47400",
        "Location": "Jalan Ss 21/45",
        "Post_Office": "Petaling Jaya",
        "State": "Selangor"
    },
    {
        "Postcode": "47400",
        "Location": "Jalan Ss 21/46",
        "Post_Office": "Petaling Jaya",
        "State": "Selangor"
    },
    {
        "Postcode": "47400",
        "Location": "Jalan Ss 21/47",
        "Post_Office": "Petaling Jaya",
        "State": "Selangor"
    },
    {
        "Postcode": "47400",
        "Location": "Jalan Ss 21/48",
        "Post_Office": "Petaling Jaya",
        "State": "Selangor"
    },
    {
        "Postcode": "47400",
        "Location": "Jalan Ss 21/49",
        "Post_Office": "Petaling Jaya",
        "State": "Selangor"
    },
    {
        "Postcode": "47400",
        "Location": "Jalan Ss 21/5",
        "Post_Office": "Petaling Jaya",
        "State": "Selangor"
    },
    {
        "Postcode": "47400",
        "Location": "Jalan Ss 21/50",
        "Post_Office": "Petaling Jaya",
        "State": "Selangor"
    },
    {
        "Postcode": "47400",
        "Location": "Jalan Ss 21/52",
        "Post_Office": "Petaling Jaya",
        "State": "Selangor"
    },
    {
        "Postcode": "47400",
        "Location": "Jalan Ss 21/54",
        "Post_Office": "Petaling Jaya",
        "State": "Selangor"
    },
    {
        "Postcode": "47400",
        "Location": "Jalan Ss 21/56",
        "Post_Office": "Petaling Jaya",
        "State": "Selangor"
    },
    {
        "Postcode": "47400",
        "Location": "Jalan Ss 21/56B",
        "Post_Office": "Petaling Jaya",
        "State": "Selangor"
    },
    {
        "Postcode": "47400",
        "Location": "Jalan Ss 21/58",
        "Post_Office": "Petaling Jaya",
        "State": "Selangor"
    },
    {
        "Postcode": "47400",
        "Location": "Jalan Ss 21/6",
        "Post_Office": "Petaling Jaya",
        "State": "Selangor"
    },
    {
        "Postcode": "47400",
        "Location": "Jalan Ss 21/60",
        "Post_Office": "Petaling Jaya",
        "State": "Selangor"
    },
    {
        "Postcode": "47400",
        "Location": "Jalan Ss 21/62",
        "Post_Office": "Petaling Jaya",
        "State": "Selangor"
    },
    {
        "Postcode": "47400",
        "Location": "Jalan Ss 21/7",
        "Post_Office": "Petaling Jaya",
        "State": "Selangor"
    },
    {
        "Postcode": "47400",
        "Location": "Jalan Ss 21/8",
        "Post_Office": "Petaling Jaya",
        "State": "Selangor"
    },
    {
        "Postcode": "47400",
        "Location": "Jalan Ss 21/9",
        "Post_Office": "Petaling Jaya",
        "State": "Selangor"
    },
    {
        "Postcode": "47400",
        "Location": "Jalan Ss 22/1",
        "Post_Office": "Petaling Jaya",
        "State": "Selangor"
    },
    {
        "Postcode": "47400",
        "Location": "Jalan Ss 22/10",
        "Post_Office": "Petaling Jaya",
        "State": "Selangor"
    },
    {
        "Postcode": "47400",
        "Location": "Jalan Ss 22/11",
        "Post_Office": "Petaling Jaya",
        "State": "Selangor"
    },
    {
        "Postcode": "47400",
        "Location": "Jalan Ss 22/12",
        "Post_Office": "Petaling Jaya",
        "State": "Selangor"
    },
    {
        "Postcode": "47400",
        "Location": "Jalan Ss 22/13",
        "Post_Office": "Petaling Jaya",
        "State": "Selangor"
    },
    {
        "Postcode": "47400",
        "Location": "Jalan Ss 22/14",
        "Post_Office": "Petaling Jaya",
        "State": "Selangor"
    },
    {
        "Postcode": "47400",
        "Location": "Jalan Ss 22/15",
        "Post_Office": "Petaling Jaya",
        "State": "Selangor"
    },
    {
        "Postcode": "47400",
        "Location": "Jalan Ss 22/16",
        "Post_Office": "Petaling Jaya",
        "State": "Selangor"
    },
    {
        "Postcode": "47400",
        "Location": "Jalan Ss 22/17",
        "Post_Office": "Petaling Jaya",
        "State": "Selangor"
    },
    {
        "Postcode": "47400",
        "Location": "Jalan Ss 22/18",
        "Post_Office": "Petaling Jaya",
        "State": "Selangor"
    },
    {
        "Postcode": "47400",
        "Location": "Jalan Ss 22/19",
        "Post_Office": "Petaling Jaya",
        "State": "Selangor"
    },
    {
        "Postcode": "47400",
        "Location": "Jalan Ss 22/2",
        "Post_Office": "Petaling Jaya",
        "State": "Selangor"
    },
    {
        "Postcode": "47400",
        "Location": "Jalan Ss 22/20",
        "Post_Office": "Petaling Jaya",
        "State": "Selangor"
    },
    {
        "Postcode": "47400",
        "Location": "Jalan Ss 22/20A",
        "Post_Office": "Petaling Jaya",
        "State": "Selangor"
    },
    {
        "Postcode": "47400",
        "Location": "Jalan Ss 22/21",
        "Post_Office": "Petaling Jaya",
        "State": "Selangor"
    },
    {
        "Postcode": "47400",
        "Location": "Jalan Ss 22/22",
        "Post_Office": "Petaling Jaya",
        "State": "Selangor"
    },
    {
        "Postcode": "47400",
        "Location": "Jalan Ss 22/23",
        "Post_Office": "Petaling Jaya",
        "State": "Selangor"
    },
    {
        "Postcode": "47400",
        "Location": "Jalan Ss 22/24",
        "Post_Office": "Petaling Jaya",
        "State": "Selangor"
    },
    {
        "Postcode": "47400",
        "Location": "Jalan Ss 22/25",
        "Post_Office": "Petaling Jaya",
        "State": "Selangor"
    },
    {
        "Postcode": "47400",
        "Location": "Jalan Ss 22/26",
        "Post_Office": "Petaling Jaya",
        "State": "Selangor"
    },
    {
        "Postcode": "47400",
        "Location": "Jalan Ss 22/27",
        "Post_Office": "Petaling Jaya",
        "State": "Selangor"
    },
    {
        "Postcode": "47400",
        "Location": "Jalan Ss 22/28",
        "Post_Office": "Petaling Jaya",
        "State": "Selangor"
    },
    {
        "Postcode": "47400",
        "Location": "Jalan Ss 22/29",
        "Post_Office": "Petaling Jaya",
        "State": "Selangor"
    },
    {
        "Postcode": "47400",
        "Location": "Jalan Ss 22/3",
        "Post_Office": "Petaling Jaya",
        "State": "Selangor"
    },
    {
        "Postcode": "47400",
        "Location": "Jalan Ss 22/30",
        "Post_Office": "Petaling Jaya",
        "State": "Selangor"
    },
    {
        "Postcode": "47400",
        "Location": "Jalan Ss 22/31",
        "Post_Office": "Petaling Jaya",
        "State": "Selangor"
    },
    {
        "Postcode": "47400",
        "Location": "Jalan Ss 22/32",
        "Post_Office": "Petaling Jaya",
        "State": "Selangor"
    },
    {
        "Postcode": "47400",
        "Location": "Jalan Ss 22/33",
        "Post_Office": "Petaling Jaya",
        "State": "Selangor"
    },
    {
        "Postcode": "47400",
        "Location": "Jalan Ss 22/34",
        "Post_Office": "Petaling Jaya",
        "State": "Selangor"
    },
    {
        "Postcode": "47400",
        "Location": "Jalan Ss 22/35",
        "Post_Office": "Petaling Jaya",
        "State": "Selangor"
    },
    {
        "Postcode": "47400",
        "Location": "Jalan Ss 22/36",
        "Post_Office": "Petaling Jaya",
        "State": "Selangor"
    },
    {
        "Postcode": "47400",
        "Location": "Jalan Ss 22/37",
        "Post_Office": "Petaling Jaya",
        "State": "Selangor"
    },
    {
        "Postcode": "47400",
        "Location": "Jalan Ss 22/38",
        "Post_Office": "Petaling Jaya",
        "State": "Selangor"
    },
    {
        "Postcode": "47400",
        "Location": "Jalan Ss 22/39",
        "Post_Office": "Petaling Jaya",
        "State": "Selangor"
    },
    {
        "Postcode": "47400",
        "Location": "Jalan Ss 22/39B",
        "Post_Office": "Petaling Jaya",
        "State": "Selangor"
    },
    {
        "Postcode": "47400",
        "Location": "Jalan Ss 22/4",
        "Post_Office": "Petaling Jaya",
        "State": "Selangor"
    },
    {
        "Postcode": "47400",
        "Location": "Jalan Ss 22/40",
        "Post_Office": "Petaling Jaya",
        "State": "Selangor"
    },
    {
        "Postcode": "47400",
        "Location": "Jalan Ss 22/41",
        "Post_Office": "Petaling Jaya",
        "State": "Selangor"
    },
    {
        "Postcode": "47400",
        "Location": "Jalan Ss 22/42",
        "Post_Office": "Petaling Jaya",
        "State": "Selangor"
    },
    {
        "Postcode": "47400",
        "Location": "Jalan Ss 22/43",
        "Post_Office": "Petaling Jaya",
        "State": "Selangor"
    },
    {
        "Postcode": "47400",
        "Location": "Jalan Ss 22/44",
        "Post_Office": "Petaling Jaya",
        "State": "Selangor"
    },
    {
        "Postcode": "47400",
        "Location": "Jalan Ss 22/45",
        "Post_Office": "Petaling Jaya",
        "State": "Selangor"
    },
    {
        "Postcode": "47400",
        "Location": "Jalan Ss 22/46",
        "Post_Office": "Petaling Jaya",
        "State": "Selangor"
    },
    {
        "Postcode": "47400",
        "Location": "Jalan Ss 22/48",
        "Post_Office": "Petaling Jaya",
        "State": "Selangor"
    },
    {
        "Postcode": "47400",
        "Location": "Jalan Ss 22/5",
        "Post_Office": "Petaling Jaya",
        "State": "Selangor"
    },
    {
        "Postcode": "47400",
        "Location": "Jalan Ss 22/6",
        "Post_Office": "Petaling Jaya",
        "State": "Selangor"
    },
    {
        "Postcode": "47400",
        "Location": "Jalan Ss 22/7",
        "Post_Office": "Petaling Jaya",
        "State": "Selangor"
    },
    {
        "Postcode": "47400",
        "Location": "Jalan Ss 22/8",
        "Post_Office": "Petaling Jaya",
        "State": "Selangor"
    },
    {
        "Postcode": "47400",
        "Location": "Jalan Ss 22/9",
        "Post_Office": "Petaling Jaya",
        "State": "Selangor"
    },
    {
        "Postcode": "47400",
        "Location": "Jalan Ss 22A/1",
        "Post_Office": "Petaling Jaya",
        "State": "Selangor"
    },
    {
        "Postcode": "47400",
        "Location": "Jalan Ss 22A/2",
        "Post_Office": "Petaling Jaya",
        "State": "Selangor"
    },
    {
        "Postcode": "47400",
        "Location": "Jalan Ss 22A/3",
        "Post_Office": "Petaling Jaya",
        "State": "Selangor"
    },
    {
        "Postcode": "47400",
        "Location": "Jalan Ss 22A/4",
        "Post_Office": "Petaling Jaya",
        "State": "Selangor"
    },
    {
        "Postcode": "47400",
        "Location": "Jalan Ss 22A/5",
        "Post_Office": "Petaling Jaya",
        "State": "Selangor"
    },
    {
        "Postcode": "47400",
        "Location": "Jalan Ss 22A/6",
        "Post_Office": "Petaling Jaya",
        "State": "Selangor"
    },
    {
        "Postcode": "47400",
        "Location": "Jalan Ss 22A/7",
        "Post_Office": "Petaling Jaya",
        "State": "Selangor"
    },
    {
        "Postcode": "47400",
        "Location": "Jalan Ss 22A/8",
        "Post_Office": "Petaling Jaya",
        "State": "Selangor"
    },
    {
        "Postcode": "47400",
        "Location": "Jalan Ss 23/1",
        "Post_Office": "Petaling Jaya",
        "State": "Selangor"
    },
    {
        "Postcode": "47400",
        "Location": "Jalan Ss 23/10",
        "Post_Office": "Petaling Jaya",
        "State": "Selangor"
    },
    {
        "Postcode": "47400",
        "Location": "Jalan Ss 23/11",
        "Post_Office": "Petaling Jaya",
        "State": "Selangor"
    },
    {
        "Postcode": "47400",
        "Location": "Jalan Ss 23/12",
        "Post_Office": "Petaling Jaya",
        "State": "Selangor"
    },
    {
        "Postcode": "47400",
        "Location": "Jalan Ss 23/13",
        "Post_Office": "Petaling Jaya",
        "State": "Selangor"
    },
    {
        "Postcode": "47400",
        "Location": "Jalan Ss 23/14",
        "Post_Office": "Petaling Jaya",
        "State": "Selangor"
    },
    {
        "Postcode": "47400",
        "Location": "Jalan Ss 23/15",
        "Post_Office": "Petaling Jaya",
        "State": "Selangor"
    },
    {
        "Postcode": "47400",
        "Location": "Jalan Ss 23/16",
        "Post_Office": "Petaling Jaya",
        "State": "Selangor"
    },
    {
        "Postcode": "47400",
        "Location": "Jalan Ss 23/17",
        "Post_Office": "Petaling Jaya",
        "State": "Selangor"
    },
    {
        "Postcode": "47400",
        "Location": "Jalan Ss 23/18",
        "Post_Office": "Petaling Jaya",
        "State": "Selangor"
    },
    {
        "Postcode": "47400",
        "Location": "Jalan Ss 23/19",
        "Post_Office": "Petaling Jaya",
        "State": "Selangor"
    },
    {
        "Postcode": "47400",
        "Location": "Jalan Ss 23/19D",
        "Post_Office": "Petaling Jaya",
        "State": "Selangor"
    },
    {
        "Postcode": "47400",
        "Location": "Jalan Ss 23/2",
        "Post_Office": "Petaling Jaya",
        "State": "Selangor"
    },
    {
        "Postcode": "47400",
        "Location": "Jalan Ss 23/20",
        "Post_Office": "Petaling Jaya",
        "State": "Selangor"
    },
    {
        "Postcode": "47400",
        "Location": "Jalan Ss 23/21",
        "Post_Office": "Petaling Jaya",
        "State": "Selangor"
    },
    {
        "Postcode": "47400",
        "Location": "Jalan Ss 23/22",
        "Post_Office": "Petaling Jaya",
        "State": "Selangor"
    },
    {
        "Postcode": "47400",
        "Location": "Jalan Ss 23/23",
        "Post_Office": "Petaling Jaya",
        "State": "Selangor"
    },
    {
        "Postcode": "47400",
        "Location": "Jalan Ss 23/24",
        "Post_Office": "Petaling Jaya",
        "State": "Selangor"
    },
    {
        "Postcode": "47400",
        "Location": "Jalan Ss 23/25",
        "Post_Office": "Petaling Jaya",
        "State": "Selangor"
    },
    {
        "Postcode": "47400",
        "Location": "Jalan Ss 23/26",
        "Post_Office": "Petaling Jaya",
        "State": "Selangor"
    },
    {
        "Postcode": "47400",
        "Location": "Jalan Ss 23/27",
        "Post_Office": "Petaling Jaya",
        "State": "Selangor"
    },
    {
        "Postcode": "47400",
        "Location": "Jalan Ss 23/28",
        "Post_Office": "Petaling Jaya",
        "State": "Selangor"
    },
    {
        "Postcode": "47400",
        "Location": "Jalan Ss 23/29",
        "Post_Office": "Petaling Jaya",
        "State": "Selangor"
    },
    {
        "Postcode": "47400",
        "Location": "Jalan Ss 23/3",
        "Post_Office": "Petaling Jaya",
        "State": "Selangor"
    },
    {
        "Postcode": "47400",
        "Location": "Jalan Ss 23/30",
        "Post_Office": "Petaling Jaya",
        "State": "Selangor"
    },
    {
        "Postcode": "47400",
        "Location": "Jalan Ss 23/31",
        "Post_Office": "Petaling Jaya",
        "State": "Selangor"
    },
    {
        "Postcode": "47400",
        "Location": "Jalan Ss 23/32",
        "Post_Office": "Petaling Jaya",
        "State": "Selangor"
    },
    {
        "Postcode": "47400",
        "Location": "Jalan Ss 23/33",
        "Post_Office": "Petaling Jaya",
        "State": "Selangor"
    },
    {
        "Postcode": "47400",
        "Location": "Jalan Ss 23/34",
        "Post_Office": "Petaling Jaya",
        "State": "Selangor"
    },
    {
        "Postcode": "47400",
        "Location": "Jalan Ss 23/35",
        "Post_Office": "Petaling Jaya",
        "State": "Selangor"
    },
    {
        "Postcode": "47400",
        "Location": "Jalan Ss 23/36",
        "Post_Office": "Petaling Jaya",
        "State": "Selangor"
    },
    {
        "Postcode": "47400",
        "Location": "Jalan Ss 23/37",
        "Post_Office": "Petaling Jaya",
        "State": "Selangor"
    },
    {
        "Postcode": "47400",
        "Location": "Jalan Ss 23/38",
        "Post_Office": "Petaling Jaya",
        "State": "Selangor"
    },
    {
        "Postcode": "47400",
        "Location": "Jalan Ss 23/39",
        "Post_Office": "Petaling Jaya",
        "State": "Selangor"
    },
    {
        "Postcode": "47400",
        "Location": "Jalan Ss 23/4",
        "Post_Office": "Petaling Jaya",
        "State": "Selangor"
    },
    {
        "Postcode": "47400",
        "Location": "Jalan Ss 23/5",
        "Post_Office": "Petaling Jaya",
        "State": "Selangor"
    },
    {
        "Postcode": "47400",
        "Location": "Jalan Ss 23/6",
        "Post_Office": "Petaling Jaya",
        "State": "Selangor"
    },
    {
        "Postcode": "47400",
        "Location": "Jalan Ss 23/6A",
        "Post_Office": "Petaling Jaya",
        "State": "Selangor"
    },
    {
        "Postcode": "47400",
        "Location": "Jalan Ss 23/7",
        "Post_Office": "Petaling Jaya",
        "State": "Selangor"
    },
    {
        "Postcode": "47400",
        "Location": "Jalan Ss 23/8",
        "Post_Office": "Petaling Jaya",
        "State": "Selangor"
    },
    {
        "Postcode": "47400",
        "Location": "Jalan Ss 23/9",
        "Post_Office": "Petaling Jaya",
        "State": "Selangor"
    },
    {
        "Postcode": "47400",
        "Location": "Seksyen  Ss 20",
        "Post_Office": "Petaling Jaya",
        "State": "Selangor"
    },
    {
        "Postcode": "47400",
        "Location": "Seksyen  Ss 21",
        "Post_Office": "Petaling Jaya",
        "State": "Selangor"
    },
    {
        "Postcode": "47400",
        "Location": "Seksyen  Ss 22",
        "Post_Office": "Petaling Jaya",
        "State": "Selangor"
    },
    {
        "Postcode": "47400",
        "Location": "Seksyen  Ss 22A",
        "Post_Office": "Petaling Jaya",
        "State": "Selangor"
    },
    {
        "Postcode": "47400",
        "Location": "Seksyen  Ss 23",
        "Post_Office": "Petaling Jaya",
        "State": "Selangor"
    },
    {
        "Postcode": "47400",
        "Location": "Lorong Jenjarum",
        "Post_Office": "Petaling Jaya",
        "State": "Selangor"
    },
    {
        "Postcode": "47400",
        "Location": "Lorong Ss 23/6G",
        "Post_Office": "Petaling Jaya",
        "State": "Selangor"
    },
    {
        "Postcode": "47400",
        "Location": "Maki Residency",
        "Post_Office": "Petaling Jaya",
        "State": "Selangor"
    },
    {
        "Postcode": "47400",
        "Location": "Lorong Melati 1 (Pju 6A)",
        "Post_Office": "Petaling Jaya",
        "State": "Selangor"
    },
    {
        "Postcode": "47400",
        "Location": "6A Bangunan 3M",
        "Post_Office": "Petaling Jaya",
        "State": "Selangor"
    },
    {
        "Postcode": "47400",
        "Location": "Damansara Jaya",
        "Post_Office": "Petaling Jaya",
        "State": "Selangor"
    },
    {
        "Postcode": "47400",
        "Location": "Damansara Kim",
        "Post_Office": "Petaling Jaya",
        "State": "Selangor"
    },
    {
        "Postcode": "47400",
        "Location": "Damansara Residensi",
        "Post_Office": "Petaling Jaya",
        "State": "Selangor"
    },
    {
        "Postcode": "47400",
        "Location": "Jalan Anggerik",
        "Post_Office": "Petaling Jaya",
        "State": "Selangor"
    },
    {
        "Postcode": "47400",
        "Location": "Jalan Cempaka",
        "Post_Office": "Petaling Jaya",
        "State": "Selangor"
    },
    {
        "Postcode": "47400",
        "Location": "Jalan Jenjarum",
        "Post_Office": "Petaling Jaya",
        "State": "Selangor"
    },
    {
        "Postcode": "47400",
        "Location": "Jalan Kenanga",
        "Post_Office": "Petaling Jaya",
        "State": "Selangor"
    },
    {
        "Postcode": "47400",
        "Location": "Jalan Melur",
        "Post_Office": "Petaling Jaya",
        "State": "Selangor"
    },
    {
        "Postcode": "47400",
        "Location": "Jalan Seroja",
        "Post_Office": "Petaling Jaya",
        "State": "Selangor"
    },
    {
        "Postcode": "47400",
        "Location": "Jalan Ss 20/27",
        "Post_Office": "Petaling Jaya",
        "State": "Selangor"
    },
    {
        "Postcode": "47400",
        "Location": "Jalan Tanjung",
        "Post_Office": "Petaling Jaya",
        "State": "Selangor"
    },
    {
        "Postcode": "47400",
        "Location": "Kampung Kayu Ara",
        "Post_Office": "Petaling Jaya",
        "State": "Selangor"
    },
    {
        "Postcode": "47400",
        "Location": "Kampung Sungai Kayu Ara",
        "Post_Office": "Petaling Jaya",
        "State": "Selangor"
    },
    {
        "Postcode": "47400",
        "Location": "Kampung Sungai Rumput",
        "Post_Office": "Petaling Jaya",
        "State": "Selangor"
    },
    {
        "Postcode": "47400",
        "Location": "Kayu Ara Bussiness Park",
        "Post_Office": "Petaling Jaya",
        "State": "Selangor"
    },
    {
        "Postcode": "47400",
        "Location": "Lorong Lebuh Bandar Utama ",
        "Post_Office": "Petaling Jaya",
        "State": "Selangor"
    },
    {
        "Postcode": "47400",
        "Location": "Pelangi Utama ",
        "Post_Office": "Petaling Jaya",
        "State": "Selangor"
    },
    {
        "Postcode": "47400",
        "Location": "Lorong Ss 22/32A",
        "Post_Office": "Petaling Jaya",
        "State": "Selangor"
    },
    {
        "Postcode": "47400",
        "Location": "Jalan Mawar ",
        "Post_Office": "Petaling Jaya",
        "State": "Selangor"
    },
    {
        "Postcode": "47400",
        "Location": "Jalan Teratai",
        "Post_Office": "Petaling Jaya",
        "State": "Selangor"
    },
    {
        "Postcode": "47400",
        "Location": "Damansara Intan",
        "Post_Office": "Petaling Jaya",
        "State": "Selangor"
    },
    {
        "Postcode": "47400",
        "Location": "Jalan Kekwa",
        "Post_Office": "Petaling Jaya",
        "State": "Selangor"
    },
    {
        "Postcode": "47400",
        "Location": "Damansara Utama",
        "Post_Office": "Petaling Jaya",
        "State": "Selangor"
    },
    {
        "Postcode": "47400",
        "Location": "Taman East Utama",
        "Post_Office": "Petaling Jaya",
        "State": "Selangor"
    },
    {
        "Postcode": "47400",
        "Location": "Jalan Masjid",
        "Post_Office": "Petaling Jaya",
        "State": "Selangor"
    },
    {
        "Postcode": "47400",
        "Location": "Cora Plus Townhouse",
        "Post_Office": "Petaling Jaya",
        "State": "Selangor"
    },
    {
        "Postcode": "47400",
        "Location": "Jalam Melati",
        "Post_Office": "Petaling Jaya",
        "State": "Selangor"
    }
]
