[
    {
        "Postcode": "47410",
        "Location": "Bangunan Lian Hoe",
        "Post_Office": "Petaling Jaya",
        "State": "Selangor"
    },
    {
        "Postcode": "47410",
        "Location": "Bangunan Luxor",
        "Post_Office": "Petaling Jaya",
        "State": "Selangor"
    },
    {
        "Postcode": "47410",
        "Location": "Bangunan Three Fair Way",
        "Post_Office": "Petaling Jaya",
        "State": "Selangor"
    },
    {
        "Postcode": "47410",
        "Location": "Bayu Puteri (Blok A,B,C)",
        "Post_Office": "Petaling Jaya",
        "State": "Selangor"
    },
    {
        "Postcode": "47410",
        "Location": "Damansara Indah Resort Homes",
        "Post_Office": "Petaling Jaya",
        "State": "Selangor"
    },
    {
        "Postcode": "47410",
        "Location": "Flat Permai (Blok D \u0026 E)",
        "Post_Office": "Petaling Jaya",
        "State": "Selangor"
    },
    {
        "Postcode": "47410",
        "Location": "Jalan Tr 1/1",
        "Post_Office": "Petaling Jaya",
        "State": "Selangor"
    },
    {
        "Postcode": "47410",
        "Location": "Jalan Tr 1/2 ",
        "Post_Office": "Petaling Jaya",
        "State": "Selangor"
    },
    {
        "Postcode": "47410",
        "Location": "Jalan Tr 3/1",
        "Post_Office": "Petaling Jaya",
        "State": "Selangor"
    },
    {
        "Postcode": "47410",
        "Location": "Jalan Tr 4/1",
        "Post_Office": "Petaling Jaya",
        "State": "Selangor"
    },
    {
        "Postcode": "47410",
        "Location": "Jalan Tr 5/1",
        "Post_Office": "Petaling Jaya",
        "State": "Selangor"
    },
    {
        "Postcode": "47410",
        "Location": "Jalan Tr 5/2",
        "Post_Office": "Petaling Jaya",
        "State": "Selangor"
    },
    {
        "Postcode": "47410",
        "Location": "Jalan Tr 6/1",
        "Post_Office": "Petaling Jaya",
        "State": "Selangor"
    },
    {
        "Postcode": "47410",
        "Location": "Jalan Tr 6/2",
        "Post_Office": "Petaling Jaya",
        "State": "Selangor"
    },
    {
        "Postcode": "47410",
        "Location": "Jalan Tr 6/3 ",
        "Post_Office": "Petaling Jaya",
        "State": "Selangor"
    },
    {
        "Postcode": "47410",
        "Location": "Jalan Tr 7/1",
        "Post_Office": "Petaling Jaya",
        "State": "Selangor"
    },
    {
        "Postcode": "47410",
        "Location": "Jalan Tr 7/2",
        "Post_Office": "Petaling Jaya",
        "State": "Selangor"
    },
    {
        "Postcode": "47410",
        "Location": "Jalan Tr 7/3",
        "Post_Office": "Petaling Jaya",
        "State": "Selangor"
    },
    {
        "Postcode": "47410",
        "Location": "Jalan Tr 8/1",
        "Post_Office": "Petaling Jaya",
        "State": "Selangor"
    },
    {
        "Postcode": "47410",
        "Location": "Jalan Tr 8/2",
        "Post_Office": "Petaling Jaya",
        "State": "Selangor"
    },
    {
        "Postcode": "47410",
        "Location": "Jalan Tr 8/3",
        "Post_Office": "Petaling Jaya",
        "State": "Selangor"
    },
    {
        "Postcode": "47410",
        "Location": "Jalan Tr 9/1",
        "Post_Office": "Petaling Jaya",
        "State": "Selangor"
    },
    {
        "Postcode": "47410",
        "Location": "Jalan Tr 9/2",
        "Post_Office": "Petaling Jaya",
        "State": "Selangor"
    },
    {
        "Postcode": "47410",
        "Location": "Jalan Tr 9/3",
        "Post_Office": "Petaling Jaya",
        "State": "Selangor"
    },
    {
        "Postcode": "47410",
        "Location": "Jalan Tr 9/4",
        "Post_Office": "Petaling Jaya",
        "State": "Selangor"
    },
    {
        "Postcode": "47410",
        "Location": "Jalan Tr 9/5",
        "Post_Office": "Petaling Jaya",
        "State": "Selangor"
    },
    {
        "Postcode": "47410",
        "Location": "Jalan Tr 9/6",
        "Post_Office": "Petaling Jaya",
        "State": "Selangor"
    },
    {
        "Postcode": "47410",
        "Location": "Jalan Tropicana",
        "Post_Office": "Petaling Jaya",
        "State": "Selangor"
    },
    {
        "Postcode": "47410",
        "Location": "Jalan Tropicana Selatan",
        "Post_Office": "Petaling Jaya",
        "State": "Selangor"
    },
    {
        "Postcode": "47410",
        "Location": "Jalan Tropicana Utama",
        "Post_Office": "Petaling Jaya",
        "State": "Selangor"
    },
    {
        "Postcode": "47410",
        "Location": "Jalan Tropicana Utara",
        "Post_Office": "Petaling Jaya",
        "State": "Selangor"
    },
    {
        "Postcode": "47410",
        "Location": "Persiaran Tropicana",
        "Post_Office": "Petaling Jaya",
        "State": "Selangor"
    },
    {
        "Postcode": "47410",
        "Location": "Riana Green Condo (Blok E Hingga M)",
        "Post_Office": "Petaling Jaya",
        "State": "Selangor"
    },
    {
        "Postcode": "47410",
        "Location": "Riana Green Condo (Blok Hr1,Lr \u0026 Mr1)",
        "Post_Office": "Petaling Jaya",
        "State": "Selangor"
    },
    {
        "Postcode": "47410",
        "Location": "Tropicana Golf \u0026 Country Resort",
        "Post_Office": "Petaling Jaya",
        "State": "Selangor"
    },
    {
        "Postcode": "47410",
        "Location": "Damansara Indah",
        "Post_Office": "Petaling Jaya",
        "State": "Selangor"
    },
    {
        "Postcode": "47410",
        "Location": "Tropicana Indah",
        "Post_Office": "Petaling Jaya",
        "State": "Selangor"
    },
    {
        "Postcode": "47410",
        "Location": "Tropicana Indah Resort Homes",
        "Post_Office": "Petaling Jaya",
        "State": "Selangor"
    },
    {
        "Postcode": "47410",
        "Location": "Jalan Pju 3/13",
        "Post_Office": "Petaling Jaya",
        "State": "Selangor"
    }
]
