[
    {
        "Postcode": "47500",
        "Location": "Jalan Suria Subang ",
        "Post_Office": "Subang Jaya",
        "State": "Selangor"
    },
    {
        "Postcode": "47500",
        "Location": "Subang Heights",
        "Post_Office": "Subang Jaya",
        "State": "Selangor"
    },
    {
        "Postcode": "47500",
        "Location": "Southplace Shoppes",
        "Post_Office": "Subang Jaya",
        "State": "Selangor"
    },
    {
        "Postcode": "47500",
        "Location": "Southplace Residences",
        "Post_Office": "Subang Jaya",
        "State": "Selangor"
    },
    {
        "Postcode": "47500",
        "Location": "Jalan Ss 13/3C",
        "Post_Office": "Subang Jaya",
        "State": "Selangor"
    },
    {
        "Postcode": "47500",
        "Location": "Jalan Ss 13/4C",
        "Post_Office": "Subang Jaya",
        "State": "Selangor"
    },
    {
        "Postcode": "47500",
        "Location": "Jalan Ss 13/5C",
        "Post_Office": "Subang Jaya",
        "State": "Selangor"
    },
    {
        "Postcode": "47500",
        "Location": "Jalan Ss 13/6C",
        "Post_Office": "Subang Jaya",
        "State": "Selangor"
    },
    {
        "Postcode": "47500",
        "Location": "Jalan Tasik Timur 1",
        "Post_Office": "Subang Jaya",
        "State": "Selangor"
    },
    {
        "Postcode": "47500",
        "Location": "Jalan Tasik Timur 2",
        "Post_Office": "Subang Jaya",
        "State": "Selangor"
    },
    {
        "Postcode": "47500",
        "Location": "Jalan Ts 6/1",
        "Post_Office": "Subang Jaya",
        "State": "Selangor"
    },
    {
        "Postcode": "47500",
        "Location": "Jalan Ts 6/10",
        "Post_Office": "Subang Jaya",
        "State": "Selangor"
    },
    {
        "Postcode": "47500",
        "Location": "Jalan Ts 6/2",
        "Post_Office": "Subang Jaya",
        "State": "Selangor"
    },
    {
        "Postcode": "47500",
        "Location": "Jalan Ts 6/3",
        "Post_Office": "Subang Jaya",
        "State": "Selangor"
    },
    {
        "Postcode": "47500",
        "Location": "Jalan Ts 6/4",
        "Post_Office": "Subang Jaya",
        "State": "Selangor"
    },
    {
        "Postcode": "47500",
        "Location": "Jalan Ts 6/5",
        "Post_Office": "Subang Jaya",
        "State": "Selangor"
    },
    {
        "Postcode": "47500",
        "Location": "Jalan Ts 6/6",
        "Post_Office": "Subang Jaya",
        "State": "Selangor"
    },
    {
        "Postcode": "47500",
        "Location": "Jalan Ts 6/7",
        "Post_Office": "Subang Jaya",
        "State": "Selangor"
    },
    {
        "Postcode": "47500",
        "Location": "Jalan Ts 6/8",
        "Post_Office": "Subang Jaya",
        "State": "Selangor"
    },
    {
        "Postcode": "47500",
        "Location": "Jalan Ts 6/9",
        "Post_Office": "Subang Jaya",
        "State": "Selangor"
    },
    {
        "Postcode": "47500",
        "Location": "Persiaran Subang 10",
        "Post_Office": "Subang Jaya",
        "State": "Selangor"
    },
    {
        "Postcode": "47500",
        "Location": "Persiaran Subang 11",
        "Post_Office": "Subang Jaya",
        "State": "Selangor"
    },
    {
        "Postcode": "47500",
        "Location": "Persiaran Subang 12",
        "Post_Office": "Subang Jaya",
        "State": "Selangor"
    },
    {
        "Postcode": "47500",
        "Location": "Persiaran Subang 2",
        "Post_Office": "Subang Jaya",
        "State": "Selangor"
    },
    {
        "Postcode": "47500",
        "Location": "Persiaran Subang 3",
        "Post_Office": "Subang Jaya",
        "State": "Selangor"
    },
    {
        "Postcode": "47500",
        "Location": "Persiaran Subang 4",
        "Post_Office": "Subang Jaya",
        "State": "Selangor"
    },
    {
        "Postcode": "47500",
        "Location": "Persiaran Subang 5",
        "Post_Office": "Subang Jaya",
        "State": "Selangor"
    },
    {
        "Postcode": "47500",
        "Location": "Persiaran Subang 6",
        "Post_Office": "Subang Jaya",
        "State": "Selangor"
    },
    {
        "Postcode": "47500",
        "Location": "Persiaran Subang 7",
        "Post_Office": "Subang Jaya",
        "State": "Selangor"
    },
    {
        "Postcode": "47500",
        "Location": "Persiaran Subang 8",
        "Post_Office": "Subang Jaya",
        "State": "Selangor"
    },
    {
        "Postcode": "47500",
        "Location": "Persiaran Subang 9",
        "Post_Office": "Subang Jaya",
        "State": "Selangor"
    },
    {
        "Postcode": "47500",
        "Location": "Pjs 13",
        "Post_Office": "Subang Jaya",
        "State": "Selangor"
    },
    {
        "Postcode": "47500",
        "Location": "Pjs 9",
        "Post_Office": "Subang Jaya",
        "State": "Selangor"
    },
    {
        "Postcode": "47500",
        "Location": "Seksyen  Ss 12",
        "Post_Office": "Subang Jaya",
        "State": "Selangor"
    },
    {
        "Postcode": "47500",
        "Location": "Seksyen  Ss 13",
        "Post_Office": "Subang Jaya",
        "State": "Selangor"
    },
    {
        "Postcode": "47500",
        "Location": "Seksyen  Ss 14",
        "Post_Office": "Subang Jaya",
        "State": "Selangor"
    },
    {
        "Postcode": "47500",
        "Location": "Seksyen  Ss 15",
        "Post_Office": "Subang Jaya",
        "State": "Selangor"
    },
    {
        "Postcode": "47500",
        "Location": "Seksyen  Ss 16",
        "Post_Office": "Subang Jaya",
        "State": "Selangor"
    },
    {
        "Postcode": "47500",
        "Location": "Seksyen  Ss 17",
        "Post_Office": "Subang Jaya",
        "State": "Selangor"
    },
    {
        "Postcode": "47500",
        "Location": "Seksyen  Ss 18",
        "Post_Office": "Subang Jaya",
        "State": "Selangor"
    },
    {
        "Postcode": "47500",
        "Location": "Seksyen  Ss 19",
        "Post_Office": "Subang Jaya",
        "State": "Selangor"
    },
    {
        "Postcode": "47500",
        "Location": "Bayu Tower (Saujana Residency)",
        "Post_Office": "Subang Jaya",
        "State": "Selangor"
    },
    {
        "Postcode": "47500",
        "Location": "Jalan Ss 16/1",
        "Post_Office": "Subang Jaya",
        "State": "Selangor"
    },
    {
        "Postcode": "47500",
        "Location": "Suria Tower (Saujana Residency)",
        "Post_Office": "Subang Jaya",
        "State": "Selangor"
    },
    {
        "Postcode": "47500",
        "Location": "Empire Subang",
        "Post_Office": "Subang Jaya",
        "State": "Selangor"
    },
    {
        "Postcode": "47500",
        "Location": "Jalan Taylor'S",
        "Post_Office": "Subang Jaya",
        "State": "Selangor"
    },
    {
        "Postcode": "47500",
        "Location": "Persiaran Tasik Selatan",
        "Post_Office": "Subang Jaya",
        "State": "Selangor"
    },
    {
        "Postcode": "47500",
        "Location": "Persiaran Tasik Timur",
        "Post_Office": "Subang Jaya",
        "State": "Selangor"
    },
    {
        "Postcode": "47500",
        "Location": "Persiaran Tasik Utara",
        "Post_Office": "Subang Jaya",
        "State": "Selangor"
    },
    {
        "Postcode": "47500",
        "Location": "Taman Sunway South Quay",
        "Post_Office": "Subang Jaya",
        "State": "Selangor"
    },
    {
        "Postcode": "47500",
        "Location": "Taylor'S Lakeside Campus, Subang Jaya",
        "Post_Office": "Subang Jaya",
        "State": "Selangor"
    },
    {
        "Postcode": "47500",
        "Location": "Kondominium Lisola, Jalan Ss 16/1",
        "Post_Office": "Subang Jaya",
        "State": "Selangor"
    },
    {
        "Postcode": "47500",
        "Location": "Jalan Jengka",
        "Post_Office": "Subang Jaya",
        "State": "Selangor"
    },
    {
        "Postcode": "47500",
        "Location": "Jalan Kemajuan Subang",
        "Post_Office": "Subang Jaya",
        "State": "Selangor"
    },
    {
        "Postcode": "47500",
        "Location": "Jalan Kewajipan",
        "Post_Office": "Subang Jaya",
        "State": "Selangor"
    },
    {
        "Postcode": "47500",
        "Location": "Jalan Lagoon Selatan",
        "Post_Office": "Subang Jaya",
        "State": "Selangor"
    },
    {
        "Postcode": "47500",
        "Location": "Jalan Mutiara Subang",
        "Post_Office": "Subang Jaya",
        "State": "Selangor"
    },
    {
        "Postcode": "47500",
        "Location": "Jalan Ss 12/1 Wangsa Baiduri",
        "Post_Office": "Subang Jaya",
        "State": "Selangor"
    },
    {
        "Postcode": "47500",
        "Location": "Jalan Subang Utama (Subang Jaya)",
        "Post_Office": "Subang Jaya",
        "State": "Selangor"
    },
    {
        "Postcode": "47500",
        "Location": "Jalan Tasik Selatan",
        "Post_Office": "Subang Jaya",
        "State": "Selangor"
    },
    {
        "Postcode": "47500",
        "Location": "Jalan Tujuan (Subang Jaya)",
        "Post_Office": "Subang Jaya",
        "State": "Selangor"
    },
    {
        "Postcode": "47500",
        "Location": "Jalan Universiti Bandar Sunway",
        "Post_Office": "Subang Jaya",
        "State": "Selangor"
    },
    {
        "Postcode": "47500",
        "Location": "Lebuhraya Petaling Jaya",
        "Post_Office": "Subang Jaya",
        "State": "Selangor"
    },
    {
        "Postcode": "47500",
        "Location": "Persiaran Kemajuan Ss 16",
        "Post_Office": "Subang Jaya",
        "State": "Selangor"
    },
    {
        "Postcode": "47500",
        "Location": "Persiaran Kemajuan Subang",
        "Post_Office": "Subang Jaya",
        "State": "Selangor"
    },
    {
        "Postcode": "47500",
        "Location": "Persiaran Lagoon Perdana",
        "Post_Office": "Subang Jaya",
        "State": "Selangor"
    },
    {
        "Postcode": "47500",
        "Location": "Persiaran Subang",
        "Post_Office": "Subang Jaya",
        "State": "Selangor"
    },
    {
        "Postcode": "47500",
        "Location": "Persiaran Teknologi Subang",
        "Post_Office": "Subang Jaya",
        "State": "Selangor"
    },
    {
        "Postcode": "47500",
        "Location": "Persiaran Wangsa Baiduri",
        "Post_Office": "Subang Jaya",
        "State": "Selangor"
    },
    {
        "Postcode": "47500",
        "Location": "Subang Avenue",
        "Post_Office": "Subang Jaya",
        "State": "Selangor"
    },
    {
        "Postcode": "47500",
        "Location": "Subang Jaya",
        "Post_Office": "Subang Jaya",
        "State": "Selangor"
    },
    {
        "Postcode": "47500",
        "Location": "Subang Jaya - Peti Surat",
        "Post_Office": "Subang Jaya",
        "State": "Selangor"
    },
    {
        "Postcode": "47500",
        "Location": "Taman Mutiara Subang",
        "Post_Office": "Subang Jaya",
        "State": "Selangor"
    },
    {
        "Postcode": "47500",
        "Location": "Taman Wangsa Baiduri",
        "Post_Office": "Subang Jaya",
        "State": "Selangor"
    },
    {
        "Postcode": "47500",
        "Location": "Ultramine Industrial Park",
        "Post_Office": "Subang Jaya",
        "State": "Selangor"
    },
    {
        "Postcode": "47500",
        "Location": "Wangsa Baiduri (Subang Jaya)",
        "Post_Office": "Subang Jaya",
        "State": "Selangor"
    },
    {
        "Postcode": "47500",
        "Location": "Residensi Alira",
        "Post_Office": "Subang Jaya",
        "State": "Selangor"
    },
    {
        "Postcode": "47500",
        "Location": "Sunway South Quay",
        "Post_Office": "Subang Jaya",
        "State": "Selangor"
    },
    {
        "Postcode": "47500",
        "Location": "Tropicana Metropark",
        "Post_Office": "Subang Jaya",
        "State": "Selangor"
    },
    {
        "Postcode": "47500",
        "Location": "Taman Perindustrian Teknologi Tinggi Subang",
        "Post_Office": "Subang Jaya",
        "State": "Selangor"
    },
    {
        "Postcode": "47500",
        "Location": "Lagoon Perdana",
        "Post_Office": "Subang Jaya",
        "State": "Selangor"
    },
    {
        "Postcode": "47500",
        "Location": "Jalan Lagoon Timur",
        "Post_Office": "Subang Jaya",
        "State": "Selangor"
    },
    {
        "Postcode": "47500",
        "Location": "Taman Metropark",
        "Post_Office": "Subang Jaya",
        "State": "Selangor"
    },
    {
        "Postcode": "47500",
        "Location": "Grand Subang Square",
        "Post_Office": "Subang Jaya",
        "State": "Selangor"
    },
    {
        "Postcode": "47500",
        "Location": "Jalan Ss 15/8A",
        "Post_Office": "Subang Jaya",
        "State": "Selangor"
    },
    {
        "Postcode": "47500",
        "Location": "Subang Jaya City Centre",
        "Post_Office": "Subang Jaya",
        "State": "Selangor"
    },
    {
        "Postcode": "47500",
        "Location": "Taman Bukit Pelangi ",
        "Post_Office": "Subang Jaya",
        "State": "Selangor"
    },
    {
        "Postcode": "47500",
        "Location": "Taman Industri Sungai Penaga",
        "Post_Office": "Subang Jaya",
        "State": "Selangor"
    },
    {
        "Postcode": "47500",
        "Location": "Persiaran Tasik Barat",
        "Post_Office": "Subang Jaya",
        "State": "Selangor"
    },
    {
        "Postcode": "47500",
        "Location": "Subang Hi-Tech Industrial Park",
        "Post_Office": "Subang Jaya",
        "State": "Selangor"
    },
    {
        "Postcode": "47500",
        "Location": "Lebuhraya Persekutuan",
        "Post_Office": "Subang Jaya",
        "State": "Selangor"
    },
    {
        "Postcode": "47500",
        "Location": "Subang Parkhomes Condo",
        "Post_Office": "Subang Jaya",
        "State": "Selangor"
    },
    {
        "Postcode": "47500",
        "Location": "Jalan Ss 12/2",
        "Post_Office": "Subang Jaya",
        "State": "Selangor"
    },
    {
        "Postcode": "47500",
        "Location": "Jalan Ss 15/8",
        "Post_Office": "Subang Jaya",
        "State": "Selangor"
    },
    {
        "Postcode": "47500",
        "Location": "Pangsapuri Mutiara Subang",
        "Post_Office": "Subang Jaya",
        "State": "Selangor"
    },
    {
        "Postcode": "47500",
        "Location": "Federal Avenue",
        "Post_Office": "Subang Jaya",
        "State": "Selangor"
    },
    {
        "Postcode": "47500",
        "Location": "Jalan FA 1",
        "Post_Office": "Subang Jaya",
        "State": "Selangor"
    },
    {
        "Postcode": "47500",
        "Location": "Jalan FA 2",
        "Post_Office": "Subang Jaya",
        "State": "Selangor"
    }
]
