[
    {
        "Postcode": "47600",
        "Location": "Jalan Subang 1",
        "Post_Office": "Subang Jaya",
        "State": "Selangor"
    },
    {
        "Postcode": "47600",
        "Location": "Centre Regalia Business ",
        "Post_Office": "Subang Jaya",
        "State": "Selangor"
    },
    {
        "Postcode": "47600",
        "Location": "Taman Perindustrian Usj 1",
        "Post_Office": "Subang Jaya",
        "State": "Selangor"
    },
    {
        "Postcode": "47600",
        "Location": "Jalan Tp 1",
        "Post_Office": "Subang Jaya",
        "State": "Selangor"
    },
    {
        "Postcode": "47600",
        "Location": "Jalan Tp 1/1A",
        "Post_Office": "Subang Jaya",
        "State": "Selangor"
    },
    {
        "Postcode": "47600",
        "Location": "Jalan Tp 1/1B",
        "Post_Office": "Subang Jaya",
        "State": "Selangor"
    },
    {
        "Postcode": "47600",
        "Location": "Jalan Tp 1/1C",
        "Post_Office": "Subang Jaya",
        "State": "Selangor"
    },
    {
        "Postcode": "47600",
        "Location": "Jalan Tp 1/1D",
        "Post_Office": "Subang Jaya",
        "State": "Selangor"
    },
    {
        "Postcode": "47600",
        "Location": "Jalan Tp 2",
        "Post_Office": "Subang Jaya",
        "State": "Selangor"
    },
    {
        "Postcode": "47600",
        "Location": "Jalan Tp 3",
        "Post_Office": "Subang Jaya",
        "State": "Selangor"
    },
    {
        "Postcode": "47600",
        "Location": "Jalan Tp 4",
        "Post_Office": "Subang Jaya",
        "State": "Selangor"
    },
    {
        "Postcode": "47600",
        "Location": "Jalan Tp 5",
        "Post_Office": "Subang Jaya",
        "State": "Selangor"
    },
    {
        "Postcode": "47600",
        "Location": "Usj 1",
        "Post_Office": "Subang Jaya",
        "State": "Selangor"
    },
    {
        "Postcode": "47600",
        "Location": "Usj 2",
        "Post_Office": "Subang Jaya",
        "State": "Selangor"
    },
    {
        "Postcode": "47600",
        "Location": "Usj 3",
        "Post_Office": "Subang Jaya",
        "State": "Selangor"
    },
    {
        "Postcode": "47600",
        "Location": "Usj 4",
        "Post_Office": "Subang Jaya",
        "State": "Selangor"
    },
    {
        "Postcode": "47600",
        "Location": "Jalan Tp 3/1",
        "Post_Office": "Subang Jaya",
        "State": "Selangor"
    },
    {
        "Postcode": "47600",
        "Location": "Jalan Tp 3/2",
        "Post_Office": "Subang Jaya",
        "State": "Selangor"
    },
    {
        "Postcode": "47600",
        "Location": "Pangsapuri Seri Nipah",
        "Post_Office": "Subang Jaya",
        "State": "Selangor"
    },
    {
        "Postcode": "47600",
        "Location": "Persiaran Kewajipan",
        "Post_Office": "Subang Jaya",
        "State": "Selangor"
    },
    {
        "Postcode": "47600",
        "Location": "Persiaran Mulia",
        "Post_Office": "Subang Jaya",
        "State": "Selangor"
    },
    {
        "Postcode": "47600",
        "Location": "Pusat Perniagaan Usj 10",
        "Post_Office": "Subang Jaya",
        "State": "Selangor"
    },
    {
        "Postcode": "47600",
        "Location": "Taman Pinggiran Usj",
        "Post_Office": "Subang Jaya",
        "State": "Selangor"
    },
    {
        "Postcode": "47600",
        "Location": "Taman Subang Mewah",
        "Post_Office": "Subang Jaya",
        "State": "Selangor"
    },
    {
        "Postcode": "47600",
        "Location": "Taman Subang Permai",
        "Post_Office": "Subang Jaya",
        "State": "Selangor"
    },
    {
        "Postcode": "47600",
        "Location": "Usj Sentral",
        "Post_Office": "Subang Jaya",
        "State": "Selangor"
    },
    {
        "Postcode": "47600",
        "Location": "Regina Residences",
        "Post_Office": "Subang Jaya",
        "State": "Selangor"
    },
    {
        "Postcode": "47600",
        "Location": "Jalan Subang Permai",
        "Post_Office": "Subang Jaya",
        "State": "Selangor"
    },
    {
        "Postcode": "47600",
        "Location": "Usj One Park",
        "Post_Office": "Subang Jaya",
        "State": "Selangor"
    },
    {
        "Postcode": "47600",
        "Location": "Pusat Perdagangan Subang Mas",
        "Post_Office": "Subang Jaya",
        "State": "Selangor"
    },
    {
        "Postcode": "47600",
        "Location": "Taman Industri Subang",
        "Post_Office": "Subang Jaya",
        "State": "Selangor"
    },
    {
        "Postcode": "47600",
        "Location": "Persiaran Subang Permai",
        "Post_Office": "Subang Jaya",
        "State": "Selangor"
    },
    {
        "Postcode": "47600",
        "Location": "Twin Industrial Park",
        "Post_Office": "Subang Jaya",
        "State": "Selangor"
    },
    {
        "Postcode": "47600",
        "Location": "Persiaran Subang 1",
        "Post_Office": "Subang Jaya",
        "State": "Selangor"
    },
    {
        "Postcode": "47600",
        "Location": "Taman Perindustrian Subang",
        "Post_Office": "Subang Jaya",
        "State": "Selangor"
    }
]
