[
    {
        "Postcode": "47620",
        "Location": "Usj 10",
        "Post_Office": "Subang Jaya",
        "State": "Selangor"
    },
    {
        "Postcode": "47620",
        "Location": "Usj 11",
        "Post_Office": "Subang Jaya",
        "State": "Selangor"
    },
    {
        "Postcode": "47620",
        "Location": "Usj 12",
        "Post_Office": "Subang Jaya",
        "State": "Selangor"
    },
    {
        "Postcode": "47620",
        "Location": "Usj 13",
        "Post_Office": "Subang Jaya",
        "State": "Selangor"
    },
    {
        "Postcode": "47620",
        "Location": "Usj 14",
        "Post_Office": "Subang Jaya",
        "State": "Selangor"
    },
    {
        "Postcode": "47620",
        "Location": "Usj 15",
        "Post_Office": "Subang Jaya",
        "State": "Selangor"
    },
    {
        "Postcode": "47620",
        "Location": "Usj 16",
        "Post_Office": "Subang Jaya",
        "State": "Selangor"
    },
    {
        "Postcode": "47620",
        "Location": "Usj 17",
        "Post_Office": "Subang Jaya",
        "State": "Selangor"
    },
    {
        "Postcode": "47620",
        "Location": "Usj 18",
        "Post_Office": "Subang Jaya",
        "State": "Selangor"
    },
    {
        "Postcode": "47620",
        "Location": "Usj 19",
        "Post_Office": "Subang Jaya",
        "State": "Selangor"
    },
    {
        "Postcode": "47620",
        "Location": "Usj 20",
        "Post_Office": "Subang Jaya",
        "State": "Selangor"
    },
    {
        "Postcode": "47620",
        "Location": "Usj 21",
        "Post_Office": "Subang Jaya",
        "State": "Selangor"
    },
    {
        "Postcode": "47620",
        "Location": "Usj 22",
        "Post_Office": "Subang Jaya",
        "State": "Selangor"
    },
    {
        "Postcode": "47620",
        "Location": "Usj 23",
        "Post_Office": "Subang Jaya",
        "State": "Selangor"
    },
    {
        "Postcode": "47620",
        "Location": "Usj 24",
        "Post_Office": "Subang Jaya",
        "State": "Selangor"
    },
    {
        "Postcode": "47620",
        "Location": "Usj 6",
        "Post_Office": "Subang Jaya",
        "State": "Selangor"
    },
    {
        "Postcode": "47620",
        "Location": "Usj 7",
        "Post_Office": "Subang Jaya",
        "State": "Selangor"
    },
    {
        "Postcode": "47620",
        "Location": "Usj 8",
        "Post_Office": "Subang Jaya",
        "State": "Selangor"
    },
    {
        "Postcode": "47620",
        "Location": "Usj 9",
        "Post_Office": "Subang Jaya",
        "State": "Selangor"
    },
    {
        "Postcode": "47620",
        "Location": "Usj Heights",
        "Post_Office": "Subang Jaya",
        "State": "Selangor"
    },
    {
        "Postcode": "47620",
        "Location": "Taman Subang Mas",
        "Post_Office": "Subang Jaya",
        "State": "Selangor"
    }
]
