[
    {
        "Postcode": "47810",
        "Location": "Pju 3",
        "Post_Office": "Petaling Jaya",
        "State": "Selangor"
    },
    {
        "Postcode": "47810",
        "Location": "Pju 5",
        "Post_Office": "Petaling Jaya",
        "State": "Selangor"
    },
    {
        "Postcode": "47810",
        "Location": "Dataran Sunway",
        "Post_Office": "Petaling Jaya",
        "State": "Selangor"
    },
    {
        "Postcode": "47810",
        "Location": "Seksyen 13",
        "Post_Office": "Petaling Jaya",
        "State": "Selangor"
    },
    {
        "Postcode": "47810",
        "Location": "Seksyen 4",
        "Post_Office": "Petaling Jaya",
        "State": "Selangor"
    },
    {
        "Postcode": "47810",
        "Location": "Sunway Damansara Technology Park",
        "Post_Office": "Petaling Jaya",
        "State": "Selangor"
    },
    {
        "Postcode": "47810",
        "Location": "Jalan Cecawi 6/30",
        "Post_Office": "Petaling Jaya",
        "State": "Selangor"
    },
    {
        "Postcode": "47810",
        "Location": "Jalan Kenyalang 11/1 ",
        "Post_Office": "Petaling Jaya",
        "State": "Selangor"
    },
    {
        "Postcode": "47810",
        "Location": "Jalan Kenyalang 11/15 ",
        "Post_Office": "Petaling Jaya",
        "State": "Selangor"
    },
    {
        "Postcode": "47810",
        "Location": "Jalan Nuri 7/3 ",
        "Post_Office": "Petaling Jaya",
        "State": "Selangor"
    },
    {
        "Postcode": "47810",
        "Location": "Sunway Damansara",
        "Post_Office": "Petaling Jaya",
        "State": "Selangor"
    },
    {
        "Postcode": "47810",
        "Location": "Jalan Pju 5/14",
        "Post_Office": "Petaling Jaya",
        "State": "Selangor"
    },
    {
        "Postcode": "47810",
        "Location": "Jalan Teknologi 3/5",
        "Post_Office": "Petaling Jaya",
        "State": "Selangor"
    },
    {
        "Postcode": "47810",
        "Location": "Pusat Teknologi Sunsuria",
        "Post_Office": "Petaling Jaya",
        "State": "Selangor"
    },
    {
        "Postcode": "47810",
        "Location": "Jalan Pju 3/22A",
        "Post_Office": "Petaling Jaya",
        "State": "Selangor"
    },
    {
        "Postcode": "47810",
        "Location": "Jalan Pju 5/1",
        "Post_Office": "Petaling Jaya",
        "State": "Selangor"
    },
    {
        "Postcode": "47810",
        "Location": "Jalan Teknologi ",
        "Post_Office": "Petaling Jaya",
        "State": "Selangor"
    },
    {
        "Postcode": "47810",
        "Location": "Jalan Teknologi 3/3A",
        "Post_Office": "Petaling Jaya",
        "State": "Selangor"
    },
    {
        "Postcode": "47810",
        "Location": "Jalan Teknologi 3/7",
        "Post_Office": "Petaling Jaya",
        "State": "Selangor"
    },
    {
        "Postcode": "47810",
        "Location": "Kota Damansara",
        "Post_Office": "Petaling Jaya",
        "State": "Selangor"
    },
    {
        "Postcode": "47810",
        "Location": "Mutiara Damansara",
        "Post_Office": "Petaling Jaya",
        "State": "Selangor"
    },
    {
        "Postcode": "47810",
        "Location": "Persiaran Surian",
        "Post_Office": "Petaling Jaya",
        "State": "Selangor"
    },
    {
        "Postcode": "47810",
        "Location": "Pusat Bandar Sungai Buloh (Psb)",
        "Post_Office": "Petaling Jaya",
        "State": "Selangor"
    },
    {
        "Postcode": "47810",
        "Location": "Taman Sains Selangor ",
        "Post_Office": "Petaling Jaya",
        "State": "Selangor"
    },
    {
        "Postcode": "47810",
        "Location": "Taman Sains Selangor 1",
        "Post_Office": "Petaling Jaya",
        "State": "Selangor"
    },
    {
        "Postcode": "47810",
        "Location": "Residensi Sunway D Hill",
        "Post_Office": "Petaling Jaya",
        "State": "Selangor"
    },
    {
        "Postcode": "47810",
        "Location": "D' Villa Botany",
        "Post_Office": "Petaling Jaya",
        "State": "Selangor"
    },
    {
        "Postcode": "47810",
        "Location": "Jalan Rimba Riang 9/9B",
        "Post_Office": "Petaling Jaya",
        "State": "Selangor"
    },
    {
        "Postcode": "47810",
        "Location": "Pusat Perdagangan Kota Damansara",
        "Post_Office": "Petaling Jaya",
        "State": "Selangor"
    },
    {
        "Postcode": "47810",
        "Location": "Taman Industri Sungai Buloh",
        "Post_Office": "Petaling jaya",
        "State": "Selangor"
    },
    {
        "Postcode": "47810",
        "Location": "Seksyen 10",
        "Post_Office": "Petaling Jaya",
        "State": "Selangor"
    },
    {
        "Postcode": "47810",
        "Location": "Seksyen 5",
        "Post_Office": "Petaling Jaya",
        "State": "Selangor"
    },
    {
        "Postcode": "47810",
        "Location": "Seksyen 6",
        "Post_Office": "Petaling Jaya",
        "State": "Selangor"
    },
    {
        "Postcode": "47810",
        "Location": "Seksyen 7",
        "Post_Office": "Petaling Jaya",
        "State": "Selangor"
    },
    {
        "Postcode": "47810",
        "Location": "Seksyen 8",
        "Post_Office": "Petaling Jaya",
        "State": "Selangor"
    },
    {
        "Postcode": "47810",
        "Location": "Seksyen 9",
        "Post_Office": "Petaling Jaya",
        "State": "Selangor"
    },
    {
        "Postcode": "47810",
        "Location": "Seksyen 11",
        "Post_Office": "Petaling Jaya",
        "State": "Selangor"
    },
    {
        "Postcode": "47810",
        "Location": "Pusat Teknologi Sinar Damansara",
        "Post_Office": "Petaling Jaya",
        "State": "Selangor"
    },
    {
        "Postcode": "47810",
        "Location": "Jalan Pju 7/3",
        "Post_Office": "Petaling Jaya",
        "State": "Selangor"
    },
    {
        "Postcode": "47810",
        "Location": "Nouvelle Industrial Park 1",
        "Post_Office": "Petaling Jaya",
        "State": "Selangor"
    },
    {
        "Postcode": "47810",
        "Location": "Nouvelle Industrial Park 2",
        "Post_Office": "Petaling Jaya",
        "State": "Selangor"
    },
    {
        "Postcode": "47810",
        "Location": "Tropicana Indah",
        "Post_Office": "Petaling Jaya",
        "State": "Selangor"
    },
    {
        "Postcode": "47810",
        "Location": "Tropicana Indah",
        "Post_Office": "Petaling Jaya",
        "State": "Selangor"
    }
]
