[
    {
        "Postcode": "46150",
        "Location": "Taman Maju Jaya",
        "Post_Office": "Petaling Jaya",
        "State": "Selangor"
    },
    {
        "Postcode": "46150",
        "Location": "Pusat Perniagaan Lagoon Perdana",
        "Post_Office": "Petaling Jaya",
        "State": "Selangor"
    },
    {
        "Postcode": "46150",
        "Location": "Taman Sri Mentari",
        "Post_Office": "Petaling Jaya",
        "State": "Selangor"
    },
    {
        "Postcode": "46150",
        "Location": "Jalan Pjs 8/15",
        "Post_Office": "Petaling Jaya",
        "State": "Selangor"
    },
    {
        "Postcode": "46150",
        "Location": "Jalan Pjs 5/30",
        "Post_Office": "Petaling Jaya",
        "State": "Selangor"
    },
    {
        "Postcode": "46150",
        "Location": "Pusat Dagangan Petaling Jaya Selatan",
        "Post_Office": "Petaling Jaya",
        "State": "Selangor"
    },
    {
        "Postcode": "46150",
        "Location": "Bangunan Digital",
        "Post_Office": "Petaling Jaya",
        "State": "Selangor"
    },
    {
        "Postcode": "46150",
        "Location": "Dataran Mentari",
        "Post_Office": "Petaling Jaya",
        "State": "Selangor"
    },
    {
        "Postcode": "46150",
        "Location": "Jalan Rambai",
        "Post_Office": "Petaling Jaya",
        "State": "Selangor"
    },
    {
        "Postcode": "46150",
        "Location": "Jalan Sena (Kawasan Pjs)",
        "Post_Office": "Petaling Jaya",
        "State": "Selangor"
    },
    {
        "Postcode": "46150",
        "Location": "Kampung Desa Hormat",
        "Post_Office": "Petaling Jaya",
        "State": "Selangor"
    },
    {
        "Postcode": "46150",
        "Location": "Kampung Lindungan",
        "Post_Office": "Petaling Jaya",
        "State": "Selangor"
    },
    {
        "Postcode": "46150",
        "Location": "Taman Dato Hormat",
        "Post_Office": "Petaling Jaya",
        "State": "Selangor"
    },
    {
        "Postcode": "46150",
        "Location": "Taman Seri Subang",
        "Post_Office": "Petaling Jaya",
        "State": "Selangor"
    },
    {
        "Postcode": "46150",
        "Location": "Taman Subang Indah",
        "Post_Office": "Petaling Jaya",
        "State": "Selangor"
    },
    {
        "Postcode": "46150",
        "Location": "Residensi Heliks",
        "Post_Office": "Petaling Jaya",
        "State": "Selangor"
    },
    {
        "Postcode": "46150",
        "Location": "Bandar Sunway",
        "Post_Office": "Subang Jaya",
        "State": "Selangor"
    },
    {
        "Postcode": "46150",
        "Location": "Pjs 7",
        "Post_Office": "Subang Jaya",
        "State": "Selangor"
    },
    {
        "Postcode": "46150",
        "Location": "Taman Desaria",
        "Post_Office": "Petaling Jaya",
        "State": "Selangor"
    },
    {
        "Postcode": "46150",
        "Location": "Jalan Belimbing",
        "Post_Office": "Petaling Jaya",
        "State": "Selangor"
    },
    {
        "Postcode": "46150",
        "Location": "Jalan Cempedak",
        "Post_Office": "Petaling Jaya",
        "State": "Selangor"
    },
    {
        "Postcode": "46150",
        "Location": "Jalan Mangga",
        "Post_Office": "Petaling Jaya",
        "State": "Selangor"
    },
    {
        "Postcode": "46150",
        "Location": "Jalan Rambutan",
        "Post_Office": "Petaling Jaya",
        "State": "Selangor"
    },
    {
        "Postcode": "46150",
        "Location": "Jalan Ciku",
        "Post_Office": "Petaling Jaya",
        "State": "Selangor"
    },
    {
        "Postcode": "46150",
        "Location": "Medan Maju Jaya",
        "Post_Office": "Petaling Jaya",
        "State": "Selangor"
    },
    {
        "Postcode": "46150",
        "Location": "Taman Dato Harun",
        "Post_Office": "Petaling Jaya",
        "State": "Selangor"
    },
    {
        "Postcode": "46150",
        "Location": "Taman Medan",
        "Post_Office": "Petaling Jaya",
        "State": "Selangor"
    },
    {
        "Postcode": "46150",
        "Location": "Jalan Limau Manis",
        "Post_Office": "Petaling Jaya",
        "State": "Selangor"
    },
    {
        "Postcode": "46150",
        "Location": "Jalan Pjs 5/27",
        "Post_Office": "Petaling Jaya",
        "State": "Selangor"
    },
    {
        "Postcode": "46150",
        "Location": "Jalan Mangga 1",
        "Post_Office": "Petaling Jaya",
        "State": "Selangor"
    },
    {
        "Postcode": "46150",
        "Location": "Jalan Mangga 2",
        "Post_Office": "Petaling Jaya",
        "State": "Selangor"
    },
    {
        "Postcode": "46150",
        "Location": "Jalan Manggis 1",
        "Post_Office": "Petaling Jaya",
        "State": "Selangor"
    },
    {
        "Postcode": "46150",
        "Location": "Jalan Manggis 2",
        "Post_Office": "Petaling Jaya",
        "State": "Selangor"
    },
    {
        "Postcode": "46150",
        "Location": "Jalan Sena 1",
        "Post_Office": "Petaling Jaya",
        "State": "Selangor"
    },
    {
        "Postcode": "46150",
        "Location": "Jalan Sena 2",
        "Post_Office": "Petaling Jaya",
        "State": "Selangor"
    },
    {
        "Postcode": "46150",
        "Location": "Jalan Sena 3",
        "Post_Office": "Petaling Jaya",
        "State": "Selangor"
    },
    {
        "Postcode": "46150",
        "Location": "Jalan Sena 4",
        "Post_Office": "Petaling Jaya",
        "State": "Selangor"
    },
    {
        "Postcode": "46150",
        "Location": "Jalan Sena 5",
        "Post_Office": "Petaling Jaya",
        "State": "Selangor"
    },
    {
        "Postcode": "46150",
        "Location": "Pjs 10",
        "Post_Office": "Petaling Jaya",
        "State": "Selangor"
    },
    {
        "Postcode": "46150",
        "Location": "Pjs 5",
        "Post_Office": "Petaling Jaya",
        "State": "Selangor"
    },
    {
        "Postcode": "46150",
        "Location": "Pjs 6",
        "Post_Office": "Petaling Jaya",
        "State": "Selangor"
    },
    {
        "Postcode": "46150",
        "Location": "Pjs 8",
        "Post_Office": "Petaling Jaya",
        "State": "Selangor"
    }
]
