[
    {
        "Postcode": "46350",
        "Location": "Jalan Dato Abu Bakar",
        "Post_Office": "Petaling Jaya",
        "State": "Selangor"
    },
    {
        "Postcode": "46350",
        "Location": "Jalan Tuanku Salahuddin",
        "Post_Office": "Petaling Jaya",
        "State": "Selangor"
    },
    {
        "Postcode": "46350",
        "Location": "Seksyen 16",
        "Post_Office": "Petaling Jaya",
        "State": "Selangor"
    },
    {
        "Postcode": "46350",
        "Location": "Jalan 16/1",
        "Post_Office": "Petaling Jaya",
        "State": "Selangor"
    },
    {
        "Postcode": "46350",
        "Location": "Jalan 16/10",
        "Post_Office": "Petaling Jaya",
        "State": "Selangor"
    },
    {
        "Postcode": "46350",
        "Location": "Jalan 16/10C",
        "Post_Office": "Petaling Jaya",
        "State": "Selangor"
    },
    {
        "Postcode": "46350",
        "Location": "Jalan 16/11",
        "Post_Office": "Petaling Jaya",
        "State": "Selangor"
    },
    {
        "Postcode": "46350",
        "Location": "Jalan 16/12",
        "Post_Office": "Petaling Jaya",
        "State": "Selangor"
    },
    {
        "Postcode": "46350",
        "Location": "Jalan 16/13",
        "Post_Office": "Petaling Jaya",
        "State": "Selangor"
    },
    {
        "Postcode": "46350",
        "Location": "Jalan 16/14",
        "Post_Office": "Petaling Jaya",
        "State": "Selangor"
    },
    {
        "Postcode": "46350",
        "Location": "Jalan 16/15",
        "Post_Office": "Petaling Jaya",
        "State": "Selangor"
    },
    {
        "Postcode": "46350",
        "Location": "Jalan 16/16",
        "Post_Office": "Petaling Jaya",
        "State": "Selangor"
    },
    {
        "Postcode": "46350",
        "Location": "Jalan 16/17",
        "Post_Office": "Petaling Jaya",
        "State": "Selangor"
    },
    {
        "Postcode": "46350",
        "Location": "Jalan 16/18",
        "Post_Office": "Petaling Jaya",
        "State": "Selangor"
    },
    {
        "Postcode": "46350",
        "Location": "Jalan 16/2",
        "Post_Office": "Petaling Jaya",
        "State": "Selangor"
    },
    {
        "Postcode": "46350",
        "Location": "Jalan 16/2A",
        "Post_Office": "Petaling Jaya",
        "State": "Selangor"
    },
    {
        "Postcode": "46350",
        "Location": "Jalan 16/3",
        "Post_Office": "Petaling Jaya",
        "State": "Selangor"
    },
    {
        "Postcode": "46350",
        "Location": "Jalan 16/4",
        "Post_Office": "Petaling Jaya",
        "State": "Selangor"
    },
    {
        "Postcode": "46350",
        "Location": "Jalan 16/5",
        "Post_Office": "Petaling Jaya",
        "State": "Selangor"
    },
    {
        "Postcode": "46350",
        "Location": "Jalan 16/6",
        "Post_Office": "Petaling Jaya",
        "State": "Selangor"
    },
    {
        "Postcode": "46350",
        "Location": "Jalan 16/7",
        "Post_Office": "Petaling Jaya",
        "State": "Selangor"
    },
    {
        "Postcode": "46350",
        "Location": "Jalan 16/8",
        "Post_Office": "Petaling Jaya",
        "State": "Selangor"
    },
    {
        "Postcode": "46350",
        "Location": "Jalan 16/9",
        "Post_Office": "Petaling Jaya",
        "State": "Selangor"
    },
    {
        "Postcode": "46350",
        "Location": "Jalan 17/1",
        "Post_Office": "Petaling Jaya",
        "State": "Selangor"
    },
    {
        "Postcode": "46350",
        "Location": "Jalan 17/10",
        "Post_Office": "Petaling Jaya",
        "State": "Selangor"
    },
    {
        "Postcode": "46350",
        "Location": "Jalan 17/11",
        "Post_Office": "Petaling Jaya",
        "State": "Selangor"
    },
    {
        "Postcode": "46350",
        "Location": "Jalan 17/12",
        "Post_Office": "Petaling Jaya",
        "State": "Selangor"
    },
    {
        "Postcode": "46350",
        "Location": "Jalan 17/13",
        "Post_Office": "Petaling Jaya",
        "State": "Selangor"
    },
    {
        "Postcode": "46350",
        "Location": "Jalan 17/14",
        "Post_Office": "Petaling Jaya",
        "State": "Selangor"
    },
    {
        "Postcode": "46350",
        "Location": "Jalan 17/15",
        "Post_Office": "Petaling Jaya",
        "State": "Selangor"
    },
    {
        "Postcode": "46350",
        "Location": "Jalan 17/16",
        "Post_Office": "Petaling Jaya",
        "State": "Selangor"
    },
    {
        "Postcode": "46350",
        "Location": "Jalan 17/17",
        "Post_Office": "Petaling Jaya",
        "State": "Selangor"
    },
    {
        "Postcode": "46350",
        "Location": "Jalan 17/18",
        "Post_Office": "Petaling Jaya",
        "State": "Selangor"
    },
    {
        "Postcode": "46350",
        "Location": "Jalan 17/19",
        "Post_Office": "Petaling Jaya",
        "State": "Selangor"
    },
    {
        "Postcode": "46350",
        "Location": "Jalan 17/2",
        "Post_Office": "Petaling Jaya",
        "State": "Selangor"
    },
    {
        "Postcode": "46350",
        "Location": "Jalan 17/20",
        "Post_Office": "Petaling Jaya",
        "State": "Selangor"
    },
    {
        "Postcode": "46350",
        "Location": "Jalan 17/21",
        "Post_Office": "Petaling Jaya",
        "State": "Selangor"
    },
    {
        "Postcode": "46350",
        "Location": "Jalan 17/22",
        "Post_Office": "Petaling Jaya",
        "State": "Selangor"
    },
    {
        "Postcode": "46350",
        "Location": "Jalan 17/23",
        "Post_Office": "Petaling Jaya",
        "State": "Selangor"
    },
    {
        "Postcode": "46350",
        "Location": "Jalan 17/24",
        "Post_Office": "Petaling Jaya",
        "State": "Selangor"
    },
    {
        "Postcode": "46350",
        "Location": "Jalan 17/25",
        "Post_Office": "Petaling Jaya",
        "State": "Selangor"
    },
    {
        "Postcode": "46350",
        "Location": "Jalan 17/26",
        "Post_Office": "Petaling Jaya",
        "State": "Selangor"
    },
    {
        "Postcode": "46350",
        "Location": "Jalan 17/27",
        "Post_Office": "Petaling Jaya",
        "State": "Selangor"
    },
    {
        "Postcode": "46350",
        "Location": "Jalan 17/28",
        "Post_Office": "Petaling Jaya",
        "State": "Selangor"
    },
    {
        "Postcode": "46350",
        "Location": "Jalan 17/29",
        "Post_Office": "Petaling Jaya",
        "State": "Selangor"
    },
    {
        "Postcode": "46350",
        "Location": "Jalan 17/3",
        "Post_Office": "Petaling Jaya",
        "State": "Selangor"
    },
    {
        "Postcode": "46350",
        "Location": "Jalan 17/30",
        "Post_Office": "Petaling Jaya",
        "State": "Selangor"
    },
    {
        "Postcode": "46350",
        "Location": "Jalan 17/31",
        "Post_Office": "Petaling Jaya",
        "State": "Selangor"
    },
    {
        "Postcode": "46350",
        "Location": "Jalan 17/32",
        "Post_Office": "Petaling Jaya",
        "State": "Selangor"
    },
    {
        "Postcode": "46350",
        "Location": "Jalan 17/33",
        "Post_Office": "Petaling Jaya",
        "State": "Selangor"
    },
    {
        "Postcode": "46350",
        "Location": "Jalan 17/34",
        "Post_Office": "Petaling Jaya",
        "State": "Selangor"
    },
    {
        "Postcode": "46350",
        "Location": "Jalan 17/35",
        "Post_Office": "Petaling Jaya",
        "State": "Selangor"
    },
    {
        "Postcode": "46350",
        "Location": "Jalan 17/36",
        "Post_Office": "Petaling Jaya",
        "State": "Selangor"
    },
    {
        "Postcode": "46350",
        "Location": "Jalan 17/37",
        "Post_Office": "Petaling Jaya",
        "State": "Selangor"
    },
    {
        "Postcode": "46350",
        "Location": "Jalan 17/38",
        "Post_Office": "Petaling Jaya",
        "State": "Selangor"
    },
    {
        "Postcode": "46350",
        "Location": "Jalan 17/4",
        "Post_Office": "Petaling Jaya",
        "State": "Selangor"
    },
    {
        "Postcode": "46350",
        "Location": "Jalan 17/40",
        "Post_Office": "Petaling Jaya",
        "State": "Selangor"
    },
    {
        "Postcode": "46350",
        "Location": "Jalan 17/41",
        "Post_Office": "Petaling Jaya",
        "State": "Selangor"
    },
    {
        "Postcode": "46350",
        "Location": "Jalan 17/42",
        "Post_Office": "Petaling Jaya",
        "State": "Selangor"
    },
    {
        "Postcode": "46350",
        "Location": "Jalan 17/43",
        "Post_Office": "Petaling Jaya",
        "State": "Selangor"
    },
    {
        "Postcode": "46350",
        "Location": "Jalan 17/44",
        "Post_Office": "Petaling Jaya",
        "State": "Selangor"
    },
    {
        "Postcode": "46350",
        "Location": "Jalan 17/45",
        "Post_Office": "Petaling Jaya",
        "State": "Selangor"
    },
    {
        "Postcode": "46350",
        "Location": "Jalan 17/46",
        "Post_Office": "Petaling Jaya",
        "State": "Selangor"
    },
    {
        "Postcode": "46350",
        "Location": "Jalan 17/47",
        "Post_Office": "Petaling Jaya",
        "State": "Selangor"
    },
    {
        "Postcode": "46350",
        "Location": "Jalan 17/48",
        "Post_Office": "Petaling Jaya",
        "State": "Selangor"
    },
    {
        "Postcode": "46350",
        "Location": "Jalan 17/49",
        "Post_Office": "Petaling Jaya",
        "State": "Selangor"
    },
    {
        "Postcode": "46350",
        "Location": "Jalan 17/5",
        "Post_Office": "Petaling Jaya",
        "State": "Selangor"
    },
    {
        "Postcode": "46350",
        "Location": "Jalan 17/50",
        "Post_Office": "Petaling Jaya",
        "State": "Selangor"
    },
    {
        "Postcode": "46350",
        "Location": "Jalan 17/52",
        "Post_Office": "Petaling Jaya",
        "State": "Selangor"
    },
    {
        "Postcode": "46350",
        "Location": "Jalan 17/54",
        "Post_Office": "Petaling Jaya",
        "State": "Selangor"
    },
    {
        "Postcode": "46350",
        "Location": "Jalan 17/56",
        "Post_Office": "Petaling Jaya",
        "State": "Selangor"
    },
    {
        "Postcode": "46350",
        "Location": "Jalan 17/58",
        "Post_Office": "Petaling Jaya",
        "State": "Selangor"
    },
    {
        "Postcode": "46350",
        "Location": "Jalan 17/6",
        "Post_Office": "Petaling Jaya",
        "State": "Selangor"
    },
    {
        "Postcode": "46350",
        "Location": "Jalan 17/60",
        "Post_Office": "Petaling Jaya",
        "State": "Selangor"
    },
    {
        "Postcode": "46350",
        "Location": "Jalan 17/62",
        "Post_Office": "Petaling Jaya",
        "State": "Selangor"
    },
    {
        "Postcode": "46350",
        "Location": "Jalan 17/7",
        "Post_Office": "Petaling Jaya",
        "State": "Selangor"
    },
    {
        "Postcode": "46350",
        "Location": "Jalan 17/8",
        "Post_Office": "Petaling Jaya",
        "State": "Selangor"
    },
    {
        "Postcode": "46350",
        "Location": "Jalan 17/9",
        "Post_Office": "Petaling Jaya",
        "State": "Selangor"
    }
]
