[
    {
        "Postcode": "46400",
        "Location": "Jalan 17A/6",
        "Post_Office": "Petaling Jaya",
        "State": "Selangor"
    },
    {
        "Postcode": "46400",
        "Location": "Jalan 17A/7",
        "Post_Office": "Petaling Jaya",
        "State": "Selangor"
    },
    {
        "Postcode": "46400",
        "Location": "Jalan 17A/8",
        "Post_Office": "Petaling Jaya",
        "State": "Selangor"
    },
    {
        "Postcode": "46400",
        "Location": "Jalan 17A/9",
        "Post_Office": "Petaling Jaya",
        "State": "Selangor"
    },
    {
        "Postcode": "46400",
        "Location": "Seksyen 17A",
        "Post_Office": "Petaling Jaya",
        "State": "Selangor"
    },
    {
        "Postcode": "46400",
        "Location": "Kampung Damansara Baru",
        "Post_Office": "Petaling Jaya",
        "State": "Selangor"
    },
    {
        "Postcode": "46400",
        "Location": "Kampung Baru Damansara",
        "Post_Office": "Petaling Jaya",
        "State": "Selangor"
    },
    {
        "Postcode": "46400",
        "Location": "Mahkamah Majistret",
        "Post_Office": "Petaling Jaya",
        "State": "Selangor"
    },
    {
        "Postcode": "46400",
        "Location": "Taman Desa Pesona",
        "Post_Office": "Petaling Jaya",
        "State": "Selangor"
    },
    {
        "Postcode": "46400",
        "Location": "Taman Happy  (Seksyen 17)",
        "Post_Office": "Petaling Jaya",
        "State": "Selangor"
    },
    {
        "Postcode": "46400",
        "Location": "Taman Tan Sri Lee Yan Lian",
        "Post_Office": "Petaling Jaya",
        "State": "Selangor"
    },
    {
        "Postcode": "46400",
        "Location": "Seksyen 17",
        "Post_Office": "Petaling Jaya",
        "State": "Selangor"
    },
    {
        "Postcode": "46400",
        "Location": "Jalan 17/1A",
        "Post_Office": "Petaling Jaya",
        "State": "Selangor"
    },
    {
        "Postcode": "46400",
        "Location": "Jalan 17/48C",
        "Post_Office": "Petaling Jaya",
        "State": "Selangor"
    },
    {
        "Postcode": "46400",
        "Location": "Jalan 17A/1",
        "Post_Office": "Petaling Jaya",
        "State": "Selangor"
    },
    {
        "Postcode": "46400",
        "Location": "Jalan 17A/10",
        "Post_Office": "Petaling Jaya",
        "State": "Selangor"
    },
    {
        "Postcode": "46400",
        "Location": "Jalan 17A/11",
        "Post_Office": "Petaling Jaya",
        "State": "Selangor"
    },
    {
        "Postcode": "46400",
        "Location": "Jalan 17A/12",
        "Post_Office": "Petaling Jaya",
        "State": "Selangor"
    },
    {
        "Postcode": "46400",
        "Location": "Jalan 17A/2",
        "Post_Office": "Petaling Jaya",
        "State": "Selangor"
    },
    {
        "Postcode": "46400",
        "Location": "Jalan 17A/3",
        "Post_Office": "Petaling Jaya",
        "State": "Selangor"
    },
    {
        "Postcode": "46400",
        "Location": "Jalan 17A/4",
        "Post_Office": "Petaling Jaya",
        "State": "Selangor"
    },
    {
        "Postcode": "46400",
        "Location": "Jalan 17A/5",
        "Post_Office": "Petaling Jaya",
        "State": "Selangor"
    }
]
