[
    {
        "Postcode": "15000",
        "Location": "Jalan Sultanah Zainab",
        "Post_Office": "Kota Bharu",
        "State": "Kelantan"
    },
    {
        "Postcode": "15000",
        "Location": "Jalan Stesen Bas",
        "Post_Office": "Kota Bharu",
        "State": "Kelantan"
    },
    {
        "Postcode": "15000",
        "Location": "Kota Bharu Trade Center",
        "Post_Office": "Kota Bharu",
        "State": "Kelantan"
    },
    {
        "Postcode": "15000",
        "Location": "Pasar Majlis Pembadaran Kota Bharu",
        "Post_Office": "Kota Bharu",
        "State": "Kelantan"
    },
    {
        "Postcode": "15000",
        "Location": "Jalan Hulu Pasar",
        "Post_Office": "Kota Bharu",
        "State": "Kelantan"
    },
    {
        "Postcode": "15000",
        "Location": "Jalan Masjid",
        "Post_Office": "Kota Bharu",
        "State": "Kelantan"
    },
    {
        "Postcode": "15000",
        "Location": "Jalan Pasar Lama",
        "Post_Office": "Kota Bharu",
        "State": "Kelantan"
    },
    {
        "Postcode": "15000",
        "Location": "Apartment Pelangi Mall Jalan Post Office Lama",
        "Post_Office": "Kota Bharu",
        "State": "Kelantan"
    },
    {
        "Postcode": "15000",
        "Location": "Bangunan Aia",
        "Post_Office": "Kota Bharu",
        "State": "Kelantan"
    },
    {
        "Postcode": "15000",
        "Location": "Bangunan Mgu",
        "Post_Office": "Kota Bharu",
        "State": "Kelantan"
    },
    {
        "Postcode": "15000",
        "Location": "Hotel Juita Inn",
        "Post_Office": "Kota Bharu",
        "State": "Kelantan"
    },
    {
        "Postcode": "15000",
        "Location": "Hotel Raudah Jalan Maju",
        "Post_Office": "Kota Bharu",
        "State": "Kelantan"
    },
    {
        "Postcode": "15000",
        "Location": "Jalan Bazar Buluh Kubu",
        "Post_Office": "Kota Bharu",
        "State": "Kelantan"
    },
    {
        "Postcode": "15000",
        "Location": "Jalan Che Kadir",
        "Post_Office": "Kota Bharu",
        "State": "Kelantan"
    },
    {
        "Postcode": "15000",
        "Location": "Jalan Che Su",
        "Post_Office": "Kota Bharu",
        "State": "Kelantan"
    },
    {
        "Postcode": "15000",
        "Location": "Jalan Che Su 2",
        "Post_Office": "Kota Bharu",
        "State": "Kelantan"
    },
    {
        "Postcode": "15000",
        "Location": "Jalan Dato Pati",
        "Post_Office": "Kota Bharu",
        "State": "Kelantan"
    },
    {
        "Postcode": "15000",
        "Location": "Jalan Dato Pati Hilir Pasar",
        "Post_Office": "Kota Bharu",
        "State": "Kelantan"
    },
    {
        "Postcode": "15000",
        "Location": "Jalan Doctor",
        "Post_Office": "Kota Bharu",
        "State": "Kelantan"
    },
    {
        "Postcode": "15000",
        "Location": "Jalan Doktor",
        "Post_Office": "Kota Bharu",
        "State": "Kelantan"
    },
    {
        "Postcode": "15000",
        "Location": "Jalan Gajah Mati",
        "Post_Office": "Kota Bharu",
        "State": "Kelantan"
    },
    {
        "Postcode": "15000",
        "Location": "Jalan Hilir Masjid",
        "Post_Office": "Kota Bharu",
        "State": "Kelantan"
    },
    {
        "Postcode": "15000",
        "Location": "Jalan Hilir Pasar",
        "Post_Office": "Kota Bharu",
        "State": "Kelantan"
    },
    {
        "Postcode": "15000",
        "Location": "Jalan Ismail",
        "Post_Office": "Kota Bharu",
        "State": "Kelantan"
    },
    {
        "Postcode": "15000",
        "Location": "Jalan Ismail Hulu Pasar",
        "Post_Office": "Kota Bharu",
        "State": "Kelantan"
    },
    {
        "Postcode": "15000",
        "Location": "Jalan Langgar",
        "Post_Office": "Kota Bharu",
        "State": "Kelantan"
    },
    {
        "Postcode": "15000",
        "Location": "Jalan Maju",
        "Post_Office": "Kota Bharu",
        "State": "Kelantan"
    },
    {
        "Postcode": "15000",
        "Location": "Jalan Masjid Muhamaadi Kota Bharu",
        "Post_Office": "Kota Bharu",
        "State": "Kelantan"
    },
    {
        "Postcode": "15000",
        "Location": "Jalan Padang Garong",
        "Post_Office": "Kota Bharu",
        "State": "Kelantan"
    },
    {
        "Postcode": "15000",
        "Location": "Jalan Parit Dalam",
        "Post_Office": "Kota Bharu",
        "State": "Kelantan"
    },
    {
        "Postcode": "15000",
        "Location": "Jalan Pasar Buluh Kubu",
        "Post_Office": "Kota Bharu",
        "State": "Kelantan"
    },
    {
        "Postcode": "15000",
        "Location": "Jalan Pendek",
        "Post_Office": "Kota Bharu",
        "State": "Kelantan"
    },
    {
        "Postcode": "15000",
        "Location": "Jalan Pintu Pong",
        "Post_Office": "Kota Bharu",
        "State": "Kelantan"
    },
    {
        "Postcode": "15000",
        "Location": "Jalan Post Office Lama",
        "Post_Office": "Kota Bharu",
        "State": "Kelantan"
    },
    {
        "Postcode": "15000",
        "Location": "Jalan Raja Muda",
        "Post_Office": "Kota Bharu",
        "State": "Kelantan"
    },
    {
        "Postcode": "15000",
        "Location": "Jalan Sri Maharaja",
        "Post_Office": "Kota Bharu",
        "State": "Kelantan"
    },
    {
        "Postcode": "15000",
        "Location": "Jalan Suara Muda",
        "Post_Office": "Kota Bharu",
        "State": "Kelantan"
    },
    {
        "Postcode": "15000",
        "Location": "Jalan Sultan",
        "Post_Office": "Kota Bharu",
        "State": "Kelantan"
    },
    {
        "Postcode": "15000",
        "Location": "Jalan Temenggong",
        "Post_Office": "Kota Bharu",
        "State": "Kelantan"
    },
    {
        "Postcode": "15000",
        "Location": "Jalan Tengku Bendahara",
        "Post_Office": "Kota Bharu",
        "State": "Kelantan"
    },
    {
        "Postcode": "15000",
        "Location": "Jalan Tengku Besar",
        "Post_Office": "Kota Bharu",
        "State": "Kelantan"
    },
    {
        "Postcode": "15000",
        "Location": "Jalan Tengku Chik",
        "Post_Office": "Kota Bharu",
        "State": "Kelantan"
    },
    {
        "Postcode": "15000",
        "Location": "Jalan Tengku Maharani",
        "Post_Office": "Kota Bharu",
        "State": "Kelantan"
    },
    {
        "Postcode": "15000",
        "Location": "Jalan Tengku Maharani Puteri",
        "Post_Office": "Kota Bharu",
        "State": "Kelantan"
    },
    {
        "Postcode": "15000",
        "Location": "Jalan Tok Hakim",
        "Post_Office": "Kota Bharu",
        "State": "Kelantan"
    },
    {
        "Postcode": "15000",
        "Location": "Jalan Tok Semian",
        "Post_Office": "Kota Bharu",
        "State": "Kelantan"
    },
    {
        "Postcode": "15000",
        "Location": "Lorong Gajah Mati",
        "Post_Office": "Kota Bharu",
        "State": "Kelantan"
    },
    {
        "Postcode": "15000",
        "Location": "Lorong Juita Inn",
        "Post_Office": "Kota Bharu",
        "State": "Kelantan"
    },
    {
        "Postcode": "15000",
        "Location": "Lorong Pintu Pong",
        "Post_Office": "Kota Bharu",
        "State": "Kelantan"
    },
    {
        "Postcode": "15000",
        "Location": "Lorong Tengku Maharani",
        "Post_Office": "Kota Bharu",
        "State": "Kelantan"
    },
    {
        "Postcode": "15000",
        "Location": "Lorong Tengku Yusuf",
        "Post_Office": "Kota Bharu",
        "State": "Kelantan"
    },
    {
        "Postcode": "15000",
        "Location": "Menang Intan Kondominium",
        "Post_Office": "Kota Bharu",
        "State": "Kelantan"
    },
    {
        "Postcode": "15000",
        "Location": "Menara Kota Bharu Center Jalan Padang Garong",
        "Post_Office": "Kota Bharu",
        "State": "Kelantan"
    },
    {
        "Postcode": "15000",
        "Location": "Pasaraya Pantai Timur",
        "Post_Office": "Kota Bharu",
        "State": "Kelantan"
    },
    {
        "Postcode": "15000",
        "Location": "Pelangi Mall Jalan Post Office Lama",
        "Post_Office": "Kota Bharu",
        "State": "Kelantan"
    },
    {
        "Postcode": "15000",
        "Location": "Penanti",
        "Post_Office": "Kota Bharu",
        "State": "Kelantan"
    },
    {
        "Postcode": "15000",
        "Location": "Perkedaian Buluh Kubu",
        "Post_Office": "Kota Bharu",
        "State": "Kelantan"
    },
    {
        "Postcode": "15000",
        "Location": "Seksyen 9",
        "Post_Office": "Kota Bharu",
        "State": "Kelantan"
    },
    {
        "Postcode": "15000",
        "Location": "The Store Kelantan",
        "Post_Office": "Kota Bharu",
        "State": "Kelantan"
    },
    {
        "Postcode": "15000",
        "Location": "Wisma Yakin",
        "Post_Office": "Kota Bharu",
        "State": "Kelantan"
    }
]
