[
    {
        "Postcode": "15050",
        "Location": "Jalan Kampung Sireh",
        "Post_Office": "Kota Bharu",
        "State": "Kelantan"
    },
    {
        "Postcode": "15050",
        "Location": "Jalan Kota Darulnaim",
        "Post_Office": "Kota Bharu",
        "State": "Kelantan"
    },
    {
        "Postcode": "15050",
        "Location": "Jalan Sultanah Zainab",
        "Post_Office": "Kota Bharu",
        "State": "Kelantan"
    },
    {
        "Postcode": "15050",
        "Location": "Perhentian Bas-Bas Ekspres Bawah Lembah",
        "Post_Office": "Kota Bharu",
        "State": "Kelantan"
    },
    {
        "Postcode": "15050",
        "Location": "Lorong Raja Petani 1",
        "Post_Office": "Kota Bharu",
        "State": "Kelantan"
    },
    {
        "Postcode": "15050",
        "Location": "Lorong Raja Petani 2",
        "Post_Office": "Kota Bharu",
        "State": "Kelantan"
    },
    {
        "Postcode": "15050",
        "Location": "Lorong Raja Petani 3",
        "Post_Office": "Kota Bharu",
        "State": "Kelantan"
    },
    {
        "Postcode": "15050",
        "Location": "Jalan Sekolah Kadir Adabi",
        "Post_Office": "Kota Bharu",
        "State": "Kelantan"
    },
    {
        "Postcode": "15050",
        "Location": "Arkid Beli Belah Jalan Hamzah",
        "Post_Office": "Kota Bharu",
        "State": "Kelantan"
    },
    {
        "Postcode": "15050",
        "Location": "Bangunan Kedai",
        "Post_Office": "Kota Bharu",
        "State": "Kelantan"
    },
    {
        "Postcode": "15050",
        "Location": "Berek Polis Jalan Sultan Ibrahim",
        "Post_Office": "Kota Bharu",
        "State": "Kelantan"
    },
    {
        "Postcode": "15050",
        "Location": "Flat Kampung Sireh",
        "Post_Office": "Kota Bharu",
        "State": "Kelantan"
    },
    {
        "Postcode": "15050",
        "Location": "Jalan Gajah Mati Kanan",
        "Post_Office": "Kota Bharu",
        "State": "Kelantan"
    },
    {
        "Postcode": "15050",
        "Location": "Jalan Gajah Mati Kiri",
        "Post_Office": "Kota Bharu",
        "State": "Kelantan"
    },
    {
        "Postcode": "15050",
        "Location": "Jalan Hamzah",
        "Post_Office": "Kota Bharu",
        "State": "Kelantan"
    },
    {
        "Postcode": "15050",
        "Location": "Jalan Hamzah Kanan",
        "Post_Office": "Kota Bharu",
        "State": "Kelantan"
    },
    {
        "Postcode": "15050",
        "Location": "Jalan Hamzah Lama",
        "Post_Office": "Kota Bharu",
        "State": "Kelantan"
    },
    {
        "Postcode": "15050",
        "Location": "Jalan Raja Petani",
        "Post_Office": "Kota Bharu",
        "State": "Kelantan"
    },
    {
        "Postcode": "15050",
        "Location": "Jalan Sultan Ibrahim",
        "Post_Office": "Kota Bharu",
        "State": "Kelantan"
    },
    {
        "Postcode": "15050",
        "Location": "Jalan Sultan Ibrahim Kanan",
        "Post_Office": "Kota Bharu",
        "State": "Kelantan"
    },
    {
        "Postcode": "15050",
        "Location": "Jalan Sultan Ibrahim Kiri",
        "Post_Office": "Kota Bharu",
        "State": "Kelantan"
    },
    {
        "Postcode": "15050",
        "Location": "Jalan Zainab",
        "Post_Office": "Kota Bharu",
        "State": "Kelantan"
    },
    {
        "Postcode": "15050",
        "Location": "Jalan Zainal Abidin",
        "Post_Office": "Kota Bharu",
        "State": "Kelantan"
    },
    {
        "Postcode": "15050",
        "Location": "Kampung Baru Jalan Hamzah",
        "Post_Office": "Kota Bharu",
        "State": "Kelantan"
    },
    {
        "Postcode": "15050",
        "Location": "Kampung Baru Off Jalan Kuala Krai",
        "Post_Office": "Kota Bharu",
        "State": "Kelantan"
    },
    {
        "Postcode": "15050",
        "Location": "Kampung Bawah Lembah",
        "Post_Office": "Kota Bharu",
        "State": "Kelantan"
    },
    {
        "Postcode": "15050",
        "Location": "Kampung Kubor Kuda",
        "Post_Office": "Kota Bharu",
        "State": "Kelantan"
    },
    {
        "Postcode": "15050",
        "Location": "Kampung Limau Manis",
        "Post_Office": "Kota Bharu",
        "State": "Kelantan"
    },
    {
        "Postcode": "15050",
        "Location": "Kampung Sireh",
        "Post_Office": "Kota Bharu",
        "State": "Kelantan"
    },
    {
        "Postcode": "15050",
        "Location": "Kampung Sireh Bawah Lembah Hilir \u0026 Hulu",
        "Post_Office": "Kota Bharu",
        "State": "Kelantan"
    },
    {
        "Postcode": "15050",
        "Location": "Kampung Sireh Lorong Pak Nik",
        "Post_Office": "Kota Bharu",
        "State": "Kelantan"
    },
    {
        "Postcode": "15050",
        "Location": "Kolej Kejururawatan Dan Kesihatan Masterskill Jalan Hamzah",
        "Post_Office": "Kota Bharu",
        "State": "Kelantan"
    },
    {
        "Postcode": "15050",
        "Location": "Lorong Haji Supian",
        "Post_Office": "Kota Bharu",
        "State": "Kelantan"
    },
    {
        "Postcode": "15050",
        "Location": "Lorong Hilir Kota Lama",
        "Post_Office": "Kota Bharu",
        "State": "Kelantan"
    },
    {
        "Postcode": "15050",
        "Location": "Lorong Istana Kota Lama",
        "Post_Office": "Kota Bharu",
        "State": "Kelantan"
    },
    {
        "Postcode": "15050",
        "Location": "Lorong Kak Timah Jalan Sultanah Zainab",
        "Post_Office": "Kota Bharu",
        "State": "Kelantan"
    },
    {
        "Postcode": "15050",
        "Location": "Lorong Kubor Kuda",
        "Post_Office": "Kota Bharu",
        "State": "Kelantan"
    },
    {
        "Postcode": "15050",
        "Location": "Lorong Minyak Gas",
        "Post_Office": "Kota Bharu",
        "State": "Kelantan"
    },
    {
        "Postcode": "15050",
        "Location": "Lorong Minyak Shell",
        "Post_Office": "Kota Bharu",
        "State": "Kelantan"
    },
    {
        "Postcode": "15050",
        "Location": "Lorong Nyior Raja Muda",
        "Post_Office": "Kota Bharu",
        "State": "Kelantan"
    },
    {
        "Postcode": "15050",
        "Location": "Lorong Puspa",
        "Post_Office": "Kota Bharu",
        "State": "Kelantan"
    },
    {
        "Postcode": "15050",
        "Location": "Lorong Raja Muda Hamzah",
        "Post_Office": "Kota Bharu",
        "State": "Kelantan"
    },
    {
        "Postcode": "15050",
        "Location": "Lorong Raja Petani",
        "Post_Office": "Kota Bharu",
        "State": "Kelantan"
    },
    {
        "Postcode": "15050",
        "Location": "Lorong Sekolah K.E.S",
        "Post_Office": "Kota Bharu",
        "State": "Kelantan"
    },
    {
        "Postcode": "15050",
        "Location": "Lorong Sekolah Kebangsaan Kampung Sireh",
        "Post_Office": "Kota Bharu",
        "State": "Kelantan"
    },
    {
        "Postcode": "15050",
        "Location": "Lorong Tukang Perak",
        "Post_Office": "Kota Bharu",
        "State": "Kelantan"
    },
    {
        "Postcode": "15050",
        "Location": "Lorong Tukey Pewn",
        "Post_Office": "Kota Bharu",
        "State": "Kelantan"
    },
    {
        "Postcode": "15050",
        "Location": "Taman Fateh \u0026 Son",
        "Post_Office": "Kota Bharu",
        "State": "Kelantan"
    },
    {
        "Postcode": "15050",
        "Location": "Taman Limau Manis",
        "Post_Office": "Kota Bharu",
        "State": "Kelantan"
    },
    {
        "Postcode": "15050",
        "Location": "Taman Limau Manis Timur \u0026 Barat",
        "Post_Office": "Kota Bharu",
        "State": "Kelantan"
    },
    {
        "Postcode": "15050",
        "Location": "Tesco",
        "Post_Office": "Kota Bharu",
        "State": "Kelantan"
    },
    {
        "Postcode": "15050",
        "Location": "Wisma Hajah Habsah / Dtc",
        "Post_Office": "Kota Bharu",
        "State": "Kelantan"
    },
    {
        "Postcode": "15050",
        "Location": "Wisma Pkink",
        "Post_Office": "Kota Bharu",
        "State": "Kelantan"
    },
    {
        "Postcode": "15050",
        "Location": "Wisma Soon Cheong",
        "Post_Office": "Kota Bharu",
        "State": "Kelantan"
    }
]
