[
    {
        "Postcode": "15100",
        "Location": "Jalan Puteri Saadong",
        "Post_Office": "Kota Bharu",
        "State": "Kelantan"
    },
    {
        "Postcode": "15100",
        "Location": "Kampung Aur Duri",
        "Post_Office": "Kota Bharu",
        "State": "Kelantan"
    },
    {
        "Postcode": "15100",
        "Location": "Jalan Beta Hilir",
        "Post_Office": "Kota Bharu",
        "State": "Kelantan"
    },
    {
        "Postcode": "15100",
        "Location": "Jalan Chekeli",
        "Post_Office": "Kota Bharu",
        "State": "Kelantan"
    },
    {
        "Postcode": "15100",
        "Location": "Jalan Hilir Masjid Kampung Sireh",
        "Post_Office": "Kota Bharu",
        "State": "Kelantan"
    },
    {
        "Postcode": "15100",
        "Location": "Jalan Kampung Sireh",
        "Post_Office": "Kota Bharu",
        "State": "Kelantan"
    },
    {
        "Postcode": "15100",
        "Location": "Jalan Kota Jelasing",
        "Post_Office": "Kota Bharu",
        "State": "Kelantan"
    },
    {
        "Postcode": "15100",
        "Location": "Jalan Pondok Batu 6",
        "Post_Office": "Kota Bharu",
        "State": "Kelantan"
    },
    {
        "Postcode": "15100",
        "Location": "Lorong Balai Polis Salor",
        "Post_Office": "Kota Bharu",
        "State": "Kelantan"
    },
    {
        "Postcode": "15100",
        "Location": "Lorong Balasah",
        "Post_Office": "Kota Bharu",
        "State": "Kelantan"
    },
    {
        "Postcode": "15100",
        "Location": "Lorong Beringi",
        "Post_Office": "Kota Bharu",
        "State": "Kelantan"
    },
    {
        "Postcode": "15100",
        "Location": "Lorong Bomoh Said",
        "Post_Office": "Kota Bharu",
        "State": "Kelantan"
    },
    {
        "Postcode": "15100",
        "Location": "Lorong Che Gu Ripin",
        "Post_Office": "Kota Bharu",
        "State": "Kelantan"
    },
    {
        "Postcode": "15100",
        "Location": "Lorong Gajah Puteh",
        "Post_Office": "Kota Bharu",
        "State": "Kelantan"
    },
    {
        "Postcode": "15100",
        "Location": "Lorong Haji Abdullah",
        "Post_Office": "Kota Bharu",
        "State": "Kelantan"
    },
    {
        "Postcode": "15100",
        "Location": "Lorong Haji Hussen Singer",
        "Post_Office": "Kota Bharu",
        "State": "Kelantan"
    },
    {
        "Postcode": "15100",
        "Location": "Lorong Haji Mustapha",
        "Post_Office": "Kota Bharu",
        "State": "Kelantan"
    },
    {
        "Postcode": "15100",
        "Location": "Lorong Kerawat",
        "Post_Office": "Kota Bharu",
        "State": "Kelantan"
    },
    {
        "Postcode": "15100",
        "Location": "Lorong Kubur Manggis",
        "Post_Office": "Kota Bharu",
        "State": "Kelantan"
    },
    {
        "Postcode": "15100",
        "Location": "Lorong Larak",
        "Post_Office": "Kota Bharu",
        "State": "Kelantan"
    },
    {
        "Postcode": "15100",
        "Location": "Lorong Madrasah Padang Layang",
        "Post_Office": "Kota Bharu",
        "State": "Kelantan"
    },
    {
        "Postcode": "15100",
        "Location": "Lorong Masjid Salor",
        "Post_Office": "Kota Bharu",
        "State": "Kelantan"
    },
    {
        "Postcode": "15100",
        "Location": "Lorong Pak Sin",
        "Post_Office": "Kota Bharu",
        "State": "Kelantan"
    },
    {
        "Postcode": "15100",
        "Location": "Lorong Paloh Laka",
        "Post_Office": "Kota Bharu",
        "State": "Kelantan"
    },
    {
        "Postcode": "15100",
        "Location": "Lorong Pengkalan Batu",
        "Post_Office": "Kota Bharu",
        "State": "Kelantan"
    },
    {
        "Postcode": "15100",
        "Location": "Lorong Pengkalan Selat",
        "Post_Office": "Kota Bharu",
        "State": "Kelantan"
    },
    {
        "Postcode": "15100",
        "Location": "Lorong Pohon Rambai",
        "Post_Office": "Kota Bharu",
        "State": "Kelantan"
    },
    {
        "Postcode": "15100",
        "Location": "Lorong Pohon Sagu",
        "Post_Office": "Kota Bharu",
        "State": "Kelantan"
    },
    {
        "Postcode": "15100",
        "Location": "Lorong Sejahtera",
        "Post_Office": "Kota Bharu",
        "State": "Kelantan"
    },
    {
        "Postcode": "15100",
        "Location": "Lorong Sek.Keb.Salor",
        "Post_Office": "Kota Bharu",
        "State": "Kelantan"
    },
    {
        "Postcode": "15100",
        "Location": "Lorong Sek.Keb.Seberang Pasir",
        "Post_Office": "Kota Bharu",
        "State": "Kelantan"
    },
    {
        "Postcode": "15100",
        "Location": "Lorong Sri Kedodong",
        "Post_Office": "Kota Bharu",
        "State": "Kelantan"
    },
    {
        "Postcode": "15100",
        "Location": "Lorong Surau Kota 2",
        "Post_Office": "Kota Bharu",
        "State": "Kelantan"
    },
    {
        "Postcode": "15100",
        "Location": "Lorong Wakaf Sena",
        "Post_Office": "Kota Bharu",
        "State": "Kelantan"
    },
    {
        "Postcode": "15100",
        "Location": "Lorong Wan Haji Abdullah",
        "Post_Office": "Kota Bharu",
        "State": "Kelantan"
    },
    {
        "Postcode": "15100",
        "Location": "Lorong Zulkifli",
        "Post_Office": "Kota Bharu",
        "State": "Kelantan"
    },
    {
        "Postcode": "15100",
        "Location": "Kampung Mesa",
        "Post_Office": "Kota Bharu",
        "State": "Kelantan"
    },
    {
        "Postcode": "15100",
        "Location": "Kampung Paya",
        "Post_Office": "Kota Bharu",
        "State": "Kelantan"
    },
    {
        "Postcode": "15100",
        "Location": "Kampung Salor",
        "Post_Office": "Kota Bharu",
        "State": "Kelantan"
    },
    {
        "Postcode": "15100",
        "Location": "Betong 1",
        "Post_Office": "Kota Bharu",
        "State": "Kelantan"
    },
    {
        "Postcode": "15100",
        "Location": "Betong 2",
        "Post_Office": "Kota Bharu",
        "State": "Kelantan"
    },
    {
        "Postcode": "15100",
        "Location": "Kampung Bentong 1",
        "Post_Office": "Kota Bharu",
        "State": "Kelantan"
    },
    {
        "Postcode": "15100",
        "Location": "Kampung Bentong 2",
        "Post_Office": "Kota Bharu",
        "State": "Kelantan"
    },
    {
        "Postcode": "15100",
        "Location": "Kampung Padang Rawa 1",
        "Post_Office": "Kota Bharu",
        "State": "Kelantan"
    },
    {
        "Postcode": "15100",
        "Location": "Kampung Padang Rawa 2",
        "Post_Office": "Kota Bharu",
        "State": "Kelantan"
    },
    {
        "Postcode": "15100",
        "Location": "Kampung Baru",
        "Post_Office": "Kota Bharu",
        "State": "Kelantan"
    },
    {
        "Postcode": "15100",
        "Location": "Kampung Betong",
        "Post_Office": "Kota Bharu",
        "State": "Kelantan"
    },
    {
        "Postcode": "15100",
        "Location": "Kampung Gua",
        "Post_Office": "Kota Bharu",
        "State": "Kelantan"
    },
    {
        "Postcode": "15100",
        "Location": "Kampung Padang Tengah",
        "Post_Office": "Kota Bharu",
        "State": "Kelantan"
    },
    {
        "Postcode": "15100",
        "Location": "Kampung Surau",
        "Post_Office": "Kota Bharu",
        "State": "Kelantan"
    },
    {
        "Postcode": "15100",
        "Location": "Batu 8 - Batu 10 3/4 Jalan Pasir Mas Salor",
        "Post_Office": "Kota Bharu",
        "State": "Kelantan"
    },
    {
        "Postcode": "15100",
        "Location": "Belakang Masjid Pintu Geng",
        "Post_Office": "Kota Bharu",
        "State": "Kelantan"
    },
    {
        "Postcode": "15100",
        "Location": "Beta Hilir",
        "Post_Office": "Kota Bharu",
        "State": "Kelantan"
    },
    {
        "Postcode": "15100",
        "Location": "Cabang Tiga Pendek",
        "Post_Office": "Kota Bharu",
        "State": "Kelantan"
    },
    {
        "Postcode": "15100",
        "Location": "Jalan Kampung Che Bee",
        "Post_Office": "Kota Bharu",
        "State": "Kelantan"
    },
    {
        "Postcode": "15100",
        "Location": "Jalan Pasir Kota",
        "Post_Office": "Kota Bharu",
        "State": "Kelantan"
    },
    {
        "Postcode": "15100",
        "Location": "Jalan Pasir Mas Salor",
        "Post_Office": "Kota Bharu",
        "State": "Kelantan"
    },
    {
        "Postcode": "15100",
        "Location": "Jalan Pasir Mas Salor Batu 7 3/4",
        "Post_Office": "Kota Bharu",
        "State": "Kelantan"
    },
    {
        "Postcode": "15100",
        "Location": "Jalan Pintu Geng",
        "Post_Office": "Kota Bharu",
        "State": "Kelantan"
    },
    {
        "Postcode": "15100",
        "Location": "Jalan Salor",
        "Post_Office": "Kota Bharu",
        "State": "Kelantan"
    },
    {
        "Postcode": "15100",
        "Location": "Jalan Salor Batu 4 3/4 - 7 3/4",
        "Post_Office": "Kota Bharu",
        "State": "Kelantan"
    },
    {
        "Postcode": "15100",
        "Location": "Jalan Sekolah Kebangsaan Paloh",
        "Post_Office": "Kota Bharu",
        "State": "Kelantan"
    },
    {
        "Postcode": "15100",
        "Location": "Jambatan 1 Dan 2 Paloh",
        "Post_Office": "Kota Bharu",
        "State": "Kelantan"
    },
    {
        "Postcode": "15100",
        "Location": "Kampung Atas Pagar",
        "Post_Office": "Kota Bharu",
        "State": "Kelantan"
    },
    {
        "Postcode": "15100",
        "Location": "Kampung Atas Pengget",
        "Post_Office": "Kota Bharu",
        "State": "Kelantan"
    },
    {
        "Postcode": "15100",
        "Location": "Kampung Aur Duri Salor",
        "Post_Office": "Kota Bharu",
        "State": "Kelantan"
    },
    {
        "Postcode": "15100",
        "Location": "Kampung Ayer Deras (Km 5)",
        "Post_Office": "Kota Bharu",
        "State": "Kelantan"
    },
    {
        "Postcode": "15100",
        "Location": "Kampung Baru Padang Sakar",
        "Post_Office": "Kota Bharu",
        "State": "Kelantan"
    },
    {
        "Postcode": "15100",
        "Location": "Kampung Baru Salor",
        "Post_Office": "Kota Bharu",
        "State": "Kelantan"
    },
    {
        "Postcode": "15100",
        "Location": "Kampung Batu 4 (Kota)",
        "Post_Office": "Kota Bharu",
        "State": "Kelantan"
    },
    {
        "Postcode": "15100",
        "Location": "Kampung Belukar (Salor)",
        "Post_Office": "Kota Bharu",
        "State": "Kelantan"
    },
    {
        "Postcode": "15100",
        "Location": "Kampung Belukar Padang Tengah",
        "Post_Office": "Kota Bharu",
        "State": "Kelantan"
    },
    {
        "Postcode": "15100",
        "Location": "Kampung Belukar Salor",
        "Post_Office": "Kota Bharu",
        "State": "Kelantan"
    },
    {
        "Postcode": "15100",
        "Location": "Kampung Beringin",
        "Post_Office": "Kota Bharu",
        "State": "Kelantan"
    },
    {
        "Postcode": "15100",
        "Location": "Kampung Beta Chekeli",
        "Post_Office": "Kota Bharu",
        "State": "Kelantan"
    },
    {
        "Postcode": "15100",
        "Location": "Kampung Beta Hilir",
        "Post_Office": "Kota Bharu",
        "State": "Kelantan"
    },
    {
        "Postcode": "15100",
        "Location": "Kampung Chabang Tiga Pendek",
        "Post_Office": "Kota Bharu",
        "State": "Kelantan"
    },
    {
        "Postcode": "15100",
        "Location": "Kampung Chee Bee",
        "Post_Office": "Kota Bharu",
        "State": "Kelantan"
    },
    {
        "Postcode": "15100",
        "Location": "Kampung Chekeli",
        "Post_Office": "Kota Bharu",
        "State": "Kelantan"
    },
    {
        "Postcode": "15100",
        "Location": "Kampung Datok",
        "Post_Office": "Kota Bharu",
        "State": "Kelantan"
    },
    {
        "Postcode": "15100",
        "Location": "Kampung Dewan",
        "Post_Office": "Kota Bharu",
        "State": "Kelantan"
    },
    {
        "Postcode": "15100",
        "Location": "Kampung Dewan Beta Hilir",
        "Post_Office": "Kota Bharu",
        "State": "Kelantan"
    },
    {
        "Postcode": "15100",
        "Location": "Kampung Dusun Lada",
        "Post_Office": "Kota Bharu",
        "State": "Kelantan"
    },
    {
        "Postcode": "15100",
        "Location": "Kampung Dusun Pinang",
        "Post_Office": "Kota Bharu",
        "State": "Kelantan"
    },
    {
        "Postcode": "15100",
        "Location": "Kampung Gaung",
        "Post_Office": "Kota Bharu",
        "State": "Kelantan"
    },
    {
        "Postcode": "15100",
        "Location": "Kampung Gaung Beta",
        "Post_Office": "Kota Bharu",
        "State": "Kelantan"
    },
    {
        "Postcode": "15100",
        "Location": "Kampung Gaung Pendek",
        "Post_Office": "Kota Bharu",
        "State": "Kelantan"
    },
    {
        "Postcode": "15100",
        "Location": "Kampung Gertak Lembu",
        "Post_Office": "Kota Bharu",
        "State": "Kelantan"
    },
    {
        "Postcode": "15100",
        "Location": "Kampung Jabil Padang Tengah",
        "Post_Office": "Kota Bharu",
        "State": "Kelantan"
    },
    {
        "Postcode": "15100",
        "Location": "Kampung Jambil",
        "Post_Office": "Kota Bharu",
        "State": "Kelantan"
    },
    {
        "Postcode": "15100",
        "Location": "Kampung Jelutong (Salor)",
        "Post_Office": "Kota Bharu",
        "State": "Kelantan"
    },
    {
        "Postcode": "15100",
        "Location": "Kampung Jelutong Kota",
        "Post_Office": "Kota Bharu",
        "State": "Kelantan"
    },
    {
        "Postcode": "15100",
        "Location": "Kampung Jenereh Keladang",
        "Post_Office": "Kota Bharu",
        "State": "Kelantan"
    },
    {
        "Postcode": "15100",
        "Location": "Kampung Jerulong Salor",
        "Post_Office": "Kota Bharu",
        "State": "Kelantan"
    },
    {
        "Postcode": "15100",
        "Location": "Kampung Jias Chekeli",
        "Post_Office": "Kota Bharu",
        "State": "Kelantan"
    },
    {
        "Postcode": "15100",
        "Location": "Kampung Keladang",
        "Post_Office": "Kota Bharu",
        "State": "Kelantan"
    },
    {
        "Postcode": "15100",
        "Location": "Kampung Kota",
        "Post_Office": "Kota Bharu",
        "State": "Kelantan"
    },
    {
        "Postcode": "15100",
        "Location": "Kampung Kubang Cherang",
        "Post_Office": "Kota Bharu",
        "State": "Kelantan"
    },
    {
        "Postcode": "15100",
        "Location": "Kampung Kubang Cherom",
        "Post_Office": "Kota Bharu",
        "State": "Kelantan"
    },
    {
        "Postcode": "15100",
        "Location": "Kampung Kubang Rawa",
        "Post_Office": "Kota Bharu",
        "State": "Kelantan"
    },
    {
        "Postcode": "15100",
        "Location": "Kampung Kubur Pinang",
        "Post_Office": "Kota Bharu",
        "State": "Kelantan"
    },
    {
        "Postcode": "15100",
        "Location": "Kampung Langgok",
        "Post_Office": "Kota Bharu",
        "State": "Kelantan"
    },
    {
        "Postcode": "15100",
        "Location": "Kampung Langgut",
        "Post_Office": "Kota Bharu",
        "State": "Kelantan"
    },
    {
        "Postcode": "15100",
        "Location": "Kampung Larak",
        "Post_Office": "Kota Bharu",
        "State": "Kelantan"
    },
    {
        "Postcode": "15100",
        "Location": "Kampung Lundong Paku",
        "Post_Office": "Kota Bharu",
        "State": "Kelantan"
    },
    {
        "Postcode": "15100",
        "Location": "Kampung Masar",
        "Post_Office": "Kota Bharu",
        "State": "Kelantan"
    },
    {
        "Postcode": "15100",
        "Location": "Kampung Masjid Kota",
        "Post_Office": "Kota Bharu",
        "State": "Kelantan"
    },
    {
        "Postcode": "15100",
        "Location": "Kampung Masjid Pintu Gang",
        "Post_Office": "Kota Bharu",
        "State": "Kelantan"
    },
    {
        "Postcode": "15100",
        "Location": "Kampung Padang Chenok",
        "Post_Office": "Kota Bharu",
        "State": "Kelantan"
    },
    {
        "Postcode": "15100",
        "Location": "Kampung Padang Chenok Salor",
        "Post_Office": "Kota Bharu",
        "State": "Kelantan"
    },
    {
        "Postcode": "15100",
        "Location": "Kampung Padang Enggang",
        "Post_Office": "Kota Bharu",
        "State": "Kelantan"
    },
    {
        "Postcode": "15100",
        "Location": "Kampung Padang Jerman",
        "Post_Office": "Kota Bharu",
        "State": "Kelantan"
    },
    {
        "Postcode": "15100",
        "Location": "Kampung Padang Layang",
        "Post_Office": "Kota Bharu",
        "State": "Kelantan"
    },
    {
        "Postcode": "15100",
        "Location": "Kampung Padang Layang Pendek",
        "Post_Office": "Kota Bharu",
        "State": "Kelantan"
    },
    {
        "Postcode": "15100",
        "Location": "Kampung Padang Sakar",
        "Post_Office": "Kota Bharu",
        "State": "Kelantan"
    },
    {
        "Postcode": "15100",
        "Location": "Kampung Pak Lomah",
        "Post_Office": "Kota Bharu",
        "State": "Kelantan"
    },
    {
        "Postcode": "15100",
        "Location": "Kampung Paloh",
        "Post_Office": "Kota Bharu",
        "State": "Kelantan"
    },
    {
        "Postcode": "15100",
        "Location": "Kampung Paloh Jambatan",
        "Post_Office": "Kota Bharu",
        "State": "Kelantan"
    },
    {
        "Postcode": "15100",
        "Location": "Kampung Parit China",
        "Post_Office": "Kota Bharu",
        "State": "Kelantan"
    },
    {
        "Postcode": "15100",
        "Location": "Kampung Pasir Kota",
        "Post_Office": "Kota Bharu",
        "State": "Kelantan"
    },
    {
        "Postcode": "15100",
        "Location": "Kampung Pauh Padang Tengah",
        "Post_Office": "Kota Bharu",
        "State": "Kelantan"
    },
    {
        "Postcode": "15100",
        "Location": "Kampung Pendek",
        "Post_Office": "Kota Bharu",
        "State": "Kelantan"
    },
    {
        "Postcode": "15100",
        "Location": "Kampung Pengkalan Feri",
        "Post_Office": "Kota Bharu",
        "State": "Kelantan"
    },
    {
        "Postcode": "15100",
        "Location": "Kampung Pengkalan Kubor Salor",
        "Post_Office": "Kota Bharu",
        "State": "Kelantan"
    },
    {
        "Postcode": "15100",
        "Location": "Kampung Pintu Gang",
        "Post_Office": "Kota Bharu",
        "State": "Kelantan"
    },
    {
        "Postcode": "15100",
        "Location": "Kampung Seberang Pasir Mas - Salor",
        "Post_Office": "Kota Bharu",
        "State": "Kelantan"
    },
    {
        "Postcode": "15100",
        "Location": "Kampung Serian",
        "Post_Office": "Kota Bharu",
        "State": "Kelantan"
    },
    {
        "Postcode": "15100",
        "Location": "Kampung Surau Kota",
        "Post_Office": "Kota Bharu",
        "State": "Kelantan"
    },
    {
        "Postcode": "15100",
        "Location": "Kampung Surau Pendek",
        "Post_Office": "Kota Bharu",
        "State": "Kelantan"
    },
    {
        "Postcode": "15100",
        "Location": "Kampung Telok Cat",
        "Post_Office": "Kota Bharu",
        "State": "Kelantan"
    },
    {
        "Postcode": "15100",
        "Location": "Kampung Telok Chengal",
        "Post_Office": "Kota Bharu",
        "State": "Kelantan"
    },
    {
        "Postcode": "15100",
        "Location": "Kampung Telok Kandis",
        "Post_Office": "Kota Bharu",
        "State": "Kelantan"
    },
    {
        "Postcode": "15100",
        "Location": "Kampung Tok Bongkok",
        "Post_Office": "Kota Bharu",
        "State": "Kelantan"
    },
    {
        "Postcode": "15100",
        "Location": "Kampung Tok Jaafar",
        "Post_Office": "Kota Bharu",
        "State": "Kelantan"
    },
    {
        "Postcode": "15100",
        "Location": "Kampung Wakaf Che Yeh",
        "Post_Office": "Kota Bharu",
        "State": "Kelantan"
    },
    {
        "Postcode": "15100",
        "Location": "Kampung Wakaf Haji Abdullah",
        "Post_Office": "Kota Bharu",
        "State": "Kelantan"
    },
    {
        "Postcode": "15100",
        "Location": "Kampung Wakaf Machang",
        "Post_Office": "Kota Bharu",
        "State": "Kelantan"
    },
    {
        "Postcode": "15100",
        "Location": "Kampung Wakaf Sena Gaung",
        "Post_Office": "Kota Bharu",
        "State": "Kelantan"
    },
    {
        "Postcode": "15100",
        "Location": "Kampung Wakaf Zin",
        "Post_Office": "Kota Bharu",
        "State": "Kelantan"
    },
    {
        "Postcode": "15100",
        "Location": "Kedai Dewan Beta",
        "Post_Office": "Kota Bharu",
        "State": "Kelantan"
    },
    {
        "Postcode": "15100",
        "Location": "Kedai Salor",
        "Post_Office": "Kota Bharu",
        "State": "Kelantan"
    },
    {
        "Postcode": "15100",
        "Location": "Kepala Tembok Pasir Mas",
        "Post_Office": "Kota Bharu",
        "State": "Kelantan"
    },
    {
        "Postcode": "15100",
        "Location": "Lorong Iqrak",
        "Post_Office": "Kota Bharu",
        "State": "Kelantan"
    },
    {
        "Postcode": "15100",
        "Location": "Lorong Kampung Sireh 2",
        "Post_Office": "Kota Bharu",
        "State": "Kelantan"
    },
    {
        "Postcode": "15100",
        "Location": "Lorong Kubur Pinang",
        "Post_Office": "Kota Bharu",
        "State": "Kelantan"
    },
    {
        "Postcode": "15100",
        "Location": "Lorong Kubur Tambak",
        "Post_Office": "Kota Bharu",
        "State": "Kelantan"
    },
    {
        "Postcode": "15100",
        "Location": "Lorong Kubur Terap",
        "Post_Office": "Kota Bharu",
        "State": "Kelantan"
    },
    {
        "Postcode": "15100",
        "Location": "Lorong Kubur Tok Sindir",
        "Post_Office": "Kota Bharu",
        "State": "Kelantan"
    },
    {
        "Postcode": "15100",
        "Location": "Lorong Masjid Kota",
        "Post_Office": "Kota Bharu",
        "State": "Kelantan"
    },
    {
        "Postcode": "15100",
        "Location": "Lorong Pak Nik Wil",
        "Post_Office": "Kota Bharu",
        "State": "Kelantan"
    },
    {
        "Postcode": "15100",
        "Location": "Lorong Puteri Saadong",
        "Post_Office": "Kota Bharu",
        "State": "Kelantan"
    },
    {
        "Postcode": "15100",
        "Location": "Lorong Raja Abdullah",
        "Post_Office": "Kota Bharu",
        "State": "Kelantan"
    },
    {
        "Postcode": "15100",
        "Location": "Lorong Tok Suak",
        "Post_Office": "Kota Bharu",
        "State": "Kelantan"
    },
    {
        "Postcode": "15100",
        "Location": "Mukim Padang Enggang",
        "Post_Office": "Kota Bharu",
        "State": "Kelantan"
    },
    {
        "Postcode": "15100",
        "Location": "Salor",
        "Post_Office": "Kota Bharu",
        "State": "Kelantan"
    },
    {
        "Postcode": "15100",
        "Location": "Seberang Pasir Mas",
        "Post_Office": "Kota Bharu",
        "State": "Kelantan"
    },
    {
        "Postcode": "15100",
        "Location": "Sekolah Kebangsaan Dewan",
        "Post_Office": "Kota Bharu",
        "State": "Kelantan"
    },
    {
        "Postcode": "15100",
        "Location": "Sekolah Kebangsaan Kota",
        "Post_Office": "Kota Bharu",
        "State": "Kelantan"
    },
    {
        "Postcode": "15100",
        "Location": "Sekolah Kebangsaan Paloh Pintu Geng",
        "Post_Office": "Kota Bharu",
        "State": "Kelantan"
    },
    {
        "Postcode": "15100",
        "Location": "Sekolah Kebangsaan Pendek",
        "Post_Office": "Kota Bharu",
        "State": "Kelantan"
    },
    {
        "Postcode": "15100",
        "Location": "Sekolah Kebangsaan Seri Kota",
        "Post_Office": "Kota Bharu",
        "State": "Kelantan"
    },
    {
        "Postcode": "15100",
        "Location": "Sekolah Menengah Dewan Beta",
        "Post_Office": "Kota Bharu",
        "State": "Kelantan"
    },
    {
        "Postcode": "15100",
        "Location": "Sekolah Menengah Kebangsaan Salor",
        "Post_Office": "Kota Bharu",
        "State": "Kelantan"
    },
    {
        "Postcode": "15100",
        "Location": "Sekolah Menengah Kota",
        "Post_Office": "Kota Bharu",
        "State": "Kelantan"
    },
    {
        "Postcode": "15100",
        "Location": "Sekolah Menengah Pintu Geng",
        "Post_Office": "Kota Bharu",
        "State": "Kelantan"
    },
    {
        "Postcode": "15100",
        "Location": "Taman Guru Pintu Geng",
        "Post_Office": "Kota Bharu",
        "State": "Kelantan"
    },
    {
        "Postcode": "15100",
        "Location": "Taman Pendek",
        "Post_Office": "Kota Bharu",
        "State": "Kelantan"
    },
    {
        "Postcode": "15100",
        "Location": "Wakaf Che Yeh",
        "Post_Office": "Kota Bharu",
        "State": "Kelantan"
    },
    {
        "Postcode": "15100",
        "Location": "Wakaf Haji Abdullah",
        "Post_Office": "Kota Bharu",
        "State": "Kelantan"
    }
]
