[
    {
        "Postcode": "15200",
        "Location": "Taman Murni (Jalan Hospital)",
        "Post_Office": "Kota Bharu",
        "State": "Kelantan"
    },
    {
        "Postcode": "15200",
        "Location": "Jalan Hospital",
        "Post_Office": "Kota Bharu",
        "State": "Kelantan"
    },
    {
        "Postcode": "15200",
        "Location": "Jalan Mahmood",
        "Post_Office": "Kota Bharu",
        "State": "Kelantan"
    },
    {
        "Postcode": "15200",
        "Location": "Jalan Pekeliling",
        "Post_Office": "Kota Bharu",
        "State": "Kelantan"
    },
    {
        "Postcode": "15200",
        "Location": "Lorong Damai",
        "Post_Office": "Kota Bharu",
        "State": "Kelantan"
    },
    {
        "Postcode": "15200",
        "Location": "Lorong Sentosa",
        "Post_Office": "Kota Bharu",
        "State": "Kelantan"
    },
    {
        "Postcode": "15200",
        "Location": "Taman Selesa",
        "Post_Office": "Kota Bharu",
        "State": "Kelantan"
    },
    {
        "Postcode": "15200",
        "Location": "Desa Rahmat 1",
        "Post_Office": "Kota Bharu",
        "State": "Kelantan"
    },
    {
        "Postcode": "15200",
        "Location": "Desa Rahmat 2",
        "Post_Office": "Kota Bharu",
        "State": "Kelantan"
    },
    {
        "Postcode": "15200",
        "Location": "Lorong Kubur Tanjung",
        "Post_Office": "Kota Bharu",
        "State": "Kelantan"
    },
    {
        "Postcode": "15200",
        "Location": "Lorong Pak Cik Wader",
        "Post_Office": "Kota Bharu",
        "State": "Kelantan"
    },
    {
        "Postcode": "15200",
        "Location": "Taman Desa Kujid 1",
        "Post_Office": "Kota Bharu",
        "State": "Kelantan"
    },
    {
        "Postcode": "15200",
        "Location": "Taman Desa Kujid 2",
        "Post_Office": "Kota Bharu",
        "State": "Kelantan"
    },
    {
        "Postcode": "15200",
        "Location": "Taman Desa Kujid 3",
        "Post_Office": "Kota Bharu",
        "State": "Kelantan"
    },
    {
        "Postcode": "15200",
        "Location": "Taman Desa Kujid 4",
        "Post_Office": "Kota Bharu",
        "State": "Kelantan"
    },
    {
        "Postcode": "15200",
        "Location": "Taman Desa Kujid 5",
        "Post_Office": "Kota Bharu",
        "State": "Kelantan"
    },
    {
        "Postcode": "15200",
        "Location": "Taman Desa Kujid 6",
        "Post_Office": "Kota Bharu",
        "State": "Kelantan"
    },
    {
        "Postcode": "15200",
        "Location": "Taman Desa Kujid 7",
        "Post_Office": "Kota Bharu",
        "State": "Kelantan"
    },
    {
        "Postcode": "15200",
        "Location": "Taman Desa Kujid 8",
        "Post_Office": "Kota Bharu",
        "State": "Kelantan"
    },
    {
        "Postcode": "15200",
        "Location": "Taman Desa Kujid 9",
        "Post_Office": "Kota Bharu",
        "State": "Kelantan"
    },
    {
        "Postcode": "15200",
        "Location": "Kampung Belukar",
        "Post_Office": "Kota Bharu",
        "State": "Kelantan"
    },
    {
        "Postcode": "15200",
        "Location": "Kampung Cherang",
        "Post_Office": "Kota Bharu",
        "State": "Kelantan"
    },
    {
        "Postcode": "15200",
        "Location": "Kampung Guchil",
        "Post_Office": "Kota Bharu",
        "State": "Kelantan"
    },
    {
        "Postcode": "15200",
        "Location": "Kampung Telok",
        "Post_Office": "Kota Bharu",
        "State": "Kelantan"
    },
    {
        "Postcode": "15200",
        "Location": "Lorong Nyior Chabang",
        "Post_Office": "Kota Bharu",
        "State": "Kelantan"
    },
    {
        "Postcode": "15200",
        "Location": "Perumahan Pkink",
        "Post_Office": "Kota Bharu",
        "State": "Kelantan"
    },
    {
        "Postcode": "15200",
        "Location": "Taman Harmoni",
        "Post_Office": "Kota Bharu",
        "State": "Kelantan"
    },
    {
        "Postcode": "15200",
        "Location": "Taman Hidayah",
        "Post_Office": "Kota Bharu",
        "State": "Kelantan"
    },
    {
        "Postcode": "15200",
        "Location": "Taman Rakyat",
        "Post_Office": "Kota Bharu",
        "State": "Kelantan"
    },
    {
        "Postcode": "15200",
        "Location": "Bangunan Ismail Yaakub",
        "Post_Office": "Kota Bharu",
        "State": "Kelantan"
    },
    {
        "Postcode": "15200",
        "Location": "Bangunan Kelma",
        "Post_Office": "Kota Bharu",
        "State": "Kelantan"
    },
    {
        "Postcode": "15200",
        "Location": "Bangunan Kota Indah",
        "Post_Office": "Kota Bharu",
        "State": "Kelantan"
    },
    {
        "Postcode": "15200",
        "Location": "Bangunan Mpkb Berek 12",
        "Post_Office": "Kota Bharu",
        "State": "Kelantan"
    },
    {
        "Postcode": "15200",
        "Location": "Bangunan Pertanian",
        "Post_Office": "Kota Bharu",
        "State": "Kelantan"
    },
    {
        "Postcode": "15200",
        "Location": "Bangunan Tengku Faris",
        "Post_Office": "Kota Bharu",
        "State": "Kelantan"
    },
    {
        "Postcode": "15200",
        "Location": "Belakang Kilang Air Batu",
        "Post_Office": "Kota Bharu",
        "State": "Kelantan"
    },
    {
        "Postcode": "15200",
        "Location": "Belakang Masjid Pauh",
        "Post_Office": "Kota Bharu",
        "State": "Kelantan"
    },
    {
        "Postcode": "15200",
        "Location": "Belakang Sekolah Kebangsaan Demit",
        "Post_Office": "Kota Bharu",
        "State": "Kelantan"
    },
    {
        "Postcode": "15200",
        "Location": "Belakang Sekolah Tapang",
        "Post_Office": "Kota Bharu",
        "State": "Kelantan"
    },
    {
        "Postcode": "15200",
        "Location": "Berek 12",
        "Post_Office": "Kota Bharu",
        "State": "Kelantan"
    },
    {
        "Postcode": "15200",
        "Location": "Cabang Empat (Bayam)",
        "Post_Office": "Kota Bharu",
        "State": "Kelantan"
    },
    {
        "Postcode": "15200",
        "Location": "Chabang Empat Pauh Jalan Kemumin",
        "Post_Office": "Kota Bharu",
        "State": "Kelantan"
    },
    {
        "Postcode": "15200",
        "Location": "Chabang Empat Pauh Jalan Kemumin/Raja Perempuan Zainab Ii",
        "Post_Office": "Kota Bharu",
        "State": "Kelantan"
    },
    {
        "Postcode": "15200",
        "Location": "Chabang Empat Pauh Jalan Pulau Melaka",
        "Post_Office": "Kota Bharu",
        "State": "Kelantan"
    },
    {
        "Postcode": "15200",
        "Location": "Chabang Tiga Demit",
        "Post_Office": "Kota Bharu",
        "State": "Kelantan"
    },
    {
        "Postcode": "15200",
        "Location": "Desa Jaya",
        "Post_Office": "Kota Bharu",
        "State": "Kelantan"
    },
    {
        "Postcode": "15200",
        "Location": "Desa Rahmat Baru",
        "Post_Office": "Kota Bharu",
        "State": "Kelantan"
    },
    {
        "Postcode": "15200",
        "Location": "Dusun Jaya",
        "Post_Office": "Kota Bharu",
        "State": "Kelantan"
    },
    {
        "Postcode": "15200",
        "Location": "Dusun Tua",
        "Post_Office": "Kota Bharu",
        "State": "Kelantan"
    },
    {
        "Postcode": "15200",
        "Location": "Flat Jalan Bayam",
        "Post_Office": "Kota Bharu",
        "State": "Kelantan"
    },
    {
        "Postcode": "15200",
        "Location": "Flat Polis",
        "Post_Office": "Kota Bharu",
        "State": "Kelantan"
    },
    {
        "Postcode": "15200",
        "Location": "Gelanggang Seni",
        "Post_Office": "Kota Bharu",
        "State": "Kelantan"
    },
    {
        "Postcode": "15200",
        "Location": "Hadapan Balai Islam Lundang",
        "Post_Office": "Kota Bharu",
        "State": "Kelantan"
    },
    {
        "Postcode": "15200",
        "Location": "Hadapan Bengkel Cacat",
        "Post_Office": "Kota Bharu",
        "State": "Kelantan"
    },
    {
        "Postcode": "15200",
        "Location": "Hospital Pakar Perdana",
        "Post_Office": "Kota Bharu",
        "State": "Kelantan"
    },
    {
        "Postcode": "15200",
        "Location": "Hotel Perdana",
        "Post_Office": "Kota Bharu",
        "State": "Kelantan"
    },
    {
        "Postcode": "15200",
        "Location": "Hotel Sutera Inn",
        "Post_Office": "Kota Bharu",
        "State": "Kelantan"
    },
    {
        "Postcode": "15200",
        "Location": "Jabatan Kebudayaan \u0026 Kesenian",
        "Post_Office": "Kota Bharu",
        "State": "Kelantan"
    },
    {
        "Postcode": "15200",
        "Location": "Jalan Baung (Bayam)",
        "Post_Office": "Kota Bharu",
        "State": "Kelantan"
    },
    {
        "Postcode": "15200",
        "Location": "Jalan Bayam",
        "Post_Office": "Kota Bharu",
        "State": "Kelantan"
    },
    {
        "Postcode": "15200",
        "Location": "Jalan Bayam Hadapan Wisma",
        "Post_Office": "Kota Bharu",
        "State": "Kelantan"
    },
    {
        "Postcode": "15200",
        "Location": "Jalan Bayam Lama",
        "Post_Office": "Kota Bharu",
        "State": "Kelantan"
    },
    {
        "Postcode": "15200",
        "Location": "Jalan Belakang Hospital Besar Kota Bharu",
        "Post_Office": "Kota Bharu",
        "State": "Kelantan"
    },
    {
        "Postcode": "15200",
        "Location": "Jalan Belakang Lpp",
        "Post_Office": "Kota Bharu",
        "State": "Kelantan"
    },
    {
        "Postcode": "15200",
        "Location": "Jalan Belakang Masjid Mustaqin",
        "Post_Office": "Kota Bharu",
        "State": "Kelantan"
    },
    {
        "Postcode": "15200",
        "Location": "Jalan Belakang Sekolah Kebangsaan Islah",
        "Post_Office": "Kota Bharu",
        "State": "Kelantan"
    },
    {
        "Postcode": "15200",
        "Location": "Jalan Bentara Kiri",
        "Post_Office": "Kota Bharu",
        "State": "Kelantan"
    },
    {
        "Postcode": "15200",
        "Location": "Jalan Chabang Tiga Telok - Paji",
        "Post_Office": "Kota Bharu",
        "State": "Kelantan"
    },
    {
        "Postcode": "15200",
        "Location": "Jalan Cik Husin",
        "Post_Office": "Kota Bharu",
        "State": "Kelantan"
    },
    {
        "Postcode": "15200",
        "Location": "Jalan Datok Lundang",
        "Post_Office": "Kota Bharu",
        "State": "Kelantan"
    },
    {
        "Postcode": "15200",
        "Location": "Jalan Dusun Muda",
        "Post_Office": "Kota Bharu",
        "State": "Kelantan"
    },
    {
        "Postcode": "15200",
        "Location": "Jalan Dusun Muda Kuarters Hospital",
        "Post_Office": "Kota Bharu",
        "State": "Kelantan"
    },
    {
        "Postcode": "15200",
        "Location": "Jalan Guchil",
        "Post_Office": "Kota Bharu",
        "State": "Kelantan"
    },
    {
        "Postcode": "15200",
        "Location": "Jalan Hospital (Kampung Paya Bemban)",
        "Post_Office": "Kota Bharu",
        "State": "Kelantan"
    },
    {
        "Postcode": "15200",
        "Location": "Jalan Hospital Berek 12",
        "Post_Office": "Kota Bharu",
        "State": "Kelantan"
    },
    {
        "Postcode": "15200",
        "Location": "Jalan Hospital Kampung Tapang",
        "Post_Office": "Kota Bharu",
        "State": "Kelantan"
    },
    {
        "Postcode": "15200",
        "Location": "Jalan Hospital Kanan",
        "Post_Office": "Kota Bharu",
        "State": "Kelantan"
    },
    {
        "Postcode": "15200",
        "Location": "Jalan Hospital/ Jalan Kadir Abadi",
        "Post_Office": "Kota Bharu",
        "State": "Kelantan"
    },
    {
        "Postcode": "15200",
        "Location": "Jalan Husm - Kampung Pauh",
        "Post_Office": "Kota Bharu",
        "State": "Kelantan"
    },
    {
        "Postcode": "15200",
        "Location": "Jalan Iman",
        "Post_Office": "Kota Bharu",
        "State": "Kelantan"
    },
    {
        "Postcode": "15200",
        "Location": "Jalan Jonging / Lorong Jonging",
        "Post_Office": "Kota Bharu",
        "State": "Kelantan"
    },
    {
        "Postcode": "15200",
        "Location": "Jalan Jpj Off Jalan Hospital",
        "Post_Office": "Kota Bharu",
        "State": "Kelantan"
    },
    {
        "Postcode": "15200",
        "Location": "Jalan Kampung Huda",
        "Post_Office": "Kota Bharu",
        "State": "Kelantan"
    },
    {
        "Postcode": "15200",
        "Location": "Jalan Kampung Paya Bemban",
        "Post_Office": "Kota Bharu",
        "State": "Kelantan"
    },
    {
        "Postcode": "15200",
        "Location": "Jalan Kampung Tini",
        "Post_Office": "Kota Bharu",
        "State": "Kelantan"
    },
    {
        "Postcode": "15200",
        "Location": "Jalan Kedai Payong",
        "Post_Office": "Kota Bharu",
        "State": "Kelantan"
    },
    {
        "Postcode": "15200",
        "Location": "Jalan Kilang Air Batu",
        "Post_Office": "Kota Bharu",
        "State": "Kelantan"
    },
    {
        "Postcode": "15200",
        "Location": "Jalan Langgar Kanan",
        "Post_Office": "Kota Bharu",
        "State": "Kelantan"
    },
    {
        "Postcode": "15200",
        "Location": "Jalan Langgar Kiri",
        "Post_Office": "Kota Bharu",
        "State": "Kelantan"
    },
    {
        "Postcode": "15200",
        "Location": "Jalan Langgar Raja",
        "Post_Office": "Kota Bharu",
        "State": "Kelantan"
    },
    {
        "Postcode": "15200",
        "Location": "Jalan Long Yunus",
        "Post_Office": "Kota Bharu",
        "State": "Kelantan"
    },
    {
        "Postcode": "15200",
        "Location": "Jalan Lundang",
        "Post_Office": "Kota Bharu",
        "State": "Kelantan"
    },
    {
        "Postcode": "15200",
        "Location": "Jalan Masjid Bayam",
        "Post_Office": "Kota Bharu",
        "State": "Kelantan"
    },
    {
        "Postcode": "15200",
        "Location": "Jalan Masjid Cherang",
        "Post_Office": "Kota Bharu",
        "State": "Kelantan"
    },
    {
        "Postcode": "15200",
        "Location": "Jalan Masjid Mustaqin",
        "Post_Office": "Kota Bharu",
        "State": "Kelantan"
    },
    {
        "Postcode": "15200",
        "Location": "Jalan Masjid Pasir Hor",
        "Post_Office": "Kota Bharu",
        "State": "Kelantan"
    },
    {
        "Postcode": "15200",
        "Location": "Jalan Masjid Pauh",
        "Post_Office": "Kota Bharu",
        "State": "Kelantan"
    },
    {
        "Postcode": "15200",
        "Location": "Jalan Pasir Hor",
        "Post_Office": "Kota Bharu",
        "State": "Kelantan"
    },
    {
        "Postcode": "15200",
        "Location": "Jalan Pasir Puteh (Km 1 - 5)",
        "Post_Office": "Kota Bharu",
        "State": "Kelantan"
    },
    {
        "Postcode": "15200",
        "Location": "Jalan Pasir Puteh Kiri",
        "Post_Office": "Kota Bharu",
        "State": "Kelantan"
    },
    {
        "Postcode": "15200",
        "Location": "Jalan Pauh",
        "Post_Office": "Kota Bharu",
        "State": "Kelantan"
    },
    {
        "Postcode": "15200",
        "Location": "Jalan Pejabat Fama",
        "Post_Office": "Kota Bharu",
        "State": "Kelantan"
    },
    {
        "Postcode": "15200",
        "Location": "Jalan Pekeliling Off Taman Maju",
        "Post_Office": "Kota Bharu",
        "State": "Kelantan"
    },
    {
        "Postcode": "15200",
        "Location": "Jalan Sri Langgar",
        "Post_Office": "Kota Bharu",
        "State": "Kelantan"
    },
    {
        "Postcode": "15200",
        "Location": "Jalan Stadium Hulu",
        "Post_Office": "Kota Bharu",
        "State": "Kelantan"
    },
    {
        "Postcode": "15200",
        "Location": "Jalan Sultan Yahya Petra",
        "Post_Office": "Kota Bharu",
        "State": "Kelantan"
    },
    {
        "Postcode": "15200",
        "Location": "Jalan Sultan Yahya Petra Batu 3 1/2",
        "Post_Office": "Kota Bharu",
        "State": "Kelantan"
    },
    {
        "Postcode": "15200",
        "Location": "Jalan Sultan Yahya Petra Batu 3 1/4",
        "Post_Office": "Kota Bharu",
        "State": "Kelantan"
    },
    {
        "Postcode": "15200",
        "Location": "Jalan Tali Air Cherang",
        "Post_Office": "Kota Bharu",
        "State": "Kelantan"
    },
    {
        "Postcode": "15200",
        "Location": "Jalan Taman Seri",
        "Post_Office": "Kota Bharu",
        "State": "Kelantan"
    },
    {
        "Postcode": "15200",
        "Location": "Jalan Taman Seri Bahari",
        "Post_Office": "Kota Bharu",
        "State": "Kelantan"
    },
    {
        "Postcode": "15200",
        "Location": "Jalan Taman Telok Baru",
        "Post_Office": "Kota Bharu",
        "State": "Kelantan"
    },
    {
        "Postcode": "15200",
        "Location": "Jalan Teluk",
        "Post_Office": "Kota Bharu",
        "State": "Kelantan"
    },
    {
        "Postcode": "15200",
        "Location": "Jalan Tini",
        "Post_Office": "Kota Bharu",
        "State": "Kelantan"
    },
    {
        "Postcode": "15200",
        "Location": "Jalan Titian Datok",
        "Post_Office": "Kota Bharu",
        "State": "Kelantan"
    },
    {
        "Postcode": "15200",
        "Location": "Jalan Yakobiah",
        "Post_Office": "Kota Bharu",
        "State": "Kelantan"
    },
    {
        "Postcode": "15200",
        "Location": "Kampung Baung (Bayam)",
        "Post_Office": "Kota Bharu",
        "State": "Kelantan"
    },
    {
        "Postcode": "15200",
        "Location": "Kampung Bayam",
        "Post_Office": "Kota Bharu",
        "State": "Kelantan"
    },
    {
        "Postcode": "15200",
        "Location": "Kampung Bayam Guchil",
        "Post_Office": "Kota Bharu",
        "State": "Kelantan"
    },
    {
        "Postcode": "15200",
        "Location": "Kampung Bayang",
        "Post_Office": "Kota Bharu",
        "State": "Kelantan"
    },
    {
        "Postcode": "15200",
        "Location": "Kampung Belukar Panji",
        "Post_Office": "Kota Bharu",
        "State": "Kelantan"
    },
    {
        "Postcode": "15200",
        "Location": "Kampung Belukar Pauh Tapang",
        "Post_Office": "Kota Bharu",
        "State": "Kelantan"
    },
    {
        "Postcode": "15200",
        "Location": "Kampung Chabang Empat Bayam",
        "Post_Office": "Kota Bharu",
        "State": "Kelantan"
    },
    {
        "Postcode": "15200",
        "Location": "Kampung Cherang Jalan Dusun Raja",
        "Post_Office": "Kota Bharu",
        "State": "Kelantan"
    },
    {
        "Postcode": "15200",
        "Location": "Kampung Cherang Jalan Hospital",
        "Post_Office": "Kota Bharu",
        "State": "Kelantan"
    },
    {
        "Postcode": "15200",
        "Location": "Kampung Dusun",
        "Post_Office": "Kota Bharu",
        "State": "Kelantan"
    },
    {
        "Postcode": "15200",
        "Location": "Kampung Dusun Jaya",
        "Post_Office": "Kota Bharu",
        "State": "Kelantan"
    },
    {
        "Postcode": "15200",
        "Location": "Kampung Dusun Muda",
        "Post_Office": "Kota Bharu",
        "State": "Kelantan"
    },
    {
        "Postcode": "15200",
        "Location": "Kampung Guchil Bayam",
        "Post_Office": "Kota Bharu",
        "State": "Kelantan"
    },
    {
        "Postcode": "15200",
        "Location": "Kampung Huda",
        "Post_Office": "Kota Bharu",
        "State": "Kelantan"
    },
    {
        "Postcode": "15200",
        "Location": "Kampung Huda Teluk Baru",
        "Post_Office": "Kota Bharu",
        "State": "Kelantan"
    },
    {
        "Postcode": "15200",
        "Location": "Kampung Jaya",
        "Post_Office": "Kota Bharu",
        "State": "Kelantan"
    },
    {
        "Postcode": "15200",
        "Location": "Kampung Khatib Ali",
        "Post_Office": "Kota Bharu",
        "State": "Kelantan"
    },
    {
        "Postcode": "15200",
        "Location": "Kampung Langgar",
        "Post_Office": "Kota Bharu",
        "State": "Kelantan"
    },
    {
        "Postcode": "15200",
        "Location": "Kampung Padang Kechik",
        "Post_Office": "Kota Bharu",
        "State": "Kelantan"
    },
    {
        "Postcode": "15200",
        "Location": "Kampung Pak Da Jaafar",
        "Post_Office": "Kota Bharu",
        "State": "Kelantan"
    },
    {
        "Postcode": "15200",
        "Location": "Kampung Pasir Hor",
        "Post_Office": "Kota Bharu",
        "State": "Kelantan"
    },
    {
        "Postcode": "15200",
        "Location": "Kampung Pasir Lada",
        "Post_Office": "Kota Bharu",
        "State": "Kelantan"
    },
    {
        "Postcode": "15200",
        "Location": "Kampung Pauh Panji",
        "Post_Office": "Kota Bharu",
        "State": "Kelantan"
    },
    {
        "Postcode": "15200",
        "Location": "Kampung Pauh Simpang",
        "Post_Office": "Kota Bharu",
        "State": "Kelantan"
    },
    {
        "Postcode": "15200",
        "Location": "Kampung Paya Batu",
        "Post_Office": "Kota Bharu",
        "State": "Kelantan"
    },
    {
        "Postcode": "15200",
        "Location": "Kampung Paya Bemban",
        "Post_Office": "Kota Bharu",
        "State": "Kelantan"
    },
    {
        "Postcode": "15200",
        "Location": "Kampung Paya Rambai",
        "Post_Office": "Kota Bharu",
        "State": "Kelantan"
    },
    {
        "Postcode": "15200",
        "Location": "Kampung Paya Rani",
        "Post_Office": "Kota Bharu",
        "State": "Kelantan"
    },
    {
        "Postcode": "15200",
        "Location": "Kampung Pulau Kapas",
        "Post_Office": "Kota Bharu",
        "State": "Kelantan"
    },
    {
        "Postcode": "15200",
        "Location": "Kampung Tapang",
        "Post_Office": "Kota Bharu",
        "State": "Kelantan"
    },
    {
        "Postcode": "15200",
        "Location": "Kampung Telipot",
        "Post_Office": "Kota Bharu",
        "State": "Kelantan"
    },
    {
        "Postcode": "15200",
        "Location": "Kampung Telok Baru",
        "Post_Office": "Kota Bharu",
        "State": "Kelantan"
    },
    {
        "Postcode": "15200",
        "Location": "Kampung Tini",
        "Post_Office": "Kota Bharu",
        "State": "Kelantan"
    },
    {
        "Postcode": "15200",
        "Location": "Kawasan Mel Lundang",
        "Post_Office": "Kota Bharu",
        "State": "Kelantan"
    },
    {
        "Postcode": "15200",
        "Location": "Kedai Baru Sedc Stadium",
        "Post_Office": "Kota Bharu",
        "State": "Kelantan"
    },
    {
        "Postcode": "15200",
        "Location": "Kedai Runcit Ab Razak Belukar Tapang",
        "Post_Office": "Kota Bharu",
        "State": "Kelantan"
    },
    {
        "Postcode": "15200",
        "Location": "Kelab Golf Diraja",
        "Post_Office": "Kota Bharu",
        "State": "Kelantan"
    },
    {
        "Postcode": "15200",
        "Location": "Kompleks Belia \u0026 Sukan Panji",
        "Post_Office": "Kota Bharu",
        "State": "Kelantan"
    },
    {
        "Postcode": "15200",
        "Location": "Lorong Air Batu",
        "Post_Office": "Kota Bharu",
        "State": "Kelantan"
    },
    {
        "Postcode": "15200",
        "Location": "Lorong Asas",
        "Post_Office": "Kota Bharu",
        "State": "Kelantan"
    },
    {
        "Postcode": "15200",
        "Location": "Lorong Azam",
        "Post_Office": "Kota Bharu",
        "State": "Kelantan"
    },
    {
        "Postcode": "15200",
        "Location": "Lorong Bayam Pinggir Tapang",
        "Post_Office": "Kota Bharu",
        "State": "Kelantan"
    },
    {
        "Postcode": "15200",
        "Location": "Lorong Belakang Sekolah Langgar",
        "Post_Office": "Kota Bharu",
        "State": "Kelantan"
    },
    {
        "Postcode": "15200",
        "Location": "Lorong Belukar Telok",
        "Post_Office": "Kota Bharu",
        "State": "Kelantan"
    },
    {
        "Postcode": "15200",
        "Location": "Lorong Bentara Kiri",
        "Post_Office": "Kota Bharu",
        "State": "Kelantan"
    },
    {
        "Postcode": "15200",
        "Location": "Lorong C. Mat Melaka",
        "Post_Office": "Kota Bharu",
        "State": "Kelantan"
    },
    {
        "Postcode": "15200",
        "Location": "Lorong Che Hussin",
        "Post_Office": "Kota Bharu",
        "State": "Kelantan"
    },
    {
        "Postcode": "15200",
        "Location": "Lorong Che Majid",
        "Post_Office": "Kota Bharu",
        "State": "Kelantan"
    },
    {
        "Postcode": "15200",
        "Location": "Lorong Chicha Jalan Hospital",
        "Post_Office": "Kota Bharu",
        "State": "Kelantan"
    },
    {
        "Postcode": "15200",
        "Location": "Lorong Chicha Off Jalan Bayam",
        "Post_Office": "Kota Bharu",
        "State": "Kelantan"
    },
    {
        "Postcode": "15200",
        "Location": "Lorong Cica",
        "Post_Office": "Kota Bharu",
        "State": "Kelantan"
    },
    {
        "Postcode": "15200",
        "Location": "Lorong Cik Siti",
        "Post_Office": "Kota Bharu",
        "State": "Kelantan"
    },
    {
        "Postcode": "15200",
        "Location": "Lorong Cikgu Ishak",
        "Post_Office": "Kota Bharu",
        "State": "Kelantan"
    },
    {
        "Postcode": "15200",
        "Location": "Lorong Damai Cherang",
        "Post_Office": "Kota Bharu",
        "State": "Kelantan"
    },
    {
        "Postcode": "15200",
        "Location": "Lorong Datok Cherang",
        "Post_Office": "Kota Bharu",
        "State": "Kelantan"
    },
    {
        "Postcode": "15200",
        "Location": "Lorong Desa Rahmat",
        "Post_Office": "Kota Bharu",
        "State": "Kelantan"
    },
    {
        "Postcode": "15200",
        "Location": "Lorong Doa",
        "Post_Office": "Kota Bharu",
        "State": "Kelantan"
    },
    {
        "Postcode": "15200",
        "Location": "Lorong Doktor",
        "Post_Office": "Kota Bharu",
        "State": "Kelantan"
    },
    {
        "Postcode": "15200",
        "Location": "Lorong Durian Mas",
        "Post_Office": "Kota Bharu",
        "State": "Kelantan"
    },
    {
        "Postcode": "15200",
        "Location": "Lorong Gu Demit",
        "Post_Office": "Kota Bharu",
        "State": "Kelantan"
    },
    {
        "Postcode": "15200",
        "Location": "Lorong Guchil",
        "Post_Office": "Kota Bharu",
        "State": "Kelantan"
    },
    {
        "Postcode": "15200",
        "Location": "Lorong Haji Abdullah",
        "Post_Office": "Kota Bharu",
        "State": "Kelantan"
    },
    {
        "Postcode": "15200",
        "Location": "Lorong Haji Daud",
        "Post_Office": "Kota Bharu",
        "State": "Kelantan"
    },
    {
        "Postcode": "15200",
        "Location": "Lorong Haji Isamil",
        "Post_Office": "Kota Bharu",
        "State": "Kelantan"
    },
    {
        "Postcode": "15200",
        "Location": "Lorong Haji Mustapaha",
        "Post_Office": "Kota Bharu",
        "State": "Kelantan"
    },
    {
        "Postcode": "15200",
        "Location": "Lorong Haji Nik Jaafar",
        "Post_Office": "Kota Bharu",
        "State": "Kelantan"
    },
    {
        "Postcode": "15200",
        "Location": "Lorong Haji Rahim",
        "Post_Office": "Kota Bharu",
        "State": "Kelantan"
    },
    {
        "Postcode": "15200",
        "Location": "Lorong Haji Wak Long",
        "Post_Office": "Kota Bharu",
        "State": "Kelantan"
    },
    {
        "Postcode": "15200",
        "Location": "Lorong Haji Yusoff",
        "Post_Office": "Kota Bharu",
        "State": "Kelantan"
    },
    {
        "Postcode": "15200",
        "Location": "Lorong Harmoni",
        "Post_Office": "Kota Bharu",
        "State": "Kelantan"
    },
    {
        "Postcode": "15200",
        "Location": "Lorong Iman Lundang",
        "Post_Office": "Kota Bharu",
        "State": "Kelantan"
    },
    {
        "Postcode": "15200",
        "Location": "Lorong Jariah",
        "Post_Office": "Kota Bharu",
        "State": "Kelantan"
    },
    {
        "Postcode": "15200",
        "Location": "Lorong Jonging",
        "Post_Office": "Kota Bharu",
        "State": "Kelantan"
    },
    {
        "Postcode": "15200",
        "Location": "Lorong Kampung Penghulu Shafei",
        "Post_Office": "Kota Bharu",
        "State": "Kelantan"
    },
    {
        "Postcode": "15200",
        "Location": "Lorong Kubor Maras",
        "Post_Office": "Kota Bharu",
        "State": "Kelantan"
    },
    {
        "Postcode": "15200",
        "Location": "Lorong Kubur Beka",
        "Post_Office": "Kota Bharu",
        "State": "Kelantan"
    },
    {
        "Postcode": "15200",
        "Location": "Lorong Kubur Bunut",
        "Post_Office": "Kota Bharu",
        "State": "Kelantan"
    },
    {
        "Postcode": "15200",
        "Location": "Lorong Kubur Maras",
        "Post_Office": "Kota Bharu",
        "State": "Kelantan"
    },
    {
        "Postcode": "15200",
        "Location": "Lorong Kubur Pak Dogol",
        "Post_Office": "Kota Bharu",
        "State": "Kelantan"
    },
    {
        "Postcode": "15200",
        "Location": "Lorong Kubur Pauh",
        "Post_Office": "Kota Bharu",
        "State": "Kelantan"
    },
    {
        "Postcode": "15200",
        "Location": "Lorong Kurma Madu",
        "Post_Office": "Kota Bharu",
        "State": "Kelantan"
    },
    {
        "Postcode": "15200",
        "Location": "Lorong Langgar Muda",
        "Post_Office": "Kota Bharu",
        "State": "Kelantan"
    },
    {
        "Postcode": "15200",
        "Location": "Lorong Langgar Tapang",
        "Post_Office": "Kota Bharu",
        "State": "Kelantan"
    },
    {
        "Postcode": "15200",
        "Location": "Lorong Madani",
        "Post_Office": "Kota Bharu",
        "State": "Kelantan"
    },
    {
        "Postcode": "15200",
        "Location": "Lorong Madrasah Haji Daud Berek 12",
        "Post_Office": "Kota Bharu",
        "State": "Kelantan"
    },
    {
        "Postcode": "15200",
        "Location": "Lorong Madrasah Paya Bemban",
        "Post_Office": "Kota Bharu",
        "State": "Kelantan"
    },
    {
        "Postcode": "15200",
        "Location": "Lorong Madrashah Haji Taib",
        "Post_Office": "Kota Bharu",
        "State": "Kelantan"
    },
    {
        "Postcode": "15200",
        "Location": "Lorong Masjid Takwa",
        "Post_Office": "Kota Bharu",
        "State": "Kelantan"
    },
    {
        "Postcode": "15200",
        "Location": "Lorong Masjid Tapang",
        "Post_Office": "Kota Bharu",
        "State": "Kelantan"
    },
    {
        "Postcode": "15200",
        "Location": "Lorong Mat Salleh",
        "Post_Office": "Kota Bharu",
        "State": "Kelantan"
    },
    {
        "Postcode": "15200",
        "Location": "Lorong Mpi (Sek. Mpi)",
        "Post_Office": "Kota Bharu",
        "State": "Kelantan"
    },
    {
        "Postcode": "15200",
        "Location": "Lorong Mpi Lama",
        "Post_Office": "Kota Bharu",
        "State": "Kelantan"
    },
    {
        "Postcode": "15200",
        "Location": "Lorong Mudik",
        "Post_Office": "Kota Bharu",
        "State": "Kelantan"
    },
    {
        "Postcode": "15200",
        "Location": "Lorong Nahkoda Ali",
        "Post_Office": "Kota Bharu",
        "State": "Kelantan"
    },
    {
        "Postcode": "15200",
        "Location": "Lorong Nisah",
        "Post_Office": "Kota Bharu",
        "State": "Kelantan"
    },
    {
        "Postcode": "15200",
        "Location": "Lorong Nyior China",
        "Post_Office": "Kota Bharu",
        "State": "Kelantan"
    },
    {
        "Postcode": "15200",
        "Location": "Lorong Omar Yunus",
        "Post_Office": "Kota Bharu",
        "State": "Kelantan"
    },
    {
        "Postcode": "15200",
        "Location": "Lorong Padang",
        "Post_Office": "Kota Bharu",
        "State": "Kelantan"
    },
    {
        "Postcode": "15200",
        "Location": "Lorong Padang Kechil",
        "Post_Office": "Kota Bharu",
        "State": "Kelantan"
    },
    {
        "Postcode": "15200",
        "Location": "Lorong Pak Da Will",
        "Post_Office": "Kota Bharu",
        "State": "Kelantan"
    },
    {
        "Postcode": "15200",
        "Location": "Lorong Pak Dir",
        "Post_Office": "Kota Bharu",
        "State": "Kelantan"
    },
    {
        "Postcode": "15200",
        "Location": "Lorong Pak Noh",
        "Post_Office": "Kota Bharu",
        "State": "Kelantan"
    },
    {
        "Postcode": "15200",
        "Location": "Lorong Pak Su Salleh",
        "Post_Office": "Kota Bharu",
        "State": "Kelantan"
    },
    {
        "Postcode": "15200",
        "Location": "Lorong Pakatan",
        "Post_Office": "Kota Bharu",
        "State": "Kelantan"
    },
    {
        "Postcode": "15200",
        "Location": "Lorong Pasir Lada",
        "Post_Office": "Kota Bharu",
        "State": "Kelantan"
    },
    {
        "Postcode": "15200",
        "Location": "Lorong Paya Bemban",
        "Post_Office": "Kota Bharu",
        "State": "Kelantan"
    },
    {
        "Postcode": "15200",
        "Location": "Lorong Perumahan Haji Majid",
        "Post_Office": "Kota Bharu",
        "State": "Kelantan"
    },
    {
        "Postcode": "15200",
        "Location": "Lorong Pinggir Baung Bayam",
        "Post_Office": "Kota Bharu",
        "State": "Kelantan"
    },
    {
        "Postcode": "15200",
        "Location": "Lorong Pondok Talipon",
        "Post_Office": "Kota Bharu",
        "State": "Kelantan"
    },
    {
        "Postcode": "15200",
        "Location": "Lorong Pusara",
        "Post_Office": "Kota Bharu",
        "State": "Kelantan"
    },
    {
        "Postcode": "15200",
        "Location": "Lorong Pusara Kampung Paya Bemban",
        "Post_Office": "Kota Bharu",
        "State": "Kelantan"
    },
    {
        "Postcode": "15200",
        "Location": "Lorong Sabariah Kampung Tapang",
        "Post_Office": "Kota Bharu",
        "State": "Kelantan"
    },
    {
        "Postcode": "15200",
        "Location": "Lorong Sekolah Ugama Naim",
        "Post_Office": "Kota Bharu",
        "State": "Kelantan"
    },
    {
        "Postcode": "15200",
        "Location": "Lorong Sekolah/Lorong Belakang Sekolah",
        "Post_Office": "Kota Bharu",
        "State": "Kelantan"
    },
    {
        "Postcode": "15200",
        "Location": "Lorong Selat",
        "Post_Office": "Kota Bharu",
        "State": "Kelantan"
    },
    {
        "Postcode": "15200",
        "Location": "Lorong Senai",
        "Post_Office": "Kota Bharu",
        "State": "Kelantan"
    },
    {
        "Postcode": "15200",
        "Location": "Lorong Senyum",
        "Post_Office": "Kota Bharu",
        "State": "Kelantan"
    },
    {
        "Postcode": "15200",
        "Location": "Lorong Sibawasih",
        "Post_Office": "Kota Bharu",
        "State": "Kelantan"
    },
    {
        "Postcode": "15200",
        "Location": "Lorong Solahuddinh",
        "Post_Office": "Kota Bharu",
        "State": "Kelantan"
    },
    {
        "Postcode": "15200",
        "Location": "Lorong Sri Guchil",
        "Post_Office": "Kota Bharu",
        "State": "Kelantan"
    },
    {
        "Postcode": "15200",
        "Location": "Lorong Sri Radina",
        "Post_Office": "Kota Bharu",
        "State": "Kelantan"
    },
    {
        "Postcode": "15200",
        "Location": "Lorong Tadika Langgar",
        "Post_Office": "Kota Bharu",
        "State": "Kelantan"
    },
    {
        "Postcode": "15200",
        "Location": "Lorong Tengku Rustam",
        "Post_Office": "Kota Bharu",
        "State": "Kelantan"
    },
    {
        "Postcode": "15200",
        "Location": "Lorong Tepi Taliair Kanan",
        "Post_Office": "Kota Bharu",
        "State": "Kelantan"
    },
    {
        "Postcode": "15200",
        "Location": "Lorong Tepi Taliair Kiri",
        "Post_Office": "Kota Bharu",
        "State": "Kelantan"
    },
    {
        "Postcode": "15200",
        "Location": "Lorong Tini",
        "Post_Office": "Kota Bharu",
        "State": "Kelantan"
    },
    {
        "Postcode": "15200",
        "Location": "Lorong Tiong Batu 3 1/2",
        "Post_Office": "Kota Bharu",
        "State": "Kelantan"
    },
    {
        "Postcode": "15200",
        "Location": "Lorong Titian Dato",
        "Post_Office": "Kota Bharu",
        "State": "Kelantan"
    },
    {
        "Postcode": "15200",
        "Location": "Lorong Tok Gading",
        "Post_Office": "Kota Bharu",
        "State": "Kelantan"
    },
    {
        "Postcode": "15200",
        "Location": "Lorong Tok Hassan",
        "Post_Office": "Kota Bharu",
        "State": "Kelantan"
    },
    {
        "Postcode": "15200",
        "Location": "Lorong Tok Penghulu",
        "Post_Office": "Kota Bharu",
        "State": "Kelantan"
    },
    {
        "Postcode": "15200",
        "Location": "Lorong Tukang Simen",
        "Post_Office": "Kota Bharu",
        "State": "Kelantan"
    },
    {
        "Postcode": "15200",
        "Location": "Majlis Belia",
        "Post_Office": "Kota Bharu",
        "State": "Kelantan"
    },
    {
        "Postcode": "15200",
        "Location": "Maktab Pengajian Islam Jalan Bayam",
        "Post_Office": "Kota Bharu",
        "State": "Kelantan"
    },
    {
        "Postcode": "15200",
        "Location": "Masjid Paya Rambai",
        "Post_Office": "Kota Bharu",
        "State": "Kelantan"
    },
    {
        "Postcode": "15200",
        "Location": "Medan Usahawan",
        "Post_Office": "Kota Bharu",
        "State": "Kelantan"
    },
    {
        "Postcode": "15200",
        "Location": "Mukim Bayam",
        "Post_Office": "Kota Bharu",
        "State": "Kelantan"
    },
    {
        "Postcode": "15200",
        "Location": "Mukim Pauh",
        "Post_Office": "Kota Bharu",
        "State": "Kelantan"
    },
    {
        "Postcode": "15200",
        "Location": "Pasar Berek 12",
        "Post_Office": "Kota Bharu",
        "State": "Kelantan"
    },
    {
        "Postcode": "15200",
        "Location": "Pasir Hor",
        "Post_Office": "Kota Bharu",
        "State": "Kelantan"
    },
    {
        "Postcode": "15200",
        "Location": "Paya Rambai",
        "Post_Office": "Kota Bharu",
        "State": "Kelantan"
    },
    {
        "Postcode": "15200",
        "Location": "Pejabat Bulan Sabit Merah",
        "Post_Office": "Kota Bharu",
        "State": "Kelantan"
    },
    {
        "Postcode": "15200",
        "Location": "Pejabat Kontrektor",
        "Post_Office": "Kota Bharu",
        "State": "Kelantan"
    },
    {
        "Postcode": "15200",
        "Location": "Pejabat Perancang Bandar",
        "Post_Office": "Kota Bharu",
        "State": "Kelantan"
    },
    {
        "Postcode": "15200",
        "Location": "Pejabat Ppk",
        "Post_Office": "Kota Bharu",
        "State": "Kelantan"
    },
    {
        "Postcode": "15200",
        "Location": "Pejabat Radicare Kawasan Timur",
        "Post_Office": "Kota Bharu",
        "State": "Kelantan"
    },
    {
        "Postcode": "15200",
        "Location": "Pejabat Telekom",
        "Post_Office": "Kota Bharu",
        "State": "Kelantan"
    },
    {
        "Postcode": "15200",
        "Location": "Pejabat Telekom Bahagian Kenderaan",
        "Post_Office": "Kota Bharu",
        "State": "Kelantan"
    },
    {
        "Postcode": "15200",
        "Location": "Perumahan /Taman Bayam Baru",
        "Post_Office": "Kota Bharu",
        "State": "Kelantan"
    },
    {
        "Postcode": "15200",
        "Location": "Perumahan /Taman Telok Baru",
        "Post_Office": "Kota Bharu",
        "State": "Kelantan"
    },
    {
        "Postcode": "15200",
        "Location": "Perumahan Pegawai Polis",
        "Post_Office": "Kota Bharu",
        "State": "Kelantan"
    },
    {
        "Postcode": "15200",
        "Location": "River View",
        "Post_Office": "Kota Bharu",
        "State": "Kelantan"
    },
    {
        "Postcode": "15200",
        "Location": "Ruamh Kuarters Jkr Letrik",
        "Post_Office": "Kota Bharu",
        "State": "Kelantan"
    },
    {
        "Postcode": "15200",
        "Location": "Rumah Gu Demit",
        "Post_Office": "Kota Bharu",
        "State": "Kelantan"
    },
    {
        "Postcode": "15200",
        "Location": "Sekolah Kebangsaan (Agama) Naim Libanat",
        "Post_Office": "Kota Bharu",
        "State": "Kelantan"
    },
    {
        "Postcode": "15200",
        "Location": "Sekolah Kebangsaan Islah",
        "Post_Office": "Kota Bharu",
        "State": "Kelantan"
    },
    {
        "Postcode": "15200",
        "Location": "Sekolah Kebangsaan Langgar",
        "Post_Office": "Kota Bharu",
        "State": "Kelantan"
    },
    {
        "Postcode": "15200",
        "Location": "Sekolah Kebangsaan Sri Bemban",
        "Post_Office": "Kota Bharu",
        "State": "Kelantan"
    },
    {
        "Postcode": "15200",
        "Location": "Sekolah Kebangsaan Sultan Ismail 4",
        "Post_Office": "Kota Bharu",
        "State": "Kelantan"
    },
    {
        "Postcode": "15200",
        "Location": "Sekolah Kebangsaan Tapang",
        "Post_Office": "Kota Bharu",
        "State": "Kelantan"
    },
    {
        "Postcode": "15200",
        "Location": "Sekolah Menengah Dato Ahmed Maher",
        "Post_Office": "Kota Bharu",
        "State": "Kelantan"
    },
    {
        "Postcode": "15200",
        "Location": "Simpang Empat Mpi",
        "Post_Office": "Kota Bharu",
        "State": "Kelantan"
    },
    {
        "Postcode": "15200",
        "Location": "Simpang Tiga Berlian Jalan Pasir Puteh",
        "Post_Office": "Kota Bharu",
        "State": "Kelantan"
    },
    {
        "Postcode": "15200",
        "Location": "Simpang Tiga Pasir Hor",
        "Post_Office": "Kota Bharu",
        "State": "Kelantan"
    },
    {
        "Postcode": "15200",
        "Location": "Simpang Tiga Yakobiah",
        "Post_Office": "Kota Bharu",
        "State": "Kelantan"
    },
    {
        "Postcode": "15200",
        "Location": "Stadium Muhamad Ke - 4",
        "Post_Office": "Kota Bharu",
        "State": "Kelantan"
    },
    {
        "Postcode": "15200",
        "Location": "Stadium Sultan Muhamad",
        "Post_Office": "Kota Bharu",
        "State": "Kelantan"
    },
    {
        "Postcode": "15200",
        "Location": "Taman Al Tarbiah",
        "Post_Office": "Kota Bharu",
        "State": "Kelantan"
    },
    {
        "Postcode": "15200",
        "Location": "Taman Aman",
        "Post_Office": "Kota Bharu",
        "State": "Kelantan"
    },
    {
        "Postcode": "15200",
        "Location": "Taman Baru Pauh",
        "Post_Office": "Kota Bharu",
        "State": "Kelantan"
    },
    {
        "Postcode": "15200",
        "Location": "Taman Baru Sri Pauh",
        "Post_Office": "Kota Bharu",
        "State": "Kelantan"
    },
    {
        "Postcode": "15200",
        "Location": "Taman Bayam Baru",
        "Post_Office": "Kota Bharu",
        "State": "Kelantan"
    },
    {
        "Postcode": "15200",
        "Location": "Taman Bentara Kiri",
        "Post_Office": "Kota Bharu",
        "State": "Kelantan"
    },
    {
        "Postcode": "15200",
        "Location": "Taman Budi",
        "Post_Office": "Kota Bharu",
        "State": "Kelantan"
    },
    {
        "Postcode": "15200",
        "Location": "Taman Budi Jalan Pasir Hor",
        "Post_Office": "Kota Bharu",
        "State": "Kelantan"
    },
    {
        "Postcode": "15200",
        "Location": "Taman Chempaka Pauh",
        "Post_Office": "Kota Bharu",
        "State": "Kelantan"
    },
    {
        "Postcode": "15200",
        "Location": "Taman Cherang",
        "Post_Office": "Kota Bharu",
        "State": "Kelantan"
    },
    {
        "Postcode": "15200",
        "Location": "Taman Desa Kota",
        "Post_Office": "Kota Bharu",
        "State": "Kelantan"
    },
    {
        "Postcode": "15200",
        "Location": "Taman Desa Kujid",
        "Post_Office": "Kota Bharu",
        "State": "Kelantan"
    },
    {
        "Postcode": "15200",
        "Location": "Taman Fatin",
        "Post_Office": "Kota Bharu",
        "State": "Kelantan"
    },
    {
        "Postcode": "15200",
        "Location": "Taman Guchil",
        "Post_Office": "Kota Bharu",
        "State": "Kelantan"
    },
    {
        "Postcode": "15200",
        "Location": "Taman Guchil Baru",
        "Post_Office": "Kota Bharu",
        "State": "Kelantan"
    },
    {
        "Postcode": "15200",
        "Location": "Taman Harian",
        "Post_Office": "Kota Bharu",
        "State": "Kelantan"
    },
    {
        "Postcode": "15200",
        "Location": "Taman Intan",
        "Post_Office": "Kota Bharu",
        "State": "Kelantan"
    },
    {
        "Postcode": "15200",
        "Location": "Taman Ismara",
        "Post_Office": "Kota Bharu",
        "State": "Kelantan"
    },
    {
        "Postcode": "15200",
        "Location": "Taman Kemahiran",
        "Post_Office": "Kota Bharu",
        "State": "Kelantan"
    },
    {
        "Postcode": "15200",
        "Location": "Taman Kenangan",
        "Post_Office": "Kota Bharu",
        "State": "Kelantan"
    },
    {
        "Postcode": "15200",
        "Location": "Taman Kubur Pauh",
        "Post_Office": "Kota Bharu",
        "State": "Kelantan"
    },
    {
        "Postcode": "15200",
        "Location": "Taman Maju",
        "Post_Office": "Kota Bharu",
        "State": "Kelantan"
    },
    {
        "Postcode": "15200",
        "Location": "Taman Maufakat",
        "Post_Office": "Kota Bharu",
        "State": "Kelantan"
    },
    {
        "Postcode": "15200",
        "Location": "Taman Melor",
        "Post_Office": "Kota Bharu",
        "State": "Kelantan"
    },
    {
        "Postcode": "15200",
        "Location": "Taman Mf.35",
        "Post_Office": "Kota Bharu",
        "State": "Kelantan"
    },
    {
        "Postcode": "15200",
        "Location": "Taman Muafakat",
        "Post_Office": "Kota Bharu",
        "State": "Kelantan"
    },
    {
        "Postcode": "15200",
        "Location": "Taman Peradang",
        "Post_Office": "Kota Bharu",
        "State": "Kelantan"
    },
    {
        "Postcode": "15200",
        "Location": "Taman Petra Ehsan",
        "Post_Office": "Kota Bharu",
        "State": "Kelantan"
    },
    {
        "Postcode": "15200",
        "Location": "Taman Sari",
        "Post_Office": "Kota Bharu",
        "State": "Kelantan"
    },
    {
        "Postcode": "15200",
        "Location": "Taman Sayang",
        "Post_Office": "Kota Bharu",
        "State": "Kelantan"
    },
    {
        "Postcode": "15200",
        "Location": "Taman Sentosa Pauh",
        "Post_Office": "Kota Bharu",
        "State": "Kelantan"
    },
    {
        "Postcode": "15200",
        "Location": "Taman Seri Laksamana",
        "Post_Office": "Kota Bharu",
        "State": "Kelantan"
    },
    {
        "Postcode": "15200",
        "Location": "Taman Seri Rampai",
        "Post_Office": "Kota Bharu",
        "State": "Kelantan"
    },
    {
        "Postcode": "15200",
        "Location": "Taman Seri Setia",
        "Post_Office": "Kota Bharu",
        "State": "Kelantan"
    },
    {
        "Postcode": "15200",
        "Location": "Taman Sri Bayam",
        "Post_Office": "Kota Bharu",
        "State": "Kelantan"
    },
    {
        "Postcode": "15200",
        "Location": "Taman Sri Cendana",
        "Post_Office": "Kota Bharu",
        "State": "Kelantan"
    },
    {
        "Postcode": "15200",
        "Location": "Taman Sri Pauh Panji",
        "Post_Office": "Kota Bharu",
        "State": "Kelantan"
    },
    {
        "Postcode": "15200",
        "Location": "Taman Sri Rambai",
        "Post_Office": "Kota Bharu",
        "State": "Kelantan"
    },
    {
        "Postcode": "15200",
        "Location": "Taman Teluk Baru",
        "Post_Office": "Kota Bharu",
        "State": "Kelantan"
    },
    {
        "Postcode": "15200",
        "Location": "Tapang",
        "Post_Office": "Kota Bharu",
        "State": "Kelantan"
    },
    {
        "Postcode": "15200",
        "Location": "Wisma Persekutuan",
        "Post_Office": "Kota Bharu",
        "State": "Kelantan"
    },
    {
        "Postcode": "15200",
        "Location": "Wisma Ppk",
        "Post_Office": "Kota Bharu",
        "State": "Kelantan"
    },
    {
        "Postcode": "15200",
        "Location": "Wisma Zar- Belukar Tapang",
        "Post_Office": "Kota Bharu",
        "State": "Kelantan"
    },
    {
        "Postcode": "15200",
        "Location": "Wmi Harmony",
        "Post_Office": "Kota Bharu",
        "State": "Kelantan"
    }
]
