[
    {
        "Postcode": "15300",
        "Location": "Kampung Sungai Keladi",
        "Post_Office": "Kota Bharu",
        "State": "Kelantan"
    },
    {
        "Postcode": "15300",
        "Location": "Taman Sri Tanjung",
        "Post_Office": "Kota Bharu",
        "State": "Kelantan"
    },
    {
        "Postcode": "15300",
        "Location": "Lorong Kebun Sultan 1",
        "Post_Office": "Kota Bharu",
        "State": "Kelantan"
    },
    {
        "Postcode": "15300",
        "Location": "Lorong Kebun Sultan 2",
        "Post_Office": "Kota Bharu",
        "State": "Kelantan"
    },
    {
        "Postcode": "15300",
        "Location": "Lorong Purnama 1",
        "Post_Office": "Kota Bharu",
        "State": "Kelantan"
    },
    {
        "Postcode": "15300",
        "Location": "Lorong Purnama 2",
        "Post_Office": "Kota Bharu",
        "State": "Kelantan"
    },
    {
        "Postcode": "15300",
        "Location": "Lorong Purnama 3",
        "Post_Office": "Kota Bharu",
        "State": "Kelantan"
    },
    {
        "Postcode": "15300",
        "Location": "Sekolah Jenis Kebangsaan Chung Hwa",
        "Post_Office": "Kota Bharu",
        "State": "Kelantan"
    },
    {
        "Postcode": "15300",
        "Location": "Bangunan Dppm",
        "Post_Office": "Kota Bharu",
        "State": "Kelantan"
    },
    {
        "Postcode": "15300",
        "Location": "Bangunan Hussin Baladar",
        "Post_Office": "Kota Bharu",
        "State": "Kelantan"
    },
    {
        "Postcode": "15300",
        "Location": "Bangunan Koperasi Guru",
        "Post_Office": "Kota Bharu",
        "State": "Kelantan"
    },
    {
        "Postcode": "15300",
        "Location": "Bangunan Yamud",
        "Post_Office": "Kota Bharu",
        "State": "Kelantan"
    },
    {
        "Postcode": "15300",
        "Location": "Bangunan Yusmah",
        "Post_Office": "Kota Bharu",
        "State": "Kelantan"
    },
    {
        "Postcode": "15300",
        "Location": "Bazar Buluh Kubu",
        "Post_Office": "Kota Bharu",
        "State": "Kelantan"
    },
    {
        "Postcode": "15300",
        "Location": "Belakang Sekolah Kompleks",
        "Post_Office": "Kota Bharu",
        "State": "Kelantan"
    },
    {
        "Postcode": "15300",
        "Location": "Dusun Raja",
        "Post_Office": "Kota Bharu",
        "State": "Kelantan"
    },
    {
        "Postcode": "15300",
        "Location": "Falt Polis Wakaf Mek Zainab",
        "Post_Office": "Kota Bharu",
        "State": "Kelantan"
    },
    {
        "Postcode": "15300",
        "Location": "Flat Buluh Kubu",
        "Post_Office": "Kota Bharu",
        "State": "Kelantan"
    },
    {
        "Postcode": "15300",
        "Location": "Jalan Atas Banggol",
        "Post_Office": "Kota Bharu",
        "State": "Kelantan"
    },
    {
        "Postcode": "15300",
        "Location": "Jalan Atas Paloh",
        "Post_Office": "Kota Bharu",
        "State": "Kelantan"
    },
    {
        "Postcode": "15300",
        "Location": "Jalan Dalam Kubu",
        "Post_Office": "Kota Bharu",
        "State": "Kelantan"
    },
    {
        "Postcode": "15300",
        "Location": "Jalan Dato Nik Jaafar",
        "Post_Office": "Kota Bharu",
        "State": "Kelantan"
    },
    {
        "Postcode": "15300",
        "Location": "Jalan Dusun Raja Sri Cemerlang",
        "Post_Office": "Kota Bharu",
        "State": "Kelantan"
    },
    {
        "Postcode": "15300",
        "Location": "Jalan Hilir Kota",
        "Post_Office": "Kota Bharu",
        "State": "Kelantan"
    },
    {
        "Postcode": "15300",
        "Location": "Jalan Hulu Kota",
        "Post_Office": "Kota Bharu",
        "State": "Kelantan"
    },
    {
        "Postcode": "15300",
        "Location": "Jalan Kebun Sultan",
        "Post_Office": "Kota Bharu",
        "State": "Kelantan"
    },
    {
        "Postcode": "15300",
        "Location": "Jalan Kebun Sultan - Maybank",
        "Post_Office": "Kota Bharu",
        "State": "Kelantan"
    },
    {
        "Postcode": "15300",
        "Location": "Jalan Kelochor",
        "Post_Office": "Kota Bharu",
        "State": "Kelantan"
    },
    {
        "Postcode": "15300",
        "Location": "Jalan Kubur Keling",
        "Post_Office": "Kota Bharu",
        "State": "Kelantan"
    },
    {
        "Postcode": "15300",
        "Location": "Jalan Merbau",
        "Post_Office": "Kota Bharu",
        "State": "Kelantan"
    },
    {
        "Postcode": "15300",
        "Location": "Jalan Pak Nik Ya",
        "Post_Office": "Kota Bharu",
        "State": "Kelantan"
    },
    {
        "Postcode": "15300",
        "Location": "Jalan Seri Chemerlang",
        "Post_Office": "Kota Bharu",
        "State": "Kelantan"
    },
    {
        "Postcode": "15300",
        "Location": "Jalan Sungai Keladi Atas",
        "Post_Office": "Kota Bharu",
        "State": "Kelantan"
    },
    {
        "Postcode": "15300",
        "Location": "Jalan Sungai Keladi Bawah",
        "Post_Office": "Kota Bharu",
        "State": "Kelantan"
    },
    {
        "Postcode": "15300",
        "Location": "Jalan Tanjong Sri Akar",
        "Post_Office": "Kota Bharu",
        "State": "Kelantan"
    },
    {
        "Postcode": "15300",
        "Location": "Jalan Tanjung Puteri",
        "Post_Office": "Kota Bharu",
        "State": "Kelantan"
    },
    {
        "Postcode": "15300",
        "Location": "Jalan Tengku Mahkota",
        "Post_Office": "Kota Bharu",
        "State": "Kelantan"
    },
    {
        "Postcode": "15300",
        "Location": "Jalan Tengku Puteri",
        "Post_Office": "Kota Bharu",
        "State": "Kelantan"
    },
    {
        "Postcode": "15300",
        "Location": "Jalan Tengku Redzuan",
        "Post_Office": "Kota Bharu",
        "State": "Kelantan"
    },
    {
        "Postcode": "15300",
        "Location": "Jalan Tengku Seri Akar",
        "Post_Office": "Kota Bharu",
        "State": "Kelantan"
    },
    {
        "Postcode": "15300",
        "Location": "Jalan Tok Semaian",
        "Post_Office": "Kota Bharu",
        "State": "Kelantan"
    },
    {
        "Postcode": "15300",
        "Location": "Jalan Wakaf Mek Zainab",
        "Post_Office": "Kota Bharu",
        "State": "Kelantan"
    },
    {
        "Postcode": "15300",
        "Location": "Kampung Paya Purnama",
        "Post_Office": "Kota Bharu",
        "State": "Kelantan"
    },
    {
        "Postcode": "15300",
        "Location": "Kampung Perupok Tikat",
        "Post_Office": "Kota Bharu",
        "State": "Kelantan"
    },
    {
        "Postcode": "15300",
        "Location": "Kampung Tanjong Chat",
        "Post_Office": "Kota Bharu",
        "State": "Kelantan"
    },
    {
        "Postcode": "15300",
        "Location": "Kampung Wakaf Mek Zainab",
        "Post_Office": "Kota Bharu",
        "State": "Kelantan"
    },
    {
        "Postcode": "15300",
        "Location": "Kencana Inn",
        "Post_Office": "Kota Bharu",
        "State": "Kelantan"
    },
    {
        "Postcode": "15300",
        "Location": "Kgmk",
        "Post_Office": "Kota Bharu",
        "State": "Kelantan"
    },
    {
        "Postcode": "15300",
        "Location": "Komplek Tanjong Anis",
        "Post_Office": "Kota Bharu",
        "State": "Kelantan"
    },
    {
        "Postcode": "15300",
        "Location": "Koperasi Pekerja Kelantan",
        "Post_Office": "Kota Bharu",
        "State": "Kelantan"
    },
    {
        "Postcode": "15300",
        "Location": "Lorong Ayam Jalan Kebun Sultan",
        "Post_Office": "Kota Bharu",
        "State": "Kelantan"
    },
    {
        "Postcode": "15300",
        "Location": "Lorong Che Mat Baba",
        "Post_Office": "Kota Bharu",
        "State": "Kelantan"
    },
    {
        "Postcode": "15300",
        "Location": "Lorong Hilir Kota",
        "Post_Office": "Kota Bharu",
        "State": "Kelantan"
    },
    {
        "Postcode": "15300",
        "Location": "Lorong Kampung Baru (P. Kelocor)",
        "Post_Office": "Kota Bharu",
        "State": "Kelantan"
    },
    {
        "Postcode": "15300",
        "Location": "Lorong Kampung Paya Pernama",
        "Post_Office": "Kota Bharu",
        "State": "Kelantan"
    },
    {
        "Postcode": "15300",
        "Location": "Lorong Kelocor Setia",
        "Post_Office": "Kota Bharu",
        "State": "Kelantan"
    },
    {
        "Postcode": "15300",
        "Location": "Lorong Purnama Timur",
        "Post_Office": "Kota Bharu",
        "State": "Kelantan"
    },
    {
        "Postcode": "15300",
        "Location": "Lorong Sekolah Maahad Muhamadi (Perempuan)",
        "Post_Office": "Kota Bharu",
        "State": "Kelantan"
    },
    {
        "Postcode": "15300",
        "Location": "Lorong Sekolah Merbau",
        "Post_Office": "Kota Bharu",
        "State": "Kelantan"
    },
    {
        "Postcode": "15300",
        "Location": "Lorong Sungai Budor",
        "Post_Office": "Kota Bharu",
        "State": "Kelantan"
    },
    {
        "Postcode": "15300",
        "Location": "Lorong Tengku Ahmad",
        "Post_Office": "Kota Bharu",
        "State": "Kelantan"
    },
    {
        "Postcode": "15300",
        "Location": "Lorong Tengku Ibrahim",
        "Post_Office": "Kota Bharu",
        "State": "Kelantan"
    },
    {
        "Postcode": "15300",
        "Location": "Lorong Tengku Ridwan",
        "Post_Office": "Kota Bharu",
        "State": "Kelantan"
    },
    {
        "Postcode": "15300",
        "Location": "Pasar Pusat Buluh Kubu/Siti Khatijah",
        "Post_Office": "Kota Bharu",
        "State": "Kelantan"
    },
    {
        "Postcode": "15300",
        "Location": "Paya Purnama",
        "Post_Office": "Kota Bharu",
        "State": "Kelantan"
    },
    {
        "Postcode": "15300",
        "Location": "Pejabat Pos Kebun Sultan",
        "Post_Office": "Kota Bharu",
        "State": "Kelantan"
    },
    {
        "Postcode": "15300",
        "Location": "Pengkalan Batu Pasir",
        "Post_Office": "Kota Bharu",
        "State": "Kelantan"
    },
    {
        "Postcode": "15300",
        "Location": "Perdagangan Dunia",
        "Post_Office": "Kota Bharu",
        "State": "Kelantan"
    },
    {
        "Postcode": "15300",
        "Location": "Perumahan Seri Tanjung",
        "Post_Office": "Kota Bharu",
        "State": "Kelantan"
    },
    {
        "Postcode": "15300",
        "Location": "Perumahan Tanjung Chat",
        "Post_Office": "Kota Bharu",
        "State": "Kelantan"
    },
    {
        "Postcode": "15300",
        "Location": "Perumahan Wakaf Mek Zainab",
        "Post_Office": "Kota Bharu",
        "State": "Kelantan"
    },
    {
        "Postcode": "15300",
        "Location": "Public Finance",
        "Post_Office": "Kota Bharu",
        "State": "Kelantan"
    },
    {
        "Postcode": "15300",
        "Location": "Sekolah Mahaad Muhamadi (P)",
        "Post_Office": "Kota Bharu",
        "State": "Kelantan"
    },
    {
        "Postcode": "15300",
        "Location": "Sekolah Menengah Chong Cheng",
        "Post_Office": "Kota Bharu",
        "State": "Kelantan"
    },
    {
        "Postcode": "15300",
        "Location": "Sekolah Menengah Jenis Kebangsaa Chung Hwa",
        "Post_Office": "Kota Bharu",
        "State": "Kelantan"
    },
    {
        "Postcode": "15300",
        "Location": "Sekolah Menengah Zainab 2 Jalan Merbau",
        "Post_Office": "Kota Bharu",
        "State": "Kelantan"
    },
    {
        "Postcode": "15300",
        "Location": "Sekolah Rendah Chong Cheng",
        "Post_Office": "Kota Bharu",
        "State": "Kelantan"
    },
    {
        "Postcode": "15300",
        "Location": "Sekolah Rendah Islam An - Nur",
        "Post_Office": "Kota Bharu",
        "State": "Kelantan"
    },
    {
        "Postcode": "15300",
        "Location": "Sekolah Rendah Merbau",
        "Post_Office": "Kota Bharu",
        "State": "Kelantan"
    },
    {
        "Postcode": "15300",
        "Location": "Simpang Empat Jalan Kelochor",
        "Post_Office": "Kota Bharu",
        "State": "Kelantan"
    },
    {
        "Postcode": "15300",
        "Location": "Simpang Empat Jalan Merbau",
        "Post_Office": "Kota Bharu",
        "State": "Kelantan"
    },
    {
        "Postcode": "15300",
        "Location": "Simpang Empat Wakaf Mek Zainab",
        "Post_Office": "Kota Bharu",
        "State": "Kelantan"
    },
    {
        "Postcode": "15300",
        "Location": "Simpang Tiga Jalan Kelochor",
        "Post_Office": "Kota Bharu",
        "State": "Kelantan"
    },
    {
        "Postcode": "15300",
        "Location": "Taman Bahagia",
        "Post_Office": "Kota Bharu",
        "State": "Kelantan"
    },
    {
        "Postcode": "15300",
        "Location": "Taman Dusun Raja",
        "Post_Office": "Kota Bharu",
        "State": "Kelantan"
    },
    {
        "Postcode": "15300",
        "Location": "Taman Koperatif",
        "Post_Office": "Kota Bharu",
        "State": "Kelantan"
    },
    {
        "Postcode": "15300",
        "Location": "Taman T. Ahmad Panglima",
        "Post_Office": "Kota Bharu",
        "State": "Kelantan"
    },
    {
        "Postcode": "15300",
        "Location": "Taman Tanjung Chat",
        "Post_Office": "Kota Bharu",
        "State": "Kelantan"
    },
    {
        "Postcode": "15300",
        "Location": "Taman Tengku Ahmad Panglima",
        "Post_Office": "Kota Bharu",
        "State": "Kelantan"
    },
    {
        "Postcode": "15300",
        "Location": "Taman Zazna",
        "Post_Office": "Kota Bharu",
        "State": "Kelantan"
    },
    {
        "Postcode": "15300",
        "Location": "Tan Chong Building",
        "Post_Office": "Kota Bharu",
        "State": "Kelantan"
    },
    {
        "Postcode": "15300",
        "Location": "Tanjong Chat",
        "Post_Office": "Kota Bharu",
        "State": "Kelantan"
    },
    {
        "Postcode": "15300",
        "Location": "Unittar",
        "Post_Office": "Kota Bharu",
        "State": "Kelantan"
    },
    {
        "Postcode": "15300",
        "Location": "Wakaf Mek Zainab",
        "Post_Office": "Kota Bharu",
        "State": "Kelantan"
    },
    {
        "Postcode": "15300",
        "Location": "Wisma Haji Daud",
        "Post_Office": "Kota Bharu",
        "State": "Kelantan"
    },
    {
        "Postcode": "15300",
        "Location": "Ypm Cawangan Kelantan",
        "Post_Office": "Kota Bharu",
        "State": "Kelantan"
    }
]
