[
    {
        "Postcode": "15350",
        "Location": "Kampung Penambang",
        "Post_Office": "Kota Bharu",
        "State": "Kelantan"
    },
    {
        "Postcode": "15350",
        "Location": "Kampung Pulau Panjang",
        "Post_Office": "Kota Bharu",
        "State": "Kelantan"
    },
    {
        "Postcode": "15350",
        "Location": "Sekolah Kebangsaan Kedai Buluh 1",
        "Post_Office": "Kota Bharu",
        "State": "Kelantan"
    },
    {
        "Postcode": "15350",
        "Location": "Sekolah Kebangsaan Kedai Buluh 2",
        "Post_Office": "Kota Bharu",
        "State": "Kelantan"
    },
    {
        "Postcode": "15350",
        "Location": "Sekolah Menengah Kedai Buluh 1",
        "Post_Office": "Kota Bharu",
        "State": "Kelantan"
    },
    {
        "Postcode": "15350",
        "Location": "Sekolah Menengah Kedai Buluh 2",
        "Post_Office": "Kota Bharu",
        "State": "Kelantan"
    },
    {
        "Postcode": "15350",
        "Location": "Kampung Banggol",
        "Post_Office": "Kota Bharu",
        "State": "Kelantan"
    },
    {
        "Postcode": "15350",
        "Location": "Kampung Binjai Baru",
        "Post_Office": "Kota Bharu",
        "State": "Kelantan"
    },
    {
        "Postcode": "15350",
        "Location": "Kampung Cina",
        "Post_Office": "Kota Bharu",
        "State": "Kelantan"
    },
    {
        "Postcode": "15350",
        "Location": "Kampung Perupok",
        "Post_Office": "Kota Bharu",
        "State": "Kelantan"
    },
    {
        "Postcode": "15350",
        "Location": "Kampung Pulau Gorek",
        "Post_Office": "Kota Bharu",
        "State": "Kelantan"
    },
    {
        "Postcode": "15350",
        "Location": "Banggol",
        "Post_Office": "Kota Bharu",
        "State": "Kelantan"
    },
    {
        "Postcode": "15350",
        "Location": "Flat Kampung Cina Jalan Atas Banggol",
        "Post_Office": "Kota Bharu",
        "State": "Kelantan"
    },
    {
        "Postcode": "15350",
        "Location": "Jalan Baru Jaya Setia",
        "Post_Office": "Kota Bharu",
        "State": "Kelantan"
    },
    {
        "Postcode": "15350",
        "Location": "Jalan Belakang Kem Kijang",
        "Post_Office": "Kota Bharu",
        "State": "Kelantan"
    },
    {
        "Postcode": "15350",
        "Location": "Jalan Belakang Perdana Resort",
        "Post_Office": "Kota Bharu",
        "State": "Kelantan"
    },
    {
        "Postcode": "15350",
        "Location": "Jalan Captain",
        "Post_Office": "Kota Bharu",
        "State": "Kelantan"
    },
    {
        "Postcode": "15350",
        "Location": "Jalan Gajah Mati (Kampung China)",
        "Post_Office": "Kota Bharu",
        "State": "Kelantan"
    },
    {
        "Postcode": "15350",
        "Location": "Jalan Kuala Besar",
        "Post_Office": "Kota Bharu",
        "State": "Kelantan"
    },
    {
        "Postcode": "15350",
        "Location": "Jalan Mustapha",
        "Post_Office": "Kota Bharu",
        "State": "Kelantan"
    },
    {
        "Postcode": "15350",
        "Location": "Jalan Perdana Resort",
        "Post_Office": "Kota Bharu",
        "State": "Kelantan"
    },
    {
        "Postcode": "15350",
        "Location": "Jalan Tok Kong",
        "Post_Office": "Kota Bharu",
        "State": "Kelantan"
    },
    {
        "Postcode": "15350",
        "Location": "Kampung Badang",
        "Post_Office": "Kota Bharu",
        "State": "Kelantan"
    },
    {
        "Postcode": "15350",
        "Location": "Kampung Banggol Jalan Pantai Cinta Berahi",
        "Post_Office": "Kota Bharu",
        "State": "Kelantan"
    },
    {
        "Postcode": "15350",
        "Location": "Kampung Baru Badang",
        "Post_Office": "Kota Bharu",
        "State": "Kelantan"
    },
    {
        "Postcode": "15350",
        "Location": "Kampung Baru Chabang Tiga (Kedai Buloh)",
        "Post_Office": "Kota Bharu",
        "State": "Kelantan"
    },
    {
        "Postcode": "15350",
        "Location": "Kampung Baru Pcb",
        "Post_Office": "Kota Bharu",
        "State": "Kelantan"
    },
    {
        "Postcode": "15350",
        "Location": "Kampung Belian",
        "Post_Office": "Kota Bharu",
        "State": "Kelantan"
    },
    {
        "Postcode": "15350",
        "Location": "Kampung Belukar Badang",
        "Post_Office": "Kota Bharu",
        "State": "Kelantan"
    },
    {
        "Postcode": "15350",
        "Location": "Kampung Binjai Badang",
        "Post_Office": "Kota Bharu",
        "State": "Kelantan"
    },
    {
        "Postcode": "15350",
        "Location": "Kampung Bunga Mas",
        "Post_Office": "Kota Bharu",
        "State": "Kelantan"
    },
    {
        "Postcode": "15350",
        "Location": "Kampung Che Deris",
        "Post_Office": "Kota Bharu",
        "State": "Kelantan"
    },
    {
        "Postcode": "15350",
        "Location": "Kampung Che Kemat",
        "Post_Office": "Kota Bharu",
        "State": "Kelantan"
    },
    {
        "Postcode": "15350",
        "Location": "Kampung Cina Seksyen 2",
        "Post_Office": "Kota Bharu",
        "State": "Kelantan"
    },
    {
        "Postcode": "15350",
        "Location": "Kampung Dal",
        "Post_Office": "Kota Bharu",
        "State": "Kelantan"
    },
    {
        "Postcode": "15350",
        "Location": "Kampung Gok Kapor",
        "Post_Office": "Kota Bharu",
        "State": "Kelantan"
    },
    {
        "Postcode": "15350",
        "Location": "Kampung Hutan Banggol",
        "Post_Office": "Kota Bharu",
        "State": "Kelantan"
    },
    {
        "Postcode": "15350",
        "Location": "Kampung Jaya Setia",
        "Post_Office": "Kota Bharu",
        "State": "Kelantan"
    },
    {
        "Postcode": "15350",
        "Location": "Kampung Ke Sing",
        "Post_Office": "Kota Bharu",
        "State": "Kelantan"
    },
    {
        "Postcode": "15350",
        "Location": "Kampung Kedai Buluh",
        "Post_Office": "Kota Bharu",
        "State": "Kelantan"
    },
    {
        "Postcode": "15350",
        "Location": "Kampung Kijang",
        "Post_Office": "Kota Bharu",
        "State": "Kelantan"
    },
    {
        "Postcode": "15350",
        "Location": "Kampung Kuala Besar",
        "Post_Office": "Kota Bharu",
        "State": "Kelantan"
    },
    {
        "Postcode": "15350",
        "Location": "Kampung Lapan Pari",
        "Post_Office": "Kota Bharu",
        "State": "Kelantan"
    },
    {
        "Postcode": "15350",
        "Location": "Kampung Madat",
        "Post_Office": "Kota Bharu",
        "State": "Kelantan"
    },
    {
        "Postcode": "15350",
        "Location": "Kampung Merbau Badang",
        "Post_Office": "Kota Bharu",
        "State": "Kelantan"
    },
    {
        "Postcode": "15350",
        "Location": "Kampung Paloh Benut",
        "Post_Office": "Kota Bharu",
        "State": "Kelantan"
    },
    {
        "Postcode": "15350",
        "Location": "Kampung Pantai Mek Mas",
        "Post_Office": "Kota Bharu",
        "State": "Kelantan"
    },
    {
        "Postcode": "15350",
        "Location": "Kampung Pantai Pulau Kudur",
        "Post_Office": "Kota Bharu",
        "State": "Kelantan"
    },
    {
        "Postcode": "15350",
        "Location": "Kampung Pauh Pantai Cinta Berahi",
        "Post_Office": "Kota Bharu",
        "State": "Kelantan"
    },
    {
        "Postcode": "15350",
        "Location": "Kampung Pauh Tok Sandang",
        "Post_Office": "Kota Bharu",
        "State": "Kelantan"
    },
    {
        "Postcode": "15350",
        "Location": "Kampung Pengkalan Dopah",
        "Post_Office": "Kota Bharu",
        "State": "Kelantan"
    },
    {
        "Postcode": "15350",
        "Location": "Kampung Pulai Pasir",
        "Post_Office": "Kota Bharu",
        "State": "Kelantan"
    },
    {
        "Postcode": "15350",
        "Location": "Kampung Pulau Batang",
        "Post_Office": "Kota Bharu",
        "State": "Kelantan"
    },
    {
        "Postcode": "15350",
        "Location": "Kampung Pulau Che Noh",
        "Post_Office": "Kota Bharu",
        "State": "Kelantan"
    },
    {
        "Postcode": "15350",
        "Location": "Kampung Pulau Dollah",
        "Post_Office": "Kota Bharu",
        "State": "Kelantan"
    },
    {
        "Postcode": "15350",
        "Location": "Kampung Pulau Gadong",
        "Post_Office": "Kota Bharu",
        "State": "Kelantan"
    },
    {
        "Postcode": "15350",
        "Location": "Kampung Pulau Gondang",
        "Post_Office": "Kota Bharu",
        "State": "Kelantan"
    },
    {
        "Postcode": "15350",
        "Location": "Kampung Pulau Kudur",
        "Post_Office": "Kota Bharu",
        "State": "Kelantan"
    },
    {
        "Postcode": "15350",
        "Location": "Kampung Pulau Kundor",
        "Post_Office": "Kota Bharu",
        "State": "Kelantan"
    },
    {
        "Postcode": "15350",
        "Location": "Kampung Pulau Layat",
        "Post_Office": "Kota Bharu",
        "State": "Kelantan"
    },
    {
        "Postcode": "15350",
        "Location": "Kampung Pulau Pasir",
        "Post_Office": "Kota Bharu",
        "State": "Kelantan"
    },
    {
        "Postcode": "15350",
        "Location": "Kampung Pulau Pisang",
        "Post_Office": "Kota Bharu",
        "State": "Kelantan"
    },
    {
        "Postcode": "15350",
        "Location": "Kampung Pulau Telok Katak",
        "Post_Office": "Kota Bharu",
        "State": "Kelantan"
    },
    {
        "Postcode": "15350",
        "Location": "Kampung Pulau Tirim",
        "Post_Office": "Kota Bharu",
        "State": "Kelantan"
    },
    {
        "Postcode": "15350",
        "Location": "Kampung Semut Api",
        "Post_Office": "Kota Bharu",
        "State": "Kelantan"
    },
    {
        "Postcode": "15350",
        "Location": "Kampung Siti Mani",
        "Post_Office": "Kota Bharu",
        "State": "Kelantan"
    },
    {
        "Postcode": "15350",
        "Location": "Kampung Sungai Budor",
        "Post_Office": "Kota Bharu",
        "State": "Kelantan"
    },
    {
        "Postcode": "15350",
        "Location": "Kampung Tanjong (Kedai Buloh)",
        "Post_Office": "Kota Bharu",
        "State": "Kelantan"
    },
    {
        "Postcode": "15350",
        "Location": "Kampung Tanjong Mahani",
        "Post_Office": "Kota Bharu",
        "State": "Kelantan"
    },
    {
        "Postcode": "15350",
        "Location": "Kampung Tanjung",
        "Post_Office": "Kota Bharu",
        "State": "Kelantan"
    },
    {
        "Postcode": "15350",
        "Location": "Kampung Tanjung Baru (Kedai Buloh)",
        "Post_Office": "Kota Bharu",
        "State": "Kelantan"
    },
    {
        "Postcode": "15350",
        "Location": "Kampung Tasek Badang",
        "Post_Office": "Kota Bharu",
        "State": "Kelantan"
    },
    {
        "Postcode": "15350",
        "Location": "Kampung Tasik",
        "Post_Office": "Kota Bharu",
        "State": "Kelantan"
    },
    {
        "Postcode": "15350",
        "Location": "Kampung Telaga Gajah",
        "Post_Office": "Kota Bharu",
        "State": "Kelantan"
    },
    {
        "Postcode": "15350",
        "Location": "Kampung Telok Chekering",
        "Post_Office": "Kota Bharu",
        "State": "Kelantan"
    },
    {
        "Postcode": "15350",
        "Location": "Kampung Tikat",
        "Post_Office": "Kota Bharu",
        "State": "Kelantan"
    },
    {
        "Postcode": "15350",
        "Location": "Kampung Tikat Kijang",
        "Post_Office": "Kota Bharu",
        "State": "Kelantan"
    },
    {
        "Postcode": "15350",
        "Location": "Kampung Tok Betek",
        "Post_Office": "Kota Bharu",
        "State": "Kelantan"
    },
    {
        "Postcode": "15350",
        "Location": "Kampung Tok Dokang",
        "Post_Office": "Kota Bharu",
        "State": "Kelantan"
    },
    {
        "Postcode": "15350",
        "Location": "Kampung Tok Panjang",
        "Post_Office": "Kota Bharu",
        "State": "Kelantan"
    },
    {
        "Postcode": "15350",
        "Location": "Kampung Tok Puchong",
        "Post_Office": "Kota Bharu",
        "State": "Kelantan"
    },
    {
        "Postcode": "15350",
        "Location": "Kampung Tok Saadan",
        "Post_Office": "Kota Bharu",
        "State": "Kelantan"
    },
    {
        "Postcode": "15350",
        "Location": "Kedai Buloh",
        "Post_Office": "Kota Bharu",
        "State": "Kelantan"
    },
    {
        "Postcode": "15350",
        "Location": "Kem Kijang",
        "Post_Office": "Kota Bharu",
        "State": "Kelantan"
    },
    {
        "Postcode": "15350",
        "Location": "Kompleks Lkin",
        "Post_Office": "Kota Bharu",
        "State": "Kelantan"
    },
    {
        "Postcode": "15350",
        "Location": "Lorong Kampung China",
        "Post_Office": "Kota Bharu",
        "State": "Kelantan"
    },
    {
        "Postcode": "15350",
        "Location": "Lorong Kampung Gok Kapor",
        "Post_Office": "Kota Bharu",
        "State": "Kelantan"
    },
    {
        "Postcode": "15350",
        "Location": "Lorong Kampung Kemboja Penambang Hilir",
        "Post_Office": "Kota Bharu",
        "State": "Kelantan"
    },
    {
        "Postcode": "15350",
        "Location": "Lorong Kampung Nil Nal (Sungai Budor)",
        "Post_Office": "Kota Bharu",
        "State": "Kelantan"
    },
    {
        "Postcode": "15350",
        "Location": "Lorong Kampung Penambang Bunga Mas",
        "Post_Office": "Kota Bharu",
        "State": "Kelantan"
    },
    {
        "Postcode": "15350",
        "Location": "Lorong Kampung Penambang Dalam",
        "Post_Office": "Kota Bharu",
        "State": "Kelantan"
    },
    {
        "Postcode": "15350",
        "Location": "Lorong Kampung Penambang Luar",
        "Post_Office": "Kota Bharu",
        "State": "Kelantan"
    },
    {
        "Postcode": "15350",
        "Location": "Lorong Kampung Sungai Budor",
        "Post_Office": "Kota Bharu",
        "State": "Kelantan"
    },
    {
        "Postcode": "15350",
        "Location": "Lorong Kampung Tanjung Panglima",
        "Post_Office": "Kota Bharu",
        "State": "Kelantan"
    },
    {
        "Postcode": "15350",
        "Location": "Lorong Kubur Dato",
        "Post_Office": "Kota Bharu",
        "State": "Kelantan"
    },
    {
        "Postcode": "15350",
        "Location": "Pantai Cahaya Bulan",
        "Post_Office": "Kota Bharu",
        "State": "Kelantan"
    },
    {
        "Postcode": "15350",
        "Location": "Pantai Kundur",
        "Post_Office": "Kota Bharu",
        "State": "Kelantan"
    },
    {
        "Postcode": "15350",
        "Location": "Pantai Memas",
        "Post_Office": "Kota Bharu",
        "State": "Kelantan"
    },
    {
        "Postcode": "15350",
        "Location": "Pantai Seri",
        "Post_Office": "Kota Bharu",
        "State": "Kelantan"
    },
    {
        "Postcode": "15350",
        "Location": "Pejabat Pelabuhan",
        "Post_Office": "Kota Bharu",
        "State": "Kelantan"
    },
    {
        "Postcode": "15350",
        "Location": "Perdana Resort",
        "Post_Office": "Kota Bharu",
        "State": "Kelantan"
    },
    {
        "Postcode": "15350",
        "Location": "Pulau Besar",
        "Post_Office": "Kota Bharu",
        "State": "Kelantan"
    },
    {
        "Postcode": "15350",
        "Location": "Pulau Haji Nik Mat",
        "Post_Office": "Kota Bharu",
        "State": "Kelantan"
    },
    {
        "Postcode": "15350",
        "Location": "Pulau Kundur",
        "Post_Office": "Kota Bharu",
        "State": "Kelantan"
    },
    {
        "Postcode": "15350",
        "Location": "Sekolah Kebangsaan Cik Latif",
        "Post_Office": "Kota Bharu",
        "State": "Kelantan"
    },
    {
        "Postcode": "15350",
        "Location": "Sekolah Kebangsaan Kundur",
        "Post_Office": "Kota Bharu",
        "State": "Kelantan"
    },
    {
        "Postcode": "15350",
        "Location": "Sekolah Menengah Agama Al Husna",
        "Post_Office": "Kota Bharu",
        "State": "Kelantan"
    },
    {
        "Postcode": "15350",
        "Location": "Taman Buaya Hb Village",
        "Post_Office": "Kota Bharu",
        "State": "Kelantan"
    },
    {
        "Postcode": "15350",
        "Location": "Taman Cinta (Pantai Cahaya Bulan)",
        "Post_Office": "Kota Bharu",
        "State": "Kelantan"
    },
    {
        "Postcode": "15350",
        "Location": "Taman Jaya Setia",
        "Post_Office": "Kota Bharu",
        "State": "Kelantan"
    }
]
