[
    {
        "Postcode": "15400",
        "Location": "Taman Murni (Jalan Pengkalan Chepa)",
        "Post_Office": "Kota Bharu",
        "State": "Kelantan"
    },
    {
        "Postcode": "15400",
        "Location": "Jalan Mahmood",
        "Post_Office": "Kota Bharu",
        "State": "Kelantan"
    },
    {
        "Postcode": "15400",
        "Location": "Kampung Kok Pasir",
        "Post_Office": "Kota Bharu",
        "State": "Kelantan"
    },
    {
        "Postcode": "15400",
        "Location": "Lorong Nyior Chabang",
        "Post_Office": "Kota Bharu",
        "State": "Kelantan"
    },
    {
        "Postcode": "15400",
        "Location": "Batu 1 1/2 \u0026 Batu 1 1/4 Jalan Pengkalan Chepa",
        "Post_Office": "Kota Bharu",
        "State": "Kelantan"
    },
    {
        "Postcode": "15400",
        "Location": "Belakang Konsul Thai",
        "Post_Office": "Kota Bharu",
        "State": "Kelantan"
    },
    {
        "Postcode": "15400",
        "Location": "Belakang Taman Koperatif",
        "Post_Office": "Kota Bharu",
        "State": "Kelantan"
    },
    {
        "Postcode": "15400",
        "Location": "Belakang Taman Tanjung Chat",
        "Post_Office": "Kota Bharu",
        "State": "Kelantan"
    },
    {
        "Postcode": "15400",
        "Location": "Flat Desa Rakyat",
        "Post_Office": "Kota Bharu",
        "State": "Kelantan"
    },
    {
        "Postcode": "15400",
        "Location": "Jalan Belakang Hospital Off Jalan Pengkalan Chepa",
        "Post_Office": "Kota Bharu",
        "State": "Kelantan"
    },
    {
        "Postcode": "15400",
        "Location": "Jalan Dusun Muda Off Jalan Pengkalan Chepa",
        "Post_Office": "Kota Bharu",
        "State": "Kelantan"
    },
    {
        "Postcode": "15400",
        "Location": "Jalan Dusun Raja Off Jalan Pengkalan Chepa",
        "Post_Office": "Kota Bharu",
        "State": "Kelantan"
    },
    {
        "Postcode": "15400",
        "Location": "Jalan Hospital Kiri",
        "Post_Office": "Kota Bharu",
        "State": "Kelantan"
    },
    {
        "Postcode": "15400",
        "Location": "Jalan Long Yunus Off Jalan Pengkalan Chepa",
        "Post_Office": "Kota Bharu",
        "State": "Kelantan"
    },
    {
        "Postcode": "15400",
        "Location": "Jalan Pekeliling Kiri Off Jalan Pengkalan Chepa",
        "Post_Office": "Kota Bharu",
        "State": "Kelantan"
    },
    {
        "Postcode": "15400",
        "Location": "Jalan Pengkalan Chepa",
        "Post_Office": "Kota Bharu",
        "State": "Kelantan"
    },
    {
        "Postcode": "15400",
        "Location": "Jalan Pengkalan Chepa (Batu 2)",
        "Post_Office": "Kota Bharu",
        "State": "Kelantan"
    },
    {
        "Postcode": "15400",
        "Location": "Jalan Tanjong Seri Wangsa",
        "Post_Office": "Kota Bharu",
        "State": "Kelantan"
    },
    {
        "Postcode": "15400",
        "Location": "Jalan Telaga Nibong",
        "Post_Office": "Kota Bharu",
        "State": "Kelantan"
    },
    {
        "Postcode": "15400",
        "Location": "Kampung Bechah Tanjong Mas",
        "Post_Office": "Kota Bharu",
        "State": "Kelantan"
    },
    {
        "Postcode": "15400",
        "Location": "Kampung Berek Kastam",
        "Post_Office": "Kota Bharu",
        "State": "Kelantan"
    },
    {
        "Postcode": "15400",
        "Location": "Kampung Gayong",
        "Post_Office": "Kota Bharu",
        "State": "Kelantan"
    },
    {
        "Postcode": "15400",
        "Location": "Kampung Haji Ishak",
        "Post_Office": "Kota Bharu",
        "State": "Kelantan"
    },
    {
        "Postcode": "15400",
        "Location": "Kampung Haji Taib",
        "Post_Office": "Kota Bharu",
        "State": "Kelantan"
    },
    {
        "Postcode": "15400",
        "Location": "Kampung Jambu",
        "Post_Office": "Kota Bharu",
        "State": "Kelantan"
    },
    {
        "Postcode": "15400",
        "Location": "Kampung Kubang Rimau",
        "Post_Office": "Kota Bharu",
        "State": "Kelantan"
    },
    {
        "Postcode": "15400",
        "Location": "Kampung Kubang Tuman",
        "Post_Office": "Kota Bharu",
        "State": "Kelantan"
    },
    {
        "Postcode": "15400",
        "Location": "Kampung Langgang",
        "Post_Office": "Kota Bharu",
        "State": "Kelantan"
    },
    {
        "Postcode": "15400",
        "Location": "Kampung Pauh Telaga Nibong",
        "Post_Office": "Kota Bharu",
        "State": "Kelantan"
    },
    {
        "Postcode": "15400",
        "Location": "Kampung Paya Bemban (Padang Bongor)",
        "Post_Office": "Kota Bharu",
        "State": "Kelantan"
    },
    {
        "Postcode": "15400",
        "Location": "Kampung Tanjong Mas",
        "Post_Office": "Kota Bharu",
        "State": "Kelantan"
    },
    {
        "Postcode": "15400",
        "Location": "Kampung Tanjong Mas Lorong Meranti",
        "Post_Office": "Kota Bharu",
        "State": "Kelantan"
    },
    {
        "Postcode": "15400",
        "Location": "Kampung Telaga Nibong",
        "Post_Office": "Kota Bharu",
        "State": "Kelantan"
    },
    {
        "Postcode": "15400",
        "Location": "Lorong Depan Minyak Esso",
        "Post_Office": "Kota Bharu",
        "State": "Kelantan"
    },
    {
        "Postcode": "15400",
        "Location": "Lorong Haji Ismail",
        "Post_Office": "Kota Bharu",
        "State": "Kelantan"
    },
    {
        "Postcode": "15400",
        "Location": "Lorong Haji Mahmood",
        "Post_Office": "Kota Bharu",
        "State": "Kelantan"
    },
    {
        "Postcode": "15400",
        "Location": "Lorong Islah Lama",
        "Post_Office": "Kota Bharu",
        "State": "Kelantan"
    },
    {
        "Postcode": "15400",
        "Location": "Lorong Jaya",
        "Post_Office": "Kota Bharu",
        "State": "Kelantan"
    },
    {
        "Postcode": "15400",
        "Location": "Lorong Kubur Tanjung Off Jalan Pengkalan Chepa",
        "Post_Office": "Kota Bharu",
        "State": "Kelantan"
    },
    {
        "Postcode": "15400",
        "Location": "Lorong Lebai Ya",
        "Post_Office": "Kota Bharu",
        "State": "Kelantan"
    },
    {
        "Postcode": "15400",
        "Location": "Lorong Lot 31",
        "Post_Office": "Kota Bharu",
        "State": "Kelantan"
    },
    {
        "Postcode": "15400",
        "Location": "Lorong Majid",
        "Post_Office": "Kota Bharu",
        "State": "Kelantan"
    },
    {
        "Postcode": "15400",
        "Location": "Lorong Mandor Awang",
        "Post_Office": "Kota Bharu",
        "State": "Kelantan"
    },
    {
        "Postcode": "15400",
        "Location": "Lorong Mandur Adam",
        "Post_Office": "Kota Bharu",
        "State": "Kelantan"
    },
    {
        "Postcode": "15400",
        "Location": "Lorong Masjis Batu 2 Jalan Pengkalan Chepa",
        "Post_Office": "Kota Bharu",
        "State": "Kelantan"
    },
    {
        "Postcode": "15400",
        "Location": "Lorong Meranti",
        "Post_Office": "Kota Bharu",
        "State": "Kelantan"
    },
    {
        "Postcode": "15400",
        "Location": "Lorong Mesera",
        "Post_Office": "Kota Bharu",
        "State": "Kelantan"
    },
    {
        "Postcode": "15400",
        "Location": "Lorong Mutiara",
        "Post_Office": "Kota Bharu",
        "State": "Kelantan"
    },
    {
        "Postcode": "15400",
        "Location": "Lorong Pak Mud",
        "Post_Office": "Kota Bharu",
        "State": "Kelantan"
    },
    {
        "Postcode": "15400",
        "Location": "Lorong Senator Haji Ariffin",
        "Post_Office": "Kota Bharu",
        "State": "Kelantan"
    },
    {
        "Postcode": "15400",
        "Location": "Lorong Seri Chemerlang",
        "Post_Office": "Kota Bharu",
        "State": "Kelantan"
    },
    {
        "Postcode": "15400",
        "Location": "Lorong Seri Wangsa",
        "Post_Office": "Kota Bharu",
        "State": "Kelantan"
    },
    {
        "Postcode": "15400",
        "Location": "Lorong Taman Desa Jaya",
        "Post_Office": "Kota Bharu",
        "State": "Kelantan"
    },
    {
        "Postcode": "15400",
        "Location": "Lorong Taman Sabariah",
        "Post_Office": "Kota Bharu",
        "State": "Kelantan"
    },
    {
        "Postcode": "15400",
        "Location": "Lorong Tengku Mohamad",
        "Post_Office": "Kota Bharu",
        "State": "Kelantan"
    },
    {
        "Postcode": "15400",
        "Location": "Lorong Ukur",
        "Post_Office": "Kota Bharu",
        "State": "Kelantan"
    },
    {
        "Postcode": "15400",
        "Location": "Lorong Wak Ismail",
        "Post_Office": "Kota Bharu",
        "State": "Kelantan"
    },
    {
        "Postcode": "15400",
        "Location": "Lorong Wisma Haji Hassan",
        "Post_Office": "Kota Bharu",
        "State": "Kelantan"
    },
    {
        "Postcode": "15400",
        "Location": "Pondok Kembar",
        "Post_Office": "Kota Bharu",
        "State": "Kelantan"
    },
    {
        "Postcode": "15400",
        "Location": "Taman Ang Beng Kooi",
        "Post_Office": "Kota Bharu",
        "State": "Kelantan"
    },
    {
        "Postcode": "15400",
        "Location": "Taman Anjaria",
        "Post_Office": "Kota Bharu",
        "State": "Kelantan"
    },
    {
        "Postcode": "15400",
        "Location": "Taman Azam",
        "Post_Office": "Kota Bharu",
        "State": "Kelantan"
    },
    {
        "Postcode": "15400",
        "Location": "Taman Desa Jaya",
        "Post_Office": "Kota Bharu",
        "State": "Kelantan"
    },
    {
        "Postcode": "15400",
        "Location": "Taman Desa Rakyat",
        "Post_Office": "Kota Bharu",
        "State": "Kelantan"
    },
    {
        "Postcode": "15400",
        "Location": "Taman Hakim Jalan Pengkalan Chepa",
        "Post_Office": "Kota Bharu",
        "State": "Kelantan"
    },
    {
        "Postcode": "15400",
        "Location": "Taman Hakimi",
        "Post_Office": "Kota Bharu",
        "State": "Kelantan"
    },
    {
        "Postcode": "15400",
        "Location": "Taman Hijau",
        "Post_Office": "Kota Bharu",
        "State": "Kelantan"
    },
    {
        "Postcode": "15400",
        "Location": "Taman Khatijah",
        "Post_Office": "Kota Bharu",
        "State": "Kelantan"
    },
    {
        "Postcode": "15400",
        "Location": "Taman Majid",
        "Post_Office": "Kota Bharu",
        "State": "Kelantan"
    },
    {
        "Postcode": "15400",
        "Location": "Taman Matijah",
        "Post_Office": "Kota Bharu",
        "State": "Kelantan"
    },
    {
        "Postcode": "15400",
        "Location": "Taman Padang Bongor",
        "Post_Office": "Kota Bharu",
        "State": "Kelantan"
    },
    {
        "Postcode": "15400",
        "Location": "Taman Puspa Uda",
        "Post_Office": "Kota Bharu",
        "State": "Kelantan"
    },
    {
        "Postcode": "15400",
        "Location": "Taman Rogayah",
        "Post_Office": "Kota Bharu",
        "State": "Kelantan"
    },
    {
        "Postcode": "15400",
        "Location": "Taman Sabariah",
        "Post_Office": "Kota Bharu",
        "State": "Kelantan"
    },
    {
        "Postcode": "15400",
        "Location": "Taman Sakinah",
        "Post_Office": "Kota Bharu",
        "State": "Kelantan"
    },
    {
        "Postcode": "15400",
        "Location": "Taman Sakinah Jalan Pengkalan Chepa",
        "Post_Office": "Kota Bharu",
        "State": "Kelantan"
    },
    {
        "Postcode": "15400",
        "Location": "Taman Seri Mas",
        "Post_Office": "Kota Bharu",
        "State": "Kelantan"
    },
    {
        "Postcode": "15400",
        "Location": "Taman Sri Cemerlang",
        "Post_Office": "Kota Bharu",
        "State": "Kelantan"
    },
    {
        "Postcode": "15400",
        "Location": "Taman Tanjung Mas",
        "Post_Office": "Kota Bharu",
        "State": "Kelantan"
    },
    {
        "Postcode": "15400",
        "Location": "Taman Uda Murni",
        "Post_Office": "Kota Bharu",
        "State": "Kelantan"
    },
    {
        "Postcode": "15400",
        "Location": "Tanjung Mas",
        "Post_Office": "Kota Bharu",
        "State": "Kelantan"
    },
    {
        "Postcode": "15400",
        "Location": "Telaga Nibong",
        "Post_Office": "Kota Bharu",
        "State": "Kelantan"
    },
    {
        "Postcode": "15400",
        "Location": "Wisma Haji Hassan",
        "Post_Office": "Kota Bharu",
        "State": "Kelantan"
    }
]
