[
    {
        "Postcode": "34000",
        "Location": "Taman Bukit Mas 2",
        "Post_Office": "Taiping",
        "State": "Perak"
    },
    {
        "Postcode": "34000",
        "Location": "Taman Sungai Mas 2",
        "Post_Office": "Taiping",
        "State": "Perak"
    },
    {
        "Postcode": "34000",
        "Location": "Taman Kami 1",
        "Post_Office": "Taiping",
        "State": "Perak"
    },
    {
        "Postcode": "34000",
        "Location": "Taman Kami 2",
        "Post_Office": "Taiping",
        "State": "Perak"
    },
    {
        "Postcode": "34000",
        "Location": "Taman Kami 3",
        "Post_Office": "Taiping",
        "State": "Perak"
    },
    {
        "Postcode": "34000",
        "Location": "Taman Kaya 1",
        "Post_Office": "Taiping",
        "State": "Perak"
    },
    {
        "Postcode": "34000",
        "Location": "Taman Kaya 2",
        "Post_Office": "Taiping",
        "State": "Perak"
    },
    {
        "Postcode": "34000",
        "Location": "Taman Kaya 3",
        "Post_Office": "Taiping",
        "State": "Perak"
    },
    {
        "Postcode": "34000",
        "Location": "Taman Long Jaafar A",
        "Post_Office": "Taiping",
        "State": "Perak"
    },
    {
        "Postcode": "34000",
        "Location": "Taman Long Jaafar B",
        "Post_Office": "Taiping",
        "State": "Perak"
    },
    {
        "Postcode": "34000",
        "Location": "Taman Long Jaafar C",
        "Post_Office": "Taiping",
        "State": "Perak"
    },
    {
        "Postcode": "34000",
        "Location": "Taman Pertama 1",
        "Post_Office": "Taiping",
        "State": "Perak"
    },
    {
        "Postcode": "34000",
        "Location": "Taman Pertama 2",
        "Post_Office": "Taiping",
        "State": "Perak"
    },
    {
        "Postcode": "34000",
        "Location": "Taman Pertama 3",
        "Post_Office": "Taiping",
        "State": "Perak"
    },
    {
        "Postcode": "34000",
        "Location": "Taman Saujana Jaya 1",
        "Post_Office": "Taiping",
        "State": "Perak"
    },
    {
        "Postcode": "34000",
        "Location": "Taman Saujana Jaya 2",
        "Post_Office": "Taiping",
        "State": "Perak"
    },
    {
        "Postcode": "34000",
        "Location": "Kampung Balik Bukit",
        "Post_Office": "Taiping",
        "State": "Perak"
    },
    {
        "Postcode": "34000",
        "Location": "Kampung Baru",
        "Post_Office": "Taiping",
        "State": "Perak"
    },
    {
        "Postcode": "34000",
        "Location": "Kampung Benggali",
        "Post_Office": "Taiping",
        "State": "Perak"
    },
    {
        "Postcode": "34000",
        "Location": "Kampung Melayu",
        "Post_Office": "Taiping",
        "State": "Perak"
    },
    {
        "Postcode": "34000",
        "Location": "Kampung Pak Darus",
        "Post_Office": "Taiping",
        "State": "Perak"
    },
    {
        "Postcode": "34000",
        "Location": "Kampung Sentosa",
        "Post_Office": "Taiping",
        "State": "Perak"
    },
    {
        "Postcode": "34000",
        "Location": "Kampung Tengah",
        "Post_Office": "Taiping",
        "State": "Perak"
    },
    {
        "Postcode": "34000",
        "Location": "Taman Indah",
        "Post_Office": "Taiping",
        "State": "Perak"
    },
    {
        "Postcode": "34000",
        "Location": "Taman Sentosa",
        "Post_Office": "Taiping",
        "State": "Perak"
    },
    {
        "Postcode": "34000",
        "Location": "Taman Setia Tupai Mas",
        "Post_Office": "Taiping",
        "State": "Perak"
    },
    {
        "Postcode": "34000",
        "Location": "Taman Zenith",
        "Post_Office": "Taiping",
        "State": "Perak"
    },
    {
        "Postcode": "34000",
        "Location": "Bendang Nibong",
        "Post_Office": "Taiping",
        "State": "Perak"
    },
    {
        "Postcode": "34000",
        "Location": "Dusun Batak",
        "Post_Office": "Taiping",
        "State": "Perak"
    },
    {
        "Postcode": "34000",
        "Location": "Jalan Tasek Indah",
        "Post_Office": "Taiping",
        "State": "Perak"
    },
    {
        "Postcode": "34000",
        "Location": "Taman Emas",
        "Post_Office": "Taiping",
        "State": "Perak"
    },
    {
        "Postcode": "34000",
        "Location": "Taman Utama",
        "Post_Office": "Taiping",
        "State": "Perak"
    },
    {
        "Postcode": "34000",
        "Location": "Taman Bersatu",
        "Post_Office": "Taiping",
        "State": "Perak"
    },
    {
        "Postcode": "34000",
        "Location": "Taman Ehsan",
        "Post_Office": "Taiping",
        "State": "Perak"
    },
    {
        "Postcode": "34000",
        "Location": "Taman Melati",
        "Post_Office": "Taiping",
        "State": "Perak"
    },
    {
        "Postcode": "34000",
        "Location": "Taman Panglima",
        "Post_Office": "Taiping",
        "State": "Perak"
    },
    {
        "Postcode": "34000",
        "Location": "Taman Perak",
        "Post_Office": "Taiping",
        "State": "Perak"
    },
    {
        "Postcode": "34000",
        "Location": "Taman Pertama",
        "Post_Office": "Taiping",
        "State": "Perak"
    },
    {
        "Postcode": "34000",
        "Location": "Taman Ria",
        "Post_Office": "Taiping",
        "State": "Perak"
    },
    {
        "Postcode": "34000",
        "Location": "Taman Saga",
        "Post_Office": "Taiping",
        "State": "Perak"
    },
    {
        "Postcode": "34000",
        "Location": "Taman Taiping",
        "Post_Office": "Taiping",
        "State": "Perak"
    },
    {
        "Postcode": "34000",
        "Location": "Banggol Rendang",
        "Post_Office": "Taiping",
        "State": "Perak"
    },
    {
        "Postcode": "34000",
        "Location": "Batu 11 Balik Bukit",
        "Post_Office": "Taiping",
        "State": "Perak"
    },
    {
        "Postcode": "34000",
        "Location": "Bukit Gantang",
        "Post_Office": "Taiping",
        "State": "Perak"
    },
    {
        "Postcode": "34000",
        "Location": "Bukit Larut",
        "Post_Office": "Taiping",
        "State": "Perak"
    },
    {
        "Postcode": "34000",
        "Location": "Kampung Api Sungai",
        "Post_Office": "Taiping",
        "State": "Perak"
    },
    {
        "Postcode": "34000",
        "Location": "Kampung Baru Balik Bukit",
        "Post_Office": "Taiping",
        "State": "Perak"
    },
    {
        "Postcode": "34000",
        "Location": "Kampung Baru Ulu Sepetang",
        "Post_Office": "Taiping",
        "State": "Perak"
    },
    {
        "Postcode": "34000",
        "Location": "Kampung Bukit Baru",
        "Post_Office": "Taiping",
        "State": "Perak"
    },
    {
        "Postcode": "34000",
        "Location": "Kampung Bukit Belanda",
        "Post_Office": "Taiping",
        "State": "Perak"
    },
    {
        "Postcode": "34000",
        "Location": "Kampung Jalan Keretapi",
        "Post_Office": "Taiping",
        "State": "Perak"
    },
    {
        "Postcode": "34000",
        "Location": "Kampung Jalan Sekolah",
        "Post_Office": "Taiping",
        "State": "Perak"
    },
    {
        "Postcode": "34000",
        "Location": "Kampung Lubok Binjal",
        "Post_Office": "Taiping",
        "State": "Perak"
    },
    {
        "Postcode": "34000",
        "Location": "Kampung Permatang Timbul",
        "Post_Office": "Taiping",
        "State": "Perak"
    },
    {
        "Postcode": "34000",
        "Location": "Kampung Sera",
        "Post_Office": "Taiping",
        "State": "Perak"
    },
    {
        "Postcode": "34000",
        "Location": "Kampung Ulu Sepetang",
        "Post_Office": "Taiping",
        "State": "Perak"
    },
    {
        "Postcode": "34000",
        "Location": "Ladang Rajmal",
        "Post_Office": "Taiping",
        "State": "Perak"
    },
    {
        "Postcode": "34000",
        "Location": "Ladang Sun Sun",
        "Post_Office": "Taiping",
        "State": "Perak"
    },
    {
        "Postcode": "34000",
        "Location": "Paya Kelubi",
        "Post_Office": "Taiping",
        "State": "Perak"
    },
    {
        "Postcode": "34000",
        "Location": "Pondok Tanjong",
        "Post_Office": "Taiping",
        "State": "Perak"
    },
    {
        "Postcode": "34000",
        "Location": "Taiping (Km 18)",
        "Post_Office": "Taiping",
        "State": "Perak"
    },
    {
        "Postcode": "34000",
        "Location": "Taiping (Km 22.5)",
        "Post_Office": "Taiping",
        "State": "Perak"
    },
    {
        "Postcode": "34000",
        "Location": "Ulu Sepetang",
        "Post_Office": "Taiping",
        "State": "Perak"
    },
    {
        "Postcode": "34000",
        "Location": "Asam Kumbang",
        "Post_Office": "Taiping",
        "State": "Perak"
    },
    {
        "Postcode": "34000",
        "Location": "Aulong",
        "Post_Office": "Taiping",
        "State": "Perak"
    },
    {
        "Postcode": "34000",
        "Location": "Bukit Drammond",
        "Post_Office": "Taiping",
        "State": "Perak"
    },
    {
        "Postcode": "34000",
        "Location": "Denero Line",
        "Post_Office": "Taiping",
        "State": "Perak"
    },
    {
        "Postcode": "34000",
        "Location": "Jalan Simpang (Km 4)",
        "Post_Office": "Taiping",
        "State": "Perak"
    },
    {
        "Postcode": "34000",
        "Location": "Kampung Aman",
        "Post_Office": "Taiping",
        "State": "Perak"
    },
    {
        "Postcode": "34000",
        "Location": "Kampung Baru Larut Tin",
        "Post_Office": "Taiping",
        "State": "Perak"
    },
    {
        "Postcode": "34000",
        "Location": "Kampung Baru Taman Long Jaafar B",
        "Post_Office": "Taiping",
        "State": "Perak"
    },
    {
        "Postcode": "34000",
        "Location": "Kampung Belakang Mesjid",
        "Post_Office": "Taiping",
        "State": "Perak"
    },
    {
        "Postcode": "34000",
        "Location": "Kampung Boyan",
        "Post_Office": "Taiping",
        "State": "Perak"
    },
    {
        "Postcode": "34000",
        "Location": "Kampung Boyan Baru",
        "Post_Office": "Taiping",
        "State": "Perak"
    },
    {
        "Postcode": "34000",
        "Location": "Kampung Gugup",
        "Post_Office": "Taiping",
        "State": "Perak"
    },
    {
        "Postcode": "34000",
        "Location": "Kampung Jambu",
        "Post_Office": "Taiping",
        "State": "Perak"
    },
    {
        "Postcode": "34000",
        "Location": "Kampung Klian Pauh Baru",
        "Post_Office": "Taiping",
        "State": "Perak"
    },
    {
        "Postcode": "34000",
        "Location": "Kampung Lama Larut Tin",
        "Post_Office": "Taiping",
        "State": "Perak"
    },
    {
        "Postcode": "34000",
        "Location": "Kampung Larut Tin",
        "Post_Office": "Taiping",
        "State": "Perak"
    },
    {
        "Postcode": "34000",
        "Location": "Kampung Larut Tin Sambungan",
        "Post_Office": "Taiping",
        "State": "Perak"
    },
    {
        "Postcode": "34000",
        "Location": "Kampung Larut Tin Sempadan",
        "Post_Office": "Taiping",
        "State": "Perak"
    },
    {
        "Postcode": "34000",
        "Location": "Kampung Lawan Kuda Lama",
        "Post_Office": "Taiping",
        "State": "Perak"
    },
    {
        "Postcode": "34000",
        "Location": "Kampung Maharaja Lela",
        "Post_Office": "Taiping",
        "State": "Perak"
    },
    {
        "Postcode": "34000",
        "Location": "Kampung Peng Loong",
        "Post_Office": "Taiping",
        "State": "Perak"
    },
    {
        "Postcode": "34000",
        "Location": "Kampung Potong Pinang",
        "Post_Office": "Taiping",
        "State": "Perak"
    },
    {
        "Postcode": "34000",
        "Location": "Kampung Potong Pinang A",
        "Post_Office": "Taiping",
        "State": "Perak"
    },
    {
        "Postcode": "34000",
        "Location": "Kampung Tekah",
        "Post_Office": "Taiping",
        "State": "Perak"
    },
    {
        "Postcode": "34000",
        "Location": "Kampung Ulu Tupai",
        "Post_Office": "Taiping",
        "State": "Perak"
    },
    {
        "Postcode": "34000",
        "Location": "Kelapa Line",
        "Post_Office": "Taiping",
        "State": "Perak"
    },
    {
        "Postcode": "34000",
        "Location": "Parr Village",
        "Post_Office": "Taiping",
        "State": "Perak"
    },
    {
        "Postcode": "34000",
        "Location": "Pokok Assam",
        "Post_Office": "Taiping",
        "State": "Perak"
    },
    {
        "Postcode": "34000",
        "Location": "Pokok Assam Tambahan",
        "Post_Office": "Taiping",
        "State": "Perak"
    },
    {
        "Postcode": "34000",
        "Location": "Rancangan Rumah Awam Fasa 2",
        "Post_Office": "Taiping",
        "State": "Perak"
    },
    {
        "Postcode": "34000",
        "Location": "Rpt Peduka Setia",
        "Post_Office": "Taiping",
        "State": "Perak"
    },
    {
        "Postcode": "34000",
        "Location": "Rumah Awam Batu 2 1/2",
        "Post_Office": "Taiping",
        "State": "Perak"
    },
    {
        "Postcode": "34000",
        "Location": "Rumah Pangsa Jalan Tupai",
        "Post_Office": "Taiping",
        "State": "Perak"
    },
    {
        "Postcode": "34000",
        "Location": "Seleno Line",
        "Post_Office": "Taiping",
        "State": "Perak"
    },
    {
        "Postcode": "34000",
        "Location": "Taiping",
        "Post_Office": "Taiping",
        "State": "Perak"
    },
    {
        "Postcode": "34000",
        "Location": "Taiping Villa (Condo)",
        "Post_Office": "Taiping",
        "State": "Perak"
    },
    {
        "Postcode": "34000",
        "Location": "Taman Anjung Semarak",
        "Post_Office": "Taiping",
        "State": "Perak"
    },
    {
        "Postcode": "34000",
        "Location": "Taman Assamara",
        "Post_Office": "Taiping",
        "State": "Perak"
    },
    {
        "Postcode": "34000",
        "Location": "Taman Aulong Maju",
        "Post_Office": "Taiping",
        "State": "Perak"
    },
    {
        "Postcode": "34000",
        "Location": "Taman Aun Say",
        "Post_Office": "Taiping",
        "State": "Perak"
    },
    {
        "Postcode": "34000",
        "Location": "Taman Aur Utama",
        "Post_Office": "Taiping",
        "State": "Perak"
    },
    {
        "Postcode": "34000",
        "Location": "Taman Bersatu (Flat)",
        "Post_Office": "Taiping",
        "State": "Perak"
    },
    {
        "Postcode": "34000",
        "Location": "Taman Bukit Mas",
        "Post_Office": "Taiping",
        "State": "Perak"
    },
    {
        "Postcode": "34000",
        "Location": "Taman Ck Mansion",
        "Post_Office": "Taiping",
        "State": "Perak"
    },
    {
        "Postcode": "34000",
        "Location": "Taman Dato Sri Razak",
        "Post_Office": "Taiping",
        "State": "Perak"
    },
    {
        "Postcode": "34000",
        "Location": "Taman Desa Cemerlang",
        "Post_Office": "Taiping",
        "State": "Perak"
    },
    {
        "Postcode": "34000",
        "Location": "Taman Eliathamby",
        "Post_Office": "Taiping",
        "State": "Perak"
    },
    {
        "Postcode": "34000",
        "Location": "Taman Emas Kuning",
        "Post_Office": "Taiping",
        "State": "Perak"
    },
    {
        "Postcode": "34000",
        "Location": "Taman Green House Area",
        "Post_Office": "Taiping",
        "State": "Perak"
    },
    {
        "Postcode": "34000",
        "Location": "Taman Kampung Jambu 2",
        "Post_Office": "Taiping",
        "State": "Perak"
    },
    {
        "Postcode": "34000",
        "Location": "Taman Kaya (Batu 2 1/2)",
        "Post_Office": "Taiping",
        "State": "Perak"
    },
    {
        "Postcode": "34000",
        "Location": "Taman Kerjasama",
        "Post_Office": "Taiping",
        "State": "Perak"
    },
    {
        "Postcode": "34000",
        "Location": "Taman Koperasi Guru - Guru Melayu",
        "Post_Office": "Taiping",
        "State": "Perak"
    },
    {
        "Postcode": "34000",
        "Location": "Taman Kumbang Jaya",
        "Post_Office": "Taiping",
        "State": "Perak"
    },
    {
        "Postcode": "34000",
        "Location": "Taman Kuning Sari",
        "Post_Office": "Taiping",
        "State": "Perak"
    },
    {
        "Postcode": "34000",
        "Location": "Taman Lake Yiew",
        "Post_Office": "Taiping",
        "State": "Perak"
    },
    {
        "Postcode": "34000",
        "Location": "Taman Lembah Tupai",
        "Post_Office": "Taiping",
        "State": "Perak"
    },
    {
        "Postcode": "34000",
        "Location": "Taman Long Jaafar E",
        "Post_Office": "Taiping",
        "State": "Perak"
    },
    {
        "Postcode": "34000",
        "Location": "Taman Long Jaafar F",
        "Post_Office": "Taiping",
        "State": "Perak"
    },
    {
        "Postcode": "34000",
        "Location": "Taman Marisa",
        "Post_Office": "Taiping",
        "State": "Perak"
    },
    {
        "Postcode": "34000",
        "Location": "Taman Menara Mas",
        "Post_Office": "Taiping",
        "State": "Perak"
    },
    {
        "Postcode": "34000",
        "Location": "Taman New Taiping",
        "Post_Office": "Taiping",
        "State": "Perak"
    },
    {
        "Postcode": "34000",
        "Location": "Taman Panglima Jaya",
        "Post_Office": "Taiping",
        "State": "Perak"
    },
    {
        "Postcode": "34000",
        "Location": "Taman Pengkalan Sentosa",
        "Post_Office": "Taiping",
        "State": "Perak"
    },
    {
        "Postcode": "34000",
        "Location": "Taman Pengly",
        "Post_Office": "Taiping",
        "State": "Perak"
    },
    {
        "Postcode": "34000",
        "Location": "Taman Permai Kuning",
        "Post_Office": "Taiping",
        "State": "Perak"
    },
    {
        "Postcode": "34000",
        "Location": "Taman Razak",
        "Post_Office": "Taiping",
        "State": "Perak"
    },
    {
        "Postcode": "34000",
        "Location": "Taman Saujana Jaya",
        "Post_Office": "Taiping",
        "State": "Perak"
    },
    {
        "Postcode": "34000",
        "Location": "Taman Semarak 2",
        "Post_Office": "Taiping",
        "State": "Perak"
    },
    {
        "Postcode": "34000",
        "Location": "Taman Sening",
        "Post_Office": "Taiping",
        "State": "Perak"
    },
    {
        "Postcode": "34000",
        "Location": "Taman Seri Hijau",
        "Post_Office": "Taiping",
        "State": "Perak"
    },
    {
        "Postcode": "34000",
        "Location": "Taman Seri Kota",
        "Post_Office": "Taiping",
        "State": "Perak"
    },
    {
        "Postcode": "34000",
        "Location": "Taman Seri Pinang",
        "Post_Office": "Taiping",
        "State": "Perak"
    },
    {
        "Postcode": "34000",
        "Location": "Taman Simpang Maamor",
        "Post_Office": "Taiping",
        "State": "Perak"
    },
    {
        "Postcode": "34000",
        "Location": "Taman Simpang Setia",
        "Post_Office": "Taiping",
        "State": "Perak"
    },
    {
        "Postcode": "34000",
        "Location": "Taman Suria Permai",
        "Post_Office": "Taiping",
        "State": "Perak"
    },
    {
        "Postcode": "34000",
        "Location": "Taman Taiping Selatan",
        "Post_Office": "Taiping",
        "State": "Perak"
    },
    {
        "Postcode": "34000",
        "Location": "Taman Tasek Indah",
        "Post_Office": "Taiping",
        "State": "Perak"
    },
    {
        "Postcode": "34000",
        "Location": "Taman Tasek Permai",
        "Post_Office": "Taiping",
        "State": "Perak"
    },
    {
        "Postcode": "34000",
        "Location": "Taman Tasik Taiping",
        "Post_Office": "Taiping",
        "State": "Perak"
    },
    {
        "Postcode": "34000",
        "Location": "Taman Tekah Jaya",
        "Post_Office": "Taiping",
        "State": "Perak"
    },
    {
        "Postcode": "34000",
        "Location": "Taman Tekah Permai",
        "Post_Office": "Taiping",
        "State": "Perak"
    },
    {
        "Postcode": "34000",
        "Location": "Taman Temenggong",
        "Post_Office": "Taiping",
        "State": "Perak"
    },
    {
        "Postcode": "34000",
        "Location": "Taman Tupai Mas",
        "Post_Office": "Taiping",
        "State": "Perak"
    },
    {
        "Postcode": "34000",
        "Location": "Tupai",
        "Post_Office": "Taiping",
        "State": "Perak"
    },
    {
        "Postcode": "34000",
        "Location": "Taman Menteri",
        "Post_Office": "Taiping",
        "State": "Perak"
    },
    {
        "Postcode": "34000",
        "Location": "Taman Raja Idris",
        "Post_Office": "Taiping",
        "State": "Perak"
    },
    {
        "Postcode": "34000",
        "Location": "Taman Suria",
        "Post_Office": "Taiping",
        "State": "Perak"
    },
    {
        "Postcode": "34000",
        "Location": "Taman Tasek Jaya",
        "Post_Office": "Taiping",
        "State": "Perak"
    },
    {
        "Postcode": "34000",
        "Location": "Taman Aor Permai",
        "Post_Office": "Taiping",
        "State": "Perak"
    }
]
