[
    {
        "Postcode": "34100",
        "Location": "Taman Permai 1",
        "Post_Office": "Selama",
        "State": "Perak"
    },
    {
        "Postcode": "34100",
        "Location": "Taman Permai 2",
        "Post_Office": "Selama",
        "State": "Perak"
    },
    {
        "Postcode": "34100",
        "Location": "Kampung Batu 3",
        "Post_Office": "Selama",
        "State": "Perak"
    },
    {
        "Postcode": "34100",
        "Location": "Kampung Batu 4",
        "Post_Office": "Selama",
        "State": "Perak"
    },
    {
        "Postcode": "34100",
        "Location": "Kampung Raja",
        "Post_Office": "Selama",
        "State": "Perak"
    },
    {
        "Postcode": "34100",
        "Location": "Kampung Tebing Tinggi",
        "Post_Office": "Selama",
        "State": "Perak"
    },
    {
        "Postcode": "34100",
        "Location": "Kampung Gudang",
        "Post_Office": "Selama",
        "State": "Perak"
    },
    {
        "Postcode": "34100",
        "Location": "Taman Guru",
        "Post_Office": "Selama",
        "State": "Perak"
    },
    {
        "Postcode": "34100",
        "Location": "Taman Kaya",
        "Post_Office": "Selama",
        "State": "Perak"
    },
    {
        "Postcode": "34100",
        "Location": "Taman Nesa",
        "Post_Office": "Selama",
        "State": "Perak"
    },
    {
        "Postcode": "34100",
        "Location": "Taman Merdeka",
        "Post_Office": "Selama",
        "State": "Perak"
    },
    {
        "Postcode": "34100",
        "Location": "Jalan Taman Merdeka",
        "Post_Office": "Selama",
        "State": "Perak"
    },
    {
        "Postcode": "34100",
        "Location": "Sungai Jambu",
        "Post_Office": "Selama",
        "State": "Perak"
    },
    {
        "Postcode": "34100",
        "Location": "Kampung Sungai Terap",
        "Post_Office": "Selama",
        "State": "Perak"
    },
    {
        "Postcode": "34100",
        "Location": "Jalan Abdul Karim",
        "Post_Office": "Selama",
        "State": "Perak"
    },
    {
        "Postcode": "34100",
        "Location": "Jalan Lampin",
        "Post_Office": "Selama",
        "State": "Perak"
    },
    {
        "Postcode": "34100",
        "Location": "Kampung Appavoo",
        "Post_Office": "Selama",
        "State": "Perak"
    },
    {
        "Postcode": "34100",
        "Location": "Kampung Awang",
        "Post_Office": "Selama",
        "State": "Perak"
    },
    {
        "Postcode": "34100",
        "Location": "Kampung Baru Terap",
        "Post_Office": "Selama",
        "State": "Perak"
    },
    {
        "Postcode": "34100",
        "Location": "Kampung Batu 30",
        "Post_Office": "Selama",
        "State": "Perak"
    },
    {
        "Postcode": "34100",
        "Location": "Kampung Guah Petai",
        "Post_Office": "Selama",
        "State": "Perak"
    },
    {
        "Postcode": "34100",
        "Location": "Kampung Itam",
        "Post_Office": "Selama",
        "State": "Perak"
    },
    {
        "Postcode": "34100",
        "Location": "Kampung Medan",
        "Post_Office": "Selama",
        "State": "Perak"
    },
    {
        "Postcode": "34100",
        "Location": "Kampung Seberang Rakit",
        "Post_Office": "Selama",
        "State": "Perak"
    },
    {
        "Postcode": "34100",
        "Location": "Kampung Sungai Semut",
        "Post_Office": "Selama",
        "State": "Perak"
    },
    {
        "Postcode": "34100",
        "Location": "Selama",
        "Post_Office": "Selama",
        "State": "Perak"
    },
    {
        "Postcode": "34100",
        "Location": "Sungai Lamping",
        "Post_Office": "Selama",
        "State": "Perak"
    },
    {
        "Postcode": "34100",
        "Location": "Taman Jalan Menteri",
        "Post_Office": "Selama",
        "State": "Perak"
    },
    {
        "Postcode": "34100",
        "Location": "Titi Gajah",
        "Post_Office": "Selama",
        "State": "Perak"
    },
    {
        "Postcode": "34100",
        "Location": "Taman Menteri",
        "Post_Office": "Selama",
        "State": "Perak"
    },
    {
        "Postcode": "34100",
        "Location": "Taman Permai Jaya",
        "Post_Office": "Selama",
        "State": "Perak"
    }
]
