[
    {
        "Postcode": "34130",
        "Location": "Kampung Sungai Jambu",
        "Post_Office": "Selama",
        "State": "Perak"
    },
    {
        "Postcode": "34130",
        "Location": "Felda Ijok",
        "Post_Office": "Selama",
        "State": "Perak"
    },
    {
        "Postcode": "34130",
        "Location": "Kampung Baru Batu 5",
        "Post_Office": "Selama",
        "State": "Perak"
    },
    {
        "Postcode": "34130",
        "Location": "Kampung Baru Batu 85",
        "Post_Office": "Selama",
        "State": "Perak"
    },
    {
        "Postcode": "34130",
        "Location": "Kampung Kubu Gajah",
        "Post_Office": "Selama",
        "State": "Perak"
    },
    {
        "Postcode": "34130",
        "Location": "Kampung Payah Geli",
        "Post_Office": "Selama",
        "State": "Perak"
    },
    {
        "Postcode": "34130",
        "Location": "Kampung Sungai Dendang",
        "Post_Office": "Selama",
        "State": "Perak"
    },
    {
        "Postcode": "34130",
        "Location": "Kampung Sungai Lempong",
        "Post_Office": "Selama",
        "State": "Perak"
    },
    {
        "Postcode": "34130",
        "Location": "Kampung Sungai Pendang",
        "Post_Office": "Selama",
        "State": "Perak"
    },
    {
        "Postcode": "34130",
        "Location": "Kampung Titi Ijok",
        "Post_Office": "Selama",
        "State": "Perak"
    },
    {
        "Postcode": "34130",
        "Location": "Kubu Gajah",
        "Post_Office": "Selama",
        "State": "Perak"
    },
    {
        "Postcode": "34130",
        "Location": "Selama (Km 6)",
        "Post_Office": "Selama",
        "State": "Perak"
    },
    {
        "Postcode": "34130",
        "Location": "Sungai Lembah Keluang",
        "Post_Office": "Selama",
        "State": "Perak"
    },
    {
        "Postcode": "34130",
        "Location": "Sungai Malau",
        "Post_Office": "Selama",
        "State": "Perak"
    },
    {
        "Postcode": "34130",
        "Location": "Sungai Malau Estate",
        "Post_Office": "Selama",
        "State": "Perak"
    },
    {
        "Postcode": "34130",
        "Location": "Tanah Felcra",
        "Post_Office": "Selama",
        "State": "Perak"
    },
    {
        "Postcode": "34130",
        "Location": "Titi Ijok",
        "Post_Office": "Selama",
        "State": "Perak"
    },
    {
        "Postcode": "34130",
        "Location": "Kampung Sungai Malau Luar",
        "Post_Office": "Selama",
        "State": "Perak"
    }
]
