[
    {
        "Postcode": "34200",
        "Location": "Flat Tok Jabit",
        "Post_Office": "Parit Buntar",
        "State": "Perak"
    },
    {
        "Postcode": "34200",
        "Location": "Kampung Kedah",
        "Post_Office": "Parit Buntar",
        "State": "Perak"
    },
    {
        "Postcode": "34200",
        "Location": "Kawasan Perindustrian",
        "Post_Office": "Parit Buntar",
        "State": "Perak"
    },
    {
        "Postcode": "34200",
        "Location": "Simpang Tiga",
        "Post_Office": "Parit Buntar",
        "State": "Perak"
    },
    {
        "Postcode": "34200",
        "Location": "Taman Damai 1",
        "Post_Office": "Parit Buntar",
        "State": "Perak"
    },
    {
        "Postcode": "34200",
        "Location": "Taman Damai 2",
        "Post_Office": "Parit Buntar",
        "State": "Perak"
    },
    {
        "Postcode": "34200",
        "Location": "Taman Damai 3",
        "Post_Office": "Parit Buntar",
        "State": "Perak"
    },
    {
        "Postcode": "34200",
        "Location": "Taman Intan",
        "Post_Office": "Parit Buntar",
        "State": "Perak"
    },
    {
        "Postcode": "34200",
        "Location": "Taman Murni",
        "Post_Office": "Parit Buntar",
        "State": "Perak"
    },
    {
        "Postcode": "34200",
        "Location": "Parit Haji Tahir",
        "Post_Office": "Parit Buntar",
        "State": "Perak"
    },
    {
        "Postcode": "34200",
        "Location": "Simpang Lima",
        "Post_Office": "Parit Buntar",
        "State": "Perak"
    },
    {
        "Postcode": "34200",
        "Location": "Taman Wawasan",
        "Post_Office": "Parit Buntar",
        "State": "Perak"
    },
    {
        "Postcode": "34200",
        "Location": "Taman Setia Jaya",
        "Post_Office": "Parit Buntar",
        "State": "Perak"
    },
    {
        "Postcode": "34200",
        "Location": "Kampung Melaka",
        "Post_Office": "Parit Buntar",
        "State": "Perak"
    },
    {
        "Postcode": "34200",
        "Location": "Sungai Rawa",
        "Post_Office": "Parit Buntar",
        "State": "Perak"
    },
    {
        "Postcode": "34200",
        "Location": "Jalan Bawah Sungai Bakau",
        "Post_Office": "Parit Buntar",
        "State": "Perak"
    },
    {
        "Postcode": "34200",
        "Location": "Jalan Bharu",
        "Post_Office": "Parit Buntar",
        "State": "Perak"
    },
    {
        "Postcode": "34200",
        "Location": "Jalan Sempadan (Batu 3 - 4 1/4)",
        "Post_Office": "Parit Buntar",
        "State": "Perak"
    },
    {
        "Postcode": "34200",
        "Location": "Kampung Dennistown",
        "Post_Office": "Parit Buntar",
        "State": "Perak"
    },
    {
        "Postcode": "34200",
        "Location": "Kampung Eow Seng",
        "Post_Office": "Parit Buntar",
        "State": "Perak"
    },
    {
        "Postcode": "34200",
        "Location": "Kampung Permatang Tok Mahat",
        "Post_Office": "Parit Buntar",
        "State": "Perak"
    },
    {
        "Postcode": "34200",
        "Location": "Masjid Batu 5",
        "Post_Office": "Parit Buntar",
        "State": "Perak"
    },
    {
        "Postcode": "34200",
        "Location": "Masjid Tok Ngah Darat",
        "Post_Office": "Parit Buntar",
        "State": "Perak"
    },
    {
        "Postcode": "34200",
        "Location": "Parit Buntar",
        "Post_Office": "Parit Buntar",
        "State": "Perak"
    },
    {
        "Postcode": "34200",
        "Location": "Parit Haji Amin (Jalan Baharu)",
        "Post_Office": "Parit Buntar",
        "State": "Perak"
    },
    {
        "Postcode": "34200",
        "Location": "Parit Haji Napis (Jalan Baharu)",
        "Post_Office": "Parit Buntar",
        "State": "Perak"
    },
    {
        "Postcode": "34200",
        "Location": "Parit Haji Wahab (Jalan Baharu)",
        "Post_Office": "Parit Buntar",
        "State": "Perak"
    },
    {
        "Postcode": "34200",
        "Location": "Parit Haji Yusof 3",
        "Post_Office": "Parit Buntar",
        "State": "Perak"
    },
    {
        "Postcode": "34200",
        "Location": "Parit Kasa",
        "Post_Office": "Parit Buntar",
        "State": "Perak"
    },
    {
        "Postcode": "34200",
        "Location": "Parit Mat Aris",
        "Post_Office": "Parit Buntar",
        "State": "Perak"
    },
    {
        "Postcode": "34200",
        "Location": "Parit Tok Ngah (Jalan Baharu)",
        "Post_Office": "Parit Buntar",
        "State": "Perak"
    },
    {
        "Postcode": "34200",
        "Location": "Perumahan Peladang Kos",
        "Post_Office": "Parit Buntar",
        "State": "Perak"
    },
    {
        "Postcode": "34200",
        "Location": "Rumah Awam Kos Rendah 4",
        "Post_Office": "Parit Buntar",
        "State": "Perak"
    },
    {
        "Postcode": "34200",
        "Location": "Simpang Empat Jalan Sempadan",
        "Post_Office": "Parit Buntar",
        "State": "Perak"
    },
    {
        "Postcode": "34200",
        "Location": "Simpang Empat Kampung Kedah",
        "Post_Office": "Parit Buntar",
        "State": "Perak"
    },
    {
        "Postcode": "34200",
        "Location": "Sungai Bakau",
        "Post_Office": "Parit Buntar",
        "State": "Perak"
    },
    {
        "Postcode": "34200",
        "Location": "Sungai Setar",
        "Post_Office": "Parit Buntar",
        "State": "Perak"
    },
    {
        "Postcode": "34200",
        "Location": "Taman Ismail Raof",
        "Post_Office": "Parit Buntar",
        "State": "Perak"
    },
    {
        "Postcode": "34200",
        "Location": "Taman Kerian",
        "Post_Office": "Parit Buntar",
        "State": "Perak"
    },
    {
        "Postcode": "34200",
        "Location": "Taman Krian Permai",
        "Post_Office": "Parit Buntar",
        "State": "Perak"
    },
    {
        "Postcode": "34200",
        "Location": "Taman Parit Buntar",
        "Post_Office": "Parit Buntar",
        "State": "Perak"
    },
    {
        "Postcode": "34200",
        "Location": "Taman Pekan Baharu",
        "Post_Office": "Parit Buntar",
        "State": "Perak"
    },
    {
        "Postcode": "34200",
        "Location": "Taman Seri Tengara",
        "Post_Office": "Parit Buntar",
        "State": "Perak"
    },
    {
        "Postcode": "34200",
        "Location": "Taman Seri Wangsar",
        "Post_Office": "Parit Buntar",
        "State": "Perak"
    },
    {
        "Postcode": "34200",
        "Location": "Titi Serong",
        "Post_Office": "Parit Buntar",
        "State": "Perak"
    }
]
