[
    {
        "Postcode": "34250",
        "Location": "Taman Piandang Sentosa",
        "Post_Office": "Tanjong Piandang",
        "State": "Perak"
    },
    {
        "Postcode": "34250",
        "Location": "Parit Haji Wahab",
        "Post_Office": "Tanjong Piandang",
        "State": "Perak"
    },
    {
        "Postcode": "34250",
        "Location": "Kampung Nelayan",
        "Post_Office": "Tanjong Piandang",
        "State": "Perak"
    },
    {
        "Postcode": "34250",
        "Location": "Sungai Betul",
        "Post_Office": "Tanjong Piandang",
        "State": "Perak"
    },
    {
        "Postcode": "34250",
        "Location": "Bagan Cina",
        "Post_Office": "Tanjong Piandang",
        "State": "Perak"
    },
    {
        "Postcode": "34250",
        "Location": "Bagan Selatan",
        "Post_Office": "Tanjong Piandang",
        "State": "Perak"
    },
    {
        "Postcode": "34250",
        "Location": "Bagan Tiang",
        "Post_Office": "Tanjong Piandang",
        "State": "Perak"
    },
    {
        "Postcode": "34250",
        "Location": "Bagan Utara",
        "Post_Office": "Tanjong Piandang",
        "State": "Perak"
    },
    {
        "Postcode": "34250",
        "Location": "Jalan Pantai (Batu 10)",
        "Post_Office": "Tanjong Piandang",
        "State": "Perak"
    },
    {
        "Postcode": "34250",
        "Location": "Kampung Bagan Tiang",
        "Post_Office": "Tanjong Piandang",
        "State": "Perak"
    },
    {
        "Postcode": "34250",
        "Location": "Kampung Baru Nelayan",
        "Post_Office": "Tanjong Piandang",
        "State": "Perak"
    },
    {
        "Postcode": "34250",
        "Location": "Kampung Kedai Empat",
        "Post_Office": "Tanjong Piandang",
        "State": "Perak"
    },
    {
        "Postcode": "34250",
        "Location": "Kampung Pasir Gedabu",
        "Post_Office": "Tanjong Piandang",
        "State": "Perak"
    },
    {
        "Postcode": "34250",
        "Location": "Kampung Sungai Kota",
        "Post_Office": "Tanjong Piandang",
        "State": "Perak"
    },
    {
        "Postcode": "34250",
        "Location": "Kampung Tanah Baru",
        "Post_Office": "Tanjong Piandang",
        "State": "Perak"
    },
    {
        "Postcode": "34250",
        "Location": "Kampung Tersusun Bagan Tiang",
        "Post_Office": "Tanjong Piandang",
        "State": "Perak"
    },
    {
        "Postcode": "34250",
        "Location": "Kuala Bagan Tiang",
        "Post_Office": "Tanjong Piandang",
        "State": "Perak"
    },
    {
        "Postcode": "34250",
        "Location": "Masjid Parit Haji Wahab",
        "Post_Office": "Tanjong Piandang",
        "State": "Perak"
    },
    {
        "Postcode": "34250",
        "Location": "Parit 310",
        "Post_Office": "Tanjong Piandang",
        "State": "Perak"
    },
    {
        "Postcode": "34250",
        "Location": "Parit 377",
        "Post_Office": "Tanjong Piandang",
        "State": "Perak"
    },
    {
        "Postcode": "34250",
        "Location": "Parit 8D-L",
        "Post_Office": "Tanjong Piandang",
        "State": "Perak"
    },
    {
        "Postcode": "34250",
        "Location": "Parit Batu 11",
        "Post_Office": "Tanjong Piandang",
        "State": "Perak"
    },
    {
        "Postcode": "34250",
        "Location": "Parit Guan",
        "Post_Office": "Tanjong Piandang",
        "State": "Perak"
    },
    {
        "Postcode": "34250",
        "Location": "Parit Haji Adnan",
        "Post_Office": "Tanjong Piandang",
        "State": "Perak"
    },
    {
        "Postcode": "34250",
        "Location": "Parit Haji Awi",
        "Post_Office": "Tanjong Piandang",
        "State": "Perak"
    },
    {
        "Postcode": "34250",
        "Location": "Parit Haji Nasir",
        "Post_Office": "Tanjong Piandang",
        "State": "Perak"
    },
    {
        "Postcode": "34250",
        "Location": "Parit Haji Wahab Atas",
        "Post_Office": "Tanjong Piandang",
        "State": "Perak"
    },
    {
        "Postcode": "34250",
        "Location": "Parit Haji Wahab Bawah",
        "Post_Office": "Tanjong Piandang",
        "State": "Perak"
    },
    {
        "Postcode": "34250",
        "Location": "Parit Lebai Akhir",
        "Post_Office": "Tanjong Piandang",
        "State": "Perak"
    },
    {
        "Postcode": "34250",
        "Location": "Parit Lebai Akhir Bagan Tiang",
        "Post_Office": "Tanjong Piandang",
        "State": "Perak"
    },
    {
        "Postcode": "34250",
        "Location": "Parit Mat Alam",
        "Post_Office": "Tanjong Piandang",
        "State": "Perak"
    },
    {
        "Postcode": "34250",
        "Location": "Parit Mat Ali",
        "Post_Office": "Tanjong Piandang",
        "State": "Perak"
    },
    {
        "Postcode": "34250",
        "Location": "Parit Sungai Betul",
        "Post_Office": "Tanjong Piandang",
        "State": "Perak"
    },
    {
        "Postcode": "34250",
        "Location": "Parit Sungai Labu Atas",
        "Post_Office": "Tanjong Piandang",
        "State": "Perak"
    },
    {
        "Postcode": "34250",
        "Location": "Parit Sungai Labu Bawah",
        "Post_Office": "Tanjong Piandang",
        "State": "Perak"
    },
    {
        "Postcode": "34250",
        "Location": "Parit Taliair Kerani",
        "Post_Office": "Tanjong Piandang",
        "State": "Perak"
    },
    {
        "Postcode": "34250",
        "Location": "Parit Tanjong Piandang",
        "Post_Office": "Tanjong Piandang",
        "State": "Perak"
    },
    {
        "Postcode": "34250",
        "Location": "Parit Tebok Haji Musa",
        "Post_Office": "Tanjong Piandang",
        "State": "Perak"
    },
    {
        "Postcode": "34250",
        "Location": "Parit Tok Ngah",
        "Post_Office": "Tanjong Piandang",
        "State": "Perak"
    },
    {
        "Postcode": "34250",
        "Location": "Parit Tok Ngah Atas",
        "Post_Office": "Tanjong Piandang",
        "State": "Perak"
    },
    {
        "Postcode": "34250",
        "Location": "Parit Tok Ngah Batas Raja",
        "Post_Office": "Tanjong Piandang",
        "State": "Perak"
    },
    {
        "Postcode": "34250",
        "Location": "Parit Tok Ngah Bawah",
        "Post_Office": "Tanjong Piandang",
        "State": "Perak"
    },
    {
        "Postcode": "34250",
        "Location": "Sungai Betul Atas",
        "Post_Office": "Tanjong Piandang",
        "State": "Perak"
    },
    {
        "Postcode": "34250",
        "Location": "Sungai Burong",
        "Post_Office": "Tanjong Piandang",
        "State": "Perak"
    },
    {
        "Postcode": "34250",
        "Location": "Sungai Kota",
        "Post_Office": "Tanjong Piandang",
        "State": "Perak"
    },
    {
        "Postcode": "34250",
        "Location": "Sungai Labu",
        "Post_Office": "Tanjong Piandang",
        "State": "Perak"
    },
    {
        "Postcode": "34250",
        "Location": "Tali Air 206 Sungai Betul Atas",
        "Post_Office": "Tanjong Piandang",
        "State": "Perak"
    },
    {
        "Postcode": "34250",
        "Location": "Tali Air Besar",
        "Post_Office": "Tanjong Piandang",
        "State": "Perak"
    },
    {
        "Postcode": "34250",
        "Location": "Taman Piandang Indah",
        "Post_Office": "Tanjong Piandang",
        "State": "Perak"
    },
    {
        "Postcode": "34250",
        "Location": "Tanah Baru",
        "Post_Office": "Tanjong Piandang",
        "State": "Perak"
    },
    {
        "Postcode": "34250",
        "Location": "Tanjung Piandang",
        "Post_Office": "Tanjong Piandang",
        "State": "Perak"
    },
    {
        "Postcode": "34250",
        "Location": "Tebok Haji Musa",
        "Post_Office": "Tanjong Piandang",
        "State": "Perak"
    }
]
