[
    {
        "Postcode": "34300",
        "Location": "Parit Mentara 2",
        "Post_Office": "Bagan Serai",
        "State": "Perak"
    },
    {
        "Postcode": "34300",
        "Location": "Parit Mentara 3",
        "Post_Office": "Bagan Serai",
        "State": "Perak"
    },
    {
        "Postcode": "34300",
        "Location": "Kampung Baru",
        "Post_Office": "Bagan Serai",
        "State": "Perak"
    },
    {
        "Postcode": "34300",
        "Location": "Kampung Kedah",
        "Post_Office": "Bagan Serai",
        "State": "Perak"
    },
    {
        "Postcode": "34300",
        "Location": "Kampung Telok",
        "Post_Office": "Bagan Serai",
        "State": "Perak"
    },
    {
        "Postcode": "34300",
        "Location": "Taman Intan",
        "Post_Office": "Bagan Serai",
        "State": "Perak"
    },
    {
        "Postcode": "34300",
        "Location": "Parit Haji Tahir",
        "Post_Office": "Bagan Serai",
        "State": "Perak"
    },
    {
        "Postcode": "34300",
        "Location": "Parit Haji Ali",
        "Post_Office": "Bagan Serai",
        "State": "Perak"
    },
    {
        "Postcode": "34300",
        "Location": "Taman Mewah",
        "Post_Office": "Bagan Serai",
        "State": "Perak"
    },
    {
        "Postcode": "34300",
        "Location": "Kampung Changkat Lobak",
        "Post_Office": "Bagan Serai\r\n",
        "State": "Perak"
    },
    {
        "Postcode": "34300",
        "Location": "Sungai Rawa",
        "Post_Office": "Bagan Serai",
        "State": "Perak"
    },
    {
        "Postcode": "34300",
        "Location": "Alor Penyengat",
        "Post_Office": "Bagan Serai",
        "State": "Perak"
    },
    {
        "Postcode": "34300",
        "Location": "Alor Pongsu",
        "Post_Office": "Bagan Serai",
        "State": "Perak"
    },
    {
        "Postcode": "34300",
        "Location": "Bagan Serai",
        "Post_Office": "Bagan Serai",
        "State": "Perak"
    },
    {
        "Postcode": "34300",
        "Location": "Bagan Tebu",
        "Post_Office": "Bagan Serai",
        "State": "Perak"
    },
    {
        "Postcode": "34300",
        "Location": "Jalan Kampung Soon Lee",
        "Post_Office": "Bagan Serai",
        "State": "Perak"
    },
    {
        "Postcode": "34300",
        "Location": "Jalan Kurau (Batu 1/4 - 3 1/2)",
        "Post_Office": "Bagan Serai",
        "State": "Perak"
    },
    {
        "Postcode": "34300",
        "Location": "Jalan Selama (Batu 1/4 - 1)",
        "Post_Office": "Bagan Serai",
        "State": "Perak"
    },
    {
        "Postcode": "34300",
        "Location": "Jalan Taiping (Batu 9 - 11 1/2)",
        "Post_Office": "Bagan Serai",
        "State": "Perak"
    },
    {
        "Postcode": "34300",
        "Location": "Kampung Alor Kubu",
        "Post_Office": "Bagan Serai",
        "State": "Perak"
    },
    {
        "Postcode": "34300",
        "Location": "Kampung Alor Singa",
        "Post_Office": "Bagan Serai",
        "State": "Perak"
    },
    {
        "Postcode": "34300",
        "Location": "Kampung Alor Singgah",
        "Post_Office": "Bagan Serai",
        "State": "Perak"
    },
    {
        "Postcode": "34300",
        "Location": "Kampung Briah (Batu 8)",
        "Post_Office": "Bagan Serai",
        "State": "Perak"
    },
    {
        "Postcode": "34300",
        "Location": "Kampung Briah Matang Pasir (Batu 8)",
        "Post_Office": "Bagan Serai",
        "State": "Perak"
    },
    {
        "Postcode": "34300",
        "Location": "Kampung Depan Balai",
        "Post_Office": "Bagan Serai",
        "State": "Perak"
    },
    {
        "Postcode": "34300",
        "Location": "Kampung Keramat",
        "Post_Office": "Bagan Serai",
        "State": "Perak"
    },
    {
        "Postcode": "34300",
        "Location": "Kampung Padri",
        "Post_Office": "Bagan Serai",
        "State": "Perak"
    },
    {
        "Postcode": "34300",
        "Location": "Kampung Soon Lee",
        "Post_Office": "Bagan Serai",
        "State": "Perak"
    },
    {
        "Postcode": "34300",
        "Location": "Kampung Yasin",
        "Post_Office": "Bagan Serai",
        "State": "Perak"
    },
    {
        "Postcode": "34300",
        "Location": "Km 11 Sungai Bogak",
        "Post_Office": "Bagan Serai",
        "State": "Perak"
    },
    {
        "Postcode": "34300",
        "Location": "Km 13 Kampung Briah Matang Pasi",
        "Post_Office": "Bagan Serai",
        "State": "Perak"
    },
    {
        "Postcode": "34300",
        "Location": "Ladang Parsha",
        "Post_Office": "Bagan Serai",
        "State": "Perak"
    },
    {
        "Postcode": "34300",
        "Location": "Lembah Bariah",
        "Post_Office": "Bagan Serai",
        "State": "Perak"
    },
    {
        "Postcode": "34300",
        "Location": "Matang Gerdu",
        "Post_Office": "Bagan Serai",
        "State": "Perak"
    },
    {
        "Postcode": "34300",
        "Location": "Matang Jelutong",
        "Post_Office": "Bagan Serai",
        "State": "Perak"
    },
    {
        "Postcode": "34300",
        "Location": "Matang Pasir",
        "Post_Office": "Bagan Serai",
        "State": "Perak"
    },
    {
        "Postcode": "34300",
        "Location": "Parit 3",
        "Post_Office": "Bagan Serai",
        "State": "Perak"
    },
    {
        "Postcode": "34300",
        "Location": "Parit 8",
        "Post_Office": "Bagan Serai",
        "State": "Perak"
    },
    {
        "Postcode": "34300",
        "Location": "Parit 804",
        "Post_Office": "Bagan Serai",
        "State": "Perak"
    },
    {
        "Postcode": "34300",
        "Location": "Parit Abu Hassan",
        "Post_Office": "Bagan Serai",
        "State": "Perak"
    },
    {
        "Postcode": "34300",
        "Location": "Parit Ali Kallang (Atas)",
        "Post_Office": "Bagan Serai",
        "State": "Perak"
    },
    {
        "Postcode": "34300",
        "Location": "Parit Ali Kallang (Bawah)",
        "Post_Office": "Bagan Serai",
        "State": "Perak"
    },
    {
        "Postcode": "34300",
        "Location": "Parit Ayer Hitam",
        "Post_Office": "Bagan Serai",
        "State": "Perak"
    },
    {
        "Postcode": "34300",
        "Location": "Parit Gabis",
        "Post_Office": "Bagan Serai",
        "State": "Perak"
    },
    {
        "Postcode": "34300",
        "Location": "Parit Gabis (Atas \u0026 Bawah)",
        "Post_Office": "Bagan Serai",
        "State": "Perak"
    },
    {
        "Postcode": "34300",
        "Location": "Parit Haji Aman",
        "Post_Office": "Bagan Serai",
        "State": "Perak"
    },
    {
        "Postcode": "34300",
        "Location": "Parit Haji Hassan",
        "Post_Office": "Bagan Serai",
        "State": "Perak"
    },
    {
        "Postcode": "34300",
        "Location": "Parit Haji Hussain",
        "Post_Office": "Bagan Serai",
        "State": "Perak"
    },
    {
        "Postcode": "34300",
        "Location": "Parit Haji Ismail",
        "Post_Office": "Bagan Serai",
        "State": "Perak"
    },
    {
        "Postcode": "34300",
        "Location": "Parit Haji Kasim",
        "Post_Office": "Bagan Serai",
        "State": "Perak"
    },
    {
        "Postcode": "34300",
        "Location": "Parit Haji Taib",
        "Post_Office": "Bagan Serai",
        "State": "Perak"
    },
    {
        "Postcode": "34300",
        "Location": "Parit Haji Tain 1",
        "Post_Office": "Bagan Serai",
        "State": "Perak"
    },
    {
        "Postcode": "34300",
        "Location": "Parit Jawa",
        "Post_Office": "Bagan Serai",
        "State": "Perak"
    },
    {
        "Postcode": "34300",
        "Location": "Parit Lebai Kadir",
        "Post_Office": "Bagan Serai",
        "State": "Perak"
    },
    {
        "Postcode": "34300",
        "Location": "Parit Mat Keling",
        "Post_Office": "Bagan Serai",
        "State": "Perak"
    },
    {
        "Postcode": "34300",
        "Location": "Parit Simpang 4",
        "Post_Office": "Bagan Serai",
        "State": "Perak"
    },
    {
        "Postcode": "34300",
        "Location": "Parit Simpang 5",
        "Post_Office": "Bagan Serai",
        "State": "Perak"
    },
    {
        "Postcode": "34300",
        "Location": "Parit Sulaiman",
        "Post_Office": "Bagan Serai",
        "State": "Perak"
    },
    {
        "Postcode": "34300",
        "Location": "Parit Sungai",
        "Post_Office": "Bagan Serai",
        "State": "Perak"
    },
    {
        "Postcode": "34300",
        "Location": "Parit Sungai Bogak",
        "Post_Office": "Bagan Serai",
        "State": "Perak"
    },
    {
        "Postcode": "34300",
        "Location": "Parit Sungai Dungun",
        "Post_Office": "Bagan Serai",
        "State": "Perak"
    },
    {
        "Postcode": "34300",
        "Location": "Parit Tuan Bridge",
        "Post_Office": "Bagan Serai",
        "State": "Perak"
    },
    {
        "Postcode": "34300",
        "Location": "Perumahan Peladang",
        "Post_Office": "Bagan Serai",
        "State": "Perak"
    },
    {
        "Postcode": "34300",
        "Location": "Samagagah Estate",
        "Post_Office": "Bagan Serai",
        "State": "Perak"
    },
    {
        "Postcode": "34300",
        "Location": "Sungai Bogak",
        "Post_Office": "Bagan Serai",
        "State": "Perak"
    },
    {
        "Postcode": "34300",
        "Location": "Sungai Bogak (Batu 7)",
        "Post_Office": "Bagan Serai",
        "State": "Perak"
    },
    {
        "Postcode": "34300",
        "Location": "Sungai Butat",
        "Post_Office": "Bagan Serai",
        "State": "Perak"
    },
    {
        "Postcode": "34300",
        "Location": "Sungai Dungun",
        "Post_Office": "Bagan Serai",
        "State": "Perak"
    },
    {
        "Postcode": "34300",
        "Location": "Sungai Gedong",
        "Post_Office": "Bagan Serai",
        "State": "Perak"
    },
    {
        "Postcode": "34300",
        "Location": "Sungai Putat",
        "Post_Office": "Bagan Serai",
        "State": "Perak"
    },
    {
        "Postcode": "34300",
        "Location": "Sungai Semambu",
        "Post_Office": "Bagan Serai",
        "State": "Perak"
    },
    {
        "Postcode": "34300",
        "Location": "Sungai Semang",
        "Post_Office": "Bagan Serai",
        "State": "Perak"
    },
    {
        "Postcode": "34300",
        "Location": "Tamai Seri Pongsu",
        "Post_Office": "Bagan Serai",
        "State": "Perak"
    },
    {
        "Postcode": "34300",
        "Location": "Taman Bagan Serai",
        "Post_Office": "Bagan Serai",
        "State": "Perak"
    },
    {
        "Postcode": "34300",
        "Location": "Taman Keramat",
        "Post_Office": "Bagan Serai",
        "State": "Perak"
    },
    {
        "Postcode": "34300",
        "Location": "Taman Keramat Indah",
        "Post_Office": "Bagan Serai",
        "State": "Perak"
    },
    {
        "Postcode": "34300",
        "Location": "Taman Pang Yok Chin",
        "Post_Office": "Bagan Serai",
        "State": "Perak"
    },
    {
        "Postcode": "34300",
        "Location": "Taman Serai Emas",
        "Post_Office": "Bagan Serai",
        "State": "Perak"
    },
    {
        "Postcode": "34300",
        "Location": "Taman Serai Indah",
        "Post_Office": "Bagan Serai",
        "State": "Perak"
    },
    {
        "Postcode": "34300",
        "Location": "Taman Serai Jaya",
        "Post_Office": "Bagan Serai",
        "State": "Perak"
    },
    {
        "Postcode": "34300",
        "Location": "Taman Serai Mayang",
        "Post_Office": "Bagan Serai",
        "State": "Perak"
    },
    {
        "Postcode": "34300",
        "Location": "Taman Serai Muda",
        "Post_Office": "Bagan Serai",
        "State": "Perak"
    },
    {
        "Postcode": "34300",
        "Location": "Taman Serai Murni",
        "Post_Office": "Bagan Serai",
        "State": "Perak"
    },
    {
        "Postcode": "34300",
        "Location": "Taman Serai Perdana",
        "Post_Office": "Bagan Serai",
        "State": "Perak"
    },
    {
        "Postcode": "34300",
        "Location": "Taman Serai Permai",
        "Post_Office": "Bagan Serai",
        "State": "Perak"
    },
    {
        "Postcode": "34300",
        "Location": "Taman Seri Gedong",
        "Post_Office": "Bagan Serai",
        "State": "Perak"
    },
    {
        "Postcode": "34300",
        "Location": "Taman Seri Krian",
        "Post_Office": "Bagan Serai",
        "State": "Perak"
    },
    {
        "Postcode": "34300",
        "Location": "Taman Seri Serai",
        "Post_Office": "Bagan Serai",
        "State": "Perak"
    },
    {
        "Postcode": "34300",
        "Location": "Tebok Jawa",
        "Post_Office": "Bagan Serai",
        "State": "Perak"
    },
    {
        "Postcode": "34300",
        "Location": "Tebok Jawa Matang Pasir",
        "Post_Office": "Bagan Serai",
        "State": "Perak"
    },
    {
        "Postcode": "34300",
        "Location": "Tebok Selekoh",
        "Post_Office": "Bagan Serai",
        "State": "Perak"
    },
    {
        "Postcode": "34300",
        "Location": "Teluk Jawa",
        "Post_Office": "Bagan Serai",
        "State": "Perak"
    },
    {
        "Postcode": "34300",
        "Location": "Teluk Seribu 2",
        "Post_Office": "Bagan Serai",
        "State": "Perak"
    }
]
