[
    {
        "Postcode": "34350",
        "Location": "Kampung Seri Makmur 1",
        "Post_Office": "Kuala Kurau",
        "State": "Perak"
    },
    {
        "Postcode": "34350",
        "Location": "Kampung Seri Makmur 2",
        "Post_Office": "Kuala Kurau",
        "State": "Perak"
    },
    {
        "Postcode": "34350",
        "Location": "Pulau Tempurong",
        "Post_Office": "Kuala Kurau",
        "State": "Perak"
    },
    {
        "Postcode": "34350",
        "Location": "Kampung Batu 14",
        "Post_Office": "Kuala Kurau",
        "State": "Perak"
    },
    {
        "Postcode": "34350",
        "Location": "Kampung Batu 4",
        "Post_Office": "Kuala Kurau",
        "State": "Perak"
    },
    {
        "Postcode": "34350",
        "Location": "Kampung Kebun Sayor",
        "Post_Office": "Kuala Kurau",
        "State": "Perak"
    },
    {
        "Postcode": "34350",
        "Location": "Kampung Perlis",
        "Post_Office": "Kuala Kurau",
        "State": "Perak"
    },
    {
        "Postcode": "34350",
        "Location": "Kampung Simpang Tiga",
        "Post_Office": "Kuala Kurau",
        "State": "Perak"
    },
    {
        "Postcode": "34350",
        "Location": "Kampung Sungai Baru",
        "Post_Office": "Kuala Kurau",
        "State": "Perak"
    },
    {
        "Postcode": "34350",
        "Location": "Sungai Baharu",
        "Post_Office": "Kuala Kurau",
        "State": "Perak"
    },
    {
        "Postcode": "34350",
        "Location": "Kampung Haji Salleh",
        "Post_Office": "Kuala Kurau",
        "State": "Perak"
    },
    {
        "Postcode": "34350",
        "Location": "Kampung Nelayan",
        "Post_Office": "Kuala Kurau",
        "State": "Perak"
    },
    {
        "Postcode": "34350",
        "Location": "Bagan Seberang",
        "Post_Office": "Kuala Kurau",
        "State": "Perak"
    },
    {
        "Postcode": "34350",
        "Location": "Jalan Ban Tepi Pantai",
        "Post_Office": "Kuala Kurau",
        "State": "Perak"
    },
    {
        "Postcode": "34350",
        "Location": "Kampung Agan",
        "Post_Office": "Kuala Kurau",
        "State": "Perak"
    },
    {
        "Postcode": "34350",
        "Location": "Kampung Baru Pandak Puteh",
        "Post_Office": "Kuala Kurau",
        "State": "Perak"
    },
    {
        "Postcode": "34350",
        "Location": "Kampung Batu 13 Tengah",
        "Post_Office": "Kuala Kurau",
        "State": "Perak"
    },
    {
        "Postcode": "34350",
        "Location": "Kampung Haji Mat Aris",
        "Post_Office": "Kuala Kurau",
        "State": "Perak"
    },
    {
        "Postcode": "34350",
        "Location": "Kampung Haji Taib",
        "Post_Office": "Kuala Kurau",
        "State": "Perak"
    },
    {
        "Postcode": "34350",
        "Location": "Kampung Kedai Dua",
        "Post_Office": "Kuala Kurau",
        "State": "Perak"
    },
    {
        "Postcode": "34350",
        "Location": "Kampung Kedai Dua Pandak Puteh",
        "Post_Office": "Kuala Kurau",
        "State": "Perak"
    },
    {
        "Postcode": "34350",
        "Location": "Kampung Kuala Gula",
        "Post_Office": "Kuala Kurau",
        "State": "Perak"
    },
    {
        "Postcode": "34350",
        "Location": "Kampung Lian Seng",
        "Post_Office": "Kuala Kurau",
        "State": "Perak"
    },
    {
        "Postcode": "34350",
        "Location": "Kampung Masjid Batu",
        "Post_Office": "Kuala Kurau",
        "State": "Perak"
    },
    {
        "Postcode": "34350",
        "Location": "Kampung Melayu (Kuala Gula)",
        "Post_Office": "Kuala Kurau",
        "State": "Perak"
    },
    {
        "Postcode": "34350",
        "Location": "Kampung Nasab",
        "Post_Office": "Kuala Kurau",
        "State": "Perak"
    },
    {
        "Postcode": "34350",
        "Location": "Kampung Nibong Hangus",
        "Post_Office": "Kuala Kurau",
        "State": "Perak"
    },
    {
        "Postcode": "34350",
        "Location": "Kampung Pandak Puteh",
        "Post_Office": "Kuala Kurau",
        "State": "Perak"
    },
    {
        "Postcode": "34350",
        "Location": "Kampung Parit Abas",
        "Post_Office": "Kuala Kurau",
        "State": "Perak"
    },
    {
        "Postcode": "34350",
        "Location": "Kampung Parit Abu Samah",
        "Post_Office": "Kuala Kurau",
        "State": "Perak"
    },
    {
        "Postcode": "34350",
        "Location": "Kampung Parit Haji Ali",
        "Post_Office": "Kuala Kurau",
        "State": "Perak"
    },
    {
        "Postcode": "34350",
        "Location": "Kampung Parit Haji Amin",
        "Post_Office": "Kuala Kurau",
        "State": "Perak"
    },
    {
        "Postcode": "34350",
        "Location": "Kampung Parit Haji Manan",
        "Post_Office": "Kuala Kurau",
        "State": "Perak"
    },
    {
        "Postcode": "34350",
        "Location": "Kampung Parit Haji Napis",
        "Post_Office": "Kuala Kurau",
        "State": "Perak"
    },
    {
        "Postcode": "34350",
        "Location": "Kampung Parit Haji Said",
        "Post_Office": "Kuala Kurau",
        "State": "Perak"
    },
    {
        "Postcode": "34350",
        "Location": "Kampung Parit Kolam",
        "Post_Office": "Kuala Kurau",
        "State": "Perak"
    },
    {
        "Postcode": "34350",
        "Location": "Kampung Parit Mat Ali",
        "Post_Office": "Kuala Kurau",
        "State": "Perak"
    },
    {
        "Postcode": "34350",
        "Location": "Kampung Parit Sungai Milan",
        "Post_Office": "Kuala Kurau",
        "State": "Perak"
    },
    {
        "Postcode": "34350",
        "Location": "Kampung Parit Tok Him Darat",
        "Post_Office": "Kuala Kurau",
        "State": "Perak"
    },
    {
        "Postcode": "34350",
        "Location": "Kampung Parit Tok Kip",
        "Post_Office": "Kuala Kurau",
        "State": "Perak"
    },
    {
        "Postcode": "34350",
        "Location": "Kampung Pintu Ayer",
        "Post_Office": "Kuala Kurau",
        "State": "Perak"
    },
    {
        "Postcode": "34350",
        "Location": "Kampung Raja Basah",
        "Post_Office": "Kuala Kurau",
        "State": "Perak"
    },
    {
        "Postcode": "34350",
        "Location": "Kampung Saad Langai",
        "Post_Office": "Kuala Kurau",
        "State": "Perak"
    },
    {
        "Postcode": "34350",
        "Location": "Kampung Sungai Baru Darat",
        "Post_Office": "Kuala Kurau",
        "State": "Perak"
    },
    {
        "Postcode": "34350",
        "Location": "Kampung Sungai Baru Tengah",
        "Post_Office": "Kuala Kurau",
        "State": "Perak"
    },
    {
        "Postcode": "34350",
        "Location": "Kampung Tanjong Nipis",
        "Post_Office": "Kuala Kurau",
        "State": "Perak"
    },
    {
        "Postcode": "34350",
        "Location": "Kampung Telok Pial",
        "Post_Office": "Kuala Kurau",
        "State": "Perak"
    },
    {
        "Postcode": "34350",
        "Location": "Kampung Telok Pial Baroh",
        "Post_Office": "Kuala Kurau",
        "State": "Perak"
    },
    {
        "Postcode": "34350",
        "Location": "Kampung Telok Pial Tengah",
        "Post_Office": "Kuala Kurau",
        "State": "Perak"
    },
    {
        "Postcode": "34350",
        "Location": "Kampung Tersusun Kuala Gula",
        "Post_Office": "Kuala Kurau",
        "State": "Perak"
    },
    {
        "Postcode": "34350",
        "Location": "Kampung Tersusun Nibong Hangus",
        "Post_Office": "Kuala Kurau",
        "State": "Perak"
    },
    {
        "Postcode": "34350",
        "Location": "Kampung Tersusun Raja Basah",
        "Post_Office": "Kuala Kurau",
        "State": "Perak"
    },
    {
        "Postcode": "34350",
        "Location": "Kampung Tok Adam",
        "Post_Office": "Kuala Kurau",
        "State": "Perak"
    },
    {
        "Postcode": "34350",
        "Location": "Kampung Tok Ngah",
        "Post_Office": "Kuala Kurau",
        "State": "Perak"
    },
    {
        "Postcode": "34350",
        "Location": "Kampung Tok Pulut",
        "Post_Office": "Kuala Kurau",
        "State": "Perak"
    },
    {
        "Postcode": "34350",
        "Location": "Kuala Gula",
        "Post_Office": "Kuala Kurau",
        "State": "Perak"
    },
    {
        "Postcode": "34350",
        "Location": "Kuala Kurau",
        "Post_Office": "Kuala Kurau",
        "State": "Perak"
    },
    {
        "Postcode": "34350",
        "Location": "Ladang Gula",
        "Post_Office": "Kuala Kurau",
        "State": "Perak"
    },
    {
        "Postcode": "34350",
        "Location": "Ladang Gula Bahagian 55",
        "Post_Office": "Kuala Kurau",
        "State": "Perak"
    },
    {
        "Postcode": "34350",
        "Location": "Pandak Putih",
        "Post_Office": "Kuala Kurau",
        "State": "Perak"
    },
    {
        "Postcode": "34350",
        "Location": "Parit 30 (Jalan Pantai)",
        "Post_Office": "Kuala Kurau",
        "State": "Perak"
    },
    {
        "Postcode": "34350",
        "Location": "Parit Gompong Batu 7",
        "Post_Office": "Kuala Kurau",
        "State": "Perak"
    },
    {
        "Postcode": "34350",
        "Location": "Parit Haji Manan",
        "Post_Office": "Kuala Kurau",
        "State": "Perak"
    },
    {
        "Postcode": "34350",
        "Location": "Parit Haji Samsuri",
        "Post_Office": "Kuala Kurau",
        "State": "Perak"
    },
    {
        "Postcode": "34350",
        "Location": "Parit Haji Yussof",
        "Post_Office": "Kuala Kurau",
        "State": "Perak"
    },
    {
        "Postcode": "34350",
        "Location": "Perumahan Awam 2 Sungai Dungun",
        "Post_Office": "Kuala Kurau",
        "State": "Perak"
    },
    {
        "Postcode": "34350",
        "Location": "Sungai Siakap",
        "Post_Office": "Kuala Kurau",
        "State": "Perak"
    },
    {
        "Postcode": "34350",
        "Location": "Taman Kuala Kurau",
        "Post_Office": "Kuala Kurau",
        "State": "Perak"
    },
    {
        "Postcode": "34350",
        "Location": "Taman Kurau Indah Pondok Putih",
        "Post_Office": "Kuala Kurau",
        "State": "Perak"
    },
    {
        "Postcode": "34350",
        "Location": "Taman Kurau Jaya Pondok Putih",
        "Post_Office": "Kuala Kurau",
        "State": "Perak"
    },
    {
        "Postcode": "34350",
        "Location": "Taman Kurau Murni (Jalan Pantai)",
        "Post_Office": "Kuala Kurau",
        "State": "Perak"
    },
    {
        "Postcode": "34350",
        "Location": "Taman Makmur (Jalan Pantai)",
        "Post_Office": "Kuala Kurau",
        "State": "Perak"
    },
    {
        "Postcode": "34350",
        "Location": "Tanjung Nipis",
        "Post_Office": "Kuala Kurau",
        "State": "Perak"
    },
    {
        "Postcode": "34350",
        "Location": "Telaga Ayer",
        "Post_Office": "Kuala Kurau",
        "State": "Perak"
    },
    {
        "Postcode": "34350",
        "Location": "Teluk Piah Baroh",
        "Post_Office": "Kuala Kurau",
        "State": "Perak"
    },
    {
        "Postcode": "34350",
        "Location": "Teluk Piai Tengah",
        "Post_Office": "Kuala Kurau",
        "State": "Perak"
    },
    {
        "Postcode": "34350",
        "Location": "Teluk Pial (Simpang Tiga)",
        "Post_Office": "Kuala Kurau",
        "State": "Perak"
    },
    {
        "Postcode": "34350",
        "Location": "Taman Sri Kurau",
        "Post_Office": "Kuala Kurau",
        "State": "Perak"
    }
]
