[
    {
        "Postcode": "34400",
        "Location": "Kampung Bukit Putus",
        "Post_Office": "Simpang Ampat Semanggol",
        "State": "Perak"
    },
    {
        "Postcode": "34400",
        "Location": "Kampung Parit 1",
        "Post_Office": "Simpang Ampat Semanggol",
        "State": "Perak"
    },
    {
        "Postcode": "34400",
        "Location": "Kampung Parit 2",
        "Post_Office": "Simpang Ampat Semanggol",
        "State": "Perak"
    },
    {
        "Postcode": "34400",
        "Location": "Kampung Parit 3",
        "Post_Office": "Simpang Ampat Semanggol",
        "State": "Perak"
    },
    {
        "Postcode": "34400",
        "Location": "Kampung Parit 4",
        "Post_Office": "Simpang Ampat Semanggol",
        "State": "Perak"
    },
    {
        "Postcode": "34400",
        "Location": "Kampung Parit 5",
        "Post_Office": "Simpang Ampat Semanggol",
        "State": "Perak"
    },
    {
        "Postcode": "34400",
        "Location": "Kampung Padang Lalang",
        "Post_Office": "Simpang Ampat Semanggol",
        "State": "Perak"
    },
    {
        "Postcode": "34400",
        "Location": "Kampung Sungai Baru",
        "Post_Office": "Simpang Ampat Semanggol",
        "State": "Perak"
    },
    {
        "Postcode": "34400",
        "Location": "Kampung Tengah",
        "Post_Office": "Simpang Ampat Semanggol",
        "State": "Perak"
    },
    {
        "Postcode": "34400",
        "Location": "Padang Lalang",
        "Post_Office": "Simpang Ampat Semanggol",
        "State": "Perak"
    },
    {
        "Postcode": "34400",
        "Location": "Taman Indah Jaya",
        "Post_Office": "Simpang Ampat Semanggol",
        "State": "Perak"
    },
    {
        "Postcode": "34400",
        "Location": "Kampung Sungai Pinang",
        "Post_Office": "Simpang Ampat Semanggol\r\n",
        "State": "Perak"
    },
    {
        "Postcode": "34400",
        "Location": "Kampung Matang Pasir",
        "Post_Office": "Simpang Ampat Semanggol",
        "State": "Perak"
    },
    {
        "Postcode": "34400",
        "Location": "Kampung Kubu Gajah",
        "Post_Office": "Simpang Ampat Semanggol",
        "State": "Perak"
    },
    {
        "Postcode": "34400",
        "Location": "Ladang Yam Seng",
        "Post_Office": "Simpang Ampat Semanggol",
        "State": "Perak"
    },
    {
        "Postcode": "34400",
        "Location": "Alor Setanggok",
        "Post_Office": "Simpang Ampat Semanggol",
        "State": "Perak"
    },
    {
        "Postcode": "34400",
        "Location": "Batu 11 Jalan Kerian",
        "Post_Office": "Simpang Ampat Semanggol",
        "State": "Perak"
    },
    {
        "Postcode": "34400",
        "Location": "Bukit Keramat",
        "Post_Office": "Simpang Ampat Semanggol",
        "State": "Perak"
    },
    {
        "Postcode": "34400",
        "Location": "Bukit Merah Lake Town",
        "Post_Office": "Simpang Ampat Semanggol",
        "State": "Perak"
    },
    {
        "Postcode": "34400",
        "Location": "Gunung Semanggol",
        "Post_Office": "Simpang Ampat Semanggol",
        "State": "Perak"
    },
    {
        "Postcode": "34400",
        "Location": "Hotel Bukit Merah Resort",
        "Post_Office": "Simpang Ampat Semanggol",
        "State": "Perak"
    },
    {
        "Postcode": "34400",
        "Location": "Jalan Kerian",
        "Post_Office": "Simpang Ampat Semanggol",
        "State": "Perak"
    },
    {
        "Postcode": "34400",
        "Location": "Jalan Semanggol",
        "Post_Office": "Simpang Ampat Semanggol",
        "State": "Perak"
    },
    {
        "Postcode": "34400",
        "Location": "Kampung Ban Pisang",
        "Post_Office": "Simpang Ampat Semanggol",
        "State": "Perak"
    },
    {
        "Postcode": "34400",
        "Location": "Kampung Bukit Semanggol",
        "Post_Office": "Simpang Ampat Semanggol",
        "State": "Perak"
    },
    {
        "Postcode": "34400",
        "Location": "Kampung Dew",
        "Post_Office": "Simpang Ampat Semanggol",
        "State": "Perak"
    },
    {
        "Postcode": "34400",
        "Location": "Kampung Pelupor",
        "Post_Office": "Simpang Ampat Semanggol",
        "State": "Perak"
    },
    {
        "Postcode": "34400",
        "Location": "Kampung Permatang Pasir",
        "Post_Office": "Simpang Ampat Semanggol",
        "State": "Perak"
    },
    {
        "Postcode": "34400",
        "Location": "Kampung Pondok Tanjong",
        "Post_Office": "Simpang Ampat Semanggol",
        "State": "Perak"
    },
    {
        "Postcode": "34400",
        "Location": "Kampung Samagagah",
        "Post_Office": "Simpang Ampat Semanggol",
        "State": "Perak"
    },
    {
        "Postcode": "34400",
        "Location": "Kampung Selingsing",
        "Post_Office": "Simpang Ampat Semanggol",
        "State": "Perak"
    },
    {
        "Postcode": "34400",
        "Location": "Kampung Sungai Kepar",
        "Post_Office": "Simpang Ampat Semanggol",
        "State": "Perak"
    },
    {
        "Postcode": "34400",
        "Location": "Kampung Sungai Perikan",
        "Post_Office": "Simpang Ampat Semanggol",
        "State": "Perak"
    },
    {
        "Postcode": "34400",
        "Location": "Kampung Sungai Protan",
        "Post_Office": "Simpang Ampat Semanggol",
        "State": "Perak"
    },
    {
        "Postcode": "34400",
        "Location": "Kampung Tanjong Bugis",
        "Post_Office": "Simpang Ampat Semanggol",
        "State": "Perak"
    },
    {
        "Postcode": "34400",
        "Location": "Kampung Tanjong Serani",
        "Post_Office": "Simpang Ampat Semanggol",
        "State": "Perak"
    },
    {
        "Postcode": "34400",
        "Location": "Kampung Tebok Matau",
        "Post_Office": "Simpang Ampat Semanggol",
        "State": "Perak"
    },
    {
        "Postcode": "34400",
        "Location": "Kampung Tebok Panchor",
        "Post_Office": "Simpang Ampat Semanggol",
        "State": "Perak"
    },
    {
        "Postcode": "34400",
        "Location": "Kampung Teluk Sama Gagah",
        "Post_Office": "Simpang Ampat Semanggol",
        "State": "Perak"
    },
    {
        "Postcode": "34400",
        "Location": "Kampung Tersusun J/Gula",
        "Post_Office": "Simpang Ampat Semanggol",
        "State": "Perak"
    },
    {
        "Postcode": "34400",
        "Location": "Kampung Tua Simpang Ampat",
        "Post_Office": "Simpang Ampat Semanggol",
        "State": "Perak"
    },
    {
        "Postcode": "34400",
        "Location": "Kolam Air Tebok Panchor",
        "Post_Office": "Simpang Ampat Semanggol",
        "State": "Perak"
    },
    {
        "Postcode": "34400",
        "Location": "Kuala Kampung Tua",
        "Post_Office": "Simpang Ampat Semanggol",
        "State": "Perak"
    },
    {
        "Postcode": "34400",
        "Location": "Kubu Gajah (Bukit Merah)",
        "Post_Office": "Simpang Ampat Semanggol",
        "State": "Perak"
    },
    {
        "Postcode": "34400",
        "Location": "Ladang Charles Land",
        "Post_Office": "Simpang Ampat Semanggol",
        "State": "Perak"
    },
    {
        "Postcode": "34400",
        "Location": "Ladang Krian Road",
        "Post_Office": "Simpang Ampat Semanggol",
        "State": "Perak"
    },
    {
        "Postcode": "34400",
        "Location": "Lubok Buntar",
        "Post_Office": "Simpang Ampat Semanggol",
        "State": "Perak"
    },
    {
        "Postcode": "34400",
        "Location": "Palm View (Bukit Merah)",
        "Post_Office": "Simpang Ampat Semanggol",
        "State": "Perak"
    },
    {
        "Postcode": "34400",
        "Location": "Parit 5 Tebok Matau",
        "Post_Office": "Simpang Ampat Semanggol",
        "State": "Perak"
    },
    {
        "Postcode": "34400",
        "Location": "Parit Kualoh",
        "Post_Office": "Simpang Ampat Semanggol",
        "State": "Perak"
    },
    {
        "Postcode": "34400",
        "Location": "Parit Sembilan",
        "Post_Office": "Simpang Ampat Semanggol",
        "State": "Perak"
    },
    {
        "Postcode": "34400",
        "Location": "Perumahn Guru Jalan Sungai Kapar",
        "Post_Office": "Simpang Ampat Semanggol",
        "State": "Perak"
    },
    {
        "Postcode": "34400",
        "Location": "Plkn Gunong Semanggol",
        "Post_Office": "Simpang Ampat Semanggol",
        "State": "Perak"
    },
    {
        "Postcode": "34400",
        "Location": "Rumah Guru Gunung Semanggol",
        "Post_Office": "Simpang Ampat Semanggol",
        "State": "Perak"
    },
    {
        "Postcode": "34400",
        "Location": "Selising",
        "Post_Office": "Simpang Ampat Semanggol",
        "State": "Perak"
    },
    {
        "Postcode": "34400",
        "Location": "Simpang Empat Semanggol",
        "Post_Office": "Simpang Ampat Semanggol",
        "State": "Perak"
    },
    {
        "Postcode": "34400",
        "Location": "Simpang Kampung Tua",
        "Post_Office": "Simpang Ampat Semanggol",
        "State": "Perak"
    },
    {
        "Postcode": "34400",
        "Location": "Simpang Tiga Selinsing",
        "Post_Office": "Simpang Ampat Semanggol",
        "State": "Perak"
    },
    {
        "Postcode": "34400",
        "Location": "Sungai Kepar",
        "Post_Office": "Simpang Ampat Semanggol",
        "State": "Perak"
    },
    {
        "Postcode": "34400",
        "Location": "Sungai Perikan",
        "Post_Office": "Simpang Ampat Semanggol",
        "State": "Perak"
    },
    {
        "Postcode": "34400",
        "Location": "Sungai Petani Selinsing",
        "Post_Office": "Simpang Ampat Semanggol",
        "State": "Perak"
    },
    {
        "Postcode": "34400",
        "Location": "Sungai Protan",
        "Post_Office": "Simpang Ampat Semanggol",
        "State": "Perak"
    },
    {
        "Postcode": "34400",
        "Location": "Taman Semanggol",
        "Post_Office": "Simpang Ampat Semanggol",
        "State": "Perak"
    },
    {
        "Postcode": "34400",
        "Location": "Taman Semanggol Indah",
        "Post_Office": "Simpang Ampat Semanggol",
        "State": "Perak"
    },
    {
        "Postcode": "34400",
        "Location": "Taman Seri Selinsing",
        "Post_Office": "Simpang Ampat Semanggol",
        "State": "Perak"
    },
    {
        "Postcode": "34400",
        "Location": "Tebok Haji Dolah",
        "Post_Office": "Simpang Ampat Semanggol",
        "State": "Perak"
    },
    {
        "Postcode": "34400",
        "Location": "Tebok Matau",
        "Post_Office": "Simpang Ampat Semanggol",
        "State": "Perak"
    },
    {
        "Postcode": "34400",
        "Location": "Tebok Panchor",
        "Post_Office": "Simpang Ampat Semanggol",
        "State": "Perak"
    },
    {
        "Postcode": "34400",
        "Location": "Tebok Rimba",
        "Post_Office": "Simpang Ampat Semanggol",
        "State": "Perak"
    }
]
