[
    {
        "Postcode": "34500",
        "Location": "Changkat Lobak",
        "Post_Office": "Batu Kurau",
        "State": "Perak"
    },
    {
        "Postcode": "34500",
        "Location": "Kampung Air Hitam",
        "Post_Office": "Batu Kurau",
        "State": "Perak"
    },
    {
        "Postcode": "34500",
        "Location": "Kampung Baru",
        "Post_Office": "Batu Kurau",
        "State": "Perak"
    },
    {
        "Postcode": "34500",
        "Location": "Kampung Changkat Perah",
        "Post_Office": "Batu Kurau",
        "State": "Perak"
    },
    {
        "Postcode": "34500",
        "Location": "Kampung Jawa",
        "Post_Office": "Batu Kurau",
        "State": "Perak"
    },
    {
        "Postcode": "34500",
        "Location": "Kampung Padang Lalang",
        "Post_Office": "Batu Kurau",
        "State": "Perak"
    },
    {
        "Postcode": "34500",
        "Location": "Kampung Paya",
        "Post_Office": "Batu Kurau",
        "State": "Perak"
    },
    {
        "Postcode": "34500",
        "Location": "Kampung Perak",
        "Post_Office": "Batu Kurau",
        "State": "Perak"
    },
    {
        "Postcode": "34500",
        "Location": "Taman Indah",
        "Post_Office": "Batu Kurau",
        "State": "Perak"
    },
    {
        "Postcode": "34500",
        "Location": "Kampung Gudang",
        "Post_Office": "Batu Kurau",
        "State": "Perak"
    },
    {
        "Postcode": "34500",
        "Location": "Simpang 4",
        "Post_Office": "Batu Kurau",
        "State": "Perak"
    },
    {
        "Postcode": "34500",
        "Location": "Taman Kurau Mutiara",
        "Post_Office": "Batu Kurau",
        "State": "Perak"
    },
    {
        "Postcode": "34500",
        "Location": "Jalan TKM 1",
        "Post_Office": "Batu Kurau",
        "State": "Perak"
    },
    {
        "Postcode": "34500",
        "Location": "Jalan TKM 2",
        "Post_Office": "Batu Kurau",
        "State": "Perak"
    },
    {
        "Postcode": "34500",
        "Location": "Jalan TKM 3",
        "Post_Office": "Batu Kurau",
        "State": "Perak"
    },
    {
        "Postcode": "34500",
        "Location": "Jalan TKM 4",
        "Post_Office": "Batu Kurau",
        "State": "Perak"
    },
    {
        "Postcode": "34500",
        "Location": "Jalan TKM 5",
        "Post_Office": "Batu Kurau",
        "State": "Perak"
    },
    {
        "Postcode": "34500",
        "Location": "Jalan TKM 6",
        "Post_Office": "Batu Kurau",
        "State": "Perak"
    },
    {
        "Postcode": "34500",
        "Location": "Jalan TKM 8",
        "Post_Office": "Batu Kurau",
        "State": "Perak"
    },
    {
        "Postcode": "34500",
        "Location": "Susur Kurau Mutiara ",
        "Post_Office": "Batu Kurau",
        "State": "Perak"
    },
    {
        "Postcode": "34500",
        "Location": "Kampung Bukit Forest",
        "Post_Office": "Batu Kurau",
        "State": "Perak"
    },
    {
        "Postcode": "34500",
        "Location": "Kampung Repoh",
        "Post_Office": "Batu Kurau",
        "State": "Perak"
    },
    {
        "Postcode": "34500",
        "Location": "Banggol Kubor",
        "Post_Office": "Batu Kurau",
        "State": "Perak"
    },
    {
        "Postcode": "34500",
        "Location": "Banggol Sebelah",
        "Post_Office": "Batu Kurau",
        "State": "Perak"
    },
    {
        "Postcode": "34500",
        "Location": "Batu Bertindan",
        "Post_Office": "Batu Kurau",
        "State": "Perak"
    },
    {
        "Postcode": "34500",
        "Location": "Batu Kurau",
        "Post_Office": "Batu Kurau",
        "State": "Perak"
    },
    {
        "Postcode": "34500",
        "Location": "Bendang Rawa",
        "Post_Office": "Batu Kurau",
        "State": "Perak"
    },
    {
        "Postcode": "34500",
        "Location": "Bukit Bertam",
        "Post_Office": "Batu Kurau",
        "State": "Perak"
    },
    {
        "Postcode": "34500",
        "Location": "Bukit Jelutong",
        "Post_Office": "Batu Kurau",
        "State": "Perak"
    },
    {
        "Postcode": "34500",
        "Location": "Changkat Madrasah",
        "Post_Office": "Batu Kurau",
        "State": "Perak"
    },
    {
        "Postcode": "34500",
        "Location": "Chenderong Dalam",
        "Post_Office": "Batu Kurau",
        "State": "Perak"
    },
    {
        "Postcode": "34500",
        "Location": "Jalan Rambai",
        "Post_Office": "Batu Kurau",
        "State": "Perak"
    },
    {
        "Postcode": "34500",
        "Location": "Joo Chiang Estate",
        "Post_Office": "Batu Kurau",
        "State": "Perak"
    },
    {
        "Postcode": "34500",
        "Location": "Kampung 20",
        "Post_Office": "Batu Kurau",
        "State": "Perak"
    },
    {
        "Postcode": "34500",
        "Location": "Kampung Anak Kurau",
        "Post_Office": "Batu Kurau",
        "State": "Perak"
    },
    {
        "Postcode": "34500",
        "Location": "Kampung Anak Kurau Hulu",
        "Post_Office": "Batu Kurau",
        "State": "Perak"
    },
    {
        "Postcode": "34500",
        "Location": "Kampung Anak Kurau Seberang",
        "Post_Office": "Batu Kurau",
        "State": "Perak"
    },
    {
        "Postcode": "34500",
        "Location": "Kampung Batu 19",
        "Post_Office": "Batu Kurau",
        "State": "Perak"
    },
    {
        "Postcode": "34500",
        "Location": "Kampung Batu 21",
        "Post_Office": "Batu Kurau",
        "State": "Perak"
    },
    {
        "Postcode": "34500",
        "Location": "Kampung Batu 22",
        "Post_Office": "Batu Kurau",
        "State": "Perak"
    },
    {
        "Postcode": "34500",
        "Location": "Kampung Bawah Gunung",
        "Post_Office": "Batu Kurau",
        "State": "Perak"
    },
    {
        "Postcode": "34500",
        "Location": "Kampung Bechah",
        "Post_Office": "Batu Kurau",
        "State": "Perak"
    },
    {
        "Postcode": "34500",
        "Location": "Kampung Belakang Sekolah Inggeris",
        "Post_Office": "Batu Kurau",
        "State": "Perak"
    },
    {
        "Postcode": "34500",
        "Location": "Kampung Bukit Sungai Akar",
        "Post_Office": "Batu Kurau",
        "State": "Perak"
    },
    {
        "Postcode": "34500",
        "Location": "Kampung Changkat Semambu",
        "Post_Office": "Batu Kurau",
        "State": "Perak"
    },
    {
        "Postcode": "34500",
        "Location": "Kampung Changkat Tempurong",
        "Post_Office": "Batu Kurau",
        "State": "Perak"
    },
    {
        "Postcode": "34500",
        "Location": "Kampung Cherok Dollah",
        "Post_Office": "Batu Kurau",
        "State": "Perak"
    },
    {
        "Postcode": "34500",
        "Location": "Kampung Cherok Kelian",
        "Post_Office": "Batu Kurau",
        "State": "Perak"
    },
    {
        "Postcode": "34500",
        "Location": "Kampung Cherok Kubu Pantai Besar",
        "Post_Office": "Batu Kurau",
        "State": "Perak"
    },
    {
        "Postcode": "34500",
        "Location": "Kampung Cindai Sungai Ara",
        "Post_Office": "Batu Kurau",
        "State": "Perak"
    },
    {
        "Postcode": "34500",
        "Location": "Kampung Dusun Muda Batu 16",
        "Post_Office": "Batu Kurau",
        "State": "Perak"
    },
    {
        "Postcode": "34500",
        "Location": "Kampung Jabi",
        "Post_Office": "Batu Kurau",
        "State": "Perak"
    },
    {
        "Postcode": "34500",
        "Location": "Kampung Klian Gunung",
        "Post_Office": "Batu Kurau",
        "State": "Perak"
    },
    {
        "Postcode": "34500",
        "Location": "Kampung Makmur Pantai Besar",
        "Post_Office": "Batu Kurau",
        "State": "Perak"
    },
    {
        "Postcode": "34500",
        "Location": "Kampung Masjid Jelai",
        "Post_Office": "Batu Kurau",
        "State": "Perak"
    },
    {
        "Postcode": "34500",
        "Location": "Kampung Padang Lalang Ijok",
        "Post_Office": "Batu Kurau",
        "State": "Perak"
    },
    {
        "Postcode": "34500",
        "Location": "Kampung Paya Kanan",
        "Post_Office": "Batu Kurau",
        "State": "Perak"
    },
    {
        "Postcode": "34500",
        "Location": "Kampung Paya Kiri",
        "Post_Office": "Batu Kurau",
        "State": "Perak"
    },
    {
        "Postcode": "34500",
        "Location": "Kampung Perak (Batu 71)",
        "Post_Office": "Batu Kurau",
        "State": "Perak"
    },
    {
        "Postcode": "34500",
        "Location": "Kampung Sempeneh",
        "Post_Office": "Batu Kurau",
        "State": "Perak"
    },
    {
        "Postcode": "34500",
        "Location": "Kampung Sempeneh Cempaka",
        "Post_Office": "Batu Kurau",
        "State": "Perak"
    },
    {
        "Postcode": "34500",
        "Location": "Kampung Sempeneh Jalan Kolam Ayer",
        "Post_Office": "Batu Kurau",
        "State": "Perak"
    },
    {
        "Postcode": "34500",
        "Location": "Kampung Sempeneh Seberang",
        "Post_Office": "Batu Kurau",
        "State": "Perak"
    },
    {
        "Postcode": "34500",
        "Location": "Kampung Siam (Batu 14 1/2)",
        "Post_Office": "Batu Kurau",
        "State": "Perak"
    },
    {
        "Postcode": "34500",
        "Location": "Kampung Siam (Batu 20)",
        "Post_Office": "Batu Kurau",
        "State": "Perak"
    },
    {
        "Postcode": "34500",
        "Location": "Kampung Simpang 3 Gudang",
        "Post_Office": "Batu Kurau",
        "State": "Perak"
    },
    {
        "Postcode": "34500",
        "Location": "Kampung Sungai Air Kuning",
        "Post_Office": "Batu Kurau",
        "State": "Perak"
    },
    {
        "Postcode": "34500",
        "Location": "Kampung Sungai Ara Hilir",
        "Post_Office": "Batu Kurau",
        "State": "Perak"
    },
    {
        "Postcode": "34500",
        "Location": "Kampung Tersusun Batu 19",
        "Post_Office": "Batu Kurau",
        "State": "Perak"
    },
    {
        "Postcode": "34500",
        "Location": "Kampung Tersusun Sungai Besar",
        "Post_Office": "Batu Kurau",
        "State": "Perak"
    },
    {
        "Postcode": "34500",
        "Location": "Kampung Titi Gantong Kampung Kedah",
        "Post_Office": "Batu Kurau",
        "State": "Perak"
    },
    {
        "Postcode": "34500",
        "Location": "Kampung Titi Kasai",
        "Post_Office": "Batu Kurau",
        "State": "Perak"
    },
    {
        "Postcode": "34500",
        "Location": "Kampung Titi Kasai Tengah",
        "Post_Office": "Batu Kurau",
        "State": "Perak"
    },
    {
        "Postcode": "34500",
        "Location": "Kepala Batas",
        "Post_Office": "Batu Kurau",
        "State": "Perak"
    },
    {
        "Postcode": "34500",
        "Location": "Ladang Stoughten",
        "Post_Office": "Batu Kurau",
        "State": "Perak"
    },
    {
        "Postcode": "34500",
        "Location": "Padang Astaka",
        "Post_Office": "Batu Kurau",
        "State": "Perak"
    },
    {
        "Postcode": "34500",
        "Location": "Perumahan Awam Redang Panjang",
        "Post_Office": "Batu Kurau",
        "State": "Perak"
    },
    {
        "Postcode": "34500",
        "Location": "Pondok Kuin",
        "Post_Office": "Batu Kurau",
        "State": "Perak"
    },
    {
        "Postcode": "34500",
        "Location": "Relau Berdiri",
        "Post_Office": "Batu Kurau",
        "State": "Perak"
    },
    {
        "Postcode": "34500",
        "Location": "Relau Berdiri (Batu 16)",
        "Post_Office": "Batu Kurau",
        "State": "Perak"
    },
    {
        "Postcode": "34500",
        "Location": "Simpang Empat Anak Kurau",
        "Post_Office": "Batu Kurau",
        "State": "Perak"
    },
    {
        "Postcode": "34500",
        "Location": "Sri Paduka Kampung Perak",
        "Post_Office": "Batu Kurau",
        "State": "Perak"
    },
    {
        "Postcode": "34500",
        "Location": "Sungai Akar",
        "Post_Office": "Batu Kurau",
        "State": "Perak"
    },
    {
        "Postcode": "34500",
        "Location": "Sungai Bubu",
        "Post_Office": "Batu Kurau",
        "State": "Perak"
    },
    {
        "Postcode": "34500",
        "Location": "Taman Hijrah",
        "Post_Office": "Batu Kurau",
        "State": "Perak"
    },
    {
        "Postcode": "34500",
        "Location": "Ulu Seputeh",
        "Post_Office": "Batu Kurau",
        "State": "Perak"
    },
    {
        "Postcode": "34500",
        "Location": "Bendang Nering",
        "Post_Office": "Batu Kurau",
        "State": "Perak"
    }
]
