[
    {
        "Postcode": "34510",
        "Location": "Sungai Limau",
        "Post_Office": "Batu Kurau",
        "State": "Perak"
    },
    {
        "Postcode": "34510",
        "Location": "Ayer Simpol",
        "Post_Office": "Batu Kurau",
        "State": "Perak"
    },
    {
        "Postcode": "34510",
        "Location": "Bagan Baharu",
        "Post_Office": "Batu Kurau",
        "State": "Perak"
    },
    {
        "Postcode": "34510",
        "Location": "Bagan Bahru",
        "Post_Office": "Batu Kurau",
        "State": "Perak"
    },
    {
        "Postcode": "34510",
        "Location": "Banggol Jerai",
        "Post_Office": "Batu Kurau",
        "State": "Perak"
    },
    {
        "Postcode": "34510",
        "Location": "Banggol Kolam",
        "Post_Office": "Batu Kurau",
        "State": "Perak"
    },
    {
        "Postcode": "34510",
        "Location": "Batu Gelugor",
        "Post_Office": "Batu Kurau",
        "State": "Perak"
    },
    {
        "Postcode": "34510",
        "Location": "Bukit Kulim",
        "Post_Office": "Batu Kurau",
        "State": "Perak"
    },
    {
        "Postcode": "34510",
        "Location": "Bukit Panchor",
        "Post_Office": "Batu Kurau",
        "State": "Perak"
    },
    {
        "Postcode": "34510",
        "Location": "Kampung Bukit Chok",
        "Post_Office": "Batu Kurau",
        "State": "Perak"
    },
    {
        "Postcode": "34510",
        "Location": "Kampung Masjid Ijok",
        "Post_Office": "Batu Kurau",
        "State": "Perak"
    },
    {
        "Postcode": "34510",
        "Location": "Kampung Sangkut",
        "Post_Office": "Batu Kurau",
        "State": "Perak"
    },
    {
        "Postcode": "34510",
        "Location": "Kampung Tras",
        "Post_Office": "Batu Kurau",
        "State": "Perak"
    },
    {
        "Postcode": "34510",
        "Location": "Kampung Ulu Teras",
        "Post_Office": "Batu Kurau",
        "State": "Perak"
    },
    {
        "Postcode": "34510",
        "Location": "Klian Gunung",
        "Post_Office": "Batu Kurau",
        "State": "Perak"
    },
    {
        "Postcode": "34510",
        "Location": "Kota Raja Besiong",
        "Post_Office": "Batu Kurau",
        "State": "Perak"
    },
    {
        "Postcode": "34510",
        "Location": "Redang Panjang",
        "Post_Office": "Batu Kurau",
        "State": "Perak"
    },
    {
        "Postcode": "34510",
        "Location": "Sungai Jerneh",
        "Post_Office": "Batu Kurau",
        "State": "Perak"
    },
    {
        "Postcode": "34510",
        "Location": "Sungai Segar",
        "Post_Office": "Batu Kurau",
        "State": "Perak"
    },
    {
        "Postcode": "34510",
        "Location": "Sungai Siam",
        "Post_Office": "Batu Kurau",
        "State": "Perak"
    },
    {
        "Postcode": "34510",
        "Location": "Titi Kasai",
        "Post_Office": "Batu Kurau",
        "State": "Perak"
    }
]
