[
    {
        "Postcode": "34520",
        "Location": "Ayer Hitam",
        "Post_Office": "Batu Kurau",
        "State": "Perak"
    },
    {
        "Postcode": "34520",
        "Location": "Anak Kurau",
        "Post_Office": "Batu Kurau",
        "State": "Perak"
    },
    {
        "Postcode": "34520",
        "Location": "Batu Kurau (Batu 20)",
        "Post_Office": "Batu Kurau",
        "State": "Perak"
    },
    {
        "Postcode": "34520",
        "Location": "Batu Kurau (Km 29)",
        "Post_Office": "Batu Kurau",
        "State": "Perak"
    },
    {
        "Postcode": "34520",
        "Location": "Batu Kurau (Km 32)",
        "Post_Office": "Batu Kurau",
        "State": "Perak"
    },
    {
        "Postcode": "34520",
        "Location": "Bukit Nering",
        "Post_Office": "Batu Kurau",
        "State": "Perak"
    },
    {
        "Postcode": "34520",
        "Location": "Cherok Berjuang",
        "Post_Office": "Batu Kurau",
        "State": "Perak"
    },
    {
        "Postcode": "34520",
        "Location": "Cherok Dollah",
        "Post_Office": "Batu Kurau",
        "State": "Perak"
    },
    {
        "Postcode": "34520",
        "Location": "Cherok Kechil",
        "Post_Office": "Batu Kurau",
        "State": "Perak"
    },
    {
        "Postcode": "34520",
        "Location": "Cherok Pelandok",
        "Post_Office": "Batu Kurau",
        "State": "Perak"
    },
    {
        "Postcode": "34520",
        "Location": "Cherok Terap",
        "Post_Office": "Batu Kurau",
        "State": "Perak"
    },
    {
        "Postcode": "34520",
        "Location": "Jelai",
        "Post_Office": "Batu Kurau",
        "State": "Perak"
    },
    {
        "Postcode": "34520",
        "Location": "Jemerang Setar",
        "Post_Office": "Batu Kurau",
        "State": "Perak"
    },
    {
        "Postcode": "34520",
        "Location": "Kampung Haji Mat Asek",
        "Post_Office": "Batu Kurau",
        "State": "Perak"
    },
    {
        "Postcode": "34520",
        "Location": "Kampung Jambu Relang",
        "Post_Office": "Batu Kurau",
        "State": "Perak"
    },
    {
        "Postcode": "34520",
        "Location": "Kampung Kelian",
        "Post_Office": "Batu Kurau",
        "State": "Perak"
    },
    {
        "Postcode": "34520",
        "Location": "Kampung Kurnia Batu 22",
        "Post_Office": "Batu Kurau",
        "State": "Perak"
    },
    {
        "Postcode": "34520",
        "Location": "Kampung Maamor",
        "Post_Office": "Batu Kurau",
        "State": "Perak"
    },
    {
        "Postcode": "34520",
        "Location": "Kampung Sungai Nangka",
        "Post_Office": "Batu Kurau",
        "State": "Perak"
    },
    {
        "Postcode": "34520",
        "Location": "Kampung Sungai Siam Ijok",
        "Post_Office": "Batu Kurau",
        "State": "Perak"
    },
    {
        "Postcode": "34520",
        "Location": "Ladang Shambu",
        "Post_Office": "Batu Kurau",
        "State": "Perak"
    },
    {
        "Postcode": "34520",
        "Location": "Ladang Subur",
        "Post_Office": "Batu Kurau",
        "State": "Perak"
    },
    {
        "Postcode": "34520",
        "Location": "Ladang Sungai Pulau",
        "Post_Office": "Batu Kurau",
        "State": "Perak"
    },
    {
        "Postcode": "34520",
        "Location": "Padang Das",
        "Post_Office": "Batu Kurau",
        "State": "Perak"
    },
    {
        "Postcode": "34520",
        "Location": "Padang Kubur",
        "Post_Office": "Batu Kurau",
        "State": "Perak"
    },
    {
        "Postcode": "34520",
        "Location": "Pantai Besar",
        "Post_Office": "Batu Kurau",
        "State": "Perak"
    },
    {
        "Postcode": "34520",
        "Location": "Pulau Damar",
        "Post_Office": "Batu Kurau",
        "State": "Perak"
    },
    {
        "Postcode": "34520",
        "Location": "Redang Dahakim",
        "Post_Office": "Batu Kurau",
        "State": "Perak"
    },
    {
        "Postcode": "34520",
        "Location": "Relang",
        "Post_Office": "Batu Kurau",
        "State": "Perak"
    },
    {
        "Postcode": "34520",
        "Location": "Sungai Ara",
        "Post_Office": "Batu Kurau",
        "State": "Perak"
    },
    {
        "Postcode": "34520",
        "Location": "Sungai Simpul",
        "Post_Office": "Batu Kurau",
        "State": "Perak"
    }
]
