[
    {
        "Postcode": "34600",
        "Location": "Jalan Anak Bukit 132",
        "Post_Office": "Kamunting",
        "State": "Perak"
    },
    {
        "Postcode": "34600",
        "Location": "Jalan Anak Bukit 133",
        "Post_Office": "Kamunting",
        "State": "Perak"
    },
    {
        "Postcode": "34600",
        "Location": "Jalan Anak Bukit 134",
        "Post_Office": "Kamunting",
        "State": "Perak"
    },
    {
        "Postcode": "34600",
        "Location": "Jalan Anak Bukit 135",
        "Post_Office": "Kamunting",
        "State": "Perak"
    },
    {
        "Postcode": "34600",
        "Location": "Jalan Anak Bukit 136",
        "Post_Office": "Kamunting",
        "State": "Perak"
    },
    {
        "Postcode": "34600",
        "Location": "Jalan Anak Bukit 137",
        "Post_Office": "Kamunting",
        "State": "Perak"
    },
    {
        "Postcode": "34600",
        "Location": "Jalan Anak Bukit 138",
        "Post_Office": "Kamunting",
        "State": "Perak"
    },
    {
        "Postcode": "34600",
        "Location": "Jalan Anak Bukit 139",
        "Post_Office": "Kamunting",
        "State": "Perak"
    },
    {
        "Postcode": "34600",
        "Location": "Jalan Anak Bukit 140",
        "Post_Office": "Kamunting",
        "State": "Perak"
    },
    {
        "Postcode": "34600",
        "Location": "Jalan Anak Bukit 141",
        "Post_Office": "Kamunting",
        "State": "Perak"
    },
    {
        "Postcode": "34600",
        "Location": "Jalan Anak Bukit 142",
        "Post_Office": "Kamunting",
        "State": "Perak"
    },
    {
        "Postcode": "34600",
        "Location": "Jalan Anak Bukit 143",
        "Post_Office": "Kamunting",
        "State": "Perak"
    },
    {
        "Postcode": "34600",
        "Location": "Jalan Anak Bukit 144",
        "Post_Office": "Kamunting",
        "State": "Perak"
    },
    {
        "Postcode": "34600",
        "Location": "Jalan Anak Bukit 145",
        "Post_Office": "Kamunting",
        "State": "Perak"
    },
    {
        "Postcode": "34600",
        "Location": "Jalan Anak Bukit 146",
        "Post_Office": "Kamunting",
        "State": "Perak"
    },
    {
        "Postcode": "34600",
        "Location": "Jalan Anak Bukit 147",
        "Post_Office": "Kamunting",
        "State": "Perak"
    },
    {
        "Postcode": "34600",
        "Location": "Jalan Anak Bukit 148",
        "Post_Office": "Kamunting",
        "State": "Perak"
    },
    {
        "Postcode": "34600",
        "Location": "Jalan Anak Bukit 149",
        "Post_Office": "Kamunting",
        "State": "Perak"
    },
    {
        "Postcode": "34600",
        "Location": "Jalan Anak Bukit 150",
        "Post_Office": "Kamunting",
        "State": "Perak"
    },
    {
        "Postcode": "34600",
        "Location": "Jalan Anak Bukit 151",
        "Post_Office": "Kamunting",
        "State": "Perak"
    },
    {
        "Postcode": "34600",
        "Location": "Jalan Anak Bukit 152",
        "Post_Office": "Kamunting",
        "State": "Perak"
    },
    {
        "Postcode": "34600",
        "Location": "Jalan Anak Bukit 153",
        "Post_Office": "Kamunting",
        "State": "Perak"
    },
    {
        "Postcode": "34600",
        "Location": "Jalan Anak Bukit 154",
        "Post_Office": "Kamunting",
        "State": "Perak"
    },
    {
        "Postcode": "34600",
        "Location": "Jalan Anak Bukit 155",
        "Post_Office": "Kamunting",
        "State": "Perak"
    },
    {
        "Postcode": "34600",
        "Location": "Jalan Anak Bukit 156",
        "Post_Office": "Kamunting",
        "State": "Perak"
    },
    {
        "Postcode": "34600",
        "Location": "Jalan Anak Bukit 157",
        "Post_Office": "Kamunting",
        "State": "Perak"
    },
    {
        "Postcode": "34600",
        "Location": "Jalan Anak Bukit 158",
        "Post_Office": "Kamunting",
        "State": "Perak"
    },
    {
        "Postcode": "34600",
        "Location": "Jalan Anak Bukit 159",
        "Post_Office": "Kamunting",
        "State": "Perak"
    },
    {
        "Postcode": "34600",
        "Location": "Jalan Anak Bukit 160",
        "Post_Office": "Kamunting",
        "State": "Perak"
    },
    {
        "Postcode": "34600",
        "Location": "Jalan Anak Bukit 161",
        "Post_Office": "Kamunting",
        "State": "Perak"
    },
    {
        "Postcode": "34600",
        "Location": "Jalan Anak Bukit 162",
        "Post_Office": "Kamunting",
        "State": "Perak"
    },
    {
        "Postcode": "34600",
        "Location": "Jalan Anak Bukit 163",
        "Post_Office": "Kamunting",
        "State": "Perak"
    },
    {
        "Postcode": "34600",
        "Location": "Jalan Anak Bukit 164",
        "Post_Office": "Kamunting",
        "State": "Perak"
    },
    {
        "Postcode": "34600",
        "Location": "Jalan Anak Bukit 165",
        "Post_Office": "Kamunting",
        "State": "Perak"
    },
    {
        "Postcode": "34600",
        "Location": "Jalan Anak Bukit 166",
        "Post_Office": "Kamunting",
        "State": "Perak"
    },
    {
        "Postcode": "34600",
        "Location": "Kampung Baru",
        "Post_Office": "Kamunting",
        "State": "Perak"
    },
    {
        "Postcode": "34600",
        "Location": "Kampung Baru Cina",
        "Post_Office": "Kamunting",
        "State": "Perak"
    },
    {
        "Postcode": "34600",
        "Location": "Kampung Pasir",
        "Post_Office": "Kamunting",
        "State": "Perak"
    },
    {
        "Postcode": "34600",
        "Location": "Kampung Paya",
        "Post_Office": "Kamunting",
        "State": "Perak"
    },
    {
        "Postcode": "34600",
        "Location": "Kampung Teratai",
        "Post_Office": "Kamunting",
        "State": "Perak"
    },
    {
        "Postcode": "34600",
        "Location": "Taman Happy",
        "Post_Office": "Kamunting",
        "State": "Perak"
    },
    {
        "Postcode": "34600",
        "Location": "Taman Murni",
        "Post_Office": "Kamunting",
        "State": "Perak"
    },
    {
        "Postcode": "34600",
        "Location": "Taman Zenith",
        "Post_Office": "Kamunting",
        "State": "Perak"
    },
    {
        "Postcode": "34600",
        "Location": "Kampung Batu 5",
        "Post_Office": "Kamunting",
        "State": "Perak"
    },
    {
        "Postcode": "34600",
        "Location": "Kampung Rahmat",
        "Post_Office": "Kamunting",
        "State": "Perak"
    },
    {
        "Postcode": "34600",
        "Location": "Taman Desa Jaya",
        "Post_Office": "Kamunting",
        "State": "Perak"
    },
    {
        "Postcode": "34600",
        "Location": "Taman Mewah",
        "Post_Office": "Kamunting",
        "State": "Perak"
    },
    {
        "Postcode": "34600",
        "Location": "Taman Saujana",
        "Post_Office": "Kamunting",
        "State": "Perak"
    },
    {
        "Postcode": "34600",
        "Location": "Taman Taiping",
        "Post_Office": "Kamunting",
        "State": "Perak"
    },
    {
        "Postcode": "34600",
        "Location": "Kampung Pinang",
        "Post_Office": "Kamunting",
        "State": "Perak"
    },
    {
        "Postcode": "34600",
        "Location": "Bukit Jana",
        "Post_Office": "Kamunting",
        "State": "Perak"
    },
    {
        "Postcode": "34600",
        "Location": "Changkat Larah",
        "Post_Office": "Kamunting",
        "State": "Perak"
    },
    {
        "Postcode": "34600",
        "Location": "Green Valley",
        "Post_Office": "Kamunting",
        "State": "Perak"
    },
    {
        "Postcode": "34600",
        "Location": "Kampung Anak Bukit",
        "Post_Office": "Kamunting",
        "State": "Perak"
    },
    {
        "Postcode": "34600",
        "Location": "Kampung Baru Sambongan",
        "Post_Office": "Kamunting",
        "State": "Perak"
    },
    {
        "Postcode": "34600",
        "Location": "Kampung Changkat Larah",
        "Post_Office": "Kamunting",
        "State": "Perak"
    },
    {
        "Postcode": "34600",
        "Location": "Kampung Expo",
        "Post_Office": "Kamunting",
        "State": "Perak"
    },
    {
        "Postcode": "34600",
        "Location": "Kampung Jana",
        "Post_Office": "Kamunting",
        "State": "Perak"
    },
    {
        "Postcode": "34600",
        "Location": "Kampung Jana Baru",
        "Post_Office": "Kamunting",
        "State": "Perak"
    },
    {
        "Postcode": "34600",
        "Location": "Kampung Jana Sambongan",
        "Post_Office": "Kamunting",
        "State": "Perak"
    },
    {
        "Postcode": "34600",
        "Location": "Kampung Kurnia Jaya",
        "Post_Office": "Kamunting",
        "State": "Perak"
    },
    {
        "Postcode": "34600",
        "Location": "Kampung Makmur",
        "Post_Office": "Kamunting",
        "State": "Perak"
    },
    {
        "Postcode": "34600",
        "Location": "Kampung Pak Dollah",
        "Post_Office": "Kamunting",
        "State": "Perak"
    },
    {
        "Postcode": "34600",
        "Location": "Kampung Pasir Sambongan",
        "Post_Office": "Kamunting",
        "State": "Perak"
    },
    {
        "Postcode": "34600",
        "Location": "Kampung Pasir Seberang",
        "Post_Office": "Kamunting",
        "State": "Perak"
    },
    {
        "Postcode": "34600",
        "Location": "Kampung Pinang Seberang",
        "Post_Office": "Kamunting",
        "State": "Perak"
    },
    {
        "Postcode": "34600",
        "Location": "Kampung Sungai Ranting",
        "Post_Office": "Kamunting",
        "State": "Perak"
    },
    {
        "Postcode": "34600",
        "Location": "Kampung Sungai Relong",
        "Post_Office": "Kamunting",
        "State": "Perak"
    },
    {
        "Postcode": "34600",
        "Location": "Kampung Tersusun Bukit Jana",
        "Post_Office": "Kamunting",
        "State": "Perak"
    },
    {
        "Postcode": "34600",
        "Location": "Kamunting",
        "Post_Office": "Kamunting",
        "State": "Perak"
    },
    {
        "Postcode": "34600",
        "Location": "Kamunting Jaya",
        "Post_Office": "Kamunting",
        "State": "Perak"
    },
    {
        "Postcode": "34600",
        "Location": "Kawasan Perindustrian Kamunting Jaya",
        "Post_Office": "Kamunting",
        "State": "Perak"
    },
    {
        "Postcode": "34600",
        "Location": "Kem Sin Wah Estate",
        "Post_Office": "Kamunting",
        "State": "Perak"
    },
    {
        "Postcode": "34600",
        "Location": "Medan Kamunting",
        "Post_Office": "Kamunting",
        "State": "Perak"
    },
    {
        "Postcode": "34600",
        "Location": "Medan Kamunting Jaya",
        "Post_Office": "Kamunting",
        "State": "Perak"
    },
    {
        "Postcode": "34600",
        "Location": "Medan Saujana",
        "Post_Office": "Kamunting",
        "State": "Perak"
    },
    {
        "Postcode": "34600",
        "Location": "Pengkalan Limau",
        "Post_Office": "Kamunting",
        "State": "Perak"
    },
    {
        "Postcode": "34600",
        "Location": "Perumahan Awam Jalan Stesyen",
        "Post_Office": "Kamunting",
        "State": "Perak"
    },
    {
        "Postcode": "34600",
        "Location": "Regat Kamunting",
        "Post_Office": "Kamunting",
        "State": "Perak"
    },
    {
        "Postcode": "34600",
        "Location": "Rumah Murah Batu 4",
        "Post_Office": "Kamunting",
        "State": "Perak"
    },
    {
        "Postcode": "34600",
        "Location": "Sungai Ranting",
        "Post_Office": "Kamunting",
        "State": "Perak"
    },
    {
        "Postcode": "34600",
        "Location": "Sungai Relong",
        "Post_Office": "Kamunting",
        "State": "Perak"
    },
    {
        "Postcode": "34600",
        "Location": "Taman Bukit Jana Indah",
        "Post_Office": "Kamunting",
        "State": "Perak"
    },
    {
        "Postcode": "34600",
        "Location": "Taman Changkat Larah Maju",
        "Post_Office": "Kamunting",
        "State": "Perak"
    },
    {
        "Postcode": "34600",
        "Location": "Taman Changkat Larah Permai",
        "Post_Office": "Kamunting",
        "State": "Perak"
    },
    {
        "Postcode": "34600",
        "Location": "Taman Desa Jana",
        "Post_Office": "Kamunting",
        "State": "Perak"
    },
    {
        "Postcode": "34600",
        "Location": "Taman Desa Murni",
        "Post_Office": "Kamunting",
        "State": "Perak"
    },
    {
        "Postcode": "34600",
        "Location": "Taman Glenview",
        "Post_Office": "Kamunting",
        "State": "Perak"
    },
    {
        "Postcode": "34600",
        "Location": "Taman Indah Selatan",
        "Post_Office": "Kamunting",
        "State": "Perak"
    },
    {
        "Postcode": "34600",
        "Location": "Taman Indah Utara",
        "Post_Office": "Kamunting",
        "State": "Perak"
    },
    {
        "Postcode": "34600",
        "Location": "Taman Jana Jaya",
        "Post_Office": "Kamunting",
        "State": "Perak"
    },
    {
        "Postcode": "34600",
        "Location": "Taman Jana Mulia",
        "Post_Office": "Kamunting",
        "State": "Perak"
    },
    {
        "Postcode": "34600",
        "Location": "Taman Jana Permai",
        "Post_Office": "Kamunting",
        "State": "Perak"
    },
    {
        "Postcode": "34600",
        "Location": "Taman Jana Setia",
        "Post_Office": "Kamunting",
        "State": "Perak"
    },
    {
        "Postcode": "34600",
        "Location": "Taman Juta",
        "Post_Office": "Kamunting",
        "State": "Perak"
    },
    {
        "Postcode": "34600",
        "Location": "Taman Kamunting",
        "Post_Office": "Kamunting",
        "State": "Perak"
    },
    {
        "Postcode": "34600",
        "Location": "Taman Kamunting Bistari",
        "Post_Office": "Kamunting",
        "State": "Perak"
    },
    {
        "Postcode": "34600",
        "Location": "Taman Kamunting Jaya",
        "Post_Office": "Kamunting",
        "State": "Perak"
    },
    {
        "Postcode": "34600",
        "Location": "Taman Kamunting Permai",
        "Post_Office": "Kamunting",
        "State": "Perak"
    },
    {
        "Postcode": "34600",
        "Location": "Taman Kamunting Satu",
        "Post_Office": "Kamunting",
        "State": "Perak"
    },
    {
        "Postcode": "34600",
        "Location": "Taman Kamunting Timur",
        "Post_Office": "Kamunting",
        "State": "Perak"
    },
    {
        "Postcode": "34600",
        "Location": "Taman Kota Wira",
        "Post_Office": "Kamunting",
        "State": "Perak"
    },
    {
        "Postcode": "34600",
        "Location": "Taman Lela",
        "Post_Office": "Kamunting",
        "State": "Perak"
    },
    {
        "Postcode": "34600",
        "Location": "Taman Medan Kamunting",
        "Post_Office": "Kamunting",
        "State": "Perak"
    },
    {
        "Postcode": "34600",
        "Location": "Taman Metro Kajang",
        "Post_Office": "Kamunting",
        "State": "Perak"
    },
    {
        "Postcode": "34600",
        "Location": "Taman Palma",
        "Post_Office": "Kamunting",
        "State": "Perak"
    },
    {
        "Postcode": "34600",
        "Location": "Taman Palma Kipas",
        "Post_Office": "Kamunting",
        "State": "Perak"
    },
    {
        "Postcode": "34600",
        "Location": "Taman Saujana 2",
        "Post_Office": "Kamunting",
        "State": "Perak"
    },
    {
        "Postcode": "34600",
        "Location": "Taman Seri Cempaka",
        "Post_Office": "Kamunting",
        "State": "Perak"
    },
    {
        "Postcode": "34600",
        "Location": "Taman Seri Kamunting",
        "Post_Office": "Kamunting",
        "State": "Perak"
    },
    {
        "Postcode": "34600",
        "Location": "Taman Taiping Baru",
        "Post_Office": "Kamunting",
        "State": "Perak"
    },
    {
        "Postcode": "34600",
        "Location": "Taman Taiping Utara",
        "Post_Office": "Kamunting",
        "State": "Perak"
    },
    {
        "Postcode": "34600",
        "Location": "Taman Wira",
        "Post_Office": "Kamunting",
        "State": "Perak"
    },
    {
        "Postcode": "34600",
        "Location": "Taman Yayasan",
        "Post_Office": "Kamunting",
        "State": "Perak"
    },
    {
        "Postcode": "34600",
        "Location": "Zon Perindustrian Kemunting",
        "Post_Office": "Kamunting",
        "State": "Perak"
    },
    {
        "Postcode": "34600",
        "Location": "Taman Rakyat",
        "Post_Office": "Kamunting",
        "State": "Perak"
    }
]
