[
    {
        "Postcode": "34650",
        "Location": "Kampung Baru",
        "Post_Office": "Kuala Sepetang",
        "State": "Perak"
    },
    {
        "Postcode": "34650",
        "Location": "Kampung Seberang",
        "Post_Office": "Kuala Sepetang",
        "State": "Perak"
    },
    {
        "Postcode": "34650",
        "Location": "Kampung Baru (Jalan Arang)",
        "Post_Office": "Kuala Sepetang",
        "State": "Perak"
    },
    {
        "Postcode": "34650",
        "Location": "Kampung Dapor Arang",
        "Post_Office": "Kuala Sepetang",
        "State": "Perak"
    },
    {
        "Postcode": "34650",
        "Location": "Kampung Menteri",
        "Post_Office": "Kuala Sepetang",
        "State": "Perak"
    },
    {
        "Postcode": "34650",
        "Location": "Kuala Sangga",
        "Post_Office": "Kuala Sepetang",
        "State": "Perak"
    },
    {
        "Postcode": "34650",
        "Location": "Kuala Sepetang",
        "Post_Office": "Kuala Sepetang",
        "State": "Perak"
    },
    {
        "Postcode": "34650",
        "Location": "Taman Kuala Sepetang",
        "Post_Office": "Kuala Sepetang",
        "State": "Perak"
    }
]
