[
    {
        "Postcode": "34700",
        "Location": "Taman Simpang 1",
        "Post_Office": "Simpang",
        "State": "Perak"
    },
    {
        "Postcode": "34700",
        "Location": "Taman Simpang 2",
        "Post_Office": "Simpang",
        "State": "Perak"
    },
    {
        "Postcode": "34700",
        "Location": "Kampung Baru",
        "Post_Office": "Simpang",
        "State": "Perak"
    },
    {
        "Postcode": "34700",
        "Location": "Kampung Pasir",
        "Post_Office": "Simpang",
        "State": "Perak"
    },
    {
        "Postcode": "34700",
        "Location": "Taman Berkat",
        "Post_Office": "Simpang",
        "State": "Perak"
    },
    {
        "Postcode": "34700",
        "Location": "Taman Indah",
        "Post_Office": "Simpang",
        "State": "Perak"
    },
    {
        "Postcode": "34700",
        "Location": "Kampung Jelapang",
        "Post_Office": "Simpang",
        "State": "Perak"
    },
    {
        "Postcode": "34700",
        "Location": "Taman Damai",
        "Post_Office": "Simpang",
        "State": "Perak"
    },
    {
        "Postcode": "34700",
        "Location": "Taman Mawar",
        "Post_Office": "Simpang",
        "State": "Perak"
    },
    {
        "Postcode": "34700",
        "Location": "Taman Ria",
        "Post_Office": "Simpang",
        "State": "Perak"
    },
    {
        "Postcode": "34700",
        "Location": "Ayer Putih",
        "Post_Office": "Simpang",
        "State": "Perak"
    },
    {
        "Postcode": "34700",
        "Location": "Batu Tegoh",
        "Post_Office": "Simpang",
        "State": "Perak"
    },
    {
        "Postcode": "34700",
        "Location": "Jalan Taiping (Batu 2 1/2)",
        "Post_Office": "Simpang",
        "State": "Perak"
    },
    {
        "Postcode": "34700",
        "Location": "Kampung Bakar Pasu",
        "Post_Office": "Simpang",
        "State": "Perak"
    },
    {
        "Postcode": "34700",
        "Location": "Kampung Baru Simpang",
        "Post_Office": "Simpang",
        "State": "Perak"
    },
    {
        "Postcode": "34700",
        "Location": "Kampung Batu 5 1/2",
        "Post_Office": "Simpang",
        "State": "Perak"
    },
    {
        "Postcode": "34700",
        "Location": "Kampung Chetty",
        "Post_Office": "Simpang",
        "State": "Perak"
    },
    {
        "Postcode": "34700",
        "Location": "Kampung Simpang",
        "Post_Office": "Simpang",
        "State": "Perak"
    },
    {
        "Postcode": "34700",
        "Location": "Kampung Simpang Halt",
        "Post_Office": "Simpang",
        "State": "Perak"
    },
    {
        "Postcode": "34700",
        "Location": "Kampung Sungai Derka",
        "Post_Office": "Simpang",
        "State": "Perak"
    },
    {
        "Postcode": "34700",
        "Location": "Kampung Sungai Larut",
        "Post_Office": "Simpang",
        "State": "Perak"
    },
    {
        "Postcode": "34700",
        "Location": "Kampung Tesusun",
        "Post_Office": "Simpang",
        "State": "Perak"
    },
    {
        "Postcode": "34700",
        "Location": "Ladang Mah Pow Chong",
        "Post_Office": "Simpang",
        "State": "Perak"
    },
    {
        "Postcode": "34700",
        "Location": "Parit Menteri",
        "Post_Office": "Simpang",
        "State": "Perak"
    },
    {
        "Postcode": "34700",
        "Location": "Rumah Murah Kampung Simpang",
        "Post_Office": "Simpang",
        "State": "Perak"
    },
    {
        "Postcode": "34700",
        "Location": "Simpang",
        "Post_Office": "Simpang",
        "State": "Perak"
    },
    {
        "Postcode": "34700",
        "Location": "Simpang Estate",
        "Post_Office": "Simpang",
        "State": "Perak"
    },
    {
        "Postcode": "34700",
        "Location": "Simpang Halt",
        "Post_Office": "Simpang",
        "State": "Perak"
    },
    {
        "Postcode": "34700",
        "Location": "Sungai Draka",
        "Post_Office": "Simpang",
        "State": "Perak"
    },
    {
        "Postcode": "34700",
        "Location": "Sungai Larut",
        "Post_Office": "Simpang",
        "State": "Perak"
    },
    {
        "Postcode": "34700",
        "Location": "Taman Alor Ria",
        "Post_Office": "Simpang",
        "State": "Perak"
    },
    {
        "Postcode": "34700",
        "Location": "Taman Beautiful Land",
        "Post_Office": "Simpang",
        "State": "Perak"
    },
    {
        "Postcode": "34700",
        "Location": "Taman Beauty",
        "Post_Office": "Simpang",
        "State": "Perak"
    },
    {
        "Postcode": "34700",
        "Location": "Taman Damai Ii",
        "Post_Office": "Simpang",
        "State": "Perak"
    },
    {
        "Postcode": "34700",
        "Location": "Taman Kota Jaya",
        "Post_Office": "Simpang",
        "State": "Perak"
    },
    {
        "Postcode": "34700",
        "Location": "Taman Lengenda",
        "Post_Office": "Simpang",
        "State": "Perak"
    },
    {
        "Postcode": "34700",
        "Location": "Taman Molek",
        "Post_Office": "Simpang",
        "State": "Perak"
    },
    {
        "Postcode": "34700",
        "Location": "Taman Palong",
        "Post_Office": "Simpang",
        "State": "Perak"
    },
    {
        "Postcode": "34700",
        "Location": "Taman Palong Maju",
        "Post_Office": "Simpang",
        "State": "Perak"
    },
    {
        "Postcode": "34700",
        "Location": "Taman Pura Jaya",
        "Post_Office": "Simpang",
        "State": "Perak"
    },
    {
        "Postcode": "34700",
        "Location": "Taman Ria Ii",
        "Post_Office": "Simpang",
        "State": "Perak"
    },
    {
        "Postcode": "34700",
        "Location": "Taman Seri Larut",
        "Post_Office": "Simpang",
        "State": "Perak"
    },
    {
        "Postcode": "34700",
        "Location": "Taman Seri Larut (Fasa 2)",
        "Post_Office": "Simpang",
        "State": "Perak"
    },
    {
        "Postcode": "34700",
        "Location": "Taman Simpang Aman",
        "Post_Office": "Simpang",
        "State": "Perak"
    },
    {
        "Postcode": "34700",
        "Location": "Taman Simpang Jaya",
        "Post_Office": "Simpang",
        "State": "Perak"
    },
    {
        "Postcode": "34700",
        "Location": "Taman Simpang Makmur I \u0026 Ii",
        "Post_Office": "Simpang",
        "State": "Perak"
    },
    {
        "Postcode": "34700",
        "Location": "Taman Simpang Mulia",
        "Post_Office": "Simpang",
        "State": "Perak"
    }
]
