[
    {
        "Postcode": "34750",
        "Location": "Kampung Matang Jambu",
        "Post_Office": "Matang",
        "State": "Perak"
    },
    {
        "Postcode": "34750",
        "Location": "Kampung Perak",
        "Post_Office": "Matang",
        "State": "Perak"
    },
    {
        "Postcode": "34750",
        "Location": "Kampung Matang Pasir",
        "Post_Office": "Matang",
        "State": "Perak"
    },
    {
        "Postcode": "34750",
        "Location": "Bagan Midah",
        "Post_Office": "Matang",
        "State": "Perak"
    },
    {
        "Postcode": "34750",
        "Location": "Batu Matang Estate",
        "Post_Office": "Matang",
        "State": "Perak"
    },
    {
        "Postcode": "34750",
        "Location": "Changkat Baru",
        "Post_Office": "Matang",
        "State": "Perak"
    },
    {
        "Postcode": "34750",
        "Location": "Kampung Baru Sungai Mati",
        "Post_Office": "Matang",
        "State": "Perak"
    },
    {
        "Postcode": "34750",
        "Location": "Kampung Jaha",
        "Post_Office": "Matang",
        "State": "Perak"
    },
    {
        "Postcode": "34750",
        "Location": "Kampung Jebong",
        "Post_Office": "Matang",
        "State": "Perak"
    },
    {
        "Postcode": "34750",
        "Location": "Kampung Malawati",
        "Post_Office": "Matang",
        "State": "Perak"
    },
    {
        "Postcode": "34750",
        "Location": "Kampung Matang Estate",
        "Post_Office": "Matang",
        "State": "Perak"
    },
    {
        "Postcode": "34750",
        "Location": "Kampung Matang Gelugor",
        "Post_Office": "Matang",
        "State": "Perak"
    },
    {
        "Postcode": "34750",
        "Location": "Kampung Matang Jambu Luar",
        "Post_Office": "Matang",
        "State": "Perak"
    },
    {
        "Postcode": "34750",
        "Location": "Kampung Sungai Lang",
        "Post_Office": "Matang",
        "State": "Perak"
    },
    {
        "Postcode": "34750",
        "Location": "Kampung Telok Kertang",
        "Post_Office": "Matang",
        "State": "Perak"
    },
    {
        "Postcode": "34750",
        "Location": "Kampung Ujung Matang",
        "Post_Office": "Matang",
        "State": "Perak"
    },
    {
        "Postcode": "34750",
        "Location": "Ladang Jebong",
        "Post_Office": "Matang",
        "State": "Perak"
    },
    {
        "Postcode": "34750",
        "Location": "Matang",
        "Post_Office": "Matang",
        "State": "Perak"
    },
    {
        "Postcode": "34750",
        "Location": "Matang (Km 8 - 21)",
        "Post_Office": "Matang",
        "State": "Perak"
    },
    {
        "Postcode": "34750",
        "Location": "Matang Estate",
        "Post_Office": "Matang",
        "State": "Perak"
    },
    {
        "Postcode": "34750",
        "Location": "Matang Gelugur",
        "Post_Office": "Matang",
        "State": "Perak"
    },
    {
        "Postcode": "34750",
        "Location": "Matang Jambu",
        "Post_Office": "Matang",
        "State": "Perak"
    },
    {
        "Postcode": "34750",
        "Location": "Sungai Mati",
        "Post_Office": "Matang",
        "State": "Perak"
    },
    {
        "Postcode": "34750",
        "Location": "Sungai Rendaka",
        "Post_Office": "Matang",
        "State": "Perak"
    }
]
