[
    {
        "Postcode": "34800",
        "Location": "Kampung Baru",
        "Post_Office": "Trong",
        "State": "Perak"
    },
    {
        "Postcode": "34800",
        "Location": "Kampung Jawa",
        "Post_Office": "Trong",
        "State": "Perak"
    },
    {
        "Postcode": "34800",
        "Location": "Kampung Jaya",
        "Post_Office": "Trong",
        "State": "Perak"
    },
    {
        "Postcode": "34800",
        "Location": "Kampung Masjid",
        "Post_Office": "Trong",
        "State": "Perak"
    },
    {
        "Postcode": "34800",
        "Location": "Kampung Pecah Batu",
        "Post_Office": "Trong",
        "State": "Perak"
    },
    {
        "Postcode": "34800",
        "Location": "Kampung Tengah",
        "Post_Office": "Trong",
        "State": "Perak"
    },
    {
        "Postcode": "34800",
        "Location": "Matang Kerian",
        "Post_Office": "Trong",
        "State": "Perak"
    },
    {
        "Postcode": "34800",
        "Location": "Kampung Batu 11",
        "Post_Office": "Trong",
        "State": "Perak"
    },
    {
        "Postcode": "34800",
        "Location": "Kampung Tebok",
        "Post_Office": "Trong",
        "State": "Perak"
    },
    {
        "Postcode": "34800",
        "Location": "Kampung Sungai Limau",
        "Post_Office": "Trong",
        "State": "Perak"
    },
    {
        "Postcode": "34800",
        "Location": "Kampung Padang Bola",
        "Post_Office": "Trong",
        "State": "Perak"
    },
    {
        "Postcode": "34800",
        "Location": "Kampung Sungai Kerang",
        "Post_Office": "Trong",
        "State": "Perak"
    },
    {
        "Postcode": "34800",
        "Location": "Sungai Baru",
        "Post_Office": "Trong",
        "State": "Perak"
    },
    {
        "Postcode": "34800",
        "Location": "Ayer Terjun",
        "Post_Office": "Trong",
        "State": "Perak"
    },
    {
        "Postcode": "34800",
        "Location": "Kampung Baru Jerong",
        "Post_Office": "Trong",
        "State": "Perak"
    },
    {
        "Postcode": "34800",
        "Location": "Kampung Baru Ulu",
        "Post_Office": "Trong",
        "State": "Perak"
    },
    {
        "Postcode": "34800",
        "Location": "Kampung Belia",
        "Post_Office": "Trong",
        "State": "Perak"
    },
    {
        "Postcode": "34800",
        "Location": "Kampung Jalan Sungai Kerang",
        "Post_Office": "Trong",
        "State": "Perak"
    },
    {
        "Postcode": "34800",
        "Location": "Kampung Jalan Sungai Nyior",
        "Post_Office": "Trong",
        "State": "Perak"
    },
    {
        "Postcode": "34800",
        "Location": "Kampung Jarum Emas",
        "Post_Office": "Trong",
        "State": "Perak"
    },
    {
        "Postcode": "34800",
        "Location": "Kampung Jeram Mas",
        "Post_Office": "Trong",
        "State": "Perak"
    },
    {
        "Postcode": "34800",
        "Location": "Kampung Kelubong",
        "Post_Office": "Trong",
        "State": "Perak"
    },
    {
        "Postcode": "34800",
        "Location": "Kampung Masjid Ayer Terjun",
        "Post_Office": "Trong",
        "State": "Perak"
    },
    {
        "Postcode": "34800",
        "Location": "Kampung Matang Krian",
        "Post_Office": "Trong",
        "State": "Perak"
    },
    {
        "Postcode": "34800",
        "Location": "Kampung Matang Merbau",
        "Post_Office": "Trong",
        "State": "Perak"
    },
    {
        "Postcode": "34800",
        "Location": "Kampung Nibong",
        "Post_Office": "Trong",
        "State": "Perak"
    },
    {
        "Postcode": "34800",
        "Location": "Kampung Rambutan",
        "Post_Office": "Trong",
        "State": "Perak"
    },
    {
        "Postcode": "34800",
        "Location": "Kampung Salak",
        "Post_Office": "Trong",
        "State": "Perak"
    },
    {
        "Postcode": "34800",
        "Location": "Kampung Simpang Temerloh",
        "Post_Office": "Trong",
        "State": "Perak"
    },
    {
        "Postcode": "34800",
        "Location": "Kampung Sungai Bamban",
        "Post_Office": "Trong",
        "State": "Perak"
    },
    {
        "Postcode": "34800",
        "Location": "Kampung Sungai Hantu",
        "Post_Office": "Trong",
        "State": "Perak"
    },
    {
        "Postcode": "34800",
        "Location": "Kampung Sungai Lubuk",
        "Post_Office": "Trong",
        "State": "Perak"
    },
    {
        "Postcode": "34800",
        "Location": "Kampung Sungai Nyur",
        "Post_Office": "Trong",
        "State": "Perak"
    },
    {
        "Postcode": "34800",
        "Location": "Kampung Sungai Punggor",
        "Post_Office": "Trong",
        "State": "Perak"
    },
    {
        "Postcode": "34800",
        "Location": "Kampung Sungai Tinggi",
        "Post_Office": "Trong",
        "State": "Perak"
    },
    {
        "Postcode": "34800",
        "Location": "Kampung Tanah Liat",
        "Post_Office": "Trong",
        "State": "Perak"
    },
    {
        "Postcode": "34800",
        "Location": "Kampung Temerloh",
        "Post_Office": "Trong",
        "State": "Perak"
    },
    {
        "Postcode": "34800",
        "Location": "Kampung Tersusun Salak",
        "Post_Office": "Trong",
        "State": "Perak"
    },
    {
        "Postcode": "34800",
        "Location": "Kelubong",
        "Post_Office": "Trong",
        "State": "Perak"
    },
    {
        "Postcode": "34800",
        "Location": "Matang Merbau",
        "Post_Office": "Trong",
        "State": "Perak"
    },
    {
        "Postcode": "34800",
        "Location": "Padang Gajah",
        "Post_Office": "Trong",
        "State": "Perak"
    },
    {
        "Postcode": "34800",
        "Location": "Pekan Baru Trong",
        "Post_Office": "Trong",
        "State": "Perak"
    },
    {
        "Postcode": "34800",
        "Location": "Sungai Kerang",
        "Post_Office": "Trong",
        "State": "Perak"
    },
    {
        "Postcode": "34800",
        "Location": "Sungai Rotan",
        "Post_Office": "Trong",
        "State": "Perak"
    },
    {
        "Postcode": "34800",
        "Location": "Sungai Tinggi",
        "Post_Office": "Trong",
        "State": "Perak"
    },
    {
        "Postcode": "34800",
        "Location": "Sungai Wang",
        "Post_Office": "Trong",
        "State": "Perak"
    },
    {
        "Postcode": "34800",
        "Location": "Taman Desa Trong Utama",
        "Post_Office": "Trong",
        "State": "Perak"
    },
    {
        "Postcode": "34800",
        "Location": "Taman Seri Trong",
        "Post_Office": "Trong",
        "State": "Perak"
    },
    {
        "Postcode": "34800",
        "Location": "Taman Sungai Tinggi",
        "Post_Office": "Trong",
        "State": "Perak"
    },
    {
        "Postcode": "34800",
        "Location": "Taman Trong Bakti",
        "Post_Office": "Trong",
        "State": "Perak"
    },
    {
        "Postcode": "34800",
        "Location": "Taman Trong Indah",
        "Post_Office": "Trong",
        "State": "Perak"
    },
    {
        "Postcode": "34800",
        "Location": "Temerloh",
        "Post_Office": "Trong",
        "State": "Perak"
    },
    {
        "Postcode": "34800",
        "Location": "Trong",
        "Post_Office": "Trong",
        "State": "Perak"
    },
    {
        "Postcode": "34800",
        "Location": "Trong (Km 16 - 32)",
        "Post_Office": "Trong",
        "State": "Perak"
    }
]
