[
    {
        "Postcode": "34850",
        "Location": "Bukit Chempedak",
        "Post_Office": "Changkat Jering",
        "State": "Perak"
    },
    {
        "Postcode": "34850",
        "Location": "Sungai Petai",
        "Post_Office": "Changkat Jering",
        "State": "Perak"
    },
    {
        "Postcode": "34850",
        "Location": "Sungai Serai",
        "Post_Office": "Changkat Jering",
        "State": "Perak"
    },
    {
        "Postcode": "34850",
        "Location": "Kampung Sungai Serai",
        "Post_Office": "Changkat Jering",
        "State": "Perak"
    },
    {
        "Postcode": "34850",
        "Location": "Bukit Berapit",
        "Post_Office": "Changkat Jering",
        "State": "Perak"
    },
    {
        "Postcode": "34850",
        "Location": "Kampung Batu 6",
        "Post_Office": "Changkat Jering",
        "State": "Perak"
    },
    {
        "Postcode": "34850",
        "Location": "Kampung Batu 8",
        "Post_Office": "Changkat Jering",
        "State": "Perak"
    },
    {
        "Postcode": "34850",
        "Location": "Kampung Batu 9",
        "Post_Office": "Changkat Jering",
        "State": "Perak"
    },
    {
        "Postcode": "34850",
        "Location": "Kampung Pauh",
        "Post_Office": "Changkat Jering",
        "State": "Perak"
    },
    {
        "Postcode": "34850",
        "Location": "Kampung Paya",
        "Post_Office": "Changkat Jering",
        "State": "Perak"
    },
    {
        "Postcode": "34850",
        "Location": "Kampung Pecah Batu",
        "Post_Office": "Changkat Jering",
        "State": "Perak"
    },
    {
        "Postcode": "34850",
        "Location": "Kampung Tengah",
        "Post_Office": "Changkat Jering",
        "State": "Perak"
    },
    {
        "Postcode": "34850",
        "Location": "Simpang Tiga",
        "Post_Office": "Changkat Jering",
        "State": "Perak"
    },
    {
        "Postcode": "34850",
        "Location": "Taman Aur Mesra",
        "Post_Office": "Changkat Jering",
        "State": "Perak"
    },
    {
        "Postcode": "34850",
        "Location": "Bendang Nibong",
        "Post_Office": "Changkat Jering",
        "State": "Perak"
    },
    {
        "Postcode": "34850",
        "Location": "Dusun Batak",
        "Post_Office": "Changkat Jering",
        "State": "Perak"
    },
    {
        "Postcode": "34850",
        "Location": "Kampung Jelutong",
        "Post_Office": "Changkat Jering",
        "State": "Perak"
    },
    {
        "Postcode": "34850",
        "Location": "Kampung Ayer Kuning",
        "Post_Office": "Changkat Jering",
        "State": "Perak"
    },
    {
        "Postcode": "34850",
        "Location": "Kampung Cheh",
        "Post_Office": "Changkat Jering",
        "State": "Perak"
    },
    {
        "Postcode": "34850",
        "Location": "Kampung Kubu",
        "Post_Office": "Changkat Jering",
        "State": "Perak"
    },
    {
        "Postcode": "34850",
        "Location": "Banggol Chempaka",
        "Post_Office": "Changkat Jering",
        "State": "Perak"
    },
    {
        "Postcode": "34850",
        "Location": "Banggol Nering",
        "Post_Office": "Changkat Jering",
        "State": "Perak"
    },
    {
        "Postcode": "34850",
        "Location": "Bendang Siam",
        "Post_Office": "Changkat Jering",
        "State": "Perak"
    },
    {
        "Postcode": "34850",
        "Location": "Benggol Pasir",
        "Post_Office": "Changkat Jering",
        "State": "Perak"
    },
    {
        "Postcode": "34850",
        "Location": "Berchat",
        "Post_Office": "Changkat Jering",
        "State": "Perak"
    },
    {
        "Postcode": "34850",
        "Location": "Changkat Jering",
        "Post_Office": "Changkat Jering",
        "State": "Perak"
    },
    {
        "Postcode": "34850",
        "Location": "Changkat Tok Nang",
        "Post_Office": "Changkat Jering",
        "State": "Perak"
    },
    {
        "Postcode": "34850",
        "Location": "Chengal Jantan",
        "Post_Office": "Changkat Jering",
        "State": "Perak"
    },
    {
        "Postcode": "34850",
        "Location": "Jalan Baru Jelutong",
        "Post_Office": "Changkat Jering",
        "State": "Perak"
    },
    {
        "Postcode": "34850",
        "Location": "Jalan Padang Bear",
        "Post_Office": "Changkat Jering",
        "State": "Perak"
    },
    {
        "Postcode": "34850",
        "Location": "Kampung Baru Changkat Jering",
        "Post_Office": "Changkat Jering",
        "State": "Perak"
    },
    {
        "Postcode": "34850",
        "Location": "Kampung Batu 11 (Bukit Berapit)",
        "Post_Office": "Changkat Jering",
        "State": "Perak"
    },
    {
        "Postcode": "34850",
        "Location": "Kampung Bercat",
        "Post_Office": "Changkat Jering",
        "State": "Perak"
    },
    {
        "Postcode": "34850",
        "Location": "Kampung Bukit Cempedak",
        "Post_Office": "Changkat Jering",
        "State": "Perak"
    },
    {
        "Postcode": "34850",
        "Location": "Kampung Changkat Ibol",
        "Post_Office": "Changkat Jering",
        "State": "Perak"
    },
    {
        "Postcode": "34850",
        "Location": "Kampung Changkat Ning",
        "Post_Office": "Changkat Jering",
        "State": "Perak"
    },
    {
        "Postcode": "34850",
        "Location": "Kampung Changkat Tok Nang",
        "Post_Office": "Changkat Jering",
        "State": "Perak"
    },
    {
        "Postcode": "34850",
        "Location": "Kampung Chengal Jantan",
        "Post_Office": "Changkat Jering",
        "State": "Perak"
    },
    {
        "Postcode": "34850",
        "Location": "Kampung Hulu Hilir",
        "Post_Office": "Changkat Jering",
        "State": "Perak"
    },
    {
        "Postcode": "34850",
        "Location": "Kampung Padang Besar",
        "Post_Office": "Changkat Jering",
        "State": "Perak"
    },
    {
        "Postcode": "34850",
        "Location": "Kampung Paya (Km 7 1/2)",
        "Post_Office": "Changkat Jering",
        "State": "Perak"
    },
    {
        "Postcode": "34850",
        "Location": "Kampung Seberang Ampang",
        "Post_Office": "Changkat Jering",
        "State": "Perak"
    },
    {
        "Postcode": "34850",
        "Location": "Kampung Senduk",
        "Post_Office": "Changkat Jering",
        "State": "Perak"
    },
    {
        "Postcode": "34850",
        "Location": "Kampung Senduk Batu 47",
        "Post_Office": "Changkat Jering",
        "State": "Perak"
    },
    {
        "Postcode": "34850",
        "Location": "Kampung Senduk Batu 47 1/2",
        "Post_Office": "Changkat Jering",
        "State": "Perak"
    },
    {
        "Postcode": "34850",
        "Location": "Kampung Sungai Petai",
        "Post_Office": "Changkat Jering",
        "State": "Perak"
    },
    {
        "Postcode": "34850",
        "Location": "Kampung Titi Gajah",
        "Post_Office": "Changkat Jering",
        "State": "Perak"
    },
    {
        "Postcode": "34850",
        "Location": "Padang Besar",
        "Post_Office": "Changkat Jering",
        "State": "Perak"
    },
    {
        "Postcode": "34850",
        "Location": "Ptrt Air Kuning",
        "Post_Office": "Changkat Jering",
        "State": "Perak"
    },
    {
        "Postcode": "34850",
        "Location": "Taman Changkat Jering",
        "Post_Office": "Changkat Jering",
        "State": "Perak"
    },
    {
        "Postcode": "34850",
        "Location": "Taman Changkat Permai",
        "Post_Office": "Changkat Jering",
        "State": "Perak"
    },
    {
        "Postcode": "34850",
        "Location": "Taman Desa Changkat",
        "Post_Office": "Changkat Jering",
        "State": "Perak"
    }
]
