[
    {
        "Postcode": "34900",
        "Location": "Kampung Cina",
        "Post_Office": "Pantai Remis",
        "State": "Perak"
    },
    {
        "Postcode": "34900",
        "Location": "Kampung Matang Jambu",
        "Post_Office": "Pantai Remis",
        "State": "Perak"
    },
    {
        "Postcode": "34900",
        "Location": "Kampung Tengah",
        "Post_Office": "Pantai Remis",
        "State": "Perak"
    },
    {
        "Postcode": "34900",
        "Location": "Matang Kerian",
        "Post_Office": "Pantai Remis",
        "State": "Perak"
    },
    {
        "Postcode": "34900",
        "Location": "Pekan Lama",
        "Post_Office": "Pantai Remis",
        "State": "Perak"
    },
    {
        "Postcode": "34900",
        "Location": "Simpang Tiga",
        "Post_Office": "Pantai Remis",
        "State": "Perak"
    },
    {
        "Postcode": "34900",
        "Location": "Kampung Kelantan",
        "Post_Office": "Pantai Remis",
        "State": "Perak"
    },
    {
        "Postcode": "34900",
        "Location": "Kampung Panchor",
        "Post_Office": "Pantai Remis",
        "State": "Perak"
    },
    {
        "Postcode": "34900",
        "Location": "Kampung Tebok",
        "Post_Office": "Pantai Remis",
        "State": "Perak"
    },
    {
        "Postcode": "34900",
        "Location": "Taman Bintang",
        "Post_Office": "Pantai Remis",
        "State": "Perak"
    },
    {
        "Postcode": "34900",
        "Location": "Taman Bunga Raya",
        "Post_Office": "Pantai Remis",
        "State": "Perak"
    },
    {
        "Postcode": "34900",
        "Location": "Kampung Tanjung Ara",
        "Post_Office": "Pantai Remis",
        "State": "Perak"
    },
    {
        "Postcode": "34900",
        "Location": "Bagan Panchor",
        "Post_Office": "Pantai Remis",
        "State": "Perak"
    },
    {
        "Postcode": "34900",
        "Location": "Batu 51",
        "Post_Office": "Pantai Remis",
        "State": "Perak"
    },
    {
        "Postcode": "34900",
        "Location": "Batu 52 1/4",
        "Post_Office": "Pantai Remis",
        "State": "Perak"
    },
    {
        "Postcode": "34900",
        "Location": "Kampung Baru Matang Acheh",
        "Post_Office": "Pantai Remis",
        "State": "Perak"
    },
    {
        "Postcode": "34900",
        "Location": "Kampung Baru Sungai Batu",
        "Post_Office": "Pantai Remis",
        "State": "Perak"
    },
    {
        "Postcode": "34900",
        "Location": "Kampung Matang Kurau",
        "Post_Office": "Pantai Remis",
        "State": "Perak"
    },
    {
        "Postcode": "34900",
        "Location": "Kampung Melayu (Batu 51)",
        "Post_Office": "Pantai Remis",
        "State": "Perak"
    },
    {
        "Postcode": "34900",
        "Location": "Kampung Nelayan Pengkalan Baru",
        "Post_Office": "Pantai Remis",
        "State": "Perak"
    },
    {
        "Postcode": "34900",
        "Location": "Kampung Nelayan Sungai Batu",
        "Post_Office": "Pantai Remis",
        "State": "Perak"
    },
    {
        "Postcode": "34900",
        "Location": "Kampung Ribut",
        "Post_Office": "Pantai Remis",
        "State": "Perak"
    },
    {
        "Postcode": "34900",
        "Location": "Kampung Selengkoh",
        "Post_Office": "Pantai Remis",
        "State": "Perak"
    },
    {
        "Postcode": "34900",
        "Location": "Kampung Sungai Batu",
        "Post_Office": "Pantai Remis",
        "State": "Perak"
    },
    {
        "Postcode": "34900",
        "Location": "Kampung Sungai Che Rahmat",
        "Post_Office": "Pantai Remis",
        "State": "Perak"
    },
    {
        "Postcode": "34900",
        "Location": "Kampung Tebuk Matang Aceh",
        "Post_Office": "Pantai Remis",
        "State": "Perak"
    },
    {
        "Postcode": "34900",
        "Location": "Kampung Tebuk Matang Raja",
        "Post_Office": "Pantai Remis",
        "State": "Perak"
    },
    {
        "Postcode": "34900",
        "Location": "Kampung Tebuk Yan",
        "Post_Office": "Pantai Remis",
        "State": "Perak"
    },
    {
        "Postcode": "34900",
        "Location": "Komplek Guru Panai Baru",
        "Post_Office": "Pantai Remis",
        "State": "Perak"
    },
    {
        "Postcode": "34900",
        "Location": "Matang Acheh",
        "Post_Office": "Pantai Remis",
        "State": "Perak"
    },
    {
        "Postcode": "34900",
        "Location": "Matang Kubu",
        "Post_Office": "Pantai Remis",
        "State": "Perak"
    },
    {
        "Postcode": "34900",
        "Location": "Matang Laut",
        "Post_Office": "Pantai Remis",
        "State": "Perak"
    },
    {
        "Postcode": "34900",
        "Location": "Matang Tinggi",
        "Post_Office": "Pantai Remis",
        "State": "Perak"
    },
    {
        "Postcode": "34900",
        "Location": "Nibung Ruat",
        "Post_Office": "Pantai Remis",
        "State": "Perak"
    },
    {
        "Postcode": "34900",
        "Location": "Padang Lenga",
        "Post_Office": "Pantai Remis",
        "State": "Perak"
    },
    {
        "Postcode": "34900",
        "Location": "Pantai Remis",
        "Post_Office": "Pantai Remis",
        "State": "Perak"
    },
    {
        "Postcode": "34900",
        "Location": "Pantai Remis (Km 19)",
        "Post_Office": "Pantai Remis",
        "State": "Perak"
    },
    {
        "Postcode": "34900",
        "Location": "Pantai Remis (Km 77 - 82)",
        "Post_Office": "Pantai Remis",
        "State": "Perak"
    },
    {
        "Postcode": "34900",
        "Location": "Pengkalan Baru",
        "Post_Office": "Pantai Remis",
        "State": "Perak"
    },
    {
        "Postcode": "34900",
        "Location": "Permatang Acheh",
        "Post_Office": "Pantai Remis",
        "State": "Perak"
    },
    {
        "Postcode": "34900",
        "Location": "Permatang Laut",
        "Post_Office": "Pantai Remis",
        "State": "Perak"
    },
    {
        "Postcode": "34900",
        "Location": "Permatang Raja",
        "Post_Office": "Pantai Remis",
        "State": "Perak"
    },
    {
        "Postcode": "34900",
        "Location": "Pprt Bukit Hijau",
        "Post_Office": "Pantai Remis",
        "State": "Perak"
    },
    {
        "Postcode": "34900",
        "Location": "Pprt Pantai Remis",
        "Post_Office": "Pantai Remis",
        "State": "Perak"
    },
    {
        "Postcode": "34900",
        "Location": "Pprt Ranger",
        "Post_Office": "Pantai Remis",
        "State": "Perak"
    },
    {
        "Postcode": "34900",
        "Location": "Selengkoh",
        "Post_Office": "Pantai Remis",
        "State": "Perak"
    },
    {
        "Postcode": "34900",
        "Location": "Sungai Batu",
        "Post_Office": "Pantai Remis",
        "State": "Perak"
    },
    {
        "Postcode": "34900",
        "Location": "Sungai Che Rahmat",
        "Post_Office": "Pantai Remis",
        "State": "Perak"
    },
    {
        "Postcode": "34900",
        "Location": "Sungai China",
        "Post_Office": "Pantai Remis",
        "State": "Perak"
    },
    {
        "Postcode": "34900",
        "Location": "Sungai Tuntong",
        "Post_Office": "Pantai Remis",
        "State": "Perak"
    },
    {
        "Postcode": "34900",
        "Location": "Taman Pantai",
        "Post_Office": "Pantai Remis",
        "State": "Perak"
    },
    {
        "Postcode": "34900",
        "Location": "Taman Pantai Wang",
        "Post_Office": "Pantai Remis",
        "State": "Perak"
    },
    {
        "Postcode": "34900",
        "Location": "Ujong Pasir",
        "Post_Office": "Pantai Remis",
        "State": "Perak"
    }
]
