[
    {
        "Postcode": "34950",
        "Location": "Kampung Permatang Pasir",
        "Post_Office": "Bandar Baharu",
        "State": "Kedah"
    },
    {
        "Postcode": "34950",
        "Location": "Kampung Matang",
        "Post_Office": "Bandar Baharu",
        "State": "Kedah"
    },
    {
        "Postcode": "34950",
        "Location": "Bagan Samak",
        "Post_Office": "Bandar Baharu",
        "State": "Kedah"
    },
    {
        "Postcode": "34950",
        "Location": "Bandar Baharu",
        "Post_Office": "Bandar Baharu",
        "State": "Kedah"
    },
    {
        "Postcode": "34950",
        "Location": "Kampung Asam Kumbang",
        "Post_Office": "Bandar Baharu",
        "State": "Kedah"
    },
    {
        "Postcode": "34950",
        "Location": "Kampung Batu 26",
        "Post_Office": "Bandar Baharu",
        "State": "Kedah"
    },
    {
        "Postcode": "34950",
        "Location": "Kampung Besar",
        "Post_Office": "Bandar Baharu",
        "State": "Kedah"
    },
    {
        "Postcode": "34950",
        "Location": "Kampung Bukit Tok Gula",
        "Post_Office": "Bandar Baharu",
        "State": "Kedah"
    },
    {
        "Postcode": "34950",
        "Location": "Kampung Jalan Bukit Taban",
        "Post_Office": "Bandar Baharu",
        "State": "Kedah"
    },
    {
        "Postcode": "34950",
        "Location": "Kampung Jalan Bukit Tebuan",
        "Post_Office": "Bandar Baharu",
        "State": "Kedah"
    },
    {
        "Postcode": "34950",
        "Location": "Kampung Kubu",
        "Post_Office": "Bandar Baharu",
        "State": "Kedah"
    },
    {
        "Postcode": "34950",
        "Location": "Kampung Matang Simpor",
        "Post_Office": "Bandar Baharu",
        "State": "Kedah"
    },
    {
        "Postcode": "34950",
        "Location": "Kampung Parit Nibong",
        "Post_Office": "Bandar Baharu",
        "State": "Kedah"
    },
    {
        "Postcode": "34950",
        "Location": "Kampung Parit Teropong",
        "Post_Office": "Bandar Baharu",
        "State": "Kedah"
    },
    {
        "Postcode": "34950",
        "Location": "Kampung Pasir Debu",
        "Post_Office": "Bandar Baharu",
        "State": "Kedah"
    },
    {
        "Postcode": "34950",
        "Location": "Kampung Sungai Tepus",
        "Post_Office": "Bandar Baharu",
        "State": "Kedah"
    },
    {
        "Postcode": "34950",
        "Location": "Kampung Tebok Mat Rashid",
        "Post_Office": "Bandar Baharu",
        "State": "Kedah"
    },
    {
        "Postcode": "34950",
        "Location": "Sungai Kechil Ulu",
        "Post_Office": "Bandar Baharu",
        "State": "Kedah"
    }
]
