[
    {
        "Postcode": "14020",
        "Location": "Jalan Jambu1",
        "Post_Office": "Bukit Mertajam",
        "State": "Pulau Pinang"
    },
    {
        "Postcode": "14020",
        "Location": "Jalan Jambu2",
        "Post_Office": "Bukit Mertajam",
        "State": "Pulau Pinang"
    },
    {
        "Postcode": "14020",
        "Location": "Jalan Jambu3",
        "Post_Office": "Bukit Mertajam",
        "State": "Pulau Pinang"
    },
    {
        "Postcode": "14020",
        "Location": "Jalan Jambu4",
        "Post_Office": "Bukit Mertajam",
        "State": "Pulau Pinang"
    },
    {
        "Postcode": "14020",
        "Location": "Jalan Jambu5",
        "Post_Office": "Bukit Mertajam",
        "State": "Pulau Pinang"
    },
    {
        "Postcode": "14020",
        "Location": "Jalan Jambu6",
        "Post_Office": "Bukit Mertajam",
        "State": "Pulau Pinang"
    },
    {
        "Postcode": "14020",
        "Location": "Jalan Jambu7",
        "Post_Office": "Bukit Mertajam",
        "State": "Pulau Pinang"
    },
    {
        "Postcode": "14020",
        "Location": "Jalan Machang Bubok 3",
        "Post_Office": "Bukit Mertajam",
        "State": "Pulau Pinang"
    },
    {
        "Postcode": "14020",
        "Location": "Jalan Machang Bubok 4",
        "Post_Office": "Bukit Mertajam",
        "State": "Pulau Pinang"
    },
    {
        "Postcode": "14020",
        "Location": "Lorong Machang Bubok 1",
        "Post_Office": "Bukit Mertajam",
        "State": "Pulau Pinang"
    },
    {
        "Postcode": "14020",
        "Location": "Lorong Machang Bubok 10",
        "Post_Office": "Bukit Mertajam",
        "State": "Pulau Pinang"
    },
    {
        "Postcode": "14020",
        "Location": "Lorong Machang Bubok 11",
        "Post_Office": "Bukit Mertajam",
        "State": "Pulau Pinang"
    },
    {
        "Postcode": "14020",
        "Location": "Lorong Machang Bubok 12",
        "Post_Office": "Bukit Mertajam",
        "State": "Pulau Pinang"
    },
    {
        "Postcode": "14020",
        "Location": "Lorong Machang Bubok 13",
        "Post_Office": "Bukit Mertajam",
        "State": "Pulau Pinang"
    },
    {
        "Postcode": "14020",
        "Location": "Lorong Machang Bubok 14",
        "Post_Office": "Bukit Mertajam",
        "State": "Pulau Pinang"
    },
    {
        "Postcode": "14020",
        "Location": "Lorong Machang Bubok 15",
        "Post_Office": "Bukit Mertajam",
        "State": "Pulau Pinang"
    },
    {
        "Postcode": "14020",
        "Location": "Lorong Machang Bubok 16",
        "Post_Office": "Bukit Mertajam",
        "State": "Pulau Pinang"
    },
    {
        "Postcode": "14020",
        "Location": "Lorong Machang Bubok 17",
        "Post_Office": "Bukit Mertajam",
        "State": "Pulau Pinang"
    },
    {
        "Postcode": "14020",
        "Location": "Lorong Machang Bubok 18",
        "Post_Office": "Bukit Mertajam",
        "State": "Pulau Pinang"
    },
    {
        "Postcode": "14020",
        "Location": "Lorong Machang Bubok 19",
        "Post_Office": "Bukit Mertajam",
        "State": "Pulau Pinang"
    },
    {
        "Postcode": "14020",
        "Location": "Lorong Machang Bubok 2",
        "Post_Office": "Bukit Mertajam",
        "State": "Pulau Pinang"
    },
    {
        "Postcode": "14020",
        "Location": "Lorong Machang Bubok 20",
        "Post_Office": "Bukit Mertajam",
        "State": "Pulau Pinang"
    },
    {
        "Postcode": "14020",
        "Location": "Lorong Machang Bubok 21",
        "Post_Office": "Bukit Mertajam",
        "State": "Pulau Pinang"
    },
    {
        "Postcode": "14020",
        "Location": "Lorong Machang Bubok 22",
        "Post_Office": "Bukit Mertajam",
        "State": "Pulau Pinang"
    },
    {
        "Postcode": "14020",
        "Location": "Lorong Machang Bubok 23",
        "Post_Office": "Bukit Mertajam",
        "State": "Pulau Pinang"
    },
    {
        "Postcode": "14020",
        "Location": "Lorong Machang Bubok 24",
        "Post_Office": "Bukit Mertajam",
        "State": "Pulau Pinang"
    },
    {
        "Postcode": "14020",
        "Location": "Lorong Machang Bubok 25",
        "Post_Office": "Bukit Mertajam",
        "State": "Pulau Pinang"
    },
    {
        "Postcode": "14020",
        "Location": "Lorong Machang Bubok 26",
        "Post_Office": "Bukit Mertajam",
        "State": "Pulau Pinang"
    },
    {
        "Postcode": "14020",
        "Location": "Lorong Machang Bubok 27",
        "Post_Office": "Bukit Mertajam",
        "State": "Pulau Pinang"
    },
    {
        "Postcode": "14020",
        "Location": "Lorong Machang Bubok 28",
        "Post_Office": "Bukit Mertajam",
        "State": "Pulau Pinang"
    },
    {
        "Postcode": "14020",
        "Location": "Lorong Machang Bubok 29",
        "Post_Office": "Bukit Mertajam",
        "State": "Pulau Pinang"
    },
    {
        "Postcode": "14020",
        "Location": "Lorong Machang Bubok 3",
        "Post_Office": "Bukit Mertajam",
        "State": "Pulau Pinang"
    },
    {
        "Postcode": "14020",
        "Location": "Lorong Machang Bubok 30",
        "Post_Office": "Bukit Mertajam",
        "State": "Pulau Pinang"
    },
    {
        "Postcode": "14020",
        "Location": "Lorong Machang Bubok 31",
        "Post_Office": "Bukit Mertajam",
        "State": "Pulau Pinang"
    },
    {
        "Postcode": "14020",
        "Location": "Lorong Machang Bubok 32",
        "Post_Office": "Bukit Mertajam",
        "State": "Pulau Pinang"
    },
    {
        "Postcode": "14020",
        "Location": "Lorong Machang Bubok 33",
        "Post_Office": "Bukit Mertajam",
        "State": "Pulau Pinang"
    },
    {
        "Postcode": "14020",
        "Location": "Lorong Machang Bubok 34",
        "Post_Office": "Bukit Mertajam",
        "State": "Pulau Pinang"
    },
    {
        "Postcode": "14020",
        "Location": "Lorong Machang Bubok 35",
        "Post_Office": "Bukit Mertajam",
        "State": "Pulau Pinang"
    },
    {
        "Postcode": "14020",
        "Location": "Lorong Machang Bubok 36",
        "Post_Office": "Bukit Mertajam",
        "State": "Pulau Pinang"
    },
    {
        "Postcode": "14020",
        "Location": "Lorong Machang Bubok 37",
        "Post_Office": "Bukit Mertajam",
        "State": "Pulau Pinang"
    },
    {
        "Postcode": "14020",
        "Location": "Lorong Machang Bubok 38",
        "Post_Office": "Bukit Mertajam",
        "State": "Pulau Pinang"
    },
    {
        "Postcode": "14020",
        "Location": "Lorong Machang Bubok 39",
        "Post_Office": "Bukit Mertajam",
        "State": "Pulau Pinang"
    },
    {
        "Postcode": "14020",
        "Location": "Lorong Machang Bubok 4",
        "Post_Office": "Bukit Mertajam",
        "State": "Pulau Pinang"
    },
    {
        "Postcode": "14020",
        "Location": "Lorong Machang Bubok 40",
        "Post_Office": "Bukit Mertajam",
        "State": "Pulau Pinang"
    },
    {
        "Postcode": "14020",
        "Location": "Lorong Machang Bubok 41",
        "Post_Office": "Bukit Mertajam",
        "State": "Pulau Pinang"
    },
    {
        "Postcode": "14020",
        "Location": "Lorong Machang Bubok 42",
        "Post_Office": "Bukit Mertajam",
        "State": "Pulau Pinang"
    },
    {
        "Postcode": "14020",
        "Location": "Lorong Machang Bubok 43",
        "Post_Office": "Bukit Mertajam",
        "State": "Pulau Pinang"
    },
    {
        "Postcode": "14020",
        "Location": "Lorong Machang Bubok 44",
        "Post_Office": "Bukit Mertajam",
        "State": "Pulau Pinang"
    },
    {
        "Postcode": "14020",
        "Location": "Lorong Machang Bubok 45",
        "Post_Office": "Bukit Mertajam",
        "State": "Pulau Pinang"
    },
    {
        "Postcode": "14020",
        "Location": "Lorong Machang Bubok 46",
        "Post_Office": "Bukit Mertajam",
        "State": "Pulau Pinang"
    },
    {
        "Postcode": "14020",
        "Location": "Lorong Machang Bubok 47",
        "Post_Office": "Bukit Mertajam",
        "State": "Pulau Pinang"
    },
    {
        "Postcode": "14020",
        "Location": "Lorong Machang Bubok 48",
        "Post_Office": "Bukit Mertajam",
        "State": "Pulau Pinang"
    },
    {
        "Postcode": "14020",
        "Location": "Lorong Machang Bubok 49",
        "Post_Office": "Bukit Mertajam",
        "State": "Pulau Pinang"
    },
    {
        "Postcode": "14020",
        "Location": "Lorong Machang Bubok 5",
        "Post_Office": "Bukit Mertajam",
        "State": "Pulau Pinang"
    },
    {
        "Postcode": "14020",
        "Location": "Lorong Machang Bubok 50",
        "Post_Office": "Bukit Mertajam",
        "State": "Pulau Pinang"
    },
    {
        "Postcode": "14020",
        "Location": "Lorong Machang Bubok 51",
        "Post_Office": "Bukit Mertajam",
        "State": "Pulau Pinang"
    },
    {
        "Postcode": "14020",
        "Location": "Lorong Machang Bubok 52",
        "Post_Office": "Bukit Mertajam",
        "State": "Pulau Pinang"
    },
    {
        "Postcode": "14020",
        "Location": "Lorong Machang Bubok 6",
        "Post_Office": "Bukit Mertajam",
        "State": "Pulau Pinang"
    },
    {
        "Postcode": "14020",
        "Location": "Lorong Machang Bubok 7",
        "Post_Office": "Bukit Mertajam",
        "State": "Pulau Pinang"
    },
    {
        "Postcode": "14020",
        "Location": "Lorong Machang Bubok 8",
        "Post_Office": "Bukit Mertajam",
        "State": "Pulau Pinang"
    },
    {
        "Postcode": "14020",
        "Location": "Lorong Machang Bubok 9",
        "Post_Office": "Bukit Mertajam",
        "State": "Pulau Pinang"
    },
    {
        "Postcode": "14020",
        "Location": "Lorong Machang Manis 10",
        "Post_Office": "Bukit Mertajam",
        "State": "Pulau Pinang"
    },
    {
        "Postcode": "14020",
        "Location": "Lorong Machang Manis 2",
        "Post_Office": "Bukit Mertajam",
        "State": "Pulau Pinang"
    },
    {
        "Postcode": "14020",
        "Location": "Lorong Machang Manis 3",
        "Post_Office": "Bukit Mertajam",
        "State": "Pulau Pinang"
    },
    {
        "Postcode": "14020",
        "Location": "Lorong Machang Manis 4",
        "Post_Office": "Bukit Mertajam",
        "State": "Pulau Pinang"
    },
    {
        "Postcode": "14020",
        "Location": "Lorong Machang Manis 5",
        "Post_Office": "Bukit Mertajam",
        "State": "Pulau Pinang"
    },
    {
        "Postcode": "14020",
        "Location": "Lorong Machang Manis 6",
        "Post_Office": "Bukit Mertajam",
        "State": "Pulau Pinang"
    },
    {
        "Postcode": "14020",
        "Location": "Lorong Machang Manis 7",
        "Post_Office": "Bukit Mertajam",
        "State": "Pulau Pinang"
    },
    {
        "Postcode": "14020",
        "Location": "Lorong Machang Manis 8",
        "Post_Office": "Bukit Mertajam",
        "State": "Pulau Pinang"
    },
    {
        "Postcode": "14020",
        "Location": "Lorong Machang Manis 9",
        "Post_Office": "Bukit Mertajam",
        "State": "Pulau Pinang"
    },
    {
        "Postcode": "14020",
        "Location": "Lorong Seri Remia 1",
        "Post_Office": "Bukit Mertajam",
        "State": "Pulau Pinang"
    },
    {
        "Postcode": "14020",
        "Location": "Lorong Seri Remia 2",
        "Post_Office": "Bukit Mertajam",
        "State": "Pulau Pinang"
    },
    {
        "Postcode": "14020",
        "Location": "Lorong Seri Remia 3",
        "Post_Office": "Bukit Mertajam",
        "State": "Pulau Pinang"
    },
    {
        "Postcode": "14020",
        "Location": "Lorong Seri Remia 9",
        "Post_Office": "Bukit Mertajam",
        "State": "Pulau Pinang"
    },
    {
        "Postcode": "14020",
        "Location": "Bukit Minyak",
        "Post_Office": "Bukit Mertajam",
        "State": "Pulau Pinang"
    },
    {
        "Postcode": "14020",
        "Location": "Bukit Sebelah",
        "Post_Office": "Bukit Mertajam",
        "State": "Pulau Pinang"
    },
    {
        "Postcode": "14020",
        "Location": "Bukit The",
        "Post_Office": "Bukit Mertajam",
        "State": "Pulau Pinang"
    },
    {
        "Postcode": "14020",
        "Location": "Jalan Machang Bubok",
        "Post_Office": "Bukit Mertajam",
        "State": "Pulau Pinang"
    },
    {
        "Postcode": "14020",
        "Location": "Jalan Machang Manis",
        "Post_Office": "Bukit Mertajam",
        "State": "Pulau Pinang"
    },
    {
        "Postcode": "14020",
        "Location": "Jalan Tengah Machang Bubok",
        "Post_Office": "Bukit Mertajam",
        "State": "Pulau Pinang"
    },
    {
        "Postcode": "14020",
        "Location": "Kampung Baru Alma",
        "Post_Office": "Bukit Mertajam",
        "State": "Pulau Pinang"
    },
    {
        "Postcode": "14020",
        "Location": "Kampung Berangan",
        "Post_Office": "Bukit Mertajam",
        "State": "Pulau Pinang"
    },
    {
        "Postcode": "14020",
        "Location": "Kampung Berangan Sembilan",
        "Post_Office": "Bukit Mertajam",
        "State": "Pulau Pinang"
    },
    {
        "Postcode": "14020",
        "Location": "Kampung Sungai Lembu",
        "Post_Office": "Bukit Mertajam",
        "State": "Pulau Pinang"
    },
    {
        "Postcode": "14020",
        "Location": "Kebun Sireh",
        "Post_Office": "Bukit Mertajam",
        "State": "Pulau Pinang"
    },
    {
        "Postcode": "14020",
        "Location": "Kem Machang Bubok",
        "Post_Office": "Bukit Mertajam",
        "State": "Pulau Pinang"
    },
    {
        "Postcode": "14020",
        "Location": "Lorong Jambu 1",
        "Post_Office": "Bukit Mertajam",
        "State": "Pulau Pinang"
    },
    {
        "Postcode": "14020",
        "Location": "Solok Tembikai",
        "Post_Office": "Bukit Mertajam",
        "State": "Pulau Pinang"
    },
    {
        "Postcode": "14020",
        "Location": "Taman Berjaya Indah",
        "Post_Office": "Bukit Mertajam",
        "State": "Pulau Pinang"
    },
    {
        "Postcode": "14020",
        "Location": "Taman Industri",
        "Post_Office": "Bukit Mertajam",
        "State": "Pulau Pinang"
    },
    {
        "Postcode": "14020",
        "Location": "Taman Kuari",
        "Post_Office": "Bukit Mertajam",
        "State": "Pulau Pinang"
    },
    {
        "Postcode": "14020",
        "Location": "Taman Macang Bubuk",
        "Post_Office": "Bukit Mertajam",
        "State": "Pulau Pinang"
    },
    {
        "Postcode": "14020",
        "Location": "Taman Machang Bubuk",
        "Post_Office": "Bukit Mertajam",
        "State": "Pulau Pinang"
    },
    {
        "Postcode": "14020",
        "Location": "Taman Machang Manis",
        "Post_Office": "Bukit Mertajam",
        "State": "Pulau Pinang"
    },
    {
        "Postcode": "14020",
        "Location": "Taman Seri Remia",
        "Post_Office": "Bukit Mertajam",
        "State": "Pulau Pinang"
    },
    {
        "Postcode": "14020",
        "Location": "Kampung Nyior Bukit Teh",
        "Post_Office": "Bukit Mertajam",
        "State": "Pulau Pinang"
    },
    {
        "Postcode": "14020",
        "Location": "Pagar Tras",
        "Post_Office": "Bukit Mertajam",
        "State": "Pulau Pinang"
    },
    {
        "Postcode": "14020",
        "Location": "Taman Bagan Jaya",
        "Post_Office": "Bukit Mertajam",
        "State": "Pulau Pinang"
    },
    {
        "Postcode": "14020",
        "Location": "Taman Machang Bubok",
        "Post_Office": "Bukit Mertajam",
        "State": "Pulau Pinang"
    },
    {
        "Postcode": "14020",
        "Location": "Taman Perindustrian Machang Indah",
        "Post_Office": "Bukit Mertajam",
        "State": "Pulau Pinang"
    },
    {
        "Postcode": "14020",
        "Location": "Taman Usahaniaga",
        "Post_Office": "Bukit Mertajam",
        "State": "Pulau Pinang"
    },
    {
        "Postcode": "14020",
        "Location": "Jalan Kulim",
        "Post_Office": "Bukit Mertajam",
        "State": "Pulau Pinang"
    },
    {
        "Postcode": "14020",
        "Location": "Kampung Bukit Teh",
        "Post_Office": "Bukit Mertajam",
        "State": "Pulau Pinang"
    },
    {
        "Postcode": "14020",
        "Location": "Kampung Kovil",
        "Post_Office": "Bukit Mertajam",
        "State": "Pulau Pinang"
    },
    {
        "Postcode": "14020",
        "Location": "Lorong Usahaniaga",
        "Post_Office": "Bukit Mertajam",
        "State": "Pulau Pinang"
    },
    {
        "Postcode": "14020",
        "Location": "Machang Bubok",
        "Post_Office": "Bukit Mertajam",
        "State": "Pulau Pinang"
    }
]
