[
    {
        "Postcode": "14100",
        "Location": "Jalan Cempaka 2",
        "Post_Office": "Simpang Ampat",
        "State": "Pulau Pinang"
    },
    {
        "Postcode": "14100",
        "Location": "Jalan Cempaka 3",
        "Post_Office": "Simpang Ampat",
        "State": "Pulau Pinang"
    },
    {
        "Postcode": "14100",
        "Location": "Jalan Dedaun 1",
        "Post_Office": "Simpang Ampat",
        "State": "Pulau Pinang"
    },
    {
        "Postcode": "14100",
        "Location": "Jalan Dedaun 2",
        "Post_Office": "Simpang Ampat",
        "State": "Pulau Pinang"
    },
    {
        "Postcode": "14100",
        "Location": "Jalan Delima 1",
        "Post_Office": "Simpang Ampat",
        "State": "Pulau Pinang"
    },
    {
        "Postcode": "14100",
        "Location": "Jalan Delima 2",
        "Post_Office": "Simpang Ampat",
        "State": "Pulau Pinang"
    },
    {
        "Postcode": "14100",
        "Location": "Jalan Duku 11",
        "Post_Office": "Simpang Ampat",
        "State": "Pulau Pinang"
    },
    {
        "Postcode": "14100",
        "Location": "Jalan Duku 5",
        "Post_Office": "Simpang Ampat",
        "State": "Pulau Pinang"
    },
    {
        "Postcode": "14100",
        "Location": "Jalan Duku 7",
        "Post_Office": "Simpang Ampat",
        "State": "Pulau Pinang"
    },
    {
        "Postcode": "14100",
        "Location": "Jalan Duku 9",
        "Post_Office": "Simpang Ampat",
        "State": "Pulau Pinang"
    },
    {
        "Postcode": "14100",
        "Location": "Jalan Idaman 1",
        "Post_Office": "Simpang Ampat",
        "State": "Pulau Pinang"
    },
    {
        "Postcode": "14100",
        "Location": "Jalan Idaman 2",
        "Post_Office": "Simpang Ampat",
        "State": "Pulau Pinang"
    },
    {
        "Postcode": "14100",
        "Location": "Jalan Idaman 3",
        "Post_Office": "Simpang Ampat",
        "State": "Pulau Pinang"
    },
    {
        "Postcode": "14100",
        "Location": "Jalan Idaman 4",
        "Post_Office": "Simpang Ampat",
        "State": "Pulau Pinang"
    },
    {
        "Postcode": "14100",
        "Location": "Jalan Industri Teguh 1",
        "Post_Office": "Simpang Ampat",
        "State": "Pulau Pinang"
    },
    {
        "Postcode": "14100",
        "Location": "Jalan Industri Teguh 2",
        "Post_Office": "Simpang Ampat",
        "State": "Pulau Pinang"
    },
    {
        "Postcode": "14100",
        "Location": "Jalan Industri Teguh 3",
        "Post_Office": "Simpang Ampat",
        "State": "Pulau Pinang"
    },
    {
        "Postcode": "14100",
        "Location": "Jalan Jentayu 10",
        "Post_Office": "Simpang Ampat",
        "State": "Pulau Pinang"
    },
    {
        "Postcode": "14100",
        "Location": "Jalan Jentayu 6",
        "Post_Office": "Simpang Ampat",
        "State": "Pulau Pinang"
    },
    {
        "Postcode": "14100",
        "Location": "Jalan Jentayu 7",
        "Post_Office": "Simpang Ampat",
        "State": "Pulau Pinang"
    },
    {
        "Postcode": "14100",
        "Location": "Jalan Jentayu 8",
        "Post_Office": "Simpang Ampat",
        "State": "Pulau Pinang"
    },
    {
        "Postcode": "14100",
        "Location": "Jalan Jentayu 9",
        "Post_Office": "Simpang Ampat",
        "State": "Pulau Pinang"
    },
    {
        "Postcode": "14100",
        "Location": "Jalan Kampung Juru 1",
        "Post_Office": "Simpang Ampat",
        "State": "Pulau Pinang"
    },
    {
        "Postcode": "14100",
        "Location": "Jalan Kampung Juru 10",
        "Post_Office": "Simpang Ampat",
        "State": "Pulau Pinang"
    },
    {
        "Postcode": "14100",
        "Location": "Jalan Kampung Juru 11",
        "Post_Office": "Simpang Ampat",
        "State": "Pulau Pinang"
    },
    {
        "Postcode": "14100",
        "Location": "Jalan Kampung Juru 12",
        "Post_Office": "Simpang Ampat",
        "State": "Pulau Pinang"
    },
    {
        "Postcode": "14100",
        "Location": "Jalan Kampung Juru 13",
        "Post_Office": "Simpang Ampat",
        "State": "Pulau Pinang"
    },
    {
        "Postcode": "14100",
        "Location": "Jalan Kampung Juru 14",
        "Post_Office": "Simpang Ampat",
        "State": "Pulau Pinang"
    },
    {
        "Postcode": "14100",
        "Location": "Jalan Kampung Juru 15",
        "Post_Office": "Simpang Ampat",
        "State": "Pulau Pinang"
    },
    {
        "Postcode": "14100",
        "Location": "Jalan Kampung Juru 2",
        "Post_Office": "Simpang Ampat",
        "State": "Pulau Pinang"
    },
    {
        "Postcode": "14100",
        "Location": "Jalan Kampung Juru 3",
        "Post_Office": "Simpang Ampat",
        "State": "Pulau Pinang"
    },
    {
        "Postcode": "14100",
        "Location": "Jalan Kampung Juru 4",
        "Post_Office": "Simpang Ampat",
        "State": "Pulau Pinang"
    },
    {
        "Postcode": "14100",
        "Location": "Jalan Kampung Juru 5",
        "Post_Office": "Simpang Ampat",
        "State": "Pulau Pinang"
    },
    {
        "Postcode": "14100",
        "Location": "Jalan Kampung Juru 6",
        "Post_Office": "Simpang Ampat",
        "State": "Pulau Pinang"
    },
    {
        "Postcode": "14100",
        "Location": "Jalan Kampung Juru 7",
        "Post_Office": "Simpang Ampat",
        "State": "Pulau Pinang"
    },
    {
        "Postcode": "14100",
        "Location": "Jalan Kampung Juru 8",
        "Post_Office": "Simpang Ampat",
        "State": "Pulau Pinang"
    },
    {
        "Postcode": "14100",
        "Location": "Jalan Kampung Juru 9",
        "Post_Office": "Simpang Ampat",
        "State": "Pulau Pinang"
    },
    {
        "Postcode": "14100",
        "Location": "Jalan Kasawari 1",
        "Post_Office": "Simpang Ampat",
        "State": "Pulau Pinang"
    },
    {
        "Postcode": "14100",
        "Location": "Jalan Kasawari 2",
        "Post_Office": "Simpang Ampat",
        "State": "Pulau Pinang"
    },
    {
        "Postcode": "14100",
        "Location": "Jalan Kasawari 3",
        "Post_Office": "Simpang Ampat",
        "State": "Pulau Pinang"
    },
    {
        "Postcode": "14100",
        "Location": "Jalan Kasawari 4",
        "Post_Office": "Simpang Ampat",
        "State": "Pulau Pinang"
    },
    {
        "Postcode": "14100",
        "Location": "Jalan Merak 1",
        "Post_Office": "Simpang Ampat",
        "State": "Pulau Pinang"
    },
    {
        "Postcode": "14100",
        "Location": "Jalan Merak 2",
        "Post_Office": "Simpang Ampat",
        "State": "Pulau Pinang"
    },
    {
        "Postcode": "14100",
        "Location": "Jalan Merak 3",
        "Post_Office": "Simpang Ampat",
        "State": "Pulau Pinang"
    },
    {
        "Postcode": "14100",
        "Location": "Jalan Merak 4",
        "Post_Office": "Simpang Ampat",
        "State": "Pulau Pinang"
    },
    {
        "Postcode": "14100",
        "Location": "Jalan Merak 5",
        "Post_Office": "Simpang Ampat",
        "State": "Pulau Pinang"
    },
    {
        "Postcode": "14100",
        "Location": "Jalan Merak Jaya 2",
        "Post_Office": "Simpang Ampat",
        "State": "Pulau Pinang"
    },
    {
        "Postcode": "14100",
        "Location": "Jalan Merak Jaya 5",
        "Post_Office": "Simpang Ampat",
        "State": "Pulau Pinang"
    },
    {
        "Postcode": "14100",
        "Location": "Jalan Murai Jaya 1",
        "Post_Office": "Simpang Ampat",
        "State": "Pulau Pinang"
    },
    {
        "Postcode": "14100",
        "Location": "Jalan Murai Jaya 2",
        "Post_Office": "Simpang Ampat",
        "State": "Pulau Pinang"
    },
    {
        "Postcode": "14100",
        "Location": "Jalan Pinang 1",
        "Post_Office": "Simpang Ampat",
        "State": "Pulau Pinang"
    },
    {
        "Postcode": "14100",
        "Location": "Jalan Pinang 3",
        "Post_Office": "Simpang Ampat",
        "State": "Pulau Pinang"
    },
    {
        "Postcode": "14100",
        "Location": "Jalan Sentul 1",
        "Post_Office": "Simpang Ampat",
        "State": "Pulau Pinang"
    },
    {
        "Postcode": "14100",
        "Location": "Jalan Sentul 2",
        "Post_Office": "Simpang Ampat",
        "State": "Pulau Pinang"
    },
    {
        "Postcode": "14100",
        "Location": "Jalan Sentul 3",
        "Post_Office": "Simpang Ampat",
        "State": "Pulau Pinang"
    },
    {
        "Postcode": "14100",
        "Location": "Jalan Sentul 4",
        "Post_Office": "Simpang Ampat",
        "State": "Pulau Pinang"
    },
    {
        "Postcode": "14100",
        "Location": "Jalan Sentul 5",
        "Post_Office": "Simpang Ampat",
        "State": "Pulau Pinang"
    },
    {
        "Postcode": "14100",
        "Location": "Jalan Seri Cendana 2",
        "Post_Office": "Simpang Ampat",
        "State": "Pulau Pinang"
    },
    {
        "Postcode": "14100",
        "Location": "Jalan Seri Cendana 4",
        "Post_Office": "Simpang Ampat",
        "State": "Pulau Pinang"
    },
    {
        "Postcode": "14100",
        "Location": "Lengkuk Idaman 2",
        "Post_Office": "Simpang Ampat",
        "State": "Pulau Pinang"
    },
    {
        "Postcode": "14100",
        "Location": "Lengkuk Idaman 4",
        "Post_Office": "Simpang Ampat",
        "State": "Pulau Pinang"
    },
    {
        "Postcode": "14100",
        "Location": "Lintang Keruing 2",
        "Post_Office": "Simpang Ampat",
        "State": "Pulau Pinang"
    },
    {
        "Postcode": "14100",
        "Location": "Lorong Amra 1",
        "Post_Office": "Simpang Ampat",
        "State": "Pulau Pinang"
    },
    {
        "Postcode": "14100",
        "Location": "Lorong Amra 2",
        "Post_Office": "Simpang Ampat",
        "State": "Pulau Pinang"
    },
    {
        "Postcode": "14100",
        "Location": "Lorong Amra 3",
        "Post_Office": "Simpang Ampat",
        "State": "Pulau Pinang"
    },
    {
        "Postcode": "14100",
        "Location": "Lorong Amra 4",
        "Post_Office": "Simpang Ampat",
        "State": "Pulau Pinang"
    },
    {
        "Postcode": "14100",
        "Location": "Lorong Amra 5",
        "Post_Office": "Simpang Ampat",
        "State": "Pulau Pinang"
    },
    {
        "Postcode": "14100",
        "Location": "Lorong Amra 6",
        "Post_Office": "Simpang Ampat",
        "State": "Pulau Pinang"
    },
    {
        "Postcode": "14100",
        "Location": "Lorong Amra 7",
        "Post_Office": "Simpang Ampat",
        "State": "Pulau Pinang"
    },
    {
        "Postcode": "14100",
        "Location": "Lorong Amra 8",
        "Post_Office": "Simpang Ampat",
        "State": "Pulau Pinang"
    },
    {
        "Postcode": "14100",
        "Location": "Lorong Amra 9",
        "Post_Office": "Simpang Ampat",
        "State": "Pulau Pinang"
    },
    {
        "Postcode": "14100",
        "Location": "Lorong Asas Murni 1",
        "Post_Office": "Simpang Ampat",
        "State": "Pulau Pinang"
    },
    {
        "Postcode": "14100",
        "Location": "Lorong Asas Murni 2",
        "Post_Office": "Simpang Ampat",
        "State": "Pulau Pinang"
    },
    {
        "Postcode": "14100",
        "Location": "Lorong Asas Murni 3",
        "Post_Office": "Simpang Ampat",
        "State": "Pulau Pinang"
    },
    {
        "Postcode": "14100",
        "Location": "Lorong Asas Murni 4",
        "Post_Office": "Simpang Ampat",
        "State": "Pulau Pinang"
    },
    {
        "Postcode": "14100",
        "Location": "Lorong Asas Murni 5",
        "Post_Office": "Simpang Ampat",
        "State": "Pulau Pinang"
    },
    {
        "Postcode": "14100",
        "Location": "Lorong Asas Murni 6",
        "Post_Office": "Simpang Ampat",
        "State": "Pulau Pinang"
    },
    {
        "Postcode": "14100",
        "Location": "Lorong Asasjaya 1",
        "Post_Office": "Simpang Ampat",
        "State": "Pulau Pinang"
    },
    {
        "Postcode": "14100",
        "Location": "Lorong Asasjaya 2",
        "Post_Office": "Simpang Ampat",
        "State": "Pulau Pinang"
    },
    {
        "Postcode": "14100",
        "Location": "Lorong Asasjaya 3",
        "Post_Office": "Simpang Ampat",
        "State": "Pulau Pinang"
    },
    {
        "Postcode": "14100",
        "Location": "Lorong Asasjaya 4",
        "Post_Office": "Simpang Ampat",
        "State": "Pulau Pinang"
    },
    {
        "Postcode": "14100",
        "Location": "Lorong Asasjaya 5",
        "Post_Office": "Simpang Ampat",
        "State": "Pulau Pinang"
    },
    {
        "Postcode": "14100",
        "Location": "Lorong Asasjaya 6",
        "Post_Office": "Simpang Ampat",
        "State": "Pulau Pinang"
    },
    {
        "Postcode": "14100",
        "Location": "Lorong Asasjaya 7",
        "Post_Office": "Simpang Ampat",
        "State": "Pulau Pinang"
    },
    {
        "Postcode": "14100",
        "Location": "Lorong Belibis 10",
        "Post_Office": "Simpang Ampat",
        "State": "Pulau Pinang"
    },
    {
        "Postcode": "14100",
        "Location": "Lorong Belibis 2",
        "Post_Office": "Simpang Ampat",
        "State": "Pulau Pinang"
    },
    {
        "Postcode": "14100",
        "Location": "Lorong Belibis 3",
        "Post_Office": "Simpang Ampat",
        "State": "Pulau Pinang"
    },
    {
        "Postcode": "14100",
        "Location": "Lorong Belibis 4",
        "Post_Office": "Simpang Ampat",
        "State": "Pulau Pinang"
    },
    {
        "Postcode": "14100",
        "Location": "Lorong Belibis 5",
        "Post_Office": "Simpang Ampat",
        "State": "Pulau Pinang"
    },
    {
        "Postcode": "14100",
        "Location": "Lorong Belibis 6",
        "Post_Office": "Simpang Ampat",
        "State": "Pulau Pinang"
    },
    {
        "Postcode": "14100",
        "Location": "Lorong Belibis 7",
        "Post_Office": "Simpang Ampat",
        "State": "Pulau Pinang"
    },
    {
        "Postcode": "14100",
        "Location": "Lorong Belibis 8",
        "Post_Office": "Simpang Ampat",
        "State": "Pulau Pinang"
    },
    {
        "Postcode": "14100",
        "Location": "Lorong Belibis 9",
        "Post_Office": "Simpang Ampat",
        "State": "Pulau Pinang"
    },
    {
        "Postcode": "14100",
        "Location": "Lorong Binajaya 1",
        "Post_Office": "Simpang Ampat",
        "State": "Pulau Pinang"
    },
    {
        "Postcode": "14100",
        "Location": "Lorong Binajaya 10",
        "Post_Office": "Simpang Ampat",
        "State": "Pulau Pinang"
    },
    {
        "Postcode": "14100",
        "Location": "Lorong Binajaya 11",
        "Post_Office": "Simpang Ampat",
        "State": "Pulau Pinang"
    },
    {
        "Postcode": "14100",
        "Location": "Lorong Binajaya 12",
        "Post_Office": "Simpang Ampat",
        "State": "Pulau Pinang"
    },
    {
        "Postcode": "14100",
        "Location": "Lorong Binajaya 13",
        "Post_Office": "Simpang Ampat",
        "State": "Pulau Pinang"
    },
    {
        "Postcode": "14100",
        "Location": "Lorong Binajaya 2",
        "Post_Office": "Simpang Ampat",
        "State": "Pulau Pinang"
    },
    {
        "Postcode": "14100",
        "Location": "Lorong Binajaya 3",
        "Post_Office": "Simpang Ampat",
        "State": "Pulau Pinang"
    },
    {
        "Postcode": "14100",
        "Location": "Lorong Binajaya 4",
        "Post_Office": "Simpang Ampat",
        "State": "Pulau Pinang"
    },
    {
        "Postcode": "14100",
        "Location": "Lorong Binajaya 5",
        "Post_Office": "Simpang Ampat",
        "State": "Pulau Pinang"
    },
    {
        "Postcode": "14100",
        "Location": "Lorong Binajaya 6",
        "Post_Office": "Simpang Ampat",
        "State": "Pulau Pinang"
    },
    {
        "Postcode": "14100",
        "Location": "Lorong Binajaya 7",
        "Post_Office": "Simpang Ampat",
        "State": "Pulau Pinang"
    },
    {
        "Postcode": "14100",
        "Location": "Lorong Binajaya 8",
        "Post_Office": "Simpang Ampat",
        "State": "Pulau Pinang"
    },
    {
        "Postcode": "14100",
        "Location": "Lorong Binajaya 9",
        "Post_Office": "Simpang Ampat",
        "State": "Pulau Pinang"
    },
    {
        "Postcode": "14100",
        "Location": "Lorong Bukit Juru 1",
        "Post_Office": "Simpang Ampat",
        "State": "Pulau Pinang"
    },
    {
        "Postcode": "14100",
        "Location": "Lorong Bukit Juru 10",
        "Post_Office": "Simpang Ampat",
        "State": "Pulau Pinang"
    },
    {
        "Postcode": "14100",
        "Location": "Lorong Bukit Juru 11",
        "Post_Office": "Simpang Ampat",
        "State": "Pulau Pinang"
    },
    {
        "Postcode": "14100",
        "Location": "Lorong Bukit Juru 12",
        "Post_Office": "Simpang Ampat",
        "State": "Pulau Pinang"
    },
    {
        "Postcode": "14100",
        "Location": "Lorong Bukit Juru 13",
        "Post_Office": "Simpang Ampat",
        "State": "Pulau Pinang"
    },
    {
        "Postcode": "14100",
        "Location": "Lorong Bukit Juru 14",
        "Post_Office": "Simpang Ampat",
        "State": "Pulau Pinang"
    },
    {
        "Postcode": "14100",
        "Location": "Lorong Bukit Juru 15",
        "Post_Office": "Simpang Ampat",
        "State": "Pulau Pinang"
    },
    {
        "Postcode": "14100",
        "Location": "Lorong Bukit Juru 16",
        "Post_Office": "Simpang Ampat",
        "State": "Pulau Pinang"
    },
    {
        "Postcode": "14100",
        "Location": "Lorong Bukit Juru 17",
        "Post_Office": "Simpang Ampat",
        "State": "Pulau Pinang"
    },
    {
        "Postcode": "14100",
        "Location": "Lorong Bukit Juru 18",
        "Post_Office": "Simpang Ampat",
        "State": "Pulau Pinang"
    },
    {
        "Postcode": "14100",
        "Location": "Lorong Bukit Juru 19",
        "Post_Office": "Simpang Ampat",
        "State": "Pulau Pinang"
    },
    {
        "Postcode": "14100",
        "Location": "Lorong Bukit Juru 2",
        "Post_Office": "Simpang Ampat",
        "State": "Pulau Pinang"
    },
    {
        "Postcode": "14100",
        "Location": "Lorong Bukit Juru 20",
        "Post_Office": "Simpang Ampat",
        "State": "Pulau Pinang"
    },
    {
        "Postcode": "14100",
        "Location": "Lorong Bukit Juru 21",
        "Post_Office": "Simpang Ampat",
        "State": "Pulau Pinang"
    },
    {
        "Postcode": "14100",
        "Location": "Lorong Bukit Juru 22",
        "Post_Office": "Simpang Ampat",
        "State": "Pulau Pinang"
    },
    {
        "Postcode": "14100",
        "Location": "Lorong Bukit Juru 23",
        "Post_Office": "Simpang Ampat",
        "State": "Pulau Pinang"
    },
    {
        "Postcode": "14100",
        "Location": "Lorong Bukit Juru 3",
        "Post_Office": "Simpang Ampat",
        "State": "Pulau Pinang"
    },
    {
        "Postcode": "14100",
        "Location": "Lorong Bukit Juru 4",
        "Post_Office": "Simpang Ampat",
        "State": "Pulau Pinang"
    },
    {
        "Postcode": "14100",
        "Location": "Lorong Bukit Juru 5",
        "Post_Office": "Simpang Ampat",
        "State": "Pulau Pinang"
    },
    {
        "Postcode": "14100",
        "Location": "Lorong Bukit Juru 6",
        "Post_Office": "Simpang Ampat",
        "State": "Pulau Pinang"
    },
    {
        "Postcode": "14100",
        "Location": "Lorong Bukit Juru 7",
        "Post_Office": "Simpang Ampat",
        "State": "Pulau Pinang"
    },
    {
        "Postcode": "14100",
        "Location": "Lorong Bukit Juru 8",
        "Post_Office": "Simpang Ampat",
        "State": "Pulau Pinang"
    },
    {
        "Postcode": "14100",
        "Location": "Lorong Bukit Juru 9",
        "Post_Office": "Simpang Ampat",
        "State": "Pulau Pinang"
    },
    {
        "Postcode": "14100",
        "Location": "Lorong Bukit Minyak Utama 10",
        "Post_Office": "Simpang Ampat",
        "State": "Pulau Pinang"
    },
    {
        "Postcode": "14100",
        "Location": "Lorong Bukit Minyak Utama 11",
        "Post_Office": "Simpang Ampat",
        "State": "Pulau Pinang"
    },
    {
        "Postcode": "14100",
        "Location": "Lorong Bukit Minyak Utama 12",
        "Post_Office": "Simpang Ampat",
        "State": "Pulau Pinang"
    },
    {
        "Postcode": "14100",
        "Location": "Lorong Bukit Minyak Utama 13",
        "Post_Office": "Simpang Ampat",
        "State": "Pulau Pinang"
    },
    {
        "Postcode": "14100",
        "Location": "Lorong Bukit Minyak Utama 14",
        "Post_Office": "Simpang Ampat",
        "State": "Pulau Pinang"
    },
    {
        "Postcode": "14100",
        "Location": "Lorong Bukit Minyak Utama 15",
        "Post_Office": "Simpang Ampat",
        "State": "Pulau Pinang"
    },
    {
        "Postcode": "14100",
        "Location": "Lorong Bukit Minyak Utama 16",
        "Post_Office": "Simpang Ampat",
        "State": "Pulau Pinang"
    },
    {
        "Postcode": "14100",
        "Location": "Lorong Bukit Minyak Utama 17",
        "Post_Office": "Simpang Ampat",
        "State": "Pulau Pinang"
    },
    {
        "Postcode": "14100",
        "Location": "Lorong Bukit Minyak Utama 18",
        "Post_Office": "Simpang Ampat",
        "State": "Pulau Pinang"
    },
    {
        "Postcode": "14100",
        "Location": "Lorong Bukit Minyak Utama 19",
        "Post_Office": "Simpang Ampat",
        "State": "Pulau Pinang"
    },
    {
        "Postcode": "14100",
        "Location": "Lorong Bukit Minyak Utama 2",
        "Post_Office": "Simpang Ampat",
        "State": "Pulau Pinang"
    },
    {
        "Postcode": "14100",
        "Location": "Lorong Bukit Minyak Utama 20",
        "Post_Office": "Simpang Ampat",
        "State": "Pulau Pinang"
    },
    {
        "Postcode": "14100",
        "Location": "Lorong Bukit Minyak Utama 21",
        "Post_Office": "Simpang Ampat",
        "State": "Pulau Pinang"
    },
    {
        "Postcode": "14100",
        "Location": "Lorong Bukit Minyak Utama 22",
        "Post_Office": "Simpang Ampat",
        "State": "Pulau Pinang"
    },
    {
        "Postcode": "14100",
        "Location": "Lorong Bukit Minyak Utama 23",
        "Post_Office": "Simpang Ampat",
        "State": "Pulau Pinang"
    },
    {
        "Postcode": "14100",
        "Location": "Lorong Bukit Minyak Utama 24",
        "Post_Office": "Simpang Ampat",
        "State": "Pulau Pinang"
    },
    {
        "Postcode": "14100",
        "Location": "Lorong Bukit Minyak Utama 25",
        "Post_Office": "Simpang Ampat",
        "State": "Pulau Pinang"
    },
    {
        "Postcode": "14100",
        "Location": "Lorong Bukit Minyak Utama 26",
        "Post_Office": "Simpang Ampat",
        "State": "Pulau Pinang"
    },
    {
        "Postcode": "14100",
        "Location": "Lorong Bukit Minyak Utama 27",
        "Post_Office": "Simpang Ampat",
        "State": "Pulau Pinang"
    },
    {
        "Postcode": "14100",
        "Location": "Lorong Bukit Minyak Utama 28",
        "Post_Office": "Simpang Ampat",
        "State": "Pulau Pinang"
    },
    {
        "Postcode": "14100",
        "Location": "Lorong Bukit Minyak Utama 29",
        "Post_Office": "Simpang Ampat",
        "State": "Pulau Pinang"
    },
    {
        "Postcode": "14100",
        "Location": "Lorong Bukit Minyak Utama 3",
        "Post_Office": "Simpang Ampat",
        "State": "Pulau Pinang"
    },
    {
        "Postcode": "14100",
        "Location": "Lorong Bukit Minyak Utama 30",
        "Post_Office": "Simpang Ampat",
        "State": "Pulau Pinang"
    },
    {
        "Postcode": "14100",
        "Location": "Lorong Bukit Minyak Utama 31",
        "Post_Office": "Simpang Ampat",
        "State": "Pulau Pinang"
    },
    {
        "Postcode": "14100",
        "Location": "Lorong Bukit Minyak Utama 32",
        "Post_Office": "Simpang Ampat",
        "State": "Pulau Pinang"
    },
    {
        "Postcode": "14100",
        "Location": "Lorong Bukit Minyak Utama 4",
        "Post_Office": "Simpang Ampat",
        "State": "Pulau Pinang"
    },
    {
        "Postcode": "14100",
        "Location": "Lorong Bukit Minyak Utama 5",
        "Post_Office": "Simpang Ampat",
        "State": "Pulau Pinang"
    },
    {
        "Postcode": "14100",
        "Location": "Lorong Bukit Minyak Utama 6",
        "Post_Office": "Simpang Ampat",
        "State": "Pulau Pinang"
    },
    {
        "Postcode": "14100",
        "Location": "Lorong Bukit Minyak Utama 7",
        "Post_Office": "Simpang Ampat",
        "State": "Pulau Pinang"
    },
    {
        "Postcode": "14100",
        "Location": "Lorong Bukit Minyak Utama 8",
        "Post_Office": "Simpang Ampat",
        "State": "Pulau Pinang"
    },
    {
        "Postcode": "14100",
        "Location": "Lorong Bukit Minyak Utama 9",
        "Post_Office": "Simpang Ampat",
        "State": "Pulau Pinang"
    },
    {
        "Postcode": "14100",
        "Location": "Lorong Callissia 10",
        "Post_Office": "Simpang Ampat",
        "State": "Pulau Pinang"
    },
    {
        "Postcode": "14100",
        "Location": "Lorong Callissia 11",
        "Post_Office": "Simpang Ampat",
        "State": "Pulau Pinang"
    },
    {
        "Postcode": "14100",
        "Location": "Lorong Callissia 12",
        "Post_Office": "Simpang Ampat",
        "State": "Pulau Pinang"
    },
    {
        "Postcode": "14100",
        "Location": "Lorong Callissia 13",
        "Post_Office": "Simpang Ampat",
        "State": "Pulau Pinang"
    },
    {
        "Postcode": "14100",
        "Location": "Lorong Callissia 14",
        "Post_Office": "Simpang Ampat",
        "State": "Pulau Pinang"
    },
    {
        "Postcode": "14100",
        "Location": "Lorong Callissia 2",
        "Post_Office": "Simpang Ampat",
        "State": "Pulau Pinang"
    },
    {
        "Postcode": "14100",
        "Location": "Lorong Callissia 3",
        "Post_Office": "Simpang Ampat",
        "State": "Pulau Pinang"
    },
    {
        "Postcode": "14100",
        "Location": "Lorong Callissia 4",
        "Post_Office": "Simpang Ampat",
        "State": "Pulau Pinang"
    },
    {
        "Postcode": "14100",
        "Location": "Lorong Callissia 5",
        "Post_Office": "Simpang Ampat",
        "State": "Pulau Pinang"
    },
    {
        "Postcode": "14100",
        "Location": "Lorong Callissia 6",
        "Post_Office": "Simpang Ampat",
        "State": "Pulau Pinang"
    },
    {
        "Postcode": "14100",
        "Location": "Lorong Callissia 7",
        "Post_Office": "Simpang Ampat",
        "State": "Pulau Pinang"
    },
    {
        "Postcode": "14100",
        "Location": "Lorong Callissia 8",
        "Post_Office": "Simpang Ampat",
        "State": "Pulau Pinang"
    },
    {
        "Postcode": "14100",
        "Location": "Lorong Callissia 9",
        "Post_Office": "Simpang Ampat",
        "State": "Pulau Pinang"
    },
    {
        "Postcode": "14100",
        "Location": "Lorong Cegar 1",
        "Post_Office": "Simpang Ampat",
        "State": "Pulau Pinang"
    },
    {
        "Postcode": "14100",
        "Location": "Lorong Cegar 10",
        "Post_Office": "Simpang Ampat",
        "State": "Pulau Pinang"
    },
    {
        "Postcode": "14100",
        "Location": "Lorong Cegar 11",
        "Post_Office": "Simpang Ampat",
        "State": "Pulau Pinang"
    },
    {
        "Postcode": "14100",
        "Location": "Lorong Cegar 12",
        "Post_Office": "Simpang Ampat",
        "State": "Pulau Pinang"
    },
    {
        "Postcode": "14100",
        "Location": "Lorong Cegar 13",
        "Post_Office": "Simpang Ampat",
        "State": "Pulau Pinang"
    },
    {
        "Postcode": "14100",
        "Location": "Lorong Cegar 14",
        "Post_Office": "Simpang Ampat",
        "State": "Pulau Pinang"
    },
    {
        "Postcode": "14100",
        "Location": "Lorong Cegar 15",
        "Post_Office": "Simpang Ampat",
        "State": "Pulau Pinang"
    },
    {
        "Postcode": "14100",
        "Location": "Lorong Cegar 16",
        "Post_Office": "Simpang Ampat",
        "State": "Pulau Pinang"
    },
    {
        "Postcode": "14100",
        "Location": "Lorong Cegar 2",
        "Post_Office": "Simpang Ampat",
        "State": "Pulau Pinang"
    },
    {
        "Postcode": "14100",
        "Location": "Lorong Cegar 3",
        "Post_Office": "Simpang Ampat",
        "State": "Pulau Pinang"
    },
    {
        "Postcode": "14100",
        "Location": "Lorong Cegar 4",
        "Post_Office": "Simpang Ampat",
        "State": "Pulau Pinang"
    },
    {
        "Postcode": "14100",
        "Location": "Lorong Cegar 5",
        "Post_Office": "Simpang Ampat",
        "State": "Pulau Pinang"
    },
    {
        "Postcode": "14100",
        "Location": "Lorong Cegar 6",
        "Post_Office": "Simpang Ampat",
        "State": "Pulau Pinang"
    },
    {
        "Postcode": "14100",
        "Location": "Lorong Cegar 7",
        "Post_Office": "Simpang Ampat",
        "State": "Pulau Pinang"
    },
    {
        "Postcode": "14100",
        "Location": "Lorong Cegar 8",
        "Post_Office": "Simpang Ampat",
        "State": "Pulau Pinang"
    },
    {
        "Postcode": "14100",
        "Location": "Lorong Cegar 9",
        "Post_Office": "Simpang Ampat",
        "State": "Pulau Pinang"
    },
    {
        "Postcode": "14100",
        "Location": "Lorong Cempaka 1",
        "Post_Office": "Simpang Ampat",
        "State": "Pulau Pinang"
    },
    {
        "Postcode": "14100",
        "Location": "Lorong Cempaka 10",
        "Post_Office": "Simpang Ampat",
        "State": "Pulau Pinang"
    },
    {
        "Postcode": "14100",
        "Location": "Lorong Cempaka 11",
        "Post_Office": "Simpang Ampat",
        "State": "Pulau Pinang"
    },
    {
        "Postcode": "14100",
        "Location": "Lorong Cempaka 12",
        "Post_Office": "Simpang Ampat",
        "State": "Pulau Pinang"
    },
    {
        "Postcode": "14100",
        "Location": "Lorong Cempaka 13",
        "Post_Office": "Simpang Ampat",
        "State": "Pulau Pinang"
    },
    {
        "Postcode": "14100",
        "Location": "Lorong Cempaka 14",
        "Post_Office": "Simpang Ampat",
        "State": "Pulau Pinang"
    },
    {
        "Postcode": "14100",
        "Location": "Lorong Cempaka 15",
        "Post_Office": "Simpang Ampat",
        "State": "Pulau Pinang"
    },
    {
        "Postcode": "14100",
        "Location": "Lorong Cempaka 16",
        "Post_Office": "Simpang Ampat",
        "State": "Pulau Pinang"
    },
    {
        "Postcode": "14100",
        "Location": "Lorong Cempaka 17",
        "Post_Office": "Simpang Ampat",
        "State": "Pulau Pinang"
    },
    {
        "Postcode": "14100",
        "Location": "Lorong Cempaka 18",
        "Post_Office": "Simpang Ampat",
        "State": "Pulau Pinang"
    },
    {
        "Postcode": "14100",
        "Location": "Lorong Cempaka 19",
        "Post_Office": "Simpang Ampat",
        "State": "Pulau Pinang"
    },
    {
        "Postcode": "14100",
        "Location": "Lorong Cempaka 2",
        "Post_Office": "Simpang Ampat",
        "State": "Pulau Pinang"
    },
    {
        "Postcode": "14100",
        "Location": "Lorong Cempaka 20",
        "Post_Office": "Simpang Ampat",
        "State": "Pulau Pinang"
    },
    {
        "Postcode": "14100",
        "Location": "Lorong Cempaka 21",
        "Post_Office": "Simpang Ampat",
        "State": "Pulau Pinang"
    },
    {
        "Postcode": "14100",
        "Location": "Lorong Cempaka 22",
        "Post_Office": "Simpang Ampat",
        "State": "Pulau Pinang"
    },
    {
        "Postcode": "14100",
        "Location": "Lorong Cempaka 23",
        "Post_Office": "Simpang Ampat",
        "State": "Pulau Pinang"
    },
    {
        "Postcode": "14100",
        "Location": "Lorong Cempaka 24",
        "Post_Office": "Simpang Ampat",
        "State": "Pulau Pinang"
    },
    {
        "Postcode": "14100",
        "Location": "Lorong Cempaka 25",
        "Post_Office": "Simpang Ampat",
        "State": "Pulau Pinang"
    },
    {
        "Postcode": "14100",
        "Location": "Lorong Cempaka 26",
        "Post_Office": "Simpang Ampat",
        "State": "Pulau Pinang"
    },
    {
        "Postcode": "14100",
        "Location": "Lorong Cempaka 27",
        "Post_Office": "Simpang Ampat",
        "State": "Pulau Pinang"
    },
    {
        "Postcode": "14100",
        "Location": "Lorong Cempaka 28",
        "Post_Office": "Simpang Ampat",
        "State": "Pulau Pinang"
    },
    {
        "Postcode": "14100",
        "Location": "Lorong Cempaka 29",
        "Post_Office": "Simpang Ampat",
        "State": "Pulau Pinang"
    },
    {
        "Postcode": "14100",
        "Location": "Lorong Cempaka 3",
        "Post_Office": "Simpang Ampat",
        "State": "Pulau Pinang"
    },
    {
        "Postcode": "14100",
        "Location": "Lorong Cempaka 30",
        "Post_Office": "Simpang Ampat",
        "State": "Pulau Pinang"
    },
    {
        "Postcode": "14100",
        "Location": "Lorong Cempaka 31",
        "Post_Office": "Simpang Ampat",
        "State": "Pulau Pinang"
    },
    {
        "Postcode": "14100",
        "Location": "Lorong Cempaka 32",
        "Post_Office": "Simpang Ampat",
        "State": "Pulau Pinang"
    },
    {
        "Postcode": "14100",
        "Location": "Lorong Cempaka 33",
        "Post_Office": "Simpang Ampat",
        "State": "Pulau Pinang"
    },
    {
        "Postcode": "14100",
        "Location": "Lorong Cempaka 4",
        "Post_Office": "Simpang Ampat",
        "State": "Pulau Pinang"
    },
    {
        "Postcode": "14100",
        "Location": "Lorong Cempaka 5",
        "Post_Office": "Simpang Ampat",
        "State": "Pulau Pinang"
    },
    {
        "Postcode": "14100",
        "Location": "Lorong Cempaka 6",
        "Post_Office": "Simpang Ampat",
        "State": "Pulau Pinang"
    },
    {
        "Postcode": "14100",
        "Location": "Lorong Cempaka 7",
        "Post_Office": "Simpang Ampat",
        "State": "Pulau Pinang"
    },
    {
        "Postcode": "14100",
        "Location": "Lorong Cempaka 8",
        "Post_Office": "Simpang Ampat",
        "State": "Pulau Pinang"
    },
    {
        "Postcode": "14100",
        "Location": "Lorong Cempaka 9",
        "Post_Office": "Simpang Ampat",
        "State": "Pulau Pinang"
    },
    {
        "Postcode": "14100",
        "Location": "Lorong Cendana 10",
        "Post_Office": "Simpang Ampat",
        "State": "Pulau Pinang"
    },
    {
        "Postcode": "14100",
        "Location": "Lorong Cendana 11",
        "Post_Office": "Simpang Ampat",
        "State": "Pulau Pinang"
    },
    {
        "Postcode": "14100",
        "Location": "Lorong Cendana 12",
        "Post_Office": "Simpang Ampat",
        "State": "Pulau Pinang"
    },
    {
        "Postcode": "14100",
        "Location": "Lorong Cendana 13",
        "Post_Office": "Simpang Ampat",
        "State": "Pulau Pinang"
    },
    {
        "Postcode": "14100",
        "Location": "Lorong Cendana 14",
        "Post_Office": "Simpang Ampat",
        "State": "Pulau Pinang"
    },
    {
        "Postcode": "14100",
        "Location": "Lorong Cendana 15",
        "Post_Office": "Simpang Ampat",
        "State": "Pulau Pinang"
    },
    {
        "Postcode": "14100",
        "Location": "Lorong Cendana 16",
        "Post_Office": "Simpang Ampat",
        "State": "Pulau Pinang"
    },
    {
        "Postcode": "14100",
        "Location": "Lorong Cendana 17",
        "Post_Office": "Simpang Ampat",
        "State": "Pulau Pinang"
    },
    {
        "Postcode": "14100",
        "Location": "Lorong Cendana 18",
        "Post_Office": "Simpang Ampat",
        "State": "Pulau Pinang"
    },
    {
        "Postcode": "14100",
        "Location": "Lorong Cendana 19",
        "Post_Office": "Simpang Ampat",
        "State": "Pulau Pinang"
    },
    {
        "Postcode": "14100",
        "Location": "Lorong Cendana 20",
        "Post_Office": "Simpang Ampat",
        "State": "Pulau Pinang"
    },
    {
        "Postcode": "14100",
        "Location": "Lorong Cendana 21",
        "Post_Office": "Simpang Ampat",
        "State": "Pulau Pinang"
    },
    {
        "Postcode": "14100",
        "Location": "Lorong Cendana 22",
        "Post_Office": "Simpang Ampat",
        "State": "Pulau Pinang"
    },
    {
        "Postcode": "14100",
        "Location": "Lorong Cendana 23",
        "Post_Office": "Simpang Ampat",
        "State": "Pulau Pinang"
    },
    {
        "Postcode": "14100",
        "Location": "Lorong Cendana 24",
        "Post_Office": "Simpang Ampat",
        "State": "Pulau Pinang"
    },
    {
        "Postcode": "14100",
        "Location": "Lorong Cendana 25",
        "Post_Office": "Simpang Ampat",
        "State": "Pulau Pinang"
    },
    {
        "Postcode": "14100",
        "Location": "Lorong Cendana 26",
        "Post_Office": "Simpang Ampat",
        "State": "Pulau Pinang"
    },
    {
        "Postcode": "14100",
        "Location": "Lorong Cendana 27",
        "Post_Office": "Simpang Ampat",
        "State": "Pulau Pinang"
    },
    {
        "Postcode": "14100",
        "Location": "Lorong Cendana 28",
        "Post_Office": "Simpang Ampat",
        "State": "Pulau Pinang"
    },
    {
        "Postcode": "14100",
        "Location": "Lorong Cendana 29",
        "Post_Office": "Simpang Ampat",
        "State": "Pulau Pinang"
    },
    {
        "Postcode": "14100",
        "Location": "Lorong Cendana 3",
        "Post_Office": "Simpang Ampat",
        "State": "Pulau Pinang"
    },
    {
        "Postcode": "14100",
        "Location": "Lorong Cendana 4",
        "Post_Office": "Simpang Ampat",
        "State": "Pulau Pinang"
    },
    {
        "Postcode": "14100",
        "Location": "Lorong Cendana 6",
        "Post_Office": "Simpang Ampat",
        "State": "Pulau Pinang"
    },
    {
        "Postcode": "14100",
        "Location": "Lorong Cendana 7",
        "Post_Office": "Simpang Ampat",
        "State": "Pulau Pinang"
    },
    {
        "Postcode": "14100",
        "Location": "Lorong Cendana 8",
        "Post_Office": "Simpang Ampat",
        "State": "Pulau Pinang"
    },
    {
        "Postcode": "14100",
        "Location": "Lorong Cendana 9",
        "Post_Office": "Simpang Ampat",
        "State": "Pulau Pinang"
    },
    {
        "Postcode": "14100",
        "Location": "Lorong Dedaun 1",
        "Post_Office": "Simpang Ampat",
        "State": "Pulau Pinang"
    },
    {
        "Postcode": "14100",
        "Location": "Lorong Dedaun 10",
        "Post_Office": "Simpang Ampat",
        "State": "Pulau Pinang"
    },
    {
        "Postcode": "14100",
        "Location": "Lorong Dedaun 11",
        "Post_Office": "Simpang Ampat",
        "State": "Pulau Pinang"
    },
    {
        "Postcode": "14100",
        "Location": "Lorong Dedaun 12",
        "Post_Office": "Simpang Ampat",
        "State": "Pulau Pinang"
    },
    {
        "Postcode": "14100",
        "Location": "Lorong Dedaun 13",
        "Post_Office": "Simpang Ampat",
        "State": "Pulau Pinang"
    },
    {
        "Postcode": "14100",
        "Location": "Lorong Dedaun 14",
        "Post_Office": "Simpang Ampat",
        "State": "Pulau Pinang"
    },
    {
        "Postcode": "14100",
        "Location": "Lorong Dedaun 15",
        "Post_Office": "Simpang Ampat",
        "State": "Pulau Pinang"
    },
    {
        "Postcode": "14100",
        "Location": "Lorong Dedaun 16",
        "Post_Office": "Simpang Ampat",
        "State": "Pulau Pinang"
    },
    {
        "Postcode": "14100",
        "Location": "Lorong Dedaun 17",
        "Post_Office": "Simpang Ampat",
        "State": "Pulau Pinang"
    },
    {
        "Postcode": "14100",
        "Location": "Lorong Dedaun 18",
        "Post_Office": "Simpang Ampat",
        "State": "Pulau Pinang"
    },
    {
        "Postcode": "14100",
        "Location": "Lorong Dedaun 19",
        "Post_Office": "Simpang Ampat",
        "State": "Pulau Pinang"
    },
    {
        "Postcode": "14100",
        "Location": "Lorong Dedaun 2",
        "Post_Office": "Simpang Ampat",
        "State": "Pulau Pinang"
    },
    {
        "Postcode": "14100",
        "Location": "Lorong Dedaun 20",
        "Post_Office": "Simpang Ampat",
        "State": "Pulau Pinang"
    },
    {
        "Postcode": "14100",
        "Location": "Lorong Dedaun 21",
        "Post_Office": "Simpang Ampat",
        "State": "Pulau Pinang"
    },
    {
        "Postcode": "14100",
        "Location": "Lorong Dedaun 22",
        "Post_Office": "Simpang Ampat",
        "State": "Pulau Pinang"
    },
    {
        "Postcode": "14100",
        "Location": "Lorong Dedaun 23",
        "Post_Office": "Simpang Ampat",
        "State": "Pulau Pinang"
    },
    {
        "Postcode": "14100",
        "Location": "Lorong Dedaun 24",
        "Post_Office": "Simpang Ampat",
        "State": "Pulau Pinang"
    },
    {
        "Postcode": "14100",
        "Location": "Lorong Dedaun 25",
        "Post_Office": "Simpang Ampat",
        "State": "Pulau Pinang"
    },
    {
        "Postcode": "14100",
        "Location": "Lorong Dedaun 26",
        "Post_Office": "Simpang Ampat",
        "State": "Pulau Pinang"
    },
    {
        "Postcode": "14100",
        "Location": "Lorong Dedaun 27",
        "Post_Office": "Simpang Ampat",
        "State": "Pulau Pinang"
    },
    {
        "Postcode": "14100",
        "Location": "Lorong Dedaun 28",
        "Post_Office": "Simpang Ampat",
        "State": "Pulau Pinang"
    },
    {
        "Postcode": "14100",
        "Location": "Lorong Dedaun 29",
        "Post_Office": "Simpang Ampat",
        "State": "Pulau Pinang"
    },
    {
        "Postcode": "14100",
        "Location": "Lorong Dedaun 3",
        "Post_Office": "Simpang Ampat",
        "State": "Pulau Pinang"
    },
    {
        "Postcode": "14100",
        "Location": "Lorong Dedaun 30",
        "Post_Office": "Simpang Ampat",
        "State": "Pulau Pinang"
    },
    {
        "Postcode": "14100",
        "Location": "Lorong Dedaun 31",
        "Post_Office": "Simpang Ampat",
        "State": "Pulau Pinang"
    },
    {
        "Postcode": "14100",
        "Location": "Lorong Dedaun 32",
        "Post_Office": "Simpang Ampat",
        "State": "Pulau Pinang"
    },
    {
        "Postcode": "14100",
        "Location": "Lorong Dedaun 33",
        "Post_Office": "Simpang Ampat",
        "State": "Pulau Pinang"
    },
    {
        "Postcode": "14100",
        "Location": "Lorong Dedaun 34",
        "Post_Office": "Simpang Ampat",
        "State": "Pulau Pinang"
    },
    {
        "Postcode": "14100",
        "Location": "Lorong Dedaun 35",
        "Post_Office": "Simpang Ampat",
        "State": "Pulau Pinang"
    },
    {
        "Postcode": "14100",
        "Location": "Lorong Dedaun 4",
        "Post_Office": "Simpang Ampat",
        "State": "Pulau Pinang"
    },
    {
        "Postcode": "14100",
        "Location": "Lorong Dedaun 5",
        "Post_Office": "Simpang Ampat",
        "State": "Pulau Pinang"
    },
    {
        "Postcode": "14100",
        "Location": "Lorong Dedaun 6",
        "Post_Office": "Simpang Ampat",
        "State": "Pulau Pinang"
    },
    {
        "Postcode": "14100",
        "Location": "Lorong Dedaun 7",
        "Post_Office": "Simpang Ampat",
        "State": "Pulau Pinang"
    },
    {
        "Postcode": "14100",
        "Location": "Lorong Dedaun 8",
        "Post_Office": "Simpang Ampat",
        "State": "Pulau Pinang"
    },
    {
        "Postcode": "14100",
        "Location": "Lorong Dedaun 9",
        "Post_Office": "Simpang Ampat",
        "State": "Pulau Pinang"
    },
    {
        "Postcode": "14100",
        "Location": "Lorong Desa Cempaka 1",
        "Post_Office": "Simpang Ampat",
        "State": "Pulau Pinang"
    },
    {
        "Postcode": "14100",
        "Location": "Lorong Desa Cempaka 2",
        "Post_Office": "Simpang Ampat",
        "State": "Pulau Pinang"
    },
    {
        "Postcode": "14100",
        "Location": "Lorong Desa Cempaka 3",
        "Post_Office": "Simpang Ampat",
        "State": "Pulau Pinang"
    },
    {
        "Postcode": "14100",
        "Location": "Lorong Desa Cempaka 4",
        "Post_Office": "Simpang Ampat",
        "State": "Pulau Pinang"
    },
    {
        "Postcode": "14100",
        "Location": "Lorong Desa Cempaka 5",
        "Post_Office": "Simpang Ampat",
        "State": "Pulau Pinang"
    },
    {
        "Postcode": "14100",
        "Location": "Lorong Desa Cempaka 6",
        "Post_Office": "Simpang Ampat",
        "State": "Pulau Pinang"
    },
    {
        "Postcode": "14100",
        "Location": "Lorong Desa Cempaka 7",
        "Post_Office": "Simpang Ampat",
        "State": "Pulau Pinang"
    },
    {
        "Postcode": "14100",
        "Location": "Lorong Desa Cempaka 8",
        "Post_Office": "Simpang Ampat",
        "State": "Pulau Pinang"
    },
    {
        "Postcode": "14100",
        "Location": "Lorong Desa Juru 1",
        "Post_Office": "Simpang Ampat",
        "State": "Pulau Pinang"
    },
    {
        "Postcode": "14100",
        "Location": "Lorong Desa Juru 10",
        "Post_Office": "Simpang Ampat",
        "State": "Pulau Pinang"
    },
    {
        "Postcode": "14100",
        "Location": "Lorong Desa Juru 11",
        "Post_Office": "Simpang Ampat",
        "State": "Pulau Pinang"
    },
    {
        "Postcode": "14100",
        "Location": "Lorong Desa Juru 12",
        "Post_Office": "Simpang Ampat",
        "State": "Pulau Pinang"
    },
    {
        "Postcode": "14100",
        "Location": "Lorong Desa Juru 13",
        "Post_Office": "Simpang Ampat",
        "State": "Pulau Pinang"
    },
    {
        "Postcode": "14100",
        "Location": "Lorong Desa Juru 14",
        "Post_Office": "Simpang Ampat",
        "State": "Pulau Pinang"
    },
    {
        "Postcode": "14100",
        "Location": "Lorong Desa Juru 2",
        "Post_Office": "Simpang Ampat",
        "State": "Pulau Pinang"
    },
    {
        "Postcode": "14100",
        "Location": "Lorong Desa Juru 3",
        "Post_Office": "Simpang Ampat",
        "State": "Pulau Pinang"
    },
    {
        "Postcode": "14100",
        "Location": "Lorong Desa Juru 4",
        "Post_Office": "Simpang Ampat",
        "State": "Pulau Pinang"
    },
    {
        "Postcode": "14100",
        "Location": "Lorong Desa Juru 5",
        "Post_Office": "Simpang Ampat",
        "State": "Pulau Pinang"
    },
    {
        "Postcode": "14100",
        "Location": "Lorong Desa Juru 6",
        "Post_Office": "Simpang Ampat",
        "State": "Pulau Pinang"
    },
    {
        "Postcode": "14100",
        "Location": "Lorong Desa Juru 7",
        "Post_Office": "Simpang Ampat",
        "State": "Pulau Pinang"
    },
    {
        "Postcode": "14100",
        "Location": "Lorong Desa Juru 8",
        "Post_Office": "Simpang Ampat",
        "State": "Pulau Pinang"
    },
    {
        "Postcode": "14100",
        "Location": "Lorong Desa Juru 9",
        "Post_Office": "Simpang Ampat",
        "State": "Pulau Pinang"
    },
    {
        "Postcode": "14100",
        "Location": "Lorong Desa Juru Indah 1",
        "Post_Office": "Simpang Ampat",
        "State": "Pulau Pinang"
    },
    {
        "Postcode": "14100",
        "Location": "Lorong Desa Juru Indah 2",
        "Post_Office": "Simpang Ampat",
        "State": "Pulau Pinang"
    },
    {
        "Postcode": "14100",
        "Location": "Lorong Desa Juru Indah 3",
        "Post_Office": "Simpang Ampat",
        "State": "Pulau Pinang"
    },
    {
        "Postcode": "14100",
        "Location": "Lorong Desa Juru Indah 4",
        "Post_Office": "Simpang Ampat",
        "State": "Pulau Pinang"
    },
    {
        "Postcode": "14100",
        "Location": "Lorong Desa Juru Indah 5",
        "Post_Office": "Simpang Ampat",
        "State": "Pulau Pinang"
    },
    {
        "Postcode": "14100",
        "Location": "Lorong Desa Juru Indah 6",
        "Post_Office": "Simpang Ampat",
        "State": "Pulau Pinang"
    },
    {
        "Postcode": "14100",
        "Location": "Lorong Desa Juru Indah 7",
        "Post_Office": "Simpang Ampat",
        "State": "Pulau Pinang"
    },
    {
        "Postcode": "14100",
        "Location": "Lorong Desa Juru Indah 8",
        "Post_Office": "Simpang Ampat",
        "State": "Pulau Pinang"
    },
    {
        "Postcode": "14100",
        "Location": "Lorong Desa Juru Indah 9",
        "Post_Office": "Simpang Ampat",
        "State": "Pulau Pinang"
    },
    {
        "Postcode": "14100",
        "Location": "Lorong Desa Tanjung 1",
        "Post_Office": "Simpang Ampat",
        "State": "Pulau Pinang"
    },
    {
        "Postcode": "14100",
        "Location": "Lorong Desa Tanjung 2",
        "Post_Office": "Simpang Ampat",
        "State": "Pulau Pinang"
    },
    {
        "Postcode": "14100",
        "Location": "Lorong Desa Tanjung 3",
        "Post_Office": "Simpang Ampat",
        "State": "Pulau Pinang"
    },
    {
        "Postcode": "14100",
        "Location": "Lorong Desa Tanjung 4",
        "Post_Office": "Simpang Ampat",
        "State": "Pulau Pinang"
    },
    {
        "Postcode": "14100",
        "Location": "Lorong Desa Tanjung 5",
        "Post_Office": "Simpang Ampat",
        "State": "Pulau Pinang"
    },
    {
        "Postcode": "14100",
        "Location": "Lorong Idaman 1/1 ",
        "Post_Office": "Simpang Ampat",
        "State": "Pulau Pinang"
    },
    {
        "Postcode": "14100",
        "Location": "Lorong Idaman 2/6",
        "Post_Office": "Simpang Ampat",
        "State": "Pulau Pinang"
    },
    {
        "Postcode": "14100",
        "Location": "Lorong Idaman 3/1",
        "Post_Office": "Simpang Ampat",
        "State": "Pulau Pinang"
    },
    {
        "Postcode": "14100",
        "Location": "Lorong Idaman 3/2",
        "Post_Office": "Simpang Ampat",
        "State": "Pulau Pinang"
    },
    {
        "Postcode": "14100",
        "Location": "Lorong Idaman 3/3",
        "Post_Office": "Simpang Ampat",
        "State": "Pulau Pinang"
    },
    {
        "Postcode": "14100",
        "Location": "Lorong Iks Juru 10",
        "Post_Office": "Simpang Ampat",
        "State": "Pulau Pinang"
    },
    {
        "Postcode": "14100",
        "Location": "Lorong Iks Juru 11",
        "Post_Office": "Simpang Ampat",
        "State": "Pulau Pinang"
    },
    {
        "Postcode": "14100",
        "Location": "Lorong Iks Juru 3",
        "Post_Office": "Simpang Ampat",
        "State": "Pulau Pinang"
    },
    {
        "Postcode": "14100",
        "Location": "Lorong Iks Juru 4",
        "Post_Office": "Simpang Ampat",
        "State": "Pulau Pinang"
    },
    {
        "Postcode": "14100",
        "Location": "Lorong Iks Juru 5",
        "Post_Office": "Simpang Ampat",
        "State": "Pulau Pinang"
    },
    {
        "Postcode": "14100",
        "Location": "Lorong Iks Juru 6",
        "Post_Office": "Simpang Ampat",
        "State": "Pulau Pinang"
    },
    {
        "Postcode": "14100",
        "Location": "Lorong Iks Juru 7",
        "Post_Office": "Simpang Ampat",
        "State": "Pulau Pinang"
    },
    {
        "Postcode": "14100",
        "Location": "Lorong Iks Juru 8",
        "Post_Office": "Simpang Ampat",
        "State": "Pulau Pinang"
    },
    {
        "Postcode": "14100",
        "Location": "Lorong Iks Juru 9",
        "Post_Office": "Simpang Ampat",
        "State": "Pulau Pinang"
    },
    {
        "Postcode": "14100",
        "Location": "Lorong Industri Ringan 1",
        "Post_Office": "Simpang Ampat",
        "State": "Pulau Pinang"
    },
    {
        "Postcode": "14100",
        "Location": "Lorong Industri Ringan 3",
        "Post_Office": "Simpang Ampat",
        "State": "Pulau Pinang"
    },
    {
        "Postcode": "14100",
        "Location": "Lorong Jentayu Indah 1",
        "Post_Office": "Simpang Ampat",
        "State": "Pulau Pinang"
    },
    {
        "Postcode": "14100",
        "Location": "Lorong Jentayu Indah 2",
        "Post_Office": "Simpang Ampat",
        "State": "Pulau Pinang"
    },
    {
        "Postcode": "14100",
        "Location": "Lorong Jentayu Indah 3",
        "Post_Office": "Simpang Ampat",
        "State": "Pulau Pinang"
    },
    {
        "Postcode": "14100",
        "Location": "Lorong Juru 1",
        "Post_Office": "Simpang Ampat",
        "State": "Pulau Pinang"
    },
    {
        "Postcode": "14100",
        "Location": "Lorong Juru 10",
        "Post_Office": "Simpang Ampat",
        "State": "Pulau Pinang"
    },
    {
        "Postcode": "14100",
        "Location": "Lorong Juru 11",
        "Post_Office": "Simpang Ampat",
        "State": "Pulau Pinang"
    },
    {
        "Postcode": "14100",
        "Location": "Lorong Juru 2",
        "Post_Office": "Simpang Ampat",
        "State": "Pulau Pinang"
    },
    {
        "Postcode": "14100",
        "Location": "Lorong Juru 3",
        "Post_Office": "Simpang Ampat",
        "State": "Pulau Pinang"
    },
    {
        "Postcode": "14100",
        "Location": "Lorong Juru 4",
        "Post_Office": "Simpang Ampat",
        "State": "Pulau Pinang"
    },
    {
        "Postcode": "14100",
        "Location": "Lorong Juru 5",
        "Post_Office": "Simpang Ampat",
        "State": "Pulau Pinang"
    },
    {
        "Postcode": "14100",
        "Location": "Lorong Juru 6",
        "Post_Office": "Simpang Ampat",
        "State": "Pulau Pinang"
    },
    {
        "Postcode": "14100",
        "Location": "Lorong Juru 7",
        "Post_Office": "Simpang Ampat",
        "State": "Pulau Pinang"
    },
    {
        "Postcode": "14100",
        "Location": "Lorong Juru 8",
        "Post_Office": "Simpang Ampat",
        "State": "Pulau Pinang"
    },
    {
        "Postcode": "14100",
        "Location": "Lorong Juru 9",
        "Post_Office": "Simpang Ampat",
        "State": "Pulau Pinang"
    },
    {
        "Postcode": "14100",
        "Location": "Lorong Kawasaki 1",
        "Post_Office": "Simpang Ampat",
        "State": "Pulau Pinang"
    },
    {
        "Postcode": "14100",
        "Location": "Lorong Kawasaki 10",
        "Post_Office": "Simpang Ampat",
        "State": "Pulau Pinang"
    },
    {
        "Postcode": "14100",
        "Location": "Lorong Kawasaki 11",
        "Post_Office": "Simpang Ampat",
        "State": "Pulau Pinang"
    },
    {
        "Postcode": "14100",
        "Location": "Lorong Kawasaki 12",
        "Post_Office": "Simpang Ampat",
        "State": "Pulau Pinang"
    },
    {
        "Postcode": "14100",
        "Location": "Lorong Kawasaki 13",
        "Post_Office": "Simpang Ampat",
        "State": "Pulau Pinang"
    },
    {
        "Postcode": "14100",
        "Location": "Lorong Kawasaki 2",
        "Post_Office": "Simpang Ampat",
        "State": "Pulau Pinang"
    },
    {
        "Postcode": "14100",
        "Location": "Lorong Kawasaki 3",
        "Post_Office": "Simpang Ampat",
        "State": "Pulau Pinang"
    },
    {
        "Postcode": "14100",
        "Location": "Lorong Kawasaki 4",
        "Post_Office": "Simpang Ampat",
        "State": "Pulau Pinang"
    },
    {
        "Postcode": "14100",
        "Location": "Lorong Kawasaki 5",
        "Post_Office": "Simpang Ampat",
        "State": "Pulau Pinang"
    },
    {
        "Postcode": "14100",
        "Location": "Lorong Kawasaki 6",
        "Post_Office": "Simpang Ampat",
        "State": "Pulau Pinang"
    },
    {
        "Postcode": "14100",
        "Location": "Lorong Kawasaki 7",
        "Post_Office": "Simpang Ampat",
        "State": "Pulau Pinang"
    },
    {
        "Postcode": "14100",
        "Location": "Lorong Kawasaki 8",
        "Post_Office": "Simpang Ampat",
        "State": "Pulau Pinang"
    },
    {
        "Postcode": "14100",
        "Location": "Lorong Kawasaki 9",
        "Post_Office": "Simpang Ampat",
        "State": "Pulau Pinang"
    },
    {
        "Postcode": "14100",
        "Location": "Lorong Kendi 4",
        "Post_Office": "Simpang Ampat",
        "State": "Pulau Pinang"
    },
    {
        "Postcode": "14100",
        "Location": "Lorong Kendi 5",
        "Post_Office": "Simpang Ampat",
        "State": "Pulau Pinang"
    },
    {
        "Postcode": "14100",
        "Location": "Lorong Kendi 6",
        "Post_Office": "Simpang Ampat",
        "State": "Pulau Pinang"
    },
    {
        "Postcode": "14100",
        "Location": "Lorong Kendi 7",
        "Post_Office": "Simpang Ampat",
        "State": "Pulau Pinang"
    },
    {
        "Postcode": "14100",
        "Location": "Lorong Manggis 1",
        "Post_Office": "Simpang Ampat",
        "State": "Pulau Pinang"
    },
    {
        "Postcode": "14100",
        "Location": "Lorong Manggis 10",
        "Post_Office": "Simpang Ampat",
        "State": "Pulau Pinang"
    },
    {
        "Postcode": "14100",
        "Location": "Lorong Manggis 11",
        "Post_Office": "Simpang Ampat",
        "State": "Pulau Pinang"
    },
    {
        "Postcode": "14100",
        "Location": "Lorong Manggis 12",
        "Post_Office": "Simpang Ampat",
        "State": "Pulau Pinang"
    },
    {
        "Postcode": "14100",
        "Location": "Lorong Manggis 13",
        "Post_Office": "Simpang Ampat",
        "State": "Pulau Pinang"
    },
    {
        "Postcode": "14100",
        "Location": "Lorong Manggis 14",
        "Post_Office": "Simpang Ampat",
        "State": "Pulau Pinang"
    },
    {
        "Postcode": "14100",
        "Location": "Lorong Manggis 15",
        "Post_Office": "Simpang Ampat",
        "State": "Pulau Pinang"
    },
    {
        "Postcode": "14100",
        "Location": "Lorong Manggis 16",
        "Post_Office": "Simpang Ampat",
        "State": "Pulau Pinang"
    },
    {
        "Postcode": "14100",
        "Location": "Lorong Manggis 2",
        "Post_Office": "Simpang Ampat",
        "State": "Pulau Pinang"
    },
    {
        "Postcode": "14100",
        "Location": "Lorong Manggis 3",
        "Post_Office": "Simpang Ampat",
        "State": "Pulau Pinang"
    },
    {
        "Postcode": "14100",
        "Location": "Lorong Manggis 4",
        "Post_Office": "Simpang Ampat",
        "State": "Pulau Pinang"
    },
    {
        "Postcode": "14100",
        "Location": "Lorong Manggis 5",
        "Post_Office": "Simpang Ampat",
        "State": "Pulau Pinang"
    },
    {
        "Postcode": "14100",
        "Location": "Lorong Manggis 6",
        "Post_Office": "Simpang Ampat",
        "State": "Pulau Pinang"
    },
    {
        "Postcode": "14100",
        "Location": "Lorong Manggis 7",
        "Post_Office": "Simpang Ampat",
        "State": "Pulau Pinang"
    },
    {
        "Postcode": "14100",
        "Location": "Lorong Manggis 8",
        "Post_Office": "Simpang Ampat",
        "State": "Pulau Pinang"
    },
    {
        "Postcode": "14100",
        "Location": "Lorong Manggis 9",
        "Post_Office": "Simpang Ampat",
        "State": "Pulau Pinang"
    },
    {
        "Postcode": "14100",
        "Location": "Lorong Markisa 1",
        "Post_Office": "Simpang Ampat",
        "State": "Pulau Pinang"
    },
    {
        "Postcode": "14100",
        "Location": "Lorong Markisa 10",
        "Post_Office": "Simpang Ampat",
        "State": "Pulau Pinang"
    },
    {
        "Postcode": "14100",
        "Location": "Lorong Markisa 10A",
        "Post_Office": "Simpang Ampat",
        "State": "Pulau Pinang"
    },
    {
        "Postcode": "14100",
        "Location": "Lorong Markisa 11",
        "Post_Office": "Simpang Ampat",
        "State": "Pulau Pinang"
    },
    {
        "Postcode": "14100",
        "Location": "Lorong Markisa 11A",
        "Post_Office": "Simpang Ampat",
        "State": "Pulau Pinang"
    },
    {
        "Postcode": "14100",
        "Location": "Lorong Markisa 12",
        "Post_Office": "Simpang Ampat",
        "State": "Pulau Pinang"
    },
    {
        "Postcode": "14100",
        "Location": "Lorong Markisa 12A",
        "Post_Office": "Simpang Ampat",
        "State": "Pulau Pinang"
    },
    {
        "Postcode": "14100",
        "Location": "Lorong Markisa 13",
        "Post_Office": "Simpang Ampat",
        "State": "Pulau Pinang"
    },
    {
        "Postcode": "14100",
        "Location": "Lorong Markisa 13A",
        "Post_Office": "Simpang Ampat",
        "State": "Pulau Pinang"
    },
    {
        "Postcode": "14100",
        "Location": "Lorong Markisa 14",
        "Post_Office": "Simpang Ampat",
        "State": "Pulau Pinang"
    },
    {
        "Postcode": "14100",
        "Location": "Lorong Markisa 14A",
        "Post_Office": "Simpang Ampat",
        "State": "Pulau Pinang"
    },
    {
        "Postcode": "14100",
        "Location": "Lorong Markisa 15",
        "Post_Office": "Simpang Ampat",
        "State": "Pulau Pinang"
    },
    {
        "Postcode": "14100",
        "Location": "Lorong Markisa 15A",
        "Post_Office": "Simpang Ampat",
        "State": "Pulau Pinang"
    },
    {
        "Postcode": "14100",
        "Location": "Lorong Markisa 16",
        "Post_Office": "Simpang Ampat",
        "State": "Pulau Pinang"
    },
    {
        "Postcode": "14100",
        "Location": "Lorong Markisa 16A",
        "Post_Office": "Simpang Ampat",
        "State": "Pulau Pinang"
    },
    {
        "Postcode": "14100",
        "Location": "Lorong Markisa 17",
        "Post_Office": "Simpang Ampat",
        "State": "Pulau Pinang"
    },
    {
        "Postcode": "14100",
        "Location": "Lorong Markisa 18",
        "Post_Office": "Simpang Ampat",
        "State": "Pulau Pinang"
    },
    {
        "Postcode": "14100",
        "Location": "Lorong Markisa 19",
        "Post_Office": "Simpang Ampat",
        "State": "Pulau Pinang"
    },
    {
        "Postcode": "14100",
        "Location": "Asas Jaya",
        "Post_Office": "Simpang Ampat",
        "State": "Pulau Pinang"
    },
    {
        "Postcode": "14100",
        "Location": "Asas Parade",
        "Post_Office": "Simpang Ampat",
        "State": "Pulau Pinang"
    },
    {
        "Postcode": "14100",
        "Location": "Bagan Bukit Tambun",
        "Post_Office": "Simpang Ampat",
        "State": "Pulau Pinang"
    },
    {
        "Postcode": "14100",
        "Location": "Bagan Nyior",
        "Post_Office": "Simpang Ampat",
        "State": "Pulau Pinang"
    },
    {
        "Postcode": "14100",
        "Location": "Bandar Cassia Batu Kawan",
        "Post_Office": "Simpang Ampat",
        "State": "Pulau Pinang"
    },
    {
        "Postcode": "14100",
        "Location": "Bukit Kecil Juru",
        "Post_Office": "Simpang Ampat",
        "State": "Pulau Pinang"
    },
    {
        "Postcode": "14100",
        "Location": "Bukit Kecil Ujong",
        "Post_Office": "Simpang Ampat",
        "State": "Pulau Pinang"
    },
    {
        "Postcode": "14100",
        "Location": "Bukit Nyior Juru",
        "Post_Office": "Simpang Ampat",
        "State": "Pulau Pinang"
    },
    {
        "Postcode": "14100",
        "Location": "Desa Juru Indah",
        "Post_Office": "Simpang Ampat",
        "State": "Pulau Pinang"
    },
    {
        "Postcode": "14100",
        "Location": "Hala Perwira",
        "Post_Office": "Simpang Ampat",
        "State": "Pulau Pinang"
    },
    {
        "Postcode": "14100",
        "Location": "Iks Bukit Minyak",
        "Post_Office": "Simpang Ampat",
        "State": "Pulau Pinang"
    },
    {
        "Postcode": "14100",
        "Location": "Jalan 6 Bersebelahan Taman Juru",
        "Post_Office": "Simpang Ampat",
        "State": "Pulau Pinang"
    },
    {
        "Postcode": "14100",
        "Location": "Jalan Asas Murni",
        "Post_Office": "Simpang Ampat",
        "State": "Pulau Pinang"
    },
    {
        "Postcode": "14100",
        "Location": "Jalan Asas Murni 1",
        "Post_Office": "Simpang Ampat",
        "State": "Pulau Pinang"
    },
    {
        "Postcode": "14100",
        "Location": "Jalan Batu Kawan",
        "Post_Office": "Simpang Ampat",
        "State": "Pulau Pinang"
    },
    {
        "Postcode": "14100",
        "Location": "Jalan Batu Kawan 1",
        "Post_Office": "Simpang Ampat",
        "State": "Pulau Pinang"
    },
    {
        "Postcode": "14100",
        "Location": "Jalan Belibis",
        "Post_Office": "Simpang Ampat",
        "State": "Pulau Pinang"
    },
    {
        "Postcode": "14100",
        "Location": "Jalan Besar Bukit Tambun",
        "Post_Office": "Simpang Ampat",
        "State": "Pulau Pinang"
    },
    {
        "Postcode": "14100",
        "Location": "Jalan Besar Kampung Juru",
        "Post_Office": "Simpang Ampat",
        "State": "Pulau Pinang"
    },
    {
        "Postcode": "14100",
        "Location": "Jalan Besar Permatang Tinggi",
        "Post_Office": "Simpang Ampat",
        "State": "Pulau Pinang"
    },
    {
        "Postcode": "14100",
        "Location": "Jalan Besar Simpang Ampat",
        "Post_Office": "Simpang Ampat",
        "State": "Pulau Pinang"
    },
    {
        "Postcode": "14100",
        "Location": "Jalan Besar Taman Markisah",
        "Post_Office": "Simpang Ampat",
        "State": "Pulau Pinang"
    },
    {
        "Postcode": "14100",
        "Location": "Jalan Besar Tempua",
        "Post_Office": "Simpang Ampat",
        "State": "Pulau Pinang"
    },
    {
        "Postcode": "14100",
        "Location": "Jalan Besar Tiong Mas",
        "Post_Office": "Simpang Ampat",
        "State": "Pulau Pinang"
    },
    {
        "Postcode": "14100",
        "Location": "Jalan Bukit Minyak Utama",
        "Post_Office": "Simpang Ampat",
        "State": "Pulau Pinang"
    },
    {
        "Postcode": "14100",
        "Location": "Jalan Bukit Tambun",
        "Post_Office": "Simpang Ampat",
        "State": "Pulau Pinang"
    },
    {
        "Postcode": "14100",
        "Location": "Jalan Bukit Tambun Juru",
        "Post_Office": "Simpang Ampat",
        "State": "Pulau Pinang"
    },
    {
        "Postcode": "14100",
        "Location": "Jalan Bukit Tambun Panthau",
        "Post_Office": "Simpang Ampat",
        "State": "Pulau Pinang"
    },
    {
        "Postcode": "14100",
        "Location": "Jalan Callissia",
        "Post_Office": "Simpang Ampat",
        "State": "Pulau Pinang"
    },
    {
        "Postcode": "14100",
        "Location": "Jalan Cegar",
        "Post_Office": "Simpang Ampat",
        "State": "Pulau Pinang"
    },
    {
        "Postcode": "14100",
        "Location": "Jalan Cegar 1",
        "Post_Office": "Simpang Ampat",
        "State": "Pulau Pinang"
    },
    {
        "Postcode": "14100",
        "Location": "Jalan Cendana Permai 2",
        "Post_Office": "Simpang Ampat",
        "State": "Pulau Pinang"
    },
    {
        "Postcode": "14100",
        "Location": "Jalan Desa Juru",
        "Post_Office": "Simpang Ampat",
        "State": "Pulau Pinang"
    },
    {
        "Postcode": "14100",
        "Location": "Jalan Desa Juru 1",
        "Post_Office": "Simpang Ampat",
        "State": "Pulau Pinang"
    },
    {
        "Postcode": "14100",
        "Location": "Jalan Idaman",
        "Post_Office": "Simpang Ampat",
        "State": "Pulau Pinang"
    },
    {
        "Postcode": "14100",
        "Location": "Jalan Iks Juru",
        "Post_Office": "Simpang Ampat",
        "State": "Pulau Pinang"
    },
    {
        "Postcode": "14100",
        "Location": "Jalan Industri Ringan Juru 1",
        "Post_Office": "Simpang Ampat",
        "State": "Pulau Pinang"
    },
    {
        "Postcode": "14100",
        "Location": "Jalan Jentayu Indah",
        "Post_Office": "Simpang Ampat",
        "State": "Pulau Pinang"
    },
    {
        "Postcode": "14100",
        "Location": "Jalan Jentayu Indah 1",
        "Post_Office": "Simpang Ampat",
        "State": "Pulau Pinang"
    },
    {
        "Postcode": "14100",
        "Location": "Jalan Juru",
        "Post_Office": "Simpang Ampat",
        "State": "Pulau Pinang"
    },
    {
        "Postcode": "14100",
        "Location": "Jalan Juru Estet",
        "Post_Office": "Simpang Ampat",
        "State": "Pulau Pinang"
    },
    {
        "Postcode": "14100",
        "Location": "Jalan Kasawari",
        "Post_Office": "Simpang Ampat",
        "State": "Pulau Pinang"
    },
    {
        "Postcode": "14100",
        "Location": "Jalan Kebun Baru",
        "Post_Office": "Simpang Ampat",
        "State": "Pulau Pinang"
    },
    {
        "Postcode": "14100",
        "Location": "Jalan Kendi",
        "Post_Office": "Simpang Ampat",
        "State": "Pulau Pinang"
    },
    {
        "Postcode": "14100",
        "Location": "Jalan Kruing",
        "Post_Office": "Simpang Ampat",
        "State": "Pulau Pinang"
    },
    {
        "Postcode": "14100",
        "Location": "Jalan Kuala Juru",
        "Post_Office": "Simpang Ampat",
        "State": "Pulau Pinang"
    },
    {
        "Postcode": "14100",
        "Location": "Jalan Ladang Juru",
        "Post_Office": "Simpang Ampat",
        "State": "Pulau Pinang"
    },
    {
        "Postcode": "14100",
        "Location": "Jalan Lim Cheng Chuan",
        "Post_Office": "Simpang Ampat",
        "State": "Pulau Pinang"
    },
    {
        "Postcode": "14100",
        "Location": "Jalan Markisah",
        "Post_Office": "Simpang Ampat",
        "State": "Pulau Pinang"
    },
    {
        "Postcode": "14100",
        "Location": "Jalan Mengkudu",
        "Post_Office": "Simpang Ampat",
        "State": "Pulau Pinang"
    },
    {
        "Postcode": "14100",
        "Location": "Jalan Merak",
        "Post_Office": "Simpang Ampat",
        "State": "Pulau Pinang"
    },
    {
        "Postcode": "14100",
        "Location": "Jalan Mohd Saad Osman",
        "Post_Office": "Simpang Ampat",
        "State": "Pulau Pinang"
    },
    {
        "Postcode": "14100",
        "Location": "Jalan Murai Jaya",
        "Post_Office": "Simpang Ampat",
        "State": "Pulau Pinang"
    },
    {
        "Postcode": "14100",
        "Location": "Jalan Nuri Indah",
        "Post_Office": "Simpang Ampat",
        "State": "Pulau Pinang"
    },
    {
        "Postcode": "14100",
        "Location": "Jalan Pahboi",
        "Post_Office": "Simpang Ampat",
        "State": "Pulau Pinang"
    },
    {
        "Postcode": "14100",
        "Location": "Jalan Pasar Permatang Tinggi",
        "Post_Office": "Simpang Ampat",
        "State": "Pulau Pinang"
    },
    {
        "Postcode": "14100",
        "Location": "Jalan Permatang Tinggi",
        "Post_Office": "Simpang Ampat",
        "State": "Pulau Pinang"
    },
    {
        "Postcode": "14100",
        "Location": "Jalan Persekutuan",
        "Post_Office": "Simpang Ampat",
        "State": "Pulau Pinang"
    },
    {
        "Postcode": "14100",
        "Location": "Jalan Persekutuan Bukit Minyak",
        "Post_Office": "Simpang Ampat",
        "State": "Pulau Pinang"
    },
    {
        "Postcode": "14100",
        "Location": "Jalan Persekutuan Simpang Ampat",
        "Post_Office": "Simpang Ampat",
        "State": "Pulau Pinang"
    },
    {
        "Postcode": "14100",
        "Location": "Jalan Perwira",
        "Post_Office": "Simpang Ampat",
        "State": "Pulau Pinang"
    },
    {
        "Postcode": "14100",
        "Location": "Jalan Pinang",
        "Post_Office": "Simpang Ampat",
        "State": "Pulau Pinang"
    },
    {
        "Postcode": "14100",
        "Location": "Jalan Simpang Ampat",
        "Post_Office": "Simpang Ampat",
        "State": "Pulau Pinang"
    },
    {
        "Postcode": "14100",
        "Location": "Jalan Sukun",
        "Post_Office": "Simpang Ampat",
        "State": "Pulau Pinang"
    },
    {
        "Postcode": "14100",
        "Location": "Jalan Sungai Juru",
        "Post_Office": "Simpang Ampat",
        "State": "Pulau Pinang"
    },
    {
        "Postcode": "14100",
        "Location": "Jalan Taman Pala",
        "Post_Office": "Simpang Ampat",
        "State": "Pulau Pinang"
    },
    {
        "Postcode": "14100",
        "Location": "Jalan Tambun Indah 1",
        "Post_Office": "Simpang Ampat",
        "State": "Pulau Pinang"
    },
    {
        "Postcode": "14100",
        "Location": "Jalan Tambun Jaya",
        "Post_Office": "Simpang Ampat",
        "State": "Pulau Pinang"
    },
    {
        "Postcode": "14100",
        "Location": "Jalan Tamil",
        "Post_Office": "Simpang Ampat",
        "State": "Pulau Pinang"
    },
    {
        "Postcode": "14100",
        "Location": "Jalan Tanjung 3",
        "Post_Office": "Simpang Ampat",
        "State": "Pulau Pinang"
    },
    {
        "Postcode": "14100",
        "Location": "Jalan Tiong Mas",
        "Post_Office": "Simpang Ampat",
        "State": "Pulau Pinang"
    },
    {
        "Postcode": "14100",
        "Location": "Jalan Tok Kangar",
        "Post_Office": "Simpang Ampat",
        "State": "Pulau Pinang"
    },
    {
        "Postcode": "14100",
        "Location": "Jalan Usahajaya",
        "Post_Office": "Simpang Ampat",
        "State": "Pulau Pinang"
    },
    {
        "Postcode": "14100",
        "Location": "Junjong Mati",
        "Post_Office": "Simpang Ampat",
        "State": "Pulau Pinang"
    },
    {
        "Postcode": "14100",
        "Location": "Juru",
        "Post_Office": "Simpang Ampat",
        "State": "Pulau Pinang"
    },
    {
        "Postcode": "14100",
        "Location": "Juru Estate",
        "Post_Office": "Simpang Ampat",
        "State": "Pulau Pinang"
    },
    {
        "Postcode": "14100",
        "Location": "Juru Jaya",
        "Post_Office": "Simpang Ampat",
        "State": "Pulau Pinang"
    },
    {
        "Postcode": "14100",
        "Location": "Kampung Ah Chooi",
        "Post_Office": "Simpang Ampat",
        "State": "Pulau Pinang"
    },
    {
        "Postcode": "14100",
        "Location": "Kampung Baru Simpang Ampat",
        "Post_Office": "Simpang Ampat",
        "State": "Pulau Pinang"
    },
    {
        "Postcode": "14100",
        "Location": "Kampung Juru",
        "Post_Office": "Simpang Ampat",
        "State": "Pulau Pinang"
    },
    {
        "Postcode": "14100",
        "Location": "Kampung Ketupat Bukit Tambun",
        "Post_Office": "Simpang Ampat",
        "State": "Pulau Pinang"
    },
    {
        "Postcode": "14100",
        "Location": "Kampung Lapan (Kampung Indra Timbalan)",
        "Post_Office": "Simpang Ampat",
        "State": "Pulau Pinang"
    },
    {
        "Postcode": "14100",
        "Location": "Kampung Masjid Batu Kawan",
        "Post_Office": "Simpang Ampat",
        "State": "Pulau Pinang"
    },
    {
        "Postcode": "14100",
        "Location": "Kampung Nenas",
        "Post_Office": "Simpang Ampat",
        "State": "Pulau Pinang"
    },
    {
        "Postcode": "14100",
        "Location": "Kampung Nenas Permatang Tinggi",
        "Post_Office": "Simpang Ampat",
        "State": "Pulau Pinang"
    },
    {
        "Postcode": "14100",
        "Location": "Kampung Paya Mahang",
        "Post_Office": "Simpang Ampat",
        "State": "Pulau Pinang"
    },
    {
        "Postcode": "14100",
        "Location": "Kampung Pengkalan Batu Kawan",
        "Post_Office": "Simpang Ampat",
        "State": "Pulau Pinang"
    },
    {
        "Postcode": "14100",
        "Location": "Kampung Permatang Tok Subuh",
        "Post_Office": "Simpang Ampat",
        "State": "Pulau Pinang"
    },
    {
        "Postcode": "14100",
        "Location": "Kampung Rambutan",
        "Post_Office": "Simpang Ampat",
        "State": "Pulau Pinang"
    },
    {
        "Postcode": "14100",
        "Location": "Kampung Sekolah 1",
        "Post_Office": "Simpang Ampat",
        "State": "Pulau Pinang"
    },
    {
        "Postcode": "14100",
        "Location": "Kampung Sekolah 2",
        "Post_Office": "Simpang Ampat",
        "State": "Pulau Pinang"
    },
    {
        "Postcode": "14100",
        "Location": "Kampung Simpang Ampat",
        "Post_Office": "Simpang Ampat",
        "State": "Pulau Pinang"
    },
    {
        "Postcode": "14100",
        "Location": "Kampung Sockalingam",
        "Post_Office": "Simpang Ampat",
        "State": "Pulau Pinang"
    },
    {
        "Postcode": "14100",
        "Location": "Kampung Tengah Simpang Ampat",
        "Post_Office": "Simpang Ampat",
        "State": "Pulau Pinang"
    },
    {
        "Postcode": "14100",
        "Location": "Kampung Tiga Kongsi",
        "Post_Office": "Simpang Ampat",
        "State": "Pulau Pinang"
    },
    {
        "Postcode": "14100",
        "Location": "Kampung Tok Kangar",
        "Post_Office": "Simpang Ampat",
        "State": "Pulau Pinang"
    },
    {
        "Postcode": "14100",
        "Location": "Kampung Tok Suboh",
        "Post_Office": "Simpang Ampat",
        "State": "Pulau Pinang"
    },
    {
        "Postcode": "14100",
        "Location": "Kampung Tongkang",
        "Post_Office": "Simpang Ampat",
        "State": "Pulau Pinang"
    },
    {
        "Postcode": "14100",
        "Location": "Kampung Ulu Chempedak",
        "Post_Office": "Simpang Ampat",
        "State": "Pulau Pinang"
    },
    {
        "Postcode": "14100",
        "Location": "Kawasan Perindustrian Asas Murni",
        "Post_Office": "Simpang Ampat",
        "State": "Pulau Pinang"
    },
    {
        "Postcode": "14100",
        "Location": "Kawasan Perindustrian Iks",
        "Post_Office": "Simpang Ampat",
        "State": "Pulau Pinang"
    },
    {
        "Postcode": "14100",
        "Location": "Kawasan Perindustrian Ringan Binajaya",
        "Post_Office": "Simpang Ampat",
        "State": "Pulau Pinang"
    },
    {
        "Postcode": "14100",
        "Location": "Kawasan Perindustrian Usahajaya",
        "Post_Office": "Simpang Ampat",
        "State": "Pulau Pinang"
    },
    {
        "Postcode": "14100",
        "Location": "Kawasan Perniagaan Asas Murni",
        "Post_Office": "Simpang Ampat",
        "State": "Pulau Pinang"
    },
    {
        "Postcode": "14100",
        "Location": "Kuala Juru",
        "Post_Office": "Simpang Ampat",
        "State": "Pulau Pinang"
    },
    {
        "Postcode": "14100",
        "Location": "Kuala Tasek",
        "Post_Office": "Simpang Ampat",
        "State": "Pulau Pinang"
    },
    {
        "Postcode": "14100",
        "Location": "Ladang Eng Lee",
        "Post_Office": "Simpang Ampat",
        "State": "Pulau Pinang"
    },
    {
        "Postcode": "14100",
        "Location": "Ladang Juru",
        "Post_Office": "Simpang Ampat",
        "State": "Pulau Pinang"
    },
    {
        "Postcode": "14100",
        "Location": "Lebuh Perwira 2",
        "Post_Office": "Simpang Ampat",
        "State": "Pulau Pinang"
    },
    {
        "Postcode": "14100",
        "Location": "Lengkuk Perwira",
        "Post_Office": "Simpang Ampat",
        "State": "Pulau Pinang"
    },
    {
        "Postcode": "14100",
        "Location": "Lorong Asasjaya",
        "Post_Office": "Simpang Ampat",
        "State": "Pulau Pinang"
    },
    {
        "Postcode": "14100",
        "Location": "Lorong Binajaya",
        "Post_Office": "Simpang Ampat",
        "State": "Pulau Pinang"
    },
    {
        "Postcode": "14100",
        "Location": "Lorong Idaman 1",
        "Post_Office": "Simpang Ampat",
        "State": "Pulau Pinang"
    },
    {
        "Postcode": "14100",
        "Location": "Lorong Iks",
        "Post_Office": "Simpang Ampat",
        "State": "Pulau Pinang"
    },
    {
        "Postcode": "14100",
        "Location": "Lorong Industri Ringan",
        "Post_Office": "Simpang Ampat",
        "State": "Pulau Pinang"
    },
    {
        "Postcode": "14100",
        "Location": "Lorong Markisa",
        "Post_Office": "Simpang Ampat",
        "State": "Pulau Pinang"
    },
    {
        "Postcode": "14100",
        "Location": "Lorong Mengkudu 3/1",
        "Post_Office": "Simpang Ampat",
        "State": "Pulau Pinang"
    },
    {
        "Postcode": "14100",
        "Location": "Lorong Merak Jaya",
        "Post_Office": "Simpang Ampat",
        "State": "Pulau Pinang"
    },
    {
        "Postcode": "14100",
        "Location": "Lorong Perindustrian Ringan Permatang Tinggi",
        "Post_Office": "Simpang Ampat",
        "State": "Pulau Pinang"
    },
    {
        "Postcode": "14100",
        "Location": "Lorong Perusahaan Bukit Minyak",
        "Post_Office": "Simpang Ampat",
        "State": "Pulau Pinang"
    },
    {
        "Postcode": "14100",
        "Location": "Lorong Sentul Jaya",
        "Post_Office": "Simpang Ampat",
        "State": "Pulau Pinang"
    },
    {
        "Postcode": "14100",
        "Location": "Lorong Seri Tambun",
        "Post_Office": "Simpang Ampat",
        "State": "Pulau Pinang"
    },
    {
        "Postcode": "14100",
        "Location": "Lorong Seri Tambun 3",
        "Post_Office": "Simpang Ampat",
        "State": "Pulau Pinang"
    },
    {
        "Postcode": "14100",
        "Location": "Lorong Sukun",
        "Post_Office": "Simpang Ampat",
        "State": "Pulau Pinang"
    },
    {
        "Postcode": "14100",
        "Location": "Lorong Tempua",
        "Post_Office": "Simpang Ampat",
        "State": "Pulau Pinang"
    },
    {
        "Postcode": "14100",
        "Location": "Lorong Usahajaya",
        "Post_Office": "Simpang Ampat",
        "State": "Pulau Pinang"
    },
    {
        "Postcode": "14100",
        "Location": "Medan Perwira",
        "Post_Office": "Simpang Ampat",
        "State": "Pulau Pinang"
    },
    {
        "Postcode": "14100",
        "Location": "Pangsapuri Perwira Indah",
        "Post_Office": "Simpang Ampat",
        "State": "Pulau Pinang"
    },
    {
        "Postcode": "14100",
        "Location": "Pasar Jalan Besar",
        "Post_Office": "Simpang Ampat",
        "State": "Pulau Pinang"
    },
    {
        "Postcode": "14100",
        "Location": "Pathau",
        "Post_Office": "Simpang Ampat",
        "State": "Pulau Pinang"
    },
    {
        "Postcode": "14100",
        "Location": "Pathau Bukit Tambun",
        "Post_Office": "Simpang Ampat",
        "State": "Pulau Pinang"
    },
    {
        "Postcode": "14100",
        "Location": "Paya Mahang",
        "Post_Office": "Simpang Ampat",
        "State": "Pulau Pinang"
    },
    {
        "Postcode": "14100",
        "Location": "Permatang Kunyit",
        "Post_Office": "Simpang Ampat",
        "State": "Pulau Pinang"
    },
    {
        "Postcode": "14100",
        "Location": "Permatang Kunyit Bukit Tambun",
        "Post_Office": "Simpang Ampat",
        "State": "Pulau Pinang"
    },
    {
        "Postcode": "14100",
        "Location": "Permatang Sena",
        "Post_Office": "Simpang Ampat",
        "State": "Pulau Pinang"
    },
    {
        "Postcode": "14100",
        "Location": "Permatang Tinggi",
        "Post_Office": "Simpang Ampat",
        "State": "Pulau Pinang"
    },
    {
        "Postcode": "14100",
        "Location": "Pokok Asam Permatang Tinggi",
        "Post_Office": "Simpang Ampat",
        "State": "Pulau Pinang"
    },
    {
        "Postcode": "14100",
        "Location": "Pulau Aman",
        "Post_Office": "Simpang Ampat",
        "State": "Pulau Pinang"
    },
    {
        "Postcode": "14100",
        "Location": "Pusat Penjaja Taman Seri Delima",
        "Post_Office": "Simpang Ampat",
        "State": "Pulau Pinang"
    },
    {
        "Postcode": "14100",
        "Location": "Pusat Perniagaan Juru Jaya",
        "Post_Office": "Simpang Ampat",
        "State": "Pulau Pinang"
    },
    {
        "Postcode": "14100",
        "Location": "Simpang Ampat",
        "Post_Office": "Simpang Ampat",
        "State": "Pulau Pinang"
    },
    {
        "Postcode": "14100",
        "Location": "Simpang Juru",
        "Post_Office": "Simpang Ampat",
        "State": "Pulau Pinang"
    },
    {
        "Postcode": "14100",
        "Location": "Solok Kasawari",
        "Post_Office": "Simpang Ampat",
        "State": "Pulau Pinang"
    },
    {
        "Postcode": "14100",
        "Location": "Sungai Semilang",
        "Post_Office": "Simpang Ampat",
        "State": "Pulau Pinang"
    },
    {
        "Postcode": "14100",
        "Location": "Taman Amra",
        "Post_Office": "Simpang Ampat",
        "State": "Pulau Pinang"
    },
    {
        "Postcode": "14100",
        "Location": "Taman Asas Jaya",
        "Post_Office": "Simpang Ampat",
        "State": "Pulau Pinang"
    },
    {
        "Postcode": "14100",
        "Location": "Taman Asas Murni",
        "Post_Office": "Simpang Ampat",
        "State": "Pulau Pinang"
    },
    {
        "Postcode": "14100",
        "Location": "Taman Bukit Juru",
        "Post_Office": "Simpang Ampat",
        "State": "Pulau Pinang"
    },
    {
        "Postcode": "14100",
        "Location": "Taman Bukit Minyak",
        "Post_Office": "Simpang Ampat",
        "State": "Pulau Pinang"
    },
    {
        "Postcode": "14100",
        "Location": "Taman Bukit Tambun",
        "Post_Office": "Simpang Ampat",
        "State": "Pulau Pinang"
    },
    {
        "Postcode": "14100",
        "Location": "Taman Callissia",
        "Post_Office": "Simpang Ampat",
        "State": "Pulau Pinang"
    },
    {
        "Postcode": "14100",
        "Location": "Taman Cegar",
        "Post_Office": "Simpang Ampat",
        "State": "Pulau Pinang"
    },
    {
        "Postcode": "14100",
        "Location": "Taman Cempaka",
        "Post_Office": "Simpang Ampat",
        "State": "Pulau Pinang"
    },
    {
        "Postcode": "14100",
        "Location": "Taman Cendana",
        "Post_Office": "Simpang Ampat",
        "State": "Pulau Pinang"
    },
    {
        "Postcode": "14100",
        "Location": "Taman Duku",
        "Post_Office": "Simpang Ampat",
        "State": "Pulau Pinang"
    },
    {
        "Postcode": "14100",
        "Location": "Taman Idaman",
        "Post_Office": "Simpang Ampat",
        "State": "Pulau Pinang"
    },
    {
        "Postcode": "14100",
        "Location": "Taman Iks Bukit Minyak",
        "Post_Office": "Simpang Ampat",
        "State": "Pulau Pinang"
    },
    {
        "Postcode": "14100",
        "Location": "Taman Industri Beringin",
        "Post_Office": "Simpang Ampat",
        "State": "Pulau Pinang"
    },
    {
        "Postcode": "14100",
        "Location": "Taman Industri Juru",
        "Post_Office": "Simpang Ampat",
        "State": "Pulau Pinang"
    },
    {
        "Postcode": "14100",
        "Location": "Taman Jentayu",
        "Post_Office": "Simpang Ampat",
        "State": "Pulau Pinang"
    },
    {
        "Postcode": "14100",
        "Location": "Taman Jentayu Indah",
        "Post_Office": "Simpang Ampat",
        "State": "Pulau Pinang"
    },
    {
        "Postcode": "14100",
        "Location": "Taman Juru Jaya",
        "Post_Office": "Simpang Ampat",
        "State": "Pulau Pinang"
    },
    {
        "Postcode": "14100",
        "Location": "Taman Kasawari",
        "Post_Office": "Simpang Ampat",
        "State": "Pulau Pinang"
    },
    {
        "Postcode": "14100",
        "Location": "Taman Kendi",
        "Post_Office": "Simpang Ampat",
        "State": "Pulau Pinang"
    },
    {
        "Postcode": "14100",
        "Location": "Taman Keruing",
        "Post_Office": "Simpang Ampat",
        "State": "Pulau Pinang"
    },
    {
        "Postcode": "14100",
        "Location": "Taman Mangga",
        "Post_Office": "Simpang Ampat",
        "State": "Pulau Pinang"
    },
    {
        "Postcode": "14100",
        "Location": "Taman Markisah",
        "Post_Office": "Simpang Ampat",
        "State": "Pulau Pinang"
    },
    {
        "Postcode": "14100",
        "Location": "Taman Mengkudu",
        "Post_Office": "Simpang Ampat",
        "State": "Pulau Pinang"
    },
    {
        "Postcode": "14100",
        "Location": "Taman Merak Jaya",
        "Post_Office": "Simpang Ampat",
        "State": "Pulau Pinang"
    },
    {
        "Postcode": "14100",
        "Location": "Taman Murai Jaya",
        "Post_Office": "Simpang Ampat",
        "State": "Pulau Pinang"
    },
    {
        "Postcode": "14100",
        "Location": "Taman Perindustrian Asas Jaya Bukit Minyak",
        "Post_Office": "Simpang Ampat",
        "State": "Pulau Pinang"
    },
    {
        "Postcode": "14100",
        "Location": "Taman Perindustrian Bukit Minyak",
        "Post_Office": "Simpang Ampat",
        "State": "Pulau Pinang"
    },
    {
        "Postcode": "14100",
        "Location": "Taman Perindustrian Ringan Beringin",
        "Post_Office": "Simpang Ampat",
        "State": "Pulau Pinang"
    },
    {
        "Postcode": "14100",
        "Location": "Taman Perindustrian Ringan Permatang Tinggi",
        "Post_Office": "Simpang Ampat",
        "State": "Pulau Pinang"
    },
    {
        "Postcode": "14100",
        "Location": "Taman Permatang Tinggi Indah",
        "Post_Office": "Simpang Ampat",
        "State": "Pulau Pinang"
    },
    {
        "Postcode": "14100",
        "Location": "Taman Perwira",
        "Post_Office": "Simpang Ampat",
        "State": "Pulau Pinang"
    },
    {
        "Postcode": "14100",
        "Location": "Taman Perwira Indah",
        "Post_Office": "Simpang Ampat",
        "State": "Pulau Pinang"
    },
    {
        "Postcode": "14100",
        "Location": "Taman Pulasan",
        "Post_Office": "Simpang Ampat",
        "State": "Pulau Pinang"
    },
    {
        "Postcode": "14100",
        "Location": "Taman Sentul",
        "Post_Office": "Simpang Ampat",
        "State": "Pulau Pinang"
    },
    {
        "Postcode": "14100",
        "Location": "Taman Sentul Jaya",
        "Post_Office": "Simpang Ampat",
        "State": "Pulau Pinang"
    },
    {
        "Postcode": "14100",
        "Location": "Taman Seri Bayan",
        "Post_Office": "Simpang Ampat",
        "State": "Pulau Pinang"
    },
    {
        "Postcode": "14100",
        "Location": "Taman Seri Cendana",
        "Post_Office": "Simpang Ampat",
        "State": "Pulau Pinang"
    },
    {
        "Postcode": "14100",
        "Location": "Taman Seri Delima",
        "Post_Office": "Simpang Ampat",
        "State": "Pulau Pinang"
    },
    {
        "Postcode": "14100",
        "Location": "Taman Seri Juru",
        "Post_Office": "Simpang Ampat",
        "State": "Pulau Pinang"
    },
    {
        "Postcode": "14100",
        "Location": "Taman Seri Tambun",
        "Post_Office": "Simpang Ampat",
        "State": "Pulau Pinang"
    },
    {
        "Postcode": "14100",
        "Location": "Taman Seruling Mas",
        "Post_Office": "Simpang Ampat",
        "State": "Pulau Pinang"
    },
    {
        "Postcode": "14100",
        "Location": "Taman Simpang Ampat",
        "Post_Office": "Simpang Ampat",
        "State": "Pulau Pinang"
    },
    {
        "Postcode": "14100",
        "Location": "Taman Sukun",
        "Post_Office": "Simpang Ampat",
        "State": "Pulau Pinang"
    },
    {
        "Postcode": "14100",
        "Location": "Taman Sukun Indah",
        "Post_Office": "Simpang Ampat",
        "State": "Pulau Pinang"
    },
    {
        "Postcode": "14100",
        "Location": "Taman Tambun Indah",
        "Post_Office": "Simpang Ampat",
        "State": "Pulau Pinang"
    },
    {
        "Postcode": "14100",
        "Location": "Taman Tambun Jaya",
        "Post_Office": "Simpang Ampat",
        "State": "Pulau Pinang"
    },
    {
        "Postcode": "14100",
        "Location": "Taman Tangling",
        "Post_Office": "Simpang Ampat",
        "State": "Pulau Pinang"
    },
    {
        "Postcode": "14100",
        "Location": "Taman Tasek Permai",
        "Post_Office": "Simpang Ampat",
        "State": "Pulau Pinang"
    },
    {
        "Postcode": "14100",
        "Location": "Taman Tiong Mas",
        "Post_Office": "Simpang Ampat",
        "State": "Pulau Pinang"
    },
    {
        "Postcode": "14100",
        "Location": "Taman Usaha",
        "Post_Office": "Simpang Ampat",
        "State": "Pulau Pinang"
    },
    {
        "Postcode": "14100",
        "Location": "Taman Usaha Jaya",
        "Post_Office": "Simpang Ampat",
        "State": "Pulau Pinang"
    },
    {
        "Postcode": "14100",
        "Location": "Tambun  Indah",
        "Post_Office": "Simpang Ampat",
        "State": "Pulau Pinang"
    },
    {
        "Postcode": "14100",
        "Location": "Tambun Indah",
        "Post_Office": "Simpang Ampat",
        "State": "Pulau Pinang"
    },
    {
        "Postcode": "14100",
        "Location": "Tingkat Nuri",
        "Post_Office": "Simpang Ampat",
        "State": "Pulau Pinang"
    },
    {
        "Postcode": "14100",
        "Location": "Ulu Chempedak",
        "Post_Office": "Simpang Ampat",
        "State": "Pulau Pinang"
    },
    {
        "Postcode": "14100",
        "Location": "Bukit Kecil",
        "Post_Office": "Simpang Ampat",
        "State": "Pulau Pinang"
    },
    {
        "Postcode": "14100",
        "Location": "Bukit Tambun",
        "Post_Office": "Simpang Ampat",
        "State": "Pulau Pinang"
    },
    {
        "Postcode": "14100",
        "Location": "Jalan Delima",
        "Post_Office": "Simpang Ampat",
        "State": "Pulau Pinang"
    },
    {
        "Postcode": "14100",
        "Location": "Jalan Gereja",
        "Post_Office": "Simpang Ampat",
        "State": "Pulau Pinang"
    },
    {
        "Postcode": "14100",
        "Location": "Jalan Nuri",
        "Post_Office": "Simpang Ampat",
        "State": "Pulau Pinang"
    },
    {
        "Postcode": "14100",
        "Location": "Kampung Manggis",
        "Post_Office": "Simpang Ampat",
        "State": "Pulau Pinang"
    },
    {
        "Postcode": "14100",
        "Location": "Lintang Keruing 1",
        "Post_Office": "Simpang Ampat",
        "State": "Pulau Pinang"
    },
    {
        "Postcode": "14100",
        "Location": "Lorong Cendana 5",
        "Post_Office": "Simpang Ampat",
        "State": "Pulau Pinang"
    },
    {
        "Postcode": "14100",
        "Location": "Lorong Delima 3",
        "Post_Office": "Simpang Ampat",
        "State": "Pulau Pinang"
    },
    {
        "Postcode": "14100",
        "Location": "Lorong Delima 4",
        "Post_Office": "Simpang Ampat",
        "State": "Pulau Pinang"
    },
    {
        "Postcode": "14100",
        "Location": "Lorong Tempua 2",
        "Post_Office": "Simpang Ampat",
        "State": "Pulau Pinang"
    },
    {
        "Postcode": "14100",
        "Location": "Lorong Teratai 1",
        "Post_Office": "Simpang Ampat",
        "State": "Pulau Pinang"
    },
    {
        "Postcode": "14100",
        "Location": "Lorong Teratai 2",
        "Post_Office": "Simpang Ampat",
        "State": "Pulau Pinang"
    },
    {
        "Postcode": "14100",
        "Location": "Lorong Teratai 4",
        "Post_Office": "Simpang Ampat",
        "State": "Pulau Pinang"
    },
    {
        "Postcode": "14100",
        "Location": "Lorong Teratai 5",
        "Post_Office": "Simpang Ampat",
        "State": "Pulau Pinang"
    },
    {
        "Postcode": "14100",
        "Location": "Solok Nuri",
        "Post_Office": "Simpang Ampat",
        "State": "Pulau Pinang"
    },
    {
        "Postcode": "14100",
        "Location": "Taman Mas",
        "Post_Office": "Simpang Ampat",
        "State": "Pulau Pinang"
    },
    {
        "Postcode": "14100",
        "Location": "Taman Pinang",
        "Post_Office": "Simpang Ampat",
        "State": "Pulau Pinang"
    },
    {
        "Postcode": "14100",
        "Location": "Taman Tasek Mutiara",
        "Post_Office": "Simpang Ampat",
        "State": "Pulau Pinang"
    },
    {
        "Postcode": "14100",
        "Location": "Taman Tempua",
        "Post_Office": "Simpang Ampat",
        "State": "Pulau Pinang"
    },
    {
        "Postcode": "14100",
        "Location": "Lorong Markisa 2",
        "Post_Office": "Simpang Ampat",
        "State": "Pulau Pinang"
    },
    {
        "Postcode": "14100",
        "Location": "Lorong Markisa 20",
        "Post_Office": "Simpang Ampat",
        "State": "Pulau Pinang"
    },
    {
        "Postcode": "14100",
        "Location": "Lorong Markisa 21",
        "Post_Office": "Simpang Ampat",
        "State": "Pulau Pinang"
    },
    {
        "Postcode": "14100",
        "Location": "Lorong Markisa 22",
        "Post_Office": "Simpang Ampat",
        "State": "Pulau Pinang"
    },
    {
        "Postcode": "14100",
        "Location": "Lorong Markisa 23",
        "Post_Office": "Simpang Ampat",
        "State": "Pulau Pinang"
    },
    {
        "Postcode": "14100",
        "Location": "Lorong Markisa 24",
        "Post_Office": "Simpang Ampat",
        "State": "Pulau Pinang"
    },
    {
        "Postcode": "14100",
        "Location": "Lorong Markisa 2A",
        "Post_Office": "Simpang Ampat",
        "State": "Pulau Pinang"
    },
    {
        "Postcode": "14100",
        "Location": "Lorong Markisa 3",
        "Post_Office": "Simpang Ampat",
        "State": "Pulau Pinang"
    },
    {
        "Postcode": "14100",
        "Location": "Lorong Markisa 3A",
        "Post_Office": "Simpang Ampat",
        "State": "Pulau Pinang"
    },
    {
        "Postcode": "14100",
        "Location": "Lorong Markisa 4",
        "Post_Office": "Simpang Ampat",
        "State": "Pulau Pinang"
    },
    {
        "Postcode": "14100",
        "Location": "Lorong Markisa 4A",
        "Post_Office": "Simpang Ampat",
        "State": "Pulau Pinang"
    },
    {
        "Postcode": "14100",
        "Location": "Lorong Markisa 5",
        "Post_Office": "Simpang Ampat",
        "State": "Pulau Pinang"
    },
    {
        "Postcode": "14100",
        "Location": "Lorong Markisa 5A",
        "Post_Office": "Simpang Ampat",
        "State": "Pulau Pinang"
    },
    {
        "Postcode": "14100",
        "Location": "Lorong Markisa 6",
        "Post_Office": "Simpang Ampat",
        "State": "Pulau Pinang"
    },
    {
        "Postcode": "14100",
        "Location": "Lorong Markisa 6A",
        "Post_Office": "Simpang Ampat",
        "State": "Pulau Pinang"
    },
    {
        "Postcode": "14100",
        "Location": "Lorong Markisa 7",
        "Post_Office": "Simpang Ampat",
        "State": "Pulau Pinang"
    },
    {
        "Postcode": "14100",
        "Location": "Lorong Markisa 7A",
        "Post_Office": "Simpang Ampat",
        "State": "Pulau Pinang"
    },
    {
        "Postcode": "14100",
        "Location": "Lorong Markisa 8",
        "Post_Office": "Simpang Ampat",
        "State": "Pulau Pinang"
    },
    {
        "Postcode": "14100",
        "Location": "Lorong Markisa 8A",
        "Post_Office": "Simpang Ampat",
        "State": "Pulau Pinang"
    },
    {
        "Postcode": "14100",
        "Location": "Lorong Markisa 9",
        "Post_Office": "Simpang Ampat",
        "State": "Pulau Pinang"
    },
    {
        "Postcode": "14100",
        "Location": "Lorong Markisa 9A",
        "Post_Office": "Simpang Ampat",
        "State": "Pulau Pinang"
    },
    {
        "Postcode": "14100",
        "Location": "Lorong Mengkudu 1",
        "Post_Office": "Simpang Ampat",
        "State": "Pulau Pinang"
    },
    {
        "Postcode": "14100",
        "Location": "Lorong Mengkudu 2",
        "Post_Office": "Simpang Ampat",
        "State": "Pulau Pinang"
    },
    {
        "Postcode": "14100",
        "Location": "Lorong Mengkudu 3",
        "Post_Office": "Simpang Ampat",
        "State": "Pulau Pinang"
    },
    {
        "Postcode": "14100",
        "Location": "Lorong Merak 10",
        "Post_Office": "Simpang Ampat",
        "State": "Pulau Pinang"
    },
    {
        "Postcode": "14100",
        "Location": "Lorong Merak 11",
        "Post_Office": "Simpang Ampat",
        "State": "Pulau Pinang"
    },
    {
        "Postcode": "14100",
        "Location": "Lorong Merak 12",
        "Post_Office": "Simpang Ampat",
        "State": "Pulau Pinang"
    },
    {
        "Postcode": "14100",
        "Location": "Lorong Merak 13",
        "Post_Office": "Simpang Ampat",
        "State": "Pulau Pinang"
    },
    {
        "Postcode": "14100",
        "Location": "Lorong Merak 14",
        "Post_Office": "Simpang Ampat",
        "State": "Pulau Pinang"
    },
    {
        "Postcode": "14100",
        "Location": "Lorong Merak 15",
        "Post_Office": "Simpang Ampat",
        "State": "Pulau Pinang"
    },
    {
        "Postcode": "14100",
        "Location": "Lorong Merak 16",
        "Post_Office": "Simpang Ampat",
        "State": "Pulau Pinang"
    },
    {
        "Postcode": "14100",
        "Location": "Lorong Merak 17",
        "Post_Office": "Simpang Ampat",
        "State": "Pulau Pinang"
    },
    {
        "Postcode": "14100",
        "Location": "Lorong Merak 18",
        "Post_Office": "Simpang Ampat",
        "State": "Pulau Pinang"
    },
    {
        "Postcode": "14100",
        "Location": "Lorong Merak 19",
        "Post_Office": "Simpang Ampat",
        "State": "Pulau Pinang"
    },
    {
        "Postcode": "14100",
        "Location": "Lorong Merak 20",
        "Post_Office": "Simpang Ampat",
        "State": "Pulau Pinang"
    },
    {
        "Postcode": "14100",
        "Location": "Lorong Merak 21",
        "Post_Office": "Simpang Ampat",
        "State": "Pulau Pinang"
    },
    {
        "Postcode": "14100",
        "Location": "Lorong Merak 22",
        "Post_Office": "Simpang Ampat",
        "State": "Pulau Pinang"
    },
    {
        "Postcode": "14100",
        "Location": "Lorong Merak 23",
        "Post_Office": "Simpang Ampat",
        "State": "Pulau Pinang"
    },
    {
        "Postcode": "14100",
        "Location": "Lorong Merak 24",
        "Post_Office": "Simpang Ampat",
        "State": "Pulau Pinang"
    },
    {
        "Postcode": "14100",
        "Location": "Lorong Merak 25",
        "Post_Office": "Simpang Ampat",
        "State": "Pulau Pinang"
    },
    {
        "Postcode": "14100",
        "Location": "Lorong Merak 26",
        "Post_Office": "Simpang Ampat",
        "State": "Pulau Pinang"
    },
    {
        "Postcode": "14100",
        "Location": "Lorong Merak 27",
        "Post_Office": "Simpang Ampat",
        "State": "Pulau Pinang"
    },
    {
        "Postcode": "14100",
        "Location": "Lorong Merak 28",
        "Post_Office": "Simpang Ampat",
        "State": "Pulau Pinang"
    },
    {
        "Postcode": "14100",
        "Location": "Lorong Merak 29",
        "Post_Office": "Simpang Ampat",
        "State": "Pulau Pinang"
    },
    {
        "Postcode": "14100",
        "Location": "Lorong Merak 3",
        "Post_Office": "Simpang Ampat",
        "State": "Pulau Pinang"
    },
    {
        "Postcode": "14100",
        "Location": "Lorong Merak 30",
        "Post_Office": "Simpang Ampat",
        "State": "Pulau Pinang"
    },
    {
        "Postcode": "14100",
        "Location": "Lorong Merak 31",
        "Post_Office": "Simpang Ampat",
        "State": "Pulau Pinang"
    },
    {
        "Postcode": "14100",
        "Location": "Lorong Merak 32",
        "Post_Office": "Simpang Ampat",
        "State": "Pulau Pinang"
    },
    {
        "Postcode": "14100",
        "Location": "Lorong Merak 33",
        "Post_Office": "Simpang Ampat",
        "State": "Pulau Pinang"
    },
    {
        "Postcode": "14100",
        "Location": "Lorong Merak 34",
        "Post_Office": "Simpang Ampat",
        "State": "Pulau Pinang"
    },
    {
        "Postcode": "14100",
        "Location": "Lorong Merak 35",
        "Post_Office": "Simpang Ampat",
        "State": "Pulau Pinang"
    },
    {
        "Postcode": "14100",
        "Location": "Lorong Merak 36",
        "Post_Office": "Simpang Ampat",
        "State": "Pulau Pinang"
    },
    {
        "Postcode": "14100",
        "Location": "Lorong Merak 37",
        "Post_Office": "Simpang Ampat",
        "State": "Pulau Pinang"
    },
    {
        "Postcode": "14100",
        "Location": "Lorong Merak 38",
        "Post_Office": "Simpang Ampat",
        "State": "Pulau Pinang"
    },
    {
        "Postcode": "14100",
        "Location": "Lorong Merak 39",
        "Post_Office": "Simpang Ampat",
        "State": "Pulau Pinang"
    },
    {
        "Postcode": "14100",
        "Location": "Lorong Merak 4",
        "Post_Office": "Simpang Ampat",
        "State": "Pulau Pinang"
    },
    {
        "Postcode": "14100",
        "Location": "Lorong Merak 40",
        "Post_Office": "Simpang Ampat",
        "State": "Pulau Pinang"
    },
    {
        "Postcode": "14100",
        "Location": "Lorong Merak 41",
        "Post_Office": "Simpang Ampat",
        "State": "Pulau Pinang"
    },
    {
        "Postcode": "14100",
        "Location": "Lorong Merak 42",
        "Post_Office": "Simpang Ampat",
        "State": "Pulau Pinang"
    },
    {
        "Postcode": "14100",
        "Location": "Lorong Merak 43",
        "Post_Office": "Simpang Ampat",
        "State": "Pulau Pinang"
    },
    {
        "Postcode": "14100",
        "Location": "Lorong Merak 44",
        "Post_Office": "Simpang Ampat",
        "State": "Pulau Pinang"
    },
    {
        "Postcode": "14100",
        "Location": "Lorong Merak 45",
        "Post_Office": "Simpang Ampat",
        "State": "Pulau Pinang"
    },
    {
        "Postcode": "14100",
        "Location": "Lorong Merak 46",
        "Post_Office": "Simpang Ampat",
        "State": "Pulau Pinang"
    },
    {
        "Postcode": "14100",
        "Location": "Lorong Merak 47",
        "Post_Office": "Simpang Ampat",
        "State": "Pulau Pinang"
    },
    {
        "Postcode": "14100",
        "Location": "Lorong Merak 48",
        "Post_Office": "Simpang Ampat",
        "State": "Pulau Pinang"
    },
    {
        "Postcode": "14100",
        "Location": "Lorong Merak 49",
        "Post_Office": "Simpang Ampat",
        "State": "Pulau Pinang"
    },
    {
        "Postcode": "14100",
        "Location": "Lorong Merak 5",
        "Post_Office": "Simpang Ampat",
        "State": "Pulau Pinang"
    },
    {
        "Postcode": "14100",
        "Location": "Lorong Merak 50",
        "Post_Office": "Simpang Ampat",
        "State": "Pulau Pinang"
    },
    {
        "Postcode": "14100",
        "Location": "Lorong Merak 51",
        "Post_Office": "Simpang Ampat",
        "State": "Pulau Pinang"
    },
    {
        "Postcode": "14100",
        "Location": "Lorong Merak 52",
        "Post_Office": "Simpang Ampat",
        "State": "Pulau Pinang"
    },
    {
        "Postcode": "14100",
        "Location": "Lorong Merak 53",
        "Post_Office": "Simpang Ampat",
        "State": "Pulau Pinang"
    },
    {
        "Postcode": "14100",
        "Location": "Lorong Merak 54",
        "Post_Office": "Simpang Ampat",
        "State": "Pulau Pinang"
    },
    {
        "Postcode": "14100",
        "Location": "Lorong Merak 55",
        "Post_Office": "Simpang Ampat",
        "State": "Pulau Pinang"
    },
    {
        "Postcode": "14100",
        "Location": "Lorong Merak 56",
        "Post_Office": "Simpang Ampat",
        "State": "Pulau Pinang"
    },
    {
        "Postcode": "14100",
        "Location": "Lorong Merak 57",
        "Post_Office": "Simpang Ampat",
        "State": "Pulau Pinang"
    },
    {
        "Postcode": "14100",
        "Location": "Lorong Merak 58",
        "Post_Office": "Simpang Ampat",
        "State": "Pulau Pinang"
    },
    {
        "Postcode": "14100",
        "Location": "Lorong Merak 59",
        "Post_Office": "Simpang Ampat",
        "State": "Pulau Pinang"
    },
    {
        "Postcode": "14100",
        "Location": "Lorong Merak 6",
        "Post_Office": "Simpang Ampat",
        "State": "Pulau Pinang"
    },
    {
        "Postcode": "14100",
        "Location": "Lorong Merak 60",
        "Post_Office": "Simpang Ampat",
        "State": "Pulau Pinang"
    },
    {
        "Postcode": "14100",
        "Location": "Lorong Merak 61",
        "Post_Office": "Simpang Ampat",
        "State": "Pulau Pinang"
    },
    {
        "Postcode": "14100",
        "Location": "Lorong Merak 62",
        "Post_Office": "Simpang Ampat",
        "State": "Pulau Pinang"
    },
    {
        "Postcode": "14100",
        "Location": "Lorong Merak 63",
        "Post_Office": "Simpang Ampat",
        "State": "Pulau Pinang"
    },
    {
        "Postcode": "14100",
        "Location": "Lorong Merak 64",
        "Post_Office": "Simpang Ampat",
        "State": "Pulau Pinang"
    },
    {
        "Postcode": "14100",
        "Location": "Lorong Merak 7",
        "Post_Office": "Simpang Ampat",
        "State": "Pulau Pinang"
    },
    {
        "Postcode": "14100",
        "Location": "Lorong Merak 8",
        "Post_Office": "Simpang Ampat",
        "State": "Pulau Pinang"
    },
    {
        "Postcode": "14100",
        "Location": "Lorong Merak 9",
        "Post_Office": "Simpang Ampat",
        "State": "Pulau Pinang"
    },
    {
        "Postcode": "14100",
        "Location": "Lorong Merak Jaya 1",
        "Post_Office": "Simpang Ampat",
        "State": "Pulau Pinang"
    },
    {
        "Postcode": "14100",
        "Location": "Lorong Merak Jaya 2",
        "Post_Office": "Simpang Ampat",
        "State": "Pulau Pinang"
    },
    {
        "Postcode": "14100",
        "Location": "Lorong Merak Jaya 3",
        "Post_Office": "Simpang Ampat",
        "State": "Pulau Pinang"
    },
    {
        "Postcode": "14100",
        "Location": "Lorong Merak Jaya 4",
        "Post_Office": "Simpang Ampat",
        "State": "Pulau Pinang"
    },
    {
        "Postcode": "14100",
        "Location": "Lorong Merak Jaya 5",
        "Post_Office": "Simpang Ampat",
        "State": "Pulau Pinang"
    },
    {
        "Postcode": "14100",
        "Location": "Lorong Merak Jaya 6",
        "Post_Office": "Simpang Ampat",
        "State": "Pulau Pinang"
    },
    {
        "Postcode": "14100",
        "Location": "Lorong Merak Jaya 7",
        "Post_Office": "Simpang Ampat",
        "State": "Pulau Pinang"
    },
    {
        "Postcode": "14100",
        "Location": "Lorong Merak Jaya 8",
        "Post_Office": "Simpang Ampat",
        "State": "Pulau Pinang"
    },
    {
        "Postcode": "14100",
        "Location": "Lorong Merak Jaya 9",
        "Post_Office": "Simpang Ampat",
        "State": "Pulau Pinang"
    },
    {
        "Postcode": "14100",
        "Location": "Lorong Murai Jaya 4",
        "Post_Office": "Simpang Ampat",
        "State": "Pulau Pinang"
    },
    {
        "Postcode": "14100",
        "Location": "Lorong Murai Jaya 5",
        "Post_Office": "Simpang Ampat",
        "State": "Pulau Pinang"
    },
    {
        "Postcode": "14100",
        "Location": "Lorong Murai Jaya 6",
        "Post_Office": "Simpang Ampat",
        "State": "Pulau Pinang"
    },
    {
        "Postcode": "14100",
        "Location": "Lorong Murai Jaya 7",
        "Post_Office": "Simpang Ampat",
        "State": "Pulau Pinang"
    },
    {
        "Postcode": "14100",
        "Location": "Lorong Murai Jaya 8",
        "Post_Office": "Simpang Ampat",
        "State": "Pulau Pinang"
    },
    {
        "Postcode": "14100",
        "Location": "Lorong Nuri Indah 1",
        "Post_Office": "Simpang Ampat",
        "State": "Pulau Pinang"
    },
    {
        "Postcode": "14100",
        "Location": "Lorong Nuri Indah 2",
        "Post_Office": "Simpang Ampat",
        "State": "Pulau Pinang"
    },
    {
        "Postcode": "14100",
        "Location": "Lorong Nuri Indah 3",
        "Post_Office": "Simpang Ampat",
        "State": "Pulau Pinang"
    },
    {
        "Postcode": "14100",
        "Location": "Lorong Nuri Indah 4",
        "Post_Office": "Simpang Ampat",
        "State": "Pulau Pinang"
    },
    {
        "Postcode": "14100",
        "Location": "Lorong Nuri Indah 5",
        "Post_Office": "Simpang Ampat",
        "State": "Pulau Pinang"
    },
    {
        "Postcode": "14100",
        "Location": "Lorong Pala 1",
        "Post_Office": "Simpang Ampat",
        "State": "Pulau Pinang"
    },
    {
        "Postcode": "14100",
        "Location": "Lorong Pala 10",
        "Post_Office": "Simpang Ampat",
        "State": "Pulau Pinang"
    },
    {
        "Postcode": "14100",
        "Location": "Lorong Pala 11",
        "Post_Office": "Simpang Ampat",
        "State": "Pulau Pinang"
    },
    {
        "Postcode": "14100",
        "Location": "Lorong Pala 12",
        "Post_Office": "Simpang Ampat",
        "State": "Pulau Pinang"
    },
    {
        "Postcode": "14100",
        "Location": "Lorong Pala 13",
        "Post_Office": "Simpang Ampat",
        "State": "Pulau Pinang"
    },
    {
        "Postcode": "14100",
        "Location": "Lorong Pala 14",
        "Post_Office": "Simpang Ampat",
        "State": "Pulau Pinang"
    },
    {
        "Postcode": "14100",
        "Location": "Lorong Pala 2",
        "Post_Office": "Simpang Ampat",
        "State": "Pulau Pinang"
    },
    {
        "Postcode": "14100",
        "Location": "Lorong Pala 3",
        "Post_Office": "Simpang Ampat",
        "State": "Pulau Pinang"
    },
    {
        "Postcode": "14100",
        "Location": "Lorong Pala 4",
        "Post_Office": "Simpang Ampat",
        "State": "Pulau Pinang"
    },
    {
        "Postcode": "14100",
        "Location": "Lorong Pala 5",
        "Post_Office": "Simpang Ampat",
        "State": "Pulau Pinang"
    },
    {
        "Postcode": "14100",
        "Location": "Lorong Pala 6",
        "Post_Office": "Simpang Ampat",
        "State": "Pulau Pinang"
    },
    {
        "Postcode": "14100",
        "Location": "Lorong Pala 7",
        "Post_Office": "Simpang Ampat",
        "State": "Pulau Pinang"
    },
    {
        "Postcode": "14100",
        "Location": "Lorong Pala 8",
        "Post_Office": "Simpang Ampat",
        "State": "Pulau Pinang"
    },
    {
        "Postcode": "14100",
        "Location": "Lorong Pala 9",
        "Post_Office": "Simpang Ampat",
        "State": "Pulau Pinang"
    },
    {
        "Postcode": "14100",
        "Location": "Lorong Perindustrian Ringan Permatang Tinggi 1",
        "Post_Office": "Simpang Ampat",
        "State": "Pulau Pinang"
    },
    {
        "Postcode": "14100",
        "Location": "Lorong Perindustrian Ringan Permatang Tinggi 2",
        "Post_Office": "Simpang Ampat",
        "State": "Pulau Pinang"
    },
    {
        "Postcode": "14100",
        "Location": "Lorong Perindustrian Ringan Permatang Tinggi 3",
        "Post_Office": "Simpang Ampat",
        "State": "Pulau Pinang"
    },
    {
        "Postcode": "14100",
        "Location": "Lorong Perindustrian Ringan Permatang Tinggi 4",
        "Post_Office": "Simpang Ampat",
        "State": "Pulau Pinang"
    },
    {
        "Postcode": "14100",
        "Location": "Lorong Perindustrian Ringan Permatang Tinggi 5",
        "Post_Office": "Simpang Ampat",
        "State": "Pulau Pinang"
    },
    {
        "Postcode": "14100",
        "Location": "Lorong Perindustrian Ringan Permatang Tinggi 6",
        "Post_Office": "Simpang Ampat",
        "State": "Pulau Pinang"
    },
    {
        "Postcode": "14100",
        "Location": "Lorong Perindustrian Ringan Permatang Tinggi 7",
        "Post_Office": "Simpang Ampat",
        "State": "Pulau Pinang"
    },
    {
        "Postcode": "14100",
        "Location": "Lorong Perindustrian Ringan Permatang Tinggi 8",
        "Post_Office": "Simpang Ampat",
        "State": "Pulau Pinang"
    },
    {
        "Postcode": "14100",
        "Location": "Lorong Permatang Tinggi 1",
        "Post_Office": "Simpang Ampat",
        "State": "Pulau Pinang"
    },
    {
        "Postcode": "14100",
        "Location": "Lorong Permatang Tinggi 2",
        "Post_Office": "Simpang Ampat",
        "State": "Pulau Pinang"
    },
    {
        "Postcode": "14100",
        "Location": "Lorong Permatang Tinggi 3",
        "Post_Office": "Simpang Ampat",
        "State": "Pulau Pinang"
    },
    {
        "Postcode": "14100",
        "Location": "Lorong Permatang Tinggi Indah 10",
        "Post_Office": "Simpang Ampat",
        "State": "Pulau Pinang"
    },
    {
        "Postcode": "14100",
        "Location": "Lorong Permatang Tinggi Indah 11",
        "Post_Office": "Simpang Ampat",
        "State": "Pulau Pinang"
    },
    {
        "Postcode": "14100",
        "Location": "Lorong Permatang Tinggi Indah 12",
        "Post_Office": "Simpang Ampat",
        "State": "Pulau Pinang"
    },
    {
        "Postcode": "14100",
        "Location": "Lorong Permatang Tinggi Indah 13",
        "Post_Office": "Simpang Ampat",
        "State": "Pulau Pinang"
    },
    {
        "Postcode": "14100",
        "Location": "Lorong Permatang Tinggi Indah 14",
        "Post_Office": "Simpang Ampat",
        "State": "Pulau Pinang"
    },
    {
        "Postcode": "14100",
        "Location": "Lorong Permatang Tinggi Indah 15",
        "Post_Office": "Simpang Ampat",
        "State": "Pulau Pinang"
    },
    {
        "Postcode": "14100",
        "Location": "Lorong Permatang Tinggi Indah 16",
        "Post_Office": "Simpang Ampat",
        "State": "Pulau Pinang"
    },
    {
        "Postcode": "14100",
        "Location": "Lorong Permatang Tinggi Indah 4",
        "Post_Office": "Simpang Ampat",
        "State": "Pulau Pinang"
    },
    {
        "Postcode": "14100",
        "Location": "Lorong Permatang Tinggi Indah 5",
        "Post_Office": "Simpang Ampat",
        "State": "Pulau Pinang"
    },
    {
        "Postcode": "14100",
        "Location": "Lorong Permatang Tinggi Indah 6",
        "Post_Office": "Simpang Ampat",
        "State": "Pulau Pinang"
    },
    {
        "Postcode": "14100",
        "Location": "Lorong Permatang Tinggi Indah 7",
        "Post_Office": "Simpang Ampat",
        "State": "Pulau Pinang"
    },
    {
        "Postcode": "14100",
        "Location": "Lorong Permatang Tinggi Indah 8",
        "Post_Office": "Simpang Ampat",
        "State": "Pulau Pinang"
    },
    {
        "Postcode": "14100",
        "Location": "Lorong Permatang Tinggi Indah 9",
        "Post_Office": "Simpang Ampat",
        "State": "Pulau Pinang"
    },
    {
        "Postcode": "14100",
        "Location": "Lorong Perusahaan Ringan 1",
        "Post_Office": "Simpang Ampat",
        "State": "Pulau Pinang"
    },
    {
        "Postcode": "14100",
        "Location": "Lorong Perusahaan Ringan 2",
        "Post_Office": "Simpang Ampat",
        "State": "Pulau Pinang"
    },
    {
        "Postcode": "14100",
        "Location": "Lorong Perusahaan Ringan 3",
        "Post_Office": "Simpang Ampat",
        "State": "Pulau Pinang"
    },
    {
        "Postcode": "14100",
        "Location": "Lorong Perwira 1",
        "Post_Office": "Simpang Ampat",
        "State": "Pulau Pinang"
    },
    {
        "Postcode": "14100",
        "Location": "Lorong Perwira 2",
        "Post_Office": "Simpang Ampat",
        "State": "Pulau Pinang"
    },
    {
        "Postcode": "14100",
        "Location": "Lorong Perwira 3",
        "Post_Office": "Simpang Ampat",
        "State": "Pulau Pinang"
    },
    {
        "Postcode": "14100",
        "Location": "Lorong Perwira 4",
        "Post_Office": "Simpang Ampat",
        "State": "Pulau Pinang"
    },
    {
        "Postcode": "14100",
        "Location": "Lorong Perwira 5",
        "Post_Office": "Simpang Ampat",
        "State": "Pulau Pinang"
    },
    {
        "Postcode": "14100",
        "Location": "Lorong Perwira 6",
        "Post_Office": "Simpang Ampat",
        "State": "Pulau Pinang"
    },
    {
        "Postcode": "14100",
        "Location": "Lorong Perwira 7",
        "Post_Office": "Simpang Ampat",
        "State": "Pulau Pinang"
    },
    {
        "Postcode": "14100",
        "Location": "Lorong Perwira Indah 1",
        "Post_Office": "Simpang Ampat",
        "State": "Pulau Pinang"
    },
    {
        "Postcode": "14100",
        "Location": "Lorong Perwira Indah 2",
        "Post_Office": "Simpang Ampat",
        "State": "Pulau Pinang"
    },
    {
        "Postcode": "14100",
        "Location": "Lorong Perwira Indah 3",
        "Post_Office": "Simpang Ampat",
        "State": "Pulau Pinang"
    },
    {
        "Postcode": "14100",
        "Location": "Lorong Perwira Indah 4",
        "Post_Office": "Simpang Ampat",
        "State": "Pulau Pinang"
    },
    {
        "Postcode": "14100",
        "Location": "Lorong Perwira Indah 5",
        "Post_Office": "Simpang Ampat",
        "State": "Pulau Pinang"
    },
    {
        "Postcode": "14100",
        "Location": "Lorong Perwira Indah 6",
        "Post_Office": "Simpang Ampat",
        "State": "Pulau Pinang"
    },
    {
        "Postcode": "14100",
        "Location": "Lorong Perwira Indah 7",
        "Post_Office": "Simpang Ampat",
        "State": "Pulau Pinang"
    },
    {
        "Postcode": "14100",
        "Location": "Lorong Perwira Indah 8",
        "Post_Office": "Simpang Ampat",
        "State": "Pulau Pinang"
    },
    {
        "Postcode": "14100",
        "Location": "Lorong Pinang 1",
        "Post_Office": "Simpang Ampat",
        "State": "Pulau Pinang"
    },
    {
        "Postcode": "14100",
        "Location": "Lorong Pinang 2",
        "Post_Office": "Simpang Ampat",
        "State": "Pulau Pinang"
    },
    {
        "Postcode": "14100",
        "Location": "Lorong Pinang 3",
        "Post_Office": "Simpang Ampat",
        "State": "Pulau Pinang"
    },
    {
        "Postcode": "14100",
        "Location": "Lorong Pinang 4",
        "Post_Office": "Simpang Ampat",
        "State": "Pulau Pinang"
    },
    {
        "Postcode": "14100",
        "Location": "Lorong Pinang 5",
        "Post_Office": "Simpang Ampat",
        "State": "Pulau Pinang"
    },
    {
        "Postcode": "14100",
        "Location": "Lorong Pinang 6",
        "Post_Office": "Simpang Ampat",
        "State": "Pulau Pinang"
    },
    {
        "Postcode": "14100",
        "Location": "Lorong Pinang 7",
        "Post_Office": "Simpang Ampat",
        "State": "Pulau Pinang"
    },
    {
        "Postcode": "14100",
        "Location": "Lorong Pinang 8",
        "Post_Office": "Simpang Ampat",
        "State": "Pulau Pinang"
    },
    {
        "Postcode": "14100",
        "Location": "Lorong Pinang 9",
        "Post_Office": "Simpang Ampat",
        "State": "Pulau Pinang"
    },
    {
        "Postcode": "14100",
        "Location": "Lorong Sentul 1",
        "Post_Office": "Simpang Ampat",
        "State": "Pulau Pinang"
    },
    {
        "Postcode": "14100",
        "Location": "Lorong Sentul 10",
        "Post_Office": "Simpang Ampat",
        "State": "Pulau Pinang"
    },
    {
        "Postcode": "14100",
        "Location": "Lorong Sentul 11",
        "Post_Office": "Simpang Ampat",
        "State": "Pulau Pinang"
    },
    {
        "Postcode": "14100",
        "Location": "Lorong Sentul 12",
        "Post_Office": "Simpang Ampat",
        "State": "Pulau Pinang"
    },
    {
        "Postcode": "14100",
        "Location": "Lorong Sentul 13",
        "Post_Office": "Simpang Ampat",
        "State": "Pulau Pinang"
    },
    {
        "Postcode": "14100",
        "Location": "Lorong Sentul 14",
        "Post_Office": "Simpang Ampat",
        "State": "Pulau Pinang"
    },
    {
        "Postcode": "14100",
        "Location": "Lorong Sentul 15",
        "Post_Office": "Simpang Ampat",
        "State": "Pulau Pinang"
    },
    {
        "Postcode": "14100",
        "Location": "Lorong Sentul 16",
        "Post_Office": "Simpang Ampat",
        "State": "Pulau Pinang"
    },
    {
        "Postcode": "14100",
        "Location": "Lorong Sentul 17",
        "Post_Office": "Simpang Ampat",
        "State": "Pulau Pinang"
    },
    {
        "Postcode": "14100",
        "Location": "Lorong Sentul 18",
        "Post_Office": "Simpang Ampat",
        "State": "Pulau Pinang"
    },
    {
        "Postcode": "14100",
        "Location": "Lorong Sentul 19",
        "Post_Office": "Simpang Ampat",
        "State": "Pulau Pinang"
    },
    {
        "Postcode": "14100",
        "Location": "Lorong Sentul 2",
        "Post_Office": "Simpang Ampat",
        "State": "Pulau Pinang"
    },
    {
        "Postcode": "14100",
        "Location": "Lorong Sentul 20",
        "Post_Office": "Simpang Ampat",
        "State": "Pulau Pinang"
    },
    {
        "Postcode": "14100",
        "Location": "Lorong Sentul 21",
        "Post_Office": "Simpang Ampat",
        "State": "Pulau Pinang"
    },
    {
        "Postcode": "14100",
        "Location": "Lorong Sentul 22",
        "Post_Office": "Simpang Ampat",
        "State": "Pulau Pinang"
    },
    {
        "Postcode": "14100",
        "Location": "Lorong Sentul 23",
        "Post_Office": "Simpang Ampat",
        "State": "Pulau Pinang"
    },
    {
        "Postcode": "14100",
        "Location": "Lorong Sentul 24",
        "Post_Office": "Simpang Ampat",
        "State": "Pulau Pinang"
    },
    {
        "Postcode": "14100",
        "Location": "Lorong Sentul 3",
        "Post_Office": "Simpang Ampat",
        "State": "Pulau Pinang"
    },
    {
        "Postcode": "14100",
        "Location": "Lorong Sentul 4",
        "Post_Office": "Simpang Ampat",
        "State": "Pulau Pinang"
    },
    {
        "Postcode": "14100",
        "Location": "Lorong Sentul 5",
        "Post_Office": "Simpang Ampat",
        "State": "Pulau Pinang"
    },
    {
        "Postcode": "14100",
        "Location": "Lorong Sentul 6",
        "Post_Office": "Simpang Ampat",
        "State": "Pulau Pinang"
    },
    {
        "Postcode": "14100",
        "Location": "Lorong Sentul 7",
        "Post_Office": "Simpang Ampat",
        "State": "Pulau Pinang"
    },
    {
        "Postcode": "14100",
        "Location": "Lorong Sentul 8",
        "Post_Office": "Simpang Ampat",
        "State": "Pulau Pinang"
    },
    {
        "Postcode": "14100",
        "Location": "Lorong Sentul 9",
        "Post_Office": "Simpang Ampat",
        "State": "Pulau Pinang"
    },
    {
        "Postcode": "14100",
        "Location": "Lorong Seri Bayan 1",
        "Post_Office": "Simpang Ampat",
        "State": "Pulau Pinang"
    },
    {
        "Postcode": "14100",
        "Location": "Lorong Seri Bayan 2",
        "Post_Office": "Simpang Ampat",
        "State": "Pulau Pinang"
    },
    {
        "Postcode": "14100",
        "Location": "Lorong Seri Bayan 3",
        "Post_Office": "Simpang Ampat",
        "State": "Pulau Pinang"
    },
    {
        "Postcode": "14100",
        "Location": "Lorong Seri Bayan 4",
        "Post_Office": "Simpang Ampat",
        "State": "Pulau Pinang"
    },
    {
        "Postcode": "14100",
        "Location": "Lorong Seri Bayan 5",
        "Post_Office": "Simpang Ampat",
        "State": "Pulau Pinang"
    },
    {
        "Postcode": "14100",
        "Location": "Lorong Seri Bayan 6",
        "Post_Office": "Simpang Ampat",
        "State": "Pulau Pinang"
    },
    {
        "Postcode": "14100",
        "Location": "Lorong Seri Bayan 7",
        "Post_Office": "Simpang Ampat",
        "State": "Pulau Pinang"
    },
    {
        "Postcode": "14100",
        "Location": "Lorong Seri Bayan 8",
        "Post_Office": "Simpang Ampat",
        "State": "Pulau Pinang"
    },
    {
        "Postcode": "14100",
        "Location": "Lorong Seri Juru 10",
        "Post_Office": "Simpang Ampat",
        "State": "Pulau Pinang"
    },
    {
        "Postcode": "14100",
        "Location": "Lorong Seri Juru 11",
        "Post_Office": "Simpang Ampat",
        "State": "Pulau Pinang"
    },
    {
        "Postcode": "14100",
        "Location": "Lorong Seri Juru 12",
        "Post_Office": "Simpang Ampat",
        "State": "Pulau Pinang"
    },
    {
        "Postcode": "14100",
        "Location": "Lorong Seri Juru 13",
        "Post_Office": "Simpang Ampat",
        "State": "Pulau Pinang"
    },
    {
        "Postcode": "14100",
        "Location": "Lorong Seri Juru 14",
        "Post_Office": "Simpang Ampat",
        "State": "Pulau Pinang"
    },
    {
        "Postcode": "14100",
        "Location": "Lorong Seri Juru 9",
        "Post_Office": "Simpang Ampat",
        "State": "Pulau Pinang"
    },
    {
        "Postcode": "14100",
        "Location": "Lorong Seri Mas 1",
        "Post_Office": "Simpang Ampat",
        "State": "Pulau Pinang"
    },
    {
        "Postcode": "14100",
        "Location": "Lorong Seri Mas 2",
        "Post_Office": "Simpang Ampat",
        "State": "Pulau Pinang"
    },
    {
        "Postcode": "14100",
        "Location": "Lorong Seri Mas 3",
        "Post_Office": "Simpang Ampat",
        "State": "Pulau Pinang"
    },
    {
        "Postcode": "14100",
        "Location": "Lorong Simpang Ampat 1",
        "Post_Office": "Simpang Ampat",
        "State": "Pulau Pinang"
    },
    {
        "Postcode": "14100",
        "Location": "Lorong Simpang Ampat 2",
        "Post_Office": "Simpang Ampat",
        "State": "Pulau Pinang"
    },
    {
        "Postcode": "14100",
        "Location": "Lorong Simpang Ampat 3",
        "Post_Office": "Simpang Ampat",
        "State": "Pulau Pinang"
    },
    {
        "Postcode": "14100",
        "Location": "Lorong Simpang Ampat 4",
        "Post_Office": "Simpang Ampat",
        "State": "Pulau Pinang"
    },
    {
        "Postcode": "14100",
        "Location": "Lorong Simpang Ampat 5",
        "Post_Office": "Simpang Ampat",
        "State": "Pulau Pinang"
    },
    {
        "Postcode": "14100",
        "Location": "Lorong Simpang Ampat 6",
        "Post_Office": "Simpang Ampat",
        "State": "Pulau Pinang"
    },
    {
        "Postcode": "14100",
        "Location": "Lorong Simpang Ampat 6A",
        "Post_Office": "Simpang Ampat",
        "State": "Pulau Pinang"
    },
    {
        "Postcode": "14100",
        "Location": "Lorong Simpang Ampat 6B",
        "Post_Office": "Simpang Ampat",
        "State": "Pulau Pinang"
    },
    {
        "Postcode": "14100",
        "Location": "Lorong Simpang Ampat 7",
        "Post_Office": "Simpang Ampat",
        "State": "Pulau Pinang"
    },
    {
        "Postcode": "14100",
        "Location": "Lorong Simpang Ampat 8",
        "Post_Office": "Simpang Ampat",
        "State": "Pulau Pinang"
    },
    {
        "Postcode": "14100",
        "Location": "Lorong Sukun 1",
        "Post_Office": "Simpang Ampat",
        "State": "Pulau Pinang"
    },
    {
        "Postcode": "14100",
        "Location": "Lorong Sukun 10",
        "Post_Office": "Simpang Ampat",
        "State": "Pulau Pinang"
    },
    {
        "Postcode": "14100",
        "Location": "Lorong Sukun 11",
        "Post_Office": "Simpang Ampat",
        "State": "Pulau Pinang"
    },
    {
        "Postcode": "14100",
        "Location": "Lorong Sukun 12",
        "Post_Office": "Simpang Ampat",
        "State": "Pulau Pinang"
    },
    {
        "Postcode": "14100",
        "Location": "Lorong Sukun 13",
        "Post_Office": "Simpang Ampat",
        "State": "Pulau Pinang"
    },
    {
        "Postcode": "14100",
        "Location": "Lorong Sukun 14",
        "Post_Office": "Simpang Ampat",
        "State": "Pulau Pinang"
    },
    {
        "Postcode": "14100",
        "Location": "Lorong Sukun 15",
        "Post_Office": "Simpang Ampat",
        "State": "Pulau Pinang"
    },
    {
        "Postcode": "14100",
        "Location": "Lorong Sukun 16",
        "Post_Office": "Simpang Ampat",
        "State": "Pulau Pinang"
    },
    {
        "Postcode": "14100",
        "Location": "Lorong Sukun 17",
        "Post_Office": "Simpang Ampat",
        "State": "Pulau Pinang"
    },
    {
        "Postcode": "14100",
        "Location": "Lorong Sukun 18",
        "Post_Office": "Simpang Ampat",
        "State": "Pulau Pinang"
    },
    {
        "Postcode": "14100",
        "Location": "Lorong Sukun 19",
        "Post_Office": "Simpang Ampat",
        "State": "Pulau Pinang"
    },
    {
        "Postcode": "14100",
        "Location": "Lorong Sukun 2",
        "Post_Office": "Simpang Ampat",
        "State": "Pulau Pinang"
    },
    {
        "Postcode": "14100",
        "Location": "Lorong Sukun 20",
        "Post_Office": "Simpang Ampat",
        "State": "Pulau Pinang"
    },
    {
        "Postcode": "14100",
        "Location": "Lorong Sukun 21",
        "Post_Office": "Simpang Ampat",
        "State": "Pulau Pinang"
    },
    {
        "Postcode": "14100",
        "Location": "Lorong Sukun 22",
        "Post_Office": "Simpang Ampat",
        "State": "Pulau Pinang"
    },
    {
        "Postcode": "14100",
        "Location": "Lorong Sukun 23",
        "Post_Office": "Simpang Ampat",
        "State": "Pulau Pinang"
    },
    {
        "Postcode": "14100",
        "Location": "Lorong Sukun 24",
        "Post_Office": "Simpang Ampat",
        "State": "Pulau Pinang"
    },
    {
        "Postcode": "14100",
        "Location": "Lorong Sukun 3",
        "Post_Office": "Simpang Ampat",
        "State": "Pulau Pinang"
    },
    {
        "Postcode": "14100",
        "Location": "Lorong Sukun 4",
        "Post_Office": "Simpang Ampat",
        "State": "Pulau Pinang"
    },
    {
        "Postcode": "14100",
        "Location": "Lorong Sukun 5",
        "Post_Office": "Simpang Ampat",
        "State": "Pulau Pinang"
    },
    {
        "Postcode": "14100",
        "Location": "Lorong Sukun 6",
        "Post_Office": "Simpang Ampat",
        "State": "Pulau Pinang"
    },
    {
        "Postcode": "14100",
        "Location": "Lorong Sukun 7",
        "Post_Office": "Simpang Ampat",
        "State": "Pulau Pinang"
    },
    {
        "Postcode": "14100",
        "Location": "Lorong Sukun 8",
        "Post_Office": "Simpang Ampat",
        "State": "Pulau Pinang"
    },
    {
        "Postcode": "14100",
        "Location": "Lorong Sukun 9",
        "Post_Office": "Simpang Ampat",
        "State": "Pulau Pinang"
    },
    {
        "Postcode": "14100",
        "Location": "Lorong Tambun Jaya 1",
        "Post_Office": "Simpang Ampat",
        "State": "Pulau Pinang"
    },
    {
        "Postcode": "14100",
        "Location": "Lorong Tambun Jaya 2",
        "Post_Office": "Simpang Ampat",
        "State": "Pulau Pinang"
    },
    {
        "Postcode": "14100",
        "Location": "Lorong Tambun Jaya 3",
        "Post_Office": "Simpang Ampat",
        "State": "Pulau Pinang"
    },
    {
        "Postcode": "14100",
        "Location": "Lorong Tambun Jaya 4",
        "Post_Office": "Simpang Ampat",
        "State": "Pulau Pinang"
    },
    {
        "Postcode": "14100",
        "Location": "Lorong Tambun Jaya 5",
        "Post_Office": "Simpang Ampat",
        "State": "Pulau Pinang"
    },
    {
        "Postcode": "14100",
        "Location": "Lorong Tangling 1",
        "Post_Office": "Simpang Ampat",
        "State": "Pulau Pinang"
    },
    {
        "Postcode": "14100",
        "Location": "Lorong Tangling 10",
        "Post_Office": "Simpang Ampat",
        "State": "Pulau Pinang"
    },
    {
        "Postcode": "14100",
        "Location": "Lorong Tangling 11",
        "Post_Office": "Simpang Ampat",
        "State": "Pulau Pinang"
    },
    {
        "Postcode": "14100",
        "Location": "Lorong Tangling 12",
        "Post_Office": "Simpang Ampat",
        "State": "Pulau Pinang"
    },
    {
        "Postcode": "14100",
        "Location": "Lorong Tangling 13",
        "Post_Office": "Simpang Ampat",
        "State": "Pulau Pinang"
    },
    {
        "Postcode": "14100",
        "Location": "Lorong Tangling 14",
        "Post_Office": "Simpang Ampat",
        "State": "Pulau Pinang"
    },
    {
        "Postcode": "14100",
        "Location": "Lorong Tangling 15",
        "Post_Office": "Simpang Ampat",
        "State": "Pulau Pinang"
    },
    {
        "Postcode": "14100",
        "Location": "Lorong Tangling 16",
        "Post_Office": "Simpang Ampat",
        "State": "Pulau Pinang"
    },
    {
        "Postcode": "14100",
        "Location": "Lorong Tangling 17",
        "Post_Office": "Simpang Ampat",
        "State": "Pulau Pinang"
    },
    {
        "Postcode": "14100",
        "Location": "Lorong Tangling 18",
        "Post_Office": "Simpang Ampat",
        "State": "Pulau Pinang"
    },
    {
        "Postcode": "14100",
        "Location": "Lorong Tangling 19",
        "Post_Office": "Simpang Ampat",
        "State": "Pulau Pinang"
    },
    {
        "Postcode": "14100",
        "Location": "Lorong Tangling 2",
        "Post_Office": "Simpang Ampat",
        "State": "Pulau Pinang"
    },
    {
        "Postcode": "14100",
        "Location": "Lorong Tangling 20",
        "Post_Office": "Simpang Ampat",
        "State": "Pulau Pinang"
    },
    {
        "Postcode": "14100",
        "Location": "Lorong Tangling 21",
        "Post_Office": "Simpang Ampat",
        "State": "Pulau Pinang"
    },
    {
        "Postcode": "14100",
        "Location": "Lorong Tangling 22",
        "Post_Office": "Simpang Ampat",
        "State": "Pulau Pinang"
    },
    {
        "Postcode": "14100",
        "Location": "Lorong Tangling 23",
        "Post_Office": "Simpang Ampat",
        "State": "Pulau Pinang"
    },
    {
        "Postcode": "14100",
        "Location": "Lorong Tangling 24",
        "Post_Office": "Simpang Ampat",
        "State": "Pulau Pinang"
    },
    {
        "Postcode": "14100",
        "Location": "Lorong Tangling 25",
        "Post_Office": "Simpang Ampat",
        "State": "Pulau Pinang"
    },
    {
        "Postcode": "14100",
        "Location": "Lorong Tangling 26",
        "Post_Office": "Simpang Ampat",
        "State": "Pulau Pinang"
    },
    {
        "Postcode": "14100",
        "Location": "Lorong Tangling 27",
        "Post_Office": "Simpang Ampat",
        "State": "Pulau Pinang"
    },
    {
        "Postcode": "14100",
        "Location": "Lorong Tangling 28",
        "Post_Office": "Simpang Ampat",
        "State": "Pulau Pinang"
    },
    {
        "Postcode": "14100",
        "Location": "Lorong Tangling 29",
        "Post_Office": "Simpang Ampat",
        "State": "Pulau Pinang"
    },
    {
        "Postcode": "14100",
        "Location": "Lorong Tangling 3",
        "Post_Office": "Simpang Ampat",
        "State": "Pulau Pinang"
    },
    {
        "Postcode": "14100",
        "Location": "Lorong Tangling 30",
        "Post_Office": "Simpang Ampat",
        "State": "Pulau Pinang"
    },
    {
        "Postcode": "14100",
        "Location": "Lorong Tangling 31",
        "Post_Office": "Simpang Ampat",
        "State": "Pulau Pinang"
    },
    {
        "Postcode": "14100",
        "Location": "Lorong Tangling 32",
        "Post_Office": "Simpang Ampat",
        "State": "Pulau Pinang"
    },
    {
        "Postcode": "14100",
        "Location": "Lorong Tangling 33",
        "Post_Office": "Simpang Ampat",
        "State": "Pulau Pinang"
    },
    {
        "Postcode": "14100",
        "Location": "Lorong Tangling 34",
        "Post_Office": "Simpang Ampat",
        "State": "Pulau Pinang"
    },
    {
        "Postcode": "14100",
        "Location": "Lorong Tangling 35",
        "Post_Office": "Simpang Ampat",
        "State": "Pulau Pinang"
    },
    {
        "Postcode": "14100",
        "Location": "Lorong Tangling 36",
        "Post_Office": "Simpang Ampat",
        "State": "Pulau Pinang"
    },
    {
        "Postcode": "14100",
        "Location": "Lorong Tangling 37",
        "Post_Office": "Simpang Ampat",
        "State": "Pulau Pinang"
    },
    {
        "Postcode": "14100",
        "Location": "Lorong Tangling 38",
        "Post_Office": "Simpang Ampat",
        "State": "Pulau Pinang"
    },
    {
        "Postcode": "14100",
        "Location": "Lorong Tangling 39",
        "Post_Office": "Simpang Ampat",
        "State": "Pulau Pinang"
    },
    {
        "Postcode": "14100",
        "Location": "Lorong Tangling 4",
        "Post_Office": "Simpang Ampat",
        "State": "Pulau Pinang"
    },
    {
        "Postcode": "14100",
        "Location": "Lorong Tangling 5",
        "Post_Office": "Simpang Ampat",
        "State": "Pulau Pinang"
    },
    {
        "Postcode": "14100",
        "Location": "Lorong Tangling 6",
        "Post_Office": "Simpang Ampat",
        "State": "Pulau Pinang"
    },
    {
        "Postcode": "14100",
        "Location": "Lorong Tangling 7",
        "Post_Office": "Simpang Ampat",
        "State": "Pulau Pinang"
    },
    {
        "Postcode": "14100",
        "Location": "Lorong Tangling 8",
        "Post_Office": "Simpang Ampat",
        "State": "Pulau Pinang"
    },
    {
        "Postcode": "14100",
        "Location": "Lorong Tangling 9",
        "Post_Office": "Simpang Ampat",
        "State": "Pulau Pinang"
    },
    {
        "Postcode": "14100",
        "Location": "Lorong Tanjung 1/1",
        "Post_Office": "Simpang Ampat",
        "State": "Pulau Pinang"
    },
    {
        "Postcode": "14100",
        "Location": "Lorong Tanjung 1/2",
        "Post_Office": "Simpang Ampat",
        "State": "Pulau Pinang"
    },
    {
        "Postcode": "14100",
        "Location": "Lorong Tanjung 1/3",
        "Post_Office": "Simpang Ampat",
        "State": "Pulau Pinang"
    },
    {
        "Postcode": "14100",
        "Location": "Lorong Tanjung 1/4",
        "Post_Office": "Simpang Ampat",
        "State": "Pulau Pinang"
    },
    {
        "Postcode": "14100",
        "Location": "Lorong Tanjung 1/5",
        "Post_Office": "Simpang Ampat",
        "State": "Pulau Pinang"
    },
    {
        "Postcode": "14100",
        "Location": "Lorong Tanjung 1/6",
        "Post_Office": "Simpang Ampat",
        "State": "Pulau Pinang"
    },
    {
        "Postcode": "14100",
        "Location": "Lorong Tanjung 1/7",
        "Post_Office": "Simpang Ampat",
        "State": "Pulau Pinang"
    },
    {
        "Postcode": "14100",
        "Location": "Lorong Tanjung 1/8",
        "Post_Office": "Simpang Ampat",
        "State": "Pulau Pinang"
    },
    {
        "Postcode": "14100",
        "Location": "Lorong Tanjung 1/9",
        "Post_Office": "Simpang Ampat",
        "State": "Pulau Pinang"
    },
    {
        "Postcode": "14100",
        "Location": "Lorong Tasek Permai 1",
        "Post_Office": "Simpang Ampat",
        "State": "Pulau Pinang"
    },
    {
        "Postcode": "14100",
        "Location": "Lorong Tasek Permai 2",
        "Post_Office": "Simpang Ampat",
        "State": "Pulau Pinang"
    },
    {
        "Postcode": "14100",
        "Location": "Lorong Tasek Permai 3",
        "Post_Office": "Simpang Ampat",
        "State": "Pulau Pinang"
    },
    {
        "Postcode": "14100",
        "Location": "Lorong Tasek Permai 4",
        "Post_Office": "Simpang Ampat",
        "State": "Pulau Pinang"
    },
    {
        "Postcode": "14100",
        "Location": "Lorong Tasek Permai 5",
        "Post_Office": "Simpang Ampat",
        "State": "Pulau Pinang"
    },
    {
        "Postcode": "14100",
        "Location": "Lorong Tasek Permai 6",
        "Post_Office": "Simpang Ampat",
        "State": "Pulau Pinang"
    },
    {
        "Postcode": "14100",
        "Location": "Lorong Tempua 10",
        "Post_Office": "Simpang Ampat",
        "State": "Pulau Pinang"
    },
    {
        "Postcode": "14100",
        "Location": "Lorong Tempua 11",
        "Post_Office": "Simpang Ampat",
        "State": "Pulau Pinang"
    },
    {
        "Postcode": "14100",
        "Location": "Lorong Tempua 3",
        "Post_Office": "Simpang Ampat",
        "State": "Pulau Pinang"
    },
    {
        "Postcode": "14100",
        "Location": "Lorong Tempua 4",
        "Post_Office": "Simpang Ampat",
        "State": "Pulau Pinang"
    },
    {
        "Postcode": "14100",
        "Location": "Lorong Tempua 5",
        "Post_Office": "Simpang Ampat",
        "State": "Pulau Pinang"
    },
    {
        "Postcode": "14100",
        "Location": "Lorong Tempua 6",
        "Post_Office": "Simpang Ampat",
        "State": "Pulau Pinang"
    },
    {
        "Postcode": "14100",
        "Location": "Lorong Tempua 7",
        "Post_Office": "Simpang Ampat",
        "State": "Pulau Pinang"
    },
    {
        "Postcode": "14100",
        "Location": "Lorong Tempua 8",
        "Post_Office": "Simpang Ampat",
        "State": "Pulau Pinang"
    },
    {
        "Postcode": "14100",
        "Location": "Lorong Tempua 9",
        "Post_Office": "Simpang Ampat",
        "State": "Pulau Pinang"
    },
    {
        "Postcode": "14100",
        "Location": "Lorong Teratai 10",
        "Post_Office": "Simpang Ampat",
        "State": "Pulau Pinang"
    },
    {
        "Postcode": "14100",
        "Location": "Lorong Teratai 11",
        "Post_Office": "Simpang Ampat",
        "State": "Pulau Pinang"
    },
    {
        "Postcode": "14100",
        "Location": "Lorong Teratai 12",
        "Post_Office": "Simpang Ampat",
        "State": "Pulau Pinang"
    },
    {
        "Postcode": "14100",
        "Location": "Lorong Teratai 13",
        "Post_Office": "Simpang Ampat",
        "State": "Pulau Pinang"
    },
    {
        "Postcode": "14100",
        "Location": "Lorong Teratai 14",
        "Post_Office": "Simpang Ampat",
        "State": "Pulau Pinang"
    },
    {
        "Postcode": "14100",
        "Location": "Lorong Teratai 15",
        "Post_Office": "Simpang Ampat",
        "State": "Pulau Pinang"
    },
    {
        "Postcode": "14100",
        "Location": "Lorong Teratai 16",
        "Post_Office": "Simpang Ampat",
        "State": "Pulau Pinang"
    },
    {
        "Postcode": "14100",
        "Location": "Lorong Teratai 17",
        "Post_Office": "Simpang Ampat",
        "State": "Pulau Pinang"
    },
    {
        "Postcode": "14100",
        "Location": "Lorong Teratai 18",
        "Post_Office": "Simpang Ampat",
        "State": "Pulau Pinang"
    },
    {
        "Postcode": "14100",
        "Location": "Lorong Teratai 19",
        "Post_Office": "Simpang Ampat",
        "State": "Pulau Pinang"
    },
    {
        "Postcode": "14100",
        "Location": "Lorong Teratai 20",
        "Post_Office": "Simpang Ampat",
        "State": "Pulau Pinang"
    },
    {
        "Postcode": "14100",
        "Location": "Lorong Teratai 21",
        "Post_Office": "Simpang Ampat",
        "State": "Pulau Pinang"
    },
    {
        "Postcode": "14100",
        "Location": "Lorong Teratai 22",
        "Post_Office": "Simpang Ampat",
        "State": "Pulau Pinang"
    },
    {
        "Postcode": "14100",
        "Location": "Lorong Teratai 23",
        "Post_Office": "Simpang Ampat",
        "State": "Pulau Pinang"
    },
    {
        "Postcode": "14100",
        "Location": "Lorong Teratai 6",
        "Post_Office": "Simpang Ampat",
        "State": "Pulau Pinang"
    },
    {
        "Postcode": "14100",
        "Location": "Lorong Teratai 7",
        "Post_Office": "Simpang Ampat",
        "State": "Pulau Pinang"
    },
    {
        "Postcode": "14100",
        "Location": "Lorong Teratai 8",
        "Post_Office": "Simpang Ampat",
        "State": "Pulau Pinang"
    },
    {
        "Postcode": "14100",
        "Location": "Lorong Teratai 9",
        "Post_Office": "Simpang Ampat",
        "State": "Pulau Pinang"
    },
    {
        "Postcode": "14100",
        "Location": "Lorong Tiong Mas 1",
        "Post_Office": "Simpang Ampat",
        "State": "Pulau Pinang"
    },
    {
        "Postcode": "14100",
        "Location": "Lorong Tiong Mas 2",
        "Post_Office": "Simpang Ampat",
        "State": "Pulau Pinang"
    },
    {
        "Postcode": "14100",
        "Location": "Lorong Tiong Mas 3",
        "Post_Office": "Simpang Ampat",
        "State": "Pulau Pinang"
    },
    {
        "Postcode": "14100",
        "Location": "Lorong Tiong Mas 4",
        "Post_Office": "Simpang Ampat",
        "State": "Pulau Pinang"
    },
    {
        "Postcode": "14100",
        "Location": "Lorong Tiong Mas 5",
        "Post_Office": "Simpang Ampat",
        "State": "Pulau Pinang"
    },
    {
        "Postcode": "14100",
        "Location": "Lorong Tiong Mas 6",
        "Post_Office": "Simpang Ampat",
        "State": "Pulau Pinang"
    },
    {
        "Postcode": "14100",
        "Location": "Lorong Tiong Mas 7",
        "Post_Office": "Simpang Ampat",
        "State": "Pulau Pinang"
    },
    {
        "Postcode": "14100",
        "Location": "Lorong Usahajaya 1",
        "Post_Office": "Simpang Ampat",
        "State": "Pulau Pinang"
    },
    {
        "Postcode": "14100",
        "Location": "Lorong Usahajaya 2",
        "Post_Office": "Simpang Ampat",
        "State": "Pulau Pinang"
    },
    {
        "Postcode": "14100",
        "Location": "Lorong Usahajaya 3",
        "Post_Office": "Simpang Ampat",
        "State": "Pulau Pinang"
    },
    {
        "Postcode": "14100",
        "Location": "Lorong Usahajaya 4",
        "Post_Office": "Simpang Ampat",
        "State": "Pulau Pinang"
    },
    {
        "Postcode": "14100",
        "Location": "Lorong Usahajaya 5",
        "Post_Office": "Simpang Ampat",
        "State": "Pulau Pinang"
    },
    {
        "Postcode": "14100",
        "Location": "Persiaran Dedaun 1",
        "Post_Office": "Simpang Ampat",
        "State": "Pulau Pinang"
    },
    {
        "Postcode": "14100",
        "Location": "Persiaran Dedaun 2",
        "Post_Office": "Simpang Ampat",
        "State": "Pulau Pinang"
    },
    {
        "Postcode": "14100",
        "Location": "Persiaran Dedaun 3",
        "Post_Office": "Simpang Ampat",
        "State": "Pulau Pinang"
    },
    {
        "Postcode": "14100",
        "Location": "Persiaran Dedaun 4",
        "Post_Office": "Simpang Ampat",
        "State": "Pulau Pinang"
    },
    {
        "Postcode": "14100",
        "Location": "Solok Nuri 1",
        "Post_Office": "Simpang Ampat",
        "State": "Pulau Pinang"
    },
    {
        "Postcode": "14100",
        "Location": "Solok Nuri 2",
        "Post_Office": "Simpang Ampat",
        "State": "Pulau Pinang"
    },
    {
        "Postcode": "14100",
        "Location": "Solok Nuri 3",
        "Post_Office": "Simpang Ampat",
        "State": "Pulau Pinang"
    },
    {
        "Postcode": "14100",
        "Location": "Solok Perwira 1",
        "Post_Office": "Simpang Ampat",
        "State": "Pulau Pinang"
    },
    {
        "Postcode": "14100",
        "Location": "Solok Perwira 2",
        "Post_Office": "Simpang Ampat",
        "State": "Pulau Pinang"
    },
    {
        "Postcode": "14100",
        "Location": "Solok Perwira 3",
        "Post_Office": "Simpang Ampat",
        "State": "Pulau Pinang"
    },
    {
        "Postcode": "14100",
        "Location": "Solok Perwira 4",
        "Post_Office": "Simpang Ampat",
        "State": "Pulau Pinang"
    },
    {
        "Postcode": "14100",
        "Location": "Solok Perwira 5",
        "Post_Office": "Simpang Ampat",
        "State": "Pulau Pinang"
    },
    {
        "Postcode": "14100",
        "Location": "Tingkat Bukit Minyak 7",
        "Post_Office": "Simpang Ampat",
        "State": "Pulau Pinang"
    },
    {
        "Postcode": "14100",
        "Location": "Tingkat Bukit Minyak 9",
        "Post_Office": "Simpang Ampat",
        "State": "Pulau Pinang"
    },
    {
        "Postcode": "14100",
        "Location": "Tingkat Juru 2",
        "Post_Office": "Simpang Ampat",
        "State": "Pulau Pinang"
    },
    {
        "Postcode": "14100",
        "Location": "Tingkat Juru 4",
        "Post_Office": "Simpang Ampat",
        "State": "Pulau Pinang"
    },
    {
        "Postcode": "14100",
        "Location": "Tingkat Juru 6",
        "Post_Office": "Simpang Ampat",
        "State": "Pulau Pinang"
    },
    {
        "Postcode": "14100",
        "Location": "Desa Cempaka",
        "Post_Office": "Simpang Ampat",
        "State": "Pulau Pinang"
    },
    {
        "Postcode": "14100",
        "Location": "Lebuh Bandar Cassia",
        "Post_Office": "Simpang Ampat",
        "State": "Pulau Pinang"
    },
    {
        "Postcode": "14100",
        "Location": "Lengkok Perindustrian Bukit Minyak 1",
        "Post_Office": "Simpang Ampat",
        "State": "Pulau Pinang"
    },
    {
        "Postcode": "14100",
        "Location": "Jawi Sempit",
        "Post_Office": "Simpang Ampat",
        "State": "Pulau Pinang"
    },
    {
        "Postcode": "14100",
        "Location": "Kampung Hutan Petai",
        "Post_Office": "Simpang Ampat",
        "State": "Pulau Pinang"
    },
    {
        "Postcode": "14100",
        "Location": "Kampung Indera Timbalan",
        "Post_Office": "Simpang Ampat",
        "State": "Pulau Pinang"
    },
    {
        "Postcode": "14100",
        "Location": "Kampung Seberang Tasek",
        "Post_Office": "Simpang Ampat",
        "State": "Pulau Pinang"
    },
    {
        "Postcode": "14100",
        "Location": "Kampung Tasek Cempedak",
        "Post_Office": "Simpang Ampat",
        "State": "Pulau Pinang"
    },
    {
        "Postcode": "14100",
        "Location": "Kampung Teluk Bukit Minyak",
        "Post_Office": "Simpang Ampat",
        "State": "Pulau Pinang"
    },
    {
        "Postcode": "14100",
        "Location": "Ladang Batu Kawan",
        "Post_Office": "Simpang Ampat",
        "State": "Pulau Pinang"
    },
    {
        "Postcode": "14100",
        "Location": "Lorong Tambun Permai 2",
        "Post_Office": "Simpang Ampat",
        "State": "Pulau Pinang"
    },
    {
        "Postcode": "14100",
        "Location": "Permatang Tok Subuh",
        "Post_Office": "Simpang Ampat",
        "State": "Pulau Pinang"
    },
    {
        "Postcode": "14100",
        "Location": "Taman Bina Jaya",
        "Post_Office": "Simpang Ampat",
        "State": "Pulau Pinang"
    },
    {
        "Postcode": "14100",
        "Location": "Taman Cassia",
        "Post_Office": "Simpang Ampat",
        "State": "Pulau Pinang"
    },
    {
        "Postcode": "14100",
        "Location": "Taman Cendana Permai",
        "Post_Office": "Simpang Ampat",
        "State": "Pulau Pinang"
    },
    {
        "Postcode": "14100",
        "Location": "Taman Dedaun",
        "Post_Office": "Simpang Ampat",
        "State": "Pulau Pinang"
    },
    {
        "Postcode": "14100",
        "Location": "Taman Delima Jati",
        "Post_Office": "Simpang Ampat",
        "State": "Pulau Pinang"
    },
    {
        "Postcode": "14100",
        "Location": "Taman Desa Juru",
        "Post_Office": "Simpang Ampat",
        "State": "Pulau Pinang"
    },
    {
        "Postcode": "14100",
        "Location": "Taman Desa Titi Panjang",
        "Post_Office": "Simpang Ampat",
        "State": "Pulau Pinang"
    },
    {
        "Postcode": "14100",
        "Location": "Taman Industri Permatang Tinggi Indah",
        "Post_Office": "Simpang Ampat",
        "State": "Pulau Pinang"
    },
    {
        "Postcode": "14100",
        "Location": "Taman Intan Cempaka",
        "Post_Office": "Simpang Ampat",
        "State": "Pulau Pinang"
    },
    {
        "Postcode": "14100",
        "Location": "Taman Merpati Indah",
        "Post_Office": "Simpang Ampat",
        "State": "Pulau Pinang"
    },
    {
        "Postcode": "14100",
        "Location": "Taman Mutiara Cempaka",
        "Post_Office": "Simpang Ampat",
        "State": "Pulau Pinang"
    },
    {
        "Postcode": "14100",
        "Location": "Taman Perindustrian Iks Juru",
        "Post_Office": "Simpang Ampat",
        "State": "Pulau Pinang"
    },
    {
        "Postcode": "14100",
        "Location": "Taman Perindustrian Ringan Juru",
        "Post_Office": "Simpang Ampat",
        "State": "Pulau Pinang"
    },
    {
        "Postcode": "14100",
        "Location": "Taman Perindustrian Ringan Usahajaya",
        "Post_Office": "Simpang Ampat",
        "State": "Pulau Pinang"
    },
    {
        "Postcode": "14100",
        "Location": "Taman Permatang Tinggi",
        "Post_Office": "Simpang Ampat",
        "State": "Pulau Pinang"
    },
    {
        "Postcode": "14100",
        "Location": "Taman Sentul Indah",
        "Post_Office": "Simpang Ampat",
        "State": "Pulau Pinang"
    },
    {
        "Postcode": "14100",
        "Location": "Taman Seri Murai",
        "Post_Office": "Simpang Ampat",
        "State": "Pulau Pinang"
    },
    {
        "Postcode": "14100",
        "Location": "Taman Sri Mangga",
        "Post_Office": "Simpang Ampat",
        "State": "Pulau Pinang"
    },
    {
        "Postcode": "14100",
        "Location": "Taman Tambun Permai",
        "Post_Office": "Simpang Ampat",
        "State": "Pulau Pinang"
    },
    {
        "Postcode": "14100",
        "Location": "Taman Tangling Jaya",
        "Post_Office": "Simpang Ampat",
        "State": "Pulau Pinang"
    },
    {
        "Postcode": "14100",
        "Location": "Taman Teratai Idaman",
        "Post_Office": "Simpang Ampat",
        "State": "Pulau Pinang"
    },
    {
        "Postcode": "14100",
        "Location": "Taman Villa Mutiara",
        "Post_Office": "Simpang Ampat",
        "State": "Pulau Pinang"
    },
    {
        "Postcode": "14100",
        "Location": "Tanjung Ketupat",
        "Post_Office": "Simpang Ampat",
        "State": "Pulau Pinang"
    },
    {
        "Postcode": "14100",
        "Location": "Tasek",
        "Post_Office": "Simpang Ampat",
        "State": "Pulau Pinang"
    },
    {
        "Postcode": "14100",
        "Location": "Jalan Baru",
        "Post_Office": "Simpang Ampat",
        "State": "Pulau Pinang"
    },
    {
        "Postcode": "14100",
        "Location": "Jalan Bukit Minyak 2",
        "Post_Office": "Simpang Ampat",
        "State": "Pulau Pinang"
    },
    {
        "Postcode": "14100",
        "Location": "Jalan Perusahaan Ringan 1",
        "Post_Office": "Simpang Ampat",
        "State": "Pulau Pinang"
    },
    {
        "Postcode": "14100",
        "Location": "Jalan Sekolah",
        "Post_Office": "Simpang Ampat",
        "State": "Pulau Pinang"
    },
    {
        "Postcode": "14100",
        "Location": "Jalan Simpah",
        "Post_Office": "Simpang Ampat",
        "State": "Pulau Pinang"
    },
    {
        "Postcode": "14100",
        "Location": "Taman Belibis",
        "Post_Office": "Simpang Ampat",
        "State": "Pulau Pinang"
    },
    {
        "Postcode": "14100",
        "Location": "Taman Nilam Tanjung",
        "Post_Office": "Simpang Ampat",
        "State": "Pulau Pinang"
    },
    {
        "Postcode": "14100",
        "Location": "Jalan Tasek",
        "Post_Office": "Simpang Ampat",
        "State": "Pulau Pinang"
    },
    {
        "Postcode": "14100",
        "Location": "Kampung Kepala Gajah",
        "Post_Office": "Simpang Ampat",
        "State": "Pulau Pinang"
    },
    {
        "Postcode": "14100",
        "Location": "Lorong Delima 1",
        "Post_Office": "Simpang Ampat",
        "State": "Pulau Pinang"
    },
    {
        "Postcode": "14100",
        "Location": "Lorong Delima 2",
        "Post_Office": "Simpang Ampat",
        "State": "Pulau Pinang"
    },
    {
        "Postcode": "14100",
        "Location": "Lorong Merak 2",
        "Post_Office": "Simpang Ampat",
        "State": "Pulau Pinang"
    },
    {
        "Postcode": "14100",
        "Location": "Lorong Tempua 1",
        "Post_Office": "Simpang Ampat",
        "State": "Pulau Pinang"
    },
    {
        "Postcode": "14100",
        "Location": "Lorong Teratai 3",
        "Post_Office": "Simpang Ampat",
        "State": "Pulau Pinang"
    },
    {
        "Postcode": "14100",
        "Location": "Taman Bukit Minyak Indah",
        "Post_Office": "Simpang Ampat",
        "State": "Pulau Pinang"
    },
    {
        "Postcode": "14100",
        "Location": "Taman Industri Impian",
        "Post_Office": "Simpang Ampat",
        "State": "Pulau Pinang"
    },
    {
        "Postcode": "14100",
        "Location": "Taman Merak",
        "Post_Office": "Simpang Ampat",
        "State": "Pulau Pinang"
    },
    {
        "Postcode": "14100",
        "Location": "Taman Teratai",
        "Post_Office": "Simpang Ampat",
        "State": "Pulau Pinang"
    }
]
