[
    {
        "Postcode": "14110",
        "Location": "Bandar Cassia",
        "Post_Office": "Simpang Ampat",
        "State": "Pulau Pinang"
    },
    {
        "Postcode": "14110",
        "Location": "Batu Kawan",
        "Post_Office": "Simpang Ampat",
        "State": "Pulau Pinang"
    },
    {
        "Postcode": "14110",
        "Location": "Kampung Batu Kawan",
        "Post_Office": "Simpang Ampat",
        "State": "Pulau Pinang"
    },
    {
        "Postcode": "14110",
        "Location": "Paboi",
        "Post_Office": "Simpang Ampat",
        "State": "Pulau Pinang"
    },
    {
        "Postcode": "14110",
        "Location": "Taman Mutiara Tanjung",
        "Post_Office": "Simpang Ampat",
        "State": "Pulau Pinang"
    },
    {
        "Postcode": "14110",
        "Location": "Taman Mutiara Teratai",
        "Post_Office": "Simpang Ampat",
        "State": "Pulau Pinang"
    },
    {
        "Postcode": "14110",
        "Location": "Taman Tambun Emas",
        "Post_Office": "Simpang Ampat",
        "State": "Pulau Pinang"
    },
    {
        "Postcode": "14110",
        "Location": "Lorong Tambun Emas 4",
        "Post_Office": "Simpang Ampat",
        "State": "Pulau Pinang"
    },
    {
        "Postcode": "14110",
        "Location": "Lorong Tambun Emas 5",
        "Post_Office": "Simpang Ampat",
        "State": "Pulau Pinang"
    },
    {
        "Postcode": "14110",
        "Location": "Lorong Tambun Emas 6",
        "Post_Office": "Simpang Ampat",
        "State": "Pulau Pinang"
    },
    {
        "Postcode": "14110",
        "Location": "Jalan Teratai 3",
        "Post_Office": "Simpang Ampat",
        "State": "Pulau Pinang"
    }
]
