[
    {
        "Postcode": "14120",
        "Location": "Balik Bukit",
        "Post_Office": "Simpang Ampat",
        "State": "Pulau Pinang"
    },
    {
        "Postcode": "14120",
        "Location": "Bukit Tok Kandang",
        "Post_Office": "Simpang Ampat",
        "State": "Pulau Pinang"
    },
    {
        "Postcode": "14120",
        "Location": "Jalan Hutan Petai",
        "Post_Office": "Simpang Ampat",
        "State": "Pulau Pinang"
    },
    {
        "Postcode": "14120",
        "Location": "Jalan Pekan Tasek",
        "Post_Office": "Simpang Ampat",
        "State": "Pulau Pinang"
    },
    {
        "Postcode": "14120",
        "Location": "Jalan Pekatra Indah",
        "Post_Office": "Simpang Ampat",
        "State": "Pulau Pinang"
    },
    {
        "Postcode": "14120",
        "Location": "Jalan Pekatra Tasek",
        "Post_Office": "Simpang Ampat",
        "State": "Pulau Pinang"
    },
    {
        "Postcode": "14120",
        "Location": "Jalan Seberang Tasek",
        "Post_Office": "Simpang Ampat",
        "State": "Pulau Pinang"
    },
    {
        "Postcode": "14120",
        "Location": "Jalan Tasek Chempedak",
        "Post_Office": "Simpang Ampat",
        "State": "Pulau Pinang"
    },
    {
        "Postcode": "14120",
        "Location": "Jalan Tasek Puteri Gunung",
        "Post_Office": "Simpang Ampat",
        "State": "Pulau Pinang"
    },
    {
        "Postcode": "14120",
        "Location": "Kampung Balik Bukit",
        "Post_Office": "Simpang Ampat",
        "State": "Pulau Pinang"
    },
    {
        "Postcode": "14120",
        "Location": "Kampung Lapan",
        "Post_Office": "Simpang Ampat",
        "State": "Pulau Pinang"
    },
    {
        "Postcode": "14120",
        "Location": "Kampung Sekolah Seri Tasek",
        "Post_Office": "Simpang Ampat",
        "State": "Pulau Pinang"
    },
    {
        "Postcode": "14120",
        "Location": "Kampung Tasek Junjung",
        "Post_Office": "Simpang Ampat",
        "State": "Pulau Pinang"
    },
    {
        "Postcode": "14120",
        "Location": "Kawasan Tiga Kongsi",
        "Post_Office": "Simpang Ampat",
        "State": "Pulau Pinang"
    },
    {
        "Postcode": "14120",
        "Location": "Kepala Gajah",
        "Post_Office": "Simpang Ampat",
        "State": "Pulau Pinang"
    },
    {
        "Postcode": "14120",
        "Location": "Lorong Enggang Indah",
        "Post_Office": "Simpang Ampat",
        "State": "Pulau Pinang"
    },
    {
        "Postcode": "14120",
        "Location": "Lorong Kruing 2",
        "Post_Office": "Simpang Ampat",
        "State": "Pulau Pinang"
    },
    {
        "Postcode": "14120",
        "Location": "Lorong Puteri Gunung 3/1",
        "Post_Office": "Simpang Ampat",
        "State": "Pulau Pinang"
    },
    {
        "Postcode": "14120",
        "Location": "Paya Selangor",
        "Post_Office": "Simpang Ampat",
        "State": "Pulau Pinang"
    },
    {
        "Postcode": "14120",
        "Location": "Pokok Asam",
        "Post_Office": "Simpang Ampat",
        "State": "Pulau Pinang"
    },
    {
        "Postcode": "14120",
        "Location": "Simpang Estate",
        "Post_Office": "Simpang Ampat",
        "State": "Pulau Pinang"
    },
    {
        "Postcode": "14120",
        "Location": "Taman Enggang Indah",
        "Post_Office": "Simpang Ampat",
        "State": "Pulau Pinang"
    },
    {
        "Postcode": "14120",
        "Location": "Taman Layang-Layang",
        "Post_Office": "Simpang Ampat",
        "State": "Pulau Pinang"
    },
    {
        "Postcode": "14120",
        "Location": "Taman Pektra Indah",
        "Post_Office": "Simpang Ampat",
        "State": "Pulau Pinang"
    },
    {
        "Postcode": "14120",
        "Location": "Taman Tasek Indah",
        "Post_Office": "Simpang Ampat",
        "State": "Pulau Pinang"
    },
    {
        "Postcode": "14120",
        "Location": "Taman Tasek Mutiara Fasa 2",
        "Post_Office": "Simpang Ampat",
        "State": "Pulau Pinang"
    },
    {
        "Postcode": "14120",
        "Location": "Taman Tasek Mutiara Fasa 3",
        "Post_Office": "Simpang Ampat",
        "State": "Pulau Pinang"
    },
    {
        "Postcode": "14120",
        "Location": "Tasek Chempedak",
        "Post_Office": "Simpang Ampat",
        "State": "Pulau Pinang"
    },
    {
        "Postcode": "14120",
        "Location": "Tasek Junjong",
        "Post_Office": "Simpang Ampat",
        "State": "Pulau Pinang"
    },
    {
        "Postcode": "14120",
        "Location": "Tiga Kongsi",
        "Post_Office": "Simpang Ampat",
        "State": "Pulau Pinang"
    },
    {
        "Postcode": "14120",
        "Location": "Kampung Kepala Bukit",
        "Post_Office": "Simpang Ampat",
        "State": "Pulau Pinang"
    },
    {
        "Postcode": "14120",
        "Location": "Padang Lalang",
        "Post_Office": "Simpang Ampat",
        "State": "Pulau Pinang"
    },
    {
        "Postcode": "14120",
        "Location": "Taman Seri Tasek",
        "Post_Office": "Simpang Ampat",
        "State": "Pulau Pinang"
    },
    {
        "Postcode": "14120",
        "Location": "Jalan Puteri Gunung 1",
        "Post_Office": "Simpang Ampat",
        "State": "Pulau Pinang"
    },
    {
        "Postcode": "14120",
        "Location": "Jalan Puteri Gunung 2",
        "Post_Office": "Simpang Ampat",
        "State": "Pulau Pinang"
    },
    {
        "Postcode": "14120",
        "Location": "Jalan Tasek Indah 1",
        "Post_Office": "Simpang Ampat",
        "State": "Pulau Pinang"
    },
    {
        "Postcode": "14120",
        "Location": "Jalan Tasek Indah 2",
        "Post_Office": "Simpang Ampat",
        "State": "Pulau Pinang"
    },
    {
        "Postcode": "14120",
        "Location": "Jalan Tasek Maju 1",
        "Post_Office": "Simpang Ampat",
        "State": "Pulau Pinang"
    },
    {
        "Postcode": "14120",
        "Location": "Jalan Tasek Maju 2",
        "Post_Office": "Simpang Ampat",
        "State": "Pulau Pinang"
    },
    {
        "Postcode": "14120",
        "Location": "Jalan Tasek Maju 3",
        "Post_Office": "Simpang Ampat",
        "State": "Pulau Pinang"
    },
    {
        "Postcode": "14120",
        "Location": "Jalan Tasek Maju 4",
        "Post_Office": "Simpang Ampat",
        "State": "Pulau Pinang"
    },
    {
        "Postcode": "14120",
        "Location": "Jalan Tasek Maju 5",
        "Post_Office": "Simpang Ampat",
        "State": "Pulau Pinang"
    },
    {
        "Postcode": "14120",
        "Location": "Jalan Tasek Maju 6",
        "Post_Office": "Simpang Ampat",
        "State": "Pulau Pinang"
    },
    {
        "Postcode": "14120",
        "Location": "Jalan Tasek Maju 7",
        "Post_Office": "Simpang Ampat",
        "State": "Pulau Pinang"
    },
    {
        "Postcode": "14120",
        "Location": "Jalan Tasek Maju 8",
        "Post_Office": "Simpang Ampat",
        "State": "Pulau Pinang"
    },
    {
        "Postcode": "14120",
        "Location": "Jalan Tasek Mutiara 1",
        "Post_Office": "Simpang Ampat",
        "State": "Pulau Pinang"
    },
    {
        "Postcode": "14120",
        "Location": "Jalan Tasek Mutiara 2",
        "Post_Office": "Simpang Ampat",
        "State": "Pulau Pinang"
    },
    {
        "Postcode": "14120",
        "Location": "Jalan Tasek Mutiara 3",
        "Post_Office": "Simpang Ampat",
        "State": "Pulau Pinang"
    },
    {
        "Postcode": "14120",
        "Location": "Jalan Tasek Mutiara 4",
        "Post_Office": "Simpang Ampat",
        "State": "Pulau Pinang"
    },
    {
        "Postcode": "14120",
        "Location": "Jalan Tasek Mutiara 5",
        "Post_Office": "Simpang Ampat",
        "State": "Pulau Pinang"
    },
    {
        "Postcode": "14120",
        "Location": "Jalan Tasek Mutiara 6",
        "Post_Office": "Simpang Ampat",
        "State": "Pulau Pinang"
    },
    {
        "Postcode": "14120",
        "Location": "Jalan Tasek Mutiara 7",
        "Post_Office": "Simpang Ampat",
        "State": "Pulau Pinang"
    },
    {
        "Postcode": "14120",
        "Location": "Jalan Tasek Mutiara 8",
        "Post_Office": "Simpang Ampat",
        "State": "Pulau Pinang"
    },
    {
        "Postcode": "14120",
        "Location": "Lorong Enggang Indah 10",
        "Post_Office": "Simpang Ampat",
        "State": "Pulau Pinang"
    },
    {
        "Postcode": "14120",
        "Location": "Lorong Enggang Indah 11",
        "Post_Office": "Simpang Ampat",
        "State": "Pulau Pinang"
    },
    {
        "Postcode": "14120",
        "Location": "Lorong Enggang Indah 12",
        "Post_Office": "Simpang Ampat",
        "State": "Pulau Pinang"
    },
    {
        "Postcode": "14120",
        "Location": "Lorong Enggang Indah 2",
        "Post_Office": "Simpang Ampat",
        "State": "Pulau Pinang"
    },
    {
        "Postcode": "14120",
        "Location": "Lorong Enggang Indah 3",
        "Post_Office": "Simpang Ampat",
        "State": "Pulau Pinang"
    },
    {
        "Postcode": "14120",
        "Location": "Lorong Enggang Indah 4",
        "Post_Office": "Simpang Ampat",
        "State": "Pulau Pinang"
    },
    {
        "Postcode": "14120",
        "Location": "Lorong Enggang Indah 5",
        "Post_Office": "Simpang Ampat",
        "State": "Pulau Pinang"
    },
    {
        "Postcode": "14120",
        "Location": "Lorong Enggang Indah 6",
        "Post_Office": "Simpang Ampat",
        "State": "Pulau Pinang"
    },
    {
        "Postcode": "14120",
        "Location": "Lorong Enggang Indah 7",
        "Post_Office": "Simpang Ampat",
        "State": "Pulau Pinang"
    },
    {
        "Postcode": "14120",
        "Location": "Lorong Enggang Indah 8",
        "Post_Office": "Simpang Ampat",
        "State": "Pulau Pinang"
    },
    {
        "Postcode": "14120",
        "Location": "Lorong Enggang Indah 9",
        "Post_Office": "Simpang Ampat",
        "State": "Pulau Pinang"
    },
    {
        "Postcode": "14120",
        "Location": "Lorong Layang-Layang 1",
        "Post_Office": "Simpang Ampat",
        "State": "Pulau Pinang"
    },
    {
        "Postcode": "14120",
        "Location": "Lorong Layang-Layang 2",
        "Post_Office": "Simpang Ampat",
        "State": "Pulau Pinang"
    },
    {
        "Postcode": "14120",
        "Location": "Lorong Layang-Layang 3",
        "Post_Office": "Simpang Ampat",
        "State": "Pulau Pinang"
    },
    {
        "Postcode": "14120",
        "Location": "Lorong Pekatra Indah 10",
        "Post_Office": "Simpang Ampat",
        "State": "Pulau Pinang"
    },
    {
        "Postcode": "14120",
        "Location": "Lorong Pekatra Indah 11",
        "Post_Office": "Simpang Ampat",
        "State": "Pulau Pinang"
    },
    {
        "Postcode": "14120",
        "Location": "Lorong Pekatra Indah 12",
        "Post_Office": "Simpang Ampat",
        "State": "Pulau Pinang"
    },
    {
        "Postcode": "14120",
        "Location": "Lorong Pekatra Indah 13",
        "Post_Office": "Simpang Ampat",
        "State": "Pulau Pinang"
    },
    {
        "Postcode": "14120",
        "Location": "Lorong Pekatra Indah 14",
        "Post_Office": "Simpang Ampat",
        "State": "Pulau Pinang"
    },
    {
        "Postcode": "14120",
        "Location": "Lorong Pekatra Indah 15",
        "Post_Office": "Simpang Ampat",
        "State": "Pulau Pinang"
    },
    {
        "Postcode": "14120",
        "Location": "Lorong Pekatra Indah 16",
        "Post_Office": "Simpang Ampat",
        "State": "Pulau Pinang"
    },
    {
        "Postcode": "14120",
        "Location": "Lorong Pekatra Indah 4",
        "Post_Office": "Simpang Ampat",
        "State": "Pulau Pinang"
    },
    {
        "Postcode": "14120",
        "Location": "Lorong Pekatra Indah 5",
        "Post_Office": "Simpang Ampat",
        "State": "Pulau Pinang"
    },
    {
        "Postcode": "14120",
        "Location": "Lorong Pekatra Indah 6",
        "Post_Office": "Simpang Ampat",
        "State": "Pulau Pinang"
    },
    {
        "Postcode": "14120",
        "Location": "Lorong Pekatra Indah 7",
        "Post_Office": "Simpang Ampat",
        "State": "Pulau Pinang"
    },
    {
        "Postcode": "14120",
        "Location": "Lorong Pekatra Indah 8",
        "Post_Office": "Simpang Ampat",
        "State": "Pulau Pinang"
    },
    {
        "Postcode": "14120",
        "Location": "Lorong Pekatra Indah 9",
        "Post_Office": "Simpang Ampat",
        "State": "Pulau Pinang"
    },
    {
        "Postcode": "14120",
        "Location": "Lorong Puteri Gunung 1",
        "Post_Office": "Simpang Ampat",
        "State": "Pulau Pinang"
    },
    {
        "Postcode": "14120",
        "Location": "Lorong Puteri Gunung 10",
        "Post_Office": "Simpang Ampat",
        "State": "Pulau Pinang"
    },
    {
        "Postcode": "14120",
        "Location": "Lorong Puteri Gunung 11",
        "Post_Office": "Simpang Ampat",
        "State": "Pulau Pinang"
    },
    {
        "Postcode": "14120",
        "Location": "Lorong Puteri Gunung 12",
        "Post_Office": "Simpang Ampat",
        "State": "Pulau Pinang"
    },
    {
        "Postcode": "14120",
        "Location": "Lorong Puteri Gunung 13",
        "Post_Office": "Simpang Ampat",
        "State": "Pulau Pinang"
    },
    {
        "Postcode": "14120",
        "Location": "Lorong Puteri Gunung 14",
        "Post_Office": "Simpang Ampat",
        "State": "Pulau Pinang"
    },
    {
        "Postcode": "14120",
        "Location": "Lorong Puteri Gunung 15",
        "Post_Office": "Simpang Ampat",
        "State": "Pulau Pinang"
    },
    {
        "Postcode": "14120",
        "Location": "Lorong Puteri Gunung 16",
        "Post_Office": "Simpang Ampat",
        "State": "Pulau Pinang"
    },
    {
        "Postcode": "14120",
        "Location": "Lorong Puteri Gunung 17",
        "Post_Office": "Simpang Ampat",
        "State": "Pulau Pinang"
    },
    {
        "Postcode": "14120",
        "Location": "Lorong Puteri Gunung 18",
        "Post_Office": "Simpang Ampat",
        "State": "Pulau Pinang"
    },
    {
        "Postcode": "14120",
        "Location": "Lorong Puteri Gunung 19",
        "Post_Office": "Simpang Ampat",
        "State": "Pulau Pinang"
    },
    {
        "Postcode": "14120",
        "Location": "Lorong Puteri Gunung 2",
        "Post_Office": "Simpang Ampat",
        "State": "Pulau Pinang"
    },
    {
        "Postcode": "14120",
        "Location": "Lorong Puteri Gunung 20",
        "Post_Office": "Simpang Ampat",
        "State": "Pulau Pinang"
    },
    {
        "Postcode": "14120",
        "Location": "Lorong Puteri Gunung 21",
        "Post_Office": "Simpang Ampat",
        "State": "Pulau Pinang"
    },
    {
        "Postcode": "14120",
        "Location": "Lorong Puteri Gunung 22",
        "Post_Office": "Simpang Ampat",
        "State": "Pulau Pinang"
    },
    {
        "Postcode": "14120",
        "Location": "Lorong Puteri Gunung 23",
        "Post_Office": "Simpang Ampat",
        "State": "Pulau Pinang"
    },
    {
        "Postcode": "14120",
        "Location": "Lorong Puteri Gunung 24",
        "Post_Office": "Simpang Ampat",
        "State": "Pulau Pinang"
    },
    {
        "Postcode": "14120",
        "Location": "Lorong Puteri Gunung 25",
        "Post_Office": "Simpang Ampat",
        "State": "Pulau Pinang"
    },
    {
        "Postcode": "14120",
        "Location": "Lorong Puteri Gunung 26",
        "Post_Office": "Simpang Ampat",
        "State": "Pulau Pinang"
    },
    {
        "Postcode": "14120",
        "Location": "Lorong Puteri Gunung 27",
        "Post_Office": "Simpang Ampat",
        "State": "Pulau Pinang"
    },
    {
        "Postcode": "14120",
        "Location": "Lorong Puteri Gunung 28",
        "Post_Office": "Simpang Ampat",
        "State": "Pulau Pinang"
    },
    {
        "Postcode": "14120",
        "Location": "Lorong Puteri Gunung 29",
        "Post_Office": "Simpang Ampat",
        "State": "Pulau Pinang"
    },
    {
        "Postcode": "14120",
        "Location": "Lorong Puteri Gunung 3",
        "Post_Office": "Simpang Ampat",
        "State": "Pulau Pinang"
    },
    {
        "Postcode": "14120",
        "Location": "Lorong Puteri Gunung 30",
        "Post_Office": "Simpang Ampat",
        "State": "Pulau Pinang"
    },
    {
        "Postcode": "14120",
        "Location": "Lorong Puteri Gunung 31",
        "Post_Office": "Simpang Ampat",
        "State": "Pulau Pinang"
    },
    {
        "Postcode": "14120",
        "Location": "Lorong Puteri Gunung 32",
        "Post_Office": "Simpang Ampat",
        "State": "Pulau Pinang"
    },
    {
        "Postcode": "14120",
        "Location": "Lorong Puteri Gunung 33",
        "Post_Office": "Simpang Ampat",
        "State": "Pulau Pinang"
    },
    {
        "Postcode": "14120",
        "Location": "Lorong Puteri Gunung 34",
        "Post_Office": "Simpang Ampat",
        "State": "Pulau Pinang"
    },
    {
        "Postcode": "14120",
        "Location": "Lorong Puteri Gunung 35",
        "Post_Office": "Simpang Ampat",
        "State": "Pulau Pinang"
    },
    {
        "Postcode": "14120",
        "Location": "Lorong Puteri Gunung 36",
        "Post_Office": "Simpang Ampat",
        "State": "Pulau Pinang"
    },
    {
        "Postcode": "14120",
        "Location": "Lorong Puteri Gunung 37",
        "Post_Office": "Simpang Ampat",
        "State": "Pulau Pinang"
    },
    {
        "Postcode": "14120",
        "Location": "Lorong Puteri Gunung 38",
        "Post_Office": "Simpang Ampat",
        "State": "Pulau Pinang"
    },
    {
        "Postcode": "14120",
        "Location": "Lorong Puteri Gunung 39",
        "Post_Office": "Simpang Ampat",
        "State": "Pulau Pinang"
    },
    {
        "Postcode": "14120",
        "Location": "Lorong Puteri Gunung 4",
        "Post_Office": "Simpang Ampat",
        "State": "Pulau Pinang"
    },
    {
        "Postcode": "14120",
        "Location": "Lorong Puteri Gunung 40",
        "Post_Office": "Simpang Ampat",
        "State": "Pulau Pinang"
    },
    {
        "Postcode": "14120",
        "Location": "Lorong Puteri Gunung 41",
        "Post_Office": "Simpang Ampat",
        "State": "Pulau Pinang"
    },
    {
        "Postcode": "14120",
        "Location": "Lorong Puteri Gunung 42",
        "Post_Office": "Simpang Ampat",
        "State": "Pulau Pinang"
    },
    {
        "Postcode": "14120",
        "Location": "Lorong Puteri Gunung 5",
        "Post_Office": "Simpang Ampat",
        "State": "Pulau Pinang"
    },
    {
        "Postcode": "14120",
        "Location": "Lorong Puteri Gunung 6",
        "Post_Office": "Simpang Ampat",
        "State": "Pulau Pinang"
    },
    {
        "Postcode": "14120",
        "Location": "Lorong Puteri Gunung 7",
        "Post_Office": "Simpang Ampat",
        "State": "Pulau Pinang"
    },
    {
        "Postcode": "14120",
        "Location": "Lorong Puteri Gunung 8",
        "Post_Office": "Simpang Ampat",
        "State": "Pulau Pinang"
    },
    {
        "Postcode": "14120",
        "Location": "Lorong Puteri Gunung 9",
        "Post_Office": "Simpang Ampat",
        "State": "Pulau Pinang"
    },
    {
        "Postcode": "14120",
        "Location": "Lorong Tasek Indah 1",
        "Post_Office": "Simpang Ampat",
        "State": "Pulau Pinang"
    },
    {
        "Postcode": "14120",
        "Location": "Lorong Tasek Indah 2",
        "Post_Office": "Simpang Ampat",
        "State": "Pulau Pinang"
    },
    {
        "Postcode": "14120",
        "Location": "Lorong Tasek Indah 3",
        "Post_Office": "Simpang Ampat",
        "State": "Pulau Pinang"
    },
    {
        "Postcode": "14120",
        "Location": "Lorong Tasek Indah 4",
        "Post_Office": "Simpang Ampat",
        "State": "Pulau Pinang"
    },
    {
        "Postcode": "14120",
        "Location": "Lorong Tasek Indah 5",
        "Post_Office": "Simpang Ampat",
        "State": "Pulau Pinang"
    },
    {
        "Postcode": "14120",
        "Location": "Lorong Tasek Indah 6",
        "Post_Office": "Simpang Ampat",
        "State": "Pulau Pinang"
    },
    {
        "Postcode": "14120",
        "Location": "Lorong Tasek Maju  2",
        "Post_Office": "Simpang Ampat",
        "State": "Pulau Pinang"
    },
    {
        "Postcode": "14120",
        "Location": "Lorong Tasek Maju  3",
        "Post_Office": "Simpang Ampat",
        "State": "Pulau Pinang"
    },
    {
        "Postcode": "14120",
        "Location": "Lorong Tasek Maju  4",
        "Post_Office": "Simpang Ampat",
        "State": "Pulau Pinang"
    },
    {
        "Postcode": "14120",
        "Location": "Lorong Tasek Maju  5",
        "Post_Office": "Simpang Ampat",
        "State": "Pulau Pinang"
    },
    {
        "Postcode": "14120",
        "Location": "Lorong Tasek Maju  6",
        "Post_Office": "Simpang Ampat",
        "State": "Pulau Pinang"
    },
    {
        "Postcode": "14120",
        "Location": "Lorong Tasek Maju  7",
        "Post_Office": "Simpang Ampat",
        "State": "Pulau Pinang"
    },
    {
        "Postcode": "14120",
        "Location": "Lorong Tasek Maju  8",
        "Post_Office": "Simpang Ampat",
        "State": "Pulau Pinang"
    },
    {
        "Postcode": "14120",
        "Location": "Taman Pekatra Indah",
        "Post_Office": "Simpang Ampat",
        "State": "Pulau Pinang"
    },
    {
        "Postcode": "14120",
        "Location": "Bandar Tasek Mutiara",
        "Post_Office": "Simpang Ampat",
        "State": "Pulau Pinang"
    },
    {
        "Postcode": "14120",
        "Location": "Jalan Enggang Indah",
        "Post_Office": "Simpang Ampat",
        "State": "Pulau Pinang"
    },
    {
        "Postcode": "14120",
        "Location": "Jalan Tasek",
        "Post_Office": "Simpang Ampat",
        "State": "Pulau Pinang"
    },
    {
        "Postcode": "14120",
        "Location": "Kampung Kepala Gajah",
        "Post_Office": "Simpang Ampat",
        "State": "Pulau Pinang"
    },
    {
        "Postcode": "14120",
        "Location": "Taman Puteri Gunung",
        "Post_Office": "Simpang Ampat",
        "State": "Pulau Pinang"
    },
    {
        "Postcode": "14120",
        "Location": "Taman Tasek Maju",
        "Post_Office": "Simpang Ampat",
        "State": "Pulau Pinang"
    }
]
