[
    {
        "Postcode": "14200",
        "Location": "Jalan Klinik Relau",
        "Post_Office": "Sungai Jawi\r\n",
        "State": "Pulau Pinang"
    },
    {
        "Postcode": "14200",
        "Location": "Jalan Pintu Air",
        "Post_Office": "Sungai Jawi\r\n",
        "State": "Pulau Pinang"
    },
    {
        "Postcode": "14200",
        "Location": "Kampung 300 Kaki Relau",
        "Post_Office": "Sungai Jawi\r\n",
        "State": "Pulau Pinang"
    },
    {
        "Postcode": "14200",
        "Location": "Kampung Kilang Batu Relau",
        "Post_Office": "Sungai Jawi\r\n",
        "State": "Pulau Pinang"
    },
    {
        "Postcode": "14200",
        "Location": "Kampung Makau Suah",
        "Post_Office": "Sungai Jawi\r\n",
        "State": "Pulau Pinang"
    },
    {
        "Postcode": "14200",
        "Location": "Kampung Padang ",
        "Post_Office": "Sungai Jawi\r\n",
        "State": "Pulau Pinang"
    },
    {
        "Postcode": "14200",
        "Location": "Kampung Paya Kemian ",
        "Post_Office": "Sungai Jawi\r\n",
        "State": "Pulau Pinang"
    },
    {
        "Postcode": "14200",
        "Location": "Kampung Paya Semambu ",
        "Post_Office": "Sungai Jawi\r\n",
        "State": "Pulau Pinang"
    },
    {
        "Postcode": "14200",
        "Location": "Kampung Relau Indah",
        "Post_Office": "Sungai Jawi\r\n",
        "State": "Pulau Pinang"
    },
    {
        "Postcode": "14200",
        "Location": "Kampung Ulu Relau",
        "Post_Office": "Sungai Jawi\r\n",
        "State": "Pulau Pinang"
    },
    {
        "Postcode": "14200",
        "Location": "Lintang Relau Indah 1 - 3",
        "Post_Office": "Sungai Jawi\r\n",
        "State": "Pulau Pinang"
    },
    {
        "Postcode": "14200",
        "Location": "Taman Relau Indah",
        "Post_Office": "Sungai Jawi\r\n",
        "State": "Pulau Pinang"
    },
    {
        "Postcode": "14200",
        "Location": "Badak Mati",
        "Post_Office": "Sungai Jawi",
        "State": "Pulau Pinang"
    },
    {
        "Postcode": "14200",
        "Location": "Bakar Sampah",
        "Post_Office": "Sungai Jawi",
        "State": "Pulau Pinang"
    },
    {
        "Postcode": "14200",
        "Location": "Bukit Jawi Villa",
        "Post_Office": "Sungai Jawi",
        "State": "Pulau Pinang"
    },
    {
        "Postcode": "14200",
        "Location": "Estate Valdor",
        "Post_Office": "Sungai Jawi",
        "State": "Pulau Pinang"
    },
    {
        "Postcode": "14200",
        "Location": "Gamelan Indah",
        "Post_Office": "Sungai Jawi",
        "State": "Pulau Pinang"
    },
    {
        "Postcode": "14200",
        "Location": "Jalan Badak Mati",
        "Post_Office": "Sungai Jawi",
        "State": "Pulau Pinang"
    },
    {
        "Postcode": "14200",
        "Location": "Jalan Bakap Indah",
        "Post_Office": "Sungai Jawi",
        "State": "Pulau Pinang"
    },
    {
        "Postcode": "14200",
        "Location": "Jalan Bakau 1",
        "Post_Office": "Sungai Jawi",
        "State": "Pulau Pinang"
    },
    {
        "Postcode": "14200",
        "Location": "Jalan Baru Batu 22",
        "Post_Office": "Sungai Jawi",
        "State": "Pulau Pinang"
    },
    {
        "Postcode": "14200",
        "Location": "Jalan Baru Sungai Duri",
        "Post_Office": "Sungai Jawi",
        "State": "Pulau Pinang"
    },
    {
        "Postcode": "14200",
        "Location": "Jalan Beduk",
        "Post_Office": "Sungai Jawi",
        "State": "Pulau Pinang"
    },
    {
        "Postcode": "14200",
        "Location": "Jalan Besar Sungai Bakap",
        "Post_Office": "Sungai Jawi",
        "State": "Pulau Pinang"
    },
    {
        "Postcode": "14200",
        "Location": "Jalan Besar Sungai Bakap Mk. 12",
        "Post_Office": "Sungai Jawi",
        "State": "Pulau Pinang"
    },
    {
        "Postcode": "14200",
        "Location": "Jalan Besar Sungai Bakap Mk. 5",
        "Post_Office": "Sungai Jawi",
        "State": "Pulau Pinang"
    },
    {
        "Postcode": "14200",
        "Location": "Jalan Besar Sungai Jawi",
        "Post_Office": "Sungai Jawi",
        "State": "Pulau Pinang"
    },
    {
        "Postcode": "14200",
        "Location": "Jalan Besar Taman Jawi",
        "Post_Office": "Sungai Jawi",
        "State": "Pulau Pinang"
    },
    {
        "Postcode": "14200",
        "Location": "Jalan Besar Valdor",
        "Post_Office": "Sungai Jawi",
        "State": "Pulau Pinang"
    },
    {
        "Postcode": "14200",
        "Location": "Jalan Changkat Sungai Jawi",
        "Post_Office": "Sungai Jawi",
        "State": "Pulau Pinang"
    },
    {
        "Postcode": "14200",
        "Location": "Jalan Dusun",
        "Post_Office": "Sungai Jawi",
        "State": "Pulau Pinang"
    },
    {
        "Postcode": "14200",
        "Location": "Jalan Gamelan",
        "Post_Office": "Sungai Jawi",
        "State": "Pulau Pinang"
    },
    {
        "Postcode": "14200",
        "Location": "Jalan Gamelan Indah",
        "Post_Office": "Sungai Jawi",
        "State": "Pulau Pinang"
    },
    {
        "Postcode": "14200",
        "Location": "Jalan Gamelan Indah 2",
        "Post_Office": "Sungai Jawi",
        "State": "Pulau Pinang"
    },
    {
        "Postcode": "14200",
        "Location": "Jalan Jawi",
        "Post_Office": "Sungai Jawi",
        "State": "Pulau Pinang"
    },
    {
        "Postcode": "14200",
        "Location": "Jalan Jawi Jaya",
        "Post_Office": "Sungai Jawi",
        "State": "Pulau Pinang"
    },
    {
        "Postcode": "14200",
        "Location": "Jalan Jelatik",
        "Post_Office": "Sungai Jawi",
        "State": "Pulau Pinang"
    },
    {
        "Postcode": "14200",
        "Location": "Jalan Jelita 1",
        "Post_Office": "Sungai Jawi",
        "State": "Pulau Pinang"
    },
    {
        "Postcode": "14200",
        "Location": "Jalan Kesumba",
        "Post_Office": "Sungai Jawi",
        "State": "Pulau Pinang"
    },
    {
        "Postcode": "14200",
        "Location": "Jalan Kesumba 1",
        "Post_Office": "Sungai Jawi",
        "State": "Pulau Pinang"
    },
    {
        "Postcode": "14200",
        "Location": "Jalan Khidmat",
        "Post_Office": "Sungai Jawi",
        "State": "Pulau Pinang"
    },
    {
        "Postcode": "14200",
        "Location": "Jalan Klinik Sungai Durian",
        "Post_Office": "Sungai Jawi",
        "State": "Pulau Pinang"
    },
    {
        "Postcode": "14200",
        "Location": "Jalan Kompang",
        "Post_Office": "Sungai Jawi",
        "State": "Pulau Pinang"
    },
    {
        "Postcode": "14200",
        "Location": "Jalan Krian Kedah",
        "Post_Office": "Sungai Jawi",
        "State": "Pulau Pinang"
    },
    {
        "Postcode": "14200",
        "Location": "Jalan Kuang",
        "Post_Office": "Sungai Jawi",
        "State": "Pulau Pinang"
    },
    {
        "Postcode": "14200",
        "Location": "Jalan Lima Kongsi",
        "Post_Office": "Sungai Jawi",
        "State": "Pulau Pinang"
    },
    {
        "Postcode": "14200",
        "Location": "Jalan Luar Valdor",
        "Post_Office": "Sungai Jawi",
        "State": "Pulau Pinang"
    },
    {
        "Postcode": "14200",
        "Location": "Jalan Nafiri",
        "Post_Office": "Sungai Jawi",
        "State": "Pulau Pinang"
    },
    {
        "Postcode": "14200",
        "Location": "Jalan Permatang Ara",
        "Post_Office": "Sungai Jawi",
        "State": "Pulau Pinang"
    },
    {
        "Postcode": "14200",
        "Location": "Jalan Punggok",
        "Post_Office": "Sungai Jawi",
        "State": "Pulau Pinang"
    },
    {
        "Postcode": "14200",
        "Location": "Jalan Puyoh Sungai Jawi",
        "Post_Office": "Sungai Jawi",
        "State": "Pulau Pinang"
    },
    {
        "Postcode": "14200",
        "Location": "Jalan Rebana 2A",
        "Post_Office": "Sungai Jawi",
        "State": "Pulau Pinang"
    },
    {
        "Postcode": "14200",
        "Location": "Jalan Relau Indah 1",
        "Post_Office": "Sungai Jawi",
        "State": "Pulau Pinang"
    },
    {
        "Postcode": "14200",
        "Location": "Jalan Selamat",
        "Post_Office": "Sungai Jawi",
        "State": "Pulau Pinang"
    },
    {
        "Postcode": "14200",
        "Location": "Jalan Serunai",
        "Post_Office": "Sungai Jawi",
        "State": "Pulau Pinang"
    },
    {
        "Postcode": "14200",
        "Location": "Jalan Sri Aman 1",
        "Post_Office": "Sungai Jawi",
        "State": "Pulau Pinang"
    },
    {
        "Postcode": "14200",
        "Location": "Jalan Stesen",
        "Post_Office": "Sungai Jawi",
        "State": "Pulau Pinang"
    },
    {
        "Postcode": "14200",
        "Location": "Jalan Sungai Bakap Mk. 4",
        "Post_Office": "Sungai Jawi",
        "State": "Pulau Pinang"
    },
    {
        "Postcode": "14200",
        "Location": "Jalan Sungai Baong",
        "Post_Office": "Sungai Jawi",
        "State": "Pulau Pinang"
    },
    {
        "Postcode": "14200",
        "Location": "Jalan Sungai Duri",
        "Post_Office": "Sungai Jawi",
        "State": "Pulau Pinang"
    },
    {
        "Postcode": "14200",
        "Location": "Jalan Sungai Jawi",
        "Post_Office": "Sungai Jawi",
        "State": "Pulau Pinang"
    },
    {
        "Postcode": "14200",
        "Location": "Jalan Tasek Kampung Valdor",
        "Post_Office": "Sungai Jawi",
        "State": "Pulau Pinang"
    },
    {
        "Postcode": "14200",
        "Location": "Jalan Tasek Taman Valdor",
        "Post_Office": "Sungai Jawi",
        "State": "Pulau Pinang"
    },
    {
        "Postcode": "14200",
        "Location": "Jalan Tenaga Jaya 1",
        "Post_Office": "Sungai Jawi",
        "State": "Pulau Pinang"
    },
    {
        "Postcode": "14200",
        "Location": "Jalan Tenaga Jaya 2",
        "Post_Office": "Sungai Jawi",
        "State": "Pulau Pinang"
    },
    {
        "Postcode": "14200",
        "Location": "Jalan Valdor",
        "Post_Office": "Sungai Jawi",
        "State": "Pulau Pinang"
    },
    {
        "Postcode": "14200",
        "Location": "Jalan Valdor Mk 12",
        "Post_Office": "Sungai Jawi",
        "State": "Pulau Pinang"
    },
    {
        "Postcode": "14200",
        "Location": "Jalan Wellesley 1",
        "Post_Office": "Sungai Jawi",
        "State": "Pulau Pinang"
    },
    {
        "Postcode": "14200",
        "Location": "Jalan Widuri",
        "Post_Office": "Sungai Jawi",
        "State": "Pulau Pinang"
    },
    {
        "Postcode": "14200",
        "Location": "Kampung Badak Mati",
        "Post_Office": "Sungai Jawi",
        "State": "Pulau Pinang"
    },
    {
        "Postcode": "14200",
        "Location": "Kampung Bakar Arang",
        "Post_Office": "Sungai Jawi",
        "State": "Pulau Pinang"
    },
    {
        "Postcode": "14200",
        "Location": "Kampung Bakar Sampah",
        "Post_Office": "Sungai Jawi",
        "State": "Pulau Pinang"
    },
    {
        "Postcode": "14200",
        "Location": "Kampung Baru Valdor",
        "Post_Office": "Sungai Jawi",
        "State": "Pulau Pinang"
    },
    {
        "Postcode": "14200",
        "Location": "Kampung Cangkat",
        "Post_Office": "Sungai Jawi",
        "State": "Pulau Pinang"
    },
    {
        "Postcode": "14200",
        "Location": "Kampung Changkat Diam",
        "Post_Office": "Sungai Jawi",
        "State": "Pulau Pinang"
    },
    {
        "Postcode": "14200",
        "Location": "Kampung Che Nah",
        "Post_Office": "Sungai Jawi",
        "State": "Pulau Pinang"
    },
    {
        "Postcode": "14200",
        "Location": "Kampung Chin Lee",
        "Post_Office": "Sungai Jawi",
        "State": "Pulau Pinang"
    },
    {
        "Postcode": "14200",
        "Location": "Kampung Hilir",
        "Post_Office": "Sungai Jawi",
        "State": "Pulau Pinang"
    },
    {
        "Postcode": "14200",
        "Location": "Kampung Jawi",
        "Post_Office": "Sungai Jawi",
        "State": "Pulau Pinang"
    },
    {
        "Postcode": "14200",
        "Location": "Kampung Kilang Batu (Kedah)",
        "Post_Office": "Sungai Jawi",
        "State": "Pulau Pinang"
    },
    {
        "Postcode": "14200",
        "Location": "Kampung Lima Kongsi",
        "Post_Office": "Sungai Jawi",
        "State": "Pulau Pinang"
    },
    {
        "Postcode": "14200",
        "Location": "Kampung Makau Suah (Kedah)",
        "Post_Office": "Sungai Jawi",
        "State": "Pulau Pinang"
    },
    {
        "Postcode": "14200",
        "Location": "Kampung Masjid Baru",
        "Post_Office": "Sungai Jawi",
        "State": "Pulau Pinang"
    },
    {
        "Postcode": "14200",
        "Location": "Kampung Masjid Sungai Duri",
        "Post_Office": "Sungai Jawi",
        "State": "Pulau Pinang"
    },
    {
        "Postcode": "14200",
        "Location": "Kampung Padang (Kedah)",
        "Post_Office": "Sungai Jawi",
        "State": "Pulau Pinang"
    },
    {
        "Postcode": "14200",
        "Location": "Kampung Paya Kemian (Kedah)",
        "Post_Office": "Sungai Jawi",
        "State": "Pulau Pinang"
    },
    {
        "Postcode": "14200",
        "Location": "Kampung Paya Semambu (Kedah)",
        "Post_Office": "Sungai Jawi",
        "State": "Pulau Pinang"
    },
    {
        "Postcode": "14200",
        "Location": "Kampung Permatang Ara",
        "Post_Office": "Sungai Jawi",
        "State": "Pulau Pinang"
    },
    {
        "Postcode": "14200",
        "Location": "Kampung Pulau",
        "Post_Office": "Sungai Jawi",
        "State": "Pulau Pinang"
    },
    {
        "Postcode": "14200",
        "Location": "Kampung Sethu",
        "Post_Office": "Sungai Jawi",
        "State": "Pulau Pinang"
    },
    {
        "Postcode": "14200",
        "Location": "Kampung Sungai Duri",
        "Post_Office": "Sungai Jawi",
        "State": "Pulau Pinang"
    },
    {
        "Postcode": "14200",
        "Location": "Kampung Tek Leng",
        "Post_Office": "Sungai Jawi",
        "State": "Pulau Pinang"
    },
    {
        "Postcode": "14200",
        "Location": "Kampung Titi Hitam",
        "Post_Office": "Sungai Jawi",
        "State": "Pulau Pinang"
    },
    {
        "Postcode": "14200",
        "Location": "Kampung Ulu",
        "Post_Office": "Sungai Jawi",
        "State": "Pulau Pinang"
    },
    {
        "Postcode": "14200",
        "Location": "Kampung Val D'Or",
        "Post_Office": "Sungai Jawi",
        "State": "Pulau Pinang"
    },
    {
        "Postcode": "14200",
        "Location": "Kampung Valdor Mk.15",
        "Post_Office": "Sungai Jawi",
        "State": "Pulau Pinang"
    },
    {
        "Postcode": "14200",
        "Location": "Kampung Wellesley",
        "Post_Office": "Sungai Jawi",
        "State": "Pulau Pinang"
    },
    {
        "Postcode": "14200",
        "Location": "Kerian Kedah Estate",
        "Post_Office": "Sungai Jawi",
        "State": "Pulau Pinang"
    },
    {
        "Postcode": "14200",
        "Location": "Ladang Chin Phaik Seng",
        "Post_Office": "Sungai Jawi",
        "State": "Pulau Pinang"
    },
    {
        "Postcode": "14200",
        "Location": "Ladang Chong Nam",
        "Post_Office": "Sungai Jawi",
        "State": "Pulau Pinang"
    },
    {
        "Postcode": "14200",
        "Location": "Ladang Lean Seng",
        "Post_Office": "Sungai Jawi",
        "State": "Pulau Pinang"
    },
    {
        "Postcode": "14200",
        "Location": "Ladang Nam Hing",
        "Post_Office": "Sungai Jawi",
        "State": "Pulau Pinang"
    },
    {
        "Postcode": "14200",
        "Location": "Ladang Simpah",
        "Post_Office": "Sungai Jawi",
        "State": "Pulau Pinang"
    },
    {
        "Postcode": "14200",
        "Location": "Ladang Sungai Jawi",
        "Post_Office": "Sungai Jawi",
        "State": "Pulau Pinang"
    },
    {
        "Postcode": "14200",
        "Location": "Ladang Tai Hin",
        "Post_Office": "Sungai Jawi",
        "State": "Pulau Pinang"
    },
    {
        "Postcode": "14200",
        "Location": "Lengkuk Beduk",
        "Post_Office": "Sungai Jawi",
        "State": "Pulau Pinang"
    },
    {
        "Postcode": "14200",
        "Location": "Lima Kongsi",
        "Post_Office": "Sungai Jawi",
        "State": "Pulau Pinang"
    },
    {
        "Postcode": "14200",
        "Location": "Lintang Serindit",
        "Post_Office": "Sungai Jawi",
        "State": "Pulau Pinang"
    },
    {
        "Postcode": "14200",
        "Location": "Lorong Bakap",
        "Post_Office": "Sungai Jawi",
        "State": "Pulau Pinang"
    },
    {
        "Postcode": "14200",
        "Location": "Lorong Beduk",
        "Post_Office": "Sungai Jawi",
        "State": "Pulau Pinang"
    },
    {
        "Postcode": "14200",
        "Location": "Lorong Gendang",
        "Post_Office": "Sungai Jawi",
        "State": "Pulau Pinang"
    },
    {
        "Postcode": "14200",
        "Location": "Lorong Kompang",
        "Post_Office": "Sungai Jawi",
        "State": "Pulau Pinang"
    },
    {
        "Postcode": "14200",
        "Location": "Lorong Puyuh",
        "Post_Office": "Sungai Jawi",
        "State": "Pulau Pinang"
    },
    {
        "Postcode": "14200",
        "Location": "Lorong Selatan",
        "Post_Office": "Sungai Jawi",
        "State": "Pulau Pinang"
    },
    {
        "Postcode": "14200",
        "Location": "Lorong Serunai",
        "Post_Office": "Sungai Jawi",
        "State": "Pulau Pinang"
    },
    {
        "Postcode": "14200",
        "Location": "Lorong Sungai Duri",
        "Post_Office": "Sungai Jawi",
        "State": "Pulau Pinang"
    },
    {
        "Postcode": "14200",
        "Location": "Lorong Tenaga Jaya",
        "Post_Office": "Sungai Jawi",
        "State": "Pulau Pinang"
    },
    {
        "Postcode": "14200",
        "Location": "Lorong Valdor",
        "Post_Office": "Sungai Jawi",
        "State": "Pulau Pinang"
    },
    {
        "Postcode": "14200",
        "Location": "Lorong Valdor Ria",
        "Post_Office": "Sungai Jawi",
        "State": "Pulau Pinang"
    },
    {
        "Postcode": "14200",
        "Location": "Lorong Valdor Ria 1",
        "Post_Office": "Sungai Jawi",
        "State": "Pulau Pinang"
    },
    {
        "Postcode": "14200",
        "Location": "Medan Beduk",
        "Post_Office": "Sungai Jawi",
        "State": "Pulau Pinang"
    },
    {
        "Postcode": "14200",
        "Location": "Nam Hing Estate",
        "Post_Office": "Sungai Jawi",
        "State": "Pulau Pinang"
    },
    {
        "Postcode": "14200",
        "Location": "Pengkalan",
        "Post_Office": "Sungai Jawi",
        "State": "Pulau Pinang"
    },
    {
        "Postcode": "14200",
        "Location": "Perindustrian Kampung Baru Valdor",
        "Post_Office": "Sungai Jawi",
        "State": "Pulau Pinang"
    },
    {
        "Postcode": "14200",
        "Location": "Permatang Beduk",
        "Post_Office": "Sungai Jawi",
        "State": "Pulau Pinang"
    },
    {
        "Postcode": "14200",
        "Location": "Pusat Perniagaan Sri Aman",
        "Post_Office": "Sungai Jawi",
        "State": "Pulau Pinang"
    },
    {
        "Postcode": "14200",
        "Location": "Relau (Kedah)",
        "Post_Office": "Sungai Jawi",
        "State": "Pulau Pinang"
    },
    {
        "Postcode": "14200",
        "Location": "Sungai Bakap",
        "Post_Office": "Sungai Jawi",
        "State": "Pulau Pinang"
    },
    {
        "Postcode": "14200",
        "Location": "Sungai Baong",
        "Post_Office": "Sungai Jawi",
        "State": "Pulau Pinang"
    },
    {
        "Postcode": "14200",
        "Location": "Sungai Duri",
        "Post_Office": "Sungai Jawi",
        "State": "Pulau Pinang"
    },
    {
        "Postcode": "14200",
        "Location": "Sungai Jawi",
        "Post_Office": "Sungai Jawi",
        "State": "Pulau Pinang"
    },
    {
        "Postcode": "14200",
        "Location": "Tai Hin Estate",
        "Post_Office": "Sungai Jawi",
        "State": "Pulau Pinang"
    },
    {
        "Postcode": "14200",
        "Location": "Taman Ah Hwa",
        "Post_Office": "Sungai Jawi",
        "State": "Pulau Pinang"
    },
    {
        "Postcode": "14200",
        "Location": "Taman Bakap Indah",
        "Post_Office": "Sungai Jawi",
        "State": "Pulau Pinang"
    },
    {
        "Postcode": "14200",
        "Location": "Taman Desa Jawi",
        "Post_Office": "Sungai Jawi",
        "State": "Pulau Pinang"
    },
    {
        "Postcode": "14200",
        "Location": "Taman Gamelan",
        "Post_Office": "Sungai Jawi",
        "State": "Pulau Pinang"
    },
    {
        "Postcode": "14200",
        "Location": "Taman Gamilan Indah",
        "Post_Office": "Sungai Jawi",
        "State": "Pulau Pinang"
    },
    {
        "Postcode": "14200",
        "Location": "Taman Hwa Hwa",
        "Post_Office": "Sungai Jawi",
        "State": "Pulau Pinang"
    },
    {
        "Postcode": "14200",
        "Location": "Taman Industri Valdor",
        "Post_Office": "Sungai Jawi",
        "State": "Pulau Pinang"
    },
    {
        "Postcode": "14200",
        "Location": "Taman Jawi",
        "Post_Office": "Sungai Jawi",
        "State": "Pulau Pinang"
    },
    {
        "Postcode": "14200",
        "Location": "Taman Jawi Jaya",
        "Post_Office": "Sungai Jawi",
        "State": "Pulau Pinang"
    },
    {
        "Postcode": "14200",
        "Location": "Taman Jawi Permai",
        "Post_Office": "Sungai Jawi",
        "State": "Pulau Pinang"
    },
    {
        "Postcode": "14200",
        "Location": "Taman Jawi Ria",
        "Post_Office": "Sungai Jawi",
        "State": "Pulau Pinang"
    },
    {
        "Postcode": "14200",
        "Location": "Taman Jelatik",
        "Post_Office": "Sungai Jawi",
        "State": "Pulau Pinang"
    },
    {
        "Postcode": "14200",
        "Location": "Taman Kesuma",
        "Post_Office": "Sungai Jawi",
        "State": "Pulau Pinang"
    },
    {
        "Postcode": "14200",
        "Location": "Taman Ketitir",
        "Post_Office": "Sungai Jawi",
        "State": "Pulau Pinang"
    },
    {
        "Postcode": "14200",
        "Location": "Taman Kuang",
        "Post_Office": "Sungai Jawi",
        "State": "Pulau Pinang"
    },
    {
        "Postcode": "14200",
        "Location": "Taman Lima Kongsi",
        "Post_Office": "Sungai Jawi",
        "State": "Pulau Pinang"
    },
    {
        "Postcode": "14200",
        "Location": "Taman Penyu",
        "Post_Office": "Sungai Jawi",
        "State": "Pulau Pinang"
    },
    {
        "Postcode": "14200",
        "Location": "Taman Perindustrian Nafiri",
        "Post_Office": "Sungai Jawi",
        "State": "Pulau Pinang"
    },
    {
        "Postcode": "14200",
        "Location": "Taman Perindustrian Seruling",
        "Post_Office": "Sungai Jawi",
        "State": "Pulau Pinang"
    },
    {
        "Postcode": "14200",
        "Location": "Taman Perindustrian Valdor",
        "Post_Office": "Sungai Jawi",
        "State": "Pulau Pinang"
    },
    {
        "Postcode": "14200",
        "Location": "Taman Rasa Ria",
        "Post_Office": "Sungai Jawi",
        "State": "Pulau Pinang"
    },
    {
        "Postcode": "14200",
        "Location": "Taman Rebana",
        "Post_Office": "Sungai Jawi",
        "State": "Pulau Pinang"
    },
    {
        "Postcode": "14200",
        "Location": "Taman Seri Seruling",
        "Post_Office": "Sungai Jawi",
        "State": "Pulau Pinang"
    },
    {
        "Postcode": "14200",
        "Location": "Taman Seruling Emas",
        "Post_Office": "Sungai Jawi",
        "State": "Pulau Pinang"
    },
    {
        "Postcode": "14200",
        "Location": "Taman Sungai Bakap",
        "Post_Office": "Sungai Jawi",
        "State": "Pulau Pinang"
    },
    {
        "Postcode": "14200",
        "Location": "Taman Sungai Bakap Permai",
        "Post_Office": "Sungai Jawi",
        "State": "Pulau Pinang"
    },
    {
        "Postcode": "14200",
        "Location": "Taman Sungai Duri",
        "Post_Office": "Sungai Jawi",
        "State": "Pulau Pinang"
    },
    {
        "Postcode": "14200",
        "Location": "Taman Sungai Duri Indah",
        "Post_Office": "Sungai Jawi",
        "State": "Pulau Pinang"
    },
    {
        "Postcode": "14200",
        "Location": "Taman Valdor",
        "Post_Office": "Sungai Jawi",
        "State": "Pulau Pinang"
    },
    {
        "Postcode": "14200",
        "Location": "Taman Valdor Ria",
        "Post_Office": "Sungai Jawi",
        "State": "Pulau Pinang"
    },
    {
        "Postcode": "14200",
        "Location": "Tingkat Kompang",
        "Post_Office": "Sungai Jawi",
        "State": "Pulau Pinang"
    },
    {
        "Postcode": "14200",
        "Location": "Valdor Gate",
        "Post_Office": "Sungai Jawi",
        "State": "Pulau Pinang"
    },
    {
        "Postcode": "14200",
        "Location": "Jalan Sungai Bakap",
        "Post_Office": "Sungai Jawi",
        "State": "Pulau Pinang"
    },
    {
        "Postcode": "14200",
        "Location": "Kampung Tengah",
        "Post_Office": "Sungai Jawi",
        "State": "Pulau Pinang"
    },
    {
        "Postcode": "14200",
        "Location": "Lorong Widuri 2",
        "Post_Office": "Sungai Jawi",
        "State": "Pulau Pinang"
    },
    {
        "Postcode": "14200",
        "Location": "Lorong Widuri 3",
        "Post_Office": "Sungai Jawi",
        "State": "Pulau Pinang"
    },
    {
        "Postcode": "14200",
        "Location": "Sungai Rambai",
        "Post_Office": "Sungai Jawi",
        "State": "Pulau Pinang"
    },
    {
        "Postcode": "14200",
        "Location": "Taman Widuri",
        "Post_Office": "Sungai Jawi",
        "State": "Pulau Pinang"
    },
    {
        "Postcode": "14200",
        "Location": "Lintang Bukit Minyak 1",
        "Post_Office": "Sungai Jawi\r\n",
        "State": "Pulau Pinang"
    },
    {
        "Postcode": "14200",
        "Location": "Lintang Bukit Minyak 2",
        "Post_Office": "Sungai Jawi\r\n",
        "State": "Pulau Pinang"
    },
    {
        "Postcode": "14200",
        "Location": "Taman Seri Tasek",
        "Post_Office": "Sungai Jawi\r\n",
        "State": "Pulau Pinang"
    },
    {
        "Postcode": "14200",
        "Location": "Kompleks Perumahan Penjara Seberang Perai",
        "Post_Office": "Sungai Jawi",
        "State": "Pulau Pinang"
    },
    {
        "Postcode": "14200",
        "Location": "Pangsapuri Arowana",
        "Post_Office": "Sungai Jawi",
        "State": "Pulau Pinang"
    },
    {
        "Postcode": "14200",
        "Location": "Pangsapuri Belida",
        "Post_Office": "Sungai Jawi",
        "State": "Pulau Pinang"
    },
    {
        "Postcode": "14200",
        "Location": "Pangsapuri Jelawat",
        "Post_Office": "Sungai Jawi",
        "State": "Pulau Pinang"
    },
    {
        "Postcode": "14200",
        "Location": "Pangsapuri Kelah",
        "Post_Office": "Sungai Jawi",
        "State": "Pulau Pinang"
    },
    {
        "Postcode": "14200",
        "Location": "Pangsapuri Kelisa",
        "Post_Office": "Sungai Jawi",
        "State": "Pulau Pinang"
    },
    {
        "Postcode": "14200",
        "Location": "Pangsapuri Patin",
        "Post_Office": "Sungai Jawi",
        "State": "Pulau Pinang"
    },
    {
        "Postcode": "14200",
        "Location": "Pangsapuri Tapah",
        "Post_Office": "Sungai Jawi",
        "State": "Pulau Pinang"
    },
    {
        "Postcode": "14200",
        "Location": "Pangsapuri Tilapia",
        "Post_Office": "Sungai Jawi",
        "State": "Pulau Pinang"
    },
    {
        "Postcode": "14200",
        "Location": "Pangsapuri Toman",
        "Post_Office": "Sungai Jawi",
        "State": "Pulau Pinang"
    },
    {
        "Postcode": "14200",
        "Location": "Jalan Jawi Jaya 1",
        "Post_Office": "Sungai Jawi",
        "State": "Pulau Pinang"
    },
    {
        "Postcode": "14200",
        "Location": "Jalan Jawi Jaya 2",
        "Post_Office": "Sungai Jawi",
        "State": "Pulau Pinang"
    },
    {
        "Postcode": "14200",
        "Location": "Jalan Jelatik 1",
        "Post_Office": "Sungai Jawi",
        "State": "Pulau Pinang"
    },
    {
        "Postcode": "14200",
        "Location": "Jalan Jelatik 2",
        "Post_Office": "Sungai Jawi",
        "State": "Pulau Pinang"
    },
    {
        "Postcode": "14200",
        "Location": "Jalan Lima Kongsi 1",
        "Post_Office": "Sungai Jawi",
        "State": "Pulau Pinang"
    },
    {
        "Postcode": "14200",
        "Location": "Jalan Lima Kongsi 10",
        "Post_Office": "Sungai Jawi",
        "State": "Pulau Pinang"
    },
    {
        "Postcode": "14200",
        "Location": "Jalan Lima Kongsi 11",
        "Post_Office": "Sungai Jawi",
        "State": "Pulau Pinang"
    },
    {
        "Postcode": "14200",
        "Location": "Jalan Lima Kongsi 12",
        "Post_Office": "Sungai Jawi",
        "State": "Pulau Pinang"
    },
    {
        "Postcode": "14200",
        "Location": "Jalan Lima Kongsi 13",
        "Post_Office": "Sungai Jawi",
        "State": "Pulau Pinang"
    },
    {
        "Postcode": "14200",
        "Location": "Jalan Lima Kongsi 14",
        "Post_Office": "Sungai Jawi",
        "State": "Pulau Pinang"
    },
    {
        "Postcode": "14200",
        "Location": "Jalan Lima Kongsi 15",
        "Post_Office": "Sungai Jawi",
        "State": "Pulau Pinang"
    },
    {
        "Postcode": "14200",
        "Location": "Jalan Lima Kongsi 16",
        "Post_Office": "Sungai Jawi",
        "State": "Pulau Pinang"
    },
    {
        "Postcode": "14200",
        "Location": "Jalan Lima Kongsi 17",
        "Post_Office": "Sungai Jawi",
        "State": "Pulau Pinang"
    },
    {
        "Postcode": "14200",
        "Location": "Jalan Lima Kongsi 18",
        "Post_Office": "Sungai Jawi",
        "State": "Pulau Pinang"
    },
    {
        "Postcode": "14200",
        "Location": "Jalan Lima Kongsi 2",
        "Post_Office": "Sungai Jawi",
        "State": "Pulau Pinang"
    },
    {
        "Postcode": "14200",
        "Location": "Jalan Lima Kongsi 3",
        "Post_Office": "Sungai Jawi",
        "State": "Pulau Pinang"
    },
    {
        "Postcode": "14200",
        "Location": "Jalan Lima Kongsi 4",
        "Post_Office": "Sungai Jawi",
        "State": "Pulau Pinang"
    },
    {
        "Postcode": "14200",
        "Location": "Jalan Lima Kongsi 5",
        "Post_Office": "Sungai Jawi",
        "State": "Pulau Pinang"
    },
    {
        "Postcode": "14200",
        "Location": "Jalan Lima Kongsi 6",
        "Post_Office": "Sungai Jawi",
        "State": "Pulau Pinang"
    },
    {
        "Postcode": "14200",
        "Location": "Jalan Lima Kongsi 7",
        "Post_Office": "Sungai Jawi",
        "State": "Pulau Pinang"
    },
    {
        "Postcode": "14200",
        "Location": "Jalan Lima Kongsi 8",
        "Post_Office": "Sungai Jawi",
        "State": "Pulau Pinang"
    },
    {
        "Postcode": "14200",
        "Location": "Jalan Lima Kongsi 9",
        "Post_Office": "Sungai Jawi",
        "State": "Pulau Pinang"
    },
    {
        "Postcode": "14200",
        "Location": "Jalan Rebana 1",
        "Post_Office": "Sungai Jawi",
        "State": "Pulau Pinang"
    },
    {
        "Postcode": "14200",
        "Location": "Jalan Rebana 2",
        "Post_Office": "Sungai Jawi",
        "State": "Pulau Pinang"
    },
    {
        "Postcode": "14200",
        "Location": "Jalan Rebana 3",
        "Post_Office": "Sungai Jawi",
        "State": "Pulau Pinang"
    },
    {
        "Postcode": "14200",
        "Location": "Jalan Rebana 4",
        "Post_Office": "Sungai Jawi",
        "State": "Pulau Pinang"
    },
    {
        "Postcode": "14200",
        "Location": "Jalan Rebana 5",
        "Post_Office": "Sungai Jawi",
        "State": "Pulau Pinang"
    },
    {
        "Postcode": "14200",
        "Location": "Jalan Rebana 6",
        "Post_Office": "Sungai Jawi",
        "State": "Pulau Pinang"
    },
    {
        "Postcode": "14200",
        "Location": "Jalan Rebana 7",
        "Post_Office": "Sungai Jawi",
        "State": "Pulau Pinang"
    },
    {
        "Postcode": "14200",
        "Location": "Jalan Seruling Emas 1",
        "Post_Office": "Sungai Jawi",
        "State": "Pulau Pinang"
    },
    {
        "Postcode": "14200",
        "Location": "Jalan Seruling Emas 2",
        "Post_Office": "Sungai Jawi",
        "State": "Pulau Pinang"
    },
    {
        "Postcode": "14200",
        "Location": "Jalan Seruling Emas 3",
        "Post_Office": "Sungai Jawi",
        "State": "Pulau Pinang"
    },
    {
        "Postcode": "14200",
        "Location": "Jalan Seruling Emas 4",
        "Post_Office": "Sungai Jawi",
        "State": "Pulau Pinang"
    },
    {
        "Postcode": "14200",
        "Location": "Jalan Seruling Emas 5",
        "Post_Office": "Sungai Jawi",
        "State": "Pulau Pinang"
    },
    {
        "Postcode": "14200",
        "Location": "Jalan Sungai Duri Indah 10",
        "Post_Office": "Sungai Jawi",
        "State": "Pulau Pinang"
    },
    {
        "Postcode": "14200",
        "Location": "Jalan Sungai Duri Indah 12",
        "Post_Office": "Sungai Jawi",
        "State": "Pulau Pinang"
    },
    {
        "Postcode": "14200",
        "Location": "Jalan Sungai Duri Indah 2",
        "Post_Office": "Sungai Jawi",
        "State": "Pulau Pinang"
    },
    {
        "Postcode": "14200",
        "Location": "Jalan Sungai Duri Indah 4",
        "Post_Office": "Sungai Jawi",
        "State": "Pulau Pinang"
    },
    {
        "Postcode": "14200",
        "Location": "Jalan Sungai Duri Indah 6",
        "Post_Office": "Sungai Jawi",
        "State": "Pulau Pinang"
    },
    {
        "Postcode": "14200",
        "Location": "Jalan Sungai Duri Indah 8",
        "Post_Office": "Sungai Jawi",
        "State": "Pulau Pinang"
    },
    {
        "Postcode": "14200",
        "Location": "Lorong Bakap Indah 1",
        "Post_Office": "Sungai Jawi",
        "State": "Pulau Pinang"
    },
    {
        "Postcode": "14200",
        "Location": "Lorong Bakap Indah 10",
        "Post_Office": "Sungai Jawi",
        "State": "Pulau Pinang"
    },
    {
        "Postcode": "14200",
        "Location": "Lorong Bakap Indah 11",
        "Post_Office": "Sungai Jawi",
        "State": "Pulau Pinang"
    },
    {
        "Postcode": "14200",
        "Location": "Lorong Bakap Indah 12",
        "Post_Office": "Sungai Jawi",
        "State": "Pulau Pinang"
    },
    {
        "Postcode": "14200",
        "Location": "Lorong Bakap Indah 13",
        "Post_Office": "Sungai Jawi",
        "State": "Pulau Pinang"
    },
    {
        "Postcode": "14200",
        "Location": "Lorong Bakap Indah 2",
        "Post_Office": "Sungai Jawi",
        "State": "Pulau Pinang"
    },
    {
        "Postcode": "14200",
        "Location": "Lorong Bakap Indah 3",
        "Post_Office": "Sungai Jawi",
        "State": "Pulau Pinang"
    },
    {
        "Postcode": "14200",
        "Location": "Lorong Bakap Indah 3/1",
        "Post_Office": "Sungai Jawi",
        "State": "Pulau Pinang"
    },
    {
        "Postcode": "14200",
        "Location": "Lorong Bakap Indah 3/2",
        "Post_Office": "Sungai Jawi",
        "State": "Pulau Pinang"
    },
    {
        "Postcode": "14200",
        "Location": "Lorong Bakap Indah 4",
        "Post_Office": "Sungai Jawi",
        "State": "Pulau Pinang"
    },
    {
        "Postcode": "14200",
        "Location": "Lorong Bakap Indah 5",
        "Post_Office": "Sungai Jawi",
        "State": "Pulau Pinang"
    },
    {
        "Postcode": "14200",
        "Location": "Lorong Bakap Indah 6",
        "Post_Office": "Sungai Jawi",
        "State": "Pulau Pinang"
    },
    {
        "Postcode": "14200",
        "Location": "Lorong Bakap Indah 6/1",
        "Post_Office": "Sungai Jawi",
        "State": "Pulau Pinang"
    },
    {
        "Postcode": "14200",
        "Location": "Lorong Bakap Indah 7",
        "Post_Office": "Sungai Jawi",
        "State": "Pulau Pinang"
    },
    {
        "Postcode": "14200",
        "Location": "Lorong Bakap Indah 8",
        "Post_Office": "Sungai Jawi",
        "State": "Pulau Pinang"
    },
    {
        "Postcode": "14200",
        "Location": "Lorong Bakap Indah 8/6",
        "Post_Office": "Sungai Jawi",
        "State": "Pulau Pinang"
    },
    {
        "Postcode": "14200",
        "Location": "Lorong Bakap Indah 9",
        "Post_Office": "Sungai Jawi",
        "State": "Pulau Pinang"
    },
    {
        "Postcode": "14200",
        "Location": "Lorong Bakau 1",
        "Post_Office": "Sungai Jawi",
        "State": "Pulau Pinang"
    },
    {
        "Postcode": "14200",
        "Location": "Lorong Bakau 2",
        "Post_Office": "Sungai Jawi",
        "State": "Pulau Pinang"
    },
    {
        "Postcode": "14200",
        "Location": "Lorong Bakau 3",
        "Post_Office": "Sungai Jawi",
        "State": "Pulau Pinang"
    },
    {
        "Postcode": "14200",
        "Location": "Lorong Bakau 4",
        "Post_Office": "Sungai Jawi",
        "State": "Pulau Pinang"
    },
    {
        "Postcode": "14200",
        "Location": "Lorong Bakau 5",
        "Post_Office": "Sungai Jawi",
        "State": "Pulau Pinang"
    },
    {
        "Postcode": "14200",
        "Location": "Lorong Gamelan 1",
        "Post_Office": "Sungai Jawi",
        "State": "Pulau Pinang"
    },
    {
        "Postcode": "14200",
        "Location": "Lorong Gamelan 2",
        "Post_Office": "Sungai Jawi",
        "State": "Pulau Pinang"
    },
    {
        "Postcode": "14200",
        "Location": "Lorong Gamelan 3",
        "Post_Office": "Sungai Jawi",
        "State": "Pulau Pinang"
    },
    {
        "Postcode": "14200",
        "Location": "Lorong Gamelan 4",
        "Post_Office": "Sungai Jawi",
        "State": "Pulau Pinang"
    },
    {
        "Postcode": "14200",
        "Location": "Lorong Gamelan 5",
        "Post_Office": "Sungai Jawi",
        "State": "Pulau Pinang"
    },
    {
        "Postcode": "14200",
        "Location": "Lorong Gamelan 6",
        "Post_Office": "Sungai Jawi",
        "State": "Pulau Pinang"
    },
    {
        "Postcode": "14200",
        "Location": "Lorong Gamelan 7",
        "Post_Office": "Sungai Jawi",
        "State": "Pulau Pinang"
    },
    {
        "Postcode": "14200",
        "Location": "Lorong Gamelan 8",
        "Post_Office": "Sungai Jawi",
        "State": "Pulau Pinang"
    },
    {
        "Postcode": "14200",
        "Location": "Lorong Gamelan 9",
        "Post_Office": "Sungai Jawi",
        "State": "Pulau Pinang"
    },
    {
        "Postcode": "14200",
        "Location": "Lorong Gamelan Indah 10",
        "Post_Office": "Sungai Jawi",
        "State": "Pulau Pinang"
    },
    {
        "Postcode": "14200",
        "Location": "Lorong Gamelan Indah 11",
        "Post_Office": "Sungai Jawi",
        "State": "Pulau Pinang"
    },
    {
        "Postcode": "14200",
        "Location": "Lorong Gamelan Indah 11/3",
        "Post_Office": "Sungai Jawi",
        "State": "Pulau Pinang"
    },
    {
        "Postcode": "14200",
        "Location": "Lorong Gamelan Indah 12",
        "Post_Office": "Sungai Jawi",
        "State": "Pulau Pinang"
    },
    {
        "Postcode": "14200",
        "Location": "Lorong Gamelan Indah 13",
        "Post_Office": "Sungai Jawi",
        "State": "Pulau Pinang"
    },
    {
        "Postcode": "14200",
        "Location": "Lorong Gamelan Indah 13/1",
        "Post_Office": "Sungai Jawi",
        "State": "Pulau Pinang"
    },
    {
        "Postcode": "14200",
        "Location": "Lorong Gamelan Indah 2",
        "Post_Office": "Sungai Jawi",
        "State": "Pulau Pinang"
    },
    {
        "Postcode": "14200",
        "Location": "Lorong Gamelan Indah 3",
        "Post_Office": "Sungai Jawi",
        "State": "Pulau Pinang"
    },
    {
        "Postcode": "14200",
        "Location": "Lorong Gamelan Indah 4",
        "Post_Office": "Sungai Jawi",
        "State": "Pulau Pinang"
    },
    {
        "Postcode": "14200",
        "Location": "Lorong Gamelan Indah 5",
        "Post_Office": "Sungai Jawi",
        "State": "Pulau Pinang"
    },
    {
        "Postcode": "14200",
        "Location": "Lorong Gamelan Indah 6",
        "Post_Office": "Sungai Jawi",
        "State": "Pulau Pinang"
    },
    {
        "Postcode": "14200",
        "Location": "Lorong Gamelan Indah 7",
        "Post_Office": "Sungai Jawi",
        "State": "Pulau Pinang"
    },
    {
        "Postcode": "14200",
        "Location": "Lorong Gamelan Indah 8",
        "Post_Office": "Sungai Jawi",
        "State": "Pulau Pinang"
    },
    {
        "Postcode": "14200",
        "Location": "Lorong Gamelan Indah 9",
        "Post_Office": "Sungai Jawi",
        "State": "Pulau Pinang"
    },
    {
        "Postcode": "14200",
        "Location": "Lorong Jawi Jaya 1",
        "Post_Office": "Sungai Jawi",
        "State": "Pulau Pinang"
    },
    {
        "Postcode": "14200",
        "Location": "Lorong Jawi Jaya 10",
        "Post_Office": "Sungai Jawi",
        "State": "Pulau Pinang"
    },
    {
        "Postcode": "14200",
        "Location": "Lorong Jawi Jaya 11",
        "Post_Office": "Sungai Jawi",
        "State": "Pulau Pinang"
    },
    {
        "Postcode": "14200",
        "Location": "Lorong Jawi Jaya 12",
        "Post_Office": "Sungai Jawi",
        "State": "Pulau Pinang"
    },
    {
        "Postcode": "14200",
        "Location": "Lorong Jawi Jaya 13",
        "Post_Office": "Sungai Jawi",
        "State": "Pulau Pinang"
    },
    {
        "Postcode": "14200",
        "Location": "Lorong Jawi Jaya 14",
        "Post_Office": "Sungai Jawi",
        "State": "Pulau Pinang"
    },
    {
        "Postcode": "14200",
        "Location": "Lorong Jawi Jaya 15",
        "Post_Office": "Sungai Jawi",
        "State": "Pulau Pinang"
    },
    {
        "Postcode": "14200",
        "Location": "Lorong Jawi Jaya 16",
        "Post_Office": "Sungai Jawi",
        "State": "Pulau Pinang"
    },
    {
        "Postcode": "14200",
        "Location": "Lorong Jawi Jaya 17",
        "Post_Office": "Sungai Jawi",
        "State": "Pulau Pinang"
    },
    {
        "Postcode": "14200",
        "Location": "Lorong Jawi Jaya 18",
        "Post_Office": "Sungai Jawi",
        "State": "Pulau Pinang"
    },
    {
        "Postcode": "14200",
        "Location": "Lorong Jawi Jaya 2",
        "Post_Office": "Sungai Jawi",
        "State": "Pulau Pinang"
    },
    {
        "Postcode": "14200",
        "Location": "Lorong Jawi Jaya 3",
        "Post_Office": "Sungai Jawi",
        "State": "Pulau Pinang"
    },
    {
        "Postcode": "14200",
        "Location": "Lorong Jawi Jaya 4",
        "Post_Office": "Sungai Jawi",
        "State": "Pulau Pinang"
    },
    {
        "Postcode": "14200",
        "Location": "Lorong Jawi Jaya 5",
        "Post_Office": "Sungai Jawi",
        "State": "Pulau Pinang"
    },
    {
        "Postcode": "14200",
        "Location": "Lorong Jawi Jaya 6",
        "Post_Office": "Sungai Jawi",
        "State": "Pulau Pinang"
    },
    {
        "Postcode": "14200",
        "Location": "Lorong Jawi Jaya 7",
        "Post_Office": "Sungai Jawi",
        "State": "Pulau Pinang"
    },
    {
        "Postcode": "14200",
        "Location": "Lorong Jawi Jaya 8",
        "Post_Office": "Sungai Jawi",
        "State": "Pulau Pinang"
    },
    {
        "Postcode": "14200",
        "Location": "Lorong Jawi Jaya 9",
        "Post_Office": "Sungai Jawi",
        "State": "Pulau Pinang"
    },
    {
        "Postcode": "14200",
        "Location": "Lorong Jawi Permai 1",
        "Post_Office": "Sungai Jawi",
        "State": "Pulau Pinang"
    },
    {
        "Postcode": "14200",
        "Location": "Lorong Jawi Permai 10",
        "Post_Office": "Sungai Jawi",
        "State": "Pulau Pinang"
    },
    {
        "Postcode": "14200",
        "Location": "Lorong Jawi Permai 2",
        "Post_Office": "Sungai Jawi",
        "State": "Pulau Pinang"
    },
    {
        "Postcode": "14200",
        "Location": "Lorong Jawi Permai 3",
        "Post_Office": "Sungai Jawi",
        "State": "Pulau Pinang"
    },
    {
        "Postcode": "14200",
        "Location": "Lorong Jawi Permai 4",
        "Post_Office": "Sungai Jawi",
        "State": "Pulau Pinang"
    },
    {
        "Postcode": "14200",
        "Location": "Lorong Jawi Permai 5",
        "Post_Office": "Sungai Jawi",
        "State": "Pulau Pinang"
    },
    {
        "Postcode": "14200",
        "Location": "Lorong Jawi Permai 6",
        "Post_Office": "Sungai Jawi",
        "State": "Pulau Pinang"
    },
    {
        "Postcode": "14200",
        "Location": "Lorong Jawi Permai 7",
        "Post_Office": "Sungai Jawi",
        "State": "Pulau Pinang"
    },
    {
        "Postcode": "14200",
        "Location": "Lorong Jawi Permai 8",
        "Post_Office": "Sungai Jawi",
        "State": "Pulau Pinang"
    },
    {
        "Postcode": "14200",
        "Location": "Lorong Jawi Permai 9",
        "Post_Office": "Sungai Jawi",
        "State": "Pulau Pinang"
    },
    {
        "Postcode": "14200",
        "Location": "Lorong Jawi Ria 1",
        "Post_Office": "Sungai Jawi",
        "State": "Pulau Pinang"
    },
    {
        "Postcode": "14200",
        "Location": "Lorong Jawi Ria 10",
        "Post_Office": "Sungai Jawi",
        "State": "Pulau Pinang"
    },
    {
        "Postcode": "14200",
        "Location": "Lorong Jawi Ria 11",
        "Post_Office": "Sungai Jawi",
        "State": "Pulau Pinang"
    },
    {
        "Postcode": "14200",
        "Location": "Lorong Jawi Ria 12",
        "Post_Office": "Sungai Jawi",
        "State": "Pulau Pinang"
    },
    {
        "Postcode": "14200",
        "Location": "Lorong Jawi Ria 2",
        "Post_Office": "Sungai Jawi",
        "State": "Pulau Pinang"
    },
    {
        "Postcode": "14200",
        "Location": "Lorong Jawi Ria 3",
        "Post_Office": "Sungai Jawi",
        "State": "Pulau Pinang"
    },
    {
        "Postcode": "14200",
        "Location": "Lorong Jawi Ria 4",
        "Post_Office": "Sungai Jawi",
        "State": "Pulau Pinang"
    },
    {
        "Postcode": "14200",
        "Location": "Lorong Jawi Ria 5",
        "Post_Office": "Sungai Jawi",
        "State": "Pulau Pinang"
    },
    {
        "Postcode": "14200",
        "Location": "Lorong Jawi Ria 6",
        "Post_Office": "Sungai Jawi",
        "State": "Pulau Pinang"
    },
    {
        "Postcode": "14200",
        "Location": "Lorong Jawi Ria 7",
        "Post_Office": "Sungai Jawi",
        "State": "Pulau Pinang"
    },
    {
        "Postcode": "14200",
        "Location": "Lorong Jawi Ria 8",
        "Post_Office": "Sungai Jawi",
        "State": "Pulau Pinang"
    },
    {
        "Postcode": "14200",
        "Location": "Lorong Jawi Ria 9",
        "Post_Office": "Sungai Jawi",
        "State": "Pulau Pinang"
    },
    {
        "Postcode": "14200",
        "Location": "Lorong Kesumba 1",
        "Post_Office": "Sungai Jawi",
        "State": "Pulau Pinang"
    },
    {
        "Postcode": "14200",
        "Location": "Lorong Kesumba 2",
        "Post_Office": "Sungai Jawi",
        "State": "Pulau Pinang"
    },
    {
        "Postcode": "14200",
        "Location": "Lorong Kesumba 3",
        "Post_Office": "Sungai Jawi",
        "State": "Pulau Pinang"
    },
    {
        "Postcode": "14200",
        "Location": "Lorong Kesumba 4",
        "Post_Office": "Sungai Jawi",
        "State": "Pulau Pinang"
    },
    {
        "Postcode": "14200",
        "Location": "Lorong Kesumba 5",
        "Post_Office": "Sungai Jawi",
        "State": "Pulau Pinang"
    },
    {
        "Postcode": "14200",
        "Location": "Lorong Kesumba 6",
        "Post_Office": "Sungai Jawi",
        "State": "Pulau Pinang"
    },
    {
        "Postcode": "14200",
        "Location": "Lorong Kesumba 7",
        "Post_Office": "Sungai Jawi",
        "State": "Pulau Pinang"
    },
    {
        "Postcode": "14200",
        "Location": "Lorong Kesumba 8",
        "Post_Office": "Sungai Jawi",
        "State": "Pulau Pinang"
    },
    {
        "Postcode": "14200",
        "Location": "Lorong Kesumba 9",
        "Post_Office": "Sungai Jawi",
        "State": "Pulau Pinang"
    },
    {
        "Postcode": "14200",
        "Location": "Lorong Ketitir 1",
        "Post_Office": "Sungai Jawi",
        "State": "Pulau Pinang"
    },
    {
        "Postcode": "14200",
        "Location": "Lorong Ketitir 2",
        "Post_Office": "Sungai Jawi",
        "State": "Pulau Pinang"
    },
    {
        "Postcode": "14200",
        "Location": "Lorong Ketitir 2A",
        "Post_Office": "Sungai Jawi",
        "State": "Pulau Pinang"
    },
    {
        "Postcode": "14200",
        "Location": "Lorong Ketitir 2B",
        "Post_Office": "Sungai Jawi",
        "State": "Pulau Pinang"
    },
    {
        "Postcode": "14200",
        "Location": "Lorong Ketitir 2C",
        "Post_Office": "Sungai Jawi",
        "State": "Pulau Pinang"
    },
    {
        "Postcode": "14200",
        "Location": "Lorong Kuang 1",
        "Post_Office": "Sungai Jawi",
        "State": "Pulau Pinang"
    },
    {
        "Postcode": "14200",
        "Location": "Lorong Kuang 2",
        "Post_Office": "Sungai Jawi",
        "State": "Pulau Pinang"
    },
    {
        "Postcode": "14200",
        "Location": "Lorong Nafiri 1",
        "Post_Office": "Sungai Jawi",
        "State": "Pulau Pinang"
    },
    {
        "Postcode": "14200",
        "Location": "Lorong Nafiri 2",
        "Post_Office": "Sungai Jawi",
        "State": "Pulau Pinang"
    },
    {
        "Postcode": "14200",
        "Location": "Lorong Nafiri 3",
        "Post_Office": "Sungai Jawi",
        "State": "Pulau Pinang"
    },
    {
        "Postcode": "14200",
        "Location": "Lorong Nafiri 4",
        "Post_Office": "Sungai Jawi",
        "State": "Pulau Pinang"
    },
    {
        "Postcode": "14200",
        "Location": "Lorong Punggok 1",
        "Post_Office": "Sungai Jawi",
        "State": "Pulau Pinang"
    },
    {
        "Postcode": "14200",
        "Location": "Lorong Punggok 2",
        "Post_Office": "Sungai Jawi",
        "State": "Pulau Pinang"
    },
    {
        "Postcode": "14200",
        "Location": "Lorong Selatan 1",
        "Post_Office": "Sungai Jawi",
        "State": "Pulau Pinang"
    },
    {
        "Postcode": "14200",
        "Location": "Lorong Selatan 3",
        "Post_Office": "Sungai Jawi",
        "State": "Pulau Pinang"
    },
    {
        "Postcode": "14200",
        "Location": "Lorong Seri Aman 3",
        "Post_Office": "Sungai Jawi",
        "State": "Pulau Pinang"
    },
    {
        "Postcode": "14200",
        "Location": "Lorong Seri Aman 4",
        "Post_Office": "Sungai Jawi",
        "State": "Pulau Pinang"
    },
    {
        "Postcode": "14200",
        "Location": "Lorong Seri Aman 5",
        "Post_Office": "Sungai Jawi",
        "State": "Pulau Pinang"
    },
    {
        "Postcode": "14200",
        "Location": "Lorong Seri Seruling 10",
        "Post_Office": "Sungai Jawi",
        "State": "Pulau Pinang"
    },
    {
        "Postcode": "14200",
        "Location": "Lorong Seri Seruling 2",
        "Post_Office": "Sungai Jawi",
        "State": "Pulau Pinang"
    },
    {
        "Postcode": "14200",
        "Location": "Lorong Seri Seruling 3",
        "Post_Office": "Sungai Jawi",
        "State": "Pulau Pinang"
    },
    {
        "Postcode": "14200",
        "Location": "Lorong Seri Seruling 4",
        "Post_Office": "Sungai Jawi",
        "State": "Pulau Pinang"
    },
    {
        "Postcode": "14200",
        "Location": "Lorong Seri Seruling 6",
        "Post_Office": "Sungai Jawi",
        "State": "Pulau Pinang"
    },
    {
        "Postcode": "14200",
        "Location": "Lorong Seri Seruling 8",
        "Post_Office": "Sungai Jawi",
        "State": "Pulau Pinang"
    },
    {
        "Postcode": "14200",
        "Location": "Lorong Serindit 1",
        "Post_Office": "Sungai Jawi",
        "State": "Pulau Pinang"
    },
    {
        "Postcode": "14200",
        "Location": "Lorong Serindit 2",
        "Post_Office": "Sungai Jawi",
        "State": "Pulau Pinang"
    },
    {
        "Postcode": "14200",
        "Location": "Lorong Serindit 3",
        "Post_Office": "Sungai Jawi",
        "State": "Pulau Pinang"
    },
    {
        "Postcode": "14200",
        "Location": "Lorong Serindit 4",
        "Post_Office": "Sungai Jawi",
        "State": "Pulau Pinang"
    },
    {
        "Postcode": "14200",
        "Location": "Lorong Seruling 1",
        "Post_Office": "Sungai Jawi",
        "State": "Pulau Pinang"
    },
    {
        "Postcode": "14200",
        "Location": "Lorong Seruling 2",
        "Post_Office": "Sungai Jawi",
        "State": "Pulau Pinang"
    },
    {
        "Postcode": "14200",
        "Location": "Lorong Seruling 3",
        "Post_Office": "Sungai Jawi",
        "State": "Pulau Pinang"
    },
    {
        "Postcode": "14200",
        "Location": "Lorong Seruling 4",
        "Post_Office": "Sungai Jawi",
        "State": "Pulau Pinang"
    },
    {
        "Postcode": "14200",
        "Location": "Lorong Seruling 5",
        "Post_Office": "Sungai Jawi",
        "State": "Pulau Pinang"
    },
    {
        "Postcode": "14200",
        "Location": "Lorong Seruling Emas 1",
        "Post_Office": "Sungai Jawi",
        "State": "Pulau Pinang"
    },
    {
        "Postcode": "14200",
        "Location": "Lorong Seruling Emas 10",
        "Post_Office": "Sungai Jawi",
        "State": "Pulau Pinang"
    },
    {
        "Postcode": "14200",
        "Location": "Lorong Seruling Emas 11",
        "Post_Office": "Sungai Jawi",
        "State": "Pulau Pinang"
    },
    {
        "Postcode": "14200",
        "Location": "Lorong Seruling Emas 2",
        "Post_Office": "Sungai Jawi",
        "State": "Pulau Pinang"
    },
    {
        "Postcode": "14200",
        "Location": "Lorong Seruling Emas 3",
        "Post_Office": "Sungai Jawi",
        "State": "Pulau Pinang"
    },
    {
        "Postcode": "14200",
        "Location": "Lorong Seruling Emas 4",
        "Post_Office": "Sungai Jawi",
        "State": "Pulau Pinang"
    },
    {
        "Postcode": "14200",
        "Location": "Lorong Seruling Emas 5",
        "Post_Office": "Sungai Jawi",
        "State": "Pulau Pinang"
    },
    {
        "Postcode": "14200",
        "Location": "Lorong Seruling Emas 6",
        "Post_Office": "Sungai Jawi",
        "State": "Pulau Pinang"
    },
    {
        "Postcode": "14200",
        "Location": "Lorong Seruling Emas 7",
        "Post_Office": "Sungai Jawi",
        "State": "Pulau Pinang"
    },
    {
        "Postcode": "14200",
        "Location": "Lorong Seruling Emas 8",
        "Post_Office": "Sungai Jawi",
        "State": "Pulau Pinang"
    },
    {
        "Postcode": "14200",
        "Location": "Lorong Seruling Emas 9",
        "Post_Office": "Sungai Jawi",
        "State": "Pulau Pinang"
    },
    {
        "Postcode": "14200",
        "Location": "Lorong Serunai 1",
        "Post_Office": "Sungai Jawi",
        "State": "Pulau Pinang"
    },
    {
        "Postcode": "14200",
        "Location": "Lorong Serunai 2",
        "Post_Office": "Sungai Jawi",
        "State": "Pulau Pinang"
    },
    {
        "Postcode": "14200",
        "Location": "Lorong Serunai 3",
        "Post_Office": "Sungai Jawi",
        "State": "Pulau Pinang"
    },
    {
        "Postcode": "14200",
        "Location": "Lorong Sungai Bakap Permai 1",
        "Post_Office": "Sungai Jawi",
        "State": "Pulau Pinang"
    },
    {
        "Postcode": "14200",
        "Location": "Lorong Sungai Bakap Permai 10",
        "Post_Office": "Sungai Jawi",
        "State": "Pulau Pinang"
    },
    {
        "Postcode": "14200",
        "Location": "Lorong Sungai Bakap Permai 11",
        "Post_Office": "Sungai Jawi",
        "State": "Pulau Pinang"
    },
    {
        "Postcode": "14200",
        "Location": "Lorong Sungai Bakap Permai 12",
        "Post_Office": "Sungai Jawi",
        "State": "Pulau Pinang"
    },
    {
        "Postcode": "14200",
        "Location": "Lorong Sungai Bakap Permai 13",
        "Post_Office": "Sungai Jawi",
        "State": "Pulau Pinang"
    },
    {
        "Postcode": "14200",
        "Location": "Lorong Sungai Bakap Permai 14",
        "Post_Office": "Sungai Jawi",
        "State": "Pulau Pinang"
    },
    {
        "Postcode": "14200",
        "Location": "Lorong Sungai Bakap Permai 15",
        "Post_Office": "Sungai Jawi",
        "State": "Pulau Pinang"
    },
    {
        "Postcode": "14200",
        "Location": "Lorong Sungai Bakap Permai 16",
        "Post_Office": "Sungai Jawi",
        "State": "Pulau Pinang"
    },
    {
        "Postcode": "14200",
        "Location": "Lorong Sungai Bakap Permai 17",
        "Post_Office": "Sungai Jawi",
        "State": "Pulau Pinang"
    },
    {
        "Postcode": "14200",
        "Location": "Lorong Sungai Bakap Permai 2",
        "Post_Office": "Sungai Jawi",
        "State": "Pulau Pinang"
    },
    {
        "Postcode": "14200",
        "Location": "Lorong Sungai Bakap Permai 3",
        "Post_Office": "Sungai Jawi",
        "State": "Pulau Pinang"
    },
    {
        "Postcode": "14200",
        "Location": "Lorong Sungai Bakap Permai 4",
        "Post_Office": "Sungai Jawi",
        "State": "Pulau Pinang"
    },
    {
        "Postcode": "14200",
        "Location": "Lorong Sungai Bakap Permai 5",
        "Post_Office": "Sungai Jawi",
        "State": "Pulau Pinang"
    },
    {
        "Postcode": "14200",
        "Location": "Lorong Sungai Bakap Permai 6",
        "Post_Office": "Sungai Jawi",
        "State": "Pulau Pinang"
    },
    {
        "Postcode": "14200",
        "Location": "Lorong Sungai Bakap Permai 7",
        "Post_Office": "Sungai Jawi",
        "State": "Pulau Pinang"
    },
    {
        "Postcode": "14200",
        "Location": "Lorong Sungai Bakap Permai 8",
        "Post_Office": "Sungai Jawi",
        "State": "Pulau Pinang"
    },
    {
        "Postcode": "14200",
        "Location": "Lorong Sungai Bakap Permai 9",
        "Post_Office": "Sungai Jawi",
        "State": "Pulau Pinang"
    },
    {
        "Postcode": "14200",
        "Location": "Lorong Sungai Duri 1",
        "Post_Office": "Sungai Jawi",
        "State": "Pulau Pinang"
    },
    {
        "Postcode": "14200",
        "Location": "Lorong Sungai Duri 10",
        "Post_Office": "Sungai Jawi",
        "State": "Pulau Pinang"
    },
    {
        "Postcode": "14200",
        "Location": "Lorong Sungai Duri 11",
        "Post_Office": "Sungai Jawi",
        "State": "Pulau Pinang"
    },
    {
        "Postcode": "14200",
        "Location": "Lorong Sungai Duri 2",
        "Post_Office": "Sungai Jawi",
        "State": "Pulau Pinang"
    },
    {
        "Postcode": "14200",
        "Location": "Lorong Sungai Duri 3",
        "Post_Office": "Sungai Jawi",
        "State": "Pulau Pinang"
    },
    {
        "Postcode": "14200",
        "Location": "Lorong Sungai Duri 4",
        "Post_Office": "Sungai Jawi",
        "State": "Pulau Pinang"
    },
    {
        "Postcode": "14200",
        "Location": "Lorong Sungai Duri 5",
        "Post_Office": "Sungai Jawi",
        "State": "Pulau Pinang"
    },
    {
        "Postcode": "14200",
        "Location": "Lorong Sungai Duri 6",
        "Post_Office": "Sungai Jawi",
        "State": "Pulau Pinang"
    },
    {
        "Postcode": "14200",
        "Location": "Lorong Sungai Duri 7",
        "Post_Office": "Sungai Jawi",
        "State": "Pulau Pinang"
    },
    {
        "Postcode": "14200",
        "Location": "Lorong Sungai Duri 8",
        "Post_Office": "Sungai Jawi",
        "State": "Pulau Pinang"
    },
    {
        "Postcode": "14200",
        "Location": "Lorong Sungai Duri 9",
        "Post_Office": "Sungai Jawi",
        "State": "Pulau Pinang"
    },
    {
        "Postcode": "14200",
        "Location": "Lorong Widuri 10",
        "Post_Office": "Sungai Jawi",
        "State": "Pulau Pinang"
    },
    {
        "Postcode": "14200",
        "Location": "Lorong Widuri 11",
        "Post_Office": "Sungai Jawi",
        "State": "Pulau Pinang"
    },
    {
        "Postcode": "14200",
        "Location": "Lorong Widuri 12",
        "Post_Office": "Sungai Jawi",
        "State": "Pulau Pinang"
    },
    {
        "Postcode": "14200",
        "Location": "Lorong Widuri 13",
        "Post_Office": "Sungai Jawi",
        "State": "Pulau Pinang"
    },
    {
        "Postcode": "14200",
        "Location": "Lorong Widuri 14",
        "Post_Office": "Sungai Jawi",
        "State": "Pulau Pinang"
    },
    {
        "Postcode": "14200",
        "Location": "Lorong Widuri 15",
        "Post_Office": "Sungai Jawi",
        "State": "Pulau Pinang"
    },
    {
        "Postcode": "14200",
        "Location": "Lorong Widuri 16",
        "Post_Office": "Sungai Jawi",
        "State": "Pulau Pinang"
    },
    {
        "Postcode": "14200",
        "Location": "Lorong Widuri 17",
        "Post_Office": "Sungai Jawi",
        "State": "Pulau Pinang"
    },
    {
        "Postcode": "14200",
        "Location": "Lorong Widuri 18",
        "Post_Office": "Sungai Jawi",
        "State": "Pulau Pinang"
    },
    {
        "Postcode": "14200",
        "Location": "Lorong Widuri 19",
        "Post_Office": "Sungai Jawi",
        "State": "Pulau Pinang"
    },
    {
        "Postcode": "14200",
        "Location": "Lorong Widuri 20",
        "Post_Office": "Sungai Jawi",
        "State": "Pulau Pinang"
    },
    {
        "Postcode": "14200",
        "Location": "Lorong Widuri 21",
        "Post_Office": "Sungai Jawi",
        "State": "Pulau Pinang"
    },
    {
        "Postcode": "14200",
        "Location": "Lorong Widuri 22",
        "Post_Office": "Sungai Jawi",
        "State": "Pulau Pinang"
    },
    {
        "Postcode": "14200",
        "Location": "Lorong Widuri 23",
        "Post_Office": "Sungai Jawi",
        "State": "Pulau Pinang"
    },
    {
        "Postcode": "14200",
        "Location": "Lorong Widuri 24",
        "Post_Office": "Sungai Jawi",
        "State": "Pulau Pinang"
    },
    {
        "Postcode": "14200",
        "Location": "Lorong Widuri 25",
        "Post_Office": "Sungai Jawi",
        "State": "Pulau Pinang"
    },
    {
        "Postcode": "14200",
        "Location": "Lorong Widuri 26",
        "Post_Office": "Sungai Jawi",
        "State": "Pulau Pinang"
    },
    {
        "Postcode": "14200",
        "Location": "Lorong Widuri 27",
        "Post_Office": "Sungai Jawi",
        "State": "Pulau Pinang"
    },
    {
        "Postcode": "14200",
        "Location": "Lorong Widuri 28",
        "Post_Office": "Sungai Jawi",
        "State": "Pulau Pinang"
    },
    {
        "Postcode": "14200",
        "Location": "Lorong Widuri 29",
        "Post_Office": "Sungai Jawi",
        "State": "Pulau Pinang"
    },
    {
        "Postcode": "14200",
        "Location": "Lorong Widuri 4",
        "Post_Office": "Sungai Jawi",
        "State": "Pulau Pinang"
    },
    {
        "Postcode": "14200",
        "Location": "Lorong Widuri 5",
        "Post_Office": "Sungai Jawi",
        "State": "Pulau Pinang"
    },
    {
        "Postcode": "14200",
        "Location": "Lorong Widuri 6",
        "Post_Office": "Sungai Jawi",
        "State": "Pulau Pinang"
    },
    {
        "Postcode": "14200",
        "Location": "Lorong Widuri 7",
        "Post_Office": "Sungai Jawi",
        "State": "Pulau Pinang"
    },
    {
        "Postcode": "14200",
        "Location": "Lorong Widuri 8",
        "Post_Office": "Sungai Jawi",
        "State": "Pulau Pinang"
    },
    {
        "Postcode": "14200",
        "Location": "Lorong Widuri 9",
        "Post_Office": "Sungai Jawi",
        "State": "Pulau Pinang"
    },
    {
        "Postcode": "14200",
        "Location": "Persiaran Bukit Jawi 1",
        "Post_Office": "Sungai Jawi",
        "State": "Pulau Pinang"
    },
    {
        "Postcode": "14200",
        "Location": "Persiaran Bukit Jawi 2",
        "Post_Office": "Sungai Jawi",
        "State": "Pulau Pinang"
    },
    {
        "Postcode": "14200",
        "Location": "Persiaran Bukit Jawi 4",
        "Post_Office": "Sungai Jawi",
        "State": "Pulau Pinang"
    },
    {
        "Postcode": "14200",
        "Location": "Tingkat Beduk 1",
        "Post_Office": "Sungai Jawi",
        "State": "Pulau Pinang"
    },
    {
        "Postcode": "14200",
        "Location": "Tingkat Beduk 2",
        "Post_Office": "Sungai Jawi",
        "State": "Pulau Pinang"
    },
    {
        "Postcode": "14200",
        "Location": "Tingkat Beduk 3",
        "Post_Office": "Sungai Jawi",
        "State": "Pulau Pinang"
    },
    {
        "Postcode": "14200",
        "Location": "Tingkat Punggok 1",
        "Post_Office": "Sungai Jawi",
        "State": "Pulau Pinang"
    },
    {
        "Postcode": "14200",
        "Location": "Tingkat Punggok 2",
        "Post_Office": "Sungai Jawi",
        "State": "Pulau Pinang"
    },
    {
        "Postcode": "14200",
        "Location": "Tingkat Serindit 1",
        "Post_Office": "Sungai Jawi",
        "State": "Pulau Pinang"
    },
    {
        "Postcode": "14200",
        "Location": "Tingkat Serindit 2",
        "Post_Office": "Sungai Jawi",
        "State": "Pulau Pinang"
    },
    {
        "Postcode": "14200",
        "Location": "Tingkat Serindit 3",
        "Post_Office": "Sungai Jawi",
        "State": "Pulau Pinang"
    },
    {
        "Postcode": "14200",
        "Location": "Tingkat Serindit 4",
        "Post_Office": "Sungai Jawi",
        "State": "Pulau Pinang"
    },
    {
        "Postcode": "14200",
        "Location": "Tingkat Serindit 5",
        "Post_Office": "Sungai Jawi",
        "State": "Pulau Pinang"
    },
    {
        "Postcode": "14200",
        "Location": "Tingkat Serindit 6",
        "Post_Office": "Sungai Jawi",
        "State": "Pulau Pinang"
    },
    {
        "Postcode": "14200",
        "Location": "Tingkat Serindit 7",
        "Post_Office": "Sungai Jawi",
        "State": "Pulau Pinang"
    },
    {
        "Postcode": "14200",
        "Location": "Tingkat Serindit 8",
        "Post_Office": "Sungai Jawi",
        "State": "Pulau Pinang"
    },
    {
        "Postcode": "14200",
        "Location": "Tingkat Serindit 9",
        "Post_Office": "Sungai Jawi",
        "State": "Pulau Pinang"
    },
    {
        "Postcode": "14200",
        "Location": "Pusat Perniagaan Valdor Jaya",
        "Post_Office": "Sungai Jawi",
        "State": "Pulau Pinang"
    },
    {
        "Postcode": "14200",
        "Location": "Kampung Changkat Dain",
        "Post_Office": "Sungai Jawi",
        "State": "Pulau Pinang"
    },
    {
        "Postcode": "14200",
        "Location": "Kampung Lima Sungai Duri",
        "Post_Office": "Sungai Jawi",
        "State": "Pulau Pinang"
    },
    {
        "Postcode": "14200",
        "Location": "Kampung Relau Indah Kedah",
        "Post_Office": "Sungai Jawi",
        "State": "Pulau Pinang"
    },
    {
        "Postcode": "14200",
        "Location": "Ladang Jawi",
        "Post_Office": "Sungai Jawi",
        "State": "Pulau Pinang"
    },
    {
        "Postcode": "14200",
        "Location": "Taman Gamelan Indah",
        "Post_Office": "Sungai Jawi",
        "State": "Pulau Pinang"
    },
    {
        "Postcode": "14200",
        "Location": "Taman Hijauan",
        "Post_Office": "Sungai Jawi",
        "State": "Pulau Pinang"
    },
    {
        "Postcode": "14200",
        "Location": "Taman How Hwa",
        "Post_Office": "Sungai Jawi",
        "State": "Pulau Pinang"
    },
    {
        "Postcode": "14200",
        "Location": "Taman Jawi Indah",
        "Post_Office": "Sungai Jawi",
        "State": "Pulau Pinang"
    },
    {
        "Postcode": "14200",
        "Location": "Taman Kesumba",
        "Post_Office": "Sungai Jawi",
        "State": "Pulau Pinang"
    },
    {
        "Postcode": "14200",
        "Location": "Taman Perindustrian Kampung Baru",
        "Post_Office": "Sungai Jawi",
        "State": "Pulau Pinang"
    },
    {
        "Postcode": "14200",
        "Location": "Taman Sungai Jawi",
        "Post_Office": "Sungai Jawi",
        "State": "Pulau Pinang"
    },
    {
        "Postcode": "14200",
        "Location": "Taman Wellesley",
        "Post_Office": "Sungai Jawi",
        "State": "Pulau Pinang"
    },
    {
        "Postcode": "14200",
        "Location": "Jalan Aman",
        "Post_Office": "Sungai Jawi",
        "State": "Pulau Pinang"
    },
    {
        "Postcode": "14200",
        "Location": "Jalan Ketitir 1",
        "Post_Office": "Sungai Jawi",
        "State": "Pulau Pinang"
    },
    {
        "Postcode": "14200",
        "Location": "Jalan Ketitir 2",
        "Post_Office": "Sungai Jawi",
        "State": "Pulau Pinang"
    },
    {
        "Postcode": "14200",
        "Location": "Jalan Sentosa",
        "Post_Office": "Sungai Jawi",
        "State": "Pulau Pinang"
    },
    {
        "Postcode": "14200",
        "Location": "Jalan Simpah",
        "Post_Office": "Sungai Jawi",
        "State": "Pulau Pinang"
    },
    {
        "Postcode": "14200",
        "Location": "Kampung Gurun",
        "Post_Office": "Sungai Jawi",
        "State": "Pulau Pinang"
    },
    {
        "Postcode": "14200",
        "Location": "Taman Belibis",
        "Post_Office": "Sungai Jawi",
        "State": "Pulau Pinang"
    },
    {
        "Postcode": "14200",
        "Location": "Taman Jelita",
        "Post_Office": "Sungai Jawi",
        "State": "Pulau Pinang"
    },
    {
        "Postcode": "14200",
        "Location": "Kampung Pengkalan",
        "Post_Office": "Sungai Jawi",
        "State": "Pulau Pinang"
    },
    {
        "Postcode": "14200",
        "Location": "Lorong Widuri 1",
        "Post_Office": "Sungai Jawi",
        "State": "Pulau Pinang"
    },
    {
        "Postcode": "14200",
        "Location": "Taman Sri Aman",
        "Post_Office": "Sungai Jawi",
        "State": "Pulau Pinang"
    }
]
