[
    {
        "Postcode": "14310",
        "Location": "Ban Sungai Acheh",
        "Post_Office": "Nibong Tebal",
        "State": "Pulau Pinang"
    },
    {
        "Postcode": "14310",
        "Location": "Batas Ban Sungai Udang",
        "Post_Office": "Nibong Tebal",
        "State": "Pulau Pinang"
    },
    {
        "Postcode": "14310",
        "Location": "Batas Pinang",
        "Post_Office": "Nibong Tebal",
        "State": "Pulau Pinang"
    },
    {
        "Postcode": "14310",
        "Location": "Batas Pinang Bawah",
        "Post_Office": "Nibong Tebal",
        "State": "Pulau Pinang"
    },
    {
        "Postcode": "14310",
        "Location": "Jalan Sungai Udang",
        "Post_Office": "Nibong Tebal",
        "State": "Pulau Pinang"
    },
    {
        "Postcode": "14310",
        "Location": "Kampung Sungai Udang",
        "Post_Office": "Nibong Tebal",
        "State": "Pulau Pinang"
    },
    {
        "Postcode": "14310",
        "Location": "Kampung Tanah Kebun",
        "Post_Office": "Nibong Tebal",
        "State": "Pulau Pinang"
    },
    {
        "Postcode": "14310",
        "Location": "Simpang Tiga Tok Mandin",
        "Post_Office": "Nibong Tebal",
        "State": "Pulau Pinang"
    },
    {
        "Postcode": "14310",
        "Location": "Sungai Acheh",
        "Post_Office": "Nibong Tebal",
        "State": "Pulau Pinang"
    },
    {
        "Postcode": "14310",
        "Location": "Sungai Setar Besar",
        "Post_Office": "Nibong Tebal",
        "State": "Pulau Pinang"
    },
    {
        "Postcode": "14310",
        "Location": "Sungai Star Baru",
        "Post_Office": "Nibong Tebal",
        "State": "Pulau Pinang"
    },
    {
        "Postcode": "14310",
        "Location": "Sungai Star Besar",
        "Post_Office": "Nibong Tebal",
        "State": "Pulau Pinang"
    },
    {
        "Postcode": "14310",
        "Location": "Sungai Star Kecil",
        "Post_Office": "Nibong Tebal",
        "State": "Pulau Pinang"
    },
    {
        "Postcode": "14310",
        "Location": "Sungai Tok Tuntong",
        "Post_Office": "Nibong Tebal",
        "State": "Pulau Pinang"
    },
    {
        "Postcode": "14310",
        "Location": "Sungai Udang",
        "Post_Office": "Nibong Tebal",
        "State": "Pulau Pinang"
    },
    {
        "Postcode": "14310",
        "Location": "Taman Sungai Acheh",
        "Post_Office": "Nibong Tebal",
        "State": "Pulau Pinang"
    },
    {
        "Postcode": "14310",
        "Location": "Tanjung Berembang",
        "Post_Office": "Nibong Tebal",
        "State": "Pulau Pinang"
    },
    {
        "Postcode": "14310",
        "Location": "Simpang Sembilan",
        "Post_Office": "Nibong Tebal",
        "State": "Pulau Pinang"
    },
    {
        "Postcode": "14310",
        "Location": "Lorong Sungai Acheh 1",
        "Post_Office": "Nibong Tebal",
        "State": "Pulau Pinang"
    },
    {
        "Postcode": "14310",
        "Location": "Lorong Sungai Acheh 2",
        "Post_Office": "Nibong Tebal",
        "State": "Pulau Pinang"
    },
    {
        "Postcode": "14310",
        "Location": "Lorong Sungai Acheh 3",
        "Post_Office": "Nibong Tebal",
        "State": "Pulau Pinang"
    },
    {
        "Postcode": "14310",
        "Location": "Lorong Sungai Acheh 4",
        "Post_Office": "Nibong Tebal",
        "State": "Pulau Pinang"
    },
    {
        "Postcode": "14310",
        "Location": "Lorong Sungai Acheh 5",
        "Post_Office": "Nibong Tebal",
        "State": "Pulau Pinang"
    },
    {
        "Postcode": "14310",
        "Location": "Lorong Sungai Acheh 6",
        "Post_Office": "Nibong Tebal",
        "State": "Pulau Pinang"
    },
    {
        "Postcode": "14310",
        "Location": "Lorong Sungai Acheh 7",
        "Post_Office": "Nibong Tebal",
        "State": "Pulau Pinang"
    },
    {
        "Postcode": "14310",
        "Location": "Lorong Sungai Acheh 8",
        "Post_Office": "Nibong Tebal",
        "State": "Pulau Pinang"
    },
    {
        "Postcode": "14310",
        "Location": "Kampung Simpang Tiga",
        "Post_Office": "Nibong Tebal",
        "State": "Pulau Pinang"
    }
]
