[
    {
        "Postcode": "14320",
        "Location": "Ban Sungai Bakau",
        "Post_Office": "Nibong Tebal",
        "State": "Pulau Pinang"
    },
    {
        "Postcode": "14320",
        "Location": "Ban Sungai Chenaam",
        "Post_Office": "Nibong Tebal",
        "State": "Pulau Pinang"
    },
    {
        "Postcode": "14320",
        "Location": "Batas Ban Jalan Baru",
        "Post_Office": "Nibong Tebal",
        "State": "Pulau Pinang"
    },
    {
        "Postcode": "14320",
        "Location": "Jalan Baru Sungai Acheh",
        "Post_Office": "Nibong Tebal",
        "State": "Pulau Pinang"
    },
    {
        "Postcode": "14320",
        "Location": "Jalan Chenaam",
        "Post_Office": "Nibong Tebal",
        "State": "Pulau Pinang"
    },
    {
        "Postcode": "14320",
        "Location": "Jalan Permatang Keling",
        "Post_Office": "Nibong Tebal",
        "State": "Pulau Pinang"
    },
    {
        "Postcode": "14320",
        "Location": "Jalan Sempadan Batu 3/12 \u0026 Batu 4",
        "Post_Office": "Nibong Tebal",
        "State": "Pulau Pinang"
    },
    {
        "Postcode": "14320",
        "Location": "Jalan Sempadan Parit Kasa Batu 3",
        "Post_Office": "Nibong Tebal",
        "State": "Pulau Pinang"
    },
    {
        "Postcode": "14320",
        "Location": "Jalan Sempadan Sungai Bakau",
        "Post_Office": "Nibong Tebal",
        "State": "Pulau Pinang"
    },
    {
        "Postcode": "14320",
        "Location": "Jalan Sempadan Sungai Star Batu 2",
        "Post_Office": "Nibong Tebal",
        "State": "Pulau Pinang"
    },
    {
        "Postcode": "14320",
        "Location": "Jalan Sungai Acheh",
        "Post_Office": "Nibong Tebal",
        "State": "Pulau Pinang"
    },
    {
        "Postcode": "14320",
        "Location": "Jalan Sungai Bakau",
        "Post_Office": "Nibong Tebal",
        "State": "Pulau Pinang"
    },
    {
        "Postcode": "14320",
        "Location": "Jalan Sungai Chenaam",
        "Post_Office": "Nibong Tebal",
        "State": "Pulau Pinang"
    },
    {
        "Postcode": "14320",
        "Location": "Kampung Kuyong",
        "Post_Office": "Nibong Tebal",
        "State": "Pulau Pinang"
    },
    {
        "Postcode": "14320",
        "Location": "Lintang Chenaam",
        "Post_Office": "Nibong Tebal",
        "State": "Pulau Pinang"
    },
    {
        "Postcode": "14320",
        "Location": "Lorong Chenaam",
        "Post_Office": "Nibong Tebal",
        "State": "Pulau Pinang"
    },
    {
        "Postcode": "14320",
        "Location": "Parit Kasa",
        "Post_Office": "Nibong Tebal",
        "State": "Pulau Pinang"
    },
    {
        "Postcode": "14320",
        "Location": "Sungai Ayer Hitam",
        "Post_Office": "Nibong Tebal",
        "State": "Pulau Pinang"
    },
    {
        "Postcode": "14320",
        "Location": "Sungai Bakau",
        "Post_Office": "Nibong Tebal",
        "State": "Pulau Pinang"
    },
    {
        "Postcode": "14320",
        "Location": "Sungai Chenaam",
        "Post_Office": "Nibong Tebal",
        "State": "Pulau Pinang"
    },
    {
        "Postcode": "14320",
        "Location": "Taman Chenaam",
        "Post_Office": "Nibong Tebal",
        "State": "Pulau Pinang"
    },
    {
        "Postcode": "14320",
        "Location": "Batas Pinang Jalan Sempadan",
        "Post_Office": "Nibong Tebal",
        "State": "Pulau Pinang"
    },
    {
        "Postcode": "14320",
        "Location": "Tingkat Chenaam 1",
        "Post_Office": "Nibong Tebal",
        "State": "Pulau Pinang"
    },
    {
        "Postcode": "14320",
        "Location": "Tingkat Chenaam 2",
        "Post_Office": "Nibong Tebal",
        "State": "Pulau Pinang"
    },
    {
        "Postcode": "14320",
        "Location": "Jalan Bawah",
        "Post_Office": "Nibong Tebal",
        "State": "Pulau Pinang"
    },
    {
        "Postcode": "14320",
        "Location": "Jalan Sempadan",
        "Post_Office": "Nibong Tebal",
        "State": "Pulau Pinang"
    }
]
