[
    {
        "Postcode": "14390",
        "Location": "Kampung Baru Sungai Buaya",
        "Post_Office": "Bandar Baharu",
        "State": "Kedah"
    },
    {
        "Postcode": "14390",
        "Location": "Kampung Besar Sungai Buaya",
        "Post_Office": "Bandar Baharu",
        "State": "Kedah"
    },
    {
        "Postcode": "14390",
        "Location": "Kampung Balai Lama Sungai Kecil",
        "Post_Office": "Bandar Baharu",
        "State": "Kedah"
    },
    {
        "Postcode": "14390",
        "Location": "Kampung Belakang Pekan Sungai Kecil",
        "Post_Office": "Bandar Baharu",
        "State": "Kedah"
    },
    {
        "Postcode": "14390",
        "Location": "Kampung Keda Sungai Kecil Hilir",
        "Post_Office": "Bandar Baharu",
        "State": "Kedah"
    },
    {
        "Postcode": "14390",
        "Location": "Kampung Masjid Sungai Kecil Hilir",
        "Post_Office": "Bandar Baharu",
        "State": "Kedah"
    },
    {
        "Postcode": "14390",
        "Location": "Kampung Padang Sungai Kecil Hilir",
        "Post_Office": "Bandar Baharu",
        "State": "Kedah"
    },
    {
        "Postcode": "14390",
        "Location": "Kampung Sungai Buaya",
        "Post_Office": "Bandar Baharu",
        "State": "Kedah"
    },
    {
        "Postcode": "14390",
        "Location": "Pekan Sungai Kecil Hilir",
        "Post_Office": "Bandar Baharu",
        "State": "Kedah"
    },
    {
        "Postcode": "14390",
        "Location": "Pprt Kampung Keda",
        "Post_Office": "Bandar Baharu",
        "State": "Kedah"
    },
    {
        "Postcode": "14390",
        "Location": "Sungai Kecil Hilir",
        "Post_Office": "Bandar Baharu",
        "State": "Kedah"
    },
    {
        "Postcode": "14390",
        "Location": "Sungai Kecil Kem",
        "Post_Office": "Bandar Baharu",
        "State": "Kedah"
    }
]
