[
    {
        "Postcode": "14400",
        "Location": "Ara Kuda",
        "Post_Office": "Kubang Semang",
        "State": "Pulau Pinang"
    },
    {
        "Postcode": "14400",
        "Location": "Bukit  Berangan Mk. 3",
        "Post_Office": "Kubang Semang",
        "State": "Pulau Pinang"
    },
    {
        "Postcode": "14400",
        "Location": "Bukit Berangan",
        "Post_Office": "Kubang Semang",
        "State": "Pulau Pinang"
    },
    {
        "Postcode": "14400",
        "Location": "Bukit Indera Muda",
        "Post_Office": "Kubang Semang",
        "State": "Pulau Pinang"
    },
    {
        "Postcode": "14400",
        "Location": "Guar Ipoh",
        "Post_Office": "Kubang Semang",
        "State": "Pulau Pinang"
    },
    {
        "Postcode": "14400",
        "Location": "Guar Jering",
        "Post_Office": "Kubang Semang",
        "State": "Pulau Pinang"
    },
    {
        "Postcode": "14400",
        "Location": "Guar Perahu",
        "Post_Office": "Kubang Semang",
        "State": "Pulau Pinang"
    },
    {
        "Postcode": "14400",
        "Location": "Jalan Ara Kuda Mk. 19",
        "Post_Office": "Kubang Semang",
        "State": "Pulau Pinang"
    },
    {
        "Postcode": "14400",
        "Location": "Jalan Jaya",
        "Post_Office": "Kubang Semang",
        "State": "Pulau Pinang"
    },
    {
        "Postcode": "14400",
        "Location": "Jalan Kampung Bukit Minyak",
        "Post_Office": "Kubang Semang",
        "State": "Pulau Pinang"
    },
    {
        "Postcode": "14400",
        "Location": "Jalan Kampung Setompok Mk. 19",
        "Post_Office": "Kubang Semang",
        "State": "Pulau Pinang"
    },
    {
        "Postcode": "14400",
        "Location": "Jalan Kampung Telok Wang Mk. 19",
        "Post_Office": "Kubang Semang",
        "State": "Pulau Pinang"
    },
    {
        "Postcode": "14400",
        "Location": "Jalan Kubang Semang Mk. 5",
        "Post_Office": "Kubang Semang",
        "State": "Pulau Pinang"
    },
    {
        "Postcode": "14400",
        "Location": "Jalan Kubang Semang Mk.20",
        "Post_Office": "Kubang Semang",
        "State": "Pulau Pinang"
    },
    {
        "Postcode": "14400",
        "Location": "Jalan Mengkuang Sekolah Mk. 19",
        "Post_Office": "Kubang Semang",
        "State": "Pulau Pinang"
    },
    {
        "Postcode": "14400",
        "Location": "Jalan Mengkuang Titi Bawah Mk. 19",
        "Post_Office": "Kubang Semang",
        "State": "Pulau Pinang"
    },
    {
        "Postcode": "14400",
        "Location": "Jalan Penanti",
        "Post_Office": "Kubang Semang",
        "State": "Pulau Pinang"
    },
    {
        "Postcode": "14400",
        "Location": "Jalan Telok Wang Ara Kuda",
        "Post_Office": "Kubang Semang",
        "State": "Pulau Pinang"
    },
    {
        "Postcode": "14400",
        "Location": "Kampung Bukit Berangan",
        "Post_Office": "Kubang Semang",
        "State": "Pulau Pinang"
    },
    {
        "Postcode": "14400",
        "Location": "Kampung Guar Ipoh",
        "Post_Office": "Kubang Semang",
        "State": "Pulau Pinang"
    },
    {
        "Postcode": "14400",
        "Location": "Kampung Guar Jering",
        "Post_Office": "Kubang Semang",
        "State": "Pulau Pinang"
    },
    {
        "Postcode": "14400",
        "Location": "Kampung Guar Perahu",
        "Post_Office": "Kubang Semang",
        "State": "Pulau Pinang"
    },
    {
        "Postcode": "14400",
        "Location": "Kampung Kuala Mengkuang Mk. 19",
        "Post_Office": "Kubang Semang",
        "State": "Pulau Pinang"
    },
    {
        "Postcode": "14400",
        "Location": "Kampung Kuala Mengkuang Mk. 20",
        "Post_Office": "Kubang Semang",
        "State": "Pulau Pinang"
    },
    {
        "Postcode": "14400",
        "Location": "Kampung Kubu",
        "Post_Office": "Kubang Semang",
        "State": "Pulau Pinang"
    },
    {
        "Postcode": "14400",
        "Location": "Kampung Lalang",
        "Post_Office": "Kubang Semang",
        "State": "Pulau Pinang"
    },
    {
        "Postcode": "14400",
        "Location": "Kampung Padang Buloh",
        "Post_Office": "Kubang Semang",
        "State": "Pulau Pinang"
    },
    {
        "Postcode": "14400",
        "Location": "Kampung Padang Ibu",
        "Post_Office": "Kubang Semang",
        "State": "Pulau Pinang"
    },
    {
        "Postcode": "14400",
        "Location": "Kampung Padang Tembusu",
        "Post_Office": "Kubang Semang",
        "State": "Pulau Pinang"
    },
    {
        "Postcode": "14400",
        "Location": "Kampung Pelet",
        "Post_Office": "Kubang Semang",
        "State": "Pulau Pinang"
    },
    {
        "Postcode": "14400",
        "Location": "Kampung Penanti",
        "Post_Office": "Kubang Semang",
        "State": "Pulau Pinang"
    },
    {
        "Postcode": "14400",
        "Location": "Kampung Penanti Estet Mk. 19",
        "Post_Office": "Kubang Semang",
        "State": "Pulau Pinang"
    },
    {
        "Postcode": "14400",
        "Location": "Kampung Petani Mk. 3",
        "Post_Office": "Kubang Semang",
        "State": "Pulau Pinang"
    },
    {
        "Postcode": "14400",
        "Location": "Kampung Petani Mk. 5",
        "Post_Office": "Kubang Semang",
        "State": "Pulau Pinang"
    },
    {
        "Postcode": "14400",
        "Location": "Kampung Seberang",
        "Post_Office": "Kubang Semang",
        "State": "Pulau Pinang"
    },
    {
        "Postcode": "14400",
        "Location": "Kampung Telok Wang",
        "Post_Office": "Kubang Semang",
        "State": "Pulau Pinang"
    },
    {
        "Postcode": "14400",
        "Location": "Kampung Terus",
        "Post_Office": "Kubang Semang",
        "State": "Pulau Pinang"
    },
    {
        "Postcode": "14400",
        "Location": "Kampung Tun Sardon",
        "Post_Office": "Kubang Semang",
        "State": "Pulau Pinang"
    },
    {
        "Postcode": "14400",
        "Location": "Kampung Tun Sardon Atas",
        "Post_Office": "Kubang Semang",
        "State": "Pulau Pinang"
    },
    {
        "Postcode": "14400",
        "Location": "Kuala Mengkuang",
        "Post_Office": "Kubang Semang",
        "State": "Pulau Pinang"
    },
    {
        "Postcode": "14400",
        "Location": "Kubang Semang",
        "Post_Office": "Kubang Semang",
        "State": "Pulau Pinang"
    },
    {
        "Postcode": "14400",
        "Location": "Kubang Semang Mk. 3",
        "Post_Office": "Kubang Semang",
        "State": "Pulau Pinang"
    },
    {
        "Postcode": "14400",
        "Location": "Kubang Semang Mk. 5",
        "Post_Office": "Kubang Semang",
        "State": "Pulau Pinang"
    },
    {
        "Postcode": "14400",
        "Location": "Kubang Ulu",
        "Post_Office": "Kubang Semang",
        "State": "Pulau Pinang"
    },
    {
        "Postcode": "14400",
        "Location": "Kubang Ulu Atas Mk.20",
        "Post_Office": "Kubang Semang",
        "State": "Pulau Pinang"
    },
    {
        "Postcode": "14400",
        "Location": "Kubang Ulu Mk.20",
        "Post_Office": "Kubang Semang",
        "State": "Pulau Pinang"
    },
    {
        "Postcode": "14400",
        "Location": "Ladang Bukit Langkap",
        "Post_Office": "Kubang Semang",
        "State": "Pulau Pinang"
    },
    {
        "Postcode": "14400",
        "Location": "Ladang Penanti",
        "Post_Office": "Kubang Semang",
        "State": "Pulau Pinang"
    },
    {
        "Postcode": "14400",
        "Location": "Lubok Batu",
        "Post_Office": "Kubang Semang",
        "State": "Pulau Pinang"
    },
    {
        "Postcode": "14400",
        "Location": "Lubok Binjal",
        "Post_Office": "Kubang Semang",
        "State": "Pulau Pinang"
    },
    {
        "Postcode": "14400",
        "Location": "Mengkuang Mak Sulong",
        "Post_Office": "Kubang Semang",
        "State": "Pulau Pinang"
    },
    {
        "Postcode": "14400",
        "Location": "Mengkuang Titi",
        "Post_Office": "Kubang Semang",
        "State": "Pulau Pinang"
    },
    {
        "Postcode": "14400",
        "Location": "Padang Buloh",
        "Post_Office": "Kubang Semang",
        "State": "Pulau Pinang"
    },
    {
        "Postcode": "14400",
        "Location": "Padang Ibu",
        "Post_Office": "Kubang Semang",
        "State": "Pulau Pinang"
    },
    {
        "Postcode": "14400",
        "Location": "Padang Tembusu (Guar Perahu)",
        "Post_Office": "Kubang Semang",
        "State": "Pulau Pinang"
    },
    {
        "Postcode": "14400",
        "Location": "Pekan Penanti Mk.20",
        "Post_Office": "Kubang Semang",
        "State": "Pulau Pinang"
    },
    {
        "Postcode": "14400",
        "Location": "Pekan Penanti Mk.3",
        "Post_Office": "Kubang Semang",
        "State": "Pulau Pinang"
    },
    {
        "Postcode": "14400",
        "Location": "Penanti",
        "Post_Office": "Kubang Semang",
        "State": "Pulau Pinang"
    },
    {
        "Postcode": "14400",
        "Location": "Simpang Tiga Atas Mengkuang Titi Mk.19",
        "Post_Office": "Kubang Semang",
        "State": "Pulau Pinang"
    },
    {
        "Postcode": "14400",
        "Location": "Simpang Tiga Atas Mengkuang Titi Mk.20",
        "Post_Office": "Kubang Semang",
        "State": "Pulau Pinang"
    },
    {
        "Postcode": "14400",
        "Location": "Simpang Tiga Kubang Ulu Mk.20",
        "Post_Office": "Kubang Semang",
        "State": "Pulau Pinang"
    },
    {
        "Postcode": "14400",
        "Location": "Sungai Tongkang",
        "Post_Office": "Kubang Semang",
        "State": "Pulau Pinang"
    },
    {
        "Postcode": "14400",
        "Location": "Taman Penanti Indah",
        "Post_Office": "Kubang Semang",
        "State": "Pulau Pinang"
    },
    {
        "Postcode": "14400",
        "Location": "Taman Seri Mengkuang",
        "Post_Office": "Kubang Semang",
        "State": "Pulau Pinang"
    },
    {
        "Postcode": "14400",
        "Location": "Kampung Kepala Bukit",
        "Post_Office": "Kubang Semang",
        "State": "Pulau Pinang"
    },
    {
        "Postcode": "14400",
        "Location": "Kampung Petani",
        "Post_Office": "Kubang Semang",
        "State": "Pulau Pinang"
    },
    {
        "Postcode": "14400",
        "Location": "Taman Guar Perahu",
        "Post_Office": "Kubang Semang",
        "State": "Pulau Pinang"
    },
    {
        "Postcode": "14400",
        "Location": "Taman Permai Jaya",
        "Post_Office": "Kubang Semang",
        "State": "Pulau Pinang"
    },
    {
        "Postcode": "14400",
        "Location": "Bukit Indera Muda Mk. 3",
        "Post_Office": "Kubang Semang",
        "State": "Pulau Pinang"
    },
    {
        "Postcode": "14400",
        "Location": "Bukit Indera Muda Mk. 5",
        "Post_Office": "Kubang Semang",
        "State": "Pulau Pinang"
    },
    {
        "Postcode": "14400",
        "Location": "Jalan Guar Perahu 1",
        "Post_Office": "Kubang Semang",
        "State": "Pulau Pinang"
    },
    {
        "Postcode": "14400",
        "Location": "Jalan Guar Perahu 10",
        "Post_Office": "Kubang Semang",
        "State": "Pulau Pinang"
    },
    {
        "Postcode": "14400",
        "Location": "Jalan Guar Perahu 11",
        "Post_Office": "Kubang Semang",
        "State": "Pulau Pinang"
    },
    {
        "Postcode": "14400",
        "Location": "Jalan Guar Perahu 12",
        "Post_Office": "Kubang Semang",
        "State": "Pulau Pinang"
    },
    {
        "Postcode": "14400",
        "Location": "Jalan Guar Perahu 13",
        "Post_Office": "Kubang Semang",
        "State": "Pulau Pinang"
    },
    {
        "Postcode": "14400",
        "Location": "Jalan Guar Perahu 14",
        "Post_Office": "Kubang Semang",
        "State": "Pulau Pinang"
    },
    {
        "Postcode": "14400",
        "Location": "Jalan Guar Perahu 15",
        "Post_Office": "Kubang Semang",
        "State": "Pulau Pinang"
    },
    {
        "Postcode": "14400",
        "Location": "Jalan Guar Perahu 16",
        "Post_Office": "Kubang Semang",
        "State": "Pulau Pinang"
    },
    {
        "Postcode": "14400",
        "Location": "Jalan Guar Perahu 17",
        "Post_Office": "Kubang Semang",
        "State": "Pulau Pinang"
    },
    {
        "Postcode": "14400",
        "Location": "Jalan Guar Perahu 18",
        "Post_Office": "Kubang Semang",
        "State": "Pulau Pinang"
    },
    {
        "Postcode": "14400",
        "Location": "Jalan Guar Perahu 19",
        "Post_Office": "Kubang Semang",
        "State": "Pulau Pinang"
    },
    {
        "Postcode": "14400",
        "Location": "Jalan Guar Perahu 2",
        "Post_Office": "Kubang Semang",
        "State": "Pulau Pinang"
    },
    {
        "Postcode": "14400",
        "Location": "Jalan Guar Perahu 20",
        "Post_Office": "Kubang Semang",
        "State": "Pulau Pinang"
    },
    {
        "Postcode": "14400",
        "Location": "Jalan Guar Perahu 21",
        "Post_Office": "Kubang Semang",
        "State": "Pulau Pinang"
    },
    {
        "Postcode": "14400",
        "Location": "Jalan Guar Perahu 22",
        "Post_Office": "Kubang Semang",
        "State": "Pulau Pinang"
    },
    {
        "Postcode": "14400",
        "Location": "Jalan Guar Perahu 23",
        "Post_Office": "Kubang Semang",
        "State": "Pulau Pinang"
    },
    {
        "Postcode": "14400",
        "Location": "Jalan Guar Perahu 24",
        "Post_Office": "Kubang Semang",
        "State": "Pulau Pinang"
    },
    {
        "Postcode": "14400",
        "Location": "Jalan Guar Perahu 25",
        "Post_Office": "Kubang Semang",
        "State": "Pulau Pinang"
    },
    {
        "Postcode": "14400",
        "Location": "Jalan Guar Perahu 26",
        "Post_Office": "Kubang Semang",
        "State": "Pulau Pinang"
    },
    {
        "Postcode": "14400",
        "Location": "Jalan Guar Perahu 27",
        "Post_Office": "Kubang Semang",
        "State": "Pulau Pinang"
    },
    {
        "Postcode": "14400",
        "Location": "Jalan Guar Perahu 28",
        "Post_Office": "Kubang Semang",
        "State": "Pulau Pinang"
    },
    {
        "Postcode": "14400",
        "Location": "Jalan Guar Perahu 29",
        "Post_Office": "Kubang Semang",
        "State": "Pulau Pinang"
    },
    {
        "Postcode": "14400",
        "Location": "Jalan Guar Perahu 3",
        "Post_Office": "Kubang Semang",
        "State": "Pulau Pinang"
    },
    {
        "Postcode": "14400",
        "Location": "Jalan Guar Perahu 30",
        "Post_Office": "Kubang Semang",
        "State": "Pulau Pinang"
    },
    {
        "Postcode": "14400",
        "Location": "Jalan Guar Perahu 31",
        "Post_Office": "Kubang Semang",
        "State": "Pulau Pinang"
    },
    {
        "Postcode": "14400",
        "Location": "Jalan Guar Perahu 32",
        "Post_Office": "Kubang Semang",
        "State": "Pulau Pinang"
    },
    {
        "Postcode": "14400",
        "Location": "Jalan Guar Perahu 33",
        "Post_Office": "Kubang Semang",
        "State": "Pulau Pinang"
    },
    {
        "Postcode": "14400",
        "Location": "Jalan Guar Perahu 34",
        "Post_Office": "Kubang Semang",
        "State": "Pulau Pinang"
    },
    {
        "Postcode": "14400",
        "Location": "Jalan Guar Perahu 35",
        "Post_Office": "Kubang Semang",
        "State": "Pulau Pinang"
    },
    {
        "Postcode": "14400",
        "Location": "Jalan Guar Perahu 36",
        "Post_Office": "Kubang Semang",
        "State": "Pulau Pinang"
    },
    {
        "Postcode": "14400",
        "Location": "Jalan Guar Perahu 37",
        "Post_Office": "Kubang Semang",
        "State": "Pulau Pinang"
    },
    {
        "Postcode": "14400",
        "Location": "Jalan Guar Perahu 38",
        "Post_Office": "Kubang Semang",
        "State": "Pulau Pinang"
    },
    {
        "Postcode": "14400",
        "Location": "Jalan Guar Perahu 39",
        "Post_Office": "Kubang Semang",
        "State": "Pulau Pinang"
    },
    {
        "Postcode": "14400",
        "Location": "Jalan Guar Perahu 4",
        "Post_Office": "Kubang Semang",
        "State": "Pulau Pinang"
    },
    {
        "Postcode": "14400",
        "Location": "Jalan Guar Perahu 40",
        "Post_Office": "Kubang Semang",
        "State": "Pulau Pinang"
    },
    {
        "Postcode": "14400",
        "Location": "Jalan Guar Perahu 41",
        "Post_Office": "Kubang Semang",
        "State": "Pulau Pinang"
    },
    {
        "Postcode": "14400",
        "Location": "Jalan Guar Perahu 42",
        "Post_Office": "Kubang Semang",
        "State": "Pulau Pinang"
    },
    {
        "Postcode": "14400",
        "Location": "Jalan Guar Perahu 43",
        "Post_Office": "Kubang Semang",
        "State": "Pulau Pinang"
    },
    {
        "Postcode": "14400",
        "Location": "Jalan Guar Perahu 44",
        "Post_Office": "Kubang Semang",
        "State": "Pulau Pinang"
    },
    {
        "Postcode": "14400",
        "Location": "Jalan Guar Perahu 45",
        "Post_Office": "Kubang Semang",
        "State": "Pulau Pinang"
    },
    {
        "Postcode": "14400",
        "Location": "Jalan Guar Perahu 46",
        "Post_Office": "Kubang Semang",
        "State": "Pulau Pinang"
    },
    {
        "Postcode": "14400",
        "Location": "Jalan Guar Perahu 47",
        "Post_Office": "Kubang Semang",
        "State": "Pulau Pinang"
    },
    {
        "Postcode": "14400",
        "Location": "Jalan Guar Perahu 48",
        "Post_Office": "Kubang Semang",
        "State": "Pulau Pinang"
    },
    {
        "Postcode": "14400",
        "Location": "Jalan Guar Perahu 49",
        "Post_Office": "Kubang Semang",
        "State": "Pulau Pinang"
    },
    {
        "Postcode": "14400",
        "Location": "Jalan Guar Perahu 5",
        "Post_Office": "Kubang Semang",
        "State": "Pulau Pinang"
    },
    {
        "Postcode": "14400",
        "Location": "Jalan Guar Perahu 6",
        "Post_Office": "Kubang Semang",
        "State": "Pulau Pinang"
    },
    {
        "Postcode": "14400",
        "Location": "Jalan Guar Perahu 7",
        "Post_Office": "Kubang Semang",
        "State": "Pulau Pinang"
    },
    {
        "Postcode": "14400",
        "Location": "Jalan Guar Perahu 8",
        "Post_Office": "Kubang Semang",
        "State": "Pulau Pinang"
    },
    {
        "Postcode": "14400",
        "Location": "Jalan Guar Perahu 9",
        "Post_Office": "Kubang Semang",
        "State": "Pulau Pinang"
    },
    {
        "Postcode": "14400",
        "Location": "Jalan Permai Jaya 1",
        "Post_Office": "Kubang Semang",
        "State": "Pulau Pinang"
    },
    {
        "Postcode": "14400",
        "Location": "Lorong Guar Perahu 10",
        "Post_Office": "Kubang Semang",
        "State": "Pulau Pinang"
    },
    {
        "Postcode": "14400",
        "Location": "Lorong Guar Perahu 11",
        "Post_Office": "Kubang Semang",
        "State": "Pulau Pinang"
    },
    {
        "Postcode": "14400",
        "Location": "Lorong Guar Perahu 12",
        "Post_Office": "Kubang Semang",
        "State": "Pulau Pinang"
    },
    {
        "Postcode": "14400",
        "Location": "Lorong Guar Perahu 2",
        "Post_Office": "Kubang Semang",
        "State": "Pulau Pinang"
    },
    {
        "Postcode": "14400",
        "Location": "Lorong Guar Perahu 3",
        "Post_Office": "Kubang Semang",
        "State": "Pulau Pinang"
    },
    {
        "Postcode": "14400",
        "Location": "Lorong Guar Perahu 4",
        "Post_Office": "Kubang Semang",
        "State": "Pulau Pinang"
    },
    {
        "Postcode": "14400",
        "Location": "Lorong Guar Perahu 5",
        "Post_Office": "Kubang Semang",
        "State": "Pulau Pinang"
    },
    {
        "Postcode": "14400",
        "Location": "Lorong Guar Perahu 6",
        "Post_Office": "Kubang Semang",
        "State": "Pulau Pinang"
    },
    {
        "Postcode": "14400",
        "Location": "Lorong Guar Perahu 7",
        "Post_Office": "Kubang Semang",
        "State": "Pulau Pinang"
    },
    {
        "Postcode": "14400",
        "Location": "Lorong Guar Perahu 8",
        "Post_Office": "Kubang Semang",
        "State": "Pulau Pinang"
    },
    {
        "Postcode": "14400",
        "Location": "Lorong Guar Perahu 9",
        "Post_Office": "Kubang Semang",
        "State": "Pulau Pinang"
    },
    {
        "Postcode": "14400",
        "Location": "Lorong Mengkuang Indah 1",
        "Post_Office": "Kubang Semang",
        "State": "Pulau Pinang"
    },
    {
        "Postcode": "14400",
        "Location": "Lorong Mengkuang Indah 2",
        "Post_Office": "Kubang Semang",
        "State": "Pulau Pinang"
    },
    {
        "Postcode": "14400",
        "Location": "Lorong Mengkuang Indah 3",
        "Post_Office": "Kubang Semang",
        "State": "Pulau Pinang"
    },
    {
        "Postcode": "14400",
        "Location": "Lorong Mengkuang Indah 4",
        "Post_Office": "Kubang Semang",
        "State": "Pulau Pinang"
    },
    {
        "Postcode": "14400",
        "Location": "Lorong Mengkuang Indah 5",
        "Post_Office": "Kubang Semang",
        "State": "Pulau Pinang"
    },
    {
        "Postcode": "14400",
        "Location": "Lorong Mengkuang Indah 6",
        "Post_Office": "Kubang Semang",
        "State": "Pulau Pinang"
    },
    {
        "Postcode": "14400",
        "Location": "Lorong Penanti 2",
        "Post_Office": "Kubang Semang",
        "State": "Pulau Pinang"
    },
    {
        "Postcode": "14400",
        "Location": "Lorong Penanti 3",
        "Post_Office": "Kubang Semang",
        "State": "Pulau Pinang"
    },
    {
        "Postcode": "14400",
        "Location": "Lorong Penanti 4",
        "Post_Office": "Kubang Semang",
        "State": "Pulau Pinang"
    },
    {
        "Postcode": "14400",
        "Location": "Lorong Penanti 5",
        "Post_Office": "Kubang Semang",
        "State": "Pulau Pinang"
    },
    {
        "Postcode": "14400",
        "Location": "Lorong Penanti 6",
        "Post_Office": "Kubang Semang",
        "State": "Pulau Pinang"
    },
    {
        "Postcode": "14400",
        "Location": "Lorong Penanti 7",
        "Post_Office": "Kubang Semang",
        "State": "Pulau Pinang"
    },
    {
        "Postcode": "14400",
        "Location": "Lorong Penanti Indah 1",
        "Post_Office": "Kubang Semang",
        "State": "Pulau Pinang"
    },
    {
        "Postcode": "14400",
        "Location": "Lorong Penanti Indah 2",
        "Post_Office": "Kubang Semang",
        "State": "Pulau Pinang"
    },
    {
        "Postcode": "14400",
        "Location": "Lorong Penanti Indah 3",
        "Post_Office": "Kubang Semang",
        "State": "Pulau Pinang"
    },
    {
        "Postcode": "14400",
        "Location": "Lorong Penanti Indah 4",
        "Post_Office": "Kubang Semang",
        "State": "Pulau Pinang"
    },
    {
        "Postcode": "14400",
        "Location": "Lorong Penanti Indah 5",
        "Post_Office": "Kubang Semang",
        "State": "Pulau Pinang"
    },
    {
        "Postcode": "14400",
        "Location": "Lorong Penanti Indah 6",
        "Post_Office": "Kubang Semang",
        "State": "Pulau Pinang"
    },
    {
        "Postcode": "14400",
        "Location": "Lorong Penanti Indah 7",
        "Post_Office": "Kubang Semang",
        "State": "Pulau Pinang"
    },
    {
        "Postcode": "14400",
        "Location": "Lorong Penanti Indah 8",
        "Post_Office": "Kubang Semang",
        "State": "Pulau Pinang"
    },
    {
        "Postcode": "14400",
        "Location": "Lorong Penanti Indah 9",
        "Post_Office": "Kubang Semang",
        "State": "Pulau Pinang"
    },
    {
        "Postcode": "14400",
        "Location": "Lorong Permai Jaya 1",
        "Post_Office": "Kubang Semang",
        "State": "Pulau Pinang"
    },
    {
        "Postcode": "14400",
        "Location": "Lorong Seri Mengkuang 1",
        "Post_Office": "Kubang Semang",
        "State": "Pulau Pinang"
    },
    {
        "Postcode": "14400",
        "Location": "Lorong Seri Mengkuang 10",
        "Post_Office": "Kubang Semang",
        "State": "Pulau Pinang"
    },
    {
        "Postcode": "14400",
        "Location": "Lorong Seri Mengkuang 11",
        "Post_Office": "Kubang Semang",
        "State": "Pulau Pinang"
    },
    {
        "Postcode": "14400",
        "Location": "Lorong Seri Mengkuang 12",
        "Post_Office": "Kubang Semang",
        "State": "Pulau Pinang"
    },
    {
        "Postcode": "14400",
        "Location": "Lorong Seri Mengkuang 13",
        "Post_Office": "Kubang Semang",
        "State": "Pulau Pinang"
    },
    {
        "Postcode": "14400",
        "Location": "Lorong Seri Mengkuang 14",
        "Post_Office": "Kubang Semang",
        "State": "Pulau Pinang"
    },
    {
        "Postcode": "14400",
        "Location": "Lorong Seri Mengkuang 15",
        "Post_Office": "Kubang Semang",
        "State": "Pulau Pinang"
    },
    {
        "Postcode": "14400",
        "Location": "Lorong Seri Mengkuang 16",
        "Post_Office": "Kubang Semang",
        "State": "Pulau Pinang"
    },
    {
        "Postcode": "14400",
        "Location": "Lorong Seri Mengkuang 17",
        "Post_Office": "Kubang Semang",
        "State": "Pulau Pinang"
    },
    {
        "Postcode": "14400",
        "Location": "Lorong Seri Mengkuang 18",
        "Post_Office": "Kubang Semang",
        "State": "Pulau Pinang"
    },
    {
        "Postcode": "14400",
        "Location": "Lorong Seri Mengkuang 19",
        "Post_Office": "Kubang Semang",
        "State": "Pulau Pinang"
    },
    {
        "Postcode": "14400",
        "Location": "Lorong Seri Mengkuang 2",
        "Post_Office": "Kubang Semang",
        "State": "Pulau Pinang"
    },
    {
        "Postcode": "14400",
        "Location": "Lorong Seri Mengkuang 20",
        "Post_Office": "Kubang Semang",
        "State": "Pulau Pinang"
    },
    {
        "Postcode": "14400",
        "Location": "Lorong Seri Mengkuang 3",
        "Post_Office": "Kubang Semang",
        "State": "Pulau Pinang"
    },
    {
        "Postcode": "14400",
        "Location": "Lorong Seri Mengkuang 4",
        "Post_Office": "Kubang Semang",
        "State": "Pulau Pinang"
    },
    {
        "Postcode": "14400",
        "Location": "Lorong Seri Mengkuang 5",
        "Post_Office": "Kubang Semang",
        "State": "Pulau Pinang"
    },
    {
        "Postcode": "14400",
        "Location": "Lorong Seri Mengkuang 6",
        "Post_Office": "Kubang Semang",
        "State": "Pulau Pinang"
    },
    {
        "Postcode": "14400",
        "Location": "Lorong Seri Mengkuang 7",
        "Post_Office": "Kubang Semang",
        "State": "Pulau Pinang"
    },
    {
        "Postcode": "14400",
        "Location": "Lorong Seri Mengkuang 8",
        "Post_Office": "Kubang Semang",
        "State": "Pulau Pinang"
    },
    {
        "Postcode": "14400",
        "Location": "Lorong Seri Mengkuang 9",
        "Post_Office": "Kubang Semang",
        "State": "Pulau Pinang"
    },
    {
        "Postcode": "14400",
        "Location": "Kampung Kubang Ulu Atas",
        "Post_Office": "Kubang Semang",
        "State": "Pulau Pinang"
    },
    {
        "Postcode": "14400",
        "Location": "Kampung Semang",
        "Post_Office": "Kubang Semang",
        "State": "Pulau Pinang"
    },
    {
        "Postcode": "14400",
        "Location": "Taman Malwira",
        "Post_Office": "Kubang Semang",
        "State": "Pulau Pinang"
    },
    {
        "Postcode": "14400",
        "Location": "Taman Mengkuang Indah",
        "Post_Office": "Kubang Semang",
        "State": "Pulau Pinang"
    },
    {
        "Postcode": "14400",
        "Location": "Taman Penanti",
        "Post_Office": "Kubang Semang",
        "State": "Pulau Pinang"
    },
    {
        "Postcode": "14400",
        "Location": "Telok Wang",
        "Post_Office": "Kubang Semang",
        "State": "Pulau Pinang"
    },
    {
        "Postcode": "14400",
        "Location": "Jalan Kubang Semang",
        "Post_Office": "Kubang Semang",
        "State": "Pulau Pinang"
    },
    {
        "Postcode": "14400",
        "Location": "Jalan Lunas",
        "Post_Office": "Kubang Semang",
        "State": "Pulau Pinang"
    }
]
