[
    {
        "Postcode": "25000",
        "Location": "Mahkota Parade",
        "Post_Office": "Kuantan",
        "State": "Pahang"
    },
    {
        "Postcode": "25000",
        "Location": "Jalan Masjid",
        "Post_Office": "Kuantan",
        "State": "Pahang"
    },
    {
        "Postcode": "25000",
        "Location": "Jalan Teluk Sisek",
        "Post_Office": "Kuantan",
        "State": "Pahang"
    },
    {
        "Postcode": "25000",
        "Location": "Jalan Tun Ismail 1",
        "Post_Office": "Kuantan",
        "State": "Pahang"
    },
    {
        "Postcode": "25000",
        "Location": "Bangunan Lknp",
        "Post_Office": "Kuantan",
        "State": "Pahang"
    },
    {
        "Postcode": "25000",
        "Location": "Biro Tata Negara Pahang",
        "Post_Office": "Kuantan",
        "State": "Pahang"
    },
    {
        "Postcode": "25000",
        "Location": "Jabatan Bekalan Elektrik",
        "Post_Office": "Kuantan",
        "State": "Pahang"
    },
    {
        "Postcode": "25000",
        "Location": "Jalan Bank",
        "Post_Office": "Kuantan",
        "State": "Pahang"
    },
    {
        "Postcode": "25000",
        "Location": "Jalan Besar",
        "Post_Office": "Kuantan",
        "State": "Pahang"
    },
    {
        "Postcode": "25000",
        "Location": "Jalan Gambut",
        "Post_Office": "Kuantan",
        "State": "Pahang"
    },
    {
        "Postcode": "25000",
        "Location": "Jalan Haji Abd Aziz",
        "Post_Office": "Kuantan",
        "State": "Pahang"
    },
    {
        "Postcode": "25000",
        "Location": "Jalan Haji Abd Rahman",
        "Post_Office": "Kuantan",
        "State": "Pahang"
    },
    {
        "Postcode": "25000",
        "Location": "Jalan Lebai Ali",
        "Post_Office": "Kuantan",
        "State": "Pahang"
    },
    {
        "Postcode": "25000",
        "Location": "Jalan Mahkota",
        "Post_Office": "Kuantan",
        "State": "Pahang"
    },
    {
        "Postcode": "25000",
        "Location": "Jalan Pasar",
        "Post_Office": "Kuantan",
        "State": "Pahang"
    },
    {
        "Postcode": "25000",
        "Location": "Jalan Pasar Baru",
        "Post_Office": "Kuantan",
        "State": "Pahang"
    },
    {
        "Postcode": "25000",
        "Location": "Jalan Pasar Besar",
        "Post_Office": "Kuantan",
        "State": "Pahang"
    },
    {
        "Postcode": "25000",
        "Location": "Jalan Stadium Darul Makmur",
        "Post_Office": "Kuantan",
        "State": "Pahang"
    },
    {
        "Postcode": "25000",
        "Location": "Jalan Teruntum",
        "Post_Office": "Kuantan",
        "State": "Pahang"
    },
    {
        "Postcode": "25000",
        "Location": "Jalan Tun Ismail",
        "Post_Office": "Kuantan",
        "State": "Pahang"
    },
    {
        "Postcode": "25000",
        "Location": "Kompleks Teruntum",
        "Post_Office": "Kuantan",
        "State": "Pahang"
    },
    {
        "Postcode": "25000",
        "Location": "Lembaga Kemajuan Perusahaan Pertanian",
        "Post_Office": "Kuantan",
        "State": "Pahang"
    },
    {
        "Postcode": "25000",
        "Location": "Lembaga Pelesenan Kelapa Sawit",
        "Post_Office": "Kuantan",
        "State": "Pahang"
    },
    {
        "Postcode": "25000",
        "Location": "Lembaga Pertubuhan Peladang",
        "Post_Office": "Kuantan",
        "State": "Pahang"
    },
    {
        "Postcode": "25000",
        "Location": "Lembaga Tabung Haji",
        "Post_Office": "Kuantan",
        "State": "Pahang"
    },
    {
        "Postcode": "25000",
        "Location": "Lorong Haji Abdul Rahman 1",
        "Post_Office": "Kuantan",
        "State": "Pahang"
    },
    {
        "Postcode": "25000",
        "Location": "Lorong Pasar Baru",
        "Post_Office": "Kuantan",
        "State": "Pahang"
    },
    {
        "Postcode": "25000",
        "Location": "Lorong Tun Ismail 2",
        "Post_Office": "Kuantan",
        "State": "Pahang"
    },
    {
        "Postcode": "25000",
        "Location": "Medan Pelancongan",
        "Post_Office": "Kuantan",
        "State": "Pahang"
    },
    {
        "Postcode": "25000",
        "Location": "Pejabat Daerah Kuantan",
        "Post_Office": "Kuantan",
        "State": "Pahang"
    },
    {
        "Postcode": "25000",
        "Location": "Pejabat Mida Negeri",
        "Post_Office": "Kuantan",
        "State": "Pahang"
    },
    {
        "Postcode": "25000",
        "Location": "Pusat Khidmat Kontraktor",
        "Post_Office": "Kuantan",
        "State": "Pahang"
    },
    {
        "Postcode": "25000",
        "Location": "Telok Sisek",
        "Post_Office": "Kuantan",
        "State": "Pahang"
    },
    {
        "Postcode": "25000",
        "Location": "Teluk Sisek Pendek",
        "Post_Office": "Kuantan",
        "State": "Pahang"
    },
    {
        "Postcode": "25000",
        "Location": "Wisma Persekutuan",
        "Post_Office": "Kuantan",
        "State": "Pahang"
    },
    {
        "Postcode": "25000",
        "Location": "Jalan Bukit Sekiau",
        "Post_Office": "Kuantan",
        "State": "Pahang"
    },
    {
        "Postcode": "25000",
        "Location": "Jalan Gambut 3",
        "Post_Office": "Kuantan",
        "State": "Pahang"
    },
    {
        "Postcode": "25000",
        "Location": "Lorong Tun Ismail 1",
        "Post_Office": "Kuantan",
        "State": "Pahang"
    },
    {
        "Postcode": "25000",
        "Location": "Lorong Tun Ismail 3",
        "Post_Office": "Kuantan",
        "State": "Pahang"
    },
    {
        "Postcode": "25000",
        "Location": "Lorong Tun Ismail 4",
        "Post_Office": "Kuantan",
        "State": "Pahang"
    },
    {
        "Postcode": "25000",
        "Location": "Lorong Tun Ismail 5",
        "Post_Office": "Kuantan",
        "State": "Pahang"
    }
]
