[
    {
        "Postcode": "25050",
        "Location": "Perkampungan Tanjung Api",
        "Post_Office": "Kuantan",
        "State": "Pahang"
    },
    {
        "Postcode": "25050",
        "Location": "Jalan Merbok",
        "Post_Office": "Kuantan",
        "State": "Pahang"
    },
    {
        "Postcode": "25050",
        "Location": "Taman Jaya",
        "Post_Office": "Kuantan",
        "State": "Pahang"
    },
    {
        "Postcode": "25050",
        "Location": "Taman Seroja",
        "Post_Office": "Kuantan",
        "State": "Pahang"
    },
    {
        "Postcode": "25050",
        "Location": "Lorong Selamat 40",
        "Post_Office": "Kuantan",
        "State": "Pahang"
    },
    {
        "Postcode": "25050",
        "Location": "Jalan Padang Golf",
        "Post_Office": "Kuantan",
        "State": "Pahang"
    },
    {
        "Postcode": "25050",
        "Location": "Lorong Pelindung 76",
        "Post_Office": "Kuantan",
        "State": "Pahang"
    },
    {
        "Postcode": "25050",
        "Location": "Lorong Tok Sira 6",
        "Post_Office": "Kuantan",
        "State": "Pahang"
    },
    {
        "Postcode": "25050",
        "Location": "Taman Tok Sira",
        "Post_Office": "Kuantan",
        "State": "Pahang"
    },
    {
        "Postcode": "25050",
        "Location": "Jalan Dato Bahaman",
        "Post_Office": "Kuantan",
        "State": "Pahang"
    },
    {
        "Postcode": "25050",
        "Location": "Jalan Teluk Sisek",
        "Post_Office": "Kuantan",
        "State": "Pahang"
    },
    {
        "Postcode": "25050",
        "Location": "Kampung Selamat",
        "Post_Office": "Kuantan",
        "State": "Pahang"
    },
    {
        "Postcode": "25050",
        "Location": "Taman Pelindung",
        "Post_Office": "Kuantan",
        "State": "Pahang"
    },
    {
        "Postcode": "25050",
        "Location": "Taman Teratai",
        "Post_Office": "Kuantan",
        "State": "Pahang"
    },
    {
        "Postcode": "25050",
        "Location": "Istana Hinggap",
        "Post_Office": "Kuantan",
        "State": "Pahang"
    },
    {
        "Postcode": "25050",
        "Location": "Jalan Abu Samah",
        "Post_Office": "Kuantan",
        "State": "Pahang"
    },
    {
        "Postcode": "25050",
        "Location": "Jalan Che Timah",
        "Post_Office": "Kuantan",
        "State": "Pahang"
    },
    {
        "Postcode": "25050",
        "Location": "Jalan Club Golf Teruntum",
        "Post_Office": "Kuantan",
        "State": "Pahang"
    },
    {
        "Postcode": "25050",
        "Location": "Jalan Dato Abdullah",
        "Post_Office": "Kuantan",
        "State": "Pahang"
    },
    {
        "Postcode": "25050",
        "Location": "Jalan Dato Haji Abu Bakar",
        "Post_Office": "Kuantan",
        "State": "Pahang"
    },
    {
        "Postcode": "25050",
        "Location": "Jalan Haji Abu Bakar",
        "Post_Office": "Kuantan",
        "State": "Pahang"
    },
    {
        "Postcode": "25050",
        "Location": "Jalan Kampung Tanjung Api",
        "Post_Office": "Kuantan",
        "State": "Pahang"
    },
    {
        "Postcode": "25050",
        "Location": "Jalan Padang Lalang",
        "Post_Office": "Kuantan",
        "State": "Pahang"
    },
    {
        "Postcode": "25050",
        "Location": "Jalan Taman Tok Sira",
        "Post_Office": "Kuantan",
        "State": "Pahang"
    },
    {
        "Postcode": "25050",
        "Location": "Jalan Tanjong Api",
        "Post_Office": "Kuantan",
        "State": "Pahang"
    },
    {
        "Postcode": "25050",
        "Location": "Jalan Teluk Chempedak",
        "Post_Office": "Kuantan",
        "State": "Pahang"
    },
    {
        "Postcode": "25050",
        "Location": "Jalan Tengku Muhamad",
        "Post_Office": "Kuantan",
        "State": "Pahang"
    },
    {
        "Postcode": "25050",
        "Location": "Jalan Tok Sira",
        "Post_Office": "Kuantan",
        "State": "Pahang"
    },
    {
        "Postcode": "25050",
        "Location": "Kampung Galing Kechil",
        "Post_Office": "Kuantan",
        "State": "Pahang"
    },
    {
        "Postcode": "25050",
        "Location": "Kampung Jalan Telok Sisek",
        "Post_Office": "Kuantan",
        "State": "Pahang"
    },
    {
        "Postcode": "25050",
        "Location": "Kampung Jalan Teluk Sisek",
        "Post_Office": "Kuantan",
        "State": "Pahang"
    },
    {
        "Postcode": "25050",
        "Location": "Kampung Kubang Buaya",
        "Post_Office": "Kuantan",
        "State": "Pahang"
    },
    {
        "Postcode": "25050",
        "Location": "Kampung Kubor Tok Keramat",
        "Post_Office": "Kuantan",
        "State": "Pahang"
    },
    {
        "Postcode": "25050",
        "Location": "Kampung Tanjong Api",
        "Post_Office": "Kuantan",
        "State": "Pahang"
    },
    {
        "Postcode": "25050",
        "Location": "Kingdom Park",
        "Post_Office": "Kuantan",
        "State": "Pahang"
    },
    {
        "Postcode": "25050",
        "Location": "Lorong Alor Akar",
        "Post_Office": "Kuantan",
        "State": "Pahang"
    },
    {
        "Postcode": "25050",
        "Location": "Lorong Alur Akar 6",
        "Post_Office": "Kuantan",
        "State": "Pahang"
    },
    {
        "Postcode": "25050",
        "Location": "Lorong Kubang Buaya 61",
        "Post_Office": "Kuantan",
        "State": "Pahang"
    },
    {
        "Postcode": "25050",
        "Location": "Lorong Padang Lalang",
        "Post_Office": "Kuantan",
        "State": "Pahang"
    },
    {
        "Postcode": "25050",
        "Location": "Lorong Pelindung 101",
        "Post_Office": "Kuantan",
        "State": "Pahang"
    },
    {
        "Postcode": "25050",
        "Location": "Lorong Pelindung 50",
        "Post_Office": "Kuantan",
        "State": "Pahang"
    },
    {
        "Postcode": "25050",
        "Location": "Lorong Pelindung 54",
        "Post_Office": "Kuantan",
        "State": "Pahang"
    },
    {
        "Postcode": "25050",
        "Location": "Lorong Tanjong Api",
        "Post_Office": "Kuantan",
        "State": "Pahang"
    },
    {
        "Postcode": "25050",
        "Location": "Lorong Tok Sira 10",
        "Post_Office": "Kuantan",
        "State": "Pahang"
    },
    {
        "Postcode": "25050",
        "Location": "Lorong Tok Sira 70",
        "Post_Office": "Kuantan",
        "State": "Pahang"
    },
    {
        "Postcode": "25050",
        "Location": "Medan Tok Sera",
        "Post_Office": "Kuantan",
        "State": "Pahang"
    },
    {
        "Postcode": "25050",
        "Location": "Padang Lalang",
        "Post_Office": "Kuantan",
        "State": "Pahang"
    },
    {
        "Postcode": "25050",
        "Location": "Perkampungan Pelindung",
        "Post_Office": "Kuantan",
        "State": "Pahang"
    },
    {
        "Postcode": "25050",
        "Location": "Perkampungan Selamat",
        "Post_Office": "Kuantan",
        "State": "Pahang"
    },
    {
        "Postcode": "25050",
        "Location": "Perkampungan Tok Sira",
        "Post_Office": "Kuantan",
        "State": "Pahang"
    },
    {
        "Postcode": "25050",
        "Location": "Taman Bakti",
        "Post_Office": "Kuantan",
        "State": "Pahang"
    },
    {
        "Postcode": "25050",
        "Location": "Taman Cempedak",
        "Post_Office": "Kuantan",
        "State": "Pahang"
    },
    {
        "Postcode": "25050",
        "Location": "Taman Coorperative",
        "Post_Office": "Kuantan",
        "State": "Pahang"
    },
    {
        "Postcode": "25050",
        "Location": "Taman Datin Maharum",
        "Post_Office": "Kuantan",
        "State": "Pahang"
    },
    {
        "Postcode": "25050",
        "Location": "Taman Galing Kecil",
        "Post_Office": "Kuantan",
        "State": "Pahang"
    },
    {
        "Postcode": "25050",
        "Location": "Taman Gelora",
        "Post_Office": "Kuantan",
        "State": "Pahang"
    },
    {
        "Postcode": "25050",
        "Location": "Taman Kasturi",
        "Post_Office": "Kuantan",
        "State": "Pahang"
    },
    {
        "Postcode": "25050",
        "Location": "Taman Kerjasama",
        "Post_Office": "Kuantan",
        "State": "Pahang"
    },
    {
        "Postcode": "25050",
        "Location": "Taman Kingdom",
        "Post_Office": "Kuantan",
        "State": "Pahang"
    },
    {
        "Postcode": "25050",
        "Location": "Taman Koperatif",
        "Post_Office": "Kuantan",
        "State": "Pahang"
    },
    {
        "Postcode": "25050",
        "Location": "Taman Lknp Baru",
        "Post_Office": "Kuantan",
        "State": "Pahang"
    },
    {
        "Postcode": "25050",
        "Location": "Taman Lknp Medan Tok Sera",
        "Post_Office": "Kuantan",
        "State": "Pahang"
    },
    {
        "Postcode": "25050",
        "Location": "Taman Lknp Peringkat 1",
        "Post_Office": "Kuantan",
        "State": "Pahang"
    },
    {
        "Postcode": "25050",
        "Location": "Taman Lknp Peringkat 2",
        "Post_Office": "Kuantan",
        "State": "Pahang"
    },
    {
        "Postcode": "25050",
        "Location": "Taman Lorong Kijang",
        "Post_Office": "Kuantan",
        "State": "Pahang"
    },
    {
        "Postcode": "25050",
        "Location": "Taman Makmor",
        "Post_Office": "Kuantan",
        "State": "Pahang"
    },
    {
        "Postcode": "25050",
        "Location": "Taman Medan Tok Sira",
        "Post_Office": "Kuantan",
        "State": "Pahang"
    },
    {
        "Postcode": "25050",
        "Location": "Taman Melodies",
        "Post_Office": "Kuantan",
        "State": "Pahang"
    },
    {
        "Postcode": "25050",
        "Location": "Taman Melody",
        "Post_Office": "Kuantan",
        "State": "Pahang"
    },
    {
        "Postcode": "25050",
        "Location": "Taman Melor",
        "Post_Office": "Kuantan",
        "State": "Pahang"
    },
    {
        "Postcode": "25050",
        "Location": "Taman Merbok",
        "Post_Office": "Kuantan",
        "State": "Pahang"
    },
    {
        "Postcode": "25050",
        "Location": "Taman Merdeka",
        "Post_Office": "Kuantan",
        "State": "Pahang"
    },
    {
        "Postcode": "25050",
        "Location": "Taman Pantai Cempedak",
        "Post_Office": "Kuantan",
        "State": "Pahang"
    },
    {
        "Postcode": "25050",
        "Location": "Taman Pelindong",
        "Post_Office": "Kuantan",
        "State": "Pahang"
    },
    {
        "Postcode": "25050",
        "Location": "Taman Selamat",
        "Post_Office": "Kuantan",
        "State": "Pahang"
    },
    {
        "Postcode": "25050",
        "Location": "Taman Selamat Baru",
        "Post_Office": "Kuantan",
        "State": "Pahang"
    },
    {
        "Postcode": "25050",
        "Location": "Taman Tanjong Api",
        "Post_Office": "Kuantan",
        "State": "Pahang"
    },
    {
        "Postcode": "25050",
        "Location": "Taman Taz",
        "Post_Office": "Kuantan",
        "State": "Pahang"
    },
    {
        "Postcode": "25050",
        "Location": "Taman Teberau",
        "Post_Office": "Kuantan",
        "State": "Pahang"
    },
    {
        "Postcode": "25050",
        "Location": "Taman Teluk Cempedak",
        "Post_Office": "Kuantan",
        "State": "Pahang"
    },
    {
        "Postcode": "25050",
        "Location": "Taman Teluk Sisek",
        "Post_Office": "Kuantan",
        "State": "Pahang"
    },
    {
        "Postcode": "25050",
        "Location": "Taman Tengku Mahmud",
        "Post_Office": "Kuantan",
        "State": "Pahang"
    },
    {
        "Postcode": "25050",
        "Location": "Taman Tengku Mohamad",
        "Post_Office": "Kuantan",
        "State": "Pahang"
    },
    {
        "Postcode": "25050",
        "Location": "Taman Timur Jaya",
        "Post_Office": "Kuantan",
        "State": "Pahang"
    },
    {
        "Postcode": "25050",
        "Location": "Tanjung Api",
        "Post_Office": "Kuantan",
        "State": "Pahang"
    },
    {
        "Postcode": "25050",
        "Location": "Teluk Cempedak",
        "Post_Office": "Kuantan",
        "State": "Pahang"
    },
    {
        "Postcode": "25050",
        "Location": "Perumahan Bukit Pelindung",
        "Post_Office": "Kuantan",
        "State": "Pahang"
    },
    {
        "Postcode": "25050",
        "Location": "Perumahan Tok Sira",
        "Post_Office": "Kuantan",
        "State": "Pahang"
    },
    {
        "Postcode": "25050",
        "Location": "Perumahan Alur Akar",
        "Post_Office": "Kuantan",
        "State": "Pahang"
    },
    {
        "Postcode": "25050",
        "Location": "Perumahan Kubang Buaya",
        "Post_Office": "Kuantan",
        "State": "Pahang"
    },
    {
        "Postcode": "25050",
        "Location": "Jalan Teluk Sisek 1",
        "Post_Office": "Kuantan",
        "State": "Pahang"
    },
    {
        "Postcode": "25050",
        "Location": "Taman Bukit Perlindung 1",
        "Post_Office": "Kuantan",
        "State": "Pahang"
    },
    {
        "Postcode": "25050",
        "Location": "Taman Bukit Perlindung 2",
        "Post_Office": "Kuantan",
        "State": "Pahang"
    }
]
