[
    {
        "Postcode": "25100",
        "Location": "Kampung Tanah Puteh",
        "Post_Office": "Kuantan",
        "State": "Pahang"
    },
    {
        "Postcode": "25100",
        "Location": "Taman Bintang",
        "Post_Office": "Kuantan",
        "State": "Pahang"
    },
    {
        "Postcode": "25100",
        "Location": "Taman Mat Kilau",
        "Post_Office": "Kuantan",
        "State": "Pahang"
    },
    {
        "Postcode": "25100",
        "Location": "Taman Pelangi",
        "Post_Office": "Kuantan",
        "State": "Pahang"
    },
    {
        "Postcode": "25100",
        "Location": "Lorong Seri Teruntum 125",
        "Post_Office": "Kuantan",
        "State": "Pahang"
    },
    {
        "Postcode": "25100",
        "Location": "Lorong Seri Teruntum 18",
        "Post_Office": "Kuantan",
        "State": "Pahang"
    },
    {
        "Postcode": "25100",
        "Location": "Kampung Tengah",
        "Post_Office": "Kuantan",
        "State": "Pahang"
    },
    {
        "Postcode": "25100",
        "Location": "Taman Jasmin",
        "Post_Office": "Kuantan",
        "State": "Pahang"
    },
    {
        "Postcode": "25100",
        "Location": "Taman Raya",
        "Post_Office": "Kuantan",
        "State": "Pahang"
    },
    {
        "Postcode": "25100",
        "Location": "Fountain Park",
        "Post_Office": "Kuantan",
        "State": "Pahang"
    },
    {
        "Postcode": "25100",
        "Location": "Jalan Bayam",
        "Post_Office": "Kuantan",
        "State": "Pahang"
    },
    {
        "Postcode": "25100",
        "Location": "Jalan Bintang",
        "Post_Office": "Kuantan",
        "State": "Pahang"
    },
    {
        "Postcode": "25100",
        "Location": "Jalan Cempaka",
        "Post_Office": "Kuantan",
        "State": "Pahang"
    },
    {
        "Postcode": "25100",
        "Location": "Jalan Cemperai",
        "Post_Office": "Kuantan",
        "State": "Pahang"
    },
    {
        "Postcode": "25100",
        "Location": "Jalan Darat Makbar",
        "Post_Office": "Kuantan",
        "State": "Pahang"
    },
    {
        "Postcode": "25100",
        "Location": "Jalan Dato Wong Ah Jang",
        "Post_Office": "Kuantan",
        "State": "Pahang"
    },
    {
        "Postcode": "25100",
        "Location": "Jalan Hospital",
        "Post_Office": "Kuantan",
        "State": "Pahang"
    },
    {
        "Postcode": "25100",
        "Location": "Jalan Kampung Tengah",
        "Post_Office": "Kuantan",
        "State": "Pahang"
    },
    {
        "Postcode": "25100",
        "Location": "Jalan Kemunting",
        "Post_Office": "Kuantan",
        "State": "Pahang"
    },
    {
        "Postcode": "25100",
        "Location": "Jalan Mat Kilau",
        "Post_Office": "Kuantan",
        "State": "Pahang"
    },
    {
        "Postcode": "25100",
        "Location": "Jalan Penjara",
        "Post_Office": "Kuantan",
        "State": "Pahang"
    },
    {
        "Postcode": "25100",
        "Location": "Jalan Perisai",
        "Post_Office": "Kuantan",
        "State": "Pahang"
    },
    {
        "Postcode": "25100",
        "Location": "Jalan Sentol (Tanah Puteh)",
        "Post_Office": "Kuantan",
        "State": "Pahang"
    },
    {
        "Postcode": "25100",
        "Location": "Jalan Sri Teruntum",
        "Post_Office": "Kuantan",
        "State": "Pahang"
    },
    {
        "Postcode": "25100",
        "Location": "Jalan Taman Tengah",
        "Post_Office": "Kuantan",
        "State": "Pahang"
    },
    {
        "Postcode": "25100",
        "Location": "Jalan Tanah Puteh",
        "Post_Office": "Kuantan",
        "State": "Pahang"
    },
    {
        "Postcode": "25100",
        "Location": "Jalan Tanah Putih Lama",
        "Post_Office": "Kuantan",
        "State": "Pahang"
    },
    {
        "Postcode": "25100",
        "Location": "Jalan Terkukur",
        "Post_Office": "Kuantan",
        "State": "Pahang"
    },
    {
        "Postcode": "25100",
        "Location": "Jalan Wong Ah Jang",
        "Post_Office": "Kuantan",
        "State": "Pahang"
    },
    {
        "Postcode": "25100",
        "Location": "Kampung Baru Kuantan",
        "Post_Office": "Kuantan",
        "State": "Pahang"
    },
    {
        "Postcode": "25100",
        "Location": "Kampung Darat Makbar",
        "Post_Office": "Kuantan",
        "State": "Pahang"
    },
    {
        "Postcode": "25100",
        "Location": "Kampung Darat Tanah Puteh",
        "Post_Office": "Kuantan",
        "State": "Pahang"
    },
    {
        "Postcode": "25100",
        "Location": "Kampung Melayu",
        "Post_Office": "Kuantan",
        "State": "Pahang"
    },
    {
        "Postcode": "25100",
        "Location": "Kampung Setinggan Tanah Putih",
        "Post_Office": "Kuantan",
        "State": "Pahang"
    },
    {
        "Postcode": "25100",
        "Location": "Kampung Tanah Puteh Lama",
        "Post_Office": "Kuantan",
        "State": "Pahang"
    },
    {
        "Postcode": "25100",
        "Location": "Kompleks Medan Warisan",
        "Post_Office": "Kuantan",
        "State": "Pahang"
    },
    {
        "Postcode": "25100",
        "Location": "Kompleks Perikanan",
        "Post_Office": "Kuantan",
        "State": "Pahang"
    },
    {
        "Postcode": "25100",
        "Location": "Lembaga Penduduk Negara (Lppkn)",
        "Post_Office": "Kuantan",
        "State": "Pahang"
    },
    {
        "Postcode": "25100",
        "Location": "Lorong Cemperai",
        "Post_Office": "Kuantan",
        "State": "Pahang"
    },
    {
        "Postcode": "25100",
        "Location": "Lorong Kemunting",
        "Post_Office": "Kuantan",
        "State": "Pahang"
    },
    {
        "Postcode": "25100",
        "Location": "Lorong Mat Kilau",
        "Post_Office": "Kuantan",
        "State": "Pahang"
    },
    {
        "Postcode": "25100",
        "Location": "Lorong Mat Kilau 21",
        "Post_Office": "Kuantan",
        "State": "Pahang"
    },
    {
        "Postcode": "25100",
        "Location": "Lorong Rusa",
        "Post_Office": "Kuantan",
        "State": "Pahang"
    },
    {
        "Postcode": "25100",
        "Location": "Lorong Seri Teruntum",
        "Post_Office": "Kuantan",
        "State": "Pahang"
    },
    {
        "Postcode": "25100",
        "Location": "Lorong Seri Teruntum 32",
        "Post_Office": "Kuantan",
        "State": "Pahang"
    },
    {
        "Postcode": "25100",
        "Location": "Lorong Seri Teruntum 37",
        "Post_Office": "Kuantan",
        "State": "Pahang"
    },
    {
        "Postcode": "25100",
        "Location": "Medan Warisan",
        "Post_Office": "Kuantan",
        "State": "Pahang"
    },
    {
        "Postcode": "25100",
        "Location": "Perkampungan Seri Teruntum",
        "Post_Office": "Kuantan",
        "State": "Pahang"
    },
    {
        "Postcode": "25100",
        "Location": "Rumah Pangsa Permai",
        "Post_Office": "Kuantan",
        "State": "Pahang"
    },
    {
        "Postcode": "25100",
        "Location": "Taman Golden City",
        "Post_Office": "Kuantan",
        "State": "Pahang"
    },
    {
        "Postcode": "25100",
        "Location": "Taman Jade",
        "Post_Office": "Kuantan",
        "State": "Pahang"
    },
    {
        "Postcode": "25100",
        "Location": "Taman Lee Town Apartment",
        "Post_Office": "Kuantan",
        "State": "Pahang"
    },
    {
        "Postcode": "25100",
        "Location": "Taman Lion",
        "Post_Office": "Kuantan",
        "State": "Pahang"
    },
    {
        "Postcode": "25100",
        "Location": "Taman Mahsuri",
        "Post_Office": "Kuantan",
        "State": "Pahang"
    },
    {
        "Postcode": "25100",
        "Location": "Taman Mega View",
        "Post_Office": "Kuantan",
        "State": "Pahang"
    },
    {
        "Postcode": "25100",
        "Location": "Taman Melor Desa",
        "Post_Office": "Kuantan",
        "State": "Pahang"
    },
    {
        "Postcode": "25100",
        "Location": "Taman Muhibah",
        "Post_Office": "Kuantan",
        "State": "Pahang"
    },
    {
        "Postcode": "25100",
        "Location": "Taman Murni",
        "Post_Office": "Kuantan",
        "State": "Pahang"
    },
    {
        "Postcode": "25100",
        "Location": "Taman Pangsa Puri Permai",
        "Post_Office": "Kuantan",
        "State": "Pahang"
    },
    {
        "Postcode": "25100",
        "Location": "Taman Seri Teruntum",
        "Post_Office": "Kuantan",
        "State": "Pahang"
    },
    {
        "Postcode": "25100",
        "Location": "Taman Tanah Puteh",
        "Post_Office": "Kuantan",
        "State": "Pahang"
    },
    {
        "Postcode": "25100",
        "Location": "Taman Tas Putera",
        "Post_Office": "Kuantan",
        "State": "Pahang"
    },
    {
        "Postcode": "25100",
        "Location": "Taman Tengah",
        "Post_Office": "Kuantan",
        "State": "Pahang"
    },
    {
        "Postcode": "25100",
        "Location": "Taman Yau",
        "Post_Office": "Kuantan",
        "State": "Pahang"
    },
    {
        "Postcode": "25100",
        "Location": "Taman Zurina",
        "Post_Office": "Kuantan",
        "State": "Pahang"
    },
    {
        "Postcode": "25100",
        "Location": "Perumahan Mat Kilau",
        "Post_Office": "Kuantan",
        "State": "Pahang"
    },
    {
        "Postcode": "25100",
        "Location": "Perumahan Seri Teruntum",
        "Post_Office": "Kuantan",
        "State": "Pahang"
    },
    {
        "Postcode": "25100",
        "Location": "Jalan Seri Teruntum 3",
        "Post_Office": "Kuantan",
        "State": "Pahang"
    },
    {
        "Postcode": "25100",
        "Location": "Perumahan Seri Kemunting",
        "Post_Office": "Kuantan",
        "State": "Pahang"
    },
    {
        "Postcode": "25100",
        "Location": "Kuantan Bizpark",
        "Post_Office": "Kuantan",
        "State": "Pahang"
    }
]
