[
    {
        "Postcode": "25150",
        "Location": "Perumahan Pandan Damai",
        "Post_Office": "Kuantan",
        "State": "Pahang"
    },
    {
        "Postcode": "25150",
        "Location": "Kawasan Perindustrian Tanah Putih Baru",
        "Post_Office": "Kuantan",
        "State": "Pahang"
    },
    {
        "Postcode": "25150",
        "Location": "Perumahan Pandan Makmur 1",
        "Post_Office": "Kuantan",
        "State": "Pahang"
    },
    {
        "Postcode": "25150",
        "Location": "Perumahan Pandan Makmur 2",
        "Post_Office": "Kuantan",
        "State": "Pahang"
    },
    {
        "Postcode": "25150",
        "Location": "Perumahan Seri Damai Jaya 5",
        "Post_Office": "Kuantan",
        "State": "Pahang"
    },
    {
        "Postcode": "25150",
        "Location": "Kampung Haji Ali",
        "Post_Office": "Kuantan",
        "State": "Pahang"
    },
    {
        "Postcode": "25150",
        "Location": "Tanah Puteh",
        "Post_Office": "Kuantan",
        "State": "Pahang"
    },
    {
        "Postcode": "25150",
        "Location": "Lorong Guang Rasau 57",
        "Post_Office": "Kuantan",
        "State": "Pahang"
    },
    {
        "Postcode": "25150",
        "Location": "Perkampungan Gudang Rasau",
        "Post_Office": "Kuantan",
        "State": "Pahang"
    },
    {
        "Postcode": "25150",
        "Location": "Lorong Indera Sempurna 89",
        "Post_Office": "Kuantan",
        "State": "Pahang"
    },
    {
        "Postcode": "25150",
        "Location": "Lorong Pandan Damai 2/211",
        "Post_Office": "Kuantan",
        "State": "Pahang"
    },
    {
        "Postcode": "25150",
        "Location": "Jalan Seri Damai Perdana 2",
        "Post_Office": "Kuantan",
        "State": "Pahang"
    },
    {
        "Postcode": "25150",
        "Location": "Lorong Seri Damai Aman 52",
        "Post_Office": "Kuantan",
        "State": "Pahang"
    },
    {
        "Postcode": "25150",
        "Location": "Lorong Industri Tanah Putih Baru 15",
        "Post_Office": "Kuantan",
        "State": "Pahang"
    },
    {
        "Postcode": "25150",
        "Location": "Lorong Pandan Damai 1/18",
        "Post_Office": "Kuantan",
        "State": "Pahang"
    },
    {
        "Postcode": "25150",
        "Location": "Jalan Damai",
        "Post_Office": "Kuantan",
        "State": "Pahang"
    },
    {
        "Postcode": "25150",
        "Location": "Kampung Sc",
        "Post_Office": "Kuantan",
        "State": "Pahang"
    },
    {
        "Postcode": "25150",
        "Location": "Perumahan Sri Damai Baru",
        "Post_Office": "Kuantan",
        "State": "Pahang"
    },
    {
        "Postcode": "25150",
        "Location": "Taman Kurnia Jaya",
        "Post_Office": "Kuantan",
        "State": "Pahang"
    },
    {
        "Postcode": "25150",
        "Location": "Taman Pandan Makmur",
        "Post_Office": "Kuantan",
        "State": "Pahang"
    },
    {
        "Postcode": "25150",
        "Location": "Taman Pandan Perdana",
        "Post_Office": "Kuantan ",
        "State": "Pahang"
    },
    {
        "Postcode": "25150",
        "Location": "Batu 8, Jalan Pekan",
        "Post_Office": "Kuantan",
        "State": "Pahang"
    },
    {
        "Postcode": "25150",
        "Location": "Batu 9 Jalan Gambang",
        "Post_Office": "Kuantan",
        "State": "Pahang"
    },
    {
        "Postcode": "25150",
        "Location": "Jalan Gambang",
        "Post_Office": "Kuantan",
        "State": "Pahang"
    },
    {
        "Postcode": "25150",
        "Location": "Jalan Industri Tanah Putih Baru",
        "Post_Office": "Kuantan",
        "State": "Pahang"
    },
    {
        "Postcode": "25150",
        "Location": "Jalan Isap Perdana",
        "Post_Office": "Kuantan",
        "State": "Pahang"
    },
    {
        "Postcode": "25150",
        "Location": "Jalan Karyawan",
        "Post_Office": "Kuantan",
        "State": "Pahang"
    },
    {
        "Postcode": "25150",
        "Location": "Jalan Kuantan - Gambang",
        "Post_Office": "Kuantan",
        "State": "Pahang"
    },
    {
        "Postcode": "25150",
        "Location": "Jalan Kuantan - Pekan (Km 9 - 16)",
        "Post_Office": "Kuantan",
        "State": "Pahang"
    },
    {
        "Postcode": "25150",
        "Location": "Jalan Lebuhraya",
        "Post_Office": "Kuantan",
        "State": "Pahang"
    },
    {
        "Postcode": "25150",
        "Location": "Jalan Permatang Badak",
        "Post_Office": "Kuantan",
        "State": "Pahang"
    },
    {
        "Postcode": "25150",
        "Location": "Jalan Permatang Badak Aman 1",
        "Post_Office": "Kuantan",
        "State": "Pahang"
    },
    {
        "Postcode": "25150",
        "Location": "Jalan Permatang Badak Perdana 4",
        "Post_Office": "Kuantan",
        "State": "Pahang"
    },
    {
        "Postcode": "25150",
        "Location": "Jalan Rasau Aman 1",
        "Post_Office": "Kuantan",
        "State": "Pahang"
    },
    {
        "Postcode": "25150",
        "Location": "Jalan Sri Inderapura",
        "Post_Office": "Kuantan",
        "State": "Pahang"
    },
    {
        "Postcode": "25150",
        "Location": "Jalan Sungai Isap Jaya",
        "Post_Office": "Kuantan",
        "State": "Pahang"
    },
    {
        "Postcode": "25150",
        "Location": "Jalan Tas",
        "Post_Office": "Kuantan",
        "State": "Pahang"
    },
    {
        "Postcode": "25150",
        "Location": "Jalan Tok Mat",
        "Post_Office": "Kuantan",
        "State": "Pahang"
    },
    {
        "Postcode": "25150",
        "Location": "Kampung Air Itam",
        "Post_Office": "Kuantan",
        "State": "Pahang"
    },
    {
        "Postcode": "25150",
        "Location": "Kampung Baru Chendering",
        "Post_Office": "Kuantan",
        "State": "Pahang"
    },
    {
        "Postcode": "25150",
        "Location": "Kampung Baru Dalam",
        "Post_Office": "Kuantan",
        "State": "Pahang"
    },
    {
        "Postcode": "25150",
        "Location": "Kampung Baru Mpk",
        "Post_Office": "Kuantan",
        "State": "Pahang"
    },
    {
        "Postcode": "25150",
        "Location": "Kampung Baru Permatang Badak",
        "Post_Office": "Kuantan",
        "State": "Pahang"
    },
    {
        "Postcode": "25150",
        "Location": "Kampung Baru Seri Melati",
        "Post_Office": "Kuantan",
        "State": "Pahang"
    },
    {
        "Postcode": "25150",
        "Location": "Kampung Baru Yahya Seh (Batu 6)",
        "Post_Office": "Kuantan",
        "State": "Pahang"
    },
    {
        "Postcode": "25150",
        "Location": "Kampung Batu 3 - 7 (Jalan Gambang)",
        "Post_Office": "Kuantan",
        "State": "Pahang"
    },
    {
        "Postcode": "25150",
        "Location": "Kampung Belukar",
        "Post_Office": "Kuantan",
        "State": "Pahang"
    },
    {
        "Postcode": "25150",
        "Location": "Kampung Bukit Rangin",
        "Post_Office": "Kuantan",
        "State": "Pahang"
    },
    {
        "Postcode": "25150",
        "Location": "Kampung Cendering",
        "Post_Office": "Kuantan",
        "State": "Pahang"
    },
    {
        "Postcode": "25150",
        "Location": "Kampung Desa Mesra (Jalan Gambang)",
        "Post_Office": "Kuantan",
        "State": "Pahang"
    },
    {
        "Postcode": "25150",
        "Location": "Kampung Gudang Rasau",
        "Post_Office": "Kuantan",
        "State": "Pahang"
    },
    {
        "Postcode": "25150",
        "Location": "Kampung Kurnia",
        "Post_Office": "Kuantan",
        "State": "Pahang"
    },
    {
        "Postcode": "25150",
        "Location": "Kampung Lubok Puyu",
        "Post_Office": "Kuantan",
        "State": "Pahang"
    },
    {
        "Postcode": "25150",
        "Location": "Kampung Melati (Jalan Gambang)",
        "Post_Office": "Kuantan",
        "State": "Pahang"
    },
    {
        "Postcode": "25150",
        "Location": "Kampung Permatang Badak",
        "Post_Office": "Kuantan",
        "State": "Pahang"
    },
    {
        "Postcode": "25150",
        "Location": "Kampung Razali",
        "Post_Office": "Kuantan",
        "State": "Pahang"
    },
    {
        "Postcode": "25150",
        "Location": "Kampung Sungai Belat",
        "Post_Office": "Kuantan",
        "State": "Pahang"
    },
    {
        "Postcode": "25150",
        "Location": "Kampung Sungai Isap",
        "Post_Office": "Kuantan",
        "State": "Pahang"
    },
    {
        "Postcode": "25150",
        "Location": "Kampung Telaga Pasu",
        "Post_Office": "Kuantan",
        "State": "Pahang"
    },
    {
        "Postcode": "25150",
        "Location": "Kampung Telok Mahang",
        "Post_Office": "Kuantan",
        "State": "Pahang"
    },
    {
        "Postcode": "25150",
        "Location": "Lorong Bakti Batu 5",
        "Post_Office": "Kuantan",
        "State": "Pahang"
    },
    {
        "Postcode": "25150",
        "Location": "Lorong Belukar Maju",
        "Post_Office": "Kuantan",
        "State": "Pahang"
    },
    {
        "Postcode": "25150",
        "Location": "Lorong Bkp 3",
        "Post_Office": "Kuantan",
        "State": "Pahang"
    },
    {
        "Postcode": "25150",
        "Location": "Lorong Budiman",
        "Post_Office": "Kuantan",
        "State": "Pahang"
    },
    {
        "Postcode": "25150",
        "Location": "Lorong Bukit Rangin",
        "Post_Office": "Kuantan",
        "State": "Pahang"
    },
    {
        "Postcode": "25150",
        "Location": "Lorong Industri Tanah Puteh Baru 5",
        "Post_Office": "Kuantan",
        "State": "Pahang"
    },
    {
        "Postcode": "25150",
        "Location": "Lorong Isap Murni",
        "Post_Office": "Kuantan",
        "State": "Pahang"
    },
    {
        "Postcode": "25150",
        "Location": "Lorong Karyawan 34",
        "Post_Office": "Kuantan",
        "State": "Pahang"
    },
    {
        "Postcode": "25150",
        "Location": "Lorong Kenanga",
        "Post_Office": "Kuantan",
        "State": "Pahang"
    },
    {
        "Postcode": "25150",
        "Location": "Lorong Km",
        "Post_Office": "Kuantan",
        "State": "Pahang"
    },
    {
        "Postcode": "25150",
        "Location": "Lorong Kurnia Jaya 4",
        "Post_Office": "Kuantan",
        "State": "Pahang"
    },
    {
        "Postcode": "25150",
        "Location": "Lorong Lengkok Kanan",
        "Post_Office": "Kuantan",
        "State": "Pahang"
    },
    {
        "Postcode": "25150",
        "Location": "Lorong Lengkok Kiri",
        "Post_Office": "Kuantan",
        "State": "Pahang"
    },
    {
        "Postcode": "25150",
        "Location": "Lorong Pandan Damai 2/201",
        "Post_Office": "Kuantan",
        "State": "Pahang"
    },
    {
        "Postcode": "25150",
        "Location": "Lorong Pandan Damai 2/212",
        "Post_Office": "Kuantan",
        "State": "Pahang"
    },
    {
        "Postcode": "25150",
        "Location": "Lorong Pandan Perdana",
        "Post_Office": "Kuantan",
        "State": "Pahang"
    },
    {
        "Postcode": "25150",
        "Location": "Lorong Permatang Badak Aman 26",
        "Post_Office": "Kuantan",
        "State": "Pahang"
    },
    {
        "Postcode": "25150",
        "Location": "Lorong Permatang Badak Aman 28",
        "Post_Office": "Kuantan",
        "State": "Pahang"
    },
    {
        "Postcode": "25150",
        "Location": "Lorong Permatang Badak Damai",
        "Post_Office": "Kuantan",
        "State": "Pahang"
    },
    {
        "Postcode": "25150",
        "Location": "Lorong Permatang Badak Damai 5",
        "Post_Office": "Kuantan",
        "State": "Pahang"
    },
    {
        "Postcode": "25150",
        "Location": "Lorong Permatang Badak Jaya",
        "Post_Office": "Kuantan",
        "State": "Pahang"
    },
    {
        "Postcode": "25150",
        "Location": "Lorong Permatang Badak Makmur 24",
        "Post_Office": "Kuantan",
        "State": "Pahang"
    },
    {
        "Postcode": "25150",
        "Location": "Lorong Permatang Badak Perdana",
        "Post_Office": "Kuantan",
        "State": "Pahang"
    },
    {
        "Postcode": "25150",
        "Location": "Lorong Rasau Aman 2",
        "Post_Office": "Kuantan",
        "State": "Pahang"
    },
    {
        "Postcode": "25150",
        "Location": "Lorong Rasau Perdana",
        "Post_Office": "Kuantan",
        "State": "Pahang"
    },
    {
        "Postcode": "25150",
        "Location": "Lorong Rasau Permata",
        "Post_Office": "Kuantan",
        "State": "Pahang"
    },
    {
        "Postcode": "25150",
        "Location": "Lorong Seri Damai Perdana 1",
        "Post_Office": "Kuantan",
        "State": "Pahang"
    },
    {
        "Postcode": "25150",
        "Location": "Lorong Sri Inderapura",
        "Post_Office": "Kuantan",
        "State": "Pahang"
    },
    {
        "Postcode": "25150",
        "Location": "Lorong Sungai Isap Damai",
        "Post_Office": "Kuantan",
        "State": "Pahang"
    },
    {
        "Postcode": "25150",
        "Location": "Lorong Sungai Isap Jaya",
        "Post_Office": "Kuantan",
        "State": "Pahang"
    },
    {
        "Postcode": "25150",
        "Location": "Lorong Sungai Isap Perdana",
        "Post_Office": "Kuantan",
        "State": "Pahang"
    },
    {
        "Postcode": "25150",
        "Location": "Lorong Tas Ria",
        "Post_Office": "Kuantan",
        "State": "Pahang"
    },
    {
        "Postcode": "25150",
        "Location": "Lorong Tas Ria 38",
        "Post_Office": "Kuantan",
        "State": "Pahang"
    },
    {
        "Postcode": "25150",
        "Location": "Maktab Sains Mara",
        "Post_Office": "Kuantan",
        "State": "Pahang"
    },
    {
        "Postcode": "25150",
        "Location": "Paya Besar (Jalan Gambang)",
        "Post_Office": "Kuantan",
        "State": "Pahang"
    },
    {
        "Postcode": "25150",
        "Location": "Perkampungan Indera Sempurna",
        "Post_Office": "Kuantan",
        "State": "Pahang"
    },
    {
        "Postcode": "25150",
        "Location": "Perkampungan Pandan Damai",
        "Post_Office": "Kuantan",
        "State": "Pahang"
    },
    {
        "Postcode": "25150",
        "Location": "Perkampungan Permatang Badak Jaya",
        "Post_Office": "Kuantan",
        "State": "Pahang"
    },
    {
        "Postcode": "25150",
        "Location": "Perkampungan Permatang Badak Perdana",
        "Post_Office": "Kuantan",
        "State": "Pahang"
    },
    {
        "Postcode": "25150",
        "Location": "Perkampungan Seri Damai Aman",
        "Post_Office": "Kuantan",
        "State": "Pahang"
    },
    {
        "Postcode": "25150",
        "Location": "Perkampungan Seri Damai Baru",
        "Post_Office": "Kuantan",
        "State": "Pahang"
    },
    {
        "Postcode": "25150",
        "Location": "Perkampungan Seri Damai Perdana",
        "Post_Office": "Kuantan",
        "State": "Pahang"
    },
    {
        "Postcode": "25150",
        "Location": "Perkampungan Sungai Isap Aman",
        "Post_Office": "Kuantan",
        "State": "Pahang"
    },
    {
        "Postcode": "25150",
        "Location": "Permatang Badak",
        "Post_Office": "Kuantan",
        "State": "Pahang"
    },
    {
        "Postcode": "25150",
        "Location": "Perumahan Cendering",
        "Post_Office": "Kuantan",
        "State": "Pahang"
    },
    {
        "Postcode": "25150",
        "Location": "Perumahan Cendering Lama",
        "Post_Office": "Kuantan",
        "State": "Pahang"
    },
    {
        "Postcode": "25150",
        "Location": "Perumahan Desa Mesra",
        "Post_Office": "Kuantan",
        "State": "Pahang"
    },
    {
        "Postcode": "25150",
        "Location": "Perumahan Tanah Putih Baru",
        "Post_Office": "Kuantan",
        "State": "Pahang"
    },
    {
        "Postcode": "25150",
        "Location": "Rumah Murah Permatang Badak",
        "Post_Office": "Kuantan",
        "State": "Pahang"
    },
    {
        "Postcode": "25150",
        "Location": "Sungai Isap",
        "Post_Office": "Kuantan",
        "State": "Pahang"
    },
    {
        "Postcode": "25150",
        "Location": "Taman Aishah",
        "Post_Office": "Kuantan",
        "State": "Pahang"
    },
    {
        "Postcode": "25150",
        "Location": "Taman Aneka Jaya (Jalan Gambang)",
        "Post_Office": "Kuantan",
        "State": "Pahang"
    },
    {
        "Postcode": "25150",
        "Location": "Taman Baru Chendering",
        "Post_Office": "Kuantan",
        "State": "Pahang"
    },
    {
        "Postcode": "25150",
        "Location": "Taman Belukar Maju",
        "Post_Office": "Kuantan",
        "State": "Pahang"
    },
    {
        "Postcode": "25150",
        "Location": "Taman Bukit Rangin",
        "Post_Office": "Kuantan",
        "State": "Pahang"
    },
    {
        "Postcode": "25150",
        "Location": "Taman Desa Mesra",
        "Post_Office": "Kuantan",
        "State": "Pahang"
    },
    {
        "Postcode": "25150",
        "Location": "Taman Dr Mohd Taib",
        "Post_Office": "Kuantan",
        "State": "Pahang"
    },
    {
        "Postcode": "25150",
        "Location": "Taman Gudang Rasau Aman",
        "Post_Office": "Kuantan",
        "State": "Pahang"
    },
    {
        "Postcode": "25150",
        "Location": "Taman Guru",
        "Post_Office": "Kuantan",
        "State": "Pahang"
    },
    {
        "Postcode": "25150",
        "Location": "Taman Mega",
        "Post_Office": "Kuantan",
        "State": "Pahang"
    },
    {
        "Postcode": "25150",
        "Location": "Taman Pandan",
        "Post_Office": "Kuantan",
        "State": "Pahang"
    },
    {
        "Postcode": "25150",
        "Location": "Taman Pandan Permai",
        "Post_Office": "Kuantan",
        "State": "Pahang"
    },
    {
        "Postcode": "25150",
        "Location": "Taman Permatang Badak Maju",
        "Post_Office": "Kuantan",
        "State": "Pahang"
    },
    {
        "Postcode": "25150",
        "Location": "Taman Putra / Putri",
        "Post_Office": "Kuantan",
        "State": "Pahang"
    },
    {
        "Postcode": "25150",
        "Location": "Taman Rasau Aman",
        "Post_Office": "Kuantan",
        "State": "Pahang"
    },
    {
        "Postcode": "25150",
        "Location": "Taman Rasau Permata",
        "Post_Office": "Kuantan",
        "State": "Pahang"
    },
    {
        "Postcode": "25150",
        "Location": "Taman Sepakat",
        "Post_Office": "Kuantan",
        "State": "Pahang"
    },
    {
        "Postcode": "25150",
        "Location": "Taman Sri Belat",
        "Post_Office": "Kuantan",
        "State": "Pahang"
    },
    {
        "Postcode": "25150",
        "Location": "Taman Sri Inderapura",
        "Post_Office": "Kuantan",
        "State": "Pahang"
    },
    {
        "Postcode": "25150",
        "Location": "Taman Sri Pandan",
        "Post_Office": "Kuantan",
        "State": "Pahang"
    },
    {
        "Postcode": "25150",
        "Location": "Taman Sungai Isap",
        "Post_Office": "Kuantan",
        "State": "Pahang"
    },
    {
        "Postcode": "25150",
        "Location": "Taman Sungai Isap Baru",
        "Post_Office": "Kuantan",
        "State": "Pahang"
    },
    {
        "Postcode": "25150",
        "Location": "Taman Sungai Isap Damai",
        "Post_Office": "Kuantan",
        "State": "Pahang"
    },
    {
        "Postcode": "25150",
        "Location": "Taman Sungai Isap Jaya",
        "Post_Office": "Kuantan",
        "State": "Pahang"
    },
    {
        "Postcode": "25150",
        "Location": "Taman Sungai Isap Perdana",
        "Post_Office": "Kuantan",
        "State": "Pahang"
    },
    {
        "Postcode": "25150",
        "Location": "Taman Tanah Puteh Baru",
        "Post_Office": "Kuantan",
        "State": "Pahang"
    },
    {
        "Postcode": "25150",
        "Location": "Taman Tas Kuantan",
        "Post_Office": "Kuantan",
        "State": "Pahang"
    },
    {
        "Postcode": "25150",
        "Location": "Taman Tas Ria",
        "Post_Office": "Kuantan",
        "State": "Pahang"
    },
    {
        "Postcode": "25150",
        "Location": "Taman Uda (Jalan Gambang)",
        "Post_Office": "Kuantan",
        "State": "Pahang"
    },
    {
        "Postcode": "25150",
        "Location": "Taman Uda Murni",
        "Post_Office": "Kuantan",
        "State": "Pahang"
    },
    {
        "Postcode": "25150",
        "Location": "Taman Ukhwah",
        "Post_Office": "Kuantan",
        "State": "Pahang"
    },
    {
        "Postcode": "25150",
        "Location": "Perumahan Permatang Badak Damai",
        "Post_Office": "Kuantan",
        "State": "Pahang"
    },
    {
        "Postcode": "25150",
        "Location": "Perumahan Permatang Badak Maju",
        "Post_Office": "Kuantan",
        "State": "Pahang"
    },
    {
        "Postcode": "25150",
        "Location": "Perumahan Sri Damai Aman Maju",
        "Post_Office": "Kuantan",
        "State": "Pahang"
    },
    {
        "Postcode": "25150",
        "Location": "Perumahan Sri Damai Maju",
        "Post_Office": "Kuantan",
        "State": "Pahang"
    },
    {
        "Postcode": "25150",
        "Location": "Jalan Seri Damai Perdana 1",
        "Post_Office": "Kuantan",
        "State": "Pahang"
    },
    {
        "Postcode": "25150",
        "Location": "Perumahan Indera Sempurna",
        "Post_Office": "Kuantan",
        "State": "Pahang"
    },
    {
        "Postcode": "25150",
        "Location": "Perumahan Jaya Gading",
        "Post_Office": "Kuantan",
        "State": "Pahang"
    },
    {
        "Postcode": "25150",
        "Location": "Perumahan Karyawan",
        "Post_Office": "Kuantan ",
        "State": "Pahang"
    },
    {
        "Postcode": "25150",
        "Location": "Perumahan Permatang Badak Aman",
        "Post_Office": "Kuantan",
        "State": "Pahang"
    },
    {
        "Postcode": "25150",
        "Location": "Perumahan Seri Mahkota Aman 3",
        "Post_Office": "Kuantan",
        "State": "Pahang"
    },
    {
        "Postcode": "25150",
        "Location": "Lorong Bunut Rendang Jaya 1",
        "Post_Office": "Kuantan",
        "State": "Pahang"
    },
    {
        "Postcode": "25150",
        "Location": "Perkampungan Bunut Rendang Jaya",
        "Post_Office": "Kuantan",
        "State": "Pahang"
    },
    {
        "Postcode": "25150",
        "Location": "Perumahan Seri Inderapura",
        "Post_Office": "Kuantan",
        "State": "Pahang"
    },
    {
        "Postcode": "25150",
        "Location": "Perumahan Permatang Badak Perdana",
        "Post_Office": "Kuantan",
        "State": "Pahang"
    },
    {
        "Postcode": "25150",
        "Location": "Perumahan Kurnia Jaya",
        "Post_Office": "Kuantan",
        "State": "Pahang"
    },
    {
        "Postcode": "25150",
        "Location": "Pakr Bukit Rangin",
        "Post_Office": "Kuantan",
        "State": "Pahang"
    },
    {
        "Postcode": "25150",
        "Location": "Perumahan Seri Damai Jaya",
        "Post_Office": "Kuantan ",
        "State": "Pahang"
    },
    {
        "Postcode": "25150",
        "Location": "Jalan Kampung Kurnia",
        "Post_Office": "Kuantan",
        "State": "Pahang"
    },
    {
        "Postcode": "25150",
        "Location": "Perumahan Permatang Badak Jaya",
        "Post_Office": "Kuantan",
        "State": "Pahang"
    },
    {
        "Postcode": "25150",
        "Location": "Perumahan Bukit Rangin Perdana",
        "Post_Office": "Kuantan",
        "State": "Pahang"
    },
    {
        "Postcode": "25150",
        "Location": "Perumahan Bukit Rangin Perdana 1",
        "Post_Office": "Kuantan",
        "State": "Pahang"
    },
    {
        "Postcode": "25150",
        "Location": "Perumahan Permatang Badak Makmur",
        "Post_Office": "Kuantan",
        "State": "Pahang"
    },
    {
        "Postcode": "25150",
        "Location": "Perumahan Pandan Jaya",
        "Post_Office": "Kuantan",
        "State": "Pahang"
    },
    {
        "Postcode": "25150",
        "Location": "Jalan Bukit Rangin 2",
        "Post_Office": "Kuantan",
        "State": "Pahang"
    },
    {
        "Postcode": "25150",
        "Location": "Perumahan Pandan Damai 2",
        "Post_Office": "Kuantan",
        "State": "Pahang"
    },
    {
        "Postcode": "25150",
        "Location": "Perumahan Pandan Damai 3",
        "Post_Office": "Kuantan",
        "State": "Pahang"
    },
    {
        "Postcode": "25150",
        "Location": "Perumahan Seri Mahkota Maju 2",
        "Post_Office": "Kuantan",
        "State": "Pahang"
    },
    {
        "Postcode": "25150",
        "Location": "Residensi Pr1Ma@Seri Mahkota Maju",
        "Post_Office": "Kuantan",
        "State": "Pahang"
    },
    {
        "Postcode": "25150",
        "Location": "Perumahan Bunut Rendang",
        "Post_Office": "Kuantan",
        "State": "Pahang"
    },
    {
        "Postcode": "25150",
        "Location": "Perumahan Sungai Isap 1",
        "Post_Office": "Kuantan",
        "State": "Pahang"
    },
    {
        "Postcode": "25150",
        "Location": "Perumahan Sungai Isap 2",
        "Post_Office": "Kuantan",
        "State": "Pahang"
    },
    {
        "Postcode": "25150",
        "Location": "Perumahan Sungai Isap 3",
        "Post_Office": "Kuantan",
        "State": "Pahang"
    }
]
