[
    {
        "Postcode": "25200",
        "Location": "Perumahan Bukit Ubi",
        "Post_Office": "Kuantan",
        "State": "Pahang"
    },
    {
        "Postcode": "25200",
        "Location": "Kampung Tanjong Pasir",
        "Post_Office": "Kuantan",
        "State": "Pahang"
    },
    {
        "Postcode": "25200",
        "Location": "Kampung Tanjong Putus",
        "Post_Office": "Kuantan",
        "State": "Pahang"
    },
    {
        "Postcode": "25200",
        "Location": "Perumahan Kampung Padang Baru",
        "Post_Office": "Kuantan",
        "State": "Pahang"
    },
    {
        "Postcode": "25200",
        "Location": "Taman Desa Jaya",
        "Post_Office": "Kuantan",
        "State": "Pahang"
    },
    {
        "Postcode": "25200",
        "Location": "Taman Sungai Karas",
        "Post_Office": "Kuantan",
        "State": "Pahang"
    },
    {
        "Postcode": "25200",
        "Location": "Lorong Bukit Setongkol Maju 44",
        "Post_Office": "Kuantan",
        "State": "Pahang"
    },
    {
        "Postcode": "25200",
        "Location": "Lorong Kampung Padang Jaya",
        "Post_Office": "Kuantan",
        "State": "Pahang"
    },
    {
        "Postcode": "25200",
        "Location": "Perkampungan Bukit Setongkol Maju",
        "Post_Office": "Kuantan",
        "State": "Pahang"
    },
    {
        "Postcode": "25200",
        "Location": "Perkampungan Padang Jaya",
        "Post_Office": "Kuantan",
        "State": "Pahang"
    },
    {
        "Postcode": "25200",
        "Location": "Lorong Bukit Bay Route 15",
        "Post_Office": "Kuantan",
        "State": "Pahang"
    },
    {
        "Postcode": "25200",
        "Location": "Lorong Im 16/14",
        "Post_Office": "Kuantan",
        "State": "Pahang"
    },
    {
        "Postcode": "25200",
        "Location": "Lorong Padang Permai 41",
        "Post_Office": "Kuantan",
        "State": "Pahang"
    },
    {
        "Postcode": "25200",
        "Location": "Lorong Paya Tiga 30",
        "Post_Office": "Kuantan",
        "State": "Pahang"
    },
    {
        "Postcode": "25200",
        "Location": "Perkampungan Paya Tiga",
        "Post_Office": "Kuantan",
        "State": "Pahang"
    },
    {
        "Postcode": "25200",
        "Location": "Perumahan Bandar Indera Mahkota 16",
        "Post_Office": "Kuantan",
        "State": "Pahang"
    },
    {
        "Postcode": "25200",
        "Location": "Taman Paya Tiga",
        "Post_Office": "Kuantan",
        "State": "Pahang"
    },
    {
        "Postcode": "25200",
        "Location": "Jalan Sekilau 3",
        "Post_Office": "Kuantan",
        "State": "Pahang"
    },
    {
        "Postcode": "25200",
        "Location": "Taman Sekilau",
        "Post_Office": "Kuantan",
        "State": "Pahang"
    },
    {
        "Postcode": "25200",
        "Location": "Batu Sawar",
        "Post_Office": "Kuantan",
        "State": "Pahang"
    },
    {
        "Postcode": "25200",
        "Location": "Jalan Kenanga",
        "Post_Office": "Kuantan",
        "State": "Pahang"
    },
    {
        "Postcode": "25200",
        "Location": "Kampung Batu Sawar",
        "Post_Office": "Kuantan",
        "State": "Pahang"
    },
    {
        "Postcode": "25200",
        "Location": "Kampung Songsang",
        "Post_Office": "Kuantan",
        "State": "Pahang"
    },
    {
        "Postcode": "25200",
        "Location": "Taman Aneka Jaya",
        "Post_Office": "Kuantan",
        "State": "Pahang"
    },
    {
        "Postcode": "25200",
        "Location": "Taman Desa Teratai",
        "Post_Office": "Kuantan",
        "State": "Pahang"
    },
    {
        "Postcode": "25200",
        "Location": "Taman Jasmin",
        "Post_Office": "Kuantan",
        "State": "Pahang"
    },
    {
        "Postcode": "25200",
        "Location": "Taman Mahkota",
        "Post_Office": "Kuantan",
        "State": "Pahang"
    },
    {
        "Postcode": "25200",
        "Location": "Taman Maju Jaya",
        "Post_Office": "Kuantan",
        "State": "Pahang"
    },
    {
        "Postcode": "25200",
        "Location": "Taman Muhibbah",
        "Post_Office": "Kuantan",
        "State": "Pahang"
    },
    {
        "Postcode": "25200",
        "Location": "Taman Perdana",
        "Post_Office": "Kuantan",
        "State": "Pahang"
    },
    {
        "Postcode": "25200",
        "Location": "Bandar Indera Mahkota",
        "Post_Office": "Kuantan",
        "State": "Pahang"
    },
    {
        "Postcode": "25200",
        "Location": "Bukit Istana",
        "Post_Office": "Kuantan",
        "State": "Pahang"
    },
    {
        "Postcode": "25200",
        "Location": "Bukit Sekilau",
        "Post_Office": "Kuantan",
        "State": "Pahang"
    },
    {
        "Postcode": "25200",
        "Location": "Bukit Setongkol",
        "Post_Office": "Kuantan",
        "State": "Pahang"
    },
    {
        "Postcode": "25200",
        "Location": "Desa Samudra",
        "Post_Office": "Kuantan",
        "State": "Pahang"
    },
    {
        "Postcode": "25200",
        "Location": "Jabatan Bekalan Air",
        "Post_Office": "Kuantan",
        "State": "Pahang"
    },
    {
        "Postcode": "25200",
        "Location": "Jalan Bukit Beirut",
        "Post_Office": "Kuantan",
        "State": "Pahang"
    },
    {
        "Postcode": "25200",
        "Location": "Jalan Bukit Sekilau",
        "Post_Office": "Kuantan",
        "State": "Pahang"
    },
    {
        "Postcode": "25200",
        "Location": "Jalan Bukit Sekilau 1",
        "Post_Office": "Kuantan",
        "State": "Pahang"
    },
    {
        "Postcode": "25200",
        "Location": "Jalan Bukit Setongkol",
        "Post_Office": "Kuantan",
        "State": "Pahang"
    },
    {
        "Postcode": "25200",
        "Location": "Jalan Bukit Ubi",
        "Post_Office": "Kuantan",
        "State": "Pahang"
    },
    {
        "Postcode": "25200",
        "Location": "Jalan Busut Bukit Setongkol",
        "Post_Office": "Kuantan",
        "State": "Pahang"
    },
    {
        "Postcode": "25200",
        "Location": "Jalan Haji Junid",
        "Post_Office": "Kuantan",
        "State": "Pahang"
    },
    {
        "Postcode": "25200",
        "Location": "Jalan Im 3/9",
        "Post_Office": "Kuantan",
        "State": "Pahang"
    },
    {
        "Postcode": "25200",
        "Location": "Jalan Indera Mahkota",
        "Post_Office": "Kuantan",
        "State": "Pahang"
    },
    {
        "Postcode": "25200",
        "Location": "Jalan Kampung Baharu",
        "Post_Office": "Kuantan",
        "State": "Pahang"
    },
    {
        "Postcode": "25200",
        "Location": "Jalan Kampung Jawa",
        "Post_Office": "Kuantan",
        "State": "Pahang"
    },
    {
        "Postcode": "25200",
        "Location": "Jalan Kampung Padang",
        "Post_Office": "Kuantan",
        "State": "Pahang"
    },
    {
        "Postcode": "25200",
        "Location": "Jalan Kanchil",
        "Post_Office": "Kuantan",
        "State": "Pahang"
    },
    {
        "Postcode": "25200",
        "Location": "Jalan Lim Hoe Lek",
        "Post_Office": "Kuantan",
        "State": "Pahang"
    },
    {
        "Postcode": "25200",
        "Location": "Jalan Padang Jaya",
        "Post_Office": "Kuantan",
        "State": "Pahang"
    },
    {
        "Postcode": "25200",
        "Location": "Jalan Paya",
        "Post_Office": "Kuantan",
        "State": "Pahang"
    },
    {
        "Postcode": "25200",
        "Location": "Jalan Paya Bukit Setongkol",
        "Post_Office": "Kuantan",
        "State": "Pahang"
    },
    {
        "Postcode": "25200",
        "Location": "Jalan Sekilau",
        "Post_Office": "Kuantan",
        "State": "Pahang"
    },
    {
        "Postcode": "25200",
        "Location": "Jalan Sepat (Kampung Jawa)",
        "Post_Office": "Kuantan",
        "State": "Pahang"
    },
    {
        "Postcode": "25200",
        "Location": "Jalan Setongkol",
        "Post_Office": "Kuantan",
        "State": "Pahang"
    },
    {
        "Postcode": "25200",
        "Location": "Jalan Sungai Lembing",
        "Post_Office": "Kuantan",
        "State": "Pahang"
    },
    {
        "Postcode": "25200",
        "Location": "Jalan Tok Kong",
        "Post_Office": "Kuantan",
        "State": "Pahang"
    },
    {
        "Postcode": "25200",
        "Location": "Kampung Bukit Kuin",
        "Post_Office": "Kuantan",
        "State": "Pahang"
    },
    {
        "Postcode": "25200",
        "Location": "Kampung Bukit Sekilau",
        "Post_Office": "Kuantan",
        "State": "Pahang"
    },
    {
        "Postcode": "25200",
        "Location": "Kampung Bukit Setongkol",
        "Post_Office": "Kuantan",
        "State": "Pahang"
    },
    {
        "Postcode": "25200",
        "Location": "Kampung Bukit Ubi",
        "Post_Office": "Kuantan",
        "State": "Pahang"
    },
    {
        "Postcode": "25200",
        "Location": "Kampung Cina (Indera Mahkota)",
        "Post_Office": "Kuantan",
        "State": "Pahang"
    },
    {
        "Postcode": "25200",
        "Location": "Kampung Haji Junid",
        "Post_Office": "Kuantan",
        "State": "Pahang"
    },
    {
        "Postcode": "25200",
        "Location": "Kampung India Bukit Setongkol",
        "Post_Office": "Kuantan",
        "State": "Pahang"
    },
    {
        "Postcode": "25200",
        "Location": "Kampung Kobat",
        "Post_Office": "Kuantan",
        "State": "Pahang"
    },
    {
        "Postcode": "25200",
        "Location": "Kampung Padang",
        "Post_Office": "Kuantan",
        "State": "Pahang"
    },
    {
        "Postcode": "25200",
        "Location": "Kampung Paya (Bukit Setongkol)",
        "Post_Office": "Kuantan",
        "State": "Pahang"
    },
    {
        "Postcode": "25200",
        "Location": "Kampung Sungai Charu",
        "Post_Office": "Kuantan",
        "State": "Pahang"
    },
    {
        "Postcode": "25200",
        "Location": "Kampung Sungai Pinang",
        "Post_Office": "Kuantan",
        "State": "Pahang"
    },
    {
        "Postcode": "25200",
        "Location": "Kampung Sungai Tiram",
        "Post_Office": "Kuantan",
        "State": "Pahang"
    },
    {
        "Postcode": "25200",
        "Location": "Kampung Tiram",
        "Post_Office": "Kuantan",
        "State": "Pahang"
    },
    {
        "Postcode": "25200",
        "Location": "Ketua Unit Kontrak Bumiputra",
        "Post_Office": "Kuantan",
        "State": "Pahang"
    },
    {
        "Postcode": "25200",
        "Location": "Kompleks Tun Abdul Razak (Komtar)",
        "Post_Office": "Kuantan",
        "State": "Pahang"
    },
    {
        "Postcode": "25200",
        "Location": "Ladang Sungai Talam",
        "Post_Office": "Kuantan",
        "State": "Pahang"
    },
    {
        "Postcode": "25200",
        "Location": "Lembaga Pasaran \u0026 Perusahaan Getah",
        "Post_Office": "Kuantan",
        "State": "Pahang"
    },
    {
        "Postcode": "25200",
        "Location": "Lorong Beirut",
        "Post_Office": "Kuantan",
        "State": "Pahang"
    },
    {
        "Postcode": "25200",
        "Location": "Lorong Bukit Setongkol",
        "Post_Office": "Kuantan",
        "State": "Pahang"
    },
    {
        "Postcode": "25200",
        "Location": "Lorong Bukit Setongkol 209",
        "Post_Office": "Kuantan",
        "State": "Pahang"
    },
    {
        "Postcode": "25200",
        "Location": "Lorong Bukit Setongkol 32/1",
        "Post_Office": "Kuantan",
        "State": "Pahang"
    },
    {
        "Postcode": "25200",
        "Location": "Lorong Bukit Setongkol Maju",
        "Post_Office": "Kuantan",
        "State": "Pahang"
    },
    {
        "Postcode": "25200",
        "Location": "Lorong Bukit Setongkol Maju 18",
        "Post_Office": "Kuantan",
        "State": "Pahang"
    },
    {
        "Postcode": "25200",
        "Location": "Lorong Bukit Setongkol Maju 46",
        "Post_Office": "Kuantan",
        "State": "Pahang"
    },
    {
        "Postcode": "25200",
        "Location": "Lorong Bukit Ubi",
        "Post_Office": "Kuantan",
        "State": "Pahang"
    },
    {
        "Postcode": "25200",
        "Location": "Lorong Bukit Ubi 2",
        "Post_Office": "Kuantan",
        "State": "Pahang"
    },
    {
        "Postcode": "25200",
        "Location": "Lorong Bukit Ubi 32",
        "Post_Office": "Kuantan",
        "State": "Pahang"
    },
    {
        "Postcode": "25200",
        "Location": "Lorong Bukit Ubi 35",
        "Post_Office": "Kuantan",
        "State": "Pahang"
    },
    {
        "Postcode": "25200",
        "Location": "Lorong Bukit Ubi 47",
        "Post_Office": "Kuantan",
        "State": "Pahang"
    },
    {
        "Postcode": "25200",
        "Location": "Lorong Bukit Ubi 63",
        "Post_Office": "Kuantan",
        "State": "Pahang"
    },
    {
        "Postcode": "25200",
        "Location": "Lorong Bukit Ubi 75",
        "Post_Office": "Kuantan",
        "State": "Pahang"
    },
    {
        "Postcode": "25200",
        "Location": "Lorong Cenderawasih",
        "Post_Office": "Kuantan",
        "State": "Pahang"
    },
    {
        "Postcode": "25200",
        "Location": "Lorong Desa Teratai",
        "Post_Office": "Kuantan",
        "State": "Pahang"
    },
    {
        "Postcode": "25200",
        "Location": "Lorong Im 1/34",
        "Post_Office": "Kuantan",
        "State": "Pahang"
    },
    {
        "Postcode": "25200",
        "Location": "Lorong Im 10/22",
        "Post_Office": "Kuantan",
        "State": "Pahang"
    },
    {
        "Postcode": "25200",
        "Location": "Lorong Im 12/1",
        "Post_Office": "Kuantan",
        "State": "Pahang"
    },
    {
        "Postcode": "25200",
        "Location": "Lorong Impian Ku",
        "Post_Office": "Kuantan",
        "State": "Pahang"
    },
    {
        "Postcode": "25200",
        "Location": "Lorong Jaya",
        "Post_Office": "Kuantan",
        "State": "Pahang"
    },
    {
        "Postcode": "25200",
        "Location": "Lorong Kampung Jawa",
        "Post_Office": "Kuantan",
        "State": "Pahang"
    },
    {
        "Postcode": "25200",
        "Location": "Lorong Kampung Tiram Jaya 6",
        "Post_Office": "Kuantan",
        "State": "Pahang"
    },
    {
        "Postcode": "25200",
        "Location": "Lorong Kancil",
        "Post_Office": "Kuantan",
        "State": "Pahang"
    },
    {
        "Postcode": "25200",
        "Location": "Lorong Padang Jaya",
        "Post_Office": "Kuantan",
        "State": "Pahang"
    },
    {
        "Postcode": "25200",
        "Location": "Lorong Paya Tiga 1/1",
        "Post_Office": "Kuantan",
        "State": "Pahang"
    },
    {
        "Postcode": "25200",
        "Location": "Lorong Setongkol Baru",
        "Post_Office": "Kuantan",
        "State": "Pahang"
    },
    {
        "Postcode": "25200",
        "Location": "Lorong Shahzan Im 12",
        "Post_Office": "Kuantan",
        "State": "Pahang"
    },
    {
        "Postcode": "25200",
        "Location": "Lorong Singa Mas",
        "Post_Office": "Kuantan",
        "State": "Pahang"
    },
    {
        "Postcode": "25200",
        "Location": "Lorong Sri Teruntum",
        "Post_Office": "Kuantan",
        "State": "Pahang"
    },
    {
        "Postcode": "25200",
        "Location": "Lorong Stongkol Maju",
        "Post_Office": "Kuantan",
        "State": "Pahang"
    },
    {
        "Postcode": "25200",
        "Location": "Lorong Stongkol Perdana",
        "Post_Office": "Kuantan",
        "State": "Pahang"
    },
    {
        "Postcode": "25200",
        "Location": "Lorong Tiram",
        "Post_Office": "Kuantan",
        "State": "Pahang"
    },
    {
        "Postcode": "25200",
        "Location": "Lorong Tiram Perdana 2",
        "Post_Office": "Kuantan",
        "State": "Pahang"
    },
    {
        "Postcode": "25200",
        "Location": "Pejabat Felcra Negeri",
        "Post_Office": "Kuantan",
        "State": "Pahang"
    },
    {
        "Postcode": "25200",
        "Location": "Pejabat Felda Pahang Timur",
        "Post_Office": "Kuantan",
        "State": "Pahang"
    },
    {
        "Postcode": "25200",
        "Location": "Pejabat Risda Negeri",
        "Post_Office": "Kuantan",
        "State": "Pahang"
    },
    {
        "Postcode": "25200",
        "Location": "Perkampungan Bukit Setongkol",
        "Post_Office": "Kuantan",
        "State": "Pahang"
    },
    {
        "Postcode": "25200",
        "Location": "Perkampungan Bukit Setongkol 36",
        "Post_Office": "Kuantan",
        "State": "Pahang"
    },
    {
        "Postcode": "25200",
        "Location": "Perkampungan Bukit Setongkol Perdana 36",
        "Post_Office": "Kuantan",
        "State": "Pahang"
    },
    {
        "Postcode": "25200",
        "Location": "Perkampungan Cenderawasih",
        "Post_Office": "Kuantan",
        "State": "Pahang"
    },
    {
        "Postcode": "25200",
        "Location": "Perkampungan Padang Indah",
        "Post_Office": "Kuantan",
        "State": "Pahang"
    },
    {
        "Postcode": "25200",
        "Location": "Perkampungan Padang Permai",
        "Post_Office": "Kuantan",
        "State": "Pahang"
    },
    {
        "Postcode": "25200",
        "Location": "Perkampungan Shahzan Im",
        "Post_Office": "Kuantan",
        "State": "Pahang"
    },
    {
        "Postcode": "25200",
        "Location": "Perkampungan Tiram Jaya",
        "Post_Office": "Kuantan",
        "State": "Pahang"
    },
    {
        "Postcode": "25200",
        "Location": "Persiaran Sultan Abu Bakar",
        "Post_Office": "Kuantan",
        "State": "Pahang"
    },
    {
        "Postcode": "25200",
        "Location": "Perumahan Kampung Padang Maju",
        "Post_Office": "Kuantan",
        "State": "Pahang"
    },
    {
        "Postcode": "25200",
        "Location": "Risda Negeri",
        "Post_Office": "Kuantan",
        "State": "Pahang"
    },
    {
        "Postcode": "25200",
        "Location": "Sungai Charu",
        "Post_Office": "Kuantan",
        "State": "Pahang"
    },
    {
        "Postcode": "25200",
        "Location": "Taman Astana View",
        "Post_Office": "Kuantan",
        "State": "Pahang"
    },
    {
        "Postcode": "25200",
        "Location": "Taman Beirut",
        "Post_Office": "Kuantan",
        "State": "Pahang"
    },
    {
        "Postcode": "25200",
        "Location": "Taman Bukit Setongkol",
        "Post_Office": "Kuantan",
        "State": "Pahang"
    },
    {
        "Postcode": "25200",
        "Location": "Taman Bukit Ubi",
        "Post_Office": "Kuantan",
        "State": "Pahang"
    },
    {
        "Postcode": "25200",
        "Location": "Taman Bukit Ubi Jaya",
        "Post_Office": "Kuantan",
        "State": "Pahang"
    },
    {
        "Postcode": "25200",
        "Location": "Taman Cahaya (Kampung Jawa)",
        "Post_Office": "Kuantan",
        "State": "Pahang"
    },
    {
        "Postcode": "25200",
        "Location": "Taman Cenderawasih",
        "Post_Office": "Kuantan",
        "State": "Pahang"
    },
    {
        "Postcode": "25200",
        "Location": "Taman Cenderawasih Baru",
        "Post_Office": "Kuantan",
        "State": "Pahang"
    },
    {
        "Postcode": "25200",
        "Location": "Taman Cenderawasih Indah",
        "Post_Office": "Kuantan",
        "State": "Pahang"
    },
    {
        "Postcode": "25200",
        "Location": "Taman Chung Chin",
        "Post_Office": "Kuantan",
        "State": "Pahang"
    },
    {
        "Postcode": "25200",
        "Location": "Taman Dahlia (Bukit Setongkol)",
        "Post_Office": "Kuantan",
        "State": "Pahang"
    },
    {
        "Postcode": "25200",
        "Location": "Taman Desa Cahaya",
        "Post_Office": "Kuantan",
        "State": "Pahang"
    },
    {
        "Postcode": "25200",
        "Location": "Taman Desa Jawa (Kampung Tengah)",
        "Post_Office": "Kuantan",
        "State": "Pahang"
    },
    {
        "Postcode": "25200",
        "Location": "Taman Desa Samudra",
        "Post_Office": "Kuantan",
        "State": "Pahang"
    },
    {
        "Postcode": "25200",
        "Location": "Taman Fairmont",
        "Post_Office": "Kuantan",
        "State": "Pahang"
    },
    {
        "Postcode": "25200",
        "Location": "Taman Haji Junid",
        "Post_Office": "Kuantan",
        "State": "Pahang"
    },
    {
        "Postcode": "25200",
        "Location": "Taman Idaman",
        "Post_Office": "Kuantan",
        "State": "Pahang"
    },
    {
        "Postcode": "25200",
        "Location": "Taman Impian Ku",
        "Post_Office": "Kuantan",
        "State": "Pahang"
    },
    {
        "Postcode": "25200",
        "Location": "Taman Indera Mahkota",
        "Post_Office": "Kuantan",
        "State": "Pahang"
    },
    {
        "Postcode": "25200",
        "Location": "Taman Indera Mahkota 5",
        "Post_Office": "Kuantan",
        "State": "Pahang"
    },
    {
        "Postcode": "25200",
        "Location": "Taman Indera Mahkota Jaya",
        "Post_Office": "Kuantan",
        "State": "Pahang"
    },
    {
        "Postcode": "25200",
        "Location": "Taman Irama",
        "Post_Office": "Kuantan",
        "State": "Pahang"
    },
    {
        "Postcode": "25200",
        "Location": "Taman Kampung Jawa",
        "Post_Office": "Kuantan",
        "State": "Pahang"
    },
    {
        "Postcode": "25200",
        "Location": "Taman Kampung Padang Permai",
        "Post_Office": "Kuantan",
        "State": "Pahang"
    },
    {
        "Postcode": "25200",
        "Location": "Taman Kampung Padang Sejahtera",
        "Post_Office": "Kuantan",
        "State": "Pahang"
    },
    {
        "Postcode": "25200",
        "Location": "Taman Kota Ria",
        "Post_Office": "Kuantan",
        "State": "Pahang"
    },
    {
        "Postcode": "25200",
        "Location": "Taman Lknp (Bukit Setongkol)",
        "Post_Office": "Kuantan",
        "State": "Pahang"
    },
    {
        "Postcode": "25200",
        "Location": "Taman Lknp Sekilau Maju",
        "Post_Office": "Kuantan",
        "State": "Pahang"
    },
    {
        "Postcode": "25200",
        "Location": "Taman Madu",
        "Post_Office": "Kuantan",
        "State": "Pahang"
    },
    {
        "Postcode": "25200",
        "Location": "Taman Mahkota Idaman",
        "Post_Office": "Kuantan",
        "State": "Pahang"
    },
    {
        "Postcode": "25200",
        "Location": "Taman Mahkota Perdana",
        "Post_Office": "Kuantan",
        "State": "Pahang"
    },
    {
        "Postcode": "25200",
        "Location": "Taman Mega Gold",
        "Post_Office": "Kuantan",
        "State": "Pahang"
    },
    {
        "Postcode": "25200",
        "Location": "Taman Num Chun",
        "Post_Office": "Kuantan",
        "State": "Pahang"
    },
    {
        "Postcode": "25200",
        "Location": "Taman Padang Jaya",
        "Post_Office": "Kuantan",
        "State": "Pahang"
    },
    {
        "Postcode": "25200",
        "Location": "Taman Padang Perdana",
        "Post_Office": "Kuantan",
        "State": "Pahang"
    },
    {
        "Postcode": "25200",
        "Location": "Taman Polo",
        "Post_Office": "Kuantan",
        "State": "Pahang"
    },
    {
        "Postcode": "25200",
        "Location": "Taman Rose",
        "Post_Office": "Kuantan",
        "State": "Pahang"
    },
    {
        "Postcode": "25200",
        "Location": "Taman Salmah",
        "Post_Office": "Kuantan",
        "State": "Pahang"
    },
    {
        "Postcode": "25200",
        "Location": "Taman Sekilau Maju",
        "Post_Office": "Kuantan",
        "State": "Pahang"
    },
    {
        "Postcode": "25200",
        "Location": "Taman Sekilau Makmur",
        "Post_Office": "Kuantan",
        "State": "Pahang"
    },
    {
        "Postcode": "25200",
        "Location": "Taman Sekilau Mewah",
        "Post_Office": "Kuantan",
        "State": "Pahang"
    },
    {
        "Postcode": "25200",
        "Location": "Taman Sekilau Perdana",
        "Post_Office": "Kuantan",
        "State": "Pahang"
    },
    {
        "Postcode": "25200",
        "Location": "Taman Seri Berlian",
        "Post_Office": "Kuantan",
        "State": "Pahang"
    },
    {
        "Postcode": "25200",
        "Location": "Taman Seri Setongkol",
        "Post_Office": "Kuantan",
        "State": "Pahang"
    },
    {
        "Postcode": "25200",
        "Location": "Taman Setongkol",
        "Post_Office": "Kuantan",
        "State": "Pahang"
    },
    {
        "Postcode": "25200",
        "Location": "Taman Setongkol Baru",
        "Post_Office": "Kuantan",
        "State": "Pahang"
    },
    {
        "Postcode": "25200",
        "Location": "Taman Setongkol Jaya",
        "Post_Office": "Kuantan",
        "State": "Pahang"
    },
    {
        "Postcode": "25200",
        "Location": "Taman Sinar",
        "Post_Office": "Kuantan",
        "State": "Pahang"
    },
    {
        "Postcode": "25200",
        "Location": "Taman Singa Mas",
        "Post_Office": "Kuantan",
        "State": "Pahang"
    },
    {
        "Postcode": "25200",
        "Location": "Taman Sri Setongkol",
        "Post_Office": "Kuantan",
        "State": "Pahang"
    },
    {
        "Postcode": "25200",
        "Location": "Taman Stongkol Perdana",
        "Post_Office": "Kuantan",
        "State": "Pahang"
    },
    {
        "Postcode": "25200",
        "Location": "Taman Sungai Charu",
        "Post_Office": "Kuantan",
        "State": "Pahang"
    },
    {
        "Postcode": "25200",
        "Location": "Taman Tanjong Pasir",
        "Post_Office": "Kuantan",
        "State": "Pahang"
    },
    {
        "Postcode": "25200",
        "Location": "Taman Tas Mahkota",
        "Post_Office": "Kuantan",
        "State": "Pahang"
    },
    {
        "Postcode": "25200",
        "Location": "Taman Tunas Makmur",
        "Post_Office": "Kuantan",
        "State": "Pahang"
    },
    {
        "Postcode": "25200",
        "Location": "Taman Utama",
        "Post_Office": "Kuantan",
        "State": "Pahang"
    },
    {
        "Postcode": "25200",
        "Location": "Perumahan Bukit Setongkol",
        "Post_Office": "Kuantan",
        "State": "Pahang"
    },
    {
        "Postcode": "25200",
        "Location": "Perumahan Indera Mahkota 2",
        "Post_Office": "Kuantan",
        "State": "Pahang"
    },
    {
        "Postcode": "25200",
        "Location": "Perumahan Padang Perdana",
        "Post_Office": "Kuantan ",
        "State": "Pahang"
    },
    {
        "Postcode": "25200",
        "Location": "Jalan Im 16/3",
        "Post_Office": "Kuantan",
        "State": "Pahang"
    },
    {
        "Postcode": "25200",
        "Location": "Perumahan Paya Tiga",
        "Post_Office": "Kuantan",
        "State": "Pahang"
    },
    {
        "Postcode": "25200",
        "Location": "Perumahan Bukit Bay Route",
        "Post_Office": "Kuantan",
        "State": "Pahang"
    },
    {
        "Postcode": "25200",
        "Location": "Perumahan Bukit Setongkol Jaya",
        "Post_Office": "Kuantan",
        "State": "Pahang"
    },
    {
        "Postcode": "25200",
        "Location": "Perumahan Indera Mahkota 9",
        "Post_Office": "Kuantan",
        "State": "Pahang"
    },
    {
        "Postcode": "25200",
        "Location": "Taman Alam Perdana",
        "Post_Office": "Kuantan",
        "State": "Pahang"
    },
    {
        "Postcode": "25200",
        "Location": "Lorong Bukit Ubi 16",
        "Post_Office": "Kuantan",
        "State": "Pahang"
    },
    {
        "Postcode": "25200",
        "Location": "Lorong Im 1/28",
        "Post_Office": "Kuantan",
        "State": "Pahang"
    },
    {
        "Postcode": "25200",
        "Location": "Lorong Im 5/17",
        "Post_Office": "Kuantan",
        "State": "Pahang"
    },
    {
        "Postcode": "25200",
        "Location": "Lorong Im 8/33",
        "Post_Office": "Kuantan",
        "State": "Pahang"
    },
    {
        "Postcode": "25200",
        "Location": "Lorong Kampung Padang Jaya 27",
        "Post_Office": "Kuantan",
        "State": "Pahang"
    },
    {
        "Postcode": "25200",
        "Location": "Kawasan Perindustrian Indera Mahkota",
        "Post_Office": "Kuantan",
        "State": "Pahang"
    },
    {
        "Postcode": "25200",
        "Location": "Kawasan Industri Ringan Prima Kota",
        "Post_Office": "Kuantan",
        "State": "Pahang"
    },
    {
        "Postcode": "25200",
        "Location": "Perumahan Padang Maju",
        "Post_Office": "Kuantan",
        "State": "Pahang"
    },
    {
        "Postcode": "25200",
        "Location": "Kawasan Perindustrian Bandar Indera Mahkota",
        "Post_Office": "Kuantan",
        "State": "Pahang"
    },
    {
        "Postcode": "25200",
        "Location": "Perumahan Bukit Setongkol Perdana",
        "Post_Office": "Kuantan",
        "State": "Pahang"
    },
    {
        "Postcode": "25200",
        "Location": "Perumahan Tiram Jaya",
        "Post_Office": "Kuantan",
        "State": "Pahang"
    },
    {
        "Postcode": "25200",
        "Location": "Perindustrian Indera Mahkota",
        "Post_Office": "Kuantan",
        "State": "Pahang"
    },
    {
        "Postcode": "25200",
        "Location": "Perumahan Im 1",
        "Post_Office": "Kuantan",
        "State": "Pahang"
    },
    {
        "Postcode": "25200",
        "Location": "Kota Sri Ahmad Shah",
        "Post_Office": "Kuantan",
        "State": "Pahang"
    },
    {
        "Postcode": "25200",
        "Location": "Perumahan Kampung Padang Jaya",
        "Post_Office": "Kuantan",
        "State": "Pahang"
    },
    {
        "Postcode": "25200",
        "Location": "Perumahan Bukit Setongkol Maju",
        "Post_Office": "Kuantan",
        "State": "Pahang"
    },
    {
        "Postcode": "25200",
        "Location": "Perumahan Cenderawasih Perdana",
        "Post_Office": "Kuantan",
        "State": "Pahang"
    },
    {
        "Postcode": "25200",
        "Location": "Perumahan Indera Mahkota",
        "Post_Office": "Kuantan",
        "State": "Pahang"
    },
    {
        "Postcode": "25200",
        "Location": "Perumahan Indera Mahkota 8",
        "Post_Office": "Kuantan",
        "State": "Pahang"
    },
    {
        "Postcode": "25200",
        "Location": "Perumahan Padang Permai",
        "Post_Office": "Kuantan",
        "State": "Pahang"
    },
    {
        "Postcode": "25200",
        "Location": "Taman Kampung Padang Jaya",
        "Post_Office": "Kuantan",
        "State": "Pahang"
    },
    {
        "Postcode": "25200",
        "Location": "Taman Tiram Jaya",
        "Post_Office": "Kuantan",
        "State": "Pahang"
    },
    {
        "Postcode": "25200",
        "Location": "Bandar Indera Mahkota 1",
        "Post_Office": "Kuantan",
        "State": "Pahang"
    },
    {
        "Postcode": "25200",
        "Location": "Perumahan Bukit Istana",
        "Post_Office": "Kuantan",
        "State": "Pahang"
    },
    {
        "Postcode": "25200",
        "Location": "Perumahan Kampung Padang Indah",
        "Post_Office": "Kuantan",
        "State": "Pahang"
    },
    {
        "Postcode": "25200",
        "Location": "Perumahan Kampung Padang Permai",
        "Post_Office": "Kuantan",
        "State": "Pahang"
    },
    {
        "Postcode": "25200",
        "Location": "Kota Sultan Ahmad Shah",
        "Post_Office": "Kuantan",
        "State": "Pahang"
    },
    {
        "Postcode": "25200",
        "Location": "Taman Shahzan Indera Mahkota",
        "Post_Office": "Kuantan",
        "State": "Pahang"
    },
    {
        "Postcode": "25200",
        "Location": "Perumahan Indera Mahkota 1",
        "Post_Office": "Kuantan",
        "State": "Pahang"
    },
    {
        "Postcode": "25200",
        "Location": "Perumahan Indera Mahkota 18",
        "Post_Office": "Kuantan",
        "State": "Pahang"
    },
    {
        "Postcode": "25200",
        "Location": "Perumahan Indera Mahkota 15 ",
        "Post_Office": "Kuantan",
        "State": "Pahang"
    },
    {
        "Postcode": "25200",
        "Location": "Perumahan Tiram Aman",
        "Post_Office": "Kuantan",
        "State": "Pahang"
    },
    {
        "Postcode": "25200",
        "Location": "Perumahan Tiram Perdana",
        "Post_Office": "Kuantan",
        "State": "Pahang"
    },
    {
        "Postcode": "25200",
        "Location": "Perkampungan Padang Perdana",
        "Post_Office": "Kuantan",
        "State": "Pahang"
    },
    {
        "Postcode": "25200",
        "Location": "Perumahan Indera Mahkota 5",
        "Post_Office": "Kuantan",
        "State": "Pahang"
    },
    {
        "Postcode": "25200",
        "Location": "Perumahan Indera Mahkota 11",
        "Post_Office": "Kuantan",
        "State": "Pahang"
    },
    {
        "Postcode": "25200",
        "Location": "Perumahan Indera Mahkota 13",
        "Post_Office": "Kuantan",
        "State": "Pahang"
    },
    {
        "Postcode": "25200",
        "Location": "Perumahan Indera Mahkota 14",
        "Post_Office": "Kuantan",
        "State": "Pahang"
    },
    {
        "Postcode": "25200",
        "Location": "Perumahan Tiram Perdana 2",
        "Post_Office": "Kuantan",
        "State": "Pahang"
    },
    {
        "Postcode": "25200",
        "Location": "Taman Astana Permai",
        "Post_Office": "Kuantan",
        "State": "Pahang"
    },
    {
        "Postcode": "25200",
        "Location": "Perumahan Indera Mahkota 21",
        "Post_Office": "Kuantan",
        "State": "Pahang"
    },
    {
        "Postcode": "25200",
        "Location": "Jalan Paya 1",
        "Post_Office": "Kuantan",
        "State": "Pahang"
    },
    {
        "Postcode": "25200",
        "Location": "Jalan Paya 2",
        "Post_Office": "Kuantan",
        "State": "Pahang"
    }
]
