[
    {
        "Postcode": "25250",
        "Location": "Lorong Kubang Buaya",
        "Post_Office": "Kuantan",
        "State": "Pahang"
    },
    {
        "Postcode": "25250",
        "Location": "Perumahan Pelindung",
        "Post_Office": "Kuantan",
        "State": "Pahang"
    },
    {
        "Postcode": "25250",
        "Location": "Taman Bahagia",
        "Post_Office": "Kuantan",
        "State": "Pahang"
    },
    {
        "Postcode": "25250",
        "Location": "Taman Damai",
        "Post_Office": "Kuantan",
        "State": "Pahang"
    },
    {
        "Postcode": "25250",
        "Location": "Taman Sungai Karas",
        "Post_Office": "Kuantan",
        "State": "Pahang"
    },
    {
        "Postcode": "25250",
        "Location": "Lorong Alor Akar 79",
        "Post_Office": "Kuantan",
        "State": "Pahang"
    },
    {
        "Postcode": "25250",
        "Location": "Lorong Seri Kuantan 15",
        "Post_Office": "Kuantan",
        "State": "Pahang"
    },
    {
        "Postcode": "25250",
        "Location": "Jalan Beserah",
        "Post_Office": "Kuantan",
        "State": "Pahang"
    },
    {
        "Postcode": "25250",
        "Location": "Jalan Dato Bahaman",
        "Post_Office": "Kuantan",
        "State": "Pahang"
    },
    {
        "Postcode": "25250",
        "Location": "Jalan Murai",
        "Post_Office": "Kuantan",
        "State": "Pahang"
    },
    {
        "Postcode": "25250",
        "Location": "Jalan Serai",
        "Post_Office": "Kuantan",
        "State": "Pahang"
    },
    {
        "Postcode": "25250",
        "Location": "Taman Aman",
        "Post_Office": "Kuantan",
        "State": "Pahang"
    },
    {
        "Postcode": "25250",
        "Location": "Taman Bunga Raya",
        "Post_Office": "Kuantan",
        "State": "Pahang"
    },
    {
        "Postcode": "25250",
        "Location": "Taman Intan",
        "Post_Office": "Kuantan",
        "State": "Pahang"
    },
    {
        "Postcode": "25250",
        "Location": "Taman Maju",
        "Post_Office": "Kuantan",
        "State": "Pahang"
    },
    {
        "Postcode": "25250",
        "Location": "Taman Mutiara",
        "Post_Office": "Kuantan",
        "State": "Pahang"
    },
    {
        "Postcode": "25250",
        "Location": "Taman Orkid",
        "Post_Office": "Kuantan",
        "State": "Pahang"
    },
    {
        "Postcode": "25250",
        "Location": "Taman Ruby",
        "Post_Office": "Kuantan",
        "State": "Pahang"
    },
    {
        "Postcode": "25250",
        "Location": "Alor Akar A",
        "Post_Office": "Kuantan",
        "State": "Pahang"
    },
    {
        "Postcode": "25250",
        "Location": "Belatuk",
        "Post_Office": "Kuantan",
        "State": "Pahang"
    },
    {
        "Postcode": "25250",
        "Location": "Galing Besar",
        "Post_Office": "Kuantan",
        "State": "Pahang"
    },
    {
        "Postcode": "25250",
        "Location": "Jalan Alor Akar",
        "Post_Office": "Kuantan",
        "State": "Pahang"
    },
    {
        "Postcode": "25250",
        "Location": "Jalan Belatok",
        "Post_Office": "Kuantan",
        "State": "Pahang"
    },
    {
        "Postcode": "25250",
        "Location": "Jalan Galing",
        "Post_Office": "Kuantan",
        "State": "Pahang"
    },
    {
        "Postcode": "25250",
        "Location": "Jalan Kubang Buaya",
        "Post_Office": "Kuantan",
        "State": "Pahang"
    },
    {
        "Postcode": "25250",
        "Location": "Jalan Pandan",
        "Post_Office": "Kuantan",
        "State": "Pahang"
    },
    {
        "Postcode": "25250",
        "Location": "Jalan Survey Qts",
        "Post_Office": "Kuantan",
        "State": "Pahang"
    },
    {
        "Postcode": "25250",
        "Location": "Lembaga Tembakau Negara",
        "Post_Office": "Kuantan",
        "State": "Pahang"
    },
    {
        "Postcode": "25250",
        "Location": "Lorong Alor Akar 3",
        "Post_Office": "Kuantan",
        "State": "Pahang"
    },
    {
        "Postcode": "25250",
        "Location": "Lorong Alur Akar 31",
        "Post_Office": "Kuantan",
        "State": "Pahang"
    },
    {
        "Postcode": "25250",
        "Location": "Lorong Serai",
        "Post_Office": "Kuantan",
        "State": "Pahang"
    },
    {
        "Postcode": "25250",
        "Location": "Lorong Seri Kuantan 80",
        "Post_Office": "Kuantan",
        "State": "Pahang"
    },
    {
        "Postcode": "25250",
        "Location": "Lorong Seri Kuantan 82",
        "Post_Office": "Kuantan",
        "State": "Pahang"
    },
    {
        "Postcode": "25250",
        "Location": "Perkampungan Alor Akar",
        "Post_Office": "Kuantan",
        "State": "Pahang"
    },
    {
        "Postcode": "25250",
        "Location": "Perumahan Pasifik",
        "Post_Office": "Kuantan",
        "State": "Pahang"
    },
    {
        "Postcode": "25250",
        "Location": "Seng Heng Garden",
        "Post_Office": "Kuantan",
        "State": "Pahang"
    },
    {
        "Postcode": "25250",
        "Location": "Survey Quarters",
        "Post_Office": "Kuantan",
        "State": "Pahang"
    },
    {
        "Postcode": "25250",
        "Location": "Taman Ah Heng",
        "Post_Office": "Kuantan",
        "State": "Pahang"
    },
    {
        "Postcode": "25250",
        "Location": "Taman Alfa Indah",
        "Post_Office": "Kuantan",
        "State": "Pahang"
    },
    {
        "Postcode": "25250",
        "Location": "Taman Alor Akar",
        "Post_Office": "Kuantan",
        "State": "Pahang"
    },
    {
        "Postcode": "25250",
        "Location": "Taman Alor Akar Indah",
        "Post_Office": "Kuantan",
        "State": "Pahang"
    },
    {
        "Postcode": "25250",
        "Location": "Taman Bak Siah",
        "Post_Office": "Kuantan",
        "State": "Pahang"
    },
    {
        "Postcode": "25250",
        "Location": "Taman Baru (Jalan Taman Bee)",
        "Post_Office": "Kuantan",
        "State": "Pahang"
    },
    {
        "Postcode": "25250",
        "Location": "Taman Bashah Jaya",
        "Post_Office": "Kuantan",
        "State": "Pahang"
    },
    {
        "Postcode": "25250",
        "Location": "Taman Bee",
        "Post_Office": "Kuantan",
        "State": "Pahang"
    },
    {
        "Postcode": "25250",
        "Location": "Taman Beserah Jaya",
        "Post_Office": "Kuantan",
        "State": "Pahang"
    },
    {
        "Postcode": "25250",
        "Location": "Taman Bumi Raya",
        "Post_Office": "Kuantan",
        "State": "Pahang"
    },
    {
        "Postcode": "25250",
        "Location": "Taman East Coast",
        "Post_Office": "Kuantan",
        "State": "Pahang"
    },
    {
        "Postcode": "25250",
        "Location": "Taman East Dragon",
        "Post_Office": "Kuantan",
        "State": "Pahang"
    },
    {
        "Postcode": "25250",
        "Location": "Taman Emerald",
        "Post_Office": "Kuantan",
        "State": "Pahang"
    },
    {
        "Postcode": "25250",
        "Location": "Taman Fock Wah",
        "Post_Office": "Kuantan",
        "State": "Pahang"
    },
    {
        "Postcode": "25250",
        "Location": "Taman Galing Park",
        "Post_Office": "Kuantan",
        "State": "Pahang"
    },
    {
        "Postcode": "25250",
        "Location": "Taman Goh",
        "Post_Office": "Kuantan",
        "State": "Pahang"
    },
    {
        "Postcode": "25250",
        "Location": "Taman Happy",
        "Post_Office": "Kuantan",
        "State": "Pahang"
    },
    {
        "Postcode": "25250",
        "Location": "Taman Hasfa",
        "Post_Office": "Kuantan",
        "State": "Pahang"
    },
    {
        "Postcode": "25250",
        "Location": "Taman Hasfa Tunas",
        "Post_Office": "Kuantan",
        "State": "Pahang"
    },
    {
        "Postcode": "25250",
        "Location": "Taman Jalan Galing",
        "Post_Office": "Kuantan",
        "State": "Pahang"
    },
    {
        "Postcode": "25250",
        "Location": "Taman Kuan San",
        "Post_Office": "Kuantan",
        "State": "Pahang"
    },
    {
        "Postcode": "25250",
        "Location": "Taman Kuantan",
        "Post_Office": "Kuantan",
        "State": "Pahang"
    },
    {
        "Postcode": "25250",
        "Location": "Taman Kubang Buaya",
        "Post_Office": "Kuantan",
        "State": "Pahang"
    },
    {
        "Postcode": "25250",
        "Location": "Taman Kwong Sang",
        "Post_Office": "Kuantan",
        "State": "Pahang"
    },
    {
        "Postcode": "25250",
        "Location": "Taman Lee Choon",
        "Post_Office": "Kuantan",
        "State": "Pahang"
    },
    {
        "Postcode": "25250",
        "Location": "Taman Mariamah",
        "Post_Office": "Kuantan",
        "State": "Pahang"
    },
    {
        "Postcode": "25250",
        "Location": "Taman Mas",
        "Post_Office": "Kuantan",
        "State": "Pahang"
    },
    {
        "Postcode": "25250",
        "Location": "Taman Mayfair",
        "Post_Office": "Kuantan",
        "State": "Pahang"
    },
    {
        "Postcode": "25250",
        "Location": "Taman Metro",
        "Post_Office": "Kuantan",
        "State": "Pahang"
    },
    {
        "Postcode": "25250",
        "Location": "Taman Mewah",
        "Post_Office": "Kuantan",
        "State": "Pahang"
    },
    {
        "Postcode": "25250",
        "Location": "Taman Midah",
        "Post_Office": "Kuantan",
        "State": "Pahang"
    },
    {
        "Postcode": "25250",
        "Location": "Taman Onn Loke",
        "Post_Office": "Kuantan",
        "State": "Pahang"
    },
    {
        "Postcode": "25250",
        "Location": "Taman Paramount",
        "Post_Office": "Kuantan",
        "State": "Pahang"
    },
    {
        "Postcode": "25250",
        "Location": "Taman Peng On",
        "Post_Office": "Kuantan",
        "State": "Pahang"
    },
    {
        "Postcode": "25250",
        "Location": "Taman River View",
        "Post_Office": "Kuantan",
        "State": "Pahang"
    },
    {
        "Postcode": "25250",
        "Location": "Taman Saujana",
        "Post_Office": "Kuantan",
        "State": "Pahang"
    },
    {
        "Postcode": "25250",
        "Location": "Taman Sea View",
        "Post_Office": "Kuantan",
        "State": "Pahang"
    },
    {
        "Postcode": "25250",
        "Location": "Taman Seng Heng",
        "Post_Office": "Kuantan",
        "State": "Pahang"
    },
    {
        "Postcode": "25250",
        "Location": "Taman Serai",
        "Post_Office": "Kuantan",
        "State": "Pahang"
    },
    {
        "Postcode": "25250",
        "Location": "Taman Seri Kuantan",
        "Post_Office": "Kuantan",
        "State": "Pahang"
    },
    {
        "Postcode": "25250",
        "Location": "Taman Seri Lempah",
        "Post_Office": "Kuantan",
        "State": "Pahang"
    },
    {
        "Postcode": "25250",
        "Location": "Taman Sri Pelangi",
        "Post_Office": "Kuantan",
        "State": "Pahang"
    },
    {
        "Postcode": "25250",
        "Location": "Taman Sun Foon",
        "Post_Office": "Kuantan",
        "State": "Pahang"
    },
    {
        "Postcode": "25250",
        "Location": "Taman Suria",
        "Post_Office": "Kuantan",
        "State": "Pahang"
    },
    {
        "Postcode": "25250",
        "Location": "Taman Timur",
        "Post_Office": "Kuantan",
        "State": "Pahang"
    },
    {
        "Postcode": "25250",
        "Location": "Taman Tiong",
        "Post_Office": "Kuantan",
        "State": "Pahang"
    },
    {
        "Postcode": "25250",
        "Location": "Lorong Kubang Buaya 36",
        "Post_Office": "Kuantan",
        "State": "Pahang"
    },
    {
        "Postcode": "25250",
        "Location": "Lorong Seri Kuantan 17",
        "Post_Office": "Kuantan",
        "State": "Pahang"
    },
    {
        "Postcode": "25250",
        "Location": "Jalan Baserah",
        "Post_Office": "Kuantan",
        "State": "Pahang"
    },
    {
        "Postcode": "25250",
        "Location": "Perumahan Seri Kuantan",
        "Post_Office": "Kuantan",
        "State": "Pahang"
    },
    {
        "Postcode": "25250",
        "Location": "Perumahan Galing",
        "Post_Office": "Kuantan",
        "State": "Pahang"
    }
]
