[
    {
        "Postcode": "25300",
        "Location": "Lorong Sekilau 63",
        "Post_Office": "Kuantan",
        "State": "Pahang"
    },
    {
        "Postcode": "25300",
        "Location": "Lorong Seri Setali 89",
        "Post_Office": "Kuantan",
        "State": "Pahang"
    },
    {
        "Postcode": "25300",
        "Location": "Lorong Tok Sira",
        "Post_Office": "Kuantan",
        "State": "Pahang"
    },
    {
        "Postcode": "25300",
        "Location": "Markas Briged Tenggara Pph",
        "Post_Office": "Kuantan",
        "State": "Pahang"
    },
    {
        "Postcode": "25300",
        "Location": "Perkampungan Galing",
        "Post_Office": "Kuantan",
        "State": "Pahang"
    },
    {
        "Postcode": "25300",
        "Location": "Perkampungan Sekilau",
        "Post_Office": "Kuantan",
        "State": "Pahang"
    },
    {
        "Postcode": "25300",
        "Location": "Putra Square",
        "Post_Office": "Kuantan",
        "State": "Pahang"
    },
    {
        "Postcode": "25300",
        "Location": "Taman Air Puteh Maju",
        "Post_Office": "Kuantan",
        "State": "Pahang"
    },
    {
        "Postcode": "25300",
        "Location": "Taman Air Putih",
        "Post_Office": "Kuantan",
        "State": "Pahang"
    },
    {
        "Postcode": "25300",
        "Location": "Taman Anda",
        "Post_Office": "Kuantan",
        "State": "Pahang"
    },
    {
        "Postcode": "25300",
        "Location": "Taman Anggerik Desa",
        "Post_Office": "Kuantan",
        "State": "Pahang"
    },
    {
        "Postcode": "25300",
        "Location": "Taman Angkasa",
        "Post_Office": "Kuantan",
        "State": "Pahang"
    },
    {
        "Postcode": "25300",
        "Location": "Taman Angsa",
        "Post_Office": "Kuantan",
        "State": "Pahang"
    },
    {
        "Postcode": "25300",
        "Location": "Taman Asia",
        "Post_Office": "Kuantan",
        "State": "Pahang"
    },
    {
        "Postcode": "25300",
        "Location": "Taman Baru (Jalan Ayer Puteh)",
        "Post_Office": "Kuantan",
        "State": "Pahang"
    },
    {
        "Postcode": "25300",
        "Location": "Taman Berjaya",
        "Post_Office": "Kuantan",
        "State": "Pahang"
    },
    {
        "Postcode": "25300",
        "Location": "Taman Bersekutu",
        "Post_Office": "Kuantan",
        "State": "Pahang"
    },
    {
        "Postcode": "25300",
        "Location": "Taman Cahaya (Bukit Galing)",
        "Post_Office": "Kuantan",
        "State": "Pahang"
    },
    {
        "Postcode": "25300",
        "Location": "Taman Cahaya Timur",
        "Post_Office": "Kuantan",
        "State": "Pahang"
    },
    {
        "Postcode": "25300",
        "Location": "Taman Chia",
        "Post_Office": "Kuantan",
        "State": "Pahang"
    },
    {
        "Postcode": "25300",
        "Location": "Taman City",
        "Post_Office": "Kuantan",
        "State": "Pahang"
    },
    {
        "Postcode": "25300",
        "Location": "Taman Desa Anggerik",
        "Post_Office": "Kuantan",
        "State": "Pahang"
    },
    {
        "Postcode": "25300",
        "Location": "Taman Galing",
        "Post_Office": "Kuantan",
        "State": "Pahang"
    },
    {
        "Postcode": "25300",
        "Location": "Taman Gaya",
        "Post_Office": "Kuantan",
        "State": "Pahang"
    },
    {
        "Postcode": "25300",
        "Location": "Taman Hong Seng",
        "Post_Office": "Kuantan",
        "State": "Pahang"
    },
    {
        "Postcode": "25300",
        "Location": "Taman Imbi",
        "Post_Office": "Kuantan",
        "State": "Pahang"
    },
    {
        "Postcode": "25300",
        "Location": "Taman Indera",
        "Post_Office": "Kuantan",
        "State": "Pahang"
    },
    {
        "Postcode": "25300",
        "Location": "Taman Ipoh",
        "Post_Office": "Kuantan",
        "State": "Pahang"
    },
    {
        "Postcode": "25300",
        "Location": "Taman Jubli",
        "Post_Office": "Kuantan",
        "State": "Pahang"
    },
    {
        "Postcode": "25300",
        "Location": "Taman Kim Leng",
        "Post_Office": "Kuantan",
        "State": "Pahang"
    },
    {
        "Postcode": "25300",
        "Location": "Taman Klasik",
        "Post_Office": "Kuantan",
        "State": "Pahang"
    },
    {
        "Postcode": "25300",
        "Location": "Taman Kuantan Jaya",
        "Post_Office": "Kuantan",
        "State": "Pahang"
    },
    {
        "Postcode": "25300",
        "Location": "Taman Kurnia",
        "Post_Office": "Kuantan",
        "State": "Pahang"
    },
    {
        "Postcode": "25300",
        "Location": "Taman Lknp (Jalan Beserah)",
        "Post_Office": "Kuantan",
        "State": "Pahang"
    },
    {
        "Postcode": "25300",
        "Location": "Taman Mahawangsa",
        "Post_Office": "Kuantan",
        "State": "Pahang"
    },
    {
        "Postcode": "25300",
        "Location": "Taman Mca Satu",
        "Post_Office": "Kuantan",
        "State": "Pahang"
    },
    {
        "Postcode": "25300",
        "Location": "Taman Megah Jaya",
        "Post_Office": "Kuantan",
        "State": "Pahang"
    },
    {
        "Postcode": "25300",
        "Location": "Taman Megah Ria",
        "Post_Office": "Kuantan",
        "State": "Pahang"
    },
    {
        "Postcode": "25300",
        "Location": "Taman Mirama",
        "Post_Office": "Kuantan",
        "State": "Pahang"
    },
    {
        "Postcode": "25300",
        "Location": "Taman Multiplier",
        "Post_Office": "Kuantan",
        "State": "Pahang"
    },
    {
        "Postcode": "25300",
        "Location": "Taman Pacific",
        "Post_Office": "Kuantan",
        "State": "Pahang"
    },
    {
        "Postcode": "25300",
        "Location": "Taman Pauline",
        "Post_Office": "Kuantan",
        "State": "Pahang"
    },
    {
        "Postcode": "25300",
        "Location": "Taman Peninsular",
        "Post_Office": "Kuantan",
        "State": "Pahang"
    },
    {
        "Postcode": "25300",
        "Location": "Taman Peninsular Court",
        "Post_Office": "Kuantan",
        "State": "Pahang"
    },
    {
        "Postcode": "25300",
        "Location": "Taman Peninsular Jaya",
        "Post_Office": "Kuantan",
        "State": "Pahang"
    },
    {
        "Postcode": "25300",
        "Location": "Taman Puyu",
        "Post_Office": "Kuantan",
        "State": "Pahang"
    },
    {
        "Postcode": "25300",
        "Location": "Taman Rasa Sayang",
        "Post_Office": "Kuantan",
        "State": "Pahang"
    },
    {
        "Postcode": "25300",
        "Location": "Taman Seri Galing",
        "Post_Office": "Kuantan",
        "State": "Pahang"
    },
    {
        "Postcode": "25300",
        "Location": "Taman Seri Pelandok",
        "Post_Office": "Kuantan",
        "State": "Pahang"
    },
    {
        "Postcode": "25300",
        "Location": "Taman Seri Tahan",
        "Post_Office": "Kuantan",
        "State": "Pahang"
    },
    {
        "Postcode": "25300",
        "Location": "Taman Serindit",
        "Post_Office": "Kuantan",
        "State": "Pahang"
    },
    {
        "Postcode": "25300",
        "Location": "Taman Setali",
        "Post_Office": "Kuantan",
        "State": "Pahang"
    },
    {
        "Postcode": "25300",
        "Location": "Taman Setali Indah",
        "Post_Office": "Kuantan",
        "State": "Pahang"
    },
    {
        "Postcode": "25300",
        "Location": "Taman Setali Maju",
        "Post_Office": "Kuantan",
        "State": "Pahang"
    },
    {
        "Postcode": "25300",
        "Location": "Taman Setali Wangsa",
        "Post_Office": "Kuantan",
        "State": "Pahang"
    },
    {
        "Postcode": "25300",
        "Location": "Taman Siok Thong",
        "Post_Office": "Kuantan",
        "State": "Pahang"
    },
    {
        "Postcode": "25300",
        "Location": "Taman Sumber Mewah",
        "Post_Office": "Kuantan",
        "State": "Pahang"
    },
    {
        "Postcode": "25300",
        "Location": "Taman Suraya",
        "Post_Office": "Kuantan",
        "State": "Pahang"
    },
    {
        "Postcode": "25300",
        "Location": "Taman Tab",
        "Post_Office": "Kuantan",
        "State": "Pahang"
    },
    {
        "Postcode": "25300",
        "Location": "Taman Tahan",
        "Post_Office": "Kuantan",
        "State": "Pahang"
    },
    {
        "Postcode": "25300",
        "Location": "Taman Tunas Jaya",
        "Post_Office": "Kuantan",
        "State": "Pahang"
    },
    {
        "Postcode": "25300",
        "Location": "Taman Union",
        "Post_Office": "Kuantan",
        "State": "Pahang"
    },
    {
        "Postcode": "25300",
        "Location": "Taman Pertama",
        "Post_Office": "Kuantan",
        "State": "Pahang"
    },
    {
        "Postcode": "25300",
        "Location": "Jalan Haji Ahmad 10",
        "Post_Office": "Kuantan",
        "State": "Pahang"
    },
    {
        "Postcode": "25300",
        "Location": "Jalan Beserah",
        "Post_Office": "Kuantan",
        "State": "Pahang"
    },
    {
        "Postcode": "25300",
        "Location": "Jalan Tun Ismail 1",
        "Post_Office": "Kuantan",
        "State": "Pahang"
    },
    {
        "Postcode": "25300",
        "Location": "Kampung Air Putih",
        "Post_Office": "Kuantan",
        "State": "Pahang"
    },
    {
        "Postcode": "25300",
        "Location": "Lorong Melor",
        "Post_Office": "Kuantan",
        "State": "Pahang"
    },
    {
        "Postcode": "25300",
        "Location": "Perumahan Dato' Abdul Rashid Salleh",
        "Post_Office": "Kuantan",
        "State": "Pahang"
    },
    {
        "Postcode": "25300",
        "Location": "Taman Berlian",
        "Post_Office": "Kuantan",
        "State": "Pahang"
    },
    {
        "Postcode": "25300",
        "Location": "Taman Beserah",
        "Post_Office": "Kuantan",
        "State": "Pahang"
    },
    {
        "Postcode": "25300",
        "Location": "Taman Gembira",
        "Post_Office": "Kuantan",
        "State": "Pahang"
    },
    {
        "Postcode": "25300",
        "Location": "Taman Harapan",
        "Post_Office": "Kuantan",
        "State": "Pahang"
    },
    {
        "Postcode": "25300",
        "Location": "Taman Indah",
        "Post_Office": "Kuantan",
        "State": "Pahang"
    },
    {
        "Postcode": "25300",
        "Location": "Taman Mca",
        "Post_Office": "Kuantan",
        "State": "Pahang"
    },
    {
        "Postcode": "25300",
        "Location": "Taman Tunas",
        "Post_Office": "Kuantan",
        "State": "Pahang"
    },
    {
        "Postcode": "25300",
        "Location": "Alor Akar B",
        "Post_Office": "Kuantan",
        "State": "Pahang"
    },
    {
        "Postcode": "25300",
        "Location": "Hutan Setali",
        "Post_Office": "Kuantan",
        "State": "Pahang"
    },
    {
        "Postcode": "25300",
        "Location": "Jalan Chan Loon Compound",
        "Post_Office": "Kuantan",
        "State": "Pahang"
    },
    {
        "Postcode": "25300",
        "Location": "Jalan Hutan Setali",
        "Post_Office": "Kuantan",
        "State": "Pahang"
    },
    {
        "Postcode": "25300",
        "Location": "Jalan Lim Hoe Lek 1",
        "Post_Office": "Kuantan",
        "State": "Pahang"
    },
    {
        "Postcode": "25300",
        "Location": "Jalan Pelanduk",
        "Post_Office": "Kuantan",
        "State": "Pahang"
    },
    {
        "Postcode": "25300",
        "Location": "Jalan Putra Square",
        "Post_Office": "Kuantan",
        "State": "Pahang"
    },
    {
        "Postcode": "25300",
        "Location": "Jalan Tun Ismail 10",
        "Post_Office": "Kuantan",
        "State": "Pahang"
    },
    {
        "Postcode": "25300",
        "Location": "Kampung Air Puteh",
        "Post_Office": "Kuantan",
        "State": "Pahang"
    },
    {
        "Postcode": "25300",
        "Location": "Kampung Alor Akar",
        "Post_Office": "Kuantan",
        "State": "Pahang"
    },
    {
        "Postcode": "25300",
        "Location": "Kampung Cina",
        "Post_Office": "Kuantan",
        "State": "Pahang"
    },
    {
        "Postcode": "25300",
        "Location": "Kampung Galing Besar",
        "Post_Office": "Kuantan",
        "State": "Pahang"
    },
    {
        "Postcode": "25300",
        "Location": "Kampung Galing Camp",
        "Post_Office": "Kuantan",
        "State": "Pahang"
    },
    {
        "Postcode": "25300",
        "Location": "Kampung Jalan Hutan Setali",
        "Post_Office": "Kuantan",
        "State": "Pahang"
    },
    {
        "Postcode": "25300",
        "Location": "Kampung Lapang Besar",
        "Post_Office": "Kuantan",
        "State": "Pahang"
    },
    {
        "Postcode": "25300",
        "Location": "Kampung Setali",
        "Post_Office": "Kuantan",
        "State": "Pahang"
    },
    {
        "Postcode": "25300",
        "Location": "Lorong Bayan 14",
        "Post_Office": "Kuantan",
        "State": "Pahang"
    },
    {
        "Postcode": "25300",
        "Location": "Lorong Bayan 3",
        "Post_Office": "Kuantan",
        "State": "Pahang"
    },
    {
        "Postcode": "25300",
        "Location": "Lorong Galing",
        "Post_Office": "Kuantan",
        "State": "Pahang"
    },
    {
        "Postcode": "25300",
        "Location": "Lorong Galing 23",
        "Post_Office": "Kuantan",
        "State": "Pahang"
    },
    {
        "Postcode": "25300",
        "Location": "Lorong Galing 27",
        "Post_Office": "Kuantan",
        "State": "Pahang"
    },
    {
        "Postcode": "25300",
        "Location": "Lorong Galing 29",
        "Post_Office": "Kuantan",
        "State": "Pahang"
    },
    {
        "Postcode": "25300",
        "Location": "Lorong Galing 50",
        "Post_Office": "Kuantan",
        "State": "Pahang"
    },
    {
        "Postcode": "25300",
        "Location": "Lorong Galing 9",
        "Post_Office": "Kuantan",
        "State": "Pahang"
    },
    {
        "Postcode": "25300",
        "Location": "Lorong Gemilang",
        "Post_Office": "Kuantan",
        "State": "Pahang"
    },
    {
        "Postcode": "25300",
        "Location": "Lorong Sekilau",
        "Post_Office": "Kuantan",
        "State": "Pahang"
    },
    {
        "Postcode": "25300",
        "Location": "Lorong Seri Setali 101",
        "Post_Office": "Kuantan",
        "State": "Pahang"
    },
    {
        "Postcode": "25300",
        "Location": "Kawasan Perindustrian Semambu",
        "Post_Office": "Kuantan",
        "State": "Pahang"
    },
    {
        "Postcode": "25300",
        "Location": "Lorong Seri Setali 105",
        "Post_Office": "Kuantan",
        "State": "Pahang"
    },
    {
        "Postcode": "25300",
        "Location": "Perumahan Air Putih",
        "Post_Office": "Kuantan",
        "State": "Pahang"
    },
    {
        "Postcode": "25300",
        "Location": "Lorong Haji Ahmad 10",
        "Post_Office": "Kuantan",
        "State": "Pahang"
    },
    {
        "Postcode": "25300",
        "Location": "Perumahan Sekilau",
        "Post_Office": "Kuantan",
        "State": "Pahang"
    },
    {
        "Postcode": "25300",
        "Location": "Perumahan Seri Setali",
        "Post_Office": "Kuantan",
        "State": "Pahang"
    },
    {
        "Postcode": "25300",
        "Location": "Jalan Air Putih 1",
        "Post_Office": "Kuantan",
        "State": "Pahang"
    },
    {
        "Postcode": "25300",
        "Location": "Jalan Air Putih 2",
        "Post_Office": "Kuantan",
        "State": "Pahang"
    },
    {
        "Postcode": "25300",
        "Location": "Jalan Air Putih 3",
        "Post_Office": "Kuantan",
        "State": "Pahang"
    },
    {
        "Postcode": "25300",
        "Location": "Jalan Air Putih 4",
        "Post_Office": "Kuantan",
        "State": "Pahang"
    },
    {
        "Postcode": "25300",
        "Location": "Jalan Air Putih 5",
        "Post_Office": "Kuantan",
        "State": "Pahang"
    },
    {
        "Postcode": "25300",
        "Location": "Jalan Air Putih 6",
        "Post_Office": "Kuantan",
        "State": "Pahang"
    },
    {
        "Postcode": "25300",
        "Location": "Jalan Haji Ahmad 1",
        "Post_Office": "Kuantan",
        "State": "Pahang"
    },
    {
        "Postcode": "25300",
        "Location": "Jalan Haji Ahmad 2",
        "Post_Office": "Kuantan",
        "State": "Pahang"
    },
    {
        "Postcode": "25300",
        "Location": "Jalan Haji Ahmad 3",
        "Post_Office": "Kuantan",
        "State": "Pahang"
    },
    {
        "Postcode": "25300",
        "Location": "Jalan Haji Ahmad 4",
        "Post_Office": "Kuantan",
        "State": "Pahang"
    },
    {
        "Postcode": "25300",
        "Location": "Jalan Haji Ahmad 5",
        "Post_Office": "Kuantan",
        "State": "Pahang"
    },
    {
        "Postcode": "25300",
        "Location": "Jalan Haji Ahmad 6",
        "Post_Office": "Kuantan",
        "State": "Pahang"
    },
    {
        "Postcode": "25300",
        "Location": "Jalan Haji Ahmad 7",
        "Post_Office": "Kuantan",
        "State": "Pahang"
    },
    {
        "Postcode": "25300",
        "Location": "Lorong Haji Ahmad 1",
        "Post_Office": "Kuantan",
        "State": "Pahang"
    },
    {
        "Postcode": "25300",
        "Location": "Lorong Haji Ahmad 2",
        "Post_Office": "Kuantan",
        "State": "Pahang"
    },
    {
        "Postcode": "25300",
        "Location": "Lorong Puyu 1",
        "Post_Office": "Kuantan",
        "State": "Pahang"
    },
    {
        "Postcode": "25300",
        "Location": "Lorong Puyu 10",
        "Post_Office": "Kuantan",
        "State": "Pahang"
    },
    {
        "Postcode": "25300",
        "Location": "Lorong Puyu 11",
        "Post_Office": "Kuantan",
        "State": "Pahang"
    },
    {
        "Postcode": "25300",
        "Location": "Lorong Puyu 2",
        "Post_Office": "Kuantan",
        "State": "Pahang"
    },
    {
        "Postcode": "25300",
        "Location": "Lorong Puyu 3",
        "Post_Office": "Kuantan",
        "State": "Pahang"
    },
    {
        "Postcode": "25300",
        "Location": "Lorong Puyu 4",
        "Post_Office": "Kuantan",
        "State": "Pahang"
    },
    {
        "Postcode": "25300",
        "Location": "Lorong Puyu 5",
        "Post_Office": "Kuantan",
        "State": "Pahang"
    },
    {
        "Postcode": "25300",
        "Location": "Lorong Puyu 6",
        "Post_Office": "Kuantan",
        "State": "Pahang"
    },
    {
        "Postcode": "25300",
        "Location": "Lorong Puyu 7",
        "Post_Office": "Kuantan",
        "State": "Pahang"
    },
    {
        "Postcode": "25300",
        "Location": "Lorong Puyu 8",
        "Post_Office": "Kuantan",
        "State": "Pahang"
    },
    {
        "Postcode": "25300",
        "Location": "Lorong Puyu 9",
        "Post_Office": "Kuantan",
        "State": "Pahang"
    },
    {
        "Postcode": "25300",
        "Location": "Lorong Tun Ismail 10",
        "Post_Office": "Kuantan",
        "State": "Pahang"
    },
    {
        "Postcode": "25300",
        "Location": "Lorong Tun Ismail 11",
        "Post_Office": "Kuantan",
        "State": "Pahang"
    },
    {
        "Postcode": "25300",
        "Location": "Lorong Tun Ismail 12",
        "Post_Office": "Kuantan",
        "State": "Pahang"
    },
    {
        "Postcode": "25300",
        "Location": "Lorong Tun Ismail 8",
        "Post_Office": "Kuantan",
        "State": "Pahang"
    },
    {
        "Postcode": "25300",
        "Location": "Lorong Tun Ismail 9",
        "Post_Office": "Kuantan",
        "State": "Pahang"
    }
]
