[
    {
        "Postcode": "25350",
        "Location": "Estate Semambu",
        "Post_Office": "Kuantan",
        "State": "Pahang"
    },
    {
        "Postcode": "25350",
        "Location": "Jalan Air Putih",
        "Post_Office": "Kuantan",
        "State": "Pahang"
    },
    {
        "Postcode": "25350",
        "Location": "Jalan Industri Semambu",
        "Post_Office": "Kuantan",
        "State": "Pahang"
    },
    {
        "Postcode": "25350",
        "Location": "Jalan Jabor",
        "Post_Office": "Kuantan",
        "State": "Pahang"
    },
    {
        "Postcode": "25350",
        "Location": "Jalan Pelindung Beserah",
        "Post_Office": "Kuantan",
        "State": "Pahang"
    },
    {
        "Postcode": "25350",
        "Location": "Jalan Semambu",
        "Post_Office": "Kuantan",
        "State": "Pahang"
    },
    {
        "Postcode": "25350",
        "Location": "Jalan Sri Setali",
        "Post_Office": "Kuantan",
        "State": "Pahang"
    },
    {
        "Postcode": "25350",
        "Location": "Kampung Cina Semambu",
        "Post_Office": "Kuantan",
        "State": "Pahang"
    },
    {
        "Postcode": "25350",
        "Location": "Kampung Semambu",
        "Post_Office": "Kuantan",
        "State": "Pahang"
    },
    {
        "Postcode": "25350",
        "Location": "Kawasan Perusahaan Semambu",
        "Post_Office": "Kuantan",
        "State": "Pahang"
    },
    {
        "Postcode": "25350",
        "Location": "Loji Air Semambu",
        "Post_Office": "Kuantan",
        "State": "Pahang"
    },
    {
        "Postcode": "25350",
        "Location": "Lorong Air Putih 100",
        "Post_Office": "Kuantan",
        "State": "Pahang"
    },
    {
        "Postcode": "25350",
        "Location": "Lorong Dato Rashid",
        "Post_Office": "Kuantan",
        "State": "Pahang"
    },
    {
        "Postcode": "25350",
        "Location": "Lorong Industri",
        "Post_Office": "Kuantan",
        "State": "Pahang"
    },
    {
        "Postcode": "25350",
        "Location": "Lorong Semambu Baru",
        "Post_Office": "Kuantan",
        "State": "Pahang"
    },
    {
        "Postcode": "25350",
        "Location": "Lorong Sri Setali",
        "Post_Office": "Kuantan",
        "State": "Pahang"
    },
    {
        "Postcode": "25350",
        "Location": "Maktab Perguruan Tengku Ampuan Afzan",
        "Post_Office": "Kuantan",
        "State": "Pahang"
    },
    {
        "Postcode": "25350",
        "Location": "Perkampungan Semambu Baru",
        "Post_Office": "Kuantan",
        "State": "Pahang"
    },
    {
        "Postcode": "25350",
        "Location": "Perumahan Murah Semambu",
        "Post_Office": "Kuantan",
        "State": "Pahang"
    },
    {
        "Postcode": "25350",
        "Location": "Politeknik Kuantan",
        "Post_Office": "Kuantan",
        "State": "Pahang"
    },
    {
        "Postcode": "25350",
        "Location": "Politeknik Sultan Ahmad Shah (Polisas)",
        "Post_Office": "Kuantan",
        "State": "Pahang"
    },
    {
        "Postcode": "25350",
        "Location": "Semambu",
        "Post_Office": "Kuantan",
        "State": "Pahang"
    },
    {
        "Postcode": "25350",
        "Location": "Taman Aneka Jaya (Semambu)",
        "Post_Office": "Kuantan",
        "State": "Pahang"
    },
    {
        "Postcode": "25350",
        "Location": "Taman Bersatu",
        "Post_Office": "Kuantan",
        "State": "Pahang"
    },
    {
        "Postcode": "25350",
        "Location": "Taman Dato Rashid",
        "Post_Office": "Kuantan",
        "State": "Pahang"
    },
    {
        "Postcode": "25350",
        "Location": "Taman Desa",
        "Post_Office": "Kuantan",
        "State": "Pahang"
    },
    {
        "Postcode": "25350",
        "Location": "Taman Fong Seong",
        "Post_Office": "Kuantan",
        "State": "Pahang"
    },
    {
        "Postcode": "25350",
        "Location": "Taman Jalan Semambu",
        "Post_Office": "Kuantan",
        "State": "Pahang"
    },
    {
        "Postcode": "25350",
        "Location": "Taman Lknp Semambu Pt I",
        "Post_Office": "Kuantan",
        "State": "Pahang"
    },
    {
        "Postcode": "25350",
        "Location": "Taman Paka",
        "Post_Office": "Kuantan",
        "State": "Pahang"
    },
    {
        "Postcode": "25350",
        "Location": "Taman Rimau",
        "Post_Office": "Kuantan",
        "State": "Pahang"
    },
    {
        "Postcode": "25350",
        "Location": "Taman Sekilau Maju (Jalan Air Puteh)",
        "Post_Office": "Kuantan",
        "State": "Pahang"
    },
    {
        "Postcode": "25350",
        "Location": "Taman Semambu",
        "Post_Office": "Kuantan",
        "State": "Pahang"
    },
    {
        "Postcode": "25350",
        "Location": "Taman Sentosa Baru",
        "Post_Office": "Kuantan",
        "State": "Pahang"
    },
    {
        "Postcode": "25350",
        "Location": "Taman Serukun",
        "Post_Office": "Kuantan",
        "State": "Pahang"
    },
    {
        "Postcode": "25350",
        "Location": "Taman Skyline",
        "Post_Office": "Kuantan",
        "State": "Pahang"
    },
    {
        "Postcode": "25350",
        "Location": "Taman Sri Raya",
        "Post_Office": "Kuantan",
        "State": "Pahang"
    },
    {
        "Postcode": "25350",
        "Location": "Taman Timur Raya",
        "Post_Office": "Kuantan",
        "State": "Pahang"
    },
    {
        "Postcode": "25350",
        "Location": "Taman Tunas Jaya (Pt 3)",
        "Post_Office": "Kuantan",
        "State": "Pahang"
    },
    {
        "Postcode": "25350",
        "Location": "Taman Tunas Jaya (Pt 5)",
        "Post_Office": "Kuantan",
        "State": "Pahang"
    },
    {
        "Postcode": "25350",
        "Location": "Taman Tunas Manja",
        "Post_Office": "Kuantan",
        "State": "Pahang"
    },
    {
        "Postcode": "25350",
        "Location": "Perkampungan Air Putih",
        "Post_Office": "Kuantan",
        "State": "Pahang"
    },
    {
        "Postcode": "25350",
        "Location": "Taman Wawasan",
        "Post_Office": "Kuantan",
        "State": "Pahang"
    },
    {
        "Postcode": "25350",
        "Location": "Lorong Air Putih 115",
        "Post_Office": "Kuantan",
        "State": "Pahang"
    },
    {
        "Postcode": "25350",
        "Location": "Taman Cempaka",
        "Post_Office": "Kuantan",
        "State": "Pahang"
    },
    {
        "Postcode": "25350",
        "Location": "Taman Dato' Abdul Rashid Salleh",
        "Post_Office": "Kuantan",
        "State": "Pahang"
    },
    {
        "Postcode": "25350",
        "Location": "Taman Sentosa",
        "Post_Office": "Kuantan",
        "State": "Pahang"
    },
    {
        "Postcode": "25350",
        "Location": "Perumahan Semambu Baru",
        "Post_Office": "Kuantan",
        "State": "Pahang"
    },
    {
        "Postcode": "25350",
        "Location": "Lorong Air Putih 116",
        "Post_Office": "Kuantan",
        "State": "Pahang"
    },
    {
        "Postcode": "25350",
        "Location": "Lorong Air Putih 117",
        "Post_Office": "Kuantan",
        "State": "Pahang"
    },
    {
        "Postcode": "25350",
        "Location": "Lorong Air Putih 118",
        "Post_Office": "Kuantan",
        "State": "Pahang"
    },
    {
        "Postcode": "25350",
        "Location": "Lorong Air Putih 119",
        "Post_Office": "Kuantan",
        "State": "Pahang"
    },
    {
        "Postcode": "25350",
        "Location": "Lorong Galing 129",
        "Post_Office": "Kuantan",
        "State": "Pahang"
    },
    {
        "Postcode": "25350",
        "Location": "Lorong Galing 130",
        "Post_Office": "Kuantan",
        "State": "Pahang"
    },
    {
        "Postcode": "25350",
        "Location": "Lorong Galing 131",
        "Post_Office": "Kuantan",
        "State": "Pahang"
    },
    {
        "Postcode": "25350",
        "Location": "Lorong Galing 132",
        "Post_Office": "Kuantan",
        "State": "Pahang"
    },
    {
        "Postcode": "25350",
        "Location": "Lorong Galing 133",
        "Post_Office": "Kuantan",
        "State": "Pahang"
    },
    {
        "Postcode": "25350",
        "Location": "Lorong Galing 134",
        "Post_Office": "Kuantan",
        "State": "Pahang"
    },
    {
        "Postcode": "25350",
        "Location": "Lorong Galing 135",
        "Post_Office": "Kuantan",
        "State": "Pahang"
    },
    {
        "Postcode": "25350",
        "Location": "Lorong Galing 136",
        "Post_Office": "Kuantan",
        "State": "Pahang"
    },
    {
        "Postcode": "25350",
        "Location": "Lorong Galing 137",
        "Post_Office": "Kuantan",
        "State": "Pahang"
    },
    {
        "Postcode": "25350",
        "Location": "Lorong Galing 138",
        "Post_Office": "Kuantan",
        "State": "Pahang"
    },
    {
        "Postcode": "25350",
        "Location": "Lorong Galing 139",
        "Post_Office": "Kuantan",
        "State": "Pahang"
    },
    {
        "Postcode": "25350",
        "Location": "Lorong Galing 140",
        "Post_Office": "Kuantan",
        "State": "Pahang"
    },
    {
        "Postcode": "25350",
        "Location": "Lorong Galing 141",
        "Post_Office": "Kuantan",
        "State": "Pahang"
    },
    {
        "Postcode": "25350",
        "Location": "Lorong Galing 142",
        "Post_Office": "Kuantan",
        "State": "Pahang"
    },
    {
        "Postcode": "25350",
        "Location": "Lorong Galing 143",
        "Post_Office": "Kuantan",
        "State": "Pahang"
    },
    {
        "Postcode": "25350",
        "Location": "Lorong Galing 144",
        "Post_Office": "Kuantan",
        "State": "Pahang"
    },
    {
        "Postcode": "25350",
        "Location": "Lorong Galing 145",
        "Post_Office": "Kuantan",
        "State": "Pahang"
    },
    {
        "Postcode": "25350",
        "Location": "Lorong Galing 146",
        "Post_Office": "Kuantan",
        "State": "Pahang"
    },
    {
        "Postcode": "25350",
        "Location": "Lorong Galing 147",
        "Post_Office": "Kuantan",
        "State": "Pahang"
    },
    {
        "Postcode": "25350",
        "Location": "Lorong Galing 148",
        "Post_Office": "Kuantan",
        "State": "Pahang"
    },
    {
        "Postcode": "25350",
        "Location": "Lorong Setaling 114",
        "Post_Office": "Kuantan",
        "State": "Pahang"
    },
    {
        "Postcode": "25350",
        "Location": "Lorong Setaling 115",
        "Post_Office": "Kuantan",
        "State": "Pahang"
    },
    {
        "Postcode": "25350",
        "Location": "Lorong Setaling 116",
        "Post_Office": "Kuantan",
        "State": "Pahang"
    },
    {
        "Postcode": "25350",
        "Location": "Lorong Setaling 117",
        "Post_Office": "Kuantan",
        "State": "Pahang"
    },
    {
        "Postcode": "25350",
        "Location": "Lorong Setaling 118",
        "Post_Office": "Kuantan",
        "State": "Pahang"
    },
    {
        "Postcode": "25350",
        "Location": "Lorong Setaling 119",
        "Post_Office": "Kuantan",
        "State": "Pahang"
    },
    {
        "Postcode": "25350",
        "Location": "Lorong Setaling 120",
        "Post_Office": "Kuantan",
        "State": "Pahang"
    },
    {
        "Postcode": "25350",
        "Location": "Lorong Setaling 121",
        "Post_Office": "Kuantan",
        "State": "Pahang"
    },
    {
        "Postcode": "25350",
        "Location": "Taman Union 1",
        "Post_Office": "Kuantan",
        "State": "Pahang"
    },
    {
        "Postcode": "25350",
        "Location": "Taman Union 2",
        "Post_Office": "Kuantan",
        "State": "Pahang"
    }
]
