[
    {
        "Postcode": "01000",
        "Location": "Kampung Bendang Baru",
        "Post_Office": "Kangar",
        "State": "Perlis"
    },
    {
        "Postcode": "01000",
        "Location": "Kampung Padang Petani",
        "Post_Office": "Kangar",
        "State": "Perlis"
    },
    {
        "Postcode": "01000",
        "Location": "Kampung Pulau",
        "Post_Office": "Kangar",
        "State": "Perlis"
    },
    {
        "Postcode": "01000",
        "Location": "Kampung Sena",
        "Post_Office": "Kangar",
        "State": "Perlis"
    },
    {
        "Postcode": "01000",
        "Location": "Taman Permai",
        "Post_Office": "Kangar",
        "State": "Perlis"
    },
    {
        "Postcode": "01000",
        "Location": "Taman Sri Idaman",
        "Post_Office": "Kangar",
        "State": "Perlis"
    },
    {
        "Postcode": "01000",
        "Location": "Alor Redeh",
        "Post_Office": "Kangar",
        "State": "Perlis"
    },
    {
        "Postcode": "01000",
        "Location": "Alor Tok Terang",
        "Post_Office": "Kangar",
        "State": "Perlis"
    },
    {
        "Postcode": "01000",
        "Location": "Bohor Gelam",
        "Post_Office": "Kangar",
        "State": "Perlis"
    },
    {
        "Postcode": "01000",
        "Location": "Jalan Abi Tok Hashim",
        "Post_Office": "Kangar",
        "State": "Perlis"
    },
    {
        "Postcode": "01000",
        "Location": "Jalan Alor Sena",
        "Post_Office": "Kangar",
        "State": "Perlis"
    },
    {
        "Postcode": "01000",
        "Location": "Jalan Arau",
        "Post_Office": "Kangar",
        "State": "Perlis"
    },
    {
        "Postcode": "01000",
        "Location": "Jalan Besar Kangar",
        "Post_Office": "Kangar",
        "State": "Perlis"
    },
    {
        "Postcode": "01000",
        "Location": "Jalan Bohor Guncar",
        "Post_Office": "Kangar",
        "State": "Perlis"
    },
    {
        "Postcode": "01000",
        "Location": "Jalan Bukit Meranti",
        "Post_Office": "Kangar",
        "State": "Perlis"
    },
    {
        "Postcode": "01000",
        "Location": "Jalan Home Guard",
        "Post_Office": "Kangar",
        "State": "Perlis"
    },
    {
        "Postcode": "01000",
        "Location": "Jalan Hospital",
        "Post_Office": "Kangar",
        "State": "Perlis"
    },
    {
        "Postcode": "01000",
        "Location": "Jalan Jubli Perak",
        "Post_Office": "Kangar",
        "State": "Perlis"
    },
    {
        "Postcode": "01000",
        "Location": "Jalan Kaki Bukit (Batu 4 1/2)",
        "Post_Office": "Kangar",
        "State": "Perlis"
    },
    {
        "Postcode": "01000",
        "Location": "Jalan Kampung Wan Abdullah",
        "Post_Office": "Kangar",
        "State": "Perlis"
    },
    {
        "Postcode": "01000",
        "Location": "Jalan Kangar",
        "Post_Office": "Kangar",
        "State": "Perlis"
    },
    {
        "Postcode": "01000",
        "Location": "Jalan Kurung Batang",
        "Post_Office": "Kangar",
        "State": "Perlis"
    },
    {
        "Postcode": "01000",
        "Location": "Jalan Masjid Lama",
        "Post_Office": "Kangar",
        "State": "Perlis"
    },
    {
        "Postcode": "01000",
        "Location": "Jalan Medan Kangar",
        "Post_Office": "Kangar",
        "State": "Perlis"
    },
    {
        "Postcode": "01000",
        "Location": "Jalan Padang Bohor",
        "Post_Office": "Kangar",
        "State": "Perlis"
    },
    {
        "Postcode": "01000",
        "Location": "Jalan Panglima",
        "Post_Office": "Kangar",
        "State": "Perlis"
    },
    {
        "Postcode": "01000",
        "Location": "Jalan Pegawai",
        "Post_Office": "Kangar",
        "State": "Perlis"
    },
    {
        "Postcode": "01000",
        "Location": "Jalan Penjara",
        "Post_Office": "Kangar",
        "State": "Perlis"
    },
    {
        "Postcode": "01000",
        "Location": "Jalan Raja Muda",
        "Post_Office": "Kangar",
        "State": "Perlis"
    },
    {
        "Postcode": "01000",
        "Location": "Jalan Raja Syed Alwi",
        "Post_Office": "Kangar",
        "State": "Perlis"
    },
    {
        "Postcode": "01000",
        "Location": "Jalan Raja Syed Saffi",
        "Post_Office": "Kangar",
        "State": "Perlis"
    },
    {
        "Postcode": "01000",
        "Location": "Jalan Santan (Km 5)",
        "Post_Office": "Kangar",
        "State": "Perlis"
    },
    {
        "Postcode": "01000",
        "Location": "Jalan Seruling",
        "Post_Office": "Kangar",
        "State": "Perlis"
    },
    {
        "Postcode": "01000",
        "Location": "Jalan Syed Omar",
        "Post_Office": "Kangar",
        "State": "Perlis"
    },
    {
        "Postcode": "01000",
        "Location": "Jalan Taman Bunga Padi",
        "Post_Office": "Kangar",
        "State": "Perlis"
    },
    {
        "Postcode": "01000",
        "Location": "Jalan Teluk Kacang",
        "Post_Office": "Kangar",
        "State": "Perlis"
    },
    {
        "Postcode": "01000",
        "Location": "Jalan Tok Kandang",
        "Post_Office": "Kangar",
        "State": "Perlis"
    },
    {
        "Postcode": "01000",
        "Location": "Jalan Tun Razak",
        "Post_Office": "Kangar",
        "State": "Perlis"
    },
    {
        "Postcode": "01000",
        "Location": "Jejawi",
        "Post_Office": "Kangar",
        "State": "Perlis"
    },
    {
        "Postcode": "01000",
        "Location": "Kampung Abi Batas Paip",
        "Post_Office": "Kangar",
        "State": "Perlis"
    },
    {
        "Postcode": "01000",
        "Location": "Kampung Abi Padang Machang",
        "Post_Office": "Kangar",
        "State": "Perlis"
    },
    {
        "Postcode": "01000",
        "Location": "Kampung Abi Pokok Asam",
        "Post_Office": "Kangar",
        "State": "Perlis"
    },
    {
        "Postcode": "01000",
        "Location": "Kampung Abi Tok Hashim",
        "Post_Office": "Kangar",
        "State": "Perlis"
    },
    {
        "Postcode": "01000",
        "Location": "Kampung Alor",
        "Post_Office": "Kangar",
        "State": "Perlis"
    },
    {
        "Postcode": "01000",
        "Location": "Kampung Alor Ara",
        "Post_Office": "Kangar",
        "State": "Perlis"
    },
    {
        "Postcode": "01000",
        "Location": "Kampung Alor Dalam",
        "Post_Office": "Kangar",
        "State": "Perlis"
    },
    {
        "Postcode": "01000",
        "Location": "Kampung Alor Kabong",
        "Post_Office": "Kangar",
        "State": "Perlis"
    },
    {
        "Postcode": "01000",
        "Location": "Kampung Alor Lanchang",
        "Post_Office": "Kangar",
        "State": "Perlis"
    },
    {
        "Postcode": "01000",
        "Location": "Kampung Alor Marus",
        "Post_Office": "Kangar",
        "State": "Perlis"
    },
    {
        "Postcode": "01000",
        "Location": "Kampung Alor Pulai",
        "Post_Office": "Kangar",
        "State": "Perlis"
    },
    {
        "Postcode": "01000",
        "Location": "Kampung Alor Redeh",
        "Post_Office": "Kangar",
        "State": "Perlis"
    },
    {
        "Postcode": "01000",
        "Location": "Kampung Alor Sena",
        "Post_Office": "Kangar",
        "State": "Perlis"
    },
    {
        "Postcode": "01000",
        "Location": "Kampung Aman",
        "Post_Office": "Kangar",
        "State": "Perlis"
    },
    {
        "Postcode": "01000",
        "Location": "Kampung Asam 6",
        "Post_Office": "Kangar",
        "State": "Perlis"
    },
    {
        "Postcode": "01000",
        "Location": "Kampung Aur",
        "Post_Office": "Kangar",
        "State": "Perlis"
    },
    {
        "Postcode": "01000",
        "Location": "Kampung Bakau",
        "Post_Office": "Kangar",
        "State": "Perlis"
    },
    {
        "Postcode": "01000",
        "Location": "Kampung Bakong (Jejawi)",
        "Post_Office": "Kangar",
        "State": "Perlis"
    },
    {
        "Postcode": "01000",
        "Location": "Kampung Baroh",
        "Post_Office": "Kangar",
        "State": "Perlis"
    },
    {
        "Postcode": "01000",
        "Location": "Kampung Baru Santan",
        "Post_Office": "Kangar",
        "State": "Perlis"
    },
    {
        "Postcode": "01000",
        "Location": "Kampung Batu 3.5 (Jalan Kaki Bukit)",
        "Post_Office": "Kangar",
        "State": "Perlis"
    },
    {
        "Postcode": "01000",
        "Location": "Kampung Batu Pahat",
        "Post_Office": "Kangar",
        "State": "Perlis"
    },
    {
        "Postcode": "01000",
        "Location": "Kampung Behor Cicar",
        "Post_Office": "Kangar",
        "State": "Perlis"
    },
    {
        "Postcode": "01000",
        "Location": "Kampung Behor Empiang",
        "Post_Office": "Kangar",
        "State": "Perlis"
    },
    {
        "Postcode": "01000",
        "Location": "Kampung Behor Inai",
        "Post_Office": "Kangar",
        "State": "Perlis"
    },
    {
        "Postcode": "01000",
        "Location": "Kampung Behor Janggus",
        "Post_Office": "Kangar",
        "State": "Perlis"
    },
    {
        "Postcode": "01000",
        "Location": "Kampung Behor Kebal",
        "Post_Office": "Kangar",
        "State": "Perlis"
    },
    {
        "Postcode": "01000",
        "Location": "Kampung Behor Pulai",
        "Post_Office": "Kangar",
        "State": "Perlis"
    },
    {
        "Postcode": "01000",
        "Location": "Kampung Behor Temak",
        "Post_Office": "Kangar",
        "State": "Perlis"
    },
    {
        "Postcode": "01000",
        "Location": "Kampung Belangga Pudak",
        "Post_Office": "Kangar",
        "State": "Perlis"
    },
    {
        "Postcode": "01000",
        "Location": "Kampung Belat Santan",
        "Post_Office": "Kangar",
        "State": "Perlis"
    },
    {
        "Postcode": "01000",
        "Location": "Kampung Belukar (Kangar)",
        "Post_Office": "Kangar",
        "State": "Perlis"
    },
    {
        "Postcode": "01000",
        "Location": "Kampung Binjal",
        "Post_Office": "Kangar",
        "State": "Perlis"
    },
    {
        "Postcode": "01000",
        "Location": "Kampung Bintong",
        "Post_Office": "Kangar",
        "State": "Perlis"
    },
    {
        "Postcode": "01000",
        "Location": "Kampung Bohor Chichar",
        "Post_Office": "Kangar",
        "State": "Perlis"
    },
    {
        "Postcode": "01000",
        "Location": "Kampung Bohor Gandil",
        "Post_Office": "Kangar",
        "State": "Perlis"
    },
    {
        "Postcode": "01000",
        "Location": "Kampung Bohor Gelam",
        "Post_Office": "Kangar",
        "State": "Perlis"
    },
    {
        "Postcode": "01000",
        "Location": "Kampung Bohor Goncar",
        "Post_Office": "Kangar",
        "State": "Perlis"
    },
    {
        "Postcode": "01000",
        "Location": "Kampung Bohor Inai",
        "Post_Office": "Kangar",
        "State": "Perlis"
    },
    {
        "Postcode": "01000",
        "Location": "Kampung Bohor Temak",
        "Post_Office": "Kangar",
        "State": "Perlis"
    },
    {
        "Postcode": "01000",
        "Location": "Kampung Bukit Besi Hangit",
        "Post_Office": "Kangar",
        "State": "Perlis"
    },
    {
        "Postcode": "01000",
        "Location": "Kampung Bukit Kecil",
        "Post_Office": "Kangar",
        "State": "Perlis"
    },
    {
        "Postcode": "01000",
        "Location": "Kampung Bunga Pudak",
        "Post_Office": "Kangar",
        "State": "Perlis"
    },
    {
        "Postcode": "01000",
        "Location": "Kampung Dagang",
        "Post_Office": "Kangar",
        "State": "Perlis"
    },
    {
        "Postcode": "01000",
        "Location": "Kampung Dasri",
        "Post_Office": "Kangar",
        "State": "Perlis"
    },
    {
        "Postcode": "01000",
        "Location": "Kampung Datuk",
        "Post_Office": "Kangar",
        "State": "Perlis"
    },
    {
        "Postcode": "01000",
        "Location": "Kampung Guar Syed Alwi",
        "Post_Office": "Kangar",
        "State": "Perlis"
    },
    {
        "Postcode": "01000",
        "Location": "Kampung Guar Ujung Batu",
        "Post_Office": "Kangar",
        "State": "Perlis"
    },
    {
        "Postcode": "01000",
        "Location": "Kampung Gunong",
        "Post_Office": "Kangar",
        "State": "Perlis"
    },
    {
        "Postcode": "01000",
        "Location": "Kampung Guru",
        "Post_Office": "Kangar",
        "State": "Perlis"
    },
    {
        "Postcode": "01000",
        "Location": "Kampung Haji Daud",
        "Post_Office": "Kangar",
        "State": "Perlis"
    },
    {
        "Postcode": "01000",
        "Location": "Kampung Hutan Buluh",
        "Post_Office": "Kangar",
        "State": "Perlis"
    },
    {
        "Postcode": "01000",
        "Location": "Kampung Hutan Melintang",
        "Post_Office": "Kangar",
        "State": "Perlis"
    },
    {
        "Postcode": "01000",
        "Location": "Kampung Jarak",
        "Post_Office": "Kangar",
        "State": "Perlis"
    },
    {
        "Postcode": "01000",
        "Location": "Kampung Jejawi Dalam",
        "Post_Office": "Kangar",
        "State": "Perlis"
    },
    {
        "Postcode": "01000",
        "Location": "Kampung Jejawi Sematang",
        "Post_Office": "Kangar",
        "State": "Perlis"
    },
    {
        "Postcode": "01000",
        "Location": "Kampung Kechor",
        "Post_Office": "Kangar",
        "State": "Perlis"
    },
    {
        "Postcode": "01000",
        "Location": "Kampung Keranji",
        "Post_Office": "Kangar",
        "State": "Perlis"
    },
    {
        "Postcode": "01000",
        "Location": "Kampung Kota",
        "Post_Office": "Kangar",
        "State": "Perlis"
    },
    {
        "Postcode": "01000",
        "Location": "Kampung Kota Keran",
        "Post_Office": "Kangar",
        "State": "Perlis"
    },
    {
        "Postcode": "01000",
        "Location": "Kampung Kota Ulu",
        "Post_Office": "Kangar",
        "State": "Perlis"
    },
    {
        "Postcode": "01000",
        "Location": "Kampung Kubang Arang",
        "Post_Office": "Kangar",
        "State": "Perlis"
    },
    {
        "Postcode": "01000",
        "Location": "Kampung Kubang Badak",
        "Post_Office": "Kangar",
        "State": "Perlis"
    },
    {
        "Postcode": "01000",
        "Location": "Kampung Kubang Cekuang",
        "Post_Office": "Kangar",
        "State": "Perlis"
    },
    {
        "Postcode": "01000",
        "Location": "Kampung Kubang Gajah",
        "Post_Office": "Kangar",
        "State": "Perlis"
    },
    {
        "Postcode": "01000",
        "Location": "Kampung Kurung Batang",
        "Post_Office": "Kangar",
        "State": "Perlis"
    },
    {
        "Postcode": "01000",
        "Location": "Kampung Lin",
        "Post_Office": "Kangar",
        "State": "Perlis"
    },
    {
        "Postcode": "01000",
        "Location": "Kampung Masjid (Kangar)",
        "Post_Office": "Kangar",
        "State": "Perlis"
    },
    {
        "Postcode": "01000",
        "Location": "Kampung Mengkuang Layar",
        "Post_Office": "Kangar",
        "State": "Perlis"
    },
    {
        "Postcode": "01000",
        "Location": "Kampung Nissam",
        "Post_Office": "Kangar",
        "State": "Perlis"
    },
    {
        "Postcode": "01000",
        "Location": "Kampung Nyak Adam",
        "Post_Office": "Kangar",
        "State": "Perlis"
    },
    {
        "Postcode": "01000",
        "Location": "Kampung Padang Behor",
        "Post_Office": "Kangar",
        "State": "Perlis"
    },
    {
        "Postcode": "01000",
        "Location": "Kampung Padang Jawa Seriab",
        "Post_Office": "Kangar",
        "State": "Perlis"
    },
    {
        "Postcode": "01000",
        "Location": "Kampung Padang Katong",
        "Post_Office": "Kangar",
        "State": "Perlis"
    },
    {
        "Postcode": "01000",
        "Location": "Kampung Padang Kedepiang",
        "Post_Office": "Kangar",
        "State": "Perlis"
    },
    {
        "Postcode": "01000",
        "Location": "Kampung Padang Machang",
        "Post_Office": "Kangar",
        "State": "Perlis"
    },
    {
        "Postcode": "01000",
        "Location": "Kampung Padang Nyaring",
        "Post_Office": "Kangar",
        "State": "Perlis"
    },
    {
        "Postcode": "01000",
        "Location": "Kampung Padang Pauh",
        "Post_Office": "Kangar",
        "State": "Perlis"
    },
    {
        "Postcode": "01000",
        "Location": "Kampung Padang Seberang",
        "Post_Office": "Kangar",
        "State": "Perlis"
    },
    {
        "Postcode": "01000",
        "Location": "Kampung Panggau",
        "Post_Office": "Kangar",
        "State": "Perlis"
    },
    {
        "Postcode": "01000",
        "Location": "Kampung Parit Jari",
        "Post_Office": "Kangar",
        "State": "Perlis"
    },
    {
        "Postcode": "01000",
        "Location": "Kampung Penghulu Bakar",
        "Post_Office": "Kangar",
        "State": "Perlis"
    },
    {
        "Postcode": "01000",
        "Location": "Kampung Pengkalan Asam",
        "Post_Office": "Kangar",
        "State": "Perlis"
    },
    {
        "Postcode": "01000",
        "Location": "Kampung Peseri",
        "Post_Office": "Kangar",
        "State": "Perlis"
    },
    {
        "Postcode": "01000",
        "Location": "Kampung Petai",
        "Post_Office": "Kangar",
        "State": "Perlis"
    },
    {
        "Postcode": "01000",
        "Location": "Kampung Petai Hilir",
        "Post_Office": "Kangar",
        "State": "Perlis"
    },
    {
        "Postcode": "01000",
        "Location": "Kampung Pokok Jawi",
        "Post_Office": "Kangar",
        "State": "Perlis"
    },
    {
        "Postcode": "01000",
        "Location": "Kampung Pondok",
        "Post_Office": "Kangar",
        "State": "Perlis"
    },
    {
        "Postcode": "01000",
        "Location": "Kampung Repoh",
        "Post_Office": "Kangar",
        "State": "Perlis"
    },
    {
        "Postcode": "01000",
        "Location": "Kampung Repoh Dagang",
        "Post_Office": "Kangar",
        "State": "Perlis"
    },
    {
        "Postcode": "01000",
        "Location": "Kampung Salang",
        "Post_Office": "Kangar",
        "State": "Perlis"
    },
    {
        "Postcode": "01000",
        "Location": "Kampung Santan",
        "Post_Office": "Kangar",
        "State": "Perlis"
    },
    {
        "Postcode": "01000",
        "Location": "Kampung Santan Aur",
        "Post_Office": "Kangar",
        "State": "Perlis"
    },
    {
        "Postcode": "01000",
        "Location": "Kampung Santan Belat",
        "Post_Office": "Kangar",
        "State": "Perlis"
    },
    {
        "Postcode": "01000",
        "Location": "Kampung Santan Enam",
        "Post_Office": "Kangar",
        "State": "Perlis"
    },
    {
        "Postcode": "01000",
        "Location": "Kampung Santan Masjid",
        "Post_Office": "Kangar",
        "State": "Perlis"
    },
    {
        "Postcode": "01000",
        "Location": "Kampung Sempering",
        "Post_Office": "Kangar",
        "State": "Perlis"
    },
    {
        "Postcode": "01000",
        "Location": "Kampung Sena Sematang",
        "Post_Office": "Kangar",
        "State": "Perlis"
    },
    {
        "Postcode": "01000",
        "Location": "Kampung Sentang",
        "Post_Office": "Kangar",
        "State": "Perlis"
    },
    {
        "Postcode": "01000",
        "Location": "Kampung Sentua",
        "Post_Office": "Kangar",
        "State": "Perlis"
    },
    {
        "Postcode": "01000",
        "Location": "Kampung Seriab",
        "Post_Office": "Kangar",
        "State": "Perlis"
    },
    {
        "Postcode": "01000",
        "Location": "Kampung Sungai Bakong",
        "Post_Office": "Kangar",
        "State": "Perlis"
    },
    {
        "Postcode": "01000",
        "Location": "Kampung Sungai Santan",
        "Post_Office": "Kangar",
        "State": "Perlis"
    },
    {
        "Postcode": "01000",
        "Location": "Kampung Sungai Siran",
        "Post_Office": "Kangar",
        "State": "Perlis"
    },
    {
        "Postcode": "01000",
        "Location": "Kampung Surau",
        "Post_Office": "Kangar",
        "State": "Perlis"
    },
    {
        "Postcode": "01000",
        "Location": "Kampung Syed Umar",
        "Post_Office": "Kangar",
        "State": "Perlis"
    },
    {
        "Postcode": "01000",
        "Location": "Kampung Tanjung",
        "Post_Office": "Kangar",
        "State": "Perlis"
    },
    {
        "Postcode": "01000",
        "Location": "Kampung Tanjung Buluh",
        "Post_Office": "Kangar",
        "State": "Perlis"
    },
    {
        "Postcode": "01000",
        "Location": "Kampung Tanjung Gorah",
        "Post_Office": "Kangar",
        "State": "Perlis"
    },
    {
        "Postcode": "01000",
        "Location": "Kampung Tanjung Sila",
        "Post_Office": "Kangar",
        "State": "Perlis"
    },
    {
        "Postcode": "01000",
        "Location": "Kampung Tebing Tinggi",
        "Post_Office": "Kangar",
        "State": "Perlis"
    },
    {
        "Postcode": "01000",
        "Location": "Kampung Telaga Idi",
        "Post_Office": "Kangar",
        "State": "Perlis"
    },
    {
        "Postcode": "01000",
        "Location": "Kampung Telaga Nyiur Manis",
        "Post_Office": "Kangar",
        "State": "Perlis"
    },
    {
        "Postcode": "01000",
        "Location": "Kampung Telok Epa",
        "Post_Office": "Kangar",
        "State": "Perlis"
    },
    {
        "Postcode": "01000",
        "Location": "Kampung Telok Gelam",
        "Post_Office": "Kangar",
        "State": "Perlis"
    },
    {
        "Postcode": "01000",
        "Location": "Kampung Telok Jambu",
        "Post_Office": "Kangar",
        "State": "Perlis"
    },
    {
        "Postcode": "01000",
        "Location": "Kampung Telok Kacang",
        "Post_Office": "Kangar",
        "State": "Perlis"
    },
    {
        "Postcode": "01000",
        "Location": "Kampung Telok Tui",
        "Post_Office": "Kangar",
        "State": "Perlis"
    },
    {
        "Postcode": "01000",
        "Location": "Kampung Temak",
        "Post_Office": "Kangar",
        "State": "Perlis"
    },
    {
        "Postcode": "01000",
        "Location": "Kampung Tengah Abi",
        "Post_Office": "Kangar",
        "State": "Perlis"
    },
    {
        "Postcode": "01000",
        "Location": "Kampung Titi Teras",
        "Post_Office": "Kangar",
        "State": "Perlis"
    },
    {
        "Postcode": "01000",
        "Location": "Kampung Titi Tok Bandar",
        "Post_Office": "Kangar",
        "State": "Perlis"
    },
    {
        "Postcode": "01000",
        "Location": "Kampung Tok Dewa",
        "Post_Office": "Kangar",
        "State": "Perlis"
    },
    {
        "Postcode": "01000",
        "Location": "Kampung Tok Gong",
        "Post_Office": "Kangar",
        "State": "Perlis"
    },
    {
        "Postcode": "01000",
        "Location": "Kampung Tok Jawa",
        "Post_Office": "Kangar",
        "State": "Perlis"
    },
    {
        "Postcode": "01000",
        "Location": "Kampung Tok Jepun",
        "Post_Office": "Kangar",
        "State": "Perlis"
    },
    {
        "Postcode": "01000",
        "Location": "Kampung Tok Kandang",
        "Post_Office": "Kangar",
        "State": "Perlis"
    },
    {
        "Postcode": "01000",
        "Location": "Kampung Tok Kembong",
        "Post_Office": "Kangar",
        "State": "Perlis"
    },
    {
        "Postcode": "01000",
        "Location": "Kampung Tok Larak",
        "Post_Office": "Kangar",
        "State": "Perlis"
    },
    {
        "Postcode": "01000",
        "Location": "Kampung Tok Peduka",
        "Post_Office": "Kangar",
        "State": "Perlis"
    },
    {
        "Postcode": "01000",
        "Location": "Kampung Tok Pong",
        "Post_Office": "Kangar",
        "State": "Perlis"
    },
    {
        "Postcode": "01000",
        "Location": "Kampung Tok Sumbing",
        "Post_Office": "Kangar",
        "State": "Perlis"
    },
    {
        "Postcode": "01000",
        "Location": "Kampung Ujung Bukit",
        "Post_Office": "Kangar",
        "State": "Perlis"
    },
    {
        "Postcode": "01000",
        "Location": "Kampung Utan Aji",
        "Post_Office": "Kangar",
        "State": "Perlis"
    },
    {
        "Postcode": "01000",
        "Location": "Kampung Utan Temak",
        "Post_Office": "Kangar",
        "State": "Perlis"
    },
    {
        "Postcode": "01000",
        "Location": "Kampung Wang Belimbing",
        "Post_Office": "Kangar",
        "State": "Perlis"
    },
    {
        "Postcode": "01000",
        "Location": "Kampung Wang Besar",
        "Post_Office": "Kangar",
        "State": "Perlis"
    },
    {
        "Postcode": "01000",
        "Location": "Kampung Wang Ulu",
        "Post_Office": "Kangar",
        "State": "Perlis"
    },
    {
        "Postcode": "01000",
        "Location": "Kangar",
        "Post_Office": "Kangar",
        "State": "Perlis"
    },
    {
        "Postcode": "01000",
        "Location": "Kubang Arang",
        "Post_Office": "Kangar",
        "State": "Perlis"
    },
    {
        "Postcode": "01000",
        "Location": "Lorong Haji Seman",
        "Post_Office": "Kangar",
        "State": "Perlis"
    },
    {
        "Postcode": "01000",
        "Location": "Lorong Kampung Sena",
        "Post_Office": "Kangar",
        "State": "Perlis"
    },
    {
        "Postcode": "01000",
        "Location": "Lorong Nisam",
        "Post_Office": "Kangar",
        "State": "Perlis"
    },
    {
        "Postcode": "01000",
        "Location": "Lorong Sekolah",
        "Post_Office": "Kangar",
        "State": "Perlis"
    },
    {
        "Postcode": "01000",
        "Location": "Lukuk Gajah",
        "Post_Office": "Kangar",
        "State": "Perlis"
    },
    {
        "Postcode": "01000",
        "Location": "Mengkuang Layar",
        "Post_Office": "Kangar",
        "State": "Perlis"
    },
    {
        "Postcode": "01000",
        "Location": "Padang Bohor",
        "Post_Office": "Kangar",
        "State": "Perlis"
    },
    {
        "Postcode": "01000",
        "Location": "Pengkalan Asam",
        "Post_Office": "Kangar",
        "State": "Perlis"
    },
    {
        "Postcode": "01000",
        "Location": "Perumahan Awam Bohor Lateh",
        "Post_Office": "Kangar",
        "State": "Perlis"
    },
    {
        "Postcode": "01000",
        "Location": "Perumahan Awam Santan",
        "Post_Office": "Kangar",
        "State": "Perlis"
    },
    {
        "Postcode": "01000",
        "Location": "Repoh",
        "Post_Office": "Kangar",
        "State": "Perlis"
    },
    {
        "Postcode": "01000",
        "Location": "Sena Rendang",
        "Post_Office": "Kangar",
        "State": "Perlis"
    },
    {
        "Postcode": "01000",
        "Location": "Taman Abu Bakar Munir",
        "Post_Office": "Kangar",
        "State": "Perlis"
    },
    {
        "Postcode": "01000",
        "Location": "Taman Aman",
        "Post_Office": "Kangar",
        "State": "Perlis"
    },
    {
        "Postcode": "01000",
        "Location": "Taman Bakau Emas",
        "Post_Office": "Kangar",
        "State": "Perlis"
    },
    {
        "Postcode": "01000",
        "Location": "Taman Behor Indah",
        "Post_Office": "Kangar",
        "State": "Perlis"
    },
    {
        "Postcode": "01000",
        "Location": "Taman Bintong Maju",
        "Post_Office": "Kangar",
        "State": "Perlis"
    },
    {
        "Postcode": "01000",
        "Location": "Taman Bintong Setia",
        "Post_Office": "Kangar",
        "State": "Perlis"
    },
    {
        "Postcode": "01000",
        "Location": "Taman Bintong Utama",
        "Post_Office": "Kangar",
        "State": "Perlis"
    },
    {
        "Postcode": "01000",
        "Location": "Taman Bukit Kaya",
        "Post_Office": "Kangar",
        "State": "Perlis"
    },
    {
        "Postcode": "01000",
        "Location": "Taman Bukit Kayangan",
        "Post_Office": "Kangar",
        "State": "Perlis"
    },
    {
        "Postcode": "01000",
        "Location": "Taman Bumita",
        "Post_Office": "Kangar",
        "State": "Perlis"
    },
    {
        "Postcode": "01000",
        "Location": "Taman Bunga Kemboja Rpa",
        "Post_Office": "Kangar",
        "State": "Perlis"
    },
    {
        "Postcode": "01000",
        "Location": "Taman Bunga Raya",
        "Post_Office": "Kangar",
        "State": "Perlis"
    },
    {
        "Postcode": "01000",
        "Location": "Taman Cahaya",
        "Post_Office": "Kangar",
        "State": "Perlis"
    },
    {
        "Postcode": "01000",
        "Location": "Taman Cergas",
        "Post_Office": "Kangar",
        "State": "Perlis"
    },
    {
        "Postcode": "01000",
        "Location": "Taman Ceria",
        "Post_Office": "Kangar",
        "State": "Perlis"
    },
    {
        "Postcode": "01000",
        "Location": "Taman Choo Kee",
        "Post_Office": "Kangar",
        "State": "Perlis"
    },
    {
        "Postcode": "01000",
        "Location": "Taman Datuk Jaafar Hassan",
        "Post_Office": "Kangar",
        "State": "Perlis"
    },
    {
        "Postcode": "01000",
        "Location": "Taman Datuk Setia",
        "Post_Office": "Kangar",
        "State": "Perlis"
    },
    {
        "Postcode": "01000",
        "Location": "Taman Datuk Wan Ahmad",
        "Post_Office": "Kangar",
        "State": "Perlis"
    },
    {
        "Postcode": "01000",
        "Location": "Taman Desa Bintong",
        "Post_Office": "Kangar",
        "State": "Perlis"
    },
    {
        "Postcode": "01000",
        "Location": "Taman Desa Jarak",
        "Post_Office": "Kangar",
        "State": "Perlis"
    },
    {
        "Postcode": "01000",
        "Location": "Taman Desa Katong",
        "Post_Office": "Kangar",
        "State": "Perlis"
    },
    {
        "Postcode": "01000",
        "Location": "Taman Desa Kayangan",
        "Post_Office": "Kangar",
        "State": "Perlis"
    },
    {
        "Postcode": "01000",
        "Location": "Taman Desa Pulai",
        "Post_Office": "Kangar",
        "State": "Perlis"
    },
    {
        "Postcode": "01000",
        "Location": "Taman Desa Putra",
        "Post_Office": "Kangar",
        "State": "Perlis"
    },
    {
        "Postcode": "01000",
        "Location": "Taman Desa Sentua",
        "Post_Office": "Kangar",
        "State": "Perlis"
    },
    {
        "Postcode": "01000",
        "Location": "Taman Fauziah",
        "Post_Office": "Kangar",
        "State": "Perlis"
    },
    {
        "Postcode": "01000",
        "Location": "Taman Firdaus",
        "Post_Office": "Kangar",
        "State": "Perlis"
    },
    {
        "Postcode": "01000",
        "Location": "Taman Gasing",
        "Post_Office": "Kangar",
        "State": "Perlis"
    },
    {
        "Postcode": "01000",
        "Location": "Taman Gembira",
        "Post_Office": "Kangar",
        "State": "Perlis"
    },
    {
        "Postcode": "01000",
        "Location": "Taman Guru",
        "Post_Office": "Kangar",
        "State": "Perlis"
    },
    {
        "Postcode": "01000",
        "Location": "Taman Guru Jaya",
        "Post_Office": "Kangar",
        "State": "Perlis"
    },
    {
        "Postcode": "01000",
        "Location": "Taman Hijrah",
        "Post_Office": "Kangar",
        "State": "Perlis"
    },
    {
        "Postcode": "01000",
        "Location": "Taman Idaman",
        "Post_Office": "Kangar",
        "State": "Perlis"
    },
    {
        "Postcode": "01000",
        "Location": "Taman Indera",
        "Post_Office": "Kangar",
        "State": "Perlis"
    },
    {
        "Postcode": "01000",
        "Location": "Taman Intan",
        "Post_Office": "Kangar",
        "State": "Perlis"
    },
    {
        "Postcode": "01000",
        "Location": "Taman Ira",
        "Post_Office": "Kangar",
        "State": "Perlis"
    },
    {
        "Postcode": "01000",
        "Location": "Taman Jali",
        "Post_Office": "Kangar",
        "State": "Perlis"
    },
    {
        "Postcode": "01000",
        "Location": "Taman Jarak",
        "Post_Office": "Kangar",
        "State": "Perlis"
    },
    {
        "Postcode": "01000",
        "Location": "Taman Jawi Matang",
        "Post_Office": "Kangar",
        "State": "Perlis"
    },
    {
        "Postcode": "01000",
        "Location": "Taman Jaya ",
        "Post_Office": "Kangar",
        "State": "Perlis"
    },
    {
        "Postcode": "01000",
        "Location": "Taman Jaya Diri",
        "Post_Office": "Kangar",
        "State": "Perlis"
    },
    {
        "Postcode": "01000",
        "Location": "Taman Jejawi",
        "Post_Office": "Kangar",
        "State": "Perlis"
    },
    {
        "Postcode": "01000",
        "Location": "Taman Jelati",
        "Post_Office": "Kangar",
        "State": "Perlis"
    },
    {
        "Postcode": "01000",
        "Location": "Taman Kangar",
        "Post_Office": "Kangar",
        "State": "Perlis"
    },
    {
        "Postcode": "01000",
        "Location": "Taman Kastam ",
        "Post_Office": "Kangar",
        "State": "Perlis"
    },
    {
        "Postcode": "01000",
        "Location": "Taman Kayangan Indah",
        "Post_Office": "Kangar",
        "State": "Perlis"
    },
    {
        "Postcode": "01000",
        "Location": "Taman Kechor Indah",
        "Post_Office": "Kangar",
        "State": "Perlis"
    },
    {
        "Postcode": "01000",
        "Location": "Taman Kechor Jaya",
        "Post_Office": "Kangar",
        "State": "Perlis"
    },
    {
        "Postcode": "01000",
        "Location": "Taman Kecor Indah",
        "Post_Office": "Kangar",
        "State": "Perlis"
    },
    {
        "Postcode": "01000",
        "Location": "Taman Kemajuan",
        "Post_Office": "Kangar",
        "State": "Perlis"
    },
    {
        "Postcode": "01000",
        "Location": "Taman Kenanga",
        "Post_Office": "Kangar",
        "State": "Perlis"
    },
    {
        "Postcode": "01000",
        "Location": "Taman Koperasi",
        "Post_Office": "Kangar",
        "State": "Perlis"
    },
    {
        "Postcode": "01000",
        "Location": "Taman Lewata",
        "Post_Office": "Kangar",
        "State": "Perlis"
    },
    {
        "Postcode": "01000",
        "Location": "Taman Lima Naleh",
        "Post_Office": "Kangar",
        "State": "Perlis"
    },
    {
        "Postcode": "01000",
        "Location": "Taman Mada Sepakat",
        "Post_Office": "Kangar",
        "State": "Perlis"
    },
    {
        "Postcode": "01000",
        "Location": "Taman Mas Muda",
        "Post_Office": "Kangar",
        "State": "Perlis"
    },
    {
        "Postcode": "01000",
        "Location": "Taman Mas Putra",
        "Post_Office": "Kangar",
        "State": "Perlis"
    },
    {
        "Postcode": "01000",
        "Location": "Taman Mas Ria",
        "Post_Office": "Kangar",
        "State": "Perlis"
    },
    {
        "Postcode": "01000",
        "Location": "Taman Medan Sepakat",
        "Post_Office": "Kangar",
        "State": "Perlis"
    },
    {
        "Postcode": "01000",
        "Location": "Taman Merpati",
        "Post_Office": "Kangar",
        "State": "Perlis"
    },
    {
        "Postcode": "01000",
        "Location": "Taman Mesra ",
        "Post_Office": "Kangar",
        "State": "Perlis"
    },
    {
        "Postcode": "01000",
        "Location": "Taman Mesra Jejawi",
        "Post_Office": "Kangar",
        "State": "Perlis"
    },
    {
        "Postcode": "01000",
        "Location": "Taman Mewah",
        "Post_Office": "Kangar",
        "State": "Perlis"
    },
    {
        "Postcode": "01000",
        "Location": "Taman Muda Sepakat",
        "Post_Office": "Kangar",
        "State": "Perlis"
    },
    {
        "Postcode": "01000",
        "Location": "Taman Murni",
        "Post_Office": "Kangar",
        "State": "Perlis"
    },
    {
        "Postcode": "01000",
        "Location": "Taman Mutiara",
        "Post_Office": "Kangar",
        "State": "Perlis"
    },
    {
        "Postcode": "01000",
        "Location": "Taman Norma",
        "Post_Office": "Kangar",
        "State": "Perlis"
    },
    {
        "Postcode": "01000",
        "Location": "Taman Peduka",
        "Post_Office": "Kangar",
        "State": "Perlis"
    },
    {
        "Postcode": "01000",
        "Location": "Taman Pekeliling",
        "Post_Office": "Kangar",
        "State": "Perlis"
    },
    {
        "Postcode": "01000",
        "Location": "Taman Pengkalan Assam",
        "Post_Office": "Kangar",
        "State": "Perlis"
    },
    {
        "Postcode": "01000",
        "Location": "Taman Pengkalan Indah",
        "Post_Office": "Kangar",
        "State": "Perlis"
    },
    {
        "Postcode": "01000",
        "Location": "Taman Perlis",
        "Post_Office": "Kangar",
        "State": "Perlis"
    },
    {
        "Postcode": "01000",
        "Location": "Taman Pertama",
        "Post_Office": "Kangar",
        "State": "Perlis"
    },
    {
        "Postcode": "01000",
        "Location": "Taman Pertiwi Indah",
        "Post_Office": "Kangar",
        "State": "Perlis"
    },
    {
        "Postcode": "01000",
        "Location": "Taman Pertiwi Seriab",
        "Post_Office": "Kangar",
        "State": "Perlis"
    },
    {
        "Postcode": "01000",
        "Location": "Taman Putera",
        "Post_Office": "Kangar",
        "State": "Perlis"
    },
    {
        "Postcode": "01000",
        "Location": "Taman Putra Putri",
        "Post_Office": "Kangar",
        "State": "Perlis"
    },
    {
        "Postcode": "01000",
        "Location": "Taman Rasa Sayang",
        "Post_Office": "Kangar",
        "State": "Perlis"
    },
    {
        "Postcode": "01000",
        "Location": "Taman Repoh",
        "Post_Office": "Kangar",
        "State": "Perlis"
    },
    {
        "Postcode": "01000",
        "Location": "Taman Repoh Indah",
        "Post_Office": "Kangar",
        "State": "Perlis"
    },
    {
        "Postcode": "01000",
        "Location": "Taman Repoh Jaya",
        "Post_Office": "Kangar",
        "State": "Perlis"
    },
    {
        "Postcode": "01000",
        "Location": "Taman Sena",
        "Post_Office": "Kangar",
        "State": "Perlis"
    },
    {
        "Postcode": "01000",
        "Location": "Taman Sena Indah",
        "Post_Office": "Kangar",
        "State": "Perlis"
    },
    {
        "Postcode": "01000",
        "Location": "Taman Sena Permai",
        "Post_Office": "Kangar",
        "State": "Perlis"
    },
    {
        "Postcode": "01000",
        "Location": "Taman Sentua",
        "Post_Office": "Kangar",
        "State": "Perlis"
    },
    {
        "Postcode": "01000",
        "Location": "Taman Sepadu",
        "Post_Office": "Kangar",
        "State": "Perlis"
    },
    {
        "Postcode": "01000",
        "Location": "Taman Sepadu 1",
        "Post_Office": "Kangar",
        "State": "Perlis"
    },
    {
        "Postcode": "01000",
        "Location": "Taman Seri Bahagia",
        "Post_Office": "Kangar",
        "State": "Perlis"
    },
    {
        "Postcode": "01000",
        "Location": "Taman Seri Embun",
        "Post_Office": "Kangar",
        "State": "Perlis"
    },
    {
        "Postcode": "01000",
        "Location": "Taman Seri Intan",
        "Post_Office": "Kangar",
        "State": "Perlis"
    },
    {
        "Postcode": "01000",
        "Location": "Taman Seri Manis",
        "Post_Office": "Kangar",
        "State": "Perlis"
    },
    {
        "Postcode": "01000",
        "Location": "Taman Seri Medan",
        "Post_Office": "Kangar",
        "State": "Perlis"
    },
    {
        "Postcode": "01000",
        "Location": "Taman Seri Murni",
        "Post_Office": "Kangar",
        "State": "Perlis"
    },
    {
        "Postcode": "01000",
        "Location": "Taman Seri Pilihan",
        "Post_Office": "Kangar",
        "State": "Perlis"
    },
    {
        "Postcode": "01000",
        "Location": "Taman Seri Puchong",
        "Post_Office": "Kangar",
        "State": "Perlis"
    },
    {
        "Postcode": "01000",
        "Location": "Taman Seri Pulai 4",
        "Post_Office": "Kangar",
        "State": "Perlis"
    },
    {
        "Postcode": "01000",
        "Location": "Taman Seri Tanjung",
        "Post_Office": "Kangar",
        "State": "Perlis"
    },
    {
        "Postcode": "01000",
        "Location": "Taman Seriab",
        "Post_Office": "Kangar",
        "State": "Perlis"
    },
    {
        "Postcode": "01000",
        "Location": "Taman Setia Utama",
        "Post_Office": "Kangar",
        "State": "Perlis"
    },
    {
        "Postcode": "01000",
        "Location": "Taman Simpang Tiga",
        "Post_Office": "Kangar",
        "State": "Perlis"
    },
    {
        "Postcode": "01000",
        "Location": "Taman Sri Guar Syed Alwi",
        "Post_Office": "Kangar",
        "State": "Perlis"
    },
    {
        "Postcode": "01000",
        "Location": "Taman Suriani",
        "Post_Office": "Kangar",
        "State": "Perlis"
    },
    {
        "Postcode": "01000",
        "Location": "Taman Syed Alwi",
        "Post_Office": "Kangar",
        "State": "Perlis"
    },
    {
        "Postcode": "01000",
        "Location": "Taman Ten",
        "Post_Office": "Kangar",
        "State": "Perlis"
    },
    {
        "Postcode": "01000",
        "Location": "Taman Teratai",
        "Post_Office": "Kangar",
        "State": "Perlis"
    },
    {
        "Postcode": "01000",
        "Location": "Taman Tok Peduka",
        "Post_Office": "Kangar",
        "State": "Perlis"
    },
    {
        "Postcode": "01000",
        "Location": "Taman Utama",
        "Post_Office": "Kangar",
        "State": "Perlis"
    },
    {
        "Postcode": "01000",
        "Location": "Taman Utama Indah",
        "Post_Office": "Kangar",
        "State": "Perlis"
    },
    {
        "Postcode": "01000",
        "Location": "Taman Utara",
        "Post_Office": "Kangar",
        "State": "Perlis"
    },
    {
        "Postcode": "01000",
        "Location": "Taman Wira",
        "Post_Office": "Kangar",
        "State": "Perlis"
    },
    {
        "Postcode": "01000",
        "Location": "Titi Chai",
        "Post_Office": "Kangar",
        "State": "Perlis"
    },
    {
        "Postcode": "01000",
        "Location": "Titi Midin",
        "Post_Office": "Kangar",
        "State": "Perlis"
    },
    {
        "Postcode": "01000",
        "Location": "Tok Peduka",
        "Post_Office": "Kangar",
        "State": "Perlis"
    },
    {
        "Postcode": "01000",
        "Location": "Ujung Batu",
        "Post_Office": "Kangar",
        "State": "Perlis"
    },
    {
        "Postcode": "01000",
        "Location": "Jalan Pegawai",
        "Post_Office": "Kangar",
        "State": "Perlis"
    },
    {
        "Postcode": "01000",
        "Location": "Kampung Alor Pulai",
        "Post_Office": "Kangar",
        "State": "Perlis"
    },
    {
        "Postcode": "01000",
        "Location": "Kampung Baru",
        "Post_Office": "Kangar",
        "State": "Perlis"
    },
    {
        "Postcode": "01000",
        "Location": "Kampung Sungai Baru",
        "Post_Office": "Kangar",
        "State": "Perlis"
    }
]
