[
    {
        "Postcode": "73000",
        "Location": "Kampung Sri Repah",
        "Post_Office": "Tampin",
        "State": "Negeri Sembilan"
    },
    {
        "Postcode": "73000",
        "Location": "Taman Sri Indah",
        "Post_Office": "Tampin",
        "State": "Negeri Sembilan"
    },
    {
        "Postcode": "73000",
        "Location": "Kampung Keru",
        "Post_Office": "Tampin",
        "State": "Negeri Sembilan"
    },
    {
        "Postcode": "73000",
        "Location": "Taman Desa Permai",
        "Post_Office": "Tampin",
        "State": "Negeri Sembilan"
    },
    {
        "Postcode": "73000",
        "Location": "Taman Mutiara",
        "Post_Office": "Tampin",
        "State": "Negeri Sembilan"
    },
    {
        "Postcode": "73000",
        "Location": "Taman Rasa Sayang",
        "Post_Office": "Tampin",
        "State": "Negeri Sembilan"
    },
    {
        "Postcode": "73000",
        "Location": "Kampung Arongan",
        "Post_Office": "Tampin",
        "State": "Negeri Sembilan"
    },
    {
        "Postcode": "73000",
        "Location": "Kampung Baru Tampin",
        "Post_Office": "Tampin",
        "State": "Negeri Sembilan"
    },
    {
        "Postcode": "73000",
        "Location": "Kampung Batu Belang",
        "Post_Office": "Tampin",
        "State": "Negeri Sembilan"
    },
    {
        "Postcode": "73000",
        "Location": "Kampung Bukit Gebang",
        "Post_Office": "Tampin",
        "State": "Negeri Sembilan"
    },
    {
        "Postcode": "73000",
        "Location": "Kampung Bukit Merchat",
        "Post_Office": "Tampin",
        "State": "Negeri Sembilan"
    },
    {
        "Postcode": "73000",
        "Location": "Kampung Chenaga",
        "Post_Office": "Tampin",
        "State": "Negeri Sembilan"
    },
    {
        "Postcode": "73000",
        "Location": "Kampung Chenderam",
        "Post_Office": "Tampin",
        "State": "Negeri Sembilan"
    },
    {
        "Postcode": "73000",
        "Location": "Kampung Dusun",
        "Post_Office": "Tampin",
        "State": "Negeri Sembilan"
    },
    {
        "Postcode": "73000",
        "Location": "Kampung Gadek",
        "Post_Office": "Tampin",
        "State": "Negeri Sembilan"
    },
    {
        "Postcode": "73000",
        "Location": "Kampung Kebun Kelapa",
        "Post_Office": "Tampin",
        "State": "Negeri Sembilan"
    },
    {
        "Postcode": "73000",
        "Location": "Kampung Keru Alai",
        "Post_Office": "Tampin",
        "State": "Negeri Sembilan"
    },
    {
        "Postcode": "73000",
        "Location": "Kampung Kuala Ina",
        "Post_Office": "Tampin",
        "State": "Negeri Sembilan"
    },
    {
        "Postcode": "73000",
        "Location": "Kampung Pondoi",
        "Post_Office": "Tampin",
        "State": "Negeri Sembilan"
    },
    {
        "Postcode": "73000",
        "Location": "Kampung Repah",
        "Post_Office": "Tampin",
        "State": "Negeri Sembilan"
    },
    {
        "Postcode": "73000",
        "Location": "Kampung Tampin Pisang",
        "Post_Office": "Tampin",
        "State": "Negeri Sembilan"
    },
    {
        "Postcode": "73000",
        "Location": "Kampung Ulu Chenderam",
        "Post_Office": "Tampin",
        "State": "Negeri Sembilan"
    },
    {
        "Postcode": "73000",
        "Location": "Ladang Gadek",
        "Post_Office": "Tampin",
        "State": "Negeri Sembilan"
    },
    {
        "Postcode": "73000",
        "Location": "Ladang Repah",
        "Post_Office": "Tampin",
        "State": "Negeri Sembilan"
    },
    {
        "Postcode": "73000",
        "Location": "Rumah Rakyat Kuala Ina",
        "Post_Office": "Tampin",
        "State": "Negeri Sembilan"
    },
    {
        "Postcode": "73000",
        "Location": "Rumah Rakyat Repah",
        "Post_Office": "Tampin",
        "State": "Negeri Sembilan"
    },
    {
        "Postcode": "73000",
        "Location": "Taman Bahgia",
        "Post_Office": "Tampin",
        "State": "Negeri Sembilan"
    },
    {
        "Postcode": "73000",
        "Location": "Taman Batu Belang",
        "Post_Office": "Tampin",
        "State": "Negeri Sembilan"
    },
    {
        "Postcode": "73000",
        "Location": "Taman Bukit Ina",
        "Post_Office": "Tampin",
        "State": "Negeri Sembilan"
    },
    {
        "Postcode": "73000",
        "Location": "Taman Bukit Tampin",
        "Post_Office": "Tampin",
        "State": "Negeri Sembilan"
    },
    {
        "Postcode": "73000",
        "Location": "Taman Clonlee",
        "Post_Office": "Tampin",
        "State": "Negeri Sembilan"
    },
    {
        "Postcode": "73000",
        "Location": "Taman Clonlee 2",
        "Post_Office": "Tampin",
        "State": "Negeri Sembilan"
    },
    {
        "Postcode": "73000",
        "Location": "Taman Crescent",
        "Post_Office": "Tampin",
        "State": "Negeri Sembilan"
    },
    {
        "Postcode": "73000",
        "Location": "Taman Desa Permai Ulu Yoh",
        "Post_Office": "Tampin",
        "State": "Negeri Sembilan"
    },
    {
        "Postcode": "73000",
        "Location": "Taman Gunong Mas",
        "Post_Office": "Tampin",
        "State": "Negeri Sembilan"
    },
    {
        "Postcode": "73000",
        "Location": "Taman Hock Lee",
        "Post_Office": "Tampin",
        "State": "Negeri Sembilan"
    },
    {
        "Postcode": "73000",
        "Location": "Taman Repah Baru",
        "Post_Office": "Tampin",
        "State": "Negeri Sembilan"
    },
    {
        "Postcode": "73000",
        "Location": "Taman Sebang Baru",
        "Post_Office": "Tampin",
        "State": "Negeri Sembilan"
    },
    {
        "Postcode": "73000",
        "Location": "Taman Seri Berlian",
        "Post_Office": "Tampin",
        "State": "Negeri Sembilan"
    },
    {
        "Postcode": "73000",
        "Location": "Taman Seri Tampin",
        "Post_Office": "Tampin",
        "State": "Negeri Sembilan"
    },
    {
        "Postcode": "73000",
        "Location": "Taman Sitiawan",
        "Post_Office": "Tampin",
        "State": "Negeri Sembilan"
    },
    {
        "Postcode": "73000",
        "Location": "Taman Tampin",
        "Post_Office": "Tampin",
        "State": "Negeri Sembilan"
    },
    {
        "Postcode": "73000",
        "Location": "Taman Woon",
        "Post_Office": "Tampin",
        "State": "Negeri Sembilan"
    },
    {
        "Postcode": "73000",
        "Location": "Taman Satria 2",
        "Post_Office": "Tampin",
        "State": "Negeri Sembilan"
    },
    {
        "Postcode": "73000",
        "Location": "Kampung Anak Air Durian Daun",
        "Post_Office": "Tampin",
        "State": "Negeri Sembilan"
    },
    {
        "Postcode": "73000",
        "Location": "Kampung Tampin Tengah",
        "Post_Office": "Tampin",
        "State": "Negeri Sembilan"
    },
    {
        "Postcode": "73000",
        "Location": "Taman Mahsuri ",
        "Post_Office": "Tampin",
        "State": "Negeri Sembilan"
    },
    {
        "Postcode": "73000",
        "Location": "Taman Tampin Jaya",
        "Post_Office": "Tampin",
        "State": "Negeri Sembilan"
    },
    {
        "Postcode": "73000",
        "Location": "Dataran Satria",
        "Post_Office": "Tampin",
        "State": "Negeri Sembilan"
    },
    {
        "Postcode": "73000",
        "Location": "Pusat Komersial Delima Indah",
        "Post_Office": "Tampin",
        "State": "Negeri Sembilan"
    },
    {
        "Postcode": "73000",
        "Location": "Dataran Satria 1",
        "Post_Office": "Tampin",
        "State": "Negeri Sembilan"
    },
    {
        "Postcode": "73000",
        "Location": "Taman Indah",
        "Post_Office": "Tampin",
        "State": "Negeri Sembilan"
    }
]
