[
    {
        "Postcode": "73100",
        "Location": "Kampung Cabang Dua",
        "Post_Office": "Johol",
        "State": "Negeri Sembilan"
    },
    {
        "Postcode": "73100",
        "Location": "Kampung Gemencheh Hulu",
        "Post_Office": "Johol",
        "State": "Negeri Sembilan"
    },
    {
        "Postcode": "73100",
        "Location": "Kampung Paya",
        "Post_Office": "Johol",
        "State": "Negeri Sembilan"
    },
    {
        "Postcode": "73100",
        "Location": "Ayer Puteh (Batu 13)",
        "Post_Office": "Johol",
        "State": "Negeri Sembilan"
    },
    {
        "Postcode": "73100",
        "Location": "Kampung Anak Ayer Rambutan",
        "Post_Office": "Johol",
        "State": "Negeri Sembilan"
    },
    {
        "Postcode": "73100",
        "Location": "Kampung Ayer Gapis",
        "Post_Office": "Johol",
        "State": "Negeri Sembilan"
    },
    {
        "Postcode": "73100",
        "Location": "Kampung Ayer Kuning Kepis",
        "Post_Office": "Johol",
        "State": "Negeri Sembilan"
    },
    {
        "Postcode": "73100",
        "Location": "Kampung Balai Panjang",
        "Post_Office": "Johol",
        "State": "Negeri Sembilan"
    },
    {
        "Postcode": "73100",
        "Location": "Kampung Balik Bukit",
        "Post_Office": "Johol",
        "State": "Negeri Sembilan"
    },
    {
        "Postcode": "73100",
        "Location": "Kampung Batu 4 (Betong)",
        "Post_Office": "Johol",
        "State": "Negeri Sembilan"
    },
    {
        "Postcode": "73100",
        "Location": "Kampung Berambai",
        "Post_Office": "Johol",
        "State": "Negeri Sembilan"
    },
    {
        "Postcode": "73100",
        "Location": "Kampung Bukit Changgang",
        "Post_Office": "Johol",
        "State": "Negeri Sembilan"
    },
    {
        "Postcode": "73100",
        "Location": "Kampung Bukit Istana",
        "Post_Office": "Johol",
        "State": "Negeri Sembilan"
    },
    {
        "Postcode": "73100",
        "Location": "Kampung Charik",
        "Post_Office": "Johol",
        "State": "Negeri Sembilan"
    },
    {
        "Postcode": "73100",
        "Location": "Kampung Chegor",
        "Post_Office": "Johol",
        "State": "Negeri Sembilan"
    },
    {
        "Postcode": "73100",
        "Location": "Kampung Dangi",
        "Post_Office": "Johol",
        "State": "Negeri Sembilan"
    },
    {
        "Postcode": "73100",
        "Location": "Kampung Depan Sekolah Inas",
        "Post_Office": "Johol",
        "State": "Negeri Sembilan"
    },
    {
        "Postcode": "73100",
        "Location": "Kampung Desa Dangi",
        "Post_Office": "Johol",
        "State": "Negeri Sembilan"
    },
    {
        "Postcode": "73100",
        "Location": "Kampung Dingkir",
        "Post_Office": "Johol",
        "State": "Negeri Sembilan"
    },
    {
        "Postcode": "73100",
        "Location": "Kampung Dingkir Hulu",
        "Post_Office": "Johol",
        "State": "Negeri Sembilan"
    },
    {
        "Postcode": "73100",
        "Location": "Kampung Dusun Besar",
        "Post_Office": "Johol",
        "State": "Negeri Sembilan"
    },
    {
        "Postcode": "73100",
        "Location": "Kampung Eyor",
        "Post_Office": "Johol",
        "State": "Negeri Sembilan"
    },
    {
        "Postcode": "73100",
        "Location": "Kampung Gajan",
        "Post_Office": "Johol",
        "State": "Negeri Sembilan"
    },
    {
        "Postcode": "73100",
        "Location": "Kampung Gating",
        "Post_Office": "Johol",
        "State": "Negeri Sembilan"
    },
    {
        "Postcode": "73100",
        "Location": "Kampung Geduhum",
        "Post_Office": "Johol",
        "State": "Negeri Sembilan"
    },
    {
        "Postcode": "73100",
        "Location": "Kampung Inas Tengah",
        "Post_Office": "Johol",
        "State": "Negeri Sembilan"
    },
    {
        "Postcode": "73100",
        "Location": "Kampung Ipok",
        "Post_Office": "Johol",
        "State": "Negeri Sembilan"
    },
    {
        "Postcode": "73100",
        "Location": "Kampung Kabong",
        "Post_Office": "Johol",
        "State": "Negeri Sembilan"
    },
    {
        "Postcode": "73100",
        "Location": "Kampung Kabong Hulu",
        "Post_Office": "Johol",
        "State": "Negeri Sembilan"
    },
    {
        "Postcode": "73100",
        "Location": "Kampung Kelapi",
        "Post_Office": "Johol",
        "State": "Negeri Sembilan"
    },
    {
        "Postcode": "73100",
        "Location": "Kampung Kelomboi",
        "Post_Office": "Johol",
        "State": "Negeri Sembilan"
    },
    {
        "Postcode": "73100",
        "Location": "Kampung Kepis",
        "Post_Office": "Johol",
        "State": "Negeri Sembilan"
    },
    {
        "Postcode": "73100",
        "Location": "Kampung Kepis Baru",
        "Post_Office": "Johol",
        "State": "Negeri Sembilan"
    },
    {
        "Postcode": "73100",
        "Location": "Kampung Kepis Hilir",
        "Post_Office": "Johol",
        "State": "Negeri Sembilan"
    },
    {
        "Postcode": "73100",
        "Location": "Kampung Kepis Tengah",
        "Post_Office": "Johol",
        "State": "Negeri Sembilan"
    },
    {
        "Postcode": "73100",
        "Location": "Kampung Kuala Johol",
        "Post_Office": "Johol",
        "State": "Negeri Sembilan"
    },
    {
        "Postcode": "73100",
        "Location": "Kampung Kuala Nuri",
        "Post_Office": "Johol",
        "State": "Negeri Sembilan"
    },
    {
        "Postcode": "73100",
        "Location": "Kampung Kuala Tumang",
        "Post_Office": "Johol",
        "State": "Negeri Sembilan"
    },
    {
        "Postcode": "73100",
        "Location": "Kampung Lanjut Lumpuh",
        "Post_Office": "Johol",
        "State": "Negeri Sembilan"
    },
    {
        "Postcode": "73100",
        "Location": "Kampung Maha",
        "Post_Office": "Johol",
        "State": "Negeri Sembilan"
    },
    {
        "Postcode": "73100",
        "Location": "Kampung Malan",
        "Post_Office": "Johol",
        "State": "Negeri Sembilan"
    },
    {
        "Postcode": "73100",
        "Location": "Kampung Malok",
        "Post_Office": "Johol",
        "State": "Negeri Sembilan"
    },
    {
        "Postcode": "73100",
        "Location": "Kampung Masjid Batu",
        "Post_Office": "Johol",
        "State": "Negeri Sembilan"
    },
    {
        "Postcode": "73100",
        "Location": "Kampung Masjid Gating",
        "Post_Office": "Johol",
        "State": "Negeri Sembilan"
    },
    {
        "Postcode": "73100",
        "Location": "Kampung Masjid Tangkoh",
        "Post_Office": "Johol",
        "State": "Negeri Sembilan"
    },
    {
        "Postcode": "73100",
        "Location": "Kampung Masjid Tua",
        "Post_Office": "Johol",
        "State": "Negeri Sembilan"
    },
    {
        "Postcode": "73100",
        "Location": "Kampung Melekai",
        "Post_Office": "Johol",
        "State": "Negeri Sembilan"
    },
    {
        "Postcode": "73100",
        "Location": "Kampung Nerusa",
        "Post_Office": "Johol",
        "State": "Negeri Sembilan"
    },
    {
        "Postcode": "73100",
        "Location": "Kampung Padang Jual",
        "Post_Office": "Johol",
        "State": "Negeri Sembilan"
    },
    {
        "Postcode": "73100",
        "Location": "Kampung Pasit",
        "Post_Office": "Johol",
        "State": "Negeri Sembilan"
    },
    {
        "Postcode": "73100",
        "Location": "Kampung Putong",
        "Post_Office": "Johol",
        "State": "Negeri Sembilan"
    },
    {
        "Postcode": "73100",
        "Location": "Kampung Renggoh",
        "Post_Office": "Johol",
        "State": "Negeri Sembilan"
    },
    {
        "Postcode": "73100",
        "Location": "Kampung Seberang Jelai",
        "Post_Office": "Johol",
        "State": "Negeri Sembilan"
    },
    {
        "Postcode": "73100",
        "Location": "Kampung Seginyeh",
        "Post_Office": "Johol",
        "State": "Negeri Sembilan"
    },
    {
        "Postcode": "73100",
        "Location": "Kampung Selaru",
        "Post_Office": "Johol",
        "State": "Negeri Sembilan"
    },
    {
        "Postcode": "73100",
        "Location": "Kampung Senarak",
        "Post_Office": "Johol",
        "State": "Negeri Sembilan"
    },
    {
        "Postcode": "73100",
        "Location": "Kampung Senibai",
        "Post_Office": "Johol",
        "State": "Negeri Sembilan"
    },
    {
        "Postcode": "73100",
        "Location": "Kampung Serting Johol",
        "Post_Office": "Johol",
        "State": "Negeri Sembilan"
    },
    {
        "Postcode": "73100",
        "Location": "Kampung Sikota",
        "Post_Office": "Johol",
        "State": "Negeri Sembilan"
    },
    {
        "Postcode": "73100",
        "Location": "Kampung Simat",
        "Post_Office": "Johol",
        "State": "Negeri Sembilan"
    },
    {
        "Postcode": "73100",
        "Location": "Kampung Simpang",
        "Post_Office": "Johol",
        "State": "Negeri Sembilan"
    },
    {
        "Postcode": "73100",
        "Location": "Kampung Simpang Inas Lama",
        "Post_Office": "Johol",
        "State": "Negeri Sembilan"
    },
    {
        "Postcode": "73100",
        "Location": "Kampung Solok Ayer Kuning",
        "Post_Office": "Johol",
        "State": "Negeri Sembilan"
    },
    {
        "Postcode": "73100",
        "Location": "Kampung Solok Pisang",
        "Post_Office": "Johol",
        "State": "Negeri Sembilan"
    },
    {
        "Postcode": "73100",
        "Location": "Kampung Sungai Sala",
        "Post_Office": "Johol",
        "State": "Negeri Sembilan"
    },
    {
        "Postcode": "73100",
        "Location": "Kampung Tanah Baru",
        "Post_Office": "Johol",
        "State": "Negeri Sembilan"
    },
    {
        "Postcode": "73100",
        "Location": "Kampung Tanggai",
        "Post_Office": "Johol",
        "State": "Negeri Sembilan"
    },
    {
        "Postcode": "73100",
        "Location": "Kampung Tangkoh Hilir",
        "Post_Office": "Johol",
        "State": "Negeri Sembilan"
    },
    {
        "Postcode": "73100",
        "Location": "Kampung Tangkoh Hulu",
        "Post_Office": "Johol",
        "State": "Negeri Sembilan"
    },
    {
        "Postcode": "73100",
        "Location": "Kampung Tanjong Tengah",
        "Post_Office": "Johol",
        "State": "Negeri Sembilan"
    },
    {
        "Postcode": "73100",
        "Location": "Kampung Tering",
        "Post_Office": "Johol",
        "State": "Negeri Sembilan"
    },
    {
        "Postcode": "73100",
        "Location": "Kampung Tinggal",
        "Post_Office": "Johol",
        "State": "Negeri Sembilan"
    },
    {
        "Postcode": "73100",
        "Location": "Kampung Tulang Rimau",
        "Post_Office": "Johol",
        "State": "Negeri Sembilan"
    },
    {
        "Postcode": "73100",
        "Location": "Kampung Tumang",
        "Post_Office": "Johol",
        "State": "Negeri Sembilan"
    },
    {
        "Postcode": "73100",
        "Location": "Kampung Ulu Inas",
        "Post_Office": "Johol",
        "State": "Negeri Sembilan"
    },
    {
        "Postcode": "73100",
        "Location": "Kampung Ulu Nuri",
        "Post_Office": "Johol",
        "State": "Negeri Sembilan"
    },
    {
        "Postcode": "73100",
        "Location": "Kampung Ulu Punggor",
        "Post_Office": "Johol",
        "State": "Negeri Sembilan"
    },
    {
        "Postcode": "73100",
        "Location": "Kampung Ulu Tanggai",
        "Post_Office": "Johol",
        "State": "Negeri Sembilan"
    },
    {
        "Postcode": "73100",
        "Location": "Ladang Ban Onn",
        "Post_Office": "Johol",
        "State": "Negeri Sembilan"
    },
    {
        "Postcode": "73100",
        "Location": "Ladang Johol",
        "Post_Office": "Johol",
        "State": "Negeri Sembilan"
    },
    {
        "Postcode": "73100",
        "Location": "Ladang See Kee",
        "Post_Office": "Johol",
        "State": "Negeri Sembilan"
    },
    {
        "Postcode": "73100",
        "Location": "Ladang Sekota",
        "Post_Office": "Johol",
        "State": "Negeri Sembilan"
    },
    {
        "Postcode": "73100",
        "Location": "Ladang Tai Hin San",
        "Post_Office": "Johol",
        "State": "Negeri Sembilan"
    },
    {
        "Postcode": "73100",
        "Location": "Ladang United",
        "Post_Office": "Johol",
        "State": "Negeri Sembilan"
    },
    {
        "Postcode": "73100",
        "Location": "Ladang Yong Seng",
        "Post_Office": "Johol",
        "State": "Negeri Sembilan"
    },
    {
        "Postcode": "73100",
        "Location": "Pekan Johol",
        "Post_Office": "Johol",
        "State": "Negeri Sembilan"
    },
    {
        "Postcode": "73100",
        "Location": "Rumah Rakyat Dangi",
        "Post_Office": "Johol",
        "State": "Negeri Sembilan"
    },
    {
        "Postcode": "73100",
        "Location": "Rumah Rakyat Johol",
        "Post_Office": "Johol",
        "State": "Negeri Sembilan"
    },
    {
        "Postcode": "73100",
        "Location": "Rumah Rakyat Kuala Johol",
        "Post_Office": "Johol",
        "State": "Negeri Sembilan"
    },
    {
        "Postcode": "73100",
        "Location": "Rumah Rakyat Padang Jual",
        "Post_Office": "Johol",
        "State": "Negeri Sembilan"
    },
    {
        "Postcode": "73100",
        "Location": "Simpang Dangi",
        "Post_Office": "Johol",
        "State": "Negeri Sembilan"
    },
    {
        "Postcode": "73100",
        "Location": "Simpang Langkap",
        "Post_Office": "Johol",
        "State": "Negeri Sembilan"
    },
    {
        "Postcode": "73100",
        "Location": "Simpang Senibai",
        "Post_Office": "Johol",
        "State": "Negeri Sembilan"
    },
    {
        "Postcode": "73100",
        "Location": "Taman Air Mawang",
        "Post_Office": "Johol",
        "State": "Negeri Sembilan"
    },
    {
        "Postcode": "73100",
        "Location": "Taman Dangi",
        "Post_Office": "Johol",
        "State": "Negeri Sembilan"
    },
    {
        "Postcode": "73100",
        "Location": "Taman Johol",
        "Post_Office": "Johol",
        "State": "Negeri Sembilan"
    },
    {
        "Postcode": "73100",
        "Location": "Tok Kong Batu Tangga",
        "Post_Office": "Johol",
        "State": "Negeri Sembilan"
    },
    {
        "Postcode": "73100",
        "Location": "Kampung Air Pulasan",
        "Post_Office": "Johol",
        "State": "Negeri Sembilan"
    },
    {
        "Postcode": "73100",
        "Location": "Kampung Air Taling",
        "Post_Office": "Johol",
        "State": "Negeri Sembilan"
    },
    {
        "Postcode": "73100",
        "Location": "Kampung Air Kempas",
        "Post_Office": "Johol",
        "State": "Negeri Sembilan"
    },
    {
        "Postcode": "73100",
        "Location": "Kampung Air Puteh",
        "Post_Office": "Johol",
        "State": "Negeri Sembilan"
    },
    {
        "Postcode": "73100",
        "Location": "Kampung Air Rengas",
        "Post_Office": "Johol",
        "State": "Negeri Sembilan"
    },
    {
        "Postcode": "73100",
        "Location": "Kampung Kepis Ulu",
        "Post_Office": "Johol",
        "State": "Negeri Sembilan"
    },
    {
        "Postcode": "73100",
        "Location": "Kampung Air Mawang",
        "Post_Office": "Johol",
        "State": "Negeri Sembilan"
    },
    {
        "Postcode": "73100",
        "Location": "Rumah Rakyat Air Mawang",
        "Post_Office": "Johol",
        "State": "Negeri Sembilan"
    },
    {
        "Postcode": "73100",
        "Location": "Rumah Rakyat Pasit",
        "Post_Office": "Johol",
        "State": "Negeri Sembilan"
    },
    {
        "Postcode": "73100",
        "Location": "Kampung Sompo",
        "Post_Office": "Johol",
        "State": "Negeri Sembilan"
    }
]
