[
    {
        "Postcode": "73200",
        "Location": "Kampung Sri Asahan",
        "Post_Office": "Gemencheh",
        "State": "Negeri Sembilan"
    },
    {
        "Postcode": "73200",
        "Location": "Ladang Regent",
        "Post_Office": "Gemencheh",
        "State": "Negeri Sembilan"
    },
    {
        "Postcode": "73200",
        "Location": "Kampung Tengah",
        "Post_Office": "Gemencheh",
        "State": "Negeri Sembilan"
    },
    {
        "Postcode": "73200",
        "Location": "Taman Bunga Raya",
        "Post_Office": "Gemencheh",
        "State": "Negeri Sembilan"
    },
    {
        "Postcode": "73200",
        "Location": "Taman Sentosa",
        "Post_Office": "Gemencheh",
        "State": "Negeri Sembilan"
    },
    {
        "Postcode": "73200",
        "Location": "Taman Gembira",
        "Post_Office": "Gemencheh",
        "State": "Negeri Sembilan"
    },
    {
        "Postcode": "73200",
        "Location": "Taman Melor",
        "Post_Office": "Gemencheh",
        "State": "Negeri Sembilan"
    },
    {
        "Postcode": "73200",
        "Location": "Bukit Rokan",
        "Post_Office": "Gemencheh",
        "State": "Negeri Sembilan"
    },
    {
        "Postcode": "73200",
        "Location": "Bukit Rokan Utara",
        "Post_Office": "Gemencheh",
        "State": "Negeri Sembilan"
    },
    {
        "Postcode": "73200",
        "Location": "Felda Bukit Rokan",
        "Post_Office": "Gemencheh",
        "State": "Negeri Sembilan"
    },
    {
        "Postcode": "73200",
        "Location": "Felda Bukit Rokan Barat",
        "Post_Office": "Gemencheh",
        "State": "Negeri Sembilan"
    },
    {
        "Postcode": "73200",
        "Location": "Felda Bukit Rokan Utara",
        "Post_Office": "Gemencheh",
        "State": "Negeri Sembilan"
    },
    {
        "Postcode": "73200",
        "Location": "Institut Tahfiz",
        "Post_Office": "Gemencheh",
        "State": "Negeri Sembilan"
    },
    {
        "Postcode": "73200",
        "Location": "Kampung Baru Gedok",
        "Post_Office": "Gemencheh",
        "State": "Negeri Sembilan"
    },
    {
        "Postcode": "73200",
        "Location": "Kampung Baru Jelai",
        "Post_Office": "Gemencheh",
        "State": "Negeri Sembilan"
    },
    {
        "Postcode": "73200",
        "Location": "Kampung Baru Seri Dangi",
        "Post_Office": "Gemencheh",
        "State": "Negeri Sembilan"
    },
    {
        "Postcode": "73200",
        "Location": "Kampung Baru Sungai Dua",
        "Post_Office": "Gemencheh",
        "State": "Negeri Sembilan"
    },
    {
        "Postcode": "73200",
        "Location": "Kampung Batang Rokan",
        "Post_Office": "Gemencheh",
        "State": "Negeri Sembilan"
    },
    {
        "Postcode": "73200",
        "Location": "Kampung Bunga Raya",
        "Post_Office": "Gemencheh",
        "State": "Negeri Sembilan"
    },
    {
        "Postcode": "73200",
        "Location": "Kampung Gedok",
        "Post_Office": "Gemencheh",
        "State": "Negeri Sembilan"
    },
    {
        "Postcode": "73200",
        "Location": "Kampung Jelawai",
        "Post_Office": "Gemencheh",
        "State": "Negeri Sembilan"
    },
    {
        "Postcode": "73200",
        "Location": "Kampung Pulau",
        "Post_Office": "Gemencheh",
        "State": "Negeri Sembilan"
    },
    {
        "Postcode": "73200",
        "Location": "Kampung Rokan",
        "Post_Office": "Gemencheh",
        "State": "Negeri Sembilan"
    },
    {
        "Postcode": "73200",
        "Location": "Kampung Sungai Dua",
        "Post_Office": "Gemencheh",
        "State": "Negeri Sembilan"
    },
    {
        "Postcode": "73200",
        "Location": "Kampung Sungai Jerneh",
        "Post_Office": "Gemencheh",
        "State": "Negeri Sembilan"
    },
    {
        "Postcode": "73200",
        "Location": "Kampung Sungai Kepong",
        "Post_Office": "Gemencheh",
        "State": "Negeri Sembilan"
    },
    {
        "Postcode": "73200",
        "Location": "Kampung Sungai Salah",
        "Post_Office": "Gemencheh",
        "State": "Negeri Sembilan"
    },
    {
        "Postcode": "73200",
        "Location": "Kampung Tanjong Melintang",
        "Post_Office": "Gemencheh",
        "State": "Negeri Sembilan"
    },
    {
        "Postcode": "73200",
        "Location": "Kampung Tenai",
        "Post_Office": "Gemencheh",
        "State": "Negeri Sembilan"
    },
    {
        "Postcode": "73200",
        "Location": "Kampung Ulu Rokan",
        "Post_Office": "Gemencheh",
        "State": "Negeri Sembilan"
    },
    {
        "Postcode": "73200",
        "Location": "Loji Bekalan Air Gemencheh",
        "Post_Office": "Gemencheh",
        "State": "Negeri Sembilan"
    },
    {
        "Postcode": "73200",
        "Location": "Maktab Rendah Sains Mara",
        "Post_Office": "Gemencheh",
        "State": "Negeri Sembilan"
    },
    {
        "Postcode": "73200",
        "Location": "Rumah Rakyat Gemencheh 2",
        "Post_Office": "Gemencheh",
        "State": "Negeri Sembilan"
    },
    {
        "Postcode": "73200",
        "Location": "Rumah Rakyat Gemencheh Lama",
        "Post_Office": "Gemencheh",
        "State": "Negeri Sembilan"
    },
    {
        "Postcode": "73200",
        "Location": "Rumah Rakyat Kampung Tengah",
        "Post_Office": "Gemencheh",
        "State": "Negeri Sembilan"
    },
    {
        "Postcode": "73200",
        "Location": "Taman Asahan Jaya",
        "Post_Office": "Gemencheh",
        "State": "Negeri Sembilan"
    },
    {
        "Postcode": "73200",
        "Location": "Taman Bukit Gemencheh",
        "Post_Office": "Gemencheh",
        "State": "Negeri Sembilan"
    },
    {
        "Postcode": "73200",
        "Location": "Taman Dato Mohd Taha",
        "Post_Office": "Gemencheh",
        "State": "Negeri Sembilan"
    },
    {
        "Postcode": "73200",
        "Location": "Taman Gemencheh Baru",
        "Post_Office": "Gemencheh",
        "State": "Negeri Sembilan"
    },
    {
        "Postcode": "73200",
        "Location": "Taman Gemencheh Lama",
        "Post_Office": "Gemencheh",
        "State": "Negeri Sembilan"
    },
    {
        "Postcode": "73200",
        "Location": "Taman Impian Jaya",
        "Post_Office": "Gemencheh",
        "State": "Negeri Sembilan"
    },
    {
        "Postcode": "73200",
        "Location": "Taman Merak",
        "Post_Office": "Gemencheh",
        "State": "Negeri Sembilan"
    },
    {
        "Postcode": "73200",
        "Location": "Taman Muhibah",
        "Post_Office": "Gemencheh",
        "State": "Negeri Sembilan"
    },
    {
        "Postcode": "73200",
        "Location": "Taman Regent",
        "Post_Office": "Gemencheh",
        "State": "Negeri Sembilan"
    },
    {
        "Postcode": "73200",
        "Location": "Taman Semarak Air Kuning Selatan",
        "Post_Office": "Gemencheh",
        "State": "Negeri Sembilan"
    },
    {
        "Postcode": "73200",
        "Location": "Taman Yu Yi",
        "Post_Office": "Gemencheh",
        "State": "Negeri Sembilan"
    },
    {
        "Postcode": "73200",
        "Location": "Taman Melor 2",
        "Post_Office": "Gemencheh",
        "State": "Negeri Sembilan"
    },
    {
        "Postcode": "73200",
        "Location": "Kampung Air Gelugor",
        "Post_Office": "Gemencheh",
        "State": "Negeri Sembilan"
    },
    {
        "Postcode": "73200",
        "Location": "Kampung Air Rawa",
        "Post_Office": "Gemencheh",
        "State": "Negeri Sembilan"
    },
    {
        "Postcode": "73200",
        "Location": "Kampung Sri Gemencheh",
        "Post_Office": "Gemencheh",
        "State": "Negeri Sembilan"
    },
    {
        "Postcode": "73200",
        "Location": "Kampung Gemencheh",
        "Post_Office": "Gemencheh",
        "State": "Negeri Sembilan"
    },
    {
        "Postcode": "73200",
        "Location": "Kampung Gemencheh Lama",
        "Post_Office": "Gemencheh",
        "State": "Negeri Sembilan"
    },
    {
        "Postcode": "73200",
        "Location": "Taman Kasturi",
        "Post_Office": "Gemencheh",
        "State": "Negeri Sembilan"
    },
    {
        "Postcode": "73200",
        "Location": "Taman Sri Intan",
        "Post_Office": "Gemencheh",
        "State": "Negeri Sembilan"
    },
    {
        "Postcode": "73200",
        "Location": "Taman Merak Utama",
        "Post_Office": "Gemencheh",
        "State": "Negeri Sembilan"
    },
    {
        "Postcode": "73200",
        "Location": "Taman Nuri Indah",
        "Post_Office": "Gemencheh",
        "State": "Negeri Sembilan"
    },
    {
        "Postcode": "73200",
        "Location": "Taman Orkid 2",
        "Post_Office": "Gemencheh",
        "State": "Negeri Sembilan"
    },
    {
        "Postcode": "73200",
        "Location": "Taman Orkid",
        "Post_Office": "Gemencheh",
        "State": "Negeri Sembilan"
    }
]
