[
    {
        "Postcode": "73300",
        "Location": "Kampung Air Kuning",
        "Post_Office": "Gemencheh",
        "State": "Negeri Sembilan"
    },
    {
        "Postcode": "73300",
        "Location": "Kampung Parit Buluh",
        "Post_Office": "Gemencheh",
        "State": "Negeri Sembilan"
    },
    {
        "Postcode": "73300",
        "Location": "Taman Semarak",
        "Post_Office": "Gemencheh",
        "State": "Negeri Sembilan"
    },
    {
        "Postcode": "73300",
        "Location": "Ayer Kuning Selatan",
        "Post_Office": "Gemencheh",
        "State": "Negeri Sembilan"
    },
    {
        "Postcode": "73300",
        "Location": "Batang Melaka Estate",
        "Post_Office": "Gemencheh",
        "State": "Negeri Sembilan"
    },
    {
        "Postcode": "73300",
        "Location": "Felda Bukit Jalor",
        "Post_Office": "Gemencheh",
        "State": "Negeri Sembilan"
    },
    {
        "Postcode": "73300",
        "Location": "Kampung Baru India",
        "Post_Office": "Gemencheh",
        "State": "Negeri Sembilan"
    },
    {
        "Postcode": "73300",
        "Location": "Kampung Baru Melayu",
        "Post_Office": "Gemencheh",
        "State": "Negeri Sembilan"
    },
    {
        "Postcode": "73300",
        "Location": "Kampung Paya Lebar (Ayer Kuning Selatan)",
        "Post_Office": "Gemencheh",
        "State": "Negeri Sembilan"
    },
    {
        "Postcode": "73300",
        "Location": "Kampung Punggor",
        "Post_Office": "Gemencheh",
        "State": "Negeri Sembilan"
    },
    {
        "Postcode": "73300",
        "Location": "Kampung Tengah Air Kuning Selatan",
        "Post_Office": "Gemencheh",
        "State": "Negeri Sembilan"
    },
    {
        "Postcode": "73300",
        "Location": "Kayu Estate",
        "Post_Office": "Gemencheh",
        "State": "Negeri Sembilan"
    },
    {
        "Postcode": "73300",
        "Location": "Ladang Atlas",
        "Post_Office": "Gemencheh",
        "State": "Negeri Sembilan"
    },
    {
        "Postcode": "73300",
        "Location": "Ladang Ayer Tengah",
        "Post_Office": "Gemencheh",
        "State": "Negeri Sembilan"
    },
    {
        "Postcode": "73300",
        "Location": "Ladang Bukit Katil",
        "Post_Office": "Gemencheh",
        "State": "Negeri Sembilan"
    },
    {
        "Postcode": "73300",
        "Location": "Ladang Chinpul",
        "Post_Office": "Gemencheh",
        "State": "Negeri Sembilan"
    },
    {
        "Postcode": "73300",
        "Location": "Ladang Nam Bee",
        "Post_Office": "Gemencheh",
        "State": "Negeri Sembilan"
    },
    {
        "Postcode": "73300",
        "Location": "Ladang Ong Guan Neo",
        "Post_Office": "Gemencheh",
        "State": "Negeri Sembilan"
    },
    {
        "Postcode": "73300",
        "Location": "Ladang Tampin (Melaka Pindah)",
        "Post_Office": "Gemencheh",
        "State": "Negeri Sembilan"
    },
    {
        "Postcode": "73300",
        "Location": "Taman Batang Melaka",
        "Post_Office": "Gemencheh",
        "State": "Negeri Sembilan"
    },
    {
        "Postcode": "73300",
        "Location": "Tiong Watt Estate",
        "Post_Office": "Gemencheh",
        "State": "Negeri Sembilan"
    },
    {
        "Postcode": "73300",
        "Location": "Valley Side Estate",
        "Post_Office": "Gemencheh",
        "State": "Negeri Sembilan"
    },
    {
        "Postcode": "73300",
        "Location": "Kampung Baru Air Kuning Selatan",
        "Post_Office": "Gemencheh",
        "State": "Negeri Sembilan"
    },
    {
        "Postcode": "73300",
        "Location": "Pekan Batang Melaka",
        "Post_Office": "Gemencheh",
        "State": "Negeri Sembilan"
    },
    {
        "Postcode": "73300",
        "Location": "Pusat Komersial Suria",
        "Post_Office": "Gemencheh",
        "State": "Negeri Sembilan"
    },
    {
        "Postcode": "73300",
        "Location": "Kampung Air Kuning Selatan",
        "Post_Office": "Gemencheh",
        "State": "Negeri Sembilan"
    },
    {
        "Postcode": "73300",
        "Location": "Taman Air Kuning Selatan",
        "Post_Office": "Gemencheh",
        "State": "Negeri Sembilan"
    },
    {
        "Postcode": "73300",
        "Location": "Taman Seri Air Kuning Selatan",
        "Post_Office": "Gemencheh",
        "State": "Negeri Sembilan"
    }
]
