[
    {
        "Postcode": "73400",
        "Location": "Kampung Sri Ladang",
        "Post_Office": "Gemas",
        "State": "Negeri Sembilan"
    },
    {
        "Postcode": "73400",
        "Location": "Pusat Komersial Perwira ",
        "Post_Office": "Gemas",
        "State": "Negeri Sembilan"
    },
    {
        "Postcode": "73400",
        "Location": "Pusat Perniagaan Harmoni ",
        "Post_Office": "Gemas",
        "State": "Negeri Sembilan"
    },
    {
        "Postcode": "73400",
        "Location": "Taman Damai",
        "Post_Office": "Gemas",
        "State": "Negeri Sembilan"
    },
    {
        "Postcode": "73400",
        "Location": "Taman Desa Permai",
        "Post_Office": "Gemas",
        "State": "Negeri Sembilan"
    },
    {
        "Postcode": "73400",
        "Location": "Taman Megah",
        "Post_Office": "Gemas",
        "State": "Negeri Sembilan"
    },
    {
        "Postcode": "73400",
        "Location": "Taman Sentosa",
        "Post_Office": "Gemas",
        "State": "Negeri Sembilan"
    },
    {
        "Postcode": "73400",
        "Location": "Taman Gembira",
        "Post_Office": "Gemas",
        "State": "Negeri Sembilan"
    },
    {
        "Postcode": "73400",
        "Location": "Bangka Hulu",
        "Post_Office": "Gemas",
        "State": "Negeri Sembilan"
    },
    {
        "Postcode": "73400",
        "Location": "Gemas Baru Estate",
        "Post_Office": "Gemas",
        "State": "Negeri Sembilan"
    },
    {
        "Postcode": "73400",
        "Location": "Gemas Estate",
        "Post_Office": "Gemas",
        "State": "Negeri Sembilan"
    },
    {
        "Postcode": "73400",
        "Location": "Kampung Baru",
        "Post_Office": "Gemas",
        "State": "Negeri Sembilan"
    },
    {
        "Postcode": "73400",
        "Location": "Kampung Baru Gemas",
        "Post_Office": "Gemas",
        "State": "Negeri Sembilan"
    },
    {
        "Postcode": "73400",
        "Location": "Kampung Benggali Gemas",
        "Post_Office": "Gemas",
        "State": "Negeri Sembilan"
    },
    {
        "Postcode": "73400",
        "Location": "Kampung Ladang",
        "Post_Office": "Gemas",
        "State": "Negeri Sembilan"
    },
    {
        "Postcode": "73400",
        "Location": "Kampung Londah",
        "Post_Office": "Gemas",
        "State": "Negeri Sembilan"
    },
    {
        "Postcode": "73400",
        "Location": "Kampung Londah Baru",
        "Post_Office": "Gemas",
        "State": "Negeri Sembilan"
    },
    {
        "Postcode": "73400",
        "Location": "Kampung Tiong",
        "Post_Office": "Gemas",
        "State": "Negeri Sembilan"
    },
    {
        "Postcode": "73400",
        "Location": "Kampung Ulu Ladang",
        "Post_Office": "Gemas",
        "State": "Negeri Sembilan"
    },
    {
        "Postcode": "73400",
        "Location": "Ladang Chin Lian",
        "Post_Office": "Gemas",
        "State": "Negeri Sembilan"
    },
    {
        "Postcode": "73400",
        "Location": "Ladang Fortrose",
        "Post_Office": "Gemas",
        "State": "Negeri Sembilan"
    },
    {
        "Postcode": "73400",
        "Location": "Ladang Gomali",
        "Post_Office": "Gemas",
        "State": "Negeri Sembilan"
    },
    {
        "Postcode": "73400",
        "Location": "Ladang Sungai Kelamah",
        "Post_Office": "Gemas",
        "State": "Negeri Sembilan"
    },
    {
        "Postcode": "73400",
        "Location": "Pekan Gemas",
        "Post_Office": "Gemas",
        "State": "Negeri Sembilan"
    },
    {
        "Postcode": "73400",
        "Location": "Sungai Kelamah",
        "Post_Office": "Gemas",
        "State": "Negeri Sembilan"
    },
    {
        "Postcode": "73400",
        "Location": "Taman Anggerik Desa",
        "Post_Office": "Gemas",
        "State": "Negeri Sembilan"
    },
    {
        "Postcode": "73400",
        "Location": "Taman Bakti",
        "Post_Office": "Gemas",
        "State": "Negeri Sembilan"
    },
    {
        "Postcode": "73400",
        "Location": "Taman Bintang",
        "Post_Office": "Gemas",
        "State": "Negeri Sembilan"
    },
    {
        "Postcode": "73400",
        "Location": "Taman Bukit Gemas",
        "Post_Office": "Gemas",
        "State": "Negeri Sembilan"
    },
    {
        "Postcode": "73400",
        "Location": "Taman Desa Gemas",
        "Post_Office": "Gemas",
        "State": "Negeri Sembilan"
    },
    {
        "Postcode": "73400",
        "Location": "Taman Gemas",
        "Post_Office": "Gemas",
        "State": "Negeri Sembilan"
    },
    {
        "Postcode": "73400",
        "Location": "Taman Gemas Baru",
        "Post_Office": "Gemas",
        "State": "Negeri Sembilan"
    },
    {
        "Postcode": "73400",
        "Location": "Taman Gemas Baru Ii",
        "Post_Office": "Gemas",
        "State": "Negeri Sembilan"
    },
    {
        "Postcode": "73400",
        "Location": "Taman Gemas Jaya",
        "Post_Office": "Gemas",
        "State": "Negeri Sembilan"
    },
    {
        "Postcode": "73400",
        "Location": "Taman Gemas Setia",
        "Post_Office": "Gemas",
        "State": "Negeri Sembilan"
    },
    {
        "Postcode": "73400",
        "Location": "Taman Golden Hill",
        "Post_Office": "Gemas",
        "State": "Negeri Sembilan"
    },
    {
        "Postcode": "73400",
        "Location": "Taman Molek",
        "Post_Office": "Gemas",
        "State": "Negeri Sembilan"
    },
    {
        "Postcode": "73400",
        "Location": "Taman Morris",
        "Post_Office": "Gemas",
        "State": "Negeri Sembilan"
    },
    {
        "Postcode": "73400",
        "Location": "Taman Pinggiran Felda",
        "Post_Office": "Gemas",
        "State": "Negeri Sembilan"
    },
    {
        "Postcode": "73400",
        "Location": "Taman Sahabat",
        "Post_Office": "Gemas",
        "State": "Negeri Sembilan"
    },
    {
        "Postcode": "73400",
        "Location": "Taman Sungai Gemas",
        "Post_Office": "Gemas",
        "State": "Negeri Sembilan"
    },
    {
        "Postcode": "73400",
        "Location": "Taman Wira",
        "Post_Office": "Gemas",
        "State": "Negeri Sembilan"
    },
    {
        "Postcode": "73400",
        "Location": "Pusat Komersial Seri Mutiara",
        "Post_Office": "Gemas",
        "State": "Negeri Sembilan"
    },
    {
        "Postcode": "73400",
        "Location": "Taman Seri Mutiara",
        "Post_Office": "Gemas",
        "State": "Negeri Sembilan"
    },
    {
        "Postcode": "73400",
        "Location": "Kampung Gemas Baru",
        "Post_Office": "Gemas",
        "State": "Negeri Sembilan"
    },
    {
        "Postcode": "73400",
        "Location": "Kampung Hala Cara Baru",
        "Post_Office": "Gemas",
        "State": "Negeri Sembilan"
    },
    {
        "Postcode": "73400",
        "Location": "Taman Bukit Lentang ",
        "Post_Office": "Gemas",
        "State": "Negeri Sembilan"
    },
    {
        "Postcode": "73400",
        "Location": "Taman Sri Gemas",
        "Post_Office": "Gemas",
        "State": "Negeri Sembilan"
    },
    {
        "Postcode": "73400",
        "Location": "Pusat Komersial Pahlawan",
        "Post_Office": "Gemas",
        "State": "Negeri Sembilan"
    },
    {
        "Postcode": "73400",
        "Location": "Taman Dataran Suria",
        "Post_Office": "Gemas",
        "State": "Negeri Sembilan"
    },
    {
        "Postcode": "73400",
        "Location": "Felda Sungai Kelamah",
        "Post_Office": "Gemas",
        "State": "Negeri Sembilan"
    }
]
