[
    {
        "Postcode": "73470",
        "Location": "Felda Palong 10",
        "Post_Office": "Pusat  Bandar Palong",
        "State": "Negeri Sembilan"
    },
    {
        "Postcode": "73470",
        "Location": "Felda Palong 11",
        "Post_Office": "Pusat  Bandar Palong",
        "State": "Negeri Sembilan"
    },
    {
        "Postcode": "73470",
        "Location": "Felda Palong 12",
        "Post_Office": "Pusat  Bandar Palong",
        "State": "Negeri Sembilan"
    },
    {
        "Postcode": "73470",
        "Location": "Felda Palong 13",
        "Post_Office": "Pusat  Bandar Palong",
        "State": "Negeri Sembilan"
    },
    {
        "Postcode": "73470",
        "Location": "Felda Palong 14",
        "Post_Office": "Pusat  Bandar Palong",
        "State": "Negeri Sembilan"
    },
    {
        "Postcode": "73470",
        "Location": "Felda Palong 16",
        "Post_Office": "Pusat  Bandar Palong",
        "State": "Negeri Sembilan"
    },
    {
        "Postcode": "73470",
        "Location": "Felda Palong 4",
        "Post_Office": "Pusat  Bandar Palong",
        "State": "Negeri Sembilan"
    },
    {
        "Postcode": "73470",
        "Location": "Felda Palong 5",
        "Post_Office": "Pusat  Bandar Palong",
        "State": "Negeri Sembilan"
    },
    {
        "Postcode": "73470",
        "Location": "Felda Palong 6",
        "Post_Office": "Pusat  Bandar Palong",
        "State": "Negeri Sembilan"
    },
    {
        "Postcode": "73470",
        "Location": "Felda Palong 7",
        "Post_Office": "Pusat  Bandar Palong",
        "State": "Negeri Sembilan"
    },
    {
        "Postcode": "73470",
        "Location": "Felda Palong 8",
        "Post_Office": "Pusat  Bandar Palong",
        "State": "Negeri Sembilan"
    },
    {
        "Postcode": "73470",
        "Location": "Felda Palong 9",
        "Post_Office": "Pusat  Bandar Palong",
        "State": "Negeri Sembilan"
    },
    {
        "Postcode": "73470",
        "Location": "Kampung Jeram Panjang",
        "Post_Office": "Pusat  Bandar Palong",
        "State": "Negeri Sembilan"
    }
]
