[
    {
        "Postcode": "73500",
        "Location": "Ladang Bukit Pilah",
        "Post_Office": "Rompin",
        "State": "Negeri Sembilan"
    },
    {
        "Postcode": "73500",
        "Location": "Taman Melor",
        "Post_Office": "Rompin",
        "State": "Negeri Sembilan"
    },
    {
        "Postcode": "73500",
        "Location": "Taman Suria",
        "Post_Office": "Rompin",
        "State": "Negeri Sembilan"
    },
    {
        "Postcode": "73500",
        "Location": "Bukit Tinggi Estate",
        "Post_Office": "Rompin",
        "State": "Negeri Sembilan"
    },
    {
        "Postcode": "73500",
        "Location": "Goodwood Estate",
        "Post_Office": "Rompin",
        "State": "Negeri Sembilan"
    },
    {
        "Postcode": "73500",
        "Location": "Kampung Balai China",
        "Post_Office": "Rompin",
        "State": "Negeri Sembilan"
    },
    {
        "Postcode": "73500",
        "Location": "Kampung Baru Rompin",
        "Post_Office": "Rompin",
        "State": "Negeri Sembilan"
    },
    {
        "Postcode": "73500",
        "Location": "Kampung Batu Peti",
        "Post_Office": "Rompin",
        "State": "Negeri Sembilan"
    },
    {
        "Postcode": "73500",
        "Location": "Kampung Bukit Pilah",
        "Post_Office": "Rompin",
        "State": "Negeri Sembilan"
    },
    {
        "Postcode": "73500",
        "Location": "Kampung Felcra Rompin",
        "Post_Office": "Rompin",
        "State": "Negeri Sembilan"
    },
    {
        "Postcode": "73500",
        "Location": "Kampung Panchor",
        "Post_Office": "Rompin",
        "State": "Negeri Sembilan"
    },
    {
        "Postcode": "73500",
        "Location": "Kampung Rompin",
        "Post_Office": "Rompin",
        "State": "Negeri Sembilan"
    },
    {
        "Postcode": "73500",
        "Location": "Ladang Middleton",
        "Post_Office": "Rompin",
        "State": "Negeri Sembilan"
    },
    {
        "Postcode": "73500",
        "Location": "Ladang Middleton Palong",
        "Post_Office": "Rompin",
        "State": "Negeri Sembilan"
    },
    {
        "Postcode": "73500",
        "Location": "Ladang Middleton Rompin",
        "Post_Office": "Rompin",
        "State": "Negeri Sembilan"
    },
    {
        "Postcode": "73500",
        "Location": "Ladang New Rompin",
        "Post_Office": "Rompin",
        "State": "Negeri Sembilan"
    },
    {
        "Postcode": "73500",
        "Location": "Middleton Estate",
        "Post_Office": "Rompin",
        "State": "Negeri Sembilan"
    },
    {
        "Postcode": "73500",
        "Location": "Rumah Rakyat Rompin",
        "Post_Office": "Rompin",
        "State": "Negeri Sembilan"
    },
    {
        "Postcode": "73500",
        "Location": "Taman Desa Rompin",
        "Post_Office": "Rompin",
        "State": "Negeri Sembilan"
    },
    {
        "Postcode": "73500",
        "Location": "Taman Saujana",
        "Post_Office": "Rompin",
        "State": "Negeri Sembilan"
    },
    {
        "Postcode": "73500",
        "Location": "Taman Sri Rompin",
        "Post_Office": "Rompin",
        "State": "Negeri Sembilan"
    },
    {
        "Postcode": "73500",
        "Location": "Kampung Tanah Panjis",
        "Post_Office": "Rompin",
        "State": "Negeri Sembilan"
    },
    {
        "Postcode": "73500",
        "Location": "Ladang Kelpin",
        "Post_Office": "Rompin",
        "State": "Negeri Sembilan"
    },
    {
        "Postcode": "73500",
        "Location": "Ladang Malay Rompin",
        "Post_Office": "Rompin",
        "State": "Negeri Sembilan"
    }
]
