[
    {
        "Postcode": "53200",
        "Location": "Taman Tasik Titiwangsa",
        "Post_Office": "Kuala Lumpur",
        "State": "WP Kuala Lumpur"
    },
    {
        "Postcode": "53200",
        "Location": "Jalan Ayer Berseh 1",
        "Post_Office": "Kuala Lumpur",
        "State": "WP Kuala Lumpur"
    },
    {
        "Postcode": "53200",
        "Location": "Jalan Ayer Berseh 2",
        "Post_Office": "Kuala Lumpur",
        "State": "WP Kuala Lumpur"
    },
    {
        "Postcode": "53200",
        "Location": "Jalan Ayer Berseh 3",
        "Post_Office": "Kuala Lumpur",
        "State": "WP Kuala Lumpur"
    },
    {
        "Postcode": "53200",
        "Location": "Jalan Ayer Berseh 4",
        "Post_Office": "Kuala Lumpur",
        "State": "WP Kuala Lumpur"
    },
    {
        "Postcode": "53200",
        "Location": "Jalan Ayer Berseh 5",
        "Post_Office": "Kuala Lumpur",
        "State": "WP Kuala Lumpur"
    },
    {
        "Postcode": "53200",
        "Location": "Jalan Ayer Molek 1",
        "Post_Office": "Kuala Lumpur",
        "State": "WP Kuala Lumpur"
    },
    {
        "Postcode": "53200",
        "Location": "Jalan Ayer Molek 2",
        "Post_Office": "Kuala Lumpur",
        "State": "WP Kuala Lumpur"
    },
    {
        "Postcode": "53200",
        "Location": "Jalan Kilang 1",
        "Post_Office": "Kuala Lumpur",
        "State": "WP Kuala Lumpur"
    },
    {
        "Postcode": "53200",
        "Location": "Jalan Kilang 2",
        "Post_Office": "Kuala Lumpur",
        "State": "WP Kuala Lumpur"
    },
    {
        "Postcode": "53200",
        "Location": "Jalan Kilang 3",
        "Post_Office": "Kuala Lumpur",
        "State": "WP Kuala Lumpur"
    },
    {
        "Postcode": "53200",
        "Location": "Jalan Mata Air 1",
        "Post_Office": "Kuala Lumpur",
        "State": "WP Kuala Lumpur"
    },
    {
        "Postcode": "53200",
        "Location": "Jalan Mata Air 2",
        "Post_Office": "Kuala Lumpur",
        "State": "WP Kuala Lumpur"
    },
    {
        "Postcode": "53200",
        "Location": "Jalan Mata Air 3",
        "Post_Office": "Kuala Lumpur",
        "State": "WP Kuala Lumpur"
    },
    {
        "Postcode": "53200",
        "Location": "Jalan Mata Air 4",
        "Post_Office": "Kuala Lumpur",
        "State": "WP Kuala Lumpur"
    },
    {
        "Postcode": "53200",
        "Location": "Jalan Perusahaan 1",
        "Post_Office": "Kuala Lumpur",
        "State": "WP Kuala Lumpur"
    },
    {
        "Postcode": "53200",
        "Location": "Jalan Perusahaan 2",
        "Post_Office": "Kuala Lumpur",
        "State": "WP Kuala Lumpur"
    },
    {
        "Postcode": "53200",
        "Location": "Jalan Perusahaan 3",
        "Post_Office": "Kuala Lumpur",
        "State": "WP Kuala Lumpur"
    },
    {
        "Postcode": "53200",
        "Location": "Jalan Perusahaan 4",
        "Post_Office": "Kuala Lumpur",
        "State": "WP Kuala Lumpur"
    },
    {
        "Postcode": "53200",
        "Location": "Jalan Perusahaan 5",
        "Post_Office": "Kuala Lumpur",
        "State": "WP Kuala Lumpur"
    },
    {
        "Postcode": "53200",
        "Location": "Jalan Perusahaan 6",
        "Post_Office": "Kuala Lumpur",
        "State": "WP Kuala Lumpur"
    },
    {
        "Postcode": "53200",
        "Location": "Jalan Perusahaan 7",
        "Post_Office": "Kuala Lumpur",
        "State": "WP Kuala Lumpur"
    },
    {
        "Postcode": "53200",
        "Location": "Jalan Perusahaan 8",
        "Post_Office": "Kuala Lumpur",
        "State": "WP Kuala Lumpur"
    },
    {
        "Postcode": "53200",
        "Location": "Jalan Usahawan 1",
        "Post_Office": "Kuala Lumpur",
        "State": "WP Kuala Lumpur"
    },
    {
        "Postcode": "53200",
        "Location": "Jalan Usahawan 2",
        "Post_Office": "Kuala Lumpur",
        "State": "WP Kuala Lumpur"
    },
    {
        "Postcode": "53200",
        "Location": "Jalan Usahawan 3",
        "Post_Office": "Kuala Lumpur",
        "State": "WP Kuala Lumpur"
    },
    {
        "Postcode": "53200",
        "Location": "Jalan Usahawan 4",
        "Post_Office": "Kuala Lumpur",
        "State": "WP Kuala Lumpur"
    },
    {
        "Postcode": "53200",
        "Location": "Jalan Usahawan 5",
        "Post_Office": "Kuala Lumpur",
        "State": "WP Kuala Lumpur"
    },
    {
        "Postcode": "53200",
        "Location": "Jalan Usahawan 6",
        "Post_Office": "Kuala Lumpur",
        "State": "WP Kuala Lumpur"
    },
    {
        "Postcode": "53200",
        "Location": "Lorong Ayer Bah 1",
        "Post_Office": "Kuala Lumpur",
        "State": "WP Kuala Lumpur"
    },
    {
        "Postcode": "53200",
        "Location": "Lorong Ayer Bah 2",
        "Post_Office": "Kuala Lumpur",
        "State": "WP Kuala Lumpur"
    },
    {
        "Postcode": "53200",
        "Location": "Lorong Ayer Bah 3",
        "Post_Office": "Kuala Lumpur",
        "State": "WP Kuala Lumpur"
    },
    {
        "Postcode": "53200",
        "Location": "Lorong Ayer Batu 1",
        "Post_Office": "Kuala Lumpur",
        "State": "WP Kuala Lumpur"
    },
    {
        "Postcode": "53200",
        "Location": "Lorong Ayer Batu 10",
        "Post_Office": "Kuala Lumpur",
        "State": "WP Kuala Lumpur"
    },
    {
        "Postcode": "53200",
        "Location": "Lorong Ayer Batu 11",
        "Post_Office": "Kuala Lumpur",
        "State": "WP Kuala Lumpur"
    },
    {
        "Postcode": "53200",
        "Location": "Lorong Ayer Batu 12",
        "Post_Office": "Kuala Lumpur",
        "State": "WP Kuala Lumpur"
    },
    {
        "Postcode": "53200",
        "Location": "Lorong Ayer Batu 13",
        "Post_Office": "Kuala Lumpur",
        "State": "WP Kuala Lumpur"
    },
    {
        "Postcode": "53200",
        "Location": "Lorong Ayer Batu 2",
        "Post_Office": "Kuala Lumpur",
        "State": "WP Kuala Lumpur"
    },
    {
        "Postcode": "53200",
        "Location": "Lorong Ayer Batu 3",
        "Post_Office": "Kuala Lumpur",
        "State": "WP Kuala Lumpur"
    },
    {
        "Postcode": "53200",
        "Location": "Lorong Ayer Batu 4",
        "Post_Office": "Kuala Lumpur",
        "State": "WP Kuala Lumpur"
    },
    {
        "Postcode": "53200",
        "Location": "Lorong Ayer Batu 5",
        "Post_Office": "Kuala Lumpur",
        "State": "WP Kuala Lumpur"
    },
    {
        "Postcode": "53200",
        "Location": "Lorong Ayer Batu 6",
        "Post_Office": "Kuala Lumpur",
        "State": "WP Kuala Lumpur"
    },
    {
        "Postcode": "53200",
        "Location": "Lorong Ayer Batu 7",
        "Post_Office": "Kuala Lumpur",
        "State": "WP Kuala Lumpur"
    },
    {
        "Postcode": "53200",
        "Location": "Lorong Ayer Batu 8",
        "Post_Office": "Kuala Lumpur",
        "State": "WP Kuala Lumpur"
    },
    {
        "Postcode": "53200",
        "Location": "Lorong Ayer Batu 9",
        "Post_Office": "Kuala Lumpur",
        "State": "WP Kuala Lumpur"
    },
    {
        "Postcode": "53200",
        "Location": "Lorong Ayer Berseh 1",
        "Post_Office": "Kuala Lumpur",
        "State": "WP Kuala Lumpur"
    },
    {
        "Postcode": "53200",
        "Location": "Lorong Ayer Berseh 2",
        "Post_Office": "Kuala Lumpur",
        "State": "WP Kuala Lumpur"
    },
    {
        "Postcode": "53200",
        "Location": "Lorong Ayer Berseh 3",
        "Post_Office": "Kuala Lumpur",
        "State": "WP Kuala Lumpur"
    },
    {
        "Postcode": "53200",
        "Location": "Lorong Ayer Berseh 4",
        "Post_Office": "Kuala Lumpur",
        "State": "WP Kuala Lumpur"
    },
    {
        "Postcode": "53200",
        "Location": "Lorong Ayer Berseh 5",
        "Post_Office": "Kuala Lumpur",
        "State": "WP Kuala Lumpur"
    },
    {
        "Postcode": "53200",
        "Location": "Lorong Ayer Jerneh 1",
        "Post_Office": "Kuala Lumpur",
        "State": "WP Kuala Lumpur"
    },
    {
        "Postcode": "53200",
        "Location": "Lorong Ayer Jerneh 2",
        "Post_Office": "Kuala Lumpur",
        "State": "WP Kuala Lumpur"
    },
    {
        "Postcode": "53200",
        "Location": "Lorong Ayer Kuning 1",
        "Post_Office": "Kuala Lumpur",
        "State": "WP Kuala Lumpur"
    },
    {
        "Postcode": "53200",
        "Location": "Lorong Ayer Kuning 2",
        "Post_Office": "Kuala Lumpur",
        "State": "WP Kuala Lumpur"
    },
    {
        "Postcode": "53200",
        "Location": "Lorong Ayer Kuning 3",
        "Post_Office": "Kuala Lumpur",
        "State": "WP Kuala Lumpur"
    },
    {
        "Postcode": "53200",
        "Location": "Lorong Ayer Kuning 4",
        "Post_Office": "Kuala Lumpur",
        "State": "WP Kuala Lumpur"
    },
    {
        "Postcode": "53200",
        "Location": "Lorong Ayer Kuning 5",
        "Post_Office": "Kuala Lumpur",
        "State": "WP Kuala Lumpur"
    },
    {
        "Postcode": "53200",
        "Location": "Lorong Ayer Kuning 6",
        "Post_Office": "Kuala Lumpur",
        "State": "WP Kuala Lumpur"
    },
    {
        "Postcode": "53200",
        "Location": "Lorong Ayer Leleh 1",
        "Post_Office": "Kuala Lumpur",
        "State": "WP Kuala Lumpur"
    },
    {
        "Postcode": "53200",
        "Location": "Lorong Ayer Leleh 2",
        "Post_Office": "Kuala Lumpur",
        "State": "WP Kuala Lumpur"
    },
    {
        "Postcode": "53200",
        "Location": "Lorong Ayer Leleh 3",
        "Post_Office": "Kuala Lumpur",
        "State": "WP Kuala Lumpur"
    },
    {
        "Postcode": "53200",
        "Location": "Lorong Ayer Leleh 4",
        "Post_Office": "Kuala Lumpur",
        "State": "WP Kuala Lumpur"
    },
    {
        "Postcode": "53200",
        "Location": "Lorong Ayer Leleh 5",
        "Post_Office": "Kuala Lumpur",
        "State": "WP Kuala Lumpur"
    },
    {
        "Postcode": "53200",
        "Location": "Lorong Ayer Leleh 6",
        "Post_Office": "Kuala Lumpur",
        "State": "WP Kuala Lumpur"
    },
    {
        "Postcode": "53200",
        "Location": "Lorong Ayer Leleh 7",
        "Post_Office": "Kuala Lumpur",
        "State": "WP Kuala Lumpur"
    },
    {
        "Postcode": "53200",
        "Location": "Lorong Ayer Madu 1",
        "Post_Office": "Kuala Lumpur",
        "State": "WP Kuala Lumpur"
    },
    {
        "Postcode": "53200",
        "Location": "Lorong Ayer Madu 2",
        "Post_Office": "Kuala Lumpur",
        "State": "WP Kuala Lumpur"
    },
    {
        "Postcode": "53200",
        "Location": "Lorong Ayer Madu 3",
        "Post_Office": "Kuala Lumpur",
        "State": "WP Kuala Lumpur"
    },
    {
        "Postcode": "53200",
        "Location": "Lorong Ayer Madu 4",
        "Post_Office": "Kuala Lumpur",
        "State": "WP Kuala Lumpur"
    },
    {
        "Postcode": "53200",
        "Location": "Lorong Ayer Madu 5",
        "Post_Office": "Kuala Lumpur",
        "State": "WP Kuala Lumpur"
    },
    {
        "Postcode": "53200",
        "Location": "Lorong Ayer Mawar 1",
        "Post_Office": "Kuala Lumpur",
        "State": "WP Kuala Lumpur"
    },
    {
        "Postcode": "53200",
        "Location": "Lorong Ayer Mawar 2",
        "Post_Office": "Kuala Lumpur",
        "State": "WP Kuala Lumpur"
    },
    {
        "Postcode": "53200",
        "Location": "Lorong Ayer Mawar 3",
        "Post_Office": "Kuala Lumpur",
        "State": "WP Kuala Lumpur"
    },
    {
        "Postcode": "53200",
        "Location": "Lorong Ayer Mawar 4",
        "Post_Office": "Kuala Lumpur",
        "State": "WP Kuala Lumpur"
    },
    {
        "Postcode": "53200",
        "Location": "Lorong Ayer Pahit 1",
        "Post_Office": "Kuala Lumpur",
        "State": "WP Kuala Lumpur"
    },
    {
        "Postcode": "53200",
        "Location": "Lorong Ayer Pahit 2",
        "Post_Office": "Kuala Lumpur",
        "State": "WP Kuala Lumpur"
    },
    {
        "Postcode": "53200",
        "Location": "Lorong Ayer Pahit 3",
        "Post_Office": "Kuala Lumpur",
        "State": "WP Kuala Lumpur"
    },
    {
        "Postcode": "53200",
        "Location": "Lorong Ayer Panas 1",
        "Post_Office": "Kuala Lumpur",
        "State": "WP Kuala Lumpur"
    },
    {
        "Postcode": "53200",
        "Location": "Lorong Ayer Panas 2",
        "Post_Office": "Kuala Lumpur",
        "State": "WP Kuala Lumpur"
    },
    {
        "Postcode": "53200",
        "Location": "Lorong Ayer Panas 3",
        "Post_Office": "Kuala Lumpur",
        "State": "WP Kuala Lumpur"
    },
    {
        "Postcode": "53200",
        "Location": "Lorong Chan Chin Mooi 1",
        "Post_Office": "Kuala Lumpur",
        "State": "WP Kuala Lumpur"
    },
    {
        "Postcode": "53200",
        "Location": "Lorong Chan Chin Mooi 2",
        "Post_Office": "Kuala Lumpur",
        "State": "WP Kuala Lumpur"
    },
    {
        "Postcode": "53200",
        "Location": "Lorong Chan Chin Mooi 3",
        "Post_Office": "Kuala Lumpur",
        "State": "WP Kuala Lumpur"
    },
    {
        "Postcode": "53200",
        "Location": "Lorong Chan Chin Mooi 4",
        "Post_Office": "Kuala Lumpur",
        "State": "WP Kuala Lumpur"
    },
    {
        "Postcode": "53200",
        "Location": "Lorong Chan Chin Mooi 5",
        "Post_Office": "Kuala Lumpur",
        "State": "WP Kuala Lumpur"
    },
    {
        "Postcode": "53200",
        "Location": "Lorong Mata Air 1",
        "Post_Office": "Kuala Lumpur",
        "State": "WP Kuala Lumpur"
    },
    {
        "Postcode": "53200",
        "Location": "Lorong Mata Air 2",
        "Post_Office": "Kuala Lumpur",
        "State": "WP Kuala Lumpur"
    },
    {
        "Postcode": "53200",
        "Location": "Lorong Mata Air 3",
        "Post_Office": "Kuala Lumpur",
        "State": "WP Kuala Lumpur"
    },
    {
        "Postcode": "53200",
        "Location": "Lorong Titiwangsa 1",
        "Post_Office": "Kuala Lumpur",
        "State": "WP Kuala Lumpur"
    },
    {
        "Postcode": "53200",
        "Location": "Lorong Titiwangsa 10",
        "Post_Office": "Kuala Lumpur",
        "State": "WP Kuala Lumpur"
    },
    {
        "Postcode": "53200",
        "Location": "Lorong Titiwangsa 11",
        "Post_Office": "Kuala Lumpur",
        "State": "WP Kuala Lumpur"
    },
    {
        "Postcode": "53200",
        "Location": "Lorong Titiwangsa 12",
        "Post_Office": "Kuala Lumpur",
        "State": "WP Kuala Lumpur"
    },
    {
        "Postcode": "53200",
        "Location": "Lorong Titiwangsa 2",
        "Post_Office": "Kuala Lumpur",
        "State": "WP Kuala Lumpur"
    },
    {
        "Postcode": "53200",
        "Location": "Lorong Titiwangsa 3",
        "Post_Office": "Kuala Lumpur",
        "State": "WP Kuala Lumpur"
    },
    {
        "Postcode": "53200",
        "Location": "Lorong Titiwangsa 4",
        "Post_Office": "Kuala Lumpur",
        "State": "WP Kuala Lumpur"
    },
    {
        "Postcode": "53200",
        "Location": "Lorong Titiwangsa 5",
        "Post_Office": "Kuala Lumpur",
        "State": "WP Kuala Lumpur"
    },
    {
        "Postcode": "53200",
        "Location": "Lorong Titiwangsa 6",
        "Post_Office": "Kuala Lumpur",
        "State": "WP Kuala Lumpur"
    },
    {
        "Postcode": "53200",
        "Location": "Lorong Titiwangsa 7",
        "Post_Office": "Kuala Lumpur",
        "State": "WP Kuala Lumpur"
    },
    {
        "Postcode": "53200",
        "Location": "Lorong Titiwangsa 8",
        "Post_Office": "Kuala Lumpur",
        "State": "WP Kuala Lumpur"
    },
    {
        "Postcode": "53200",
        "Location": "Lorong Titiwangsa 9",
        "Post_Office": "Kuala Lumpur",
        "State": "WP Kuala Lumpur"
    },
    {
        "Postcode": "53200",
        "Location": "Persiaran Titiwangsa 1",
        "Post_Office": "Kuala Lumpur",
        "State": "WP Kuala Lumpur"
    },
    {
        "Postcode": "53200",
        "Location": "Persiaran Titiwangsa 2",
        "Post_Office": "Kuala Lumpur",
        "State": "WP Kuala Lumpur"
    },
    {
        "Postcode": "53200",
        "Location": "Persiaran Titiwangsa 3",
        "Post_Office": "Kuala Lumpur",
        "State": "WP Kuala Lumpur"
    },
    {
        "Postcode": "53200",
        "Location": "Jalan Tiara Titiwangsa",
        "Post_Office": "Kuala Lumpur",
        "State": "WP Kuala Lumpur"
    },
    {
        "Postcode": "53200",
        "Location": "Jalan Arena 1",
        "Post_Office": "Kuala Lumpur",
        "State": "WP Kuala Lumpur"
    },
    {
        "Postcode": "53200",
        "Location": "Jalan 10/23G",
        "Post_Office": "Kuala Lumpur",
        "State": "WP Kuala Lumpur"
    },
    {
        "Postcode": "53200",
        "Location": "Jalan 8/23G",
        "Post_Office": "Kuala Lumpur",
        "State": "WP Kuala Lumpur"
    },
    {
        "Postcode": "53200",
        "Location": "Jalan 9/23G",
        "Post_Office": "Kuala Lumpur",
        "State": "WP Kuala Lumpur"
    },
    {
        "Postcode": "53200",
        "Location": "Jalan Ayer Bah",
        "Post_Office": "Kuala Lumpur",
        "State": "WP Kuala Lumpur"
    },
    {
        "Postcode": "53200",
        "Location": "Jalan Ayer Batu",
        "Post_Office": "Kuala Lumpur",
        "State": "WP Kuala Lumpur"
    },
    {
        "Postcode": "53200",
        "Location": "Jalan Ayer Beku",
        "Post_Office": "Kuala Lumpur",
        "State": "WP Kuala Lumpur"
    },
    {
        "Postcode": "53200",
        "Location": "Jalan Ayer Berseh",
        "Post_Office": "Kuala Lumpur",
        "State": "WP Kuala Lumpur"
    },
    {
        "Postcode": "53200",
        "Location": "Jalan Ayer Biru",
        "Post_Office": "Kuala Lumpur",
        "State": "WP Kuala Lumpur"
    },
    {
        "Postcode": "53200",
        "Location": "Jalan Ayer Chetek",
        "Post_Office": "Kuala Lumpur",
        "State": "WP Kuala Lumpur"
    },
    {
        "Postcode": "53200",
        "Location": "Jalan Ayer Chintak",
        "Post_Office": "Kuala Lumpur",
        "State": "WP Kuala Lumpur"
    },
    {
        "Postcode": "53200",
        "Location": "Jalan Ayer Dalam",
        "Post_Office": "Kuala Lumpur",
        "State": "WP Kuala Lumpur"
    },
    {
        "Postcode": "53200",
        "Location": "Jalan Ayer Deras",
        "Post_Office": "Kuala Lumpur",
        "State": "WP Kuala Lumpur"
    },
    {
        "Postcode": "53200",
        "Location": "Jalan Ayer Dusun",
        "Post_Office": "Kuala Lumpur",
        "State": "WP Kuala Lumpur"
    },
    {
        "Postcode": "53200",
        "Location": "Jalan Ayer Embun",
        "Post_Office": "Kuala Lumpur",
        "State": "WP Kuala Lumpur"
    },
    {
        "Postcode": "53200",
        "Location": "Jalan Ayer Hijau",
        "Post_Office": "Kuala Lumpur",
        "State": "WP Kuala Lumpur"
    },
    {
        "Postcode": "53200",
        "Location": "Jalan Ayer Hitam",
        "Post_Office": "Kuala Lumpur",
        "State": "WP Kuala Lumpur"
    },
    {
        "Postcode": "53200",
        "Location": "Jalan Ayer Hujan",
        "Post_Office": "Kuala Lumpur",
        "State": "WP Kuala Lumpur"
    },
    {
        "Postcode": "53200",
        "Location": "Jalan Ayer Jernih",
        "Post_Office": "Kuala Lumpur",
        "State": "WP Kuala Lumpur"
    },
    {
        "Postcode": "53200",
        "Location": "Jalan Ayer Kering",
        "Post_Office": "Kuala Lumpur",
        "State": "WP Kuala Lumpur"
    },
    {
        "Postcode": "53200",
        "Location": "Jalan Ayer Keroh",
        "Post_Office": "Kuala Lumpur",
        "State": "WP Kuala Lumpur"
    },
    {
        "Postcode": "53200",
        "Location": "Jalan Ayer Kolam",
        "Post_Office": "Kuala Lumpur",
        "State": "WP Kuala Lumpur"
    },
    {
        "Postcode": "53200",
        "Location": "Jalan Ayer Kuning",
        "Post_Office": "Kuala Lumpur",
        "State": "WP Kuala Lumpur"
    },
    {
        "Postcode": "53200",
        "Location": "Jalan Ayer Laju",
        "Post_Office": "Kuala Lumpur",
        "State": "WP Kuala Lumpur"
    },
    {
        "Postcode": "53200",
        "Location": "Jalan Ayer Leleh",
        "Post_Office": "Kuala Lumpur",
        "State": "WP Kuala Lumpur"
    },
    {
        "Postcode": "53200",
        "Location": "Jalan Ayer Lembah",
        "Post_Office": "Kuala Lumpur",
        "State": "WP Kuala Lumpur"
    },
    {
        "Postcode": "53200",
        "Location": "Jalan Ayer Lombong",
        "Post_Office": "Kuala Lumpur",
        "State": "WP Kuala Lumpur"
    },
    {
        "Postcode": "53200",
        "Location": "Jalan Ayer Madu",
        "Post_Office": "Kuala Lumpur",
        "State": "WP Kuala Lumpur"
    },
    {
        "Postcode": "53200",
        "Location": "Jalan Ayer Mas",
        "Post_Office": "Kuala Lumpur",
        "State": "WP Kuala Lumpur"
    },
    {
        "Postcode": "53200",
        "Location": "Jalan Ayer Masin",
        "Post_Office": "Kuala Lumpur",
        "State": "WP Kuala Lumpur"
    },
    {
        "Postcode": "53200",
        "Location": "Jalan Ayer Mata",
        "Post_Office": "Kuala Lumpur",
        "State": "WP Kuala Lumpur"
    },
    {
        "Postcode": "53200",
        "Location": "Jalan Ayer Mawar",
        "Post_Office": "Kuala Lumpur",
        "State": "WP Kuala Lumpur"
    },
    {
        "Postcode": "53200",
        "Location": "Jalan Ayer Merah",
        "Post_Office": "Kuala Lumpur",
        "State": "WP Kuala Lumpur"
    },
    {
        "Postcode": "53200",
        "Location": "Jalan Ayer Molek",
        "Post_Office": "Kuala Lumpur",
        "State": "WP Kuala Lumpur"
    },
    {
        "Postcode": "53200",
        "Location": "Jalan Ayer Molek Kiri",
        "Post_Office": "Kuala Lumpur",
        "State": "WP Kuala Lumpur"
    },
    {
        "Postcode": "53200",
        "Location": "Jalan Ayer Pahit",
        "Post_Office": "Kuala Lumpur",
        "State": "WP Kuala Lumpur"
    },
    {
        "Postcode": "53200",
        "Location": "Jalan Ayer Panas",
        "Post_Office": "Kuala Lumpur",
        "State": "WP Kuala Lumpur"
    },
    {
        "Postcode": "53200",
        "Location": "Jalan Ayer Panas Baru",
        "Post_Office": "Kuala Lumpur",
        "State": "WP Kuala Lumpur"
    },
    {
        "Postcode": "53200",
        "Location": "Jalan Ayer Pasang",
        "Post_Office": "Kuala Lumpur",
        "State": "WP Kuala Lumpur"
    },
    {
        "Postcode": "53200",
        "Location": "Jalan Ayer Penoh",
        "Post_Office": "Kuala Lumpur",
        "State": "WP Kuala Lumpur"
    },
    {
        "Postcode": "53200",
        "Location": "Jalan Ayer Pusing",
        "Post_Office": "Kuala Lumpur",
        "State": "WP Kuala Lumpur"
    },
    {
        "Postcode": "53200",
        "Location": "Jalan Ayer Putih",
        "Post_Office": "Kuala Lumpur",
        "State": "WP Kuala Lumpur"
    },
    {
        "Postcode": "53200",
        "Location": "Jalan Ayer Rimba",
        "Post_Office": "Kuala Lumpur",
        "State": "WP Kuala Lumpur"
    },
    {
        "Postcode": "53200",
        "Location": "Jalan Ayer Sejok",
        "Post_Office": "Kuala Lumpur",
        "State": "WP Kuala Lumpur"
    },
    {
        "Postcode": "53200",
        "Location": "Jalan Ayer Sungai",
        "Post_Office": "Kuala Lumpur",
        "State": "WP Kuala Lumpur"
    },
    {
        "Postcode": "53200",
        "Location": "Jalan Ayer Surut",
        "Post_Office": "Kuala Lumpur",
        "State": "WP Kuala Lumpur"
    },
    {
        "Postcode": "53200",
        "Location": "Jalan Ayer Tasek",
        "Post_Office": "Kuala Lumpur",
        "State": "WP Kuala Lumpur"
    },
    {
        "Postcode": "53200",
        "Location": "Jalan Ayer Tawar",
        "Post_Office": "Kuala Lumpur",
        "State": "WP Kuala Lumpur"
    },
    {
        "Postcode": "53200",
        "Location": "Jalan Ayer Telaga",
        "Post_Office": "Kuala Lumpur",
        "State": "WP Kuala Lumpur"
    },
    {
        "Postcode": "53200",
        "Location": "Jalan Ayer Tenang",
        "Post_Office": "Kuala Lumpur",
        "State": "WP Kuala Lumpur"
    },
    {
        "Postcode": "53200",
        "Location": "Jalan Ayer Terjun",
        "Post_Office": "Kuala Lumpur",
        "State": "WP Kuala Lumpur"
    },
    {
        "Postcode": "53200",
        "Location": "Jalan Beserah (Gombak)",
        "Post_Office": "Kuala Lumpur",
        "State": "WP Kuala Lumpur"
    },
    {
        "Postcode": "53200",
        "Location": "Jalan Boon Kim",
        "Post_Office": "Kuala Lumpur",
        "State": "WP Kuala Lumpur"
    },
    {
        "Postcode": "53200",
        "Location": "Jalan Chan Chin Mooi",
        "Post_Office": "Kuala Lumpur",
        "State": "WP Kuala Lumpur"
    },
    {
        "Postcode": "53200",
        "Location": "Jalan Chiew Yoke",
        "Post_Office": "Kuala Lumpur",
        "State": "WP Kuala Lumpur"
    },
    {
        "Postcode": "53200",
        "Location": "Jalan Chow Thye",
        "Post_Office": "Kuala Lumpur",
        "State": "WP Kuala Lumpur"
    },
    {
        "Postcode": "53200",
        "Location": "Jalan Fletcher",
        "Post_Office": "Kuala Lumpur",
        "State": "WP Kuala Lumpur"
    },
    {
        "Postcode": "53200",
        "Location": "Jalan Gin Lek",
        "Post_Office": "Kuala Lumpur",
        "State": "WP Kuala Lumpur"
    },
    {
        "Postcode": "53200",
        "Location": "Jalan Keng Hooi",
        "Post_Office": "Kuala Lumpur",
        "State": "WP Kuala Lumpur"
    },
    {
        "Postcode": "53200",
        "Location": "Jalan Kim Leng",
        "Post_Office": "Kuala Lumpur",
        "State": "WP Kuala Lumpur"
    },
    {
        "Postcode": "53200",
        "Location": "Jalan Kong Lam",
        "Post_Office": "Kuala Lumpur",
        "State": "WP Kuala Lumpur"
    },
    {
        "Postcode": "53200",
        "Location": "Jalan Kuantan",
        "Post_Office": "Kuala Lumpur",
        "State": "WP Kuala Lumpur"
    },
    {
        "Postcode": "53200",
        "Location": "Jalan Loong Hin",
        "Post_Office": "Kuala Lumpur",
        "State": "WP Kuala Lumpur"
    },
    {
        "Postcode": "53200",
        "Location": "Jalan Maran",
        "Post_Office": "Kuala Lumpur",
        "State": "WP Kuala Lumpur"
    },
    {
        "Postcode": "53200",
        "Location": "Jalan Mata Air",
        "Post_Office": "Kuala Lumpur",
        "State": "WP Kuala Lumpur"
    },
    {
        "Postcode": "53200",
        "Location": "Jalan Mentakab",
        "Post_Office": "Kuala Lumpur",
        "State": "WP Kuala Lumpur"
    },
    {
        "Postcode": "53200",
        "Location": "Jalan Ng Ngee",
        "Post_Office": "Kuala Lumpur",
        "State": "WP Kuala Lumpur"
    },
    {
        "Postcode": "53200",
        "Location": "Jalan Pahang Kecil",
        "Post_Office": "Kuala Lumpur",
        "State": "WP Kuala Lumpur"
    },
    {
        "Postcode": "53200",
        "Location": "Jalan Pasir",
        "Post_Office": "Kuala Lumpur",
        "State": "WP Kuala Lumpur"
    },
    {
        "Postcode": "53200",
        "Location": "Jalan Perusahaan Kiri",
        "Post_Office": "Kuala Lumpur",
        "State": "WP Kuala Lumpur"
    },
    {
        "Postcode": "53200",
        "Location": "Jalan Perusahaan Ringan",
        "Post_Office": "Kuala Lumpur",
        "State": "WP Kuala Lumpur"
    },
    {
        "Postcode": "53200",
        "Location": "Jalan Perusahaan Tengah",
        "Post_Office": "Kuala Lumpur",
        "State": "WP Kuala Lumpur"
    },
    {
        "Postcode": "53200",
        "Location": "Jalan Seavoy",
        "Post_Office": "Kuala Lumpur",
        "State": "WP Kuala Lumpur"
    },
    {
        "Postcode": "53200",
        "Location": "Jalan Suasa (Gombak)",
        "Post_Office": "Kuala Lumpur",
        "State": "WP Kuala Lumpur"
    },
    {
        "Postcode": "53200",
        "Location": "Jalan Swee Guat",
        "Post_Office": "Kuala Lumpur",
        "State": "WP Kuala Lumpur"
    },
    {
        "Postcode": "53200",
        "Location": "Jalan Tanah Liat",
        "Post_Office": "Kuala Lumpur",
        "State": "WP Kuala Lumpur"
    },
    {
        "Postcode": "53200",
        "Location": "Jalan Tembaga",
        "Post_Office": "Kuala Lumpur",
        "State": "WP Kuala Lumpur"
    },
    {
        "Postcode": "53200",
        "Location": "Jalan Tembeling",
        "Post_Office": "Kuala Lumpur",
        "State": "WP Kuala Lumpur"
    },
    {
        "Postcode": "53200",
        "Location": "Jalan Temerloh",
        "Post_Office": "Kuala Lumpur",
        "State": "WP Kuala Lumpur"
    },
    {
        "Postcode": "53200",
        "Location": "Jalan Timah",
        "Post_Office": "Kuala Lumpur",
        "State": "WP Kuala Lumpur"
    },
    {
        "Postcode": "53200",
        "Location": "Jalan Titiwangsa",
        "Post_Office": "Kuala Lumpur",
        "State": "WP Kuala Lumpur"
    },
    {
        "Postcode": "53200",
        "Location": "Jalan Usahawan",
        "Post_Office": "Kuala Lumpur",
        "State": "WP Kuala Lumpur"
    },
    {
        "Postcode": "53200",
        "Location": "Kampung Air Lanjut",
        "Post_Office": "Kuala Lumpur",
        "State": "WP Kuala Lumpur"
    },
    {
        "Postcode": "53200",
        "Location": "Kampung Ayer Bah",
        "Post_Office": "Kuala Lumpur",
        "State": "WP Kuala Lumpur"
    },
    {
        "Postcode": "53200",
        "Location": "Kampung Temerloh",
        "Post_Office": "Kuala Lumpur",
        "State": "WP Kuala Lumpur"
    },
    {
        "Postcode": "53200",
        "Location": "Lengkongan Mata Ayer",
        "Post_Office": "Kuala Lumpur",
        "State": "WP Kuala Lumpur"
    },
    {
        "Postcode": "53200",
        "Location": "Lingkungan Mata Air",
        "Post_Office": "Kuala Lumpur",
        "State": "WP Kuala Lumpur"
    },
    {
        "Postcode": "53200",
        "Location": "Lorong Ayer Bah",
        "Post_Office": "Kuala Lumpur",
        "State": "WP Kuala Lumpur"
    },
    {
        "Postcode": "53200",
        "Location": "Lorong Ayer Keroh",
        "Post_Office": "Kuala Lumpur",
        "State": "WP Kuala Lumpur"
    },
    {
        "Postcode": "53200",
        "Location": "Lorong Ayer Lombong",
        "Post_Office": "Kuala Lumpur",
        "State": "WP Kuala Lumpur"
    },
    {
        "Postcode": "53200",
        "Location": "Lorong Ayer Mata",
        "Post_Office": "Kuala Lumpur",
        "State": "WP Kuala Lumpur"
    },
    {
        "Postcode": "53200",
        "Location": "Lorong Ayer Putih",
        "Post_Office": "Kuala Lumpur",
        "State": "WP Kuala Lumpur"
    },
    {
        "Postcode": "53200",
        "Location": "Lorong Ayer Tawar",
        "Post_Office": "Kuala Lumpur",
        "State": "WP Kuala Lumpur"
    },
    {
        "Postcode": "53200",
        "Location": "Lorong Ayer Telaga",
        "Post_Office": "Kuala Lumpur",
        "State": "WP Kuala Lumpur"
    },
    {
        "Postcode": "53200",
        "Location": "Lorong Ayer Tenang",
        "Post_Office": "Kuala Lumpur",
        "State": "WP Kuala Lumpur"
    },
    {
        "Postcode": "53200",
        "Location": "Lorong Chan Chin Mooi",
        "Post_Office": "Kuala Lumpur",
        "State": "WP Kuala Lumpur"
    },
    {
        "Postcode": "53200",
        "Location": "Lorong Chow Thye",
        "Post_Office": "Kuala Lumpur",
        "State": "WP Kuala Lumpur"
    },
    {
        "Postcode": "53200",
        "Location": "Lorong Maran",
        "Post_Office": "Kuala Lumpur",
        "State": "WP Kuala Lumpur"
    },
    {
        "Postcode": "53200",
        "Location": "Lorong Perusahaan Ringan",
        "Post_Office": "Kuala Lumpur",
        "State": "WP Kuala Lumpur"
    },
    {
        "Postcode": "53200",
        "Location": "Medan Makmur",
        "Post_Office": "Kuala Lumpur",
        "State": "WP Kuala Lumpur"
    },
    {
        "Postcode": "53200",
        "Location": "Persiaran Kuantan",
        "Post_Office": "Kuala Lumpur",
        "State": "WP Kuala Lumpur"
    },
    {
        "Postcode": "53200",
        "Location": "Persiaran Titiwangsa",
        "Post_Office": "Kuala Lumpur",
        "State": "WP Kuala Lumpur"
    },
    {
        "Postcode": "53200",
        "Location": "Ppr Kampung Baru Air Panas",
        "Post_Office": "Kuala Lumpur",
        "State": "WP Kuala Lumpur"
    },
    {
        "Postcode": "53200",
        "Location": "Taman Air Panas",
        "Post_Office": "Kuala Lumpur",
        "State": "WP Kuala Lumpur"
    },
    {
        "Postcode": "53200",
        "Location": "Taman Genting",
        "Post_Office": "Kuala Lumpur",
        "State": "WP Kuala Lumpur"
    },
    {
        "Postcode": "53200",
        "Location": "Taman Keat Ann",
        "Post_Office": "Kuala Lumpur",
        "State": "WP Kuala Lumpur"
    },
    {
        "Postcode": "53200",
        "Location": "Taman Tasek Titiwangsa",
        "Post_Office": "Kuala Lumpur",
        "State": "WP Kuala Lumpur"
    }
]
