[
    {
        "Postcode": "48000",
        "Location": "Dolomite Templer",
        "Post_Office": "Rawang",
        "State": "Selangor"
    },
    {
        "Postcode": "48000",
        "Location": "Kampung Rajah",
        "Post_Office": "Rawang",
        "State": "Selangor"
    },
    {
        "Postcode": "48000",
        "Location": "Taman Hidayah",
        "Post_Office": "Rawang",
        "State": "Selangor"
    },
    {
        "Postcode": "48000",
        "Location": "Taman Sri Garing",
        "Post_Office": "Rawang",
        "State": "Selangor"
    },
    {
        "Postcode": "48000",
        "Location": "Taman Sri Hijau",
        "Post_Office": "Rawang",
        "State": "Selangor"
    },
    {
        "Postcode": "48000",
        "Location": "Tamansari Dahlia",
        "Post_Office": "Rawang",
        "State": "Selangor"
    },
    {
        "Postcode": "48000",
        "Location": "Taman Industri Bukit Rawang Jaya 2",
        "Post_Office": "Rawang",
        "State": "Selangor"
    },
    {
        "Postcode": "48000",
        "Location": "Taman Anggun Residensi",
        "Post_Office": "Rawang",
        "State": "Selangor"
    },
    {
        "Postcode": "48000",
        "Location": "Jalan TAR 1/8",
        "Post_Office": "Rawang",
        "State": "Selangor"
    },
    {
        "Postcode": "48000",
        "Location": "Bandar Baru Rawang",
        "Post_Office": "Rawang",
        "State": "Selangor"
    },
    {
        "Postcode": "48000",
        "Location": "Desa Kuala Garing",
        "Post_Office": "Rawang",
        "State": "Selangor"
    },
    {
        "Postcode": "48000",
        "Location": "Desa Sri Bayu",
        "Post_Office": "Rawang",
        "State": "Selangor"
    },
    {
        "Postcode": "48000",
        "Location": "Heights Templer",
        "Post_Office": "Rawang",
        "State": "Selangor"
    },
    {
        "Postcode": "48000",
        "Location": "Kampung Hilir",
        "Post_Office": "Rawang",
        "State": "Selangor"
    },
    {
        "Postcode": "48000",
        "Location": "Kampung Sri Teratai",
        "Post_Office": "Rawang",
        "State": "Selangor"
    },
    {
        "Postcode": "48000",
        "Location": "Kampung Stesen ",
        "Post_Office": "Rawang",
        "State": "Selangor"
    },
    {
        "Postcode": "48000",
        "Location": "Kampung Sungai Bakau Tambahan",
        "Post_Office": "Rawang",
        "State": "Selangor"
    },
    {
        "Postcode": "48000",
        "Location": "Kampung Sungai Dua Tambahan",
        "Post_Office": "Rawang",
        "State": "Selangor"
    },
    {
        "Postcode": "48000",
        "Location": "Kampung Tradisi",
        "Post_Office": "Rawang",
        "State": "Selangor"
    },
    {
        "Postcode": "48000",
        "Location": "Kawasan Perindustrian Hijau",
        "Post_Office": "Rawang",
        "State": "Selangor"
    },
    {
        "Postcode": "48000",
        "Location": "Kawasan Perindustrian Kri",
        "Post_Office": "Rawang",
        "State": "Selangor"
    },
    {
        "Postcode": "48000",
        "Location": "Kawasan Perindustrian Pkns",
        "Post_Office": "Rawang",
        "State": "Selangor"
    },
    {
        "Postcode": "48000",
        "Location": "Kota Bidari",
        "Post_Office": "Rawang",
        "State": "Selangor"
    },
    {
        "Postcode": "48000",
        "Location": "Park Green",
        "Post_Office": "Rawang",
        "State": "Selangor"
    },
    {
        "Postcode": "48000",
        "Location": "Park New Green ",
        "Post_Office": "Rawang",
        "State": "Selangor"
    },
    {
        "Postcode": "48000",
        "Location": "Prima Ville",
        "Post_Office": "Rawang",
        "State": "Selangor"
    },
    {
        "Postcode": "48000",
        "Location": "Pusat Perniagaan Reef",
        "Post_Office": "Rawang",
        "State": "Selangor"
    },
    {
        "Postcode": "48000",
        "Location": "Taman Anugerah Suria",
        "Post_Office": "Rawang",
        "State": "Selangor"
    },
    {
        "Postcode": "48000",
        "Location": "Taman Bukit Rawang",
        "Post_Office": "Rawang",
        "State": "Selangor"
    },
    {
        "Postcode": "48000",
        "Location": "Taman Bukit Rawang Jaya",
        "Post_Office": "Rawang",
        "State": "Selangor"
    },
    {
        "Postcode": "48000",
        "Location": "Taman Bukit Teratai",
        "Post_Office": "Rawang",
        "State": "Selangor"
    },
    {
        "Postcode": "48000",
        "Location": "Taman Cassia",
        "Post_Office": "Rawang",
        "State": "Selangor"
    },
    {
        "Postcode": "48000",
        "Location": "Taman Desa Mas",
        "Post_Office": "Rawang",
        "State": "Selangor"
    },
    {
        "Postcode": "48000",
        "Location": "Taman Garing Permai",
        "Post_Office": "Rawang",
        "State": "Selangor"
    },
    {
        "Postcode": "48000",
        "Location": "Taman Great Year",
        "Post_Office": "Rawang",
        "State": "Selangor"
    },
    {
        "Postcode": "48000",
        "Location": "Taman Industri Intergrasi Rawang",
        "Post_Office": "Rawang",
        "State": "Selangor"
    },
    {
        "Postcode": "48000",
        "Location": "Taman Kosaso",
        "Post_Office": "Rawang",
        "State": "Selangor"
    },
    {
        "Postcode": "48000",
        "Location": "Taman Mawar",
        "Post_Office": "Rawang",
        "State": "Selangor"
    },
    {
        "Postcode": "48000",
        "Location": "Taman Perindustrian Belmas Johan",
        "Post_Office": "Rawang",
        "State": "Selangor"
    },
    {
        "Postcode": "48000",
        "Location": "Taman Perindustrian Great Year Capital",
        "Post_Office": "Rawang",
        "State": "Selangor"
    },
    {
        "Postcode": "48000",
        "Location": "Taman Perindustrian Hijau",
        "Post_Office": "Rawang",
        "State": "Selangor"
    },
    {
        "Postcode": "48000",
        "Location": "Taman Tun Perak",
        "Post_Office": "Rawang",
        "State": "Selangor"
    },
    {
        "Postcode": "48000",
        "Location": "Templer Villas ",
        "Post_Office": "Rawang",
        "State": "Selangor"
    },
    {
        "Postcode": "48000",
        "Location": "Jalan Anggun 1A",
        "Post_Office": "Rawang",
        "State": "Selangor"
    },
    {
        "Postcode": "48000",
        "Location": "Jalan Anggun 1B",
        "Post_Office": "Rawang",
        "State": "Selangor"
    },
    {
        "Postcode": "48000",
        "Location": "Jalan Anggun 1C",
        "Post_Office": "Rawang",
        "State": "Selangor"
    },
    {
        "Postcode": "48000",
        "Location": "Jalan Anggun 1D",
        "Post_Office": "Rawang",
        "State": "Selangor"
    },
    {
        "Postcode": "48000",
        "Location": "Jalan Anggun 1E",
        "Post_Office": "Rawang",
        "State": "Selangor"
    },
    {
        "Postcode": "48000",
        "Location": "Jalan Anggun 1F",
        "Post_Office": "Rawang",
        "State": "Selangor"
    },
    {
        "Postcode": "48000",
        "Location": "Jalan Anggun 1G",
        "Post_Office": "Rawang",
        "State": "Selangor"
    },
    {
        "Postcode": "48000",
        "Location": "Jalan Anggun 1H",
        "Post_Office": "Rawang",
        "State": "Selangor"
    },
    {
        "Postcode": "48000",
        "Location": "Jalan Anggun 1J",
        "Post_Office": "Rawang",
        "State": "Selangor"
    },
    {
        "Postcode": "48000",
        "Location": "Jalan Anggun 1K",
        "Post_Office": "Rawang",
        "State": "Selangor"
    },
    {
        "Postcode": "48000",
        "Location": "Jalan Sj 3",
        "Post_Office": "Rawang",
        "State": "Selangor"
    },
    {
        "Postcode": "48000",
        "Location": "Taman Anggun 1",
        "Post_Office": "Rawang",
        "State": "Selangor"
    },
    {
        "Postcode": "48000",
        "Location": "Taman Setia Jaya",
        "Post_Office": "Rawang",
        "State": "Selangor"
    },
    {
        "Postcode": "48000",
        "Location": "Taman Sari",
        "Post_Office": "Rawang",
        "State": "Selangor"
    },
    {
        "Postcode": "48000",
        "Location": "Jalan Jasmin 1",
        "Post_Office": "Rawang",
        "State": "Selangor"
    },
    {
        "Postcode": "48000",
        "Location": "Jalan Jasmin 2",
        "Post_Office": "Rawang",
        "State": "Selangor"
    },
    {
        "Postcode": "48000",
        "Location": "Jalan Jasmin 3",
        "Post_Office": "Rawang",
        "State": "Selangor"
    },
    {
        "Postcode": "48000",
        "Location": "Jalan Jasmin 4",
        "Post_Office": "Rawang",
        "State": "Selangor"
    },
    {
        "Postcode": "48000",
        "Location": "Jalan Jasmin 5",
        "Post_Office": "Rawang",
        "State": "Selangor"
    },
    {
        "Postcode": "48000",
        "Location": "Jalan Jasmin 6",
        "Post_Office": "Rawang",
        "State": "Selangor"
    },
    {
        "Postcode": "48000",
        "Location": "Jalan Jasmin 7",
        "Post_Office": "Rawang",
        "State": "Selangor"
    },
    {
        "Postcode": "48000",
        "Location": "Jalan Bandar Rawang 16",
        "Post_Office": "Rawang",
        "State": "Selangor"
    },
    {
        "Postcode": "48000",
        "Location": "Jalan Bunga Pagoda",
        "Post_Office": "Rawang",
        "State": "Selangor"
    },
    {
        "Postcode": "48000",
        "Location": "Taman Saujana Rawang",
        "Post_Office": "Rawang",
        "State": "Selangor"
    },
    {
        "Postcode": "48000",
        "Location": "Jalan Sari Alamanda 10/6",
        "Post_Office": "Rawang",
        "State": "Selangor"
    },
    {
        "Postcode": "48000",
        "Location": "B \u0026 G Komersial Sentral",
        "Post_Office": "Rawang",
        "State": "Selangor"
    },
    {
        "Postcode": "48000",
        "Location": "Bandar Country Homes",
        "Post_Office": "Rawang",
        "State": "Selangor"
    },
    {
        "Postcode": "48000",
        "Location": "Jalan 4/1D",
        "Post_Office": "Rawang",
        "State": "Selangor"
    },
    {
        "Postcode": "48000",
        "Location": "Jalan Bayu Permai 5",
        "Post_Office": "Rawang",
        "State": "Selangor"
    },
    {
        "Postcode": "48000",
        "Location": "Jalan Bersatu",
        "Post_Office": "Rawang",
        "State": "Selangor"
    },
    {
        "Postcode": "48000",
        "Location": "Jalan Bg 1",
        "Post_Office": "Rawang",
        "State": "Selangor"
    },
    {
        "Postcode": "48000",
        "Location": "Jalan Bp 1",
        "Post_Office": "Rawang",
        "State": "Selangor"
    },
    {
        "Postcode": "48000",
        "Location": "Jalan Bp 29",
        "Post_Office": "Rawang",
        "State": "Selangor"
    },
    {
        "Postcode": "48000",
        "Location": "Jalan Desa",
        "Post_Office": "Rawang",
        "State": "Selangor"
    },
    {
        "Postcode": "48000",
        "Location": "Jalan Idaman 1",
        "Post_Office": "Rawang",
        "State": "Selangor"
    },
    {
        "Postcode": "48000",
        "Location": "Jalan Industri 3/4",
        "Post_Office": "Rawang",
        "State": "Selangor"
    },
    {
        "Postcode": "48000",
        "Location": "Jalan Ipoh Batu 11 Hingga Batu 15",
        "Post_Office": "Rawang",
        "State": "Selangor"
    },
    {
        "Postcode": "48000",
        "Location": "Jalan Ipoh Batu 17",
        "Post_Office": "Rawang",
        "State": "Selangor"
    },
    {
        "Postcode": "48000",
        "Location": "Jalan Ipoh Batu 18",
        "Post_Office": "Rawang",
        "State": "Selangor"
    },
    {
        "Postcode": "48000",
        "Location": "Jalan Jati",
        "Post_Office": "Rawang",
        "State": "Selangor"
    },
    {
        "Postcode": "48000",
        "Location": "Jalan Kampung Sungai Dua",
        "Post_Office": "Rawang",
        "State": "Selangor"
    },
    {
        "Postcode": "48000",
        "Location": "Jalan Kota Bidari",
        "Post_Office": "Rawang",
        "State": "Selangor"
    },
    {
        "Postcode": "48000",
        "Location": "Jalan Kuala Garing",
        "Post_Office": "Rawang",
        "State": "Selangor"
    },
    {
        "Postcode": "48000",
        "Location": "Jalan Level Crossing",
        "Post_Office": "Rawang",
        "State": "Selangor"
    },
    {
        "Postcode": "48000",
        "Location": "Jalan Maxwell",
        "Post_Office": "Rawang",
        "State": "Selangor"
    },
    {
        "Postcode": "48000",
        "Location": "Jalan Rajawali",
        "Post_Office": "Rawang",
        "State": "Selangor"
    },
    {
        "Postcode": "48000",
        "Location": "Jalan Selasih Sari",
        "Post_Office": "Rawang",
        "State": "Selangor"
    },
    {
        "Postcode": "48000",
        "Location": "Jalan Sentosa",
        "Post_Office": "Rawang",
        "State": "Selangor"
    },
    {
        "Postcode": "48000",
        "Location": "Jalan Setia",
        "Post_Office": "Rawang",
        "State": "Selangor"
    },
    {
        "Postcode": "48000",
        "Location": "Jalan Station",
        "Post_Office": "Rawang",
        "State": "Selangor"
    },
    {
        "Postcode": "48000",
        "Location": "Jalan Templer Anggun 1C",
        "Post_Office": "Rawang",
        "State": "Selangor"
    },
    {
        "Postcode": "48000",
        "Location": "Jalan Tengah",
        "Post_Office": "Rawang",
        "State": "Selangor"
    },
    {
        "Postcode": "48000",
        "Location": "Jalan Tokong ",
        "Post_Office": "Rawang",
        "State": "Selangor"
    },
    {
        "Postcode": "48000",
        "Location": "Jalan Waterfall",
        "Post_Office": "Rawang",
        "State": "Selangor"
    },
    {
        "Postcode": "48000",
        "Location": "Jalan Welman",
        "Post_Office": "Rawang",
        "State": "Selangor"
    },
    {
        "Postcode": "48000",
        "Location": "Kampung Baru",
        "Post_Office": "Rawang",
        "State": "Selangor"
    },
    {
        "Postcode": "48000",
        "Location": "Kampung Benggali",
        "Post_Office": "Rawang",
        "State": "Selangor"
    },
    {
        "Postcode": "48000",
        "Location": "Kampung Gurkha",
        "Post_Office": "Rawang",
        "State": "Selangor"
    },
    {
        "Postcode": "48000",
        "Location": "Kampung Kenanga",
        "Post_Office": "Rawang",
        "State": "Selangor"
    },
    {
        "Postcode": "48000",
        "Location": "Kampung Koskan",
        "Post_Office": "Rawang",
        "State": "Selangor"
    },
    {
        "Postcode": "48000",
        "Location": "Kampung Kuala Garing Selatan",
        "Post_Office": "Rawang",
        "State": "Selangor"
    },
    {
        "Postcode": "48000",
        "Location": "Kampung Lim Kim Sai",
        "Post_Office": "Rawang",
        "State": "Selangor"
    },
    {
        "Postcode": "48000",
        "Location": "Kampung Lim Tan",
        "Post_Office": "Rawang",
        "State": "Selangor"
    },
    {
        "Postcode": "48000",
        "Location": "Kampung Melayu (Batu 16)",
        "Post_Office": "Rawang",
        "State": "Selangor"
    },
    {
        "Postcode": "48000",
        "Location": "Kampung Melayu (Batu 19)",
        "Post_Office": "Rawang",
        "State": "Selangor"
    },
    {
        "Postcode": "48000",
        "Location": "Kampung Melayu Rajah",
        "Post_Office": "Rawang",
        "State": "Selangor"
    },
    {
        "Postcode": "48000",
        "Location": "Kampung Melayu Tambahan",
        "Post_Office": "Rawang",
        "State": "Selangor"
    },
    {
        "Postcode": "48000",
        "Location": "Kampung Muhibbah",
        "Post_Office": "Rawang",
        "State": "Selangor"
    },
    {
        "Postcode": "48000",
        "Location": "Kampung Muhibbah Haji Taib",
        "Post_Office": "Rawang",
        "State": "Selangor"
    },
    {
        "Postcode": "48000",
        "Location": "Kampung Paya",
        "Post_Office": "Rawang",
        "State": "Selangor"
    },
    {
        "Postcode": "48000",
        "Location": "Kampung Pemak",
        "Post_Office": "Rawang",
        "State": "Selangor"
    },
    {
        "Postcode": "48000",
        "Location": "Kampung Sungai Bakau",
        "Post_Office": "Rawang",
        "State": "Selangor"
    },
    {
        "Postcode": "48000",
        "Location": "Kampung Sungai Choh",
        "Post_Office": "Rawang",
        "State": "Selangor"
    },
    {
        "Postcode": "48000",
        "Location": "Kampung Sungai Dua",
        "Post_Office": "Rawang",
        "State": "Selangor"
    },
    {
        "Postcode": "48000",
        "Location": "Kampung Sungai Terentang",
        "Post_Office": "Rawang",
        "State": "Selangor"
    },
    {
        "Postcode": "48000",
        "Location": "Kampung Tanjong",
        "Post_Office": "Rawang",
        "State": "Selangor"
    },
    {
        "Postcode": "48000",
        "Location": "Komersial Sentral (Rawang)",
        "Post_Office": "Rawang",
        "State": "Selangor"
    },
    {
        "Postcode": "48000",
        "Location": "Kota Emerald",
        "Post_Office": "Rawang",
        "State": "Selangor"
    },
    {
        "Postcode": "48000",
        "Location": "Ladang Bukit Rawang",
        "Post_Office": "Rawang",
        "State": "Selangor"
    },
    {
        "Postcode": "48000",
        "Location": "Ladang E Block",
        "Post_Office": "Rawang",
        "State": "Selangor"
    },
    {
        "Postcode": "48000",
        "Location": "Ladang Sheila",
        "Post_Office": "Rawang",
        "State": "Selangor"
    },
    {
        "Postcode": "48000",
        "Location": "Ladang Waterfall",
        "Post_Office": "Rawang",
        "State": "Selangor"
    },
    {
        "Postcode": "48000",
        "Location": "Pangsapuri Bayu Aman",
        "Post_Office": "Rawang",
        "State": "Selangor"
    },
    {
        "Postcode": "48000",
        "Location": "Rawang",
        "Post_Office": "Rawang",
        "State": "Selangor"
    },
    {
        "Postcode": "48000",
        "Location": "Rawang Intergrated Industrial Park",
        "Post_Office": "Rawang",
        "State": "Selangor"
    },
    {
        "Postcode": "48000",
        "Location": "Rawang Tin",
        "Post_Office": "Rawang",
        "State": "Selangor"
    },
    {
        "Postcode": "48000",
        "Location": "Rawang Tin Fields",
        "Post_Office": "Rawang",
        "State": "Selangor"
    },
    {
        "Postcode": "48000",
        "Location": "Taman Bayu Permai",
        "Post_Office": "Rawang",
        "State": "Selangor"
    },
    {
        "Postcode": "48000",
        "Location": "Taman Bersatu",
        "Post_Office": "Rawang",
        "State": "Selangor"
    },
    {
        "Postcode": "48000",
        "Location": "Taman Bukit",
        "Post_Office": "Rawang",
        "State": "Selangor"
    },
    {
        "Postcode": "48000",
        "Location": "Taman Daya Pertama",
        "Post_Office": "Rawang",
        "State": "Selangor"
    },
    {
        "Postcode": "48000",
        "Location": "Taman Desa Mutiara",
        "Post_Office": "Rawang",
        "State": "Selangor"
    },
    {
        "Postcode": "48000",
        "Location": "Taman E Blok",
        "Post_Office": "Rawang",
        "State": "Selangor"
    },
    {
        "Postcode": "48000",
        "Location": "Taman Ehsan Ibu",
        "Post_Office": "Rawang",
        "State": "Selangor"
    },
    {
        "Postcode": "48000",
        "Location": "Taman Garing",
        "Post_Office": "Rawang",
        "State": "Selangor"
    },
    {
        "Postcode": "48000",
        "Location": "Taman Garing Jaya",
        "Post_Office": "Rawang",
        "State": "Selangor"
    },
    {
        "Postcode": "48000",
        "Location": "Taman Garing Utama",
        "Post_Office": "Rawang",
        "State": "Selangor"
    },
    {
        "Postcode": "48000",
        "Location": "Taman Hijau Baru",
        "Post_Office": "Rawang",
        "State": "Selangor"
    },
    {
        "Postcode": "48000",
        "Location": "Taman Industri Puteri Permai",
        "Post_Office": "Rawang",
        "State": "Selangor"
    },
    {
        "Postcode": "48000",
        "Location": "Taman Kampung Kenanga",
        "Post_Office": "Rawang",
        "State": "Selangor"
    },
    {
        "Postcode": "48000",
        "Location": "Taman Kancing Jaya",
        "Post_Office": "Rawang",
        "State": "Selangor"
    },
    {
        "Postcode": "48000",
        "Location": "Taman Pinggiran Pelangi",
        "Post_Office": "Rawang",
        "State": "Selangor"
    },
    {
        "Postcode": "48000",
        "Location": "Taman Rawang",
        "Post_Office": "Rawang",
        "State": "Selangor"
    },
    {
        "Postcode": "48000",
        "Location": "Taman Rawang Idaman",
        "Post_Office": "Rawang",
        "State": "Selangor"
    },
    {
        "Postcode": "48000",
        "Location": "Taman Rawang Jaya",
        "Post_Office": "Rawang",
        "State": "Selangor"
    },
    {
        "Postcode": "48000",
        "Location": "Taman Rawang Perdana",
        "Post_Office": "Rawang",
        "State": "Selangor"
    },
    {
        "Postcode": "48000",
        "Location": "Taman Rawang Putra",
        "Post_Office": "Rawang",
        "State": "Selangor"
    },
    {
        "Postcode": "48000",
        "Location": "Taman Sentosa",
        "Post_Office": "Rawang",
        "State": "Selangor"
    },
    {
        "Postcode": "48000",
        "Location": "Taman Sri Rawang",
        "Post_Office": "Rawang",
        "State": "Selangor"
    },
    {
        "Postcode": "48000",
        "Location": "Taman Temple Anggun",
        "Post_Office": "Rawang",
        "State": "Selangor"
    },
    {
        "Postcode": "48000",
        "Location": "Taman Templer",
        "Post_Office": "Rawang",
        "State": "Selangor"
    },
    {
        "Postcode": "48000",
        "Location": "Taman Templer Lagenda",
        "Post_Office": "Rawang",
        "State": "Selangor"
    },
    {
        "Postcode": "48000",
        "Location": "Taman Tun Teja",
        "Post_Office": "Rawang",
        "State": "Selangor"
    },
    {
        "Postcode": "48000",
        "Location": "Taman Velox",
        "Post_Office": "Rawang",
        "State": "Selangor"
    },
    {
        "Postcode": "48000",
        "Location": "Jalan BP 31",
        "Post_Office": "Rawang",
        "State": "Selangor"
    },
    {
        "Postcode": "48000",
        "Location": "Jalan Sari Alamanda 10",
        "Post_Office": "Rawang",
        "State": "Selangor"
    },
    {
        "Postcode": "48000",
        "Location": "Jalan Sari Alamanda 10/1",
        "Post_Office": "Rawang",
        "State": "Selangor"
    },
    {
        "Postcode": "48000",
        "Location": "Jalan Sari Alamanda 10/2",
        "Post_Office": "Rawang",
        "State": "Selangor"
    },
    {
        "Postcode": "48000",
        "Location": "Jalan Sari Alamanda 10/3",
        "Post_Office": "Rawang",
        "State": "Selangor"
    },
    {
        "Postcode": "48000",
        "Location": "Jalan Sari Alamanda 10/3A",
        "Post_Office": "Rawang",
        "State": "Selangor"
    },
    {
        "Postcode": "48000",
        "Location": "Jalan Sari Alamanda 10/5",
        "Post_Office": "Rawang",
        "State": "Selangor"
    },
    {
        "Postcode": "48000",
        "Location": "Taman Templer Jhara",
        "Post_Office": "Rawang",
        "State": "Selangor"
    },
    {
        "Postcode": "48000",
        "Location": "Taman Villa Senja",
        "Post_Office": "Rawang",
        "State": "Selangor"
    },
    {
        "Postcode": "48000",
        "Location": "Villa Senja Residence",
        "Post_Office": "Rawang",
        "State": "Selangor"
    },
    {
        "Postcode": "48000",
        "Location": "Serena Residence",
        "Post_Office": "Rawang",
        "State": "Selangor"
    },
    {
        "Postcode": "48000",
        "Location": "Templer Park Resort",
        "Post_Office": "Rawang",
        "State": "Selangor"
    },
    {
        "Postcode": "48000",
        "Location": "Taman Tasik",
        "Post_Office": "Rawang",
        "State": "Selangor"
    },
    {
        "Postcode": "48000",
        "Location": "Taman Tasik Residensi",
        "Post_Office": "Rawang",
        "State": "Selangor"
    },
    {
        "Postcode": "48000",
        "Location": "Taman Industri Rawang Indah",
        "Post_Office": "Rawang",
        "State": "Selangor"
    },
    {
        "Postcode": "48000",
        "Location": "Taman Kenanga Residence",
        "Post_Office": "Rawang",
        "State": "Selangor"
    },
    {
        "Postcode": "48000",
        "Location": "Taman Desamas",
        "Post_Office": "Rawang",
        "State": "Selangor"
    },
    {
        "Postcode": "48000",
        "Location": "Taman Sari",
        "Post_Office": "Rawang",
        "State": "Selangor"
    },
    {
        "Postcode": "48000",
        "Location": "Majestic Rawang",
        "Post_Office": "Rawang",
        "State": "Selangor"
    },
    {
        "Postcode": "48000",
        "Location": "Setia Eco Templer",
        "Post_Office": "Rawang",
        "State": "Selangor"
    },
    {
        "Postcode": "48000",
        "Location": "Bandar Country Homes Hill Residence",
        "Post_Office": "Rawang",
        "State": "Selangor"
    },
    {
        "Postcode": "48000",
        "Location": "Taman Amaryllis Tamansari",
        "Post_Office": "Rawang",
        "State": "Selangor"
    },
    {
        "Postcode": "48000",
        "Location": "Taman Camelia Tamansari",
        "Post_Office": "Rawang",
        "State": "Selangor"
    },
    {
        "Postcode": "48000",
        "Location": "Pusat Perdagangan Maison 2",
        "Post_Office": "Rawang",
        "State": "Selangor"
    },
    {
        "Postcode": "48000",
        "Location": "Templer Hill",
        "Post_Office": "Rawang",
        "State": "Selangor"
    },
    {
        "Postcode": "48000",
        "Location": "Pusat Perdagangan Maison 1",
        "Post_Office": "Rawang",
        "State": "Selangor"
    },
    {
        "Postcode": "48000",
        "Location": "Taman Anggun",
        "Post_Office": "Rawang",
        "State": "Selangor"
    },
    {
        "Postcode": "48000",
        "Location": "Kota Emerald Business Park",
        "Post_Office": "Rawang",
        "State": "Selangor"
    },
    {
        "Postcode": "48000",
        "Location": "Taman Scientex Rawang",
        "Post_Office": "Rawang",
        "State": "Selangor"
    },
    {
        "Postcode": "48000",
        "Location": "Kampung Dato Lee Kim Sai",
        "Post_Office": "Rawang",
        "State": "Selangor"
    },
    {
        "Postcode": "48000",
        "Location": "Kampung Mohd Taib",
        "Post_Office": "Rawang",
        "State": "Selangor"
    },
    {
        "Postcode": "48000",
        "Location": "Taman Amansiara",
        "Post_Office": "Rawang",
        "State": "Selangor"
    },
    {
        "Postcode": "48000",
        "Location": "Taman Setia Rawang",
        "Post_Office": "Rawang",
        "State": "Selangor"
    },
    {
        "Postcode": "48000",
        "Location": "Taman Sendayu Rawang",
        "Post_Office": "Rawang",
        "State": "Selangor"
    },
    {
        "Postcode": "48000",
        "Location": "Jalan Mawar",
        "Post_Office": "Rawang",
        "State": "Selangor"
    },
    {
        "Postcode": "48000",
        "Location": "Jalan Teratai",
        "Post_Office": "Rawang",
        "State": "Selangor"
    },
    {
        "Postcode": "48000",
        "Location": "Jalan Taiping",
        "Post_Office": "Rawang",
        "State": "Selangor"
    },
    {
        "Postcode": "48000",
        "Location": "Taman Hijau",
        "Post_Office": "Rawang",
        "State": "Selangor"
    },
    {
        "Postcode": "48000",
        "Location": "Taman Jati",
        "Post_Office": "Rawang",
        "State": "Selangor"
    },
    {
        "Postcode": "48000",
        "Location": "Taman Pelangi",
        "Post_Office": "Rawang",
        "State": "Selangor"
    },
    {
        "Postcode": "48000",
        "Location": "Jalan Batu Arang",
        "Post_Office": "Rawang",
        "State": "Selangor"
    },
    {
        "Postcode": "48000",
        "Location": "Jalan Berkat",
        "Post_Office": "Rawang",
        "State": "Selangor"
    },
    {
        "Postcode": "48000",
        "Location": "Jalan Dm-5",
        "Post_Office": "Rawang",
        "State": "Selangor"
    },
    {
        "Postcode": "48000",
        "Location": "Mutiara Residence",
        "Post_Office": "Rawang",
        "State": "Selangor"
    },
    {
        "Postcode": "48000",
        "Location": "Taman Templer Takun",
        "Post_Office": "Rawang",
        "State": "Selangor"
    },
    {
        "Postcode": "48000",
        "Location": "Kawasan Perindustrian Rawang Perdana",
        "Post_Office": "Rawang",
        "State": "Selangor"
    },
    {
        "Postcode": "48000",
        "Location": "Puteri Heights",
        "Post_Office": "Rawang",
        "State": "Selangor"
    },
    {
        "Postcode": "48000",
        "Location": "Taman Rawang Tin",
        "Post_Office": "Rawang",
        "State": "Selangor"
    },
    {
        "Postcode": "48000",
        "Location": "Plaza Rawang 1",
        "Post_Office": "Rawang",
        "State": "Selangor"
    },
    {
        "Postcode": "48000",
        "Location": "Taman Bayu Lagenda",
        "Post_Office": "Rawang",
        "State": "Selangor"
    },
    {
        "Postcode": "48000",
        "Location": "Taman Industri Bukit Rawang Jaya",
        "Post_Office": "Rawang",
        "State": "Selangor"
    },
    {
        "Postcode": "48000",
        "Location": "Pusat Perniagaan Rawang Millenium",
        "Post_Office": "Rawang",
        "State": "Selangor"
    },
    {
        "Postcode": "48000",
        "Location": "Pusat Komersial Rawang 1",
        "Post_Office": "Rawang",
        "State": "Selangor"
    },
    {
        "Postcode": "48000",
        "Location": "Taman Regensi Rawang",
        "Post_Office": "Rawang",
        "State": "Selangor"
    },
    {
        "Postcode": "48000",
        "Location": "Jalan Bandar Rawang 15",
        "Post_Office": "Rawang",
        "State": "Selangor"
    },
    {
        "Postcode": "48000",
        "Location": "Pusat Komersial Anggun City",
        "Post_Office": "Rawang",
        "State": "Selangor"
    },
    {
        "Postcode": "48000",
        "Location": "Taman Anggun 3",
        "Post_Office": "Rawang",
        "State": "Selangor"
    },
    {
        "Postcode": "48000",
        "Location": "Hospital Pakar Rawang",
        "Post_Office": "Rawang",
        "State": "Selangor"
    },
    {
        "Postcode": "48000",
        "Location": "Jalan Rawang",
        "Post_Office": "Rawang",
        "State": "Selangor"
    },
    {
        "Postcode": "48000",
        "Location": "Kawasan Perindustrian Anugerah Suria",
        "Post_Office": "Rawang",
        "State": "Selangor"
    },
    {
        "Postcode": "48000",
        "Location": "Jalan Pelangi",
        "Post_Office": "Rawang",
        "State": "Selangor"
    },
    {
        "Postcode": "48000",
        "Location": "Kampung Tanjung",
        "Post_Office": "Rawang",
        "State": "Selangor"
    },
    {
        "Postcode": "48000",
        "Location": "Pusat Perniagaan R.E.E.F 2",
        "Post_Office": "Rawang",
        "State": "Selangor"
    },
    {
        "Postcode": "48000",
        "Location": "Taman Avia Plus",
        "Post_Office": "Rawang",
        "State": "Selangor"
    },
    {
        "Postcode": "48000",
        "Location": "Taman Industri Nautical Rawang",
        "Post_Office": "Rawang",
        "State": "Selangor"
    },
    {
        "Postcode": "48000",
        "Location": "Taman Sari Rawang",
        "Post_Office": "Rawang",
        "State": "Selangor"
    },
    {
        "Postcode": "48000",
        "Location": "Taman Templer Saujana",
        "Post_Office": "Rawang",
        "State": "Selangor"
    },
    {
        "Postcode": "48000",
        "Location": "Taman Garing Gemilang",
        "Post_Office": "Rawang",
        "State": "Selangor"
    },
    {
        "Postcode": "48000",
        "Location": "Taman Perindustrian Ub Rawang",
        "Post_Office": "Rawang",
        "State": "Selangor"
    },
    {
        "Postcode": "48000",
        "Location": "Taman Perindustrian UB Rawang",
        "Post_Office": "Rawang",
        "State": "Selangor"
    },
    {
        "Postcode": "48000",
        "Location": "Prima Velox",
        "Post_Office": "Rawang",
        "State": "Selangor"
    },
    {
        "Postcode": "48000",
        "Location": "Jalan SET 2/19",
        "Post_Office": "Rawang",
        "State": "Selangor"
    },
    {
        "Postcode": "48000",
        "Location": "Jalan SET 2/1",
        "Post_Office": "Rawang",
        "State": "Selangor"
    },
    {
        "Postcode": "48000",
        "Location": "Jalan Desa Utama",
        "Post_Office": "Rawang",
        "State": "Selangor"
    },
    {
        "Postcode": "48000",
        "Location": "Pusat Komersial Avia Plus",
        "Post_Office": "Rawang",
        "State": "Selangor"
    },
    {
        "Postcode": "48000",
        "Location": "Taman Sari Alamanda",
        "Post_Office": "Rawang",
        "State": "Selangor"
    }
]
