[
    {
        "Postcode": "48020",
        "Location": "Kampung Baru Kundang",
        "Post_Office": "Rawang",
        "State": "Selangor"
    },
    {
        "Postcode": "48020",
        "Location": "Bandar Baru Kundang",
        "Post_Office": "Rawang",
        "State": "Selangor"
    },
    {
        "Postcode": "48020",
        "Location": "Kawasan Perindustrian Kundang",
        "Post_Office": "Rawang",
        "State": "Selangor"
    },
    {
        "Postcode": "48020",
        "Location": "Kawasan Perindustrian Kundang Jaya",
        "Post_Office": "Rawang",
        "State": "Selangor"
    },
    {
        "Postcode": "48020",
        "Location": "Taman Desa Kundang",
        "Post_Office": "Rawang",
        "State": "Selangor"
    },
    {
        "Postcode": "48020",
        "Location": "Taman Desa Puteri",
        "Post_Office": "Rawang",
        "State": "Selangor"
    },
    {
        "Postcode": "48020",
        "Location": "Taman M Residence",
        "Post_Office": "Rawang",
        "State": "Selangor"
    },
    {
        "Postcode": "48020",
        "Location": "Bandar Tasik Puteri",
        "Post_Office": "Rawang",
        "State": "Selangor"
    },
    {
        "Postcode": "48020",
        "Location": "Jalan 4/19, Btp 4",
        "Post_Office": "Rawang",
        "State": "Selangor"
    },
    {
        "Postcode": "48020",
        "Location": "Jalan Hijau",
        "Post_Office": "Rawang",
        "State": "Selangor"
    },
    {
        "Postcode": "48020",
        "Location": "Kampung Kuang",
        "Post_Office": "Rawang",
        "State": "Selangor"
    },
    {
        "Postcode": "48020",
        "Location": "Pangsapuri Perdana Park",
        "Post_Office": "Rawang",
        "State": "Selangor"
    },
    {
        "Postcode": "48020",
        "Location": "Pinggiran Lembah Hijau 6, Btp 15",
        "Post_Office": "Rawang",
        "State": "Selangor"
    },
    {
        "Postcode": "48020",
        "Location": "Taman Kundang Jaya",
        "Post_Office": "Rawang",
        "State": "Selangor"
    },
    {
        "Postcode": "48020",
        "Location": "Taman M-Residensi 2",
        "Post_Office": "Rawang",
        "State": "Selangor"
    },
    {
        "Postcode": "48020",
        "Location": "Taman Kundang Botanik",
        "Post_Office": "Rawang",
        "State": "Selangor"
    },
    {
        "Postcode": "48020",
        "Location": "Taman M Aruna",
        "Post_Office": "Rawang",
        "State": "Selangor"
    },
    {
        "Postcode": "48020",
        "Location": "Taman M-Residensi",
        "Post_Office": "Rawang",
        "State": "Selangor"
    },
    {
        "Postcode": "48020",
        "Location": "Taman Perindustrian Smd Kundang",
        "Post_Office": "Rawang",
        "State": "Selangor"
    },
    {
        "Postcode": "48020",
        "Location": "Taman Scientex Kundang Jaya",
        "Post_Office": "Rawang",
        "State": "Selangor"
    },
    {
        "Postcode": "48020",
        "Location": "Jalan 2/14",
        "Post_Office": "Rawang",
        "State": "Selangor"
    }
]
