[
    {
        "Postcode": "48050",
        "Location": "Kampung Baru Kuang",
        "Post_Office": "Rawang",
        "State": "Selangor"
    },
    {
        "Postcode": "48050",
        "Location": "Kampung Melayu Seri Kundang",
        "Post_Office": "Rawang",
        "State": "Selangor"
    },
    {
        "Postcode": "48050",
        "Location": "Taman Kuang Raya",
        "Post_Office": "Rawang",
        "State": "Selangor"
    },
    {
        "Postcode": "48050",
        "Location": "Bukit Nenas",
        "Post_Office": "Rawang",
        "State": "Selangor"
    },
    {
        "Postcode": "48050",
        "Location": "Jalan Permata",
        "Post_Office": "Rawang",
        "State": "Selangor"
    },
    {
        "Postcode": "48050",
        "Location": "Kampung Bukit Tempurung",
        "Post_Office": "Rawang",
        "State": "Selangor"
    },
    {
        "Postcode": "48050",
        "Location": "Kampung Cempedak",
        "Post_Office": "Rawang",
        "State": "Selangor"
    },
    {
        "Postcode": "48050",
        "Location": "Kampung Damai",
        "Post_Office": "Rawang",
        "State": "Selangor"
    },
    {
        "Postcode": "48050",
        "Location": "Kampung Gombak",
        "Post_Office": "Rawang",
        "State": "Selangor"
    },
    {
        "Postcode": "48050",
        "Location": "Kampung Permata",
        "Post_Office": "Rawang",
        "State": "Selangor"
    },
    {
        "Postcode": "48050",
        "Location": "Kampung Seri Kundang",
        "Post_Office": "Rawang",
        "State": "Selangor"
    },
    {
        "Postcode": "48050",
        "Location": "Kuang",
        "Post_Office": "Rawang",
        "State": "Selangor"
    },
    {
        "Postcode": "48050",
        "Location": "Ladang Bukit Lagong",
        "Post_Office": "Rawang",
        "State": "Selangor"
    },
    {
        "Postcode": "48050",
        "Location": "Ladang Bukit Lagong Satu",
        "Post_Office": "Rawang",
        "State": "Selangor"
    },
    {
        "Postcode": "48050",
        "Location": "Laguna Biru",
        "Post_Office": "Rawang",
        "State": "Selangor"
    },
    {
        "Postcode": "48050",
        "Location": "Lorong Bakawali",
        "Post_Office": "Rawang",
        "State": "Selangor"
    },
    {
        "Postcode": "48050",
        "Location": "Lorong Bayam",
        "Post_Office": "Rawang",
        "State": "Selangor"
    },
    {
        "Postcode": "48050",
        "Location": "Lorong Belimbing",
        "Post_Office": "Rawang",
        "State": "Selangor"
    },
    {
        "Postcode": "48050",
        "Location": "Lorong Dato Tambi",
        "Post_Office": "Rawang",
        "State": "Selangor"
    },
    {
        "Postcode": "48050",
        "Location": "Pengkalan Kundang",
        "Post_Office": "Rawang",
        "State": "Selangor"
    },
    {
        "Postcode": "48050",
        "Location": "Taman Rahmat Jaya",
        "Post_Office": "Rawang",
        "State": "Selangor"
    },
    {
        "Postcode": "48050",
        "Location": "Bandar Gamuda Gardens",
        "Post_Office": "Rawang",
        "State": "Selangor"
    },
    {
        "Postcode": "48050",
        "Location": "Lebuhraya Kl- Kuala Selangor",
        "Post_Office": "Rawang",
        "State": "Selangor"
    },
    {
        "Postcode": "48050",
        "Location": "Taman Mutiara Kundang",
        "Post_Office": "Rawang",
        "State": "Selangor"
    },
    {
        "Postcode": "48050",
        "Location": "Jalan Seri 1",
        "Post_Office": "Rawang",
        "State": "Selangor"
    },
    {
        "Postcode": "48050",
        "Location": "Jalan Tijanni 1",
        "Post_Office": "Rawang",
        "State": "Selangor"
    },
    {
        "Postcode": "48050",
        "Location": "Taman Myra Gardens",
        "Post_Office": "Rawang",
        "State": "Selangor"
    },
    {
        "Postcode": "48050",
        "Location": "Taman Tasik Biru",
        "Post_Office": "Rawang",
        "State": "Selangor"
    },
    {
        "Postcode": "48050",
        "Location": "Kampung Bunga Raya",
        "Post_Office": "Rawang",
        "State": "Selangor"
    },
    {
        "Postcode": "48050",
        "Location": "Kampung Setia",
        "Post_Office": "Rawang",
        "State": "Selangor"
    },
    {
        "Postcode": "48050",
        "Location": "Kampung Sungai Serai",
        "Post_Office": "Rawang",
        "State": "Selangor"
    },
    {
        "Postcode": "48050",
        "Location": "Lorong Durian",
        "Post_Office": "Rawang",
        "State": "Selangor"
    },
    {
        "Postcode": "48050",
        "Location": "Laman Tanjung",
        "Post_Office": "Rawang",
        "State": "Selangor"
    },
    {
        "Postcode": "48050",
        "Location": "Garden Square",
        "Post_Office": "Rawang",
        "State": "Selangor"
    },
    {
        "Postcode": "48050",
        "Location": "Taman Permata Biru",
        "Post_Office": "Rawang",
        "State": "Selangor"
    },
    {
        "Postcode": "48050",
        "Location": "Danau Mentari",
        "Post_Office": "Rawang",
        "State": "Selangor"
    },
    {
        "Postcode": "48050",
        "Location": "Laman Tanjung",
        "Post_Office": "Rawang",
        "State": "Selangor"
    }
]
