[
    {
        "Postcode": "48100",
        "Location": "Taman Great Year Capital",
        "Post_Office": "Batu Arang",
        "State": "Selangor"
    },
    {
        "Postcode": "48100",
        "Location": "Batu Arang",
        "Post_Office": "Batu Arang",
        "State": "Selangor"
    },
    {
        "Postcode": "48100",
        "Location": "Jalan Kimia",
        "Post_Office": "Batu Arang",
        "State": "Selangor"
    },
    {
        "Postcode": "48100",
        "Location": "Jalan Pasar ",
        "Post_Office": "Batu Arang",
        "State": "Selangor"
    },
    {
        "Postcode": "48100",
        "Location": "Jalan Stesyen",
        "Post_Office": "Batu Arang",
        "State": "Selangor"
    },
    {
        "Postcode": "48100",
        "Location": "Kampung Melayu",
        "Post_Office": "Batu Arang",
        "State": "Selangor"
    },
    {
        "Postcode": "48100",
        "Location": "Kampung Oc 8",
        "Post_Office": "Batu Arang",
        "State": "Selangor"
    },
    {
        "Postcode": "48100",
        "Location": "Kota Permai Section 1 Hingga Section 12",
        "Post_Office": "Batu Arang",
        "State": "Selangor"
    },
    {
        "Postcode": "48100",
        "Location": "Lorong Masjid",
        "Post_Office": "Batu Arang",
        "State": "Selangor"
    },
    {
        "Postcode": "48100",
        "Location": "Power House",
        "Post_Office": "Batu Arang",
        "State": "Selangor"
    },
    {
        "Postcode": "48100",
        "Location": "Simpah Utara \u0026 Selatan",
        "Post_Office": "Batu Arang",
        "State": "Selangor"
    },
    {
        "Postcode": "48100",
        "Location": "Taman Damai",
        "Post_Office": "Batu Arang",
        "State": "Selangor"
    },
    {
        "Postcode": "48100",
        "Location": "Taman Muhibbah",
        "Post_Office": "Batu Arang",
        "State": "Selangor"
    },
    {
        "Postcode": "48100",
        "Location": "Kota Puteri",
        "Post_Office": "Batu Arang",
        "State": "Selangor"
    },
    {
        "Postcode": "48100",
        "Location": "Idaman Pkns Selangorku@Kota Puteri 1",
        "Post_Office": "Batu Arang",
        "State": "Selangor"
    },
    {
        "Postcode": "48100",
        "Location": "Seksyen 2",
        "Post_Office": "Batu Arang",
        "State": "Selangor"
    },
    {
        "Postcode": "48100",
        "Location": "Kawasan Perindustrian Kota Puteri",
        "Post_Office": "Batu Arang",
        "State": "Selangor"
    }
]
