[
    {
        "Postcode": "48200",
        "Location": "Kampung Baru Serendah",
        "Post_Office": "Serendah",
        "State": "Selangor"
    },
    {
        "Postcode": "48200",
        "Location": "Taman Desa Kiambang",
        "Post_Office": "Serendah",
        "State": "Selangor"
    },
    {
        "Postcode": "48200",
        "Location": "Taman Pinggiran Tasik Kiambang",
        "Post_Office": "Serendah",
        "State": "Selangor"
    },
    {
        "Postcode": "48200",
        "Location": "Taman Serendah Makmur",
        "Post_Office": "Serendah",
        "State": "Selangor"
    },
    {
        "Postcode": "48200",
        "Location": "Taman Serendah Utama",
        "Post_Office": "Serendah",
        "State": "Selangor"
    },
    {
        "Postcode": "48200",
        "Location": "Taman Tasik Teratai",
        "Post_Office": "Serendah",
        "State": "Selangor"
    },
    {
        "Postcode": "48200",
        "Location": "Jalan Siantan 1",
        "Post_Office": "Serendah",
        "State": "Selangor"
    },
    {
        "Postcode": "48200",
        "Location": "Jalan Siantan Utama",
        "Post_Office": "Serendah",
        "State": "Selangor"
    },
    {
        "Postcode": "48200",
        "Location": "Taman Laman Serendah",
        "Post_Office": "Serendah",
        "State": "Selangor"
    },
    {
        "Postcode": "48200",
        "Location": "Desa Melor",
        "Post_Office": "Serendah",
        "State": "Selangor"
    },
    {
        "Postcode": "48200",
        "Location": "Emkay Apartment",
        "Post_Office": "Serendah",
        "State": "Selangor"
    },
    {
        "Postcode": "48200",
        "Location": "Emkay Lot Banglow",
        "Post_Office": "Serendah",
        "State": "Selangor"
    },
    {
        "Postcode": "48200",
        "Location": "Jalan Anggerik",
        "Post_Office": "Serendah",
        "State": "Selangor"
    },
    {
        "Postcode": "48200",
        "Location": "Jalan Angsana",
        "Post_Office": "Serendah",
        "State": "Selangor"
    },
    {
        "Postcode": "48200",
        "Location": "Jalan Antara Gapi",
        "Post_Office": "Serendah",
        "State": "Selangor"
    },
    {
        "Postcode": "48200",
        "Location": "Jalan Besar",
        "Post_Office": "Serendah",
        "State": "Selangor"
    },
    {
        "Postcode": "48200",
        "Location": "Jalan Cempaka",
        "Post_Office": "Serendah",
        "State": "Selangor"
    },
    {
        "Postcode": "48200",
        "Location": "Jalan Dahlia",
        "Post_Office": "Serendah",
        "State": "Selangor"
    },
    {
        "Postcode": "48200",
        "Location": "Jalan Estate",
        "Post_Office": "Serendah",
        "State": "Selangor"
    },
    {
        "Postcode": "48200",
        "Location": "Jalan Gapi",
        "Post_Office": "Serendah",
        "State": "Selangor"
    },
    {
        "Postcode": "48200",
        "Location": "Jalan Keruing",
        "Post_Office": "Serendah",
        "State": "Selangor"
    },
    {
        "Postcode": "48200",
        "Location": "Jalan Lily",
        "Post_Office": "Serendah",
        "State": "Selangor"
    },
    {
        "Postcode": "48200",
        "Location": "Jalan Melati",
        "Post_Office": "Serendah",
        "State": "Selangor"
    },
    {
        "Postcode": "48200",
        "Location": "Jalan Melur",
        "Post_Office": "Serendah",
        "State": "Selangor"
    },
    {
        "Postcode": "48200",
        "Location": "Jalan Pasar",
        "Post_Office": "Serendah",
        "State": "Selangor"
    },
    {
        "Postcode": "48200",
        "Location": "Jalan Wayang",
        "Post_Office": "Serendah",
        "State": "Selangor"
    },
    {
        "Postcode": "48200",
        "Location": "Kampung Baru",
        "Post_Office": "Serendah",
        "State": "Selangor"
    },
    {
        "Postcode": "48200",
        "Location": "Kampung Baru Tambahan",
        "Post_Office": "Serendah",
        "State": "Selangor"
    },
    {
        "Postcode": "48200",
        "Location": "Kampung Cina",
        "Post_Office": "Serendah",
        "State": "Selangor"
    },
    {
        "Postcode": "48200",
        "Location": "Kampung Damai",
        "Post_Office": "Serendah",
        "State": "Selangor"
    },
    {
        "Postcode": "48200",
        "Location": "Kampung Dato Harun",
        "Post_Office": "Serendah",
        "State": "Selangor"
    },
    {
        "Postcode": "48200",
        "Location": "Kampung Dato Harun Tambahan",
        "Post_Office": "Serendah",
        "State": "Selangor"
    },
    {
        "Postcode": "48200",
        "Location": "Kampung Orang Asli",
        "Post_Office": "Serendah",
        "State": "Selangor"
    },
    {
        "Postcode": "48200",
        "Location": "Kampung Orang Asli Ulu Melaka",
        "Post_Office": "Serendah",
        "State": "Selangor"
    },
    {
        "Postcode": "48200",
        "Location": "Kampung Seri Serendah",
        "Post_Office": "Serendah",
        "State": "Selangor"
    },
    {
        "Postcode": "48200",
        "Location": "Kampung Tok Pinang",
        "Post_Office": "Serendah",
        "State": "Selangor"
    },
    {
        "Postcode": "48200",
        "Location": "Kampung Tok Pinang Tambahan",
        "Post_Office": "Serendah",
        "State": "Selangor"
    },
    {
        "Postcode": "48200",
        "Location": "Ladang Serendah",
        "Post_Office": "Serendah",
        "State": "Selangor"
    },
    {
        "Postcode": "48200",
        "Location": "Ladang Sungai Gapi",
        "Post_Office": "Serendah",
        "State": "Selangor"
    },
    {
        "Postcode": "48200",
        "Location": "Persiaran Meranti Selatan",
        "Post_Office": "Serendah",
        "State": "Selangor"
    },
    {
        "Postcode": "48200",
        "Location": "Rumah Murah Serendah",
        "Post_Office": "Serendah",
        "State": "Selangor"
    },
    {
        "Postcode": "48200",
        "Location": "Serendah",
        "Post_Office": "Serendah",
        "State": "Selangor"
    },
    {
        "Postcode": "48200",
        "Location": "Serendah Estate",
        "Post_Office": "Serendah",
        "State": "Selangor"
    },
    {
        "Postcode": "48200",
        "Location": "Sungai Gapi Estate",
        "Post_Office": "Serendah",
        "State": "Selangor"
    },
    {
        "Postcode": "48200",
        "Location": "Taman Antara Gapi",
        "Post_Office": "Serendah",
        "State": "Selangor"
    },
    {
        "Postcode": "48200",
        "Location": "Taman Cahaya",
        "Post_Office": "Serendah",
        "State": "Selangor"
    },
    {
        "Postcode": "48200",
        "Location": "Taman Idaman",
        "Post_Office": "Serendah",
        "State": "Selangor"
    },
    {
        "Postcode": "48200",
        "Location": "Taman Jkkk",
        "Post_Office": "Serendah",
        "State": "Selangor"
    },
    {
        "Postcode": "48200",
        "Location": "Taman Kiambang",
        "Post_Office": "Serendah",
        "State": "Selangor"
    },
    {
        "Postcode": "48200",
        "Location": "Taman Serendah Indah",
        "Post_Office": "Serendah",
        "State": "Selangor"
    },
    {
        "Postcode": "48200",
        "Location": "Taman Serendah Melati",
        "Post_Office": "Serendah",
        "State": "Selangor"
    },
    {
        "Postcode": "48200",
        "Location": "Taman Teratai",
        "Post_Office": "Serendah",
        "State": "Selangor"
    },
    {
        "Postcode": "48200",
        "Location": "Serendah Golf Resort",
        "Post_Office": "Serendah",
        "State": "Selangor"
    },
    {
        "Postcode": "48200",
        "Location": "Desa Anggerik",
        "Post_Office": "Serendah",
        "State": "Selangor"
    },
    {
        "Postcode": "48200",
        "Location": "Jalan Mawar",
        "Post_Office": "Serendah",
        "State": "Selangor"
    },
    {
        "Postcode": "48200",
        "Location": "Jalan Teratai",
        "Post_Office": "Serendah",
        "State": "Selangor"
    },
    {
        "Postcode": "48200",
        "Location": "Taman Cempaka",
        "Post_Office": "Serendah",
        "State": "Selangor"
    },
    {
        "Postcode": "48200",
        "Location": "Taman Melati",
        "Post_Office": "Serendah",
        "State": "Selangor"
    },
    {
        "Postcode": "48200",
        "Location": "Jalan Hospital",
        "Post_Office": "Serendah",
        "State": "Selangor"
    },
    {
        "Postcode": "48200",
        "Location": "Jalan Kekwa",
        "Post_Office": "Serendah",
        "State": "Selangor"
    },
    {
        "Postcode": "48200",
        "Location": "Jalan Kempas",
        "Post_Office": "Serendah",
        "State": "Selangor"
    },
    {
        "Postcode": "48200",
        "Location": "Bandar Baru Serendah",
        "Post_Office": "Serendah",
        "State": "Selangor"
    },
    {
        "Postcode": "48200",
        "Location": "Kawasan Perindustrian Sungai Choh",
        "Post_Office": "Serendah",
        "State": "Selangor"
    },
    {
        "Postcode": "48200",
        "Location": "Jalan Stesen",
        "Post_Office": "Serendah",
        "State": "Selangor"
    },
    {
        "Postcode": "48200",
        "Location": "Kampung Melaka",
        "Post_Office": "Serendah",
        "State": "Selangor"
    }
]
