[
    {
        "Postcode": "48300",
        "Location": "Dataran Sentosa",
        "Post_Office": "Rawang",
        "State": "Selangor"
    },
    {
        "Postcode": "48300",
        "Location": "Kampung Timah",
        "Post_Office": "Rawang",
        "State": "Selangor"
    },
    {
        "Postcode": "48300",
        "Location": "Kawasan Perindustrian Bukit Beruntung",
        "Post_Office": "Rawang",
        "State": "Selangor"
    },
    {
        "Postcode": "48300",
        "Location": "Park Bukit Beruntung Industrial ",
        "Post_Office": "Rawang",
        "State": "Selangor"
    },
    {
        "Postcode": "48300",
        "Location": "Pusat Perdagangan Seri Pagi",
        "Post_Office": "Rawang",
        "State": "Selangor"
    },
    {
        "Postcode": "48300",
        "Location": "Seksyen Bb18",
        "Post_Office": "Rawang",
        "State": "Selangor"
    },
    {
        "Postcode": "48300",
        "Location": "Seksyen Bb3",
        "Post_Office": "Rawang",
        "State": "Selangor"
    },
    {
        "Postcode": "48300",
        "Location": "Seksyen Bb4",
        "Post_Office": "Rawang",
        "State": "Selangor"
    },
    {
        "Postcode": "48300",
        "Location": "Seksyen Bb5",
        "Post_Office": "Rawang",
        "State": "Selangor"
    },
    {
        "Postcode": "48300",
        "Location": "Seksyen Bb7",
        "Post_Office": "Rawang",
        "State": "Selangor"
    },
    {
        "Postcode": "48300",
        "Location": "Seksyen Bb8",
        "Post_Office": "Rawang",
        "State": "Selangor"
    },
    {
        "Postcode": "48300",
        "Location": "Seksyen Bb9",
        "Post_Office": "Rawang",
        "State": "Selangor"
    },
    {
        "Postcode": "48300",
        "Location": "Seksyen Bs1",
        "Post_Office": "Rawang",
        "State": "Selangor"
    },
    {
        "Postcode": "48300",
        "Location": "Seksyen Bs10",
        "Post_Office": "Rawang",
        "State": "Selangor"
    },
    {
        "Postcode": "48300",
        "Location": "Seksyen Bs2",
        "Post_Office": "Rawang",
        "State": "Selangor"
    },
    {
        "Postcode": "48300",
        "Location": "Seksyen Bs3",
        "Post_Office": "Rawang",
        "State": "Selangor"
    },
    {
        "Postcode": "48300",
        "Location": "Seksyen Bs5",
        "Post_Office": "Rawang",
        "State": "Selangor"
    },
    {
        "Postcode": "48300",
        "Location": "Seksyen Bs6",
        "Post_Office": "Rawang",
        "State": "Selangor"
    },
    {
        "Postcode": "48300",
        "Location": "Seksyen Bs7",
        "Post_Office": "Rawang",
        "State": "Selangor"
    },
    {
        "Postcode": "48300",
        "Location": "Seksyen Bs8",
        "Post_Office": "Rawang",
        "State": "Selangor"
    },
    {
        "Postcode": "48300",
        "Location": "Seksyen Bs9",
        "Post_Office": "Rawang",
        "State": "Selangor"
    },
    {
        "Postcode": "48300",
        "Location": "Taman Bunga Raya",
        "Post_Office": "Rawang",
        "State": "Selangor"
    },
    {
        "Postcode": "48300",
        "Location": "Persiaran Camellia",
        "Post_Office": "Rawang",
        "State": "Selangor"
    },
    {
        "Postcode": "48300",
        "Location": "Seksyen Bb2",
        "Post_Office": "Rawang",
        "State": "Selangor"
    },
    {
        "Postcode": "48300",
        "Location": "Bandar Bukit Beruntung",
        "Post_Office": "Rawang",
        "State": "Selangor"
    },
    {
        "Postcode": "48300",
        "Location": "Bukit Beruntung",
        "Post_Office": "Rawang",
        "State": "Selangor"
    },
    {
        "Postcode": "48300",
        "Location": "Bukit Fraser",
        "Post_Office": "Rawang",
        "State": "Selangor"
    },
    {
        "Postcode": "48300",
        "Location": "Jalan Anggerik",
        "Post_Office": "Rawang",
        "State": "Selangor"
    },
    {
        "Postcode": "48300",
        "Location": "Jalan Bakawali",
        "Post_Office": "Rawang",
        "State": "Selangor"
    },
    {
        "Postcode": "48300",
        "Location": "Jalan Bunga Dahlia",
        "Post_Office": "Rawang",
        "State": "Selangor"
    },
    {
        "Postcode": "48300",
        "Location": "Jalan Bunga Kenanga",
        "Post_Office": "Rawang",
        "State": "Selangor"
    },
    {
        "Postcode": "48300",
        "Location": "Jalan Bunga Kertas",
        "Post_Office": "Rawang",
        "State": "Selangor"
    },
    {
        "Postcode": "48300",
        "Location": "Jalan Bunga Ros",
        "Post_Office": "Rawang",
        "State": "Selangor"
    },
    {
        "Postcode": "48300",
        "Location": "Jalan Bunga Tanjung",
        "Post_Office": "Rawang",
        "State": "Selangor"
    },
    {
        "Postcode": "48300",
        "Location": "Jalan Bunga Teluki",
        "Post_Office": "Rawang",
        "State": "Selangor"
    },
    {
        "Postcode": "48300",
        "Location": "Jalan Bunga Teratai",
        "Post_Office": "Rawang",
        "State": "Selangor"
    },
    {
        "Postcode": "48300",
        "Location": "Jalan Bunga Tulip",
        "Post_Office": "Rawang",
        "State": "Selangor"
    },
    {
        "Postcode": "48300",
        "Location": "Jalan Daisi",
        "Post_Office": "Rawang",
        "State": "Selangor"
    },
    {
        "Postcode": "48300",
        "Location": "Jalan Jasmin",
        "Post_Office": "Rawang",
        "State": "Selangor"
    },
    {
        "Postcode": "48300",
        "Location": "Jalan Jenjarom",
        "Post_Office": "Rawang",
        "State": "Selangor"
    },
    {
        "Postcode": "48300",
        "Location": "Jalan Kasturi",
        "Post_Office": "Rawang",
        "State": "Selangor"
    },
    {
        "Postcode": "48300",
        "Location": "Jalan Kelana",
        "Post_Office": "Rawang",
        "State": "Selangor"
    },
    {
        "Postcode": "48300",
        "Location": "Jalan Kemunting",
        "Post_Office": "Rawang",
        "State": "Selangor"
    },
    {
        "Postcode": "48300",
        "Location": "Jalan Kesumba",
        "Post_Office": "Rawang",
        "State": "Selangor"
    },
    {
        "Postcode": "48300",
        "Location": "Jalan Melor",
        "Post_Office": "Rawang",
        "State": "Selangor"
    },
    {
        "Postcode": "48300",
        "Location": "Jalan Semarak",
        "Post_Office": "Rawang",
        "State": "Selangor"
    },
    {
        "Postcode": "48300",
        "Location": "Jalan Seroja",
        "Post_Office": "Rawang",
        "State": "Selangor"
    },
    {
        "Postcode": "48300",
        "Location": "Jalan Telipot",
        "Post_Office": "Rawang",
        "State": "Selangor"
    },
    {
        "Postcode": "48300",
        "Location": "Jalan Terompet",
        "Post_Office": "Rawang",
        "State": "Selangor"
    },
    {
        "Postcode": "48300",
        "Location": "Seksyen Bb11",
        "Post_Office": "Rawang",
        "State": "Selangor"
    },
    {
        "Postcode": "48300",
        "Location": "Jalan Bunga Raya",
        "Post_Office": "Rawang",
        "State": "Selangor"
    }
]
