[
    {
        "Postcode": "08000",
        "Location": "Jalan Kolam Air",
        "Post_Office": "Sungai Petani",
        "State": "Kedah"
    },
    {
        "Postcode": "08000",
        "Location": "Jalan Kampung Baru",
        "Post_Office": "Sungai Petani",
        "State": "Kedah"
    },
    {
        "Postcode": "08000",
        "Location": "Jalan Pengkalan",
        "Post_Office": "Sungai Petani",
        "State": "Kedah"
    },
    {
        "Postcode": "08000",
        "Location": "Jalan Sekerat",
        "Post_Office": "Sungai Petani",
        "State": "Kedah"
    },
    {
        "Postcode": "08000",
        "Location": "Kampung Bakar Sampah",
        "Post_Office": "Sungai Petani",
        "State": "Kedah"
    },
    {
        "Postcode": "08000",
        "Location": "Kampung Pulau Tengah",
        "Post_Office": "Sungai Petani",
        "State": "Kedah"
    },
    {
        "Postcode": "08000",
        "Location": "Kampung Sireh",
        "Post_Office": "Sungai Petani",
        "State": "Kedah"
    },
    {
        "Postcode": "08000",
        "Location": "Taman Baiduri",
        "Post_Office": "Sungai Petani",
        "State": "Kedah"
    },
    {
        "Postcode": "08000",
        "Location": "Taman Bandar Baru",
        "Post_Office": "Sungai Petani",
        "State": "Kedah"
    },
    {
        "Postcode": "08000",
        "Location": "Taman Cemara",
        "Post_Office": "Sungai Petani",
        "State": "Kedah"
    },
    {
        "Postcode": "08000",
        "Location": "Taman Cendana",
        "Post_Office": "Sungai Petani",
        "State": "Kedah"
    },
    {
        "Postcode": "08000",
        "Location": "Taman Desa Aman",
        "Post_Office": "Sungai Petani",
        "State": "Kedah"
    },
    {
        "Postcode": "08000",
        "Location": "Taman Keladi",
        "Post_Office": "Sungai Petani",
        "State": "Kedah"
    },
    {
        "Postcode": "08000",
        "Location": "Taman Kempas",
        "Post_Office": "Sungai Petani",
        "State": "Kedah"
    },
    {
        "Postcode": "08000",
        "Location": "Taman Kenari Biru",
        "Post_Office": "Sungai Petani",
        "State": "Kedah"
    },
    {
        "Postcode": "08000",
        "Location": "Taman Mewah",
        "Post_Office": "Sungai Petani",
        "State": "Kedah"
    },
    {
        "Postcode": "08000",
        "Location": "Taman Mewah Jaya",
        "Post_Office": "Sungai Petani",
        "State": "Kedah"
    },
    {
        "Postcode": "08000",
        "Location": "Taman Mulia",
        "Post_Office": "Sungai Petani",
        "State": "Kedah"
    },
    {
        "Postcode": "08000",
        "Location": "Taman Permai",
        "Post_Office": "Sungai Petani",
        "State": "Kedah"
    },
    {
        "Postcode": "08000",
        "Location": "Taman Seri Tanjung",
        "Post_Office": "Sungai Petani",
        "State": "Kedah"
    },
    {
        "Postcode": "08000",
        "Location": "Taman Serindik",
        "Post_Office": "Sungai Petani",
        "State": "Kedah"
    },
    {
        "Postcode": "08000",
        "Location": "Taman Sutera",
        "Post_Office": "Sungai Petani",
        "State": "Kedah"
    },
    {
        "Postcode": "08000",
        "Location": "Ambangan Height",
        "Post_Office": "Sungai Petani",
        "State": "Kedah"
    },
    {
        "Postcode": "08000",
        "Location": "Bakar Arang",
        "Post_Office": "Sungai Petani",
        "State": "Kedah"
    },
    {
        "Postcode": "08000",
        "Location": "Bandar Laguna Merbok",
        "Post_Office": "Sungai Petani",
        "State": "Kedah"
    },
    {
        "Postcode": "08000",
        "Location": "Bandar Perdana",
        "Post_Office": "Sungai Petani",
        "State": "Kedah"
    },
    {
        "Postcode": "08000",
        "Location": "Bandar Perdana 9/1",
        "Post_Office": "Sungai Petani",
        "State": "Kedah"
    },
    {
        "Postcode": "08000",
        "Location": "Bandar Puteri Jaya",
        "Post_Office": "Sungai Petani",
        "State": "Kedah"
    },
    {
        "Postcode": "08000",
        "Location": "Batu 9 Lubuk Kawah",
        "Post_Office": "Sungai Petani",
        "State": "Kedah"
    },
    {
        "Postcode": "08000",
        "Location": "Dataran Semangat",
        "Post_Office": "Sungai Petani",
        "State": "Kedah"
    },
    {
        "Postcode": "08000",
        "Location": "Flat Paya Nahu",
        "Post_Office": "Sungai Petani",
        "State": "Kedah"
    },
    {
        "Postcode": "08000",
        "Location": "Jalan Badlishah",
        "Post_Office": "Sungai Petani",
        "State": "Kedah"
    },
    {
        "Postcode": "08000",
        "Location": "Jalan Bakar Kapor",
        "Post_Office": "Sungai Petani",
        "State": "Kedah"
    },
    {
        "Postcode": "08000",
        "Location": "Jalan Bakar Sampah",
        "Post_Office": "Sungai Petani",
        "State": "Kedah"
    },
    {
        "Postcode": "08000",
        "Location": "Jalan Bank",
        "Post_Office": "Sungai Petani",
        "State": "Kedah"
    },
    {
        "Postcode": "08000",
        "Location": "Jalan Belakang Masjid Bakar Arang",
        "Post_Office": "Sungai Petani",
        "State": "Kedah"
    },
    {
        "Postcode": "08000",
        "Location": "Jalan Bukit Lembu",
        "Post_Office": "Sungai Petani",
        "State": "Kedah"
    },
    {
        "Postcode": "08000",
        "Location": "Jalan Bunga Rampai",
        "Post_Office": "Sungai Petani",
        "State": "Kedah"
    },
    {
        "Postcode": "08000",
        "Location": "Jalan Dato Syed Osman Idid",
        "Post_Office": "Sungai Petani",
        "State": "Kedah"
    },
    {
        "Postcode": "08000",
        "Location": "Jalan Dewa",
        "Post_Office": "Sungai Petani",
        "State": "Kedah"
    },
    {
        "Postcode": "08000",
        "Location": "Jalan Gemelan Kuda Kepang",
        "Post_Office": "Sungai Petani",
        "State": "Kedah"
    },
    {
        "Postcode": "08000",
        "Location": "Jalan Hospital",
        "Post_Office": "Sungai Petani",
        "State": "Kedah"
    },
    {
        "Postcode": "08000",
        "Location": "Jalan Ibrahim",
        "Post_Office": "Sungai Petani",
        "State": "Kedah"
    },
    {
        "Postcode": "08000",
        "Location": "Jalan Inang",
        "Post_Office": "Sungai Petani",
        "State": "Kedah"
    },
    {
        "Postcode": "08000",
        "Location": "Jalan Kampung Tengah",
        "Post_Office": "Sungai Petani",
        "State": "Kedah"
    },
    {
        "Postcode": "08000",
        "Location": "Jalan Kapal Terbang",
        "Post_Office": "Sungai Petani",
        "State": "Kedah"
    },
    {
        "Postcode": "08000",
        "Location": "Jalan Kelab Cinta Sayang",
        "Post_Office": "Sungai Petani",
        "State": "Kedah"
    },
    {
        "Postcode": "08000",
        "Location": "Jalan Kilang Papan Pekan Lama",
        "Post_Office": "Sungai Petani",
        "State": "Kedah"
    },
    {
        "Postcode": "08000",
        "Location": "Jalan Kuala Ketil (Batu 2)",
        "Post_Office": "Sungai Petani",
        "State": "Kedah"
    },
    {
        "Postcode": "08000",
        "Location": "Jalan Kuda Kepang",
        "Post_Office": "Sungai Petani",
        "State": "Kedah"
    },
    {
        "Postcode": "08000",
        "Location": "Jalan Mawar Satu (Bakar Kapor)",
        "Post_Office": "Sungai Petani",
        "State": "Kedah"
    },
    {
        "Postcode": "08000",
        "Location": "Jalan Merbok",
        "Post_Office": "Sungai Petani",
        "State": "Kedah"
    },
    {
        "Postcode": "08000",
        "Location": "Jalan Merpati",
        "Post_Office": "Sungai Petani",
        "State": "Kedah"
    },
    {
        "Postcode": "08000",
        "Location": "Jalan Pekaka",
        "Post_Office": "Sungai Petani",
        "State": "Kedah"
    },
    {
        "Postcode": "08000",
        "Location": "Jalan Penghulu Him",
        "Post_Office": "Sungai Petani",
        "State": "Kedah"
    },
    {
        "Postcode": "08000",
        "Location": "Jalan Pengkalan Lebai Man",
        "Post_Office": "Sungai Petani",
        "State": "Kedah"
    },
    {
        "Postcode": "08000",
        "Location": "Jalan Pergam",
        "Post_Office": "Sungai Petani",
        "State": "Kedah"
    },
    {
        "Postcode": "08000",
        "Location": "Jalan Permatang Gedong",
        "Post_Office": "Sungai Petani",
        "State": "Kedah"
    },
    {
        "Postcode": "08000",
        "Location": "Jalan Petani",
        "Post_Office": "Sungai Petani",
        "State": "Kedah"
    },
    {
        "Postcode": "08000",
        "Location": "Jalan Putri",
        "Post_Office": "Sungai Petani",
        "State": "Kedah"
    },
    {
        "Postcode": "08000",
        "Location": "Jalan Sungai Layar",
        "Post_Office": "Sungai Petani",
        "State": "Kedah"
    },
    {
        "Postcode": "08000",
        "Location": "Jalan Taman Intan",
        "Post_Office": "Sungai Petani",
        "State": "Kedah"
    },
    {
        "Postcode": "08000",
        "Location": "Jalan Tiong",
        "Post_Office": "Sungai Petani",
        "State": "Kedah"
    },
    {
        "Postcode": "08000",
        "Location": "Jalan Undan",
        "Post_Office": "Sungai Petani",
        "State": "Kedah"
    },
    {
        "Postcode": "08000",
        "Location": "Kampung Abbas",
        "Post_Office": "Sungai Petani",
        "State": "Kedah"
    },
    {
        "Postcode": "08000",
        "Location": "Kampung Air Mendidih",
        "Post_Office": "Sungai Petani",
        "State": "Kedah"
    },
    {
        "Postcode": "08000",
        "Location": "Kampung Asam",
        "Post_Office": "Sungai Petani",
        "State": "Kedah"
    },
    {
        "Postcode": "08000",
        "Location": "Kampung Asi",
        "Post_Office": "Sungai Petani",
        "State": "Kedah"
    },
    {
        "Postcode": "08000",
        "Location": "Kampung Bakar Arang",
        "Post_Office": "Sungai Petani",
        "State": "Kedah"
    },
    {
        "Postcode": "08000",
        "Location": "Kampung Bakar Bata",
        "Post_Office": "Sungai Petani",
        "State": "Kedah"
    },
    {
        "Postcode": "08000",
        "Location": "Kampung Bakar Kapor",
        "Post_Office": "Sungai Petani",
        "State": "Kedah"
    },
    {
        "Postcode": "08000",
        "Location": "Kampung Bakar Sampah Lima",
        "Post_Office": "Sungai Petani",
        "State": "Kedah"
    },
    {
        "Postcode": "08000",
        "Location": "Kampung Baru",
        "Post_Office": "Sungai Petani",
        "State": "Kedah"
    },
    {
        "Postcode": "08000",
        "Location": "Kampung Baru Permatang Berangan",
        "Post_Office": "Sungai Petani",
        "State": "Kedah"
    },
    {
        "Postcode": "08000",
        "Location": "Kampung Baru Pinang Tunggal",
        "Post_Office": "Sungai Petani",
        "State": "Kedah"
    },
    {
        "Postcode": "08000",
        "Location": "Kampung Baru Sungai Pasir",
        "Post_Office": "Sungai Petani",
        "State": "Kedah"
    },
    {
        "Postcode": "08000",
        "Location": "Kampung Baru Sungai Pasir Kecil (Jalan Kuala Ketil)",
        "Post_Office": "Sungai Petani",
        "State": "Kedah"
    },
    {
        "Postcode": "08000",
        "Location": "Kampung Batu Dua",
        "Post_Office": "Sungai Petani",
        "State": "Kedah"
    },
    {
        "Postcode": "08000",
        "Location": "Kampung Belakang Kilang Papan",
        "Post_Office": "Sungai Petani",
        "State": "Kedah"
    },
    {
        "Postcode": "08000",
        "Location": "Kampung Belakang Sekolah Cina",
        "Post_Office": "Sungai Petani",
        "State": "Kedah"
    },
    {
        "Postcode": "08000",
        "Location": "Kampung Belakang Sekolah Menengah",
        "Post_Office": "Sungai Petani",
        "State": "Kedah"
    },
    {
        "Postcode": "08000",
        "Location": "Kampung Belakang Taman Sungai Lalang",
        "Post_Office": "Sungai Petani",
        "State": "Kedah"
    },
    {
        "Postcode": "08000",
        "Location": "Kampung Blok Hospital",
        "Post_Office": "Sungai Petani",
        "State": "Kedah"
    },
    {
        "Postcode": "08000",
        "Location": "Kampung Bukit Belah",
        "Post_Office": "Sungai Petani",
        "State": "Kedah"
    },
    {
        "Postcode": "08000",
        "Location": "Kampung Bukit Pengkalan Lebai Man",
        "Post_Office": "Sungai Petani",
        "State": "Kedah"
    },
    {
        "Postcode": "08000",
        "Location": "Kampung Bukit Sera",
        "Post_Office": "Sungai Petani",
        "State": "Kedah"
    },
    {
        "Postcode": "08000",
        "Location": "Kampung Bukit Sungai Pasir",
        "Post_Office": "Sungai Petani",
        "State": "Kedah"
    },
    {
        "Postcode": "08000",
        "Location": "Kampung Ceruk Kelian",
        "Post_Office": "Sungai Petani",
        "State": "Kedah"
    },
    {
        "Postcode": "08000",
        "Location": "Kampung Ceruk Kelubi",
        "Post_Office": "Sungai Petani",
        "State": "Kedah"
    },
    {
        "Postcode": "08000",
        "Location": "Kampung Dakwah",
        "Post_Office": "Sungai Petani",
        "State": "Kedah"
    },
    {
        "Postcode": "08000",
        "Location": "Kampung Depan Balai",
        "Post_Office": "Sungai Petani",
        "State": "Kedah"
    },
    {
        "Postcode": "08000",
        "Location": "Kampung Gelugur",
        "Post_Office": "Sungai Petani",
        "State": "Kedah"
    },
    {
        "Postcode": "08000",
        "Location": "Kampung Gok",
        "Post_Office": "Sungai Petani",
        "State": "Kedah"
    },
    {
        "Postcode": "08000",
        "Location": "Kampung Gok Arang",
        "Post_Office": "Sungai Petani",
        "State": "Kedah"
    },
    {
        "Postcode": "08000",
        "Location": "Kampung Haji Din",
        "Post_Office": "Sungai Petani",
        "State": "Kedah"
    },
    {
        "Postcode": "08000",
        "Location": "Kampung Haji Ibrahim",
        "Post_Office": "Sungai Petani",
        "State": "Kedah"
    },
    {
        "Postcode": "08000",
        "Location": "Kampung Haji Rashid",
        "Post_Office": "Sungai Petani",
        "State": "Kedah"
    },
    {
        "Postcode": "08000",
        "Location": "Kampung Haji Wahab",
        "Post_Office": "Sungai Petani",
        "State": "Kedah"
    },
    {
        "Postcode": "08000",
        "Location": "Kampung Huda",
        "Post_Office": "Sungai Petani",
        "State": "Kedah"
    },
    {
        "Postcode": "08000",
        "Location": "Kampung Jalan Kilang Papan",
        "Post_Office": "Sungai Petani",
        "State": "Kedah"
    },
    {
        "Postcode": "08000",
        "Location": "Kampung Jawa",
        "Post_Office": "Sungai Petani",
        "State": "Kedah"
    },
    {
        "Postcode": "08000",
        "Location": "Kampung Jerung",
        "Post_Office": "Sungai Petani",
        "State": "Kedah"
    },
    {
        "Postcode": "08000",
        "Location": "Kampung Jurung",
        "Post_Office": "Sungai Petani",
        "State": "Kedah"
    },
    {
        "Postcode": "08000",
        "Location": "Kampung Kari",
        "Post_Office": "Sungai Petani",
        "State": "Kedah"
    },
    {
        "Postcode": "08000",
        "Location": "Kampung Kebun Bunga",
        "Post_Office": "Sungai Petani",
        "State": "Kedah"
    },
    {
        "Postcode": "08000",
        "Location": "Kampung Keda",
        "Post_Office": "Sungai Petani",
        "State": "Kedah"
    },
    {
        "Postcode": "08000",
        "Location": "Kampung Kendudong",
        "Post_Office": "Sungai Petani",
        "State": "Kedah"
    },
    {
        "Postcode": "08000",
        "Location": "Kampung Kerbau",
        "Post_Office": "Sungai Petani",
        "State": "Kedah"
    },
    {
        "Postcode": "08000",
        "Location": "Kampung Kilang Makau",
        "Post_Office": "Sungai Petani",
        "State": "Kedah"
    },
    {
        "Postcode": "08000",
        "Location": "Kampung Kongsi Enam",
        "Post_Office": "Sungai Petani",
        "State": "Kedah"
    },
    {
        "Postcode": "08000",
        "Location": "Kampung Kuda / Kuil",
        "Post_Office": "Sungai Petani",
        "State": "Kedah"
    },
    {
        "Postcode": "08000",
        "Location": "Kampung Lubok Kawah",
        "Post_Office": "Sungai Petani",
        "State": "Kedah"
    },
    {
        "Postcode": "08000",
        "Location": "Kampung Lubok Kiab",
        "Post_Office": "Sungai Petani",
        "State": "Kedah"
    },
    {
        "Postcode": "08000",
        "Location": "Kampung Masjid Sungai Layar",
        "Post_Office": "Sungai Petani",
        "State": "Kedah"
    },
    {
        "Postcode": "08000",
        "Location": "Kampung Masjid Sungai Pasir",
        "Post_Office": "Sungai Petani",
        "State": "Kedah"
    },
    {
        "Postcode": "08000",
        "Location": "Kampung Matang Berangan",
        "Post_Office": "Sungai Petani",
        "State": "Kedah"
    },
    {
        "Postcode": "08000",
        "Location": "Kampung Matang Dedung",
        "Post_Office": "Sungai Petani",
        "State": "Kedah"
    },
    {
        "Postcode": "08000",
        "Location": "Kampung Matang Kedundong",
        "Post_Office": "Sungai Petani",
        "State": "Kedah"
    },
    {
        "Postcode": "08000",
        "Location": "Kampung Nakhoda",
        "Post_Office": "Sungai Petani",
        "State": "Kedah"
    },
    {
        "Postcode": "08000",
        "Location": "Kampung Pa In",
        "Post_Office": "Sungai Petani",
        "State": "Kedah"
    },
    {
        "Postcode": "08000",
        "Location": "Kampung Padang Sungai Pasir",
        "Post_Office": "Sungai Petani",
        "State": "Kedah"
    },
    {
        "Postcode": "08000",
        "Location": "Kampung Padang Temusu",
        "Post_Office": "Sungai Petani",
        "State": "Kedah"
    },
    {
        "Postcode": "08000",
        "Location": "Kampung Pak Ibrahim (Kampung Raja)",
        "Post_Office": "Sungai Petani",
        "State": "Kedah"
    },
    {
        "Postcode": "08000",
        "Location": "Kampung Paya Dua",
        "Post_Office": "Sungai Petani",
        "State": "Kedah"
    },
    {
        "Postcode": "08000",
        "Location": "Kampung Paya Empat",
        "Post_Office": "Sungai Petani",
        "State": "Kedah"
    },
    {
        "Postcode": "08000",
        "Location": "Kampung Paya Nahu",
        "Post_Office": "Sungai Petani",
        "State": "Kedah"
    },
    {
        "Postcode": "08000",
        "Location": "Kampung Penggir",
        "Post_Office": "Sungai Petani",
        "State": "Kedah"
    },
    {
        "Postcode": "08000",
        "Location": "Kampung Penghulu Him",
        "Post_Office": "Sungai Petani",
        "State": "Kedah"
    },
    {
        "Postcode": "08000",
        "Location": "Kampung Pengkalan",
        "Post_Office": "Sungai Petani",
        "State": "Kedah"
    },
    {
        "Postcode": "08000",
        "Location": "Kampung Pengkalan Lebai Man",
        "Post_Office": "Sungai Petani",
        "State": "Kedah"
    },
    {
        "Postcode": "08000",
        "Location": "Kampung Permatang Berangan",
        "Post_Office": "Sungai Petani",
        "State": "Kedah"
    },
    {
        "Postcode": "08000",
        "Location": "Kampung Pinang Dalam",
        "Post_Office": "Sungai Petani",
        "State": "Kedah"
    },
    {
        "Postcode": "08000",
        "Location": "Kampung Pinang Luar",
        "Post_Office": "Sungai Petani",
        "State": "Kedah"
    },
    {
        "Postcode": "08000",
        "Location": "Kampung Pinggir",
        "Post_Office": "Sungai Petani",
        "State": "Kedah"
    },
    {
        "Postcode": "08000",
        "Location": "Kampung Pokok Limau",
        "Post_Office": "Sungai Petani",
        "State": "Kedah"
    },
    {
        "Postcode": "08000",
        "Location": "Kampung Pulau Hawai",
        "Post_Office": "Sungai Petani",
        "State": "Kedah"
    },
    {
        "Postcode": "08000",
        "Location": "Kampung Pulau Tiga",
        "Post_Office": "Sungai Petani",
        "State": "Kedah"
    },
    {
        "Postcode": "08000",
        "Location": "Kampung Pulau Tok Daud",
        "Post_Office": "Sungai Petani",
        "State": "Kedah"
    },
    {
        "Postcode": "08000",
        "Location": "Kampung Raja",
        "Post_Office": "Sungai Petani",
        "State": "Kedah"
    },
    {
        "Postcode": "08000",
        "Location": "Kampung Raja Garden",
        "Post_Office": "Sungai Petani",
        "State": "Kedah"
    },
    {
        "Postcode": "08000",
        "Location": "Kampung Redang",
        "Post_Office": "Sungai Petani",
        "State": "Kedah"
    },
    {
        "Postcode": "08000",
        "Location": "Kampung Sebelas",
        "Post_Office": "Sungai Petani",
        "State": "Kedah"
    },
    {
        "Postcode": "08000",
        "Location": "Kampung Seberang Sungai",
        "Post_Office": "Sungai Petani",
        "State": "Kedah"
    },
    {
        "Postcode": "08000",
        "Location": "Kampung Seberang Tok Soh",
        "Post_Office": "Sungai Petani",
        "State": "Kedah"
    },
    {
        "Postcode": "08000",
        "Location": "Kampung Sharif Tukang",
        "Post_Office": "Sungai Petani",
        "State": "Kedah"
    },
    {
        "Postcode": "08000",
        "Location": "Kampung Songkia",
        "Post_Office": "Sungai Petani",
        "State": "Kedah"
    },
    {
        "Postcode": "08000",
        "Location": "Kampung Songkiar",
        "Post_Office": "Sungai Petani",
        "State": "Kedah"
    },
    {
        "Postcode": "08000",
        "Location": "Kampung Sungai Gelugur",
        "Post_Office": "Sungai Petani",
        "State": "Kedah"
    },
    {
        "Postcode": "08000",
        "Location": "Kampung Sungai Getah",
        "Post_Office": "Sungai Petani",
        "State": "Kedah"
    },
    {
        "Postcode": "08000",
        "Location": "Kampung Sungai Layar",
        "Post_Office": "Sungai Petani",
        "State": "Kedah"
    },
    {
        "Postcode": "08000",
        "Location": "Kampung Sungai Tukang",
        "Post_Office": "Sungai Petani",
        "State": "Kedah"
    },
    {
        "Postcode": "08000",
        "Location": "Kampung Sungai Ujung",
        "Post_Office": "Sungai Petani",
        "State": "Kedah"
    },
    {
        "Postcode": "08000",
        "Location": "Kampung Sungkup Para",
        "Post_Office": "Sungai Petani",
        "State": "Kedah"
    },
    {
        "Postcode": "08000",
        "Location": "Kampung Surkam",
        "Post_Office": "Sungai Petani",
        "State": "Kedah"
    },
    {
        "Postcode": "08000",
        "Location": "Kampung Taman Mandi Lembu",
        "Post_Office": "Sungai Petani",
        "State": "Kedah"
    },
    {
        "Postcode": "08000",
        "Location": "Kampung Tanah Seribu",
        "Post_Office": "Sungai Petani",
        "State": "Kedah"
    },
    {
        "Postcode": "08000",
        "Location": "Kampung Tanah Seribu (Jalan Bukit Lembu)",
        "Post_Office": "Sungai Petani",
        "State": "Kedah"
    },
    {
        "Postcode": "08000",
        "Location": "Kampung Tasek Apong",
        "Post_Office": "Sungai Petani",
        "State": "Kedah"
    },
    {
        "Postcode": "08000",
        "Location": "Kampung Telok Wan Besar",
        "Post_Office": "Sungai Petani",
        "State": "Kedah"
    },
    {
        "Postcode": "08000",
        "Location": "Kampung Telok Wang Kecil",
        "Post_Office": "Sungai Petani",
        "State": "Kedah"
    },
    {
        "Postcode": "08000",
        "Location": "Kampung Tengah (Padang Tembusu)",
        "Post_Office": "Sungai Petani",
        "State": "Kedah"
    },
    {
        "Postcode": "08000",
        "Location": "Kampung Tengah (Sungai Pasir)",
        "Post_Office": "Sungai Petani",
        "State": "Kedah"
    },
    {
        "Postcode": "08000",
        "Location": "Kampung Titi Mandi Lembu",
        "Post_Office": "Sungai Petani",
        "State": "Kedah"
    },
    {
        "Postcode": "08000",
        "Location": "Kampung Tok Khamis",
        "Post_Office": "Sungai Petani",
        "State": "Kedah"
    },
    {
        "Postcode": "08000",
        "Location": "Kampung Tok Munah",
        "Post_Office": "Sungai Petani",
        "State": "Kedah"
    },
    {
        "Postcode": "08000",
        "Location": "Kampung Tok Soh",
        "Post_Office": "Sungai Petani",
        "State": "Kedah"
    },
    {
        "Postcode": "08000",
        "Location": "Kawasan Industri Cindai Jaya",
        "Post_Office": "Sungai Petani",
        "State": "Kedah"
    },
    {
        "Postcode": "08000",
        "Location": "Kawasan Perindustrian Bakar Arang",
        "Post_Office": "Sungai Petani",
        "State": "Kedah"
    },
    {
        "Postcode": "08000",
        "Location": "Kawasan Perindustrian Bukit Makmur",
        "Post_Office": "Sungai Petani",
        "State": "Kedah"
    },
    {
        "Postcode": "08000",
        "Location": "Kawasan Perindustrian Sungai Lalang",
        "Post_Office": "Sungai Petani",
        "State": "Kedah"
    },
    {
        "Postcode": "08000",
        "Location": "Kawasan Perindustrian Yuland",
        "Post_Office": "Sungai Petani",
        "State": "Kedah"
    },
    {
        "Postcode": "08000",
        "Location": "Ladang Bukit Lembu",
        "Post_Office": "Sungai Petani",
        "State": "Kedah"
    },
    {
        "Postcode": "08000",
        "Location": "Ladang Eupe",
        "Post_Office": "Sungai Petani",
        "State": "Kedah"
    },
    {
        "Postcode": "08000",
        "Location": "Ladang Helender",
        "Post_Office": "Sungai Petani",
        "State": "Kedah"
    },
    {
        "Postcode": "08000",
        "Location": "Ladang Permatang Buluh",
        "Post_Office": "Sungai Petani",
        "State": "Kedah"
    },
    {
        "Postcode": "08000",
        "Location": "Ladang Selambau",
        "Post_Office": "Sungai Petani",
        "State": "Kedah"
    },
    {
        "Postcode": "08000",
        "Location": "Ladang Sin Yu",
        "Post_Office": "Sungai Petani",
        "State": "Kedah"
    },
    {
        "Postcode": "08000",
        "Location": "Ladang Sungai",
        "Post_Office": "Sungai Petani",
        "State": "Kedah"
    },
    {
        "Postcode": "08000",
        "Location": "Ladang Sungai Getah",
        "Post_Office": "Sungai Petani",
        "State": "Kedah"
    },
    {
        "Postcode": "08000",
        "Location": "Ladang Sungai Tukang",
        "Post_Office": "Sungai Petani",
        "State": "Kedah"
    },
    {
        "Postcode": "08000",
        "Location": "Ladang Sungkup Para",
        "Post_Office": "Sungai Petani",
        "State": "Kedah"
    },
    {
        "Postcode": "08000",
        "Location": "Ladang Up",
        "Post_Office": "Sungai Petani",
        "State": "Kedah"
    },
    {
        "Postcode": "08000",
        "Location": "Ladang Up Rusa",
        "Post_Office": "Sungai Petani",
        "State": "Kedah"
    },
    {
        "Postcode": "08000",
        "Location": "Ladang Up Selambau",
        "Post_Office": "Sungai Petani",
        "State": "Kedah"
    },
    {
        "Postcode": "08000",
        "Location": "Leboh Zamrud",
        "Post_Office": "Sungai Petani",
        "State": "Kedah"
    },
    {
        "Postcode": "08000",
        "Location": "Pekan Atap",
        "Post_Office": "Sungai Petani",
        "State": "Kedah"
    },
    {
        "Postcode": "08000",
        "Location": "Pekan Lama Sungai Petani",
        "Post_Office": "Sungai Petani",
        "State": "Kedah"
    },
    {
        "Postcode": "08000",
        "Location": "Pekan Sungai Lalang",
        "Post_Office": "Sungai Petani",
        "State": "Kedah"
    },
    {
        "Postcode": "08000",
        "Location": "Pengkalan Sungai Lalang",
        "Post_Office": "Sungai Petani",
        "State": "Kedah"
    },
    {
        "Postcode": "08000",
        "Location": "Pinang Tunggal",
        "Post_Office": "Sungai Petani",
        "State": "Kedah"
    },
    {
        "Postcode": "08000",
        "Location": "Putrijaya Hillpark",
        "Post_Office": "Sungai Petani",
        "State": "Kedah"
    },
    {
        "Postcode": "08000",
        "Location": "Rancangan Perumahan Awam 3",
        "Post_Office": "Sungai Petani",
        "State": "Kedah"
    },
    {
        "Postcode": "08000",
        "Location": "Rumah Kedai Peruda",
        "Post_Office": "Sungai Petani",
        "State": "Kedah"
    },
    {
        "Postcode": "08000",
        "Location": "Rumah Murah Sungai Lalang",
        "Post_Office": "Sungai Petani",
        "State": "Kedah"
    },
    {
        "Postcode": "08000",
        "Location": "Simpang Scaboro",
        "Post_Office": "Sungai Petani",
        "State": "Kedah"
    },
    {
        "Postcode": "08000",
        "Location": "Sungai Layar Hujung",
        "Post_Office": "Sungai Petani",
        "State": "Kedah"
    },
    {
        "Postcode": "08000",
        "Location": "Sungai Pasir",
        "Post_Office": "Sungai Petani",
        "State": "Kedah"
    },
    {
        "Postcode": "08000",
        "Location": "Sungai Petani",
        "Post_Office": "Sungai Petani",
        "State": "Kedah"
    },
    {
        "Postcode": "08000",
        "Location": "Taman Akid",
        "Post_Office": "Sungai Petani",
        "State": "Kedah"
    },
    {
        "Postcode": "08000",
        "Location": "Taman Aman",
        "Post_Office": "Sungai Petani",
        "State": "Kedah"
    },
    {
        "Postcode": "08000",
        "Location": "Taman Aman Jaya (Anggerik)",
        "Post_Office": "Sungai Petani",
        "State": "Kedah"
    },
    {
        "Postcode": "08000",
        "Location": "Taman Aman Jaya (Cempaka)",
        "Post_Office": "Sungai Petani",
        "State": "Kedah"
    },
    {
        "Postcode": "08000",
        "Location": "Taman Aman Jaya (Kenanga)",
        "Post_Office": "Sungai Petani",
        "State": "Kedah"
    },
    {
        "Postcode": "08000",
        "Location": "Taman Aman Jaya (Mawar)",
        "Post_Office": "Sungai Petani",
        "State": "Kedah"
    },
    {
        "Postcode": "08000",
        "Location": "Taman Aman Jaya (Melati)",
        "Post_Office": "Sungai Petani",
        "State": "Kedah"
    },
    {
        "Postcode": "08000",
        "Location": "Taman Aman Jaya (Seroja)",
        "Post_Office": "Sungai Petani",
        "State": "Kedah"
    },
    {
        "Postcode": "08000",
        "Location": "Taman Angsana",
        "Post_Office": "Sungai Petani",
        "State": "Kedah"
    },
    {
        "Postcode": "08000",
        "Location": "Taman Baiduri (Maju)",
        "Post_Office": "Sungai Petani",
        "State": "Kedah"
    },
    {
        "Postcode": "08000",
        "Location": "Taman Baiduri Indah",
        "Post_Office": "Sungai Petani",
        "State": "Kedah"
    },
    {
        "Postcode": "08000",
        "Location": "Taman Bakar Arang",
        "Post_Office": "Sungai Petani",
        "State": "Kedah"
    },
    {
        "Postcode": "08000",
        "Location": "Taman Bandar Perdana",
        "Post_Office": "Sungai Petani",
        "State": "Kedah"
    },
    {
        "Postcode": "08000",
        "Location": "Taman Bandar Perdana Tasmin",
        "Post_Office": "Sungai Petani",
        "State": "Kedah"
    },
    {
        "Postcode": "08000",
        "Location": "Taman Baru",
        "Post_Office": "Sungai Petani",
        "State": "Kedah"
    },
    {
        "Postcode": "08000",
        "Location": "Taman Berangan",
        "Post_Office": "Sungai Petani",
        "State": "Kedah"
    },
    {
        "Postcode": "08000",
        "Location": "Taman Berangan Sri",
        "Post_Office": "Sungai Petani",
        "State": "Kedah"
    },
    {
        "Postcode": "08000",
        "Location": "Taman Beringin Indah",
        "Post_Office": "Sungai Petani",
        "State": "Kedah"
    },
    {
        "Postcode": "08000",
        "Location": "Taman Berjaya",
        "Post_Office": "Sungai Petani",
        "State": "Kedah"
    },
    {
        "Postcode": "08000",
        "Location": "Taman Berjaya Baru",
        "Post_Office": "Sungai Petani",
        "State": "Kedah"
    },
    {
        "Postcode": "08000",
        "Location": "Taman Berlian",
        "Post_Office": "Sungai Petani",
        "State": "Kedah"
    },
    {
        "Postcode": "08000",
        "Location": "Taman Bersatu",
        "Post_Office": "Sungai Petani",
        "State": "Kedah"
    },
    {
        "Postcode": "08000",
        "Location": "Taman Bertam",
        "Post_Office": "Sungai Petani",
        "State": "Kedah"
    },
    {
        "Postcode": "08000",
        "Location": "Taman Bistari Jaya",
        "Post_Office": "Sungai Petani",
        "State": "Kedah"
    },
    {
        "Postcode": "08000",
        "Location": "Taman Bukit Makmur",
        "Post_Office": "Sungai Petani",
        "State": "Kedah"
    },
    {
        "Postcode": "08000",
        "Location": "Taman Bunga Raya",
        "Post_Office": "Sungai Petani",
        "State": "Kedah"
    },
    {
        "Postcode": "08000",
        "Location": "Taman Cahaya Baiduri",
        "Post_Office": "Sungai Petani",
        "State": "Kedah"
    },
    {
        "Postcode": "08000",
        "Location": "Taman Cempaka",
        "Post_Office": "Sungai Petani",
        "State": "Kedah"
    },
    {
        "Postcode": "08000",
        "Location": "Taman Cengai Emas",
        "Post_Office": "Sungai Petani",
        "State": "Kedah"
    },
    {
        "Postcode": "08000",
        "Location": "Taman Cengal Jaya",
        "Post_Office": "Sungai Petani",
        "State": "Kedah"
    },
    {
        "Postcode": "08000",
        "Location": "Taman Dahalia Indah",
        "Post_Office": "Sungai Petani",
        "State": "Kedah"
    },
    {
        "Postcode": "08000",
        "Location": "Taman Dahlia",
        "Post_Office": "Sungai Petani",
        "State": "Kedah"
    },
    {
        "Postcode": "08000",
        "Location": "Taman Desa Bistari",
        "Post_Office": "Sungai Petani",
        "State": "Kedah"
    },
    {
        "Postcode": "08000",
        "Location": "Taman Desa Indah",
        "Post_Office": "Sungai Petani",
        "State": "Kedah"
    },
    {
        "Postcode": "08000",
        "Location": "Taman Desa Jaya",
        "Post_Office": "Sungai Petani",
        "State": "Kedah"
    },
    {
        "Postcode": "08000",
        "Location": "Taman Desa Menanti",
        "Post_Office": "Sungai Petani",
        "State": "Kedah"
    },
    {
        "Postcode": "08000",
        "Location": "Taman Desa Meranti Indah",
        "Post_Office": "Sungai Petani",
        "State": "Kedah"
    },
    {
        "Postcode": "08000",
        "Location": "Taman Emas Suria",
        "Post_Office": "Sungai Petani",
        "State": "Kedah"
    },
    {
        "Postcode": "08000",
        "Location": "Taman Gedong",
        "Post_Office": "Sungai Petani",
        "State": "Kedah"
    },
    {
        "Postcode": "08000",
        "Location": "Taman Hillpark",
        "Post_Office": "Sungai Petani",
        "State": "Kedah"
    },
    {
        "Postcode": "08000",
        "Location": "Taman Indah",
        "Post_Office": "Sungai Petani",
        "State": "Kedah"
    },
    {
        "Postcode": "08000",
        "Location": "Taman Kampung Raja",
        "Post_Office": "Sungai Petani",
        "State": "Kedah"
    },
    {
        "Postcode": "08000",
        "Location": "Taman Keladi Angsana",
        "Post_Office": "Sungai Petani",
        "State": "Kedah"
    },
    {
        "Postcode": "08000",
        "Location": "Taman Kelisa",
        "Post_Office": "Sungai Petani",
        "State": "Kedah"
    },
    {
        "Postcode": "08000",
        "Location": "Taman Kelisa Ria",
        "Post_Office": "Sungai Petani",
        "State": "Kedah"
    },
    {
        "Postcode": "08000",
        "Location": "Taman Kenari Indah",
        "Post_Office": "Sungai Petani",
        "State": "Kedah"
    },
    {
        "Postcode": "08000",
        "Location": "Taman Kenari Jaya",
        "Post_Office": "Sungai Petani",
        "State": "Kedah"
    },
    {
        "Postcode": "08000",
        "Location": "Taman Kenari Merdu",
        "Post_Office": "Sungai Petani",
        "State": "Kedah"
    },
    {
        "Postcode": "08000",
        "Location": "Taman Keranji",
        "Post_Office": "Sungai Petani",
        "State": "Kedah"
    },
    {
        "Postcode": "08000",
        "Location": "Taman Keranji Indah",
        "Post_Office": "Sungai Petani",
        "State": "Kedah"
    },
    {
        "Postcode": "08000",
        "Location": "Taman Kuala Muda",
        "Post_Office": "Sungai Petani",
        "State": "Kedah"
    },
    {
        "Postcode": "08000",
        "Location": "Taman Legenda Height",
        "Post_Office": "Sungai Petani",
        "State": "Kedah"
    },
    {
        "Postcode": "08000",
        "Location": "Taman Lembah Permai",
        "Post_Office": "Sungai Petani",
        "State": "Kedah"
    },
    {
        "Postcode": "08000",
        "Location": "Taman Lincungan Barat",
        "Post_Office": "Sungai Petani",
        "State": "Kedah"
    },
    {
        "Postcode": "08000",
        "Location": "Taman Mas Suria",
        "Post_Office": "Sungai Petani",
        "State": "Kedah"
    },
    {
        "Postcode": "08000",
        "Location": "Taman Mawar",
        "Post_Office": "Sungai Petani",
        "State": "Kedah"
    },
    {
        "Postcode": "08000",
        "Location": "Taman Melati Indah",
        "Post_Office": "Sungai Petani",
        "State": "Kedah"
    },
    {
        "Postcode": "08000",
        "Location": "Taman Melati Jaya",
        "Post_Office": "Sungai Petani",
        "State": "Kedah"
    },
    {
        "Postcode": "08000",
        "Location": "Taman Melati Layar",
        "Post_Office": "Sungai Petani",
        "State": "Kedah"
    },
    {
        "Postcode": "08000",
        "Location": "Taman Merpati",
        "Post_Office": "Sungai Petani",
        "State": "Kedah"
    },
    {
        "Postcode": "08000",
        "Location": "Taman Mewah Indah",
        "Post_Office": "Sungai Petani",
        "State": "Kedah"
    },
    {
        "Postcode": "08000",
        "Location": "Taman Muazam Shah",
        "Post_Office": "Sungai Petani",
        "State": "Kedah"
    },
    {
        "Postcode": "08000",
        "Location": "Taman Mutiara",
        "Post_Office": "Sungai Petani",
        "State": "Kedah"
    },
    {
        "Postcode": "08000",
        "Location": "Taman Mutiara Indah",
        "Post_Office": "Sungai Petani",
        "State": "Kedah"
    },
    {
        "Postcode": "08000",
        "Location": "Taman Mutiara Jaya",
        "Post_Office": "Sungai Petani",
        "State": "Kedah"
    },
    {
        "Postcode": "08000",
        "Location": "Taman Nilam",
        "Post_Office": "Sungai Petani",
        "State": "Kedah"
    },
    {
        "Postcode": "08000",
        "Location": "Taman Nilam Sari",
        "Post_Office": "Sungai Petani",
        "State": "Kedah"
    },
    {
        "Postcode": "08000",
        "Location": "Taman Nuri",
        "Post_Office": "Sungai Petani",
        "State": "Kedah"
    },
    {
        "Postcode": "08000",
        "Location": "Taman Nuri Jaya",
        "Post_Office": "Sungai Petani",
        "State": "Kedah"
    },
    {
        "Postcode": "08000",
        "Location": "Taman Padi Mas",
        "Post_Office": "Sungai Petani",
        "State": "Kedah"
    },
    {
        "Postcode": "08000",
        "Location": "Taman Padi Mas Jaya",
        "Post_Office": "Sungai Petani",
        "State": "Kedah"
    },
    {
        "Postcode": "08000",
        "Location": "Taman Pahlawan",
        "Post_Office": "Sungai Petani",
        "State": "Kedah"
    },
    {
        "Postcode": "08000",
        "Location": "Taman Palma",
        "Post_Office": "Sungai Petani",
        "State": "Kedah"
    },
    {
        "Postcode": "08000",
        "Location": "Taman Pasir Mas",
        "Post_Office": "Sungai Petani",
        "State": "Kedah"
    },
    {
        "Postcode": "08000",
        "Location": "Taman Pasir Mas Indah",
        "Post_Office": "Sungai Petani",
        "State": "Kedah"
    },
    {
        "Postcode": "08000",
        "Location": "Taman Pasir Mas Jaya",
        "Post_Office": "Sungai Petani",
        "State": "Kedah"
    },
    {
        "Postcode": "08000",
        "Location": "Taman Pekan Baru",
        "Post_Office": "Sungai Petani",
        "State": "Kedah"
    },
    {
        "Postcode": "08000",
        "Location": "Taman Penaga",
        "Post_Office": "Sungai Petani",
        "State": "Kedah"
    },
    {
        "Postcode": "08000",
        "Location": "Taman Perdana Teja",
        "Post_Office": "Sungai Petani",
        "State": "Kedah"
    },
    {
        "Postcode": "08000",
        "Location": "Taman Permai Beseri Jaya",
        "Post_Office": "Sungai Petani",
        "State": "Kedah"
    },
    {
        "Postcode": "08000",
        "Location": "Taman Permai Bistari",
        "Post_Office": "Sungai Petani",
        "State": "Kedah"
    },
    {
        "Postcode": "08000",
        "Location": "Taman Permata Semarak",
        "Post_Office": "Sungai Petani",
        "State": "Kedah"
    },
    {
        "Postcode": "08000",
        "Location": "Taman Peruda 2",
        "Post_Office": "Sungai Petani",
        "State": "Kedah"
    },
    {
        "Postcode": "08000",
        "Location": "Taman Peruda Utama",
        "Post_Office": "Sungai Petani",
        "State": "Kedah"
    },
    {
        "Postcode": "08000",
        "Location": "Taman Perusahaan Ringan Padang Temusu",
        "Post_Office": "Sungai Petani",
        "State": "Kedah"
    },
    {
        "Postcode": "08000",
        "Location": "Taman Petani Jaya",
        "Post_Office": "Sungai Petani",
        "State": "Kedah"
    },
    {
        "Postcode": "08000",
        "Location": "Taman Pinang Emas",
        "Post_Office": "Sungai Petani",
        "State": "Kedah"
    },
    {
        "Postcode": "08000",
        "Location": "Taman Pinang Tunggal",
        "Post_Office": "Sungai Petani",
        "State": "Kedah"
    },
    {
        "Postcode": "08000",
        "Location": "Taman Pknk Bakar Arang",
        "Post_Office": "Sungai Petani",
        "State": "Kedah"
    },
    {
        "Postcode": "08000",
        "Location": "Taman Pknk Cahaya",
        "Post_Office": "Sungai Petani",
        "State": "Kedah"
    },
    {
        "Postcode": "08000",
        "Location": "Taman Ria",
        "Post_Office": "Sungai Petani",
        "State": "Kedah"
    },
    {
        "Postcode": "08000",
        "Location": "Taman Ria Indah",
        "Post_Office": "Sungai Petani",
        "State": "Kedah"
    },
    {
        "Postcode": "08000",
        "Location": "Taman Ria Murni",
        "Post_Office": "Sungai Petani",
        "State": "Kedah"
    },
    {
        "Postcode": "08000",
        "Location": "Taman Ros",
        "Post_Office": "Sungai Petani",
        "State": "Kedah"
    },
    {
        "Postcode": "08000",
        "Location": "Taman Sejati",
        "Post_Office": "Sungai Petani",
        "State": "Kedah"
    },
    {
        "Postcode": "08000",
        "Location": "Taman Sejati Gold ",
        "Post_Office": "Sungai Petani",
        "State": "Kedah"
    },
    {
        "Postcode": "08000",
        "Location": "Taman Sejati Indah",
        "Post_Office": "Sungai Petani",
        "State": "Kedah"
    },
    {
        "Postcode": "08000",
        "Location": "Taman Semangat",
        "Post_Office": "Sungai Petani",
        "State": "Kedah"
    },
    {
        "Postcode": "08000",
        "Location": "Taman Semangat Indah",
        "Post_Office": "Sungai Petani",
        "State": "Kedah"
    },
    {
        "Postcode": "08000",
        "Location": "Taman Semarak",
        "Post_Office": "Sungai Petani",
        "State": "Kedah"
    },
    {
        "Postcode": "08000",
        "Location": "Taman Seraya",
        "Post_Office": "Sungai Petani",
        "State": "Kedah"
    },
    {
        "Postcode": "08000",
        "Location": "Taman Seri Astana ",
        "Post_Office": "Sungai Petani",
        "State": "Kedah"
    },
    {
        "Postcode": "08000",
        "Location": "Taman Seri Baiduri",
        "Post_Office": "Sungai Petani",
        "State": "Kedah"
    },
    {
        "Postcode": "08000",
        "Location": "Taman Seri Gadong",
        "Post_Office": "Sungai Petani",
        "State": "Kedah"
    },
    {
        "Postcode": "08000",
        "Location": "Taman Seri Mutiara",
        "Post_Office": "Sungai Petani",
        "State": "Kedah"
    },
    {
        "Postcode": "08000",
        "Location": "Taman Seri Putera",
        "Post_Office": "Sungai Petani",
        "State": "Kedah"
    },
    {
        "Postcode": "08000",
        "Location": "Taman Seri Songket",
        "Post_Office": "Sungai Petani",
        "State": "Kedah"
    },
    {
        "Postcode": "08000",
        "Location": "Taman Seri Wang",
        "Post_Office": "Sungai Petani",
        "State": "Kedah"
    },
    {
        "Postcode": "08000",
        "Location": "Taman Seruling",
        "Post_Office": "Sungai Petani",
        "State": "Kedah"
    },
    {
        "Postcode": "08000",
        "Location": "Taman Seruling Indah",
        "Post_Office": "Sungai Petani",
        "State": "Kedah"
    },
    {
        "Postcode": "08000",
        "Location": "Taman Siaran Aman Jaya",
        "Post_Office": "Sungai Petani",
        "State": "Kedah"
    },
    {
        "Postcode": "08000",
        "Location": "Taman Sidam",
        "Post_Office": "Sungai Petani",
        "State": "Kedah"
    },
    {
        "Postcode": "08000",
        "Location": "Taman Sinar Baiduri",
        "Post_Office": "Sungai Petani",
        "State": "Kedah"
    },
    {
        "Postcode": "08000",
        "Location": "Taman Sinar Intan",
        "Post_Office": "Sungai Petani",
        "State": "Kedah"
    },
    {
        "Postcode": "08000",
        "Location": "Taman Sinar Permata",
        "Post_Office": "Sungai Petani",
        "State": "Kedah"
    },
    {
        "Postcode": "08000",
        "Location": "Taman Songket Indah",
        "Post_Office": "Sungai Petani",
        "State": "Kedah"
    },
    {
        "Postcode": "08000",
        "Location": "Taman Sri Baiduri",
        "Post_Office": "Sungai Petani",
        "State": "Kedah"
    },
    {
        "Postcode": "08000",
        "Location": "Taman Sri Cendana",
        "Post_Office": "Sungai Petani",
        "State": "Kedah"
    },
    {
        "Postcode": "08000",
        "Location": "Taman Sri Gedong",
        "Post_Office": "Sungai Petani",
        "State": "Kedah"
    },
    {
        "Postcode": "08000",
        "Location": "Taman Sri Telok Wang",
        "Post_Office": "Sungai Petani",
        "State": "Kedah"
    },
    {
        "Postcode": "08000",
        "Location": "Taman Sri Wang",
        "Post_Office": "Sungai Petani",
        "State": "Kedah"
    },
    {
        "Postcode": "08000",
        "Location": "Taman Sri Wangi",
        "Post_Office": "Sungai Petani",
        "State": "Kedah"
    },
    {
        "Postcode": "08000",
        "Location": "Taman Sutera Idaman",
        "Post_Office": "Sungai Petani",
        "State": "Kedah"
    },
    {
        "Postcode": "08000",
        "Location": "Taman Sutera Jaya",
        "Post_Office": "Sungai Petani",
        "State": "Kedah"
    },
    {
        "Postcode": "08000",
        "Location": "Taman Sutra Suria",
        "Post_Office": "Sungai Petani",
        "State": "Kedah"
    },
    {
        "Postcode": "08000",
        "Location": "Taman Telok Baiduri",
        "Post_Office": "Sungai Petani",
        "State": "Kedah"
    },
    {
        "Postcode": "08000",
        "Location": "Taman Teratai Indah",
        "Post_Office": "Sungai Petani",
        "State": "Kedah"
    },
    {
        "Postcode": "08000",
        "Location": "Taman Teratai Mekar",
        "Post_Office": "Sungai Petani",
        "State": "Kedah"
    },
    {
        "Postcode": "08000",
        "Location": "Taman Tuanku Aminah",
        "Post_Office": "Sungai Petani",
        "State": "Kedah"
    },
    {
        "Postcode": "08000",
        "Location": "Taman Tuanku Hamimah",
        "Post_Office": "Sungai Petani",
        "State": "Kedah"
    },
    {
        "Postcode": "08000",
        "Location": "Taman Widuri",
        "Post_Office": "Sungai Petani",
        "State": "Kedah"
    },
    {
        "Postcode": "08000",
        "Location": "Taman Wira",
        "Post_Office": "Sungai Petani",
        "State": "Kedah"
    },
    {
        "Postcode": "08000",
        "Location": "Taman Wira Jaya",
        "Post_Office": "Sungai Petani",
        "State": "Kedah"
    },
    {
        "Postcode": "08000",
        "Location": "Bandar Seri Astana Fasa A",
        "Post_Office": "Sungai Petani",
        "State": "Kedah"
    },
    {
        "Postcode": "08000",
        "Location": "Bandar Seri Astana Fasa C",
        "Post_Office": "Sungai Petani",
        "State": "Kedah"
    },
    {
        "Postcode": "08000",
        "Location": "Kampung Che Bema",
        "Post_Office": "Sungai Petani",
        "State": "Kedah"
    },
    {
        "Postcode": "08000",
        "Location": "Kampung Permatang Kedundung",
        "Post_Office": "Sungai Petani",
        "State": "Kedah"
    },
    {
        "Postcode": "08000",
        "Location": "Kawasan Perusahaan Sungai Tukang",
        "Post_Office": "Sungai Petani",
        "State": "Kedah"
    },
    {
        "Postcode": "08000",
        "Location": "Kawasan Perindustrian Ringan Saga",
        "Post_Office": "Sungai Petani",
        "State": "Kedah"
    },
    {
        "Postcode": "08000",
        "Location": "Permata Hill Park",
        "Post_Office": "Sungai Petani",
        "State": "Kedah"
    },
    {
        "Postcode": "08000",
        "Location": "Bandar Amanjaya",
        "Post_Office": "Sungai Petani",
        "State": "Kedah"
    },
    {
        "Postcode": "08000",
        "Location": "Bandar Amanjaya Utara",
        "Post_Office": "Sungai Petani",
        "State": "Kedah"
    },
    {
        "Postcode": "08000",
        "Location": "Bandar Utama",
        "Post_Office": "Sungai Petani",
        "State": "Kedah"
    },
    {
        "Postcode": "08000",
        "Location": "Estate Sungai Tukang",
        "Post_Office": "Sungai Petani",
        "State": "Kedah"
    },
    {
        "Postcode": "08000",
        "Location": "Jalan Kampung Baru (Bakar Arang)",
        "Post_Office": "Sungai Petani",
        "State": "Kedah"
    },
    {
        "Postcode": "08000",
        "Location": "Kampung Pinang Tunggal",
        "Post_Office": "Sungai Petani",
        "State": "Kedah"
    },
    {
        "Postcode": "08000",
        "Location": "Kampung Rusa",
        "Post_Office": "Sungai Petani",
        "State": "Kedah"
    },
    {
        "Postcode": "08000",
        "Location": "Kampung Sungai Jagung",
        "Post_Office": "Sungai Petani",
        "State": "Kedah"
    },
    {
        "Postcode": "08000",
        "Location": "Kampung Sungai Pasir Kechil",
        "Post_Office": "Sungai Petani",
        "State": "Kedah"
    },
    {
        "Postcode": "08000",
        "Location": "Kampung Teluk",
        "Post_Office": "Sungai Petani",
        "State": "Kedah"
    },
    {
        "Postcode": "08000",
        "Location": "Ladang Aman Jaya",
        "Post_Office": "Sungai Petani",
        "State": "Kedah"
    },
    {
        "Postcode": "08000",
        "Location": "Persiaran Kenanga Amanjaya",
        "Post_Office": "Sungai Petani",
        "State": "Kedah"
    },
    {
        "Postcode": "08000",
        "Location": "Taman Batik",
        "Post_Office": "Sungai Petani",
        "State": "Kedah"
    },
    {
        "Postcode": "08000",
        "Location": "Taman Bukit Bayu ",
        "Post_Office": "Sungai Petani",
        "State": "Kedah"
    },
    {
        "Postcode": "08000",
        "Location": "Jalan Pegawai",
        "Post_Office": "Sungai Petani",
        "State": "Kedah"
    },
    {
        "Postcode": "08000",
        "Location": "Kampung Bahagia\r\n",
        "Post_Office": "Sungai Petani",
        "State": "Kedah"
    },
    {
        "Postcode": "08000",
        "Location": "Kampung Benggali",
        "Post_Office": "Sungai Petani",
        "State": "Kedah"
    },
    {
        "Postcode": "08000",
        "Location": "Kampung Kuala Sidim",
        "Post_Office": "Sungai Petani",
        "State": "Kedah"
    },
    {
        "Postcode": "08000",
        "Location": "Kampung Padang",
        "Post_Office": "Sungai Petani",
        "State": "Kedah"
    },
    {
        "Postcode": "08000",
        "Location": "Kampung Teroi",
        "Post_Office": "Sungai Petani",
        "State": "Kedah"
    },
    {
        "Postcode": "08000",
        "Location": "Kampung Wat Siam",
        "Post_Office": "Sungai Petani",
        "State": "Kedah"
    },
    {
        "Postcode": "08000",
        "Location": "Taman Delima",
        "Post_Office": "Sungai Petani",
        "State": "Kedah"
    },
    {
        "Postcode": "08000",
        "Location": "Taman Desa Budiman",
        "Post_Office": "Sungai Petani",
        "State": "Kedah"
    },
    {
        "Postcode": "08000",
        "Location": "Taman Desa Permai",
        "Post_Office": "Sungai Petani",
        "State": "Kedah"
    },
    {
        "Postcode": "08000",
        "Location": "Taman Gemilang",
        "Post_Office": "Sungai Petani",
        "State": "Kedah"
    },
    {
        "Postcode": "08000",
        "Location": "Taman Intan",
        "Post_Office": "Sungai Petani",
        "State": "Kedah"
    },
    {
        "Postcode": "08000",
        "Location": "Taman Kenari",
        "Post_Office": "Sungai Petani",
        "State": "Kedah"
    },
    {
        "Postcode": "08000",
        "Location": "Taman Kristal",
        "Post_Office": "Sungai Petani",
        "State": "Kedah"
    },
    {
        "Postcode": "08000",
        "Location": "Taman Maju",
        "Post_Office": "Sungai Petani",
        "State": "Kedah"
    },
    {
        "Postcode": "08000",
        "Location": "Taman Melati",
        "Post_Office": "Sungai Petani",
        "State": "Kedah"
    },
    {
        "Postcode": "08000",
        "Location": "Taman Melor",
        "Post_Office": "Sungai Petani",
        "State": "Kedah"
    },
    {
        "Postcode": "08000",
        "Location": "Taman Muhibbah",
        "Post_Office": "Sungai Petani",
        "State": "Kedah"
    },
    {
        "Postcode": "08000",
        "Location": "Taman Orkid",
        "Post_Office": "Sungai Petani",
        "State": "Kedah"
    },
    {
        "Postcode": "08000",
        "Location": "Taman Permata",
        "Post_Office": "Sungai Petani",
        "State": "Kedah"
    },
    {
        "Postcode": "08000",
        "Location": "Taman Sejahtera",
        "Post_Office": "Sungai Petani",
        "State": "Kedah"
    },
    {
        "Postcode": "08000",
        "Location": "Taman Sentosa",
        "Post_Office": "Sungai Petani",
        "State": "Kedah"
    },
    {
        "Postcode": "08000",
        "Location": "Taman Seri Impian",
        "Post_Office": "Sungai Petani",
        "State": "Kedah"
    },
    {
        "Postcode": "08000",
        "Location": "Taman Setia Jaya",
        "Post_Office": "Sungai Petani",
        "State": "Kedah"
    },
    {
        "Postcode": "08000",
        "Location": "Taman Sri Emas",
        "Post_Office": "Sungai Petani",
        "State": "Kedah"
    },
    {
        "Postcode": "08000",
        "Location": "Taman Teratai",
        "Post_Office": "Sungai Petani",
        "State": "Kedah"
    },
    {
        "Postcode": "08000",
        "Location": "Taman Tiong",
        "Post_Office": "Sungai Petani",
        "State": "Kedah"
    },
    {
        "Postcode": "08000",
        "Location": "Jalan Boria 1",
        "Post_Office": "Sungai Petani",
        "State": "Kedah"
    },
    {
        "Postcode": "08000",
        "Location": "Jalan Boria 2",
        "Post_Office": "Sungai Petani",
        "State": "Kedah"
    },
    {
        "Postcode": "08000",
        "Location": "Jalan Pegawai 1",
        "Post_Office": "Sungai Petani",
        "State": "Kedah"
    },
    {
        "Postcode": "08000",
        "Location": "Jalan Pegawai 2",
        "Post_Office": "Sungai Petani",
        "State": "Kedah"
    },
    {
        "Postcode": "08000",
        "Location": "Taman Sungai Lalang 1",
        "Post_Office": "Sungai Petani",
        "State": "Kedah"
    },
    {
        "Postcode": "08000",
        "Location": "Taman Sungai Lalang 2",
        "Post_Office": "Sungai Petani",
        "State": "Kedah"
    }
]
