[
    {
        "Postcode": "08010",
        "Location": "Kampung Pegawai",
        "Post_Office": "Sungai Petani",
        "State": "Kedah"
    },
    {
        "Postcode": "08010",
        "Location": "Bukit Belachan",
        "Post_Office": "Sungai Petani",
        "State": "Kedah"
    },
    {
        "Postcode": "08010",
        "Location": "Bukit Selambau",
        "Post_Office": "Sungai Petani",
        "State": "Kedah"
    },
    {
        "Postcode": "08010",
        "Location": "Bumi Muda Estate",
        "Post_Office": "Sungai Petani",
        "State": "Kedah"
    },
    {
        "Postcode": "08010",
        "Location": "Kampung Baru Bukit Selambau",
        "Post_Office": "Sungai Petani",
        "State": "Kedah"
    },
    {
        "Postcode": "08010",
        "Location": "Kampung Batu Belachan",
        "Post_Office": "Sungai Petani",
        "State": "Kedah"
    },
    {
        "Postcode": "08010",
        "Location": "Kampung Bukit Terabak",
        "Post_Office": "Sungai Petani",
        "State": "Kedah"
    },
    {
        "Postcode": "08010",
        "Location": "Kampung Haji Hashim",
        "Post_Office": "Sungai Petani",
        "State": "Kedah"
    },
    {
        "Postcode": "08010",
        "Location": "Kampung Haji Hassan",
        "Post_Office": "Sungai Petani",
        "State": "Kedah"
    },
    {
        "Postcode": "08010",
        "Location": "Kampung Haji Mangon",
        "Post_Office": "Sungai Petani",
        "State": "Kedah"
    },
    {
        "Postcode": "08010",
        "Location": "Kampung Haji Safar",
        "Post_Office": "Sungai Petani",
        "State": "Kedah"
    },
    {
        "Postcode": "08010",
        "Location": "Kampung Jerai",
        "Post_Office": "Sungai Petani",
        "State": "Kedah"
    },
    {
        "Postcode": "08010",
        "Location": "Kampung Klinik",
        "Post_Office": "Sungai Petani",
        "State": "Kedah"
    },
    {
        "Postcode": "08010",
        "Location": "Kampung Kuala Sin",
        "Post_Office": "Sungai Petani",
        "State": "Kedah"
    },
    {
        "Postcode": "08010",
        "Location": "Kampung Lubok Batu",
        "Post_Office": "Sungai Petani",
        "State": "Kedah"
    },
    {
        "Postcode": "08010",
        "Location": "Kampung Penghulu Tua",
        "Post_Office": "Sungai Petani",
        "State": "Kedah"
    },
    {
        "Postcode": "08010",
        "Location": "Kampung Perak",
        "Post_Office": "Sungai Petani",
        "State": "Kedah"
    },
    {
        "Postcode": "08010",
        "Location": "Kampung Serungkup",
        "Post_Office": "Sungai Petani",
        "State": "Kedah"
    },
    {
        "Postcode": "08010",
        "Location": "Kampung Sin Heng Estate",
        "Post_Office": "Sungai Petani",
        "State": "Kedah"
    },
    {
        "Postcode": "08010",
        "Location": "Kampung Sungai Anak Ikan",
        "Post_Office": "Sungai Petani",
        "State": "Kedah"
    },
    {
        "Postcode": "08010",
        "Location": "Kampung Sungai Gajah",
        "Post_Office": "Sungai Petani",
        "State": "Kedah"
    },
    {
        "Postcode": "08010",
        "Location": "Kampung Sungai Nyior",
        "Post_Office": "Sungai Petani",
        "State": "Kedah"
    },
    {
        "Postcode": "08010",
        "Location": "Kampung Tengkorak Batu",
        "Post_Office": "Sungai Petani",
        "State": "Kedah"
    },
    {
        "Postcode": "08010",
        "Location": "Kebun 400",
        "Post_Office": "Sungai Petani",
        "State": "Kedah"
    },
    {
        "Postcode": "08010",
        "Location": "Kongsi Tiga",
        "Post_Office": "Sungai Petani",
        "State": "Kedah"
    },
    {
        "Postcode": "08010",
        "Location": "Poh Lim Estate",
        "Post_Office": "Sungai Petani",
        "State": "Kedah"
    },
    {
        "Postcode": "08010",
        "Location": "Simpang Kuala Sin",
        "Post_Office": "Sungai Petani",
        "State": "Kedah"
    },
    {
        "Postcode": "08010",
        "Location": "Kampung 50 Relong",
        "Post_Office": "Sungai Petani",
        "State": "Kedah"
    },
    {
        "Postcode": "08010",
        "Location": "Ladang Ghee Huat",
        "Post_Office": "Sungai Petani",
        "State": "Kedah"
    },
    {
        "Postcode": "08010",
        "Location": "Ladang Golden",
        "Post_Office": "Sungai Petani",
        "State": "Kedah"
    },
    {
        "Postcode": "08010",
        "Location": "Kampung Haji Ismail",
        "Post_Office": "Sungai Petani",
        "State": "Kedah"
    },
    {
        "Postcode": "08010",
        "Location": "Kampung Paya Mengkuang",
        "Post_Office": "Sungai Petani",
        "State": "Kedah"
    },
    {
        "Postcode": "08010",
        "Location": "Kampung Pokok Machang",
        "Post_Office": "Sungai Petani",
        "State": "Kedah"
    },
    {
        "Postcode": "08010",
        "Location": "Kampung Tengah",
        "Post_Office": "Sungai Petani",
        "State": "Kedah"
    }
]
