[
    {
        "Postcode": "08100",
        "Location": "Kampung Bakar Sampah",
        "Post_Office": "Bedong",
        "State": "Kedah"
    },
    {
        "Postcode": "08100",
        "Location": "Kampung Tempoyak",
        "Post_Office": "Bedong",
        "State": "Kedah"
    },
    {
        "Postcode": "08100",
        "Location": "Taman Bandar Baru",
        "Post_Office": "Bedong",
        "State": "Kedah"
    },
    {
        "Postcode": "08100",
        "Location": "Taman Bukit Bayu",
        "Post_Office": "Bedong",
        "State": "Kedah"
    },
    {
        "Postcode": "08100",
        "Location": "Taman Seri Bayu 1",
        "Post_Office": "Bedong",
        "State": "Kedah"
    },
    {
        "Postcode": "08100",
        "Location": "Taman Seri Bayu 2",
        "Post_Office": "Bedong",
        "State": "Kedah"
    },
    {
        "Postcode": "08100",
        "Location": "Bedong",
        "Post_Office": "Bedong",
        "State": "Kedah"
    },
    {
        "Postcode": "08100",
        "Location": "Bujang",
        "Post_Office": "Bedong",
        "State": "Kedah"
    },
    {
        "Postcode": "08100",
        "Location": "Bukit Merah",
        "Post_Office": "Bedong",
        "State": "Kedah"
    },
    {
        "Postcode": "08100",
        "Location": "Kampung Baru Bedong",
        "Post_Office": "Bedong",
        "State": "Kedah"
    },
    {
        "Postcode": "08100",
        "Location": "Kampung Haji Ngah",
        "Post_Office": "Bedong",
        "State": "Kedah"
    },
    {
        "Postcode": "08100",
        "Location": "Kampung Permatang Samak",
        "Post_Office": "Bedong",
        "State": "Kedah"
    },
    {
        "Postcode": "08100",
        "Location": "Kampung Pengkalan Semeling",
        "Post_Office": "Bedong",
        "State": "Kedah"
    },
    {
        "Postcode": "08100",
        "Location": "Kampung Batu Hampar",
        "Post_Office": "Bedong",
        "State": "Kedah"
    },
    {
        "Postcode": "08100",
        "Location": "Taman Desa Budiman",
        "Post_Office": "Bedong",
        "State": "Kedah"
    },
    {
        "Postcode": "08100",
        "Location": "Taman Lembah Bujang 1",
        "Post_Office": "Bedong",
        "State": "Kedah"
    },
    {
        "Postcode": "08100",
        "Location": "Taman Lembah Bujang 2",
        "Post_Office": "Bedong",
        "State": "Kedah"
    },
    {
        "Postcode": "08100",
        "Location": "Kampung Kuala Muda Estate",
        "Post_Office": "Bedong",
        "State": "Kedah"
    },
    {
        "Postcode": "08100",
        "Location": "Kampung Lebai Ali",
        "Post_Office": "Bedong",
        "State": "Kedah"
    },
    {
        "Postcode": "08100",
        "Location": "Kampung Pinang",
        "Post_Office": "Bedong",
        "State": "Kedah"
    },
    {
        "Postcode": "08100",
        "Location": "Kampung Sungai Keluang",
        "Post_Office": "Bedong",
        "State": "Kedah"
    },
    {
        "Postcode": "08100",
        "Location": "Kampung Sungai Tok Pawang",
        "Post_Office": "Bedong",
        "State": "Kedah"
    },
    {
        "Postcode": "08100",
        "Location": "Kampung Telaga China",
        "Post_Office": "Bedong",
        "State": "Kedah"
    },
    {
        "Postcode": "08100",
        "Location": "Kampung Tupah",
        "Post_Office": "Bedong",
        "State": "Kedah"
    },
    {
        "Postcode": "08100",
        "Location": "Ladang Sungai Bongkok",
        "Post_Office": "Bedong",
        "State": "Kedah"
    },
    {
        "Postcode": "08100",
        "Location": "Semiling",
        "Post_Office": "Bedong",
        "State": "Kedah"
    },
    {
        "Postcode": "08100",
        "Location": "Sungai Lalang",
        "Post_Office": "Bedong",
        "State": "Kedah"
    },
    {
        "Postcode": "08100",
        "Location": "Taman Bersatu Maju",
        "Post_Office": "Bedong",
        "State": "Kedah"
    },
    {
        "Postcode": "08100",
        "Location": "Taman Harmoni",
        "Post_Office": "Bedong",
        "State": "Kedah"
    },
    {
        "Postcode": "08100",
        "Location": "Taman Mesra Indah",
        "Post_Office": "Bedong",
        "State": "Kedah"
    },
    {
        "Postcode": "08100",
        "Location": "Taman Permai (Fasa 2)",
        "Post_Office": "Bedong",
        "State": "Kedah"
    },
    {
        "Postcode": "08100",
        "Location": "Taman Permaipura Mesra",
        "Post_Office": "Bedong",
        "State": "Kedah"
    },
    {
        "Postcode": "08100",
        "Location": "Taman Permaipura Murni",
        "Post_Office": "Bedong",
        "State": "Kedah"
    },
    {
        "Postcode": "08100",
        "Location": "Taman Sinar Mentari",
        "Post_Office": "Bedong",
        "State": "Kedah"
    },
    {
        "Postcode": "08100",
        "Location": "Thye Seng Estate",
        "Post_Office": "Bedong",
        "State": "Kedah"
    }
]
