[
    {
        "Postcode": "08110",
        "Location": "Kampung Sungai Deraka",
        "Post_Office": "Bedong",
        "State": "Kedah"
    },
    {
        "Postcode": "08110",
        "Location": "Kampung Singkir Badong",
        "Post_Office": "Bedong",
        "State": "Kedah"
    },
    {
        "Postcode": "08110",
        "Location": "Tanjung Dawai",
        "Post_Office": "Bedong",
        "State": "Kedah"
    },
    {
        "Postcode": "08110",
        "Location": "Kampung Huma",
        "Post_Office": "Bedong",
        "State": "Kedah"
    },
    {
        "Postcode": "08110",
        "Location": "Kampung Paya",
        "Post_Office": "Bedong",
        "State": "Kedah"
    },
    {
        "Postcode": "08110",
        "Location": "Kampung Singkir",
        "Post_Office": "Bedong",
        "State": "Kedah"
    },
    {
        "Postcode": "08110",
        "Location": "Kampung Singkir Darat",
        "Post_Office": "Bedong",
        "State": "Kedah"
    },
    {
        "Postcode": "08110",
        "Location": "Kampung Singkir Genting",
        "Post_Office": "Bedong",
        "State": "Kedah"
    },
    {
        "Postcode": "08110",
        "Location": "Kampung Singkir Kedai Keling",
        "Post_Office": "Bedong",
        "State": "Kedah"
    },
    {
        "Postcode": "08110",
        "Location": "Kampung Singkir Laut",
        "Post_Office": "Bedong",
        "State": "Kedah"
    },
    {
        "Postcode": "08110",
        "Location": "Kampung Sungai Pial",
        "Post_Office": "Bedong",
        "State": "Kedah"
    },
    {
        "Postcode": "08110",
        "Location": "Rancangan Tanah Jilid 1 - 2",
        "Post_Office": "Bedong",
        "State": "Kedah"
    },
    {
        "Postcode": "08110",
        "Location": "Taman Sri Mesra",
        "Post_Office": "Bedong",
        "State": "Kedah"
    }
]
