[
    {
        "Postcode": "08200",
        "Location": "Kampung Charuk Kit",
        "Post_Office": "Sik",
        "State": "Kedah"
    },
    {
        "Postcode": "08200",
        "Location": "Kampung Hujung Bechah",
        "Post_Office": "Sik",
        "State": "Kedah"
    },
    {
        "Postcode": "08200",
        "Location": "Sik",
        "Post_Office": "Sik",
        "State": "Kedah"
    },
    {
        "Postcode": "08200",
        "Location": "Kampung Batu 8",
        "Post_Office": "Sik",
        "State": "Kedah"
    },
    {
        "Postcode": "08200",
        "Location": "Kampung Belimbing",
        "Post_Office": "Sik",
        "State": "Kedah"
    },
    {
        "Postcode": "08200",
        "Location": "Kampung Lalang",
        "Post_Office": "Sik",
        "State": "Kedah"
    },
    {
        "Postcode": "08200",
        "Location": "Kampung Bukit Chepir",
        "Post_Office": "Sik",
        "State": "Kedah"
    },
    {
        "Postcode": "08200",
        "Location": "Kampung Jerai",
        "Post_Office": "Sik",
        "State": "Kedah"
    },
    {
        "Postcode": "08200",
        "Location": "Batu 5 Sik",
        "Post_Office": "Sik",
        "State": "Kedah"
    },
    {
        "Postcode": "08200",
        "Location": "Kampung Baru Seri Dacing",
        "Post_Office": "Sik",
        "State": "Kedah"
    },
    {
        "Postcode": "08200",
        "Location": "Kampung Batu Besar",
        "Post_Office": "Sik",
        "State": "Kedah"
    },
    {
        "Postcode": "08200",
        "Location": "Kampung Charok Malau",
        "Post_Office": "Sik",
        "State": "Kedah"
    },
    {
        "Postcode": "08200",
        "Location": "Kampung Charok Tualang",
        "Post_Office": "Sik",
        "State": "Kedah"
    },
    {
        "Postcode": "08200",
        "Location": "Kampung Merbau Kudung",
        "Post_Office": "Sik",
        "State": "Kedah"
    },
    {
        "Postcode": "08200",
        "Location": "Kampung Sungai Namek",
        "Post_Office": "Sik",
        "State": "Kedah"
    },
    {
        "Postcode": "08200",
        "Location": "Kampung Tanjung Besar",
        "Post_Office": "Sik",
        "State": "Kedah"
    },
    {
        "Postcode": "08200",
        "Location": "Kampung Teloi",
        "Post_Office": "Sik",
        "State": "Kedah"
    },
    {
        "Postcode": "08200",
        "Location": "Kampung Tupai",
        "Post_Office": "Sik",
        "State": "Kedah"
    },
    {
        "Postcode": "08200",
        "Location": "Perumahan Keda Sik",
        "Post_Office": "Sik",
        "State": "Kedah"
    },
    {
        "Postcode": "08200",
        "Location": "Perumahan Keda Sik Dalam",
        "Post_Office": "Sik",
        "State": "Kedah"
    },
    {
        "Postcode": "08200",
        "Location": "Perumahan Keda Sik Kota A",
        "Post_Office": "Sik",
        "State": "Kedah"
    },
    {
        "Postcode": "08200",
        "Location": "Taman Seroja",
        "Post_Office": "Sik",
        "State": "Kedah"
    },
    {
        "Postcode": "08200",
        "Location": "Taman Sri Enggang",
        "Post_Office": "Sik",
        "State": "Kedah"
    },
    {
        "Postcode": "08200",
        "Location": "Kampung Charok Kudung",
        "Post_Office": "Sik",
        "State": "Kedah"
    },
    {
        "Postcode": "08200",
        "Location": "Kampung Charok Pelanduk",
        "Post_Office": "Sik",
        "State": "Kedah"
    },
    {
        "Postcode": "08200",
        "Location": "Kampung Charok Sejuk",
        "Post_Office": "Sik",
        "State": "Kedah"
    },
    {
        "Postcode": "08200",
        "Location": "Kampung Banggol",
        "Post_Office": "Sik",
        "State": "Kedah"
    },
    {
        "Postcode": "08200",
        "Location": "Kampung Charok Kelian",
        "Post_Office": "Sik",
        "State": "Kedah"
    },
    {
        "Postcode": "08200",
        "Location": "Kampung Tanjong",
        "Post_Office": "Sik",
        "State": "Kedah"
    },
    {
        "Postcode": "08200",
        "Location": "Taman Aked",
        "Post_Office": "Sik",
        "State": "Kedah"
    },
    {
        "Postcode": "08200",
        "Location": "Kampung Balong Ayam",
        "Post_Office": "Sik",
        "State": "Kedah"
    },
    {
        "Postcode": "08200",
        "Location": "Kampung Banggol Dedap",
        "Post_Office": "Sik",
        "State": "Kedah"
    },
    {
        "Postcode": "08200",
        "Location": "Kampung Banggol Selayang",
        "Post_Office": "Sik",
        "State": "Kedah"
    },
    {
        "Postcode": "08200",
        "Location": "Kampung Bendang Man",
        "Post_Office": "Sik",
        "State": "Kedah"
    },
    {
        "Postcode": "08200",
        "Location": "Kampung Bendang Tebal",
        "Post_Office": "Sik",
        "State": "Kedah"
    },
    {
        "Postcode": "08200",
        "Location": "Kampung Bendang Temenggiat",
        "Post_Office": "Sik",
        "State": "Kedah"
    },
    {
        "Postcode": "08200",
        "Location": "Kampung Charok Kamuning",
        "Post_Office": "Sik",
        "State": "Kedah"
    },
    {
        "Postcode": "08200",
        "Location": "Kampung Charok Padang",
        "Post_Office": "Sik",
        "State": "Kedah"
    },
    {
        "Postcode": "08200",
        "Location": "Kampung Charok Sireh",
        "Post_Office": "Sik",
        "State": "Kedah"
    },
    {
        "Postcode": "08200",
        "Location": "Kampung Chong",
        "Post_Office": "Sik",
        "State": "Kedah"
    },
    {
        "Postcode": "08200",
        "Location": "Kampung Hujung Bandar",
        "Post_Office": "Sik",
        "State": "Kedah"
    },
    {
        "Postcode": "08200",
        "Location": "Kampung Hujung Tandop",
        "Post_Office": "Sik",
        "State": "Kedah"
    },
    {
        "Postcode": "08200",
        "Location": "Kampung Jelutong",
        "Post_Office": "Sik",
        "State": "Kedah"
    },
    {
        "Postcode": "08200",
        "Location": "Kampung Jering",
        "Post_Office": "Sik",
        "State": "Kedah"
    },
    {
        "Postcode": "08200",
        "Location": "Kampung Joget",
        "Post_Office": "Sik",
        "State": "Kedah"
    },
    {
        "Postcode": "08200",
        "Location": "Kampung Kemelong",
        "Post_Office": "Sik",
        "State": "Kedah"
    },
    {
        "Postcode": "08200",
        "Location": "Kampung Kerawai",
        "Post_Office": "Sik",
        "State": "Kedah"
    },
    {
        "Postcode": "08200",
        "Location": "Kampung Lubok Besar",
        "Post_Office": "Sik",
        "State": "Kedah"
    },
    {
        "Postcode": "08200",
        "Location": "Kampung Namek",
        "Post_Office": "Sik",
        "State": "Kedah"
    },
    {
        "Postcode": "08200",
        "Location": "Kampung Paya Terendam",
        "Post_Office": "Sik",
        "State": "Kedah"
    },
    {
        "Postcode": "08200",
        "Location": "Kampung Sadu",
        "Post_Office": "Sik",
        "State": "Kedah"
    },
    {
        "Postcode": "08200",
        "Location": "Kampung Sena",
        "Post_Office": "Sik",
        "State": "Kedah"
    },
    {
        "Postcode": "08200",
        "Location": "Kampung Sungai Batang",
        "Post_Office": "Sik",
        "State": "Kedah"
    },
    {
        "Postcode": "08200",
        "Location": "Kampung Sungai Senam",
        "Post_Office": "Sik",
        "State": "Kedah"
    },
    {
        "Postcode": "08200",
        "Location": "Kampung Titi Semang",
        "Post_Office": "Sik",
        "State": "Kedah"
    },
    {
        "Postcode": "08200",
        "Location": "Nanir",
        "Post_Office": "Sik",
        "State": "Kedah"
    }
]
