[
    {
        "Postcode": "08210",
        "Location": "Kampung Carok Tenang",
        "Post_Office": "Sik",
        "State": "Kedah"
    },
    {
        "Postcode": "08210",
        "Location": "Kampung Surau",
        "Post_Office": "Sik",
        "State": "Kedah"
    },
    {
        "Postcode": "08210",
        "Location": "Gulau",
        "Post_Office": "Sik",
        "State": "Kedah"
    },
    {
        "Postcode": "08210",
        "Location": "Kampung Baru Nami",
        "Post_Office": "Sik",
        "State": "Kedah"
    },
    {
        "Postcode": "08210",
        "Location": "Kampung Batu Seketul",
        "Post_Office": "Sik",
        "State": "Kedah"
    },
    {
        "Postcode": "08210",
        "Location": "Kampung Belantek",
        "Post_Office": "Sik",
        "State": "Kedah"
    },
    {
        "Postcode": "08210",
        "Location": "Kampung Bukit Batu",
        "Post_Office": "Sik",
        "State": "Kedah"
    },
    {
        "Postcode": "08210",
        "Location": "Kampung Bukit Berangan",
        "Post_Office": "Sik",
        "State": "Kedah"
    },
    {
        "Postcode": "08210",
        "Location": "Kampung Cerok Pisang",
        "Post_Office": "Sik",
        "State": "Kedah"
    },
    {
        "Postcode": "08210",
        "Location": "Kampung Charok Sedau",
        "Post_Office": "Sik",
        "State": "Kedah"
    },
    {
        "Postcode": "08210",
        "Location": "Kampung Danglau",
        "Post_Office": "Sik",
        "State": "Kedah"
    },
    {
        "Postcode": "08210",
        "Location": "Kampung Gubir",
        "Post_Office": "Sik",
        "State": "Kedah"
    },
    {
        "Postcode": "08210",
        "Location": "Kampung Gulau",
        "Post_Office": "Sik",
        "State": "Kedah"
    },
    {
        "Postcode": "08210",
        "Location": "Kampung Jurong",
        "Post_Office": "Sik",
        "State": "Kedah"
    },
    {
        "Postcode": "08210",
        "Location": "Kampung Kota Aur",
        "Post_Office": "Sik",
        "State": "Kedah"
    },
    {
        "Postcode": "08210",
        "Location": "Kampung Kuala Beris",
        "Post_Office": "Sik",
        "State": "Kedah"
    },
    {
        "Postcode": "08210",
        "Location": "Kampung Kubang Kesom",
        "Post_Office": "Sik",
        "State": "Kedah"
    },
    {
        "Postcode": "08210",
        "Location": "Kampung Landai",
        "Post_Office": "Sik",
        "State": "Kedah"
    },
    {
        "Postcode": "08210",
        "Location": "Kampung Lubok Nami",
        "Post_Office": "Sik",
        "State": "Kedah"
    },
    {
        "Postcode": "08210",
        "Location": "Kampung Lutang",
        "Post_Office": "Sik",
        "State": "Kedah"
    },
    {
        "Postcode": "08210",
        "Location": "Kampung Perangin",
        "Post_Office": "Sik",
        "State": "Kedah"
    },
    {
        "Postcode": "08210",
        "Location": "Kampung Perangkap",
        "Post_Office": "Sik",
        "State": "Kedah"
    },
    {
        "Postcode": "08210",
        "Location": "Kampung Pinang",
        "Post_Office": "Sik",
        "State": "Kedah"
    },
    {
        "Postcode": "08210",
        "Location": "Kampung Sungai Kap",
        "Post_Office": "Sik",
        "State": "Kedah"
    },
    {
        "Postcode": "08210",
        "Location": "Kampung Tanjong Piring",
        "Post_Office": "Sik",
        "State": "Kedah"
    }
]
