[
    {
        "Postcode": "08300",
        "Location": "Kampung Bukit Hangus",
        "Post_Office": "Gurun",
        "State": "Kedah"
    },
    {
        "Postcode": "08300",
        "Location": "Kampung Parit",
        "Post_Office": "Gurun",
        "State": "Kedah"
    },
    {
        "Postcode": "08300",
        "Location": "Kampung Tala",
        "Post_Office": "Gurun",
        "State": "Kedah"
    },
    {
        "Postcode": "08300",
        "Location": "Kampung Baru Bukit Kuang",
        "Post_Office": "Gurun",
        "State": "Kedah"
    },
    {
        "Postcode": "08300",
        "Location": "Kampung Baru Paya Mengkuang",
        "Post_Office": "Gurun",
        "State": "Kedah"
    },
    {
        "Postcode": "08300",
        "Location": "Kampung Chempedak",
        "Post_Office": "Gurun",
        "State": "Kedah"
    },
    {
        "Postcode": "08300",
        "Location": "Kampung Jalan Kilang Bata",
        "Post_Office": "Gurun",
        "State": "Kedah"
    },
    {
        "Postcode": "08300",
        "Location": "Kampung Kubur Lama",
        "Post_Office": "Gurun",
        "State": "Kedah"
    },
    {
        "Postcode": "08300",
        "Location": "Kampung Lubuk Reba",
        "Post_Office": "Gurun",
        "State": "Kedah"
    },
    {
        "Postcode": "08300",
        "Location": "Kampung Selamat Air Puteh",
        "Post_Office": "Gurun",
        "State": "Kedah"
    },
    {
        "Postcode": "08300",
        "Location": "Lktp Bukit Kuang",
        "Post_Office": "Gurun",
        "State": "Kedah"
    },
    {
        "Postcode": "08300",
        "Location": "Lktp Paya Mengkuang",
        "Post_Office": "Gurun",
        "State": "Kedah"
    },
    {
        "Postcode": "08300",
        "Location": "Padang Lembu",
        "Post_Office": "Gurun",
        "State": "Kedah"
    },
    {
        "Postcode": "08300",
        "Location": "Kampung Paya Serdang",
        "Post_Office": "Gurun",
        "State": "Kedah"
    },
    {
        "Postcode": "08300",
        "Location": "Gurun",
        "Post_Office": "Gurun",
        "State": "Kedah"
    },
    {
        "Postcode": "08300",
        "Location": "Kampung Baru Gurun",
        "Post_Office": "Gurun",
        "State": "Kedah"
    },
    {
        "Postcode": "08300",
        "Location": "Kampung Batu 21",
        "Post_Office": "Gurun",
        "State": "Kedah"
    },
    {
        "Postcode": "08300",
        "Location": "Kampung Belakang Sekolah Gurun",
        "Post_Office": "Gurun",
        "State": "Kedah"
    },
    {
        "Postcode": "08300",
        "Location": "Kampung Bongkok",
        "Post_Office": "Gurun",
        "State": "Kedah"
    },
    {
        "Postcode": "08300",
        "Location": "Kampung Gual Nanas",
        "Post_Office": "Gurun",
        "State": "Kedah"
    },
    {
        "Postcode": "08300",
        "Location": "Kampung Guar Jumaat",
        "Post_Office": "Gurun",
        "State": "Kedah"
    },
    {
        "Postcode": "08300",
        "Location": "Kampung Jelatang",
        "Post_Office": "Gurun",
        "State": "Kedah"
    },
    {
        "Postcode": "08300",
        "Location": "Kampung Kilang Papan",
        "Post_Office": "Gurun",
        "State": "Kedah"
    },
    {
        "Postcode": "08300",
        "Location": "Kampung Masjid Baru",
        "Post_Office": "Gurun",
        "State": "Kedah"
    },
    {
        "Postcode": "08300",
        "Location": "Kampung Padang Bongkok",
        "Post_Office": "Gurun",
        "State": "Kedah"
    },
    {
        "Postcode": "08300",
        "Location": "Kampung Pulau Chengai",
        "Post_Office": "Gurun",
        "State": "Kedah"
    },
    {
        "Postcode": "08300",
        "Location": "Kampung Sungai Badak",
        "Post_Office": "Gurun",
        "State": "Kedah"
    },
    {
        "Postcode": "08300",
        "Location": "Kampung Sungai Ibor",
        "Post_Office": "Gurun",
        "State": "Kedah"
    },
    {
        "Postcode": "08300",
        "Location": "Kampung Sungai Kunyit",
        "Post_Office": "Gurun",
        "State": "Kedah"
    },
    {
        "Postcode": "08300",
        "Location": "Kem Hobart",
        "Post_Office": "Gurun",
        "State": "Kedah"
    },
    {
        "Postcode": "08300",
        "Location": "Ladang Chin Hong",
        "Post_Office": "Gurun",
        "State": "Kedah"
    },
    {
        "Postcode": "08300",
        "Location": "Ladang Choon Hong",
        "Post_Office": "Gurun",
        "State": "Kedah"
    },
    {
        "Postcode": "08300",
        "Location": "Ladang Habsah",
        "Post_Office": "Gurun",
        "State": "Kedah"
    },
    {
        "Postcode": "08300",
        "Location": "Ladang Hor Soon",
        "Post_Office": "Gurun",
        "State": "Kedah"
    },
    {
        "Postcode": "08300",
        "Location": "Ladang Lenton",
        "Post_Office": "Gurun",
        "State": "Kedah"
    },
    {
        "Postcode": "08300",
        "Location": "Ladang Lim Heng Tong",
        "Post_Office": "Gurun",
        "State": "Kedah"
    },
    {
        "Postcode": "08300",
        "Location": "Ladang Soon Lee",
        "Post_Office": "Gurun",
        "State": "Kedah"
    },
    {
        "Postcode": "08300",
        "Location": "Ladang Sungai Padu",
        "Post_Office": "Gurun",
        "State": "Kedah"
    },
    {
        "Postcode": "08300",
        "Location": "Ladang Tai Cheang",
        "Post_Office": "Gurun",
        "State": "Kedah"
    },
    {
        "Postcode": "08300",
        "Location": "Ladang Thor Boon Tham",
        "Post_Office": "Gurun",
        "State": "Kedah"
    },
    {
        "Postcode": "08300",
        "Location": "Ladang Thye Lye",
        "Post_Office": "Gurun",
        "State": "Kedah"
    },
    {
        "Postcode": "08300",
        "Location": "Ladang Tzi Cheang",
        "Post_Office": "Gurun",
        "State": "Kedah"
    },
    {
        "Postcode": "08300",
        "Location": "Ladang Wong Jee",
        "Post_Office": "Gurun",
        "State": "Kedah"
    },
    {
        "Postcode": "08300",
        "Location": "Ladang Yeoh Eng",
        "Post_Office": "Gurun",
        "State": "Kedah"
    },
    {
        "Postcode": "08300",
        "Location": "Ladang Yom Long",
        "Post_Office": "Gurun",
        "State": "Kedah"
    },
    {
        "Postcode": "08300",
        "Location": "Nami",
        "Post_Office": "Gurun",
        "State": "Kedah"
    },
    {
        "Postcode": "08300",
        "Location": "Taman Berjaya",
        "Post_Office": "Gurun",
        "State": "Kedah"
    },
    {
        "Postcode": "08300",
        "Location": "Taman Gurun Indah",
        "Post_Office": "Gurun",
        "State": "Kedah"
    },
    {
        "Postcode": "08300",
        "Location": "Taman Jerai Harmoni",
        "Post_Office": "Gurun",
        "State": "Kedah"
    },
    {
        "Postcode": "08300",
        "Location": "Taman Jerai Indah",
        "Post_Office": "Gurun",
        "State": "Kedah"
    },
    {
        "Postcode": "08300",
        "Location": "Taman Jerai Maju",
        "Post_Office": "Gurun",
        "State": "Kedah"
    },
    {
        "Postcode": "08300",
        "Location": "Taman Jerai Mas",
        "Post_Office": "Gurun",
        "State": "Kedah"
    },
    {
        "Postcode": "08300",
        "Location": "Taman Lindungan Jerai",
        "Post_Office": "Gurun",
        "State": "Kedah"
    },
    {
        "Postcode": "08300",
        "Location": "Taman Puteri Lanjeda",
        "Post_Office": "Gurun",
        "State": "Kedah"
    },
    {
        "Postcode": "08300",
        "Location": "Taman Ria Mesra Fasa 2",
        "Post_Office": "Gurun",
        "State": "Kedah"
    }
]
