[
    {
        "Postcode": "08320",
        "Location": "Kampung Tok Aris",
        "Post_Office": "Jeniang",
        "State": "Kedah"
    },
    {
        "Postcode": "08320",
        "Location": "Kampung Banggol",
        "Post_Office": "Jeniang",
        "State": "Kedah"
    },
    {
        "Postcode": "08320",
        "Location": "Kampung Padang Besar",
        "Post_Office": "Jeniang",
        "State": "Kedah"
    },
    {
        "Postcode": "08320",
        "Location": "Desa Jaya",
        "Post_Office": "Jeniang",
        "State": "Kedah"
    },
    {
        "Postcode": "08320",
        "Location": "Kampung Banggol Luar",
        "Post_Office": "Jeniang",
        "State": "Kedah"
    },
    {
        "Postcode": "08320",
        "Location": "Kampung Bentong",
        "Post_Office": "Jeniang",
        "State": "Kedah"
    },
    {
        "Postcode": "08320",
        "Location": "Kampung Bentong Dalam",
        "Post_Office": "Jeniang",
        "State": "Kedah"
    },
    {
        "Postcode": "08320",
        "Location": "Kampung Dahaman",
        "Post_Office": "Jeniang",
        "State": "Kedah"
    },
    {
        "Postcode": "08320",
        "Location": "Kampung Jeram Buaya",
        "Post_Office": "Jeniang",
        "State": "Kedah"
    },
    {
        "Postcode": "08320",
        "Location": "Kampung Kota Bukit",
        "Post_Office": "Jeniang",
        "State": "Kedah"
    },
    {
        "Postcode": "08320",
        "Location": "Kampung Kuala Berok",
        "Post_Office": "Jeniang",
        "State": "Kedah"
    },
    {
        "Postcode": "08320",
        "Location": "Kampung Kuala Kerik",
        "Post_Office": "Jeniang",
        "State": "Kedah"
    },
    {
        "Postcode": "08320",
        "Location": "Kampung Kuala Ruman",
        "Post_Office": "Jeniang",
        "State": "Kedah"
    },
    {
        "Postcode": "08320",
        "Location": "Kampung Langgok Tanjong",
        "Post_Office": "Jeniang",
        "State": "Kedah"
    },
    {
        "Postcode": "08320",
        "Location": "Kampung Pasir Pokok",
        "Post_Office": "Jeniang",
        "State": "Kedah"
    },
    {
        "Postcode": "08320",
        "Location": "Kampung Pengkalan Raja",
        "Post_Office": "Jeniang",
        "State": "Kedah"
    },
    {
        "Postcode": "08320",
        "Location": "Kampung Pokok Jerai",
        "Post_Office": "Jeniang",
        "State": "Kedah"
    },
    {
        "Postcode": "08320",
        "Location": "Taman Ria Mesra",
        "Post_Office": "Jeniang",
        "State": "Kedah"
    }
]
