[
    {
        "Postcode": "08400",
        "Location": "Kampung Simpang Tiga Pasir",
        "Post_Office": "Merbok",
        "State": "Kedah"
    },
    {
        "Postcode": "08400",
        "Location": "Kampung Bendang Dalam",
        "Post_Office": "Merbok",
        "State": "Kedah"
    },
    {
        "Postcode": "08400",
        "Location": "Kampung Merbok",
        "Post_Office": "Merbok",
        "State": "Kedah"
    },
    {
        "Postcode": "08400",
        "Location": "Kampung Pengkalan Bujang",
        "Post_Office": "Merbok",
        "State": "Kedah"
    },
    {
        "Postcode": "08400",
        "Location": "Kampung Banggol",
        "Post_Office": "Merbok",
        "State": "Kedah"
    },
    {
        "Postcode": "08400",
        "Location": "Kampung Pasir",
        "Post_Office": "Merbok",
        "State": "Kedah"
    },
    {
        "Postcode": "08400",
        "Location": "Kampung Badong",
        "Post_Office": "Merbok",
        "State": "Kedah"
    },
    {
        "Postcode": "08400",
        "Location": "Kampung Baru Merbok",
        "Post_Office": "Merbok",
        "State": "Kedah"
    },
    {
        "Postcode": "08400",
        "Location": "Kampung Belau",
        "Post_Office": "Merbok",
        "State": "Kedah"
    },
    {
        "Postcode": "08400",
        "Location": "Kampung Bukit Haji Omar",
        "Post_Office": "Merbok",
        "State": "Kedah"
    },
    {
        "Postcode": "08400",
        "Location": "Kampung Hilir",
        "Post_Office": "Merbok",
        "State": "Kedah"
    },
    {
        "Postcode": "08400",
        "Location": "Kampung Jilid",
        "Post_Office": "Merbok",
        "State": "Kedah"
    },
    {
        "Postcode": "08400",
        "Location": "Kampung Padang Sora",
        "Post_Office": "Merbok",
        "State": "Kedah"
    },
    {
        "Postcode": "08400",
        "Location": "Merbok",
        "Post_Office": "Merbok",
        "State": "Kedah"
    }
]
