[
    {
        "Postcode": "08500",
        "Location": "Kampung Seberang Terus",
        "Post_Office": "Kota Kuala Muda",
        "State": "Kedah"
    },
    {
        "Postcode": "08500",
        "Location": "Kampung Kubang Jambu",
        "Post_Office": "Kota Kuala Muda",
        "State": "Kedah"
    },
    {
        "Postcode": "08500",
        "Location": "Kampung Padang Limau",
        "Post_Office": "Kota Kuala Muda",
        "State": "Kedah"
    },
    {
        "Postcode": "08500",
        "Location": "Kampung Permatang Pasir",
        "Post_Office": "Kota Kuala Muda",
        "State": "Kedah"
    },
    {
        "Postcode": "08500",
        "Location": "Kampung Rantau Panjang",
        "Post_Office": "Kota Kuala Muda",
        "State": "Kedah"
    },
    {
        "Postcode": "08500",
        "Location": "Kampung Sireh",
        "Post_Office": "Kota Kuala Muda",
        "State": "Kedah"
    },
    {
        "Postcode": "08500",
        "Location": "Kampung Sungai Deraka",
        "Post_Office": "Kota Kuala Muda",
        "State": "Kedah"
    },
    {
        "Postcode": "08500",
        "Location": "Kampung Alor Jawi",
        "Post_Office": "Kota Kuala Muda",
        "State": "Kedah"
    },
    {
        "Postcode": "08500",
        "Location": "Kampung Masjid",
        "Post_Office": "Kota Kuala Muda",
        "State": "Kedah"
    },
    {
        "Postcode": "08500",
        "Location": "Kampung Paya",
        "Post_Office": "Kota Kuala Muda",
        "State": "Kedah"
    },
    {
        "Postcode": "08500",
        "Location": "Kampung Telaga Batu",
        "Post_Office": "Kota Kuala Muda",
        "State": "Kedah"
    },
    {
        "Postcode": "08500",
        "Location": "Alor Nibong",
        "Post_Office": "Kota Kuala Muda",
        "State": "Kedah"
    },
    {
        "Postcode": "08500",
        "Location": "Batas Ban",
        "Post_Office": "Kota Kuala Muda",
        "State": "Kedah"
    },
    {
        "Postcode": "08500",
        "Location": "Batu Lintang",
        "Post_Office": "Kota Kuala Muda",
        "State": "Kedah"
    },
    {
        "Postcode": "08500",
        "Location": "Bukit Kechik",
        "Post_Office": "Kota Kuala Muda",
        "State": "Kedah"
    },
    {
        "Postcode": "08500",
        "Location": "Kampung Bakar Arang",
        "Post_Office": "Kota Kuala Muda",
        "State": "Kedah"
    },
    {
        "Postcode": "08500",
        "Location": "Kampung Batu 45 (Hutan Gelam)",
        "Post_Office": "Kota Kuala Muda",
        "State": "Kedah"
    },
    {
        "Postcode": "08500",
        "Location": "Kampung Bukit Berangan",
        "Post_Office": "Kota Kuala Muda",
        "State": "Kedah"
    },
    {
        "Postcode": "08500",
        "Location": "Kampung Bukit Damar",
        "Post_Office": "Kota Kuala Muda",
        "State": "Kedah"
    },
    {
        "Postcode": "08500",
        "Location": "Kampung Bukit Kecil Simpor",
        "Post_Office": "Kota Kuala Muda",
        "State": "Kedah"
    },
    {
        "Postcode": "08500",
        "Location": "Kampung Bukit Meriam",
        "Post_Office": "Kota Kuala Muda",
        "State": "Kedah"
    },
    {
        "Postcode": "08500",
        "Location": "Kampung Bukit Pantai",
        "Post_Office": "Kota Kuala Muda",
        "State": "Kedah"
    },
    {
        "Postcode": "08500",
        "Location": "Kampung Bukit Perah",
        "Post_Office": "Kota Kuala Muda",
        "State": "Kedah"
    },
    {
        "Postcode": "08500",
        "Location": "Kampung Bukit Tukang Jusoh",
        "Post_Office": "Kota Kuala Muda",
        "State": "Kedah"
    },
    {
        "Postcode": "08500",
        "Location": "Kampung Dusun Tua",
        "Post_Office": "Kota Kuala Muda",
        "State": "Kedah"
    },
    {
        "Postcode": "08500",
        "Location": "Kampung Haji Kudong",
        "Post_Office": "Kota Kuala Muda",
        "State": "Kedah"
    },
    {
        "Postcode": "08500",
        "Location": "Kampung Hujong Matang",
        "Post_Office": "Kota Kuala Muda",
        "State": "Kedah"
    },
    {
        "Postcode": "08500",
        "Location": "Kampung Kepala Jalan",
        "Post_Office": "Kota Kuala Muda",
        "State": "Kedah"
    },
    {
        "Postcode": "08500",
        "Location": "Kampung Komoi",
        "Post_Office": "Kota Kuala Muda",
        "State": "Kedah"
    },
    {
        "Postcode": "08500",
        "Location": "Kampung Masjid Batu",
        "Post_Office": "Kota Kuala Muda",
        "State": "Kedah"
    },
    {
        "Postcode": "08500",
        "Location": "Kampung Nangka",
        "Post_Office": "Kota Kuala Muda",
        "State": "Kedah"
    },
    {
        "Postcode": "08500",
        "Location": "Kampung Padang Salim",
        "Post_Office": "Kota Kuala Muda",
        "State": "Kedah"
    },
    {
        "Postcode": "08500",
        "Location": "Kampung Pantai Merdeka",
        "Post_Office": "Kota Kuala Muda",
        "State": "Kedah"
    },
    {
        "Postcode": "08500",
        "Location": "Kampung Permatang Bagan",
        "Post_Office": "Kota Kuala Muda",
        "State": "Kedah"
    },
    {
        "Postcode": "08500",
        "Location": "Kampung Permatang Batu",
        "Post_Office": "Kota Kuala Muda",
        "State": "Kedah"
    },
    {
        "Postcode": "08500",
        "Location": "Kampung Permatang Kabu",
        "Post_Office": "Kota Kuala Muda",
        "State": "Kedah"
    },
    {
        "Postcode": "08500",
        "Location": "Kampung Permatang Katong",
        "Post_Office": "Kota Kuala Muda",
        "State": "Kedah"
    },
    {
        "Postcode": "08500",
        "Location": "Kampung Permatang Kecil",
        "Post_Office": "Kota Kuala Muda",
        "State": "Kedah"
    },
    {
        "Postcode": "08500",
        "Location": "Kampung Permatang Kelompang",
        "Post_Office": "Kota Kuala Muda",
        "State": "Kedah"
    },
    {
        "Postcode": "08500",
        "Location": "Kampung Permatang Nyior",
        "Post_Office": "Kota Kuala Muda",
        "State": "Kedah"
    },
    {
        "Postcode": "08500",
        "Location": "Kampung Permatang Ringan",
        "Post_Office": "Kota Kuala Muda",
        "State": "Kedah"
    },
    {
        "Postcode": "08500",
        "Location": "Kampung Permatang Tengah",
        "Post_Office": "Kota Kuala Muda",
        "State": "Kedah"
    },
    {
        "Postcode": "08500",
        "Location": "Kampung Pulau Sayak",
        "Post_Office": "Kota Kuala Muda",
        "State": "Kedah"
    },
    {
        "Postcode": "08500",
        "Location": "Kampung Simpang Tiga Teluk Nipah",
        "Post_Office": "Kota Kuala Muda",
        "State": "Kedah"
    },
    {
        "Postcode": "08500",
        "Location": "Kampung Sintok Bugis",
        "Post_Office": "Kota Kuala Muda",
        "State": "Kedah"
    },
    {
        "Postcode": "08500",
        "Location": "Kampung Sungai Emas",
        "Post_Office": "Kota Kuala Muda",
        "State": "Kedah"
    },
    {
        "Postcode": "08500",
        "Location": "Kampung Sungai Meriam",
        "Post_Office": "Kota Kuala Muda",
        "State": "Kedah"
    },
    {
        "Postcode": "08500",
        "Location": "Kampung Sungai Yu",
        "Post_Office": "Kota Kuala Muda",
        "State": "Kedah"
    },
    {
        "Postcode": "08500",
        "Location": "Kampung Telok Amboi",
        "Post_Office": "Kota Kuala Muda",
        "State": "Kedah"
    },
    {
        "Postcode": "08500",
        "Location": "Kampung Telok Bayu",
        "Post_Office": "Kota Kuala Muda",
        "State": "Kedah"
    },
    {
        "Postcode": "08500",
        "Location": "Kampung Telok Nipah",
        "Post_Office": "Kota Kuala Muda",
        "State": "Kedah"
    },
    {
        "Postcode": "08500",
        "Location": "Kampung Tepi Sungai",
        "Post_Office": "Kota Kuala Muda",
        "State": "Kedah"
    },
    {
        "Postcode": "08500",
        "Location": "Kota Kuala Muda",
        "Post_Office": "Kota Kuala Muda",
        "State": "Kedah"
    },
    {
        "Postcode": "08500",
        "Location": "Kuala Sungai Muda",
        "Post_Office": "Kota Kuala Muda",
        "State": "Kedah"
    },
    {
        "Postcode": "08500",
        "Location": "Pulau Sayak",
        "Post_Office": "Kota Kuala Muda",
        "State": "Kedah"
    },
    {
        "Postcode": "08500",
        "Location": "Simpor",
        "Post_Office": "Kota Kuala Muda",
        "State": "Kedah"
    }
]
