[
    {
        "Postcode": "08600",
        "Location": "Kampung Telok Wang",
        "Post_Office": "Sungai Petani",
        "State": "Kedah"
    },
    {
        "Postcode": "08600",
        "Location": "Kampung Paya Kerchut",
        "Post_Office": "Sungai Petani",
        "State": "Kedah"
    },
    {
        "Postcode": "08600",
        "Location": "Kampung Alor Bemban",
        "Post_Office": "Sungai Petani",
        "State": "Kedah"
    },
    {
        "Postcode": "08600",
        "Location": "Kampung Kubang Siam",
        "Post_Office": "Sungai Petani",
        "State": "Kedah"
    },
    {
        "Postcode": "08600",
        "Location": "Kampung Lembah",
        "Post_Office": "Sungai Petani",
        "State": "Kedah"
    },
    {
        "Postcode": "08600",
        "Location": "Kampung Padang Binjal",
        "Post_Office": "Sungai Petani",
        "State": "Kedah"
    },
    {
        "Postcode": "08600",
        "Location": "Kampung Padang Kubu",
        "Post_Office": "Sungai Petani",
        "State": "Kedah"
    },
    {
        "Postcode": "08600",
        "Location": "Kampung Padang Regent",
        "Post_Office": "Sungai Petani",
        "State": "Kedah"
    },
    {
        "Postcode": "08600",
        "Location": "Kampung Pengkalan Bukit Lintang",
        "Post_Office": "Sungai Petani",
        "State": "Kedah"
    },
    {
        "Postcode": "08600",
        "Location": "Kampung Permatang Batu Lintang",
        "Post_Office": "Sungai Petani",
        "State": "Kedah"
    },
    {
        "Postcode": "08600",
        "Location": "Kampung Permatang Langsat",
        "Post_Office": "Sungai Petani",
        "State": "Kedah"
    },
    {
        "Postcode": "08600",
        "Location": "Kampung Permatang Merbau",
        "Post_Office": "Sungai Petani",
        "State": "Kedah"
    },
    {
        "Postcode": "08600",
        "Location": "Kampung Perlis",
        "Post_Office": "Sungai Petani",
        "State": "Kedah"
    },
    {
        "Postcode": "08600",
        "Location": "Kampung Bukit Berapit",
        "Post_Office": "Sungai Petani",
        "State": "Kedah"
    },
    {
        "Postcode": "08600",
        "Location": "Kampung Bukit Petai",
        "Post_Office": "Sungai Petani",
        "State": "Kedah"
    },
    {
        "Postcode": "08600",
        "Location": "Kampung Pengkalan Bukit Kecil",
        "Post_Office": "Sungai Petani",
        "State": "Kedah"
    },
    {
        "Postcode": "08600",
        "Location": "Kampung Sungai Korok",
        "Post_Office": "Sungai Petani",
        "State": "Kedah"
    },
    {
        "Postcode": "08600",
        "Location": "Kampung Sungai Reba",
        "Post_Office": "Sungai Petani",
        "State": "Kedah"
    },
    {
        "Postcode": "08600",
        "Location": "Tikam Batu",
        "Post_Office": "Sungai Petani",
        "State": "Kedah"
    },
    {
        "Postcode": "08600",
        "Location": "Kampung Masjid",
        "Post_Office": "Sungai Petani",
        "State": "Kedah"
    },
    {
        "Postcode": "08600",
        "Location": "Kampung Padang",
        "Post_Office": "Sungai Petani",
        "State": "Kedah"
    },
    {
        "Postcode": "08600",
        "Location": "Kampung Padang Buloh",
        "Post_Office": "Sungai Petani",
        "State": "Kedah"
    },
    {
        "Postcode": "08600",
        "Location": "Kampung Baru Simpor",
        "Post_Office": "Sungai Petani",
        "State": "Kedah"
    },
    {
        "Postcode": "08600",
        "Location": "Kampung Baru Tikam Batu",
        "Post_Office": "Sungai Petani",
        "State": "Kedah"
    },
    {
        "Postcode": "08600",
        "Location": "Kampung Berapit",
        "Post_Office": "Sungai Petani",
        "State": "Kedah"
    },
    {
        "Postcode": "08600",
        "Location": "Kampung Bukit Lalang",
        "Post_Office": "Sungai Petani",
        "State": "Kedah"
    },
    {
        "Postcode": "08600",
        "Location": "Kampung Matang Durian",
        "Post_Office": "Sungai Petani",
        "State": "Kedah"
    },
    {
        "Postcode": "08600",
        "Location": "Kampung Padang Penghulu",
        "Post_Office": "Sungai Petani",
        "State": "Kedah"
    },
    {
        "Postcode": "08600",
        "Location": "Kampung Pokok Kabu",
        "Post_Office": "Sungai Petani",
        "State": "Kedah"
    },
    {
        "Postcode": "08600",
        "Location": "Kampung Pulau Sepom",
        "Post_Office": "Sungai Petani",
        "State": "Kedah"
    },
    {
        "Postcode": "08600",
        "Location": "Kampung Sekolah",
        "Post_Office": "Sungai Petani",
        "State": "Kedah"
    },
    {
        "Postcode": "08600",
        "Location": "Kampung Titi Merdeka",
        "Post_Office": "Sungai Petani",
        "State": "Kedah"
    }
]
