[
    {
        "Postcode": "08700",
        "Location": "Kampung Cemara",
        "Post_Office": "Jeniang",
        "State": "Kedah"
    },
    {
        "Postcode": "08700",
        "Location": "Kampung Charok Tala",
        "Post_Office": "Jeniang",
        "State": "Kedah"
    },
    {
        "Postcode": "08700",
        "Location": "Kampung Dusun Pengapit",
        "Post_Office": "Jeniang",
        "State": "Kedah"
    },
    {
        "Postcode": "08700",
        "Location": "Kampung Kuala Hai",
        "Post_Office": "Jeniang",
        "State": "Kedah"
    },
    {
        "Postcode": "08700",
        "Location": "Kampung Kubang Yoi",
        "Post_Office": "Jeniang",
        "State": "Kedah"
    },
    {
        "Postcode": "08700",
        "Location": "Kampung Kura",
        "Post_Office": "Jeniang",
        "State": "Kedah"
    },
    {
        "Postcode": "08700",
        "Location": "Kampung Padang Pulut",
        "Post_Office": "Jeniang",
        "State": "Kedah"
    },
    {
        "Postcode": "08700",
        "Location": "Kampung Sungai Semiar",
        "Post_Office": "Jeniang",
        "State": "Kedah"
    },
    {
        "Postcode": "08700",
        "Location": "Kampung Sungai Setar",
        "Post_Office": "Jeniang",
        "State": "Kedah"
    },
    {
        "Postcode": "08700",
        "Location": "Kampung Baru Changai",
        "Post_Office": "Jeniang",
        "State": "Kedah"
    },
    {
        "Postcode": "08700",
        "Location": "Kampung Gajah Putih",
        "Post_Office": "Jeniang",
        "State": "Kedah"
    },
    {
        "Postcode": "08700",
        "Location": "Kampung Baru Kura",
        "Post_Office": "Jeniang",
        "State": "Kedah"
    },
    {
        "Postcode": "08700",
        "Location": "Kampung Padang Chichak",
        "Post_Office": "Jeniang",
        "State": "Kedah"
    },
    {
        "Postcode": "08700",
        "Location": "Kampung Sedu",
        "Post_Office": "Jeniang",
        "State": "Kedah"
    },
    {
        "Postcode": "08700",
        "Location": "Kampung Tengah",
        "Post_Office": "Jeniang",
        "State": "Kedah"
    },
    {
        "Postcode": "08700",
        "Location": "Bandar Baru Beris Jaya",
        "Post_Office": "Jeniang",
        "State": "Kedah"
    },
    {
        "Postcode": "08700",
        "Location": "Kampung Masjid",
        "Post_Office": "Jeniang",
        "State": "Kedah"
    },
    {
        "Postcode": "08700",
        "Location": "Kampung Tanjong",
        "Post_Office": "Jeniang",
        "State": "Kedah"
    },
    {
        "Postcode": "08700",
        "Location": "Jeneri",
        "Post_Office": "Jeniang",
        "State": "Kedah"
    },
    {
        "Postcode": "08700",
        "Location": "Jeniang",
        "Post_Office": "Jeniang",
        "State": "Kedah"
    },
    {
        "Postcode": "08700",
        "Location": "Kampung Berona",
        "Post_Office": "Jeniang",
        "State": "Kedah"
    },
    {
        "Postcode": "08700",
        "Location": "Kampung Berona Kanan",
        "Post_Office": "Jeniang",
        "State": "Kedah"
    },
    {
        "Postcode": "08700",
        "Location": "Kampung Berona Kiri",
        "Post_Office": "Jeniang",
        "State": "Kedah"
    },
    {
        "Postcode": "08700",
        "Location": "Kampung Bigia",
        "Post_Office": "Jeniang",
        "State": "Kedah"
    },
    {
        "Postcode": "08700",
        "Location": "Kampung Bukit Minyak",
        "Post_Office": "Jeniang",
        "State": "Kedah"
    },
    {
        "Postcode": "08700",
        "Location": "Kampung Kalai",
        "Post_Office": "Jeniang",
        "State": "Kedah"
    },
    {
        "Postcode": "08700",
        "Location": "Kampung Kuala Bigia",
        "Post_Office": "Jeniang",
        "State": "Kedah"
    },
    {
        "Postcode": "08700",
        "Location": "Kampung Mambong",
        "Post_Office": "Jeniang",
        "State": "Kedah"
    },
    {
        "Postcode": "08700",
        "Location": "Kampung Padang Ragut",
        "Post_Office": "Jeniang",
        "State": "Kedah"
    },
    {
        "Postcode": "08700",
        "Location": "Kampung Shanghai",
        "Post_Office": "Jeniang",
        "State": "Kedah"
    }
]
