[
    {
        "Postcode": "08800",
        "Location": "Kampung Banggol Lalang",
        "Post_Office": "Gurun",
        "State": "Kedah"
    },
    {
        "Postcode": "08800",
        "Location": "Kampung Batu 16",
        "Post_Office": "Gurun",
        "State": "Kedah"
    },
    {
        "Postcode": "08800",
        "Location": "Kampung Batu 20",
        "Post_Office": "Gurun",
        "State": "Kedah"
    },
    {
        "Postcode": "08800",
        "Location": "Kampung Bendang",
        "Post_Office": "Gurun",
        "State": "Kedah"
    },
    {
        "Postcode": "08800",
        "Location": "Kampung Guar Stesen",
        "Post_Office": "Gurun",
        "State": "Kedah"
    },
    {
        "Postcode": "08800",
        "Location": "Kampung Kepala Bukit",
        "Post_Office": "Gurun",
        "State": "Kedah"
    },
    {
        "Postcode": "08800",
        "Location": "Kampung Kubur",
        "Post_Office": "Gurun",
        "State": "Kedah"
    },
    {
        "Postcode": "08800",
        "Location": "Kampung Masjid",
        "Post_Office": "Gurun",
        "State": "Kedah"
    },
    {
        "Postcode": "08800",
        "Location": "Kampung Pasir",
        "Post_Office": "Gurun",
        "State": "Kedah"
    },
    {
        "Postcode": "08800",
        "Location": "Kampung Titi Teras",
        "Post_Office": "Gurun",
        "State": "Kedah"
    },
    {
        "Postcode": "08800",
        "Location": "Batu 20 Jalan Yan",
        "Post_Office": "Gurun",
        "State": "Kedah"
    },
    {
        "Postcode": "08800",
        "Location": "Guar Chempedak",
        "Post_Office": "Gurun",
        "State": "Kedah"
    },
    {
        "Postcode": "08800",
        "Location": "Gurun (Km 27)",
        "Post_Office": "Gurun",
        "State": "Kedah"
    },
    {
        "Postcode": "08800",
        "Location": "Kampung Batu 17 (Jalan Sungai Petani)",
        "Post_Office": "Gurun",
        "State": "Kedah"
    },
    {
        "Postcode": "08800",
        "Location": "Kampung Batu 18",
        "Post_Office": "Gurun",
        "State": "Kedah"
    },
    {
        "Postcode": "08800",
        "Location": "Kampung Belinda",
        "Post_Office": "Gurun",
        "State": "Kedah"
    },
    {
        "Postcode": "08800",
        "Location": "Kampung Belinga Siam",
        "Post_Office": "Gurun",
        "State": "Kedah"
    },
    {
        "Postcode": "08800",
        "Location": "Kampung Kepala 30",
        "Post_Office": "Gurun",
        "State": "Kedah"
    },
    {
        "Postcode": "08800",
        "Location": "Kampung Padang Lumat",
        "Post_Office": "Gurun",
        "State": "Kedah"
    },
    {
        "Postcode": "08800",
        "Location": "Kampung Sungai Baru",
        "Post_Office": "Gurun",
        "State": "Kedah"
    },
    {
        "Postcode": "08800",
        "Location": "Kampung Sungai Pasir",
        "Post_Office": "Gurun",
        "State": "Kedah"
    },
    {
        "Postcode": "08800",
        "Location": "Kampung Sungai Saberang",
        "Post_Office": "Gurun",
        "State": "Kedah"
    },
    {
        "Postcode": "08800",
        "Location": "Kampung Sungai Tok Rama",
        "Post_Office": "Gurun",
        "State": "Kedah"
    },
    {
        "Postcode": "08800",
        "Location": "Kampung Titi Batu",
        "Post_Office": "Gurun",
        "State": "Kedah"
    },
    {
        "Postcode": "08800",
        "Location": "Kampung Titi Bom",
        "Post_Office": "Gurun",
        "State": "Kedah"
    },
    {
        "Postcode": "08800",
        "Location": "Kampung Tok Kau",
        "Post_Office": "Gurun",
        "State": "Kedah"
    },
    {
        "Postcode": "08800",
        "Location": "Kampung Ulu Teroi",
        "Post_Office": "Gurun",
        "State": "Kedah"
    },
    {
        "Postcode": "08800",
        "Location": "Padang Lumat",
        "Post_Office": "Gurun",
        "State": "Kedah"
    },
    {
        "Postcode": "08800",
        "Location": "Pekan Terai",
        "Post_Office": "Gurun",
        "State": "Kedah"
    },
    {
        "Postcode": "08800",
        "Location": "Pondok Haji Majid",
        "Post_Office": "Gurun",
        "State": "Kedah"
    },
    {
        "Postcode": "08800",
        "Location": "Taman Desa Aman 1",
        "Post_Office": "Gurun",
        "State": "Kedah"
    },
    {
        "Postcode": "08800",
        "Location": "Taman Desa Aman 2",
        "Post_Office": "Gurun",
        "State": "Kedah"
    },
    {
        "Postcode": "08800",
        "Location": "Taman Lambaian Jerai",
        "Post_Office": "Gurun",
        "State": "Kedah"
    },
    {
        "Postcode": "08800",
        "Location": "Terai Bukit",
        "Post_Office": "Gurun",
        "State": "Kedah"
    }
]
