[
    {
        "Postcode": "45100",
        "Location": "Kampung Simpang 4 ",
        "Post_Office": "Sungai Ayer Tawar",
        "State": "Selangor"
    },
    {
        "Postcode": "45100",
        "Location": "Kampung Parit Baru Darat",
        "Post_Office": "Sungai Ayer Tawar",
        "State": "Selangor"
    },
    {
        "Postcode": "45100",
        "Location": "Kampung Teluk Rhu",
        "Post_Office": "Sungai Ayer Tawar",
        "State": "Selangor"
    },
    {
        "Postcode": "45100",
        "Location": "Bagan Parit Baru",
        "Post_Office": "Sungai Ayer Tawar",
        "State": "Selangor"
    },
    {
        "Postcode": "45100",
        "Location": "Bagan Sungai Lang",
        "Post_Office": "Sungai Ayer Tawar",
        "State": "Selangor"
    },
    {
        "Postcode": "45100",
        "Location": "Bagan Sungai Pulai",
        "Post_Office": "Sungai Ayer Tawar",
        "State": "Selangor"
    },
    {
        "Postcode": "45100",
        "Location": "Bagan Telok Rhu",
        "Post_Office": "Sungai Ayer Tawar",
        "State": "Selangor"
    },
    {
        "Postcode": "45100",
        "Location": "Jalan Haji Mahmud",
        "Post_Office": "Sungai Ayer Tawar",
        "State": "Selangor"
    },
    {
        "Postcode": "45100",
        "Location": "Jalan Masjid (Sungai Ayer Tawar )",
        "Post_Office": "Sungai Ayer Tawar",
        "State": "Selangor"
    },
    {
        "Postcode": "45100",
        "Location": "Jalan Miskun",
        "Post_Office": "Sungai Ayer Tawar",
        "State": "Selangor"
    },
    {
        "Postcode": "45100",
        "Location": "Jalan Nawam",
        "Post_Office": "Sungai Ayer Tawar",
        "State": "Selangor"
    },
    {
        "Postcode": "45100",
        "Location": "Jalan Tambeh",
        "Post_Office": "Sungai Ayer Tawar",
        "State": "Selangor"
    },
    {
        "Postcode": "45100",
        "Location": "Kampung Dato Hormat",
        "Post_Office": "Sungai Ayer Tawar",
        "State": "Selangor"
    },
    {
        "Postcode": "45100",
        "Location": "Kampung Parit Baru Baroh",
        "Post_Office": "Sungai Ayer Tawar",
        "State": "Selangor"
    },
    {
        "Postcode": "45100",
        "Location": "Kampung Perenggan",
        "Post_Office": "Sungai Ayer Tawar",
        "State": "Selangor"
    },
    {
        "Postcode": "45100",
        "Location": "Kampung Sungai Apong",
        "Post_Office": "Sungai Ayer Tawar",
        "State": "Selangor"
    },
    {
        "Postcode": "45100",
        "Location": "Kampung Sungai Nireh",
        "Post_Office": "Sungai Ayer Tawar",
        "State": "Selangor"
    },
    {
        "Postcode": "45100",
        "Location": "Kampung Sungai Tengar",
        "Post_Office": "Sungai Ayer Tawar",
        "State": "Selangor"
    },
    {
        "Postcode": "45100",
        "Location": "Kampung Tebok Bahagia",
        "Post_Office": "Sungai Ayer Tawar",
        "State": "Selangor"
    },
    {
        "Postcode": "45100",
        "Location": "Kampung Tebok Dimyati",
        "Post_Office": "Sungai Ayer Tawar",
        "State": "Selangor"
    },
    {
        "Postcode": "45100",
        "Location": "Kampung Tebok Haji Abas",
        "Post_Office": "Sungai Ayer Tawar",
        "State": "Selangor"
    },
    {
        "Postcode": "45100",
        "Location": "Kampung Tebok Haji Bakar",
        "Post_Office": "Sungai Ayer Tawar",
        "State": "Selangor"
    },
    {
        "Postcode": "45100",
        "Location": "Kampung Tebok Haji Bakir",
        "Post_Office": "Sungai Ayer Tawar",
        "State": "Selangor"
    },
    {
        "Postcode": "45100",
        "Location": "Kampung Tebok Haji Idris",
        "Post_Office": "Sungai Ayer Tawar",
        "State": "Selangor"
    },
    {
        "Postcode": "45100",
        "Location": "Kampung Tebok Haji Karim",
        "Post_Office": "Sungai Ayer Tawar",
        "State": "Selangor"
    },
    {
        "Postcode": "45100",
        "Location": "Kampung Tebok Haji Maarof",
        "Post_Office": "Sungai Ayer Tawar",
        "State": "Selangor"
    },
    {
        "Postcode": "45100",
        "Location": "Kampung Tebok Haji Mokhtar",
        "Post_Office": "Sungai Ayer Tawar",
        "State": "Selangor"
    },
    {
        "Postcode": "45100",
        "Location": "Kampung Tebok Haji Sabri",
        "Post_Office": "Sungai Ayer Tawar",
        "State": "Selangor"
    },
    {
        "Postcode": "45100",
        "Location": "Kampung Tebok Haji Shafie",
        "Post_Office": "Sungai Ayer Tawar",
        "State": "Selangor"
    },
    {
        "Postcode": "45100",
        "Location": "Kampung Tebok Haji Sidek",
        "Post_Office": "Sungai Ayer Tawar",
        "State": "Selangor"
    },
    {
        "Postcode": "45100",
        "Location": "Kampung Tebok Kubor",
        "Post_Office": "Sungai Ayer Tawar",
        "State": "Selangor"
    },
    {
        "Postcode": "45100",
        "Location": "Kampung Tebok Marjan",
        "Post_Office": "Sungai Ayer Tawar",
        "State": "Selangor"
    },
    {
        "Postcode": "45100",
        "Location": "Kampung Tebok Masjid Parit",
        "Post_Office": "Sungai Ayer Tawar",
        "State": "Selangor"
    },
    {
        "Postcode": "45100",
        "Location": "Kampung Tebok Mendeleng",
        "Post_Office": "Sungai Ayer Tawar",
        "State": "Selangor"
    },
    {
        "Postcode": "45100",
        "Location": "Kampung Tebok Pekan",
        "Post_Office": "Sungai Ayer Tawar",
        "State": "Selangor"
    },
    {
        "Postcode": "45100",
        "Location": "Kampung Tebok Peladang",
        "Post_Office": "Sungai Ayer Tawar",
        "State": "Selangor"
    },
    {
        "Postcode": "45100",
        "Location": "Kampung Tebok Ramli",
        "Post_Office": "Sungai Ayer Tawar",
        "State": "Selangor"
    },
    {
        "Postcode": "45100",
        "Location": "Kampung Tebok Rukun",
        "Post_Office": "Sungai Ayer Tawar",
        "State": "Selangor"
    },
    {
        "Postcode": "45100",
        "Location": "Kampung Tebok Sekolah",
        "Post_Office": "Sungai Ayer Tawar",
        "State": "Selangor"
    },
    {
        "Postcode": "45100",
        "Location": "Kampung Tebok Seri Jaya",
        "Post_Office": "Sungai Ayer Tawar",
        "State": "Selangor"
    },
    {
        "Postcode": "45100",
        "Location": "Kampung Tebok Sidang Jamian",
        "Post_Office": "Sungai Ayer Tawar",
        "State": "Selangor"
    },
    {
        "Postcode": "45100",
        "Location": "Kampung Tebok Sidang Masduki",
        "Post_Office": "Sungai Ayer Tawar",
        "State": "Selangor"
    },
    {
        "Postcode": "45100",
        "Location": "Kampung Tebok Siram",
        "Post_Office": "Sungai Ayer Tawar",
        "State": "Selangor"
    },
    {
        "Postcode": "45100",
        "Location": "Kampung Tebok Sultan",
        "Post_Office": "Sungai Ayer Tawar",
        "State": "Selangor"
    },
    {
        "Postcode": "45100",
        "Location": "Kampung Tebok Tanjong",
        "Post_Office": "Sungai Ayer Tawar",
        "State": "Selangor"
    },
    {
        "Postcode": "45100",
        "Location": "Kampung Tebok Teruna Jaya",
        "Post_Office": "Sungai Ayer Tawar",
        "State": "Selangor"
    },
    {
        "Postcode": "45100",
        "Location": "Kampung Tebok Yunan",
        "Post_Office": "Sungai Ayer Tawar",
        "State": "Selangor"
    },
    {
        "Postcode": "45100",
        "Location": "Kampung Tebok Zanuri",
        "Post_Office": "Sungai Ayer Tawar",
        "State": "Selangor"
    },
    {
        "Postcode": "45100",
        "Location": "Kampung Telok Tugiran",
        "Post_Office": "Sungai Ayer Tawar",
        "State": "Selangor"
    },
    {
        "Postcode": "45100",
        "Location": "Sungai Air Tawar",
        "Post_Office": "Sungai Ayer Tawar",
        "State": "Selangor"
    },
    {
        "Postcode": "45100",
        "Location": "Sungai Ayer Tawar",
        "Post_Office": "Sungai Ayer Tawar",
        "State": "Selangor"
    },
    {
        "Postcode": "45100",
        "Location": "Sungai Tengar Selatan",
        "Post_Office": "Sungai Ayer Tawar",
        "State": "Selangor"
    },
    {
        "Postcode": "45100",
        "Location": "Sungai Tengar Utara",
        "Post_Office": "Sungai Ayer Tawar",
        "State": "Selangor"
    },
    {
        "Postcode": "45100",
        "Location": "Tebok Haji Ramli",
        "Post_Office": "Sungai Ayer Tawar",
        "State": "Selangor"
    },
    {
        "Postcode": "45100",
        "Location": "Tebuk Masjid Sungai Tengar",
        "Post_Office": "Sungai Ayer Tawar",
        "State": "Selangor"
    },
    {
        "Postcode": "45100",
        "Location": "Tebuk Sarmon",
        "Post_Office": "Sungai Ayer Tawar",
        "State": "Selangor"
    },
    {
        "Postcode": "45100",
        "Location": "Kampung Parit Baru",
        "Post_Office": "Sungai Ayer Tawar",
        "State": "Selangor"
    },
    {
        "Postcode": "45100",
        "Location": "Kampung Tebok Seri Tanjung",
        "Post_Office": "Sungai Ayer Tawar",
        "State": "Selangor"
    },
    {
        "Postcode": "45100",
        "Location": "Kampung Tebuk Mufrad",
        "Post_Office": "Sungai Ayer Tawar",
        "State": "Selangor"
    },
    {
        "Postcode": "45100",
        "Location": "Jalan Sekolah",
        "Post_Office": "Sungai Ayer Tawar",
        "State": "Selangor"
    }
]
