[
    {
        "Postcode": "45200",
        "Location": "Bagan Nakhoda Omar",
        "Post_Office": "Sabak Bernam",
        "State": "Selangor"
    },
    {
        "Postcode": "45200",
        "Location": "Ladang Torkinton",
        "Post_Office": "Sabak Bernam",
        "State": "Selangor"
    },
    {
        "Postcode": "45200",
        "Location": "Kampung Haji Mahmudin",
        "Post_Office": "Sabak Bernam",
        "State": "Selangor"
    },
    {
        "Postcode": "45200",
        "Location": "Kampung Kemboja",
        "Post_Office": "Sabak Bernam",
        "State": "Selangor"
    },
    {
        "Postcode": "45200",
        "Location": "Kampung Pulau Pisang",
        "Post_Office": "Sabak Bernam",
        "State": "Selangor"
    },
    {
        "Postcode": "45200",
        "Location": "Ladang Sabak Bernam",
        "Post_Office": "Sabak Bernam",
        "State": "Selangor"
    },
    {
        "Postcode": "45200",
        "Location": "Taman Air Manis",
        "Post_Office": "Sabak Bernam",
        "State": "Selangor"
    },
    {
        "Postcode": "45200",
        "Location": "Taman Angsana",
        "Post_Office": "Sabak Bernam",
        "State": "Selangor"
    },
    {
        "Postcode": "45200",
        "Location": "Taman Berlian",
        "Post_Office": "Sabak Bernam",
        "State": "Selangor"
    },
    {
        "Postcode": "45200",
        "Location": "Taman Budi",
        "Post_Office": "Sabak Bernam",
        "State": "Selangor"
    },
    {
        "Postcode": "45200",
        "Location": "Taman Intan Jaya",
        "Post_Office": "Sabak Bernam",
        "State": "Selangor"
    },
    {
        "Postcode": "45200",
        "Location": "Taman Orkid",
        "Post_Office": "Sabak Bernam",
        "State": "Selangor"
    },
    {
        "Postcode": "45200",
        "Location": "Taman Platinum",
        "Post_Office": "Sabak Bernam",
        "State": "Selangor"
    },
    {
        "Postcode": "45200",
        "Location": "Taman Wawasan",
        "Post_Office": "Sabak Bernam",
        "State": "Selangor"
    },
    {
        "Postcode": "45200",
        "Location": "Jalan Cenderawasih",
        "Post_Office": "Sabak Bernam",
        "State": "Selangor"
    },
    {
        "Postcode": "45200",
        "Location": "Jalan Haji Mohamad",
        "Post_Office": "Sabak Bernam",
        "State": "Selangor"
    },
    {
        "Postcode": "45200",
        "Location": "Jalan Kalabakan",
        "Post_Office": "Sabak Bernam",
        "State": "Selangor"
    },
    {
        "Postcode": "45200",
        "Location": "Jalan Raja Chulan",
        "Post_Office": "Sabak Bernam",
        "State": "Selangor"
    },
    {
        "Postcode": "45200",
        "Location": "Jalan Syed Hashim",
        "Post_Office": "Sabak Bernam",
        "State": "Selangor"
    },
    {
        "Postcode": "45200",
        "Location": "Jalan Tebedu",
        "Post_Office": "Sabak Bernam",
        "State": "Selangor"
    },
    {
        "Postcode": "45200",
        "Location": "Kampung Bagan Nira",
        "Post_Office": "Sabak Bernam",
        "State": "Selangor"
    },
    {
        "Postcode": "45200",
        "Location": "Kampung Bagan Tunjang",
        "Post_Office": "Sabak Bernam",
        "State": "Selangor"
    },
    {
        "Postcode": "45200",
        "Location": "Kampung Banting",
        "Post_Office": "Sabak Bernam",
        "State": "Selangor"
    },
    {
        "Postcode": "45200",
        "Location": "Kampung Baru",
        "Post_Office": "Sabak Bernam",
        "State": "Selangor"
    },
    {
        "Postcode": "45200",
        "Location": "Kampung Dungun",
        "Post_Office": "Sabak Bernam",
        "State": "Selangor"
    },
    {
        "Postcode": "45200",
        "Location": "Kampung Gertak Tinggi",
        "Post_Office": "Sabak Bernam",
        "State": "Selangor"
    },
    {
        "Postcode": "45200",
        "Location": "Kampung Haji Arshad",
        "Post_Office": "Sabak Bernam",
        "State": "Selangor"
    },
    {
        "Postcode": "45200",
        "Location": "Kampung Haji Ismail",
        "Post_Office": "Sabak Bernam",
        "State": "Selangor"
    },
    {
        "Postcode": "45200",
        "Location": "Kampung Haji Mahmuddin",
        "Post_Office": "Sabak Bernam",
        "State": "Selangor"
    },
    {
        "Postcode": "45200",
        "Location": "Kampung Naidu",
        "Post_Office": "Sabak Bernam",
        "State": "Selangor"
    },
    {
        "Postcode": "45200",
        "Location": "Kampung Nekmat",
        "Post_Office": "Sabak Bernam",
        "State": "Selangor"
    },
    {
        "Postcode": "45200",
        "Location": "Kampung Sapintas",
        "Post_Office": "Sabak Bernam",
        "State": "Selangor"
    },
    {
        "Postcode": "45200",
        "Location": "Kampung Sekendi",
        "Post_Office": "Sabak Bernam",
        "State": "Selangor"
    },
    {
        "Postcode": "45200",
        "Location": "Kampung Sepintas",
        "Post_Office": "Sabak Bernam",
        "State": "Selangor"
    },
    {
        "Postcode": "45200",
        "Location": "Kampung Sidang Long",
        "Post_Office": "Sabak Bernam",
        "State": "Selangor"
    },
    {
        "Postcode": "45200",
        "Location": "Kampung Sungai Gatal",
        "Post_Office": "Sabak Bernam",
        "State": "Selangor"
    },
    {
        "Postcode": "45200",
        "Location": "Kampung Sungai Pulai",
        "Post_Office": "Sabak Bernam",
        "State": "Selangor"
    },
    {
        "Postcode": "45200",
        "Location": "Kampung Tebok Haji Noor",
        "Post_Office": "Sabak Bernam",
        "State": "Selangor"
    },
    {
        "Postcode": "45200",
        "Location": "Kampung Tebok Jawa",
        "Post_Office": "Sabak Bernam",
        "State": "Selangor"
    },
    {
        "Postcode": "45200",
        "Location": "Kampung Tebok Lama",
        "Post_Office": "Sabak Bernam",
        "State": "Selangor"
    },
    {
        "Postcode": "45200",
        "Location": "Kampung Tebok Matang",
        "Post_Office": "Sabak Bernam",
        "State": "Selangor"
    },
    {
        "Postcode": "45200",
        "Location": "Kampung Tebok Montel",
        "Post_Office": "Sabak Bernam",
        "State": "Selangor"
    },
    {
        "Postcode": "45200",
        "Location": "Kampung Tebok Pulai",
        "Post_Office": "Sabak Bernam",
        "State": "Selangor"
    },
    {
        "Postcode": "45200",
        "Location": "Kampung Tebok Tengah",
        "Post_Office": "Sabak Bernam",
        "State": "Selangor"
    },
    {
        "Postcode": "45200",
        "Location": "Kampung Tengah",
        "Post_Office": "Sabak Bernam",
        "State": "Selangor"
    },
    {
        "Postcode": "45200",
        "Location": "Lorong Angkasa",
        "Post_Office": "Sabak Bernam",
        "State": "Selangor"
    },
    {
        "Postcode": "45200",
        "Location": "Lorong Cempaka",
        "Post_Office": "Sabak Bernam",
        "State": "Selangor"
    },
    {
        "Postcode": "45200",
        "Location": "Lorong Ros Biru",
        "Post_Office": "Sabak Bernam",
        "State": "Selangor"
    },
    {
        "Postcode": "45200",
        "Location": "Sabak Bernam",
        "Post_Office": "Sabak Bernam",
        "State": "Selangor"
    },
    {
        "Postcode": "45200",
        "Location": "Sabak Bernam - Peti Surat",
        "Post_Office": "Sabak Bernam",
        "State": "Selangor"
    },
    {
        "Postcode": "45200",
        "Location": "Sabak Bernam (Km 61 - 64)",
        "Post_Office": "Sabak Bernam",
        "State": "Selangor"
    },
    {
        "Postcode": "45200",
        "Location": "Taman Bernam Jaya",
        "Post_Office": "Sabak Bernam",
        "State": "Selangor"
    },
    {
        "Postcode": "45200",
        "Location": "Taman Damai",
        "Post_Office": "Sabak Bernam",
        "State": "Selangor"
    },
    {
        "Postcode": "45200",
        "Location": "Taman Feri",
        "Post_Office": "Sabak Bernam",
        "State": "Selangor"
    },
    {
        "Postcode": "45200",
        "Location": "Taman Gembira",
        "Post_Office": "Sabak Bernam",
        "State": "Selangor"
    },
    {
        "Postcode": "45200",
        "Location": "Taman Kenangan",
        "Post_Office": "Sabak Bernam",
        "State": "Selangor"
    },
    {
        "Postcode": "45200",
        "Location": "Taman Muhibbah",
        "Post_Office": "Sabak Bernam",
        "State": "Selangor"
    },
    {
        "Postcode": "45200",
        "Location": "Taman Perpaduan",
        "Post_Office": "Sabak Bernam",
        "State": "Selangor"
    },
    {
        "Postcode": "45200",
        "Location": "Taman Pertama",
        "Post_Office": "Sabak Bernam",
        "State": "Selangor"
    },
    {
        "Postcode": "45200",
        "Location": "Taman Raya",
        "Post_Office": "Sabak Bernam",
        "State": "Selangor"
    },
    {
        "Postcode": "45200",
        "Location": "Taman Sabak",
        "Post_Office": "Sabak Bernam",
        "State": "Selangor"
    },
    {
        "Postcode": "45200",
        "Location": "Taman Sabak Jaya",
        "Post_Office": "Sabak Bernam",
        "State": "Selangor"
    },
    {
        "Postcode": "45200",
        "Location": "Taman Sentosa",
        "Post_Office": "Sabak Bernam",
        "State": "Selangor"
    },
    {
        "Postcode": "45200",
        "Location": "Taman Serendah",
        "Post_Office": "Sabak Bernam",
        "State": "Selangor"
    },
    {
        "Postcode": "45200",
        "Location": "Taman Seri Nakhoda",
        "Post_Office": "Sabak Bernam",
        "State": "Selangor"
    },
    {
        "Postcode": "45200",
        "Location": "Tebok Haji Anuar",
        "Post_Office": "Sabak Bernam",
        "State": "Selangor"
    },
    {
        "Postcode": "45200",
        "Location": "Tebok Haji Mansor",
        "Post_Office": "Sabak Bernam",
        "State": "Selangor"
    },
    {
        "Postcode": "45200",
        "Location": "Tebok Haji Sirat",
        "Post_Office": "Sabak Bernam",
        "State": "Selangor"
    },
    {
        "Postcode": "45200",
        "Location": "Tebok Haji Yusof",
        "Post_Office": "Sabak Bernam",
        "State": "Selangor"
    },
    {
        "Postcode": "45200",
        "Location": "Tebok Jasiman",
        "Post_Office": "Sabak Bernam",
        "State": "Selangor"
    },
    {
        "Postcode": "45200",
        "Location": "Tebok Pak Dollah",
        "Post_Office": "Sabak Bernam",
        "State": "Selangor"
    },
    {
        "Postcode": "45200",
        "Location": "Tebok Rahman",
        "Post_Office": "Sabak Bernam",
        "State": "Selangor"
    },
    {
        "Postcode": "45200",
        "Location": "Tebok Ridzuan",
        "Post_Office": "Sabak Bernam",
        "State": "Selangor"
    },
    {
        "Postcode": "45200",
        "Location": "Kampung Tanjung Jawa",
        "Post_Office": "Sabak Bernam",
        "State": "Selangor"
    },
    {
        "Postcode": "45200",
        "Location": "Kampung Tebuk Berihun",
        "Post_Office": "Sabak Bernam",
        "State": "Selangor"
    },
    {
        "Postcode": "45200",
        "Location": "Taman Aman",
        "Post_Office": "Sabak Bernam",
        "State": "Selangor"
    },
    {
        "Postcode": "45200",
        "Location": "Desa Kasih",
        "Post_Office": "Sabak Bernam",
        "State": "Selangor"
    },
    {
        "Postcode": "45200",
        "Location": "Taman Berjaya",
        "Post_Office": "Sabak Bernam",
        "State": "Selangor"
    },
    {
        "Postcode": "45200",
        "Location": "Taman Indah",
        "Post_Office": "Sabak Bernam",
        "State": "Selangor"
    },
    {
        "Postcode": "45200",
        "Location": "Taman Mutiara",
        "Post_Office": "Sabak Bernam",
        "State": "Selangor"
    },
    {
        "Postcode": "45200",
        "Location": "Taman Sri Indah",
        "Post_Office": "Sabak Bernam",
        "State": "Selangor"
    },
    {
        "Postcode": "45200",
        "Location": "Lorong Melati",
        "Post_Office": "Sabak Bernam",
        "State": "Selangor"
    },
    {
        "Postcode": "45200",
        "Location": "Jalan Menteri",
        "Post_Office": "Sabak Bernam",
        "State": "Selangor"
    },
    {
        "Postcode": "45200",
        "Location": "Jalan Merpati",
        "Post_Office": "Sabak Bernam",
        "State": "Selangor"
    }
]
