[
    {
        "Postcode": "45400",
        "Location": "Centre Sekinchan Business",
        "Post_Office": "Sekinchan",
        "State": "Selangor"
    },
    {
        "Postcode": "45400",
        "Location": "Kampung Sungai Labu",
        "Post_Office": "Sekinchan",
        "State": "Selangor"
    },
    {
        "Postcode": "45400",
        "Location": "Kampung Tali Air 10",
        "Post_Office": "Sekinchan",
        "State": "Selangor"
    },
    {
        "Postcode": "45400",
        "Location": "Kampung Tali Air 12",
        "Post_Office": "Sekinchan",
        "State": "Selangor"
    },
    {
        "Postcode": "45400",
        "Location": "Kampung Tali Air 3",
        "Post_Office": "Sekinchan",
        "State": "Selangor"
    },
    {
        "Postcode": "45400",
        "Location": "Kampung Tali Air 4 ",
        "Post_Office": "Sekinchan",
        "State": "Selangor"
    },
    {
        "Postcode": "45400",
        "Location": "Kampung Tali Air 7 ",
        "Post_Office": "Sekinchan",
        "State": "Selangor"
    },
    {
        "Postcode": "45400",
        "Location": "Kampung Tali Air 8",
        "Post_Office": "Sekinchan",
        "State": "Selangor"
    },
    {
        "Postcode": "45400",
        "Location": "Kampung Tali Air 9 ",
        "Post_Office": "Sekinchan",
        "State": "Selangor"
    },
    {
        "Postcode": "45400",
        "Location": "Kampung Tengah Pasir Panjang",
        "Post_Office": "Sekinchan",
        "State": "Selangor"
    },
    {
        "Postcode": "45400",
        "Location": "Taman Aman Jaya",
        "Post_Office": "Sekinchan",
        "State": "Selangor"
    },
    {
        "Postcode": "45400",
        "Location": "Taman Aman Utama",
        "Post_Office": "Sekinchan",
        "State": "Selangor"
    },
    {
        "Postcode": "45400",
        "Location": "Taman Sekinchan Damai",
        "Post_Office": "Sekinchan",
        "State": "Selangor"
    },
    {
        "Postcode": "45400",
        "Location": "Taman Seri Sekinchan",
        "Post_Office": "Sekinchan",
        "State": "Selangor"
    },
    {
        "Postcode": "45400",
        "Location": "Bagan Pasir",
        "Post_Office": "Sekinchan",
        "State": "Selangor"
    },
    {
        "Postcode": "45400",
        "Location": "Desa Nelayan",
        "Post_Office": "Sekinchan",
        "State": "Selangor"
    },
    {
        "Postcode": "45400",
        "Location": "Jalan Bagan",
        "Post_Office": "Sekinchan",
        "State": "Selangor"
    },
    {
        "Postcode": "45400",
        "Location": "Jalan Balai Polis",
        "Post_Office": "Sekinchan",
        "State": "Selangor"
    },
    {
        "Postcode": "45400",
        "Location": "Jalan Desa Warisan",
        "Post_Office": "Sekinchan",
        "State": "Selangor"
    },
    {
        "Postcode": "45400",
        "Location": "Jalan Insan Sepi",
        "Post_Office": "Sekinchan",
        "State": "Selangor"
    },
    {
        "Postcode": "45400",
        "Location": "Jalan Laut",
        "Post_Office": "Sekinchan",
        "State": "Selangor"
    },
    {
        "Postcode": "45400",
        "Location": "Jalan Melati",
        "Post_Office": "Sekinchan",
        "State": "Selangor"
    },
    {
        "Postcode": "45400",
        "Location": "Jalan Pejabat Pos",
        "Post_Office": "Sekinchan",
        "State": "Selangor"
    },
    {
        "Postcode": "45400",
        "Location": "Jalan Radin",
        "Post_Office": "Sekinchan",
        "State": "Selangor"
    },
    {
        "Postcode": "45400",
        "Location": "Jalan Sentosa",
        "Post_Office": "Sekinchan",
        "State": "Selangor"
    },
    {
        "Postcode": "45400",
        "Location": "Jalan Sidang Haji Badrun",
        "Post_Office": "Sekinchan",
        "State": "Selangor"
    },
    {
        "Postcode": "45400",
        "Location": "Jalan Tali Air",
        "Post_Office": "Sekinchan",
        "State": "Selangor"
    },
    {
        "Postcode": "45400",
        "Location": "Kampung Baru Sungai Labu",
        "Post_Office": "Sekinchan",
        "State": "Selangor"
    },
    {
        "Postcode": "45400",
        "Location": "Kampung Parit Empat",
        "Post_Office": "Sekinchan",
        "State": "Selangor"
    },
    {
        "Postcode": "45400",
        "Location": "Kampung Pasir Panjang",
        "Post_Office": "Sekinchan",
        "State": "Selangor"
    },
    {
        "Postcode": "45400",
        "Location": "Kampung Penerangan",
        "Post_Office": "Sekinchan",
        "State": "Selangor"
    },
    {
        "Postcode": "45400",
        "Location": "Kampung Sungai Leman",
        "Post_Office": "Sekinchan",
        "State": "Selangor"
    },
    {
        "Postcode": "45400",
        "Location": "Kampung Sungai Nibong",
        "Post_Office": "Sekinchan",
        "State": "Selangor"
    },
    {
        "Postcode": "45400",
        "Location": "Lorong Bagan",
        "Post_Office": "Sekinchan",
        "State": "Selangor"
    },
    {
        "Postcode": "45400",
        "Location": "Lorong Haji Hadi",
        "Post_Office": "Sekinchan",
        "State": "Selangor"
    },
    {
        "Postcode": "45400",
        "Location": "Parit 4 Burong",
        "Post_Office": "Sekinchan",
        "State": "Selangor"
    },
    {
        "Postcode": "45400",
        "Location": "Pasir Panjang",
        "Post_Office": "Sekinchan",
        "State": "Selangor"
    },
    {
        "Postcode": "45400",
        "Location": "Sekinchan",
        "Post_Office": "Sekinchan",
        "State": "Selangor"
    },
    {
        "Postcode": "45400",
        "Location": "Sekinchan Site A-B-C",
        "Post_Office": "Sekinchan",
        "State": "Selangor"
    },
    {
        "Postcode": "45400",
        "Location": "Sungai Leman",
        "Post_Office": "Sekinchan",
        "State": "Selangor"
    },
    {
        "Postcode": "45400",
        "Location": "Taman Ria Jaya",
        "Post_Office": "Sekinchan",
        "State": "Selangor"
    },
    {
        "Postcode": "45400",
        "Location": "Taman Sekinchan",
        "Post_Office": "Sekinchan",
        "State": "Selangor"
    },
    {
        "Postcode": "45400",
        "Location": "Taman Sekinchan Jaya",
        "Post_Office": "Sekinchan",
        "State": "Selangor"
    },
    {
        "Postcode": "45400",
        "Location": "Taman Seri",
        "Post_Office": "Sekinchan",
        "State": "Selangor"
    },
    {
        "Postcode": "45400",
        "Location": "Tebok Marsom",
        "Post_Office": "Sekinchan",
        "State": "Selangor"
    },
    {
        "Postcode": "45400",
        "Location": "Kampung Batu 23",
        "Post_Office": "Sekinchan",
        "State": "Selangor"
    },
    {
        "Postcode": "45400",
        "Location": "Taman Aman",
        "Post_Office": "Sekinchan",
        "State": "Selangor"
    },
    {
        "Postcode": "45400",
        "Location": "Jalan Mawar",
        "Post_Office": "Sekinchan",
        "State": "Selangor"
    },
    {
        "Postcode": "45400",
        "Location": "Jalan Sekolah",
        "Post_Office": "Sekinchan",
        "State": "Selangor"
    },
    {
        "Postcode": "45400",
        "Location": "Desa Kasih",
        "Post_Office": "Sekinchan",
        "State": "Selangor"
    },
    {
        "Postcode": "45400",
        "Location": "Taman Harmoni",
        "Post_Office": "Sekinchan",
        "State": "Selangor"
    },
    {
        "Postcode": "45400",
        "Location": "Taman Indah",
        "Post_Office": "Sekinchan",
        "State": "Selangor"
    },
    {
        "Postcode": "45400",
        "Location": "Taman Ria",
        "Post_Office": "Sekinchan",
        "State": "Selangor"
    },
    {
        "Postcode": "45400",
        "Location": "Jalan Bernam",
        "Post_Office": "Sekinchan",
        "State": "Selangor"
    },
    {
        "Postcode": "45400",
        "Location": "Jalan Gereja",
        "Post_Office": "Sekinchan",
        "State": "Selangor"
    },
    {
        "Postcode": "45400",
        "Location": "Jalan Orkid",
        "Post_Office": "Sekinchan",
        "State": "Selangor"
    },
    {
        "Postcode": "45400",
        "Location": "Jalan Peria",
        "Post_Office": "Sekinchan",
        "State": "Selangor"
    },
    {
        "Postcode": "45400",
        "Location": "Kampung Tali Air",
        "Post_Office": "Sekinchan",
        "State": "Selangor"
    },
    {
        "Postcode": "45400",
        "Location": "Kampung Parit 10 (Pasir Panjang)",
        "Post_Office": "Sekinchan",
        "State": "Selangor"
    },
    {
        "Postcode": "45400",
        "Location": "Kampung Parit 11 (Pasir Panjang)",
        "Post_Office": "Sekinchan",
        "State": "Selangor"
    },
    {
        "Postcode": "45400",
        "Location": "Kampung Parit 12 (Sungai Nibong)",
        "Post_Office": "Sekinchan",
        "State": "Selangor"
    },
    {
        "Postcode": "45400",
        "Location": "Kampung Parit 13 (Sungai Nibong)",
        "Post_Office": "Sekinchan",
        "State": "Selangor"
    },
    {
        "Postcode": "45400",
        "Location": "Kampung Parit 3 (Sungai Burong)",
        "Post_Office": "Sekinchan",
        "State": "Selangor"
    },
    {
        "Postcode": "45400",
        "Location": "Kampung Parit 4 (Sungai Burong)",
        "Post_Office": "Sekinchan",
        "State": "Selangor"
    },
    {
        "Postcode": "45400",
        "Location": "Kampung Parit 5 (Sungai Burong)",
        "Post_Office": "Sekinchan",
        "State": "Selangor"
    },
    {
        "Postcode": "45400",
        "Location": "Kampung Parit 7 (Sungai Leman)",
        "Post_Office": "Sekinchan",
        "State": "Selangor"
    },
    {
        "Postcode": "45400",
        "Location": "Kampung Parit 8 (Sungai Leman)",
        "Post_Office": "Sekinchan",
        "State": "Selangor"
    },
    {
        "Postcode": "45400",
        "Location": "Kampung Parit 9 (Sungai Leman)",
        "Post_Office": "Sekinchan",
        "State": "Selangor"
    }
]
