[
    {
        "Postcode": "45600",
        "Location": "Taman Ilmu ",
        "Post_Office": "Bestari Jaya",
        "State": "Selangor"
    },
    {
        "Postcode": "45600",
        "Location": "Taman Muhibah",
        "Post_Office": "Bestari Jaya",
        "State": "Selangor"
    },
    {
        "Postcode": "45600",
        "Location": "Estate Sime Darby",
        "Post_Office": "Bestari Jaya",
        "State": "Selangor"
    },
    {
        "Postcode": "45600",
        "Location": "Kampung Baru Ijok",
        "Post_Office": "Bestari Jaya",
        "State": "Selangor"
    },
    {
        "Postcode": "45600",
        "Location": "Kampung Berjuntai Bestari",
        "Post_Office": "Bestari Jaya",
        "State": "Selangor"
    },
    {
        "Postcode": "45600",
        "Location": "Kampung Bestari Jaya",
        "Post_Office": "Bestari Jaya",
        "State": "Selangor"
    },
    {
        "Postcode": "45600",
        "Location": "Kampung Hang Tuah",
        "Post_Office": "Bestari Jaya",
        "State": "Selangor"
    },
    {
        "Postcode": "45600",
        "Location": "Kampung Harmoni",
        "Post_Office": "Bestari Jaya",
        "State": "Selangor"
    },
    {
        "Postcode": "45600",
        "Location": "Kampung Sri Sentosa",
        "Post_Office": "Bestari Jaya",
        "State": "Selangor"
    },
    {
        "Postcode": "45600",
        "Location": "Ladang Hopeful",
        "Post_Office": "Bestari Jaya",
        "State": "Selangor"
    },
    {
        "Postcode": "45600",
        "Location": "Ladang Mary",
        "Post_Office": "Bestari Jaya",
        "State": "Selangor"
    },
    {
        "Postcode": "45600",
        "Location": "Pusat Perniagaan Batang Berjuntai",
        "Post_Office": "Bestari Jaya",
        "State": "Selangor"
    },
    {
        "Postcode": "45600",
        "Location": "Taman Cahaya Indah",
        "Post_Office": "Bestari Jaya",
        "State": "Selangor"
    },
    {
        "Postcode": "45600",
        "Location": "Taman Cempaka Sari",
        "Post_Office": "Bestari Jaya",
        "State": "Selangor"
    },
    {
        "Postcode": "45600",
        "Location": "Taman Ijok Baru",
        "Post_Office": "Bestari Jaya",
        "State": "Selangor"
    },
    {
        "Postcode": "45600",
        "Location": "Taman Ijok Jaya",
        "Post_Office": "Bestari Jaya",
        "State": "Selangor"
    },
    {
        "Postcode": "45600",
        "Location": "Taman Ijok Utama",
        "Post_Office": "Bestari Jaya",
        "State": "Selangor"
    },
    {
        "Postcode": "45600",
        "Location": "Taman Industri Bukit Badong",
        "Post_Office": "Bestari Jaya",
        "State": "Selangor"
    },
    {
        "Postcode": "45600",
        "Location": "Taman Ladang Kamasan",
        "Post_Office": "Bestari Jaya",
        "State": "Selangor"
    },
    {
        "Postcode": "45600",
        "Location": "Taman Melor Jaya",
        "Post_Office": "Bestari Jaya",
        "State": "Selangor"
    },
    {
        "Postcode": "45600",
        "Location": "Taman Perindustrian Teknologi",
        "Post_Office": "Bestari Jaya",
        "State": "Selangor"
    },
    {
        "Postcode": "45600",
        "Location": "Taman Seri Bestari",
        "Post_Office": "Bestari Jaya",
        "State": "Selangor"
    },
    {
        "Postcode": "45600",
        "Location": "Taman Seri Cahaya",
        "Post_Office": "Bestari Jaya",
        "State": "Selangor"
    },
    {
        "Postcode": "45600",
        "Location": "Taman Seri Ijok",
        "Post_Office": "Bestari Jaya",
        "State": "Selangor"
    },
    {
        "Postcode": "45600",
        "Location": "Taman Seroja",
        "Post_Office": "Bestari Jaya",
        "State": "Selangor"
    },
    {
        "Postcode": "45600",
        "Location": "Taman Sri Kilat",
        "Post_Office": "Bestari Jaya",
        "State": "Selangor"
    },
    {
        "Postcode": "45600",
        "Location": "Taman Sri Pelangi",
        "Post_Office": "Bestari Jaya",
        "State": "Selangor"
    },
    {
        "Postcode": "45600",
        "Location": "Taman Suluh Bistari",
        "Post_Office": "Bestari Jaya",
        "State": "Selangor"
    },
    {
        "Postcode": "45600",
        "Location": "Taman Suluh Budiman",
        "Post_Office": "Bestari Jaya",
        "State": "Selangor"
    },
    {
        "Postcode": "45600",
        "Location": "Taman Yang Ming",
        "Post_Office": "Bestari Jaya",
        "State": "Selangor"
    },
    {
        "Postcode": "45600",
        "Location": "Batang Berjuntai - Peti Surat",
        "Post_Office": "Bestari Jaya",
        "State": "Selangor"
    },
    {
        "Postcode": "45600",
        "Location": "Berjuntai Bistari",
        "Post_Office": "Bestari Jaya",
        "State": "Selangor"
    },
    {
        "Postcode": "45600",
        "Location": "Berjuntai Tin",
        "Post_Office": "Bestari Jaya",
        "State": "Selangor"
    },
    {
        "Postcode": "45600",
        "Location": "Bukit Robinson",
        "Post_Office": "Bestari Jaya",
        "State": "Selangor"
    },
    {
        "Postcode": "45600",
        "Location": "Jalan Abd Aziz",
        "Post_Office": "Bestari Jaya",
        "State": "Selangor"
    },
    {
        "Postcode": "45600",
        "Location": "Jalan Abdullah Mukri",
        "Post_Office": "Bestari Jaya",
        "State": "Selangor"
    },
    {
        "Postcode": "45600",
        "Location": "Jalan Aman",
        "Post_Office": "Bestari Jaya",
        "State": "Selangor"
    },
    {
        "Postcode": "45600",
        "Location": "Jalan Dato Karjan",
        "Post_Office": "Bestari Jaya",
        "State": "Selangor"
    },
    {
        "Postcode": "45600",
        "Location": "Jalan Dato Penggawa",
        "Post_Office": "Bestari Jaya",
        "State": "Selangor"
    },
    {
        "Postcode": "45600",
        "Location": "Jalan Dato Sukim",
        "Post_Office": "Bestari Jaya",
        "State": "Selangor"
    },
    {
        "Postcode": "45600",
        "Location": "Jalan Haji Abd Manan",
        "Post_Office": "Bestari Jaya",
        "State": "Selangor"
    },
    {
        "Postcode": "45600",
        "Location": "Jalan Haji Mansor",
        "Post_Office": "Bestari Jaya",
        "State": "Selangor"
    },
    {
        "Postcode": "45600",
        "Location": "Jalan Haji Nasir",
        "Post_Office": "Bestari Jaya",
        "State": "Selangor"
    },
    {
        "Postcode": "45600",
        "Location": "Jalan Haji Nor",
        "Post_Office": "Bestari Jaya",
        "State": "Selangor"
    },
    {
        "Postcode": "45600",
        "Location": "Jalan Haji Shafie",
        "Post_Office": "Bestari Jaya",
        "State": "Selangor"
    },
    {
        "Postcode": "45600",
        "Location": "Jalan Haji Taib",
        "Post_Office": "Bestari Jaya",
        "State": "Selangor"
    },
    {
        "Postcode": "45600",
        "Location": "Jalan Ibrahim",
        "Post_Office": "Bestari Jaya",
        "State": "Selangor"
    },
    {
        "Postcode": "45600",
        "Location": "Jalan Maju",
        "Post_Office": "Bestari Jaya",
        "State": "Selangor"
    },
    {
        "Postcode": "45600",
        "Location": "Jalan Makmur",
        "Post_Office": "Bestari Jaya",
        "State": "Selangor"
    },
    {
        "Postcode": "45600",
        "Location": "Jalan Padang Bola",
        "Post_Office": "Bestari Jaya",
        "State": "Selangor"
    },
    {
        "Postcode": "45600",
        "Location": "Ijok Business Park",
        "Post_Office": "Bestari Jaya",
        "State": "Selangor"
    },
    {
        "Postcode": "45600",
        "Location": "Jalan Ibp 1",
        "Post_Office": "Bestari Jaya",
        "State": "Selangor"
    },
    {
        "Postcode": "45600",
        "Location": "Jalan Parit Mahang",
        "Post_Office": "Bestari Jaya",
        "State": "Selangor"
    },
    {
        "Postcode": "45600",
        "Location": "Jalan Sempadan Mukim",
        "Post_Office": "Bestari Jaya",
        "State": "Selangor"
    },
    {
        "Postcode": "45600",
        "Location": "Kampung Al Ansar",
        "Post_Office": "Bestari Jaya",
        "State": "Selangor"
    },
    {
        "Postcode": "45600",
        "Location": "Kampung Asahan",
        "Post_Office": "Bestari Jaya",
        "State": "Selangor"
    },
    {
        "Postcode": "45600",
        "Location": "Kampung Bukit Badong",
        "Post_Office": "Bestari Jaya",
        "State": "Selangor"
    },
    {
        "Postcode": "45600",
        "Location": "Kampung Holwood",
        "Post_Office": "Bestari Jaya",
        "State": "Selangor"
    },
    {
        "Postcode": "45600",
        "Location": "Kampung Ijok",
        "Post_Office": "Bestari Jaya",
        "State": "Selangor"
    },
    {
        "Postcode": "45600",
        "Location": "Kampung Jaya Setia",
        "Post_Office": "Bestari Jaya",
        "State": "Selangor"
    },
    {
        "Postcode": "45600",
        "Location": "Kampung Masjid Lama",
        "Post_Office": "Bestari Jaya",
        "State": "Selangor"
    },
    {
        "Postcode": "45600",
        "Location": "Kampung Nyior",
        "Post_Office": "Bestari Jaya",
        "State": "Selangor"
    },
    {
        "Postcode": "45600",
        "Location": "Kampung Pasangan",
        "Post_Office": "Bestari Jaya",
        "State": "Selangor"
    },
    {
        "Postcode": "45600",
        "Location": "Kampung Pasifik Tin",
        "Post_Office": "Bestari Jaya",
        "State": "Selangor"
    },
    {
        "Postcode": "45600",
        "Location": "Kampung Pecah Batu",
        "Post_Office": "Bestari Jaya",
        "State": "Selangor"
    },
    {
        "Postcode": "45600",
        "Location": "Kampung Sarang Lang",
        "Post_Office": "Bestari Jaya",
        "State": "Selangor"
    },
    {
        "Postcode": "45600",
        "Location": "Kampung Sepakat",
        "Post_Office": "Bestari Jaya",
        "State": "Selangor"
    },
    {
        "Postcode": "45600",
        "Location": "Kampung Sri Kota",
        "Post_Office": "Bestari Jaya",
        "State": "Selangor"
    },
    {
        "Postcode": "45600",
        "Location": "Kampung Sungai Darah",
        "Post_Office": "Bestari Jaya",
        "State": "Selangor"
    },
    {
        "Postcode": "45600",
        "Location": "Kampung Tanjong Buah-Buahan",
        "Post_Office": "Bestari Jaya",
        "State": "Selangor"
    },
    {
        "Postcode": "45600",
        "Location": "Kampung Tanjong Siam",
        "Post_Office": "Bestari Jaya",
        "State": "Selangor"
    },
    {
        "Postcode": "45600",
        "Location": "Kampung Terusan",
        "Post_Office": "Bestari Jaya",
        "State": "Selangor"
    },
    {
        "Postcode": "45600",
        "Location": "Ladang Nigel Gardner",
        "Post_Office": "Bestari Jaya",
        "State": "Selangor"
    },
    {
        "Postcode": "45600",
        "Location": "Ladang Sungai Rambai",
        "Post_Office": "Bestari Jaya",
        "State": "Selangor"
    },
    {
        "Postcode": "45600",
        "Location": "Ladang Sungai Tinggi",
        "Post_Office": "Bestari Jaya",
        "State": "Selangor"
    },
    {
        "Postcode": "45600",
        "Location": "Ladang Tennamaram",
        "Post_Office": "Bestari Jaya",
        "State": "Selangor"
    },
    {
        "Postcode": "45600",
        "Location": "Rumah Murah Kampung Kuantan",
        "Post_Office": "Bestari Jaya",
        "State": "Selangor"
    },
    {
        "Postcode": "45600",
        "Location": "Rumah Murah Koh Kai Boh",
        "Post_Office": "Bestari Jaya",
        "State": "Selangor"
    },
    {
        "Postcode": "45600",
        "Location": "Simpang Tiga",
        "Post_Office": "Bestari Jaya",
        "State": "Selangor"
    },
    {
        "Postcode": "45600",
        "Location": "Sungai Tinggi Estate",
        "Post_Office": "Bestari Jaya",
        "State": "Selangor"
    },
    {
        "Postcode": "45600",
        "Location": "Taman Anggerik ",
        "Post_Office": "Bestari Jaya",
        "State": "Selangor"
    },
    {
        "Postcode": "45600",
        "Location": "Taman Bukit Badong",
        "Post_Office": "Bestari Jaya",
        "State": "Selangor"
    },
    {
        "Postcode": "45600",
        "Location": "Taman Cahaya",
        "Post_Office": "Bestari Jaya",
        "State": "Selangor"
    },
    {
        "Postcode": "45600",
        "Location": "Taman Desa Utama",
        "Post_Office": "Bestari Jaya",
        "State": "Selangor"
    },
    {
        "Postcode": "45600",
        "Location": "Taman Jasa",
        "Post_Office": "Bestari Jaya",
        "State": "Selangor"
    },
    {
        "Postcode": "45600",
        "Location": "Taman Kilauan",
        "Post_Office": "Bestari Jaya",
        "State": "Selangor"
    },
    {
        "Postcode": "45600",
        "Location": "Taman Koperasi Bena",
        "Post_Office": "Bestari Jaya",
        "State": "Selangor"
    },
    {
        "Postcode": "45600",
        "Location": "Taman Kris",
        "Post_Office": "Bestari Jaya",
        "State": "Selangor"
    },
    {
        "Postcode": "45600",
        "Location": "Taman Melor",
        "Post_Office": "Bestari Jaya",
        "State": "Selangor"
    },
    {
        "Postcode": "45600",
        "Location": "Taman Pancaran",
        "Post_Office": "Bestari Jaya",
        "State": "Selangor"
    },
    {
        "Postcode": "45600",
        "Location": "Taman Purnama",
        "Post_Office": "Bestari Jaya",
        "State": "Selangor"
    },
    {
        "Postcode": "45600",
        "Location": "Taman Sejati",
        "Post_Office": "Bestari Jaya",
        "State": "Selangor"
    },
    {
        "Postcode": "45600",
        "Location": "Taman Sentosa",
        "Post_Office": "Bestari Jaya",
        "State": "Selangor"
    },
    {
        "Postcode": "45600",
        "Location": "Taman Seri Berjuntai",
        "Post_Office": "Bestari Jaya",
        "State": "Selangor"
    },
    {
        "Postcode": "45600",
        "Location": "Taman Sri Kuantan",
        "Post_Office": "Bestari Jaya",
        "State": "Selangor"
    },
    {
        "Postcode": "45600",
        "Location": "Taman Suloh Budiman",
        "Post_Office": "Bestari Jaya",
        "State": "Selangor"
    },
    {
        "Postcode": "45600",
        "Location": "Universiti Industri Selangor",
        "Post_Office": "Bestari Jaya",
        "State": "Selangor"
    },
    {
        "Postcode": "45600",
        "Location": "Kampung Teluk Penyamun",
        "Post_Office": "Bestari Jaya",
        "State": "Selangor"
    },
    {
        "Postcode": "45600",
        "Location": "Caledonia Heights",
        "Post_Office": "Bestari Jaya",
        "State": "Selangor"
    },
    {
        "Postcode": "45600",
        "Location": "Kampung Rantau Panjang",
        "Post_Office": "Bestari Jaya",
        "State": "Selangor"
    },
    {
        "Postcode": "45600",
        "Location": "Taman Bakti",
        "Post_Office": "Bestari Jaya",
        "State": "Selangor"
    },
    {
        "Postcode": "45600",
        "Location": "Taman Harmoni",
        "Post_Office": "Bestari Jaya",
        "State": "Selangor"
    },
    {
        "Postcode": "45600",
        "Location": "Taman Sri Indah",
        "Post_Office": "Bestari Jaya",
        "State": "Selangor"
    },
    {
        "Postcode": "45600",
        "Location": "Taman Suria ",
        "Post_Office": "Bestari Jaya",
        "State": "Selangor"
    },
    {
        "Postcode": "45600",
        "Location": "Kampung Jawa",
        "Post_Office": "Bestari Jaya",
        "State": "Selangor"
    },
    {
        "Postcode": "45600",
        "Location": "Kampung Kuantan",
        "Post_Office": "Bestari Jaya",
        "State": "Selangor"
    },
    {
        "Postcode": "45600",
        "Location": "Taman Sinaran",
        "Post_Office": "Bestari Jaya",
        "State": "Selangor"
    },
    {
        "Postcode": "45600",
        "Location": "Jalan Kampung ",
        "Post_Office": "Bestari Jaya",
        "State": "Selangor"
    },
    {
        "Postcode": "45600",
        "Location": "Jalan Merdeka",
        "Post_Office": "Bestari Jaya",
        "State": "Selangor"
    },
    {
        "Postcode": "45600",
        "Location": "Jalan Ros",
        "Post_Office": "Bestari Jaya",
        "State": "Selangor"
    },
    {
        "Postcode": "45600",
        "Location": "Kampung Idaman",
        "Post_Office": "Bestari Jaya",
        "State": "Selangor"
    },
    {
        "Postcode": "45600",
        "Location": "Kampung Sri Aman",
        "Post_Office": "Bestari Jaya",
        "State": "Selangor"
    }
]
