[
    {
        "Postcode": "45700",
        "Location": "Kampung Pasir Tuntung ",
        "Post_Office": "Bukit Rotan",
        "State": "Selangor"
    },
    {
        "Postcode": "45700",
        "Location": "Kampung Api-Api",
        "Post_Office": "Bukit Rotan",
        "State": "Selangor"
    },
    {
        "Postcode": "45700",
        "Location": "Taman Belibis",
        "Post_Office": "Bukit Rotan",
        "State": "Selangor"
    },
    {
        "Postcode": "45700",
        "Location": "Taman Harapan",
        "Post_Office": "Bukit Rotan",
        "State": "Selangor"
    },
    {
        "Postcode": "45700",
        "Location": "Taman Sungai Buloh",
        "Post_Office": "Bukit Rotan",
        "State": "Selangor"
    },
    {
        "Postcode": "45700",
        "Location": "Bukit Kuching",
        "Post_Office": "Bukit Rotan",
        "State": "Selangor"
    },
    {
        "Postcode": "45700",
        "Location": "Jalan Ara",
        "Post_Office": "Bukit Rotan",
        "State": "Selangor"
    },
    {
        "Postcode": "45700",
        "Location": "Jalan Beringin",
        "Post_Office": "Bukit Rotan",
        "State": "Selangor"
    },
    {
        "Postcode": "45700",
        "Location": "Jalan Bukit Rotan (Km 1)",
        "Post_Office": "Bukit Rotan",
        "State": "Selangor"
    },
    {
        "Postcode": "45700",
        "Location": "Jalan Cengal",
        "Post_Office": "Bukit Rotan",
        "State": "Selangor"
    },
    {
        "Postcode": "45700",
        "Location": "Jalan Istiqomah",
        "Post_Office": "Bukit Rotan",
        "State": "Selangor"
    },
    {
        "Postcode": "45700",
        "Location": "Jalan Meranti",
        "Post_Office": "Bukit Rotan",
        "State": "Selangor"
    },
    {
        "Postcode": "45700",
        "Location": "Jalan Sillaturrahim",
        "Post_Office": "Bukit Rotan",
        "State": "Selangor"
    },
    {
        "Postcode": "45700",
        "Location": "Kampung Api Api",
        "Post_Office": "Bukit Rotan",
        "State": "Selangor"
    },
    {
        "Postcode": "45700",
        "Location": "Kampung Asam Jawa",
        "Post_Office": "Bukit Rotan",
        "State": "Selangor"
    },
    {
        "Postcode": "45700",
        "Location": "Kampung Baru",
        "Post_Office": "Bukit Rotan",
        "State": "Selangor"
    },
    {
        "Postcode": "45700",
        "Location": "Kampung Baru Batu Satu",
        "Post_Office": "Bukit Rotan",
        "State": "Selangor"
    },
    {
        "Postcode": "45700",
        "Location": "Kampung Permatang Tengah",
        "Post_Office": "Bukit Rotan",
        "State": "Selangor"
    },
    {
        "Postcode": "45700",
        "Location": "Kampung Tengah",
        "Post_Office": "Bukit Rotan",
        "State": "Selangor"
    },
    {
        "Postcode": "45700",
        "Location": "Kuala Selangor Estate",
        "Post_Office": "Bukit Rotan",
        "State": "Selangor"
    },
    {
        "Postcode": "45700",
        "Location": "Taman Beringin",
        "Post_Office": "Bukit Rotan",
        "State": "Selangor"
    },
    {
        "Postcode": "45700",
        "Location": "Taman Impian",
        "Post_Office": "Bukit Rotan",
        "State": "Selangor"
    },
    {
        "Postcode": "45700",
        "Location": "Taman Kasawari",
        "Post_Office": "Bukit Rotan",
        "State": "Selangor"
    },
    {
        "Postcode": "45700",
        "Location": "Taman Merpati",
        "Post_Office": "Bukit Rotan",
        "State": "Selangor"
    },
    {
        "Postcode": "45700",
        "Location": "Taman Raja Udang",
        "Post_Office": "Bukit Rotan",
        "State": "Selangor"
    },
    {
        "Postcode": "45700",
        "Location": "Taman Rajawali",
        "Post_Office": "Bukit Rotan",
        "State": "Selangor"
    },
    {
        "Postcode": "45700",
        "Location": "Taman Selesa",
        "Post_Office": "Bukit Rotan",
        "State": "Selangor"
    },
    {
        "Postcode": "45700",
        "Location": "Taman Serindit",
        "Post_Office": "Bukit Rotan",
        "State": "Selangor"
    },
    {
        "Postcode": "45700",
        "Location": "Taman Assam Jawa",
        "Post_Office": "Bukit Rotan",
        "State": "Selangor"
    },
    {
        "Postcode": "45700",
        "Location": "Taman Bukit Rotan",
        "Post_Office": "Bukit Rotan",
        "State": "Selangor"
    },
    {
        "Postcode": "45700",
        "Location": "Taman Aman",
        "Post_Office": "Bukit Rotan",
        "State": "Selangor"
    },
    {
        "Postcode": "45700",
        "Location": "Taman Mulia",
        "Post_Office": "Bukit Rotan",
        "State": "Selangor"
    },
    {
        "Postcode": "45700",
        "Location": "Jalan Hospital",
        "Post_Office": "Bukit Rotan",
        "State": "Selangor"
    },
    {
        "Postcode": "45700",
        "Location": "Jalan Jelutong",
        "Post_Office": "Bukit Rotan",
        "State": "Selangor"
    },
    {
        "Postcode": "45700",
        "Location": "Jalan Tembusu",
        "Post_Office": "Bukit Rotan",
        "State": "Selangor"
    }
]
