[
    {
        "Postcode": "45800",
        "Location": "Ladang Bukit Cherakah",
        "Post_Office": "Jeram",
        "State": "Selangor"
    },
    {
        "Postcode": "45800",
        "Location": "Kampung Bukit Kuching Tengah",
        "Post_Office": "Jeram",
        "State": "Selangor"
    },
    {
        "Postcode": "45800",
        "Location": "Taman Bawal Putih",
        "Post_Office": "Jeram",
        "State": "Selangor"
    },
    {
        "Postcode": "45800",
        "Location": "Taman Belida",
        "Post_Office": "Jeram",
        "State": "Selangor"
    },
    {
        "Postcode": "45800",
        "Location": "Taman Budiman",
        "Post_Office": "Jeram",
        "State": "Selangor"
    },
    {
        "Postcode": "45800",
        "Location": "Taman Desa Ehsan",
        "Post_Office": "Jeram",
        "State": "Selangor"
    },
    {
        "Postcode": "45800",
        "Location": "Taman Desa Taqwa",
        "Post_Office": "Jeram",
        "State": "Selangor"
    },
    {
        "Postcode": "45800",
        "Location": "Taman Gelama",
        "Post_Office": "Jeram",
        "State": "Selangor"
    },
    {
        "Postcode": "45800",
        "Location": "Taman Ikan Emas",
        "Post_Office": "Jeram",
        "State": "Selangor"
    },
    {
        "Postcode": "45800",
        "Location": "Taman Muara Esbee",
        "Post_Office": "Jeram",
        "State": "Selangor"
    },
    {
        "Postcode": "45800",
        "Location": "Taman Pari",
        "Post_Office": "Jeram",
        "State": "Selangor"
    },
    {
        "Postcode": "45800",
        "Location": "Taman Salmon",
        "Post_Office": "Jeram",
        "State": "Selangor"
    },
    {
        "Postcode": "45800",
        "Location": "Taman Senohong",
        "Post_Office": "Jeram",
        "State": "Selangor"
    },
    {
        "Postcode": "45800",
        "Location": "Taman Seri Permai",
        "Post_Office": "Jeram",
        "State": "Selangor"
    },
    {
        "Postcode": "45800",
        "Location": "Taman Setia Budi",
        "Post_Office": "Jeram",
        "State": "Selangor"
    },
    {
        "Postcode": "45800",
        "Location": "Taman Siakap",
        "Post_Office": "Jeram",
        "State": "Selangor"
    },
    {
        "Postcode": "45800",
        "Location": "Taman Yu",
        "Post_Office": "Jeram",
        "State": "Selangor"
    },
    {
        "Postcode": "45800",
        "Location": "Desa Mentari 2",
        "Post_Office": "Jeram",
        "State": "Selangor"
    },
    {
        "Postcode": "45800",
        "Location": "Jalan Andak Daum",
        "Post_Office": "Jeram",
        "State": "Selangor"
    },
    {
        "Postcode": "45800",
        "Location": "Jalan Bagan Tok Janggut",
        "Post_Office": "Jeram",
        "State": "Selangor"
    },
    {
        "Postcode": "45800",
        "Location": "Jalan Belida",
        "Post_Office": "Jeram",
        "State": "Selangor"
    },
    {
        "Postcode": "45800",
        "Location": "Jalan Besar Sasaran",
        "Post_Office": "Jeram",
        "State": "Selangor"
    },
    {
        "Postcode": "45800",
        "Location": "Jalan Bilal Bandar",
        "Post_Office": "Jeram",
        "State": "Selangor"
    },
    {
        "Postcode": "45800",
        "Location": "Jalan Budi",
        "Post_Office": "Jeram",
        "State": "Selangor"
    },
    {
        "Postcode": "45800",
        "Location": "Jalan Datok Karim",
        "Post_Office": "Jeram",
        "State": "Selangor"
    },
    {
        "Postcode": "45800",
        "Location": "Jalan Dendang Laut",
        "Post_Office": "Jeram",
        "State": "Selangor"
    },
    {
        "Postcode": "45800",
        "Location": "Jalan Dungun",
        "Post_Office": "Jeram",
        "State": "Selangor"
    },
    {
        "Postcode": "45800",
        "Location": "Jalan Hailani",
        "Post_Office": "Jeram",
        "State": "Selangor"
    },
    {
        "Postcode": "45800",
        "Location": "Jalan Haji Zainal Batu 18",
        "Post_Office": "Jeram",
        "State": "Selangor"
    },
    {
        "Postcode": "45800",
        "Location": "Jalan Lee Tham Bee",
        "Post_Office": "Jeram",
        "State": "Selangor"
    },
    {
        "Postcode": "45800",
        "Location": "Jalan Muara",
        "Post_Office": "Jeram",
        "State": "Selangor"
    },
    {
        "Postcode": "45800",
        "Location": "Jalan Norwana Batu 16",
        "Post_Office": "Jeram",
        "State": "Selangor"
    },
    {
        "Postcode": "45800",
        "Location": "Jalan Pantai Batu 17",
        "Post_Office": "Jeram",
        "State": "Selangor"
    },
    {
        "Postcode": "45800",
        "Location": "Jalan Pantai Remis",
        "Post_Office": "Jeram",
        "State": "Selangor"
    },
    {
        "Postcode": "45800",
        "Location": "Jalan Parit Gajah",
        "Post_Office": "Jeram",
        "State": "Selangor"
    },
    {
        "Postcode": "45800",
        "Location": "Jalan Pawang Jalil",
        "Post_Office": "Jeram",
        "State": "Selangor"
    },
    {
        "Postcode": "45800",
        "Location": "Jalan Pusara",
        "Post_Office": "Jeram",
        "State": "Selangor"
    },
    {
        "Postcode": "45800",
        "Location": "Jalan Sempadan ",
        "Post_Office": "Jeram",
        "State": "Selangor"
    },
    {
        "Postcode": "45800",
        "Location": "Jalan Sentosa",
        "Post_Office": "Jeram",
        "State": "Selangor"
    },
    {
        "Postcode": "45800",
        "Location": "Jalan Sepakat",
        "Post_Office": "Jeram",
        "State": "Selangor"
    },
    {
        "Postcode": "45800",
        "Location": "Jalan Sidang Jalal",
        "Post_Office": "Jeram",
        "State": "Selangor"
    },
    {
        "Postcode": "45800",
        "Location": "Jalan Tok Selamat",
        "Post_Office": "Jeram",
        "State": "Selangor"
    },
    {
        "Postcode": "45800",
        "Location": "Jalan Tok Sulaiman",
        "Post_Office": "Jeram",
        "State": "Selangor"
    },
    {
        "Postcode": "45800",
        "Location": "Jalan Tokong Bagan",
        "Post_Office": "Jeram",
        "State": "Selangor"
    },
    {
        "Postcode": "45800",
        "Location": "Jeram",
        "Post_Office": "Jeram",
        "State": "Selangor"
    },
    {
        "Postcode": "45800",
        "Location": "Jeram (Km 32)",
        "Post_Office": "Jeram",
        "State": "Selangor"
    },
    {
        "Postcode": "45800",
        "Location": "Kampung Baru 20",
        "Post_Office": "Jeram",
        "State": "Selangor"
    },
    {
        "Postcode": "45800",
        "Location": "Kampung Baru Takwa",
        "Post_Office": "Jeram",
        "State": "Selangor"
    },
    {
        "Postcode": "45800",
        "Location": "Kampung Bukit Cherakah",
        "Post_Office": "Jeram",
        "State": "Selangor"
    },
    {
        "Postcode": "45800",
        "Location": "Kampung Bukit Hijau",
        "Post_Office": "Jeram",
        "State": "Selangor"
    },
    {
        "Postcode": "45800",
        "Location": "Kampung Bukit Kuching",
        "Post_Office": "Jeram",
        "State": "Selangor"
    },
    {
        "Postcode": "45800",
        "Location": "Kampung Nesa",
        "Post_Office": "Jeram",
        "State": "Selangor"
    },
    {
        "Postcode": "45800",
        "Location": "Kampung Parit Mahang",
        "Post_Office": "Jeram",
        "State": "Selangor"
    },
    {
        "Postcode": "45800",
        "Location": "Kampung Simpang Tiga",
        "Post_Office": "Jeram",
        "State": "Selangor"
    },
    {
        "Postcode": "45800",
        "Location": "Kampung Sungai Sembilang",
        "Post_Office": "Jeram",
        "State": "Selangor"
    },
    {
        "Postcode": "45800",
        "Location": "Kampung Tambak Jawa",
        "Post_Office": "Jeram",
        "State": "Selangor"
    },
    {
        "Postcode": "45800",
        "Location": "Kampung Tambak Tengah",
        "Post_Office": "Jeram",
        "State": "Selangor"
    },
    {
        "Postcode": "45800",
        "Location": "Ladang Brouson",
        "Post_Office": "Jeram",
        "State": "Selangor"
    },
    {
        "Postcode": "45800",
        "Location": "Ladang Bukit Cloh",
        "Post_Office": "Jeram",
        "State": "Selangor"
    },
    {
        "Postcode": "45800",
        "Location": "Ladang Ijok",
        "Post_Office": "Jeram",
        "State": "Selangor"
    },
    {
        "Postcode": "45800",
        "Location": "Lorong Jawahir",
        "Post_Office": "Jeram",
        "State": "Selangor"
    },
    {
        "Postcode": "45800",
        "Location": "Lorong Tapa",
        "Post_Office": "Jeram",
        "State": "Selangor"
    },
    {
        "Postcode": "45800",
        "Location": "Pasir Tuntong (Km 35)",
        "Post_Office": "Jeram",
        "State": "Selangor"
    },
    {
        "Postcode": "45800",
        "Location": "Rizab Dahlan",
        "Post_Office": "Jeram",
        "State": "Selangor"
    },
    {
        "Postcode": "45800",
        "Location": "Rizab Deraman",
        "Post_Office": "Jeram",
        "State": "Selangor"
    },
    {
        "Postcode": "45800",
        "Location": "Rizab Masjid",
        "Post_Office": "Jeram",
        "State": "Selangor"
    },
    {
        "Postcode": "45800",
        "Location": "Rizab Tomi",
        "Post_Office": "Jeram",
        "State": "Selangor"
    },
    {
        "Postcode": "45800",
        "Location": "Rizab Zazuli",
        "Post_Office": "Jeram",
        "State": "Selangor"
    },
    {
        "Postcode": "45800",
        "Location": "Sasaran",
        "Post_Office": "Jeram",
        "State": "Selangor"
    },
    {
        "Postcode": "45800",
        "Location": "Sungai Buloh",
        "Post_Office": "Jeram",
        "State": "Selangor"
    },
    {
        "Postcode": "45800",
        "Location": "Sungai Buloh (Jeram)",
        "Post_Office": "Jeram",
        "State": "Selangor"
    },
    {
        "Postcode": "45800",
        "Location": "Taman Budi",
        "Post_Office": "Jeram",
        "State": "Selangor"
    },
    {
        "Postcode": "45800",
        "Location": "Taman Bukit Jeram",
        "Post_Office": "Jeram",
        "State": "Selangor"
    },
    {
        "Postcode": "45800",
        "Location": "Taman Delima Merah",
        "Post_Office": "Jeram",
        "State": "Selangor"
    },
    {
        "Postcode": "45800",
        "Location": "Taman Desa Mahang",
        "Post_Office": "Jeram",
        "State": "Selangor"
    },
    {
        "Postcode": "45800",
        "Location": "Taman Ikan Bawal",
        "Post_Office": "Jeram",
        "State": "Selangor"
    },
    {
        "Postcode": "45800",
        "Location": "Taman Kelisa",
        "Post_Office": "Jeram",
        "State": "Selangor"
    },
    {
        "Postcode": "45800",
        "Location": "Taman Kenari",
        "Post_Office": "Jeram",
        "State": "Selangor"
    },
    {
        "Postcode": "45800",
        "Location": "Taman Pekerti",
        "Post_Office": "Jeram",
        "State": "Selangor"
    },
    {
        "Postcode": "45800",
        "Location": "Taman Permai",
        "Post_Office": "Jeram",
        "State": "Selangor"
    },
    {
        "Postcode": "45800",
        "Location": "Taman Salamon",
        "Post_Office": "Jeram",
        "State": "Selangor"
    },
    {
        "Postcode": "45800",
        "Location": "Taman Selangat",
        "Post_Office": "Jeram",
        "State": "Selangor"
    },
    {
        "Postcode": "45800",
        "Location": "Taman Senangin",
        "Post_Office": "Jeram",
        "State": "Selangor"
    },
    {
        "Postcode": "45800",
        "Location": "Taman Seri Pertama",
        "Post_Office": "Jeram",
        "State": "Selangor"
    },
    {
        "Postcode": "45800",
        "Location": "Taman Sungai Buloh",
        "Post_Office": "Jeram",
        "State": "Selangor"
    },
    {
        "Postcode": "45800",
        "Location": "Taman Sungai Sembilang",
        "Post_Office": "Jeram",
        "State": "Selangor"
    },
    {
        "Postcode": "45800",
        "Location": "Jalan Sekolah",
        "Post_Office": "Jeram",
        "State": "Selangor"
    },
    {
        "Postcode": "45800",
        "Location": "Seksyen 2",
        "Post_Office": "Jeram",
        "State": "Selangor"
    },
    {
        "Postcode": "45800",
        "Location": "Taman Mesra",
        "Post_Office": "Jeram",
        "State": "Selangor"
    },
    {
        "Postcode": "45800",
        "Location": "Kampung Nelayan",
        "Post_Office": "Jeram",
        "State": "Selangor"
    },
    {
        "Postcode": "45800",
        "Location": "Taman Jati",
        "Post_Office": "Jeram",
        "State": "Selangor"
    },
    {
        "Postcode": "45800",
        "Location": "Taman Sejahtera",
        "Post_Office": "Jeram",
        "State": "Selangor"
    },
    {
        "Postcode": "45800",
        "Location": "Jalan Berkat",
        "Post_Office": "Jeram",
        "State": "Selangor"
    },
    {
        "Postcode": "45800",
        "Location": "Jalan Raja Abdullah",
        "Post_Office": "Jeram",
        "State": "Selangor"
    }
]
