[
    {
        "Postcode": "05000",
        "Location": "Jalan Kolam Air",
        "Post_Office": "Alor Setar",
        "State": "Kedah"
    },
    {
        "Postcode": "05000",
        "Location": "Jalan Kampung Baru",
        "Post_Office": "Alor Setar",
        "State": "Kedah"
    },
    {
        "Postcode": "05000",
        "Location": "Jalan Istana Lama",
        "Post_Office": "Alor Setar",
        "State": "Kedah"
    },
    {
        "Postcode": "05000",
        "Location": "Jalan Kanchut",
        "Post_Office": "Alor Setar",
        "State": "Kedah"
    },
    {
        "Postcode": "05000",
        "Location": "Jalan Kolam",
        "Post_Office": "Alor Setar",
        "State": "Kedah"
    },
    {
        "Postcode": "05000",
        "Location": "Jalan Kota",
        "Post_Office": "Alor Setar",
        "State": "Kedah"
    },
    {
        "Postcode": "05000",
        "Location": "Jalan Limbong Kapal",
        "Post_Office": "Alor Setar",
        "State": "Kedah"
    },
    {
        "Postcode": "05000",
        "Location": "Jalan Mahdali",
        "Post_Office": "Alor Setar",
        "State": "Kedah"
    },
    {
        "Postcode": "05000",
        "Location": "Jalan Mahsuri",
        "Post_Office": "Alor Setar",
        "State": "Kedah"
    },
    {
        "Postcode": "05000",
        "Location": "Jalan Malinja",
        "Post_Office": "Alor Setar",
        "State": "Kedah"
    },
    {
        "Postcode": "05000",
        "Location": "Jalan Market Cina",
        "Post_Office": "Alor Setar",
        "State": "Kedah"
    },
    {
        "Postcode": "05000",
        "Location": "Jalan Nagor",
        "Post_Office": "Alor Setar",
        "State": "Kedah"
    },
    {
        "Postcode": "05000",
        "Location": "Jalan Pekan China",
        "Post_Office": "Alor Setar",
        "State": "Kedah"
    },
    {
        "Postcode": "05000",
        "Location": "Jalan Pekan Melayu",
        "Post_Office": "Alor Setar",
        "State": "Kedah"
    },
    {
        "Postcode": "05000",
        "Location": "Jalan Pengkalan Kapal",
        "Post_Office": "Alor Setar",
        "State": "Kedah"
    },
    {
        "Postcode": "05000",
        "Location": "Jalan Penjara Lama",
        "Post_Office": "Alor Setar",
        "State": "Kedah"
    },
    {
        "Postcode": "05000",
        "Location": "Jalan Setiajaya",
        "Post_Office": "Alor Setar",
        "State": "Kedah"
    },
    {
        "Postcode": "05000",
        "Location": "Jalan Stesyen",
        "Post_Office": "Alor Setar",
        "State": "Kedah"
    },
    {
        "Postcode": "05000",
        "Location": "Jalan Tunku Ibrahim",
        "Post_Office": "Alor Setar",
        "State": "Kedah"
    },
    {
        "Postcode": "05000",
        "Location": "Kompleks Jalan Raja",
        "Post_Office": "Alor Setar",
        "State": "Kedah"
    },
    {
        "Postcode": "05000",
        "Location": "Kuala Sanglang (Perlis)",
        "Post_Office": "Alor Setar",
        "State": "Kedah"
    },
    {
        "Postcode": "05000",
        "Location": "Lorong Merah",
        "Post_Office": "Alor Setar",
        "State": "Kedah"
    },
    {
        "Postcode": "05000",
        "Location": "Lorong Padi",
        "Post_Office": "Alor Setar",
        "State": "Kedah"
    },
    {
        "Postcode": "05000",
        "Location": "Lorong Puteh",
        "Post_Office": "Alor Setar",
        "State": "Kedah"
    },
    {
        "Postcode": "05000",
        "Location": "Lorong Puyoh",
        "Post_Office": "Alor Setar",
        "State": "Kedah"
    },
    {
        "Postcode": "05000",
        "Location": "Lorong Setar",
        "Post_Office": "Alor Setar",
        "State": "Kedah"
    },
    {
        "Postcode": "05000",
        "Location": "Lorong Tangki",
        "Post_Office": "Alor Setar",
        "State": "Kedah"
    },
    {
        "Postcode": "05000",
        "Location": "Lorong Thean Kee",
        "Post_Office": "Alor Setar",
        "State": "Kedah"
    },
    {
        "Postcode": "05000",
        "Location": "Lorong Timur",
        "Post_Office": "Alor Setar",
        "State": "Kedah"
    },
    {
        "Postcode": "05000",
        "Location": "Menara Mpks",
        "Post_Office": "Alor Setar",
        "State": "Kedah"
    },
    {
        "Postcode": "05000",
        "Location": "Pekan Cina",
        "Post_Office": "Alor Setar",
        "State": "Kedah"
    },
    {
        "Postcode": "05000",
        "Location": "Pekan Melayu",
        "Post_Office": "Alor Setar",
        "State": "Kedah"
    },
    {
        "Postcode": "05000",
        "Location": "Pengkalan Kapal",
        "Post_Office": "Alor Setar",
        "State": "Kedah"
    },
    {
        "Postcode": "05000",
        "Location": "Wisma Darulaman",
        "Post_Office": "Alor Setar",
        "State": "Kedah"
    },
    {
        "Postcode": "05000",
        "Location": "Wisma Persekutuan",
        "Post_Office": "Alor Setar",
        "State": "Kedah"
    },
    {
        "Postcode": "05000",
        "Location": "Wisma Pknk",
        "Post_Office": "Alor Setar",
        "State": "Kedah"
    }
]
