[
    {
        "Postcode": "05050",
        "Location": "Taman Bahagia",
        "Post_Office": "Alor Setar",
        "State": "Kedah"
    },
    {
        "Postcode": "05050",
        "Location": "Taman Cemara",
        "Post_Office": "Alor Setar",
        "State": "Kedah"
    },
    {
        "Postcode": "05050",
        "Location": "Taman Seri Aman",
        "Post_Office": "Alor Setar",
        "State": "Kedah"
    },
    {
        "Postcode": "05050",
        "Location": "Taman Sinaran",
        "Post_Office": "Alor Setar",
        "State": "Kedah"
    },
    {
        "Postcode": "05050",
        "Location": "Jalan Ampang Jajar",
        "Post_Office": "Alor Setar",
        "State": "Kedah"
    },
    {
        "Postcode": "05050",
        "Location": "Jalan Bunga Raya",
        "Post_Office": "Alor Setar",
        "State": "Kedah"
    },
    {
        "Postcode": "05050",
        "Location": "Jalan Bunga Raya Hujung",
        "Post_Office": "Alor Setar",
        "State": "Kedah"
    },
    {
        "Postcode": "05050",
        "Location": "Jalan Cahaya",
        "Post_Office": "Alor Setar",
        "State": "Kedah"
    },
    {
        "Postcode": "05050",
        "Location": "Jalan Inai",
        "Post_Office": "Alor Setar",
        "State": "Kedah"
    },
    {
        "Postcode": "05050",
        "Location": "Jalan Kilang Tebu",
        "Post_Office": "Alor Setar",
        "State": "Kedah"
    },
    {
        "Postcode": "05050",
        "Location": "Jalan Kota Tanah",
        "Post_Office": "Alor Setar",
        "State": "Kedah"
    },
    {
        "Postcode": "05050",
        "Location": "Jalan Sultan Badlishah",
        "Post_Office": "Alor Setar",
        "State": "Kedah"
    },
    {
        "Postcode": "05050",
        "Location": "Jalan Teratai Jingga",
        "Post_Office": "Alor Setar",
        "State": "Kedah"
    },
    {
        "Postcode": "05050",
        "Location": "Kampung Dahlia",
        "Post_Office": "Alor Setar",
        "State": "Kedah"
    },
    {
        "Postcode": "05050",
        "Location": "Kampung Kilang Tebu",
        "Post_Office": "Alor Setar",
        "State": "Kedah"
    },
    {
        "Postcode": "05050",
        "Location": "Kampung Peremba",
        "Post_Office": "Alor Setar",
        "State": "Kedah"
    },
    {
        "Postcode": "05050",
        "Location": "Kampung Piew",
        "Post_Office": "Alor Setar",
        "State": "Kedah"
    },
    {
        "Postcode": "05050",
        "Location": "Kampung Seberang Perak",
        "Post_Office": "Alor Setar",
        "State": "Kedah"
    },
    {
        "Postcode": "05050",
        "Location": "Lorong Air Puteh",
        "Post_Office": "Alor Setar",
        "State": "Kedah"
    },
    {
        "Postcode": "05050",
        "Location": "Lorong Bertam",
        "Post_Office": "Alor Setar",
        "State": "Kedah"
    },
    {
        "Postcode": "05050",
        "Location": "Lorong Bidara",
        "Post_Office": "Alor Setar",
        "State": "Kedah"
    },
    {
        "Postcode": "05050",
        "Location": "Lorong Chempaka",
        "Post_Office": "Alor Setar",
        "State": "Kedah"
    },
    {
        "Postcode": "05050",
        "Location": "Lorong Dahlia",
        "Post_Office": "Alor Setar",
        "State": "Kedah"
    },
    {
        "Postcode": "05050",
        "Location": "Lorong Hilir",
        "Post_Office": "Alor Setar",
        "State": "Kedah"
    },
    {
        "Postcode": "05050",
        "Location": "Lorong Kemuning",
        "Post_Office": "Alor Setar",
        "State": "Kedah"
    },
    {
        "Postcode": "05050",
        "Location": "Lorong Kenanga",
        "Post_Office": "Alor Setar",
        "State": "Kedah"
    },
    {
        "Postcode": "05050",
        "Location": "Lorong Melati",
        "Post_Office": "Alor Setar",
        "State": "Kedah"
    },
    {
        "Postcode": "05050",
        "Location": "Lorong Melor",
        "Post_Office": "Alor Setar",
        "State": "Kedah"
    },
    {
        "Postcode": "05050",
        "Location": "Lorong Nipah",
        "Post_Office": "Alor Setar",
        "State": "Kedah"
    },
    {
        "Postcode": "05050",
        "Location": "Lorong Nyior Setali",
        "Post_Office": "Alor Setar",
        "State": "Kedah"
    },
    {
        "Postcode": "05050",
        "Location": "Lorong Padang",
        "Post_Office": "Alor Setar",
        "State": "Kedah"
    },
    {
        "Postcode": "05050",
        "Location": "Lorong Peremba",
        "Post_Office": "Alor Setar",
        "State": "Kedah"
    },
    {
        "Postcode": "05050",
        "Location": "Lorong Peteri",
        "Post_Office": "Alor Setar",
        "State": "Kedah"
    },
    {
        "Postcode": "05050",
        "Location": "Lorong Rose",
        "Post_Office": "Alor Setar",
        "State": "Kedah"
    },
    {
        "Postcode": "05050",
        "Location": "Lorong Tongkang Yard",
        "Post_Office": "Alor Setar",
        "State": "Kedah"
    },
    {
        "Postcode": "05050",
        "Location": "Seberang Perak",
        "Post_Office": "Alor Setar",
        "State": "Kedah"
    },
    {
        "Postcode": "05050",
        "Location": "Taman Abdul Aziz",
        "Post_Office": "Alor Setar",
        "State": "Kedah"
    },
    {
        "Postcode": "05050",
        "Location": "Taman Air Puteh",
        "Post_Office": "Alor Setar",
        "State": "Kedah"
    },
    {
        "Postcode": "05050",
        "Location": "Taman Anggerik",
        "Post_Office": "Alor Setar",
        "State": "Kedah"
    },
    {
        "Postcode": "05050",
        "Location": "Taman Berjaya",
        "Post_Office": "Alor Setar",
        "State": "Kedah"
    },
    {
        "Postcode": "05050",
        "Location": "Taman Bunga Raya",
        "Post_Office": "Alor Setar",
        "State": "Kedah"
    },
    {
        "Postcode": "05050",
        "Location": "Taman Datin Nurulkiah",
        "Post_Office": "Alor Setar",
        "State": "Kedah"
    },
    {
        "Postcode": "05050",
        "Location": "Taman Desa",
        "Post_Office": "Alor Setar",
        "State": "Kedah"
    },
    {
        "Postcode": "05050",
        "Location": "Taman Hujung Bunga Raya",
        "Post_Office": "Alor Setar",
        "State": "Kedah"
    },
    {
        "Postcode": "05050",
        "Location": "Taman Inai",
        "Post_Office": "Alor Setar",
        "State": "Kedah"
    },
    {
        "Postcode": "05050",
        "Location": "Taman Komuda",
        "Post_Office": "Alor Setar",
        "State": "Kedah"
    },
    {
        "Postcode": "05050",
        "Location": "Taman Lam Fong",
        "Post_Office": "Alor Setar",
        "State": "Kedah"
    },
    {
        "Postcode": "05050",
        "Location": "Taman Malik",
        "Post_Office": "Alor Setar",
        "State": "Kedah"
    },
    {
        "Postcode": "05050",
        "Location": "Taman Nurul Kiah",
        "Post_Office": "Alor Setar",
        "State": "Kedah"
    },
    {
        "Postcode": "05050",
        "Location": "Taman Nyior Setali",
        "Post_Office": "Alor Setar",
        "State": "Kedah"
    },
    {
        "Postcode": "05050",
        "Location": "Taman Ria",
        "Post_Office": "Alor Setar",
        "State": "Kedah"
    },
    {
        "Postcode": "05050",
        "Location": "Taman Selamat",
        "Post_Office": "Alor Setar",
        "State": "Kedah"
    },
    {
        "Postcode": "05050",
        "Location": "Taman Seri Ampang",
        "Post_Office": "Alor Setar",
        "State": "Kedah"
    },
    {
        "Postcode": "05050",
        "Location": "Taman Seri Bandar",
        "Post_Office": "Alor Setar",
        "State": "Kedah"
    },
    {
        "Postcode": "05050",
        "Location": "Taman Seri Jaya",
        "Post_Office": "Alor Setar",
        "State": "Kedah"
    },
    {
        "Postcode": "05050",
        "Location": "Taman Seri Manis",
        "Post_Office": "Alor Setar",
        "State": "Kedah"
    },
    {
        "Postcode": "05050",
        "Location": "Taman Sultan Badlishah",
        "Post_Office": "Alor Setar",
        "State": "Kedah"
    },
    {
        "Postcode": "05050",
        "Location": "Taman Teratai Jingga",
        "Post_Office": "Alor Setar",
        "State": "Kedah"
    },
    {
        "Postcode": "05050",
        "Location": "Tongkang Yard",
        "Post_Office": "Alor Setar",
        "State": "Kedah"
    },
    {
        "Postcode": "05050",
        "Location": "Jalan Pegawai",
        "Post_Office": "Alor Setar",
        "State": "Kedah"
    },
    {
        "Postcode": "05050",
        "Location": "Kampung Benggali",
        "Post_Office": "Alor Setar",
        "State": "Kedah"
    },
    {
        "Postcode": "05050",
        "Location": "Kampung Padang",
        "Post_Office": "Alor Setar",
        "State": "Kedah"
    },
    {
        "Postcode": "05050",
        "Location": "Taman Seri Indah",
        "Post_Office": "Alor Setar",
        "State": "Kedah"
    },
    {
        "Postcode": "05050",
        "Location": "Taman Purnama 1",
        "Post_Office": "Alor Setar",
        "State": "Kedah"
    },
    {
        "Postcode": "05050",
        "Location": "Taman Purnama 2",
        "Post_Office": "Alor Setar",
        "State": "Kedah"
    },
    {
        "Postcode": "05050",
        "Location": "Taman Setia A",
        "Post_Office": "Alor Setar",
        "State": "Kedah"
    },
    {
        "Postcode": "05050",
        "Location": "Taman Setia B",
        "Post_Office": "Alor Setar",
        "State": "Kedah"
    },
    {
        "Postcode": "05050",
        "Location": "Taman Setia C",
        "Post_Office": "Alor Setar",
        "State": "Kedah"
    },
    {
        "Postcode": "05050",
        "Location": "Taman Setia D",
        "Post_Office": "Alor Setar",
        "State": "Kedah"
    },
    {
        "Postcode": "05050",
        "Location": "Komplek Perniagaan Sultan A.Hamid",
        "Post_Office": "Alor Setar",
        "State": "Kedah"
    },
    {
        "Postcode": "05050",
        "Location": "Taman Hartamas",
        "Post_Office": "Alor Setar",
        "State": "Kedah"
    }
]
