[
    {
        "Postcode": "05100",
        "Location": "Jalan Sekerat",
        "Post_Office": "Alor Setar",
        "State": "Kedah"
    },
    {
        "Postcode": "05100",
        "Location": "Taman Darulaman",
        "Post_Office": "Alor Setar",
        "State": "Kedah"
    },
    {
        "Postcode": "05100",
        "Location": "Jalan Bakar Bata",
        "Post_Office": "Alor Setar",
        "State": "Kedah"
    },
    {
        "Postcode": "05100",
        "Location": "Jalan Kampung Perak",
        "Post_Office": "Alor Setar",
        "State": "Kedah"
    },
    {
        "Postcode": "05100",
        "Location": "Jalan Kampung Pisang",
        "Post_Office": "Alor Setar",
        "State": "Kedah"
    },
    {
        "Postcode": "05100",
        "Location": "Jalan Kolam Renang",
        "Post_Office": "Alor Setar",
        "State": "Kedah"
    },
    {
        "Postcode": "05100",
        "Location": "Jalan Loh Joh Huat",
        "Post_Office": "Alor Setar",
        "State": "Kedah"
    },
    {
        "Postcode": "05100",
        "Location": "Jalan Lumpur",
        "Post_Office": "Alor Setar",
        "State": "Kedah"
    },
    {
        "Postcode": "05100",
        "Location": "Jalan Mahkota",
        "Post_Office": "Alor Setar",
        "State": "Kedah"
    },
    {
        "Postcode": "05100",
        "Location": "Jalan Menanti",
        "Post_Office": "Alor Setar",
        "State": "Kedah"
    },
    {
        "Postcode": "05100",
        "Location": "Jalan Nuri",
        "Post_Office": "Alor Setar",
        "State": "Kedah"
    },
    {
        "Postcode": "05100",
        "Location": "Jalan Pintu Sepuluh",
        "Post_Office": "Alor Setar",
        "State": "Kedah"
    },
    {
        "Postcode": "05100",
        "Location": "Jalan Serai",
        "Post_Office": "Alor Setar",
        "State": "Kedah"
    },
    {
        "Postcode": "05100",
        "Location": "Jalan Stadium",
        "Post_Office": "Alor Setar",
        "State": "Kedah"
    },
    {
        "Postcode": "05100",
        "Location": "Jalan Tambang Badak",
        "Post_Office": "Alor Setar",
        "State": "Kedah"
    },
    {
        "Postcode": "05100",
        "Location": "Jalan Telok Sena",
        "Post_Office": "Alor Setar",
        "State": "Kedah"
    },
    {
        "Postcode": "05100",
        "Location": "Jalan Tengah",
        "Post_Office": "Alor Setar",
        "State": "Kedah"
    },
    {
        "Postcode": "05100",
        "Location": "Jalan Tengku Habsah",
        "Post_Office": "Alor Setar",
        "State": "Kedah"
    },
    {
        "Postcode": "05100",
        "Location": "Jalan Terang",
        "Post_Office": "Alor Setar",
        "State": "Kedah"
    },
    {
        "Postcode": "05100",
        "Location": "Jalan Tunku Abdul Halim",
        "Post_Office": "Alor Setar",
        "State": "Kedah"
    },
    {
        "Postcode": "05100",
        "Location": "Jalan Yakin",
        "Post_Office": "Alor Setar",
        "State": "Kedah"
    },
    {
        "Postcode": "05100",
        "Location": "Kampung Belakang Stadium",
        "Post_Office": "Alor Setar",
        "State": "Kedah"
    },
    {
        "Postcode": "05100",
        "Location": "Lebuhraya Darulaman",
        "Post_Office": "Alor Setar",
        "State": "Kedah"
    },
    {
        "Postcode": "05100",
        "Location": "Lorong Asap",
        "Post_Office": "Alor Setar",
        "State": "Kedah"
    },
    {
        "Postcode": "05100",
        "Location": "Lorong Balai Jam",
        "Post_Office": "Alor Setar",
        "State": "Kedah"
    },
    {
        "Postcode": "05100",
        "Location": "Lorong Bayan",
        "Post_Office": "Alor Setar",
        "State": "Kedah"
    },
    {
        "Postcode": "05100",
        "Location": "Lorong Delima",
        "Post_Office": "Alor Setar",
        "State": "Kedah"
    },
    {
        "Postcode": "05100",
        "Location": "Lorong Joo Huat",
        "Post_Office": "Alor Setar",
        "State": "Kedah"
    },
    {
        "Postcode": "05100",
        "Location": "Lorong Kampung Pisang",
        "Post_Office": "Alor Setar",
        "State": "Kedah"
    },
    {
        "Postcode": "05100",
        "Location": "Lorong Kelompang",
        "Post_Office": "Alor Setar",
        "State": "Kedah"
    },
    {
        "Postcode": "05100",
        "Location": "Lorong Liku",
        "Post_Office": "Alor Setar",
        "State": "Kedah"
    },
    {
        "Postcode": "05100",
        "Location": "Lorong Mahdali",
        "Post_Office": "Alor Setar",
        "State": "Kedah"
    },
    {
        "Postcode": "05100",
        "Location": "Lorong Mahkota",
        "Post_Office": "Alor Setar",
        "State": "Kedah"
    },
    {
        "Postcode": "05100",
        "Location": "Lorong Nuri",
        "Post_Office": "Alor Setar",
        "State": "Kedah"
    },
    {
        "Postcode": "05100",
        "Location": "Lorong Pekaka",
        "Post_Office": "Alor Setar",
        "State": "Kedah"
    },
    {
        "Postcode": "05100",
        "Location": "Lorong Peringgi",
        "Post_Office": "Alor Setar",
        "State": "Kedah"
    },
    {
        "Postcode": "05100",
        "Location": "Lorong Pipit",
        "Post_Office": "Alor Setar",
        "State": "Kedah"
    },
    {
        "Postcode": "05100",
        "Location": "Lorong Rambang",
        "Post_Office": "Alor Setar",
        "State": "Kedah"
    },
    {
        "Postcode": "05100",
        "Location": "Lorong Seberang Perak",
        "Post_Office": "Alor Setar",
        "State": "Kedah"
    },
    {
        "Postcode": "05100",
        "Location": "Lorong Sena",
        "Post_Office": "Alor Setar",
        "State": "Kedah"
    },
    {
        "Postcode": "05100",
        "Location": "Lorong Serai",
        "Post_Office": "Alor Setar",
        "State": "Kedah"
    },
    {
        "Postcode": "05100",
        "Location": "Lorong Sukaramai",
        "Post_Office": "Alor Setar",
        "State": "Kedah"
    },
    {
        "Postcode": "05100",
        "Location": "Lorong Sungai",
        "Post_Office": "Alor Setar",
        "State": "Kedah"
    },
    {
        "Postcode": "05100",
        "Location": "Lorong Tengah",
        "Post_Office": "Alor Setar",
        "State": "Kedah"
    },
    {
        "Postcode": "05100",
        "Location": "Lorong Terang",
        "Post_Office": "Alor Setar",
        "State": "Kedah"
    },
    {
        "Postcode": "05100",
        "Location": "Lorong Titi Siam",
        "Post_Office": "Alor Setar",
        "State": "Kedah"
    },
    {
        "Postcode": "05100",
        "Location": "Lorong Watt Siam",
        "Post_Office": "Alor Setar",
        "State": "Kedah"
    },
    {
        "Postcode": "05100",
        "Location": "Sempadan Sungai Anak Bukit",
        "Post_Office": "Alor Setar",
        "State": "Kedah"
    },
    {
        "Postcode": "05100",
        "Location": "Taman Alor Malai",
        "Post_Office": "Alor Setar",
        "State": "Kedah"
    },
    {
        "Postcode": "05100",
        "Location": "Taman Habsah",
        "Post_Office": "Alor Setar",
        "State": "Kedah"
    },
    {
        "Postcode": "05100",
        "Location": "Taman Jaya Kami",
        "Post_Office": "Alor Setar",
        "State": "Kedah"
    },
    {
        "Postcode": "05100",
        "Location": "Taman Loh Joo Huat",
        "Post_Office": "Alor Setar",
        "State": "Kedah"
    },
    {
        "Postcode": "05100",
        "Location": "Taman Seri Idaman",
        "Post_Office": "Alor Setar",
        "State": "Kedah"
    },
    {
        "Postcode": "05100",
        "Location": "Taman Stadium",
        "Post_Office": "Alor Setar",
        "State": "Kedah"
    },
    {
        "Postcode": "05100",
        "Location": "Taman Tunku Majid",
        "Post_Office": "Alor Setar",
        "State": "Kedah"
    },
    {
        "Postcode": "05100",
        "Location": "Taman Mahkota",
        "Post_Office": "Alor Setar",
        "State": "Kedah"
    }
]
