[
    {
        "Postcode": "05250",
        "Location": "Taman Suria",
        "Post_Office": "Alor Setar",
        "State": "Kedah"
    },
    {
        "Postcode": "05250",
        "Location": "Alor Merah",
        "Post_Office": "Alor Setar",
        "State": "Kedah"
    },
    {
        "Postcode": "05250",
        "Location": "Jalan Alor Semadum",
        "Post_Office": "Alor Setar",
        "State": "Kedah"
    },
    {
        "Postcode": "05250",
        "Location": "Jalan Datuk Syed Ahmad",
        "Post_Office": "Alor Setar",
        "State": "Kedah"
    },
    {
        "Postcode": "05250",
        "Location": "Jalan Hujong Alor Merah",
        "Post_Office": "Alor Setar",
        "State": "Kedah"
    },
    {
        "Postcode": "05250",
        "Location": "Jalan Kelab Kedah",
        "Post_Office": "Alor Setar",
        "State": "Kedah"
    },
    {
        "Postcode": "05250",
        "Location": "Jalan Lorong Kilang Kopi",
        "Post_Office": "Alor Setar",
        "State": "Kedah"
    },
    {
        "Postcode": "05250",
        "Location": "Jalan Lumba Kuda",
        "Post_Office": "Alor Setar",
        "State": "Kedah"
    },
    {
        "Postcode": "05250",
        "Location": "Jalan Mayang",
        "Post_Office": "Alor Setar",
        "State": "Kedah"
    },
    {
        "Postcode": "05250",
        "Location": "Jalan Mentaloon",
        "Post_Office": "Alor Setar",
        "State": "Kedah"
    },
    {
        "Postcode": "05250",
        "Location": "Jalan Menteri",
        "Post_Office": "Alor Setar",
        "State": "Kedah"
    },
    {
        "Postcode": "05250",
        "Location": "Jalan Pumpong",
        "Post_Office": "Alor Setar",
        "State": "Kedah"
    },
    {
        "Postcode": "05250",
        "Location": "Jalan Seri Taman",
        "Post_Office": "Alor Setar",
        "State": "Kedah"
    },
    {
        "Postcode": "05250",
        "Location": "Jalan Taman Golf",
        "Post_Office": "Alor Setar",
        "State": "Kedah"
    },
    {
        "Postcode": "05250",
        "Location": "Jalan Taman Malaysia",
        "Post_Office": "Alor Setar",
        "State": "Kedah"
    },
    {
        "Postcode": "05250",
        "Location": "Jalan Terus",
        "Post_Office": "Alor Setar",
        "State": "Kedah"
    },
    {
        "Postcode": "05250",
        "Location": "Jalan Tun Syed Sheikh Shahbudin",
        "Post_Office": "Alor Setar",
        "State": "Kedah"
    },
    {
        "Postcode": "05250",
        "Location": "Jalan Tunku Bendahara",
        "Post_Office": "Alor Setar",
        "State": "Kedah"
    },
    {
        "Postcode": "05250",
        "Location": "Kampung Alor Semadun",
        "Post_Office": "Alor Setar",
        "State": "Kedah"
    },
    {
        "Postcode": "05250",
        "Location": "Kampung Haji Saoud",
        "Post_Office": "Alor Setar",
        "State": "Kedah"
    },
    {
        "Postcode": "05250",
        "Location": "Kampung Hashim Lebai Din",
        "Post_Office": "Alor Setar",
        "State": "Kedah"
    },
    {
        "Postcode": "05250",
        "Location": "Kampung Kcs",
        "Post_Office": "Alor Setar",
        "State": "Kedah"
    },
    {
        "Postcode": "05250",
        "Location": "Kampung Mentalon",
        "Post_Office": "Alor Setar",
        "State": "Kedah"
    },
    {
        "Postcode": "05250",
        "Location": "Lorong Alor Semadom",
        "Post_Office": "Alor Setar",
        "State": "Kedah"
    },
    {
        "Postcode": "05250",
        "Location": "Lorong Haji Bahar",
        "Post_Office": "Alor Setar",
        "State": "Kedah"
    },
    {
        "Postcode": "05250",
        "Location": "Lorong Madrasah",
        "Post_Office": "Alor Setar",
        "State": "Kedah"
    },
    {
        "Postcode": "05250",
        "Location": "Lorong Penjara",
        "Post_Office": "Alor Setar",
        "State": "Kedah"
    },
    {
        "Postcode": "05250",
        "Location": "Lorong Seri Taman",
        "Post_Office": "Alor Setar",
        "State": "Kedah"
    },
    {
        "Postcode": "05250",
        "Location": "Lorong Suria",
        "Post_Office": "Alor Setar",
        "State": "Kedah"
    },
    {
        "Postcode": "05250",
        "Location": "Lorong Terus",
        "Post_Office": "Alor Setar",
        "State": "Kedah"
    },
    {
        "Postcode": "05250",
        "Location": "Pantai Johor",
        "Post_Office": "Alor Setar",
        "State": "Kedah"
    },
    {
        "Postcode": "05250",
        "Location": "Pumpong",
        "Post_Office": "Alor Setar",
        "State": "Kedah"
    },
    {
        "Postcode": "05250",
        "Location": "Taman Golf",
        "Post_Office": "Alor Setar",
        "State": "Kedah"
    },
    {
        "Postcode": "05250",
        "Location": "Taman Lumba Kuda",
        "Post_Office": "Alor Setar",
        "State": "Kedah"
    },
    {
        "Postcode": "05250",
        "Location": "Taman Malaysia",
        "Post_Office": "Alor Setar",
        "State": "Kedah"
    },
    {
        "Postcode": "05250",
        "Location": "Taman Pumpong",
        "Post_Office": "Alor Setar",
        "State": "Kedah"
    },
    {
        "Postcode": "05250",
        "Location": "Taman Seri Amar Di Raja",
        "Post_Office": "Alor Setar",
        "State": "Kedah"
    },
    {
        "Postcode": "05250",
        "Location": "Taman Seri Mentalon",
        "Post_Office": "Alor Setar",
        "State": "Kedah"
    },
    {
        "Postcode": "05250",
        "Location": "Taman Seri Pantai",
        "Post_Office": "Alor Setar",
        "State": "Kedah"
    },
    {
        "Postcode": "05250",
        "Location": "Kampung Alor Malai",
        "Post_Office": "Alor Setar",
        "State": "Kedah"
    },
    {
        "Postcode": "05250",
        "Location": "Jalan Sekolah",
        "Post_Office": "Alor Setar",
        "State": "Kedah"
    }
]
