[
    {
        "Postcode": "05300",
        "Location": "Kampung Alor Gandak",
        "Post_Office": "Alor Setar",
        "State": "Kedah"
    },
    {
        "Postcode": "05300",
        "Location": "Taman Damai",
        "Post_Office": "Alor Setar",
        "State": "Kedah"
    },
    {
        "Postcode": "05300",
        "Location": "Jalan Alor Melong",
        "Post_Office": "Alor Setar",
        "State": "Kedah"
    },
    {
        "Postcode": "05300",
        "Location": "Jalan Datok Kumbar",
        "Post_Office": "Alor Setar",
        "State": "Kedah"
    },
    {
        "Postcode": "05300",
        "Location": "Jalan Kampung Tanjung Bendahara",
        "Post_Office": "Alor Setar",
        "State": "Kedah"
    },
    {
        "Postcode": "05300",
        "Location": "Jalan Tanjong Bendahara",
        "Post_Office": "Alor Setar",
        "State": "Kedah"
    },
    {
        "Postcode": "05300",
        "Location": "Kampung Alor Buloh",
        "Post_Office": "Alor Setar",
        "State": "Kedah"
    },
    {
        "Postcode": "05300",
        "Location": "Kampung Alor Melong",
        "Post_Office": "Alor Setar",
        "State": "Kedah"
    },
    {
        "Postcode": "05300",
        "Location": "Kampung Alor Semela",
        "Post_Office": "Alor Setar",
        "State": "Kedah"
    },
    {
        "Postcode": "05300",
        "Location": "Kampung Alor Teja",
        "Post_Office": "Alor Setar",
        "State": "Kedah"
    },
    {
        "Postcode": "05300",
        "Location": "Kampung Chepoh",
        "Post_Office": "Alor Setar",
        "State": "Kedah"
    },
    {
        "Postcode": "05300",
        "Location": "Kampung Derga",
        "Post_Office": "Alor Setar",
        "State": "Kedah"
    },
    {
        "Postcode": "05300",
        "Location": "Kampung Gerigis",
        "Post_Office": "Alor Setar",
        "State": "Kedah"
    },
    {
        "Postcode": "05300",
        "Location": "Kampung Jalan Dato Kumbar",
        "Post_Office": "Alor Setar",
        "State": "Kedah"
    },
    {
        "Postcode": "05300",
        "Location": "Kampung Kubang Buaya",
        "Post_Office": "Alor Setar",
        "State": "Kedah"
    },
    {
        "Postcode": "05300",
        "Location": "Kampung Pengapit Batu",
        "Post_Office": "Alor Setar",
        "State": "Kedah"
    },
    {
        "Postcode": "05300",
        "Location": "Kampung Sakan",
        "Post_Office": "Alor Setar",
        "State": "Kedah"
    },
    {
        "Postcode": "05300",
        "Location": "Kampung Tanjong Bendahara",
        "Post_Office": "Alor Setar",
        "State": "Kedah"
    },
    {
        "Postcode": "05300",
        "Location": "Kampung Tanjong Seri",
        "Post_Office": "Alor Setar",
        "State": "Kedah"
    },
    {
        "Postcode": "05300",
        "Location": "Lorong Asma",
        "Post_Office": "Alor Setar",
        "State": "Kedah"
    },
    {
        "Postcode": "05300",
        "Location": "Lorong Bendahara",
        "Post_Office": "Alor Setar",
        "State": "Kedah"
    },
    {
        "Postcode": "05300",
        "Location": "Lorong Bersatu",
        "Post_Office": "Alor Setar",
        "State": "Kedah"
    },
    {
        "Postcode": "05300",
        "Location": "Lorong Derga",
        "Post_Office": "Alor Setar",
        "State": "Kedah"
    },
    {
        "Postcode": "05300",
        "Location": "Lorong Ganding",
        "Post_Office": "Alor Setar",
        "State": "Kedah"
    },
    {
        "Postcode": "05300",
        "Location": "Lorong Gedebang",
        "Post_Office": "Alor Setar",
        "State": "Kedah"
    },
    {
        "Postcode": "05300",
        "Location": "Lorong Haji Mohd Ali",
        "Post_Office": "Alor Setar",
        "State": "Kedah"
    },
    {
        "Postcode": "05300",
        "Location": "Lorong Keriang",
        "Post_Office": "Alor Setar",
        "State": "Kedah"
    },
    {
        "Postcode": "05300",
        "Location": "Lorong Pauh",
        "Post_Office": "Alor Setar",
        "State": "Kedah"
    },
    {
        "Postcode": "05300",
        "Location": "Lorong Seri",
        "Post_Office": "Alor Setar",
        "State": "Kedah"
    },
    {
        "Postcode": "05300",
        "Location": "Lorong Seri Ujong",
        "Post_Office": "Alor Setar",
        "State": "Kedah"
    },
    {
        "Postcode": "05300",
        "Location": "Lorong Shangmugam",
        "Post_Office": "Alor Setar",
        "State": "Kedah"
    },
    {
        "Postcode": "05300",
        "Location": "Lorong Tanjong",
        "Post_Office": "Alor Setar",
        "State": "Kedah"
    },
    {
        "Postcode": "05300",
        "Location": "Taman Kenari Merah (Telok Wanjah)",
        "Post_Office": "Alor Setar",
        "State": "Kedah"
    },
    {
        "Postcode": "05300",
        "Location": "Taman Kolej",
        "Post_Office": "Alor Setar",
        "State": "Kedah"
    },
    {
        "Postcode": "05300",
        "Location": "Taman Nuri",
        "Post_Office": "Alor Setar",
        "State": "Kedah"
    },
    {
        "Postcode": "05300",
        "Location": "Taman Putra Jaya",
        "Post_Office": "Alor Setar",
        "State": "Kedah"
    },
    {
        "Postcode": "05300",
        "Location": "Taman Seri Belimbing",
        "Post_Office": "Alor Setar",
        "State": "Kedah"
    },
    {
        "Postcode": "05300",
        "Location": "Taman Seri Tanjong",
        "Post_Office": "Alor Setar",
        "State": "Kedah"
    },
    {
        "Postcode": "05300",
        "Location": "Taman Sultan Abdul Halim",
        "Post_Office": "Alor Setar",
        "State": "Kedah"
    },
    {
        "Postcode": "05300",
        "Location": "Taman Tanjung Bendahara",
        "Post_Office": "Alor Setar",
        "State": "Kedah"
    },
    {
        "Postcode": "05300",
        "Location": "Kampung Mak Chik",
        "Post_Office": "Alor Setar",
        "State": "Kedah"
    },
    {
        "Postcode": "05300",
        "Location": "Kampung Gelam",
        "Post_Office": "Alor Setar",
        "State": "Kedah"
    },
    {
        "Postcode": "05300",
        "Location": "Taman Intan",
        "Post_Office": "Alor Setar",
        "State": "Kedah"
    }
]
