[
    {
        "Postcode": "05350",
        "Location": "Taman Mulia",
        "Post_Office": "Alor Setar",
        "State": "Kedah"
    },
    {
        "Postcode": "05350",
        "Location": "Taman Rakyat",
        "Post_Office": "Alor Setar",
        "State": "Kedah"
    },
    {
        "Postcode": "05350",
        "Location": "Hutan Kampung",
        "Post_Office": "Alor Setar",
        "State": "Kedah"
    },
    {
        "Postcode": "05350",
        "Location": "Jalan Dato Syed Mohamed",
        "Post_Office": "Alor Setar",
        "State": "Kedah"
    },
    {
        "Postcode": "05350",
        "Location": "Jalan Fajar",
        "Post_Office": "Alor Setar",
        "State": "Kedah"
    },
    {
        "Postcode": "05350",
        "Location": "Jalan Hutan Kampung",
        "Post_Office": "Alor Setar",
        "State": "Kedah"
    },
    {
        "Postcode": "05350",
        "Location": "Jalan Kencana (Taman Muhibbah)",
        "Post_Office": "Alor Setar",
        "State": "Kedah"
    },
    {
        "Postcode": "05350",
        "Location": "Jalan Masjid Lama",
        "Post_Office": "Alor Setar",
        "State": "Kedah"
    },
    {
        "Postcode": "05350",
        "Location": "Jalan Sultanah",
        "Post_Office": "Alor Setar",
        "State": "Kedah"
    },
    {
        "Postcode": "05350",
        "Location": "Jalan Syed Mohamed",
        "Post_Office": "Alor Setar",
        "State": "Kedah"
    },
    {
        "Postcode": "05350",
        "Location": "Kampung Bohor",
        "Post_Office": "Alor Setar",
        "State": "Kedah"
    },
    {
        "Postcode": "05350",
        "Location": "Kampung Dalam Kota",
        "Post_Office": "Alor Setar",
        "State": "Kedah"
    },
    {
        "Postcode": "05350",
        "Location": "Kampung Darat",
        "Post_Office": "Alor Setar",
        "State": "Kedah"
    },
    {
        "Postcode": "05350",
        "Location": "Kampung Hilir",
        "Post_Office": "Alor Setar",
        "State": "Kedah"
    },
    {
        "Postcode": "05350",
        "Location": "Kampung Hutan Pulai",
        "Post_Office": "Alor Setar",
        "State": "Kedah"
    },
    {
        "Postcode": "05350",
        "Location": "Kampung Kandang Kuda",
        "Post_Office": "Alor Setar",
        "State": "Kedah"
    },
    {
        "Postcode": "05350",
        "Location": "Kampung Kubang Tampang",
        "Post_Office": "Alor Setar",
        "State": "Kedah"
    },
    {
        "Postcode": "05350",
        "Location": "Kampung Maseh",
        "Post_Office": "Alor Setar",
        "State": "Kedah"
    },
    {
        "Postcode": "05350",
        "Location": "Kampung Masjid Lama",
        "Post_Office": "Alor Setar",
        "State": "Kedah"
    },
    {
        "Postcode": "05350",
        "Location": "Kampung Pengkalan Keriang",
        "Post_Office": "Alor Setar",
        "State": "Kedah"
    },
    {
        "Postcode": "05350",
        "Location": "Kampung Pulai",
        "Post_Office": "Alor Setar",
        "State": "Kedah"
    },
    {
        "Postcode": "05350",
        "Location": "Kampung Tebu (Hutan Kampung)",
        "Post_Office": "Alor Setar",
        "State": "Kedah"
    },
    {
        "Postcode": "05350",
        "Location": "Kampung Tok Resat",
        "Post_Office": "Alor Setar",
        "State": "Kedah"
    },
    {
        "Postcode": "05350",
        "Location": "Kampung Tok Sakar",
        "Post_Office": "Alor Setar",
        "State": "Kedah"
    },
    {
        "Postcode": "05350",
        "Location": "Lepai",
        "Post_Office": "Alor Setar",
        "State": "Kedah"
    },
    {
        "Postcode": "05350",
        "Location": "Lorong Bayu",
        "Post_Office": "Alor Setar",
        "State": "Kedah"
    },
    {
        "Postcode": "05350",
        "Location": "Lorong Kampung Padang",
        "Post_Office": "Alor Setar",
        "State": "Kedah"
    },
    {
        "Postcode": "05350",
        "Location": "Lorong Pelangi",
        "Post_Office": "Alor Setar",
        "State": "Kedah"
    },
    {
        "Postcode": "05350",
        "Location": "Lorong Syed Mohd",
        "Post_Office": "Alor Setar",
        "State": "Kedah"
    },
    {
        "Postcode": "05350",
        "Location": "Taman Bayu",
        "Post_Office": "Alor Setar",
        "State": "Kedah"
    },
    {
        "Postcode": "05350",
        "Location": "Taman Bayu Baru",
        "Post_Office": "Alor Setar",
        "State": "Kedah"
    },
    {
        "Postcode": "05350",
        "Location": "Taman Dato Syed Omar",
        "Post_Office": "Alor Setar",
        "State": "Kedah"
    },
    {
        "Postcode": "05350",
        "Location": "Taman Fajar",
        "Post_Office": "Alor Setar",
        "State": "Kedah"
    },
    {
        "Postcode": "05350",
        "Location": "Taman Hidayah",
        "Post_Office": "Alor Setar",
        "State": "Kedah"
    },
    {
        "Postcode": "05350",
        "Location": "Taman Mustika",
        "Post_Office": "Alor Setar",
        "State": "Kedah"
    },
    {
        "Postcode": "05350",
        "Location": "Taman Mutiara",
        "Post_Office": "Alor Setar",
        "State": "Kedah"
    },
    {
        "Postcode": "05350",
        "Location": "Taman Nabira",
        "Post_Office": "Alor Setar",
        "State": "Kedah"
    },
    {
        "Postcode": "05350",
        "Location": "Taman Sara",
        "Post_Office": "Alor Setar",
        "State": "Kedah"
    },
    {
        "Postcode": "05350",
        "Location": "Taman Syed Mohamed",
        "Post_Office": "Alor Setar",
        "State": "Kedah"
    },
    {
        "Postcode": "05350",
        "Location": "Taman Tunku Abdul Rahman",
        "Post_Office": "Alor Setar",
        "State": "Kedah"
    },
    {
        "Postcode": "05350",
        "Location": "Taman Uda",
        "Post_Office": "Alor Setar",
        "State": "Kedah"
    },
    {
        "Postcode": "05350",
        "Location": "Kampung Masjid Luar",
        "Post_Office": "Alor Setar",
        "State": "Kedah"
    },
    {
        "Postcode": "05350",
        "Location": "Kampung Hutan Kandis",
        "Post_Office": "Alor Setar",
        "State": "Kedah"
    },
    {
        "Postcode": "05350",
        "Location": "Kampung Belukar",
        "Post_Office": "Alor Setar",
        "State": "Kedah"
    },
    {
        "Postcode": "05350",
        "Location": "Kampung Kubang Lintah",
        "Post_Office": "Alor Setar",
        "State": "Kedah"
    },
    {
        "Postcode": "05350",
        "Location": "Taman Cahaya",
        "Post_Office": "Alor Setar",
        "State": "Kedah"
    },
    {
        "Postcode": "05350",
        "Location": "Taman Muhibbah",
        "Post_Office": "Alor Setar",
        "State": "Kedah"
    }
]
