[
    {
        "Postcode": "05460",
        "Location": "Taman Mewah",
        "Post_Office": "Alor Setar",
        "State": "Kedah"
    },
    {
        "Postcode": "05460",
        "Location": "Alor Malai",
        "Post_Office": "Alor Setar",
        "State": "Kedah"
    },
    {
        "Postcode": "05460",
        "Location": "Jalan Kampung Haji Burhan",
        "Post_Office": "Alor Setar",
        "State": "Kedah"
    },
    {
        "Postcode": "05460",
        "Location": "Jalan Langgar",
        "Post_Office": "Alor Setar",
        "State": "Kedah"
    },
    {
        "Postcode": "05460",
        "Location": "Jalan Raja",
        "Post_Office": "Alor Setar",
        "State": "Kedah"
    },
    {
        "Postcode": "05460",
        "Location": "Jalan Tengku Ibrahim",
        "Post_Office": "Alor Setar",
        "State": "Kedah"
    },
    {
        "Postcode": "05460",
        "Location": "Kampung Baru Alor Malai",
        "Post_Office": "Alor Setar",
        "State": "Kedah"
    },
    {
        "Postcode": "05460",
        "Location": "Kampung Batu Tiga",
        "Post_Office": "Alor Setar",
        "State": "Kedah"
    },
    {
        "Postcode": "05460",
        "Location": "Kampung Burhan",
        "Post_Office": "Alor Setar",
        "State": "Kedah"
    },
    {
        "Postcode": "05460",
        "Location": "Kampung Che Poh",
        "Post_Office": "Alor Setar",
        "State": "Kedah"
    },
    {
        "Postcode": "05460",
        "Location": "Kampung Macik Manjalara",
        "Post_Office": "Alor Setar",
        "State": "Kedah"
    },
    {
        "Postcode": "05460",
        "Location": "Kampung Sakar",
        "Post_Office": "Alor Setar",
        "State": "Kedah"
    },
    {
        "Postcode": "05460",
        "Location": "Kampung Simpang Tiga (Langgar)",
        "Post_Office": "Alor Setar",
        "State": "Kedah"
    },
    {
        "Postcode": "05460",
        "Location": "Kampung Tengah Padang",
        "Post_Office": "Alor Setar",
        "State": "Kedah"
    },
    {
        "Postcode": "05460",
        "Location": "Kampung Tenteram",
        "Post_Office": "Alor Setar",
        "State": "Kedah"
    },
    {
        "Postcode": "05460",
        "Location": "Lorong Haji Hassan",
        "Post_Office": "Alor Setar",
        "State": "Kedah"
    },
    {
        "Postcode": "05460",
        "Location": "Lorong Kampung Borhan",
        "Post_Office": "Alor Setar",
        "State": "Kedah"
    },
    {
        "Postcode": "05460",
        "Location": "Lorong Sepakat",
        "Post_Office": "Alor Setar",
        "State": "Kedah"
    },
    {
        "Postcode": "05460",
        "Location": "Perumahan Awam Alor Malai",
        "Post_Office": "Alor Setar",
        "State": "Kedah"
    },
    {
        "Postcode": "05460",
        "Location": "Taman Amal",
        "Post_Office": "Alor Setar",
        "State": "Kedah"
    },
    {
        "Postcode": "05460",
        "Location": "Taman Ariff Jaya",
        "Post_Office": "Alor Setar",
        "State": "Kedah"
    },
    {
        "Postcode": "05460",
        "Location": "Taman Cenderawasih",
        "Post_Office": "Alor Setar",
        "State": "Kedah"
    },
    {
        "Postcode": "05460",
        "Location": "Taman Chenggal",
        "Post_Office": "Alor Setar",
        "State": "Kedah"
    },
    {
        "Postcode": "05460",
        "Location": "Taman Dato Kumbar",
        "Post_Office": "Alor Setar",
        "State": "Kedah"
    },
    {
        "Postcode": "05460",
        "Location": "Taman Datuk Jaya",
        "Post_Office": "Alor Setar",
        "State": "Kedah"
    },
    {
        "Postcode": "05460",
        "Location": "Taman Delima Jaya",
        "Post_Office": "Alor Setar",
        "State": "Kedah"
    },
    {
        "Postcode": "05460",
        "Location": "Taman Derga Jaya",
        "Post_Office": "Alor Setar",
        "State": "Kedah"
    },
    {
        "Postcode": "05460",
        "Location": "Taman Glorious",
        "Post_Office": "Alor Setar",
        "State": "Kedah"
    },
    {
        "Postcode": "05460",
        "Location": "Taman Gloris",
        "Post_Office": "Alor Setar",
        "State": "Kedah"
    },
    {
        "Postcode": "05460",
        "Location": "Taman Gunung Ledang (Jalan Kuala Kedah)",
        "Post_Office": "Alor Setar",
        "State": "Kedah"
    },
    {
        "Postcode": "05460",
        "Location": "Taman Jaya",
        "Post_Office": "Alor Setar",
        "State": "Kedah"
    },
    {
        "Postcode": "05460",
        "Location": "Taman Kelana",
        "Post_Office": "Alor Setar",
        "State": "Kedah"
    },
    {
        "Postcode": "05460",
        "Location": "Taman Malai",
        "Post_Office": "Alor Setar",
        "State": "Kedah"
    },
    {
        "Postcode": "05460",
        "Location": "Taman Mesra",
        "Post_Office": "Alor Setar",
        "State": "Kedah"
    },
    {
        "Postcode": "05460",
        "Location": "Taman Nakishah",
        "Post_Office": "Alor Setar",
        "State": "Kedah"
    },
    {
        "Postcode": "05460",
        "Location": "Taman Nilam",
        "Post_Office": "Alor Setar",
        "State": "Kedah"
    },
    {
        "Postcode": "05460",
        "Location": "Taman Pulai Jaya",
        "Post_Office": "Alor Setar",
        "State": "Kedah"
    },
    {
        "Postcode": "05460",
        "Location": "Taman Pulai Jaya Baru",
        "Post_Office": "Alor Setar",
        "State": "Kedah"
    },
    {
        "Postcode": "05460",
        "Location": "Taman Puspa Kencana",
        "Post_Office": "Alor Setar",
        "State": "Kedah"
    },
    {
        "Postcode": "05460",
        "Location": "Taman Raja Wali Indah",
        "Post_Office": "Alor Setar",
        "State": "Kedah"
    },
    {
        "Postcode": "05460",
        "Location": "Taman Sahab",
        "Post_Office": "Alor Setar",
        "State": "Kedah"
    },
    {
        "Postcode": "05460",
        "Location": "Taman Seri Derga",
        "Post_Office": "Alor Setar",
        "State": "Kedah"
    },
    {
        "Postcode": "05460",
        "Location": "Taman Seri Mewah (Jalan Langar)",
        "Post_Office": "Alor Setar",
        "State": "Kedah"
    },
    {
        "Postcode": "05460",
        "Location": "Taman Seri Permai",
        "Post_Office": "Alor Setar",
        "State": "Kedah"
    },
    {
        "Postcode": "05460",
        "Location": "Taman Seri Setia",
        "Post_Office": "Alor Setar",
        "State": "Kedah"
    },
    {
        "Postcode": "05460",
        "Location": "Taman Shahab",
        "Post_Office": "Alor Setar",
        "State": "Kedah"
    },
    {
        "Postcode": "05460",
        "Location": "Taman Soon Thye",
        "Post_Office": "Alor Setar",
        "State": "Kedah"
    },
    {
        "Postcode": "05460",
        "Location": "Taman Tunku Husna",
        "Post_Office": "Alor Setar",
        "State": "Kedah"
    },
    {
        "Postcode": "05460",
        "Location": "Taman Delima",
        "Post_Office": "Alor Setar",
        "State": "Kedah"
    },
    {
        "Postcode": "05460",
        "Location": "Taman Setia Jaya",
        "Post_Office": "Alor Setar",
        "State": "Kedah"
    }
]
