[
    {
        "Postcode": "57000",
        "Location": "Arked Esplanad Bukit Jalil",
        "Post_Office": "Kuala Lumpur",
        "State": "WP Kuala Lumpur"
    },
    {
        "Postcode": "57000",
        "Location": "Sungai Besi ",
        "Post_Office": "Kuala Lumpur",
        "State": "WP Kuala Lumpur"
    },
    {
        "Postcode": "57000",
        "Location": "Bandar Baru Sri Petaling",
        "Post_Office": "Kuala Lumpur",
        "State": "WP Kuala Lumpur"
    },
    {
        "Postcode": "57000",
        "Location": "Bukit Jalil Golf And Country Resort",
        "Post_Office": "Kuala Lumpur",
        "State": "WP Kuala Lumpur"
    },
    {
        "Postcode": "57000",
        "Location": "Taman Bukit Jalil Indah",
        "Post_Office": "Kuala Lumpur",
        "State": "WP Kuala Lumpur"
    },
    {
        "Postcode": "57000",
        "Location": "Jalan Alam Sutera 19",
        "Post_Office": "Kuala Lumpur",
        "State": "WP Kuala Lumpur"
    },
    {
        "Postcode": "57000",
        "Location": "Taman Alam Sutera",
        "Post_Office": "Kuala Lumpur",
        "State": "WP Kuala Lumpur"
    },
    {
        "Postcode": "57000",
        "Location": "Km1 Residensi",
        "Post_Office": "Kuala Lumpur",
        "State": "WP Kuala Lumpur"
    },
    {
        "Postcode": "57000",
        "Location": "Bandar Bukit Jalil",
        "Post_Office": "Kuala Lumpur",
        "State": "WP Kuala Lumpur"
    },
    {
        "Postcode": "57000",
        "Location": "Jalan Jalil 2",
        "Post_Office": "Kuala Lumpur",
        "State": "WP Kuala Lumpur"
    },
    {
        "Postcode": "57000",
        "Location": "Residensi Permai Impian",
        "Post_Office": "Kuala Lumpur",
        "State": "WP Kuala Lumpur"
    },
    {
        "Postcode": "57000",
        "Location": "Bandar Baru Bukit Jalil",
        "Post_Office": "Kuala Lumpur",
        "State": "WP Kuala Lumpur"
    },
    {
        "Postcode": "57000",
        "Location": "Jalan Radin Bagus",
        "Post_Office": "Kuala Lumpur",
        "State": "WP Kuala Lumpur"
    },
    {
        "Postcode": "57000",
        "Location": "Jalan Jalil Perkasa 7",
        "Post_Office": "Kuala Lumpur",
        "State": "WP Kuala Lumpur"
    },
    {
        "Postcode": "57000",
        "Location": "Pangsapuri Savanna 2 Bukit Jalil",
        "Post_Office": "Kuala Lumpur",
        "State": "WP Kuala Lumpur"
    },
    {
        "Postcode": "57000",
        "Location": "Medan Niaga Tasik Damai",
        "Post_Office": "Kuala Lumpur",
        "State": "WP Kuala Lumpur"
    },
    {
        "Postcode": "57000",
        "Location": "Pangsapuri Covillea Bukit Jalil",
        "Post_Office": "Kuala Lumpur",
        "State": "WP Kuala Lumpur"
    },
    {
        "Postcode": "57000",
        "Location": "Taman Tasik Damai",
        "Post_Office": "Kuala Lumpur",
        "State": "WP Kuala Lumpur"
    },
    {
        "Postcode": "57000",
        "Location": "Jalan Suasa 2",
        "Post_Office": "Kuala Lumpur",
        "State": "WP Kuala Lumpur"
    },
    {
        "Postcode": "57000",
        "Location": "Lebuhraya Bukit Jalil",
        "Post_Office": "Kuala Lumpur",
        "State": "WP kuala Lumpur"
    },
    {
        "Postcode": "57000",
        "Location": "Pangsapuri Tropika Bukit Jalil",
        "Post_Office": "Kuala Lumpur",
        "State": "WP Kuala Lumpur"
    },
    {
        "Postcode": "57000",
        "Location": "Bandar Tasik Selatan",
        "Post_Office": "Kuala Lumpur",
        "State": "WP Kuala Lumpur"
    },
    {
        "Postcode": "57000",
        "Location": "Bukit Jalil",
        "Post_Office": "Kuala Lumpur",
        "State": "WP Kuala Lumpur"
    },
    {
        "Postcode": "57000",
        "Location": "Bukit Jalil Intergrated Park",
        "Post_Office": "Kuala Lumpur",
        "State": "WP Kuala Lumpur"
    },
    {
        "Postcode": "57000",
        "Location": "Cross Street (Sungai Besi)",
        "Post_Office": "Kuala Lumpur",
        "State": "WP Kuala Lumpur"
    },
    {
        "Postcode": "57000",
        "Location": "Desa Tasik",
        "Post_Office": "Kuala Lumpur",
        "State": "WP Kuala Lumpur"
    },
    {
        "Postcode": "57000",
        "Location": "Endah Puri",
        "Post_Office": "Kuala Lumpur",
        "State": "WP Kuala Lumpur"
    },
    {
        "Postcode": "57000",
        "Location": "Jalan 1/155A Bukit Jalil",
        "Post_Office": "Kuala Lumpur",
        "State": "WP Kuala Lumpur"
    },
    {
        "Postcode": "57000",
        "Location": "Jalan Balai Polis (Sungai Besi)",
        "Post_Office": "Kuala Lumpur",
        "State": "WP Kuala Lumpur"
    },
    {
        "Postcode": "57000",
        "Location": "Jalan Belakang Balai Polis",
        "Post_Office": "Kuala Lumpur",
        "State": "WP Kuala Lumpur"
    },
    {
        "Postcode": "57000",
        "Location": "Jalan Besar Sungai Besi",
        "Post_Office": "Kuala Lumpur",
        "State": "WP Kuala Lumpur"
    },
    {
        "Postcode": "57000",
        "Location": "Jalan Gangsa",
        "Post_Office": "Kuala Lumpur",
        "State": "WP Kuala Lumpur"
    },
    {
        "Postcode": "57000",
        "Location": "Jalan Pasar (Sungai Besi)",
        "Post_Office": "Kuala Lumpur",
        "State": "WP Kuala Lumpur"
    },
    {
        "Postcode": "57000",
        "Location": "Jalan Pejabat Pos",
        "Post_Office": "Kuala Lumpur",
        "State": "WP Kuala Lumpur"
    },
    {
        "Postcode": "57000",
        "Location": "Jalan Silang (Sungai Besi)",
        "Post_Office": "Kuala Lumpur",
        "State": "WP Kuala Lumpur"
    },
    {
        "Postcode": "57000",
        "Location": "Jalan Toh Kong",
        "Post_Office": "Kuala Lumpur",
        "State": "WP Kuala Lumpur"
    },
    {
        "Postcode": "57000",
        "Location": "Jalan Tokong China",
        "Post_Office": "Kuala Lumpur",
        "State": "WP Kuala Lumpur"
    },
    {
        "Postcode": "57000",
        "Location": "Jalan Wan Malini",
        "Post_Office": "Kuala Lumpur",
        "State": "WP Kuala Lumpur"
    },
    {
        "Postcode": "57000",
        "Location": "Kampung Balakong",
        "Post_Office": "Kuala Lumpur",
        "State": "WP Kuala Lumpur"
    },
    {
        "Postcode": "57000",
        "Location": "Kampung Benggali",
        "Post_Office": "Kuala Lumpur",
        "State": "WP Kuala Lumpur"
    },
    {
        "Postcode": "57000",
        "Location": "Kampung Pinang",
        "Post_Office": "Kuala Lumpur",
        "State": "WP Kuala Lumpur"
    },
    {
        "Postcode": "57000",
        "Location": "Kampung Selamat (Sungai Besi)",
        "Post_Office": "Kuala Lumpur",
        "State": "WP Kuala Lumpur"
    },
    {
        "Postcode": "57000",
        "Location": "Kampung Seri Muhibbah",
        "Post_Office": "Kuala Lumpur",
        "State": "WP Kuala Lumpur"
    },
    {
        "Postcode": "57000",
        "Location": "Kampung Seri Perantau",
        "Post_Office": "Kuala Lumpur",
        "State": "WP Kuala Lumpur"
    },
    {
        "Postcode": "57000",
        "Location": "Kelab Lumba Kuda Kuala Lumpur",
        "Post_Office": "Kuala Lumpur",
        "State": "WP Kuala Lumpur"
    },
    {
        "Postcode": "57000",
        "Location": "Kelab Lumba Kuda Selangor",
        "Post_Office": "Kuala Lumpur",
        "State": "WP Kuala Lumpur"
    },
    {
        "Postcode": "57000",
        "Location": "Kem Gerissen Sungai Besi",
        "Post_Office": "Kuala Lumpur",
        "State": "WP Kuala Lumpur"
    },
    {
        "Postcode": "57000",
        "Location": "Kompleks Pasar (Sungai Besi)",
        "Post_Office": "Kuala Lumpur",
        "State": "WP Kuala Lumpur"
    },
    {
        "Postcode": "57000",
        "Location": "Kompleks Sukan Negara",
        "Post_Office": "Kuala Lumpur",
        "State": "WP Kuala Lumpur"
    },
    {
        "Postcode": "57000",
        "Location": "Kuyow",
        "Post_Office": "Kuala Lumpur",
        "State": "WP Kuala Lumpur"
    },
    {
        "Postcode": "57000",
        "Location": "Kuyow Street",
        "Post_Office": "Kuala Lumpur",
        "State": "WP Kuala Lumpur"
    },
    {
        "Postcode": "57000",
        "Location": "Market Street (Sungai Besi)",
        "Post_Office": "Kuala Lumpur",
        "State": "WP Kuala Lumpur"
    },
    {
        "Postcode": "57000",
        "Location": "Savanna Bukit Jalil",
        "Post_Office": "Kuala Lumpur",
        "State": "WP Kuala Lumpur"
    },
    {
        "Postcode": "57000",
        "Location": "Serdang Lama",
        "Post_Office": "Kuala Lumpur",
        "State": "WP Kuala Lumpur"
    },
    {
        "Postcode": "57000",
        "Location": "Serdang Lama (Hingga Km 19)",
        "Post_Office": "Kuala Lumpur",
        "State": "WP Kuala Lumpur"
    },
    {
        "Postcode": "57000",
        "Location": "Sungai Besi Camp",
        "Post_Office": "Kuala Lumpur",
        "State": "WP Kuala Lumpur"
    },
    {
        "Postcode": "57000",
        "Location": "Sungai Besi Mines",
        "Post_Office": "Kuala Lumpur",
        "State": "WP Kuala Lumpur"
    },
    {
        "Postcode": "57000",
        "Location": "Taman Bukit Intan",
        "Post_Office": "Kuala Lumpur",
        "State": "WP Kuala Lumpur"
    },
    {
        "Postcode": "57000",
        "Location": "Taman Bukit Petaling (Sungai Besi)",
        "Post_Office": "Kuala Lumpur",
        "State": "WP Kuala Lumpur"
    },
    {
        "Postcode": "57000",
        "Location": "Taman Impian Indah",
        "Post_Office": "Kuala Lumpur",
        "State": "WP Kuala Lumpur"
    },
    {
        "Postcode": "57000",
        "Location": "Taman Ltat Bukit Jalil",
        "Post_Office": "Kuala Lumpur",
        "State": "WP Kuala Lumpur"
    },
    {
        "Postcode": "57000",
        "Location": "Taman Seri Budiman",
        "Post_Office": "Kuala Lumpur",
        "State": "WP Kuala Lumpur"
    },
    {
        "Postcode": "57000",
        "Location": "Taman Seri Indah (Sungai Besi)",
        "Post_Office": "Kuala Lumpur",
        "State": "WP Kuala Lumpur"
    },
    {
        "Postcode": "57000",
        "Location": "Taman Seri Petaling",
        "Post_Office": "Kuala Lumpur",
        "State": "WP Kuala Lumpur"
    },
    {
        "Postcode": "57000",
        "Location": "Taman Sri Endah",
        "Post_Office": "Kuala Lumpur",
        "State": "WP Kuala Lumpur"
    },
    {
        "Postcode": "57000",
        "Location": "Taman Teknologi Malaysia",
        "Post_Office": "Kuala Lumpur",
        "State": "WP Kuala Lumpur"
    }
]
