[
    {
        "Postcode": "12000",
        "Location": "Jalan Pasar",
        "Post_Office": "Butterworth",
        "State": "Pulau Pinang"
    },
    {
        "Postcode": "12000",
        "Location": "Kampung Jawa",
        "Post_Office": "Butterworth",
        "State": "Pulau Pinang"
    },
    {
        "Postcode": "12000",
        "Location": "Taman Jawa",
        "Post_Office": "Butterworth",
        "State": "Pulau Pinang"
    },
    {
        "Postcode": "12000",
        "Location": "Jalan Heng Choon Thian",
        "Post_Office": "Butterworth",
        "State": "Pulau Pinang"
    },
    {
        "Postcode": "12000",
        "Location": "Lintang Kampung Jawa",
        "Post_Office": "Butterworth",
        "State": "Pulau Pinang"
    },
    {
        "Postcode": "12000",
        "Location": "Lorong Kampung Jawa",
        "Post_Office": "Butterworth",
        "State": "Pulau Pinang"
    },
    {
        "Postcode": "12000",
        "Location": "Jalan Bagan Baru 1",
        "Post_Office": "Butterworth",
        "State": "Pulau Pinang"
    },
    {
        "Postcode": "12000",
        "Location": "Jalan Bagan Baru 10",
        "Post_Office": "Butterworth",
        "State": "Pulau Pinang"
    },
    {
        "Postcode": "12000",
        "Location": "Jalan Bagan Baru 2",
        "Post_Office": "Butterworth",
        "State": "Pulau Pinang"
    },
    {
        "Postcode": "12000",
        "Location": "Jalan Bagan Baru 3",
        "Post_Office": "Butterworth",
        "State": "Pulau Pinang"
    },
    {
        "Postcode": "12000",
        "Location": "Jalan Bagan Baru 4",
        "Post_Office": "Butterworth",
        "State": "Pulau Pinang"
    },
    {
        "Postcode": "12000",
        "Location": "Jalan Bagan Baru 5",
        "Post_Office": "Butterworth",
        "State": "Pulau Pinang"
    },
    {
        "Postcode": "12000",
        "Location": "Jalan Bagan Baru 6",
        "Post_Office": "Butterworth",
        "State": "Pulau Pinang"
    },
    {
        "Postcode": "12000",
        "Location": "Jalan Bagan Baru 7",
        "Post_Office": "Butterworth",
        "State": "Pulau Pinang"
    },
    {
        "Postcode": "12000",
        "Location": "Jalan Bagan Baru 8",
        "Post_Office": "Butterworth",
        "State": "Pulau Pinang"
    },
    {
        "Postcode": "12000",
        "Location": "Jalan Bagan Baru 9",
        "Post_Office": "Butterworth",
        "State": "Pulau Pinang"
    },
    {
        "Postcode": "12000",
        "Location": "Jalan Mewah 4",
        "Post_Office": "Butterworth",
        "State": "Pulau Pinang"
    },
    {
        "Postcode": "12000",
        "Location": "Lorong Bagan Luar 1",
        "Post_Office": "Butterworth",
        "State": "Pulau Pinang"
    },
    {
        "Postcode": "12000",
        "Location": "Lorong Bagan Luar 2",
        "Post_Office": "Butterworth",
        "State": "Pulau Pinang"
    },
    {
        "Postcode": "12000",
        "Location": "Lorong Bagan Luar 3",
        "Post_Office": "Butterworth",
        "State": "Pulau Pinang"
    },
    {
        "Postcode": "12000",
        "Location": "Lorong Bagan Luar 4",
        "Post_Office": "Butterworth",
        "State": "Pulau Pinang"
    },
    {
        "Postcode": "12000",
        "Location": "Lorong Jawa 1",
        "Post_Office": "Butterworth",
        "State": "Pulau Pinang"
    },
    {
        "Postcode": "12000",
        "Location": "Lorong Jawa 2",
        "Post_Office": "Butterworth",
        "State": "Pulau Pinang"
    },
    {
        "Postcode": "12000",
        "Location": "Lorong Jawa 3",
        "Post_Office": "Butterworth",
        "State": "Pulau Pinang"
    },
    {
        "Postcode": "12000",
        "Location": "Lorong Jawa 4",
        "Post_Office": "Butterworth",
        "State": "Pulau Pinang"
    },
    {
        "Postcode": "12000",
        "Location": "Lorong Jawa 5",
        "Post_Office": "Butterworth",
        "State": "Pulau Pinang"
    },
    {
        "Postcode": "12000",
        "Location": "Lorong Jawa 6",
        "Post_Office": "Butterworth",
        "State": "Pulau Pinang"
    },
    {
        "Postcode": "12000",
        "Location": "Lorong Jawa 7",
        "Post_Office": "Butterworth",
        "State": "Pulau Pinang"
    },
    {
        "Postcode": "12000",
        "Location": "Lorong Jawa 8",
        "Post_Office": "Butterworth",
        "State": "Pulau Pinang"
    },
    {
        "Postcode": "12000",
        "Location": "Tingkat Bagan Baru 1",
        "Post_Office": "Butterworth",
        "State": "Pulau Pinang"
    },
    {
        "Postcode": "12000",
        "Location": "Tingkat Bagan Baru 10",
        "Post_Office": "Butterworth",
        "State": "Pulau Pinang"
    },
    {
        "Postcode": "12000",
        "Location": "Tingkat Bagan Baru 11",
        "Post_Office": "Butterworth",
        "State": "Pulau Pinang"
    },
    {
        "Postcode": "12000",
        "Location": "Tingkat Bagan Baru 12",
        "Post_Office": "Butterworth",
        "State": "Pulau Pinang"
    },
    {
        "Postcode": "12000",
        "Location": "Tingkat Bagan Baru 13",
        "Post_Office": "Butterworth",
        "State": "Pulau Pinang"
    },
    {
        "Postcode": "12000",
        "Location": "Tingkat Bagan Baru 14",
        "Post_Office": "Butterworth",
        "State": "Pulau Pinang"
    },
    {
        "Postcode": "12000",
        "Location": "Tingkat Bagan Baru 15",
        "Post_Office": "Butterworth",
        "State": "Pulau Pinang"
    },
    {
        "Postcode": "12000",
        "Location": "Tingkat Bagan Baru 16",
        "Post_Office": "Butterworth",
        "State": "Pulau Pinang"
    },
    {
        "Postcode": "12000",
        "Location": "Tingkat Bagan Baru 17",
        "Post_Office": "Butterworth",
        "State": "Pulau Pinang"
    },
    {
        "Postcode": "12000",
        "Location": "Tingkat Bagan Baru 18",
        "Post_Office": "Butterworth",
        "State": "Pulau Pinang"
    },
    {
        "Postcode": "12000",
        "Location": "Tingkat Bagan Baru 19",
        "Post_Office": "Butterworth",
        "State": "Pulau Pinang"
    },
    {
        "Postcode": "12000",
        "Location": "Tingkat Bagan Baru 2",
        "Post_Office": "Butterworth",
        "State": "Pulau Pinang"
    },
    {
        "Postcode": "12000",
        "Location": "Tingkat Bagan Baru 20",
        "Post_Office": "Butterworth",
        "State": "Pulau Pinang"
    },
    {
        "Postcode": "12000",
        "Location": "Tingkat Bagan Baru 21",
        "Post_Office": "Butterworth",
        "State": "Pulau Pinang"
    },
    {
        "Postcode": "12000",
        "Location": "Tingkat Bagan Baru 22",
        "Post_Office": "Butterworth",
        "State": "Pulau Pinang"
    },
    {
        "Postcode": "12000",
        "Location": "Tingkat Bagan Baru 3",
        "Post_Office": "Butterworth",
        "State": "Pulau Pinang"
    },
    {
        "Postcode": "12000",
        "Location": "Tingkat Bagan Baru 4",
        "Post_Office": "Butterworth",
        "State": "Pulau Pinang"
    },
    {
        "Postcode": "12000",
        "Location": "Tingkat Bagan Baru 5",
        "Post_Office": "Butterworth",
        "State": "Pulau Pinang"
    },
    {
        "Postcode": "12000",
        "Location": "Tingkat Bagan Baru 6",
        "Post_Office": "Butterworth",
        "State": "Pulau Pinang"
    },
    {
        "Postcode": "12000",
        "Location": "Tingkat Bagan Baru 7",
        "Post_Office": "Butterworth",
        "State": "Pulau Pinang"
    },
    {
        "Postcode": "12000",
        "Location": "Tingkat Bagan Baru 8",
        "Post_Office": "Butterworth",
        "State": "Pulau Pinang"
    },
    {
        "Postcode": "12000",
        "Location": "Tingkat Bagan Baru 9",
        "Post_Office": "Butterworth",
        "State": "Pulau Pinang"
    },
    {
        "Postcode": "12000",
        "Location": "Halaman Selat",
        "Post_Office": "Butterworth",
        "State": "Pulau Pinang"
    },
    {
        "Postcode": "12000",
        "Location": "Jalan Acham",
        "Post_Office": "Butterworth",
        "State": "Pulau Pinang"
    },
    {
        "Postcode": "12000",
        "Location": "Jalan Allen",
        "Post_Office": "Butterworth",
        "State": "Pulau Pinang"
    },
    {
        "Postcode": "12000",
        "Location": "Jalan Bagan Luar",
        "Post_Office": "Butterworth",
        "State": "Pulau Pinang"
    },
    {
        "Postcode": "12000",
        "Location": "Jalan Bagan Sena",
        "Post_Office": "Butterworth",
        "State": "Pulau Pinang"
    },
    {
        "Postcode": "12000",
        "Location": "Jalan Cheah Sai Hwa",
        "Post_Office": "Butterworth",
        "State": "Pulau Pinang"
    },
    {
        "Postcode": "12000",
        "Location": "Jalan Datuk Haji Ahmad Said",
        "Post_Office": "Butterworth",
        "State": "Pulau Pinang"
    },
    {
        "Postcode": "12000",
        "Location": "Jalan Heah Seng What",
        "Post_Office": "Butterworth",
        "State": "Pulau Pinang"
    },
    {
        "Postcode": "12000",
        "Location": "Jalan Kampung Acham",
        "Post_Office": "Butterworth",
        "State": "Pulau Pinang"
    },
    {
        "Postcode": "12000",
        "Location": "Jalan Kampung Jawa",
        "Post_Office": "Butterworth",
        "State": "Pulau Pinang"
    },
    {
        "Postcode": "12000",
        "Location": "Jalan Loader",
        "Post_Office": "Butterworth",
        "State": "Pulau Pinang"
    },
    {
        "Postcode": "12000",
        "Location": "Jalan Mitchell",
        "Post_Office": "Butterworth",
        "State": "Pulau Pinang"
    },
    {
        "Postcode": "12000",
        "Location": "Jalan Pantai",
        "Post_Office": "Butterworth",
        "State": "Pulau Pinang"
    },
    {
        "Postcode": "12000",
        "Location": "Jalan Pier",
        "Post_Office": "Butterworth",
        "State": "Pulau Pinang"
    },
    {
        "Postcode": "12000",
        "Location": "Jalan Selat",
        "Post_Office": "Butterworth",
        "State": "Pulau Pinang"
    },
    {
        "Postcode": "12000",
        "Location": "Jalan St Mark",
        "Post_Office": "Butterworth",
        "State": "Pulau Pinang"
    },
    {
        "Postcode": "12000",
        "Location": "Jalan Steward",
        "Post_Office": "Butterworth",
        "State": "Pulau Pinang"
    },
    {
        "Postcode": "12000",
        "Location": "Jalan Talikom",
        "Post_Office": "Butterworth",
        "State": "Pulau Pinang"
    },
    {
        "Postcode": "12000",
        "Location": "Kampung Acam",
        "Post_Office": "Butterworth",
        "State": "Pulau Pinang"
    },
    {
        "Postcode": "12000",
        "Location": "Kampung Balai Pukat",
        "Post_Office": "Butterworth",
        "State": "Pulau Pinang"
    },
    {
        "Postcode": "12000",
        "Location": "Kampung Sungai Nyoir",
        "Post_Office": "Butterworth",
        "State": "Pulau Pinang"
    },
    {
        "Postcode": "12000",
        "Location": "Lintang Bagan Baru",
        "Post_Office": "Butterworth",
        "State": "Pulau Pinang"
    },
    {
        "Postcode": "12000",
        "Location": "Lintang Selat",
        "Post_Office": "Butterworth",
        "State": "Pulau Pinang"
    },
    {
        "Postcode": "12000",
        "Location": "Meriam Timbul",
        "Post_Office": "Butterworth",
        "State": "Pulau Pinang"
    },
    {
        "Postcode": "12000",
        "Location": "Solok Bagan Baru",
        "Post_Office": "Butterworth",
        "State": "Pulau Pinang"
    },
    {
        "Postcode": "12000",
        "Location": "Sungai Nyior",
        "Post_Office": "Butterworth",
        "State": "Pulau Pinang"
    },
    {
        "Postcode": "12000",
        "Location": "Taman Bagan Baru",
        "Post_Office": "Butterworth",
        "State": "Pulau Pinang"
    },
    {
        "Postcode": "12000",
        "Location": "Taman Bagan Sena",
        "Post_Office": "Butterworth",
        "State": "Pulau Pinang"
    },
    {
        "Postcode": "12000",
        "Location": "Taman Selat",
        "Post_Office": "Butterworth",
        "State": "Pulau Pinang"
    },
    {
        "Postcode": "12000",
        "Location": "Tingkat Bagan Baru",
        "Post_Office": "Butterworth",
        "State": "Pulau Pinang"
    }
]
