[
    {
        "Postcode": "12100",
        "Location": "Kampung Perlis",
        "Post_Office": "Butterworth",
        "State": "Pulau Pinang"
    },
    {
        "Postcode": "12100",
        "Location": "Jalan Harbour Place",
        "Post_Office": "Butterworth",
        "State": "Pulau Pinang"
    },
    {
        "Postcode": "12100",
        "Location": "Ocean View Residences",
        "Post_Office": "Butterworth",
        "State": "Pulau Pinang"
    },
    {
        "Postcode": "12100",
        "Location": "Kampung Federal",
        "Post_Office": "Butterworth",
        "State": "Pulau Pinang"
    },
    {
        "Postcode": "12100",
        "Location": "Kampung Hujung Batu",
        "Post_Office": "Butterworth",
        "State": "Pulau Pinang"
    },
    {
        "Postcode": "12100",
        "Location": "Kampung Surau",
        "Post_Office": "Butterworth",
        "State": "Pulau Pinang"
    },
    {
        "Postcode": "12100",
        "Location": "Taman Limbungan Indah",
        "Post_Office": "Butterworth",
        "State": "Pulau Pinang"
    },
    {
        "Postcode": "12100",
        "Location": "Taman Sungai Nyior Indah",
        "Post_Office": "Butterworth",
        "State": "Pulau Pinang"
    },
    {
        "Postcode": "12100",
        "Location": "Jalan Chain Ferry",
        "Post_Office": "Butterworth",
        "State": "Pulau Pinang"
    },
    {
        "Postcode": "12100",
        "Location": "Jalan Heng Choon Thian",
        "Post_Office": "Butterworth",
        "State": "Pulau Pinang"
    },
    {
        "Postcode": "12100",
        "Location": "Jalan Kubur",
        "Post_Office": "Butterworth",
        "State": "Pulau Pinang"
    },
    {
        "Postcode": "12100",
        "Location": "Jalan Mewah",
        "Post_Office": "Butterworth",
        "State": "Pulau Pinang"
    },
    {
        "Postcode": "12100",
        "Location": "Jalan Mewah 2",
        "Post_Office": "Butterworth",
        "State": "Pulau Pinang"
    },
    {
        "Postcode": "12100",
        "Location": "Jalan Mewah 1",
        "Post_Office": "Butterworth",
        "State": "Pulau Pinang"
    },
    {
        "Postcode": "12100",
        "Location": "Tingkat Limbungan 1",
        "Post_Office": "Butterworth",
        "State": "Pulau Pinang"
    },
    {
        "Postcode": "12100",
        "Location": "Tingkat Limbungan 2",
        "Post_Office": "Butterworth",
        "State": "Pulau Pinang"
    },
    {
        "Postcode": "12100",
        "Location": "Butterworth",
        "Post_Office": "Butterworth",
        "State": "Pulau Pinang"
    },
    {
        "Postcode": "12100",
        "Location": "Dermaga Pelabuhan Butterworth",
        "Post_Office": "Butterworth",
        "State": "Pulau Pinang"
    },
    {
        "Postcode": "12100",
        "Location": "Flat Seri Bagan",
        "Post_Office": "Butterworth",
        "State": "Pulau Pinang"
    },
    {
        "Postcode": "12100",
        "Location": "Flat Taman Mewah (Blk A,B)",
        "Post_Office": "Butterworth",
        "State": "Pulau Pinang"
    },
    {
        "Postcode": "12100",
        "Location": "Jalan Assumption",
        "Post_Office": "Butterworth",
        "State": "Pulau Pinang"
    },
    {
        "Postcode": "12100",
        "Location": "Jalan Bagan Dalam",
        "Post_Office": "Butterworth",
        "State": "Pulau Pinang"
    },
    {
        "Postcode": "12100",
        "Location": "Jalan Kapal",
        "Post_Office": "Butterworth",
        "State": "Pulau Pinang"
    },
    {
        "Postcode": "12100",
        "Location": "Jalan Limbungan",
        "Post_Office": "Butterworth",
        "State": "Pulau Pinang"
    },
    {
        "Postcode": "12100",
        "Location": "Jalan New Ferry",
        "Post_Office": "Butterworth",
        "State": "Pulau Pinang"
    },
    {
        "Postcode": "12100",
        "Location": "Jalan Siram",
        "Post_Office": "Butterworth",
        "State": "Pulau Pinang"
    },
    {
        "Postcode": "12100",
        "Location": "Jalan Sungai Nyior",
        "Post_Office": "Butterworth",
        "State": "Pulau Pinang"
    },
    {
        "Postcode": "12100",
        "Location": "Kampung Bagan Dalam",
        "Post_Office": "Butterworth",
        "State": "Pulau Pinang"
    },
    {
        "Postcode": "12100",
        "Location": "Kampung Baru Kuala Perai",
        "Post_Office": "Butterworth",
        "State": "Pulau Pinang"
    },
    {
        "Postcode": "12100",
        "Location": "Kampung Belacak",
        "Post_Office": "Butterworth",
        "State": "Pulau Pinang"
    },
    {
        "Postcode": "12100",
        "Location": "Kampung Musang",
        "Post_Office": "Butterworth",
        "State": "Pulau Pinang"
    },
    {
        "Postcode": "12100",
        "Location": "Kampung Nipah",
        "Post_Office": "Butterworth",
        "State": "Pulau Pinang"
    },
    {
        "Postcode": "12100",
        "Location": "Kampung Siram",
        "Post_Office": "Butterworth",
        "State": "Pulau Pinang"
    },
    {
        "Postcode": "12100",
        "Location": "Lebuh Sungai Nyior",
        "Post_Office": "Butterworth",
        "State": "Pulau Pinang"
    },
    {
        "Postcode": "12100",
        "Location": "Lebuhraya Kapal",
        "Post_Office": "Butterworth",
        "State": "Pulau Pinang"
    },
    {
        "Postcode": "12100",
        "Location": "Lengkok Kapal",
        "Post_Office": "Butterworth",
        "State": "Pulau Pinang"
    },
    {
        "Postcode": "12100",
        "Location": "Lengkok Limbungan",
        "Post_Office": "Butterworth",
        "State": "Pulau Pinang"
    },
    {
        "Postcode": "12100",
        "Location": "Lintang Kapal",
        "Post_Office": "Butterworth",
        "State": "Pulau Pinang"
    },
    {
        "Postcode": "12100",
        "Location": "Lorong Kapal",
        "Post_Office": "Butterworth",
        "State": "Pulau Pinang"
    },
    {
        "Postcode": "12100",
        "Location": "Lorong Siram",
        "Post_Office": "Butterworth",
        "State": "Pulau Pinang"
    },
    {
        "Postcode": "12100",
        "Location": "Lorong Sungai Nyior",
        "Post_Office": "Butterworth",
        "State": "Pulau Pinang"
    },
    {
        "Postcode": "12100",
        "Location": "Lorong Sungai Nyior Indah",
        "Post_Office": "Butterworth",
        "State": "Pulau Pinang"
    },
    {
        "Postcode": "12100",
        "Location": "Medan Limbongan",
        "Post_Office": "Butterworth",
        "State": "Pulau Pinang"
    },
    {
        "Postcode": "12100",
        "Location": "Pangsapuri Harbour View",
        "Post_Office": "Butterworth",
        "State": "Pulau Pinang"
    },
    {
        "Postcode": "12100",
        "Location": "Pangsapuri Suria",
        "Post_Office": "Butterworth",
        "State": "Pulau Pinang"
    },
    {
        "Postcode": "12100",
        "Location": "Pangsapuri Suria Jaya",
        "Post_Office": "Butterworth",
        "State": "Pulau Pinang"
    },
    {
        "Postcode": "12100",
        "Location": "Park View Tower",
        "Post_Office": "Butterworth",
        "State": "Pulau Pinang"
    },
    {
        "Postcode": "12100",
        "Location": "Sea View Tower",
        "Post_Office": "Butterworth",
        "State": "Pulau Pinang"
    },
    {
        "Postcode": "12100",
        "Location": "Taman Mewah",
        "Post_Office": "Butterworth",
        "State": "Pulau Pinang"
    },
    {
        "Postcode": "12100",
        "Location": "Taman Siram",
        "Post_Office": "Butterworth",
        "State": "Pulau Pinang"
    },
    {
        "Postcode": "12100",
        "Location": "Taman Sungai Nyior",
        "Post_Office": "Butterworth",
        "State": "Pulau Pinang"
    },
    {
        "Postcode": "12100",
        "Location": "Tingkat Siram",
        "Post_Office": "Butterworth",
        "State": "Pulau Pinang"
    },
    {
        "Postcode": "12100",
        "Location": "Tingkat Siram 3",
        "Post_Office": "Butterworth",
        "State": "Pulau Pinang"
    },
    {
        "Postcode": "12100",
        "Location": "Ujong Batu Bagan Dalam",
        "Post_Office": "Butterworth",
        "State": "Pulau Pinang"
    }
]
