[
    {
        "Postcode": "12200",
        "Location": "Jalan Kampung Paya",
        "Post_Office": "Butterworth",
        "State": "Pulau Pinang"
    },
    {
        "Postcode": "12200",
        "Location": "Kampung Paya",
        "Post_Office": "Butterworth",
        "State": "Pulau Pinang"
    },
    {
        "Postcode": "12200",
        "Location": "Lorong Widuri 2",
        "Post_Office": "Butterworth",
        "State": "Pulau Pinang"
    },
    {
        "Postcode": "12200",
        "Location": "Lorong Widuri 3",
        "Post_Office": "Butterworth",
        "State": "Pulau Pinang"
    },
    {
        "Postcode": "12200",
        "Location": "Lorong Bagan Vista",
        "Post_Office": "Butterworth",
        "State": "Pulau Pinang"
    },
    {
        "Postcode": "12200",
        "Location": "Lorong Seri Cemerlang 1",
        "Post_Office": "Butterworth",
        "State": "Pulau Pinang"
    },
    {
        "Postcode": "12200",
        "Location": "Pangsapuri Bagan Vista",
        "Post_Office": "Butterworth",
        "State": "Pulau Pinang"
    },
    {
        "Postcode": "12200",
        "Location": "Taman Sri Cemerlang",
        "Post_Office": "Butterworth",
        "State": "Pulau Pinang"
    },
    {
        "Postcode": "12200",
        "Location": "Jalan Telaga Air",
        "Post_Office": "Butterworth",
        "State": "Pulau Pinang"
    },
    {
        "Postcode": "12200",
        "Location": "Lorong Tokong",
        "Post_Office": "Butterworth",
        "State": "Pulau Pinang"
    },
    {
        "Postcode": "12200",
        "Location": "Lorong Widuri 1",
        "Post_Office": "Butterworth",
        "State": "Pulau Pinang"
    },
    {
        "Postcode": "12200",
        "Location": "Villa Palma",
        "Post_Office": "Butterworth",
        "State": "Pulau Pinang"
    },
    {
        "Postcode": "12200",
        "Location": "Bagan Tuan Kechil",
        "Post_Office": "Butterworth",
        "State": "Pulau Pinang"
    },
    {
        "Postcode": "12200",
        "Location": "Jalan Ceri",
        "Post_Office": "Butterworth",
        "State": "Pulau Pinang"
    },
    {
        "Postcode": "12200",
        "Location": "Jalan Jeti Lama",
        "Post_Office": "Butterworth",
        "State": "Pulau Pinang"
    },
    {
        "Postcode": "12200",
        "Location": "Jalan Kampung Bengali",
        "Post_Office": "Butterworth",
        "State": "Pulau Pinang"
    },
    {
        "Postcode": "12200",
        "Location": "Jalan Kampung Gajah",
        "Post_Office": "Butterworth",
        "State": "Pulau Pinang"
    },
    {
        "Postcode": "12200",
        "Location": "Jalan Market",
        "Post_Office": "Butterworth",
        "State": "Pulau Pinang"
    },
    {
        "Postcode": "12200",
        "Location": "Jalan Mengkuang",
        "Post_Office": "Butterworth",
        "State": "Pulau Pinang"
    },
    {
        "Postcode": "12200",
        "Location": "Jalan Pak Abu",
        "Post_Office": "Butterworth",
        "State": "Pulau Pinang"
    },
    {
        "Postcode": "12200",
        "Location": "Jalan Paul",
        "Post_Office": "Butterworth",
        "State": "Pulau Pinang"
    },
    {
        "Postcode": "12200",
        "Location": "Jalan Wisma Pantai",
        "Post_Office": "Butterworth",
        "State": "Pulau Pinang"
    },
    {
        "Postcode": "12200",
        "Location": "Jalan Yeok Keow",
        "Post_Office": "Butterworth",
        "State": "Pulau Pinang"
    },
    {
        "Postcode": "12200",
        "Location": "Kampung Bagan Tuan Kechil",
        "Post_Office": "Butterworth",
        "State": "Pulau Pinang"
    },
    {
        "Postcode": "12200",
        "Location": "Kampung Benggali",
        "Post_Office": "Butterworth",
        "State": "Pulau Pinang"
    },
    {
        "Postcode": "12200",
        "Location": "Kampung Gajah",
        "Post_Office": "Butterworth",
        "State": "Pulau Pinang"
    },
    {
        "Postcode": "12200",
        "Location": "Kampung Raja Uda",
        "Post_Office": "Butterworth",
        "State": "Pulau Pinang"
    },
    {
        "Postcode": "12200",
        "Location": "Lebuh Kampung Benggali",
        "Post_Office": "Butterworth",
        "State": "Pulau Pinang"
    },
    {
        "Postcode": "12200",
        "Location": "Lintang Kampung Bengali",
        "Post_Office": "Butterworth",
        "State": "Pulau Pinang"
    },
    {
        "Postcode": "12200",
        "Location": "Lorong Chempa",
        "Post_Office": "Butterworth",
        "State": "Pulau Pinang"
    },
    {
        "Postcode": "12200",
        "Location": "Lorong Kampung Bengali",
        "Post_Office": "Butterworth",
        "State": "Pulau Pinang"
    },
    {
        "Postcode": "12200",
        "Location": "Lorong Kubor",
        "Post_Office": "Butterworth",
        "State": "Pulau Pinang"
    },
    {
        "Postcode": "12200",
        "Location": "Pangsapuri Bagan Sena (Blk A, B)",
        "Post_Office": "Butterworth",
        "State": "Pulau Pinang"
    },
    {
        "Postcode": "12200",
        "Location": "Pangsapuri Cemerlang",
        "Post_Office": "Butterworth",
        "State": "Pulau Pinang"
    },
    {
        "Postcode": "12200",
        "Location": "Pangsapuri Widuri Blk A, B, C, D",
        "Post_Office": "Butterworth",
        "State": "Pulau Pinang"
    },
    {
        "Postcode": "12200",
        "Location": "Taman Cemerlang",
        "Post_Office": "Butterworth",
        "State": "Pulau Pinang"
    },
    {
        "Postcode": "12200",
        "Location": "Tingkat Kampung Benggali",
        "Post_Office": "Butterworth",
        "State": "Pulau Pinang"
    }
]
