[
    {
        "Postcode": "12300",
        "Location": "Bagan Jermal",
        "Post_Office": "Butterworth",
        "State": "Pulau Pinang"
    },
    {
        "Postcode": "12300",
        "Location": "Gerbang Riang",
        "Post_Office": "Butterworth",
        "State": "Pulau Pinang"
    },
    {
        "Postcode": "12300",
        "Location": "Jalan Bayu",
        "Post_Office": "Butterworth",
        "State": "Pulau Pinang"
    },
    {
        "Postcode": "12300",
        "Location": "Jalan Raja Uda",
        "Post_Office": "Butterworth",
        "State": "Pulau Pinang"
    },
    {
        "Postcode": "12300",
        "Location": "Kampung Kastam",
        "Post_Office": "Butterworth",
        "State": "Pulau Pinang"
    },
    {
        "Postcode": "12300",
        "Location": "Kampung Serani",
        "Post_Office": "Butterworth",
        "State": "Pulau Pinang"
    },
    {
        "Postcode": "12300",
        "Location": "Taman Aman",
        "Post_Office": "Butterworth",
        "State": "Pulau Pinang"
    },
    {
        "Postcode": "12300",
        "Location": "Taman Bistari",
        "Post_Office": "Butterworth",
        "State": "Pulau Pinang"
    },
    {
        "Postcode": "12300",
        "Location": "Taman Mas",
        "Post_Office": "Butterworth",
        "State": "Pulau Pinang"
    },
    {
        "Postcode": "12300",
        "Location": "Taman Segar",
        "Post_Office": "Butterworth",
        "State": "Pulau Pinang"
    },
    {
        "Postcode": "12300",
        "Location": "Jalan Tanjung Indah",
        "Post_Office": "Butterworth",
        "State": "Pulau Pinang"
    },
    {
        "Postcode": "12300",
        "Location": "Lorong Ceri 9",
        "Post_Office": "Butterworth",
        "State": "Pulau Pinang"
    },
    {
        "Postcode": "12300",
        "Location": "Jalan Anggerik",
        "Post_Office": "Butterworth",
        "State": "Pulau Pinang"
    },
    {
        "Postcode": "12300",
        "Location": "Jalan Bagan Jermal",
        "Post_Office": "Butterworth",
        "State": "Pulau Pinang"
    },
    {
        "Postcode": "12300",
        "Location": "Jalan Kampung Kastam",
        "Post_Office": "Butterworth",
        "State": "Pulau Pinang"
    },
    {
        "Postcode": "12300",
        "Location": "Jalan Mawar",
        "Post_Office": "Butterworth",
        "State": "Pulau Pinang"
    },
    {
        "Postcode": "12300",
        "Location": "Taman Aman Jaya",
        "Post_Office": "Butterworth",
        "State": "Pulau Pinang"
    },
    {
        "Postcode": "12300",
        "Location": "Taman Nilam Tanjung",
        "Post_Office": "Butterworth",
        "State": "Pulau Pinang"
    },
    {
        "Postcode": "12300",
        "Location": "Lorong Dahlia 1",
        "Post_Office": "Butterworth",
        "State": "Pulau Pinang"
    },
    {
        "Postcode": "12300",
        "Location": "Lorong Dahlia 2",
        "Post_Office": "Butterworth",
        "State": "Pulau Pinang"
    },
    {
        "Postcode": "12300",
        "Location": "Lorong Dahlia 3",
        "Post_Office": "Butterworth",
        "State": "Pulau Pinang"
    },
    {
        "Postcode": "12300",
        "Location": "Lorong Dahlia 4",
        "Post_Office": "Butterworth",
        "State": "Pulau Pinang"
    },
    {
        "Postcode": "12300",
        "Location": "Taman Dahlia",
        "Post_Office": "Butterworth",
        "State": "Pulau Pinang"
    },
    {
        "Postcode": "12300",
        "Location": "Taman Riang",
        "Post_Office": "Butterworth",
        "State": "Pulau Pinang"
    },
    {
        "Postcode": "12300",
        "Location": "Taman Seri Tanjung",
        "Post_Office": "Butterworth",
        "State": "Pulau Pinang"
    },
    {
        "Postcode": "12300",
        "Location": "Jalan Bunga Tanjung 1",
        "Post_Office": "Butterworth",
        "State": "Pulau Pinang"
    },
    {
        "Postcode": "12300",
        "Location": "Jalan Bunga Tanjung 2",
        "Post_Office": "Butterworth",
        "State": "Pulau Pinang"
    },
    {
        "Postcode": "12300",
        "Location": "Jalan Bunga Tanjung 3",
        "Post_Office": "Butterworth",
        "State": "Pulau Pinang"
    },
    {
        "Postcode": "12300",
        "Location": "Jalan Bunga Tanjung 4",
        "Post_Office": "Butterworth",
        "State": "Pulau Pinang"
    },
    {
        "Postcode": "12300",
        "Location": "Jalan Bunga Tanjung 5",
        "Post_Office": "Butterworth",
        "State": "Pulau Pinang"
    },
    {
        "Postcode": "12300",
        "Location": "Jalan Bunga Tanjung 6",
        "Post_Office": "Butterworth",
        "State": "Pulau Pinang"
    },
    {
        "Postcode": "12300",
        "Location": "Jalan Bunga Tanjung 7",
        "Post_Office": "Butterworth",
        "State": "Pulau Pinang"
    },
    {
        "Postcode": "12300",
        "Location": "Jalan Pusat Perniagaan Raja Uda 1",
        "Post_Office": "Butterworth",
        "State": "Pulau Pinang"
    },
    {
        "Postcode": "12300",
        "Location": "Jalan Pusat Perniagaan Raja Uda 2",
        "Post_Office": "Butterworth",
        "State": "Pulau Pinang"
    },
    {
        "Postcode": "12300",
        "Location": "Lebuh Riang 1",
        "Post_Office": "Butterworth",
        "State": "Pulau Pinang"
    },
    {
        "Postcode": "12300",
        "Location": "Lebuh Riang 2",
        "Post_Office": "Butterworth",
        "State": "Pulau Pinang"
    },
    {
        "Postcode": "12300",
        "Location": "Lintang Mawar 1",
        "Post_Office": "Butterworth",
        "State": "Pulau Pinang"
    },
    {
        "Postcode": "12300",
        "Location": "Lintang Mawar 2",
        "Post_Office": "Butterworth",
        "State": "Pulau Pinang"
    },
    {
        "Postcode": "12300",
        "Location": "Lintang Mawar 3",
        "Post_Office": "Butterworth",
        "State": "Pulau Pinang"
    },
    {
        "Postcode": "12300",
        "Location": "Lorong Berani 1",
        "Post_Office": "Butterworth",
        "State": "Pulau Pinang"
    },
    {
        "Postcode": "12300",
        "Location": "Lorong Berani 2",
        "Post_Office": "Butterworth",
        "State": "Pulau Pinang"
    },
    {
        "Postcode": "12300",
        "Location": "Lorong Berani 3",
        "Post_Office": "Butterworth",
        "State": "Pulau Pinang"
    },
    {
        "Postcode": "12300",
        "Location": "Lorong Berani 4",
        "Post_Office": "Butterworth",
        "State": "Pulau Pinang"
    },
    {
        "Postcode": "12300",
        "Location": "Lorong Berani 5",
        "Post_Office": "Butterworth",
        "State": "Pulau Pinang"
    },
    {
        "Postcode": "12300",
        "Location": "Lorong Bunga Tanjong 2",
        "Post_Office": "Butterworth",
        "State": "Pulau Pinang"
    },
    {
        "Postcode": "12300",
        "Location": "Lorong Bunga Tanjong 3",
        "Post_Office": "Butterworth",
        "State": "Pulau Pinang"
    },
    {
        "Postcode": "12300",
        "Location": "Lorong Bunga Tanjong 4",
        "Post_Office": "Butterworth",
        "State": "Pulau Pinang"
    },
    {
        "Postcode": "12300",
        "Location": "Lorong Ceri 1",
        "Post_Office": "Butterworth",
        "State": "Pulau Pinang"
    },
    {
        "Postcode": "12300",
        "Location": "Lorong Ceri 10",
        "Post_Office": "Butterworth",
        "State": "Pulau Pinang"
    },
    {
        "Postcode": "12300",
        "Location": "Lorong Ceri 11",
        "Post_Office": "Butterworth",
        "State": "Pulau Pinang"
    },
    {
        "Postcode": "12300",
        "Location": "Lorong Ceri 2",
        "Post_Office": "Butterworth",
        "State": "Pulau Pinang"
    },
    {
        "Postcode": "12300",
        "Location": "Lorong Ceri 3",
        "Post_Office": "Butterworth",
        "State": "Pulau Pinang"
    },
    {
        "Postcode": "12300",
        "Location": "Lorong Ceri 4",
        "Post_Office": "Butterworth",
        "State": "Pulau Pinang"
    },
    {
        "Postcode": "12300",
        "Location": "Lorong Ceri 5",
        "Post_Office": "Butterworth",
        "State": "Pulau Pinang"
    },
    {
        "Postcode": "12300",
        "Location": "Lorong Ceri 6",
        "Post_Office": "Butterworth",
        "State": "Pulau Pinang"
    },
    {
        "Postcode": "12300",
        "Location": "Lorong Ceri 7",
        "Post_Office": "Butterworth",
        "State": "Pulau Pinang"
    },
    {
        "Postcode": "12300",
        "Location": "Lorong Ceri 8",
        "Post_Office": "Butterworth",
        "State": "Pulau Pinang"
    },
    {
        "Postcode": "12300",
        "Location": "Lorong Dahlia 10",
        "Post_Office": "Butterworth",
        "State": "Pulau Pinang"
    },
    {
        "Postcode": "12300",
        "Location": "Lorong Dahlia 11",
        "Post_Office": "Butterworth",
        "State": "Pulau Pinang"
    },
    {
        "Postcode": "12300",
        "Location": "Lorong Dahlia 12",
        "Post_Office": "Butterworth",
        "State": "Pulau Pinang"
    },
    {
        "Postcode": "12300",
        "Location": "Lorong Dahlia 13",
        "Post_Office": "Butterworth",
        "State": "Pulau Pinang"
    },
    {
        "Postcode": "12300",
        "Location": "Lorong Dahlia 14",
        "Post_Office": "Butterworth",
        "State": "Pulau Pinang"
    },
    {
        "Postcode": "12300",
        "Location": "Lorong Dahlia 15",
        "Post_Office": "Butterworth",
        "State": "Pulau Pinang"
    },
    {
        "Postcode": "12300",
        "Location": "Lorong Dahlia 16",
        "Post_Office": "Butterworth",
        "State": "Pulau Pinang"
    },
    {
        "Postcode": "12300",
        "Location": "Lorong Dahlia 17",
        "Post_Office": "Butterworth",
        "State": "Pulau Pinang"
    },
    {
        "Postcode": "12300",
        "Location": "Lorong Dahlia 18",
        "Post_Office": "Butterworth",
        "State": "Pulau Pinang"
    },
    {
        "Postcode": "12300",
        "Location": "Lorong Dahlia 19",
        "Post_Office": "Butterworth",
        "State": "Pulau Pinang"
    },
    {
        "Postcode": "12300",
        "Location": "Lorong Dahlia 20",
        "Post_Office": "Butterworth",
        "State": "Pulau Pinang"
    },
    {
        "Postcode": "12300",
        "Location": "Lorong Dahlia 5",
        "Post_Office": "Butterworth",
        "State": "Pulau Pinang"
    },
    {
        "Postcode": "12300",
        "Location": "Lorong Dahlia 6",
        "Post_Office": "Butterworth",
        "State": "Pulau Pinang"
    },
    {
        "Postcode": "12300",
        "Location": "Lorong Dahlia 7",
        "Post_Office": "Butterworth",
        "State": "Pulau Pinang"
    },
    {
        "Postcode": "12300",
        "Location": "Lorong Dahlia 8",
        "Post_Office": "Butterworth",
        "State": "Pulau Pinang"
    },
    {
        "Postcode": "12300",
        "Location": "Lorong Dahlia 9",
        "Post_Office": "Butterworth",
        "State": "Pulau Pinang"
    },
    {
        "Postcode": "12300",
        "Location": "Lorong Mawar 1",
        "Post_Office": "Butterworth",
        "State": "Pulau Pinang"
    },
    {
        "Postcode": "12300",
        "Location": "Lorong Mawar 2",
        "Post_Office": "Butterworth",
        "State": "Pulau Pinang"
    },
    {
        "Postcode": "12300",
        "Location": "Lorong Melur 1",
        "Post_Office": "Butterworth",
        "State": "Pulau Pinang"
    },
    {
        "Postcode": "12300",
        "Location": "Lorong Melur 10",
        "Post_Office": "Butterworth",
        "State": "Pulau Pinang"
    },
    {
        "Postcode": "12300",
        "Location": "Lorong Melur 11",
        "Post_Office": "Butterworth",
        "State": "Pulau Pinang"
    },
    {
        "Postcode": "12300",
        "Location": "Lorong Melur 12",
        "Post_Office": "Butterworth",
        "State": "Pulau Pinang"
    },
    {
        "Postcode": "12300",
        "Location": "Lorong Melur 13",
        "Post_Office": "Butterworth",
        "State": "Pulau Pinang"
    },
    {
        "Postcode": "12300",
        "Location": "Lorong Melur 14",
        "Post_Office": "Butterworth",
        "State": "Pulau Pinang"
    },
    {
        "Postcode": "12300",
        "Location": "Lorong Melur 15",
        "Post_Office": "Butterworth",
        "State": "Pulau Pinang"
    },
    {
        "Postcode": "12300",
        "Location": "Lorong Melur 16",
        "Post_Office": "Butterworth",
        "State": "Pulau Pinang"
    },
    {
        "Postcode": "12300",
        "Location": "Lorong Melur 2",
        "Post_Office": "Butterworth",
        "State": "Pulau Pinang"
    },
    {
        "Postcode": "12300",
        "Location": "Lorong Melur 3",
        "Post_Office": "Butterworth",
        "State": "Pulau Pinang"
    },
    {
        "Postcode": "12300",
        "Location": "Lorong Melur 4",
        "Post_Office": "Butterworth",
        "State": "Pulau Pinang"
    },
    {
        "Postcode": "12300",
        "Location": "Lorong Melur 5",
        "Post_Office": "Butterworth",
        "State": "Pulau Pinang"
    },
    {
        "Postcode": "12300",
        "Location": "Lorong Melur 6",
        "Post_Office": "Butterworth",
        "State": "Pulau Pinang"
    },
    {
        "Postcode": "12300",
        "Location": "Lorong Melur 7",
        "Post_Office": "Butterworth",
        "State": "Pulau Pinang"
    },
    {
        "Postcode": "12300",
        "Location": "Lorong Melur 8",
        "Post_Office": "Butterworth",
        "State": "Pulau Pinang"
    },
    {
        "Postcode": "12300",
        "Location": "Lorong Melur 9",
        "Post_Office": "Butterworth",
        "State": "Pulau Pinang"
    },
    {
        "Postcode": "12300",
        "Location": "Lorong Perniagaan Melur 1",
        "Post_Office": "Butterworth",
        "State": "Pulau Pinang"
    },
    {
        "Postcode": "12300",
        "Location": "Lorong Perniagaan Melur 2",
        "Post_Office": "Butterworth",
        "State": "Pulau Pinang"
    },
    {
        "Postcode": "12300",
        "Location": "Pintas Berani 1",
        "Post_Office": "Butterworth",
        "State": "Pulau Pinang"
    },
    {
        "Postcode": "12300",
        "Location": "Pintas Berani 2",
        "Post_Office": "Butterworth",
        "State": "Pulau Pinang"
    },
    {
        "Postcode": "12300",
        "Location": "Pintas Berani 3",
        "Post_Office": "Butterworth",
        "State": "Pulau Pinang"
    },
    {
        "Postcode": "12300",
        "Location": "Pintas Berani 4",
        "Post_Office": "Butterworth",
        "State": "Pulau Pinang"
    },
    {
        "Postcode": "12300",
        "Location": "Pintas Berani 5",
        "Post_Office": "Butterworth",
        "State": "Pulau Pinang"
    },
    {
        "Postcode": "12300",
        "Location": "Tingkat Mawar 1",
        "Post_Office": "Butterworth",
        "State": "Pulau Pinang"
    },
    {
        "Postcode": "12300",
        "Location": "Tingkat Mawar 2",
        "Post_Office": "Butterworth",
        "State": "Pulau Pinang"
    },
    {
        "Postcode": "12300",
        "Location": "Tingkat Mawar 3",
        "Post_Office": "Butterworth",
        "State": "Pulau Pinang"
    },
    {
        "Postcode": "12300",
        "Location": "Tingkat Melur 1",
        "Post_Office": "Butterworth",
        "State": "Pulau Pinang"
    },
    {
        "Postcode": "12300",
        "Location": "Tingkat Melur 2",
        "Post_Office": "Butterworth",
        "State": "Pulau Pinang"
    },
    {
        "Postcode": "12300",
        "Location": "Tingkat Melur 3",
        "Post_Office": "Butterworth",
        "State": "Pulau Pinang"
    },
    {
        "Postcode": "12300",
        "Location": "Tingkat Melur 4",
        "Post_Office": "Butterworth",
        "State": "Pulau Pinang"
    },
    {
        "Postcode": "12300",
        "Location": "Tingkat Melur 5",
        "Post_Office": "Butterworth",
        "State": "Pulau Pinang"
    },
    {
        "Postcode": "12300",
        "Location": "Tingkat Melur 6",
        "Post_Office": "Butterworth",
        "State": "Pulau Pinang"
    },
    {
        "Postcode": "12300",
        "Location": "Tingkat Melur 7",
        "Post_Office": "Butterworth",
        "State": "Pulau Pinang"
    },
    {
        "Postcode": "12300",
        "Location": "Gerbang Melor",
        "Post_Office": "Butterworth",
        "State": "Pulau Pinang"
    },
    {
        "Postcode": "12300",
        "Location": "Hala Riang",
        "Post_Office": "Butterworth",
        "State": "Pulau Pinang"
    },
    {
        "Postcode": "12300",
        "Location": "Jalan Chempaka",
        "Post_Office": "Butterworth",
        "State": "Pulau Pinang"
    },
    {
        "Postcode": "12300",
        "Location": "Jalan Jermal",
        "Post_Office": "Butterworth",
        "State": "Pulau Pinang"
    },
    {
        "Postcode": "12300",
        "Location": "Jalan Kemuning",
        "Post_Office": "Butterworth",
        "State": "Pulau Pinang"
    },
    {
        "Postcode": "12300",
        "Location": "Jalan Kilat",
        "Post_Office": "Butterworth",
        "State": "Pulau Pinang"
    },
    {
        "Postcode": "12300",
        "Location": "Jalan Melur",
        "Post_Office": "Butterworth",
        "State": "Pulau Pinang"
    },
    {
        "Postcode": "12300",
        "Location": "Jalan Mohd Saad",
        "Post_Office": "Butterworth",
        "State": "Pulau Pinang"
    },
    {
        "Postcode": "12300",
        "Location": "Jalan Riang",
        "Post_Office": "Butterworth",
        "State": "Pulau Pinang"
    },
    {
        "Postcode": "12300",
        "Location": "Jalan Sinar",
        "Post_Office": "Butterworth",
        "State": "Pulau Pinang"
    },
    {
        "Postcode": "12300",
        "Location": "Jalan Tanjung Jaya 1",
        "Post_Office": "Butterworth",
        "State": "Pulau Pinang"
    },
    {
        "Postcode": "12300",
        "Location": "Kampung Bagan Jermal",
        "Post_Office": "Butterworth",
        "State": "Pulau Pinang"
    },
    {
        "Postcode": "12300",
        "Location": "Kampung Gajah Tepi Laut",
        "Post_Office": "Butterworth",
        "State": "Pulau Pinang"
    },
    {
        "Postcode": "12300",
        "Location": "Kampung Simpah",
        "Post_Office": "Butterworth",
        "State": "Pulau Pinang"
    },
    {
        "Postcode": "12300",
        "Location": "Kondominium Cassia (Blok B)",
        "Post_Office": "Butterworth",
        "State": "Pulau Pinang"
    },
    {
        "Postcode": "12300",
        "Location": "Kubang Buaya",
        "Post_Office": "Butterworth",
        "State": "Pulau Pinang"
    },
    {
        "Postcode": "12300",
        "Location": "Kubang Buaya Tepi Laut",
        "Post_Office": "Butterworth",
        "State": "Pulau Pinang"
    },
    {
        "Postcode": "12300",
        "Location": "Lebuh Melur",
        "Post_Office": "Butterworth",
        "State": "Pulau Pinang"
    },
    {
        "Postcode": "12300",
        "Location": "Lintang Dahlia",
        "Post_Office": "Butterworth",
        "State": "Pulau Pinang"
    },
    {
        "Postcode": "12300",
        "Location": "Lintang Melor",
        "Post_Office": "Butterworth",
        "State": "Pulau Pinang"
    },
    {
        "Postcode": "12300",
        "Location": "Lintang Riang",
        "Post_Office": "Butterworth",
        "State": "Pulau Pinang"
    },
    {
        "Postcode": "12300",
        "Location": "Lorong Jermal Indah",
        "Post_Office": "Butterworth",
        "State": "Pulau Pinang"
    },
    {
        "Postcode": "12300",
        "Location": "Lorong Kastam",
        "Post_Office": "Butterworth",
        "State": "Pulau Pinang"
    },
    {
        "Postcode": "12300",
        "Location": "Lorong Kemuning",
        "Post_Office": "Butterworth",
        "State": "Pulau Pinang"
    },
    {
        "Postcode": "12300",
        "Location": "Lorong Matahari",
        "Post_Office": "Butterworth",
        "State": "Pulau Pinang"
    },
    {
        "Postcode": "12300",
        "Location": "Lorong Melur",
        "Post_Office": "Butterworth",
        "State": "Pulau Pinang"
    },
    {
        "Postcode": "12300",
        "Location": "Lorong Perniagaan Melur",
        "Post_Office": "Butterworth",
        "State": "Pulau Pinang"
    },
    {
        "Postcode": "12300",
        "Location": "Lorong Riang",
        "Post_Office": "Butterworth",
        "State": "Pulau Pinang"
    },
    {
        "Postcode": "12300",
        "Location": "Lorong Tanjung Jaya",
        "Post_Office": "Butterworth",
        "State": "Pulau Pinang"
    },
    {
        "Postcode": "12300",
        "Location": "Medan Kemuning",
        "Post_Office": "Butterworth",
        "State": "Pulau Pinang"
    },
    {
        "Postcode": "12300",
        "Location": "Medan Melor Selatan",
        "Post_Office": "Butterworth",
        "State": "Pulau Pinang"
    },
    {
        "Postcode": "12300",
        "Location": "Medan Melor Utara",
        "Post_Office": "Butterworth",
        "State": "Pulau Pinang"
    },
    {
        "Postcode": "12300",
        "Location": "Medan Riang",
        "Post_Office": "Butterworth",
        "State": "Pulau Pinang"
    },
    {
        "Postcode": "12300",
        "Location": "Pangsapuri Seri Melur",
        "Post_Office": "Butterworth",
        "State": "Pulau Pinang"
    },
    {
        "Postcode": "12300",
        "Location": "Persiaran Riang",
        "Post_Office": "Butterworth",
        "State": "Pulau Pinang"
    },
    {
        "Postcode": "12300",
        "Location": "Pusat Perniagaan Raja Uda",
        "Post_Office": "Butterworth",
        "State": "Pulau Pinang"
    },
    {
        "Postcode": "12300",
        "Location": "Solok Berani",
        "Post_Office": "Butterworth",
        "State": "Pulau Pinang"
    },
    {
        "Postcode": "12300",
        "Location": "Solok Riang",
        "Post_Office": "Butterworth",
        "State": "Pulau Pinang"
    },
    {
        "Postcode": "12300",
        "Location": "Taman Abdul Aziz",
        "Post_Office": "Butterworth",
        "State": "Pulau Pinang"
    },
    {
        "Postcode": "12300",
        "Location": "Taman Anggerik",
        "Post_Office": "Butterworth",
        "State": "Pulau Pinang"
    },
    {
        "Postcode": "12300",
        "Location": "Taman Bagan Jermal",
        "Post_Office": "Butterworth",
        "State": "Pulau Pinang"
    },
    {
        "Postcode": "12300",
        "Location": "Taman Bunga Tanjung",
        "Post_Office": "Butterworth",
        "State": "Pulau Pinang"
    },
    {
        "Postcode": "12300",
        "Location": "Taman Ipoh",
        "Post_Office": "Butterworth",
        "State": "Pulau Pinang"
    },
    {
        "Postcode": "12300",
        "Location": "Taman Jermal Indah",
        "Post_Office": "Butterworth",
        "State": "Pulau Pinang"
    },
    {
        "Postcode": "12300",
        "Location": "Taman Mawar",
        "Post_Office": "Butterworth",
        "State": "Pulau Pinang"
    },
    {
        "Postcode": "12300",
        "Location": "Taman Melor",
        "Post_Office": "Butterworth",
        "State": "Pulau Pinang"
    },
    {
        "Postcode": "12300",
        "Location": "Taman Season",
        "Post_Office": "Butterworth",
        "State": "Pulau Pinang"
    },
    {
        "Postcode": "12300",
        "Location": "Taman Sin Tat",
        "Post_Office": "Butterworth",
        "State": "Pulau Pinang"
    },
    {
        "Postcode": "12300",
        "Location": "Taman Tanjung Jaya",
        "Post_Office": "Butterworth",
        "State": "Pulau Pinang"
    },
    {
        "Postcode": "12300",
        "Location": "Tingkat Berani Dua",
        "Post_Office": "Butterworth",
        "State": "Pulau Pinang"
    },
    {
        "Postcode": "12300",
        "Location": "Tingkat Kampung Kastam",
        "Post_Office": "Butterworth",
        "State": "Pulau Pinang"
    },
    {
        "Postcode": "12300",
        "Location": "Tingkat Kemuning",
        "Post_Office": "Butterworth",
        "State": "Pulau Pinang"
    },
    {
        "Postcode": "12300",
        "Location": "Tingkat Melur",
        "Post_Office": "Butterworth",
        "State": "Pulau Pinang"
    },
    {
        "Postcode": "12300",
        "Location": "Tingkat Riang",
        "Post_Office": "Butterworth",
        "State": "Pulau Pinang"
    },
    {
        "Postcode": "12300",
        "Location": "Vista Perdana Jalan Bagan Jermal",
        "Post_Office": "Butterworth",
        "State": "Pulau Pinang"
    }
]
