[
    {
        "Postcode": "79100",
        "Location": "Taman Bukit Indah",
        "Post_Office": "Iskandar Puteri",
        "State": "Johor"
    },
    {
        "Postcode": "79100",
        "Location": "Taman Serimbun",
        "Post_Office": "Iskandar Puteri",
        "State": "Johor"
    },
    {
        "Postcode": "79100",
        "Location": "Taman Eco Botani",
        "Post_Office": "Iskandar Puteri",
        "State": "Johor"
    },
    {
        "Postcode": "79100",
        "Location": "Taman Nusa Sentral",
        "Post_Office": "Iskandar Puteri",
        "State": "Johor"
    },
    {
        "Postcode": "79100",
        "Location": "Horizon Hills",
        "Post_Office": "Iskandar Puteri",
        "State": "Johor"
    },
    {
        "Postcode": "79100",
        "Location": "Pengkalan Puteri",
        "Post_Office": "Iskandar Puteri",
        "State": "Johor"
    },
    {
        "Postcode": "79100",
        "Location": "Taman Kesihatan Afiat",
        "Post_Office": "Iskandar Puteri",
        "State": "Johor"
    },
    {
        "Postcode": "79100",
        "Location": "Taman Nusa Idaman",
        "Post_Office": "Iskandar Puteri",
        "State": "Johor"
    },
    {
        "Postcode": "79100",
        "Location": "Taman Nusa Indah",
        "Post_Office": "Iskandar Puteri",
        "State": "Johor"
    },
    {
        "Postcode": "79100",
        "Location": "Taman Nusa Indah Tropicana",
        "Post_Office": "Iskandar Puteri",
        "State": "Johor"
    },
    {
        "Postcode": "79100",
        "Location": "Ipd Iskandar Puteri",
        "Post_Office": "Iskandar Puteri",
        "State": "Johor"
    }
]
