[
    {
        "Postcode": "79150",
        "Location": "Taman Perindustrian Nusajaya 2",
        "Post_Office": "Iskandar Puteri",
        "State": "Johor"
    },
    {
        "Postcode": "79150",
        "Location": "Bestari Heights",
        "Post_Office": "Iskandar Puteri",
        "State": "Johor"
    },
    {
        "Postcode": "79150",
        "Location": "Taman Nusa Bistari",
        "Post_Office": "Iskandar Puteri",
        "State": "Johor"
    },
    {
        "Postcode": "79150",
        "Location": "Taman Nusa Bestari",
        "Post_Office": "Iskandar Puteri",
        "State": "Johor"
    },
    {
        "Postcode": "79150",
        "Location": "Taman Nusa Bestari 2",
        "Post_Office": "Iskandar Puteri",
        "State": "Johor"
    },
    {
        "Postcode": "79150",
        "Location": "Taman Nusa Bestari Jaya",
        "Post_Office": "Iskandar Puteri",
        "State": "Johor"
    },
    {
        "Postcode": "79150",
        "Location": "Taman Nusa Duta",
        "Post_Office": "Iskandar Puteri",
        "State": "Johor"
    },
    {
        "Postcode": "79150",
        "Location": "Taman Nusa Jaya Mas",
        "Post_Office": "Iskandar Puteri",
        "State": "Johor"
    }
]
