[
    {
        "Postcode": "79200",
        "Location": "Taman Emas",
        "Post_Office": "Iskandar Puteri",
        "State": "Johor"
    },
    {
        "Postcode": "79200",
        "Location": "Taman Perindustrian Nusa Cemerlang ",
        "Post_Office": "Iskandar Puteri",
        "State": "Johor"
    },
    {
        "Postcode": "79200",
        "Location": "Kawasan Perindustrian Silc",
        "Post_Office": "Iskandar Puteri",
        "State": "Johor"
    },
    {
        "Postcode": "79200",
        "Location": "Nusajaya Tech Park",
        "Post_Office": "Iskandar Puteri",
        "State": "Johor"
    },
    {
        "Postcode": "79200",
        "Location": "Taman Laman Setia",
        "Post_Office": "Iskandar Puteri",
        "State": "Johor"
    },
    {
        "Postcode": "79200",
        "Location": "Taman Nusa Printis 2",
        "Post_Office": "Iskandar Puteri",
        "State": "Johor"
    },
    {
        "Postcode": "79200",
        "Location": "Taman Perindustrian Nusa Printis",
        "Post_Office": "Iskandar Puteri",
        "State": "Johor"
    },
    {
        "Postcode": "79200",
        "Location": "Taman Perindustrian Nusajaya",
        "Post_Office": "Iskandar Puteri",
        "State": "Johor"
    },
    {
        "Postcode": "79200",
        "Location": "Laman Aspira",
        "Post_Office": "Iskandar Puteri",
        "State": "Johor"
    },
    {
        "Postcode": "79200",
        "Location": "Kota Ilmu Educity@Iskandar",
        "Post_Office": "Iskandar Puteri",
        "State": "Johor"
    },
    {
        "Postcode": "79200",
        "Location": "Gerbang Nusajaya",
        "Post_Office": "Iskandar Puteri",
        "State": "Johor"
    },
    {
        "Postcode": "79200",
        "Location": "Multimedia Universiti (Mmu)",
        "Post_Office": "Iskandar Puteri",
        "State": "Johor"
    },
    {
        "Postcode": "79200",
        "Location": "Nusa Cemerlang",
        "Post_Office": "Iskandar Puteri",
        "State": "Johor"
    },
    {
        "Postcode": "79200",
        "Location": "Perindustrian Nusa Jaya",
        "Post_Office": "Iskandar Puteri",
        "State": "Johor"
    },
    {
        "Postcode": "79200",
        "Location": "Perumahan Kerajaan",
        "Post_Office": "Iskandar Puteri",
        "State": "Johor"
    },
    {
        "Postcode": "79200",
        "Location": "Rumah Iskandar Malaysia",
        "Post_Office": "Iskandar Puteri",
        "State": "Johor"
    },
    {
        "Postcode": "79200",
        "Location": "Southern Industrial \u0026 Logistics Clusters",
        "Post_Office": "Iskandar Puteri",
        "State": "Johor"
    },
    {
        "Postcode": "79200",
        "Location": "Taman Industri Nusaya 1",
        "Post_Office": "Iskandar Puteri",
        "State": "Johor"
    },
    {
        "Postcode": "79200",
        "Location": "Taman Nusa Cemerlang Industrial Park",
        "Post_Office": "Iskandar Puteri",
        "State": "Johor"
    },
    {
        "Postcode": "79200",
        "Location": "Taman Nusa Perdana",
        "Post_Office": "Iskandar Puteri",
        "State": "Johor"
    },
    {
        "Postcode": "79200",
        "Location": "Taman Nusa Perintis",
        "Post_Office": "Iskandar Puteri",
        "State": "Johor"
    },
    {
        "Postcode": "79200",
        "Location": "Taman Nusa Perintis 1",
        "Post_Office": "Iskandar Puteri",
        "State": "Johor"
    },
    {
        "Postcode": "79200",
        "Location": "Taman Nusa Perintis 2",
        "Post_Office": "Iskandar Puteri",
        "State": "Johor"
    },
    {
        "Postcode": "79200",
        "Location": "Taman Nusa Perintis 3",
        "Post_Office": "Iskandar Puteri",
        "State": "Johor"
    },
    {
        "Postcode": "79200",
        "Location": "Taman Nusantara Prima",
        "Post_Office": "Iskandar Puteri",
        "State": "Johor"
    },
    {
        "Postcode": "79200",
        "Location": "Taman Teknologi Nusajaya",
        "Post_Office": "Iskandar Puteri",
        "State": "Johor"
    },
    {
        "Postcode": "79200",
        "Location": "Taman Edisi ",
        "Post_Office": "Iskandar Puteri",
        "State": "Johor"
    },
    {
        "Postcode": "79200",
        "Location": "Stadium Sultan Ibrahim",
        "Post_Office": "Iskandar Puteri",
        "State": "Johor"
    },
    {
        "Postcode": "79200",
        "Location": "Taman Akademi",
        "Post_Office": "Iskandar Puteri",
        "State": "Johor"
    },
    {
        "Postcode": "79200",
        "Location": "Kampung Melayu",
        "Post_Office": "Iskandar Puteri",
        "State": "Johor"
    },
    {
        "Postcode": "79200",
        "Location": "Taman Nusantara",
        "Post_Office": "Iskandar Puteri",
        "State": "Johor"
    },
    {
        "Postcode": "79200",
        "Location": "Taman Edisi",
        "Post_Office": "Iskandar Puteri",
        "State": "Johor"
    }
]
