[
    {
        "Postcode": "79250",
        "Location": "Ledang East",
        "Post_Office": "Iskandar Puteri",
        "State": "Johor"
    },
    {
        "Postcode": "79250",
        "Location": "Bandar Medini Iskandar Malaysia",
        "Post_Office": "Iskandar Puteri",
        "State": "Johor"
    },
    {
        "Postcode": "79250",
        "Location": "Centre Ledang Heights",
        "Post_Office": "Iskandar Puteri",
        "State": "Johor"
    },
    {
        "Postcode": "79250",
        "Location": "East Ledang",
        "Post_Office": "Iskandar Puteri",
        "State": "Johor"
    },
    {
        "Postcode": "79250",
        "Location": "Jalan Medini Utara 8",
        "Post_Office": "Iskandar Puteri",
        "State": "Johor"
    },
    {
        "Postcode": "79250",
        "Location": "Kompleks Kastam (Ciq)",
        "Post_Office": "Iskandar Puteri",
        "State": "Johor"
    },
    {
        "Postcode": "79250",
        "Location": "Ledang Heights",
        "Post_Office": "Iskandar Puteri",
        "State": "Johor"
    },
    {
        "Postcode": "79250",
        "Location": "Ledang Heights 1",
        "Post_Office": "Iskandar Puteri",
        "State": "Johor"
    },
    {
        "Postcode": "79250",
        "Location": "Ledang Heights 2",
        "Post_Office": "Iskandar Puteri",
        "State": "Johor"
    },
    {
        "Postcode": "79250",
        "Location": "Persiaran Medini Sentral 1",
        "Post_Office": "Iskandar Puteri",
        "State": "Johor"
    },
    {
        "Postcode": "79250",
        "Location": "Pusat Perdagangan Ion Medini 1",
        "Post_Office": "Iskandar Puteri",
        "State": "Johor"
    },
    {
        "Postcode": "79250",
        "Location": "Pusat Perdagangan Ion Medini 2",
        "Post_Office": "Iskandar Puteri",
        "State": "Johor"
    },
    {
        "Postcode": "79250",
        "Location": "Pusat Perdagangan Ion Medini 3",
        "Post_Office": "Iskandar Puteri",
        "State": "Johor"
    },
    {
        "Postcode": "79250",
        "Location": "Pusat Perdagangan Ion Medini 4",
        "Post_Office": "Iskandar Puteri",
        "State": "Johor"
    },
    {
        "Postcode": "79250",
        "Location": "Pusat Komersial Visi Medini",
        "Post_Office": "Iskandar Puteri",
        "State": "Johor"
    },
    {
        "Postcode": "79250",
        "Location": "Bandar Budaya Antarabangsa",
        "Post_Office": "Iskandar Puteri",
        "State": "Johor"
    },
    {
        "Postcode": "79250",
        "Location": "Sunway City Iskandar Puteri",
        "Post_Office": "Iskandar Puteri",
        "State": "Johor"
    }
]
