[
    {
        "Postcode": "70000",
        "Location": "Bukit Lemon",
        "Post_Office": "Seremban",
        "State": "Negeri Sembilan"
    },
    {
        "Postcode": "70000",
        "Location": "Medan Suria",
        "Post_Office": "Seremban",
        "State": "Negeri Sembilan"
    },
    {
        "Postcode": "70000",
        "Location": "Templer Business Park",
        "Post_Office": "Seremban",
        "State": "Negeri Sembilan"
    },
    {
        "Postcode": "70000",
        "Location": "Jalan Prima 1",
        "Post_Office": "Seremban",
        "State": "Negeri Sembilan"
    },
    {
        "Postcode": "70000",
        "Location": "Bangunan Yayasan Negeri Sembilan",
        "Post_Office": "Seremban",
        "State": "Negeri Sembilan"
    },
    {
        "Postcode": "70000",
        "Location": "Jalan Bandar Tunggal",
        "Post_Office": "Seremban",
        "State": "Negeri Sembilan"
    },
    {
        "Postcode": "70000",
        "Location": "Jalan Bathurst",
        "Post_Office": "Seremban",
        "State": "Negeri Sembilan"
    },
    {
        "Postcode": "70000",
        "Location": "Jalan Berhala",
        "Post_Office": "Seremban",
        "State": "Negeri Sembilan"
    },
    {
        "Postcode": "70000",
        "Location": "Jalan Bukit Lemon",
        "Post_Office": "Seremban",
        "State": "Negeri Sembilan"
    },
    {
        "Postcode": "70000",
        "Location": "Jalan Campbell",
        "Post_Office": "Seremban",
        "State": "Negeri Sembilan"
    },
    {
        "Postcode": "70000",
        "Location": "Jalan Dato Abdul Kadir",
        "Post_Office": "Seremban",
        "State": "Negeri Sembilan"
    },
    {
        "Postcode": "70000",
        "Location": "Jalan Dato Abdul Malek",
        "Post_Office": "Seremban",
        "State": "Negeri Sembilan"
    },
    {
        "Postcode": "70000",
        "Location": "Jalan Dato Abdul Rahman",
        "Post_Office": "Seremban",
        "State": "Negeri Sembilan"
    },
    {
        "Postcode": "70000",
        "Location": "Jalan Dato Bandar Tunggal",
        "Post_Office": "Seremban",
        "State": "Negeri Sembilan"
    },
    {
        "Postcode": "70000",
        "Location": "Jalan Dato Hamzah",
        "Post_Office": "Seremban",
        "State": "Negeri Sembilan"
    },
    {
        "Postcode": "70000",
        "Location": "Jalan Dato Lee Fong Yee",
        "Post_Office": "Seremban",
        "State": "Negeri Sembilan"
    },
    {
        "Postcode": "70000",
        "Location": "Jalan Dato Sheikh Ahmad",
        "Post_Office": "Seremban",
        "State": "Negeri Sembilan"
    },
    {
        "Postcode": "70000",
        "Location": "Jalan Dr Krishnan",
        "Post_Office": "Seremban",
        "State": "Negeri Sembilan"
    },
    {
        "Postcode": "70000",
        "Location": "Jalan Dr Murugesu",
        "Post_Office": "Seremban",
        "State": "Negeri Sembilan"
    },
    {
        "Postcode": "70000",
        "Location": "Jalan Dr Samuel",
        "Post_Office": "Seremban",
        "State": "Negeri Sembilan"
    },
    {
        "Postcode": "70000",
        "Location": "Jalan Kapitan Tam Yeong",
        "Post_Office": "Seremban",
        "State": "Negeri Sembilan"
    },
    {
        "Postcode": "70000",
        "Location": "Jalan Kong Sang",
        "Post_Office": "Seremban",
        "State": "Negeri Sembilan"
    },
    {
        "Postcode": "70000",
        "Location": "Jalan Lee Fong Yee",
        "Post_Office": "Seremban",
        "State": "Negeri Sembilan"
    },
    {
        "Postcode": "70000",
        "Location": "Jalan Lee Sam",
        "Post_Office": "Seremban",
        "State": "Negeri Sembilan"
    },
    {
        "Postcode": "70000",
        "Location": "Jalan Liat",
        "Post_Office": "Seremban",
        "State": "Negeri Sembilan"
    },
    {
        "Postcode": "70000",
        "Location": "Jalan Lim Kee Siong",
        "Post_Office": "Seremban",
        "State": "Negeri Sembilan"
    },
    {
        "Postcode": "70000",
        "Location": "Jalan Lintang",
        "Post_Office": "Seremban",
        "State": "Negeri Sembilan"
    },
    {
        "Postcode": "70000",
        "Location": "Jalan Nunis (Jalan Locke)",
        "Post_Office": "Seremban",
        "State": "Negeri Sembilan"
    },
    {
        "Postcode": "70000",
        "Location": "Jalan Pasar",
        "Post_Office": "Seremban",
        "State": "Negeri Sembilan"
    },
    {
        "Postcode": "70000",
        "Location": "Jalan Raja Ali",
        "Post_Office": "Seremban",
        "State": "Negeri Sembilan"
    },
    {
        "Postcode": "70000",
        "Location": "Jalan Sheikh Ahmad",
        "Post_Office": "Seremban",
        "State": "Negeri Sembilan"
    },
    {
        "Postcode": "70000",
        "Location": "Jalan Siow Loong Hin",
        "Post_Office": "Seremban",
        "State": "Negeri Sembilan"
    },
    {
        "Postcode": "70000",
        "Location": "Jalan Tuanku Munawir",
        "Post_Office": "Seremban",
        "State": "Negeri Sembilan"
    },
    {
        "Postcode": "70000",
        "Location": "Jalan Tunku Hassan",
        "Post_Office": "Seremban",
        "State": "Negeri Sembilan"
    },
    {
        "Postcode": "70000",
        "Location": "Jalan Utam Singh",
        "Post_Office": "Seremban",
        "State": "Negeri Sembilan"
    },
    {
        "Postcode": "70000",
        "Location": "Jalan Wolff",
        "Post_Office": "Seremban",
        "State": "Negeri Sembilan"
    },
    {
        "Postcode": "70000",
        "Location": "Jalan Yam Tuan",
        "Post_Office": "Seremban",
        "State": "Negeri Sembilan"
    },
    {
        "Postcode": "70000",
        "Location": "Taman Selera",
        "Post_Office": "Seremban",
        "State": "Negeri Sembilan"
    },
    {
        "Postcode": "70000",
        "Location": "Taman Sim",
        "Post_Office": "Seremban",
        "State": "Negeri Sembilan"
    },
    {
        "Postcode": "70000",
        "Location": "Wisma Negeri",
        "Post_Office": "Seremban",
        "State": "Negeri Sembilan"
    },
    {
        "Postcode": "70000",
        "Location": "Wisma Persekutuan",
        "Post_Office": "Seremban",
        "State": "Negeri Sembilan"
    },
    {
        "Postcode": "70000",
        "Location": "Lorong Java 1",
        "Post_Office": "Seremban",
        "State": "Negeri Sembilan"
    },
    {
        "Postcode": "70000",
        "Location": "Lorong Java 2",
        "Post_Office": "Seremban",
        "State": "Negeri Sembilan"
    }
]
