[
    {
        "Postcode": "70300",
        "Location": "Bukit Rasah",
        "Post_Office": "Seremban",
        "State": "Negeri Sembilan"
    },
    {
        "Postcode": "70300",
        "Location": "Ceb Site Garden",
        "Post_Office": "Seremban",
        "State": "Negeri Sembilan"
    },
    {
        "Postcode": "70300",
        "Location": "Centre Park Seremban 2",
        "Post_Office": "Seremban",
        "State": "Negeri Sembilan"
    },
    {
        "Postcode": "70300",
        "Location": "Garden City Homes",
        "Post_Office": "Seremban",
        "State": "Negeri Sembilan"
    },
    {
        "Postcode": "70300",
        "Location": "Jalan Bukit Rasah",
        "Post_Office": "Seremban",
        "State": "Negeri Sembilan"
    },
    {
        "Postcode": "70300",
        "Location": "Jalan Bukit Tembok",
        "Post_Office": "Seremban",
        "State": "Negeri Sembilan"
    },
    {
        "Postcode": "70300",
        "Location": "Jalan Dr Muthu",
        "Post_Office": "Seremban",
        "State": "Negeri Sembilan"
    },
    {
        "Postcode": "70300",
        "Location": "Jalan Good Yard",
        "Post_Office": "Seremban",
        "State": "Negeri Sembilan"
    },
    {
        "Postcode": "70300",
        "Location": "Jalan Hill",
        "Post_Office": "Seremban",
        "State": "Negeri Sembilan"
    },
    {
        "Postcode": "70300",
        "Location": "Jalan Kuala Sawah",
        "Post_Office": "Seremban",
        "State": "Negeri Sembilan"
    },
    {
        "Postcode": "70300",
        "Location": "Jalan Locoshed",
        "Post_Office": "Seremban",
        "State": "Negeri Sembilan"
    },
    {
        "Postcode": "70300",
        "Location": "Jalan Osman",
        "Post_Office": "Seremban",
        "State": "Negeri Sembilan"
    },
    {
        "Postcode": "70300",
        "Location": "Jalan Port Dickson ",
        "Post_Office": "Seremban",
        "State": "Negeri Sembilan"
    },
    {
        "Postcode": "70300",
        "Location": "Jalan Rasah",
        "Post_Office": "Seremban",
        "State": "Negeri Sembilan"
    },
    {
        "Postcode": "70300",
        "Location": "Jalan Seremban - Port Dickson (Km 4 - 4.5)",
        "Post_Office": "Seremban",
        "State": "Negeri Sembilan"
    },
    {
        "Postcode": "70300",
        "Location": "Jalan Ulu Ara ",
        "Post_Office": "Seremban",
        "State": "Negeri Sembilan"
    },
    {
        "Postcode": "70300",
        "Location": "Jalan Yusof",
        "Post_Office": "Seremban",
        "State": "Negeri Sembilan"
    },
    {
        "Postcode": "70300",
        "Location": "Kampung Baru Mambau",
        "Post_Office": "Seremban",
        "State": "Negeri Sembilan"
    },
    {
        "Postcode": "70300",
        "Location": "Kampung Baru Rasah",
        "Post_Office": "Seremban",
        "State": "Negeri Sembilan"
    },
    {
        "Postcode": "70300",
        "Location": "Kampung Bukit Chedang",
        "Post_Office": "Seremban",
        "State": "Negeri Sembilan"
    },
    {
        "Postcode": "70300",
        "Location": "Kampung Kayu Ara Hilir",
        "Post_Office": "Seremban",
        "State": "Negeri Sembilan"
    },
    {
        "Postcode": "70300",
        "Location": "Kampung Mantau",
        "Post_Office": "Seremban",
        "State": "Negeri Sembilan"
    },
    {
        "Postcode": "70300",
        "Location": "Kampung Mawar",
        "Post_Office": "Seremban",
        "State": "Negeri Sembilan"
    },
    {
        "Postcode": "70300",
        "Location": "Kampung Melayu Rasah",
        "Post_Office": "Seremban",
        "State": "Negeri Sembilan"
    },
    {
        "Postcode": "70300",
        "Location": "Kampung Puchong",
        "Post_Office": "Seremban",
        "State": "Negeri Sembilan"
    },
    {
        "Postcode": "70300",
        "Location": "Kampung Ulu Ara",
        "Post_Office": "Seremban",
        "State": "Negeri Sembilan"
    },
    {
        "Postcode": "70300",
        "Location": "Kem Rasah",
        "Post_Office": "Seremban",
        "State": "Negeri Sembilan"
    },
    {
        "Postcode": "70300",
        "Location": "Ladang Shanghai",
        "Post_Office": "Seremban",
        "State": "Negeri Sembilan"
    },
    {
        "Postcode": "70300",
        "Location": "Lake View Square",
        "Post_Office": "Seremban",
        "State": "Negeri Sembilan"
    },
    {
        "Postcode": "70300",
        "Location": "Oakland Industrial Park",
        "Post_Office": "Seremban",
        "State": "Negeri Sembilan"
    },
    {
        "Postcode": "70300",
        "Location": "Park Avenue",
        "Post_Office": "Seremban",
        "State": "Negeri Sembilan"
    },
    {
        "Postcode": "70300",
        "Location": "Rasah Kemayan Seremban 2",
        "Post_Office": "Seremban",
        "State": "Negeri Sembilan"
    },
    {
        "Postcode": "70300",
        "Location": "Rumah Murah Mambau",
        "Post_Office": "Seremban",
        "State": "Negeri Sembilan"
    },
    {
        "Postcode": "70300",
        "Location": "Seremban 3",
        "Post_Office": "Seremban",
        "State": "Negeri Sembilan"
    },
    {
        "Postcode": "70300",
        "Location": "Taman Anggor Jaya",
        "Post_Office": "Seremban",
        "State": "Negeri Sembilan"
    },
    {
        "Postcode": "70300",
        "Location": "Taman Angsamas",
        "Post_Office": "Seremban",
        "State": "Negeri Sembilan"
    },
    {
        "Postcode": "70300",
        "Location": "Taman Arowana Indah",
        "Post_Office": "Seremban",
        "State": "Negeri Sembilan"
    },
    {
        "Postcode": "70300",
        "Location": "Taman Belida",
        "Post_Office": "Seremban",
        "State": "Negeri Sembilan"
    },
    {
        "Postcode": "70300",
        "Location": "Taman Bukit Marlin",
        "Post_Office": "Seremban",
        "State": "Negeri Sembilan"
    },
    {
        "Postcode": "70300",
        "Location": "Taman Bukit Rasah",
        "Post_Office": "Seremban",
        "State": "Negeri Sembilan"
    },
    {
        "Postcode": "70300",
        "Location": "Taman Desa Rasah",
        "Post_Office": "Seremban",
        "State": "Negeri Sembilan"
    },
    {
        "Postcode": "70300",
        "Location": "Taman Guru Rasah",
        "Post_Office": "Seremban",
        "State": "Negeri Sembilan"
    },
    {
        "Postcode": "70300",
        "Location": "Taman Happy",
        "Post_Office": "Seremban",
        "State": "Negeri Sembilan"
    },
    {
        "Postcode": "70300",
        "Location": "Taman Harapan Baru",
        "Post_Office": "Seremban",
        "State": "Negeri Sembilan"
    },
    {
        "Postcode": "70300",
        "Location": "Taman Ho",
        "Post_Office": "Seremban",
        "State": "Negeri Sembilan"
    },
    {
        "Postcode": "70300",
        "Location": "Taman Kelab Tuanku",
        "Post_Office": "Seremban",
        "State": "Negeri Sembilan"
    },
    {
        "Postcode": "70300",
        "Location": "Taman Kok Ann",
        "Post_Office": "Seremban",
        "State": "Negeri Sembilan"
    },
    {
        "Postcode": "70300",
        "Location": "Taman Lian",
        "Post_Office": "Seremban",
        "State": "Negeri Sembilan"
    },
    {
        "Postcode": "70300",
        "Location": "Taman Limau Emas",
        "Post_Office": "Seremban",
        "State": "Negeri Sembilan"
    },
    {
        "Postcode": "70300",
        "Location": "Taman Mambau",
        "Post_Office": "Seremban",
        "State": "Negeri Sembilan"
    },
    {
        "Postcode": "70300",
        "Location": "Taman Mambau Baru",
        "Post_Office": "Seremban",
        "State": "Negeri Sembilan"
    },
    {
        "Postcode": "70300",
        "Location": "Taman Mambau Jaya",
        "Post_Office": "Seremban",
        "State": "Negeri Sembilan"
    },
    {
        "Postcode": "70300",
        "Location": "Taman Mantau Indah",
        "Post_Office": "Seremban",
        "State": "Negeri Sembilan"
    },
    {
        "Postcode": "70300",
        "Location": "Taman Negeri (Rasah)",
        "Post_Office": "Seremban",
        "State": "Negeri Sembilan"
    },
    {
        "Postcode": "70300",
        "Location": "Taman Patin Indah",
        "Post_Office": "Seremban",
        "State": "Negeri Sembilan"
    },
    {
        "Postcode": "70300",
        "Location": "Taman Rasah",
        "Post_Office": "Seremban",
        "State": "Negeri Sembilan"
    },
    {
        "Postcode": "70300",
        "Location": "Taman Rasah Jaya",
        "Post_Office": "Seremban",
        "State": "Negeri Sembilan"
    },
    {
        "Postcode": "70300",
        "Location": "Taman Rasah Jaya Utama",
        "Post_Office": "Seremban",
        "State": "Negeri Sembilan"
    },
    {
        "Postcode": "70300",
        "Location": "Taman Rasah Utama",
        "Post_Office": "Seremban",
        "State": "Negeri Sembilan"
    },
    {
        "Postcode": "70300",
        "Location": "Taman Serenggam",
        "Post_Office": "Seremban",
        "State": "Negeri Sembilan"
    },
    {
        "Postcode": "70300",
        "Location": "Taman Seri Putih",
        "Post_Office": "Seremban",
        "State": "Negeri Sembilan"
    },
    {
        "Postcode": "70300",
        "Location": "Taman Sungai Ujong",
        "Post_Office": "Seremban",
        "State": "Negeri Sembilan"
    },
    {
        "Postcode": "70300",
        "Location": "Taman Yuen Lian",
        "Post_Office": "Seremban",
        "State": "Negeri Sembilan"
    },
    {
        "Postcode": "70300",
        "Location": "Taman Zaharah",
        "Post_Office": "Seremban",
        "State": "Negeri Sembilan"
    },
    {
        "Postcode": "70300",
        "Location": "Central Park",
        "Post_Office": "Seremban",
        "State": "Negeri Sembilan"
    },
    {
        "Postcode": "70300",
        "Location": "Emerald Park ",
        "Post_Office": "Seremban",
        "State": "Negeri Sembilan"
    },
    {
        "Postcode": "70300",
        "Location": "Garden Avenue ",
        "Post_Office": "Seremban",
        "State": "Negeri Sembilan"
    },
    {
        "Postcode": "70300",
        "Location": "Garden Homes ",
        "Post_Office": "Seremban",
        "State": "Negeri Sembilan"
    },
    {
        "Postcode": "70300",
        "Location": "Seremban 2",
        "Post_Office": "Seremban",
        "State": "Negeri Sembilan"
    },
    {
        "Postcode": "70300",
        "Location": "Sri Carcosa ",
        "Post_Office": "Seremban",
        "State": "Negeri Sembilan"
    },
    {
        "Postcode": "70300",
        "Location": "Taman Bukit Belida ",
        "Post_Office": "Seremban",
        "State": "Negeri Sembilan"
    },
    {
        "Postcode": "70300",
        "Location": "Taman Bukit Chedang",
        "Post_Office": "Seremban",
        "State": "Negeri Sembilan"
    },
    {
        "Postcode": "70300",
        "Location": "Taman Mambau Heights",
        "Post_Office": "Seremban",
        "State": "Negeri Sembilan"
    },
    {
        "Postcode": "70300",
        "Location": "Vision Homes ",
        "Post_Office": "Seremban",
        "State": "Negeri Sembilan"
    },
    {
        "Postcode": "70300",
        "Location": "Pusat Komersial Rasah Prima",
        "Post_Office": "Seremban",
        "State": "Negeri Sembilan"
    },
    {
        "Postcode": "70300",
        "Location": "Rimbun Impian",
        "Post_Office": "Seremban",
        "State": "Negeri Sembilan"
    },
    {
        "Postcode": "70300",
        "Location": "Rimbun Jasmin",
        "Post_Office": "Seremban",
        "State": "Negeri Sembilan"
    },
    {
        "Postcode": "70300",
        "Location": "Medan Selera Qastalani",
        "Post_Office": "Seremban",
        "State": "Negeri Sembilan"
    },
    {
        "Postcode": "70300",
        "Location": "Jalan Nuri Indah 22/1",
        "Post_Office": "Seremban",
        "State": "Negeri Sembilan"
    },
    {
        "Postcode": "70300",
        "Location": "Taman Nuri Indah",
        "Post_Office": "Seremban",
        "State": "Negeri Sembilan"
    },
    {
        "Postcode": "70300",
        "Location": "Taman Koi Tropika",
        "Post_Office": "Seremban",
        "State": "Negeri Sembilan"
    },
    {
        "Postcode": "70300",
        "Location": "Taman Rimbun Harapan",
        "Post_Office": "Seremban",
        "State": "Negeri Sembilan"
    },
    {
        "Postcode": "70300",
        "Location": "Persiaran Rimbun Harapan",
        "Post_Office": "Seremban",
        "State": "Negeri Sembilan"
    },
    {
        "Postcode": "70300",
        "Location": "Jalan Rimbun Harapan 1",
        "Post_Office": "Seremban",
        "State": "Negeri Sembilan"
    },
    {
        "Postcode": "70300",
        "Location": "Jalan Rimbun Harapan 2",
        "Post_Office": "Seremban",
        "State": "Negeri Sembilan"
    },
    {
        "Postcode": "70300",
        "Location": "Jalan Rimbun Harapan 3",
        "Post_Office": "Seremban",
        "State": "Negeri Sembilan"
    },
    {
        "Postcode": "70300",
        "Location": "Jalan Rimbun Harapan 4",
        "Post_Office": "Seremban",
        "State": "Negeri Sembilan"
    },
    {
        "Postcode": "70300",
        "Location": "Jalan Rimbun Harapan 5",
        "Post_Office": "Seremban",
        "State": "Negeri Sembilan"
    },
    {
        "Postcode": "70300",
        "Location": "Jalan Rimbun Harapan 6",
        "Post_Office": "Seremban",
        "State": "Negeri Sembilan"
    },
    {
        "Postcode": "70300",
        "Location": "Jalan Rimbun Harapan 7",
        "Post_Office": "Seremban",
        "State": "Negeri Sembilan"
    },
    {
        "Postcode": "70300",
        "Location": "Jalan Rimbun Harapan 8",
        "Post_Office": "Seremban",
        "State": "Negeri Sembilan"
    },
    {
        "Postcode": "70300",
        "Location": "Jalan Rimbun Harapan 9",
        "Post_Office": "Seremban",
        "State": "Negeri Sembilan"
    },
    {
        "Postcode": "70300",
        "Location": "Jalan Rimbun Harapan 10",
        "Post_Office": "Seremban",
        "State": "Negeri Sembilan"
    },
    {
        "Postcode": "70300",
        "Location": "S2 Height",
        "Post_Office": "Seremban",
        "State": "Negeri Sembilan"
    },
    {
        "Postcode": "70300",
        "Location": "Taman Arowana Impian",
        "Post_Office": "Seremban",
        "State": "Negeri Sembilan"
    },
    {
        "Postcode": "70300",
        "Location": "Kampung Bemban",
        "Post_Office": "Seremban",
        "State": "Negeri Sembilan"
    },
    {
        "Postcode": "70300",
        "Location": "Kampung Kayu Ara",
        "Post_Office": "Seremban",
        "State": "Negeri Sembilan"
    },
    {
        "Postcode": "70300",
        "Location": "Kampung Masjid",
        "Post_Office": "Seremban",
        "State": "Negeri Sembilan"
    },
    {
        "Postcode": "70300",
        "Location": "Taman Bunga Raya",
        "Post_Office": "Seremban",
        "State": "Negeri Sembilan"
    },
    {
        "Postcode": "70300",
        "Location": "Taman Megah",
        "Post_Office": "Seremban",
        "State": "Negeri Sembilan"
    },
    {
        "Postcode": "70300",
        "Location": "Taman Ban Aik",
        "Post_Office": "Seremban",
        "State": "Negeri Sembilan"
    },
    {
        "Postcode": "70300",
        "Location": "Taman Mok Sum",
        "Post_Office": "Seremban",
        "State": "Negeri Sembilan"
    },
    {
        "Postcode": "70300",
        "Location": "Kampung Pasir",
        "Post_Office": "Seremban",
        "State": "Negeri Sembilan"
    },
    {
        "Postcode": "70300",
        "Location": "Jalan Seremban Tiga 23",
        "Post_Office": "Seremban",
        "State": "Negeri Sembilan"
    },
    {
        "Postcode": "70300",
        "Location": "Pusat Komersial Universiti",
        "Post_Office": "Seremban",
        "State": "Negeri Sembilan"
    },
    {
        "Postcode": "70300",
        "Location": "One Avenue",
        "Post_Office": "Seremban",
        "State": "Negeri Sembilan"
    },
    {
        "Postcode": "70300",
        "Location": "Pusat Dagangan Seremban 2",
        "Post_Office": "Seremban",
        "State": "Negeri Sembilan"
    },
    {
        "Postcode": "70300",
        "Location": "Pusat Komersial Seksyen C",
        "Post_Office": "Seremban",
        "State": "Negeri Sembilan"
    },
    {
        "Postcode": "70300",
        "Location": "Seksyen G",
        "Post_Office": "Seremban",
        "State": "Negeri Sembilan"
    },
    {
        "Postcode": "70300",
        "Location": "Pusat Komersial Saujana",
        "Post_Office": "Seremban",
        "State": "Negeri Sembilan"
    },
    {
        "Postcode": "70300",
        "Location": "Dataran Usahawan",
        "Post_Office": "Seremban",
        "State": "Negeri Sembilan"
    },
    {
        "Postcode": "70300",
        "Location": "Jalan Seremban-Bukit Nenas",
        "Post_Office": "Seremban",
        "State": "Negeri Sembilan"
    },
    {
        "Postcode": "70300",
        "Location": "Taman Idaman Rasah",
        "Post_Office": "Seremban",
        "State": "Negeri Sembilan"
    },
    {
        "Postcode": "70300",
        "Location": "Taman Rimbun Ara",
        "Post_Office": "Seremban",
        "State": "Negeri Sembilan"
    },
    {
        "Postcode": "70300",
        "Location": "Taman Rimbun Harmoni",
        "Post_Office": "Seremban",
        "State": "Negeri Sembilan"
    },
    {
        "Postcode": "70300",
        "Location": "Residensi Sri Mahkota",
        "Post_Office": "Seremban",
        "State": "Negeri Sembilan"
    },
    {
        "Postcode": "70300",
        "Location": "Taman Iringan Bayu",
        "Post_Office": "Seremban",
        "State": "Negeri Sembilan"
    },
    {
        "Postcode": "70300",
        "Location": "Jalan NB 3/1",
        "Post_Office": "Seremban",
        "State": "Negeri Sembilan"
    },
    {
        "Postcode": "70300",
        "Location": "Lucky Garden",
        "Post_Office": "Seremban",
        "State": "Negeri Sembilan"
    },
    {
        "Postcode": "70300",
        "Location": "Kampung Dato Mansor",
        "Post_Office": "Seremban",
        "State": "Negeri Sembilan"
    },
    {
        "Postcode": "70300",
        "Location": "Seksyen A",
        "Post_Office": "Seremban",
        "State": "Negeri Sembilan"
    },
    {
        "Postcode": "70300",
        "Location": "Seksyen C",
        "Post_Office": "Seremban ",
        "State": "Negeri Sembilan"
    },
    {
        "Postcode": "70300",
        "Location": "Medan Perniagaan Mambau Utama",
        "Post_Office": "Seremban",
        "State": "Negeri Sembilan"
    },
    {
        "Postcode": "70300",
        "Location": "Pekan Mambau",
        "Post_Office": "Seremban",
        "State": "Negeri Sembilan"
    },
    {
        "Postcode": "70300",
        "Location": "Bukit Nenas",
        "Post_Office": "Seremban",
        "State": "Negeri Sembilan"
    },
    {
        "Postcode": "70300",
        "Location": "Bukit Nenas Estate",
        "Post_Office": "Seremban",
        "State": "Negeri Sembilan"
    },
    {
        "Postcode": "70300",
        "Location": "Taman Bukit Nenas",
        "Post_Office": "Seremban",
        "State": "Negeri Sembilan"
    },
    {
        "Postcode": "70300",
        "Location": "Taman Dato Raja Hanifah",
        "Post_Office": "Seremban",
        "State": "Negeri Sembilan"
    },
    {
        "Postcode": "70300",
        "Location": "Taman Klana Jubli",
        "Post_Office": "Seremban",
        "State": "Negeri Sembilan"
    },
    {
        "Postcode": "70300",
        "Location": "Green Technology Park",
        "Post_Office": "Seremban",
        "State": "Negeri Sembilan"
    },
    {
        "Postcode": "70300",
        "Location": "Green Street Homes ",
        "Post_Office": "Seremban",
        "State": "Negeri Sembilan"
    },
    {
        "Postcode": "70300",
        "Location": "Taman Bukit Belimbing ",
        "Post_Office": "Seremban",
        "State": "Negeri Sembilan"
    },
    {
        "Postcode": "70300",
        "Location": "Oakland Commercial Centre",
        "Post_Office": "Seremban ",
        "State": "Negeri Sembilan"
    },
    {
        "Postcode": "70300",
        "Location": "Taman Bayu Indah",
        "Post_Office": "Seremban",
        "State": "Negeri Sembilan"
    },
    {
        "Postcode": "70300",
        "Location": "Taman Bayu Sutera",
        "Post_Office": "Seremban",
        "State": "Negeri Sembilan"
    },
    {
        "Postcode": "70300",
        "Location": "Ara Sendayan",
        "Post_Office": "Seremban",
        "State": "Negeri Sembilan"
    },
    {
        "Postcode": "70300",
        "Location": "Taman Rimbun Harapam",
        "Post_Office": "Seremban",
        "State": "Negeri Sembilan"
    },
    {
        "Postcode": "70300",
        "Location": "Kampung Pondok",
        "Post_Office": "Seremban",
        "State": "Negeri Sembilan"
    },
    {
        "Postcode": "70300",
        "Location": "Taman Tuan Sheikh",
        "Post_Office": "Seremban",
        "State": "Negeri Sembilan"
    },
    {
        "Postcode": "70300",
        "Location": "Biz Avenue",
        "Post_Office": "Seremban",
        "State": "Negeri Sembilan"
    },
    {
        "Postcode": "70300",
        "Location": "Up Town Avenue",
        "Post_Office": "Seremban",
        "State": "Negeri Sembilan"
    },
    {
        "Postcode": "70300",
        "Location": "Pusat Automobil Mambau",
        "Post_Office": "Seremban",
        "State": "Negeri Sembilan"
    },
    {
        "Postcode": "70300",
        "Location": "Rasah Kemayan Golf \u0026 Country Township",
        "Post_Office": "Seremban",
        "State": "Negeri Sembilan"
    },
    {
        "Postcode": "70300",
        "Location": "Taman Seremban 3",
        "Post_Office": "Seremban",
        "State": "Negeri Sembilan"
    },
    {
        "Postcode": "70300",
        "Location": "Taman Cenderawasih",
        "Post_Office": "Seremban",
        "State": "Negeri Sembilan"
    },
    {
        "Postcode": "70300",
        "Location": "Taman Belinda Indah",
        "Post_Office": "Seremban",
        "State": "Negeri Sembilan"
    },
    {
        "Postcode": "70300",
        "Location": "Taman Saujana Duta",
        "Post_Office": "Seremban",
        "State": "Negeri Sembilan"
    },
    {
        "Postcode": "70300",
        "Location": "Taman Saujana Indah",
        "Post_Office": "Seremban",
        "State": "Negeri Sembilan"
    },
    {
        "Postcode": "70300",
        "Location": "Taman Saujana Prima",
        "Post_Office": "Seremban",
        "State": "Negeri Sembilan"
    },
    {
        "Postcode": "70300",
        "Location": "Taman Saujana Sutera",
        "Post_Office": "Seremban",
        "State": "Negeri Sembilan"
    },
    {
        "Postcode": "70300",
        "Location": "Taman Saujana Tropika",
        "Post_Office": "Seremban",
        "State": "Negeri Sembilan"
    },
    {
        "Postcode": "70300",
        "Location": "Taman Bukit Nuri Indah",
        "Post_Office": "Seremban",
        "State": "Negeri Sembilan"
    },
    {
        "Postcode": "70300",
        "Location": "Rimba Residensi",
        "Post_Office": "Seremban",
        "State": "Negeri Sembilan "
    },
    {
        "Postcode": "70300",
        "Location": "Taman Cenderawasih Indah",
        "Post_Office": "Seremban",
        "State": "Negeri Sembilan"
    },
    {
        "Postcode": "70300",
        "Location": "Taman Kerisi Indah",
        "Post_Office": "Seremban",
        "State": "Negeri Sembilan"
    },
    {
        "Postcode": "70300",
        "Location": "Taman Angsamas 2",
        "Post_Office": "Seremban",
        "State": "Negeri Sembilan"
    },
    {
        "Postcode": "70300",
        "Location": "Taman Kaloi Jaya",
        "Post_Office": "Seremban",
        "State": "Negeri Sembilan"
    },
    {
        "Postcode": "70300",
        "Location": "Taman Rasah Kemayan",
        "Post_Office": "Seremban",
        "State": "Negeri Sembilan"
    },
    {
        "Postcode": "70300",
        "Location": "Seksyen E",
        "Post_Office": "Seremban",
        "State": "Negeri Sembilan"
    },
    {
        "Postcode": "70300",
        "Location": "Taman Ara Impian",
        "Post_Office": "Seremban",
        "State": "Negeri Sembilan"
    },
    {
        "Postcode": "70300",
        "Location": "Taman Ceri Indah",
        "Post_Office": "Seremban",
        "State": "Negeri Sembilan"
    },
    {
        "Postcode": "70300",
        "Location": "Seremban Heights",
        "Post_Office": "Seremban",
        "State": "Negeri Sembilan"
    },
    {
        "Postcode": "70300",
        "Location": "Taman Merbok Ria 2",
        "Post_Office": "Seremban",
        "State": "Negeri Sembilan"
    },
    {
        "Postcode": "70300",
        "Location": "Taman Kirby",
        "Post_Office": "Seremban",
        "State": "Negeri Sembilan"
    },
    {
        "Postcode": "70300",
        "Location": "Taman Nada Bayu",
        "Post_Office": "Seremban",
        "State": "Negeri Sembilan"
    },
    {
        "Postcode": "70300",
        "Location": "Persiaran S2 B1",
        "Post_Office": "Seremban",
        "State": "Negeri Sembilan"
    },
    {
        "Postcode": "70300",
        "Location": "Jalan Bukit Nenas",
        "Post_Office": "Seremban",
        "State": "Negeri Sembilan"
    }
]
