[
    {
        "Postcode": "70400",
        "Location": "Appartment Kasturi",
        "Post_Office": "Seremban",
        "State": "Negeri Sembilan"
    },
    {
        "Postcode": "70400",
        "Location": "Appartment Seroja",
        "Post_Office": "Seremban",
        "State": "Negeri Sembilan"
    },
    {
        "Postcode": "70400",
        "Location": "Bandar Baru Ampangan",
        "Post_Office": "Seremban",
        "State": "Negeri Sembilan"
    },
    {
        "Postcode": "70400",
        "Location": "Flat Paroi",
        "Post_Office": "Seremban",
        "State": "Negeri Sembilan"
    },
    {
        "Postcode": "70400",
        "Location": "Flat Taman Casuarina",
        "Post_Office": "Seremban",
        "State": "Negeri Sembilan"
    },
    {
        "Postcode": "70400",
        "Location": "Gedong Lalang 162",
        "Post_Office": "Seremban",
        "State": "Negeri Sembilan"
    },
    {
        "Postcode": "70400",
        "Location": "Jalan Ampangan",
        "Post_Office": "Seremban",
        "State": "Negeri Sembilan"
    },
    {
        "Postcode": "70400",
        "Location": "Jalan Jelebu (Hingga Km 3.5)",
        "Post_Office": "Seremban",
        "State": "Negeri Sembilan"
    },
    {
        "Postcode": "70400",
        "Location": "Jalan Kuala Pilah (Km 3 - 4)",
        "Post_Office": "Seremban",
        "State": "Negeri Sembilan"
    },
    {
        "Postcode": "70400",
        "Location": "Jalan Sikamat",
        "Post_Office": "Seremban",
        "State": "Negeri Sembilan"
    },
    {
        "Postcode": "70400",
        "Location": "Jalan Temiang Jaya",
        "Post_Office": "Seremban",
        "State": "Negeri Sembilan"
    },
    {
        "Postcode": "70400",
        "Location": "Jalan Tok Dagang",
        "Post_Office": "Seremban",
        "State": "Negeri Sembilan"
    },
    {
        "Postcode": "70400",
        "Location": "Jalan Tunku Kurshiah",
        "Post_Office": "Seremban",
        "State": "Negeri Sembilan"
    },
    {
        "Postcode": "70400",
        "Location": "Jalan Ujong Pasir",
        "Post_Office": "Seremban",
        "State": "Negeri Sembilan"
    },
    {
        "Postcode": "70400",
        "Location": "Kampung Baru Paroi",
        "Post_Office": "Seremban",
        "State": "Negeri Sembilan"
    },
    {
        "Postcode": "70400",
        "Location": "Kampung Baru Sikamat",
        "Post_Office": "Seremban",
        "State": "Negeri Sembilan"
    },
    {
        "Postcode": "70400",
        "Location": "Kampung Belachan",
        "Post_Office": "Seremban",
        "State": "Negeri Sembilan"
    },
    {
        "Postcode": "70400",
        "Location": "Kampung Bukit Merbah",
        "Post_Office": "Seremban",
        "State": "Negeri Sembilan"
    },
    {
        "Postcode": "70400",
        "Location": "Kampung Dato Wong Seng Chow",
        "Post_Office": "Seremban",
        "State": "Negeri Sembilan"
    },
    {
        "Postcode": "70400",
        "Location": "Kampung Durian Tiga Batang",
        "Post_Office": "Seremban",
        "State": "Negeri Sembilan"
    },
    {
        "Postcode": "70400",
        "Location": "Kampung Dusun Nyior",
        "Post_Office": "Seremban",
        "State": "Negeri Sembilan"
    },
    {
        "Postcode": "70400",
        "Location": "Kampung Ismail",
        "Post_Office": "Seremban",
        "State": "Negeri Sembilan"
    },
    {
        "Postcode": "70400",
        "Location": "Kampung Jiboi",
        "Post_Office": "Seremban",
        "State": "Negeri Sembilan"
    },
    {
        "Postcode": "70400",
        "Location": "Kampung Jiboi Baru",
        "Post_Office": "Seremban",
        "State": "Negeri Sembilan"
    },
    {
        "Postcode": "70400",
        "Location": "Kampung Merbah Indah",
        "Post_Office": "Seremban",
        "State": "Negeri Sembilan"
    },
    {
        "Postcode": "70400",
        "Location": "Kampung Paroi",
        "Post_Office": "Seremban",
        "State": "Negeri Sembilan"
    },
    {
        "Postcode": "70400",
        "Location": "Kampung Sekolah",
        "Post_Office": "Seremban",
        "State": "Negeri Sembilan"
    },
    {
        "Postcode": "70400",
        "Location": "Kampung Seri Landak",
        "Post_Office": "Seremban",
        "State": "Negeri Sembilan"
    },
    {
        "Postcode": "70400",
        "Location": "Kampung Sikamat",
        "Post_Office": "Seremban",
        "State": "Negeri Sembilan"
    },
    {
        "Postcode": "70400",
        "Location": "Kampung Sri Panchor",
        "Post_Office": "Seremban",
        "State": "Negeri Sembilan"
    },
    {
        "Postcode": "70400",
        "Location": "Kampung Sungai Landak",
        "Post_Office": "Seremban",
        "State": "Negeri Sembilan"
    },
    {
        "Postcode": "70400",
        "Location": "Kampung Sungai Pupoh",
        "Post_Office": "Seremban",
        "State": "Negeri Sembilan"
    },
    {
        "Postcode": "70400",
        "Location": "Kampung Ujong Pasir",
        "Post_Office": "Seremban",
        "State": "Negeri Sembilan"
    },
    {
        "Postcode": "70400",
        "Location": "Kem Sikamat",
        "Post_Office": "Seremban",
        "State": "Negeri Sembilan"
    },
    {
        "Postcode": "70400",
        "Location": "Rumah Murah Km 5 Sikamat",
        "Post_Office": "Seremban",
        "State": "Negeri Sembilan"
    },
    {
        "Postcode": "70400",
        "Location": "Stadium Tuanku Abdul Rahman",
        "Post_Office": "Seremban",
        "State": "Negeri Sembilan"
    },
    {
        "Postcode": "70400",
        "Location": "Taman Ampangan",
        "Post_Office": "Seremban",
        "State": "Negeri Sembilan"
    },
    {
        "Postcode": "70400",
        "Location": "Taman Ampangan Jaya",
        "Post_Office": "Seremban",
        "State": "Negeri Sembilan"
    },
    {
        "Postcode": "70400",
        "Location": "Taman Anzac",
        "Post_Office": "Seremban",
        "State": "Negeri Sembilan"
    },
    {
        "Postcode": "70400",
        "Location": "Taman Bukit Kelana",
        "Post_Office": "Seremban",
        "State": "Negeri Sembilan"
    },
    {
        "Postcode": "70400",
        "Location": "Taman Bukti",
        "Post_Office": "Seremban",
        "State": "Negeri Sembilan"
    },
    {
        "Postcode": "70400",
        "Location": "Taman Casurina Fasa 2",
        "Post_Office": "Seremban",
        "State": "Negeri Sembilan"
    },
    {
        "Postcode": "70400",
        "Location": "Taman Coral Height",
        "Post_Office": "Seremban",
        "State": "Negeri Sembilan"
    },
    {
        "Postcode": "70400",
        "Location": "Taman Dato Shah Bandar",
        "Post_Office": "Seremban",
        "State": "Negeri Sembilan"
    },
    {
        "Postcode": "70400",
        "Location": "Taman Dato Wan",
        "Post_Office": "Seremban",
        "State": "Negeri Sembilan"
    },
    {
        "Postcode": "70400",
        "Location": "Taman Desa Beringin",
        "Post_Office": "Seremban",
        "State": "Negeri Sembilan"
    },
    {
        "Postcode": "70400",
        "Location": "Taman Desa Kiara",
        "Post_Office": "Seremban",
        "State": "Negeri Sembilan"
    },
    {
        "Postcode": "70400",
        "Location": "Taman Desa Manggis",
        "Post_Office": "Seremban",
        "State": "Negeri Sembilan"
    },
    {
        "Postcode": "70400",
        "Location": "Taman Desa Rhu",
        "Post_Office": "Seremban",
        "State": "Negeri Sembilan"
    },
    {
        "Postcode": "70400",
        "Location": "Taman Desa Ros",
        "Post_Office": "Seremban",
        "State": "Negeri Sembilan"
    },
    {
        "Postcode": "70400",
        "Location": "Taman England",
        "Post_Office": "Seremban",
        "State": "Negeri Sembilan"
    },
    {
        "Postcode": "70400",
        "Location": "Taman Golf Heights",
        "Post_Office": "Seremban",
        "State": "Negeri Sembilan"
    },
    {
        "Postcode": "70400",
        "Location": "Taman Jerlang Indah",
        "Post_Office": "Seremban",
        "State": "Negeri Sembilan"
    },
    {
        "Postcode": "70400",
        "Location": "Taman Js Union",
        "Post_Office": "Seremban",
        "State": "Negeri Sembilan"
    },
    {
        "Postcode": "70400",
        "Location": "Taman Jujur",
        "Post_Office": "Seremban",
        "State": "Negeri Sembilan"
    },
    {
        "Postcode": "70400",
        "Location": "Taman Kiambang Indah",
        "Post_Office": "Seremban",
        "State": "Negeri Sembilan"
    },
    {
        "Postcode": "70400",
        "Location": "Taman Kim Soon",
        "Post_Office": "Seremban",
        "State": "Negeri Sembilan"
    },
    {
        "Postcode": "70400",
        "Location": "Taman Megaway",
        "Post_Office": "Seremban",
        "State": "Negeri Sembilan"
    },
    {
        "Postcode": "70400",
        "Location": "Taman Meranti Jaya",
        "Post_Office": "Seremban",
        "State": "Negeri Sembilan"
    },
    {
        "Postcode": "70400",
        "Location": "Taman Negeri (Ampangan)",
        "Post_Office": "Seremban",
        "State": "Negeri Sembilan"
    },
    {
        "Postcode": "70400",
        "Location": "Taman Nz",
        "Post_Office": "Seremban",
        "State": "Negeri Sembilan"
    },
    {
        "Postcode": "70400",
        "Location": "Taman Panchor Jaya",
        "Post_Office": "Seremban",
        "State": "Negeri Sembilan"
    },
    {
        "Postcode": "70400",
        "Location": "Taman Paroi Jaya",
        "Post_Office": "Seremban",
        "State": "Negeri Sembilan"
    },
    {
        "Postcode": "70400",
        "Location": "Taman Pinang Gading",
        "Post_Office": "Seremban",
        "State": "Negeri Sembilan"
    },
    {
        "Postcode": "70400",
        "Location": "Taman Pinggiran Golf",
        "Post_Office": "Seremban",
        "State": "Negeri Sembilan"
    },
    {
        "Postcode": "70400",
        "Location": "Taman Pulai Impian",
        "Post_Office": "Seremban",
        "State": "Negeri Sembilan"
    },
    {
        "Postcode": "70400",
        "Location": "Taman Pulai Perdana",
        "Post_Office": "Seremban",
        "State": "Negeri Sembilan"
    },
    {
        "Postcode": "70400",
        "Location": "Taman Purba",
        "Post_Office": "Seremban",
        "State": "Negeri Sembilan"
    },
    {
        "Postcode": "70400",
        "Location": "Taman Sakura",
        "Post_Office": "Seremban",
        "State": "Negeri Sembilan"
    },
    {
        "Postcode": "70400",
        "Location": "Taman Sena Jaya",
        "Post_Office": "Seremban",
        "State": "Negeri Sembilan"
    },
    {
        "Postcode": "70400",
        "Location": "Taman Seri Paroi",
        "Post_Office": "Seremban",
        "State": "Negeri Sembilan"
    },
    {
        "Postcode": "70400",
        "Location": "Taman Seri Rambai",
        "Post_Office": "Seremban",
        "State": "Negeri Sembilan"
    },
    {
        "Postcode": "70400",
        "Location": "Taman Shukor",
        "Post_Office": "Seremban",
        "State": "Negeri Sembilan"
    },
    {
        "Postcode": "70400",
        "Location": "Taman Sikamat",
        "Post_Office": "Seremban",
        "State": "Negeri Sembilan"
    },
    {
        "Postcode": "70400",
        "Location": "Taman Sikamat Indah",
        "Post_Office": "Seremban",
        "State": "Negeri Sembilan"
    },
    {
        "Postcode": "70400",
        "Location": "Taman Sikamat Jaya",
        "Post_Office": "Seremban",
        "State": "Negeri Sembilan"
    },
    {
        "Postcode": "70400",
        "Location": "Taman Sikamat Utama",
        "Post_Office": "Seremban",
        "State": "Negeri Sembilan"
    },
    {
        "Postcode": "70400",
        "Location": "Taman Sri Inai",
        "Post_Office": "Seremban",
        "State": "Negeri Sembilan"
    },
    {
        "Postcode": "70400",
        "Location": "Taman Sri Pulai",
        "Post_Office": "Seremban",
        "State": "Negeri Sembilan"
    },
    {
        "Postcode": "70400",
        "Location": "Taman Sri Pulai 3",
        "Post_Office": "Seremban",
        "State": "Negeri Sembilan"
    },
    {
        "Postcode": "70400",
        "Location": "Taman Sri Telawi",
        "Post_Office": "Seremban",
        "State": "Negeri Sembilan"
    },
    {
        "Postcode": "70400",
        "Location": "Taman Suliana",
        "Post_Office": "Seremban",
        "State": "Negeri Sembilan"
    },
    {
        "Postcode": "70400",
        "Location": "Taman Suliana 2",
        "Post_Office": "Seremban",
        "State": "Negeri Sembilan"
    },
    {
        "Postcode": "70400",
        "Location": "Taman Temiang Jaya",
        "Post_Office": "Seremban",
        "State": "Negeri Sembilan"
    },
    {
        "Postcode": "70400",
        "Location": "Taman Zaiton Indah",
        "Post_Office": "Seremban",
        "State": "Negeri Sembilan"
    },
    {
        "Postcode": "70400",
        "Location": "Tepian Gelanggang",
        "Post_Office": "Seremban",
        "State": "Negeri Sembilan"
    },
    {
        "Postcode": "70400",
        "Location": "Gedong Lalang 50",
        "Post_Office": "Seremban",
        "State": "Negeri Sembilan"
    },
    {
        "Postcode": "70400",
        "Location": "Kampung Gedong Lalang Lama",
        "Post_Office": "Seremban",
        "State": "Negeri Sembilan"
    },
    {
        "Postcode": "70400",
        "Location": "Kampung Sentosa ",
        "Post_Office": "Seremban",
        "State": "Negeri Sembilan"
    },
    {
        "Postcode": "70400",
        "Location": "Kawasan Perindustrian Tasik Jaya",
        "Post_Office": "Seremban",
        "State": "Negeri Sembilan"
    },
    {
        "Postcode": "70400",
        "Location": "Taman Tasik Jaya 1",
        "Post_Office": "Seremban",
        "State": "Negeri Sembilan"
    },
    {
        "Postcode": "70400",
        "Location": "Taman Tasik Jaya 2",
        "Post_Office": "Seremban",
        "State": "Negeri Sembilan"
    },
    {
        "Postcode": "70400",
        "Location": "Persiaran Sri Pulai 2",
        "Post_Office": "Seremban",
        "State": "Negeri Sembilan"
    },
    {
        "Postcode": "70400",
        "Location": "Jalan Cempaka Perdana 1",
        "Post_Office": "Seremban",
        "State": "Negeri Sembilan"
    },
    {
        "Postcode": "70400",
        "Location": "Taman Cempaka Perdana",
        "Post_Office": "Seremban",
        "State": "Negeri Sembilan"
    },
    {
        "Postcode": "70400",
        "Location": "Taman Sikamat Perdana",
        "Post_Office": "Seremban",
        "State": "Negeri Sembilan"
    },
    {
        "Postcode": "70400",
        "Location": "Taman Rashibah Indah",
        "Post_Office": "Seremban",
        "State": "Negeri Sembilan"
    },
    {
        "Postcode": "70400",
        "Location": "Taman Desa Jaya",
        "Post_Office": "Seremban",
        "State": "Negeri Sembilan"
    },
    {
        "Postcode": "70400",
        "Location": "Jalan Kuala Pilah",
        "Post_Office": "Seremban",
        "State": "Negeri Sembilan"
    },
    {
        "Postcode": "70400",
        "Location": "Jalan Tuan Haji Said 2",
        "Post_Office": "Seremban",
        "State": "Negeri Sembilan"
    },
    {
        "Postcode": "70400",
        "Location": "Taman Vila Palma",
        "Post_Office": "Seremban",
        "State": "Negeri Sembilan"
    },
    {
        "Postcode": "70400",
        "Location": "Taman Seri Sentosa ",
        "Post_Office": "Seremban",
        "State": "Negeri Sembilan"
    },
    {
        "Postcode": "70400",
        "Location": "Taman Dellinia",
        "Post_Office": "Seremban",
        "State": "Negeri Sembilan"
    },
    {
        "Postcode": "70400",
        "Location": "Jalan Tuanku Kursiah Atas 2",
        "Post_Office": "Seremban",
        "State": "Negeri Sembilan"
    },
    {
        "Postcode": "70400",
        "Location": "Laman Akasia",
        "Post_Office": "Seremban",
        "State": "Negeri Sembilan"
    },
    {
        "Postcode": "70400",
        "Location": "D'Palma",
        "Post_Office": "Seremban",
        "State": "Negeri Sembilan"
    },
    {
        "Postcode": "70400",
        "Location": "Taman Sentosa Indah",
        "Post_Office": "Seremban",
        "State": "Negeri Sembilan"
    },
    {
        "Postcode": "70400",
        "Location": "Bandar Warisan Puteri",
        "Post_Office": "Seremban",
        "State": "Negeri Sembilan"
    },
    {
        "Postcode": "70400",
        "Location": "Taman Cengal Utama",
        "Post_Office": "Seremban",
        "State": "Negeri Sembilan"
    },
    {
        "Postcode": "70400",
        "Location": "Taman College Heights",
        "Post_Office": "Seremban",
        "State": "Negeri Sembilan"
    },
    {
        "Postcode": "70400",
        "Location": "Taman Lavender Heights",
        "Post_Office": "Seremban",
        "State": "Negeri Sembilan"
    },
    {
        "Postcode": "70400",
        "Location": "Nusa Intan",
        "Post_Office": "Seremban",
        "State": "Negeri Sembilan"
    },
    {
        "Postcode": "70400",
        "Location": "Taman Selaseh",
        "Post_Office": "Seremban",
        "State": "Negeri Sembilan"
    },
    {
        "Postcode": "70400",
        "Location": "Taman Seremban Putra",
        "Post_Office": "Seremban",
        "State": "Negeri Sembilan"
    },
    {
        "Postcode": "70400",
        "Location": "Taman Sri Bakawali",
        "Post_Office": "Seremban",
        "State": "Negeri Sembilan"
    },
    {
        "Postcode": "70400",
        "Location": "Taman Sri Kiambang",
        "Post_Office": "Seremban",
        "State": "Negeri Sembilan"
    },
    {
        "Postcode": "70400",
        "Location": "Taman Sri Landak",
        "Post_Office": "Seremban",
        "State": "Negeri Sembilan"
    },
    {
        "Postcode": "70400",
        "Location": "Taman Sri Negeri",
        "Post_Office": "Seremban",
        "State": "Negeri Sembilan"
    },
    {
        "Postcode": "70400",
        "Location": "Taman Sri Pandan ",
        "Post_Office": "Seremban",
        "State": "Negeri Sembilan"
    },
    {
        "Postcode": "70400",
        "Location": "Taman Sri Penaga 2",
        "Post_Office": "Seremban",
        "State": "Negeri Sembilan"
    },
    {
        "Postcode": "70400",
        "Location": "Taman Sri Tanjung",
        "Post_Office": "Seremban",
        "State": "Negeri Sembilan"
    },
    {
        "Postcode": "70400",
        "Location": "Villa Taman Tasik",
        "Post_Office": "Seremban",
        "State": "Negeri Sembilan"
    },
    {
        "Postcode": "70400",
        "Location": "Taman Indah",
        "Post_Office": "Seremban",
        "State": "Negeri Sembilan"
    },
    {
        "Postcode": "70400",
        "Location": "Taman Pelangi",
        "Post_Office": "Seremban",
        "State": "Negeri Sembilan"
    },
    {
        "Postcode": "70400",
        "Location": "Taman Pj Perdana",
        "Post_Office": "Seremban",
        "State": "Negeri Sembilan"
    },
    {
        "Postcode": "70400",
        "Location": "Taman Bukit Nibong",
        "Post_Office": "Seremban",
        "State": "Negeri Sembilan"
    },
    {
        "Postcode": "70400",
        "Location": "Taman Bukti Setia",
        "Post_Office": "Seremban",
        "State": "Negeri Sembilan"
    },
    {
        "Postcode": "70400",
        "Location": "Taman Kiara Indah",
        "Post_Office": "Seremban",
        "State": "Negeri Sembilan"
    },
    {
        "Postcode": "70400",
        "Location": "Taman Warisan Puteri",
        "Post_Office": "Seremban",
        "State": "Negeri Sembilan"
    },
    {
        "Postcode": "70400",
        "Location": "Pusat Perdagangan Paroi",
        "Post_Office": "Seremban",
        "State": "Negeri Sembilan"
    },
    {
        "Postcode": "70400",
        "Location": "Taman Bukit Penaga",
        "Post_Office": "Seremban",
        "State": "Negeri Sembilan"
    },
    {
        "Postcode": "70400",
        "Location": "Pusat Perniagaan Lavender Height",
        "Post_Office": "Seremban",
        "State": "Negeri Sembilan"
    },
    {
        "Postcode": "70400",
        "Location": "Taman Casurina",
        "Post_Office": "Seremban",
        "State": "Negeri Sembilan"
    },
    {
        "Postcode": "70400",
        "Location": "Taman Sri Penaga",
        "Post_Office": "Seremban",
        "State": "Negeri Sembilan"
    },
    {
        "Postcode": "70400",
        "Location": "Taman Bukit Sarimban",
        "Post_Office": "Seremban",
        "State": "Negeri Sembilan"
    },
    {
        "Postcode": "70400",
        "Location": "Taman Kemunting",
        "Post_Office": "Seremban",
        "State": "Negeri Sembilan"
    },
    {
        "Postcode": "70400",
        "Location": "Taman Penaga Mewah",
        "Post_Office": "Seremban",
        "State": "Negeri Sembilan"
    }
]
