[
    {
        "Postcode": "70450",
        "Location": "City Square Senawang",
        "Post_Office": "Seremban",
        "State": "Negeri Sembilan"
    },
    {
        "Postcode": "70450",
        "Location": "Flat Senawang Jaya",
        "Post_Office": "Seremban",
        "State": "Negeri Sembilan"
    },
    {
        "Postcode": "70450",
        "Location": "Flat Sri Mawar",
        "Post_Office": "Seremban",
        "State": "Negeri Sembilan"
    },
    {
        "Postcode": "70450",
        "Location": "Jalan Tampin (Hingga Km 7)",
        "Post_Office": "Seremban",
        "State": "Negeri Sembilan"
    },
    {
        "Postcode": "70450",
        "Location": "Kampung Baru Senawang",
        "Post_Office": "Seremban",
        "State": "Negeri Sembilan"
    },
    {
        "Postcode": "70450",
        "Location": "Kawasan Perindustrian Senawang",
        "Post_Office": "Seremban",
        "State": "Negeri Sembilan"
    },
    {
        "Postcode": "70450",
        "Location": "Kawasan Perusahaan Senawang",
        "Post_Office": "Seremban",
        "State": "Negeri Sembilan"
    },
    {
        "Postcode": "70450",
        "Location": "Senawang Business Park",
        "Post_Office": "Seremban",
        "State": "Negeri Sembilan"
    },
    {
        "Postcode": "70450",
        "Location": "Senawang Commercial Park",
        "Post_Office": "Seremban",
        "State": "Negeri Sembilan"
    },
    {
        "Postcode": "70450",
        "Location": "Senawang Industrial Estate",
        "Post_Office": "Seremban",
        "State": "Negeri Sembilan"
    },
    {
        "Postcode": "70450",
        "Location": "Taman Alamanda",
        "Post_Office": "Seremban",
        "State": "Negeri Sembilan"
    },
    {
        "Postcode": "70450",
        "Location": "Taman Bandar Senawang",
        "Post_Office": "Seremban",
        "State": "Negeri Sembilan"
    },
    {
        "Postcode": "70450",
        "Location": "Taman Bukit Emas",
        "Post_Office": "Seremban",
        "State": "Negeri Sembilan"
    },
    {
        "Postcode": "70450",
        "Location": "Taman Desa Dahlia",
        "Post_Office": "Seremban",
        "State": "Negeri Sembilan"
    },
    {
        "Postcode": "70450",
        "Location": "Taman Desa Exora",
        "Post_Office": "Seremban",
        "State": "Negeri Sembilan"
    },
    {
        "Postcode": "70450",
        "Location": "Taman Desa Flora",
        "Post_Office": "Seremban",
        "State": "Negeri Sembilan"
    },
    {
        "Postcode": "70450",
        "Location": "Taman Desa Melor",
        "Post_Office": "Seremban",
        "State": "Negeri Sembilan"
    },
    {
        "Postcode": "70450",
        "Location": "Taman Desa Orkid",
        "Post_Office": "Seremban",
        "State": "Negeri Sembilan"
    },
    {
        "Postcode": "70450",
        "Location": "Taman Duranta",
        "Post_Office": "Seremban",
        "State": "Negeri Sembilan"
    },
    {
        "Postcode": "70450",
        "Location": "Taman Fajar Indah",
        "Post_Office": "Seremban",
        "State": "Negeri Sembilan"
    },
    {
        "Postcode": "70450",
        "Location": "Taman Imigresen",
        "Post_Office": "Seremban",
        "State": "Negeri Sembilan"
    },
    {
        "Postcode": "70450",
        "Location": "Taman Kemuning",
        "Post_Office": "Seremban",
        "State": "Negeri Sembilan"
    },
    {
        "Postcode": "70450",
        "Location": "Taman Kobena",
        "Post_Office": "Seremban",
        "State": "Negeri Sembilan"
    },
    {
        "Postcode": "70450",
        "Location": "Taman Lily",
        "Post_Office": "Seremban",
        "State": "Negeri Sembilan"
    },
    {
        "Postcode": "70450",
        "Location": "Taman Marida",
        "Post_Office": "Seremban",
        "State": "Negeri Sembilan"
    },
    {
        "Postcode": "70450",
        "Location": "Taman Matahari Indah",
        "Post_Office": "Seremban",
        "State": "Negeri Sembilan"
    },
    {
        "Postcode": "70450",
        "Location": "Taman Merpati",
        "Post_Office": "Seremban",
        "State": "Negeri Sembilan"
    },
    {
        "Postcode": "70450",
        "Location": "Taman Rashidah Utama",
        "Post_Office": "Seremban",
        "State": "Negeri Sembilan"
    },
    {
        "Postcode": "70450",
        "Location": "Taman Rpkr Senawang",
        "Post_Office": "Seremban",
        "State": "Negeri Sembilan"
    },
    {
        "Postcode": "70450",
        "Location": "Taman Satria",
        "Post_Office": "Seremban",
        "State": "Negeri Sembilan"
    },
    {
        "Postcode": "70450",
        "Location": "Taman Senangin",
        "Post_Office": "Seremban",
        "State": "Negeri Sembilan"
    },
    {
        "Postcode": "70450",
        "Location": "Taman Senawang Indah",
        "Post_Office": "Seremban",
        "State": "Negeri Sembilan"
    },
    {
        "Postcode": "70450",
        "Location": "Taman Senawang Jaya",
        "Post_Office": "Seremban",
        "State": "Negeri Sembilan"
    },
    {
        "Postcode": "70450",
        "Location": "Taman Seremban Jaya",
        "Post_Office": "Seremban",
        "State": "Negeri Sembilan"
    },
    {
        "Postcode": "70450",
        "Location": "Taman Seri Pagi",
        "Post_Office": "Seremban",
        "State": "Negeri Sembilan"
    },
    {
        "Postcode": "70450",
        "Location": "Taman Setia Hati",
        "Post_Office": "Seremban",
        "State": "Negeri Sembilan"
    },
    {
        "Postcode": "70450",
        "Location": "Taman Teratai Indah",
        "Post_Office": "Seremban",
        "State": "Negeri Sembilan"
    },
    {
        "Postcode": "70450",
        "Location": "Taman Guru",
        "Post_Office": "Seremban",
        "State": "Negeri Sembilan"
    },
    {
        "Postcode": "70450",
        "Location": "Taman Ros Mewah",
        "Post_Office": "Seremban",
        "State": "Negeri Sembilan"
    },
    {
        "Postcode": "70450",
        "Location": "Taman Seri Bayu",
        "Post_Office": "Seremban",
        "State": "Negeri Sembilan"
    },
    {
        "Postcode": "70450",
        "Location": "Persiaran Bunga Tanjung 2",
        "Post_Office": "Seremban",
        "State": "Negeri Sembilan"
    },
    {
        "Postcode": "70450",
        "Location": "Taman Cempaka",
        "Post_Office": "Seremban",
        "State": "Negeri Sembilan"
    },
    {
        "Postcode": "70450",
        "Location": "Taman Rasa Sayang",
        "Post_Office": "Seremban",
        "State": "Negeri Sembilan"
    },
    {
        "Postcode": "70450",
        "Location": "Taman Desa Anggerik",
        "Post_Office": "Seremban",
        "State": "Negeri Sembilan"
    },
    {
        "Postcode": "70450",
        "Location": "Taman Teratai",
        "Post_Office": "Seremban",
        "State": "Negeri Sembilan"
    },
    {
        "Postcode": "70450",
        "Location": "Persada Cattleya",
        "Post_Office": "Seremban ",
        "State": "Negeri Sembilan"
    },
    {
        "Postcode": "70450",
        "Location": "Bandar Utama Senawang",
        "Post_Office": "Seremban",
        "State": "Negeri Sembilan"
    },
    {
        "Postcode": "70450",
        "Location": "Desa Kenanga Indah",
        "Post_Office": "Seremban",
        "State": "Negeri Sembilan"
    },
    {
        "Postcode": "70450",
        "Location": "Bandar Prima Senawang",
        "Post_Office": "Seremban",
        "State": "Negeri Sembilan"
    },
    {
        "Postcode": "70450",
        "Location": "Jalan Paroi-Senawang",
        "Post_Office": "Seremban",
        "State": "Negeri Sembilan"
    },
    {
        "Postcode": "70450",
        "Location": "Taman Bougainvillea Idaman",
        "Post_Office": "Seremban",
        "State": "Negeri Sembilan"
    },
    {
        "Postcode": "70450",
        "Location": "Taman Bukit Senawang",
        "Post_Office": "Seremban",
        "State": "Negeri Sembilan"
    },
    {
        "Postcode": "70450",
        "Location": "Taman Mutiara Zaitun",
        "Post_Office": "Seremban",
        "State": "Negeri Sembilan"
    },
    {
        "Postcode": "70450",
        "Location": "Forest Heights",
        "Post_Office": "Seremban",
        "State": "Negeri Sembilan"
    },
    {
        "Postcode": "70450",
        "Location": "Pekan Senawang",
        "Post_Office": "Seremban",
        "State": "Negeri Sembilan"
    },
    {
        "Postcode": "70450",
        "Location": "Taman Forest Bayu",
        "Post_Office": "Seremban",
        "State": "Negeri Sembilan"
    },
    {
        "Postcode": "70450",
        "Location": "Taman Jasmin",
        "Post_Office": "Seremban",
        "State": "Negeri Sembilan"
    },
    {
        "Postcode": "70450",
        "Location": "Taman Jasmin Indah",
        "Post_Office": "Seremban",
        "State": "Negeri Sembilan"
    },
    {
        "Postcode": "70450",
        "Location": "Taman Matahari Height",
        "Post_Office": "Seremban",
        "State": "Negeri Sembilan"
    },
    {
        "Postcode": "70450",
        "Location": "Taman Sri Kasih",
        "Post_Office": "Seremban",
        "State": "Negeri Sembilan"
    },
    {
        "Postcode": "70450",
        "Location": "Taman Sri Siantan",
        "Post_Office": "Seremban",
        "State": "Negeri Sembilan"
    },
    {
        "Postcode": "70450",
        "Location": "Taman Widuri Indah",
        "Post_Office": "Seremban",
        "State": "Negeri Sembilan"
    },
    {
        "Postcode": "70450",
        "Location": "Taman Sri Mawar",
        "Post_Office": "Seremban",
        "State": "Negeri Sembilan"
    },
    {
        "Postcode": "70450",
        "Location": "Taman Lily Sutra",
        "Post_Office": "Seremban",
        "State": "Negeri Sembilan"
    },
    {
        "Postcode": "70450",
        "Location": "Pusat Perniagaan Senawang Jaya",
        "Post_Office": "Seremban",
        "State": "Negeri Sembilan"
    },
    {
        "Postcode": "70450",
        "Location": "Taman Mayang Sari",
        "Post_Office": "Seremban",
        "State": "Negeri Sembilan"
    },
    {
        "Postcode": "70450",
        "Location": "Taman Seremban Jaya Idaman",
        "Post_Office": "Seremban",
        "State": "Negeri Sembilan"
    },
    {
        "Postcode": "70450",
        "Location": "Taman Lily Sutera",
        "Post_Office": "Seremban",
        "State": "Negeri Sembilan"
    },
    {
        "Postcode": "70450",
        "Location": "Pusat Komersial Persada Cattleya",
        "Post_Office": "Seremban",
        "State": "Negeri Sembilan"
    },
    {
        "Postcode": "70450",
        "Location": "Taman Desa Melor Indah",
        "Post_Office": "Seremban",
        "State": "Negeri Sembilan"
    },
    {
        "Postcode": "70450",
        "Location": "Dataran Kemuning",
        "Post_Office": "Seremban",
        "State": "Negeri Sembilan"
    },
    {
        "Postcode": "70450",
        "Location": "Pusat Perdagangan Bukit Emas 2",
        "Post_Office": "Seremban",
        "State": "Negeri Sembilan"
    },
    {
        "Postcode": "70450",
        "Location": "Taman Rashidah Utama 2",
        "Post_Office": "Seremban",
        "State": "Negeri Sembilan"
    },
    {
        "Postcode": "70450",
        "Location": "Medan Perniagaan Senawang Jaya",
        "Post_Office": "Seremban ",
        "State": "Negeri Sembilan"
    },
    {
        "Postcode": "70450",
        "Location": "Kawasan Industri Sinar Andalas",
        "Post_Office": "Seremban",
        "State": "Negeri Sembilan"
    },
    {
        "Postcode": "70450",
        "Location": "Taman Seroja Indah",
        "Post_Office": "Seremban",
        "State": "Negeri Sembilan"
    },
    {
        "Postcode": "70450",
        "Location": "Taman Nusa Baiduri",
        "Post_Office": "Seremban",
        "State": "Negeri Sembilan"
    }
]
