[
    {
        "Postcode": "28000",
        "Location": "Jalan Merbok",
        "Post_Office": "Temerloh",
        "State": "Pahang"
    },
    {
        "Postcode": "28000",
        "Location": "Kampung Baru",
        "Post_Office": "Temerloh",
        "State": "Pahang"
    },
    {
        "Postcode": "28000",
        "Location": "Kampung Bukit Lada",
        "Post_Office": "Temerloh",
        "State": "Pahang"
    },
    {
        "Postcode": "28000",
        "Location": "Kampung Gumai",
        "Post_Office": "Temerloh",
        "State": "Pahang"
    },
    {
        "Postcode": "28000",
        "Location": "Kampung Haji Ali",
        "Post_Office": "Temerloh",
        "State": "Pahang"
    },
    {
        "Postcode": "28000",
        "Location": "Kampung Panchor",
        "Post_Office": "Temerloh",
        "State": "Pahang"
    },
    {
        "Postcode": "28000",
        "Location": "Kampung Raja",
        "Post_Office": "Temerloh",
        "State": "Pahang"
    },
    {
        "Postcode": "28000",
        "Location": "Kampung Sungai Mas",
        "Post_Office": "Temerloh",
        "State": "Pahang"
    },
    {
        "Postcode": "28000",
        "Location": "Kampung Tanjong Pasir",
        "Post_Office": "Temerloh",
        "State": "Pahang"
    },
    {
        "Postcode": "28000",
        "Location": "Kampung Telok",
        "Post_Office": "Temerloh",
        "State": "Pahang"
    },
    {
        "Postcode": "28000",
        "Location": "Taman Bahagia",
        "Post_Office": "Temerloh",
        "State": "Pahang"
    },
    {
        "Postcode": "28000",
        "Location": "Taman Bukit Indah",
        "Post_Office": "Temerloh",
        "State": "Pahang"
    },
    {
        "Postcode": "28000",
        "Location": "Taman Jaya",
        "Post_Office": "Temerloh",
        "State": "Pahang"
    },
    {
        "Postcode": "28000",
        "Location": "Taman Selayang",
        "Post_Office": "Temerloh",
        "State": "Pahang"
    },
    {
        "Postcode": "28000",
        "Location": "Bukit Angin",
        "Post_Office": "Temerloh",
        "State": "Pahang"
    },
    {
        "Postcode": "28000",
        "Location": "Bukit Segumpal",
        "Post_Office": "Temerloh",
        "State": "Pahang"
    },
    {
        "Postcode": "28000",
        "Location": "Felcra Charok Putting",
        "Post_Office": "Temerloh",
        "State": "Pahang"
    },
    {
        "Postcode": "28000",
        "Location": "Gau Baharu",
        "Post_Office": "Temerloh",
        "State": "Pahang"
    },
    {
        "Postcode": "28000",
        "Location": "Jala Bahagia",
        "Post_Office": "Temerloh",
        "State": "Pahang"
    },
    {
        "Postcode": "28000",
        "Location": "Jalan Ahmad Shah",
        "Post_Office": "Temerloh",
        "State": "Pahang"
    },
    {
        "Postcode": "28000",
        "Location": "Jalan Bahagia Makmur",
        "Post_Office": "Temerloh",
        "State": "Pahang"
    },
    {
        "Postcode": "28000",
        "Location": "Jalan Bahagian Indah",
        "Post_Office": "Temerloh",
        "State": "Pahang"
    },
    {
        "Postcode": "28000",
        "Location": "Jalan Bahaman",
        "Post_Office": "Temerloh",
        "State": "Pahang"
    },
    {
        "Postcode": "28000",
        "Location": "Jalan Bani Yaacob",
        "Post_Office": "Temerloh",
        "State": "Pahang"
    },
    {
        "Postcode": "28000",
        "Location": "Jalan Bukit Angin",
        "Post_Office": "Temerloh",
        "State": "Pahang"
    },
    {
        "Postcode": "28000",
        "Location": "Jalan Bukit Indah",
        "Post_Office": "Temerloh",
        "State": "Pahang"
    },
    {
        "Postcode": "28000",
        "Location": "Jalan Bunga Raya",
        "Post_Office": "Temerloh",
        "State": "Pahang"
    },
    {
        "Postcode": "28000",
        "Location": "Jalan Dahlia",
        "Post_Office": "Temerloh",
        "State": "Pahang"
    },
    {
        "Postcode": "28000",
        "Location": "Jalan Dato Ngau Ken Lock",
        "Post_Office": "Temerloh",
        "State": "Pahang"
    },
    {
        "Postcode": "28000",
        "Location": "Jalan Gereja",
        "Post_Office": "Temerloh",
        "State": "Pahang"
    },
    {
        "Postcode": "28000",
        "Location": "Jalan Hamzah",
        "Post_Office": "Temerloh",
        "State": "Pahang"
    },
    {
        "Postcode": "28000",
        "Location": "Jalan Ibrahim",
        "Post_Office": "Temerloh",
        "State": "Pahang"
    },
    {
        "Postcode": "28000",
        "Location": "Jalan Idera Segara",
        "Post_Office": "Temerloh",
        "State": "Pahang"
    },
    {
        "Postcode": "28000",
        "Location": "Jalan Intan",
        "Post_Office": "Temerloh",
        "State": "Pahang"
    },
    {
        "Postcode": "28000",
        "Location": "Jalan Kuantan",
        "Post_Office": "Temerloh",
        "State": "Pahang"
    },
    {
        "Postcode": "28000",
        "Location": "Jalan Lurah Semantan",
        "Post_Office": "Temerloh",
        "State": "Pahang"
    },
    {
        "Postcode": "28000",
        "Location": "Jalan Maran Seberang Temerloh",
        "Post_Office": "Temerloh",
        "State": "Pahang"
    },
    {
        "Postcode": "28000",
        "Location": "Jalan Merbah",
        "Post_Office": "Temerloh",
        "State": "Pahang"
    },
    {
        "Postcode": "28000",
        "Location": "Jalan Merpati",
        "Post_Office": "Temerloh",
        "State": "Pahang"
    },
    {
        "Postcode": "28000",
        "Location": "Jalan Pak Sako",
        "Post_Office": "Temerloh",
        "State": "Pahang"
    },
    {
        "Postcode": "28000",
        "Location": "Jalan Paya Kemunting",
        "Post_Office": "Temerloh",
        "State": "Pahang"
    },
    {
        "Postcode": "28000",
        "Location": "Jalan Selayang",
        "Post_Office": "Temerloh",
        "State": "Pahang"
    },
    {
        "Postcode": "28000",
        "Location": "Jalan Semantan",
        "Post_Office": "Temerloh",
        "State": "Pahang"
    },
    {
        "Postcode": "28000",
        "Location": "Jalan Serindit",
        "Post_Office": "Temerloh",
        "State": "Pahang"
    },
    {
        "Postcode": "28000",
        "Location": "Jalan Setia Jasa",
        "Post_Office": "Temerloh",
        "State": "Pahang"
    },
    {
        "Postcode": "28000",
        "Location": "Jalan Sinar",
        "Post_Office": "Temerloh",
        "State": "Pahang"
    },
    {
        "Postcode": "28000",
        "Location": "Jalan Sudirman",
        "Post_Office": "Temerloh",
        "State": "Pahang"
    },
    {
        "Postcode": "28000",
        "Location": "Jalan Tan Sri Yahya",
        "Post_Office": "Temerloh",
        "State": "Pahang"
    },
    {
        "Postcode": "28000",
        "Location": "Jalan Temerloh Jaya",
        "Post_Office": "Temerloh",
        "State": "Pahang"
    },
    {
        "Postcode": "28000",
        "Location": "Jalan Temerloh Makmur",
        "Post_Office": "Temerloh",
        "State": "Pahang"
    },
    {
        "Postcode": "28000",
        "Location": "Jalan Tengku Bakar",
        "Post_Office": "Temerloh",
        "State": "Pahang"
    },
    {
        "Postcode": "28000",
        "Location": "Jalan Tok Muda Awang Ngah",
        "Post_Office": "Temerloh",
        "State": "Pahang"
    },
    {
        "Postcode": "28000",
        "Location": "Jalan Tunku Ismail",
        "Post_Office": "Temerloh",
        "State": "Pahang"
    },
    {
        "Postcode": "28000",
        "Location": "Kampung Bachap",
        "Post_Office": "Temerloh",
        "State": "Pahang"
    },
    {
        "Postcode": "28000",
        "Location": "Kampung Badok",
        "Post_Office": "Temerloh",
        "State": "Pahang"
    },
    {
        "Postcode": "28000",
        "Location": "Kampung Bangau",
        "Post_Office": "Temerloh",
        "State": "Pahang"
    },
    {
        "Postcode": "28000",
        "Location": "Kampung Bangau Parit",
        "Post_Office": "Temerloh",
        "State": "Pahang"
    },
    {
        "Postcode": "28000",
        "Location": "Kampung Bangau Tanjong Keramat",
        "Post_Office": "Temerloh",
        "State": "Pahang"
    },
    {
        "Postcode": "28000",
        "Location": "Kampung Bangau Tanjung",
        "Post_Office": "Temerloh",
        "State": "Pahang"
    },
    {
        "Postcode": "28000",
        "Location": "Kampung Baru Belengu",
        "Post_Office": "Temerloh",
        "State": "Pahang"
    },
    {
        "Postcode": "28000",
        "Location": "Kampung Baru Bintang",
        "Post_Office": "Temerloh",
        "State": "Pahang"
    },
    {
        "Postcode": "28000",
        "Location": "Kampung Baru Kabut",
        "Post_Office": "Temerloh",
        "State": "Pahang"
    },
    {
        "Postcode": "28000",
        "Location": "Kampung Baru Lebak",
        "Post_Office": "Temerloh",
        "State": "Pahang"
    },
    {
        "Postcode": "28000",
        "Location": "Kampung Batu 1",
        "Post_Office": "Temerloh",
        "State": "Pahang"
    },
    {
        "Postcode": "28000",
        "Location": "Kampung Bau Berhala Kapas",
        "Post_Office": "Temerloh",
        "State": "Pahang"
    },
    {
        "Postcode": "28000",
        "Location": "Kampung Belenggu",
        "Post_Office": "Temerloh",
        "State": "Pahang"
    },
    {
        "Postcode": "28000",
        "Location": "Kampung Belengka",
        "Post_Office": "Temerloh",
        "State": "Pahang"
    },
    {
        "Postcode": "28000",
        "Location": "Kampung Belengu",
        "Post_Office": "Temerloh",
        "State": "Pahang"
    },
    {
        "Postcode": "28000",
        "Location": "Kampung Bergala Gantang",
        "Post_Office": "Temerloh",
        "State": "Pahang"
    },
    {
        "Postcode": "28000",
        "Location": "Kampung Bintang",
        "Post_Office": "Temerloh",
        "State": "Pahang"
    },
    {
        "Postcode": "28000",
        "Location": "Kampung Bohor Baharu",
        "Post_Office": "Temerloh",
        "State": "Pahang"
    },
    {
        "Postcode": "28000",
        "Location": "Kampung Bukit Bintang",
        "Post_Office": "Temerloh",
        "State": "Pahang"
    },
    {
        "Postcode": "28000",
        "Location": "Kampung Bukit Jelutong",
        "Post_Office": "Temerloh",
        "State": "Pahang"
    },
    {
        "Postcode": "28000",
        "Location": "Kampung Bukit Kelulut",
        "Post_Office": "Temerloh",
        "State": "Pahang"
    },
    {
        "Postcode": "28000",
        "Location": "Kampung Bukit Kepayang",
        "Post_Office": "Temerloh",
        "State": "Pahang"
    },
    {
        "Postcode": "28000",
        "Location": "Kampung Bukit Napi",
        "Post_Office": "Temerloh",
        "State": "Pahang"
    },
    {
        "Postcode": "28000",
        "Location": "Kampung Bukit Pak Silap",
        "Post_Office": "Temerloh",
        "State": "Pahang"
    },
    {
        "Postcode": "28000",
        "Location": "Kampung Bukit Segumpal",
        "Post_Office": "Temerloh",
        "State": "Pahang"
    },
    {
        "Postcode": "28000",
        "Location": "Kampung Bukit Tinggi",
        "Post_Office": "Temerloh",
        "State": "Pahang"
    },
    {
        "Postcode": "28000",
        "Location": "Kampung Bukit Tingkat",
        "Post_Office": "Temerloh",
        "State": "Pahang"
    },
    {
        "Postcode": "28000",
        "Location": "Kampung Chengal",
        "Post_Office": "Temerloh",
        "State": "Pahang"
    },
    {
        "Postcode": "28000",
        "Location": "Kampung Desa Murni (Songsang)",
        "Post_Office": "Temerloh",
        "State": "Pahang"
    },
    {
        "Postcode": "28000",
        "Location": "Kampung Durian Daun",
        "Post_Office": "Temerloh",
        "State": "Pahang"
    },
    {
        "Postcode": "28000",
        "Location": "Kampung Durian Duduk",
        "Post_Office": "Temerloh",
        "State": "Pahang"
    },
    {
        "Postcode": "28000",
        "Location": "Kampung Durian Tikus",
        "Post_Office": "Temerloh",
        "State": "Pahang"
    },
    {
        "Postcode": "28000",
        "Location": "Kampung Embun",
        "Post_Office": "Temerloh",
        "State": "Pahang"
    },
    {
        "Postcode": "28000",
        "Location": "Kampung Haji Long",
        "Post_Office": "Temerloh",
        "State": "Pahang"
    },
    {
        "Postcode": "28000",
        "Location": "Kampung Haji Saleh",
        "Post_Office": "Temerloh",
        "State": "Pahang"
    },
    {
        "Postcode": "28000",
        "Location": "Kampung Jalan Maran",
        "Post_Office": "Temerloh",
        "State": "Pahang"
    },
    {
        "Postcode": "28000",
        "Location": "Kampung Keladan",
        "Post_Office": "Temerloh",
        "State": "Pahang"
    },
    {
        "Postcode": "28000",
        "Location": "Kampung Kerinau",
        "Post_Office": "Temerloh",
        "State": "Pahang"
    },
    {
        "Postcode": "28000",
        "Location": "Kampung Kuala Kujan",
        "Post_Office": "Temerloh",
        "State": "Pahang"
    },
    {
        "Postcode": "28000",
        "Location": "Kampung Kuala Sanggang",
        "Post_Office": "Temerloh",
        "State": "Pahang"
    },
    {
        "Postcode": "28000",
        "Location": "Kampung Lebak Seberang",
        "Post_Office": "Temerloh",
        "State": "Pahang"
    },
    {
        "Postcode": "28000",
        "Location": "Kampung Lompat",
        "Post_Office": "Temerloh",
        "State": "Pahang"
    },
    {
        "Postcode": "28000",
        "Location": "Kampung Lubok Layang",
        "Post_Office": "Temerloh",
        "State": "Pahang"
    },
    {
        "Postcode": "28000",
        "Location": "Kampung Macang Manis",
        "Post_Office": "Temerloh",
        "State": "Pahang"
    },
    {
        "Postcode": "28000",
        "Location": "Kampung Megat Segama",
        "Post_Office": "Temerloh",
        "State": "Pahang"
    },
    {
        "Postcode": "28000",
        "Location": "Kampung Padang Tenggala",
        "Post_Office": "Temerloh",
        "State": "Pahang"
    },
    {
        "Postcode": "28000",
        "Location": "Kampung Pamah",
        "Post_Office": "Temerloh",
        "State": "Pahang"
    },
    {
        "Postcode": "28000",
        "Location": "Kampung Pamah Kasih",
        "Post_Office": "Temerloh",
        "State": "Pahang"
    },
    {
        "Postcode": "28000",
        "Location": "Kampung Pangsanam",
        "Post_Office": "Temerloh",
        "State": "Pahang"
    },
    {
        "Postcode": "28000",
        "Location": "Kampung Papan Tuai",
        "Post_Office": "Temerloh",
        "State": "Pahang"
    },
    {
        "Postcode": "28000",
        "Location": "Kampung Paya Ara",
        "Post_Office": "Temerloh",
        "State": "Pahang"
    },
    {
        "Postcode": "28000",
        "Location": "Kampung Paya Badak",
        "Post_Office": "Temerloh",
        "State": "Pahang"
    },
    {
        "Postcode": "28000",
        "Location": "Kampung Paya Banir",
        "Post_Office": "Temerloh",
        "State": "Pahang"
    },
    {
        "Postcode": "28000",
        "Location": "Kampung Paya Batu",
        "Post_Office": "Temerloh",
        "State": "Pahang"
    },
    {
        "Postcode": "28000",
        "Location": "Kampung Paya Dalam",
        "Post_Office": "Temerloh",
        "State": "Pahang"
    },
    {
        "Postcode": "28000",
        "Location": "Kampung Paya Jauh",
        "Post_Office": "Temerloh",
        "State": "Pahang"
    },
    {
        "Postcode": "28000",
        "Location": "Kampung Paya Jejawi",
        "Post_Office": "Temerloh",
        "State": "Pahang"
    },
    {
        "Postcode": "28000",
        "Location": "Kampung Paya Kechik",
        "Post_Office": "Temerloh",
        "State": "Pahang"
    },
    {
        "Postcode": "28000",
        "Location": "Kampung Paya Kerbau",
        "Post_Office": "Temerloh",
        "State": "Pahang"
    },
    {
        "Postcode": "28000",
        "Location": "Kampung Paya Kubu",
        "Post_Office": "Temerloh",
        "State": "Pahang"
    },
    {
        "Postcode": "28000",
        "Location": "Kampung Paya Pedak",
        "Post_Office": "Temerloh",
        "State": "Pahang"
    },
    {
        "Postcode": "28000",
        "Location": "Kampung Paya Pulai",
        "Post_Office": "Temerloh",
        "State": "Pahang"
    },
    {
        "Postcode": "28000",
        "Location": "Kampung Paya Salak",
        "Post_Office": "Temerloh",
        "State": "Pahang"
    },
    {
        "Postcode": "28000",
        "Location": "Kampung Paya Senayan",
        "Post_Office": "Temerloh",
        "State": "Pahang"
    },
    {
        "Postcode": "28000",
        "Location": "Kampung Paya Tambang",
        "Post_Office": "Temerloh",
        "State": "Pahang"
    },
    {
        "Postcode": "28000",
        "Location": "Kampung Pengkalan Jaya",
        "Post_Office": "Temerloh",
        "State": "Pahang"
    },
    {
        "Postcode": "28000",
        "Location": "Kampung Pengkalan Manggis",
        "Post_Office": "Temerloh",
        "State": "Pahang"
    },
    {
        "Postcode": "28000",
        "Location": "Kampung Perak",
        "Post_Office": "Temerloh",
        "State": "Pahang"
    },
    {
        "Postcode": "28000",
        "Location": "Kampung Pulau Isu",
        "Post_Office": "Temerloh",
        "State": "Pahang"
    },
    {
        "Postcode": "28000",
        "Location": "Kampung Pulau Terap",
        "Post_Office": "Temerloh",
        "State": "Pahang"
    },
    {
        "Postcode": "28000",
        "Location": "Kampung Raja Senggang",
        "Post_Office": "Temerloh",
        "State": "Pahang"
    },
    {
        "Postcode": "28000",
        "Location": "Kampung Raju",
        "Post_Office": "Temerloh",
        "State": "Pahang"
    },
    {
        "Postcode": "28000",
        "Location": "Kampung Sanggang Seberang",
        "Post_Office": "Temerloh",
        "State": "Pahang"
    },
    {
        "Postcode": "28000",
        "Location": "Kampung Seberang Temerloh",
        "Post_Office": "Temerloh",
        "State": "Pahang"
    },
    {
        "Postcode": "28000",
        "Location": "Kampung Seladang",
        "Post_Office": "Temerloh",
        "State": "Pahang"
    },
    {
        "Postcode": "28000",
        "Location": "Kampung Semat",
        "Post_Office": "Temerloh",
        "State": "Pahang"
    },
    {
        "Postcode": "28000",
        "Location": "Kampung Simpang Kawah",
        "Post_Office": "Temerloh",
        "State": "Pahang"
    },
    {
        "Postcode": "28000",
        "Location": "Kampung Sungai Kudang",
        "Post_Office": "Temerloh",
        "State": "Pahang"
    },
    {
        "Postcode": "28000",
        "Location": "Kampung Sungai Nerek",
        "Post_Office": "Temerloh",
        "State": "Pahang"
    },
    {
        "Postcode": "28000",
        "Location": "Kampung Sungai Rabit",
        "Post_Office": "Temerloh",
        "State": "Pahang"
    },
    {
        "Postcode": "28000",
        "Location": "Kampung Sungai Siak",
        "Post_Office": "Temerloh",
        "State": "Pahang"
    },
    {
        "Postcode": "28000",
        "Location": "Kampung Talau",
        "Post_Office": "Temerloh",
        "State": "Pahang"
    },
    {
        "Postcode": "28000",
        "Location": "Kampung Tanah Merah",
        "Post_Office": "Temerloh",
        "State": "Pahang"
    },
    {
        "Postcode": "28000",
        "Location": "Kampung Tanjong Belenggu",
        "Post_Office": "Temerloh",
        "State": "Pahang"
    },
    {
        "Postcode": "28000",
        "Location": "Kampung Tanjung",
        "Post_Office": "Temerloh",
        "State": "Pahang"
    },
    {
        "Postcode": "28000",
        "Location": "Kampung Tanjung Bunga",
        "Post_Office": "Temerloh",
        "State": "Pahang"
    },
    {
        "Postcode": "28000",
        "Location": "Kampung Tanjung Riau",
        "Post_Office": "Temerloh",
        "State": "Pahang"
    },
    {
        "Postcode": "28000",
        "Location": "Kampung Tanjung Teberau",
        "Post_Office": "Temerloh",
        "State": "Pahang"
    },
    {
        "Postcode": "28000",
        "Location": "Kampung Tebal",
        "Post_Office": "Temerloh",
        "State": "Pahang"
    },
    {
        "Postcode": "28000",
        "Location": "Kampung Teluk Ira",
        "Post_Office": "Temerloh",
        "State": "Pahang"
    },
    {
        "Postcode": "28000",
        "Location": "Kampung Teluk Mengkuang",
        "Post_Office": "Temerloh",
        "State": "Pahang"
    },
    {
        "Postcode": "28000",
        "Location": "Kampung Teluk Sentang",
        "Post_Office": "Temerloh",
        "State": "Pahang"
    },
    {
        "Postcode": "28000",
        "Location": "Kampung Tenabal",
        "Post_Office": "Temerloh",
        "State": "Pahang"
    },
    {
        "Postcode": "28000",
        "Location": "Kampung Tenggoh",
        "Post_Office": "Temerloh",
        "State": "Pahang"
    },
    {
        "Postcode": "28000",
        "Location": "Kampung Tenggoh Seberang",
        "Post_Office": "Temerloh",
        "State": "Pahang"
    },
    {
        "Postcode": "28000",
        "Location": "Kampung Tualang",
        "Post_Office": "Temerloh",
        "State": "Pahang"
    },
    {
        "Postcode": "28000",
        "Location": "Ladang Lebak",
        "Post_Office": "Temerloh",
        "State": "Pahang"
    },
    {
        "Postcode": "28000",
        "Location": "Padang Lalang, Temerloh",
        "Post_Office": "Temerloh",
        "State": "Pahang"
    },
    {
        "Postcode": "28000",
        "Location": "Simpang Jengka (Batu 2 3/4)",
        "Post_Office": "Temerloh",
        "State": "Pahang"
    },
    {
        "Postcode": "28000",
        "Location": "Songsang",
        "Post_Office": "Temerloh",
        "State": "Pahang"
    },
    {
        "Postcode": "28000",
        "Location": "Taman Bahagia Baru",
        "Post_Office": "Temerloh",
        "State": "Pahang"
    },
    {
        "Postcode": "28000",
        "Location": "Taman Bahagia Jaya",
        "Post_Office": "Temerloh",
        "State": "Pahang"
    },
    {
        "Postcode": "28000",
        "Location": "Taman Bukit Angin",
        "Post_Office": "Temerloh",
        "State": "Pahang"
    },
    {
        "Postcode": "28000",
        "Location": "Taman Cahaya",
        "Post_Office": "Temerloh",
        "State": "Pahang"
    },
    {
        "Postcode": "28000",
        "Location": "Taman Chengal",
        "Post_Office": "Temerloh",
        "State": "Pahang"
    },
    {
        "Postcode": "28000",
        "Location": "Taman Kamariah",
        "Post_Office": "Temerloh",
        "State": "Pahang"
    },
    {
        "Postcode": "28000",
        "Location": "Taman Karpagar",
        "Post_Office": "Temerloh",
        "State": "Pahang"
    },
    {
        "Postcode": "28000",
        "Location": "Taman Perindu",
        "Post_Office": "Temerloh",
        "State": "Pahang"
    },
    {
        "Postcode": "28000",
        "Location": "Taman Semantan Indah",
        "Post_Office": "Temerloh",
        "State": "Pahang"
    },
    {
        "Postcode": "28000",
        "Location": "Taman Seri Bahgia",
        "Post_Office": "Temerloh",
        "State": "Pahang"
    },
    {
        "Postcode": "28000",
        "Location": "Taman Seri Semantan",
        "Post_Office": "Temerloh",
        "State": "Pahang"
    },
    {
        "Postcode": "28000",
        "Location": "Taman Setia Jasa",
        "Post_Office": "Temerloh",
        "State": "Pahang"
    },
    {
        "Postcode": "28000",
        "Location": "Taman Sri Bahagia Baru",
        "Post_Office": "Temerloh",
        "State": "Pahang"
    },
    {
        "Postcode": "28000",
        "Location": "Taman Sri Indera",
        "Post_Office": "Temerloh",
        "State": "Pahang"
    },
    {
        "Postcode": "28000",
        "Location": "Taman Sri Kemuning",
        "Post_Office": "Temerloh",
        "State": "Pahang"
    },
    {
        "Postcode": "28000",
        "Location": "Jalan Aman",
        "Post_Office": "Temerloh",
        "State": "Pahang"
    },
    {
        "Postcode": "28000",
        "Location": "Jalan Damai",
        "Post_Office": "Temerloh",
        "State": "Pahang"
    },
    {
        "Postcode": "28000",
        "Location": "Jalan Murai",
        "Post_Office": "Temerloh",
        "State": "Pahang"
    },
    {
        "Postcode": "28000",
        "Location": "Kampung Belimbing",
        "Post_Office": "Temerloh",
        "State": "Pahang"
    },
    {
        "Postcode": "28000",
        "Location": "Kampung Bukit Batu",
        "Post_Office": "Temerloh",
        "State": "Pahang"
    },
    {
        "Postcode": "28000",
        "Location": "Kampung Bukit Kemuning",
        "Post_Office": "Temerloh",
        "State": "Pahang"
    },
    {
        "Postcode": "28000",
        "Location": "Kampung Buntut Pulau",
        "Post_Office": "Temerloh",
        "State": "Pahang"
    },
    {
        "Postcode": "28000",
        "Location": "Kampung Loyang",
        "Post_Office": "Temerloh",
        "State": "Pahang"
    },
    {
        "Postcode": "28000",
        "Location": "Kampung Lubuk Kawah",
        "Post_Office": "Temerloh",
        "State": "Pahang"
    },
    {
        "Postcode": "28000",
        "Location": "Kampung Padang Lalang",
        "Post_Office": "Temerloh",
        "State": "Pahang"
    },
    {
        "Postcode": "28000",
        "Location": "Kampung Paya Luas",
        "Post_Office": "Temerloh",
        "State": "Pahang"
    },
    {
        "Postcode": "28000",
        "Location": "Kampung Paya Mengkuang",
        "Post_Office": "Temerloh",
        "State": "Pahang"
    },
    {
        "Postcode": "28000",
        "Location": "Kampung Penak",
        "Post_Office": "Temerloh",
        "State": "Pahang"
    },
    {
        "Postcode": "28000",
        "Location": "Kampung Selindang",
        "Post_Office": "Temerloh",
        "State": "Pahang"
    },
    {
        "Postcode": "28000",
        "Location": "Kampung Tanjung Batu",
        "Post_Office": "Temerloh",
        "State": "Pahang"
    },
    {
        "Postcode": "28000",
        "Location": "Kampung Tanjung Besar",
        "Post_Office": "Temerloh",
        "State": "Pahang"
    },
    {
        "Postcode": "28000",
        "Location": "Kampung Tanjung Lalang",
        "Post_Office": "Temerloh",
        "State": "Pahang"
    },
    {
        "Postcode": "28000",
        "Location": "Kampung Tengah",
        "Post_Office": "Temerloh",
        "State": "Pahang"
    },
    {
        "Postcode": "28000",
        "Location": "Taman Bunga Raya",
        "Post_Office": "Temerloh",
        "State": "Pahang"
    },
    {
        "Postcode": "28000",
        "Location": "Taman Cempaka",
        "Post_Office": "Temerloh",
        "State": "Pahang"
    },
    {
        "Postcode": "28000",
        "Location": "Taman Harapan",
        "Post_Office": "Temerloh",
        "State": "Pahang"
    },
    {
        "Postcode": "28000",
        "Location": "Taman Intan",
        "Post_Office": "Temerloh",
        "State": "Pahang"
    },
    {
        "Postcode": "28000",
        "Location": "Taman Muhibbah",
        "Post_Office": "Temerloh",
        "State": "Pahang"
    },
    {
        "Postcode": "28000",
        "Location": "Taman Setia",
        "Post_Office": "Temerloh",
        "State": "Pahang"
    },
    {
        "Postcode": "28000",
        "Location": "Desa Bangau",
        "Post_Office": "Temerloh",
        "State": "Pahang"
    },
    {
        "Postcode": "28000",
        "Location": "Jalan Ngau Ken Lock",
        "Post_Office": "Temerloh",
        "State": "Pahang"
    },
    {
        "Postcode": "28000",
        "Location": "Pusat Komersial Dynaton Bukit Angin",
        "Post_Office": "Temerloh",
        "State": "Pahang"
    },
    {
        "Postcode": "28000",
        "Location": "Pusat Perniagaan Chengal",
        "Post_Office": "Temerloh",
        "State": "Pahang"
    },
    {
        "Postcode": "28000",
        "Location": "Taman Bahagia Intan",
        "Post_Office": "Temerloh",
        "State": "Pahang"
    },
    {
        "Postcode": "28000",
        "Location": "Taman Bahagia Makmur",
        "Post_Office": "Temerloh",
        "State": "Pahang"
    },
    {
        "Postcode": "28000",
        "Location": "Taman Bougainvillea Permai 1",
        "Post_Office": "Temerloh",
        "State": "Pahang"
    },
    {
        "Postcode": "28000",
        "Location": "Taman Bukit Kelulut",
        "Post_Office": "Temerloh",
        "State": "Pahang"
    },
    {
        "Postcode": "28000",
        "Location": "Taman Dynaton Saujana",
        "Post_Office": "Temerloh",
        "State": "Pahang"
    },
    {
        "Postcode": "28000",
        "Location": "Taman Gau Indah",
        "Post_Office": "Temerloh",
        "State": "Pahang"
    },
    {
        "Postcode": "28000",
        "Location": "Taman Jaya 3",
        "Post_Office": "Temerloh",
        "State": "Pahang"
    },
    {
        "Postcode": "28000",
        "Location": "Taman Jaya 4",
        "Post_Office": "Temerloh",
        "State": "Pahang"
    },
    {
        "Postcode": "28000",
        "Location": "Taman Jaya 8",
        "Post_Office": "Temerloh",
        "State": "Pahang"
    },
    {
        "Postcode": "28000",
        "Location": "Taman Paya Pulai",
        "Post_Office": "Temerloh",
        "State": "Pahang"
    },
    {
        "Postcode": "28000",
        "Location": "Taman Prima Setia",
        "Post_Office": "Temerloh",
        "State": "Pahang"
    },
    {
        "Postcode": "28000",
        "Location": "Taman Pulai Idaman",
        "Post_Office": "Temerloh",
        "State": "Pahang"
    },
    {
        "Postcode": "28000",
        "Location": "Taman Pulai Murni",
        "Post_Office": "Temerloh",
        "State": "Pahang"
    },
    {
        "Postcode": "28000",
        "Location": "Taman Seberang Damai",
        "Post_Office": "Temerloh",
        "State": "Pahang"
    },
    {
        "Postcode": "28000",
        "Location": "Taman Seberang Temerloh",
        "Post_Office": "Temerloh",
        "State": "Pahang"
    },
    {
        "Postcode": "28000",
        "Location": "Taman Sri Kemuning Indah",
        "Post_Office": "Temerloh",
        "State": "Pahang"
    },
    {
        "Postcode": "28000",
        "Location": "Taman Temerloh",
        "Post_Office": "Temerloh",
        "State": "Pahang"
    },
    {
        "Postcode": "28000",
        "Location": "Taman Temerloh Makmur",
        "Post_Office": "Temerloh",
        "State": "Pahang"
    },
    {
        "Postcode": "28000",
        "Location": "Taman Pulai Mutiara",
        "Post_Office": "Temerloh ",
        "State": "Pahang"
    },
    {
        "Postcode": "28000",
        "Location": "Taman Sri Kerinau",
        "Post_Office": "Temerloh",
        "State": "Pahang"
    },
    {
        "Postcode": "28000",
        "Location": "Taman Temerloh Jaya",
        "Post_Office": "Temerloh",
        "State": "Pahang"
    },
    {
        "Postcode": "28000",
        "Location": "Taman Ti Wah Indah",
        "Post_Office": "Temerloh",
        "State": "Pahang"
    },
    {
        "Postcode": "28000",
        "Location": "Teluk Mengkuang",
        "Post_Office": "Temerloh",
        "State": "Pahang"
    },
    {
        "Postcode": "28000",
        "Location": "Temerloh",
        "Post_Office": "Temerloh",
        "State": "Pahang"
    },
    {
        "Postcode": "28000",
        "Location": "Zon Perindustrian Songsang",
        "Post_Office": "Temerloh",
        "State": "Pahang"
    }
]
