[
    {
        "Postcode": "28010",
        "Location": "Kampung Batu Balai",
        "Post_Office": "Temerloh",
        "State": "Pahang"
    },
    {
        "Postcode": "28010",
        "Location": "Kampung Ayer Hitam",
        "Post_Office": "Temerloh",
        "State": "Pahang"
    },
    {
        "Postcode": "28010",
        "Location": "Kampung Batu Lada",
        "Post_Office": "Temerloh",
        "State": "Pahang"
    },
    {
        "Postcode": "28010",
        "Location": "Kampung Belara",
        "Post_Office": "Temerloh",
        "State": "Pahang"
    },
    {
        "Postcode": "28010",
        "Location": "Kampung Bengkek",
        "Post_Office": "Temerloh",
        "State": "Pahang"
    },
    {
        "Postcode": "28010",
        "Location": "Kampung Benom",
        "Post_Office": "Temerloh",
        "State": "Pahang"
    },
    {
        "Postcode": "28010",
        "Location": "Kampung Charak",
        "Post_Office": "Temerloh",
        "State": "Pahang"
    },
    {
        "Postcode": "28010",
        "Location": "Kampung Ketam",
        "Post_Office": "Temerloh",
        "State": "Pahang"
    },
    {
        "Postcode": "28010",
        "Location": "Kampung Kuala Kerdau",
        "Post_Office": "Temerloh",
        "State": "Pahang"
    },
    {
        "Postcode": "28010",
        "Location": "Kampung Lipat Kajang",
        "Post_Office": "Temerloh",
        "State": "Pahang"
    },
    {
        "Postcode": "28010",
        "Location": "Kampung Peng Rasau",
        "Post_Office": "Temerloh",
        "State": "Pahang"
    },
    {
        "Postcode": "28010",
        "Location": "Kampung Peragoh",
        "Post_Office": "Temerloh",
        "State": "Pahang"
    },
    {
        "Postcode": "28010",
        "Location": "Kampung Pergap",
        "Post_Office": "Temerloh",
        "State": "Pahang"
    },
    {
        "Postcode": "28010",
        "Location": "Kampung Romia",
        "Post_Office": "Temerloh",
        "State": "Pahang"
    },
    {
        "Postcode": "28010",
        "Location": "Kampung Sungai Gau",
        "Post_Office": "Temerloh",
        "State": "Pahang"
    },
    {
        "Postcode": "28010",
        "Location": "Kampung Titi",
        "Post_Office": "Temerloh",
        "State": "Pahang"
    },
    {
        "Postcode": "28010",
        "Location": "Keladan",
        "Post_Office": "Temerloh",
        "State": "Pahang"
    }
]
