[
    {
        "Postcode": "28020",
        "Location": "Kampung Loyang",
        "Post_Office": "Temerloh",
        "State": "Pahang"
    },
    {
        "Postcode": "28020",
        "Location": "Kampung Orang Asli",
        "Post_Office": "Temerloh",
        "State": "Pahang"
    },
    {
        "Postcode": "28020",
        "Location": "Kampung Songsang",
        "Post_Office": "Temerloh",
        "State": "Pahang"
    },
    {
        "Postcode": "28020",
        "Location": "Taman Keledan Indah",
        "Post_Office": "Temerloh",
        "State": "Pahang"
    },
    {
        "Postcode": "28020",
        "Location": "Perumahan Rakyat Bukit Lada",
        "Post_Office": "Temerloh",
        "State": "Pahang"
    },
    {
        "Postcode": "28020",
        "Location": "Belangka",
        "Post_Office": "Temerloh",
        "State": "Pahang"
    },
    {
        "Postcode": "28020",
        "Location": "Bukit Tongkat",
        "Post_Office": "Temerloh",
        "State": "Pahang"
    },
    {
        "Postcode": "28020",
        "Location": "Kampung Bangau Hilir",
        "Post_Office": "Temerloh",
        "State": "Pahang"
    },
    {
        "Postcode": "28020",
        "Location": "Kampung Bangau Tanjong",
        "Post_Office": "Temerloh",
        "State": "Pahang"
    },
    {
        "Postcode": "28020",
        "Location": "Kampung Darat Sanggang",
        "Post_Office": "Temerloh",
        "State": "Pahang"
    },
    {
        "Postcode": "28020",
        "Location": "Kampung Kenalau",
        "Post_Office": "Temerloh",
        "State": "Pahang"
    },
    {
        "Postcode": "28020",
        "Location": "Kampung Paya Keladan",
        "Post_Office": "Temerloh",
        "State": "Pahang"
    },
    {
        "Postcode": "28020",
        "Location": "Kampung Sanggang",
        "Post_Office": "Temerloh",
        "State": "Pahang"
    },
    {
        "Postcode": "28020",
        "Location": "Kampung Sanggang Bahagia",
        "Post_Office": "Temerloh",
        "State": "Pahang"
    },
    {
        "Postcode": "28020",
        "Location": "Kampung Simpang Sanggang",
        "Post_Office": "Temerloh",
        "State": "Pahang"
    },
    {
        "Postcode": "28020",
        "Location": "Kampung Tan Sri Yahya",
        "Post_Office": "Temerloh",
        "State": "Pahang"
    },
    {
        "Postcode": "28020",
        "Location": "Kampung Tanjong Keramat",
        "Post_Office": "Temerloh",
        "State": "Pahang"
    },
    {
        "Postcode": "28020",
        "Location": "Kerdau",
        "Post_Office": "Temerloh",
        "State": "Pahang"
    },
    {
        "Postcode": "28020",
        "Location": "Lubok Kawah",
        "Post_Office": "Temerloh",
        "State": "Pahang"
    },
    {
        "Postcode": "28020",
        "Location": "Paya Banir",
        "Post_Office": "Temerloh",
        "State": "Pahang"
    },
    {
        "Postcode": "28020",
        "Location": "Paya Jejawi",
        "Post_Office": "Temerloh",
        "State": "Pahang"
    },
    {
        "Postcode": "28020",
        "Location": "Tebing Tinggi, Temerloh",
        "Post_Office": "Temerloh",
        "State": "Pahang"
    }
]
