[
    {
        "Postcode": "28040",
        "Location": "Kampung Tebing Tinggi",
        "Post_Office": "Temerloh",
        "State": "Pahang"
    },
    {
        "Postcode": "28040",
        "Location": "Kampung Baharu Bera",
        "Post_Office": "Temerloh",
        "State": "Pahang"
    },
    {
        "Postcode": "28040",
        "Location": "Kampung Batu Anchor",
        "Post_Office": "Temerloh",
        "State": "Pahang"
    },
    {
        "Postcode": "28040",
        "Location": "Kampung Bera",
        "Post_Office": "Temerloh",
        "State": "Pahang"
    },
    {
        "Postcode": "28040",
        "Location": "Kampung Bukit Rola",
        "Post_Office": "Temerloh",
        "State": "Pahang"
    },
    {
        "Postcode": "28040",
        "Location": "Kampung Guai",
        "Post_Office": "Temerloh",
        "State": "Pahang"
    },
    {
        "Postcode": "28040",
        "Location": "Kampung Karai",
        "Post_Office": "Temerloh",
        "State": "Pahang"
    },
    {
        "Postcode": "28040",
        "Location": "Kampung Lubok Lian",
        "Post_Office": "Temerloh",
        "State": "Pahang"
    },
    {
        "Postcode": "28040",
        "Location": "Kampung Pengkalan Terap",
        "Post_Office": "Temerloh",
        "State": "Pahang"
    },
    {
        "Postcode": "28040",
        "Location": "Kampung Tengah Bera",
        "Post_Office": "Temerloh",
        "State": "Pahang"
    },
    {
        "Postcode": "28040",
        "Location": "Sungai Nerek",
        "Post_Office": "Temerloh",
        "State": "Pahang"
    }
]
