[
    {
        "Postcode": "28050",
        "Location": "Kampung Bukit Lada",
        "Post_Office": "Kuala Krau",
        "State": "Pahang"
    },
    {
        "Postcode": "28050",
        "Location": "Kampung Gajah Mati",
        "Post_Office": "Kuala Krau",
        "State": "Pahang"
    },
    {
        "Postcode": "28050",
        "Location": "Kampung Masjid",
        "Post_Office": "Kuala Krau",
        "State": "Pahang"
    },
    {
        "Postcode": "28050",
        "Location": "Kampung Telok",
        "Post_Office": "Kuala Krau",
        "State": "Pahang"
    },
    {
        "Postcode": "28050",
        "Location": "Kampung Batu Sawar",
        "Post_Office": "Kuala Krau",
        "State": "Pahang"
    },
    {
        "Postcode": "28050",
        "Location": "Kampung Bukit Ketupat",
        "Post_Office": "Kuala Krau",
        "State": "Pahang"
    },
    {
        "Postcode": "28050",
        "Location": "Kampung Pandan",
        "Post_Office": "Kuala Krau",
        "State": "Pahang"
    },
    {
        "Postcode": "28050",
        "Location": "Kampung Paya Baru",
        "Post_Office": "Kuala Krau",
        "State": "Pahang"
    },
    {
        "Postcode": "28050",
        "Location": "Kampung Paya Luas",
        "Post_Office": "Kuala Krau",
        "State": "Pahang"
    },
    {
        "Postcode": "28050",
        "Location": "Taman Mewah",
        "Post_Office": "Kuala Krau",
        "State": "Pahang"
    },
    {
        "Postcode": "28050",
        "Location": "Buntar",
        "Post_Office": "Kuala Krau",
        "State": "Pahang"
    },
    {
        "Postcode": "28050",
        "Location": "Felcra Ulu Jenut",
        "Post_Office": "Kuala Krau",
        "State": "Pahang"
    },
    {
        "Postcode": "28050",
        "Location": "Felda Jenderak Selatan",
        "Post_Office": "Kuala Krau",
        "State": "Pahang"
    },
    {
        "Postcode": "28050",
        "Location": "Felda Jenderak Utara",
        "Post_Office": "Kuala Krau",
        "State": "Pahang"
    },
    {
        "Postcode": "28050",
        "Location": "Kampung Badak",
        "Post_Office": "Kuala Krau",
        "State": "Pahang"
    },
    {
        "Postcode": "28050",
        "Location": "Kampung Batu Gading",
        "Post_Office": "Kuala Krau",
        "State": "Pahang"
    },
    {
        "Postcode": "28050",
        "Location": "Kampung Dato Shariff Ahmad",
        "Post_Office": "Kuala Krau",
        "State": "Pahang"
    },
    {
        "Postcode": "28050",
        "Location": "Kampung Dungai Cheh",
        "Post_Office": "Kuala Krau",
        "State": "Pahang"
    },
    {
        "Postcode": "28050",
        "Location": "Kampung Dungai Hijau",
        "Post_Office": "Kuala Krau",
        "State": "Pahang"
    },
    {
        "Postcode": "28050",
        "Location": "Kampung Gempu",
        "Post_Office": "Kuala Krau",
        "State": "Pahang"
    },
    {
        "Postcode": "28050",
        "Location": "Kampung Gong Halt",
        "Post_Office": "Kuala Krau",
        "State": "Pahang"
    },
    {
        "Postcode": "28050",
        "Location": "Kampung Gunung Senyum",
        "Post_Office": "Kuala Krau",
        "State": "Pahang"
    },
    {
        "Postcode": "28050",
        "Location": "Kampung Jenderak",
        "Post_Office": "Kuala Krau",
        "State": "Pahang"
    },
    {
        "Postcode": "28050",
        "Location": "Kampung Jenggok",
        "Post_Office": "Kuala Krau",
        "State": "Pahang"
    },
    {
        "Postcode": "28050",
        "Location": "Kampung Kuala Krau",
        "Post_Office": "Kuala Krau",
        "State": "Pahang"
    },
    {
        "Postcode": "28050",
        "Location": "Kampung Kuala Mai",
        "Post_Office": "Kuala Krau",
        "State": "Pahang"
    },
    {
        "Postcode": "28050",
        "Location": "Kampung Kuala Tekal",
        "Post_Office": "Kuala Krau",
        "State": "Pahang"
    },
    {
        "Postcode": "28050",
        "Location": "Kampung Pasu",
        "Post_Office": "Kuala Krau",
        "State": "Pahang"
    },
    {
        "Postcode": "28050",
        "Location": "Kampung Paya Angut",
        "Post_Office": "Kuala Krau",
        "State": "Pahang"
    },
    {
        "Postcode": "28050",
        "Location": "Kampung Paya Sok",
        "Post_Office": "Kuala Krau",
        "State": "Pahang"
    },
    {
        "Postcode": "28050",
        "Location": "Kampung Paya Tajau",
        "Post_Office": "Kuala Krau",
        "State": "Pahang"
    },
    {
        "Postcode": "28050",
        "Location": "Kampung Penderas",
        "Post_Office": "Kuala Krau",
        "State": "Pahang"
    },
    {
        "Postcode": "28050",
        "Location": "Kampung Pian",
        "Post_Office": "Kuala Krau",
        "State": "Pahang"
    },
    {
        "Postcode": "28050",
        "Location": "Kampung Pulau Pasir Mandi",
        "Post_Office": "Kuala Krau",
        "State": "Pahang"
    },
    {
        "Postcode": "28050",
        "Location": "Kampung Pulau Pasir Mandi, Kuala Krau",
        "Post_Office": "Kuala Krau",
        "State": "Pahang"
    },
    {
        "Postcode": "28050",
        "Location": "Kampung Pulau Raya",
        "Post_Office": "Kuala Krau",
        "State": "Pahang"
    },
    {
        "Postcode": "28050",
        "Location": "Kampung Seboi",
        "Post_Office": "Kuala Krau",
        "State": "Pahang"
    },
    {
        "Postcode": "28050",
        "Location": "Kampung Sekoh",
        "Post_Office": "Kuala Krau",
        "State": "Pahang"
    },
    {
        "Postcode": "28050",
        "Location": "Kampung Sungai Dalam",
        "Post_Office": "Kuala Krau",
        "State": "Pahang"
    },
    {
        "Postcode": "28050",
        "Location": "Kampung Tanjong Buloh",
        "Post_Office": "Kuala Krau",
        "State": "Pahang"
    },
    {
        "Postcode": "28050",
        "Location": "Kampung Tanjong Kubu",
        "Post_Office": "Kuala Krau",
        "State": "Pahang"
    },
    {
        "Postcode": "28050",
        "Location": "Kampung Tanjong Prian",
        "Post_Office": "Kuala Krau",
        "State": "Pahang"
    },
    {
        "Postcode": "28050",
        "Location": "Kampung Tanjong Timbau",
        "Post_Office": "Kuala Krau",
        "State": "Pahang"
    },
    {
        "Postcode": "28050",
        "Location": "Kampung Telok Lengkuang",
        "Post_Office": "Kuala Krau",
        "State": "Pahang"
    },
    {
        "Postcode": "28050",
        "Location": "Kampung Telok Sabak",
        "Post_Office": "Kuala Krau",
        "State": "Pahang"
    },
    {
        "Postcode": "28050",
        "Location": "Kampung Terengging",
        "Post_Office": "Kuala Krau",
        "State": "Pahang"
    },
    {
        "Postcode": "28050",
        "Location": "Kuala Krau",
        "Post_Office": "Kuala Krau",
        "State": "Pahang"
    },
    {
        "Postcode": "28050",
        "Location": "Paya Mendoi",
        "Post_Office": "Kuala Krau",
        "State": "Pahang"
    },
    {
        "Postcode": "28050",
        "Location": "Pulau Chengal",
        "Post_Office": "Kuala Krau",
        "State": "Pahang"
    },
    {
        "Postcode": "28050",
        "Location": "Rumpun Makmur",
        "Post_Office": "Kuala Krau",
        "State": "Pahang"
    },
    {
        "Postcode": "28050",
        "Location": "Teluk Jerjak",
        "Post_Office": "Kuala Krau",
        "State": "Pahang"
    }
]
