[
    {
        "Postcode": "28100",
        "Location": "Kampung Gumai",
        "Post_Office": "Chenor",
        "State": "Pahang"
    },
    {
        "Postcode": "28100",
        "Location": "Kampung Pantai",
        "Post_Office": "Chenor",
        "State": "Pahang"
    },
    {
        "Postcode": "28100",
        "Location": "Kampung Raja",
        "Post_Office": "Chenor",
        "State": "Pahang"
    },
    {
        "Postcode": "28100",
        "Location": "Simpang Chenor",
        "Post_Office": "Chenor",
        "State": "Pahang"
    },
    {
        "Postcode": "28100",
        "Location": "Chenor",
        "Post_Office": "Chenor",
        "State": "Pahang"
    },
    {
        "Postcode": "28100",
        "Location": "Kampung Baru Pertanian Sungai Jempo",
        "Post_Office": "Chenor",
        "State": "Pahang"
    },
    {
        "Postcode": "28100",
        "Location": "Kampung Baru Sungai Ling",
        "Post_Office": "Chenor",
        "State": "Pahang"
    },
    {
        "Postcode": "28100",
        "Location": "Kampung Batu Bor",
        "Post_Office": "Chenor",
        "State": "Pahang"
    },
    {
        "Postcode": "28100",
        "Location": "Kampung Batu Kunta",
        "Post_Office": "Chenor",
        "State": "Pahang"
    },
    {
        "Postcode": "28100",
        "Location": "Kampung Belawan",
        "Post_Office": "Chenor",
        "State": "Pahang"
    },
    {
        "Postcode": "28100",
        "Location": "Kampung Bukit Batu Tampol",
        "Post_Office": "Chenor",
        "State": "Pahang"
    },
    {
        "Postcode": "28100",
        "Location": "Kampung Bukit Bota",
        "Post_Office": "Chenor",
        "State": "Pahang"
    },
    {
        "Postcode": "28100",
        "Location": "Kampung Bukit Chempedak",
        "Post_Office": "Chenor",
        "State": "Pahang"
    },
    {
        "Postcode": "28100",
        "Location": "Kampung Bunut Cempedak",
        "Post_Office": "Chenor",
        "State": "Pahang"
    },
    {
        "Postcode": "28100",
        "Location": "Kampung Bunyian",
        "Post_Office": "Chenor",
        "State": "Pahang"
    },
    {
        "Postcode": "28100",
        "Location": "Kampung Chabang Dua",
        "Post_Office": "Chenor",
        "State": "Pahang"
    },
    {
        "Postcode": "28100",
        "Location": "Kampung Dalam",
        "Post_Office": "Chenor",
        "State": "Pahang"
    },
    {
        "Postcode": "28100",
        "Location": "Kampung Gaong",
        "Post_Office": "Chenor",
        "State": "Pahang"
    },
    {
        "Postcode": "28100",
        "Location": "Kampung Huma Luas",
        "Post_Office": "Chenor",
        "State": "Pahang"
    },
    {
        "Postcode": "28100",
        "Location": "Kampung Jengka",
        "Post_Office": "Chenor",
        "State": "Pahang"
    },
    {
        "Postcode": "28100",
        "Location": "Kampung Jengka (Batu 13)",
        "Post_Office": "Chenor",
        "State": "Pahang"
    },
    {
        "Postcode": "28100",
        "Location": "Kampung Jerneh",
        "Post_Office": "Chenor",
        "State": "Pahang"
    },
    {
        "Postcode": "28100",
        "Location": "Kampung Kabut",
        "Post_Office": "Chenor",
        "State": "Pahang"
    },
    {
        "Postcode": "28100",
        "Location": "Kampung Kandis",
        "Post_Office": "Chenor",
        "State": "Pahang"
    },
    {
        "Postcode": "28100",
        "Location": "Kampung Kening",
        "Post_Office": "Chenor",
        "State": "Pahang"
    },
    {
        "Postcode": "28100",
        "Location": "Kampung Lating",
        "Post_Office": "Chenor",
        "State": "Pahang"
    },
    {
        "Postcode": "28100",
        "Location": "Kampung Londong",
        "Post_Office": "Chenor",
        "State": "Pahang"
    },
    {
        "Postcode": "28100",
        "Location": "Kampung Machap Gelap",
        "Post_Office": "Chenor",
        "State": "Pahang"
    },
    {
        "Postcode": "28100",
        "Location": "Kampung Musir",
        "Post_Office": "Chenor",
        "State": "Pahang"
    },
    {
        "Postcode": "28100",
        "Location": "Kampung Nyak",
        "Post_Office": "Chenor",
        "State": "Pahang"
    },
    {
        "Postcode": "28100",
        "Location": "Kampung Paya Ladang",
        "Post_Office": "Chenor",
        "State": "Pahang"
    },
    {
        "Postcode": "28100",
        "Location": "Kampung Peijing",
        "Post_Office": "Chenor",
        "State": "Pahang"
    },
    {
        "Postcode": "28100",
        "Location": "Kampung Pesagi",
        "Post_Office": "Chenor",
        "State": "Pahang"
    },
    {
        "Postcode": "28100",
        "Location": "Kampung Puchong",
        "Post_Office": "Chenor",
        "State": "Pahang"
    },
    {
        "Postcode": "28100",
        "Location": "Kampung Sabelah",
        "Post_Office": "Chenor",
        "State": "Pahang"
    },
    {
        "Postcode": "28100",
        "Location": "Kampung Sekara",
        "Post_Office": "Chenor",
        "State": "Pahang"
    },
    {
        "Postcode": "28100",
        "Location": "Kampung Sembai",
        "Post_Office": "Chenor",
        "State": "Pahang"
    },
    {
        "Postcode": "28100",
        "Location": "Kampung Sertang",
        "Post_Office": "Chenor",
        "State": "Pahang"
    },
    {
        "Postcode": "28100",
        "Location": "Kampung Sungai Kundang",
        "Post_Office": "Chenor",
        "State": "Pahang"
    },
    {
        "Postcode": "28100",
        "Location": "Kampung Sungai Ling",
        "Post_Office": "Chenor",
        "State": "Pahang"
    },
    {
        "Postcode": "28100",
        "Location": "Kampung Tanjong Kertau",
        "Post_Office": "Chenor",
        "State": "Pahang"
    },
    {
        "Postcode": "28100",
        "Location": "Kampung Tebing Tebal",
        "Post_Office": "Chenor",
        "State": "Pahang"
    },
    {
        "Postcode": "28100",
        "Location": "Kampung Telok Kertam",
        "Post_Office": "Chenor",
        "State": "Pahang"
    },
    {
        "Postcode": "28100",
        "Location": "Kampung Telok Melati",
        "Post_Office": "Chenor",
        "State": "Pahang"
    },
    {
        "Postcode": "28100",
        "Location": "Pengkalan Balai",
        "Post_Office": "Chenor",
        "State": "Pahang"
    },
    {
        "Postcode": "28100",
        "Location": "Tanjung Memalau",
        "Post_Office": "Chenor",
        "State": "Pahang"
    }
]
