[
    {
        "Postcode": "28200",
        "Location": "Kampung Baru",
        "Post_Office": "Bandar Bera",
        "State": "Pahang"
    },
    {
        "Postcode": "28200",
        "Location": "Batu Papan",
        "Post_Office": "Bandar Bera",
        "State": "Pahang"
    },
    {
        "Postcode": "28200",
        "Location": "Bukit Keladang",
        "Post_Office": "Bandar Bera",
        "State": "Pahang"
    },
    {
        "Postcode": "28200",
        "Location": "Felcra Bohor Bharu",
        "Post_Office": "Bandar Bera",
        "State": "Pahang"
    },
    {
        "Postcode": "28200",
        "Location": "Felcra Bukit Serdang",
        "Post_Office": "Bandar Bera",
        "State": "Pahang"
    },
    {
        "Postcode": "28200",
        "Location": "Hoe Seng Estate",
        "Post_Office": "Bandar Bera",
        "State": "Pahang"
    },
    {
        "Postcode": "28200",
        "Location": "Kampung Batu Imam Sulong",
        "Post_Office": "Bandar Bera",
        "State": "Pahang"
    },
    {
        "Postcode": "28200",
        "Location": "Kampung Batu Papan",
        "Post_Office": "Bandar Bera",
        "State": "Pahang"
    },
    {
        "Postcode": "28200",
        "Location": "Kampung Bohor",
        "Post_Office": "Bandar Bera",
        "State": "Pahang"
    },
    {
        "Postcode": "28200",
        "Location": "Kampung Bohor, Triang",
        "Post_Office": "Bandar Bera",
        "State": "Pahang"
    },
    {
        "Postcode": "28200",
        "Location": "Kampung Bongkok, Triang",
        "Post_Office": "Bandar Bera",
        "State": "Pahang"
    },
    {
        "Postcode": "28200",
        "Location": "Kampung Bukit Keledang",
        "Post_Office": "Bandar Bera",
        "State": "Pahang"
    },
    {
        "Postcode": "28200",
        "Location": "Kampung Bukit Naga Mengulur",
        "Post_Office": "Bandar Bera",
        "State": "Pahang"
    },
    {
        "Postcode": "28200",
        "Location": "Kampung Bukit Rok",
        "Post_Office": "Bandar Bera",
        "State": "Pahang"
    },
    {
        "Postcode": "28200",
        "Location": "Kampung Durian Tawar",
        "Post_Office": "Bandar Bera",
        "State": "Pahang"
    },
    {
        "Postcode": "28200",
        "Location": "Kampung Ibam",
        "Post_Office": "Bandar Bera",
        "State": "Pahang"
    },
    {
        "Postcode": "28200",
        "Location": "Kampung Jelam",
        "Post_Office": "Bandar Bera",
        "State": "Pahang"
    },
    {
        "Postcode": "28200",
        "Location": "Kampung Kuala Bera",
        "Post_Office": "Bandar Bera",
        "State": "Pahang"
    },
    {
        "Postcode": "28200",
        "Location": "Kampung Kuala Triang",
        "Post_Office": "Bandar Bera",
        "State": "Pahang"
    },
    {
        "Postcode": "28200",
        "Location": "Kampung Kubong Panjang",
        "Post_Office": "Bandar Bera",
        "State": "Pahang"
    },
    {
        "Postcode": "28200",
        "Location": "Kampung Lubok Lian",
        "Post_Office": "Bandar Bera",
        "State": "Pahang"
    },
    {
        "Postcode": "28200",
        "Location": "Kampung Mengkarak",
        "Post_Office": "Bandar Bera",
        "State": "Pahang"
    },
    {
        "Postcode": "28200",
        "Location": "Kampung Padang Luas",
        "Post_Office": "Bandar Bera",
        "State": "Pahang"
    },
    {
        "Postcode": "28200",
        "Location": "Kampung Paya Bedak",
        "Post_Office": "Bandar Bera",
        "State": "Pahang"
    },
    {
        "Postcode": "28200",
        "Location": "Kampung Paya Buloh",
        "Post_Office": "Bandar Bera",
        "State": "Pahang"
    },
    {
        "Postcode": "28200",
        "Location": "Kampung Paya Embit",
        "Post_Office": "Bandar Bera",
        "State": "Pahang"
    },
    {
        "Postcode": "28200",
        "Location": "Kampung Paya Pagar",
        "Post_Office": "Bandar Bera",
        "State": "Pahang"
    },
    {
        "Postcode": "28200",
        "Location": "Kampung Paya Panjang",
        "Post_Office": "Bandar Bera",
        "State": "Pahang"
    },
    {
        "Postcode": "28200",
        "Location": "Kampung Paya Serai",
        "Post_Office": "Bandar Bera",
        "State": "Pahang"
    },
    {
        "Postcode": "28200",
        "Location": "Kampung Seberang Guai",
        "Post_Office": "Bandar Bera",
        "State": "Pahang"
    },
    {
        "Postcode": "28200",
        "Location": "Kampung Seberang Lanjut",
        "Post_Office": "Bandar Bera",
        "State": "Pahang"
    },
    {
        "Postcode": "28200",
        "Location": "Kampung Seberang Tok Penor",
        "Post_Office": "Bandar Bera",
        "State": "Pahang"
    },
    {
        "Postcode": "28200",
        "Location": "Kampung Tanjong Enam",
        "Post_Office": "Bandar Bera",
        "State": "Pahang"
    },
    {
        "Postcode": "28200",
        "Location": "Kampung Telok Jelam",
        "Post_Office": "Bandar Bera",
        "State": "Pahang"
    },
    {
        "Postcode": "28200",
        "Location": "Kampung Tok Biah",
        "Post_Office": "Bandar Bera",
        "State": "Pahang"
    },
    {
        "Postcode": "28200",
        "Location": "Kampung Tok Langit",
        "Post_Office": "Bandar Bera",
        "State": "Pahang"
    },
    {
        "Postcode": "28200",
        "Location": "Kampung Tok Taggoh",
        "Post_Office": "Bandar Bera",
        "State": "Pahang"
    },
    {
        "Postcode": "28200",
        "Location": "Kuala Bera",
        "Post_Office": "Bandar Bera",
        "State": "Pahang"
    },
    {
        "Postcode": "28200",
        "Location": "Kuala Triang",
        "Post_Office": "Bandar Bera",
        "State": "Pahang"
    },
    {
        "Postcode": "28200",
        "Location": "Ladang Hoe Seng",
        "Post_Office": "Bandar Bera",
        "State": "Pahang"
    },
    {
        "Postcode": "28200",
        "Location": "Ladang Karmen",
        "Post_Office": "Bandar Bera",
        "State": "Pahang"
    },
    {
        "Postcode": "28200",
        "Location": "Ladang Kemansur",
        "Post_Office": "Bandar Bera",
        "State": "Pahang"
    },
    {
        "Postcode": "28200",
        "Location": "Ladang Mengkarak",
        "Post_Office": "Bandar Bera",
        "State": "Pahang"
    },
    {
        "Postcode": "28200",
        "Location": "Mengkarak",
        "Post_Office": "Bandar Bera",
        "State": "Pahang"
    },
    {
        "Postcode": "28200",
        "Location": "Padang Luas",
        "Post_Office": "Bandar Bera",
        "State": "Pahang"
    },
    {
        "Postcode": "28200",
        "Location": "Rancangan Rumah Murah",
        "Post_Office": "Bandar Bera",
        "State": "Pahang"
    },
    {
        "Postcode": "28200",
        "Location": "Seberang Guai",
        "Post_Office": "Bandar Bera",
        "State": "Pahang"
    },
    {
        "Postcode": "28200",
        "Location": "Taman Mengkarak",
        "Post_Office": "Bandar Bera",
        "State": "Pahang"
    },
    {
        "Postcode": "28200",
        "Location": "Taman Ong Fu Moy",
        "Post_Office": "Bandar Bera",
        "State": "Pahang"
    },
    {
        "Postcode": "28200",
        "Location": "Taman Tong Ah",
        "Post_Office": "Bandar Bera",
        "State": "Pahang"
    }
]
