[
    {
        "Postcode": "28300",
        "Location": "Taman Jaya",
        "Post_Office": "Triang",
        "State": "Pahang"
    },
    {
        "Postcode": "28300",
        "Location": "Taman Selayang",
        "Post_Office": "Triang",
        "State": "Pahang"
    },
    {
        "Postcode": "28300",
        "Location": "Taman Indah",
        "Post_Office": "Triang",
        "State": "Pahang"
    },
    {
        "Postcode": "28300",
        "Location": "Taman Orkid",
        "Post_Office": "Triang",
        "State": "Pahang"
    },
    {
        "Postcode": "28300",
        "Location": "Taman Raya",
        "Post_Office": "Triang",
        "State": "Pahang"
    },
    {
        "Postcode": "28300",
        "Location": "Jalan Daro 1",
        "Post_Office": "Triang",
        "State": "Pahang"
    },
    {
        "Postcode": "28300",
        "Location": "Jalan Daro 2",
        "Post_Office": "Triang",
        "State": "Pahang"
    },
    {
        "Postcode": "28300",
        "Location": "Bandar 32 (Gugusan Bera)",
        "Post_Office": "Triang",
        "State": "Pahang"
    },
    {
        "Postcode": "28300",
        "Location": "Felda Bukit Puchong",
        "Post_Office": "Triang",
        "State": "Pahang"
    },
    {
        "Postcode": "28300",
        "Location": "Felda Kumai",
        "Post_Office": "Triang",
        "State": "Pahang"
    },
    {
        "Postcode": "28300",
        "Location": "Felda Mayam",
        "Post_Office": "Triang",
        "State": "Pahang"
    },
    {
        "Postcode": "28300",
        "Location": "Felda Rentam",
        "Post_Office": "Triang",
        "State": "Pahang"
    },
    {
        "Postcode": "28300",
        "Location": "Felda Sebertak",
        "Post_Office": "Triang",
        "State": "Pahang"
    },
    {
        "Postcode": "28300",
        "Location": "Felda Termenti",
        "Post_Office": "Triang",
        "State": "Pahang"
    },
    {
        "Postcode": "28300",
        "Location": "Felda Triang 3",
        "Post_Office": "Triang",
        "State": "Pahang"
    },
    {
        "Postcode": "28300",
        "Location": "Jalan Kubor Cina",
        "Post_Office": "Triang",
        "State": "Pahang"
    },
    {
        "Postcode": "28300",
        "Location": "Jalan Sentosa",
        "Post_Office": "Triang",
        "State": "Pahang"
    },
    {
        "Postcode": "28300",
        "Location": "Kampung Anak Bukit",
        "Post_Office": "Triang",
        "State": "Pahang"
    },
    {
        "Postcode": "28300",
        "Location": "Kampung Baru, Triang",
        "Post_Office": "Triang",
        "State": "Pahang"
    },
    {
        "Postcode": "28300",
        "Location": "Kampung Mentri",
        "Post_Office": "Triang",
        "State": "Pahang"
    },
    {
        "Postcode": "28300",
        "Location": "Kampung Paya Lang",
        "Post_Office": "Triang",
        "State": "Pahang"
    },
    {
        "Postcode": "28300",
        "Location": "Kampung Sri Buntar",
        "Post_Office": "Triang",
        "State": "Pahang"
    },
    {
        "Postcode": "28300",
        "Location": "Kampung Timur",
        "Post_Office": "Triang",
        "State": "Pahang"
    },
    {
        "Postcode": "28300",
        "Location": "Kampung Zaiwang",
        "Post_Office": "Triang",
        "State": "Pahang"
    },
    {
        "Postcode": "28300",
        "Location": "Mayam",
        "Post_Office": "Triang",
        "State": "Pahang"
    },
    {
        "Postcode": "28300",
        "Location": "Taman Amluk",
        "Post_Office": "Triang",
        "State": "Pahang"
    },
    {
        "Postcode": "28300",
        "Location": "Taman Ann Lek",
        "Post_Office": "Triang",
        "State": "Pahang"
    },
    {
        "Postcode": "28300",
        "Location": "Taman Cheng Siew",
        "Post_Office": "Triang",
        "State": "Pahang"
    },
    {
        "Postcode": "28300",
        "Location": "Taman Daro",
        "Post_Office": "Triang",
        "State": "Pahang"
    },
    {
        "Postcode": "28300",
        "Location": "Taman Desa Aman",
        "Post_Office": "Triang",
        "State": "Pahang"
    },
    {
        "Postcode": "28300",
        "Location": "Taman Lim Chitt",
        "Post_Office": "Triang",
        "State": "Pahang"
    },
    {
        "Postcode": "28300",
        "Location": "Taman Permai Sri Buntar",
        "Post_Office": "Triang",
        "State": "Pahang"
    },
    {
        "Postcode": "28300",
        "Location": "Taman Seraya",
        "Post_Office": "Triang",
        "State": "Pahang"
    },
    {
        "Postcode": "28300",
        "Location": "Taman Sri Buntar",
        "Post_Office": "Triang",
        "State": "Pahang"
    },
    {
        "Postcode": "28300",
        "Location": "Taman Sri Triang",
        "Post_Office": "Triang",
        "State": "Pahang"
    },
    {
        "Postcode": "28300",
        "Location": "Taman Teo Jo",
        "Post_Office": "Triang",
        "State": "Pahang"
    },
    {
        "Postcode": "28300",
        "Location": "Taman Teo Joo",
        "Post_Office": "Triang",
        "State": "Pahang"
    },
    {
        "Postcode": "28300",
        "Location": "Taman Triang Jaya",
        "Post_Office": "Triang",
        "State": "Pahang"
    },
    {
        "Postcode": "28300",
        "Location": "Taman Triang Maju",
        "Post_Office": "Triang",
        "State": "Pahang"
    },
    {
        "Postcode": "28300",
        "Location": "Taman Triang Makmur",
        "Post_Office": "Triang",
        "State": "Pahang"
    }
]
