[
    {
        "Postcode": "28380",
        "Location": "Taman Damai",
        "Post_Office": "Kemayan",
        "State": "Pahang"
    },
    {
        "Postcode": "28380",
        "Location": "Taman Jaya",
        "Post_Office": "Kemayan",
        "State": "Pahang"
    },
    {
        "Postcode": "28380",
        "Location": "Kampung Sentosa",
        "Post_Office": "Kemayan",
        "State": "Pahang"
    },
    {
        "Postcode": "28380",
        "Location": "Taman Indah",
        "Post_Office": "Kemayan",
        "State": "Pahang"
    },
    {
        "Postcode": "28380",
        "Location": "Taman Maju Jaya",
        "Post_Office": "Kemayan",
        "State": "Pahang"
    },
    {
        "Postcode": "28380",
        "Location": "Felda Tembangau",
        "Post_Office": "Kemayan",
        "State": "Pahang"
    },
    {
        "Postcode": "28380",
        "Location": "Jalan Besar Kemayan",
        "Post_Office": "Kemayan",
        "State": "Pahang"
    },
    {
        "Postcode": "28380",
        "Location": "Jalan Besar Mengkuang",
        "Post_Office": "Kemayan",
        "State": "Pahang"
    },
    {
        "Postcode": "28380",
        "Location": "Jalan Sungai Bera",
        "Post_Office": "Kemayan",
        "State": "Pahang"
    },
    {
        "Postcode": "28380",
        "Location": "Kampung Baru Cina",
        "Post_Office": "Kemayan",
        "State": "Pahang"
    },
    {
        "Postcode": "28380",
        "Location": "Kampung Dato Sri Hamzah",
        "Post_Office": "Kemayan",
        "State": "Pahang"
    },
    {
        "Postcode": "28380",
        "Location": "Kampung Kebun Limau",
        "Post_Office": "Kemayan",
        "State": "Pahang"
    },
    {
        "Postcode": "28380",
        "Location": "Kemayan",
        "Post_Office": "Kemayan",
        "State": "Pahang"
    },
    {
        "Postcode": "28380",
        "Location": "Ladang Baru Choow",
        "Post_Office": "Kemayan",
        "State": "Pahang"
    },
    {
        "Postcode": "28380",
        "Location": "Ladang Bukit Keramat",
        "Post_Office": "Kemayan",
        "State": "Pahang"
    },
    {
        "Postcode": "28380",
        "Location": "Ladang Bukit Senorang",
        "Post_Office": "Kemayan",
        "State": "Pahang"
    },
    {
        "Postcode": "28380",
        "Location": "Ladang Espek Bena",
        "Post_Office": "Kemayan",
        "State": "Pahang"
    },
    {
        "Postcode": "28380",
        "Location": "Ladang Juntai",
        "Post_Office": "Kemayan",
        "State": "Pahang"
    },
    {
        "Postcode": "28380",
        "Location": "Ladang Kemayan",
        "Post_Office": "Kemayan",
        "State": "Pahang"
    },
    {
        "Postcode": "28380",
        "Location": "Ladang Kemayan Oil Palm",
        "Post_Office": "Kemayan",
        "State": "Pahang"
    },
    {
        "Postcode": "28380",
        "Location": "Ladang Lkpp Nuklias V",
        "Post_Office": "Kemayan",
        "State": "Pahang"
    },
    {
        "Postcode": "28380",
        "Location": "Ladang Malaysia N Agric",
        "Post_Office": "Kemayan",
        "State": "Pahang"
    },
    {
        "Postcode": "28380",
        "Location": "Ladang Tdm Mengkuang",
        "Post_Office": "Kemayan",
        "State": "Pahang"
    },
    {
        "Postcode": "28380",
        "Location": "Ladang Teok Lee",
        "Post_Office": "Kemayan",
        "State": "Pahang"
    },
    {
        "Postcode": "28380",
        "Location": "Log Ban Chon Estate",
        "Post_Office": "Kemayan",
        "State": "Pahang"
    },
    {
        "Postcode": "28380",
        "Location": "Taman Kemayan Jaya",
        "Post_Office": "Kemayan",
        "State": "Pahang"
    },
    {
        "Postcode": "28380",
        "Location": "Taman Kin Yu",
        "Post_Office": "Kemayan",
        "State": "Pahang"
    },
    {
        "Postcode": "28380",
        "Location": "Taman Sri Mewah",
        "Post_Office": "Kemayan",
        "State": "Pahang"
    }
]
