[
    {
        "Postcode": "28400",
        "Location": "Kampung Baru ",
        "Post_Office": "Mentakab",
        "State": "Pahang"
    },
    {
        "Postcode": "28400",
        "Location": "Kampung Gajah Mati",
        "Post_Office": "Mentakab",
        "State": "Pahang"
    },
    {
        "Postcode": "28400",
        "Location": "Taman Desa Jaya",
        "Post_Office": "Mentakab",
        "State": "Pahang"
    },
    {
        "Postcode": "28400",
        "Location": "Kampung Padang Lalang",
        "Post_Office": "Mentakab",
        "State": "Pahang"
    },
    {
        "Postcode": "28400",
        "Location": "Kampung Penak",
        "Post_Office": "Mentakab",
        "State": "Pahang"
    },
    {
        "Postcode": "28400",
        "Location": "Kampung Sungai Buluh",
        "Post_Office": "Mentakab",
        "State": "Pahang"
    },
    {
        "Postcode": "28400",
        "Location": "Taman Gembira",
        "Post_Office": "Mentakab",
        "State": "Pahang"
    },
    {
        "Postcode": "28400",
        "Location": "Taman Indah",
        "Post_Office": "Mentakab",
        "State": "Pahang"
    },
    {
        "Postcode": "28400",
        "Location": "Taman Ksm",
        "Post_Office": "Mentakab",
        "State": "Pahang"
    },
    {
        "Postcode": "28400",
        "Location": "Taman Mahkota",
        "Post_Office": "Mentakab",
        "State": "Pahang"
    },
    {
        "Postcode": "28400",
        "Location": "Taman Saga",
        "Post_Office": "Mentakab",
        "State": "Pahang"
    },
    {
        "Postcode": "28400",
        "Location": "Taman Sentosa",
        "Post_Office": "Mentakab",
        "State": "Pahang"
    },
    {
        "Postcode": "28400",
        "Location": "Taman Setia",
        "Post_Office": "Mentakab",
        "State": "Pahang"
    },
    {
        "Postcode": "28400",
        "Location": "Taman Tunas",
        "Post_Office": "Mentakab",
        "State": "Pahang"
    },
    {
        "Postcode": "28400",
        "Location": "Taman Bukit Malaysia",
        "Post_Office": "Mentakab",
        "State": "Pahang"
    },
    {
        "Postcode": "28400",
        "Location": "Taman Segumpas Jaya",
        "Post_Office": "Mentakab",
        "State": "Pahang"
    },
    {
        "Postcode": "28400",
        "Location": "Embun Heights",
        "Post_Office": "Mentakab",
        "State": "Pahang"
    },
    {
        "Postcode": "28400",
        "Location": "Taman Bendera Intan",
        "Post_Office": "Mentakab",
        "State": "Pahang"
    },
    {
        "Postcode": "28400",
        "Location": "Taman Bukit Cermin Indah",
        "Post_Office": "Mentakab",
        "State": "Pahang"
    },
    {
        "Postcode": "28400",
        "Location": "Taman Ixora",
        "Post_Office": "Mentakab",
        "State": "Pahang"
    },
    {
        "Postcode": "28400",
        "Location": "Taman Kristal",
        "Post_Office": "Mentakab",
        "State": "Pahang"
    },
    {
        "Postcode": "28400",
        "Location": "Taman Rimba Emas",
        "Post_Office": "Mentakab",
        "State": "Pahang"
    },
    {
        "Postcode": "28400",
        "Location": "Taman Rimba Puncak",
        "Post_Office": "Mentakab",
        "State": "Pahang"
    },
    {
        "Postcode": "28400",
        "Location": "Bukit Malaysia",
        "Post_Office": "Mentakab",
        "State": "Pahang"
    },
    {
        "Postcode": "28400",
        "Location": "Damai Taha",
        "Post_Office": "Mentakab",
        "State": "Pahang"
    },
    {
        "Postcode": "28400",
        "Location": "Jalan Ara",
        "Post_Office": "Mentakab",
        "State": "Pahang"
    },
    {
        "Postcode": "28400",
        "Location": "Jalan Asoka",
        "Post_Office": "Mentakab",
        "State": "Pahang"
    },
    {
        "Postcode": "28400",
        "Location": "Jalan Berangan",
        "Post_Office": "Mentakab",
        "State": "Pahang"
    },
    {
        "Postcode": "28400",
        "Location": "Jalan Cemara",
        "Post_Office": "Mentakab",
        "State": "Pahang"
    },
    {
        "Postcode": "28400",
        "Location": "Jalan Damar Hitam",
        "Post_Office": "Mentakab",
        "State": "Pahang"
    },
    {
        "Postcode": "28400",
        "Location": "Jalan Durian",
        "Post_Office": "Mentakab",
        "State": "Pahang"
    },
    {
        "Postcode": "28400",
        "Location": "Jalan Inai",
        "Post_Office": "Mentakab",
        "State": "Pahang"
    },
    {
        "Postcode": "28400",
        "Location": "Jalan Jati",
        "Post_Office": "Mentakab",
        "State": "Pahang"
    },
    {
        "Postcode": "28400",
        "Location": "Jalan Jelutong",
        "Post_Office": "Mentakab",
        "State": "Pahang"
    },
    {
        "Postcode": "28400",
        "Location": "Jalan Kapor",
        "Post_Office": "Mentakab",
        "State": "Pahang"
    },
    {
        "Postcode": "28400",
        "Location": "Jalan Kayu Manis",
        "Post_Office": "Mentakab",
        "State": "Pahang"
    },
    {
        "Postcode": "28400",
        "Location": "Jalan Kempas",
        "Post_Office": "Mentakab",
        "State": "Pahang"
    },
    {
        "Postcode": "28400",
        "Location": "Jalan Ketapang",
        "Post_Office": "Mentakab",
        "State": "Pahang"
    },
    {
        "Postcode": "28400",
        "Location": "Jalan Mengkudu",
        "Post_Office": "Mentakab",
        "State": "Pahang"
    },
    {
        "Postcode": "28400",
        "Location": "Jalan Mengkulang",
        "Post_Office": "Mentakab",
        "State": "Pahang"
    },
    {
        "Postcode": "28400",
        "Location": "Jalan Meranti",
        "Post_Office": "Mentakab",
        "State": "Pahang"
    },
    {
        "Postcode": "28400",
        "Location": "Jalan Nibong",
        "Post_Office": "Mentakab",
        "State": "Pahang"
    },
    {
        "Postcode": "28400",
        "Location": "Jalan Nipah",
        "Post_Office": "Mentakab",
        "State": "Pahang"
    },
    {
        "Postcode": "28400",
        "Location": "Jalan Pinang Raja",
        "Post_Office": "Mentakab",
        "State": "Pahang"
    },
    {
        "Postcode": "28400",
        "Location": "Jalan Rhu",
        "Post_Office": "Mentakab",
        "State": "Pahang"
    },
    {
        "Postcode": "28400",
        "Location": "Jalan Saga",
        "Post_Office": "Mentakab",
        "State": "Pahang"
    },
    {
        "Postcode": "28400",
        "Location": "Jalan Selasih",
        "Post_Office": "Mentakab",
        "State": "Pahang"
    },
    {
        "Postcode": "28400",
        "Location": "Jalan Semarak Api",
        "Post_Office": "Mentakab",
        "State": "Pahang"
    },
    {
        "Postcode": "28400",
        "Location": "Jalan Sri Layang",
        "Post_Office": "Mentakab",
        "State": "Pahang"
    },
    {
        "Postcode": "28400",
        "Location": "Jalan Teja",
        "Post_Office": "Mentakab",
        "State": "Pahang"
    },
    {
        "Postcode": "28400",
        "Location": "Jenderak Selatan",
        "Post_Office": "Mentakab",
        "State": "Pahang"
    },
    {
        "Postcode": "28400",
        "Location": "Jenderak Utara",
        "Post_Office": "Mentakab",
        "State": "Pahang"
    },
    {
        "Postcode": "28400",
        "Location": "Kampung Baru Batu 8",
        "Post_Office": "Mentakab",
        "State": "Pahang"
    },
    {
        "Postcode": "28400",
        "Location": "Kampung Baru Chin",
        "Post_Office": "Mentakab",
        "State": "Pahang"
    },
    {
        "Postcode": "28400",
        "Location": "Kampung Batu Cina",
        "Post_Office": "Mentakab",
        "State": "Pahang"
    },
    {
        "Postcode": "28400",
        "Location": "Kampung Batu Hampar",
        "Post_Office": "Mentakab",
        "State": "Pahang"
    },
    {
        "Postcode": "28400",
        "Location": "Kampung Batu Kapor",
        "Post_Office": "Mentakab",
        "State": "Pahang"
    },
    {
        "Postcode": "28400",
        "Location": "Kampung Bukit Malaysia",
        "Post_Office": "Mentakab",
        "State": "Pahang"
    },
    {
        "Postcode": "28400",
        "Location": "Kampung Bukit Permata",
        "Post_Office": "Mentakab",
        "State": "Pahang"
    },
    {
        "Postcode": "28400",
        "Location": "Kampung Chantik Baru",
        "Post_Office": "Mentakab",
        "State": "Pahang"
    },
    {
        "Postcode": "28400",
        "Location": "Kampung Chatin",
        "Post_Office": "Mentakab",
        "State": "Pahang"
    },
    {
        "Postcode": "28400",
        "Location": "Kampung Chatin Atas",
        "Post_Office": "Mentakab",
        "State": "Pahang"
    },
    {
        "Postcode": "28400",
        "Location": "Kampung Chatin Bawah",
        "Post_Office": "Mentakab",
        "State": "Pahang"
    },
    {
        "Postcode": "28400",
        "Location": "Kampung Desa Bakti",
        "Post_Office": "Mentakab",
        "State": "Pahang"
    },
    {
        "Postcode": "28400",
        "Location": "Kampung Gantok",
        "Post_Office": "Mentakab",
        "State": "Pahang"
    },
    {
        "Postcode": "28400",
        "Location": "Kampung Gantok Ulu",
        "Post_Office": "Mentakab",
        "State": "Pahang"
    },
    {
        "Postcode": "28400",
        "Location": "Kampung Kelubi",
        "Post_Office": "Mentakab",
        "State": "Pahang"
    },
    {
        "Postcode": "28400",
        "Location": "Kampung Lubok Kechemas",
        "Post_Office": "Mentakab",
        "State": "Pahang"
    },
    {
        "Postcode": "28400",
        "Location": "Kampung Lubok Serdang",
        "Post_Office": "Mentakab",
        "State": "Pahang"
    },
    {
        "Postcode": "28400",
        "Location": "Kampung Mambang Berulang",
        "Post_Office": "Mentakab",
        "State": "Pahang"
    },
    {
        "Postcode": "28400",
        "Location": "Kampung Rakit",
        "Post_Office": "Mentakab",
        "State": "Pahang"
    },
    {
        "Postcode": "28400",
        "Location": "Kampung Seri Kemuning",
        "Post_Office": "Mentakab",
        "State": "Pahang"
    },
    {
        "Postcode": "28400",
        "Location": "Kampung Sungai Ara",
        "Post_Office": "Mentakab",
        "State": "Pahang"
    },
    {
        "Postcode": "28400",
        "Location": "Kampung Sungai Dingin",
        "Post_Office": "Mentakab",
        "State": "Pahang"
    },
    {
        "Postcode": "28400",
        "Location": "Kampung Sungai Ketapa",
        "Post_Office": "Mentakab",
        "State": "Pahang"
    },
    {
        "Postcode": "28400",
        "Location": "Kampung Tanjong Kerayong",
        "Post_Office": "Mentakab",
        "State": "Pahang"
    },
    {
        "Postcode": "28400",
        "Location": "Kampung Tok Embun",
        "Post_Office": "Mentakab",
        "State": "Pahang"
    },
    {
        "Postcode": "28400",
        "Location": "Kem Batu Lima",
        "Post_Office": "Mentakab",
        "State": "Pahang"
    },
    {
        "Postcode": "28400",
        "Location": "Kompleks Pularis",
        "Post_Office": "Mentakab",
        "State": "Pahang"
    },
    {
        "Postcode": "28400",
        "Location": "Ladang Kemasul",
        "Post_Office": "Mentakab",
        "State": "Pahang"
    },
    {
        "Postcode": "28400",
        "Location": "Ladang Mentakab",
        "Post_Office": "Mentakab",
        "State": "Pahang"
    },
    {
        "Postcode": "28400",
        "Location": "Lorong Merah",
        "Post_Office": "Mentakab",
        "State": "Pahang"
    },
    {
        "Postcode": "28400",
        "Location": "Mentakab",
        "Post_Office": "Mentakab",
        "State": "Pahang"
    },
    {
        "Postcode": "28400",
        "Location": "Simpang Penak",
        "Post_Office": "Mentakab",
        "State": "Pahang"
    },
    {
        "Postcode": "28400",
        "Location": "Taman Bendera Mahkota",
        "Post_Office": "Mentakab",
        "State": "Pahang"
    },
    {
        "Postcode": "28400",
        "Location": "Taman Bukit Bendera",
        "Post_Office": "Mentakab",
        "State": "Pahang"
    },
    {
        "Postcode": "28400",
        "Location": "Taman Bukit Cermin",
        "Post_Office": "Mentakab",
        "State": "Pahang"
    },
    {
        "Postcode": "28400",
        "Location": "Taman Bukit Cina",
        "Post_Office": "Mentakab",
        "State": "Pahang"
    },
    {
        "Postcode": "28400",
        "Location": "Taman Bukit Mentakab",
        "Post_Office": "Mentakab",
        "State": "Pahang"
    },
    {
        "Postcode": "28400",
        "Location": "Taman Damai Taha",
        "Post_Office": "Mentakab",
        "State": "Pahang"
    },
    {
        "Postcode": "28400",
        "Location": "Taman De Villa",
        "Post_Office": "Mentakab",
        "State": "Pahang"
    },
    {
        "Postcode": "28400",
        "Location": "Taman Desa Saujana",
        "Post_Office": "Mentakab",
        "State": "Pahang"
    },
    {
        "Postcode": "28400",
        "Location": "Taman Gopeng",
        "Post_Office": "Mentakab",
        "State": "Pahang"
    },
    {
        "Postcode": "28400",
        "Location": "Taman Keramat",
        "Post_Office": "Mentakab",
        "State": "Pahang"
    },
    {
        "Postcode": "28400",
        "Location": "Taman Ksm Indah",
        "Post_Office": "Mentakab",
        "State": "Pahang"
    },
    {
        "Postcode": "28400",
        "Location": "Taman Lee Chan",
        "Post_Office": "Mentakab",
        "State": "Pahang"
    },
    {
        "Postcode": "28400",
        "Location": "Taman Mentakab",
        "Post_Office": "Mentakab",
        "State": "Pahang"
    },
    {
        "Postcode": "28400",
        "Location": "Taman Mentakab Bahagia",
        "Post_Office": "Mentakab",
        "State": "Pahang"
    },
    {
        "Postcode": "28400",
        "Location": "Taman Mentakab Indah",
        "Post_Office": "Mentakab",
        "State": "Pahang"
    },
    {
        "Postcode": "28400",
        "Location": "Taman Mentakab Jaya",
        "Post_Office": "Mentakab",
        "State": "Pahang"
    },
    {
        "Postcode": "28400",
        "Location": "Taman Merbau",
        "Post_Office": "Mentakab",
        "State": "Pahang"
    },
    {
        "Postcode": "28400",
        "Location": "Taman Pasir Rawa",
        "Post_Office": "Mentakab",
        "State": "Pahang"
    },
    {
        "Postcode": "28400",
        "Location": "Taman Perindustrian Temerloh",
        "Post_Office": "Mentakab",
        "State": "Pahang"
    },
    {
        "Postcode": "28400",
        "Location": "Taman Rimba",
        "Post_Office": "Mentakab",
        "State": "Pahang"
    },
    {
        "Postcode": "28400",
        "Location": "Taman Segumpas",
        "Post_Office": "Mentakab",
        "State": "Pahang"
    },
    {
        "Postcode": "28400",
        "Location": "Taman Sempalit",
        "Post_Office": "Mentakab",
        "State": "Pahang"
    },
    {
        "Postcode": "28400",
        "Location": "Taman Seri Bendera",
        "Post_Office": "Mentakab",
        "State": "Pahang"
    },
    {
        "Postcode": "28400",
        "Location": "Taman Seri Layang",
        "Post_Office": "Mentakab",
        "State": "Pahang"
    },
    {
        "Postcode": "28400",
        "Location": "Taman Siva",
        "Post_Office": "Mentakab",
        "State": "Pahang"
    },
    {
        "Postcode": "28400",
        "Location": "Taman Sungai Ara",
        "Post_Office": "Mentakab",
        "State": "Pahang"
    },
    {
        "Postcode": "28400",
        "Location": "Taman Suppiah",
        "Post_Office": "Mentakab",
        "State": "Pahang"
    },
    {
        "Postcode": "28400",
        "Location": "Taman Tan Chew Tong",
        "Post_Office": "Mentakab",
        "State": "Pahang"
    },
    {
        "Postcode": "28400",
        "Location": "Taman Tanjong Kerayong",
        "Post_Office": "Mentakab",
        "State": "Pahang"
    },
    {
        "Postcode": "28400",
        "Location": "Taman Zabidin",
        "Post_Office": "Mentakab",
        "State": "Pahang"
    }
]
