[
    {
        "Postcode": "28500",
        "Location": "Kampung Dala",
        "Post_Office": "Lanchang",
        "State": "Pahang"
    },
    {
        "Postcode": "28500",
        "Location": "Kampung Lubok Kawah",
        "Post_Office": "Lanchang",
        "State": "Pahang"
    },
    {
        "Postcode": "28500",
        "Location": "Kampung Lanar",
        "Post_Office": "Lanchang",
        "State": "Pahang"
    },
    {
        "Postcode": "28500",
        "Location": "Kampung Pandan",
        "Post_Office": "Lanchang",
        "State": "Pahang"
    },
    {
        "Postcode": "28500",
        "Location": "Kampung Rantau Panjang",
        "Post_Office": "Lanchang",
        "State": "Pahang"
    },
    {
        "Postcode": "28500",
        "Location": "Kampung Sempadan",
        "Post_Office": "Lanchang",
        "State": "Pahang"
    },
    {
        "Postcode": "28500",
        "Location": "Taman Setia",
        "Post_Office": "Lanchang",
        "State": "Pahang"
    },
    {
        "Postcode": "28500",
        "Location": "Taman Desa Jaya Permai",
        "Post_Office": "Lanchang",
        "State": "Pahang"
    },
    {
        "Postcode": "28500",
        "Location": "Bandar Baru Lanchang",
        "Post_Office": "Lanchang",
        "State": "Pahang"
    },
    {
        "Postcode": "28500",
        "Location": "Bukit Rengit",
        "Post_Office": "Lanchang",
        "State": "Pahang"
    },
    {
        "Postcode": "28500",
        "Location": "Felda Bukit Damar",
        "Post_Office": "Lanchang",
        "State": "Pahang"
    },
    {
        "Postcode": "28500",
        "Location": "Felda Lakom",
        "Post_Office": "Lanchang",
        "State": "Pahang"
    },
    {
        "Postcode": "28500",
        "Location": "Ikbm Paya Siput",
        "Post_Office": "Lanchang",
        "State": "Pahang"
    },
    {
        "Postcode": "28500",
        "Location": "Kampung Bolok",
        "Post_Office": "Lanchang",
        "State": "Pahang"
    },
    {
        "Postcode": "28500",
        "Location": "Kampung Bongsu",
        "Post_Office": "Lanchang",
        "State": "Pahang"
    },
    {
        "Postcode": "28500",
        "Location": "Kampung Bukit Gabang",
        "Post_Office": "Lanchang",
        "State": "Pahang"
    },
    {
        "Postcode": "28500",
        "Location": "Kampung Chempaka",
        "Post_Office": "Lanchang",
        "State": "Pahang"
    },
    {
        "Postcode": "28500",
        "Location": "Kampung Jerangan",
        "Post_Office": "Lanchang",
        "State": "Pahang"
    },
    {
        "Postcode": "28500",
        "Location": "Kampung Jergoh",
        "Post_Office": "Lanchang",
        "State": "Pahang"
    },
    {
        "Postcode": "28500",
        "Location": "Kampung Kenangan",
        "Post_Office": "Lanchang",
        "State": "Pahang"
    },
    {
        "Postcode": "28500",
        "Location": "Kampung Kuala Kaung",
        "Post_Office": "Lanchang",
        "State": "Pahang"
    },
    {
        "Postcode": "28500",
        "Location": "Kampung Mempateh",
        "Post_Office": "Lanchang",
        "State": "Pahang"
    },
    {
        "Postcode": "28500",
        "Location": "Kampung Paya Laman",
        "Post_Office": "Lanchang",
        "State": "Pahang"
    },
    {
        "Postcode": "28500",
        "Location": "Kampung Paya Siput",
        "Post_Office": "Lanchang",
        "State": "Pahang"
    },
    {
        "Postcode": "28500",
        "Location": "Kampung Punjong",
        "Post_Office": "Lanchang",
        "State": "Pahang"
    },
    {
        "Postcode": "28500",
        "Location": "Kampung Sementeh",
        "Post_Office": "Lanchang",
        "State": "Pahang"
    },
    {
        "Postcode": "28500",
        "Location": "Kampung Sungai Chermang",
        "Post_Office": "Lanchang",
        "State": "Pahang"
    },
    {
        "Postcode": "28500",
        "Location": "Kampung Sungai Kepong",
        "Post_Office": "Lanchang",
        "State": "Pahang"
    },
    {
        "Postcode": "28500",
        "Location": "Kampung Sungai Lanar",
        "Post_Office": "Lanchang",
        "State": "Pahang"
    },
    {
        "Postcode": "28500",
        "Location": "Kampung Sungai Leleh",
        "Post_Office": "Lanchang",
        "State": "Pahang"
    },
    {
        "Postcode": "28500",
        "Location": "Kampung Tedong",
        "Post_Office": "Lanchang",
        "State": "Pahang"
    },
    {
        "Postcode": "28500",
        "Location": "Kampung Teris",
        "Post_Office": "Lanchang",
        "State": "Pahang"
    },
    {
        "Postcode": "28500",
        "Location": "Kampung Wau",
        "Post_Office": "Lanchang",
        "State": "Pahang"
    },
    {
        "Postcode": "28500",
        "Location": "Kuala Gandah",
        "Post_Office": "Lanchang",
        "State": "Pahang"
    },
    {
        "Postcode": "28500",
        "Location": "Ladang Sungai Kawang",
        "Post_Office": "Lanchang",
        "State": "Pahang"
    },
    {
        "Postcode": "28500",
        "Location": "Lakum",
        "Post_Office": "Lanchang",
        "State": "Pahang"
    },
    {
        "Postcode": "28500",
        "Location": "Lanchang",
        "Post_Office": "Lanchang",
        "State": "Pahang"
    },
    {
        "Postcode": "28500",
        "Location": "Mrsm Lanchang",
        "Post_Office": "Lanchang",
        "State": "Pahang"
    },
    {
        "Postcode": "28500",
        "Location": "Taman Desa Bongsu",
        "Post_Office": "Lanchang",
        "State": "Pahang"
    },
    {
        "Postcode": "28500",
        "Location": "Taman Lanchang Indah",
        "Post_Office": "Lanchang",
        "State": "Pahang"
    },
    {
        "Postcode": "28500",
        "Location": "Taman Tengku Ampuan Afzan",
        "Post_Office": "Lanchang",
        "State": "Pahang"
    }
]
