[
    {
        "Postcode": "28600",
        "Location": "Kampung Baru",
        "Post_Office": "Karak",
        "State": "Pahang"
    },
    {
        "Postcode": "28600",
        "Location": "Idaman Lakeview",
        "Post_Office": "Karak",
        "State": "Pahang"
    },
    {
        "Postcode": "28600",
        "Location": "Kampung Batu 3",
        "Post_Office": "Karak",
        "State": "Pahang"
    },
    {
        "Postcode": "28600",
        "Location": "Taman Berlian",
        "Post_Office": "Karak",
        "State": "Pahang"
    },
    {
        "Postcode": "28600",
        "Location": "Taman Bunga Raya",
        "Post_Office": "Karak",
        "State": "Pahang"
    },
    {
        "Postcode": "28600",
        "Location": "Taman Kenanga",
        "Post_Office": "Karak",
        "State": "Pahang"
    },
    {
        "Postcode": "28600",
        "Location": "Taman Sentosa",
        "Post_Office": "Karak",
        "State": "Pahang"
    },
    {
        "Postcode": "28600",
        "Location": "Taman Sri Makmur",
        "Post_Office": "Karak",
        "State": "Pahang"
    },
    {
        "Postcode": "28600",
        "Location": "Felda Mempaga 1",
        "Post_Office": "Karak",
        "State": "Pahang"
    },
    {
        "Postcode": "28600",
        "Location": "Felda Mempaga 2",
        "Post_Office": "Karak",
        "State": "Pahang"
    },
    {
        "Postcode": "28600",
        "Location": "Felda Mempaga 3",
        "Post_Office": "Karak",
        "State": "Pahang"
    },
    {
        "Postcode": "28600",
        "Location": "Kampung Chinta Manis",
        "Post_Office": "Karak",
        "State": "Pahang"
    },
    {
        "Postcode": "28600",
        "Location": "Kampung Jambu Rias",
        "Post_Office": "Karak",
        "State": "Pahang"
    },
    {
        "Postcode": "28600",
        "Location": "Kampung Karak Setia",
        "Post_Office": "Karak",
        "State": "Pahang"
    },
    {
        "Postcode": "28600",
        "Location": "Kampung Keroh",
        "Post_Office": "Karak",
        "State": "Pahang"
    },
    {
        "Postcode": "28600",
        "Location": "Kampung Kuala Pertang",
        "Post_Office": "Karak",
        "State": "Pahang"
    },
    {
        "Postcode": "28600",
        "Location": "Kampung Lengkong",
        "Post_Office": "Karak",
        "State": "Pahang"
    },
    {
        "Postcode": "28600",
        "Location": "Kampung Paya Pelantar",
        "Post_Office": "Karak",
        "State": "Pahang"
    },
    {
        "Postcode": "28600",
        "Location": "Kampung Pong Soi",
        "Post_Office": "Karak",
        "State": "Pahang"
    },
    {
        "Postcode": "28600",
        "Location": "Kampung Tanjong",
        "Post_Office": "Karak",
        "State": "Pahang"
    },
    {
        "Postcode": "28600",
        "Location": "Karak",
        "Post_Office": "Karak",
        "State": "Pahang"
    },
    {
        "Postcode": "28600",
        "Location": "Ladang Bukit Dinding",
        "Post_Office": "Karak",
        "State": "Pahang"
    },
    {
        "Postcode": "28600",
        "Location": "Ladang Serai",
        "Post_Office": "Karak",
        "State": "Pahang"
    },
    {
        "Postcode": "28600",
        "Location": "Ladang Sungai Pertang",
        "Post_Office": "Karak",
        "State": "Pahang"
    },
    {
        "Postcode": "28600",
        "Location": "Mempaga Satu",
        "Post_Office": "Karak",
        "State": "Pahang"
    },
    {
        "Postcode": "28600",
        "Location": "Sungai Dua",
        "Post_Office": "Karak",
        "State": "Pahang"
    },
    {
        "Postcode": "28600",
        "Location": "Taman Bunga Raya Ii",
        "Post_Office": "Karak",
        "State": "Pahang"
    },
    {
        "Postcode": "28600",
        "Location": "Taman Hijau",
        "Post_Office": "Karak",
        "State": "Pahang"
    },
    {
        "Postcode": "28600",
        "Location": "Taman Hijau Fasa Ii",
        "Post_Office": "Karak",
        "State": "Pahang"
    },
    {
        "Postcode": "28600",
        "Location": "Taman Hijau Murni",
        "Post_Office": "Karak",
        "State": "Pahang"
    },
    {
        "Postcode": "28600",
        "Location": "Taman Karak",
        "Post_Office": "Karak",
        "State": "Pahang"
    },
    {
        "Postcode": "28600",
        "Location": "Taman Karak Indah",
        "Post_Office": "Karak",
        "State": "Pahang"
    },
    {
        "Postcode": "28600",
        "Location": "Taman Karak Jaya",
        "Post_Office": "Karak",
        "State": "Pahang"
    },
    {
        "Postcode": "28600",
        "Location": "Taman Makmur",
        "Post_Office": "Karak",
        "State": "Pahang"
    },
    {
        "Postcode": "28600",
        "Location": "Taman Makmur Jaya",
        "Post_Office": "Karak",
        "State": "Pahang"
    },
    {
        "Postcode": "28600",
        "Location": "Taman Perdana Raya",
        "Post_Office": "Karak",
        "State": "Pahang"
    },
    {
        "Postcode": "28600",
        "Location": "Taman Seri Bayu Ii",
        "Post_Office": "Karak",
        "State": "Pahang"
    },
    {
        "Postcode": "28600",
        "Location": "Taman Sri Bayu",
        "Post_Office": "Karak",
        "State": "Pahang"
    },
    {
        "Postcode": "28600",
        "Location": "Taman Wijaya",
        "Post_Office": "Karak",
        "State": "Pahang"
    },
    {
        "Postcode": "28600",
        "Location": "Tualang",
        "Post_Office": "Karak",
        "State": "Pahang"
    }
]
