[
    {
        "Postcode": "28620",
        "Location": "Kampung Batu 19 (Telemong)",
        "Post_Office": "Karak",
        "State": "Pahang"
    },
    {
        "Postcode": "28620",
        "Location": "Kampung Gapoi",
        "Post_Office": "Karak",
        "State": "Pahang"
    },
    {
        "Postcode": "28620",
        "Location": "Kampung Manggin",
        "Post_Office": "Karak",
        "State": "Pahang"
    },
    {
        "Postcode": "28620",
        "Location": "Kampung Sungai Gapo",
        "Post_Office": "Karak",
        "State": "Pahang"
    },
    {
        "Postcode": "28620",
        "Location": "Karak (Batu 1 - 20)",
        "Post_Office": "Karak",
        "State": "Pahang"
    },
    {
        "Postcode": "28620",
        "Location": "Karak (Batu 36)",
        "Post_Office": "Karak",
        "State": "Pahang"
    },
    {
        "Postcode": "28620",
        "Location": "Ladang Bukit Melita",
        "Post_Office": "Karak",
        "State": "Pahang"
    },
    {
        "Postcode": "28620",
        "Location": "Ladang Hoh Yong",
        "Post_Office": "Karak",
        "State": "Pahang"
    },
    {
        "Postcode": "28620",
        "Location": "Ladang Kuala Pedah",
        "Post_Office": "Karak",
        "State": "Pahang"
    },
    {
        "Postcode": "28620",
        "Location": "Ladang Liew Weng Chee",
        "Post_Office": "Karak",
        "State": "Pahang"
    },
    {
        "Postcode": "28620",
        "Location": "Ladang Peng Ann",
        "Post_Office": "Karak",
        "State": "Pahang"
    },
    {
        "Postcode": "28620",
        "Location": "Ladang Renjok",
        "Post_Office": "Karak",
        "State": "Pahang"
    },
    {
        "Postcode": "28620",
        "Location": "Ladang Sabai",
        "Post_Office": "Karak",
        "State": "Pahang"
    },
    {
        "Postcode": "28620",
        "Location": "Ladang Sang Lee",
        "Post_Office": "Karak",
        "State": "Pahang"
    },
    {
        "Postcode": "28620",
        "Location": "Ladang Temelong",
        "Post_Office": "Karak",
        "State": "Pahang"
    },
    {
        "Postcode": "28620",
        "Location": "Ladang Thong Heng",
        "Post_Office": "Karak",
        "State": "Pahang"
    },
    {
        "Postcode": "28620",
        "Location": "Ladang Timah",
        "Post_Office": "Karak",
        "State": "Pahang"
    },
    {
        "Postcode": "28620",
        "Location": "Ladang Tuan",
        "Post_Office": "Karak",
        "State": "Pahang"
    },
    {
        "Postcode": "28620",
        "Location": "Orchad Height",
        "Post_Office": "Karak",
        "State": "Pahang"
    },
    {
        "Postcode": "28620",
        "Location": "Sungai Perdak",
        "Post_Office": "Karak",
        "State": "Pahang"
    },
    {
        "Postcode": "28620",
        "Location": "Taman Telemong Indah",
        "Post_Office": "Karak",
        "State": "Pahang"
    },
    {
        "Postcode": "28620",
        "Location": "Telemong",
        "Post_Office": "Karak",
        "State": "Pahang"
    }
]
