[
    {
        "Postcode": "28700",
        "Location": "Kampung Baru",
        "Post_Office": "Bentong",
        "State": "Pahang"
    },
    {
        "Postcode": "28700",
        "Location": "Kampung Benggali",
        "Post_Office": "Bentong",
        "State": "Pahang"
    },
    {
        "Postcode": "28700",
        "Location": "Flat Pelangi",
        "Post_Office": "Bentong",
        "State": "Pahang"
    },
    {
        "Postcode": "28700",
        "Location": "Taman Bukit Indah",
        "Post_Office": "Bentong",
        "State": "Pahang"
    },
    {
        "Postcode": "28700",
        "Location": "Taman Seroja",
        "Post_Office": "Bentong",
        "State": "Pahang"
    },
    {
        "Postcode": "28700",
        "Location": "Taman Makmur Heights",
        "Post_Office": "Bentong",
        "State": "Pahang"
    },
    {
        "Postcode": "28700",
        "Location": "Taman Aman",
        "Post_Office": "Bentong",
        "State": "Pahang"
    },
    {
        "Postcode": "28700",
        "Location": "Taman Anggerik",
        "Post_Office": "Bentong",
        "State": "Pahang"
    },
    {
        "Postcode": "28700",
        "Location": "Taman Cempaka",
        "Post_Office": "Bentong",
        "State": "Pahang"
    },
    {
        "Postcode": "28700",
        "Location": "Taman Dahlia",
        "Post_Office": "Bentong",
        "State": "Pahang"
    },
    {
        "Postcode": "28700",
        "Location": "Taman Gemilang",
        "Post_Office": "Bentong",
        "State": "Pahang"
    },
    {
        "Postcode": "28700",
        "Location": "Taman Harmoni",
        "Post_Office": "Bentong",
        "State": "Pahang"
    },
    {
        "Postcode": "28700",
        "Location": "Taman Ksm",
        "Post_Office": "Bentong",
        "State": "Pahang"
    },
    {
        "Postcode": "28700",
        "Location": "Taman Mawar",
        "Post_Office": "Bentong",
        "State": "Pahang"
    },
    {
        "Postcode": "28700",
        "Location": "Taman Melati",
        "Post_Office": "Bentong",
        "State": "Pahang"
    },
    {
        "Postcode": "28700",
        "Location": "Taman Muhibbah",
        "Post_Office": "Bentong",
        "State": "Pahang"
    },
    {
        "Postcode": "28700",
        "Location": "Taman Orkid",
        "Post_Office": "Bentong",
        "State": "Pahang"
    },
    {
        "Postcode": "28700",
        "Location": "Taman Saga",
        "Post_Office": "Bentong",
        "State": "Pahang"
    },
    {
        "Postcode": "28700",
        "Location": "Bandar Hussin",
        "Post_Office": "Bentong",
        "State": "Pahang"
    },
    {
        "Postcode": "28700",
        "Location": "Bentong",
        "Post_Office": "Bentong",
        "State": "Pahang"
    },
    {
        "Postcode": "28700",
        "Location": "Benus",
        "Post_Office": "Bentong",
        "State": "Pahang"
    },
    {
        "Postcode": "28700",
        "Location": "Cegar Mendung",
        "Post_Office": "Bentong",
        "State": "Pahang"
    },
    {
        "Postcode": "28700",
        "Location": "Jalan Karak (Batu 2)",
        "Post_Office": "Bentong",
        "State": "Pahang"
    },
    {
        "Postcode": "28700",
        "Location": "Jalan Kuala Lumpur (Batu 11)",
        "Post_Office": "Bentong",
        "State": "Pahang"
    },
    {
        "Postcode": "28700",
        "Location": "Jalan Kuala Lumpur (Batu 4)",
        "Post_Office": "Bentong",
        "State": "Pahang"
    },
    {
        "Postcode": "28700",
        "Location": "Jalan Tras (Batu 1 - 3)",
        "Post_Office": "Bentong",
        "State": "Pahang"
    },
    {
        "Postcode": "28700",
        "Location": "Kampung Baharu Penjuring",
        "Post_Office": "Bentong",
        "State": "Pahang"
    },
    {
        "Postcode": "28700",
        "Location": "Kampung Baru Bentong",
        "Post_Office": "Bentong",
        "State": "Pahang"
    },
    {
        "Postcode": "28700",
        "Location": "Kampung Baru Kemansur",
        "Post_Office": "Bentong",
        "State": "Pahang"
    },
    {
        "Postcode": "28700",
        "Location": "Kampung Baru Ketari",
        "Post_Office": "Bentong",
        "State": "Pahang"
    },
    {
        "Postcode": "28700",
        "Location": "Kampung Batu 3 (Jalan Kuala Lumpur)",
        "Post_Office": "Bentong",
        "State": "Pahang"
    },
    {
        "Postcode": "28700",
        "Location": "Kampung Benus",
        "Post_Office": "Bentong",
        "State": "Pahang"
    },
    {
        "Postcode": "28700",
        "Location": "Kampung Bukit Piatu",
        "Post_Office": "Bentong",
        "State": "Pahang"
    },
    {
        "Postcode": "28700",
        "Location": "Kampung Chamang",
        "Post_Office": "Bentong",
        "State": "Pahang"
    },
    {
        "Postcode": "28700",
        "Location": "Kampung Chamang Baru",
        "Post_Office": "Bentong",
        "State": "Pahang"
    },
    {
        "Postcode": "28700",
        "Location": "Kampung Chamang Lama",
        "Post_Office": "Bentong",
        "State": "Pahang"
    },
    {
        "Postcode": "28700",
        "Location": "Kampung Chegar Medang",
        "Post_Office": "Bentong",
        "State": "Pahang"
    },
    {
        "Postcode": "28700",
        "Location": "Kampung Gementi",
        "Post_Office": "Bentong",
        "State": "Pahang"
    },
    {
        "Postcode": "28700",
        "Location": "Kampung Kemansor",
        "Post_Office": "Bentong",
        "State": "Pahang"
    },
    {
        "Postcode": "28700",
        "Location": "Kampung Ketari",
        "Post_Office": "Bentong",
        "State": "Pahang"
    },
    {
        "Postcode": "28700",
        "Location": "Kampung Kuala Repas",
        "Post_Office": "Bentong",
        "State": "Pahang"
    },
    {
        "Postcode": "28700",
        "Location": "Kampung Perting",
        "Post_Office": "Bentong",
        "State": "Pahang"
    },
    {
        "Postcode": "28700",
        "Location": "Kampung Repas",
        "Post_Office": "Bentong",
        "State": "Pahang"
    },
    {
        "Postcode": "28700",
        "Location": "Kampung Sungai Gabong",
        "Post_Office": "Bentong",
        "State": "Pahang"
    },
    {
        "Postcode": "28700",
        "Location": "Kampung Sungai Miak",
        "Post_Office": "Bentong",
        "State": "Pahang"
    },
    {
        "Postcode": "28700",
        "Location": "Kampung Ulu Perting",
        "Post_Office": "Bentong",
        "State": "Pahang"
    },
    {
        "Postcode": "28700",
        "Location": "Kem Bentong",
        "Post_Office": "Bentong",
        "State": "Pahang"
    },
    {
        "Postcode": "28700",
        "Location": "Kemansur",
        "Post_Office": "Bentong",
        "State": "Pahang"
    },
    {
        "Postcode": "28700",
        "Location": "Kemasul",
        "Post_Office": "Bentong",
        "State": "Pahang"
    },
    {
        "Postcode": "28700",
        "Location": "Ketari",
        "Post_Office": "Bentong",
        "State": "Pahang"
    },
    {
        "Postcode": "28700",
        "Location": "Ladang Pak Wai",
        "Post_Office": "Bentong",
        "State": "Pahang"
    },
    {
        "Postcode": "28700",
        "Location": "Mindef",
        "Post_Office": "Bentong",
        "State": "Pahang"
    },
    {
        "Postcode": "28700",
        "Location": "Mrsm Bentong",
        "Post_Office": "Bentong",
        "State": "Pahang"
    },
    {
        "Postcode": "28700",
        "Location": "Pekan Ketari",
        "Post_Office": "Bentong",
        "State": "Pahang"
    },
    {
        "Postcode": "28700",
        "Location": "Perting",
        "Post_Office": "Bentong",
        "State": "Pahang"
    },
    {
        "Postcode": "28700",
        "Location": "Perumahan Melayu Kampung Baru",
        "Post_Office": "Bentong",
        "State": "Pahang"
    },
    {
        "Postcode": "28700",
        "Location": "Sungai Marong",
        "Post_Office": "Bentong",
        "State": "Pahang"
    },
    {
        "Postcode": "28700",
        "Location": "Sungai Penjuring",
        "Post_Office": "Bentong",
        "State": "Pahang"
    },
    {
        "Postcode": "28700",
        "Location": "Taman Bentung Ketari",
        "Post_Office": "Bentong",
        "State": "Pahang"
    },
    {
        "Postcode": "28700",
        "Location": "Taman Benus Jaya",
        "Post_Office": "Bentong",
        "State": "Pahang"
    },
    {
        "Postcode": "28700",
        "Location": "Taman Benus Permai",
        "Post_Office": "Bentong",
        "State": "Pahang"
    },
    {
        "Postcode": "28700",
        "Location": "Taman Bukit Bayong",
        "Post_Office": "Bentong",
        "State": "Pahang"
    },
    {
        "Postcode": "28700",
        "Location": "Taman Bukit Bentong",
        "Post_Office": "Bentong",
        "State": "Pahang"
    },
    {
        "Postcode": "28700",
        "Location": "Taman Bukit Chamang",
        "Post_Office": "Bentong",
        "State": "Pahang"
    },
    {
        "Postcode": "28700",
        "Location": "Taman Bukit Kuda",
        "Post_Office": "Bentong",
        "State": "Pahang"
    },
    {
        "Postcode": "28700",
        "Location": "Taman Bumi Cemerlang",
        "Post_Office": "Bentong",
        "State": "Pahang"
    },
    {
        "Postcode": "28700",
        "Location": "Taman Cempaka 2",
        "Post_Office": "Bentong",
        "State": "Pahang"
    },
    {
        "Postcode": "28700",
        "Location": "Taman Chegar Medang",
        "Post_Office": "Bentong",
        "State": "Pahang"
    },
    {
        "Postcode": "28700",
        "Location": "Taman Dato Hussin",
        "Post_Office": "Bentong",
        "State": "Pahang"
    },
    {
        "Postcode": "28700",
        "Location": "Taman Dato Shah Bandar",
        "Post_Office": "Bentong",
        "State": "Pahang"
    },
    {
        "Postcode": "28700",
        "Location": "Taman Desa Damai",
        "Post_Office": "Bentong",
        "State": "Pahang"
    },
    {
        "Postcode": "28700",
        "Location": "Taman Desa Ria",
        "Post_Office": "Bentong",
        "State": "Pahang"
    },
    {
        "Postcode": "28700",
        "Location": "Taman Ketari",
        "Post_Office": "Bentong",
        "State": "Pahang"
    },
    {
        "Postcode": "28700",
        "Location": "Taman Kolej",
        "Post_Office": "Bentong",
        "State": "Pahang"
    },
    {
        "Postcode": "28700",
        "Location": "Taman Kolej Baru",
        "Post_Office": "Bentong",
        "State": "Pahang"
    },
    {
        "Postcode": "28700",
        "Location": "Taman Mawar Indah",
        "Post_Office": "Bentong",
        "State": "Pahang"
    },
    {
        "Postcode": "28700",
        "Location": "Taman Mawar Sari",
        "Post_Office": "Bentong",
        "State": "Pahang"
    },
    {
        "Postcode": "28700",
        "Location": "Taman Meranti",
        "Post_Office": "Bentong",
        "State": "Pahang"
    },
    {
        "Postcode": "28700",
        "Location": "Taman Mindef",
        "Post_Office": "Bentong",
        "State": "Pahang"
    },
    {
        "Postcode": "28700",
        "Location": "Taman Okid 2",
        "Post_Office": "Bentong",
        "State": "Pahang"
    },
    {
        "Postcode": "28700",
        "Location": "Taman Seri Bentong",
        "Post_Office": "Bentong",
        "State": "Pahang"
    },
    {
        "Postcode": "28700",
        "Location": "Taman Seri Marong",
        "Post_Office": "Bentong",
        "State": "Pahang"
    },
    {
        "Postcode": "28700",
        "Location": "Taman Seri Wangi",
        "Post_Office": "Bentong",
        "State": "Pahang"
    },
    {
        "Postcode": "28700",
        "Location": "Taman Shahbandar Husin",
        "Post_Office": "Bentong",
        "State": "Pahang"
    },
    {
        "Postcode": "28700",
        "Location": "Taman Sri Siantan",
        "Post_Office": "Bentong",
        "State": "Pahang"
    },
    {
        "Postcode": "28700",
        "Location": "Taman Sri Tanjong",
        "Post_Office": "Bentong",
        "State": "Pahang"
    },
    {
        "Postcode": "28700",
        "Location": "Taman Sungai Marong",
        "Post_Office": "Bentong",
        "State": "Pahang"
    },
    {
        "Postcode": "28700",
        "Location": "Taman Wangi",
        "Post_Office": "Bentong",
        "State": "Pahang"
    },
    {
        "Postcode": "28700",
        "Location": "Zon Perindustrian 2",
        "Post_Office": "Bentong",
        "State": "Pahang"
    },
    {
        "Postcode": "28700",
        "Location": "Zon Perindustrian Bentong",
        "Post_Office": "Bentong",
        "State": "Pahang"
    }
]
