[
    {
        "Postcode": "28740",
        "Location": "Ppr Desa Baris Idaman",
        "Post_Office": "Bentong",
        "State": "Pahang"
    },
    {
        "Postcode": "28740",
        "Location": "Kampung Baharu Pelangai",
        "Post_Office": "Bentong",
        "State": "Pahang"
    },
    {
        "Postcode": "28740",
        "Location": "Kampung Baris",
        "Post_Office": "Bentong",
        "State": "Pahang"
    },
    {
        "Postcode": "28740",
        "Location": "Kampung Batu Gajah",
        "Post_Office": "Bentong",
        "State": "Pahang"
    },
    {
        "Postcode": "28740",
        "Location": "Kampung Hayat",
        "Post_Office": "Bentong",
        "State": "Pahang"
    },
    {
        "Postcode": "28740",
        "Location": "Kampung Jawi-Jawi",
        "Post_Office": "Bentong",
        "State": "Pahang"
    },
    {
        "Postcode": "28740",
        "Location": "Kampung Pelangai",
        "Post_Office": "Bentong",
        "State": "Pahang"
    },
    {
        "Postcode": "28740",
        "Location": "Lembaga Jaya",
        "Post_Office": "Bentong",
        "State": "Pahang"
    }
]
