[
    {
        "Postcode": "28750",
        "Location": "Bukit Tinggi",
        "Post_Office": "Bentong",
        "State": "Pahang"
    },
    {
        "Postcode": "28750",
        "Location": "Genting Sepah",
        "Post_Office": "Bentong",
        "State": "Pahang"
    },
    {
        "Postcode": "28750",
        "Location": "Kampung Chemperoh",
        "Post_Office": "Bentong",
        "State": "Pahang"
    },
    {
        "Postcode": "28750",
        "Location": "Kampung Cheringing Tengah",
        "Post_Office": "Bentong",
        "State": "Pahang"
    },
    {
        "Postcode": "28750",
        "Location": "Kampung Cheringing Ulu",
        "Post_Office": "Bentong",
        "State": "Pahang"
    },
    {
        "Postcode": "28750",
        "Location": "Kampung Janda Baik",
        "Post_Office": "Bentong",
        "State": "Pahang"
    },
    {
        "Postcode": "28750",
        "Location": "Kampung Sum-Sum",
        "Post_Office": "Bentong",
        "State": "Pahang"
    },
    {
        "Postcode": "28750",
        "Location": "Kampung Sum-Sum Hilir",
        "Post_Office": "Bentong",
        "State": "Pahang"
    },
    {
        "Postcode": "28750",
        "Location": "Lentang",
        "Post_Office": "Bentong",
        "State": "Pahang"
    },
    {
        "Postcode": "28750",
        "Location": "Pelangai",
        "Post_Office": "Bentong",
        "State": "Pahang"
    },
    {
        "Postcode": "28750",
        "Location": "Selesa Hillhomes",
        "Post_Office": "Bentong",
        "State": "Pahang"
    }
]
