[
    {
        "Postcode": "09000",
        "Location": "Bandar Putra ",
        "Post_Office": "Kulim",
        "State": "Kedah"
    },
    {
        "Postcode": "09000",
        "Location": "Kampung Paya Tok Betok",
        "Post_Office": "Kulim",
        "State": "Kedah"
    },
    {
        "Postcode": "09000",
        "Location": "Kampung Sungai Ular",
        "Post_Office": "Kulim",
        "State": "Kedah"
    },
    {
        "Postcode": "09000",
        "Location": "Taman Bestari",
        "Post_Office": "Kulim",
        "State": "Kedah"
    },
    {
        "Postcode": "09000",
        "Location": "Taman Cekur Manis",
        "Post_Office": "Kulim",
        "State": "Kedah"
    },
    {
        "Postcode": "09000",
        "Location": "Kampung Dusun",
        "Post_Office": "Kulim",
        "State": "Kedah"
    },
    {
        "Postcode": "09000",
        "Location": "Taman Cendana",
        "Post_Office": "Kulim",
        "State": "Kedah"
    },
    {
        "Postcode": "09000",
        "Location": "Taman Kekwa",
        "Post_Office": "Kulim",
        "State": "Kedah"
    },
    {
        "Postcode": "09000",
        "Location": "Taman Keladi",
        "Post_Office": "Kulim",
        "State": "Kedah"
    },
    {
        "Postcode": "09000",
        "Location": "Taman Merbok",
        "Post_Office": "Kulim",
        "State": "Kedah"
    },
    {
        "Postcode": "09000",
        "Location": "Taman Pknk",
        "Post_Office": "Kulim",
        "State": "Kedah"
    },
    {
        "Postcode": "09000",
        "Location": "Taman Saga",
        "Post_Office": "Kulim",
        "State": "Kedah"
    },
    {
        "Postcode": "09000",
        "Location": "Taman Seri Tanjung",
        "Post_Office": "Kulim",
        "State": "Kedah"
    },
    {
        "Postcode": "09000",
        "Location": "Taman Serindik",
        "Post_Office": "Kulim",
        "State": "Kedah"
    },
    {
        "Postcode": "09000",
        "Location": "Kampung Kem Junjung",
        "Post_Office": "Kulim",
        "State": "Kedah"
    },
    {
        "Postcode": "09000",
        "Location": "Kampung Padang Janggus",
        "Post_Office": "Kulim",
        "State": "Kedah"
    },
    {
        "Postcode": "09000",
        "Location": "Kampung Syed Sheikh",
        "Post_Office": "Kulim",
        "State": "Kedah"
    },
    {
        "Postcode": "09000",
        "Location": "Kampung Padang Buluh",
        "Post_Office": "Kulim",
        "State": "Kedah"
    },
    {
        "Postcode": "09000",
        "Location": "Taman Ihsan",
        "Post_Office": "Kulim",
        "State": "Kedah"
    },
    {
        "Postcode": "09000",
        "Location": "Taman Ihsan 3",
        "Post_Office": "Kulim",
        "State": "Kedah"
    },
    {
        "Postcode": "09000",
        "Location": "Kampung Binjal",
        "Post_Office": "Kulim",
        "State": "Kedah"
    },
    {
        "Postcode": "09000",
        "Location": "Kampung Bukit Besar",
        "Post_Office": "Kulim",
        "State": "Kedah"
    },
    {
        "Postcode": "09000",
        "Location": "Kampung Sera",
        "Post_Office": "Kulim",
        "State": "Kedah"
    },
    {
        "Postcode": "09000",
        "Location": "Taman Cengal",
        "Post_Office": "Kulim",
        "State": "Kedah"
    },
    {
        "Postcode": "09000",
        "Location": "Taman Impian",
        "Post_Office": "Kulim",
        "State": "Kedah"
    },
    {
        "Postcode": "09000",
        "Location": "Taman Jati",
        "Post_Office": "Kulim",
        "State": "Kedah"
    },
    {
        "Postcode": "09000",
        "Location": "Taman Kancil",
        "Post_Office": "Kulim",
        "State": "Kedah"
    },
    {
        "Postcode": "09000",
        "Location": "Taman Kenari",
        "Post_Office": "Kulim",
        "State": "Kedah"
    },
    {
        "Postcode": "09000",
        "Location": "Taman Mahkota",
        "Post_Office": "Kulim",
        "State": "Kedah"
    },
    {
        "Postcode": "09000",
        "Location": "Taman Makmur",
        "Post_Office": "Kulim",
        "State": "Kedah"
    },
    {
        "Postcode": "09000",
        "Location": "Taman Melor",
        "Post_Office": "Kulim",
        "State": "Kedah"
    },
    {
        "Postcode": "09000",
        "Location": "Taman Melor Indah",
        "Post_Office": "Kulim",
        "State": "Kedah"
    },
    {
        "Postcode": "09000",
        "Location": "Taman Merak",
        "Post_Office": "Kulim",
        "State": "Kedah"
    },
    {
        "Postcode": "09000",
        "Location": "Taman Pelangi",
        "Post_Office": "Kulim",
        "State": "Kedah"
    },
    {
        "Postcode": "09000",
        "Location": "Taman Senangin",
        "Post_Office": "Kulim",
        "State": "Kedah"
    },
    {
        "Postcode": "09000",
        "Location": "Taman Teratai",
        "Post_Office": "Kulim",
        "State": "Kedah"
    },
    {
        "Postcode": "09000",
        "Location": "Kampung Tunku Putra A",
        "Post_Office": "Kulim",
        "State": "Kedah"
    },
    {
        "Postcode": "09000",
        "Location": "Kampung Tunku Putra B",
        "Post_Office": "Kulim",
        "State": "Kedah"
    },
    {
        "Postcode": "09000",
        "Location": "Kampung Tunku Putra C",
        "Post_Office": "Kulim",
        "State": "Kedah"
    },
    {
        "Postcode": "09000",
        "Location": "Taman Bayam 1",
        "Post_Office": "Kulim",
        "State": "Kedah"
    },
    {
        "Postcode": "09000",
        "Location": "Taman Bayam 2",
        "Post_Office": "Kulim",
        "State": "Kedah"
    },
    {
        "Postcode": "09000",
        "Location": "Taman Kangkong 1",
        "Post_Office": "Kulim",
        "State": "Kedah"
    },
    {
        "Postcode": "09000",
        "Location": "Taman Kangkong 2",
        "Post_Office": "Kulim",
        "State": "Kedah"
    },
    {
        "Postcode": "09000",
        "Location": "Taman Kempas 1",
        "Post_Office": "Kulim",
        "State": "Kedah"
    },
    {
        "Postcode": "09000",
        "Location": "Taman Kempas 2",
        "Post_Office": "Kulim",
        "State": "Kedah"
    },
    {
        "Postcode": "09000",
        "Location": "Taman Keranji 1",
        "Post_Office": "Kulim",
        "State": "Kedah"
    },
    {
        "Postcode": "09000",
        "Location": "Taman Keranji 2",
        "Post_Office": "Kulim",
        "State": "Kedah"
    },
    {
        "Postcode": "09000",
        "Location": "Taman Keranji 3",
        "Post_Office": "Kulim",
        "State": "Kedah"
    },
    {
        "Postcode": "09000",
        "Location": "Taman Mewah 1",
        "Post_Office": "Kulim",
        "State": "Kedah"
    },
    {
        "Postcode": "09000",
        "Location": "Taman Mewah 2",
        "Post_Office": "Kulim",
        "State": "Kedah"
    },
    {
        "Postcode": "09000",
        "Location": "Taman Mewah 3",
        "Post_Office": "Kulim",
        "State": "Kedah"
    },
    {
        "Postcode": "09000",
        "Location": "Taman Petaling Indah 1",
        "Post_Office": "Kulim",
        "State": "Kedah"
    },
    {
        "Postcode": "09000",
        "Location": "Taman Petaling Indah 2",
        "Post_Office": "Kulim",
        "State": "Kedah"
    },
    {
        "Postcode": "09000",
        "Location": "Taman Tiong 1",
        "Post_Office": "Kulim",
        "State": "Kedah"
    },
    {
        "Postcode": "09000",
        "Location": "Taman Tiong 2",
        "Post_Office": "Kulim",
        "State": "Kedah"
    },
    {
        "Postcode": "09000",
        "Location": "Bandar Baru Kulim",
        "Post_Office": "Kulim",
        "State": "Kedah"
    },
    {
        "Postcode": "09000",
        "Location": "Junjung",
        "Post_Office": "Kulim",
        "State": "Kedah"
    },
    {
        "Postcode": "09000",
        "Location": "Kampung Air Merah",
        "Post_Office": "Kulim",
        "State": "Kedah"
    },
    {
        "Postcode": "09000",
        "Location": "Kampung Ayer Puteh (Kulim)",
        "Post_Office": "Kulim",
        "State": "Kedah"
    },
    {
        "Postcode": "09000",
        "Location": "Kampung Baru Air Merah",
        "Post_Office": "Kulim",
        "State": "Kedah"
    },
    {
        "Postcode": "09000",
        "Location": "Kampung Batu 3 (Jalan Lunas)",
        "Post_Office": "Kulim",
        "State": "Kedah"
    },
    {
        "Postcode": "09000",
        "Location": "Kampung Batu 4 (Sungai Ular)",
        "Post_Office": "Kulim",
        "State": "Kedah"
    },
    {
        "Postcode": "09000",
        "Location": "Kampung Darulaman",
        "Post_Office": "Kulim",
        "State": "Kedah"
    },
    {
        "Postcode": "09000",
        "Location": "Kampung Haji Arshad",
        "Post_Office": "Kulim",
        "State": "Kedah"
    },
    {
        "Postcode": "09000",
        "Location": "Kampung Keladi",
        "Post_Office": "Kulim",
        "State": "Kedah"
    },
    {
        "Postcode": "09000",
        "Location": "Kampung Kilang Sago",
        "Post_Office": "Kulim",
        "State": "Kedah"
    },
    {
        "Postcode": "09000",
        "Location": "Kampung Padang Kulim",
        "Post_Office": "Kulim",
        "State": "Kedah"
    },
    {
        "Postcode": "09000",
        "Location": "Kampung Padang Penyangga",
        "Post_Office": "Kulim",
        "State": "Kedah"
    },
    {
        "Postcode": "09000",
        "Location": "Kampung Padang Tembak",
        "Post_Office": "Kulim",
        "State": "Kedah"
    },
    {
        "Postcode": "09000",
        "Location": "Kampung Permatang Janggus",
        "Post_Office": "Kulim",
        "State": "Kedah"
    },
    {
        "Postcode": "09000",
        "Location": "Kampung Permatang Tiong",
        "Post_Office": "Kulim",
        "State": "Kedah"
    },
    {
        "Postcode": "09000",
        "Location": "Kampung Pondok Labu",
        "Post_Office": "Kulim",
        "State": "Kedah"
    },
    {
        "Postcode": "09000",
        "Location": "Kampung Pong Ah Yong",
        "Post_Office": "Kulim",
        "State": "Kedah"
    },
    {
        "Postcode": "09000",
        "Location": "Kampung Sungai Badak",
        "Post_Office": "Kulim",
        "State": "Kedah"
    },
    {
        "Postcode": "09000",
        "Location": "Kampung Tok Rasul",
        "Post_Office": "Kulim",
        "State": "Kedah"
    },
    {
        "Postcode": "09000",
        "Location": "Kelang Lama",
        "Post_Office": "Kulim",
        "State": "Kedah"
    },
    {
        "Postcode": "09000",
        "Location": "Kota Kenari",
        "Post_Office": "Kulim",
        "State": "Kedah"
    },
    {
        "Postcode": "09000",
        "Location": "Kulim",
        "Post_Office": "Kulim",
        "State": "Kedah"
    },
    {
        "Postcode": "09000",
        "Location": "Ladang Bagan Sena",
        "Post_Office": "Kulim",
        "State": "Kedah"
    },
    {
        "Postcode": "09000",
        "Location": "Ladang Bmr Batu Tuteh",
        "Post_Office": "Kulim",
        "State": "Kedah"
    },
    {
        "Postcode": "09000",
        "Location": "Lebuh Bandar",
        "Post_Office": "Kulim",
        "State": "Kedah"
    },
    {
        "Postcode": "09000",
        "Location": "Pusat Perniagaan Putra",
        "Post_Office": "Kulim",
        "State": "Kedah"
    },
    {
        "Postcode": "09000",
        "Location": "Simpang Tiga Keladi",
        "Post_Office": "Kulim",
        "State": "Kedah"
    },
    {
        "Postcode": "09000",
        "Location": "Taman Angerik",
        "Post_Office": "Kulim",
        "State": "Kedah"
    },
    {
        "Postcode": "09000",
        "Location": "Taman Angsana",
        "Post_Office": "Kulim",
        "State": "Kedah"
    },
    {
        "Postcode": "09000",
        "Location": "Taman Badlishah",
        "Post_Office": "Kulim",
        "State": "Kedah"
    },
    {
        "Postcode": "09000",
        "Location": "Taman Bandar Putra",
        "Post_Office": "Kulim",
        "State": "Kedah"
    },
    {
        "Postcode": "09000",
        "Location": "Taman Bayan",
        "Post_Office": "Kulim",
        "State": "Kedah"
    },
    {
        "Postcode": "09000",
        "Location": "Taman Beringin",
        "Post_Office": "Kulim",
        "State": "Kedah"
    },
    {
        "Postcode": "09000",
        "Location": "Taman Berjaya",
        "Post_Office": "Kulim",
        "State": "Kedah"
    },
    {
        "Postcode": "09000",
        "Location": "Taman Berlian",
        "Post_Office": "Kulim",
        "State": "Kedah"
    },
    {
        "Postcode": "09000",
        "Location": "Taman Bersatu",
        "Post_Office": "Kulim",
        "State": "Kedah"
    },
    {
        "Postcode": "09000",
        "Location": "Taman Bidara",
        "Post_Office": "Kulim",
        "State": "Kedah"
    },
    {
        "Postcode": "09000",
        "Location": "Taman Budiman",
        "Post_Office": "Kulim",
        "State": "Kedah"
    },
    {
        "Postcode": "09000",
        "Location": "Taman Bukit Awi",
        "Post_Office": "Kulim",
        "State": "Kedah"
    },
    {
        "Postcode": "09000",
        "Location": "Taman Bukit Kulim",
        "Post_Office": "Kulim",
        "State": "Kedah"
    },
    {
        "Postcode": "09000",
        "Location": "Taman Bunga Mawar",
        "Post_Office": "Kulim",
        "State": "Kedah"
    },
    {
        "Postcode": "09000",
        "Location": "Taman Camar",
        "Post_Office": "Kulim",
        "State": "Kedah"
    },
    {
        "Postcode": "09000",
        "Location": "Taman Candrawasih",
        "Post_Office": "Kulim",
        "State": "Kedah"
    },
    {
        "Postcode": "09000",
        "Location": "Taman Cempaka",
        "Post_Office": "Kulim",
        "State": "Kedah"
    },
    {
        "Postcode": "09000",
        "Location": "Taman Cempakasari",
        "Post_Office": "Kulim",
        "State": "Kedah"
    },
    {
        "Postcode": "09000",
        "Location": "Taman Ceri",
        "Post_Office": "Kulim",
        "State": "Kedah"
    },
    {
        "Postcode": "09000",
        "Location": "Taman Dahlia",
        "Post_Office": "Kulim",
        "State": "Kedah"
    },
    {
        "Postcode": "09000",
        "Location": "Taman Desa Impian",
        "Post_Office": "Kulim",
        "State": "Kedah"
    },
    {
        "Postcode": "09000",
        "Location": "Taman Desa Kasturi",
        "Post_Office": "Kulim",
        "State": "Kedah"
    },
    {
        "Postcode": "09000",
        "Location": "Taman Desa Makmur",
        "Post_Office": "Kulim",
        "State": "Kedah"
    },
    {
        "Postcode": "09000",
        "Location": "Taman Desa Melati",
        "Post_Office": "Kulim",
        "State": "Kedah"
    },
    {
        "Postcode": "09000",
        "Location": "Taman Desa Penaga",
        "Post_Office": "Kulim",
        "State": "Kedah"
    },
    {
        "Postcode": "09000",
        "Location": "Taman Desa Sentosa",
        "Post_Office": "Kulim",
        "State": "Kedah"
    },
    {
        "Postcode": "09000",
        "Location": "Taman Emas",
        "Post_Office": "Kulim",
        "State": "Kedah"
    },
    {
        "Postcode": "09000",
        "Location": "Taman Harmoni",
        "Post_Office": "Kulim",
        "State": "Kedah"
    },
    {
        "Postcode": "09000",
        "Location": "Taman Haruan",
        "Post_Office": "Kulim",
        "State": "Kedah"
    },
    {
        "Postcode": "09000",
        "Location": "Taman Helang Perdana",
        "Post_Office": "Kulim",
        "State": "Kedah"
    },
    {
        "Postcode": "09000",
        "Location": "Taman Industri Waja",
        "Post_Office": "Kulim",
        "State": "Kedah"
    },
    {
        "Postcode": "09000",
        "Location": "Taman Jelutung",
        "Post_Office": "Kulim",
        "State": "Kedah"
    },
    {
        "Postcode": "09000",
        "Location": "Taman Kejora",
        "Post_Office": "Kulim",
        "State": "Kedah"
    },
    {
        "Postcode": "09000",
        "Location": "Taman Kemuning",
        "Post_Office": "Kulim",
        "State": "Kedah"
    },
    {
        "Postcode": "09000",
        "Location": "Taman Kemunting",
        "Post_Office": "Kulim",
        "State": "Kedah"
    },
    {
        "Postcode": "09000",
        "Location": "Taman Kenyalang",
        "Post_Office": "Kulim",
        "State": "Kedah"
    },
    {
        "Postcode": "09000",
        "Location": "Taman Khir Johari",
        "Post_Office": "Kulim",
        "State": "Kedah"
    },
    {
        "Postcode": "09000",
        "Location": "Taman Kijang",
        "Post_Office": "Kulim",
        "State": "Kedah"
    },
    {
        "Postcode": "09000",
        "Location": "Taman Kobis",
        "Post_Office": "Kulim",
        "State": "Kedah"
    },
    {
        "Postcode": "09000",
        "Location": "Taman Kucai",
        "Post_Office": "Kulim",
        "State": "Kedah"
    },
    {
        "Postcode": "09000",
        "Location": "Taman Kulim",
        "Post_Office": "Kulim",
        "State": "Kedah"
    },
    {
        "Postcode": "09000",
        "Location": "Taman Kulim Baru",
        "Post_Office": "Kulim",
        "State": "Kedah"
    },
    {
        "Postcode": "09000",
        "Location": "Taman Kulim Square",
        "Post_Office": "Kulim",
        "State": "Kedah"
    },
    {
        "Postcode": "09000",
        "Location": "Taman Lembah Impiana",
        "Post_Office": "Kulim",
        "State": "Kedah"
    },
    {
        "Postcode": "09000",
        "Location": "Taman Lobak",
        "Post_Office": "Kulim",
        "State": "Kedah"
    },
    {
        "Postcode": "09000",
        "Location": "Taman Lobak 2",
        "Post_Office": "Kulim",
        "State": "Kedah"
    },
    {
        "Postcode": "09000",
        "Location": "Taman Maktab",
        "Post_Office": "Kulim",
        "State": "Kedah"
    },
    {
        "Postcode": "09000",
        "Location": "Taman Manggis",
        "Post_Office": "Kulim",
        "State": "Kedah"
    },
    {
        "Postcode": "09000",
        "Location": "Taman Meranti",
        "Post_Office": "Kulim",
        "State": "Kedah"
    },
    {
        "Postcode": "09000",
        "Location": "Taman Merpati",
        "Post_Office": "Kulim",
        "State": "Kedah"
    },
    {
        "Postcode": "09000",
        "Location": "Taman Nenas",
        "Post_Office": "Kulim",
        "State": "Kedah"
    },
    {
        "Postcode": "09000",
        "Location": "Taman Nenas Indah",
        "Post_Office": "Kulim",
        "State": "Kedah"
    },
    {
        "Postcode": "09000",
        "Location": "Taman Nilam Baiduri",
        "Post_Office": "Kulim",
        "State": "Kedah"
    },
    {
        "Postcode": "09000",
        "Location": "Taman Nuri",
        "Post_Office": "Kulim",
        "State": "Kedah"
    },
    {
        "Postcode": "09000",
        "Location": "Taman Okid",
        "Post_Office": "Kulim",
        "State": "Kedah"
    },
    {
        "Postcode": "09000",
        "Location": "Taman Pandan Indah",
        "Post_Office": "Kulim",
        "State": "Kedah"
    },
    {
        "Postcode": "09000",
        "Location": "Taman Pegaga",
        "Post_Office": "Kulim",
        "State": "Kedah"
    },
    {
        "Postcode": "09000",
        "Location": "Taman Perak",
        "Post_Office": "Kulim",
        "State": "Kedah"
    },
    {
        "Postcode": "09000",
        "Location": "Taman Peria",
        "Post_Office": "Kulim",
        "State": "Kedah"
    },
    {
        "Postcode": "09000",
        "Location": "Taman Petaling",
        "Post_Office": "Kulim",
        "State": "Kedah"
    },
    {
        "Postcode": "09000",
        "Location": "Taman Petaling Indah",
        "Post_Office": "Kulim",
        "State": "Kedah"
    },
    {
        "Postcode": "09000",
        "Location": "Taman Petaling Jaya",
        "Post_Office": "Kulim",
        "State": "Kedah"
    },
    {
        "Postcode": "09000",
        "Location": "Taman Pondok Labu",
        "Post_Office": "Kulim",
        "State": "Kedah"
    },
    {
        "Postcode": "09000",
        "Location": "Taman Pudina",
        "Post_Office": "Kulim",
        "State": "Kedah"
    },
    {
        "Postcode": "09000",
        "Location": "Taman Putra",
        "Post_Office": "Kulim",
        "State": "Kedah"
    },
    {
        "Postcode": "09000",
        "Location": "Taman Rambai",
        "Post_Office": "Kulim",
        "State": "Kedah"
    },
    {
        "Postcode": "09000",
        "Location": "Taman Ru",
        "Post_Office": "Kulim",
        "State": "Kedah"
    },
    {
        "Postcode": "09000",
        "Location": "Taman Rusa",
        "Post_Office": "Kulim",
        "State": "Kedah"
    },
    {
        "Postcode": "09000",
        "Location": "Taman Saderi",
        "Post_Office": "Kulim",
        "State": "Kedah"
    },
    {
        "Postcode": "09000",
        "Location": "Taman Sago",
        "Post_Office": "Kulim",
        "State": "Kedah"
    },
    {
        "Postcode": "09000",
        "Location": "Taman Salad",
        "Post_Office": "Kulim",
        "State": "Kedah"
    },
    {
        "Postcode": "09000",
        "Location": "Taman Sawi",
        "Post_Office": "Kulim",
        "State": "Kedah"
    },
    {
        "Postcode": "09000",
        "Location": "Taman Sejahtera 2",
        "Post_Office": "Kulim",
        "State": "Kedah"
    },
    {
        "Postcode": "09000",
        "Location": "Taman Seladang",
        "Post_Office": "Kulim",
        "State": "Kedah"
    },
    {
        "Postcode": "09000",
        "Location": "Taman Selasih",
        "Post_Office": "Kulim",
        "State": "Kedah"
    },
    {
        "Postcode": "09000",
        "Location": "Taman Selasih Lima",
        "Post_Office": "Kulim",
        "State": "Kedah"
    },
    {
        "Postcode": "09000",
        "Location": "Taman Seluang",
        "Post_Office": "Kulim",
        "State": "Kedah"
    },
    {
        "Postcode": "09000",
        "Location": "Taman Semarak",
        "Post_Office": "Kulim",
        "State": "Kedah"
    },
    {
        "Postcode": "09000",
        "Location": "Taman Seraya Indah",
        "Post_Office": "Kulim",
        "State": "Kedah"
    },
    {
        "Postcode": "09000",
        "Location": "Taman Seri Kulim",
        "Post_Office": "Kulim",
        "State": "Kedah"
    },
    {
        "Postcode": "09000",
        "Location": "Taman Seri Liman",
        "Post_Office": "Kulim",
        "State": "Kedah"
    },
    {
        "Postcode": "09000",
        "Location": "Taman Seri Petaling",
        "Post_Office": "Kulim",
        "State": "Kedah"
    },
    {
        "Postcode": "09000",
        "Location": "Taman Seri Pinang",
        "Post_Office": "Kulim",
        "State": "Kedah"
    },
    {
        "Postcode": "09000",
        "Location": "Taman Seroja",
        "Post_Office": "Kulim",
        "State": "Kedah"
    },
    {
        "Postcode": "09000",
        "Location": "Taman Sri Kenanga",
        "Post_Office": "Kulim",
        "State": "Kedah"
    },
    {
        "Postcode": "09000",
        "Location": "Taman Sri Sentosa",
        "Post_Office": "Kulim",
        "State": "Kedah"
    },
    {
        "Postcode": "09000",
        "Location": "Taman Suasa",
        "Post_Office": "Kulim",
        "State": "Kedah"
    },
    {
        "Postcode": "09000",
        "Location": "Taman Sulaiman",
        "Post_Office": "Kulim",
        "State": "Kedah"
    },
    {
        "Postcode": "09000",
        "Location": "Taman Tanjung Indah",
        "Post_Office": "Kulim",
        "State": "Kedah"
    },
    {
        "Postcode": "09000",
        "Location": "Taman Tengku Putra",
        "Post_Office": "Kulim",
        "State": "Kedah"
    },
    {
        "Postcode": "09000",
        "Location": "Taman Tiram",
        "Post_Office": "Kulim",
        "State": "Kedah"
    },
    {
        "Postcode": "09000",
        "Location": "Taman Tiram Indah",
        "Post_Office": "Kulim",
        "State": "Kedah"
    },
    {
        "Postcode": "09000",
        "Location": "Taman Tunku Putera",
        "Post_Office": "Kulim",
        "State": "Kedah"
    },
    {
        "Postcode": "09000",
        "Location": "Taman Waja",
        "Post_Office": "Kulim",
        "State": "Kedah"
    },
    {
        "Postcode": "09000",
        "Location": "Teroi",
        "Post_Office": "Kulim",
        "State": "Kedah"
    }
]
