[
    {
        "Postcode": "09010",
        "Location": "Kampung Petani",
        "Post_Office": "Kulim",
        "State": "Kedah"
    },
    {
        "Postcode": "09010",
        "Location": "Kampung Bagan Sena",
        "Post_Office": "Kulim",
        "State": "Kedah"
    },
    {
        "Postcode": "09010",
        "Location": "Kampung Bikan",
        "Post_Office": "Kulim",
        "State": "Kedah"
    },
    {
        "Postcode": "09010",
        "Location": "Kampung Bikan Atas",
        "Post_Office": "Kulim",
        "State": "Kedah"
    },
    {
        "Postcode": "09010",
        "Location": "Kampung Bukit Chempedak",
        "Post_Office": "Kulim",
        "State": "Kedah"
    },
    {
        "Postcode": "09010",
        "Location": "Kampung Jubai Atas",
        "Post_Office": "Kulim",
        "State": "Kedah"
    },
    {
        "Postcode": "09010",
        "Location": "Kampung Jubai Bawah",
        "Post_Office": "Kulim",
        "State": "Kedah"
    },
    {
        "Postcode": "09010",
        "Location": "Kampung Jubai Sc",
        "Post_Office": "Kulim",
        "State": "Kedah"
    },
    {
        "Postcode": "09010",
        "Location": "Kampung Keda Bagan Sena",
        "Post_Office": "Kulim",
        "State": "Kedah"
    },
    {
        "Postcode": "09010",
        "Location": "Kampung Padang Bola",
        "Post_Office": "Kulim",
        "State": "Kedah"
    },
    {
        "Postcode": "09010",
        "Location": "Kampung Padang Patong",
        "Post_Office": "Kulim",
        "State": "Kedah"
    },
    {
        "Postcode": "09010",
        "Location": "Kampung Padang Ubi",
        "Post_Office": "Kulim",
        "State": "Kedah"
    },
    {
        "Postcode": "09010",
        "Location": "Labu Besar",
        "Post_Office": "Kulim",
        "State": "Kedah"
    }
]
