[
    {
        "Postcode": "09090",
        "Location": "Jalan Kulim Height 1",
        "Post_Office": "Kulim",
        "State": "Kedah"
    },
    {
        "Postcode": "09090",
        "Location": "Jalan Kulim Height 1/2",
        "Post_Office": "Kulim",
        "State": "Kedah"
    },
    {
        "Postcode": "09090",
        "Location": "Jalan Kulim Height 1/3",
        "Post_Office": "Kulim",
        "State": "Kedah"
    },
    {
        "Postcode": "09090",
        "Location": "Jalan Kulim Height 1/5",
        "Post_Office": "Kulim",
        "State": "Kedah"
    },
    {
        "Postcode": "09090",
        "Location": "Jalan Kulim Height 2",
        "Post_Office": "Kulim",
        "State": "Kedah"
    },
    {
        "Postcode": "09090",
        "Location": "Jalan Kulim Height 2/1",
        "Post_Office": "Kulim",
        "State": "Kedah"
    },
    {
        "Postcode": "09090",
        "Location": "Jalan Kulim Height 2/2",
        "Post_Office": "Kulim",
        "State": "Kedah"
    },
    {
        "Postcode": "09090",
        "Location": "Jalan Kulim Height 2/3",
        "Post_Office": "Kulim",
        "State": "Kedah"
    },
    {
        "Postcode": "09090",
        "Location": "Jalan Kulim Height 2/4",
        "Post_Office": "Kulim",
        "State": "Kedah"
    },
    {
        "Postcode": "09090",
        "Location": "Jalan Kulim Height 3",
        "Post_Office": "Kulim",
        "State": "Kedah"
    },
    {
        "Postcode": "09090",
        "Location": "Jalan Kulim Height 3/1",
        "Post_Office": "Kulim",
        "State": "Kedah"
    },
    {
        "Postcode": "09090",
        "Location": "Lorong KTC 1/1",
        "Post_Office": "Kulim",
        "State": "Kedah"
    },
    {
        "Postcode": "09090",
        "Location": "Lorong KTC 1/10",
        "Post_Office": "Kulim",
        "State": "Kedah"
    },
    {
        "Postcode": "09090",
        "Location": "Lorong KTC 1/11",
        "Post_Office": "Kulim",
        "State": "Kedah"
    },
    {
        "Postcode": "09090",
        "Location": "Lorong KTC 1/12",
        "Post_Office": "Kulim",
        "State": "Kedah"
    },
    {
        "Postcode": "09090",
        "Location": "Lorong KTC 1/13",
        "Post_Office": "Kulim",
        "State": "Kedah"
    },
    {
        "Postcode": "09090",
        "Location": "Lorong KTC 1/14",
        "Post_Office": "Kulim",
        "State": "Kedah"
    },
    {
        "Postcode": "09090",
        "Location": "Lorong KTC 1/15",
        "Post_Office": "Kulim",
        "State": "Kedah"
    },
    {
        "Postcode": "09090",
        "Location": "Lorong KTC 1/16",
        "Post_Office": "Kulim",
        "State": "Kedah"
    },
    {
        "Postcode": "09090",
        "Location": "Lorong KTC 1/17",
        "Post_Office": "Kulim",
        "State": "Kedah"
    },
    {
        "Postcode": "09090",
        "Location": "Lorong KTC 1/18",
        "Post_Office": "Kulim",
        "State": "Kedah"
    },
    {
        "Postcode": "09090",
        "Location": "Lorong KTC 1/19",
        "Post_Office": "Kulim",
        "State": "Kedah"
    },
    {
        "Postcode": "09090",
        "Location": "Lorong KTC 1/20",
        "Post_Office": "Kulim",
        "State": "Kedah"
    },
    {
        "Postcode": "09090",
        "Location": "Lorong KTC 1/21",
        "Post_Office": "Kulim",
        "State": "Kedah"
    },
    {
        "Postcode": "09090",
        "Location": "Lorong KTC 1/22",
        "Post_Office": "Kulim",
        "State": "Kedah"
    },
    {
        "Postcode": "09090",
        "Location": "Lorong KTC 1/23",
        "Post_Office": "Kulim",
        "State": "Kedah"
    },
    {
        "Postcode": "09090",
        "Location": "Lorong KTC 1/24",
        "Post_Office": "Kulim",
        "State": "Kedah"
    },
    {
        "Postcode": "09090",
        "Location": "Lorong KTC 1/25",
        "Post_Office": "Kulim",
        "State": "Kedah"
    },
    {
        "Postcode": "09090",
        "Location": "Lorong KTC 1/26",
        "Post_Office": "Kulim",
        "State": "Kedah"
    },
    {
        "Postcode": "09090",
        "Location": "Lorong KTC 1/27",
        "Post_Office": "Kulim",
        "State": "Kedah"
    },
    {
        "Postcode": "09090",
        "Location": "Lorong KTC 1/28",
        "Post_Office": "Kulim",
        "State": "Kedah"
    },
    {
        "Postcode": "09090",
        "Location": "Lorong KTC 1/29",
        "Post_Office": "Kulim",
        "State": "Kedah"
    },
    {
        "Postcode": "09090",
        "Location": "Lorong KTC 1/2",
        "Post_Office": "Kulim",
        "State": "Kedah"
    },
    {
        "Postcode": "09090",
        "Location": "Lorong KTC 1/3",
        "Post_Office": "Kulim",
        "State": "Kedah"
    },
    {
        "Postcode": "09090",
        "Location": "Lorong KTC 1/4",
        "Post_Office": "Kulim",
        "State": "Kedah"
    },
    {
        "Postcode": "09090",
        "Location": "Lorong KTC 1/5",
        "Post_Office": "Kulim",
        "State": "Kedah"
    },
    {
        "Postcode": "09090",
        "Location": "Lorong KTC 1/6",
        "Post_Office": "Kulim",
        "State": "Kedah"
    },
    {
        "Postcode": "09090",
        "Location": "Lorong KTC 1/7",
        "Post_Office": "Kulim",
        "State": "Kedah"
    },
    {
        "Postcode": "09090",
        "Location": "Lorong KTC 1/8",
        "Post_Office": "Kulim",
        "State": "Kedah"
    },
    {
        "Postcode": "09090",
        "Location": "Lorong KTC 1/9",
        "Post_Office": "Kulim",
        "State": "Kedah"
    },
    {
        "Postcode": "09090",
        "Location": "Lorong KTC 2/1",
        "Post_Office": "Kulim",
        "State": "Kedah"
    },
    {
        "Postcode": "09090",
        "Location": "Lorong KTC 2/2",
        "Post_Office": "Kulim",
        "State": "Kedah"
    },
    {
        "Postcode": "09090",
        "Location": "Lorong KTC 2/3",
        "Post_Office": "Kulim",
        "State": "Kedah"
    },
    {
        "Postcode": "09090",
        "Location": "Lorong KTC 2/4",
        "Post_Office": "Kulim",
        "State": "Kedah"
    },
    {
        "Postcode": "09090",
        "Location": "Lorong KTC 2/6",
        "Post_Office": "Kulim",
        "State": "Kedah"
    },
    {
        "Postcode": "09090",
        "Location": "Lorong KTC 2/7",
        "Post_Office": "Kulim",
        "State": "Kedah"
    },
    {
        "Postcode": "09090",
        "Location": "Lorong KTC 2/9",
        "Post_Office": "Kulim",
        "State": "Kedah"
    },
    {
        "Postcode": "09090",
        "Location": "Lorong KTC 3/1",
        "Post_Office": "Kulim",
        "State": "Kedah"
    },
    {
        "Postcode": "09090",
        "Location": "Lorong KTC 3/10",
        "Post_Office": "Kulim",
        "State": "Kedah"
    },
    {
        "Postcode": "09090",
        "Location": "Lorong KTC 3/11",
        "Post_Office": "Kulim",
        "State": "Kedah"
    },
    {
        "Postcode": "09090",
        "Location": "Lorong KTC 3/12",
        "Post_Office": "Kulim",
        "State": "Kedah"
    },
    {
        "Postcode": "09090",
        "Location": "Lorong KTC 3/13",
        "Post_Office": "Kulim",
        "State": "Kedah"
    },
    {
        "Postcode": "09090",
        "Location": "Lorong KTC 3/14",
        "Post_Office": "Kulim",
        "State": "Kedah"
    },
    {
        "Postcode": "09090",
        "Location": "Lorong KTC 3/15",
        "Post_Office": "Kulim",
        "State": "Kedah"
    },
    {
        "Postcode": "09090",
        "Location": "Lorong KTC 3/16",
        "Post_Office": "Kulim",
        "State": "Kedah"
    },
    {
        "Postcode": "09090",
        "Location": "Lorong KTC 3/17",
        "Post_Office": "Kulim",
        "State": "Kedah"
    },
    {
        "Postcode": "09090",
        "Location": "Lorong KTC 3/18",
        "Post_Office": "Kulim",
        "State": "Kedah"
    },
    {
        "Postcode": "09090",
        "Location": "Lorong KTC 3/2",
        "Post_Office": "Kulim",
        "State": "Kedah"
    },
    {
        "Postcode": "09090",
        "Location": "Lorong KTC 3/3",
        "Post_Office": "Kulim",
        "State": "Kedah"
    },
    {
        "Postcode": "09090",
        "Location": "Lorong KTC 3/4",
        "Post_Office": "Kulim",
        "State": "Kedah"
    },
    {
        "Postcode": "09090",
        "Location": "Lorong KTC 3/5",
        "Post_Office": "Kulim",
        "State": "Kedah"
    },
    {
        "Postcode": "09090",
        "Location": "Lorong KTC 3/5",
        "Post_Office": "Kulim",
        "State": "Kedah"
    },
    {
        "Postcode": "09090",
        "Location": "Lorong KTC 3/6",
        "Post_Office": "Kulim",
        "State": "Kedah"
    },
    {
        "Postcode": "09090",
        "Location": "Lorong KTC 3/7",
        "Post_Office": "Kulim",
        "State": "Kedah"
    },
    {
        "Postcode": "09090",
        "Location": "Lorong KTC 3/8",
        "Post_Office": "Kulim",
        "State": "Kedah"
    },
    {
        "Postcode": "09090",
        "Location": "Lorong KTC 3/9",
        "Post_Office": "Kulim",
        "State": "Kedah"
    },
    {
        "Postcode": "09090",
        "Location": "Lorong KTC 4/3",
        "Post_Office": "Kulim",
        "State": "Kedah"
    },
    {
        "Postcode": "09090",
        "Location": "Lorong KTC 4/10",
        "Post_Office": "Kulim",
        "State": "Kedah"
    },
    {
        "Postcode": "09090",
        "Location": "Lorong KTC 4/11",
        "Post_Office": "Kulim",
        "State": "Kedah"
    },
    {
        "Postcode": "09090",
        "Location": "Lorong KTC 4/12",
        "Post_Office": "Kulim",
        "State": "Kedah"
    },
    {
        "Postcode": "09090",
        "Location": "Lorong KTC 4/13",
        "Post_Office": "Kulim",
        "State": "Kedah"
    },
    {
        "Postcode": "09090",
        "Location": "Lorong KTC 4/14",
        "Post_Office": "Kulim",
        "State": "Kedah"
    },
    {
        "Postcode": "09090",
        "Location": "Lorong KTC 4/15",
        "Post_Office": "Kulim",
        "State": "Kedah"
    },
    {
        "Postcode": "09090",
        "Location": "Lorong KTC 4/16",
        "Post_Office": "Kulim",
        "State": "Kedah"
    },
    {
        "Postcode": "09090",
        "Location": "Lorong KTC 4/17",
        "Post_Office": "Kulim",
        "State": "Kedah"
    },
    {
        "Postcode": "09090",
        "Location": "Lorong KTC 4/18",
        "Post_Office": "Kulim",
        "State": "Kedah"
    },
    {
        "Postcode": "09090",
        "Location": "Lorong KTC 4/19",
        "Post_Office": "Kulim",
        "State": "Kedah"
    },
    {
        "Postcode": "09090",
        "Location": "Lorong KTC 4/20",
        "Post_Office": "Kulim",
        "State": "Kedah"
    },
    {
        "Postcode": "09090",
        "Location": "Lorong KTC 4/21",
        "Post_Office": "Kulim",
        "State": "Kedah"
    },
    {
        "Postcode": "09090",
        "Location": "Lorong KTC 4/3",
        "Post_Office": "Kulim",
        "State": "Kedah"
    },
    {
        "Postcode": "09090",
        "Location": "Lorong KTC 4/4",
        "Post_Office": "Kulim",
        "State": "Kedah"
    },
    {
        "Postcode": "09090",
        "Location": "Lorong KTC 4/5",
        "Post_Office": "Kulim",
        "State": "Kedah"
    },
    {
        "Postcode": "09090",
        "Location": "Lorong KTC 4/6",
        "Post_Office": "Kulim",
        "State": "Kedah"
    },
    {
        "Postcode": "09090",
        "Location": "Lorong KTC 4/7",
        "Post_Office": "Kulim",
        "State": "Kedah"
    },
    {
        "Postcode": "09090",
        "Location": "Lorong KTC 4/8",
        "Post_Office": "Kulim",
        "State": "Kedah"
    },
    {
        "Postcode": "09090",
        "Location": "Lorong KTC 4/9",
        "Post_Office": "Kulim",
        "State": "Kedah"
    },
    {
        "Postcode": "09090",
        "Location": "Persiaran Kulim Golf",
        "Post_Office": "Kulim",
        "State": "Kedah"
    },
    {
        "Postcode": "09090",
        "Location": "Persiaran Utama 1/10",
        "Post_Office": "Kulim",
        "State": "Kedah"
    },
    {
        "Postcode": "09090",
        "Location": "Persiaran Utama 1/11",
        "Post_Office": "Kulim",
        "State": "Kedah"
    },
    {
        "Postcode": "09090",
        "Location": "Persiaran Utama 1/12",
        "Post_Office": "Kulim",
        "State": "Kedah"
    },
    {
        "Postcode": "09090",
        "Location": "Persiaran Utama 1/13",
        "Post_Office": "Kulim",
        "State": "Kedah"
    },
    {
        "Postcode": "09090",
        "Location": "Persiaran Utama 1/14",
        "Post_Office": "Kulim",
        "State": "Kedah"
    },
    {
        "Postcode": "09090",
        "Location": "Persiaran Utama 1/15",
        "Post_Office": "Kulim",
        "State": "Kedah"
    },
    {
        "Postcode": "09090",
        "Location": "Persiaran Utama 1/16",
        "Post_Office": "Kulim",
        "State": "Kedah"
    },
    {
        "Postcode": "09090",
        "Location": "Persiaran Utama 1/17",
        "Post_Office": "Kulim",
        "State": "Kedah"
    },
    {
        "Postcode": "09090",
        "Location": "Persiaran Utama 1/18",
        "Post_Office": "Kulim",
        "State": "Kedah"
    },
    {
        "Postcode": "09090",
        "Location": "Persiaran Utama 1/19",
        "Post_Office": "Kulim",
        "State": "Kedah"
    },
    {
        "Postcode": "09090",
        "Location": "Persiaran Utama 1/2",
        "Post_Office": "Kulim",
        "State": "Kedah"
    },
    {
        "Postcode": "09090",
        "Location": "Persiaran Utama 1/20",
        "Post_Office": "Kulim",
        "State": "Kedah"
    },
    {
        "Postcode": "09090",
        "Location": "Persiaran Utama 1/21",
        "Post_Office": "Kulim",
        "State": "Kedah"
    },
    {
        "Postcode": "09090",
        "Location": "Persiaran Utama 1/22",
        "Post_Office": "Kulim",
        "State": "Kedah"
    },
    {
        "Postcode": "09090",
        "Location": "Persiaran Utama 1/3",
        "Post_Office": "Kulim",
        "State": "Kedah"
    },
    {
        "Postcode": "09090",
        "Location": "Persiaran Utama 1/4",
        "Post_Office": "Kulim",
        "State": "Kedah"
    },
    {
        "Postcode": "09090",
        "Location": "Persiaran Utama 1/5",
        "Post_Office": "Kulim",
        "State": "Kedah"
    },
    {
        "Postcode": "09090",
        "Location": "Persiaran Utama 1/6",
        "Post_Office": "Kulim",
        "State": "Kedah"
    },
    {
        "Postcode": "09090",
        "Location": "Persiaran Utama 1/7",
        "Post_Office": "Kulim",
        "State": "Kedah"
    },
    {
        "Postcode": "09090",
        "Location": "Persiaran Utama 1/8",
        "Post_Office": "Kulim",
        "State": "Kedah"
    },
    {
        "Postcode": "09090",
        "Location": "Persiaran Utama 1/9",
        "Post_Office": "Kulim",
        "State": "Kedah"
    },
    {
        "Postcode": "09090",
        "Location": "Persiaran Utama 2",
        "Post_Office": "Kulim",
        "State": "Kedah"
    },
    {
        "Postcode": "09090",
        "Location": "Persiaran Utama 2/1",
        "Post_Office": "Kulim",
        "State": "Kedah"
    },
    {
        "Postcode": "09090",
        "Location": "Persiaran Utama 2/10",
        "Post_Office": "Kulim",
        "State": "Kedah"
    },
    {
        "Postcode": "09090",
        "Location": "Persiaran Utama 2/11",
        "Post_Office": "Kulim",
        "State": "Kedah"
    },
    {
        "Postcode": "09090",
        "Location": "Persiaran Utama 2/12",
        "Post_Office": "Kulim",
        "State": "Kedah"
    },
    {
        "Postcode": "09090",
        "Location": "Persiaran Utama 2/13",
        "Post_Office": "Kulim",
        "State": "Kedah"
    },
    {
        "Postcode": "09090",
        "Location": "Persiaran Utama 2/14",
        "Post_Office": "Kulim",
        "State": "Kedah"
    },
    {
        "Postcode": "09090",
        "Location": "Persiaran Utama 2/2",
        "Post_Office": "Kulim",
        "State": "Kedah"
    },
    {
        "Postcode": "09090",
        "Location": "Persiaran Utama 2/3",
        "Post_Office": "Kulim",
        "State": "Kedah"
    },
    {
        "Postcode": "09090",
        "Location": "Persiaran Utama 2/4",
        "Post_Office": "Kulim",
        "State": "Kedah"
    },
    {
        "Postcode": "09090",
        "Location": "Persiaran Utama 2/5",
        "Post_Office": "Kulim",
        "State": "Kedah"
    },
    {
        "Postcode": "09090",
        "Location": "Persiaran Utama 2/6",
        "Post_Office": "Kulim",
        "State": "Kedah"
    },
    {
        "Postcode": "09090",
        "Location": "Persiaran Utama 2/7",
        "Post_Office": "Kulim",
        "State": "Kedah"
    },
    {
        "Postcode": "09090",
        "Location": "Persiaran Utama 2/8",
        "Post_Office": "Kulim",
        "State": "Kedah"
    },
    {
        "Postcode": "09090",
        "Location": "Persiaran Utama 2/9",
        "Post_Office": "Kulim",
        "State": "Kedah"
    },
    {
        "Postcode": "09090",
        "Location": "Persiaran Utama 3/1",
        "Post_Office": "Kulim",
        "State": "Kedah"
    },
    {
        "Postcode": "09090",
        "Location": "Persiaran Utama 3/10",
        "Post_Office": "Kulim",
        "State": "Kedah"
    },
    {
        "Postcode": "09090",
        "Location": "Persiaran Utama 3/11",
        "Post_Office": "Kulim",
        "State": "Kedah"
    },
    {
        "Postcode": "09090",
        "Location": "Persiaran Utama 3/12",
        "Post_Office": "Kulim",
        "State": "Kedah"
    },
    {
        "Postcode": "09090",
        "Location": "Persiaran Utama 3/2",
        "Post_Office": "Kulim",
        "State": "Kedah"
    },
    {
        "Postcode": "09090",
        "Location": "Persiaran Utama 3/3",
        "Post_Office": "Kulim",
        "State": "Kedah"
    },
    {
        "Postcode": "09090",
        "Location": "Persiaran Utama 3/4",
        "Post_Office": "Kulim",
        "State": "Kedah"
    },
    {
        "Postcode": "09090",
        "Location": "Persiaran Utama 3/5",
        "Post_Office": "Kulim",
        "State": "Kedah"
    },
    {
        "Postcode": "09090",
        "Location": "Persiaran Utama 3/6",
        "Post_Office": "Kulim",
        "State": "Kedah"
    },
    {
        "Postcode": "09090",
        "Location": "Persiaran Utama 3/7",
        "Post_Office": "Kulim",
        "State": "Kedah"
    },
    {
        "Postcode": "09090",
        "Location": "Persiaran Utama 3/8",
        "Post_Office": "Kulim",
        "State": "Kedah"
    },
    {
        "Postcode": "09090",
        "Location": "Persiaran Utama 3/9",
        "Post_Office": "Kulim",
        "State": "Kedah"
    },
    {
        "Postcode": "09090",
        "Location": "Persiaran Utama 4/1",
        "Post_Office": "Kulim",
        "State": "Kedah"
    },
    {
        "Postcode": "09090",
        "Location": "Persiaran Utama 4/10",
        "Post_Office": "Kulim",
        "State": "Kedah"
    },
    {
        "Postcode": "09090",
        "Location": "Persiaran Utama 4/11",
        "Post_Office": "Kulim",
        "State": "Kedah"
    },
    {
        "Postcode": "09090",
        "Location": "Persiaran Utama 4/12",
        "Post_Office": "Kulim",
        "State": "Kedah"
    },
    {
        "Postcode": "09090",
        "Location": "Persiaran Utama 4/2",
        "Post_Office": "Kulim",
        "State": "Kedah"
    },
    {
        "Postcode": "09090",
        "Location": "Persiaran Utama 4/3",
        "Post_Office": "Kulim",
        "State": "Kedah"
    },
    {
        "Postcode": "09090",
        "Location": "Persiaran Utama 4/4",
        "Post_Office": "Kulim",
        "State": "Kedah"
    },
    {
        "Postcode": "09090",
        "Location": "Persiaran Utama 4/5",
        "Post_Office": "Kulim",
        "State": "Kedah"
    },
    {
        "Postcode": "09090",
        "Location": "Persiaran Utama 4/6",
        "Post_Office": "Kulim",
        "State": "Kedah"
    },
    {
        "Postcode": "09090",
        "Location": "Persiaran Utama 4/7",
        "Post_Office": "Kulim",
        "State": "Kedah"
    },
    {
        "Postcode": "09090",
        "Location": "Persiaran Utama 4/8",
        "Post_Office": "Kulim",
        "State": "Kedah"
    },
    {
        "Postcode": "09090",
        "Location": "Persiaran Utama 4/9",
        "Post_Office": "Kulim",
        "State": "Kedah"
    },
    {
        "Postcode": "09090",
        "Location": "Persiaran Perdana 1",
        "Post_Office": "Kulim",
        "State": "Kedah"
    },
    {
        "Postcode": "09090",
        "Location": "Persiaran Perdana 2",
        "Post_Office": "Kulim",
        "State": "Kedah"
    },
    {
        "Postcode": "09090",
        "Location": "Persiaran Perdana 3",
        "Post_Office": "Kulim",
        "State": "Kedah"
    },
    {
        "Postcode": "09090",
        "Location": "Persiaran Perdana 4",
        "Post_Office": "Kulim",
        "State": "Kedah"
    },
    {
        "Postcode": "09090",
        "Location": "Persiaran Perdana 5",
        "Post_Office": "Kulim",
        "State": "Kedah"
    },
    {
        "Postcode": "09090",
        "Location": "Persiaran Perdana 6",
        "Post_Office": "Kulim",
        "State": "Kedah"
    },
    {
        "Postcode": "09090",
        "Location": "Persiaran Perdana 7",
        "Post_Office": "Kulim",
        "State": "Kedah"
    },
    {
        "Postcode": "09090",
        "Location": "Persiaran Perdana 8",
        "Post_Office": "Kulim",
        "State": "Kedah"
    },
    {
        "Postcode": "09090",
        "Location": "Persiaran Perdana 10",
        "Post_Office": "Kulim",
        "State": "Kedah"
    },
    {
        "Postcode": "09090",
        "Location": "Persiaran Perdana 11",
        "Post_Office": "Kulim",
        "State": "Kedah"
    },
    {
        "Postcode": "09090",
        "Location": "Persiaran Perdana 12",
        "Post_Office": "Kulim",
        "State": "Kedah"
    },
    {
        "Postcode": "09090",
        "Location": "Persiaran Perdana 13",
        "Post_Office": "Kulim",
        "State": "Kedah"
    },
    {
        "Postcode": "09090",
        "Location": "Persiaran Perdana 14",
        "Post_Office": "Kulim",
        "State": "Kedah"
    },
    {
        "Postcode": "09090",
        "Location": "Persiaran Perdana 15",
        "Post_Office": "Kulim",
        "State": "Kedah"
    },
    {
        "Postcode": "09090",
        "Location": "Persiaran Avenue 1",
        "Post_Office": "Kulim",
        "State": "Kedah"
    },
    {
        "Postcode": "09090",
        "Location": "Persiaran Avenue 2",
        "Post_Office": "Kulim",
        "State": "Kedah"
    },
    {
        "Postcode": "09090",
        "Location": "Persiaran Avenue 3",
        "Post_Office": "Kulim",
        "State": "Kedah"
    },
    {
        "Postcode": "09090",
        "Location": "Persiaran Avenue 4",
        "Post_Office": "Kulim",
        "State": "Kedah"
    },
    {
        "Postcode": "09090",
        "Location": "Persiaran Avenue 5",
        "Post_Office": "Kulim",
        "State": "Kedah"
    },
    {
        "Postcode": "09090",
        "Location": "Persiaran Avenue 6",
        "Post_Office": "Kulim",
        "State": "Kedah"
    },
    {
        "Postcode": "09090",
        "Location": "Persiaran Avenue 7",
        "Post_Office": "Kulim",
        "State": "Kedah"
    },
    {
        "Postcode": "09090",
        "Location": "Jalan Sultanah Bahiyah",
        "Post_Office": "Kulim",
        "State": "Kedah"
    },
    {
        "Postcode": "09090",
        "Location": "Industri Kilang lama",
        "Post_Office": "Kulim",
        "State": "Kedah"
    },
    {
        "Postcode": "09090",
        "Location": "Industrial Zone Phase 1",
        "Post_Office": "Kulim",
        "State": "Kedah"
    },
    {
        "Postcode": "09090",
        "Location": "Industrial Zone Phase 2",
        "Post_Office": "Kulim",
        "State": "Kedah"
    },
    {
        "Postcode": "09090",
        "Location": "Politeknik Tuanku Sultanah Bahiyah",
        "Post_Office": "Kulim",
        "State": "Kedah"
    },
    {
        "Postcode": "09090",
        "Location": "Kampung Baru Kelang Lama",
        "Post_Office": "Kulim",
        "State": "Kedah"
    },
    {
        "Postcode": "09090",
        "Location": "Hospital Kulim",
        "Post_Office": "Kulim",
        "State": "Kedah"
    },
    {
        "Postcode": "09090",
        "Location": "Apartment Kulim Heights",
        "Post_Office": "Kulim",
        "State": "Kedah"
    },
    {
        "Postcode": "09090",
        "Location": "Jalan Mahang",
        "Post_Office": "Kulim",
        "State": "Kedah"
    },
    {
        "Postcode": "09090",
        "Location": "Kulim Hi-Tech Park",
        "Post_Office": "Kulim",
        "State": "Kedah"
    },
    {
        "Postcode": "09090",
        "Location": "Taman Kulim Avenue",
        "Post_Office": "Kulim",
        "State": "Kedah"
    },
    {
        "Postcode": "09090",
        "Location": "Taman Kulim Utama 1",
        "Post_Office": "Kulim",
        "State": "Kedah"
    },
    {
        "Postcode": "09090",
        "Location": "Taman Kulim Utama 2",
        "Post_Office": "Kulim",
        "State": "Kedah"
    },
    {
        "Postcode": "09090",
        "Location": "Taman Kulim Utama 3",
        "Post_Office": "Kulim",
        "State": "Kedah"
    },
    {
        "Postcode": "09090",
        "Location": "Kulim Golf And Country Resort",
        "Post_Office": "Kulim",
        "State": "Kedah"
    },
    {
        "Postcode": "09090",
        "Location": "Taman Kulim Height",
        "Post_Office": "Kulim",
        "State": "Kedah"
    },
    {
        "Postcode": "09090",
        "Location": "Taman Kulim Perdana",
        "Post_Office": "Kulim",
        "State": "Kedah"
    },
    {
        "Postcode": "09090",
        "Location": "Taman Kulim Techno City 1",
        "Post_Office": "Kulim",
        "State": "Kedah"
    },
    {
        "Postcode": "09090",
        "Location": "Taman Kulim Techno City 2",
        "Post_Office": "Kulim",
        "State": "Kedah"
    },
    {
        "Postcode": "09090",
        "Location": "Taman Kulim Techno City 3",
        "Post_Office": "Kulim",
        "State": "Kedah"
    },
    {
        "Postcode": "09090",
        "Location": "Taman Kulim Techno City 4",
        "Post_Office": "Kulim",
        "State": "Kedah"
    }
]
