[
    {
        "Postcode": "09100",
        "Location": "Kampung Bukit Puyuh",
        "Post_Office": "Baling",
        "State": "Kedah"
    },
    {
        "Postcode": "09100",
        "Location": "Kampung Charok Puteh",
        "Post_Office": "Baling",
        "State": "Kedah"
    },
    {
        "Postcode": "09100",
        "Location": "Kampung Padang Temu",
        "Post_Office": "Baling",
        "State": "Kedah"
    },
    {
        "Postcode": "09100",
        "Location": "Kampung Tanjung Pari",
        "Post_Office": "Baling",
        "State": "Kedah"
    },
    {
        "Postcode": "09100",
        "Location": "Kampung Telok Sera",
        "Post_Office": "Baling",
        "State": "Kedah"
    },
    {
        "Postcode": "09100",
        "Location": "Kampung Teluk Sungai Durian",
        "Post_Office": "Baling",
        "State": "Kedah"
    },
    {
        "Postcode": "09100",
        "Location": "Kampung Teluk Teduri",
        "Post_Office": "Baling",
        "State": "Kedah"
    },
    {
        "Postcode": "09100",
        "Location": "Kampung Banggol Saga",
        "Post_Office": "Baling",
        "State": "Kedah"
    },
    {
        "Postcode": "09100",
        "Location": "Kampung Batu 8",
        "Post_Office": "Baling",
        "State": "Kedah"
    },
    {
        "Postcode": "09100",
        "Location": "Kampung Asam Jawa",
        "Post_Office": "Baling",
        "State": "Kedah"
    },
    {
        "Postcode": "09100",
        "Location": "Kampung Batu 7",
        "Post_Office": "Baling",
        "State": "Kedah"
    },
    {
        "Postcode": "09100",
        "Location": "Kampung Charok Akar",
        "Post_Office": "Baling",
        "State": "Kedah"
    },
    {
        "Postcode": "09100",
        "Location": "Kampung Jenalik",
        "Post_Office": "Baling",
        "State": "Kedah"
    },
    {
        "Postcode": "09100",
        "Location": "Kampung Lahar",
        "Post_Office": "Baling",
        "State": "Kedah"
    },
    {
        "Postcode": "09100",
        "Location": "Kampung Lalang",
        "Post_Office": "Baling",
        "State": "Kedah"
    },
    {
        "Postcode": "09100",
        "Location": "Kampung Luar",
        "Post_Office": "Baling",
        "State": "Kedah"
    },
    {
        "Postcode": "09100",
        "Location": "Kampung Pajak",
        "Post_Office": "Baling",
        "State": "Kedah"
    },
    {
        "Postcode": "09100",
        "Location": "Kampung Rambong",
        "Post_Office": "Baling",
        "State": "Kedah"
    },
    {
        "Postcode": "09100",
        "Location": "Kampung Setol",
        "Post_Office": "Baling",
        "State": "Kedah"
    },
    {
        "Postcode": "09100",
        "Location": "Kampung Sungai Batu",
        "Post_Office": "Baling",
        "State": "Kedah"
    },
    {
        "Postcode": "09100",
        "Location": "Kampung Sungai Limau",
        "Post_Office": "Baling",
        "State": "Kedah"
    },
    {
        "Postcode": "09100",
        "Location": "Taman Baiduri",
        "Post_Office": "Baling",
        "State": "Kedah"
    },
    {
        "Postcode": "09100",
        "Location": "Taman Kota Jaya",
        "Post_Office": "Baling",
        "State": "Kedah"
    },
    {
        "Postcode": "09100",
        "Location": "Taman Sri Aman",
        "Post_Office": "Baling",
        "State": "Kedah"
    },
    {
        "Postcode": "09100",
        "Location": "Kampung Bukit Tok Harun",
        "Post_Office": "Baling",
        "State": "Kedah"
    },
    {
        "Postcode": "09100",
        "Location": "Kampung Banggol Setol",
        "Post_Office": "Baling",
        "State": "Kedah"
    },
    {
        "Postcode": "09100",
        "Location": "Kampung Bechah Sawa",
        "Post_Office": "Baling",
        "State": "Kedah"
    },
    {
        "Postcode": "09100",
        "Location": "Kampung Bukit Tok Lipan",
        "Post_Office": "Baling",
        "State": "Kedah"
    },
    {
        "Postcode": "09100",
        "Location": "Kampung Lubok Batu (Carok Kelian)",
        "Post_Office": "Baling",
        "State": "Kedah"
    },
    {
        "Postcode": "09100",
        "Location": "Kampung Padang Che Mas",
        "Post_Office": "Baling",
        "State": "Kedah"
    },
    {
        "Postcode": "09100",
        "Location": "Kampung Tanjung Merbau",
        "Post_Office": "Baling",
        "State": "Kedah"
    },
    {
        "Postcode": "09100",
        "Location": "Kampung Bandar",
        "Post_Office": "Baling",
        "State": "Kedah"
    },
    {
        "Postcode": "09100",
        "Location": "Kampung Banggol",
        "Post_Office": "Baling",
        "State": "Kedah"
    },
    {
        "Postcode": "09100",
        "Location": "Kampung Banggol Petai",
        "Post_Office": "Baling",
        "State": "Kedah"
    },
    {
        "Postcode": "09100",
        "Location": "Kampung Bendang Sera",
        "Post_Office": "Baling",
        "State": "Kedah"
    },
    {
        "Postcode": "09100",
        "Location": "Kampung Benggali",
        "Post_Office": "Baling",
        "State": "Kedah"
    },
    {
        "Postcode": "09100",
        "Location": "Kampung Bukit Hilir",
        "Post_Office": "Baling",
        "State": "Kedah"
    },
    {
        "Postcode": "09100",
        "Location": "Kampung Charok Kelian",
        "Post_Office": "Baling",
        "State": "Kedah"
    },
    {
        "Postcode": "09100",
        "Location": "Kampung Titi Teduri",
        "Post_Office": "Baling",
        "State": "Kedah"
    },
    {
        "Postcode": "09100",
        "Location": "Kampung Paya",
        "Post_Office": "Baling",
        "State": "Kedah"
    },
    {
        "Postcode": "09100",
        "Location": "Kampung Surau",
        "Post_Office": "Baling",
        "State": "Kedah"
    },
    {
        "Postcode": "09100",
        "Location": "Kampung Temusu",
        "Post_Office": "Baling",
        "State": "Kedah"
    },
    {
        "Postcode": "09100",
        "Location": "Kampung Terbak",
        "Post_Office": "Baling",
        "State": "Kedah"
    },
    {
        "Postcode": "09100",
        "Location": "Kampung Tok Diah",
        "Post_Office": "Baling",
        "State": "Kedah"
    },
    {
        "Postcode": "09100",
        "Location": "Kampung Tok Golok",
        "Post_Office": "Baling",
        "State": "Kedah"
    },
    {
        "Postcode": "09100",
        "Location": "Kampung Wat Siam",
        "Post_Office": "Baling",
        "State": "Kedah"
    },
    {
        "Postcode": "09100",
        "Location": "Kampung Weng Dalam",
        "Post_Office": "Baling",
        "State": "Kedah"
    },
    {
        "Postcode": "09100",
        "Location": "Taman Bersatu",
        "Post_Office": "Baling",
        "State": "Kedah"
    },
    {
        "Postcode": "09100",
        "Location": "Taman Desa Anggerik",
        "Post_Office": "Baling",
        "State": "Kedah"
    },
    {
        "Postcode": "09100",
        "Location": "Taman Impian",
        "Post_Office": "Baling",
        "State": "Kedah"
    },
    {
        "Postcode": "09100",
        "Location": "Taman Sepakat",
        "Post_Office": "Baling",
        "State": "Kedah"
    },
    {
        "Postcode": "09100",
        "Location": "Baling",
        "Post_Office": "Baling",
        "State": "Kedah"
    },
    {
        "Postcode": "09100",
        "Location": "Bongor",
        "Post_Office": "Baling",
        "State": "Kedah"
    },
    {
        "Postcode": "09100",
        "Location": "Jalan Baling (Batu 36 1/4)",
        "Post_Office": "Baling",
        "State": "Kedah"
    },
    {
        "Postcode": "09100",
        "Location": "Kampung Ambing",
        "Post_Office": "Baling",
        "State": "Kedah"
    },
    {
        "Postcode": "09100",
        "Location": "Kampung Ayer Kembai",
        "Post_Office": "Baling",
        "State": "Kedah"
    },
    {
        "Postcode": "09100",
        "Location": "Kampung Bakar Arang",
        "Post_Office": "Baling",
        "State": "Kedah"
    },
    {
        "Postcode": "09100",
        "Location": "Kampung Bakar Bata",
        "Post_Office": "Baling",
        "State": "Kedah"
    },
    {
        "Postcode": "09100",
        "Location": "Kampung Bakong",
        "Post_Office": "Baling",
        "State": "Kedah"
    },
    {
        "Postcode": "09100",
        "Location": "Kampung Baling Lubok Pedati",
        "Post_Office": "Baling",
        "State": "Kedah"
    },
    {
        "Postcode": "09100",
        "Location": "Kampung Banggol Bongor",
        "Post_Office": "Baling",
        "State": "Kedah"
    },
    {
        "Postcode": "09100",
        "Location": "Kampung Banggol Glugor",
        "Post_Office": "Baling",
        "State": "Kedah"
    },
    {
        "Postcode": "09100",
        "Location": "Kampung Banggol Lada",
        "Post_Office": "Baling",
        "State": "Kedah"
    },
    {
        "Postcode": "09100",
        "Location": "Kampung Banggol Leban",
        "Post_Office": "Baling",
        "State": "Kedah"
    },
    {
        "Postcode": "09100",
        "Location": "Kampung Banggol Setang",
        "Post_Office": "Baling",
        "State": "Kedah"
    },
    {
        "Postcode": "09100",
        "Location": "Kampung Banggol Wan Mat",
        "Post_Office": "Baling",
        "State": "Kedah"
    },
    {
        "Postcode": "09100",
        "Location": "Kampung Bangsan",
        "Post_Office": "Baling",
        "State": "Kedah"
    },
    {
        "Postcode": "09100",
        "Location": "Kampung Baru",
        "Post_Office": "Baling",
        "State": "Kedah"
    },
    {
        "Postcode": "09100",
        "Location": "Kampung Bawah Gunong",
        "Post_Office": "Baling",
        "State": "Kedah"
    },
    {
        "Postcode": "09100",
        "Location": "Kampung Belangga Kuala",
        "Post_Office": "Baling",
        "State": "Kedah"
    },
    {
        "Postcode": "09100",
        "Location": "Kampung Bendang Darat",
        "Post_Office": "Baling",
        "State": "Kedah"
    },
    {
        "Postcode": "09100",
        "Location": "Kampung Bukit Berangan",
        "Post_Office": "Baling",
        "State": "Kedah"
    },
    {
        "Postcode": "09100",
        "Location": "Kampung Bukit Ijok",
        "Post_Office": "Baling",
        "State": "Kedah"
    },
    {
        "Postcode": "09100",
        "Location": "Kampung Bukit Ketil",
        "Post_Office": "Baling",
        "State": "Kedah"
    },
    {
        "Postcode": "09100",
        "Location": "Kampung Bukit Palong",
        "Post_Office": "Baling",
        "State": "Kedah"
    },
    {
        "Postcode": "09100",
        "Location": "Kampung Bukit Payang",
        "Post_Office": "Baling",
        "State": "Kedah"
    },
    {
        "Postcode": "09100",
        "Location": "Kampung Bukit Sebelah",
        "Post_Office": "Baling",
        "State": "Kedah"
    },
    {
        "Postcode": "09100",
        "Location": "Kampung Bukit Tengiling",
        "Post_Office": "Baling",
        "State": "Kedah"
    },
    {
        "Postcode": "09100",
        "Location": "Kampung Bukit Tok Giling",
        "Post_Office": "Baling",
        "State": "Kedah"
    },
    {
        "Postcode": "09100",
        "Location": "Kampung Bukit Tok Kaya",
        "Post_Office": "Baling",
        "State": "Kedah"
    },
    {
        "Postcode": "09100",
        "Location": "Kampung Cerok Sotong",
        "Post_Office": "Baling",
        "State": "Kedah"
    },
    {
        "Postcode": "09100",
        "Location": "Kampung Charok Bakong",
        "Post_Office": "Baling",
        "State": "Kedah"
    },
    {
        "Postcode": "09100",
        "Location": "Kampung Charok Bunting",
        "Post_Office": "Baling",
        "State": "Kedah"
    },
    {
        "Postcode": "09100",
        "Location": "Kampung Charok Gorok",
        "Post_Office": "Baling",
        "State": "Kedah"
    },
    {
        "Postcode": "09100",
        "Location": "Kampung Charok Juan",
        "Post_Office": "Baling",
        "State": "Kedah"
    },
    {
        "Postcode": "09100",
        "Location": "Kampung Charok Kelian Ulu",
        "Post_Office": "Baling",
        "State": "Kedah"
    },
    {
        "Postcode": "09100",
        "Location": "Kampung Charok Sik",
        "Post_Office": "Baling",
        "State": "Kedah"
    },
    {
        "Postcode": "09100",
        "Location": "Kampung Charok Tilam",
        "Post_Office": "Baling",
        "State": "Kedah"
    },
    {
        "Postcode": "09100",
        "Location": "Kampung Che Wan Jusoh",
        "Post_Office": "Baling",
        "State": "Kedah"
    },
    {
        "Postcode": "09100",
        "Location": "Kampung Chegar Tok Bandar",
        "Post_Office": "Baling",
        "State": "Kedah"
    },
    {
        "Postcode": "09100",
        "Location": "Kampung Chenarai (Kuala Pegang)",
        "Post_Office": "Baling",
        "State": "Kedah"
    },
    {
        "Postcode": "09100",
        "Location": "Kampung Chenerai",
        "Post_Office": "Baling",
        "State": "Kedah"
    },
    {
        "Postcode": "09100",
        "Location": "Kampung Cherok Nau",
        "Post_Office": "Baling",
        "State": "Kedah"
    },
    {
        "Postcode": "09100",
        "Location": "Kampung Cherok Sotong",
        "Post_Office": "Baling",
        "State": "Kedah"
    },
    {
        "Postcode": "09100",
        "Location": "Kampung Chorok Ker (Batu 7)",
        "Post_Office": "Baling",
        "State": "Kedah"
    },
    {
        "Postcode": "09100",
        "Location": "Kampung Chorok Saling",
        "Post_Office": "Baling",
        "State": "Kedah"
    },
    {
        "Postcode": "09100",
        "Location": "Kampung Dalam Rimau",
        "Post_Office": "Baling",
        "State": "Kedah"
    },
    {
        "Postcode": "09100",
        "Location": "Kampung Dato (Batu 43)",
        "Post_Office": "Baling",
        "State": "Kedah"
    },
    {
        "Postcode": "09100",
        "Location": "Kampung Dusun Besar",
        "Post_Office": "Baling",
        "State": "Kedah"
    },
    {
        "Postcode": "09100",
        "Location": "Kampung Dusun Gani",
        "Post_Office": "Baling",
        "State": "Kedah"
    },
    {
        "Postcode": "09100",
        "Location": "Kampung Dusun Raja",
        "Post_Office": "Baling",
        "State": "Kedah"
    },
    {
        "Postcode": "09100",
        "Location": "Kampung Gabus",
        "Post_Office": "Baling",
        "State": "Kedah"
    },
    {
        "Postcode": "09100",
        "Location": "Kampung Haji Abas",
        "Post_Office": "Baling",
        "State": "Kedah"
    },
    {
        "Postcode": "09100",
        "Location": "Kampung Haji Yunus",
        "Post_Office": "Baling",
        "State": "Kedah"
    },
    {
        "Postcode": "09100",
        "Location": "Kampung Jalan Jenalik",
        "Post_Office": "Baling",
        "State": "Kedah"
    },
    {
        "Postcode": "09100",
        "Location": "Kampung Kaki Bukit",
        "Post_Office": "Baling",
        "State": "Kedah"
    },
    {
        "Postcode": "09100",
        "Location": "Kampung Kebun Ubi",
        "Post_Office": "Baling",
        "State": "Kedah"
    },
    {
        "Postcode": "09100",
        "Location": "Kampung Keledang Dalam",
        "Post_Office": "Baling",
        "State": "Kedah"
    },
    {
        "Postcode": "09100",
        "Location": "Kampung Kelian Dalam",
        "Post_Office": "Baling",
        "State": "Kedah"
    },
    {
        "Postcode": "09100",
        "Location": "Kampung Ketemba",
        "Post_Office": "Baling",
        "State": "Kedah"
    },
    {
        "Postcode": "09100",
        "Location": "Kampung Ketemba Kememeh",
        "Post_Office": "Baling",
        "State": "Kedah"
    },
    {
        "Postcode": "09100",
        "Location": "Kampung Ketemba Masjid",
        "Post_Office": "Baling",
        "State": "Kedah"
    },
    {
        "Postcode": "09100",
        "Location": "Kampung Kijang",
        "Post_Office": "Baling",
        "State": "Kedah"
    },
    {
        "Postcode": "09100",
        "Location": "Kampung Kota",
        "Post_Office": "Baling",
        "State": "Kedah"
    },
    {
        "Postcode": "09100",
        "Location": "Kampung Kuala Balok",
        "Post_Office": "Baling",
        "State": "Kedah"
    },
    {
        "Postcode": "09100",
        "Location": "Kampung Kuala Kedua",
        "Post_Office": "Baling",
        "State": "Kedah"
    },
    {
        "Postcode": "09100",
        "Location": "Kampung Kuala Kijang",
        "Post_Office": "Baling",
        "State": "Kedah"
    },
    {
        "Postcode": "09100",
        "Location": "Kampung Kubor Tok Ali",
        "Post_Office": "Baling",
        "State": "Kedah"
    },
    {
        "Postcode": "09100",
        "Location": "Kampung Legong",
        "Post_Office": "Baling",
        "State": "Kedah"
    },
    {
        "Postcode": "09100",
        "Location": "Kampung Lubok Badak",
        "Post_Office": "Baling",
        "State": "Kedah"
    },
    {
        "Postcode": "09100",
        "Location": "Kampung Lubok Batu (Kuala Pegang)",
        "Post_Office": "Baling",
        "State": "Kedah"
    },
    {
        "Postcode": "09100",
        "Location": "Kampung Lubok Pedati",
        "Post_Office": "Baling",
        "State": "Kedah"
    },
    {
        "Postcode": "09100",
        "Location": "Kampung Makliah",
        "Post_Office": "Baling",
        "State": "Kedah"
    },
    {
        "Postcode": "09100",
        "Location": "Kampung Mali",
        "Post_Office": "Baling",
        "State": "Kedah"
    },
    {
        "Postcode": "09100",
        "Location": "Kampung Masjid (Batu 48 1/4)",
        "Post_Office": "Baling",
        "State": "Kedah"
    },
    {
        "Postcode": "09100",
        "Location": "Kampung Masjid (Km 77)",
        "Post_Office": "Baling",
        "State": "Kedah"
    },
    {
        "Postcode": "09100",
        "Location": "Kampung Masjid Lama",
        "Post_Office": "Baling",
        "State": "Kedah"
    },
    {
        "Postcode": "09100",
        "Location": "Kampung Masjid Pulai",
        "Post_Office": "Baling",
        "State": "Kedah"
    },
    {
        "Postcode": "09100",
        "Location": "Kampung Masjid Sera",
        "Post_Office": "Baling",
        "State": "Kedah"
    },
    {
        "Postcode": "09100",
        "Location": "Kampung Mengkuang",
        "Post_Office": "Baling",
        "State": "Kedah"
    },
    {
        "Postcode": "09100",
        "Location": "Kampung Nering",
        "Post_Office": "Baling",
        "State": "Kedah"
    },
    {
        "Postcode": "09100",
        "Location": "Kampung Pantai",
        "Post_Office": "Baling",
        "State": "Kedah"
    },
    {
        "Postcode": "09100",
        "Location": "Kampung Pantai Lubuk Pedati",
        "Post_Office": "Baling",
        "State": "Kedah"
    },
    {
        "Postcode": "09100",
        "Location": "Kampung Pantai Raja",
        "Post_Office": "Baling",
        "State": "Kedah"
    },
    {
        "Postcode": "09100",
        "Location": "Kampung Parit Pandang",
        "Post_Office": "Baling",
        "State": "Kedah"
    },
    {
        "Postcode": "09100",
        "Location": "Kampung Paya Gua Kelambu",
        "Post_Office": "Baling",
        "State": "Kedah"
    },
    {
        "Postcode": "09100",
        "Location": "Kampung Paya Pulai",
        "Post_Office": "Baling",
        "State": "Kedah"
    },
    {
        "Postcode": "09100",
        "Location": "Kampung Pecah Tok Bulan",
        "Post_Office": "Baling",
        "State": "Kedah"
    },
    {
        "Postcode": "09100",
        "Location": "Kampung Pokok Sena",
        "Post_Office": "Baling",
        "State": "Kedah"
    },
    {
        "Postcode": "09100",
        "Location": "Kampung Pokok Setol",
        "Post_Office": "Baling",
        "State": "Kedah"
    },
    {
        "Postcode": "09100",
        "Location": "Kampung Raja",
        "Post_Office": "Baling",
        "State": "Kedah"
    },
    {
        "Postcode": "09100",
        "Location": "Kampung Rambong Padang",
        "Post_Office": "Baling",
        "State": "Kedah"
    },
    {
        "Postcode": "09100",
        "Location": "Kampung Rambong Tengah",
        "Post_Office": "Baling",
        "State": "Kedah"
    },
    {
        "Postcode": "09100",
        "Location": "Kampung Rumah Besi",
        "Post_Office": "Baling",
        "State": "Kedah"
    },
    {
        "Postcode": "09100",
        "Location": "Kampung Sekolah Bonggor",
        "Post_Office": "Baling",
        "State": "Kedah"
    },
    {
        "Postcode": "09100",
        "Location": "Kampung Sera Ulu",
        "Post_Office": "Baling",
        "State": "Kedah"
    },
    {
        "Postcode": "09100",
        "Location": "Kampung Seri Bulan",
        "Post_Office": "Baling",
        "State": "Kedah"
    },
    {
        "Postcode": "09100",
        "Location": "Kampung Seri Ketengga",
        "Post_Office": "Baling",
        "State": "Kedah"
    },
    {
        "Postcode": "09100",
        "Location": "Kampung Simpang Ampat",
        "Post_Office": "Baling",
        "State": "Kedah"
    },
    {
        "Postcode": "09100",
        "Location": "Kampung Siput",
        "Post_Office": "Baling",
        "State": "Kedah"
    },
    {
        "Postcode": "09100",
        "Location": "Kampung Sirako",
        "Post_Office": "Baling",
        "State": "Kedah"
    },
    {
        "Postcode": "09100",
        "Location": "Kampung Sungai Tas",
        "Post_Office": "Baling",
        "State": "Kedah"
    },
    {
        "Postcode": "09100",
        "Location": "Kampung Sungai Tebak",
        "Post_Office": "Baling",
        "State": "Kedah"
    },
    {
        "Postcode": "09100",
        "Location": "Kampung Sungai Tembak",
        "Post_Office": "Baling",
        "State": "Kedah"
    },
    {
        "Postcode": "09100",
        "Location": "Kampung Tandop",
        "Post_Office": "Baling",
        "State": "Kedah"
    },
    {
        "Postcode": "09100",
        "Location": "Kampung Tanjong Langsat",
        "Post_Office": "Baling",
        "State": "Kedah"
    },
    {
        "Postcode": "09100",
        "Location": "Kampung Tanjung (Batu 44 1/2)",
        "Post_Office": "Baling",
        "State": "Kedah"
    },
    {
        "Postcode": "09100",
        "Location": "Kampung Tas",
        "Post_Office": "Baling",
        "State": "Kedah"
    },
    {
        "Postcode": "09100",
        "Location": "Kampung Telok Kangar",
        "Post_Office": "Baling",
        "State": "Kedah"
    },
    {
        "Postcode": "09100",
        "Location": "Kampung Telok Pendiat",
        "Post_Office": "Baling",
        "State": "Kedah"
    },
    {
        "Postcode": "09100",
        "Location": "Kampung Telok Perah Hulu",
        "Post_Office": "Baling",
        "State": "Kedah"
    },
    {
        "Postcode": "09100",
        "Location": "Kampung Telok Rambong",
        "Post_Office": "Baling",
        "State": "Kedah"
    },
    {
        "Postcode": "09100",
        "Location": "Kampung Telok Sanau",
        "Post_Office": "Baling",
        "State": "Kedah"
    },
    {
        "Postcode": "09100",
        "Location": "Kampung Telok Temelah",
        "Post_Office": "Baling",
        "State": "Kedah"
    },
    {
        "Postcode": "09100",
        "Location": "Kampung Telok Tok Patah",
        "Post_Office": "Baling",
        "State": "Kedah"
    },
    {
        "Postcode": "09100",
        "Location": "Kampung Tok Saban",
        "Post_Office": "Baling",
        "State": "Kedah"
    },
    {
        "Postcode": "09100",
        "Location": "Kampung Tok Sonan",
        "Post_Office": "Baling",
        "State": "Kedah"
    },
    {
        "Postcode": "09100",
        "Location": "Kampung Tok Weng",
        "Post_Office": "Baling",
        "State": "Kedah"
    },
    {
        "Postcode": "09100",
        "Location": "Kampung Tualang",
        "Post_Office": "Baling",
        "State": "Kedah"
    },
    {
        "Postcode": "09100",
        "Location": "Kampung Tualang Bok",
        "Post_Office": "Baling",
        "State": "Kedah"
    },
    {
        "Postcode": "09100",
        "Location": "Kampung Weng",
        "Post_Office": "Baling",
        "State": "Kedah"
    },
    {
        "Postcode": "09100",
        "Location": "Pokok Sena (Batu 45)",
        "Post_Office": "Baling",
        "State": "Kedah"
    },
    {
        "Postcode": "09100",
        "Location": "Pulai",
        "Post_Office": "Baling",
        "State": "Kedah"
    },
    {
        "Postcode": "09100",
        "Location": "Taman Abadi",
        "Post_Office": "Baling",
        "State": "Kedah"
    },
    {
        "Postcode": "09100",
        "Location": "Taman Bayu Indah",
        "Post_Office": "Baling",
        "State": "Kedah"
    },
    {
        "Postcode": "09100",
        "Location": "Taman Bukit",
        "Post_Office": "Baling",
        "State": "Kedah"
    },
    {
        "Postcode": "09100",
        "Location": "Taman Hajah Halimah",
        "Post_Office": "Baling",
        "State": "Kedah"
    },
    {
        "Postcode": "09100",
        "Location": "Taman Harmoni",
        "Post_Office": "Baling",
        "State": "Kedah"
    },
    {
        "Postcode": "09100",
        "Location": "Taman Kota Baling Jaya",
        "Post_Office": "Baling",
        "State": "Kedah"
    },
    {
        "Postcode": "09100",
        "Location": "Taman Mahmud",
        "Post_Office": "Baling",
        "State": "Kedah"
    },
    {
        "Postcode": "09100",
        "Location": "Taman Semarak",
        "Post_Office": "Baling",
        "State": "Kedah"
    },
    {
        "Postcode": "09100",
        "Location": "Taman Sri Baling",
        "Post_Office": "Baling",
        "State": "Kedah"
    }
]
