[
    {
        "Postcode": "09110",
        "Location": "Kampung Teluk Perah",
        "Post_Office": "Kuala Pegang",
        "State": "Kedah"
    },
    {
        "Postcode": "09110",
        "Location": "Kampung Berjaya",
        "Post_Office": "Kuala Pegang",
        "State": "Kedah"
    },
    {
        "Postcode": "09110",
        "Location": "Kampung Bukit Hilir",
        "Post_Office": "Kuala Pegang",
        "State": "Kedah"
    },
    {
        "Postcode": "09110",
        "Location": "Kampung Batu Kuala Pegang",
        "Post_Office": "Kuala Pegang",
        "State": "Kedah"
    },
    {
        "Postcode": "09110",
        "Location": "Kampung Cerok Tilan",
        "Post_Office": "Kuala Pegang",
        "State": "Kedah"
    },
    {
        "Postcode": "09110",
        "Location": "Kampung Ketemba Keminis",
        "Post_Office": "Kuala Pegang",
        "State": "Kedah"
    },
    {
        "Postcode": "09110",
        "Location": "Kampung Kuala Balut",
        "Post_Office": "Kuala Pegang",
        "State": "Kedah"
    },
    {
        "Postcode": "09110",
        "Location": "Kampung Kuala Cenerai",
        "Post_Office": "Kuala Pegang",
        "State": "Kedah"
    },
    {
        "Postcode": "09110",
        "Location": "Kampung Kuala Cenerai Bat",
        "Post_Office": "Kuala Pegang",
        "State": "Kedah"
    },
    {
        "Postcode": "09110",
        "Location": "Kampung Kuala Pegang",
        "Post_Office": "Kuala Pegang",
        "State": "Kedah"
    },
    {
        "Postcode": "09110",
        "Location": "Kampung Lubuk Kabu",
        "Post_Office": "Kuala Pegang",
        "State": "Kedah"
    },
    {
        "Postcode": "09110",
        "Location": "Kampung Padang Ketumba",
        "Post_Office": "Kuala Pegang",
        "State": "Kedah"
    },
    {
        "Postcode": "09110",
        "Location": "Kampung Padang Toi",
        "Post_Office": "Kuala Pegang",
        "State": "Kedah"
    },
    {
        "Postcode": "09110",
        "Location": "Kampung Seberang Titi",
        "Post_Office": "Kuala Pegang",
        "State": "Kedah"
    },
    {
        "Postcode": "09110",
        "Location": "Kampung Titi Melintang",
        "Post_Office": "Kuala Pegang",
        "State": "Kedah"
    },
    {
        "Postcode": "09110",
        "Location": "Kampung Titi Merbau",
        "Post_Office": "Kuala Pegang",
        "State": "Kedah"
    },
    {
        "Postcode": "09110",
        "Location": "Kampung Tok Seri",
        "Post_Office": "Kuala Pegang",
        "State": "Kedah"
    },
    {
        "Postcode": "09110",
        "Location": "Ketemba Masjid",
        "Post_Office": "Kuala Pegang",
        "State": "Kedah"
    }
]
