[
    {
        "Postcode": "09130",
        "Location": "Kampung Selarong",
        "Post_Office": "Baling",
        "State": "Kedah"
    },
    {
        "Postcode": "09130",
        "Location": "Desa Keda Ulu Bakai",
        "Post_Office": "Baling",
        "State": "Kedah"
    },
    {
        "Postcode": "09130",
        "Location": "Kampung Ayer Kepar",
        "Post_Office": "Baling",
        "State": "Kedah"
    },
    {
        "Postcode": "09130",
        "Location": "Kampung Ayer Merah",
        "Post_Office": "Baling",
        "State": "Kedah"
    },
    {
        "Postcode": "09130",
        "Location": "Kampung Badang",
        "Post_Office": "Baling",
        "State": "Kedah"
    },
    {
        "Postcode": "09130",
        "Location": "Kampung Bakai Sekolah",
        "Post_Office": "baling",
        "State": "Kedah"
    },
    {
        "Postcode": "09130",
        "Location": "Kampung Banggol Berangan",
        "Post_Office": "Baling",
        "State": "Kedah"
    },
    {
        "Postcode": "09130",
        "Location": "Kampung Banggol Enggok",
        "Post_Office": "Baling",
        "State": "Kedah"
    },
    {
        "Postcode": "09130",
        "Location": "Kampung Baru Kuala Nau",
        "Post_Office": "Baling",
        "State": "Kedah"
    },
    {
        "Postcode": "09130",
        "Location": "Kampung Bukit Rawa",
        "Post_Office": "Baling",
        "State": "Kedah"
    },
    {
        "Postcode": "09130",
        "Location": "Kampung Gelugor",
        "Post_Office": "Baling",
        "State": "Kedah"
    },
    {
        "Postcode": "09130",
        "Location": "Kampung Jernang",
        "Post_Office": "Baling",
        "State": "Kedah"
    },
    {
        "Postcode": "09130",
        "Location": "Kampung Kepala Titi Sedim",
        "Post_Office": "Baling",
        "State": "Kedah"
    },
    {
        "Postcode": "09130",
        "Location": "Kampung Machang Bubuk",
        "Post_Office": "Baling",
        "State": "Kedah"
    },
    {
        "Postcode": "09130",
        "Location": "Kampung Padang Belon",
        "Post_Office": "Baling",
        "State": "Kedah"
    },
    {
        "Postcode": "09130",
        "Location": "Kampung Sedim",
        "Post_Office": "Baling",
        "State": "Kedah"
    },
    {
        "Postcode": "09130",
        "Location": "Kampung Seratus",
        "Post_Office": "Baling",
        "State": "Kedah"
    },
    {
        "Postcode": "09130",
        "Location": "Kampung Simpang Tiga Pokok Gelugor",
        "Post_Office": "Baling",
        "State": "Kedah"
    },
    {
        "Postcode": "09130",
        "Location": "Kampung Tengah Ulu Tawar",
        "Post_Office": "Baling",
        "State": "Kedah"
    },
    {
        "Postcode": "09130",
        "Location": "Kampung Tok Sing",
        "Post_Office": "Baling",
        "State": "Kedah"
    },
    {
        "Postcode": "09130",
        "Location": "Kampung Ulu Bakai",
        "Post_Office": "Baling",
        "State": "Kedah"
    },
    {
        "Postcode": "09130",
        "Location": "Kampung Ulu Tawar",
        "Post_Office": "Baling",
        "State": "Kedah"
    },
    {
        "Postcode": "09130",
        "Location": "Kepala Titi",
        "Post_Office": "Baling",
        "State": "Kedah"
    },
    {
        "Postcode": "09130",
        "Location": "Ladang Pelam",
        "Post_Office": "Baling",
        "State": "Kedah"
    },
    {
        "Postcode": "09130",
        "Location": "Malau",
        "Post_Office": "Baling",
        "State": "Kedah"
    },
    {
        "Postcode": "09130",
        "Location": "Sedim",
        "Post_Office": "Baling",
        "State": "Kedah"
    }
]
