[
    {
        "Postcode": "09200",
        "Location": "Kampung Padang Cina",
        "Post_Office": "Kupang",
        "State": "Kedah"
    },
    {
        "Postcode": "09200",
        "Location": "Kampung Sadek",
        "Post_Office": "Kupang",
        "State": "Kedah"
    },
    {
        "Postcode": "09200",
        "Location": "Kampung Rambong",
        "Post_Office": "Kupang",
        "State": "Kedah"
    },
    {
        "Postcode": "09200",
        "Location": "Taman Permai",
        "Post_Office": "Kupang",
        "State": "Kedah"
    },
    {
        "Postcode": "09200",
        "Location": "Kampung Bendang Bechah",
        "Post_Office": "Kupang",
        "State": "Kedah"
    },
    {
        "Postcode": "09200",
        "Location": "Kampung Bonggol Berangan",
        "Post_Office": "Kupang",
        "State": "Kedah"
    },
    {
        "Postcode": "09200",
        "Location": "Kampung Charok Salang",
        "Post_Office": "Kupang",
        "State": "Kedah"
    },
    {
        "Postcode": "09200",
        "Location": "Kampung Gertak Serong",
        "Post_Office": "Kupang",
        "State": "Kedah"
    },
    {
        "Postcode": "09200",
        "Location": "Kampung Lanai",
        "Post_Office": "Kupang",
        "State": "Kedah"
    },
    {
        "Postcode": "09200",
        "Location": "Kampung Mengkuang Hujung",
        "Post_Office": "Kupang",
        "State": "Kedah"
    },
    {
        "Postcode": "09200",
        "Location": "Kampung Mengkuang Masjid",
        "Post_Office": "Kupang",
        "State": "Kedah"
    },
    {
        "Postcode": "09200",
        "Location": "Kampung Mengkuang Tengah",
        "Post_Office": "Kupang",
        "State": "Kedah"
    },
    {
        "Postcode": "09200",
        "Location": "Kampung Padang Lengkuas",
        "Post_Office": "Kupang",
        "State": "Kedah"
    },
    {
        "Postcode": "09200",
        "Location": "Kampung Padang Ketemba",
        "Post_Office": "Kupang",
        "State": "Kedah"
    },
    {
        "Postcode": "09200",
        "Location": "Kampung Parit Panjang",
        "Post_Office": "Kupang",
        "State": "Kedah"
    },
    {
        "Postcode": "09200",
        "Location": "Kampung Tebing Tinggi",
        "Post_Office": "Kupang",
        "State": "Kedah"
    },
    {
        "Postcode": "09200",
        "Location": "Kampung Charok Rambai",
        "Post_Office": "Kupang",
        "State": "Kedah"
    },
    {
        "Postcode": "09200",
        "Location": "Kampung Telok Petata",
        "Post_Office": "Kupang",
        "State": "Kedah"
    },
    {
        "Postcode": "09200",
        "Location": "Kampung Titi Mentaling",
        "Post_Office": "Kupang",
        "State": "Kedah"
    },
    {
        "Postcode": "09200",
        "Location": "Kuala Pegang",
        "Post_Office": "Kupang",
        "State": "Kedah"
    },
    {
        "Postcode": "09200",
        "Location": "Taman Emas",
        "Post_Office": "Kupang",
        "State": "Kedah"
    },
    {
        "Postcode": "09200",
        "Location": "Kampung Bukit Hitam",
        "Post_Office": "Kupang",
        "State": "Kedah"
    },
    {
        "Postcode": "09200",
        "Location": "Kampung Bukit Tinggi",
        "Post_Office": "Kupang",
        "State": "Kedah"
    },
    {
        "Postcode": "09200",
        "Location": "Kampung Keledang",
        "Post_Office": "Kupang",
        "State": "Kedah"
    },
    {
        "Postcode": "09200",
        "Location": "Kampung Lela",
        "Post_Office": "Kupang",
        "State": "Kedah"
    },
    {
        "Postcode": "09200",
        "Location": "Kampung Pisang",
        "Post_Office": "Kupang",
        "State": "Kedah"
    },
    {
        "Postcode": "09200",
        "Location": "Kampung Tanjong",
        "Post_Office": "Kupang",
        "State": "Kedah"
    },
    {
        "Postcode": "09200",
        "Location": "Taman Harapan ",
        "Post_Office": "Kupang",
        "State": "Kedah"
    },
    {
        "Postcode": "09200",
        "Location": "Banggol Lahar",
        "Post_Office": "Kupang",
        "State": "Kedah"
    },
    {
        "Postcode": "09200",
        "Location": "Bukit Terabak",
        "Post_Office": "Kupang",
        "State": "Kedah"
    },
    {
        "Postcode": "09200",
        "Location": "Gua Rebah",
        "Post_Office": "Kupang",
        "State": "Kedah"
    },
    {
        "Postcode": "09200",
        "Location": "Kampung Bendang Padang",
        "Post_Office": "Kupang",
        "State": "Kedah"
    },
    {
        "Postcode": "09200",
        "Location": "Kampung Bokbak",
        "Post_Office": "Kupang",
        "State": "Kedah"
    },
    {
        "Postcode": "09200",
        "Location": "Kampung Bubang Panjang",
        "Post_Office": "Kupang",
        "State": "Kedah"
    },
    {
        "Postcode": "09200",
        "Location": "Kampung Bukit Iboi",
        "Post_Office": "Kupang",
        "State": "Kedah"
    },
    {
        "Postcode": "09200",
        "Location": "Kampung Charok Bemban",
        "Post_Office": "Kupang",
        "State": "Kedah"
    },
    {
        "Postcode": "09200",
        "Location": "Kampung Charok Kapas",
        "Post_Office": "Kupang",
        "State": "Kedah"
    },
    {
        "Postcode": "09200",
        "Location": "Kampung Charok Sikin",
        "Post_Office": "Kupang",
        "State": "Kedah"
    },
    {
        "Postcode": "09200",
        "Location": "Kampung Gua Reban",
        "Post_Office": "Kupang",
        "State": "Kedah"
    },
    {
        "Postcode": "09200",
        "Location": "Kampung Hangus",
        "Post_Office": "Kupang",
        "State": "Kedah"
    },
    {
        "Postcode": "09200",
        "Location": "Kampung Iboi",
        "Post_Office": "Kupang",
        "State": "Kedah"
    },
    {
        "Postcode": "09200",
        "Location": "Kampung Jerai",
        "Post_Office": "Kupang",
        "State": "Kedah"
    },
    {
        "Postcode": "09200",
        "Location": "Kampung Kuala Kuang",
        "Post_Office": "Kupang",
        "State": "Kedah"
    },
    {
        "Postcode": "09200",
        "Location": "Kampung Kubang Panjang",
        "Post_Office": "Kupang",
        "State": "Kedah"
    },
    {
        "Postcode": "09200",
        "Location": "Kampung Landak",
        "Post_Office": "Kupang",
        "State": "Kedah"
    },
    {
        "Postcode": "09200",
        "Location": "Kampung Landak Batu 39",
        "Post_Office": "Kupang",
        "State": "Kedah"
    },
    {
        "Postcode": "09200",
        "Location": "Kampung Landak Bukit",
        "Post_Office": "Kupang",
        "State": "Kedah"
    },
    {
        "Postcode": "09200",
        "Location": "Kampung Landak Hilir",
        "Post_Office": "Kupang",
        "State": "Kedah"
    },
    {
        "Postcode": "09200",
        "Location": "Kampung Landak Paya",
        "Post_Office": "Kupang",
        "State": "Kedah"
    },
    {
        "Postcode": "09200",
        "Location": "Kampung Padang Dan",
        "Post_Office": "Kupang",
        "State": "Kedah"
    },
    {
        "Postcode": "09200",
        "Location": "Kampung Pak Bong",
        "Post_Office": "Kupang",
        "State": "Kedah"
    },
    {
        "Postcode": "09200",
        "Location": "Kampung Raja",
        "Post_Office": "Kupang",
        "State": "Kedah"
    },
    {
        "Postcode": "09200",
        "Location": "Kampung Seniyek",
        "Post_Office": "Kupang",
        "State": "Kedah"
    },
    {
        "Postcode": "09200",
        "Location": "Kampung Tanah Periok",
        "Post_Office": "Kupang",
        "State": "Kedah"
    },
    {
        "Postcode": "09200",
        "Location": "Kampung Tanjong Merbau",
        "Post_Office": "Kupang",
        "State": "Kedah"
    },
    {
        "Postcode": "09200",
        "Location": "Kampung Telok Charok Bemban",
        "Post_Office": "Kupang",
        "State": "Kedah"
    },
    {
        "Postcode": "09200",
        "Location": "Kampung Telok Durian",
        "Post_Office": "Kupang",
        "State": "Kedah"
    },
    {
        "Postcode": "09200",
        "Location": "Kampung Telok Jamal",
        "Post_Office": "Kupang",
        "State": "Kedah"
    },
    {
        "Postcode": "09200",
        "Location": "Kampung Tengah",
        "Post_Office": "Kupang",
        "State": "Kedah"
    },
    {
        "Postcode": "09200",
        "Location": "Kampung Tiak",
        "Post_Office": "Kupang",
        "State": "Kedah"
    },
    {
        "Postcode": "09200",
        "Location": "Kampung Tok Saba",
        "Post_Office": "Kupang",
        "State": "Kedah"
    },
    {
        "Postcode": "09200",
        "Location": "Kupang",
        "Post_Office": "Kupang",
        "State": "Kedah"
    },
    {
        "Postcode": "09200",
        "Location": "Taman Bemban",
        "Post_Office": "Kupang",
        "State": "Kedah"
    },
    {
        "Postcode": "09200",
        "Location": "Taman Desa Cempa",
        "Post_Office": "Kupang",
        "State": "Kedah"
    },
    {
        "Postcode": "09200",
        "Location": "Taman Desa Mawar",
        "Post_Office": "Kupang",
        "State": "Kedah"
    },
    {
        "Postcode": "09200",
        "Location": "Taman Mesra ",
        "Post_Office": "Kupang",
        "State": "Kedah"
    },
    {
        "Postcode": "09200",
        "Location": "Taman Seri Mawar",
        "Post_Office": "Kupang",
        "State": "Kedah"
    },
    {
        "Postcode": "09200",
        "Location": "Taman Sri Landak",
        "Post_Office": "Kupang",
        "State": "Kedah"
    },
    {
        "Postcode": "09200",
        "Location": "Taman Wawasan",
        "Post_Office": "Kupang",
        "State": "Kedah"
    }
]
