[
    {
        "Postcode": "09300",
        "Location": "Kampung Tanjung Puteri",
        "Post_Office": "Kuala Ketil",
        "State": "Kedah"
    },
    {
        "Postcode": "09300",
        "Location": "Kampung Permatang Durian",
        "Post_Office": "Kuala Ketil",
        "State": "Kedah"
    },
    {
        "Postcode": "09300",
        "Location": "Kampung Titi Panjang",
        "Post_Office": "Kuala Ketil",
        "State": "Kedah"
    },
    {
        "Postcode": "09300",
        "Location": "Tawar",
        "Post_Office": "Kuala Ketil",
        "State": "Kedah"
    },
    {
        "Postcode": "09300",
        "Location": "Kampung Air Kembar",
        "Post_Office": "Kuala Ketil",
        "State": "Kedah"
    },
    {
        "Postcode": "09300",
        "Location": "Kampung Jeram",
        "Post_Office": "Kuala Ketil",
        "State": "Kedah"
    },
    {
        "Postcode": "09300",
        "Location": "Kampung Lengkuas",
        "Post_Office": "Kuala Ketil",
        "State": "Kedah"
    },
    {
        "Postcode": "09300",
        "Location": "Felcra Bukit Hijau",
        "Post_Office": "Kuala Ketil",
        "State": "Kedah"
    },
    {
        "Postcode": "09300",
        "Location": "Felda Teloi Kanan",
        "Post_Office": "Kuala Ketil",
        "State": "Kedah"
    },
    {
        "Postcode": "09300",
        "Location": "Felda Teloi Timur",
        "Post_Office": "Kuala Ketil",
        "State": "Kedah"
    },
    {
        "Postcode": "09300",
        "Location": "Kampung Batu",
        "Post_Office": "Kuala Ketil",
        "State": "Kedah"
    },
    {
        "Postcode": "09300",
        "Location": "Kampung Batu 1",
        "Post_Office": "Kuala Ketil",
        "State": "Kedah"
    },
    {
        "Postcode": "09300",
        "Location": "Kampung Jawa",
        "Post_Office": "Kuala Ketil",
        "State": "Kedah"
    },
    {
        "Postcode": "09300",
        "Location": "Kampung Kuala Bakong",
        "Post_Office": "Kuala Ketil",
        "State": "Kedah"
    },
    {
        "Postcode": "09300",
        "Location": "Kampung Teloi Kanan",
        "Post_Office": "Kuala Ketil",
        "State": "Kedah"
    },
    {
        "Postcode": "09300",
        "Location": "Kampung Teloi Timur",
        "Post_Office": "Kuala Ketil",
        "State": "Kedah"
    },
    {
        "Postcode": "09300",
        "Location": "Kuala Ketil",
        "Post_Office": "Kuala Ketil",
        "State": "Kedah"
    },
    {
        "Postcode": "09300",
        "Location": "Merbau Pulas",
        "Post_Office": "Kuala Ketil",
        "State": "Kedah"
    },
    {
        "Postcode": "09300",
        "Location": "Kampung Baru Bakai",
        "Post_Office": "Kuala Ketil",
        "State": "Kedah"
    },
    {
        "Postcode": "09300",
        "Location": "Kampung Baru Jemerli",
        "Post_Office": "Kuala Ketil",
        "State": "Kedah"
    },
    {
        "Postcode": "09300",
        "Location": "Kampung Beka",
        "Post_Office": "Kuala Ketil",
        "State": "Kedah"
    },
    {
        "Postcode": "09300",
        "Location": "Kampung Bukit Banjir",
        "Post_Office": "Kuala Ketil",
        "State": "Kedah"
    },
    {
        "Postcode": "09300",
        "Location": "Kampung Bukit Chong",
        "Post_Office": "Kuala Ketil",
        "State": "Kedah"
    },
    {
        "Postcode": "09300",
        "Location": "Kampung Bukit Ketemeng",
        "Post_Office": "Kuala Ketil",
        "State": "Kedah"
    },
    {
        "Postcode": "09300",
        "Location": "Kampung Charok Bakap",
        "Post_Office": "Kuala Ketil",
        "State": "Kedah"
    },
    {
        "Postcode": "09300",
        "Location": "Kampung Charok Macang",
        "Post_Office": "Kuala Ketil",
        "State": "Kedah"
    },
    {
        "Postcode": "09300",
        "Location": "Kampung Kembai",
        "Post_Office": "Kuala Ketil",
        "State": "Kedah"
    },
    {
        "Postcode": "09300",
        "Location": "Kampung Kok Seng",
        "Post_Office": "Kuala Ketil",
        "State": "Kedah"
    },
    {
        "Postcode": "09300",
        "Location": "Kampung Kuala Cahaya",
        "Post_Office": "Kuala Ketil",
        "State": "Kedah"
    },
    {
        "Postcode": "09300",
        "Location": "Kampung Kuala Lesung",
        "Post_Office": "Kuala Ketil",
        "State": "Kedah"
    },
    {
        "Postcode": "09300",
        "Location": "Kampung Kuala Samak",
        "Post_Office": "Kuala Ketil",
        "State": "Kedah"
    },
    {
        "Postcode": "09300",
        "Location": "Kampung Kubang Hong",
        "Post_Office": "Kuala Ketil",
        "State": "Kedah"
    },
    {
        "Postcode": "09300",
        "Location": "Kampung Lahar Parang",
        "Post_Office": "Kuala Ketil",
        "State": "Kedah"
    },
    {
        "Postcode": "09300",
        "Location": "Kampung Padang Geh",
        "Post_Office": "Kuala Ketil",
        "State": "Kedah"
    },
    {
        "Postcode": "09300",
        "Location": "Kampung Paya Menora",
        "Post_Office": "Kuala Ketil",
        "State": "Kedah"
    },
    {
        "Postcode": "09300",
        "Location": "Kampung Selangor",
        "Post_Office": "Kuala Ketil",
        "State": "Kedah"
    },
    {
        "Postcode": "09300",
        "Location": "Kampung Sisik Lantai",
        "Post_Office": "Kuala Ketil",
        "State": "Kedah"
    },
    {
        "Postcode": "09300",
        "Location": "Kampung Sungai Bemban",
        "Post_Office": "Kuala Ketil",
        "State": "Kedah"
    },
    {
        "Postcode": "09300",
        "Location": "Kampung Tembak A",
        "Post_Office": "Kuala Ketil",
        "State": "Kedah"
    },
    {
        "Postcode": "09300",
        "Location": "Kampung Tembak B",
        "Post_Office": "Kuala Ketil",
        "State": "Kedah"
    },
    {
        "Postcode": "09300",
        "Location": "Kampung Tok We",
        "Post_Office": "Kuala Ketil",
        "State": "Kedah"
    }
]
