[
    {
        "Postcode": "09310",
        "Location": "Kampung Charok Akar",
        "Post_Office": "Kuala Ketil",
        "State": "Kedah"
    },
    {
        "Postcode": "09310",
        "Location": "Kampung Padang Setol",
        "Post_Office": "Kuala Ketil",
        "State": "Kedah"
    },
    {
        "Postcode": "09310",
        "Location": "Kampung Baru Tawar",
        "Post_Office": "Kuala Ketil",
        "State": "Kedah"
    },
    {
        "Postcode": "09310",
        "Location": "Kampung Surau Bakai",
        "Post_Office": "Kuala Ketil",
        "State": "Kedah"
    },
    {
        "Postcode": "09310",
        "Location": "Teloi Kanan",
        "Post_Office": "Kuala Ketil",
        "State": "Kedah"
    },
    {
        "Postcode": "09310",
        "Location": "Kampung Besah",
        "Post_Office": "Kuala Ketil",
        "State": "Kedah"
    },
    {
        "Postcode": "09310",
        "Location": "Kampung Binjul Dalam",
        "Post_Office": "Kuala Ketil",
        "State": "Kedah"
    },
    {
        "Postcode": "09310",
        "Location": "Kampung Binjul Luar",
        "Post_Office": "Kuala Ketil",
        "State": "Kedah"
    },
    {
        "Postcode": "09310",
        "Location": "Kampung Charok Purun",
        "Post_Office": "Kuala Ketil",
        "State": "Kedah"
    },
    {
        "Postcode": "09310",
        "Location": "Kampung Dara Sungai Tawar",
        "Post_Office": "Kuala Ketil",
        "State": "Kedah"
    }
]
