[
    {
        "Postcode": "09400",
        "Location": "Kampung Lesong Tujoh",
        "Post_Office": "Padang Serai",
        "State": "Kedah"
    },
    {
        "Postcode": "09400",
        "Location": "Kampung Pantai Endau",
        "Post_Office": "Padang Serai",
        "State": "Kedah"
    },
    {
        "Postcode": "09400",
        "Location": "Kampung Tanjung Belit",
        "Post_Office": "Padang Serai",
        "State": "Kedah"
    },
    {
        "Postcode": "09400",
        "Location": "Ladang Padang Meiha",
        "Post_Office": "Padang Serai",
        "State": "Kedah"
    },
    {
        "Postcode": "09400",
        "Location": "Kampung Permatang Durian",
        "Post_Office": "Padang Serai",
        "State": "Kedah"
    },
    {
        "Postcode": "09400",
        "Location": "Kampung Siam",
        "Post_Office": "Padang Serai",
        "State": "Kedah"
    },
    {
        "Postcode": "09400",
        "Location": "Taman Damai",
        "Post_Office": "Padang Serai",
        "State": "Kedah"
    },
    {
        "Postcode": "09400",
        "Location": "Taman Mahsuri",
        "Post_Office": "Padang Serai",
        "State": "Kedah"
    },
    {
        "Postcode": "09400",
        "Location": "Kampung Sidam Kanan",
        "Post_Office": "Padang Serai",
        "State": "Kedah"
    },
    {
        "Postcode": "09400",
        "Location": "Kampung Sidam Kiri",
        "Post_Office": "Padang Serai",
        "State": "Kedah"
    },
    {
        "Postcode": "09400",
        "Location": "Kampung Banggol",
        "Post_Office": "Padang Serai",
        "State": "Kedah"
    },
    {
        "Postcode": "09400",
        "Location": "Kampung Padang Buloh",
        "Post_Office": "Padang Serai",
        "State": "Kedah"
    },
    {
        "Postcode": "09400",
        "Location": "Kampung Seberang Paya",
        "Post_Office": "Padang Serai",
        "State": "Kedah"
    },
    {
        "Postcode": "09400",
        "Location": "Kampung Tok Iman",
        "Post_Office": "Padang Serai",
        "State": "Kedah"
    },
    {
        "Postcode": "09400",
        "Location": "Taman Melor Indah",
        "Post_Office": "Padang Serai",
        "State": "Kedah"
    },
    {
        "Postcode": "09400",
        "Location": "Kampung Bukit Sidam",
        "Post_Office": "Padang Serai",
        "State": "Kedah"
    },
    {
        "Postcode": "09400",
        "Location": "Kampung Deka",
        "Post_Office": "Padang Serai",
        "State": "Kedah"
    },
    {
        "Postcode": "09400",
        "Location": "Kampung Ekor Kucing",
        "Post_Office": "Padang Serai",
        "State": "Kedah"
    },
    {
        "Postcode": "09400",
        "Location": "Kampung Gajah Merangkak",
        "Post_Office": "Padang Serai",
        "State": "Kedah"
    },
    {
        "Postcode": "09400",
        "Location": "Kampung Guar Lobak",
        "Post_Office": "Padang Serai",
        "State": "Kedah"
    },
    {
        "Postcode": "09400",
        "Location": "Kampung Keda (Mukim Naga Lilit)",
        "Post_Office": "Padang Serai",
        "State": "Kedah"
    },
    {
        "Postcode": "09400",
        "Location": "Kampung Kemumbong",
        "Post_Office": "Padang Serai",
        "State": "Kedah"
    },
    {
        "Postcode": "09400",
        "Location": "Kampung Kong Kedah",
        "Post_Office": "Padang Serai",
        "State": "Kedah"
    },
    {
        "Postcode": "09400",
        "Location": "Kampung Kuala Jerong",
        "Post_Office": "Padang Serai",
        "State": "Kedah"
    },
    {
        "Postcode": "09400",
        "Location": "Kampung Kuala Sedim",
        "Post_Office": "Padang Serai",
        "State": "Kedah"
    },
    {
        "Postcode": "09400",
        "Location": "Kampung Kubang Sapi",
        "Post_Office": "Padang Serai",
        "State": "Kedah"
    },
    {
        "Postcode": "09400",
        "Location": "Kampung Ladang Bukit Selarong",
        "Post_Office": "Padang Serai",
        "State": "Kedah"
    },
    {
        "Postcode": "09400",
        "Location": "Kampung Lubok Saga",
        "Post_Office": "Padang Serai",
        "State": "Kedah"
    },
    {
        "Postcode": "09400",
        "Location": "Kampung Naga Lilit",
        "Post_Office": "Padang Serai",
        "State": "Kedah"
    },
    {
        "Postcode": "09400",
        "Location": "Kampung Pantai Ali",
        "Post_Office": "Padang Serai",
        "State": "Kedah"
    },
    {
        "Postcode": "09400",
        "Location": "Kampung Pantai Perai",
        "Post_Office": "Padang Serai",
        "State": "Kedah"
    },
    {
        "Postcode": "09400",
        "Location": "Kampung Paya Jemerli",
        "Post_Office": "Padang Serai",
        "State": "Kedah"
    },
    {
        "Postcode": "09400",
        "Location": "Kampung Paya Union",
        "Post_Office": "Padang Serai",
        "State": "Kedah"
    },
    {
        "Postcode": "09400",
        "Location": "Kampung Permatang Tok Dik",
        "Post_Office": "Padang Serai",
        "State": "Kedah"
    },
    {
        "Postcode": "09400",
        "Location": "Kampung Telok Binu",
        "Post_Office": "Padang Serai",
        "State": "Kedah"
    },
    {
        "Postcode": "09400",
        "Location": "Kampung Terat Batu",
        "Post_Office": "Padang Serai",
        "State": "Kedah"
    },
    {
        "Postcode": "09400",
        "Location": "Kampung Tesong Tujuh",
        "Post_Office": "Padang Serai",
        "State": "Kedah"
    },
    {
        "Postcode": "09400",
        "Location": "Kampung Ujung Padang",
        "Post_Office": "Padang Serai",
        "State": "Kedah"
    },
    {
        "Postcode": "09400",
        "Location": "Kampung Ujung Tanjong",
        "Post_Office": "Padang Serai",
        "State": "Kedah"
    },
    {
        "Postcode": "09400",
        "Location": "Padang Serai",
        "Post_Office": "Padang Serai",
        "State": "Kedah"
    },
    {
        "Postcode": "09400",
        "Location": "Taman Lagenda",
        "Post_Office": "Padang Serai",
        "State": "Kedah"
    },
    {
        "Postcode": "09400",
        "Location": "Taman Raya Indah",
        "Post_Office": "Padang Serai",
        "State": "Kedah"
    },
    {
        "Postcode": "09400",
        "Location": "Taman Serai Ria",
        "Post_Office": "Padang Serai",
        "State": "Kedah"
    },
    {
        "Postcode": "09400",
        "Location": "Taman Serai Setia",
        "Post_Office": "Padang Serai",
        "State": "Kedah"
    }
]
