[
    {
        "Postcode": "09410",
        "Location": "Kampung Baru Bukit Karangan",
        "Post_Office": "Padang Serai",
        "State": "Kedah"
    },
    {
        "Postcode": "09410",
        "Location": "Kampung Kuala Bunut",
        "Post_Office": "Padang Serai",
        "State": "Kedah"
    },
    {
        "Postcode": "09410",
        "Location": "Kampung Ladang Bukit Karangan",
        "Post_Office": "Padang Serai",
        "State": "Kedah"
    },
    {
        "Postcode": "09410",
        "Location": "Kampung Paya Kelubi",
        "Post_Office": "Padang Serai",
        "State": "Kedah"
    },
    {
        "Postcode": "09410",
        "Location": "Kampung Titi Karangan",
        "Post_Office": "Padang Serai",
        "State": "Kedah"
    },
    {
        "Postcode": "09410",
        "Location": "Sungai Karangan",
        "Post_Office": "Padang Serai",
        "State": "Kedah"
    },
    {
        "Postcode": "09410",
        "Location": "Taman Desa Aman (Sungai Karangan)",
        "Post_Office": "Padang Serai",
        "State": "Kedah"
    },
    {
        "Postcode": "09410",
        "Location": "Taman Kenangan (Sungai Karangan)",
        "Post_Office": "Padang Serai",
        "State": "Kedah"
    },
    {
        "Postcode": "09410",
        "Location": "Taman Serai Wangi",
        "Post_Office": "Padang Serai",
        "State": "Kedah"
    },
    {
        "Postcode": "09410",
        "Location": "Kampung Kuala Sidim",
        "Post_Office": "Padang Serai",
        "State": "Kedah"
    }
]
