[
    {
        "Postcode": "09600",
        "Location": "Kampung Balik Bukit",
        "Post_Office": "Lunas",
        "State": "Kedah"
    },
    {
        "Postcode": "09600",
        "Location": "Kampung Siam",
        "Post_Office": "Lunas",
        "State": "Kedah"
    },
    {
        "Postcode": "09600",
        "Location": "Kampung Sungai Limau",
        "Post_Office": "Lunas",
        "State": "Kedah"
    },
    {
        "Postcode": "09600",
        "Location": "Taman Sutera",
        "Post_Office": "Lunas",
        "State": "Kedah"
    },
    {
        "Postcode": "09600",
        "Location": "Kawasan Perindustrian Taman Makmur",
        "Post_Office": "Lunas ",
        "State": "Kedah"
    },
    {
        "Postcode": "09600",
        "Location": "Kampung Chetty",
        "Post_Office": "Lunas",
        "State": "Kedah"
    },
    {
        "Postcode": "09600",
        "Location": "Taman Bendi",
        "Post_Office": "Lunas",
        "State": "Kedah"
    },
    {
        "Postcode": "09600",
        "Location": "Taman Aman",
        "Post_Office": "Lunas",
        "State": "Kedah"
    },
    {
        "Postcode": "09600",
        "Location": "Taman Indah",
        "Post_Office": "Lunas",
        "State": "Kedah"
    },
    {
        "Postcode": "09600",
        "Location": "Kampung Batu 6",
        "Post_Office": "Lunas",
        "State": "Kedah"
    },
    {
        "Postcode": "09600",
        "Location": "Kampung Bukit Lada",
        "Post_Office": "Lunas",
        "State": "Kedah"
    },
    {
        "Postcode": "09600",
        "Location": "Kampung Padang China",
        "Post_Office": "Lunas",
        "State": "Kedah"
    },
    {
        "Postcode": "09600",
        "Location": "Kampung Paya Besar",
        "Post_Office": "Lunas",
        "State": "Kedah"
    },
    {
        "Postcode": "09600",
        "Location": "Kampung Paya Serdang",
        "Post_Office": "Lunas",
        "State": "Kedah"
    },
    {
        "Postcode": "09600",
        "Location": "Taman Gemilang",
        "Post_Office": "Lunas",
        "State": "Kedah"
    },
    {
        "Postcode": "09600",
        "Location": "Taman Perusahaan Saujana",
        "Post_Office": "Lunas",
        "State": "Kedah"
    },
    {
        "Postcode": "09600",
        "Location": "Taman Sejahtera",
        "Post_Office": "Lunas",
        "State": "Kedah"
    },
    {
        "Postcode": "09600",
        "Location": "Taman Delima",
        "Post_Office": "Lunas ",
        "State": "Kedah"
    },
    {
        "Postcode": "09600",
        "Location": "Taman Desa Permai ",
        "Post_Office": "Lunas ",
        "State": "Kedah"
    },
    {
        "Postcode": "09600",
        "Location": "Flat Kulim Square",
        "Post_Office": "Lunas",
        "State": "Kedah"
    },
    {
        "Postcode": "09600",
        "Location": "Kampung Batu 8 1/2",
        "Post_Office": "Lunas",
        "State": "Kedah"
    },
    {
        "Postcode": "09600",
        "Location": "Kampung Bukit Kukus",
        "Post_Office": "Lunas",
        "State": "Kedah"
    },
    {
        "Postcode": "09600",
        "Location": "Kampung Bukit Sarang Ayam",
        "Post_Office": "Lunas",
        "State": "Kedah"
    },
    {
        "Postcode": "09600",
        "Location": "Kampung Jalan Ara Kuda",
        "Post_Office": "Lunas",
        "State": "Kedah"
    },
    {
        "Postcode": "09600",
        "Location": "Lunas",
        "Post_Office": "Lunas",
        "State": "Kedah"
    },
    {
        "Postcode": "09600",
        "Location": "Sungai Seluang",
        "Post_Office": "Lunas",
        "State": "Kedah"
    },
    {
        "Postcode": "09600",
        "Location": "Taman Cili",
        "Post_Office": "Lunas",
        "State": "Kedah"
    },
    {
        "Postcode": "09600",
        "Location": "Taman Desa Seni",
        "Post_Office": "Lunas",
        "State": "Kedah"
    },
    {
        "Postcode": "09600",
        "Location": "Taman Halia",
        "Post_Office": "Lunas",
        "State": "Kedah"
    },
    {
        "Postcode": "09600",
        "Location": "Taman Kempas Merah",
        "Post_Office": "Lunas",
        "State": "Kedah"
    },
    {
        "Postcode": "09600",
        "Location": "Taman Kota Kenari",
        "Post_Office": "Lunas",
        "State": "Kedah"
    },
    {
        "Postcode": "09600",
        "Location": "Taman Murni Indah",
        "Post_Office": "Lunas",
        "State": "Kedah"
    },
    {
        "Postcode": "09600",
        "Location": "Taman Sejahtera Jaya ",
        "Post_Office": "Lunas",
        "State": "Kedah"
    },
    {
        "Postcode": "09600",
        "Location": "Taman Seri Mesra",
        "Post_Office": "Lunas",
        "State": "Kedah"
    },
    {
        "Postcode": "09600",
        "Location": "Taman Simponi",
        "Post_Office": "Lunas",
        "State": "Kedah"
    },
    {
        "Postcode": "09600",
        "Location": "Titi Karangan",
        "Post_Office": "Lunas",
        "State": "Kedah"
    },
    {
        "Postcode": "09600",
        "Location": "Taman Kangkong 3",
        "Post_Office": "Lunas ",
        "State": "Kedah"
    },
    {
        "Postcode": "09600",
        "Location": "Taman Melor Indah 2",
        "Post_Office": "Lunas ",
        "State": "Kedah"
    },
    {
        "Postcode": "09600",
        "Location": "Taman Merawan",
        "Post_Office": "Lunas ",
        "State": "Kedah"
    },
    {
        "Postcode": "09600",
        "Location": "Taman Seri Mahkota",
        "Post_Office": "Lunas ",
        "State": "Kedah"
    }
]
