[
    {
        "Postcode": "09700",
        "Location": "Kampung Pagar Museh",
        "Post_Office": "Karangan",
        "State": "Kedah"
    },
    {
        "Postcode": "09700",
        "Location": "Kampung Sungai Buloh",
        "Post_Office": "Karangan",
        "State": "Kedah"
    },
    {
        "Postcode": "09700",
        "Location": "Kampung Merbok",
        "Post_Office": "Karangan",
        "State": "Kedah"
    },
    {
        "Postcode": "09700",
        "Location": "Ladang Dublin",
        "Post_Office": "Karangan",
        "State": "Kedah"
    },
    {
        "Postcode": "09700",
        "Location": "Ladang Erico",
        "Post_Office": "Karangan",
        "State": "Kedah"
    },
    {
        "Postcode": "09700",
        "Location": "Ladang Guthrie Dublin",
        "Post_Office": "Karangan",
        "State": "Kedah"
    },
    {
        "Postcode": "09700",
        "Location": "Ladang Jongkong",
        "Post_Office": "Karangan",
        "State": "Kedah"
    },
    {
        "Postcode": "09700",
        "Location": "Ladang Lean Seng",
        "Post_Office": "Karangan",
        "State": "Kedah"
    },
    {
        "Postcode": "09700",
        "Location": "Pagar Museh",
        "Post_Office": "Karangan",
        "State": "Kedah"
    },
    {
        "Postcode": "09700",
        "Location": "Pahau",
        "Post_Office": "Karangan",
        "State": "Kedah"
    },
    {
        "Postcode": "09700",
        "Location": "Seberang Jaya",
        "Post_Office": "Karangan",
        "State": "Kedah"
    },
    {
        "Postcode": "09700",
        "Location": "Sungai Kob",
        "Post_Office": "Karangan",
        "State": "Kedah"
    },
    {
        "Postcode": "09700",
        "Location": "Taman Mutiara",
        "Post_Office": "Karangan",
        "State": "Kedah"
    },
    {
        "Postcode": "09700",
        "Location": "Taman Sungai Kob",
        "Post_Office": "Karangan",
        "State": "Kedah"
    },
    {
        "Postcode": "09700",
        "Location": "Kampung Banggol Penyengat",
        "Post_Office": "Karangan",
        "State": "Kedah"
    },
    {
        "Postcode": "09700",
        "Location": "Kampung Maryland ",
        "Post_Office": "Karangan",
        "State": "Kedah"
    },
    {
        "Postcode": "09700",
        "Location": "Kampung Padang Janggus",
        "Post_Office": "Karangan",
        "State": "Kedah"
    },
    {
        "Postcode": "09700",
        "Location": "Kampung Padang Limau",
        "Post_Office": "Karangan",
        "State": "Kedah"
    },
    {
        "Postcode": "09700",
        "Location": "Kampung Ulu Riau",
        "Post_Office": "Karangan",
        "State": "Kedah"
    },
    {
        "Postcode": "09700",
        "Location": "Kampung Kemunting",
        "Post_Office": "Karangan",
        "State": "Kedah"
    },
    {
        "Postcode": "09700",
        "Location": "Kampung Kilang Baru",
        "Post_Office": "Karangan",
        "State": "Kedah"
    },
    {
        "Postcode": "09700",
        "Location": "Kampung Padang China",
        "Post_Office": "Karangan",
        "State": "Kedah"
    },
    {
        "Postcode": "09700",
        "Location": "Kampung Simpang Tiga",
        "Post_Office": "Karangan",
        "State": "Kedah"
    },
    {
        "Postcode": "09700",
        "Location": "Bukit Sang",
        "Post_Office": "Karangan",
        "State": "Kedah"
    },
    {
        "Postcode": "09700",
        "Location": "Jalan Baru Sedim",
        "Post_Office": "Karangan",
        "State": "Kedah"
    },
    {
        "Postcode": "09700",
        "Location": "Kampung Baru Batu Puteh",
        "Post_Office": "Karangan",
        "State": "Kedah"
    },
    {
        "Postcode": "09700",
        "Location": "Kampung Baru Karangan",
        "Post_Office": "Karangan",
        "State": "Kedah"
    },
    {
        "Postcode": "09700",
        "Location": "Kampung Baru Lubok Gajah",
        "Post_Office": "Karangan",
        "State": "Kedah"
    },
    {
        "Postcode": "09700",
        "Location": "Kampung Baru Mahang",
        "Post_Office": "Karangan",
        "State": "Kedah"
    },
    {
        "Postcode": "09700",
        "Location": "Kampung Baru Padang Patong",
        "Post_Office": "Karangan",
        "State": "Kedah"
    },
    {
        "Postcode": "09700",
        "Location": "Kampung Baru Sungai Kob",
        "Post_Office": "Karangan",
        "State": "Kedah"
    },
    {
        "Postcode": "09700",
        "Location": "Kampung Baru Ulu Krian",
        "Post_Office": "Karangan",
        "State": "Kedah"
    },
    {
        "Postcode": "09700",
        "Location": "Kampung Batu Karangan",
        "Post_Office": "Karangan",
        "State": "Kedah"
    },
    {
        "Postcode": "09700",
        "Location": "Kampung Batu Puteh",
        "Post_Office": "Karangan",
        "State": "Kedah"
    },
    {
        "Postcode": "09700",
        "Location": "Kampung Bmr Kilang Baru",
        "Post_Office": "Karangan",
        "State": "Kedah"
    },
    {
        "Postcode": "09700",
        "Location": "Kampung Bukit Bertam",
        "Post_Office": "Karangan",
        "State": "Kedah"
    },
    {
        "Postcode": "09700",
        "Location": "Kampung Bukit Kubu",
        "Post_Office": "Karangan",
        "State": "Kedah"
    },
    {
        "Postcode": "09700",
        "Location": "Kampung Cherok Kedah",
        "Post_Office": "Karangan",
        "State": "Kedah"
    },
    {
        "Postcode": "09700",
        "Location": "Kampung Dingin",
        "Post_Office": "Karangan",
        "State": "Kedah"
    },
    {
        "Postcode": "09700",
        "Location": "Kampung Haji Samad",
        "Post_Office": "Karangan",
        "State": "Kedah"
    },
    {
        "Postcode": "09700",
        "Location": "Kampung Jangkang",
        "Post_Office": "Karangan",
        "State": "Kedah"
    },
    {
        "Postcode": "09700",
        "Location": "Kampung Kuala Tawar",
        "Post_Office": "Karangan",
        "State": "Kedah"
    },
    {
        "Postcode": "09700",
        "Location": "Kampung Lindongan Raja",
        "Post_Office": "Karangan",
        "State": "Kedah"
    },
    {
        "Postcode": "09700",
        "Location": "Kampung Lobak",
        "Post_Office": "Karangan",
        "State": "Kedah"
    },
    {
        "Postcode": "09700",
        "Location": "Kampung Padang Keriang",
        "Post_Office": "Karangan",
        "State": "Kedah"
    },
    {
        "Postcode": "09700",
        "Location": "Kampung Seberang Jaya",
        "Post_Office": "Karangan",
        "State": "Kedah"
    },
    {
        "Postcode": "09700",
        "Location": "Kampung Selarong Panjang",
        "Post_Office": "Karangan",
        "State": "Kedah"
    },
    {
        "Postcode": "09700",
        "Location": "Kampung Sidim",
        "Post_Office": "Karangan",
        "State": "Kedah"
    },
    {
        "Postcode": "09700",
        "Location": "Kampung Sungai Badak",
        "Post_Office": "Karangan",
        "State": "Kedah"
    },
    {
        "Postcode": "09700",
        "Location": "Kampung Sungai Kob",
        "Post_Office": "Karangan",
        "State": "Kedah"
    },
    {
        "Postcode": "09700",
        "Location": "Kampung Sungai Pasir Dalam",
        "Post_Office": "Karangan",
        "State": "Kedah"
    },
    {
        "Postcode": "09700",
        "Location": "Kampung Sungai Pasir Luar",
        "Post_Office": "Karangan",
        "State": "Kedah"
    },
    {
        "Postcode": "09700",
        "Location": "Kampung Sungai Pasu",
        "Post_Office": "Karangan",
        "State": "Kedah"
    },
    {
        "Postcode": "09700",
        "Location": "Kampung Tebok",
        "Post_Office": "Karangan",
        "State": "Kedah"
    },
    {
        "Postcode": "09700",
        "Location": "Kampung Tebuan",
        "Post_Office": "Karangan",
        "State": "Kedah"
    },
    {
        "Postcode": "09700",
        "Location": "Kampung Ulu Kerian",
        "Post_Office": "Karangan",
        "State": "Kedah"
    },
    {
        "Postcode": "09700",
        "Location": "Karangan",
        "Post_Office": "Karangan",
        "State": "Kedah"
    }
]
