[
    {
        "Postcode": "09800",
        "Location": "Kampung Kuala Ayer Puteh",
        "Post_Office": "Serdang",
        "State": "Kedah"
    },
    {
        "Postcode": "09800",
        "Location": "Kampung Bukit Buluh",
        "Post_Office": "Serdang",
        "State": "Kedah"
    },
    {
        "Postcode": "09800",
        "Location": "Kampung Chelong",
        "Post_Office": "Serdang",
        "State": "Kedah"
    },
    {
        "Postcode": "09800",
        "Location": "Kampung Telok Sera",
        "Post_Office": "Serdang",
        "State": "Kedah"
    },
    {
        "Postcode": "09800",
        "Location": "Kampung Badlishah",
        "Post_Office": "Serdang",
        "State": "Kedah"
    },
    {
        "Postcode": "09800",
        "Location": "Kampung Banggol Durian",
        "Post_Office": "Serdang",
        "State": "Kedah"
    },
    {
        "Postcode": "09800",
        "Location": "Kampung Banggol Limau",
        "Post_Office": "Serdang",
        "State": "Kedah"
    },
    {
        "Postcode": "09800",
        "Location": "Kampung Baru Serdang",
        "Post_Office": "Serdang",
        "State": "Kedah"
    },
    {
        "Postcode": "09800",
        "Location": "Kampung Batu 10",
        "Post_Office": "Serdang",
        "State": "Kedah"
    },
    {
        "Postcode": "09800",
        "Location": "Kampung Batu 12",
        "Post_Office": "Serdang",
        "State": "Kedah"
    },
    {
        "Postcode": "09800",
        "Location": "Kampung Batu Ayer Putih",
        "Post_Office": "Serdang",
        "State": "Kedah"
    },
    {
        "Postcode": "09800",
        "Location": "Kampung Batu Lintang",
        "Post_Office": "Serdang",
        "State": "Kedah"
    },
    {
        "Postcode": "09800",
        "Location": "Kampung Bukit Aping",
        "Post_Office": "Serdang",
        "State": "Kedah"
    },
    {
        "Postcode": "09800",
        "Location": "Kampung Jermai",
        "Post_Office": "Serdang",
        "State": "Kedah"
    },
    {
        "Postcode": "09800",
        "Location": "Kampung Kuala Dingin",
        "Post_Office": "Serdang",
        "State": "Kedah"
    },
    {
        "Postcode": "09800",
        "Location": "Kampung Leret",
        "Post_Office": "Serdang",
        "State": "Kedah"
    },
    {
        "Postcode": "09800",
        "Location": "Kampung Medan",
        "Post_Office": "Serdang",
        "State": "Kedah"
    },
    {
        "Postcode": "09800",
        "Location": "Kampung Paya Salak",
        "Post_Office": "Serdang",
        "State": "Kedah"
    },
    {
        "Postcode": "09800",
        "Location": "Kampung Pekan Lama",
        "Post_Office": "Serdang",
        "State": "Kedah"
    },
    {
        "Postcode": "09800",
        "Location": "Kampung Setali",
        "Post_Office": "Serdang",
        "State": "Kedah"
    },
    {
        "Postcode": "09800",
        "Location": "Kampung Sungai Buluh",
        "Post_Office": "Serdang",
        "State": "Kedah"
    },
    {
        "Postcode": "09800",
        "Location": "Kampung Sungai Kasai",
        "Post_Office": "Serdang",
        "State": "Kedah"
    },
    {
        "Postcode": "09800",
        "Location": "Kampung Sungai Salleh",
        "Post_Office": "Serdang",
        "State": "Kedah"
    },
    {
        "Postcode": "09800",
        "Location": "Kampung Sungai Setol",
        "Post_Office": "Serdang",
        "State": "Kedah"
    },
    {
        "Postcode": "09800",
        "Location": "Kampung Sungai Taka",
        "Post_Office": "Serdang",
        "State": "Kedah"
    },
    {
        "Postcode": "09800",
        "Location": "Kampung Sungai Tegas Terap",
        "Post_Office": "Serdang",
        "State": "Kedah"
    },
    {
        "Postcode": "09800",
        "Location": "Kampung Telok Kelian",
        "Post_Office": "Serdang",
        "State": "Kedah"
    },
    {
        "Postcode": "09800",
        "Location": "Kampung Tengah",
        "Post_Office": "Serdang",
        "State": "Kedah"
    },
    {
        "Postcode": "09800",
        "Location": "Kampung Terap",
        "Post_Office": "Serdang",
        "State": "Kedah"
    },
    {
        "Postcode": "09800",
        "Location": "Ladang Chim Khoon",
        "Post_Office": "Serdang",
        "State": "Kedah"
    },
    {
        "Postcode": "09800",
        "Location": "Kampung Rantau Panjang",
        "Post_Office": "Serdang",
        "State": "Kedah"
    },
    {
        "Postcode": "09800",
        "Location": "Kampung Sungai Batu",
        "Post_Office": "Serdang",
        "State": "Kedah"
    },
    {
        "Postcode": "09800",
        "Location": "Kampung Sungai Tengas",
        "Post_Office": "Serdang",
        "State": "Kedah"
    },
    {
        "Postcode": "09800",
        "Location": "Kampung Batu 16",
        "Post_Office": "Serdang",
        "State": "Kedah"
    },
    {
        "Postcode": "09800",
        "Location": "Kampung Batu Hampar",
        "Post_Office": "Serdang",
        "State": "Kedah"
    },
    {
        "Postcode": "09800",
        "Location": "Kampung Bendang Sera",
        "Post_Office": "Serdang",
        "State": "Kedah"
    },
    {
        "Postcode": "09800",
        "Location": "Kampung Durian Burong",
        "Post_Office": "Serdang",
        "State": "Kedah"
    },
    {
        "Postcode": "09800",
        "Location": "Taman Aked",
        "Post_Office": "Serdang",
        "State": "Kedah"
    },
    {
        "Postcode": "09800",
        "Location": "Taman Melor",
        "Post_Office": "Serdang",
        "State": "Kedah"
    },
    {
        "Postcode": "09800",
        "Location": "Ladang Somme",
        "Post_Office": "Serdang",
        "State": "Kedah"
    },
    {
        "Postcode": "09800",
        "Location": "Lubuk Buntar",
        "Post_Office": "Serdang",
        "State": "Kedah"
    },
    {
        "Postcode": "09800",
        "Location": "Perumahan Awam 1 \u0026 2",
        "Post_Office": "Serdang",
        "State": "Kedah"
    },
    {
        "Postcode": "09800",
        "Location": "Serdang",
        "Post_Office": "Serdang",
        "State": "Kedah"
    },
    {
        "Postcode": "09800",
        "Location": "Taman Kenanga",
        "Post_Office": "Serdang",
        "State": "Kedah"
    }
]
