[
    {
        "Postcode": "09810",
        "Location": "Taman Cempaka",
        "Post_Office": "Serdang",
        "State": "Kedah"
    },
    {
        "Postcode": "09810",
        "Location": "Kampung Permatang Buluh",
        "Post_Office": "Serdang",
        "State": "Kedah"
    },
    {
        "Postcode": "09810",
        "Location": "Kampung Sungai Terap Dalam",
        "Post_Office": "Serdang",
        "State": "Kedah"
    },
    {
        "Postcode": "09810",
        "Location": "Kampung Masjid",
        "Post_Office": "Serdang",
        "State": "Kedah"
    },
    {
        "Postcode": "09810",
        "Location": "Kampung Chong Meng",
        "Post_Office": "Serdang",
        "State": "Kedah"
    },
    {
        "Postcode": "09810",
        "Location": "Kampung Kuala Selama",
        "Post_Office": "Serdang",
        "State": "Kedah"
    },
    {
        "Postcode": "09810",
        "Location": "Kampung Sembilan Relong",
        "Post_Office": "Serdang",
        "State": "Kedah"
    },
    {
        "Postcode": "09810",
        "Location": "Kampung Seribu Relong",
        "Post_Office": "Serdang",
        "State": "Kedah"
    },
    {
        "Postcode": "09810",
        "Location": "Kampung Sungai Itam",
        "Post_Office": "Serdang",
        "State": "Kedah"
    },
    {
        "Postcode": "09810",
        "Location": "Kampung Sungai Terap",
        "Post_Office": "Serdang",
        "State": "Kedah"
    },
    {
        "Postcode": "09810",
        "Location": "Selama",
        "Post_Office": "Serdang",
        "State": "Kedah"
    },
    {
        "Postcode": "09810",
        "Location": "Sungai Itam Dalam",
        "Post_Office": "Serdang",
        "State": "Kedah"
    },
    {
        "Postcode": "09810",
        "Location": "Taman Serdang",
        "Post_Office": "Serdang",
        "State": "Kedah"
    }
]
