[
    {
        "Postcode": "17000",
        "Location": "Banggol Ara",
        "Post_Office": "Pasir Mas",
        "State": "Kelantan"
    },
    {
        "Postcode": "17000",
        "Location": "Banggol Gajah Mati",
        "Post_Office": "Pasir Mas",
        "State": "Kelantan"
    },
    {
        "Postcode": "17000",
        "Location": "Banggol Nyiur",
        "Post_Office": "Pasir Mas",
        "State": "Kelantan"
    },
    {
        "Postcode": "17000",
        "Location": "Banggol Petaling",
        "Post_Office": "Pasir Mas",
        "State": "Kelantan"
    },
    {
        "Postcode": "17000",
        "Location": "Bayu Lalang",
        "Post_Office": "Pasir Mas",
        "State": "Kelantan"
    },
    {
        "Postcode": "17000",
        "Location": "Chabang Empat Chetok",
        "Post_Office": "Pasir Mas",
        "State": "Kelantan"
    },
    {
        "Postcode": "17000",
        "Location": "Chabang Tiga Bakong",
        "Post_Office": "Pasir Mas",
        "State": "Kelantan"
    },
    {
        "Postcode": "17000",
        "Location": "Chabang Tiga Chetok",
        "Post_Office": "Pasir Mas",
        "State": "Kelantan"
    },
    {
        "Postcode": "17000",
        "Location": "Chabang Tiga Lati",
        "Post_Office": "Pasir Mas",
        "State": "Kelantan"
    },
    {
        "Postcode": "17000",
        "Location": "Chabang Tiga Sungai Machang",
        "Post_Office": "Pasir Mas",
        "State": "Kelantan"
    },
    {
        "Postcode": "17000",
        "Location": "Chicha Tinggi",
        "Post_Office": "Pasir Mas",
        "State": "Kelantan"
    },
    {
        "Postcode": "17000",
        "Location": "Gelang Emas",
        "Post_Office": "Pasir Mas",
        "State": "Kelantan"
    },
    {
        "Postcode": "17000",
        "Location": "Jeram Perdah",
        "Post_Office": "Pasir Mas",
        "State": "Kelantan"
    },
    {
        "Postcode": "17000",
        "Location": "Kampung Aksa",
        "Post_Office": "Pasir Mas",
        "State": "Kelantan"
    },
    {
        "Postcode": "17000",
        "Location": "Kampung Apam",
        "Post_Office": "Pasir Mas",
        "State": "Kelantan"
    },
    {
        "Postcode": "17000",
        "Location": "Kampung Aur China",
        "Post_Office": "Pasir Mas",
        "State": "Kelantan"
    },
    {
        "Postcode": "17000",
        "Location": "Kampung Awak Keranji",
        "Post_Office": "Pasir Mas",
        "State": "Kelantan"
    },
    {
        "Postcode": "17000",
        "Location": "Kampung Bakong Besar",
        "Post_Office": "Pasir Mas",
        "State": "Kelantan"
    },
    {
        "Postcode": "17000",
        "Location": "Kampung Bakong Kechil",
        "Post_Office": "Pasir Mas",
        "State": "Kelantan"
    },
    {
        "Postcode": "17000",
        "Location": "Kampung Banggol Ara",
        "Post_Office": "Pasir Mas",
        "State": "Kelantan"
    },
    {
        "Postcode": "17000",
        "Location": "Kampung Banggol Che Dol",
        "Post_Office": "Pasir Mas",
        "State": "Kelantan"
    },
    {
        "Postcode": "17000",
        "Location": "Kampung Banggol Chicha",
        "Post_Office": "Pasir Mas",
        "State": "Kelantan"
    },
    {
        "Postcode": "17000",
        "Location": "Kampung Banggol Kong",
        "Post_Office": "Pasir Mas",
        "State": "Kelantan"
    },
    {
        "Postcode": "17000",
        "Location": "Kampung Banggol Manak",
        "Post_Office": "Pasir Mas",
        "State": "Kelantan"
    },
    {
        "Postcode": "17000",
        "Location": "Kampung Banggol Manok",
        "Post_Office": "Pasir Mas",
        "State": "Kelantan"
    },
    {
        "Postcode": "17000",
        "Location": "Kampung Banggol Menering",
        "Post_Office": "Pasir Mas",
        "State": "Kelantan"
    },
    {
        "Postcode": "17000",
        "Location": "Kampung Banggol Nyior",
        "Post_Office": "Pasir Mas",
        "State": "Kelantan"
    },
    {
        "Postcode": "17000",
        "Location": "Kampung Banggol Petaling",
        "Post_Office": "Pasir Mas",
        "State": "Kelantan"
    },
    {
        "Postcode": "17000",
        "Location": "Kampung Banggol Tempoyak",
        "Post_Office": "Pasir Mas",
        "State": "Kelantan"
    },
    {
        "Postcode": "17000",
        "Location": "Kampung Baru Belakang So",
        "Post_Office": "Pasir Mas",
        "State": "Kelantan"
    },
    {
        "Postcode": "17000",
        "Location": "Kampung Baru Pak Hussin",
        "Post_Office": "Pasir Mas",
        "State": "Kelantan"
    },
    {
        "Postcode": "17000",
        "Location": "Kampung Baru Pasir Mas",
        "Post_Office": "Pasir Mas",
        "State": "Kelantan"
    },
    {
        "Postcode": "17000",
        "Location": "Kampung Batal",
        "Post_Office": "Pasir Mas",
        "State": "Kelantan"
    },
    {
        "Postcode": "17000",
        "Location": "Kampung Bayu Lalang",
        "Post_Office": "Pasir Mas",
        "State": "Kelantan"
    },
    {
        "Postcode": "17000",
        "Location": "Kampung Bechah Menerong",
        "Post_Office": "Pasir Mas",
        "State": "Kelantan"
    },
    {
        "Postcode": "17000",
        "Location": "Kampung Bendang Pauh",
        "Post_Office": "Pasir Mas",
        "State": "Kelantan"
    },
    {
        "Postcode": "17000",
        "Location": "Kampung Berangan Apam",
        "Post_Office": "Pasir Mas",
        "State": "Kelantan"
    },
    {
        "Postcode": "17000",
        "Location": "Kampung Biat",
        "Post_Office": "Pasir Mas",
        "State": "Kelantan"
    },
    {
        "Postcode": "17000",
        "Location": "Kampung Binjal",
        "Post_Office": "Pasir Mas",
        "State": "Kelantan"
    },
    {
        "Postcode": "17000",
        "Location": "Kampung Bongor",
        "Post_Office": "Pasir Mas",
        "State": "Kelantan"
    },
    {
        "Postcode": "17000",
        "Location": "Kampung Bukit Lata",
        "Post_Office": "Pasir Mas",
        "State": "Kelantan"
    },
    {
        "Postcode": "17000",
        "Location": "Kampung Che Mat Ali",
        "Post_Office": "Pasir Mas",
        "State": "Kelantan"
    },
    {
        "Postcode": "17000",
        "Location": "Kampung Chenerai",
        "Post_Office": "Pasir Mas",
        "State": "Kelantan"
    },
    {
        "Postcode": "17000",
        "Location": "Kampung Chicha Tinggi",
        "Post_Office": "Pasir Mas",
        "State": "Kelantan"
    },
    {
        "Postcode": "17000",
        "Location": "Kampung Dangar (Pasir Mas)",
        "Post_Office": "Pasir Mas",
        "State": "Kelantan"
    },
    {
        "Postcode": "17000",
        "Location": "Kampung Endong",
        "Post_Office": "Pasir Mas",
        "State": "Kelantan"
    },
    {
        "Postcode": "17000",
        "Location": "Kampung Gading",
        "Post_Office": "Pasir Mas",
        "State": "Kelantan"
    },
    {
        "Postcode": "17000",
        "Location": "Kampung Gadong",
        "Post_Office": "Pasir Mas",
        "State": "Kelantan"
    },
    {
        "Postcode": "17000",
        "Location": "Kampung Gaung",
        "Post_Office": "Pasir Mas",
        "State": "Kelantan"
    },
    {
        "Postcode": "17000",
        "Location": "Kampung Gebeng",
        "Post_Office": "Pasir Mas",
        "State": "Kelantan"
    },
    {
        "Postcode": "17000",
        "Location": "Kampung Jakar (Pasir Mas)",
        "Post_Office": "Pasir Mas",
        "State": "Kelantan"
    },
    {
        "Postcode": "17000",
        "Location": "Kampung Jebok Puyoh",
        "Post_Office": "Pasir Mas",
        "State": "Kelantan"
    },
    {
        "Postcode": "17000",
        "Location": "Kampung Jejulok",
        "Post_Office": "Pasir Mas",
        "State": "Kelantan"
    },
    {
        "Postcode": "17000",
        "Location": "Kampung Jerulong",
        "Post_Office": "Pasir Mas",
        "State": "Kelantan"
    },
    {
        "Postcode": "17000",
        "Location": "Kampung Kampung Buloh Melintang",
        "Post_Office": "Pasir Mas",
        "State": "Kelantan"
    },
    {
        "Postcode": "17000",
        "Location": "Kampung Kedai Tanjong",
        "Post_Office": "Pasir Mas",
        "State": "Kelantan"
    },
    {
        "Postcode": "17000",
        "Location": "Kampung Kekabu",
        "Post_Office": "Pasir Mas",
        "State": "Kelantan"
    },
    {
        "Postcode": "17000",
        "Location": "Kampung Kelawar",
        "Post_Office": "Pasir Mas",
        "State": "Kelantan"
    },
    {
        "Postcode": "17000",
        "Location": "Kampung Kepas (Gual Periok)",
        "Post_Office": "Pasir Mas",
        "State": "Kelantan"
    },
    {
        "Postcode": "17000",
        "Location": "Kampung Kiat",
        "Post_Office": "Pasir Mas",
        "State": "Kelantan"
    },
    {
        "Postcode": "17000",
        "Location": "Kampung Kubang Binjai",
        "Post_Office": "Pasir Mas",
        "State": "Kelantan"
    },
    {
        "Postcode": "17000",
        "Location": "Kampung Kubang Bongor",
        "Post_Office": "Pasir Mas",
        "State": "Kelantan"
    },
    {
        "Postcode": "17000",
        "Location": "Kampung Kubang Dapat",
        "Post_Office": "Pasir Mas",
        "State": "Kelantan"
    },
    {
        "Postcode": "17000",
        "Location": "Kampung Kubang Kangkong",
        "Post_Office": "Pasir Mas",
        "State": "Kelantan"
    },
    {
        "Postcode": "17000",
        "Location": "Kampung Kubang Keroh",
        "Post_Office": "Pasir Mas",
        "State": "Kelantan"
    },
    {
        "Postcode": "17000",
        "Location": "Kampung Kubang Nyamok",
        "Post_Office": "Pasir Mas",
        "State": "Kelantan"
    },
    {
        "Postcode": "17000",
        "Location": "Kampung Kubang Nyior",
        "Post_Office": "Pasir Mas",
        "State": "Kelantan"
    },
    {
        "Postcode": "17000",
        "Location": "Kampung Kubang Pandak",
        "Post_Office": "Pasir Mas",
        "State": "Kelantan"
    },
    {
        "Postcode": "17000",
        "Location": "Kampung Kubang Panjang",
        "Post_Office": "Pasir Mas",
        "State": "Kelantan"
    },
    {
        "Postcode": "17000",
        "Location": "Kampung Kubang Terap",
        "Post_Office": "Pasir Mas",
        "State": "Kelantan"
    },
    {
        "Postcode": "17000",
        "Location": "Kampung Lachang",
        "Post_Office": "Pasir Mas",
        "State": "Kelantan"
    },
    {
        "Postcode": "17000",
        "Location": "Kampung Ladang",
        "Post_Office": "Pasir Mas",
        "State": "Kelantan"
    },
    {
        "Postcode": "17000",
        "Location": "Kampung Landar",
        "Post_Office": "Pasir Mas",
        "State": "Kelantan"
    },
    {
        "Postcode": "17000",
        "Location": "Kampung Lati",
        "Post_Office": "Pasir Mas",
        "State": "Kelantan"
    },
    {
        "Postcode": "17000",
        "Location": "Kampung Lebai Akil",
        "Post_Office": "Pasir Mas",
        "State": "Kelantan"
    },
    {
        "Postcode": "17000",
        "Location": "Kampung Lelabi",
        "Post_Office": "Pasir Mas",
        "State": "Kelantan"
    },
    {
        "Postcode": "17000",
        "Location": "Kampung Lemal",
        "Post_Office": "Pasir Mas",
        "State": "Kelantan"
    },
    {
        "Postcode": "17000",
        "Location": "Kampung Liang Belud",
        "Post_Office": "Pasir Mas",
        "State": "Kelantan"
    },
    {
        "Postcode": "17000",
        "Location": "Kampung Lipan",
        "Post_Office": "Pasir Mas",
        "State": "Kelantan"
    },
    {
        "Postcode": "17000",
        "Location": "Kampung Longger",
        "Post_Office": "Pasir Mas",
        "State": "Kelantan"
    },
    {
        "Postcode": "17000",
        "Location": "Kampung Lubok Aching",
        "Post_Office": "Pasir Mas",
        "State": "Kelantan"
    },
    {
        "Postcode": "17000",
        "Location": "Kampung Lubok Chekok",
        "Post_Office": "Pasir Mas",
        "State": "Kelantan"
    },
    {
        "Postcode": "17000",
        "Location": "Kampung Lubok Tapah",
        "Post_Office": "Pasir Mas",
        "State": "Kelantan"
    },
    {
        "Postcode": "17000",
        "Location": "Kampung Lumpur",
        "Post_Office": "Pasir Mas",
        "State": "Kelantan"
    },
    {
        "Postcode": "17000",
        "Location": "Kampung Machang",
        "Post_Office": "Pasir Mas",
        "State": "Kelantan"
    },
    {
        "Postcode": "17000",
        "Location": "Kampung Merbau",
        "Post_Office": "Pasir Mas",
        "State": "Kelantan"
    },
    {
        "Postcode": "17000",
        "Location": "Kampung Padang Tok La",
        "Post_Office": "Pasir Mas",
        "State": "Kelantan"
    },
    {
        "Postcode": "17000",
        "Location": "Kampung Pak Jak",
        "Post_Office": "Pasir Mas",
        "State": "Kelantan"
    },
    {
        "Postcode": "17000",
        "Location": "Kampung Pak Sek",
        "Post_Office": "Pasir Mas",
        "State": "Kelantan"
    },
    {
        "Postcode": "17000",
        "Location": "Kampung Paloh",
        "Post_Office": "Pasir Mas",
        "State": "Kelantan"
    },
    {
        "Postcode": "17000",
        "Location": "Kampung Pengkalan Batu",
        "Post_Office": "Pasir Mas",
        "State": "Kelantan"
    },
    {
        "Postcode": "17000",
        "Location": "Kampung Pengkalan Pasir",
        "Post_Office": "Pasir Mas",
        "State": "Kelantan"
    },
    {
        "Postcode": "17000",
        "Location": "Kampung Perah",
        "Post_Office": "Pasir Mas",
        "State": "Kelantan"
    },
    {
        "Postcode": "17000",
        "Location": "Kampung Pohon Chelagi",
        "Post_Office": "Pasir Mas",
        "State": "Kelantan"
    },
    {
        "Postcode": "17000",
        "Location": "Kampung Pohon Tanjong",
        "Post_Office": "Pasir Mas",
        "State": "Kelantan"
    },
    {
        "Postcode": "17000",
        "Location": "Kampung Pondok Siam",
        "Post_Office": "Pasir Mas",
        "State": "Kelantan"
    },
    {
        "Postcode": "17000",
        "Location": "Kampung Sapi",
        "Post_Office": "Pasir Mas",
        "State": "Kelantan"
    },
    {
        "Postcode": "17000",
        "Location": "Kampung Sedong",
        "Post_Office": "Pasir Mas",
        "State": "Kelantan"
    },
    {
        "Postcode": "17000",
        "Location": "Kampung Seluang",
        "Post_Office": "Pasir Mas",
        "State": "Kelantan"
    },
    {
        "Postcode": "17000",
        "Location": "Kampung Sentosa",
        "Post_Office": "Pasir Mas",
        "State": "Kelantan"
    },
    {
        "Postcode": "17000",
        "Location": "Kampung Serdang",
        "Post_Office": "Pasir Mas",
        "State": "Kelantan"
    },
    {
        "Postcode": "17000",
        "Location": "Kampung Serdang Bayu Lalang",
        "Post_Office": "Pasir Mas",
        "State": "Kelantan"
    },
    {
        "Postcode": "17000",
        "Location": "Kampung Serdang Chicha Tinggi",
        "Post_Office": "Pasir Mas",
        "State": "Kelantan"
    },
    {
        "Postcode": "17000",
        "Location": "Kampung Serdang Tendong",
        "Post_Office": "Pasir Mas",
        "State": "Kelantan"
    },
    {
        "Postcode": "17000",
        "Location": "Kampung Siram Kechil",
        "Post_Office": "Pasir Mas",
        "State": "Kelantan"
    },
    {
        "Postcode": "17000",
        "Location": "Kampung Slow Machang",
        "Post_Office": "Pasir Mas",
        "State": "Kelantan"
    },
    {
        "Postcode": "17000",
        "Location": "Kampung Tanjong Chenok",
        "Post_Office": "Pasir Mas",
        "State": "Kelantan"
    },
    {
        "Postcode": "17000",
        "Location": "Kampung Teja",
        "Post_Office": "Pasir Mas",
        "State": "Kelantan"
    },
    {
        "Postcode": "17000",
        "Location": "Kampung Temenggong",
        "Post_Office": "Pasir Mas",
        "State": "Kelantan"
    },
    {
        "Postcode": "17000",
        "Location": "Kampung Terbang",
        "Post_Office": "Pasir Mas",
        "State": "Kelantan"
    },
    {
        "Postcode": "17000",
        "Location": "Kampung Terumbu",
        "Post_Office": "Pasir Mas",
        "State": "Kelantan"
    },
    {
        "Postcode": "17000",
        "Location": "Kampung Terumbu Hulu",
        "Post_Office": "Pasir Mas",
        "State": "Kelantan"
    },
    {
        "Postcode": "17000",
        "Location": "Kampung Tong",
        "Post_Office": "Pasir Mas",
        "State": "Kelantan"
    },
    {
        "Postcode": "17000",
        "Location": "Kampung Tukang Deraman",
        "Post_Office": "Pasir Mas",
        "State": "Kelantan"
    },
    {
        "Postcode": "17000",
        "Location": "Kangkong",
        "Post_Office": "Pasir Mas",
        "State": "Kelantan"
    },
    {
        "Postcode": "17000",
        "Location": "Kedai Tanjong",
        "Post_Office": "Pasir Mas",
        "State": "Kelantan"
    },
    {
        "Postcode": "17000",
        "Location": "Kepas Apam",
        "Post_Office": "Pasir Mas",
        "State": "Kelantan"
    },
    {
        "Postcode": "17000",
        "Location": "Kubang Belut",
        "Post_Office": "Pasir Mas",
        "State": "Kelantan"
    },
    {
        "Postcode": "17000",
        "Location": "Kubang Gadong",
        "Post_Office": "Pasir Mas",
        "State": "Kelantan"
    },
    {
        "Postcode": "17000",
        "Location": "Kubang Gatal",
        "Post_Office": "Pasir Mas",
        "State": "Kelantan"
    },
    {
        "Postcode": "17000",
        "Location": "Kubang Kura",
        "Post_Office": "Pasir Mas",
        "State": "Kelantan"
    },
    {
        "Postcode": "17000",
        "Location": "Kubang Panjang Lemal",
        "Post_Office": "Pasir Mas",
        "State": "Kelantan"
    },
    {
        "Postcode": "17000",
        "Location": "Kubang Terap",
        "Post_Office": "Pasir Mas",
        "State": "Kelantan"
    },
    {
        "Postcode": "17000",
        "Location": "Lati",
        "Post_Office": "Pasir Mas",
        "State": "Kelantan"
    },
    {
        "Postcode": "17000",
        "Location": "Lebai Akil",
        "Post_Office": "Pasir Mas",
        "State": "Kelantan"
    },
    {
        "Postcode": "17000",
        "Location": "Lubok Aching",
        "Post_Office": "Pasir Mas",
        "State": "Kelantan"
    },
    {
        "Postcode": "17000",
        "Location": "Lubok Jambu",
        "Post_Office": "Pasir Mas",
        "State": "Kelantan"
    },
    {
        "Postcode": "17000",
        "Location": "Lubok Kawah",
        "Post_Office": "Pasir Mas",
        "State": "Kelantan"
    },
    {
        "Postcode": "17000",
        "Location": "Padang Jelapang",
        "Post_Office": "Pasir Mas",
        "State": "Kelantan"
    },
    {
        "Postcode": "17000",
        "Location": "Paloh",
        "Post_Office": "Pasir Mas",
        "State": "Kelantan"
    },
    {
        "Postcode": "17000",
        "Location": "Pangkal Gerap",
        "Post_Office": "Pasir Mas",
        "State": "Kelantan"
    },
    {
        "Postcode": "17000",
        "Location": "Pasir Mas",
        "Post_Office": "Pasir Mas",
        "State": "Kelantan"
    },
    {
        "Postcode": "17000",
        "Location": "Pohon Tanjong",
        "Post_Office": "Pasir Mas",
        "State": "Kelantan"
    },
    {
        "Postcode": "17000",
        "Location": "Pondok Kampung Dangar",
        "Post_Office": "Pasir Mas",
        "State": "Kelantan"
    },
    {
        "Postcode": "17000",
        "Location": "Pondok Lati",
        "Post_Office": "Pasir Mas",
        "State": "Kelantan"
    },
    {
        "Postcode": "17000",
        "Location": "Pondok Lubuk Tapah",
        "Post_Office": "Pasir Mas",
        "State": "Kelantan"
    },
    {
        "Postcode": "17000",
        "Location": "Pulai",
        "Post_Office": "Pasir Mas",
        "State": "Kelantan"
    },
    {
        "Postcode": "17000",
        "Location": "Siram",
        "Post_Office": "Pasir Mas",
        "State": "Kelantan"
    },
    {
        "Postcode": "17000",
        "Location": "Slow Machang",
        "Post_Office": "Pasir Mas",
        "State": "Kelantan"
    },
    {
        "Postcode": "17000",
        "Location": "Taman Adabi",
        "Post_Office": "Pasir Mas",
        "State": "Kelantan"
    },
    {
        "Postcode": "17000",
        "Location": "Taman Bumi Emas",
        "Post_Office": "Pasir Mas",
        "State": "Kelantan"
    },
    {
        "Postcode": "17000",
        "Location": "Taman Bunga Emas Jaya",
        "Post_Office": "Pasir Mas",
        "State": "Kelantan"
    },
    {
        "Postcode": "17000",
        "Location": "Taman Haslinda",
        "Post_Office": "Pasir Mas",
        "State": "Kelantan"
    },
    {
        "Postcode": "17000",
        "Location": "Taman Huda",
        "Post_Office": "Pasir Mas",
        "State": "Kelantan"
    },
    {
        "Postcode": "17000",
        "Location": "Taman Impiana",
        "Post_Office": "Pasir Mas",
        "State": "Kelantan"
    },
    {
        "Postcode": "17000",
        "Location": "Taman Kenerak Jaya",
        "Post_Office": "Pasir Mas",
        "State": "Kelantan"
    },
    {
        "Postcode": "17000",
        "Location": "Taman Lati",
        "Post_Office": "Pasir Mas",
        "State": "Kelantan"
    },
    {
        "Postcode": "17000",
        "Location": "Taman Lati Murni",
        "Post_Office": "Pasir Mas",
        "State": "Kelantan"
    },
    {
        "Postcode": "17000",
        "Location": "Taman Muhibah ",
        "Post_Office": "Pasir Mas",
        "State": "Kelantan"
    },
    {
        "Postcode": "17000",
        "Location": "Taman Munira",
        "Post_Office": "Pasir Mas",
        "State": "Kelantan"
    },
    {
        "Postcode": "17000",
        "Location": "Taman Seri Endong",
        "Post_Office": "Pasir Mas",
        "State": "Kelantan"
    },
    {
        "Postcode": "17000",
        "Location": "Taman Seri Jias",
        "Post_Office": "Pasir Mas",
        "State": "Kelantan"
    },
    {
        "Postcode": "17000",
        "Location": "Taman Seri Teja",
        "Post_Office": "Pasir Mas",
        "State": "Kelantan"
    },
    {
        "Postcode": "17000",
        "Location": "Tanjung Rendang",
        "Post_Office": "Pasir Mas",
        "State": "Kelantan"
    },
    {
        "Postcode": "17000",
        "Location": "Tasek Raja",
        "Post_Office": "Pasir Mas",
        "State": "Kelantan"
    },
    {
        "Postcode": "17000",
        "Location": "Teratak Hulu",
        "Post_Office": "Pasir Mas",
        "State": "Kelantan"
    },
    {
        "Postcode": "17000",
        "Location": "Terusan",
        "Post_Office": "Pasir Mas",
        "State": "Kelantan"
    },
    {
        "Postcode": "17000",
        "Location": "Kampung Bakong",
        "Post_Office": "Pasir Mas",
        "State": "Kelantan"
    },
    {
        "Postcode": "17000",
        "Location": "Kampung Banggol Jering",
        "Post_Office": "Pasir Mas",
        "State": "Kelantan"
    },
    {
        "Postcode": "17000",
        "Location": "Kampung Banggol Kemian",
        "Post_Office": "Pasir Mas",
        "State": "Kelantan"
    },
    {
        "Postcode": "17000",
        "Location": "Kampung Chenok",
        "Post_Office": "Pasir Mas",
        "State": "Kelantan"
    },
    {
        "Postcode": "17000",
        "Location": "Kampung Jias",
        "Post_Office": "Pasir Mas",
        "State": "Kelantan"
    },
    {
        "Postcode": "17000",
        "Location": "Kampung Kubang Bemban",
        "Post_Office": "Pasir Mas",
        "State": "Kelantan"
    },
    {
        "Postcode": "17000",
        "Location": "Kampung Kubang Gatal",
        "Post_Office": "Pasir Mas",
        "State": "Kelantan"
    },
    {
        "Postcode": "17000",
        "Location": "Kampung Pulai",
        "Post_Office": "Pasir Mas",
        "State": "Kelantan"
    },
    {
        "Postcode": "17000",
        "Location": "Taman Melati",
        "Post_Office": "Pasir Mas",
        "State": "Kelantan"
    },
    {
        "Postcode": "17000",
        "Location": "Alor Pasir",
        "Post_Office": "Pasir Mas",
        "State": "Kelantan"
    },
    {
        "Postcode": "17000",
        "Location": "Kampung Baloh Raja",
        "Post_Office": "Pasir Mas",
        "State": "Kelantan"
    },
    {
        "Postcode": "17000",
        "Location": "Kampung Banggol",
        "Post_Office": "Pasir Mas",
        "State": "Kelantan"
    },
    {
        "Postcode": "17000",
        "Location": "Kampung Belukar Tua",
        "Post_Office": "Pasir Mas",
        "State": "Kelantan"
    },
    {
        "Postcode": "17000",
        "Location": "Kampung Berangan",
        "Post_Office": "Pasir Mas",
        "State": "Kelantan"
    },
    {
        "Postcode": "17000",
        "Location": "Kampung Gajah Mati",
        "Post_Office": "Pasir Mas",
        "State": "Kelantan"
    },
    {
        "Postcode": "17000",
        "Location": "Kampung Kubang Badak",
        "Post_Office": "Pasir Mas",
        "State": "Kelantan"
    },
    {
        "Postcode": "17000",
        "Location": "Kampung Kubang Bunut",
        "Post_Office": "Pasir Mas",
        "State": "Kelantan"
    },
    {
        "Postcode": "17000",
        "Location": "Kampung Lalang",
        "Post_Office": "Pasir Mas",
        "State": "Kelantan"
    },
    {
        "Postcode": "17000",
        "Location": "Kampung Nibong",
        "Post_Office": "Pasir Mas",
        "State": "Kelantan"
    },
    {
        "Postcode": "17000",
        "Location": "Kampung Pauh",
        "Post_Office": "Pasir Mas",
        "State": "Kelantan"
    },
    {
        "Postcode": "17000",
        "Location": "Kampung Raja",
        "Post_Office": "Pasir Mas",
        "State": "Kelantan"
    },
    {
        "Postcode": "17000",
        "Location": "Kampung Tanjong",
        "Post_Office": "Pasir Mas",
        "State": "Kelantan"
    },
    {
        "Postcode": "17000",
        "Location": "Taman Al Makmur",
        "Post_Office": "Pasir Mas",
        "State": "Kelantan"
    },
    {
        "Postcode": "17000",
        "Location": "Taman Seri Pauh",
        "Post_Office": "Pasir Mas",
        "State": "Kelantan"
    }
]
