[
    {
        "Postcode": "17010",
        "Location": "Alor Buloh",
        "Post_Office": "Pasir Mas",
        "State": "Kelantan"
    },
    {
        "Postcode": "17010",
        "Location": "Kampung Alor Mengkuang",
        "Post_Office": "Pasir Mas",
        "State": "Kelantan"
    },
    {
        "Postcode": "17010",
        "Location": "Kampung Banggol Buaya",
        "Post_Office": "Pasir Mas",
        "State": "Kelantan"
    },
    {
        "Postcode": "17010",
        "Location": "Kampung Banggol Che Musa",
        "Post_Office": "Pasir Mas",
        "State": "Kelantan"
    },
    {
        "Postcode": "17010",
        "Location": "Kampung Banggol Che Wan",
        "Post_Office": "Pasir Mas",
        "State": "Kelantan"
    },
    {
        "Postcode": "17010",
        "Location": "Kampung Banggol Kemudu",
        "Post_Office": "Pasir Mas",
        "State": "Kelantan"
    },
    {
        "Postcode": "17010",
        "Location": "Kampung Banggol Nangka",
        "Post_Office": "Pasir Mas",
        "State": "Kelantan"
    },
    {
        "Postcode": "17010",
        "Location": "Kampung Banggol Neing",
        "Post_Office": "Pasir Mas",
        "State": "Kelantan"
    },
    {
        "Postcode": "17010",
        "Location": "Kampung Banggol Nering",
        "Post_Office": "Pasir Mas",
        "State": "Kelantan"
    },
    {
        "Postcode": "17010",
        "Location": "Kampung Banggol Pak Aloh",
        "Post_Office": "Pasir Mas",
        "State": "Kelantan"
    },
    {
        "Postcode": "17010",
        "Location": "Kampung Banggol Sepuleh",
        "Post_Office": "Pasir Mas",
        "State": "Kelantan"
    },
    {
        "Postcode": "17010",
        "Location": "Kampung Banggol Sipol",
        "Post_Office": "Pasir Mas",
        "State": "Kelantan"
    },
    {
        "Postcode": "17010",
        "Location": "Kampung Beta",
        "Post_Office": "Pasir Mas",
        "State": "Kelantan"
    },
    {
        "Postcode": "17010",
        "Location": "Kampung Bonggol Nangka",
        "Post_Office": "Pasir Mas",
        "State": "Kelantan"
    },
    {
        "Postcode": "17010",
        "Location": "Kampung Chat Kubor",
        "Post_Office": "Pasir Mas",
        "State": "Kelantan"
    },
    {
        "Postcode": "17010",
        "Location": "Kampung Dalam Parit",
        "Post_Office": "Pasir Mas",
        "State": "Kelantan"
    },
    {
        "Postcode": "17010",
        "Location": "Kampung Jenereh",
        "Post_Office": "Pasir Mas",
        "State": "Kelantan"
    },
    {
        "Postcode": "17010",
        "Location": "Kampung Kalor",
        "Post_Office": "Pasir Mas",
        "State": "Kelantan"
    },
    {
        "Postcode": "17010",
        "Location": "Kampung Kanchil",
        "Post_Office": "Pasir Mas",
        "State": "Kelantan"
    },
    {
        "Postcode": "17010",
        "Location": "Kampung Kedongong",
        "Post_Office": "Pasir Mas",
        "State": "Kelantan"
    },
    {
        "Postcode": "17010",
        "Location": "Kampung Kubang Hakim",
        "Post_Office": "Pasir Mas",
        "State": "Kelantan"
    },
    {
        "Postcode": "17010",
        "Location": "Kampung Kubang Pak Hitam",
        "Post_Office": "Pasir Mas",
        "State": "Kelantan"
    },
    {
        "Postcode": "17010",
        "Location": "Kampung Kubang Tebakang",
        "Post_Office": "Pasir Mas",
        "State": "Kelantan"
    },
    {
        "Postcode": "17010",
        "Location": "Kampung Macang Gochah",
        "Post_Office": "Pasir Mas",
        "State": "Kelantan"
    },
    {
        "Postcode": "17010",
        "Location": "Kampung Makribi",
        "Post_Office": "Pasir Mas",
        "State": "Kelantan"
    },
    {
        "Postcode": "17010",
        "Location": "Kampung Mat Lajim",
        "Post_Office": "Pasir Mas",
        "State": "Kelantan"
    },
    {
        "Postcode": "17010",
        "Location": "Kampung Meranti Kanchil",
        "Post_Office": "Pasir Mas",
        "State": "Kelantan"
    },
    {
        "Postcode": "17010",
        "Location": "Kampung Pak Jitan",
        "Post_Office": "Pasir Mas",
        "State": "Kelantan"
    },
    {
        "Postcode": "17010",
        "Location": "Kampung Pangkal Danan",
        "Post_Office": "Pasir Mas",
        "State": "Kelantan"
    },
    {
        "Postcode": "17010",
        "Location": "Kampung Perol Raja",
        "Post_Office": "Pasir Mas",
        "State": "Kelantan"
    },
    {
        "Postcode": "17010",
        "Location": "Kampung Pohon Buloh",
        "Post_Office": "Pasir Mas",
        "State": "Kelantan"
    },
    {
        "Postcode": "17010",
        "Location": "Kampung Pohon Guchil",
        "Post_Office": "Pasir Mas",
        "State": "Kelantan"
    },
    {
        "Postcode": "17010",
        "Location": "Kampung Senor",
        "Post_Office": "Pasir Mas",
        "State": "Kelantan"
    },
    {
        "Postcode": "17010",
        "Location": "Kampung Siput",
        "Post_Office": "Pasir Mas",
        "State": "Kelantan"
    },
    {
        "Postcode": "17010",
        "Location": "Kampung Tok Abu",
        "Post_Office": "Pasir Mas",
        "State": "Kelantan"
    },
    {
        "Postcode": "17010",
        "Location": "Kampung Tok Rusa",
        "Post_Office": "Pasir Mas",
        "State": "Kelantan"
    },
    {
        "Postcode": "17010",
        "Location": "Kampung Chap",
        "Post_Office": "Pasir Mas",
        "State": "Kelantan"
    },
    {
        "Postcode": "17010",
        "Location": "Kampung Kubang Batang",
        "Post_Office": "Pasir Mas",
        "State": "Kelantan"
    },
    {
        "Postcode": "17010",
        "Location": "Kampung Cherang",
        "Post_Office": "Pasir Mas",
        "State": "Kelantan"
    },
    {
        "Postcode": "17010",
        "Location": "Kampung Limbat",
        "Post_Office": "Pasir Mas",
        "State": "Kelantan"
    },
    {
        "Postcode": "17010",
        "Location": "Kampung Meranti",
        "Post_Office": "Pasir Mas",
        "State": "Kelantan"
    },
    {
        "Postcode": "17010",
        "Location": "Kampung Perol",
        "Post_Office": "Pasir Mas",
        "State": "Kelantan"
    },
    {
        "Postcode": "17010",
        "Location": "Kampung Perupok",
        "Post_Office": "Pasir Mas",
        "State": "Kelantan"
    }
]
