[
    {
        "Postcode": "17020",
        "Location": "Alor Pinggang",
        "Post_Office": "Pasir Mas",
        "State": "Kelantan"
    },
    {
        "Postcode": "17020",
        "Location": "Hutan Chengal Hulu",
        "Post_Office": "Pasir Mas",
        "State": "Kelantan"
    },
    {
        "Postcode": "17020",
        "Location": "Jalan Haji Ahmad",
        "Post_Office": "Pasir Mas",
        "State": "Kelantan"
    },
    {
        "Postcode": "17020",
        "Location": "Jalan Perangkap Dalam",
        "Post_Office": "Pasir Mas",
        "State": "Kelantan"
    },
    {
        "Postcode": "17020",
        "Location": "Jalan Slow Machang",
        "Post_Office": "Pasir Mas",
        "State": "Kelantan"
    },
    {
        "Postcode": "17020",
        "Location": "Kampung Anak Keranji",
        "Post_Office": "Pasir Mas",
        "State": "Kelantan"
    },
    {
        "Postcode": "17020",
        "Location": "Kampung Apa-Apa",
        "Post_Office": "Pasir Mas",
        "State": "Kelantan"
    },
    {
        "Postcode": "17020",
        "Location": "Kampung Bechah Durian",
        "Post_Office": "Pasir Mas",
        "State": "Kelantan"
    },
    {
        "Postcode": "17020",
        "Location": "Kampung Bechah Hilir",
        "Post_Office": "Pasir Mas",
        "State": "Kelantan"
    },
    {
        "Postcode": "17020",
        "Location": "Kampung Bechah Landak",
        "Post_Office": "Pasir Mas",
        "State": "Kelantan"
    },
    {
        "Postcode": "17020",
        "Location": "Kampung Bechah Semak",
        "Post_Office": "Pasir Mas",
        "State": "Kelantan"
    },
    {
        "Postcode": "17020",
        "Location": "Kampung Binjai",
        "Post_Office": "Pasir Mas",
        "State": "Kelantan"
    },
    {
        "Postcode": "17020",
        "Location": "Kampung Binjal Manis",
        "Post_Office": "Pasir Mas",
        "State": "Kelantan"
    },
    {
        "Postcode": "17020",
        "Location": "Kampung Cherang Tok Rong",
        "Post_Office": "Pasir Mas",
        "State": "Kelantan"
    },
    {
        "Postcode": "17020",
        "Location": "Kampung Dalam Pator",
        "Post_Office": "Pasir Mas",
        "State": "Kelantan"
    },
    {
        "Postcode": "17020",
        "Location": "Kampung Jalah",
        "Post_Office": "Pasir Mas",
        "State": "Kelantan"
    },
    {
        "Postcode": "17020",
        "Location": "Kampung Jaloh",
        "Post_Office": "Pasir Mas",
        "State": "Kelantan"
    },
    {
        "Postcode": "17020",
        "Location": "Kampung Kayu Tinggi",
        "Post_Office": "Pasir Mas",
        "State": "Kelantan"
    },
    {
        "Postcode": "17020",
        "Location": "Kampung Kenak Barat",
        "Post_Office": "Pasir Mas",
        "State": "Kelantan"
    },
    {
        "Postcode": "17020",
        "Location": "Kampung Kenak Timur",
        "Post_Office": "Pasir Mas",
        "State": "Kelantan"
    },
    {
        "Postcode": "17020",
        "Location": "Kampung Kiat (Benut Susu)",
        "Post_Office": "Pasir Mas",
        "State": "Kelantan"
    },
    {
        "Postcode": "17020",
        "Location": "Kampung Konchang",
        "Post_Office": "Pasir Mas",
        "State": "Kelantan"
    },
    {
        "Postcode": "17020",
        "Location": "Kampung Kubang Chuali",
        "Post_Office": "Pasir Mas",
        "State": "Kelantan"
    },
    {
        "Postcode": "17020",
        "Location": "Kampung Manan",
        "Post_Office": "Pasir Mas",
        "State": "Kelantan"
    },
    {
        "Postcode": "17020",
        "Location": "Kampung Padang Che Sulaiman",
        "Post_Office": "Pasir Mas",
        "State": "Kelantan"
    },
    {
        "Postcode": "17020",
        "Location": "Kampung Padang Embon",
        "Post_Office": "Pasir Mas",
        "State": "Kelantan"
    },
    {
        "Postcode": "17020",
        "Location": "Kampung Pangkal Kala",
        "Post_Office": "Pasir Mas",
        "State": "Kelantan"
    },
    {
        "Postcode": "17020",
        "Location": "Kampung Paya Ular",
        "Post_Office": "Pasir Mas",
        "State": "Kelantan"
    },
    {
        "Postcode": "17020",
        "Location": "Kampung Pechah Durian",
        "Post_Office": "Pasir Mas",
        "State": "Kelantan"
    },
    {
        "Postcode": "17020",
        "Location": "Kampung Penggu",
        "Post_Office": "Pasir Mas",
        "State": "Kelantan"
    },
    {
        "Postcode": "17020",
        "Location": "Kampung Perangkap",
        "Post_Office": "Pasir Mas",
        "State": "Kelantan"
    },
    {
        "Postcode": "17020",
        "Location": "Kampung Pohon Serai",
        "Post_Office": "Pasir Mas",
        "State": "Kelantan"
    },
    {
        "Postcode": "17020",
        "Location": "Kampung Teliar Tengah",
        "Post_Office": "Pasir Mas",
        "State": "Kelantan"
    },
    {
        "Postcode": "17020",
        "Location": "Kampung Teliar Tua",
        "Post_Office": "Pasir Mas",
        "State": "Kelantan"
    },
    {
        "Postcode": "17020",
        "Location": "Kampung Tempoyak",
        "Post_Office": "Pasir Mas",
        "State": "Kelantan"
    },
    {
        "Postcode": "17020",
        "Location": "Kampung Tok Limin",
        "Post_Office": "Pasir Mas",
        "State": "Kelantan"
    },
    {
        "Postcode": "17020",
        "Location": "Kampung Tok Sidi",
        "Post_Office": "Pasir Mas",
        "State": "Kelantan"
    },
    {
        "Postcode": "17020",
        "Location": "Kampung Bechah Palas",
        "Post_Office": "Pasir Mas",
        "State": "Kelantan"
    },
    {
        "Postcode": "17020",
        "Location": "Kampung Bukit Tanah",
        "Post_Office": "Pasir Mas",
        "State": "Kelantan"
    },
    {
        "Postcode": "17020",
        "Location": "Kampung Bunut Susu",
        "Post_Office": "Pasir Mas",
        "State": "Kelantan"
    },
    {
        "Postcode": "17020",
        "Location": "Kampung Jal Kechik",
        "Post_Office": "Pasir Mas",
        "State": "Kelantan"
    },
    {
        "Postcode": "17020",
        "Location": "Kampung Kerasak",
        "Post_Office": "Pasir Mas",
        "State": "Kelantan"
    },
    {
        "Postcode": "17020",
        "Location": "Kampung Belukar",
        "Post_Office": "Pasir Mas",
        "State": "Kelantan"
    },
    {
        "Postcode": "17020",
        "Location": "Kampung Gelong Gajah",
        "Post_Office": "Pasir Mas",
        "State": "Kelantan"
    },
    {
        "Postcode": "17020",
        "Location": "Kampung Guntong",
        "Post_Office": "Pasir Mas",
        "State": "Kelantan"
    },
    {
        "Postcode": "17020",
        "Location": "Kampung Kulim",
        "Post_Office": "Pasir Mas",
        "State": "Kelantan"
    }
]
