[
    {
        "Postcode": "17030",
        "Location": "Kampung Atas Pinggir",
        "Post_Office": "Pasir Mas",
        "State": "Kelantan"
    },
    {
        "Postcode": "17030",
        "Location": "Kampung Binjal Mok Ta'Ab",
        "Post_Office": "Pasir Mas",
        "State": "Kelantan"
    },
    {
        "Postcode": "17030",
        "Location": "Kampung Chabang Empat Tendong",
        "Post_Office": "Pasir Mas",
        "State": "Kelantan"
    },
    {
        "Postcode": "17030",
        "Location": "Kampung Cherang To' Rong",
        "Post_Office": "Pasir Mas",
        "State": "Kelantan"
    },
    {
        "Postcode": "17030",
        "Location": "Kampung Ekor Pasir (Tendong)",
        "Post_Office": "Pasir Mas",
        "State": "Kelantan"
    },
    {
        "Postcode": "17030",
        "Location": "Kampung Gaung Tendong",
        "Post_Office": "Pasir Mas",
        "State": "Kelantan"
    },
    {
        "Postcode": "17030",
        "Location": "Kampung Gertak Serong",
        "Post_Office": "Pasir Mas",
        "State": "Kelantan"
    },
    {
        "Postcode": "17030",
        "Location": "Kampung Hutan Chengal",
        "Post_Office": "Pasir Mas",
        "State": "Kelantan"
    },
    {
        "Postcode": "17030",
        "Location": "Kampung Hutan Pasir",
        "Post_Office": "Pasir Mas",
        "State": "Kelantan"
    },
    {
        "Postcode": "17030",
        "Location": "Kampung Kubang Pak Amin",
        "Post_Office": "Pasir Mas",
        "State": "Kelantan"
    },
    {
        "Postcode": "17030",
        "Location": "Kampung Kubang Sepat",
        "Post_Office": "Pasir Mas",
        "State": "Kelantan"
    },
    {
        "Postcode": "17030",
        "Location": "Kampung Kundor",
        "Post_Office": "Pasir Mas",
        "State": "Kelantan"
    },
    {
        "Postcode": "17030",
        "Location": "Kampung Padang Embong",
        "Post_Office": "Pasir Mas",
        "State": "Kelantan"
    },
    {
        "Postcode": "17030",
        "Location": "Kampung Resak",
        "Post_Office": "Pasir Mas",
        "State": "Kelantan"
    },
    {
        "Postcode": "17030",
        "Location": "Kampung Sakar",
        "Post_Office": "Pasir Mas",
        "State": "Kelantan"
    },
    {
        "Postcode": "17030",
        "Location": "Kampung Sakar China",
        "Post_Office": "Pasir Mas",
        "State": "Kelantan"
    },
    {
        "Postcode": "17030",
        "Location": "Kampung Sakar Sungai",
        "Post_Office": "Pasir Mas",
        "State": "Kelantan"
    },
    {
        "Postcode": "17030",
        "Location": "Kampung Seri Embon",
        "Post_Office": "Pasir Mas",
        "State": "Kelantan"
    },
    {
        "Postcode": "17030",
        "Location": "Kampung Tal Tujoh",
        "Post_Office": "Pasir Mas",
        "State": "Kelantan"
    },
    {
        "Postcode": "17030",
        "Location": "Kampung Tal Tujoh China",
        "Post_Office": "Pasir Mas",
        "State": "Kelantan"
    },
    {
        "Postcode": "17030",
        "Location": "Kampung Tendong Cina",
        "Post_Office": "Pasir Mas",
        "State": "Kelantan"
    },
    {
        "Postcode": "17030",
        "Location": "Kampung Tendong Tepi Sungai",
        "Post_Office": "Pasir Mas",
        "State": "Kelantan"
    },
    {
        "Postcode": "17030",
        "Location": "Kampung Tok Buak",
        "Post_Office": "Pasir Mas",
        "State": "Kelantan"
    },
    {
        "Postcode": "17030",
        "Location": "Kampung Tualang",
        "Post_Office": "Pasir Mas",
        "State": "Kelantan"
    },
    {
        "Postcode": "17030",
        "Location": "Kampung Wakaf Merah",
        "Post_Office": "Pasir Mas",
        "State": "Kelantan"
    },
    {
        "Postcode": "17030",
        "Location": "Taman Kasar Jaya",
        "Post_Office": "Pasir Mas",
        "State": "Kelantan"
    },
    {
        "Postcode": "17030",
        "Location": "Taman Seri Embon",
        "Post_Office": "Pasir Mas",
        "State": "Kelantan"
    },
    {
        "Postcode": "17030",
        "Location": "Taman Sri Embun",
        "Post_Office": "Pasir Mas",
        "State": "Kelantan"
    },
    {
        "Postcode": "17030",
        "Location": "Kampung Bechah",
        "Post_Office": "Pasir Mas",
        "State": "Kelantan"
    },
    {
        "Postcode": "17030",
        "Location": "Taman Megah Jaya",
        "Post_Office": "Pasir Mas",
        "State": "Kelantan"
    },
    {
        "Postcode": "17030",
        "Location": "Kampung Kubang Mas",
        "Post_Office": "Pasir Mas",
        "State": "Kelantan"
    },
    {
        "Postcode": "17030",
        "Location": "Kampung Kubang Palas",
        "Post_Office": "Pasir Mas",
        "State": "Kelantan"
    },
    {
        "Postcode": "17030",
        "Location": "Taman Sentosa Jaya",
        "Post_Office": "Pasir Mas",
        "State": "Kelantan"
    }
]
