[
    {
        "Postcode": "17040",
        "Location": "Kampung Alor Tualang",
        "Post_Office": "Pasir Mas",
        "State": "Kelantan"
    },
    {
        "Postcode": "17040",
        "Location": "Kampung Bemban Hillir",
        "Post_Office": "Pasir Mas",
        "State": "Kelantan"
    },
    {
        "Postcode": "17040",
        "Location": "Kampung Bendang Pauh (Kangkong)",
        "Post_Office": "Pasir Mas",
        "State": "Kelantan"
    },
    {
        "Postcode": "17040",
        "Location": "Kampung Beting Pauh",
        "Post_Office": "Pasir Mas",
        "State": "Kelantan"
    },
    {
        "Postcode": "17040",
        "Location": "Kampung Buloh Melintang",
        "Post_Office": "Pasir Mas",
        "State": "Kelantan"
    },
    {
        "Postcode": "17040",
        "Location": "Kampung Chabang Empat",
        "Post_Office": "Pasir Mas",
        "State": "Kelantan"
    },
    {
        "Postcode": "17040",
        "Location": "Kampung Chabang Tiga Binjal",
        "Post_Office": "Pasir Mas",
        "State": "Kelantan"
    },
    {
        "Postcode": "17040",
        "Location": "Kampung Chabang Tiga Chetok",
        "Post_Office": "Pasir Mas",
        "State": "Kelantan"
    },
    {
        "Postcode": "17040",
        "Location": "Kampung Chetok Tepi Sungai",
        "Post_Office": "Pasir Mas",
        "State": "Kelantan"
    },
    {
        "Postcode": "17040",
        "Location": "Kampung Ekor Pasir (Kangkong)",
        "Post_Office": "Pasir Mas",
        "State": "Kelantan"
    },
    {
        "Postcode": "17040",
        "Location": "Kampung Kangkong",
        "Post_Office": "Pasir Mas",
        "State": "Kelantan"
    },
    {
        "Postcode": "17040",
        "Location": "Kampung Kelar",
        "Post_Office": "Pasir Mas",
        "State": "Kelantan"
    },
    {
        "Postcode": "17040",
        "Location": "Kampung Kelar Godel",
        "Post_Office": "Pasir Mas",
        "State": "Kelantan"
    },
    {
        "Postcode": "17040",
        "Location": "Kampung Kelar Joha",
        "Post_Office": "Pasir Mas",
        "State": "Kelantan"
    },
    {
        "Postcode": "17040",
        "Location": "Kampung Kelar Tok Pukau",
        "Post_Office": "Pasir Mas",
        "State": "Kelantan"
    },
    {
        "Postcode": "17040",
        "Location": "Kampung Kelar Tok Raja",
        "Post_Office": "Pasir Mas",
        "State": "Kelantan"
    },
    {
        "Postcode": "17040",
        "Location": "Kampung Kenjong",
        "Post_Office": "Pasir Mas",
        "State": "Kelantan"
    },
    {
        "Postcode": "17040",
        "Location": "Kampung Keranji",
        "Post_Office": "Pasir Mas",
        "State": "Kelantan"
    },
    {
        "Postcode": "17040",
        "Location": "Kampung Kuala Kelar",
        "Post_Office": "Pasir Mas",
        "State": "Kelantan"
    },
    {
        "Postcode": "17040",
        "Location": "Kampung Pek Rambutan",
        "Post_Office": "Pasir Mas",
        "State": "Kelantan"
    },
    {
        "Postcode": "17040",
        "Location": "Kampung Perupok (Kangkong)",
        "Post_Office": "Pasir Mas",
        "State": "Kelantan"
    },
    {
        "Postcode": "17040",
        "Location": "Kampung Semubal",
        "Post_Office": "Pasir Mas",
        "State": "Kelantan"
    },
    {
        "Postcode": "17040",
        "Location": "Kampung Tengah (Kangkong)",
        "Post_Office": "Pasir Mas",
        "State": "Kelantan"
    },
    {
        "Postcode": "17040",
        "Location": "Tendong",
        "Post_Office": "Pasir Mas",
        "State": "Kelantan"
    },
    {
        "Postcode": "17040",
        "Location": "Kampung Bemban",
        "Post_Office": "Pasir Mas",
        "State": "Kelantan"
    }
]
