[
    {
        "Postcode": "17050",
        "Location": "Jalan Kolam",
        "Post_Office": "Pasir Mas",
        "State": "Kelantan"
    },
    {
        "Postcode": "17050",
        "Location": "Kampung Alor Pasir",
        "Post_Office": "Pasir Mas",
        "State": "Kelantan"
    },
    {
        "Postcode": "17050",
        "Location": "Kampung Banggol Petai",
        "Post_Office": "Pasir Mas",
        "State": "Kelantan"
    },
    {
        "Postcode": "17050",
        "Location": "Kampung Banggol To' Kassim",
        "Post_Office": "Pasir Mas",
        "State": "Kelantan"
    },
    {
        "Postcode": "17050",
        "Location": "Kampung Baroh Gelam",
        "Post_Office": "Pasir Mas",
        "State": "Kelantan"
    },
    {
        "Postcode": "17050",
        "Location": "Kampung Baroh Kerecut",
        "Post_Office": "Pasir Mas",
        "State": "Kelantan"
    },
    {
        "Postcode": "17050",
        "Location": "Kampung Baroh Pial",
        "Post_Office": "Pasir Mas",
        "State": "Kelantan"
    },
    {
        "Postcode": "17050",
        "Location": "Kampung Bechah Kida",
        "Post_Office": "Pasir Mas",
        "State": "Kelantan"
    },
    {
        "Postcode": "17050",
        "Location": "Kampung Bharu",
        "Post_Office": "Pasir Mas",
        "State": "Kelantan"
    },
    {
        "Postcode": "17050",
        "Location": "Kampung Bujok",
        "Post_Office": "Pasir Mas",
        "State": "Kelantan"
    },
    {
        "Postcode": "17050",
        "Location": "Kampung Bukit Jarum",
        "Post_Office": "Pasir Mas",
        "State": "Kelantan"
    },
    {
        "Postcode": "17050",
        "Location": "Kampung Bukit Perah",
        "Post_Office": "Pasir Mas",
        "State": "Kelantan"
    },
    {
        "Postcode": "17050",
        "Location": "Kampung Bukit Sukai",
        "Post_Office": "Pasir Mas",
        "State": "Kelantan"
    },
    {
        "Postcode": "17050",
        "Location": "Kampung Bukit Tuku",
        "Post_Office": "Pasir Mas",
        "State": "Kelantan"
    },
    {
        "Postcode": "17050",
        "Location": "Kampung Chandan",
        "Post_Office": "Pasir Mas",
        "State": "Kelantan"
    },
    {
        "Postcode": "17050",
        "Location": "Kampung Chasi",
        "Post_Office": "Pasir Mas",
        "State": "Kelantan"
    },
    {
        "Postcode": "17050",
        "Location": "Kampung Dusun Rawa",
        "Post_Office": "Pasir Mas",
        "State": "Kelantan"
    },
    {
        "Postcode": "17050",
        "Location": "Kampung Genor",
        "Post_Office": "Pasir Mas",
        "State": "Kelantan"
    },
    {
        "Postcode": "17050",
        "Location": "Kampung Gok Gong",
        "Post_Office": "Pasir Mas",
        "State": "Kelantan"
    },
    {
        "Postcode": "17050",
        "Location": "Kampung Gong Dayat",
        "Post_Office": "Pasir Mas",
        "State": "Kelantan"
    },
    {
        "Postcode": "17050",
        "Location": "Kampung Gual Ketil",
        "Post_Office": "Pasir Mas",
        "State": "Kelantan"
    },
    {
        "Postcode": "17050",
        "Location": "Kampung Jenereh Tujoh",
        "Post_Office": "Pasir Mas",
        "State": "Kelantan"
    },
    {
        "Postcode": "17050",
        "Location": "Kampung Kual",
        "Post_Office": "Pasir Mas",
        "State": "Kelantan"
    },
    {
        "Postcode": "17050",
        "Location": "Kampung Kubang Agol",
        "Post_Office": "Pasir Mas",
        "State": "Kelantan"
    },
    {
        "Postcode": "17050",
        "Location": "Kampung Kubang Batu",
        "Post_Office": "Pasir Mas",
        "State": "Kelantan"
    },
    {
        "Postcode": "17050",
        "Location": "Kampung Kubang Besar",
        "Post_Office": "Pasir Mas",
        "State": "Kelantan"
    },
    {
        "Postcode": "17050",
        "Location": "Kampung Kubang Chenok",
        "Post_Office": "Pasir Mas",
        "State": "Kelantan"
    },
    {
        "Postcode": "17050",
        "Location": "Kampung Laka",
        "Post_Office": "Pasir Mas",
        "State": "Kelantan"
    },
    {
        "Postcode": "17050",
        "Location": "Kampung Mak Kalok",
        "Post_Office": "Pasir Mas",
        "State": "Kelantan"
    },
    {
        "Postcode": "17050",
        "Location": "Kampung Morkel",
        "Post_Office": "Pasir Mas",
        "State": "Kelantan"
    },
    {
        "Postcode": "17050",
        "Location": "Kampung Nibong Tok Uban",
        "Post_Office": "Pasir Mas",
        "State": "Kelantan"
    },
    {
        "Postcode": "17050",
        "Location": "Kampung Padang Mukum",
        "Post_Office": "Pasir Mas",
        "State": "Kelantan"
    },
    {
        "Postcode": "17050",
        "Location": "Kampung Pak Kelong",
        "Post_Office": "Pasir Mas",
        "State": "Kelantan"
    },
    {
        "Postcode": "17050",
        "Location": "Kampung Pak Mek Nun",
        "Post_Office": "Pasir Mas",
        "State": "Kelantan"
    },
    {
        "Postcode": "17050",
        "Location": "Kampung Pengkalan Machang",
        "Post_Office": "Pasir Mas",
        "State": "Kelantan"
    },
    {
        "Postcode": "17050",
        "Location": "Kampung Petai Dusun",
        "Post_Office": "Pasir Mas",
        "State": "Kelantan"
    },
    {
        "Postcode": "17050",
        "Location": "Kampung Rasal",
        "Post_Office": "Pasir Mas",
        "State": "Kelantan"
    },
    {
        "Postcode": "17050",
        "Location": "Kampung Seberang Datok",
        "Post_Office": "Pasir Mas",
        "State": "Kelantan"
    },
    {
        "Postcode": "17050",
        "Location": "Kampung Sila",
        "Post_Office": "Pasir Mas",
        "State": "Kelantan"
    },
    {
        "Postcode": "17050",
        "Location": "Kampung Sipol",
        "Post_Office": "Pasir Mas",
        "State": "Kelantan"
    },
    {
        "Postcode": "17050",
        "Location": "Kampung Tandak Ulu",
        "Post_Office": "Pasir Mas",
        "State": "Kelantan"
    },
    {
        "Postcode": "17050",
        "Location": "Kampung Tanjong Puteri",
        "Post_Office": "Pasir Mas",
        "State": "Kelantan"
    },
    {
        "Postcode": "17050",
        "Location": "Kampung Tasek Anak Seluang",
        "Post_Office": "Pasir Mas",
        "State": "Kelantan"
    },
    {
        "Postcode": "17050",
        "Location": "Kampung Telok Sawa",
        "Post_Office": "Pasir Mas",
        "State": "Kelantan"
    },
    {
        "Postcode": "17050",
        "Location": "Kampung Tok Dap Besar",
        "Post_Office": "Pasir Mas",
        "State": "Kelantan"
    },
    {
        "Postcode": "17050",
        "Location": "Kampung Tok Dap Kechil",
        "Post_Office": "Pasir Mas",
        "State": "Kelantan"
    },
    {
        "Postcode": "17050",
        "Location": "Kampung Tok Dop Besar",
        "Post_Office": "Pasir Mas",
        "State": "Kelantan"
    },
    {
        "Postcode": "17050",
        "Location": "Kampung Tok Uban",
        "Post_Office": "Pasir Mas",
        "State": "Kelantan"
    },
    {
        "Postcode": "17050",
        "Location": "Tasek Nibong Kolam",
        "Post_Office": "Pasir Mas",
        "State": "Kelantan"
    },
    {
        "Postcode": "17050",
        "Location": "Kampung Gelam",
        "Post_Office": "Pasir Mas",
        "State": "Kelantan"
    },
    {
        "Postcode": "17050",
        "Location": "Kampung Mesa",
        "Post_Office": "Pasir Mas",
        "State": "Kelantan"
    },
    {
        "Postcode": "17050",
        "Location": "Kampung Batu Hampar",
        "Post_Office": "Pasir Mas",
        "State": "Kelantan"
    },
    {
        "Postcode": "17050",
        "Location": "Kampung Bukit Merbau",
        "Post_Office": "Pasir Mas",
        "State": "Kelantan"
    },
    {
        "Postcode": "17050",
        "Location": "Kampung Chat",
        "Post_Office": "Pasir Mas",
        "State": "Kelantan"
    },
    {
        "Postcode": "17050",
        "Location": "Kampung Gabus",
        "Post_Office": "Pasir Mas",
        "State": "Kelantan"
    },
    {
        "Postcode": "17050",
        "Location": "Kampung Kepas",
        "Post_Office": "Pasir Mas",
        "State": "Kelantan"
    },
    {
        "Postcode": "17050",
        "Location": "Kampung Kolam",
        "Post_Office": "Pasir Mas",
        "State": "Kelantan"
    },
    {
        "Postcode": "17050",
        "Location": "Kampung Tegayong",
        "Post_Office": "Pasir Mas",
        "State": "Kelantan"
    }
]
