[
    {
        "Postcode": "17060",
        "Location": "Alor Sinar ",
        "Post_Office": "Pasir Mas",
        "State": "Kelantan"
    },
    {
        "Postcode": "17060",
        "Location": "Kampung Alor Piah",
        "Post_Office": "Pasir Mas",
        "State": "Kelantan"
    },
    {
        "Postcode": "17060",
        "Location": "Kampung Anak Machang",
        "Post_Office": "Pasir Mas",
        "State": "Kelantan"
    },
    {
        "Postcode": "17060",
        "Location": "Kampung Atas Beting",
        "Post_Office": "Pasir Mas",
        "State": "Kelantan"
    },
    {
        "Postcode": "17060",
        "Location": "Kampung Belukar Pasir",
        "Post_Office": "Pasir Mas",
        "State": "Kelantan"
    },
    {
        "Postcode": "17060",
        "Location": "Kampung Chabang Empat Sungai Kelad",
        "Post_Office": "Pasir Mas",
        "State": "Kelantan"
    },
    {
        "Postcode": "17060",
        "Location": "Kampung Galok",
        "Post_Office": "Pasir Mas",
        "State": "Kelantan"
    },
    {
        "Postcode": "17060",
        "Location": "Kampung Gelian",
        "Post_Office": "Pasir Mas",
        "State": "Kelantan"
    },
    {
        "Postcode": "17060",
        "Location": "Kampung Golak",
        "Post_Office": "Pasir Mas",
        "State": "Kelantan"
    },
    {
        "Postcode": "17060",
        "Location": "Kampung Hujong Galok",
        "Post_Office": "Pasir Mas",
        "State": "Kelantan"
    },
    {
        "Postcode": "17060",
        "Location": "Kampung Hutan Mala",
        "Post_Office": "Pasir Mas",
        "State": "Kelantan"
    },
    {
        "Postcode": "17060",
        "Location": "Kampung Hutan Petai",
        "Post_Office": "Pasir Mas",
        "State": "Kelantan"
    },
    {
        "Postcode": "17060",
        "Location": "Kampung Jabo",
        "Post_Office": "Pasir Mas",
        "State": "Kelantan"
    },
    {
        "Postcode": "17060",
        "Location": "Kampung Jabo Hilir",
        "Post_Office": "Pasir Mas",
        "State": "Kelantan"
    },
    {
        "Postcode": "17060",
        "Location": "Kampung Jintan",
        "Post_Office": "Pasir Mas",
        "State": "Kelantan"
    },
    {
        "Postcode": "17060",
        "Location": "Kampung Kedai Chekok",
        "Post_Office": "Pasir Mas",
        "State": "Kelantan"
    },
    {
        "Postcode": "17060",
        "Location": "Kampung Kelar Besar",
        "Post_Office": "Pasir Mas",
        "State": "Kelantan"
    },
    {
        "Postcode": "17060",
        "Location": "Kampung Kepas (Kedaichelok)",
        "Post_Office": "Pasir Mas",
        "State": "Kelantan"
    },
    {
        "Postcode": "17060",
        "Location": "Kampung Kubang Agol (Kedai Chelok)",
        "Post_Office": "Pasir Mas",
        "State": "Kelantan"
    },
    {
        "Postcode": "17060",
        "Location": "Kampung Kubang Gendang",
        "Post_Office": "Pasir Mas",
        "State": "Kelantan"
    },
    {
        "Postcode": "17060",
        "Location": "Kampung Kubang Keli",
        "Post_Office": "Pasir Mas",
        "State": "Kelantan"
    },
    {
        "Postcode": "17060",
        "Location": "Kampung Kubang Tembusu",
        "Post_Office": "Pasir Mas",
        "State": "Kelantan"
    },
    {
        "Postcode": "17060",
        "Location": "Kampung Kuek",
        "Post_Office": "Pasir Mas",
        "State": "Kelantan"
    },
    {
        "Postcode": "17060",
        "Location": "Kampung Padang Hangus",
        "Post_Office": "Pasir Mas",
        "State": "Kelantan"
    },
    {
        "Postcode": "17060",
        "Location": "Kampung Pasir Parit",
        "Post_Office": "Pasir Mas",
        "State": "Kelantan"
    },
    {
        "Postcode": "17060",
        "Location": "Kampung Paya Mengkuang",
        "Post_Office": "Pasir Mas",
        "State": "Kelantan"
    },
    {
        "Postcode": "17060",
        "Location": "Kampung Pohon Gelugor",
        "Post_Office": "Pasir Mas",
        "State": "Kelantan"
    },
    {
        "Postcode": "17060",
        "Location": "Kampung Pondok Jabo",
        "Post_Office": "Pasir Mas",
        "State": "Kelantan"
    },
    {
        "Postcode": "17060",
        "Location": "Kampung Rong Chenok",
        "Post_Office": "Pasir Mas",
        "State": "Kelantan"
    },
    {
        "Postcode": "17060",
        "Location": "Kampung Sungai Baru",
        "Post_Office": "Pasir Mas",
        "State": "Kelantan"
    },
    {
        "Postcode": "17060",
        "Location": "Kampung Sungai Batu",
        "Post_Office": "Pasir Mas",
        "State": "Kelantan"
    },
    {
        "Postcode": "17060",
        "Location": "Kampung Tandak",
        "Post_Office": "Pasir Mas",
        "State": "Kelantan"
    },
    {
        "Postcode": "17060",
        "Location": "Kampung Tengah (Kedai Chelok)",
        "Post_Office": "Pasir Mas",
        "State": "Kelantan"
    },
    {
        "Postcode": "17060",
        "Location": "Kubang Gendang Hilir",
        "Post_Office": "Pasir Mas",
        "State": "Kelantan"
    },
    {
        "Postcode": "17060",
        "Location": "To Uban",
        "Post_Office": "Pasir Mas",
        "State": "Kelantan"
    },
    {
        "Postcode": "17060",
        "Location": "Kampung Serendah",
        "Post_Office": "Pasir Mas",
        "State": "Kelantan"
    },
    {
        "Postcode": "17060",
        "Location": "Kampung Sungai Keladi",
        "Post_Office": "Pasir Mas",
        "State": "Kelantan"
    },
    {
        "Postcode": "17060",
        "Location": "Kampung Bechah Kelubi",
        "Post_Office": "Pasir Mas",
        "State": "Kelantan"
    },
    {
        "Postcode": "17060",
        "Location": "Kampung Jelor",
        "Post_Office": "Pasir Mas",
        "State": "Kelantan"
    },
    {
        "Postcode": "17060",
        "Location": "Kampung Mahligai",
        "Post_Office": "Pasir Mas",
        "State": "Kelantan"
    },
    {
        "Postcode": "17060",
        "Location": "Kampung Pintu Besar",
        "Post_Office": "Pasir Mas",
        "State": "Kelantan"
    }
]
