[
    {
        "Postcode": "17070",
        "Location": "Kampung Alor Jering",
        "Post_Office": "Pasir Mas",
        "State": "Kelantan"
    },
    {
        "Postcode": "17070",
        "Location": "Kampung Alor Lenggak",
        "Post_Office": "Pasir Mas",
        "State": "Kelantan"
    },
    {
        "Postcode": "17070",
        "Location": "Kampung Alor Longgok",
        "Post_Office": "Pasir Mas",
        "State": "Kelantan"
    },
    {
        "Postcode": "17070",
        "Location": "Kampung Alor Selising",
        "Post_Office": "Pasir Mas",
        "State": "Kelantan"
    },
    {
        "Postcode": "17070",
        "Location": "Kampung Banggol Kuin",
        "Post_Office": "Pasir Mas",
        "State": "Kelantan"
    },
    {
        "Postcode": "17070",
        "Location": "Kampung Banggol Tek Eh Put",
        "Post_Office": "Pasir Mas",
        "State": "Kelantan"
    },
    {
        "Postcode": "17070",
        "Location": "Kampung Batu Karang",
        "Post_Office": "Pasir Mas",
        "State": "Kelantan"
    },
    {
        "Postcode": "17070",
        "Location": "Kampung Bukit Buloh Akar",
        "Post_Office": "Pasir Mas",
        "State": "Kelantan"
    },
    {
        "Postcode": "17070",
        "Location": "Kampung Chabang Empat Tok Dara",
        "Post_Office": "Pasir Mas",
        "State": "Kelantan"
    },
    {
        "Postcode": "17070",
        "Location": "Kampung Derpah",
        "Post_Office": "Pasir Mas",
        "State": "Kelantan"
    },
    {
        "Postcode": "17070",
        "Location": "Kampung Gual Kulim",
        "Post_Office": "Pasir Mas",
        "State": "Kelantan"
    },
    {
        "Postcode": "17070",
        "Location": "Kampung Gual Nibong Batu Karang",
        "Post_Office": "Pasir Mas",
        "State": "Kelantan"
    },
    {
        "Postcode": "17070",
        "Location": "Kampung Gual Payong",
        "Post_Office": "Pasir Mas",
        "State": "Kelantan"
    },
    {
        "Postcode": "17070",
        "Location": "Kampung Gual Tok Edan",
        "Post_Office": "Pasir Mas",
        "State": "Kelantan"
    },
    {
        "Postcode": "17070",
        "Location": "Kampung Kenjeng",
        "Post_Office": "Pasir Mas",
        "State": "Kelantan"
    },
    {
        "Postcode": "17070",
        "Location": "Kampung Lubok Batil",
        "Post_Office": "Pasir Mas",
        "State": "Kelantan"
    },
    {
        "Postcode": "17070",
        "Location": "Kampung Lubok Puyu",
        "Post_Office": "Pasir Mas",
        "State": "Kelantan"
    },
    {
        "Postcode": "17070",
        "Location": "Kampung Machang Bubok",
        "Post_Office": "Pasir Mas",
        "State": "Kelantan"
    },
    {
        "Postcode": "17070",
        "Location": "Kampung Mengkirim",
        "Post_Office": "Pasir Mas",
        "State": "Kelantan"
    },
    {
        "Postcode": "17070",
        "Location": "Kampung Pusu 40",
        "Post_Office": "Pasir Mas",
        "State": "Kelantan"
    },
    {
        "Postcode": "17070",
        "Location": "Kampung Repek Ujong",
        "Post_Office": "Pasir Mas",
        "State": "Kelantan"
    },
    {
        "Postcode": "17070",
        "Location": "Kampung Seberang Alor",
        "Post_Office": "Pasir Mas",
        "State": "Kelantan"
    },
    {
        "Postcode": "17070",
        "Location": "Kampung Seberang Alor Repek",
        "Post_Office": "Pasir Mas",
        "State": "Kelantan"
    },
    {
        "Postcode": "17070",
        "Location": "Kampung Seberang Merbau",
        "Post_Office": "Pasir Mas",
        "State": "Kelantan"
    },
    {
        "Postcode": "17070",
        "Location": "Kampung Serai Lima",
        "Post_Office": "Pasir Mas",
        "State": "Kelantan"
    },
    {
        "Postcode": "17070",
        "Location": "Kampung Serungga",
        "Post_Office": "Pasir Mas",
        "State": "Kelantan"
    },
    {
        "Postcode": "17070",
        "Location": "Kampung Taman",
        "Post_Office": "Pasir Mas",
        "State": "Kelantan"
    },
    {
        "Postcode": "17070",
        "Location": "Kampung Tasek Berangan",
        "Post_Office": "Pasir Mas",
        "State": "Kelantan"
    },
    {
        "Postcode": "17070",
        "Location": "Kampung Teresek",
        "Post_Office": "Pasir Mas",
        "State": "Kelantan"
    },
    {
        "Postcode": "17070",
        "Location": "Kampung Tok Derpah",
        "Post_Office": "Pasir Mas",
        "State": "Kelantan"
    },
    {
        "Postcode": "17070",
        "Location": "Kampung Tok Pelandok",
        "Post_Office": "Pasir Mas",
        "State": "Kelantan"
    },
    {
        "Postcode": "17070",
        "Location": "Kampung Tok Sangkut",
        "Post_Office": "Pasir Mas",
        "State": "Kelantan"
    },
    {
        "Postcode": "17070",
        "Location": "Kampung Toping",
        "Post_Office": "Pasir Mas",
        "State": "Kelantan"
    },
    {
        "Postcode": "17070",
        "Location": "Kedai Chekok",
        "Post_Office": "Pasir Mas",
        "State": "Kelantan"
    },
    {
        "Postcode": "17070",
        "Location": "Kampung Cherang Hangus",
        "Post_Office": "Pasir Mas",
        "State": "Kelantan"
    },
    {
        "Postcode": "17070",
        "Location": "Kampung Banggol Setol",
        "Post_Office": "Pasir Mas",
        "State": "Kelantan"
    },
    {
        "Postcode": "17070",
        "Location": "Kampung Baru",
        "Post_Office": "Pasir Mas",
        "State": "Kelantan"
    },
    {
        "Postcode": "17070",
        "Location": "Kampung Jejawi",
        "Post_Office": "Pasir Mas",
        "State": "Kelantan"
    },
    {
        "Postcode": "17070",
        "Location": "Kampung Lubok Nibong",
        "Post_Office": "Pasir Mas",
        "State": "Kelantan"
    },
    {
        "Postcode": "17070",
        "Location": "Kampung Repek",
        "Post_Office": "Pasir Mas",
        "State": "Kelantan"
    }
]
