[
    {
        "Postcode": "17500",
        "Location": "Air Berdang Ipoh",
        "Post_Office": "Tanah Merah",
        "State": "Kelantan"
    },
    {
        "Postcode": "17500",
        "Location": "Air Era Kuala Tiga",
        "Post_Office": "Tanah Merah",
        "State": "Kelantan"
    },
    {
        "Postcode": "17500",
        "Location": "Air Kerilla Ipoh",
        "Post_Office": "Tanah Merah",
        "State": "Kelantan"
    },
    {
        "Postcode": "17500",
        "Location": "Air Laka Batang Merbau",
        "Post_Office": "Tanah Merah",
        "State": "Kelantan"
    },
    {
        "Postcode": "17500",
        "Location": "Ayer Sejok",
        "Post_Office": "Tanah Merah",
        "State": "Kelantan"
    },
    {
        "Postcode": "17500",
        "Location": "Banggol Ketereh",
        "Post_Office": "Tanah Merah",
        "State": "Kelantan"
    },
    {
        "Postcode": "17500",
        "Location": "Banggol Maka",
        "Post_Office": "Tanah Merah",
        "State": "Kelantan"
    },
    {
        "Postcode": "17500",
        "Location": "Banggol Pisang Benggala",
        "Post_Office": "Tanah Merah",
        "State": "Kelantan"
    },
    {
        "Postcode": "17500",
        "Location": "Bangunan Emage Park",
        "Post_Office": "Tanah Merah",
        "State": "Kelantan"
    },
    {
        "Postcode": "17500",
        "Location": "Bangunan Wan Azizah",
        "Post_Office": "Tanah Merah",
        "State": "Kelantan"
    },
    {
        "Postcode": "17500",
        "Location": "Batang Merbau",
        "Post_Office": "Tanah Merah",
        "State": "Kelantan"
    },
    {
        "Postcode": "17500",
        "Location": "Batu 9 Jedok",
        "Post_Office": "Tanah Merah",
        "State": "Kelantan"
    },
    {
        "Postcode": "17500",
        "Location": "Batu Hitam",
        "Post_Office": "Tanah Merah",
        "State": "Kelantan"
    },
    {
        "Postcode": "17500",
        "Location": "Bechah Laut",
        "Post_Office": "Tanah Merah",
        "State": "Kelantan"
    },
    {
        "Postcode": "17500",
        "Location": "Bendang Nyior",
        "Post_Office": "Tanah Merah",
        "State": "Kelantan"
    },
    {
        "Postcode": "17500",
        "Location": "Bukit Batu Kuala Paku",
        "Post_Office": "Tanah Merah",
        "State": "Kelantan"
    },
    {
        "Postcode": "17500",
        "Location": "Bukit Kechik",
        "Post_Office": "Tanah Merah",
        "State": "Kelantan"
    },
    {
        "Postcode": "17500",
        "Location": "Bukit Kuin",
        "Post_Office": "Tanah Merah",
        "State": "Kelantan"
    },
    {
        "Postcode": "17500",
        "Location": "Bukit Langsat Ipoh",
        "Post_Office": "Tanah Merah",
        "State": "Kelantan"
    },
    {
        "Postcode": "17500",
        "Location": "Bukit Mas",
        "Post_Office": "Tanah Merah",
        "State": "Kelantan"
    },
    {
        "Postcode": "17500",
        "Location": "Bukit Panau",
        "Post_Office": "Tanah Merah",
        "State": "Kelantan"
    },
    {
        "Postcode": "17500",
        "Location": "Bukit Patah Ipoh",
        "Post_Office": "Tanah Merah",
        "State": "Kelantan"
    },
    {
        "Postcode": "17500",
        "Location": "Bukit Pauh Ipoh",
        "Post_Office": "Tanah Merah",
        "State": "Kelantan"
    },
    {
        "Postcode": "17500",
        "Location": "Bukit Tebu",
        "Post_Office": "Tanah Merah",
        "State": "Kelantan"
    },
    {
        "Postcode": "17500",
        "Location": "Cat Rimau",
        "Post_Office": "Tanah Merah",
        "State": "Kelantan"
    },
    {
        "Postcode": "17500",
        "Location": "Chabang Tiga Bechah Laut",
        "Post_Office": "Tanah Merah",
        "State": "Kelantan"
    },
    {
        "Postcode": "17500",
        "Location": "Chabang Tiga Kubang Putat",
        "Post_Office": "Tanah Merah",
        "State": "Kelantan"
    },
    {
        "Postcode": "17500",
        "Location": "Chekok Ipoh",
        "Post_Office": "Tanah Merah",
        "State": "Kelantan"
    },
    {
        "Postcode": "17500",
        "Location": "Cherang Lali",
        "Post_Office": "Tanah Merah",
        "State": "Kelantan"
    },
    {
        "Postcode": "17500",
        "Location": "Citajaya (Batu 6)",
        "Post_Office": "Tanah Merah",
        "State": "Kelantan"
    },
    {
        "Postcode": "17500",
        "Location": "Desa Damai",
        "Post_Office": "Tanah Merah",
        "State": "Kelantan"
    },
    {
        "Postcode": "17500",
        "Location": "Gertak Cabang",
        "Post_Office": "Tanah Merah",
        "State": "Kelantan"
    },
    {
        "Postcode": "17500",
        "Location": "Jalan Bechah Laut",
        "Post_Office": "Tanah Merah",
        "State": "Kelantan"
    },
    {
        "Postcode": "17500",
        "Location": "Jalan Bendang Nyior",
        "Post_Office": "Tanah Merah",
        "State": "Kelantan"
    },
    {
        "Postcode": "17500",
        "Location": "Jalan Bintang Emas",
        "Post_Office": "Tanah Merah",
        "State": "Kelantan"
    },
    {
        "Postcode": "17500",
        "Location": "Jalan Cempaka Merah",
        "Post_Office": "Tanah Merah",
        "State": "Kelantan"
    },
    {
        "Postcode": "17500",
        "Location": "Jalan Dato Mustapha",
        "Post_Office": "Tanah Merah",
        "State": "Kelantan"
    },
    {
        "Postcode": "17500",
        "Location": "Jalan Haji Wan Yusof",
        "Post_Office": "Tanah Merah",
        "State": "Kelantan"
    },
    {
        "Postcode": "17500",
        "Location": "Jalan Hilir Pasar",
        "Post_Office": "Tanah Merah",
        "State": "Kelantan"
    },
    {
        "Postcode": "17500",
        "Location": "Jalan Jedok",
        "Post_Office": "Tanah Merah",
        "State": "Kelantan"
    },
    {
        "Postcode": "17500",
        "Location": "Jalan Kaki Bukit",
        "Post_Office": "Tanah Merah",
        "State": "Kelantan"
    },
    {
        "Postcode": "17500",
        "Location": "Jalan Kasturi",
        "Post_Office": "Tanah Merah",
        "State": "Kelantan"
    },
    {
        "Postcode": "17500",
        "Location": "Jalan Kemunting Ria",
        "Post_Office": "Tanah Merah",
        "State": "Kelantan"
    },
    {
        "Postcode": "17500",
        "Location": "Jalan Kubu ",
        "Post_Office": "Tanah Merah",
        "State": "Kelantan"
    },
    {
        "Postcode": "17500",
        "Location": "Jalan Leboh Raya Jeli",
        "Post_Office": "Tanah Merah",
        "State": "Kelantan"
    },
    {
        "Postcode": "17500",
        "Location": "Jalan Lubok",
        "Post_Office": "Tanah Merah",
        "State": "Kelantan"
    },
    {
        "Postcode": "17500",
        "Location": "Jalan Machang",
        "Post_Office": "Tanah Merah",
        "State": "Kelantan"
    },
    {
        "Postcode": "17500",
        "Location": "Jalan Manal Tiga",
        "Post_Office": "Tanah Merah",
        "State": "Kelantan"
    },
    {
        "Postcode": "17500",
        "Location": "Jalan Nor Zainal",
        "Post_Office": "Tanah Merah",
        "State": "Kelantan"
    },
    {
        "Postcode": "17500",
        "Location": "Jalan Padang Siam",
        "Post_Office": "Tanah Merah",
        "State": "Kelantan"
    },
    {
        "Postcode": "17500",
        "Location": "Jalan Pejabat",
        "Post_Office": "Tanah Merah",
        "State": "Kelantan"
    },
    {
        "Postcode": "17500",
        "Location": "Jalan Pisang Menggala",
        "Post_Office": "Tanah Merah",
        "State": "Kelantan"
    },
    {
        "Postcode": "17500",
        "Location": "Jalan Purnama",
        "Post_Office": "Tanah Merah",
        "State": "Kelantan"
    },
    {
        "Postcode": "17500",
        "Location": "Jalan Putri Saadong",
        "Post_Office": "Tanah Merah",
        "State": "Kelantan"
    },
    {
        "Postcode": "17500",
        "Location": "Jalan Sekolah Arab Bukit Mas",
        "Post_Office": "Tanah Merah",
        "State": "Kelantan"
    },
    {
        "Postcode": "17500",
        "Location": "Jalan Taman Adabi",
        "Post_Office": "Tanah Merah",
        "State": "Kelantan"
    },
    {
        "Postcode": "17500",
        "Location": "Jalan Taman Hiburan",
        "Post_Office": "Tanah Merah",
        "State": "Kelantan"
    },
    {
        "Postcode": "17500",
        "Location": "Jalan Tasek",
        "Post_Office": "Tanah Merah",
        "State": "Kelantan"
    },
    {
        "Postcode": "17500",
        "Location": "Jalan Wan Ahmad A",
        "Post_Office": "Tanah Merah",
        "State": "Kelantan"
    },
    {
        "Postcode": "17500",
        "Location": "Jalan Wan Ahmad B",
        "Post_Office": "Tanah Merah",
        "State": "Kelantan"
    },
    {
        "Postcode": "17500",
        "Location": "Kampung Air Lapa",
        "Post_Office": "Tanah Merah",
        "State": "Kelantan"
    },
    {
        "Postcode": "17500",
        "Location": "Kampung Air Machang Batang Merbau",
        "Post_Office": "Tanah Merah",
        "State": "Kelantan"
    },
    {
        "Postcode": "17500",
        "Location": "Kampung Alor Pechong Gertak",
        "Post_Office": "Tanah Merah",
        "State": "Kelantan"
    },
    {
        "Postcode": "17500",
        "Location": "Kampung Aur Kerlla",
        "Post_Office": "Tanah Merah",
        "State": "Kelantan"
    },
    {
        "Postcode": "17500",
        "Location": "Kampung Banggol Chabir",
        "Post_Office": "Tanah Merah",
        "State": "Kelantan"
    },
    {
        "Postcode": "17500",
        "Location": "Kampung Banggol Chabir Chabang",
        "Post_Office": "Tanah Merah",
        "State": "Kelantan"
    },
    {
        "Postcode": "17500",
        "Location": "Kampung Banggol Jenereh",
        "Post_Office": "Tanah Merah",
        "State": "Kelantan"
    },
    {
        "Postcode": "17500",
        "Location": "Kampung Banggol Kemunting",
        "Post_Office": "Tanah Merah",
        "State": "Kelantan"
    },
    {
        "Postcode": "17500",
        "Location": "Kampung Banggol Tok Ajar",
        "Post_Office": "Tanah Merah",
        "State": "Kelantan"
    },
    {
        "Postcode": "17500",
        "Location": "Kampung Baru Bechah Laut",
        "Post_Office": "Tanah Merah",
        "State": "Kelantan"
    },
    {
        "Postcode": "17500",
        "Location": "Kampung Baru Bendang Nyior",
        "Post_Office": "Tanah Merah",
        "State": "Kelantan"
    },
    {
        "Postcode": "17500",
        "Location": "Kampung Baru Tanah Merah",
        "Post_Office": "Tanah Merah",
        "State": "Kelantan"
    },
    {
        "Postcode": "17500",
        "Location": "Kampung Basong Ipoh",
        "Post_Office": "Tanah Merah",
        "State": "Kelantan"
    },
    {
        "Postcode": "17500",
        "Location": "Kampung Batang Bergedik",
        "Post_Office": "Tanah Merah",
        "State": "Kelantan"
    },
    {
        "Postcode": "17500",
        "Location": "Kampung Batu 5 1/2",
        "Post_Office": "Tanah Merah",
        "State": "Kelantan"
    },
    {
        "Postcode": "17500",
        "Location": "Kampung Batu Empat Hilir",
        "Post_Office": "Tanah Merah",
        "State": "Kelantan"
    },
    {
        "Postcode": "17500",
        "Location": "Kampung Batu Garam",
        "Post_Office": "Tanah Merah",
        "State": "Kelantan"
    },
    {
        "Postcode": "17500",
        "Location": "Kampung Bechah Pelting Hilir",
        "Post_Office": "Tanah Merah",
        "State": "Kelantan"
    },
    {
        "Postcode": "17500",
        "Location": "Kampung Bechah Tok Kar",
        "Post_Office": "Tanah Merah",
        "State": "Kelantan"
    },
    {
        "Postcode": "17500",
        "Location": "Kampung Bechak Perang",
        "Post_Office": "Tanah Merah",
        "State": "Kelantan"
    },
    {
        "Postcode": "17500",
        "Location": "Kampung Bedang Keladi",
        "Post_Office": "Tanah Merah",
        "State": "Kelantan"
    },
    {
        "Postcode": "17500",
        "Location": "Kampung Belimbing",
        "Post_Office": "Tanah Merah",
        "State": "Kelantan"
    },
    {
        "Postcode": "17500",
        "Location": "Kampung Belimbing Dalam",
        "Post_Office": "Tanah Merah",
        "State": "Kelantan"
    },
    {
        "Postcode": "17500",
        "Location": "Kampung Bendang Baru",
        "Post_Office": "Tanah Merah",
        "State": "Kelantan"
    },
    {
        "Postcode": "17500",
        "Location": "Kampung Bendang Nyior",
        "Post_Office": "Tanah Merah",
        "State": "Kelantan"
    },
    {
        "Postcode": "17500",
        "Location": "Kampung Berchang",
        "Post_Office": "Tanah Merah",
        "State": "Kelantan"
    },
    {
        "Postcode": "17500",
        "Location": "Kampung Berdang Ipoh",
        "Post_Office": "Tanah Merah",
        "State": "Kelantan"
    },
    {
        "Postcode": "17500",
        "Location": "Kampung Buikt Rest Hause",
        "Post_Office": "Tanah Merah",
        "State": "Kelantan"
    },
    {
        "Postcode": "17500",
        "Location": "Kampung Bukit Berapit",
        "Post_Office": "Tanah Merah",
        "State": "Kelantan"
    },
    {
        "Postcode": "17500",
        "Location": "Kampung Bukit Bertam",
        "Post_Office": "Tanah Merah",
        "State": "Kelantan"
    },
    {
        "Postcode": "17500",
        "Location": "Kampung Bukit Durian",
        "Post_Office": "Tanah Merah",
        "State": "Kelantan"
    },
    {
        "Postcode": "17500",
        "Location": "Kampung Bukit Gading",
        "Post_Office": "Tanah Merah",
        "State": "Kelantan"
    },
    {
        "Postcode": "17500",
        "Location": "Kampung Bukit Kelapang",
        "Post_Office": "Tanah Merah",
        "State": "Kelantan"
    },
    {
        "Postcode": "17500",
        "Location": "Kampung Bukit Kelidang",
        "Post_Office": "Tanah Merah",
        "State": "Kelantan"
    },
    {
        "Postcode": "17500",
        "Location": "Kampung Bukit Kulim Kuala Tiga",
        "Post_Office": "Tanah Merah",
        "State": "Kelantan"
    },
    {
        "Postcode": "17500",
        "Location": "Kampung Bukit Langsat",
        "Post_Office": "Tanah Merah",
        "State": "Kelantan"
    },
    {
        "Postcode": "17500",
        "Location": "Kampung Bukit Merah",
        "Post_Office": "Tanah Merah",
        "State": "Kelantan"
    },
    {
        "Postcode": "17500",
        "Location": "Kampung Bukit Pak Biru",
        "Post_Office": "Tanah Merah",
        "State": "Kelantan"
    },
    {
        "Postcode": "17500",
        "Location": "Kampung Bukit Panau Estate",
        "Post_Office": "Tanah Merah",
        "State": "Kelantan"
    },
    {
        "Postcode": "17500",
        "Location": "Kampung Bukit Payong",
        "Post_Office": "Tanah Merah",
        "State": "Kelantan"
    },
    {
        "Postcode": "17500",
        "Location": "Kampung Bukit Pencum",
        "Post_Office": "Tanah Merah",
        "State": "Kelantan"
    },
    {
        "Postcode": "17500",
        "Location": "Kampung Bukit Roh",
        "Post_Office": "Tanah Merah",
        "State": "Kelantan"
    },
    {
        "Postcode": "17500",
        "Location": "Kampung Bukit Samak",
        "Post_Office": "Tanah Merah",
        "State": "Kelantan"
    },
    {
        "Postcode": "17500",
        "Location": "Kampung Bukit Tambun Tulang",
        "Post_Office": "Tanah Merah",
        "State": "Kelantan"
    },
    {
        "Postcode": "17500",
        "Location": "Kampung Bukit Tebu",
        "Post_Office": "Tanah Merah",
        "State": "Kelantan"
    },
    {
        "Postcode": "17500",
        "Location": "Kampung Bukit Telaga",
        "Post_Office": "Tanah Merah",
        "State": "Kelantan"
    },
    {
        "Postcode": "17500",
        "Location": "Kampung Buloh Ipoh",
        "Post_Office": "Tanah Merah",
        "State": "Kelantan"
    },
    {
        "Postcode": "17500",
        "Location": "Kampung Cengal Nerak",
        "Post_Office": "Tanah Merah",
        "State": "Kelantan"
    },
    {
        "Postcode": "17500",
        "Location": "Kampung Chawas",
        "Post_Office": "Tanah Merah",
        "State": "Kelantan"
    },
    {
        "Postcode": "17500",
        "Location": "Kampung Cherang Lali",
        "Post_Office": "Tanah Merah",
        "State": "Kelantan"
    },
    {
        "Postcode": "17500",
        "Location": "Kampung Citajaya",
        "Post_Office": "Tanah Merah",
        "State": "Kelantan"
    },
    {
        "Postcode": "17500",
        "Location": "Kampung Dalam Duff Kuala Tiga",
        "Post_Office": "Tanah Merah",
        "State": "Kelantan"
    },
    {
        "Postcode": "17500",
        "Location": "Kampung Domis",
        "Post_Office": "Tanah Merah",
        "State": "Kelantan"
    },
    {
        "Postcode": "17500",
        "Location": "Kampung Durian Daun",
        "Post_Office": "Tanah Merah",
        "State": "Kelantan"
    },
    {
        "Postcode": "17500",
        "Location": "Kampung Dusun Pulai",
        "Post_Office": "Tanah Merah",
        "State": "Kelantan"
    },
    {
        "Postcode": "17500",
        "Location": "Kampung Gelugor",
        "Post_Office": "Tanah Merah",
        "State": "Kelantan"
    },
    {
        "Postcode": "17500",
        "Location": "Kampung Gertak Satu",
        "Post_Office": "Tanah Merah",
        "State": "Kelantan"
    },
    {
        "Postcode": "17500",
        "Location": "Kampung Gobek Kusial Baru",
        "Post_Office": "Tanah Merah",
        "State": "Kelantan"
    },
    {
        "Postcode": "17500",
        "Location": "Kampung Gong Gua",
        "Post_Office": "Tanah Merah",
        "State": "Kelantan"
    },
    {
        "Postcode": "17500",
        "Location": "Kampung Gual Derahim Ipoh",
        "Post_Office": "Tanah Merah",
        "State": "Kelantan"
    },
    {
        "Postcode": "17500",
        "Location": "Kampung Gual Ipoh",
        "Post_Office": "Tanah Merah",
        "State": "Kelantan"
    },
    {
        "Postcode": "17500",
        "Location": "Kampung Gual Sta",
        "Post_Office": "Tanah Merah",
        "State": "Kelantan"
    },
    {
        "Postcode": "17500",
        "Location": "Kampung Hutan Lanjut",
        "Post_Office": "Tanah Merah",
        "State": "Kelantan"
    },
    {
        "Postcode": "17500",
        "Location": "Kampung Jalan Klinik",
        "Post_Office": "Tanah Merah",
        "State": "Kelantan"
    },
    {
        "Postcode": "17500",
        "Location": "Kampung Jalan Kubur",
        "Post_Office": "Tanah Merah",
        "State": "Kelantan"
    },
    {
        "Postcode": "17500",
        "Location": "Kampung Jalan Wan Ahmad",
        "Post_Office": "Tanah Merah",
        "State": "Kelantan"
    },
    {
        "Postcode": "17500",
        "Location": "Kampung Jegor",
        "Post_Office": "Tanah Merah",
        "State": "Kelantan"
    },
    {
        "Postcode": "17500",
        "Location": "Kampung Jelakong",
        "Post_Office": "Tanah Merah",
        "State": "Kelantan"
    },
    {
        "Postcode": "17500",
        "Location": "Kampung Jelatok",
        "Post_Office": "Tanah Merah",
        "State": "Kelantan"
    },
    {
        "Postcode": "17500",
        "Location": "Kampung Jerangau",
        "Post_Office": "Tanah Merah",
        "State": "Kelantan"
    },
    {
        "Postcode": "17500",
        "Location": "Kampung Joha",
        "Post_Office": "Tanah Merah",
        "State": "Kelantan"
    },
    {
        "Postcode": "17500",
        "Location": "Kampung Kenerak",
        "Post_Office": "Tanah Merah",
        "State": "Kelantan"
    },
    {
        "Postcode": "17500",
        "Location": "Kampung Kepala Bendang",
        "Post_Office": "Tanah Merah",
        "State": "Kelantan"
    },
    {
        "Postcode": "17500",
        "Location": "Kampung Kuala Era",
        "Post_Office": "Tanah Merah",
        "State": "Kelantan"
    },
    {
        "Postcode": "17500",
        "Location": "Kampung Kuala Kepok",
        "Post_Office": "Tanah Merah",
        "State": "Kelantan"
    },
    {
        "Postcode": "17500",
        "Location": "Kampung Kuala Maka",
        "Post_Office": "Tanah Merah",
        "State": "Kelantan"
    },
    {
        "Postcode": "17500",
        "Location": "Kampung Kuala Tiga",
        "Post_Office": "Tanah Merah",
        "State": "Kelantan"
    },
    {
        "Postcode": "17500",
        "Location": "Kampung Kuala Ular",
        "Post_Office": "Tanah Merah",
        "State": "Kelantan"
    },
    {
        "Postcode": "17500",
        "Location": "Kampung Kuang",
        "Post_Office": "Tanah Merah",
        "State": "Kelantan"
    },
    {
        "Postcode": "17500",
        "Location": "Kampung Kubang Gali",
        "Post_Office": "Tanah Merah",
        "State": "Kelantan"
    },
    {
        "Postcode": "17500",
        "Location": "Kampung Kubang Kerian",
        "Post_Office": "Tanah Merah",
        "State": "Kelantan"
    },
    {
        "Postcode": "17500",
        "Location": "Kampung Kubang Rusa",
        "Post_Office": "Tanah Merah",
        "State": "Kelantan"
    },
    {
        "Postcode": "17500",
        "Location": "Kampung Kusial Baru",
        "Post_Office": "Tanah Merah",
        "State": "Kelantan"
    },
    {
        "Postcode": "17500",
        "Location": "Kampung Kusial Lama",
        "Post_Office": "Tanah Merah",
        "State": "Kelantan"
    },
    {
        "Postcode": "17500",
        "Location": "Kampung Lata Hutan",
        "Post_Office": "Tanah Merah",
        "State": "Kelantan"
    },
    {
        "Postcode": "17500",
        "Location": "Kampung Liku Kusial",
        "Post_Office": "Tanah Merah",
        "State": "Kelantan"
    },
    {
        "Postcode": "17500",
        "Location": "Kampung Lubok Agor",
        "Post_Office": "Tanah Merah",
        "State": "Kelantan"
    },
    {
        "Postcode": "17500",
        "Location": "Kampung Lubok Buloh",
        "Post_Office": "Tanah Merah",
        "State": "Kelantan"
    },
    {
        "Postcode": "17500",
        "Location": "Kampung Lundang Kusial Baru",
        "Post_Office": "Tanah Merah",
        "State": "Kelantan"
    },
    {
        "Postcode": "17500",
        "Location": "Kampung Malir",
        "Post_Office": "Tanah Merah",
        "State": "Kelantan"
    },
    {
        "Postcode": "17500",
        "Location": "Kampung Manal Jaya",
        "Post_Office": "Tanah Merah",
        "State": "Kelantan"
    },
    {
        "Postcode": "17500",
        "Location": "Kampung Manal Satu",
        "Post_Office": "Tanah Merah",
        "State": "Kelantan"
    },
    {
        "Postcode": "17500",
        "Location": "Kampung Maskura",
        "Post_Office": "Tanah Merah",
        "State": "Kelantan"
    },
    {
        "Postcode": "17500",
        "Location": "Kampung Mentagga",
        "Post_Office": "Tanah Merah",
        "State": "Kelantan"
    },
    {
        "Postcode": "17500",
        "Location": "Kampung Muring",
        "Post_Office": "Tanah Merah",
        "State": "Kelantan"
    },
    {
        "Postcode": "17500",
        "Location": "Kampung Padang Bonggor",
        "Post_Office": "Tanah Merah",
        "State": "Kelantan"
    },
    {
        "Postcode": "17500",
        "Location": "Kampung Padang Che Minah",
        "Post_Office": "Tanah Merah",
        "State": "Kelantan"
    },
    {
        "Postcode": "17500",
        "Location": "Kampung Padang Guchil",
        "Post_Office": "Tanah Merah",
        "State": "Kelantan"
    },
    {
        "Postcode": "17500",
        "Location": "Kampung Padang Kijang",
        "Post_Office": "Tanah Merah",
        "State": "Kelantan"
    },
    {
        "Postcode": "17500",
        "Location": "Kampung Padang Tenang",
        "Post_Office": "Tanah Merah",
        "State": "Kelantan"
    },
    {
        "Postcode": "17500",
        "Location": "Kampung Paloh",
        "Post_Office": "Tanah Merah",
        "State": "Kelantan"
    },
    {
        "Postcode": "17500",
        "Location": "Kampung Pasir Panji",
        "Post_Office": "Tanah Merah",
        "State": "Kelantan"
    },
    {
        "Postcode": "17500",
        "Location": "Kampung Pelting Hulu",
        "Post_Office": "Tanah Merah",
        "State": "Kelantan"
    },
    {
        "Postcode": "17500",
        "Location": "Kampung Peralla",
        "Post_Office": "Tanah Merah",
        "State": "Kelantan"
    },
    {
        "Postcode": "17500",
        "Location": "Kampung Plam",
        "Post_Office": "Tanah Merah",
        "State": "Kelantan"
    },
    {
        "Postcode": "17500",
        "Location": "Kampung Pondok Kelewek",
        "Post_Office": "Tanah Merah",
        "State": "Kelantan"
    },
    {
        "Postcode": "17500",
        "Location": "Kampung Pondok Lama",
        "Post_Office": "Tanah Merah",
        "State": "Kelantan"
    },
    {
        "Postcode": "17500",
        "Location": "Kampung Rambai Baru",
        "Post_Office": "Tanah Merah",
        "State": "Kelantan"
    },
    {
        "Postcode": "17500",
        "Location": "Kampung Rambai Batang Merbau",
        "Post_Office": "Tanah Merah",
        "State": "Kelantan"
    },
    {
        "Postcode": "17500",
        "Location": "Kampung Rawa",
        "Post_Office": "Tanah Merah",
        "State": "Kelantan"
    },
    {
        "Postcode": "17500",
        "Location": "Kampung Rawa Bachok Laut",
        "Post_Office": "Tanah Merah",
        "State": "Kelantan"
    },
    {
        "Postcode": "17500",
        "Location": "Kampung Repoh Jagong",
        "Post_Office": "Tanah Merah",
        "State": "Kelantan"
    },
    {
        "Postcode": "17500",
        "Location": "Kampung Rotan Tawar",
        "Post_Office": "Tanah Merah",
        "State": "Kelantan"
    },
    {
        "Postcode": "17500",
        "Location": "Kampung Sat Hilir",
        "Post_Office": "Tanah Merah",
        "State": "Kelantan"
    },
    {
        "Postcode": "17500",
        "Location": "Kampung Sat Hulu",
        "Post_Office": "Tanah Merah",
        "State": "Kelantan"
    },
    {
        "Postcode": "17500",
        "Location": "Kampung Seberang Baroh",
        "Post_Office": "Tanah Merah",
        "State": "Kelantan"
    },
    {
        "Postcode": "17500",
        "Location": "Kampung Seberang Kepat",
        "Post_Office": "Tanah Merah",
        "State": "Kelantan"
    },
    {
        "Postcode": "17500",
        "Location": "Kampung Signal",
        "Post_Office": "Tanah Merah",
        "State": "Kelantan"
    },
    {
        "Postcode": "17500",
        "Location": "Kampung Sungai Dulang",
        "Post_Office": "Tanah Merah",
        "State": "Kelantan"
    },
    {
        "Postcode": "17500",
        "Location": "Kampung Tambakan ",
        "Post_Office": "Tanah Merah",
        "State": "Kelantan"
    },
    {
        "Postcode": "17500",
        "Location": "Kampung Tebing Tinggi",
        "Post_Office": "Tanah Merah",
        "State": "Kelantan"
    },
    {
        "Postcode": "17500",
        "Location": "Kampung Tepi Sungai Hilir",
        "Post_Office": "Tanah Merah",
        "State": "Kelantan"
    },
    {
        "Postcode": "17500",
        "Location": "Kampung Terasil",
        "Post_Office": "Tanah Merah",
        "State": "Kelantan"
    },
    {
        "Postcode": "17500",
        "Location": "Kampung Ternang Dalam Ipoh",
        "Post_Office": "Tanah Merah",
        "State": "Kelantan"
    },
    {
        "Postcode": "17500",
        "Location": "Kampung Titian Patah",
        "Post_Office": "Tanah Merah",
        "State": "Kelantan"
    },
    {
        "Postcode": "17500",
        "Location": "Kampung Ulu Bertam",
        "Post_Office": "Tanah Merah",
        "State": "Kelantan"
    },
    {
        "Postcode": "17500",
        "Location": "Kampung Ulu Kusial",
        "Post_Office": "Tanah Merah",
        "State": "Kelantan"
    },
    {
        "Postcode": "17500",
        "Location": "Kuala Paku",
        "Post_Office": "Tanah Merah",
        "State": "Kelantan"
    },
    {
        "Postcode": "17500",
        "Location": "Kulim",
        "Post_Office": "Tanah Merah",
        "State": "Kelantan"
    },
    {
        "Postcode": "17500",
        "Location": "Ladang Kerilla",
        "Post_Office": "Tanah Merah",
        "State": "Kelantan"
    },
    {
        "Postcode": "17500",
        "Location": "Ladang Sungai Sokor",
        "Post_Office": "Tanah Merah",
        "State": "Kelantan"
    },
    {
        "Postcode": "17500",
        "Location": "Ladang Tebing Tinggi",
        "Post_Office": "Tanah Merah",
        "State": "Kelantan"
    },
    {
        "Postcode": "17500",
        "Location": "Lorong Ghani",
        "Post_Office": "Tanah Merah",
        "State": "Kelantan"
    },
    {
        "Postcode": "17500",
        "Location": "Lorong Haji Yahya",
        "Post_Office": "Tanah Merah",
        "State": "Kelantan"
    },
    {
        "Postcode": "17500",
        "Location": "Lorong Mejar Tok Wan",
        "Post_Office": "Tanah Merah",
        "State": "Kelantan"
    },
    {
        "Postcode": "17500",
        "Location": "Lorong Nikmat",
        "Post_Office": "Tanah Merah",
        "State": "Kelantan"
    },
    {
        "Postcode": "17500",
        "Location": "Lorong Serindit",
        "Post_Office": "Tanah Merah",
        "State": "Kelantan"
    },
    {
        "Postcode": "17500",
        "Location": "Lorong Tok Janggut",
        "Post_Office": "Tanah Merah",
        "State": "Kelantan"
    },
    {
        "Postcode": "17500",
        "Location": "Lubok Rotan Tawar",
        "Post_Office": "Tanah Merah",
        "State": "Kelantan"
    },
    {
        "Postcode": "17500",
        "Location": "Manak",
        "Post_Office": "Tanah Merah",
        "State": "Kelantan"
    },
    {
        "Postcode": "17500",
        "Location": "Padang Lalang",
        "Post_Office": "Tanah Merah",
        "State": "Kelantan"
    },
    {
        "Postcode": "17500",
        "Location": "Padang Siam",
        "Post_Office": "Tanah Merah",
        "State": "Kelantan"
    },
    {
        "Postcode": "17500",
        "Location": "Pangkal Manak",
        "Post_Office": "Tanah Merah",
        "State": "Kelantan"
    },
    {
        "Postcode": "17500",
        "Location": "Pasir Panji",
        "Post_Office": "Tanah Merah",
        "State": "Kelantan"
    },
    {
        "Postcode": "17500",
        "Location": "Perumahan Banggol",
        "Post_Office": "Tanah Merah",
        "State": "Kelantan"
    },
    {
        "Postcode": "17500",
        "Location": "Perumahan Batu 11",
        "Post_Office": "Tanah Merah",
        "State": "Kelantan"
    },
    {
        "Postcode": "17500",
        "Location": "Perumahan Kusial",
        "Post_Office": "Tanah Merah",
        "State": "Kelantan"
    },
    {
        "Postcode": "17500",
        "Location": "Pondok Baru",
        "Post_Office": "Tanah Merah",
        "State": "Kelantan"
    },
    {
        "Postcode": "17500",
        "Location": "Pondok Bukit Panau",
        "Post_Office": "Tanah Merah",
        "State": "Kelantan"
    },
    {
        "Postcode": "17500",
        "Location": "Pondok Hidayah",
        "Post_Office": "Tanah Merah",
        "State": "Kelantan"
    },
    {
        "Postcode": "17500",
        "Location": "Pondok Ilmi Bukit Gading",
        "Post_Office": "Tanah Merah",
        "State": "Kelantan"
    },
    {
        "Postcode": "17500",
        "Location": "Pondok Kelewek",
        "Post_Office": "Tanah Merah",
        "State": "Kelantan"
    },
    {
        "Postcode": "17500",
        "Location": "Pondok Lama",
        "Post_Office": "Tanah Merah",
        "State": "Kelantan"
    },
    {
        "Postcode": "17500",
        "Location": "Repoh Jagong",
        "Post_Office": "Tanah Merah",
        "State": "Kelantan"
    },
    {
        "Postcode": "17500",
        "Location": "Salak",
        "Post_Office": "Tanah Merah",
        "State": "Kelantan"
    },
    {
        "Postcode": "17500",
        "Location": "Sat Kuala Maka",
        "Post_Office": "Tanah Merah",
        "State": "Kelantan"
    },
    {
        "Postcode": "17500",
        "Location": "Seberang Kepak",
        "Post_Office": "Tanah Merah",
        "State": "Kelantan"
    },
    {
        "Postcode": "17500",
        "Location": "Sungai Kusial",
        "Post_Office": "Tanah Merah",
        "State": "Kelantan"
    },
    {
        "Postcode": "17500",
        "Location": "Taman Adabi",
        "Post_Office": "Tanah Merah",
        "State": "Kelantan"
    },
    {
        "Postcode": "17500",
        "Location": "Taman Afiqah",
        "Post_Office": "Tanah Merah",
        "State": "Kelantan"
    },
    {
        "Postcode": "17500",
        "Location": "Taman Ahamad Mahir",
        "Post_Office": "Tanah Merah",
        "State": "Kelantan"
    },
    {
        "Postcode": "17500",
        "Location": "Taman Al Kaf",
        "Post_Office": "Tanah Merah",
        "State": "Kelantan"
    },
    {
        "Postcode": "17500",
        "Location": "Taman Al Syamirin",
        "Post_Office": "Tanah Merah",
        "State": "Kelantan"
    },
    {
        "Postcode": "17500",
        "Location": "Taman Bakti Gam",
        "Post_Office": "Tanah Merah",
        "State": "Kelantan"
    },
    {
        "Postcode": "17500",
        "Location": "Taman Banggol Kemunting",
        "Post_Office": "Tanah Merah",
        "State": "Kelantan"
    },
    {
        "Postcode": "17500",
        "Location": "Taman Barakah",
        "Post_Office": "Tanah Merah",
        "State": "Kelantan"
    },
    {
        "Postcode": "17500",
        "Location": "Taman Bistari",
        "Post_Office": "Tanah Merah",
        "State": "Kelantan"
    },
    {
        "Postcode": "17500",
        "Location": "Taman Bukit Tebu",
        "Post_Office": "Tanah Merah",
        "State": "Kelantan"
    },
    {
        "Postcode": "17500",
        "Location": "Taman Bunga",
        "Post_Office": "Tanah Merah",
        "State": "Kelantan"
    },
    {
        "Postcode": "17500",
        "Location": "Taman Bunga Sl",
        "Post_Office": "Tanah Merah",
        "State": "Kelantan"
    },
    {
        "Postcode": "17500",
        "Location": "Taman Desa Fajar",
        "Post_Office": "Tanah Merah",
        "State": "Kelantan"
    },
    {
        "Postcode": "17500",
        "Location": "Taman Desa Fatin",
        "Post_Office": "Tanah Merah",
        "State": "Kelantan"
    },
    {
        "Postcode": "17500",
        "Location": "Taman Desa Sejati",
        "Post_Office": "Tanah Merah",
        "State": "Kelantan"
    },
    {
        "Postcode": "17500",
        "Location": "Taman Diana",
        "Post_Office": "Tanah Merah",
        "State": "Kelantan"
    },
    {
        "Postcode": "17500",
        "Location": "Taman Do",
        "Post_Office": "Tanah Merah",
        "State": "Kelantan"
    },
    {
        "Postcode": "17500",
        "Location": "Taman Dr Nik",
        "Post_Office": "Tanah Merah",
        "State": "Kelantan"
    },
    {
        "Postcode": "17500",
        "Location": "Taman Ehsan",
        "Post_Office": "Tanah Merah",
        "State": "Kelantan"
    },
    {
        "Postcode": "17500",
        "Location": "Taman Hajah Wan Eshah",
        "Post_Office": "Tanah Merah",
        "State": "Kelantan"
    },
    {
        "Postcode": "17500",
        "Location": "Taman Hajaral Aswad",
        "Post_Office": "Tanah Merah",
        "State": "Kelantan"
    },
    {
        "Postcode": "17500",
        "Location": "Taman Haji Wan Daud",
        "Post_Office": "Tanah Merah",
        "State": "Kelantan"
    },
    {
        "Postcode": "17500",
        "Location": "Taman Ibnu Sina",
        "Post_Office": "Tanah Merah",
        "State": "Kelantan"
    },
    {
        "Postcode": "17500",
        "Location": "Taman Imran",
        "Post_Office": "Tanah Merah",
        "State": "Kelantan"
    },
    {
        "Postcode": "17500",
        "Location": "Taman Jaya Murni",
        "Post_Office": "Tanah Merah",
        "State": "Kelantan"
    },
    {
        "Postcode": "17500",
        "Location": "Taman Jelatok 2",
        "Post_Office": "Tanah Merah",
        "State": "Kelantan"
    },
    {
        "Postcode": "17500",
        "Location": "Taman Jintan Manis",
        "Post_Office": "Tanah Merah",
        "State": "Kelantan"
    },
    {
        "Postcode": "17500",
        "Location": "Taman Kayangan",
        "Post_Office": "Tanah Merah",
        "State": "Kelantan"
    },
    {
        "Postcode": "17500",
        "Location": "Taman Keltra",
        "Post_Office": "Tanah Merah",
        "State": "Kelantan"
    },
    {
        "Postcode": "17500",
        "Location": "Taman Kenanga",
        "Post_Office": "Tanah Merah",
        "State": "Kelantan"
    },
    {
        "Postcode": "17500",
        "Location": "Taman Kiara",
        "Post_Office": "Tanah Merah",
        "State": "Kelantan"
    },
    {
        "Postcode": "17500",
        "Location": "Taman Lagenda",
        "Post_Office": "Tanah Merah",
        "State": "Kelantan"
    },
    {
        "Postcode": "17500",
        "Location": "Taman Mahsuri",
        "Post_Office": "Tanah Merah",
        "State": "Kelantan"
    },
    {
        "Postcode": "17500",
        "Location": "Taman Maju Setapak",
        "Post_Office": "Tanah Merah",
        "State": "Kelantan"
    },
    {
        "Postcode": "17500",
        "Location": "Taman Maka",
        "Post_Office": "Tanah Merah",
        "State": "Kelantan"
    },
    {
        "Postcode": "17500",
        "Location": "Taman Maka Kelewek",
        "Post_Office": "Tanah Merah",
        "State": "Kelantan"
    },
    {
        "Postcode": "17500",
        "Location": "Taman Mas Merah",
        "Post_Office": "Tanah Merah",
        "State": "Kelantan"
    },
    {
        "Postcode": "17500",
        "Location": "Taman Megah 2",
        "Post_Office": "Tanah Merah",
        "State": "Kelantan"
    },
    {
        "Postcode": "17500",
        "Location": "Taman Merah Jaya",
        "Post_Office": "Tanah Merah",
        "State": "Kelantan"
    },
    {
        "Postcode": "17500",
        "Location": "Taman Muhibbah",
        "Post_Office": "Tanah Merah",
        "State": "Kelantan"
    },
    {
        "Postcode": "17500",
        "Location": "Taman Selasih",
        "Post_Office": "Tanah Merah",
        "State": "Kelantan"
    },
    {
        "Postcode": "17500",
        "Location": "Taman Seri Kenanga",
        "Post_Office": "Tanah Merah",
        "State": "Kelantan"
    },
    {
        "Postcode": "17500",
        "Location": "Taman Sinaran",
        "Post_Office": "Tanah Merah",
        "State": "Kelantan"
    },
    {
        "Postcode": "17500",
        "Location": "Taman Sri Baru",
        "Post_Office": "Tanah Merah",
        "State": "Kelantan"
    },
    {
        "Postcode": "17500",
        "Location": "Taman Sri Jelatok",
        "Post_Office": "Tanah Merah",
        "State": "Kelantan"
    },
    {
        "Postcode": "17500",
        "Location": "Taman Sri Jenerih",
        "Post_Office": "Tanah Merah",
        "State": "Kelantan"
    },
    {
        "Postcode": "17500",
        "Location": "Taman Sri Kemunting",
        "Post_Office": "Tanah Merah",
        "State": "Kelantan"
    },
    {
        "Postcode": "17500",
        "Location": "Taman Sri Penggawa",
        "Post_Office": "Tanah Merah",
        "State": "Kelantan"
    },
    {
        "Postcode": "17500",
        "Location": "Taman Sri Remah",
        "Post_Office": "Tanah Merah",
        "State": "Kelantan"
    },
    {
        "Postcode": "17500",
        "Location": "Taman Tanah Merah",
        "Post_Office": "Tanah Merah",
        "State": "Kelantan"
    },
    {
        "Postcode": "17500",
        "Location": "Taman Teguh",
        "Post_Office": "Tanah Merah",
        "State": "Kelantan"
    },
    {
        "Postcode": "17500",
        "Location": "Taman Ten",
        "Post_Office": "Tanah Merah",
        "State": "Kelantan"
    },
    {
        "Postcode": "17500",
        "Location": "Taman Tnb",
        "Post_Office": "Tanah Merah",
        "State": "Kelantan"
    },
    {
        "Postcode": "17500",
        "Location": "Taman Yap Boon Yang",
        "Post_Office": "Tanah Merah",
        "State": "Kelantan"
    },
    {
        "Postcode": "17500",
        "Location": "Tanah Maju Setapak",
        "Post_Office": "Tanah Merah",
        "State": "Kelantan"
    },
    {
        "Postcode": "17500",
        "Location": "Tanah Merah",
        "Post_Office": "Tanah Merah",
        "State": "Kelantan"
    },
    {
        "Postcode": "17500",
        "Location": "Terasil",
        "Post_Office": "Tanah Merah",
        "State": "Kelantan"
    },
    {
        "Postcode": "17500",
        "Location": "Tok Che Dol",
        "Post_Office": "Tanah Merah",
        "State": "Kelantan"
    },
    {
        "Postcode": "17500",
        "Location": "Ulu Bertam Kesedar Ipoh",
        "Post_Office": "Tanah Merah",
        "State": "Kelantan"
    },
    {
        "Postcode": "17500",
        "Location": "Wisma Haji Zakaria",
        "Post_Office": "Tanah Merah",
        "State": "Kelantan"
    },
    {
        "Postcode": "17500",
        "Location": "Jalan Bakti",
        "Post_Office": "Tanah Merah",
        "State": "Kelantan"
    },
    {
        "Postcode": "17500",
        "Location": "Jalan Besar",
        "Post_Office": "Tanah Merah",
        "State": "Kelantan"
    },
    {
        "Postcode": "17500",
        "Location": "Jalan Hospital",
        "Post_Office": "Tanah Merah",
        "State": "Kelantan"
    },
    {
        "Postcode": "17500",
        "Location": "Jalan Pasir Mas",
        "Post_Office": "Tanah Merah",
        "State": "Kelantan"
    },
    {
        "Postcode": "17500",
        "Location": "Jalan Pegawai",
        "Post_Office": "Tanah Merah",
        "State": "Kelantan"
    },
    {
        "Postcode": "17500",
        "Location": "Kampung Banggol Jering",
        "Post_Office": "Tanah Merah",
        "State": "Kelantan"
    },
    {
        "Postcode": "17500",
        "Location": "Kampung Banggol Ketereh",
        "Post_Office": "Tanah Merah",
        "State": "Kelantan"
    },
    {
        "Postcode": "17500",
        "Location": "Kampung Batu Hitam",
        "Post_Office": "Tanah Merah",
        "State": "Kelantan"
    },
    {
        "Postcode": "17500",
        "Location": "Kampung Kelewek",
        "Post_Office": "Tanah Merah",
        "State": "Kelantan"
    },
    {
        "Postcode": "17500",
        "Location": "Kampung Padang Siam",
        "Post_Office": "Tanah Merah",
        "State": "Kelantan"
    },
    {
        "Postcode": "17500",
        "Location": "Taman Desa Melati",
        "Post_Office": "Tanah Merah",
        "State": "Kelantan"
    },
    {
        "Postcode": "17500",
        "Location": "Taman Guru",
        "Post_Office": "Tanah Merah",
        "State": "Kelantan"
    },
    {
        "Postcode": "17500",
        "Location": "Taman Indah",
        "Post_Office": "Tanah Merah",
        "State": "Kelantan"
    },
    {
        "Postcode": "17500",
        "Location": "Taman Megah Jaya",
        "Post_Office": "Tanah Merah",
        "State": "Kelantan"
    },
    {
        "Postcode": "17500",
        "Location": "Taman Mutiara",
        "Post_Office": "Tanah Merah",
        "State": "Kelantan"
    },
    {
        "Postcode": "17500",
        "Location": "Taman Permata",
        "Post_Office": "Tanah Merah",
        "State": "Kelantan"
    },
    {
        "Postcode": "17500",
        "Location": "Alor Pasir",
        "Post_Office": "Tanah Merah",
        "State": "Kelantan"
    },
    {
        "Postcode": "17500",
        "Location": "Jalan Hulu Pasar",
        "Post_Office": "Tanah Merah",
        "State": "Kelantan"
    },
    {
        "Postcode": "17500",
        "Location": "Jalan Sekolah Kadir Adabi",
        "Post_Office": "Tanah Merah",
        "State": "Kelantan"
    },
    {
        "Postcode": "17500",
        "Location": "Kampung Banggol",
        "Post_Office": "Tanah Merah",
        "State": "Kelantan"
    },
    {
        "Postcode": "17500",
        "Location": "Kampung Batu 11",
        "Post_Office": "Tanah Merah",
        "State": "Kelantan"
    },
    {
        "Postcode": "17500",
        "Location": "Kampung Bendang Gok",
        "Post_Office": "Tanah Merah",
        "State": "Kelantan"
    },
    {
        "Postcode": "17500",
        "Location": "Kampung Gerong",
        "Post_Office": "Tanah Merah",
        "State": "Kelantan"
    },
    {
        "Postcode": "17500",
        "Location": "Kampung Kajang",
        "Post_Office": "Tanah Merah",
        "State": "Kelantan"
    },
    {
        "Postcode": "17500",
        "Location": "Kampung Kayu Kelat",
        "Post_Office": "Tanah Merah",
        "State": "Kelantan"
    },
    {
        "Postcode": "17500",
        "Location": "Kampung Laha",
        "Post_Office": "Tanah Merah",
        "State": "Kelantan"
    },
    {
        "Postcode": "17500",
        "Location": "Kampung Mahligai ",
        "Post_Office": "Tanah Merah",
        "State": "Kelantan"
    },
    {
        "Postcode": "17500",
        "Location": "Kampung Nering",
        "Post_Office": "Tanah Merah",
        "State": "Kelantan"
    },
    {
        "Postcode": "17500",
        "Location": "Kampung Sat",
        "Post_Office": "Tanah Merah",
        "State": "Kelantan"
    },
    {
        "Postcode": "17500",
        "Location": "Kampung Tengah",
        "Post_Office": "Tanah Merah",
        "State": "Kelantan"
    },
    {
        "Postcode": "17500",
        "Location": "Kampung Tepi Sungai",
        "Post_Office": "Tanah Merah",
        "State": "Kelantan"
    },
    {
        "Postcode": "17500",
        "Location": "Perumahan Pkink",
        "Post_Office": "Tanah Merah",
        "State": "Kelantan"
    },
    {
        "Postcode": "17500",
        "Location": "Taman Firdaus",
        "Post_Office": "Tanah Merah",
        "State": "Kelantan"
    },
    {
        "Postcode": "17500",
        "Location": "Taman Puteri Saadong",
        "Post_Office": "Tanah Merah",
        "State": "Kelantan"
    },
    {
        "Postcode": "17500",
        "Location": "Taman Sentosa",
        "Post_Office": "Tanah Merah",
        "State": "Kelantan"
    }
]
