[
    {
        "Postcode": "17510",
        "Location": "Kampung Batu Jong",
        "Post_Office": "Tanah Merah",
        "State": "Kelantan"
    },
    {
        "Postcode": "17510",
        "Location": "Kampung Lalang",
        "Post_Office": "Tanah Merah",
        "State": "Kelantan"
    },
    {
        "Postcode": "17510",
        "Location": "Felda Kemahang",
        "Post_Office": "Tanah Merah",
        "State": "Kelantan"
    },
    {
        "Postcode": "17510",
        "Location": "Felda Kemahang 3",
        "Post_Office": "Tanah Merah",
        "State": "Kelantan"
    },
    {
        "Postcode": "17510",
        "Location": "Kampung Air Asahan Hilir",
        "Post_Office": "Tanah Merah",
        "State": "Kelantan"
    },
    {
        "Postcode": "17510",
        "Location": "Kampung Air Batu",
        "Post_Office": "Tanah Merah",
        "State": "Kelantan"
    },
    {
        "Postcode": "17510",
        "Location": "Kampung Air Bedang",
        "Post_Office": "Tanah Merah",
        "State": "Kelantan"
    },
    {
        "Postcode": "17510",
        "Location": "Kampung Air Gatal",
        "Post_Office": "Tanah Merah",
        "State": "Kelantan"
    },
    {
        "Postcode": "17510",
        "Location": "Kampung Air Naga",
        "Post_Office": "Tanah Merah",
        "State": "Kelantan"
    },
    {
        "Postcode": "17510",
        "Location": "Kampung Air Ra",
        "Post_Office": "Tanah Merah",
        "State": "Kelantan"
    },
    {
        "Postcode": "17510",
        "Location": "Kampung Air Serdang",
        "Post_Office": "Tanah Merah",
        "State": "Kelantan"
    },
    {
        "Postcode": "17510",
        "Location": "Kampung Asahan Hulu",
        "Post_Office": "Tanah Merah",
        "State": "Kelantan"
    },
    {
        "Postcode": "17510",
        "Location": "Kampung Asahan Tengah",
        "Post_Office": "Tanah Merah",
        "State": "Kelantan"
    },
    {
        "Postcode": "17510",
        "Location": "Kampung Batu Gajah",
        "Post_Office": "Tanah Merah",
        "State": "Kelantan"
    },
    {
        "Postcode": "17510",
        "Location": "Kampung Bedah",
        "Post_Office": "Tanah Merah",
        "State": "Kelantan"
    },
    {
        "Postcode": "17510",
        "Location": "Kampung Kelisar",
        "Post_Office": "Tanah Merah",
        "State": "Kelantan"
    },
    {
        "Postcode": "17510",
        "Location": "Kampung Kuala Rambutan",
        "Post_Office": "Tanah Merah",
        "State": "Kelantan"
    },
    {
        "Postcode": "17510",
        "Location": "Kampung Kuala Terjun",
        "Post_Office": "Tanah Merah",
        "State": "Kelantan"
    },
    {
        "Postcode": "17510",
        "Location": "Kampung Lapan Bola",
        "Post_Office": "Tanah Merah",
        "State": "Kelantan"
    },
    {
        "Postcode": "17510",
        "Location": "Kampung Lawang",
        "Post_Office": "Tanah Merah",
        "State": "Kelantan"
    },
    {
        "Postcode": "17510",
        "Location": "Kampung Lepan Bola",
        "Post_Office": "Tanah Merah",
        "State": "Kelantan"
    },
    {
        "Postcode": "17510",
        "Location": "Kampung Mak Terak",
        "Post_Office": "Tanah Merah",
        "State": "Kelantan"
    },
    {
        "Postcode": "17510",
        "Location": "Kampung Panglima Bayu",
        "Post_Office": "Tanah Merah",
        "State": "Kelantan"
    },
    {
        "Postcode": "17510",
        "Location": "Kampung Redah",
        "Post_Office": "Tanah Merah",
        "State": "Kelantan"
    },
    {
        "Postcode": "17510",
        "Location": "Kampung Telaga Bijih",
        "Post_Office": "Tanah Merah",
        "State": "Kelantan"
    },
    {
        "Postcode": "17510",
        "Location": "Kampung Air Asahan",
        "Post_Office": "Tanah Merah",
        "State": "Kelantan"
    },
    {
        "Postcode": "17510",
        "Location": "Kampung Air Machang ",
        "Post_Office": "Tanah Merah",
        "State": "Kelantan"
    },
    {
        "Postcode": "17510",
        "Location": "Kampung Air Sejok",
        "Post_Office": "Tanah Merah",
        "State": "Kelantan"
    },
    {
        "Postcode": "17510",
        "Location": "Kampung Batang Merbau",
        "Post_Office": "Tanah Merah",
        "State": "Kelantan"
    },
    {
        "Postcode": "17510",
        "Location": "Kampung Bendang Keladi",
        "Post_Office": "Tanah Merah",
        "State": "Kelantan"
    },
    {
        "Postcode": "17510",
        "Location": "Kampung Bendang Seberang",
        "Post_Office": "Tanah Merah",
        "State": "Kelantan"
    },
    {
        "Postcode": "17510",
        "Location": "Kampung Kuala Bendang",
        "Post_Office": "Tanah Merah",
        "State": "Kelantan"
    },
    {
        "Postcode": "17510",
        "Location": "Kampung Kulim 3",
        "Post_Office": "Tanah Merah",
        "State": "Kelantan"
    },
    {
        "Postcode": "17510",
        "Location": "Kampung Merah",
        "Post_Office": "Tanah Merah",
        "State": "Kelantan"
    },
    {
        "Postcode": "17510",
        "Location": "Kampung Pelain",
        "Post_Office": "Tanah Merah",
        "State": "Kelantan"
    },
    {
        "Postcode": "17510",
        "Location": "Kampung Sri",
        "Post_Office": "Tanah Merah",
        "State": "Kelantan"
    },
    {
        "Postcode": "17510",
        "Location": "Kampung Tok Che Dol",
        "Post_Office": "Tanah Merah",
        "State": "Kelantan"
    },
    {
        "Postcode": "17510",
        "Location": "Perumahan Kos Rendah Batu 9",
        "Post_Office": "Tanah Merah",
        "State": "Kelantan"
    },
    {
        "Postcode": "17510",
        "Location": "Perumahan Sri Penggawa",
        "Post_Office": "Tanah Merah",
        "State": "Kelantan"
    },
    {
        "Postcode": "17510",
        "Location": "Sekolah Kebangsaan Arab Limau Purut",
        "Post_Office": "Tanah Merah",
        "State": "Kelantan"
    },
    {
        "Postcode": "17510",
        "Location": "Sekolah Kebangsaan Batu Gajah",
        "Post_Office": "Tanah Merah",
        "State": "Kelantan"
    },
    {
        "Postcode": "17510",
        "Location": "Sekolah Kebangsaan Kemahang 2",
        "Post_Office": "Tanah Merah",
        "State": "Kelantan"
    },
    {
        "Postcode": "17510",
        "Location": "Sekolah Kebangsaan Kemahang 3",
        "Post_Office": "Tanah Merah",
        "State": "Kelantan"
    },
    {
        "Postcode": "17510",
        "Location": "Sekolah Kebangsaan Lalang Pepuyu",
        "Post_Office": "Tanah Merah",
        "State": "Kelantan"
    },
    {
        "Postcode": "17510",
        "Location": "Sekolah Kebangsaan Lawang",
        "Post_Office": "Tanah Merah",
        "State": "Kelantan"
    },
    {
        "Postcode": "17510",
        "Location": "Sekolah Menengah Batu Gajah",
        "Post_Office": "Tanah Merah",
        "State": "Kelantan"
    },
    {
        "Postcode": "17510",
        "Location": "Sekolah Ugama Kemahang 2",
        "Post_Office": "Tanah Merah",
        "State": "Kelantan"
    },
    {
        "Postcode": "17510",
        "Location": "Taman Al-Imran",
        "Post_Office": "Tanah Merah",
        "State": "Kelantan"
    },
    {
        "Postcode": "17510",
        "Location": "Taman Al-Syakirin",
        "Post_Office": "Tanah Merah",
        "State": "Kelantan"
    },
    {
        "Postcode": "17510",
        "Location": "Kampung Bechah Palas",
        "Post_Office": "Tanah Merah",
        "State": "Kelantan"
    },
    {
        "Postcode": "17510",
        "Location": "Kampung Kelewek",
        "Post_Office": "Tanah Merah",
        "State": "Kelantan"
    },
    {
        "Postcode": "17510",
        "Location": "Kampung Lalang Pepuyu",
        "Post_Office": "Tanah Merah",
        "State": "Kelantan"
    },
    {
        "Postcode": "17510",
        "Location": "Kampung Limau Purut",
        "Post_Office": "Tanah Merah",
        "State": "Kelantan"
    },
    {
        "Postcode": "17510",
        "Location": "Kampung Air Merah",
        "Post_Office": "Tanah Merah",
        "State": "Kelantan"
    },
    {
        "Postcode": "17510",
        "Location": "Kampung Baru",
        "Post_Office": "Tanah Merah",
        "State": "Kelantan"
    },
    {
        "Postcode": "17510",
        "Location": "Kampung Bendang Gok",
        "Post_Office": "Tanah Merah",
        "State": "Kelantan"
    },
    {
        "Postcode": "17510",
        "Location": "Kampung Bukit Kuin",
        "Post_Office": "Tanah Merah",
        "State": "Kelantan"
    },
    {
        "Postcode": "17510",
        "Location": "Kampung Kajang",
        "Post_Office": "Tanah Merah",
        "State": "Kelantan"
    },
    {
        "Postcode": "17510",
        "Location": "Kampung Padang Lalang",
        "Post_Office": "Tanah Merah",
        "State": "Kelantan"
    },
    {
        "Postcode": "17510",
        "Location": "Taman Perwira",
        "Post_Office": "Tanah Merah",
        "State": "Kelantan"
    }
]
