[
    {
        "Postcode": "17600",
        "Location": "Air Papan",
        "Post_Office": "Jeli",
        "State": "Kelantan"
    },
    {
        "Postcode": "17600",
        "Location": "Bandar Baru Jeli",
        "Post_Office": "Jeli",
        "State": "Kelantan"
    },
    {
        "Postcode": "17600",
        "Location": "Base Camp",
        "Post_Office": "Jeli",
        "State": "Kelantan"
    },
    {
        "Postcode": "17600",
        "Location": "Batu 6 Batu Melintang",
        "Post_Office": "Jeli",
        "State": "Kelantan"
    },
    {
        "Postcode": "17600",
        "Location": "Batu 61/2 Leboh Raya Timor Barat",
        "Post_Office": "Jeli",
        "State": "Kelantan"
    },
    {
        "Postcode": "17600",
        "Location": "Batu Melintang",
        "Post_Office": "Jeli",
        "State": "Kelantan"
    },
    {
        "Postcode": "17600",
        "Location": "Berdang",
        "Post_Office": "Jeli",
        "State": "Kelantan"
    },
    {
        "Postcode": "17600",
        "Location": "Chegar Bedil",
        "Post_Office": "Jeli",
        "State": "Kelantan"
    },
    {
        "Postcode": "17600",
        "Location": "Felcra Tumbi Rapat",
        "Post_Office": "Jeli",
        "State": "Kelantan"
    },
    {
        "Postcode": "17600",
        "Location": "Gunung Tanah Merah",
        "Post_Office": "Jeli",
        "State": "Kelantan"
    },
    {
        "Postcode": "17600",
        "Location": "Jalan Bukit Melintang",
        "Post_Office": "Jeli",
        "State": "Kelantan"
    },
    {
        "Postcode": "17600",
        "Location": "Jalan Jeli Lama",
        "Post_Office": "Jeli",
        "State": "Kelantan"
    },
    {
        "Postcode": "17600",
        "Location": "Jalan Kampung Layak",
        "Post_Office": "Jeli",
        "State": "Kelantan"
    },
    {
        "Postcode": "17600",
        "Location": "Jalan Sawmill/Industri",
        "Post_Office": "Jeli",
        "State": "Kelantan"
    },
    {
        "Postcode": "17600",
        "Location": "Jeli",
        "Post_Office": "Jeli",
        "State": "Kelantan"
    },
    {
        "Postcode": "17600",
        "Location": "Jeli Dalam",
        "Post_Office": "Jeli",
        "State": "Kelantan"
    },
    {
        "Postcode": "17600",
        "Location": "Jeli Lama",
        "Post_Office": "Jeli",
        "State": "Kelantan"
    },
    {
        "Postcode": "17600",
        "Location": "Kampung Air Bol",
        "Post_Office": "Jeli",
        "State": "Kelantan"
    },
    {
        "Postcode": "17600",
        "Location": "Kampung Air Puteh",
        "Post_Office": "Jeli",
        "State": "Kelantan"
    },
    {
        "Postcode": "17600",
        "Location": "Kampung Air Putih",
        "Post_Office": "Jeli",
        "State": "Kelantan"
    },
    {
        "Postcode": "17600",
        "Location": "Kampung Ayer Bol",
        "Post_Office": "Jeli",
        "State": "Kelantan"
    },
    {
        "Postcode": "17600",
        "Location": "Kampung Baru Jalan Malaysia",
        "Post_Office": "Jeli",
        "State": "Kelantan"
    },
    {
        "Postcode": "17600",
        "Location": "Kampung Baru Sungai Rual",
        "Post_Office": "Jeli",
        "State": "Kelantan"
    },
    {
        "Postcode": "17600",
        "Location": "Kampung Batu (5 1/2 - 6 1/2)",
        "Post_Office": "Jeli",
        "State": "Kelantan"
    },
    {
        "Postcode": "17600",
        "Location": "Kampung Becah Pulai",
        "Post_Office": "Jeli",
        "State": "Kelantan"
    },
    {
        "Postcode": "17600",
        "Location": "Kampung Belahat",
        "Post_Office": "Jeli",
        "State": "Kelantan"
    },
    {
        "Postcode": "17600",
        "Location": "Kampung Belimbing",
        "Post_Office": "Jeli",
        "State": "Kelantan"
    },
    {
        "Postcode": "17600",
        "Location": "Kampung Berdang",
        "Post_Office": "Jeli",
        "State": "Kelantan"
    },
    {
        "Postcode": "17600",
        "Location": "Kampung Bukit Abu",
        "Post_Office": "Jeli",
        "State": "Kelantan"
    },
    {
        "Postcode": "17600",
        "Location": "Kampung Bukit Ipoh",
        "Post_Office": "Jeli",
        "State": "Kelantan"
    },
    {
        "Postcode": "17600",
        "Location": "Kampung Bukit Lakota",
        "Post_Office": "Jeli",
        "State": "Kelantan"
    },
    {
        "Postcode": "17600",
        "Location": "Kampung Bukit Lanjut",
        "Post_Office": "Jeli",
        "State": "Kelantan"
    },
    {
        "Postcode": "17600",
        "Location": "Kampung Bukit Melintang",
        "Post_Office": "Jeli",
        "State": "Kelantan"
    },
    {
        "Postcode": "17600",
        "Location": "Kampung Bukit Pak Mud",
        "Post_Office": "Jeli",
        "State": "Kelantan"
    },
    {
        "Postcode": "17600",
        "Location": "Kampung Bukit Pok Mud",
        "Post_Office": "Jeli",
        "State": "Kelantan"
    },
    {
        "Postcode": "17600",
        "Location": "Kampung Dendong (Seberang)",
        "Post_Office": "Jeli",
        "State": "Kelantan"
    },
    {
        "Postcode": "17600",
        "Location": "Kampung Desa Bakat",
        "Post_Office": "Jeli",
        "State": "Kelantan"
    },
    {
        "Postcode": "17600",
        "Location": "Kampung Desa Berkat",
        "Post_Office": "Jeli",
        "State": "Kelantan"
    },
    {
        "Postcode": "17600",
        "Location": "Kampung Gunong",
        "Post_Office": "Jeli",
        "State": "Kelantan"
    },
    {
        "Postcode": "17600",
        "Location": "Kampung Jalan Malaysia",
        "Post_Office": "Jeli",
        "State": "Kelantan"
    },
    {
        "Postcode": "17600",
        "Location": "Kampung Jeliar",
        "Post_Office": "Jeli",
        "State": "Kelantan"
    },
    {
        "Postcode": "17600",
        "Location": "Kampung Kalai",
        "Post_Office": "Jeli",
        "State": "Kelantan"
    },
    {
        "Postcode": "17600",
        "Location": "Kampung Kuala Long",
        "Post_Office": "Jeli",
        "State": "Kelantan"
    },
    {
        "Postcode": "17600",
        "Location": "Kampung Lalat",
        "Post_Office": "Jeli",
        "State": "Kelantan"
    },
    {
        "Postcode": "17600",
        "Location": "Kampung Lata Janggut",
        "Post_Office": "Jeli",
        "State": "Kelantan"
    },
    {
        "Postcode": "17600",
        "Location": "Kampung Lawar",
        "Post_Office": "Jeli",
        "State": "Kelantan"
    },
    {
        "Postcode": "17600",
        "Location": "Kampung Layat",
        "Post_Office": "Jeli",
        "State": "Kelantan"
    },
    {
        "Postcode": "17600",
        "Location": "Kampung Layat Luar",
        "Post_Office": "Jeli",
        "State": "Kelantan"
    },
    {
        "Postcode": "17600",
        "Location": "Kampung Pasir Dusun",
        "Post_Office": "Jeli",
        "State": "Kelantan"
    },
    {
        "Postcode": "17600",
        "Location": "Kampung Pendok",
        "Post_Office": "Jeli",
        "State": "Kelantan"
    },
    {
        "Postcode": "17600",
        "Location": "Kampung Reka",
        "Post_Office": "Jeli",
        "State": "Kelantan"
    },
    {
        "Postcode": "17600",
        "Location": "Kampung Robanna",
        "Post_Office": "Jeli",
        "State": "Kelantan"
    },
    {
        "Postcode": "17600",
        "Location": "Kampung Rosing",
        "Post_Office": "Jeli",
        "State": "Kelantan"
    },
    {
        "Postcode": "17600",
        "Location": "Kampung Seberang Jeli",
        "Post_Office": "Jeli",
        "State": "Kelantan"
    },
    {
        "Postcode": "17600",
        "Location": "Kampung Senolek",
        "Post_Office": "Jeli",
        "State": "Kelantan"
    },
    {
        "Postcode": "17600",
        "Location": "Kampung Sungai Long",
        "Post_Office": "Jeli",
        "State": "Kelantan"
    },
    {
        "Postcode": "17600",
        "Location": "Kampung Sungai Mekong",
        "Post_Office": "Jeli",
        "State": "Kelantan"
    },
    {
        "Postcode": "17600",
        "Location": "Kampung Sungai Rual",
        "Post_Office": "Jeli",
        "State": "Kelantan"
    },
    {
        "Postcode": "17600",
        "Location": "Kampung Sungai Sia",
        "Post_Office": "Jeli",
        "State": "Kelantan"
    },
    {
        "Postcode": "17600",
        "Location": "Kampung Sungai Sisa",
        "Post_Office": "Jeli",
        "State": "Kelantan"
    },
    {
        "Postcode": "17600",
        "Location": "Kampung Sungai Tumbi",
        "Post_Office": "Jeli",
        "State": "Kelantan"
    },
    {
        "Postcode": "17600",
        "Location": "Kampung Teluk Bayu",
        "Post_Office": "Jeli",
        "State": "Kelantan"
    },
    {
        "Postcode": "17600",
        "Location": "Kampung Temor",
        "Post_Office": "Jeli",
        "State": "Kelantan"
    },
    {
        "Postcode": "17600",
        "Location": "Kampung Timor",
        "Post_Office": "Jeli",
        "State": "Kelantan"
    },
    {
        "Postcode": "17600",
        "Location": "Kampung Tumbi Rapat",
        "Post_Office": "Jeli",
        "State": "Kelantan"
    },
    {
        "Postcode": "17600",
        "Location": "Kawasan Perindustrian Jeli",
        "Post_Office": "Jeli",
        "State": "Kelantan"
    },
    {
        "Postcode": "17600",
        "Location": "Kem 302",
        "Post_Office": "Jeli",
        "State": "Kelantan"
    },
    {
        "Postcode": "17600",
        "Location": "Kem Tnb Pergau",
        "Post_Office": "Jeli",
        "State": "Kelantan"
    },
    {
        "Postcode": "17600",
        "Location": "Lubok Balah",
        "Post_Office": "Jeli",
        "State": "Kelantan"
    },
    {
        "Postcode": "17600",
        "Location": "Lubok Bongor",
        "Post_Office": "Jeli",
        "State": "Kelantan"
    },
    {
        "Postcode": "17600",
        "Location": "Majlis Daerah Jeli",
        "Post_Office": "Jeli",
        "State": "Kelantan"
    },
    {
        "Postcode": "17600",
        "Location": "Maktab Rendah Sains Mara",
        "Post_Office": "Jeli",
        "State": "Kelantan"
    },
    {
        "Postcode": "17600",
        "Location": "Perumahan Tnb",
        "Post_Office": "Jeli",
        "State": "Kelantan"
    },
    {
        "Postcode": "17600",
        "Location": "Pusat Serenti Jeli",
        "Post_Office": "Jeli",
        "State": "Kelantan"
    },
    {
        "Postcode": "17600",
        "Location": "Sungai Rosing",
        "Post_Office": "Jeli",
        "State": "Kelantan"
    },
    {
        "Postcode": "17600",
        "Location": "Takdir Pasir Dusun",
        "Post_Office": "Jeli",
        "State": "Kelantan"
    },
    {
        "Postcode": "17600",
        "Location": "Taman Persiaran Indah",
        "Post_Office": "Jeli",
        "State": "Kelantan"
    },
    {
        "Postcode": "17600",
        "Location": "Jalan Pekeliling",
        "Post_Office": "Jeli",
        "State": "Kelantan"
    },
    {
        "Postcode": "17600",
        "Location": "Kampung Bechah Pulai",
        "Post_Office": "Jeli",
        "State": "Kelantan"
    },
    {
        "Postcode": "17600",
        "Location": "Kampung Salor",
        "Post_Office": "Jeli",
        "State": "Kelantan"
    },
    {
        "Postcode": "17600",
        "Location": "Kampung Bukit Belah",
        "Post_Office": "Jeli",
        "State": "Kelantan"
    },
    {
        "Postcode": "17600",
        "Location": "Kampung Kulim",
        "Post_Office": "Jeli",
        "State": "Kelantan"
    }
]
