[
    {
        "Postcode": "17610",
        "Location": "Bukit Berangan",
        "Post_Office": "Kuala Balah",
        "State": "Kelantan"
    },
    {
        "Postcode": "17610",
        "Location": "Bukit Jerung",
        "Post_Office": "Kuala Balah",
        "State": "Kelantan"
    },
    {
        "Postcode": "17610",
        "Location": "Bukit Seraya",
        "Post_Office": "Kuala Balah",
        "State": "Kelantan"
    },
    {
        "Postcode": "17610",
        "Location": "Dusun Nyior",
        "Post_Office": "Kuala Balah",
        "State": "Kelantan"
    },
    {
        "Postcode": "17610",
        "Location": "Kampung Bukit Berangan",
        "Post_Office": "Kuala Balah",
        "State": "Kelantan"
    },
    {
        "Postcode": "17610",
        "Location": "Kampung Bukit Jering",
        "Post_Office": "Kuala Balah",
        "State": "Kelantan"
    },
    {
        "Postcode": "17610",
        "Location": "Kampung Bukit Selar",
        "Post_Office": "Kuala Balah",
        "State": "Kelantan"
    },
    {
        "Postcode": "17610",
        "Location": "Kampung Jabir \u0026 Jebang",
        "Post_Office": "Kuala Balah",
        "State": "Kelantan"
    },
    {
        "Postcode": "17610",
        "Location": "Kampung Lubuk Bonggor",
        "Post_Office": "Kuala Balah",
        "State": "Kelantan"
    },
    {
        "Postcode": "17610",
        "Location": "Kampung Rantau Manis",
        "Post_Office": "Kuala Balah",
        "State": "Kelantan"
    },
    {
        "Postcode": "17610",
        "Location": "Kampung Renyit \u0026 Reka",
        "Post_Office": "Kuala Balah",
        "State": "Kelantan"
    },
    {
        "Postcode": "17610",
        "Location": "Kampung Sungai Terang",
        "Post_Office": "Kuala Balah",
        "State": "Kelantan"
    },
    {
        "Postcode": "17610",
        "Location": "Kampung Sungai Terang \u0026 Relak",
        "Post_Office": "Kuala Balah",
        "State": "Kelantan"
    },
    {
        "Postcode": "17610",
        "Location": "Klinik Bidan Bukit Jering",
        "Post_Office": "Kuala Balah",
        "State": "Kelantan"
    },
    {
        "Postcode": "17610",
        "Location": "Klinik Bidan Lubok Bonggor",
        "Post_Office": "Kuala Balah",
        "State": "Kelantan"
    },
    {
        "Postcode": "17610",
        "Location": "Loji  Air Sungai Terang",
        "Post_Office": "Kuala Balah",
        "State": "Kelantan"
    },
    {
        "Postcode": "17610",
        "Location": "Loji Mini Hydro Renyit",
        "Post_Office": "Kuala Balah",
        "State": "Kelantan"
    },
    {
        "Postcode": "17610",
        "Location": "Lorong Anggerik",
        "Post_Office": "Kuala Balah",
        "State": "Kelantan"
    },
    {
        "Postcode": "17610",
        "Location": "Lorong Balai Polis",
        "Post_Office": "Kuala Balah",
        "State": "Kelantan"
    },
    {
        "Postcode": "17610",
        "Location": "Lorong Bunga Raya",
        "Post_Office": "Kuala Balah",
        "State": "Kelantan"
    },
    {
        "Postcode": "17610",
        "Location": "Lorong P.P.M",
        "Post_Office": "Kuala Balah",
        "State": "Kelantan"
    },
    {
        "Postcode": "17610",
        "Location": "Lorong Tok Iman",
        "Post_Office": "Kuala Balah",
        "State": "Kelantan"
    },
    {
        "Postcode": "17610",
        "Location": "Lorong Tok Mudim",
        "Post_Office": "Kuala Balah",
        "State": "Kelantan"
    },
    {
        "Postcode": "17610",
        "Location": "Lubuk Bonggor",
        "Post_Office": "Kuala Balah",
        "State": "Kelantan"
    },
    {
        "Postcode": "17610",
        "Location": "Masjid Bukit Berangan",
        "Post_Office": "Kuala Balah",
        "State": "Kelantan"
    },
    {
        "Postcode": "17610",
        "Location": "Masjid Kedai Datu",
        "Post_Office": "Kuala Balah",
        "State": "Kelantan"
    },
    {
        "Postcode": "17610",
        "Location": "Masjid Kuala Balah",
        "Post_Office": "Kuala Balah",
        "State": "Kelantan"
    },
    {
        "Postcode": "17610",
        "Location": "Masjid Lubok Bonggor",
        "Post_Office": "Kuala Balah",
        "State": "Kelantan"
    },
    {
        "Postcode": "17610",
        "Location": "Pejabat Hutan ",
        "Post_Office": "Kuala Balah",
        "State": "Kelantan"
    },
    {
        "Postcode": "17610",
        "Location": "Pejabat Pertubuhan Peladang",
        "Post_Office": "Kuala Balah",
        "State": "Kelantan"
    },
    {
        "Postcode": "17610",
        "Location": "Pejabat Wakil Rakyat",
        "Post_Office": "Kuala Balah",
        "State": "Kelantan"
    },
    {
        "Postcode": "17610",
        "Location": "Peladang Lembah Pergau",
        "Post_Office": "Kuala Balah",
        "State": "Kelantan"
    },
    {
        "Postcode": "17610",
        "Location": "Penguat Kuasa Jpj Kuala Balah",
        "Post_Office": "Kuala Balah",
        "State": "Kelantan"
    },
    {
        "Postcode": "17610",
        "Location": "Pusat Aktiviti Kanak Kanak Cacat",
        "Post_Office": "Kuala Balah",
        "State": "Kelantan"
    },
    {
        "Postcode": "17610",
        "Location": "Pusat Kesihatan Kuala Balah",
        "Post_Office": "Kuala Balah",
        "State": "Kelantan"
    },
    {
        "Postcode": "17610",
        "Location": "Sekolah Kebangsaan Bukit Jering",
        "Post_Office": "Kuala Balah",
        "State": "Kelantan"
    },
    {
        "Postcode": "17610",
        "Location": "Sekolah Kebangsaan Datu",
        "Post_Office": "Kuala Balah",
        "State": "Kelantan"
    },
    {
        "Postcode": "17610",
        "Location": "Sekolah Kebangsaan Kuala Balah",
        "Post_Office": "Kuala Balah",
        "State": "Kelantan"
    },
    {
        "Postcode": "17610",
        "Location": "Tadika Kemas",
        "Post_Office": "Kuala Balah",
        "State": "Kelantan"
    },
    {
        "Postcode": "17610",
        "Location": "Teluk Bayu Belahat",
        "Post_Office": "Kuala Balah",
        "State": "Kelantan"
    },
    {
        "Postcode": "17610",
        "Location": "Kampung Kubur Datu",
        "Post_Office": "Kuala Balah",
        "State": "Kelantan"
    },
    {
        "Postcode": "17610",
        "Location": "Lorong Klinik",
        "Post_Office": "Kuala Balah",
        "State": "Kelantan"
    }
]
