[
    {
        "Postcode": "17700",
        "Location": "Affin Bank",
        "Post_Office": "Ayer Lanas",
        "State": "Kelantan"
    },
    {
        "Postcode": "17700",
        "Location": "Ayer Lanas",
        "Post_Office": "Ayer Lanas",
        "State": "Kelantan"
    },
    {
        "Postcode": "17700",
        "Location": "Bandar Bukit Bunga",
        "Post_Office": "Ayer Lanas",
        "State": "Kelantan"
    },
    {
        "Postcode": "17700",
        "Location": "Blok Bachok",
        "Post_Office": "Ayer Lanas",
        "State": "Kelantan"
    },
    {
        "Postcode": "17700",
        "Location": "Blok Kota Bharu",
        "Post_Office": "Ayer Lanas",
        "State": "Kelantan"
    },
    {
        "Postcode": "17700",
        "Location": "Blok Machang",
        "Post_Office": "Ayer Lanas",
        "State": "Kelantan"
    },
    {
        "Postcode": "17700",
        "Location": "Blok Pasir Mas",
        "Post_Office": "Ayer Lanas",
        "State": "Kelantan"
    },
    {
        "Postcode": "17700",
        "Location": "Blok Pasir Puteh",
        "Post_Office": "Ayer Lanas",
        "State": "Kelantan"
    },
    {
        "Postcode": "17700",
        "Location": "Blok Tanah Merah",
        "Post_Office": "Ayer Lanas",
        "State": "Kelantan"
    },
    {
        "Postcode": "17700",
        "Location": "Blok Tumpat",
        "Post_Office": "Ayer Lanas",
        "State": "Kelantan"
    },
    {
        "Postcode": "17700",
        "Location": "Blok Ulu Kelantan",
        "Post_Office": "Ayer Lanas",
        "State": "Kelantan"
    },
    {
        "Postcode": "17700",
        "Location": "Jalan Gemang",
        "Post_Office": "Ayer Lanas",
        "State": "Kelantan"
    },
    {
        "Postcode": "17700",
        "Location": "Kampung Air Canal",
        "Post_Office": "Ayer Lanas",
        "State": "Kelantan"
    },
    {
        "Postcode": "17700",
        "Location": "Kampung Air Kayan",
        "Post_Office": "Ayer Lanas",
        "State": "Kelantan"
    },
    {
        "Postcode": "17700",
        "Location": "Kampung Air Merbol",
        "Post_Office": "Ayer Lanas",
        "State": "Kelantan"
    },
    {
        "Postcode": "17700",
        "Location": "Kampung Air Ralek Jedok",
        "Post_Office": "Ayer Lanas",
        "State": "Kelantan"
    },
    {
        "Postcode": "17700",
        "Location": "Kampung Air Tilam",
        "Post_Office": "Ayer Lanas",
        "State": "Kelantan"
    },
    {
        "Postcode": "17700",
        "Location": "Kampung Ayer Kayan",
        "Post_Office": "Ayer Lanas",
        "State": "Kelantan"
    },
    {
        "Postcode": "17700",
        "Location": "Kampung Ayer Merbo Dalam",
        "Post_Office": "Ayer Lanas",
        "State": "Kelantan"
    },
    {
        "Postcode": "17700",
        "Location": "Kampung Ayer Merbo Jedok",
        "Post_Office": "Ayer Lanas",
        "State": "Kelantan"
    },
    {
        "Postcode": "17700",
        "Location": "Kampung Ayer Tilam Nibong",
        "Post_Office": "Ayer Lanas",
        "State": "Kelantan"
    },
    {
        "Postcode": "17700",
        "Location": "Kampung Banggol Yek",
        "Post_Office": "Ayer Lanas",
        "State": "Kelantan"
    },
    {
        "Postcode": "17700",
        "Location": "Kampung Baru Kolam Ikan Ayer Lanas",
        "Post_Office": "Ayer Lanas",
        "State": "Kelantan"
    },
    {
        "Postcode": "17700",
        "Location": "Kampung Batu Besar",
        "Post_Office": "Ayer Lanas",
        "State": "Kelantan"
    },
    {
        "Postcode": "17700",
        "Location": "Kampung Bendang Besar",
        "Post_Office": "Ayer Lanas",
        "State": "Kelantan"
    },
    {
        "Postcode": "17700",
        "Location": "Kampung Bukit Bunga",
        "Post_Office": "Ayer Lanas",
        "State": "Kelantan"
    },
    {
        "Postcode": "17700",
        "Location": "Kampung Bukit Nangka",
        "Post_Office": "Ayer Lanas",
        "State": "Kelantan"
    },
    {
        "Postcode": "17700",
        "Location": "Kampung Bukit Perawas",
        "Post_Office": "Ayer Lanas",
        "State": "Kelantan"
    },
    {
        "Postcode": "17700",
        "Location": "Kampung Buloh",
        "Post_Office": "Ayer Lanas",
        "State": "Kelantan"
    },
    {
        "Postcode": "17700",
        "Location": "Kampung Buyong",
        "Post_Office": "Ayer Lanas",
        "State": "Kelantan"
    },
    {
        "Postcode": "17700",
        "Location": "Kampung Chedok",
        "Post_Office": "Ayer Lanas",
        "State": "Kelantan"
    },
    {
        "Postcode": "17700",
        "Location": "Kampung Chedor Dalam",
        "Post_Office": "Ayer Lanas",
        "State": "Kelantan"
    },
    {
        "Postcode": "17700",
        "Location": "Kampung Gemang",
        "Post_Office": "Ayer Lanas",
        "State": "Kelantan"
    },
    {
        "Postcode": "17700",
        "Location": "Kampung Gual Jedok",
        "Post_Office": "Ayer Lanas",
        "State": "Kelantan"
    },
    {
        "Postcode": "17700",
        "Location": "Kampung Jakar",
        "Post_Office": "Ayer Lanas",
        "State": "Kelantan"
    },
    {
        "Postcode": "17700",
        "Location": "Kampung Jedok Tua",
        "Post_Office": "Ayer Lanas",
        "State": "Kelantan"
    },
    {
        "Postcode": "17700",
        "Location": "Kampung Jenup",
        "Post_Office": "Ayer Lanas",
        "State": "Kelantan"
    },
    {
        "Postcode": "17700",
        "Location": "Kampung Labu",
        "Post_Office": "Ayer Lanas",
        "State": "Kelantan"
    },
    {
        "Postcode": "17700",
        "Location": "Kampung Legeh",
        "Post_Office": "Ayer Lanas",
        "State": "Kelantan"
    },
    {
        "Postcode": "17700",
        "Location": "Kampung Lubok Dulang",
        "Post_Office": "Ayer Lanas",
        "State": "Kelantan"
    },
    {
        "Postcode": "17700",
        "Location": "Kampung Mak Jintan",
        "Post_Office": "Ayer Lanas",
        "State": "Kelantan"
    },
    {
        "Postcode": "17700",
        "Location": "Kampung Maskura Wakaf Semin",
        "Post_Office": "Ayer Lanas",
        "State": "Kelantan"
    },
    {
        "Postcode": "17700",
        "Location": "Kampung Rahmat",
        "Post_Office": "Ayer Lanas",
        "State": "Kelantan"
    },
    {
        "Postcode": "17700",
        "Location": "Kampung Rahmat Dalam",
        "Post_Office": "Ayer Lanas",
        "State": "Kelantan"
    },
    {
        "Postcode": "17700",
        "Location": "Kampung Rahmat Luar",
        "Post_Office": "Ayer Lanas",
        "State": "Kelantan"
    },
    {
        "Postcode": "17700",
        "Location": "Kampung Renab",
        "Post_Office": "Ayer Lanas",
        "State": "Kelantan"
    },
    {
        "Postcode": "17700",
        "Location": "Kampung Sungai Santan",
        "Post_Office": "Ayer Lanas",
        "State": "Kelantan"
    },
    {
        "Postcode": "17700",
        "Location": "Kampung Wakaf Semin",
        "Post_Office": "Ayer Lanas",
        "State": "Kelantan"
    },
    {
        "Postcode": "17700",
        "Location": "Kampung Wakaf Zink",
        "Post_Office": "Ayer Lanas",
        "State": "Kelantan"
    },
    {
        "Postcode": "17700",
        "Location": "Kerantin Tumbuhan",
        "Post_Office": "Ayer Lanas",
        "State": "Kelantan"
    },
    {
        "Postcode": "17700",
        "Location": "Kuala Balah",
        "Post_Office": "Ayer Lanas",
        "State": "Kelantan"
    },
    {
        "Postcode": "17700",
        "Location": "Mak Trak",
        "Post_Office": "Ayer Lanas",
        "State": "Kelantan"
    },
    {
        "Postcode": "17700",
        "Location": "Market Ayer Lanas",
        "Post_Office": "Ayer Lanas",
        "State": "Kelantan"
    },
    {
        "Postcode": "17700",
        "Location": "Mrsm Jeli",
        "Post_Office": "Ayer Lanas",
        "State": "Kelantan"
    },
    {
        "Postcode": "17700",
        "Location": "Pejabat Haiwan",
        "Post_Office": "Ayer Lanas",
        "State": "Kelantan"
    },
    {
        "Postcode": "17700",
        "Location": "Pejabat Imigresen",
        "Post_Office": "Ayer Lanas",
        "State": "Kelantan"
    },
    {
        "Postcode": "17700",
        "Location": "Pejabat Kastam",
        "Post_Office": "Ayer Lanas",
        "State": "Kelantan"
    },
    {
        "Postcode": "17700",
        "Location": "Pejabat Kesedar Air Canal",
        "Post_Office": "Ayer Lanas",
        "State": "Kelantan"
    },
    {
        "Postcode": "17700",
        "Location": "Pejabat Kesihatan",
        "Post_Office": "Ayer Lanas",
        "State": "Kelantan"
    },
    {
        "Postcode": "17700",
        "Location": "Pejabat Telekom Ayer Lanas",
        "Post_Office": "Ayer Lanas",
        "State": "Kelantan"
    },
    {
        "Postcode": "17700",
        "Location": "Pejabat Umno Bukit Nangka",
        "Post_Office": "Ayer Lanas",
        "State": "Kelantan"
    },
    {
        "Postcode": "17700",
        "Location": "Pejabat Upp",
        "Post_Office": "Ayer Lanas",
        "State": "Kelantan"
    },
    {
        "Postcode": "17700",
        "Location": "Pekan Ayer Lanas",
        "Post_Office": "Ayer Lanas",
        "State": "Kelantan"
    },
    {
        "Postcode": "17700",
        "Location": "Pengkalan Machang",
        "Post_Office": "Ayer Lanas",
        "State": "Kelantan"
    },
    {
        "Postcode": "17700",
        "Location": "Pusat Giat Mara Ayer Lanas (Jeli)",
        "Post_Office": "Ayer Lanas",
        "State": "Kelantan"
    },
    {
        "Postcode": "17700",
        "Location": "Rkt Ayer Chanal",
        "Post_Office": "Ayer Lanas",
        "State": "Kelantan"
    },
    {
        "Postcode": "17700",
        "Location": "Rkt Kampung Jakar",
        "Post_Office": "Ayer Lanas",
        "State": "Kelantan"
    },
    {
        "Postcode": "17700",
        "Location": "Rkt Sungai Satan",
        "Post_Office": "Ayer Lanas",
        "State": "Kelantan"
    },
    {
        "Postcode": "17700",
        "Location": "Rpk Kampung. Kolam Ikan",
        "Post_Office": "Ayer Lanas",
        "State": "Kelantan"
    },
    {
        "Postcode": "17700",
        "Location": "Sekolah Kebangsaan Air Chanal",
        "Post_Office": "Ayer Lanas",
        "State": "Kelantan"
    },
    {
        "Postcode": "17700",
        "Location": "Sekolah Kebangsaan Ayer Lanas",
        "Post_Office": "Ayer Lanas",
        "State": "Kelantan"
    },
    {
        "Postcode": "17700",
        "Location": "Sekolah Kebangsaan Ayer Legeh",
        "Post_Office": "Ayer Lanas",
        "State": "Kelantan"
    },
    {
        "Postcode": "17700",
        "Location": "Sekolah Kebangsaan Gemang",
        "Post_Office": "Ayer Lanas",
        "State": "Kelantan"
    },
    {
        "Postcode": "17700",
        "Location": "Sekolah Menengah Ayer Lanas",
        "Post_Office": "Ayer Lanas",
        "State": "Kelantan"
    },
    {
        "Postcode": "17700",
        "Location": "Kampung Bukit Batu",
        "Post_Office": "Ayer Lanas",
        "State": "Kelantan"
    },
    {
        "Postcode": "17700",
        "Location": "Kampung Gual Kubur",
        "Post_Office": "Ayer Lanas",
        "State": "Kelantan"
    },
    {
        "Postcode": "17700",
        "Location": "Kampung Nibong",
        "Post_Office": "Ayer Lanas",
        "State": "Kelantan"
    }
]
